{
  "ts_utc": "2026-07-22T23:26:18Z",
  "threshold_m": 150,
  "source": "stations_override.txt (ICAO list) + aviationweather.gov (METAR/TAF raw)",
  "station_count": 159,
  "stations": [
    {
      "icao": "BIKF",
      "alert": "OK",
      "vis_m": 3500,
      "fzfg": false,
      "metar_trigger": false,
      "taf_trigger": false,
      "metar": "METAR BIKF 222300Z 22013KT 3500 -DZ BR OVC003 10/10 Q1009",
      "taf": "TAF BIKF 222242Z 2300/2400 22013KT 6000 -RADZ BKN008 TX13/2318Z TN10/2300Z"
    },
    {
      "icao": "BKPR",
      "alert": "OK",
      "vis_m": null,
      "fzfg": false,
      "metar_trigger": false,
      "taf_trigger": false,
      "metar": "",
      "taf": ""
    },
    {
      "icao": "EBCI",
      "alert": "OK",
      "vis_m": 9999,
      "fzfg": false,
      "metar_trigger": false,
      "taf_trigger": false,
      "metar": "METAR EBCI 222250Z 34004KT 310V010 9999 SCT033 15/10 Q1023 NOSIG",
      "taf": "TAF EBCI 222303Z 2300/2406 31004KT 9999 SCT020 SCT035"
    },
    {
      "icao": "EDDB",
      "alert": "OK",
      "vis_m": 9999,
      "fzfg": false,
      "metar_trigger": false,
      "taf_trigger": false,
      "metar": "METAR EDDB 222320Z AUTO 30015KT 9999 -SHRA BKN021 BKN028 OVC036 FEW///TCU 15/12 Q1014 NOSIG",
      "taf": "TAF EDDB 222300Z 2300/2324 27012KT 9999 SCT045"
    },
    {
      "icao": "EDDH",
      "alert": "OK",
      "vis_m": 9999,
      "fzfg": false,
      "metar_trigger": false,
      "taf_trigger": false,
      "metar": "METAR EDDH 222320Z AUTO 29009KT 9999 FEW029 14/11 Q1016 NOSIG",
      "taf": "TAF EDDH 222300Z 2300/2406 29007KT 9999 BKN035"
    },
    {
      "icao": "EDDK",
      "alert": "OK",
      "vis_m": 9999,
      "fzfg": false,
      "metar_trigger": false,
      "taf_trigger": false,
      "metar": "METAR EDDK 222320Z AUTO 33006KT 9999 SCT026 BKN031 15/11 Q1021 NOSIG",
      "taf": "TAF EDDK 222300Z 2300/2406 32005KT 9999 SCT020 BKN030"
    },
    {
      "icao": "EDDN",
      "alert": "OK",
      "vis_m": 9999,
      "fzfg": false,
      "metar_trigger": false,
      "taf_trigger": false,
      "metar": "METAR EDDN 222320Z AUTO 29003KT CAVOK 13/10 Q1019",
      "taf": "TAF EDDN 222300Z 2300/2324 30004KT CAVOK"
    },
    {
      "icao": "EDDS",
      "alert": "OK",
      "vis_m": 9999,
      "fzfg": false,
      "metar_trigger": false,
      "taf_trigger": false,
      "metar": "METAR EDDS 222320Z AUTO 28004KT CAVOK 17/09 Q1020",
      "taf": "TAF EDDS 222300Z 2300/2324 32004KT CAVOK"
    },
    {
      "icao": "EDFH",
      "alert": "OK",
      "vis_m": 9999,
      "fzfg": false,
      "metar_trigger": false,
      "taf_trigger": false,
      "metar": "METAR EDFH 222250Z 33007KT 9999 FEW030 13/10 Q1022",
      "taf": "TAF EDFH 222300Z 2300/2324 32005KT 9999 SCT040"
    },
    {
      "icao": "EDJA",
      "alert": "OK",
      "vis_m": 9999,
      "fzfg": false,
      "metar_trigger": false,
      "taf_trigger": false,
      "metar": "METAR EDJA 222250Z AUTO 02006KT 9999 // BKN076/// 15/10 Q1021",
      "taf": "TAF EDJA 221700Z 2218/2303 VRB03KT CAVOK"
    },
    {
      "icao": "EDLW",
      "alert": "OK",
      "vis_m": 9999,
      "fzfg": false,
      "metar_trigger": false,
      "taf_trigger": false,
      "metar": "METAR EDLW 222250Z AUTO 29004KT 230V350 9999 // SCT020/// OVC044/// 15/11 Q1021",
      "taf": "TAF EDLW 221700Z 2218/2318 28010KT 9999 BKN035"
    },
    {
      "icao": "EDNY",
      "alert": "OK",
      "vis_m": 9999,
      "fzfg": false,
      "metar_trigger": false,
      "taf_trigger": false,
      "metar": "METAR EDNY 222250Z AUTO 05003KT 360V070 9999 // SCT098/// BKN250/// 17/09 Q1020",
      "taf": "TAF EDNY 221700Z 2218/2303 20005KT CAVOK"
    },
    {
      "icao": "EDSB",
      "alert": "OK",
      "vis_m": 9999,
      "fzfg": false,
      "metar_trigger": false,
      "taf_trigger": false,
      "metar": "METAR EDSB 222250Z AUTO 32002KT CAVOK 17/11 Q1020",
      "taf": "TAF EDSB 222300Z 2300/2324 01005KT CAVOK"
    },
    {
      "icao": "EETN",
      "alert": "OK",
      "vis_m": 9999,
      "fzfg": false,
      "metar_trigger": false,
      "taf_trigger": false,
      "metar": "METAR EETN 222320Z 26005KT CAVOK 14/12 Q1007",
      "taf": "TAF EETN 221730Z 2218/2318 26007KT 9999 SCT035"
    },
    {
      "icao": "EFTU",
      "alert": "OK",
      "vis_m": 9999,
      "fzfg": false,
      "metar_trigger": false,
      "taf_trigger": false,
      "metar": "METAR EFTU 222320Z AUTO 27004KT CAVOK 12/11 Q1007",
      "taf": "TAF EFTU 222033Z 2221/2321 29004KT CAVOK"
    },
    {
      "icao": "EGBB",
      "alert": "OK",
      "vis_m": 9999,
      "fzfg": false,
      "metar_trigger": false,
      "taf_trigger": false,
      "metar": "METAR EGBB 222320Z 35005KT CAVOK 17/13 Q1025",
      "taf": "TAF EGBB 222255Z 2300/2324 28005KT 9999 FEW040"
    },
    {
      "icao": "EGGP",
      "alert": "OK",
      "vis_m": 9999,
      "fzfg": false,
      "metar_trigger": false,
      "taf_trigger": false,
      "metar": "METAR EGGP 222320Z 28007KT CAVOK 16/14 Q1025",
      "taf": "TAF EGGP 222255Z 2300/2324 30007KT 9999 FEW014 SCT025"
    },
    {
      "icao": "EGGW",
      "alert": "OK",
      "vis_m": 9999,
      "fzfg": false,
      "metar_trigger": false,
      "taf_trigger": false,
      "metar": "METAR EGGW 222320Z AUTO 16004KT 9999 NCD 15/12 Q1024",
      "taf": "TAF EGGW 222259Z 2300/2324 VRB04KT 9999 FEW045"
    },
    {
      "icao": "EGKK",
      "alert": "OK",
      "vis_m": 9999,
      "fzfg": false,
      "metar_trigger": false,
      "taf_trigger": false,
      "metar": "METAR EGKK 222320Z 07006KT CAVOK 16/13 Q1024",
      "taf": "TAF EGKK 222256Z 2300/2406 VRB02KT 9999 FEW045"
    },
    {
      "icao": "EGNM",
      "alert": "OK",
      "vis_m": 9999,
      "fzfg": false,
      "metar_trigger": false,
      "taf_trigger": false,
      "metar": "METAR EGNM 222320Z 27006KT 9999 SCT048 17/13 Q1024",
      "taf": "TAF EGNM 222256Z 2300/2324 30007KT 9999 FEW045"
    },
    {
      "icao": "EGPD",
      "alert": "OK",
      "vis_m": 4600,
      "fzfg": false,
      "metar_trigger": false,
      "taf_trigger": false,
      "metar": "METAR EGPD 222320Z AUTO 36002KT 4600 -DZ BKN006 OVC023 14/14 Q1024 REDZ",
      "taf": "TAF EGPD 222254Z 2300/2324 VRB03KT 9999 SCT012 BKN020"
    },
    {
      "icao": "EGPF",
      "alert": "OK",
      "vis_m": 9999,
      "fzfg": false,
      "metar_trigger": false,
      "taf_trigger": false,
      "metar": "METAR EGPF 222320Z AUTO 29012KT 9999 NCD 16/14 Q1025",
      "taf": "TAF EGPF 222301Z 2300/2324 29008KT 9999 FEW030"
    },
    {
      "icao": "EHBK",
      "alert": "OK",
      "vis_m": 9999,
      "fzfg": false,
      "metar_trigger": false,
      "taf_trigger": false,
      "metar": "METAR EHBK 222255Z AUTO 33005KT 270V360 9999 OVC044 16/11 Q1022",
      "taf": "TAF EHBK 222315Z 2300/2406 30004KT 9999 BKN035"
    },
    {
      "icao": "EHEH",
      "alert": "OK",
      "vis_m": 9999,
      "fzfg": false,
      "metar_trigger": false,
      "taf_trigger": false,
      "metar": "METAR EHEH 222255Z AUTO 29003KT 230V350 9999 OVC040 16/11 Q1022 BLU",
      "taf": "TAF EHEH 221744Z 2218/2324 31008KT 9999 BKN030"
    },
    {
      "icao": "EKBI",
      "alert": "OK",
      "vis_m": 9999,
      "fzfg": false,
      "metar_trigger": false,
      "taf_trigger": false,
      "metar": "METAR EKBI 222320Z AUTO 30006KT 9999 NCD 11/10 Q1015",
      "taf": "TAF EKBI 222027Z 2221/2321 30012KT 9999 BKN015"
    },
    {
      "icao": "EKCH",
      "alert": "OK",
      "vis_m": 9999,
      "fzfg": false,
      "metar_trigger": false,
      "taf_trigger": false,
      "metar": "METAR EKCH 222320Z AUTO 33008KT 9999 NCD 16/12 Q1012 NOSIG",
      "taf": "TAF EKCH 222027Z 2221/2321 34012KT 9999 FEW020"
    },
    {
      "icao": "ENAL",
      "alert": "OK",
      "vis_m": 9999,
      "fzfg": false,
      "metar_trigger": false,
      "taf_trigger": false,
      "metar": "METAR ENAL 222220Z AUTO 04009KT 9999 OVC026/// 12/09 Q1019",
      "taf": "TAF ENAL 222000Z 2221/2306 03008KT 9999 SCT020"
    },
    {
      "icao": "ENBR",
      "alert": "OK",
      "vis_m": 9999,
      "fzfg": false,
      "metar_trigger": false,
      "taf_trigger": false,
      "metar": "METAR ENBR 222250Z 34004KT CAVOK 10/08 Q1017 RMK WIND 1200FT 34013KT",
      "taf": "TAF ENBR 221700Z 2218/2318 32012KT 9999 FEW035"
    },
    {
      "icao": "ENGM",
      "alert": "OK",
      "vis_m": 9999,
      "fzfg": false,
      "metar_trigger": false,
      "taf_trigger": false,
      "metar": "METAR ENGM 222250Z 01009KT 330V040 CAVOK 13/05 Q1016",
      "taf": "TAF ENGM 221700Z 2218/2318 01018KT CAVOK"
    },
    {
      "icao": "ENHD",
      "alert": "OK",
      "vis_m": 9999,
      "fzfg": false,
      "metar_trigger": false,
      "taf_trigger": false,
      "metar": "METAR ENHD 222250Z AUTO 34016KT 9999 OVC009/// 12/10 Q1017",
      "taf": "TAF ENHD 221400Z 2215/2222 33020KT 9999 SCT014"
    },
    {
      "icao": "ENTC",
      "alert": "OK",
      "vis_m": 9999,
      "fzfg": false,
      "metar_trigger": false,
      "taf_trigger": false,
      "metar": "METAR ENTC 222250Z 28007KT 9999 BKN040 09/04 Q1014 RMK WIND 2600FT 28006KT",
      "taf": ""
    },
    {
      "icao": "ENTO",
      "alert": "OK",
      "vis_m": 9999,
      "fzfg": false,
      "metar_trigger": false,
      "taf_trigger": false,
      "metar": "METAR ENTO 222250Z AUTO 36005KT 9999 NCD 14/05 Q1015",
      "taf": "TAF ENTO 221700Z 2218/2318 05008KT CAVOK"
    },
    {
      "icao": "ENVA",
      "alert": "OK",
      "vis_m": 9999,
      "fzfg": false,
      "metar_trigger": false,
      "taf_trigger": false,
      "metar": "METAR ENVA 222250Z 32008KT 9999 BKN040 11/06 Q1019 RMK WIND 670FT 33012KT",
      "taf": "TAF ENVA 221700Z 2218/2318 30012KT 9999 FEW012 BKN035"
    },
    {
      "icao": "ENZV",
      "alert": "OK",
      "vis_m": 9999,
      "fzfg": false,
      "metar_trigger": false,
      "taf_trigger": false,
      "metar": "METAR ENZV 222250Z 34010KT 9999 FEW010 11/10 Q1017",
      "taf": "TAF ENZV 221700Z 2218/2318 33018KT 9999 FEW020"
    },
    {
      "icao": "EPGD",
      "alert": "OK",
      "vis_m": 9999,
      "fzfg": false,
      "metar_trigger": false,
      "taf_trigger": false,
      "metar": "METAR EPGD 222300Z 22006KT 9999 BKN036 14/13 Q1009",
      "taf": "TAF EPGD 221730Z 2218/2318 26010KT 9999 SCT030"
    },
    {
      "icao": "EPKK",
      "alert": "OK",
      "vis_m": 9999,
      "fzfg": false,
      "metar_trigger": false,
      "taf_trigger": false,
      "metar": "METAR EPKK 222300Z 32003KT 280V360 9999 BKN068 16/10 Q1014",
      "taf": "TAF EPKK 222030Z 2221/2321 22005KT CAVOK"
    },
    {
      "icao": "EPKT",
      "alert": "OK",
      "vis_m": 9999,
      "fzfg": false,
      "metar_trigger": false,
      "taf_trigger": false,
      "metar": "METAR EPKT 222300Z VRB02KT 9999 FEW040TCU 14/11 Q1014",
      "taf": "TAF EPKT 221730Z 2218/2318 26004KT CAVOK"
    },
    {
      "icao": "EPLB",
      "alert": "OK",
      "vis_m": 9999,
      "fzfg": false,
      "metar_trigger": false,
      "taf_trigger": false,
      "metar": "METAR EPLB 222300Z 27004KT CAVOK 16/11 Q1013",
      "taf": "TAF EPLB 221730Z 2218/2318 25005KT CAVOK"
    },
    {
      "icao": "EPMO",
      "alert": "OK",
      "vis_m": 9999,
      "fzfg": false,
      "metar_trigger": false,
      "taf_trigger": false,
      "metar": "METAR EPMO 222300Z 23005KT CAVOK 15/12 Q1012",
      "taf": "TAF EPMO 221730Z 2218/2318 27010KT CAVOK"
    },
    {
      "icao": "EPPO",
      "alert": "OK",
      "vis_m": 9999,
      "fzfg": false,
      "metar_trigger": false,
      "taf_trigger": false,
      "metar": "METAR EPPO 222300Z 24006KT 200V260 CAVOK 15/12 Q1012",
      "taf": "TAF EPPO 221730Z 2218/2318 24008KT 9999 SCT035"
    },
    {
      "icao": "EPRA",
      "alert": "OK",
      "vis_m": 9999,
      "fzfg": false,
      "metar_trigger": false,
      "taf_trigger": false,
      "metar": "METAR EPRA 222300Z 27006KT CAVOK 16/11 Q1013",
      "taf": "TAF EPRA 222030Z 2221/2306 25006KT CAVOK"
    },
    {
      "icao": "EPRZ",
      "alert": "OK",
      "vis_m": 9999,
      "fzfg": false,
      "metar_trigger": false,
      "taf_trigger": false,
      "metar": "METAR EPRZ 222300Z 20002KT CAVOK 14/07 Q1014",
      "taf": "TAF EPRZ 221730Z 2218/2318 28006KT CAVOK"
    },
    {
      "icao": "EPSC",
      "alert": "OK",
      "vis_m": 9999,
      "fzfg": false,
      "metar_trigger": false,
      "taf_trigger": false,
      "metar": "METAR EPSC 222300Z 24007KT 200V270 9999 -SHRA FEW003 SCT006CB BKN007 15/15 Q1010",
      "taf": "TAF EPSC 221730Z 2218/2318 25010KT 9999 BKN025"
    },
    {
      "icao": "EPSY",
      "alert": "OK",
      "vis_m": 9999,
      "fzfg": false,
      "metar_trigger": false,
      "taf_trigger": false,
      "metar": "METAR EPSY 222300Z 22005KT CAVOK 15/11 Q1011",
      "taf": "TAF EPSY 222030Z 2221/2306 23005KT 9999 SCT040"
    },
    {
      "icao": "EPWA",
      "alert": "OK",
      "vis_m": 9999,
      "fzfg": false,
      "metar_trigger": false,
      "taf_trigger": false,
      "metar": "METAR EPWA 222300Z 25005KT CAVOK 16/11 Q1012 NOSIG",
      "taf": "TAF EPWA 222030Z 2221/2321 26010KT 9999 FEW045"
    },
    {
      "icao": "EPWR",
      "alert": "OK",
      "vis_m": 9999,
      "fzfg": false,
      "metar_trigger": false,
      "taf_trigger": false,
      "metar": "METAR EPWR 222300Z 23009KT CAVOK 16/10 Q1014",
      "taf": "TAF EPWR 222030Z 2221/2321 27009KT CAVOK"
    },
    {
      "icao": "ESGG",
      "alert": "OK",
      "vis_m": 9999,
      "fzfg": false,
      "metar_trigger": false,
      "taf_trigger": false,
      "metar": "METAR ESGG 222320Z 02003KT CAVOK 13/11 Q1013",
      "taf": "TAF ESGG 222030Z 2221/2321 02009KT 9999 SCT035"
    },
    {
      "icao": "ESKN",
      "alert": "OK",
      "vis_m": 9999,
      "fzfg": false,
      "metar_trigger": false,
      "taf_trigger": false,
      "metar": "METAR ESKN 222320Z 30003KT 270V330 CAVOK 12/12 Q1010",
      "taf": ""
    },
    {
      "icao": "ESMS",
      "alert": "OK",
      "vis_m": 9999,
      "fzfg": false,
      "metar_trigger": false,
      "taf_trigger": false,
      "metar": "METAR ESMS 222320Z 32008KT CAVOK 13/13 Q1010",
      "taf": "TAF ESMS 222027Z 2221/2321 33008KT 9999 FEW020"
    },
    {
      "icao": "ESSA",
      "alert": "OK",
      "vis_m": 9999,
      "fzfg": false,
      "metar_trigger": false,
      "taf_trigger": false,
      "metar": "METAR ESSA 222320Z 29003KT CAVOK 10/10 Q1010 NOSIG",
      "taf": "TAF ESSA 222030Z 2221/2321 32004KT 9999 SCT007 BKN035"
    },
    {
      "icao": "EYKA",
      "alert": "OK",
      "vis_m": 9999,
      "fzfg": false,
      "metar_trigger": false,
      "taf_trigger": false,
      "metar": "METAR EYKA 222320Z VRB01KT CAVOK 13/13 Q1010",
      "taf": "TAF EYKA 222304Z 2300/2324 VRB03KT 5000 BR SCT005"
    },
    {
      "icao": "EYPA",
      "alert": "OK",
      "vis_m": 9999,
      "fzfg": false,
      "metar_trigger": false,
      "taf_trigger": false,
      "metar": "METAR EYPA 222320Z AUTO 15003KT 9999 FEW021/// OVC040/// 14/14 Q1009",
      "taf": "TAF EYPA 222305Z 2300/2324 VRB03KT 8000 SCT010 BKN020"
    },
    {
      "icao": "EYVI",
      "alert": "OK",
      "vis_m": 9999,
      "fzfg": false,
      "metar_trigger": false,
      "taf_trigger": false,
      "metar": "METAR EYVI 222320Z 18001KT CAVOK 13/12 Q1010 NOSIG",
      "taf": "TAF EYVI 222304Z 2300/2324 VRB03KT 5000 BR SCT002"
    },
    {
      "icao": "GCFV",
      "alert": "OK",
      "vis_m": 9999,
      "fzfg": false,
      "metar_trigger": false,
      "taf_trigger": false,
      "metar": "METAR GCFV 222300Z AUTO 01015KT CAVOK 23/19 Q1019",
      "taf": "TAF GCFV 222000Z 2221/2321 35012KT 9999 SCT020 TX28/2314Z TN22/2306Z"
    },
    {
      "icao": "GCLP",
      "alert": "OK",
      "vis_m": 9999,
      "fzfg": false,
      "metar_trigger": false,
      "taf_trigger": false,
      "metar": "METAR GCLP 222300Z 36023G33KT 9999 FEW020 24/19 Q1018 NOSIG",
      "taf": "TAF GCLP 222000Z 2221/2321 02025KT 9999 FEW025 TX29/2314Z TN23/2306Z"
    },
    {
      "icao": "GCTS",
      "alert": "OK",
      "vis_m": 9999,
      "fzfg": false,
      "metar_trigger": false,
      "taf_trigger": false,
      "metar": "METAR GCTS 222300Z 07008KT 9999 FEW025 25/19 Q1019 NOSIG",
      "taf": ""
    },
    {
      "icao": "GMAD",
      "alert": "OK",
      "vis_m": 8000,
      "fzfg": false,
      "metar_trigger": false,
      "taf_trigger": false,
      "metar": "METAR GMAD 222300Z 28005KT 8000 NSC 22/18 Q1015 NOSIG",
      "taf": "TAF GMAD 222300Z 2300/2406 06008KT 8000 NSC"
    },
    {
      "icao": "GMMN",
      "alert": "OK",
      "vis_m": 9999,
      "fzfg": false,
      "metar_trigger": false,
      "taf_trigger": false,
      "metar": "METAR GMMN 222300Z 01006KT 340V050 9999 SCT010 23/20 Q1019 NOSIG",
      "taf": "TAF GMMN 222300Z 2300/2406 04006KT 9999 FEW010"
    },
    {
      "icao": "GMMX",
      "alert": "OK",
      "vis_m": 8000,
      "fzfg": false,
      "metar_trigger": false,
      "taf_trigger": false,
      "metar": "METAR GMMX 222300Z 27005KT 8000 NSC 30/18 Q1019 NOSIG",
      "taf": "TAF GMMX 221700Z 2218/2324 24005KT 8000 SCT030"
    },
    {
      "icao": "HEGN",
      "alert": "OK",
      "vis_m": 9999,
      "fzfg": false,
      "metar_trigger": false,
      "taf_trigger": false,
      "metar": "METAR HEGN 222300Z 28008KT CAVOK 31/03 Q1005 NOSIG",
      "taf": "TAF HEGN 222300Z 2300/2406 29006G18KT CAVOK"
    },
    {
      "icao": "HEMA",
      "alert": "OK",
      "vis_m": 9999,
      "fzfg": false,
      "metar_trigger": false,
      "taf_trigger": false,
      "metar": "METAR HEMA 222300Z 33005KT CAVOK 31/04 Q1004 NOSIG",
      "taf": "TAF HEMA 222300Z 2300/2406 28006G18KT CAVOK"
    },
    {
      "icao": "HESH",
      "alert": "OK",
      "vis_m": 9999,
      "fzfg": false,
      "metar_trigger": false,
      "taf_trigger": false,
      "metar": "METAR HESH 222300Z 32005KT CAVOK 34/09 Q1004 NOSIG",
      "taf": "TAF HESH 222300Z 2300/2406 32011KT CAVOK"
    },
    {
      "icao": "HESX",
      "alert": "OK",
      "vis_m": 9999,
      "fzfg": false,
      "metar_trigger": false,
      "taf_trigger": false,
      "metar": "METAR HESX 222300Z 31008KT CAVOK 25/21 Q1009 NOSIG",
      "taf": "TAF HESX 222300Z 2300/2406 32012KT CAVOK"
    },
    {
      "icao": "LATI",
      "alert": "OK",
      "vis_m": 9999,
      "fzfg": false,
      "metar_trigger": false,
      "taf_trigger": false,
      "metar": "METAR LATI 222320Z VRB01KT CAVOK 22/16 Q1013 NOSIG",
      "taf": "TAF LATI 222300Z 2300/2324 VRB03KT CAVOK TX33/2312Z TN19/2304Z"
    },
    {
      "icao": "LBPD",
      "alert": "OK",
      "vis_m": 9999,
      "fzfg": false,
      "metar_trigger": false,
      "taf_trigger": false,
      "metar": "METAR LBPD 222300Z AUTO 27014KT 9999 NCD 22/09 Q1014",
      "taf": "TAF LBPD 222300Z 2300/2324 29014KT 9999 SCT050"
    },
    {
      "icao": "LBSF",
      "alert": "OK",
      "vis_m": 9999,
      "fzfg": false,
      "metar_trigger": false,
      "taf_trigger": false,
      "metar": "METAR LBSF 222300Z AUTO 28008KT 9999 NCD 15/09 Q1017 NOSIG",
      "taf": "TAF LBSF 222300Z 2300/2324 29010KT 9999 SCT050"
    },
    {
      "icao": "LBWN",
      "alert": "OK",
      "vis_m": 9999,
      "fzfg": false,
      "metar_trigger": false,
      "taf_trigger": false,
      "metar": "METAR LBWN 222300Z AUTO 30016KT 9999 BKN016/// BKN028/// BKN032/// 18/15 Q1011 NOSIG",
      "taf": "TAF LBWN 222300Z 2300/2324 33016KT 9999 SCT010 BKN015"
    },
    {
      "icao": "LCLK",
      "alert": "OK",
      "vis_m": 8000,
      "fzfg": false,
      "metar_trigger": false,
      "taf_trigger": false,
      "metar": "METAR LCLK 222300Z 22005KT 8000 FEW007 26/25 Q1003 NOSIG",
      "taf": "TAF LCLK 221730Z 2218/2318 22012KT 9999 FEW025"
    },
    {
      "icao": "LCPH",
      "alert": "OK",
      "vis_m": 9999,
      "fzfg": false,
      "metar_trigger": false,
      "taf_trigger": false,
      "metar": "METAR LCPH 222300Z AUTO 01004KT 9999 NCD 27/13 Q1004 NOSIG",
      "taf": "TAF LCPH 221730Z 2218/2318 30012KT 9999 FEW020"
    },
    {
      "icao": "LEAL",
      "alert": "OK",
      "vis_m": 9999,
      "fzfg": false,
      "metar_trigger": false,
      "taf_trigger": false,
      "metar": "METAR LEAL 222300Z VRB02KT 9999 FEW010 BKN018 30/29 Q1016 NOSIG",
      "taf": "TAF LEAL 222300Z 2300/2324 VRB04KT 9999 SCT020 TX36/2313Z TN25/2305Z"
    },
    {
      "icao": "LEBB",
      "alert": "OK",
      "vis_m": 9999,
      "fzfg": false,
      "metar_trigger": false,
      "taf_trigger": false,
      "metar": "METAR LEBB 222300Z AUTO 09004KT CAVOK 20/17 Q1019",
      "taf": "TAF LEBB 222300Z 2300/2324 VRB03KT CAVOK TX31/2313Z TN18/2305Z"
    },
    {
      "icao": "LEBL",
      "alert": "OK",
      "vis_m": 9999,
      "fzfg": false,
      "metar_trigger": false,
      "taf_trigger": false,
      "metar": "METAR LEBL 222300Z 04004KT 310V070 CAVOK 27/21 Q1017 NOSIG",
      "taf": "TAF LEBL 222300Z 2300/2324 33007KT 9999 FEW020 TX31/2313Z TN24/2306Z"
    },
    {
      "icao": "LECH",
      "alert": "OK",
      "vis_m": 9999,
      "fzfg": false,
      "metar_trigger": false,
      "taf_trigger": false,
      "metar": "METAR LECH 222300Z AUTO VRB02KT CAVOK 25/21 Q1018",
      "taf": "TAF LECH 222300Z 2300/2324 VRB03KT 9999 FEW015 TX36/2314Z TN22/2305Z"
    },
    {
      "icao": "LEMD",
      "alert": "OK",
      "vis_m": 9999,
      "fzfg": false,
      "metar_trigger": false,
      "taf_trigger": false,
      "metar": "METAR LEMD 222300Z VRB01KT CAVOK 28/05 Q1018 NOSIG",
      "taf": "TAF LEMD 222300Z 2300/2406 VRB04KT CAVOK TX38/2316Z TN22/2305Z"
    },
    {
      "icao": "LEMG",
      "alert": "OK",
      "vis_m": 9999,
      "fzfg": false,
      "metar_trigger": false,
      "taf_trigger": false,
      "metar": "METAR LEMG 222300Z VRB01KT CAVOK 25/18 Q1017 NOSIG",
      "taf": "TAF LEMG 222300Z 2300/2324 29005KT CAVOK TX38/2314Z TN22/2305Z"
    },
    {
      "icao": "LEVC",
      "alert": "OK",
      "vis_m": 9999,
      "fzfg": false,
      "metar_trigger": false,
      "taf_trigger": false,
      "metar": "METAR LEVC 222300Z 25004KT CAVOK 27/24 Q1016 NOSIG",
      "taf": "TAF LEVC 222300Z 2300/2324 VRB03KT 9999 FEW020 TX37/2313Z TN24/2305Z"
    },
    {
      "icao": "LEXJ",
      "alert": "OK",
      "vis_m": 8000,
      "fzfg": false,
      "metar_trigger": false,
      "taf_trigger": false,
      "metar": "METAR LEXJ 222300Z AUTO VRB01KT 8000 NCD 20/17 Q1019",
      "taf": "TAF LEXJ 222000Z 2221/2321 VRB03KT CAVOK TX29/2312Z TN17/2305Z"
    },
    {
      "icao": "LEZG",
      "alert": "OK",
      "vis_m": 9999,
      "fzfg": false,
      "metar_trigger": false,
      "taf_trigger": false,
      "metar": "METAR LEZG 222300Z 07005KT CAVOK 29/17 Q1015 NOSIG",
      "taf": "TAF LEZG 222300Z 2300/2324 10009KT CAVOK TX42/2315Z TN24/2305Z"
    },
    {
      "icao": "LEZL",
      "alert": "OK",
      "vis_m": 9999,
      "fzfg": false,
      "metar_trigger": false,
      "taf_trigger": false,
      "metar": "METAR LEZL 222300Z 18005KT 160V230 CAVOK 27/14 Q1016 NOSIG",
      "taf": "TAF LEZL 222000Z 2221/2321 VRB02KT CAVOK TX40/2315Z TN23/2305Z"
    },
    {
      "icao": "LFBD",
      "alert": "OK",
      "vis_m": 9999,
      "fzfg": false,
      "metar_trigger": false,
      "taf_trigger": false,
      "metar": "METAR LFBD 222300Z AUTO 04007KT CAVOK 25/08 Q1018 NOSIG",
      "taf": "TAF LFBD 221700Z 2218/2324 04010KT CAVOK TX36/2315Z TN20/2306Z"
    },
    {
      "icao": "LFLL",
      "alert": "OK",
      "vis_m": 9999,
      "fzfg": false,
      "metar_trigger": false,
      "taf_trigger": false,
      "metar": "METAR LFLL 222300Z 33007KT CAVOK 20/08 Q1019 NOSIG",
      "taf": "TAF LFLL 222300Z 2300/2406 36005KT CAVOK"
    },
    {
      "icao": "LFLS",
      "alert": "OK",
      "vis_m": 9999,
      "fzfg": false,
      "metar_trigger": false,
      "taf_trigger": false,
      "metar": "METAR LFLS 222300Z AUTO 11005KT 080V140 CAVOK 16/07 Q1019",
      "taf": "TAF LFLS 221400Z 2215/2315 35008KT CAVOK"
    },
    {
      "icao": "LFMN",
      "alert": "OK",
      "vis_m": 9999,
      "fzfg": false,
      "metar_trigger": false,
      "taf_trigger": false,
      "metar": "METAR LFMN 222300Z 32008KT CAVOK 26/14 Q1014 NOSIG",
      "taf": "TAF LFMN 222000Z 2221/2403 25007KT CAVOK"
    },
    {
      "icao": "LFOB",
      "alert": "OK",
      "vis_m": 9999,
      "fzfg": false,
      "metar_trigger": false,
      "taf_trigger": false,
      "metar": "METAR LFOB 222300Z AUTO 02007KT CAVOK 15/11 Q1023 NOSIG",
      "taf": "TAF LFOB 222300Z 2300/2324 03008KT CAVOK"
    },
    {
      "icao": "LFPO",
      "alert": "OK",
      "vis_m": 9999,
      "fzfg": false,
      "metar_trigger": false,
      "taf_trigger": false,
      "metar": "METAR LFPO 222300Z AUTO 03006KT CAVOK 20/11 Q1023 NOSIG",
      "taf": "TAF LFPO 221700Z 2218/2324 02010KT CAVOK"
    },
    {
      "icao": "LFSB",
      "alert": "OK",
      "vis_m": 9999,
      "fzfg": false,
      "metar_trigger": false,
      "taf_trigger": false,
      "metar": "METAR LFSB 222300Z AUTO 33008KT CAVOK 19/11 Q1020 NOSIG",
      "taf": "TAF LFSB 222300Z 2300/2324 35008KT CAVOK"
    },
    {
      "icao": "LGAV",
      "alert": "OK",
      "vis_m": 9999,
      "fzfg": false,
      "metar_trigger": false,
      "taf_trigger": false,
      "metar": "METAR LGAV 222250Z 03010KT CAVOK 28/20 Q1009 NOSIG",
      "taf": "TAF LGAV 222300Z 2300/2324 03012KT 9999 FEW025"
    },
    {
      "icao": "LGTS",
      "alert": "OK",
      "vis_m": 9999,
      "fzfg": false,
      "metar_trigger": false,
      "taf_trigger": false,
      "metar": "METAR LGTS 222250Z 36014KT CAVOK 26/12 Q1012 NOSIG",
      "taf": "TAF LGTS 222300Z 2300/2324 34015KT 9999 FEW030"
    },
    {
      "icao": "LHBP",
      "alert": "OK",
      "vis_m": 9999,
      "fzfg": false,
      "metar_trigger": false,
      "taf_trigger": false,
      "metar": "METAR LHBP 222300Z VRB02KT CAVOK 14/04 Q1016 NOSIG",
      "taf": "TAF LHBP 222315Z 2300/2324 VRB03KT CAVOK"
    },
    {
      "icao": "LHDC",
      "alert": "OK",
      "vis_m": 9999,
      "fzfg": false,
      "metar_trigger": false,
      "taf_trigger": false,
      "metar": "METAR LHDC 222245Z AUTO 05003KT CAVOK 18/06 Q1015 NOSIG",
      "taf": "TAF LHDC 222315Z 2300/2309 VRB03KT CAVOK"
    },
    {
      "icao": "LIBD",
      "alert": "OK",
      "vis_m": 9999,
      "fzfg": false,
      "metar_trigger": false,
      "taf_trigger": false,
      "metar": "METAR LIBD 222250Z 32008KT 290V360 CAVOK 26/16 Q1015",
      "taf": "TAF LIBD 222300Z 2300/2324 28008KT 9999 FEW030"
    },
    {
      "icao": "LIBG",
      "alert": "OK",
      "vis_m": 9999,
      "fzfg": false,
      "metar_trigger": false,
      "taf_trigger": false,
      "metar": "METAR LIBG 222250Z AUTO 32004KT 280V360 9999 BKN072/// BKN100/// 25/17 Q1014",
      "taf": "TAF LIBG 222300Z 2300/2324 VRB05KT 9999 FEW040"
    },
    {
      "icao": "LIBP",
      "alert": "OK",
      "vis_m": 9999,
      "fzfg": false,
      "metar_trigger": false,
      "taf_trigger": false,
      "metar": "METAR LIBP 222250Z AUTO 23003KT 9999 NCD 20/17 Q1017",
      "taf": "TAF LIBP 222300Z 2300/2324 24005KT 9999 FEW050"
    },
    {
      "icao": "LIBR",
      "alert": "OK",
      "vis_m": 9999,
      "fzfg": false,
      "metar_trigger": false,
      "taf_trigger": false,
      "metar": "METAR LIBR 222250Z 34012KT CAVOK 27/17 Q1014",
      "taf": "TAF LIBR 222300Z 2300/2324 35013KT 9999 FEW040"
    },
    {
      "icao": "LICA",
      "alert": "OK",
      "vis_m": 9999,
      "fzfg": false,
      "metar_trigger": false,
      "taf_trigger": false,
      "metar": "METAR LICA 222250Z AUTO 03004KT 9999 FEW028/// 27/22 Q1014",
      "taf": "TAF LICA 222300Z 2300/2324 08010KT 9999 SCT020"
    },
    {
      "icao": "LICC",
      "alert": "OK",
      "vis_m": 9999,
      "fzfg": false,
      "metar_trigger": false,
      "taf_trigger": false,
      "metar": "METAR LICC 222250Z 08006KT 9999 SCT010 28/22 Q1014",
      "taf": "TAF LICC 222300Z 2300/2324 VRB05KT 9999 FEW020"
    },
    {
      "icao": "LICJ",
      "alert": "OK",
      "vis_m": 9999,
      "fzfg": false,
      "metar_trigger": false,
      "taf_trigger": false,
      "metar": "METAR LICJ 222250Z 23005KT CAVOK 28/27 Q1015",
      "taf": "TAF LICJ 222300Z 2300/2324 VRB05KT CAVOK"
    },
    {
      "icao": "LIMC",
      "alert": "OK",
      "vis_m": 9999,
      "fzfg": false,
      "metar_trigger": false,
      "taf_trigger": false,
      "metar": "METAR LIMC 222250Z 03004KT CAVOK 21/15 Q1016 NOSIG",
      "taf": "TAF LIMC 222300Z 2300/2406 VRB05KT CAVOK"
    },
    {
      "icao": "LIME",
      "alert": "OK",
      "vis_m": 9999,
      "fzfg": false,
      "metar_trigger": false,
      "taf_trigger": false,
      "metar": "METAR LIME 222250Z 01005KT CAVOK 22/15 Q1017 NOSIG",
      "taf": "TAF LIME 222300Z 2300/2324 VRB05KT 9999 FEW060"
    },
    {
      "icao": "LIMF",
      "alert": "OK",
      "vis_m": 9999,
      "fzfg": false,
      "metar_trigger": false,
      "taf_trigger": false,
      "metar": "METAR LIMF 222250Z 34005KT CAVOK 22/15 Q1016",
      "taf": "TAF LIMF 222300Z 2300/2324 VRB05KT CAVOK"
    },
    {
      "icao": "LIMJ",
      "alert": "OK",
      "vis_m": 9999,
      "fzfg": false,
      "metar_trigger": false,
      "taf_trigger": false,
      "metar": "METAR LIMJ 222250Z 04009KT CAVOK 27/13 Q1014",
      "taf": "TAF LIMJ 222300Z 2300/2324 04007KT CAVOK"
    },
    {
      "icao": "LIPE",
      "alert": "OK",
      "vis_m": 9999,
      "fzfg": false,
      "metar_trigger": false,
      "taf_trigger": false,
      "metar": "METAR LIPE 222250Z 10003KT CAVOK 20/13 Q1015",
      "taf": "TAF LIPE 222300Z 2300/2324 VRB05KT 9999 FEW040"
    },
    {
      "icao": "LIPH",
      "alert": "OK",
      "vis_m": 9999,
      "fzfg": false,
      "metar_trigger": false,
      "taf_trigger": false,
      "metar": "METAR LIPH 222250Z AUTO VRB01KT 9999 NCD 20/14 Q1016",
      "taf": "TAF LIPH 222300Z 2300/2324 VRB05KT 9999 FEW040"
    },
    {
      "icao": "LIPQ",
      "alert": "OK",
      "vis_m": 9999,
      "fzfg": false,
      "metar_trigger": false,
      "taf_trigger": false,
      "metar": "METAR LIPQ 222250Z AUTO 11002KT 9999 NCD 17/14 Q1016",
      "taf": "TAF LIPQ 222300Z 2300/2324 03005KT 9999 FEW040"
    },
    {
      "icao": "LIPR",
      "alert": "OK",
      "vis_m": 9999,
      "fzfg": false,
      "metar_trigger": false,
      "taf_trigger": false,
      "metar": "METAR LIPR 222250Z AUTO 21002KT 9999 NCD 19/16 Q1016",
      "taf": "TAF LIPR 222300Z 2300/2324 21005KT 9999 SCT040"
    },
    {
      "icao": "LIPX",
      "alert": "OK",
      "vis_m": 9999,
      "fzfg": false,
      "metar_trigger": false,
      "taf_trigger": false,
      "metar": "METAR LIPX 222250Z AUTO 05005KT 9999 NCD 21/14 Q1016",
      "taf": "TAF LIPX 222300Z 2300/2324 VRB05KT CAVOK"
    },
    {
      "icao": "LIPY",
      "alert": "OK",
      "vis_m": 9999,
      "fzfg": false,
      "metar_trigger": false,
      "taf_trigger": false,
      "metar": "METAR LIPY 222250Z AUTO 18004KT 9999 NCD 19/15 Q1016",
      "taf": "TAF LIPY 222300Z 2300/2324 19005KT 9999 FEW040"
    },
    {
      "icao": "LIPZ",
      "alert": "OK",
      "vis_m": 9999,
      "fzfg": false,
      "metar_trigger": false,
      "taf_trigger": false,
      "metar": "METAR LIPZ 222250Z 31004KT 220V320 CAVOK 21/13 Q1016 NOSIG",
      "taf": "TAF LIPZ 222300Z 2300/2406 VRB05KT 9999 FEW040"
    },
    {
      "icao": "LIRF",
      "alert": "OK",
      "vis_m": 9999,
      "fzfg": false,
      "metar_trigger": false,
      "taf_trigger": false,
      "metar": "METAR LIRF 222250Z VRB02KT CAVOK 24/19 Q1013 NOSIG",
      "taf": "TAF LIRF 222300Z 2300/2406 05006KT 9999 FEW030"
    },
    {
      "icao": "LIRN",
      "alert": "OK",
      "vis_m": 9999,
      "fzfg": false,
      "metar_trigger": false,
      "taf_trigger": false,
      "metar": "METAR LIRN 222250Z 03005KT CAVOK 28/14 Q1014 NOSIG",
      "taf": "TAF LIRN 222300Z 2300/2324 04006KT 9999 FEW030"
    },
    {
      "icao": "LIRP",
      "alert": "OK",
      "vis_m": 9999,
      "fzfg": false,
      "metar_trigger": false,
      "taf_trigger": false,
      "metar": "METAR LIRP 222245Z VRB02KT CAVOK 22/17 Q1015 NOSIG",
      "taf": "TAF LIRP 222300Z 2300/2324 12005KT CAVOK"
    },
    {
      "icao": "LIRZ",
      "alert": "OK",
      "vis_m": 9999,
      "fzfg": false,
      "metar_trigger": false,
      "taf_trigger": false,
      "metar": "METAR LIRZ 222250Z AUTO 36007KT 9999 NCD 21/12 Q1016",
      "taf": "TAF LIRZ 222300Z 2300/2324 VRB05KT 9999 SCT040"
    },
    {
      "icao": "LJLJ",
      "alert": "OK",
      "vis_m": 9999,
      "fzfg": false,
      "metar_trigger": false,
      "taf_trigger": false,
      "metar": "METAR LJLJ 222300Z 00000KT 9999 FEW090 SCT240 13/10 Q1018 NOSIG",
      "taf": "TAF LJLJ 222300Z 2300/2400 12006KT 9999 FEW090"
    },
    {
      "icao": "LKMT",
      "alert": "OK",
      "vis_m": 9999,
      "fzfg": false,
      "metar_trigger": false,
      "taf_trigger": false,
      "metar": "METAR LKMT 222300Z 33007KT 9999 -RA NSC 18/09 Q1015 NOSIG",
      "taf": "TAF LKMT 222300Z 2300/2324 23005KT CAVOK"
    },
    {
      "icao": "LKPR",
      "alert": "OK",
      "vis_m": 9999,
      "fzfg": false,
      "metar_trigger": false,
      "taf_trigger": false,
      "metar": "METAR LKPR 222300Z 22006KT CAVOK 12/08 Q1017 NOSIG",
      "taf": "TAF LKPR 222300Z 2300/2406 29008KT CAVOK"
    },
    {
      "icao": "LLBG",
      "alert": "OK",
      "vis_m": 9999,
      "fzfg": false,
      "metar_trigger": false,
      "taf_trigger": false,
      "metar": "METAR LLBG 222320Z 15005KT 9999 SCT013 27/24 Q1006 TEMPO BKN013",
      "taf": "TAF LLBG 222310Z 2300/2324 17006KT 9999 SCT017 TX34/2311Z TN25/2303Z"
    },
    {
      "icao": "LMML",
      "alert": "OK",
      "vis_m": 9999,
      "fzfg": false,
      "metar_trigger": false,
      "taf_trigger": false,
      "metar": "METAR LMML 222315Z 01005KT 9999 FEW009 28/26 Q1014 NOSIG",
      "taf": "TAF LMML 222300Z 2300/2324 08006KT CAVOK"
    },
    {
      "icao": "LOWW",
      "alert": "OK",
      "vis_m": 9999,
      "fzfg": false,
      "metar_trigger": false,
      "taf_trigger": false,
      "metar": "METAR LOWW 222250Z 17004KT CAVOK 17/08 Q1016 NOSIG",
      "taf": "TAF LOWW 222315Z 2300/2406 24005KT 9999 FEW050 TX23/2313Z TN13/2403Z"
    },
    {
      "icao": "LPFR",
      "alert": "OK",
      "vis_m": 9999,
      "fzfg": false,
      "metar_trigger": false,
      "taf_trigger": false,
      "metar": "METAR LPFR 222300Z 32011KT CAVOK 25/14 Q1016",
      "taf": "TAF LPFR 222300Z 2300/2324 31010KT CAVOK"
    },
    {
      "icao": "LPMA",
      "alert": "OK",
      "vis_m": 9999,
      "fzfg": false,
      "metar_trigger": false,
      "taf_trigger": false,
      "metar": "METAR LPMA 222300Z 01010KT 340V040 9999 SCT016 22/17 Q1023",
      "taf": "TAF LPMA 222300Z 2300/2324 02012KT 9999 SCT015"
    },
    {
      "icao": "LPPR",
      "alert": "OK",
      "vis_m": 9999,
      "fzfg": false,
      "metar_trigger": false,
      "taf_trigger": false,
      "metar": "METAR LPPR 222300Z 00000KT 9999 FEW015 19/17 Q1019",
      "taf": "TAF LPPR 222300Z 2300/2324 VRB02KT 9999 SCT012"
    },
    {
      "icao": "LPPS",
      "alert": "OK",
      "vis_m": 9999,
      "fzfg": false,
      "metar_trigger": false,
      "taf_trigger": false,
      "metar": "METAR LPPS 222300Z 36009KT 9999 FEW015 22/17 Q1023",
      "taf": "TAF LPPS 222300Z 2300/2406 01012KT 9999 SCT015"
    },
    {
      "icao": "LPPT",
      "alert": "OK",
      "vis_m": 9999,
      "fzfg": false,
      "metar_trigger": false,
      "taf_trigger": false,
      "metar": "METAR LPPT 222300Z 30007KT 9999 FEW015 21/18 Q1019 NOSIG",
      "taf": "TAF LPPT 222300Z 2300/2406 30010KT 9999 FEW020"
    },
    {
      "icao": "LQBK",
      "alert": "OK",
      "vis_m": 9999,
      "fzfg": false,
      "metar_trigger": false,
      "taf_trigger": false,
      "metar": "METAR LQBK 222300Z VRB01KT CAVOK 13/09 Q1017 NOSIG",
      "taf": "TAF LQBK 222300Z 2300/2324 16005KT CAVOK TX27/2314Z TN11/2303Z"
    },
    {
      "icao": "LQSA",
      "alert": "OK",
      "vis_m": 9999,
      "fzfg": false,
      "metar_trigger": false,
      "taf_trigger": false,
      "metar": "METAR LQSA 222300Z VRB02KT CAVOK 13/11 Q1019",
      "taf": "TAF LQSA 222300Z 2300/2324 VRB02KT CAVOK TX25/2313Z TN10/2304Z"
    },
    {
      "icao": "LQTZ",
      "alert": "OK",
      "vis_m": 9999,
      "fzfg": false,
      "metar_trigger": false,
      "taf_trigger": false,
      "metar": "METAR LQTZ 222300Z 00000KT CAVOK 11/11 Q1018",
      "taf": "TAF LQTZ 222300Z 2300/2324 VRB02KT CAVOK TX26/2314Z TN08/2303Z"
    },
    {
      "icao": "LRBC",
      "alert": "OK",
      "vis_m": 9999,
      "fzfg": false,
      "metar_trigger": false,
      "taf_trigger": false,
      "metar": "METAR LRBC 222300Z 01004KT 340V040 9999 OVC049 16/14 Q1014",
      "taf": "TAF LRBC 222000Z 2221/2306 32006KT 9999 BKN045"
    },
    {
      "icao": "LRBS",
      "alert": "OK",
      "vis_m": 9999,
      "fzfg": false,
      "metar_trigger": false,
      "taf_trigger": false,
      "metar": "METAR LRBS 222300Z 23004KT 190V260 9999 FEW005 17/16 Q1014 NOSIG",
      "taf": "TAF LRBS 221700Z 2218/2318 VRB04KT 9999 BKN035"
    },
    {
      "icao": "LRBV",
      "alert": "OK",
      "vis_m": 9999,
      "fzfg": false,
      "metar_trigger": false,
      "taf_trigger": false,
      "metar": "METAR LRBV 222300Z AUTO VRB03KT 9999 OVC027/// 14/13 Q1016",
      "taf": "TAF LRBV 221700Z 2218/2303 28008KT 9999 BKN040"
    },
    {
      "icao": "LRCL",
      "alert": "OK",
      "vis_m": 9999,
      "fzfg": false,
      "metar_trigger": false,
      "taf_trigger": false,
      "metar": "METAR LRCL 222300Z 27004KT 240V360 CAVOK 12/10 Q1015",
      "taf": "TAF LRCL 222000Z 2221/2306 VRB04KT CAVOK"
    },
    {
      "icao": "LRCV",
      "alert": "OK",
      "vis_m": 9999,
      "fzfg": false,
      "metar_trigger": false,
      "taf_trigger": false,
      "metar": "METAR LRCV 222300Z 32004KT CAVOK 15/15 Q1014",
      "taf": "TAF LRCV 222000Z 2221/2306 VRB04KT CAVOK"
    },
    {
      "icao": "LRIA",
      "alert": "OK",
      "vis_m": 9999,
      "fzfg": false,
      "metar_trigger": false,
      "taf_trigger": false,
      "metar": "METAR LRIA 222300Z 22003KT 9999 -RA NSC 16/14 Q1014",
      "taf": "TAF LRIA 222000Z 2221/2306 VRB04KT CAVOK"
    },
    {
      "icao": "LROP",
      "alert": "OK",
      "vis_m": 9999,
      "fzfg": false,
      "metar_trigger": false,
      "taf_trigger": false,
      "metar": "METAR LROP 222300Z 26004KT 9999 SCT020 17/17 Q1014 NOSIG",
      "taf": "TAF LROP 221700Z 2218/2318 VRB04KT 9999 BKN035"
    },
    {
      "icao": "LRSB",
      "alert": "OK",
      "vis_m": 9999,
      "fzfg": false,
      "metar_trigger": false,
      "taf_trigger": false,
      "metar": "METAR LRSB 222300Z VRB02KT 9999 FEW085 14/13 Q1016",
      "taf": "TAF LRSB 221700Z 2218/2318 VRB04KT 9999 BKN060"
    },
    {
      "icao": "LRSM",
      "alert": "OK",
      "vis_m": 9999,
      "fzfg": false,
      "metar_trigger": false,
      "taf_trigger": false,
      "metar": "METAR LRSM 222300Z AUTO 20003KT 9999 NCD 12/06 Q1015",
      "taf": "TAF LRSM 221400Z 2215/2224 32010KT CAVOK"
    },
    {
      "icao": "LRSV",
      "alert": "OK",
      "vis_m": 9999,
      "fzfg": false,
      "metar_trigger": false,
      "taf_trigger": false,
      "metar": "METAR LRSV 222300Z 30007KT CAVOK 16/08 Q1015",
      "taf": "TAF LRSV 222000Z 2221/2306 29006KT CAVOK"
    },
    {
      "icao": "LRTM",
      "alert": "OK",
      "vis_m": 9999,
      "fzfg": false,
      "metar_trigger": false,
      "taf_trigger": false,
      "metar": "METAR LRTM 222300Z 00000KT CAVOK 14/13 Q1016",
      "taf": "TAF LRTM 222000Z 2221/2306 VRB04KT CAVOK"
    },
    {
      "icao": "LRTR",
      "alert": "OK",
      "vis_m": 9999,
      "fzfg": false,
      "metar_trigger": false,
      "taf_trigger": false,
      "metar": "METAR LRTR 222300Z 09005KT CAVOK 13/11 Q1015",
      "taf": "TAF LRTR 221700Z 2218/2318 VRB04KT CAVOK"
    },
    {
      "icao": "LTAC",
      "alert": "OK",
      "vis_m": 9999,
      "fzfg": false,
      "metar_trigger": false,
      "taf_trigger": false,
      "metar": "METAR LTAC 222250Z VRB02KT CAVOK 20/10 Q1013 NOSIG RMK RWY21C 29004KT 250V360 RWY03L VRB01KT RWY21R VRB02KT RWY03R 31004KT 270V020 RWY21L 30004KT 260V320",
      "taf": "TAF LTAC 222240Z 2300/2324 VRB02KT CAVOK"
    },
    {
      "icao": "LTFM",
      "alert": "OK",
      "vis_m": 9999,
      "fzfg": false,
      "metar_trigger": false,
      "taf_trigger": false,
      "metar": "METAR LTFM 222250Z 35015KT 9999 SCT022 BKN080 22/17 Q1011 NOSIG RMK RWY17L 34018KT RWY34L 34016KT RWY16R 34014KT RWY36 35016KT RWY18 35016KT",
      "taf": "TAF LTFM 222240Z 2300/2406 32016KT 9999 SCT025 BKN100"
    },
    {
      "icao": "LUKK",
      "alert": "OK",
      "vis_m": 9999,
      "fzfg": false,
      "metar_trigger": false,
      "taf_trigger": false,
      "metar": "METAR LUKK 222300Z 36006KT 9999 -RA NSC 16/15 Q1013 NOSIG",
      "taf": "TAF LUKK 222308Z 2300/2324 VRB05KT 9999 SCT045"
    },
    {
      "icao": "LWOH",
      "alert": "OK",
      "vis_m": null,
      "fzfg": false,
      "metar_trigger": false,
      "taf_trigger": false,
      "metar": "",
      "taf": "TAF LWOH 222010Z 2221/2321 33008KT CAVOK"
    },
    {
      "icao": "LWSK",
      "alert": "OK",
      "vis_m": 9999,
      "fzfg": false,
      "metar_trigger": false,
      "taf_trigger": false,
      "metar": "METAR LWSK 222320Z 14003KT 110V190 9999 FEW050 16/12 Q1017 NOSIG",
      "taf": "TAF LWSK 222010Z 2221/2321 03008KT 9999 FEW050 BKN070"
    },
    {
      "icao": "LYBE",
      "alert": "OK",
      "vis_m": 9999,
      "fzfg": false,
      "metar_trigger": false,
      "taf_trigger": false,
      "metar": "METAR LYBE 222300Z 25004KT CAVOK 16/10 Q1016 NOSIG",
      "taf": "TAF LYBE 222300Z 2300/2324 24005KT CAVOK TX28/2314Z TN13/2303Z"
    },
    {
      "icao": "LYNI",
      "alert": "OK",
      "vis_m": 9999,
      "fzfg": false,
      "metar_trigger": false,
      "taf_trigger": false,
      "metar": "METAR LYNI 222300Z 11003KT CAVOK 15/11 Q1017 NOSIG",
      "taf": "TAF LYNI 222300Z 2300/2324 09004KT CAVOK TX27/2314Z TN12/2303Z"
    },
    {
      "icao": "LYPG",
      "alert": "OK",
      "vis_m": 9999,
      "fzfg": false,
      "metar_trigger": false,
      "taf_trigger": false,
      "metar": "METAR LYPG 222300Z 35014KT CAVOK 24/09 Q1014 NOSIG",
      "taf": "TAF LYPG 222300Z 2300/2324 35012KT CAVOK TX32/2313Z TN22/2303Z"
    },
    {
      "icao": "LZIB",
      "alert": "OK",
      "vis_m": 9999,
      "fzfg": false,
      "metar_trigger": false,
      "taf_trigger": false,
      "metar": "METAR LZIB 222300Z VRB03KT CAVOK 20/07 Q1015 NOSIG",
      "taf": "TAF LZIB 222315Z 2300/2400 VRB02KT CAVOK"
    },
    {
      "icao": "LZKZ",
      "alert": "OK",
      "vis_m": 9999,
      "fzfg": false,
      "metar_trigger": false,
      "taf_trigger": false,
      "metar": "METAR LZKZ 222300Z VRB02KT CAVOK 14/08 Q1015 NOSIG",
      "taf": "TAF LZKZ 222315Z 2300/2400 VRB02KT CAVOK"
    },
    {
      "icao": "LZTT",
      "alert": "OK",
      "vis_m": 9999,
      "fzfg": false,
      "metar_trigger": false,
      "taf_trigger": false,
      "metar": "METAR LZTT 222300Z 29008KT 9999 FEW074 09/05 Q1017",
      "taf": "TAF LZTT 222315Z 2300/2400 VRB02KT 9999 FEW040"
    },
    {
      "icao": "OEJN",
      "alert": "OK",
      "vis_m": 9999,
      "fzfg": false,
      "metar_trigger": false,
      "taf_trigger": false,
      "metar": "METAR OEJN 222300Z VRB03KT CAVOK 34/14 Q1003 NOSIG",
      "taf": "TAF OEJN 222300Z 2300/2406 VRB03KT CAVOK"
    },
    {
      "icao": "OEMA",
      "alert": "OK",
      "vis_m": 9999,
      "fzfg": false,
      "metar_trigger": false,
      "taf_trigger": false,
      "metar": "METAR OEMA 222300Z 26004KT CAVOK 36/09 Q1008 NOSIG",
      "taf": "TAF OEMA 222300Z 2300/2406 24006KT CAVOK"
    },
    {
      "icao": "OJAI",
      "alert": "OK",
      "vis_m": 5000,
      "fzfg": false,
      "metar_trigger": false,
      "taf_trigger": false,
      "metar": "METAR OJAI 222300Z 27008KT 5000 HZ NSC 23/09 Q1010 NOSIG",
      "taf": "TAF OJAI 222300Z 2300/2406 29010KT 5000 HZ NSC"
    },
    {
      "icao": "OMAA",
      "alert": "OK",
      "vis_m": 9999,
      "fzfg": false,
      "metar_trigger": false,
      "taf_trigger": false,
      "metar": "METAR OMAA 222300Z 21004KT CAVOK 31/24 Q0995 NOSIG",
      "taf": "TAF OMAA 222300Z 2300/2406 19005KT 8000 NSC"
    },
    {
      "icao": "OMDB",
      "alert": "OK",
      "vis_m": 9999,
      "fzfg": false,
      "metar_trigger": false,
      "taf_trigger": false,
      "metar": "METAR OMDB 222300Z VRB07KT CAVOK 33/24 Q0994 NOSIG",
      "taf": "TAF OMDB 222300Z 2300/2406 17006KT 8000 NSC"
    },
    {
      "icao": "UAAA",
      "alert": "OK",
      "vis_m": 9999,
      "fzfg": false,
      "metar_trigger": false,
      "taf_trigger": false,
      "metar": "METAR UAAA 222300Z 22001MPS 9999 SCT050CB BKN100 20/15 Q1007 NOSIG",
      "taf": "TAF UAAA 222300Z 2300/2324 26005MPS 9999 SCT050CB BKN100 TX31/2309Z TN19/2300Z"
    },
    {
      "icao": "UBBB",
      "alert": "OK",
      "vis_m": 9999,
      "fzfg": false,
      "metar_trigger": false,
      "taf_trigger": false,
      "metar": "METAR UBBB 222300Z 00000KT CAVOK 23/17 Q1008 NOSIG",
      "taf": "TAF UBBB 222300Z 2300/2324 16005KT CAVOK TX33/2310Z TN22/2301Z"
    },
    {
      "icao": "UDSG",
      "alert": "OK",
      "vis_m": 9999,
      "fzfg": false,
      "metar_trigger": false,
      "taf_trigger": false,
      "metar": "METAR UDSG 222300Z 07016KT 9999 FEW049 19/12 Q1015 NOSIG",
      "taf": "TAF UDSG 222258Z 2300/2324 06006KT 9999 FEW050"
    },
    {
      "icao": "UDYZ",
      "alert": "OK",
      "vis_m": 9999,
      "fzfg": false,
      "metar_trigger": false,
      "taf_trigger": false,
      "metar": "METAR UDYZ 222300Z 04012KT 9999 NSC 26/13 Q1009 NOSIG",
      "taf": "TAF UDYZ 222300Z 2300/2324 14006KT 9999 FEW040"
    },
    {
      "icao": "UGKO",
      "alert": "OK",
      "vis_m": 9999,
      "fzfg": false,
      "metar_trigger": false,
      "taf_trigger": false,
      "metar": "METAR UGKO 222300Z VRB02KT 9999 SCT028 BKN043 23/20 Q1008 NOSIG",
      "taf": "TAF UGKO 222300Z 2300/2324 26007KT 9999 SCT023 BKN050 TX30/2311Z TN20/2302Z"
    }
  ]
}