{
  "ts_utc": "2026-01-19T07:38:35Z",
  "threshold_m": 150,
  "source": "stations_override.txt (ICAO list) + aviationweather.gov (METAR/TAF raw)",
  "station_count": 159,
  "stations": [
    {
      "icao": "BIKF",
      "alert": "OK",
      "vis_m": 9999,
      "fzfg": false,
      "metar_trigger": false,
      "taf_trigger": false,
      "metar": "METAR BIKF 190730Z 12008KT CAVOK 01/M00 Q0994",
      "taf": "TAF BIKF 190431Z 1906/2006 15008KT 9999 -SHRA SCT030 TX05/1918Z TN00/1907Z"
    },
    {
      "icao": "BKPR",
      "alert": "OK",
      "vis_m": 9999,
      "fzfg": false,
      "metar_trigger": false,
      "taf_trigger": false,
      "metar": "METAR BKPR 190730Z 36009KT CAVOK M06/M09 Q1031 NOSIG",
      "taf": "TAF BKPR 190530Z 1906/2006 02012KT 9999 SCT030"
    },
    {
      "icao": "EBCI",
      "alert": "OK",
      "vis_m": 5000,
      "fzfg": false,
      "metar_trigger": false,
      "taf_trigger": false,
      "metar": "METAR EBCI 190720Z 19004KT 5000 BR NSC 01/M00 Q1017 TEMPO 4000 BR",
      "taf": "TAF EBCI 190507Z 1906/2012 17004KT CAVOK"
    },
    {
      "icao": "EDDB",
      "alert": "OK",
      "vis_m": 9999,
      "fzfg": false,
      "metar_trigger": false,
      "taf_trigger": false,
      "metar": "METAR EDDB 190720Z AUTO 09011KT CAVOK M04/M06 Q1026 NOSIG",
      "taf": "TAF EDDB 190500Z 1906/2006 12010KT CAVOK"
    },
    {
      "icao": "EDDH",
      "alert": "OK",
      "vis_m": 9999,
      "fzfg": false,
      "metar_trigger": false,
      "taf_trigger": false,
      "metar": "METAR EDDH 190720Z AUTO 11010KT CAVOK M01/M05 Q1022 NOSIG",
      "taf": "TAF EDDH 190500Z 1906/2012 12009KT CAVOK"
    },
    {
      "icao": "EDDK",
      "alert": "OK",
      "vis_m": 9999,
      "fzfg": false,
      "metar_trigger": false,
      "taf_trigger": false,
      "metar": "METAR EDDK 190720Z AUTO 13009KT 080V160 9999 OVC011 01/M01 Q1019 NOSIG",
      "taf": "TAF EDDK 190500Z 1906/2012 12007KT 9999 BKN015"
    },
    {
      "icao": "EDDN",
      "alert": "OK",
      "vis_m": 9999,
      "fzfg": false,
      "metar_trigger": false,
      "taf_trigger": false,
      "metar": "METAR EDDN 190720Z AUTO 11007KT CAVOK M02/M06 Q1020 NOSIG",
      "taf": "TAF EDDN 190500Z 1906/2006 10008KT CAVOK"
    },
    {
      "icao": "EDDS",
      "alert": "OK",
      "vis_m": 1800,
      "fzfg": true,
      "metar_trigger": false,
      "taf_trigger": false,
      "metar": "METAR EDDS 190720Z AUTO VRB02KT 1800 1400 R25/1900N BR OVC001 M02/M03 Q1018 TEMPO 0900 FZFG",
      "taf": "TAF EDDS 190500Z 1906/2006 VRB02KT 3000 BR OVC002"
    },
    {
      "icao": "EDFH",
      "alert": "OK",
      "vis_m": 500,
      "fzfg": true,
      "metar_trigger": false,
      "taf_trigger": false,
      "metar": "METAR EDFH 190720Z 15004KT 120V180 0500 R21/0500N FZFG VV/// M01/M01 Q1017",
      "taf": "TAF EDFH 190500Z 1906/2006 14010KT 0800 FZFG OVC002"
    },
    {
      "icao": "EDJA",
      "alert": "OK",
      "vis_m": 9999,
      "fzfg": false,
      "metar_trigger": false,
      "taf_trigger": false,
      "metar": "METAR EDJA 190720Z VRB02KT CAVOK M04/M05 Q1018",
      "taf": "TAF EDJA 190500Z 1906/1915 05004KT 8000 SCT002"
    },
    {
      "icao": "EDLW",
      "alert": "OK",
      "vis_m": 9999,
      "fzfg": false,
      "metar_trigger": false,
      "taf_trigger": false,
      "metar": "METAR EDLW 190720Z 11005KT CAVOK M00/M03 Q1018",
      "taf": "TAF EDLW 190500Z 1906/2006 14004KT CAVOK"
    },
    {
      "icao": "EDNY",
      "alert": "OK",
      "vis_m": 4500,
      "fzfg": false,
      "metar_trigger": false,
      "taf_trigger": false,
      "metar": "METAR EDNY 190720Z 06003KT 030V090 4500 BR OVC004 M02/M03 Q1020",
      "taf": "TAF EDNY 190500Z 1906/1915 04003KT 5000 BR OVC002"
    },
    {
      "icao": "EDSB",
      "alert": "OK",
      "vis_m": 6000,
      "fzfg": false,
      "metar_trigger": false,
      "taf_trigger": false,
      "metar": "METAR EDSB 190720Z VRB01KT 6000 OVC007 01/M00 Q1020",
      "taf": "TAF EDSB 190500Z 1906/2006 VRB02KT 8000 OVC008"
    },
    {
      "icao": "EETN",
      "alert": "OK",
      "vis_m": 3300,
      "fzfg": false,
      "metar_trigger": false,
      "taf_trigger": false,
      "metar": "METAR EETN 190720Z 21007KT 3300 BR OVC003 M07/M07 Q1034 TEMPO 2000",
      "taf": "TAF EETN 190530Z 1906/2006 19006KT 8000 BKN005 OVC010"
    },
    {
      "icao": "EFTU",
      "alert": "OK",
      "vis_m": 1300,
      "fzfg": false,
      "metar_trigger": false,
      "taf_trigger": false,
      "metar": "METAR EFTU 190720Z AUTO 20005KT 1300 R26/1800D BCFG OVC001 M01/M01 Q1032",
      "taf": "TAF EFTU 190534Z 1906/2006 17005KT 2500 BR OVC001"
    },
    {
      "icao": "EGBB",
      "alert": "OK",
      "vis_m": 2200,
      "fzfg": false,
      "metar_trigger": false,
      "taf_trigger": false,
      "metar": "METAR EGBB 190720Z COR 15004KT 2200 -RADZ BR BKN004 07/07 Q1012",
      "taf": "TAF EGBB 190501Z 1906/2006 15005KT 3000 BR SCT003 BKN006"
    },
    {
      "icao": "EGGP",
      "alert": "OK",
      "vis_m": 5000,
      "fzfg": false,
      "metar_trigger": false,
      "taf_trigger": false,
      "metar": "METAR EGGP 190720Z 11003KT 5000 BR SCT005 BKN008 BKN012 05/05 Q1012",
      "taf": "TAF EGGP 190458Z 1906/2006 VRB03KT 9999 FEW008 BKN025"
    },
    {
      "icao": "EGGW",
      "alert": "OK",
      "vis_m": 2600,
      "fzfg": false,
      "metar_trigger": false,
      "taf_trigger": false,
      "metar": "METAR EGGW 190720Z AUTO 16006KT 2600 BR OVC002 06/06 Q1013",
      "taf": "TAF EGGW 190456Z 1906/2006 15007KT 6000 FEW005 SCT015"
    },
    {
      "icao": "EGKK",
      "alert": "OK",
      "vis_m": 9000,
      "fzfg": false,
      "metar_trigger": false,
      "taf_trigger": false,
      "metar": "METAR EGKK 190720Z 14004KT 110V170 9000 SCT005 SCT023 08/08 Q1014",
      "taf": "TAF EGKK 190454Z 1906/2012 09004KT 9999 FEW008 SCT045"
    },
    {
      "icao": "EGNM",
      "alert": "OK",
      "vis_m": 250,
      "fzfg": false,
      "metar_trigger": false,
      "taf_trigger": false,
      "metar": "METAR EGNM 190720Z 07003KT 0250 R32/0400N FG VV/// 06/06 Q1012",
      "taf": "TAF EGNM 190458Z 1906/2006 15004KT 0300 FG VV///"
    },
    {
      "icao": "EGPD",
      "alert": "OK",
      "vis_m": 7000,
      "fzfg": false,
      "metar_trigger": false,
      "taf_trigger": false,
      "metar": "METAR EGPD 190720Z AUTO VRB02KT 7000 FEW006 04/03 Q1012 TEMPO 4000 BR",
      "taf": "TAF EGPD 190456Z 1906/2006 14008KT 9999 SCT008"
    },
    {
      "icao": "EGPF",
      "alert": "OK",
      "vis_m": 7000,
      "fzfg": false,
      "metar_trigger": false,
      "taf_trigger": false,
      "metar": "METAR EGPF 190720Z AUTO 04006KT 7000 BKN042 04/03 Q1011",
      "taf": ""
    },
    {
      "icao": "EHBK",
      "alert": "OK",
      "vis_m": 9999,
      "fzfg": false,
      "metar_trigger": false,
      "taf_trigger": false,
      "metar": "METAR EHBK 190725Z AUTO 20003KT 9999 NSC M00/M01 Q1018 TEMPO 7000 MIFG",
      "taf": "TAF EHBK 190511Z 1906/2012 12006KT CAVOK"
    },
    {
      "icao": "EHEH",
      "alert": "OK",
      "vis_m": 5000,
      "fzfg": false,
      "metar_trigger": false,
      "taf_trigger": false,
      "metar": "SPECI EHEH 190733Z AUTO 15004KT 110V270 5000 BR OVC110 M01/M01 Q1018 WHT BECMG 6000 NSW RMK TREND REMOTE BY EHWX",
      "taf": "TAF EHEH 190556Z 1906/2012 13004KT 3500 BR NSC"
    },
    {
      "icao": "EKBI",
      "alert": "OK",
      "vis_m": 9999,
      "fzfg": false,
      "metar_trigger": false,
      "taf_trigger": false,
      "metar": "METAR EKBI 190720Z AUTO 11008KT 9999 NCD M01/M02 Q1022",
      "taf": "TAF EKBI 190527Z 1906/2006 12008KT 9999 FEW020"
    },
    {
      "icao": "EKCH",
      "alert": "OK",
      "vis_m": 9999,
      "fzfg": false,
      "metar_trigger": false,
      "taf_trigger": false,
      "metar": "METAR EKCH 190720Z AUTO 13014KT 9999 NCD 01/M01 Q1027 NOSIG",
      "taf": ""
    },
    {
      "icao": "ENAL",
      "alert": "OK",
      "vis_m": 9999,
      "fzfg": false,
      "metar_trigger": false,
      "taf_trigger": false,
      "metar": "METAR ENAL 190720Z 14004KT 110V170 9999 FEW015 SCT025 04/03 Q1020",
      "taf": "TAF ENAL 190500Z 1906/1915 VRB05KT 9999 -RA FEW008 SCT015"
    },
    {
      "icao": "ENBR",
      "alert": "OK",
      "vis_m": 9999,
      "fzfg": false,
      "metar_trigger": false,
      "taf_trigger": false,
      "metar": "METAR ENBR 190720Z 12003KT 9999 FEW009 03/02 Q1020 NOSIG RMK WIND 1200FT 15011KT",
      "taf": "TAF ENBR 190500Z 1906/2006 12005KT 9999 FEW030"
    },
    {
      "icao": "ENGM",
      "alert": "OK",
      "vis_m": 9999,
      "fzfg": false,
      "metar_trigger": false,
      "taf_trigger": false,
      "metar": "METAR ENGM 190720Z 11005KT 040V160 9999 VCSH FEW006 BKN024 M01/M02 Q1026 NOSIG",
      "taf": ""
    },
    {
      "icao": "ENHD",
      "alert": "OK",
      "vis_m": 9999,
      "fzfg": false,
      "metar_trigger": false,
      "taf_trigger": false,
      "metar": "METAR ENHD 190720Z 15006KT CAVOK 03/01 Q1020",
      "taf": "TAF ENHD 190500Z 1906/1915 14008KT 9999 FEW050"
    },
    {
      "icao": "ENTC",
      "alert": "OK",
      "vis_m": 9999,
      "fzfg": false,
      "metar_trigger": false,
      "taf_trigger": false,
      "metar": "METAR ENTC 190720Z 19007KT 9999 FEW030 02/00 Q1028 NOSIG RMK WIND 2600FT 17004KT",
      "taf": "TAF ENTC 190500Z 1906/2006 20006KT 9999 -SHRA FEW015 BKN025"
    },
    {
      "icao": "ENTO",
      "alert": "OK",
      "vis_m": 4500,
      "fzfg": false,
      "metar_trigger": false,
      "taf_trigger": false,
      "metar": "METAR ENTO 190720Z 13003KT 4500 BR FEW005 BKN007 BKN010 00/00 Q1026 TEMPO 8000 SCT008 BKN015",
      "taf": "TAF ENTO 190500Z 1906/2006 11003KT 6000 BKN007"
    },
    {
      "icao": "ENVA",
      "alert": "OK",
      "vis_m": 9999,
      "fzfg": false,
      "metar_trigger": false,
      "taf_trigger": false,
      "metar": "METAR ENVA 190720Z 06003KT 020V140 CAVOK 06/M01 Q1021 NOSIG RMK WIND 670FT 15012KT",
      "taf": "TAF ENVA 190500Z 1906/2006 10005KT CAVOK"
    },
    {
      "icao": "ENZV",
      "alert": "OK",
      "vis_m": 9999,
      "fzfg": false,
      "metar_trigger": false,
      "taf_trigger": false,
      "metar": "METAR ENZV 190720Z 18005KT CAVOK 03/M01 Q1021 NOSIG",
      "taf": "TAF ENZV 190500Z 1906/2006 16008KT 9999 FEW030"
    },
    {
      "icao": "EPGD",
      "alert": "OK",
      "vis_m": 8000,
      "fzfg": false,
      "metar_trigger": false,
      "taf_trigger": false,
      "metar": "METAR EPGD 190730Z 19005KT 8000 NSC M10/M11 Q1032",
      "taf": "TAF EPGD 190530Z 1906/2006 18007KT 8000 NSC"
    },
    {
      "icao": "EPKK",
      "alert": "OK",
      "vis_m": 5000,
      "fzfg": false,
      "metar_trigger": false,
      "taf_trigger": false,
      "metar": "METAR EPKK 190730Z 04003KT 350V050 5000 BR NSC M12/M14 Q1034",
      "taf": "TAF EPKK 190530Z 1906/2006 06004KT 5000 BR NSC"
    },
    {
      "icao": "EPKT",
      "alert": "OK",
      "vis_m": 4400,
      "fzfg": false,
      "metar_trigger": false,
      "taf_trigger": false,
      "metar": "METAR EPKT 190730Z 00000KT 4400 BR NSC M09/M11 Q1033",
      "taf": "TAF EPKT 190530Z 1906/2006 14006KT 5000 BR NSC"
    },
    {
      "icao": "EPLB",
      "alert": "OK",
      "vis_m": 6000,
      "fzfg": false,
      "metar_trigger": false,
      "taf_trigger": false,
      "metar": "METAR EPLB 190730Z 09004KT 6000 NSC M18/M19 Q1036",
      "taf": "TAF EPLB 190530Z 1906/2006 10007KT CAVOK"
    },
    {
      "icao": "EPMO",
      "alert": "OK",
      "vis_m": 4700,
      "fzfg": false,
      "metar_trigger": false,
      "taf_trigger": false,
      "metar": "METAR EPMO 190730Z 08004KT 4700 BR NSC M16/M17 Q1035",
      "taf": ""
    },
    {
      "icao": "EPPO",
      "alert": "OK",
      "vis_m": 9000,
      "fzfg": false,
      "metar_trigger": false,
      "taf_trigger": false,
      "metar": "METAR EPPO 190730Z 12011KT 9000 NSC M05/M09 Q1030",
      "taf": "TAF EPPO 190530Z 1906/2006 10010KT CAVOK"
    },
    {
      "icao": "EPRA",
      "alert": "OK",
      "vis_m": 9999,
      "fzfg": false,
      "metar_trigger": false,
      "taf_trigger": false,
      "metar": "METAR EPRA 190730Z 16005KT CAVOK M14/M16 Q1035",
      "taf": "TAF EPRA 190530Z 1906/1915 15008KT CAVOK"
    },
    {
      "icao": "EPRZ",
      "alert": "OK",
      "vis_m": 7000,
      "fzfg": false,
      "metar_trigger": false,
      "taf_trigger": false,
      "metar": "METAR EPRZ 190730Z 09006KT 7000 NSC M15/M17 Q1035",
      "taf": "TAF EPRZ 190530Z 1906/2006 08008KT CAVOK"
    },
    {
      "icao": "EPSC",
      "alert": "OK",
      "vis_m": 9999,
      "fzfg": false,
      "metar_trigger": false,
      "taf_trigger": false,
      "metar": "METAR EPSC 190730Z 12010KT CAVOK M04/M08 Q1028",
      "taf": "TAF EPSC 190530Z 1906/2006 14010KT CAVOK"
    },
    {
      "icao": "EPSY",
      "alert": "OK",
      "vis_m": 9999,
      "fzfg": false,
      "metar_trigger": false,
      "taf_trigger": false,
      "metar": "METAR EPSY 190730Z VRB03KT CAVOK M15/M17 Q1036",
      "taf": "TAF EPSY 190530Z 1906/1915 15006KT CAVOK"
    },
    {
      "icao": "EPWA",
      "alert": "OK",
      "vis_m": 9000,
      "fzfg": false,
      "metar_trigger": false,
      "taf_trigger": false,
      "metar": "METAR EPWA 190730Z 12008KT 9000 NSC M13/M15 Q1035 NOSIG",
      "taf": "TAF EPWA 190530Z 1906/2006 13007KT CAVOK"
    },
    {
      "icao": "EPWR",
      "alert": "OK",
      "vis_m": 8000,
      "fzfg": false,
      "metar_trigger": false,
      "taf_trigger": false,
      "metar": "METAR EPWR 190730Z 11008KT 8000 NSC M05/M07 Q1030",
      "taf": "TAF EPWR 190530Z 1906/2006 13010KT CAVOK"
    },
    {
      "icao": "ESGG",
      "alert": "OK",
      "vis_m": 9999,
      "fzfg": false,
      "metar_trigger": false,
      "taf_trigger": false,
      "metar": "METAR ESGG 190720Z 11007KT 9999 OVC005 M02/M03 Q1026",
      "taf": ""
    },
    {
      "icao": "ESKN",
      "alert": "OK",
      "vis_m": 7000,
      "fzfg": false,
      "metar_trigger": false,
      "taf_trigger": false,
      "metar": "METAR ESKN 190720Z 16011KT 7000 OVC004 M00/M00 Q1030",
      "taf": "TAF ESKN 190530Z 1906/2006 16008KT 9999 OVC005"
    },
    {
      "icao": "ESMS",
      "alert": "OK",
      "vis_m": 9000,
      "fzfg": false,
      "metar_trigger": false,
      "taf_trigger": false,
      "metar": "METAR ESMS 190720Z 12008KT 9000 NSC 00/M02 Q1026",
      "taf": ""
    },
    {
      "icao": "ESSA",
      "alert": "OK",
      "vis_m": 9999,
      "fzfg": false,
      "metar_trigger": false,
      "taf_trigger": false,
      "metar": "METAR ESSA 190720Z 17007KT 9999 BKN008 M00/M01 Q1030 TEMPO BKN010",
      "taf": "TAF ESSA 190530Z 1906/2006 16007KT 9999 OVC010"
    },
    {
      "icao": "EYKA",
      "alert": "OK",
      "vis_m": 9999,
      "fzfg": false,
      "metar_trigger": false,
      "taf_trigger": false,
      "metar": "METAR EYKA 190720Z 17004KT 140V210 CAVOK M15/M18 Q1038",
      "taf": "TAF EYKA 190500Z 1906/2006 VRB04KT 9000 NSC"
    },
    {
      "icao": "EYPA",
      "alert": "OK",
      "vis_m": 9999,
      "fzfg": false,
      "metar_trigger": false,
      "taf_trigger": false,
      "metar": "METAR EYPA 190720Z 16009KT CAVOK M10/M13 Q1035",
      "taf": "TAF EYPA 190500Z 1906/2006 16010KT 9000 NSC"
    },
    {
      "icao": "EYVI",
      "alert": "OK",
      "vis_m": 9000,
      "fzfg": false,
      "metar_trigger": false,
      "taf_trigger": false,
      "metar": "METAR EYVI 190720Z 17008KT 9000 NSC M17/M19 Q1038 NOSIG",
      "taf": "TAF EYVI 190500Z 1906/2006 18009KT 9000 NSC"
    },
    {
      "icao": "GCFV",
      "alert": "OK",
      "vis_m": 9999,
      "fzfg": false,
      "metar_trigger": false,
      "taf_trigger": false,
      "metar": "METAR GCFV 190730Z 35015KT 9999 FEW030 15/09 Q1020",
      "taf": "TAF GCFV 190200Z 1903/2003 36014KT 9999 BKN035 TX20/1914Z TN15/1906Z"
    },
    {
      "icao": "GCLP",
      "alert": "OK",
      "vis_m": 9999,
      "fzfg": false,
      "metar_trigger": false,
      "taf_trigger": false,
      "metar": "METAR GCLP 190730Z 36013KT 9999 BKN032 16/10 Q1020 NOSIG",
      "taf": "TAF GCLP 190200Z 1903/2003 01020KT 9999 SCT035 TX20/1914Z TN16/1906Z"
    },
    {
      "icao": "GCTS",
      "alert": "OK",
      "vis_m": 9999,
      "fzfg": false,
      "metar_trigger": false,
      "taf_trigger": false,
      "metar": "METAR GCTS 190730Z 06011KT 030V090 9999 BKN035 17/08 Q1021 NOSIG",
      "taf": "TAF GCTS 190200Z 1903/2003 03008KT 9999 BKN035 TX23/1914Z TN14/1906Z"
    },
    {
      "icao": "GMAD",
      "alert": "OK",
      "vis_m": 9999,
      "fzfg": false,
      "metar_trigger": false,
      "taf_trigger": false,
      "metar": "METAR GMAD 190730Z 25007KT CAVOK 09/04 Q1014 NOSIG",
      "taf": "TAF GMAD 190500Z 1906/2012 22006KT 8000 SCT020"
    },
    {
      "icao": "GMMN",
      "alert": "OK",
      "vis_m": 9999,
      "fzfg": false,
      "metar_trigger": false,
      "taf_trigger": false,
      "metar": "METAR GMMN 190730Z 15006KT 9999 BKN020TCU 06/05 Q1018 NOSIG",
      "taf": "TAF GMMN 190500Z 1906/2012 20006KT 5000 BKN020"
    },
    {
      "icao": "GMMX",
      "alert": "OK",
      "vis_m": 8000,
      "fzfg": false,
      "metar_trigger": false,
      "taf_trigger": false,
      "metar": "METAR GMMX 190730Z 26003KT 230V300 8000 SCT010 BKN020 06/06 Q1017 NOSIG",
      "taf": "TAF GMMX 190500Z 1906/2012 24006KT 8000 BKN023 SCT080"
    },
    {
      "icao": "HEGN",
      "alert": "OK",
      "vis_m": 9999,
      "fzfg": false,
      "metar_trigger": false,
      "taf_trigger": false,
      "metar": "METAR HEGN 190700Z 30016KT CAVOK 17/09 Q1019 MOSIG",
      "taf": "TAF HEGN 190500Z 1906/2012 31015KT CAVOK"
    },
    {
      "icao": "HEMA",
      "alert": "OK",
      "vis_m": 9999,
      "fzfg": false,
      "metar_trigger": false,
      "taf_trigger": false,
      "metar": "METAR HEMA 190700Z 32013KT 9999 FEW020C 19/08 Q1018 MOSIG",
      "taf": "TAF HEMA 190500Z 1906/2012 32015KT CAVOK"
    },
    {
      "icao": "HESH",
      "alert": "OK",
      "vis_m": 9999,
      "fzfg": false,
      "metar_trigger": false,
      "taf_trigger": false,
      "metar": "METAR HESH 190700Z 34008KT CAVOK 19/06 Q1018 MOSIG",
      "taf": "TAF HESH 190500Z 1906/2012 36010KT CAVOK"
    },
    {
      "icao": "HESX",
      "alert": "OK",
      "vis_m": 9999,
      "fzfg": false,
      "metar_trigger": false,
      "taf_trigger": false,
      "metar": "METAR HESX 190700Z 22002KT CAVOK 11/07 Q1021 MOSIG",
      "taf": "TAF HESX 190500Z 1906/2012 24005KT 6000 NSC"
    },
    {
      "icao": "LATI",
      "alert": "OK",
      "vis_m": 9999,
      "fzfg": false,
      "metar_trigger": false,
      "taf_trigger": false,
      "metar": "METAR LATI 190720Z 00000KT CAVOK 01/M03 Q1026 NOSIG",
      "taf": "TAF LATI 190500Z 1906/2006 VRB05KT CAVOK TX14/1913Z TNM05/2005Z"
    },
    {
      "icao": "LBPD",
      "alert": "OK",
      "vis_m": 9999,
      "fzfg": false,
      "metar_trigger": false,
      "taf_trigger": false,
      "metar": "METAR LBPD 190730Z AUTO 11005KT 9999 BKN033/// M03/M09 Q1036 NOSIG",
      "taf": "TAF LBPD 190500Z 1906/2006 VRB03KT 9999 SCT030 OVC045"
    },
    {
      "icao": "LBSF",
      "alert": "OK",
      "vis_m": 9999,
      "fzfg": false,
      "metar_trigger": false,
      "taf_trigger": false,
      "metar": "METAR LBSF 190730Z 00000KT 9999 FEW030 M06/M11 Q1034 NOSIG",
      "taf": "TAF LBSF 190500Z 1906/2006 VRB03KT 9999 BKN025"
    },
    {
      "icao": "LBWN",
      "alert": "OK",
      "vis_m": 9999,
      "fzfg": false,
      "metar_trigger": false,
      "taf_trigger": false,
      "metar": "METAR LBWN 190730Z 26008KT 230V290 9999 -SN BKN016 M05/M08 Q1036 NOSIG",
      "taf": "TAF LBWN 190500Z 1906/2006 28012KT 9999 BKN010 OVC040"
    },
    {
      "icao": "LCLK",
      "alert": "OK",
      "vis_m": 9999,
      "fzfg": false,
      "metar_trigger": false,
      "taf_trigger": false,
      "metar": "METAR LCLK 190730Z 01015KT 9999 FEW020 10/M01 Q1023 NOSIG",
      "taf": "TAF LCLK 190530Z 1906/2006 03013KT 9999 FEW025"
    },
    {
      "icao": "LCPH",
      "alert": "OK",
      "vis_m": 9999,
      "fzfg": false,
      "metar_trigger": false,
      "taf_trigger": false,
      "metar": "METAR LCPH 190730Z 08009KT 9999 FEW030 11/M01 Q1021 NOSIG",
      "taf": "TAF LCPH 190530Z 1906/2006 04009KT 9999 SCT025"
    },
    {
      "icao": "LEAL",
      "alert": "OK",
      "vis_m": 9999,
      "fzfg": false,
      "metar_trigger": false,
      "taf_trigger": false,
      "metar": "METAR LEAL 190730Z 30008KT 9999 FEW015 09/05 Q1012 NOSIG",
      "taf": "TAF LEAL 190500Z 1906/2006 30005KT 9999 FEW030 TX16/1913Z TN08/1906Z"
    },
    {
      "icao": "LEBB",
      "alert": "OK",
      "vis_m": 9999,
      "fzfg": false,
      "metar_trigger": false,
      "taf_trigger": false,
      "metar": "METAR LEBB 190730Z VRB02KT 9999 SCT028 BKN038 09/08 Q1018 NOSIG",
      "taf": "TAF LEBB 190500Z 1906/2006 10005KT 9999 FEW025 SCT040 TX13/1913Z TN02/2006Z"
    },
    {
      "icao": "LEBL",
      "alert": "OK",
      "vis_m": 9999,
      "fzfg": false,
      "metar_trigger": false,
      "taf_trigger": false,
      "metar": "METAR LEBL 190730Z 33007G18KT 240V360 9999 FEW015 10/09 Q1013 NOSIG",
      "taf": "TAF LEBL 190500Z 1906/2006 03009KT 9999 FEW010 TX14/1912Z TN09/1906Z"
    },
    {
      "icao": "LECH",
      "alert": "OK",
      "vis_m": 9000,
      "fzfg": false,
      "metar_trigger": false,
      "taf_trigger": false,
      "metar": "METAR LECH 190730Z AUTO 03006KT 360V060 9000 FEW048 08/05 Q1013",
      "taf": ""
    },
    {
      "icao": "LEMD",
      "alert": "OK",
      "vis_m": 9999,
      "fzfg": false,
      "metar_trigger": false,
      "taf_trigger": false,
      "metar": "METAR LEMD 190730Z 36003KT CAVOK M01/M02 Q1016 NOSIG",
      "taf": "TAF LEMD 190500Z 1906/2012 VRB02KT CAVOK TX10/1914Z TNM02/2006Z"
    },
    {
      "icao": "LEMG",
      "alert": "OK",
      "vis_m": 9999,
      "fzfg": false,
      "metar_trigger": false,
      "taf_trigger": false,
      "metar": "METAR LEMG 190730Z 28014KT CAVOK 07/02 Q1015 NOSIG",
      "taf": "TAF LEMG 190500Z 1906/2006 29012KT CAVOK TX13/1914Z TN04/1906Z"
    },
    {
      "icao": "LEVC",
      "alert": "OK",
      "vis_m": 9999,
      "fzfg": false,
      "metar_trigger": false,
      "taf_trigger": false,
      "metar": "METAR LEVC 190730Z 31009KT 9999 BKN040 09/05 Q1013 NOSIG",
      "taf": "TAF LEVC 190500Z 1906/2006 30007KT 9999 FEW020 TX16/1913Z TN05/1906Z"
    },
    {
      "icao": "LEXJ",
      "alert": "OK",
      "vis_m": 9999,
      "fzfg": false,
      "metar_trigger": false,
      "taf_trigger": false,
      "metar": "METAR LEXJ 190730Z 22008KT 9999 BKN045 OVC055 09/04 Q1018",
      "taf": "TAF LEXJ 190200Z 1903/2003 24009KT 9999 SCT025 TX13/1913Z TN06/1907Z"
    },
    {
      "icao": "LEZG",
      "alert": "OK",
      "vis_m": 9999,
      "fzfg": false,
      "metar_trigger": false,
      "taf_trigger": false,
      "metar": "METAR LEZG 190730Z 28009KT 9999 SCT045 BKN060 08/07 Q1015 NOSIG",
      "taf": "TAF LEZG 190500Z 1906/2006 30010KT 9999 BKN030 TX12/1915Z TN06/1906Z"
    },
    {
      "icao": "LEZL",
      "alert": "OK",
      "vis_m": 9999,
      "fzfg": false,
      "metar_trigger": false,
      "taf_trigger": false,
      "metar": "METAR LEZL 190730Z VRB02KT CAVOK 04/03 Q1018 NOSIG",
      "taf": "TAF LEZL 190200Z 1903/2003 VRB03KT CAVOK TX15/1915Z TN03/1907Z"
    },
    {
      "icao": "LFBD",
      "alert": "OK",
      "vis_m": 600,
      "fzfg": false,
      "metar_trigger": false,
      "taf_trigger": false,
      "metar": "METAR LFBD 190730Z AUTO 14006KT 0600 0500 R23/0600N R05/0800N R29/0600N FG VV/// 08/08 Q1015 NOSIG",
      "taf": "TAF LFBD 190500Z 1906/2012 15005KT 6000 BKN020 TX12/1913Z TN04/2006Z"
    },
    {
      "icao": "LFLL",
      "alert": "OK",
      "vis_m": 450,
      "fzfg": false,
      "metar_trigger": false,
      "taf_trigger": false,
      "metar": "METAR LFLL 190730Z 07003KT 340V110 0450 R35L/0550N R17R/0600N R35R/0600N R17L/0550N FG VV/// 02/02 Q1019 TEMPO 0200",
      "taf": "TAF LFLL 190500Z 1906/2012 VRB02KT 0600 FG VV///"
    },
    {
      "icao": "LFLS",
      "alert": "OK",
      "vis_m": 9999,
      "fzfg": false,
      "metar_trigger": false,
      "taf_trigger": false,
      "metar": "METAR LFLS 190730Z AUTO 07005KT CAVOK 03/02 Q1017 TEMPO 4000 BR",
      "taf": "TAF LFLS 190200Z 1903/2003 09005KT 7000 NSC"
    },
    {
      "icao": "LFMN",
      "alert": "OK",
      "vis_m": 9999,
      "fzfg": false,
      "metar_trigger": false,
      "taf_trigger": false,
      "metar": "METAR LFMN 190730Z 08021KT 9999 BKN100 BKN150 15/05 Q1017 NOSIG",
      "taf": ""
    },
    {
      "icao": "LFOB",
      "alert": "OK",
      "vis_m": 4200,
      "fzfg": false,
      "metar_trigger": false,
      "taf_trigger": false,
      "metar": "METAR LFOB 190730Z AUTO 11006KT 4200 BR NSC 01/00 Q1017 BECMG 9999 NSW",
      "taf": "TAF LFOB 190500Z 1906/2006 13005KT 6000 NSC"
    },
    {
      "icao": "LFPO",
      "alert": "OK",
      "vis_m": 6000,
      "fzfg": false,
      "metar_trigger": false,
      "taf_trigger": false,
      "metar": "METAR LFPO 190730Z 10002KT 6000 NSC 02/01 Q1017 TEMPO 5000 BR",
      "taf": "TAF LFPO 190500Z 1906/2012 13004KT 6000 NSC"
    },
    {
      "icao": "LFSB",
      "alert": "OK",
      "vis_m": 7000,
      "fzfg": true,
      "metar_trigger": false,
      "taf_trigger": false,
      "metar": "METAR LFSB 190730Z AUTO 17003KT 7000 NSC M02/M03 Q1019 TEMPO 0300 FZFG VV///",
      "taf": "TAF LFSB 190500Z 1906/2006 VRB04KT 8000 SCT005"
    },
    {
      "icao": "LGAV",
      "alert": "OK",
      "vis_m": 9999,
      "fzfg": false,
      "metar_trigger": false,
      "taf_trigger": false,
      "metar": "METAR LGAV 190720Z 04017KT 9999 SCT020 BKN040 05/M01 Q1029 NOSIG",
      "taf": "TAF LGAV 190500Z 1906/2006 02016KT 9999 FEW020 BKN030"
    },
    {
      "icao": "LGTS",
      "alert": "OK",
      "vis_m": 9999,
      "fzfg": false,
      "metar_trigger": false,
      "taf_trigger": false,
      "metar": "METAR LGTS 190720Z VRB02KT 9999 FEW020 03/M02 Q1033 NOSIG",
      "taf": "TAF LGTS 190500Z 1906/2006 11008KT 9999 FEW015 BKN030"
    },
    {
      "icao": "LHBP",
      "alert": "OK",
      "vis_m": 5000,
      "fzfg": false,
      "metar_trigger": false,
      "taf_trigger": false,
      "metar": "METAR LHBP 190730Z 12006KT 080V150 5000 BR OVC006 M05/M06 Q1037 TEMPO 4000 BR OVC004",
      "taf": "TAF LHBP 190515Z 1906/2006 10005KT 6000 OVC015"
    },
    {
      "icao": "LHDC",
      "alert": "OK",
      "vis_m": 2400,
      "fzfg": false,
      "metar_trigger": false,
      "taf_trigger": false,
      "metar": "METAR LHDC 190715Z AUTO 29005KT 2400 BR OVC003 M05/M06 Q1038 NOSIG",
      "taf": "TAF LHDC 190515Z 1906/1915 VRB03KT 6000 OVC010"
    },
    {
      "icao": "LIBD",
      "alert": "OK",
      "vis_m": 9999,
      "fzfg": false,
      "metar_trigger": false,
      "taf_trigger": false,
      "metar": "METAR LIBD 190720Z AUTO VRB01KT 9999 BKN038/// 09/06 Q1023",
      "taf": "TAF LIBD 190500Z 1906/2006 VRB05KT 9999 SCT040"
    },
    {
      "icao": "LIBG",
      "alert": "OK",
      "vis_m": null,
      "fzfg": false,
      "metar_trigger": false,
      "taf_trigger": false,
      "metar": "",
      "taf": "TAF LIBG 190722Z 1907/1915 VRB06KT 9999 SCT010 BKN040"
    },
    {
      "icao": "LIBP",
      "alert": "OK",
      "vis_m": 2100,
      "fzfg": false,
      "metar_trigger": false,
      "taf_trigger": false,
      "metar": "METAR LIBP 190720Z AUTO VRB01KT 2100 -RA BR OVC014/// 08/08 Q1023",
      "taf": "TAF LIBP 190500Z 1906/2006 VRB05KT 9999 BKN030"
    },
    {
      "icao": "LIBR",
      "alert": "OK",
      "vis_m": 9999,
      "fzfg": false,
      "metar_trigger": false,
      "taf_trigger": false,
      "metar": "METAR LIBR 190720Z 20005KT 9999 -RA OVC040 10/05 Q1024",
      "taf": "TAF LIBR 190500Z 1906/2006 VRB05KT 9999 BKN040"
    },
    {
      "icao": "LICA",
      "alert": "OK",
      "vis_m": 9999,
      "fzfg": false,
      "metar_trigger": false,
      "taf_trigger": false,
      "metar": "METAR LICA 190720Z AUTO 06015KT 9999 FEW039/// 12/11 Q1019",
      "taf": "TAF LICA 190500Z 1906/2006 08015KT 9999 SCT020 BKN070"
    },
    {
      "icao": "LICC",
      "alert": "OK",
      "vis_m": 6000,
      "fzfg": false,
      "metar_trigger": false,
      "taf_trigger": false,
      "metar": "METAR LICC 190720Z 11016KT 6000 BKN020 BKN040 15/13 Q1017",
      "taf": "TAF LICC 190500Z 1906/2006 08015KT 9999 SCT015 BKN050"
    },
    {
      "icao": "LICJ",
      "alert": "OK",
      "vis_m": 9999,
      "fzfg": false,
      "metar_trigger": false,
      "taf_trigger": false,
      "metar": "METAR LICJ 190720Z 08016G34KT 050V110 9999 FEW050 16/08 Q1011",
      "taf": "TAF LICJ 190500Z 1906/2006 06015KT 9999 SCT040"
    },
    {
      "icao": "LIMC",
      "alert": "OK",
      "vis_m": 9999,
      "fzfg": false,
      "metar_trigger": false,
      "taf_trigger": false,
      "metar": "METAR LIMC 190720Z 11002KT 9999 BKN037 06/02 Q1026 NOSIG",
      "taf": "TAF LIMC 190500Z 1906/2012 VRB03KT 9999 BKN040"
    },
    {
      "icao": "LIME",
      "alert": "OK",
      "vis_m": 9999,
      "fzfg": false,
      "metar_trigger": false,
      "taf_trigger": false,
      "metar": "METAR LIME 190720Z VRB01KT 9999 -RA BKN040 05/02 Q1026 NOSIG",
      "taf": "TAF LIME 190500Z 1906/2006 VRB03KT 9999 BKN045"
    },
    {
      "icao": "LIMF",
      "alert": "OK",
      "vis_m": 7000,
      "fzfg": false,
      "metar_trigger": false,
      "taf_trigger": false,
      "metar": "METAR LIMF 190720Z 26003KT 7000 -RA BKN028 05/03 Q1026",
      "taf": "TAF LIMF 190500Z 1906/2006 VRB06KT 8000 DZ BKN050"
    },
    {
      "icao": "LIMJ",
      "alert": "OK",
      "vis_m": 9999,
      "fzfg": false,
      "metar_trigger": false,
      "taf_trigger": false,
      "metar": "METAR LIMJ 190720Z 03013KT 9999 FEW080 09/03 Q1021",
      "taf": "TAF LIMJ 190500Z 1906/2006 02013KT CAVOK"
    },
    {
      "icao": "LIPE",
      "alert": "OK",
      "vis_m": 9999,
      "fzfg": false,
      "metar_trigger": false,
      "taf_trigger": false,
      "metar": "METAR LIPE 190720Z VRB02KT 9999 BKN025 04/02 Q1026",
      "taf": "TAF LIPE 190500Z 1906/2006 VRB05KT 8000 BKN030"
    },
    {
      "icao": "LIPH",
      "alert": "OK",
      "vis_m": 9999,
      "fzfg": false,
      "metar_trigger": false,
      "taf_trigger": false,
      "metar": "METAR LIPH 190720Z 02005KT CAVOK 01/M05 Q1028",
      "taf": "TAF LIPH 190500Z 1906/2006 05007KT 9999 FEW070"
    },
    {
      "icao": "LIPQ",
      "alert": "OK",
      "vis_m": 9999,
      "fzfg": false,
      "metar_trigger": false,
      "taf_trigger": false,
      "metar": "METAR LIPQ 190720Z AUTO 08006KT 050V110 9999 NCD 03/M08 Q1028",
      "taf": "TAF LIPQ 190500Z 1906/2006 VRB05KT CAVOK"
    },
    {
      "icao": "LIPR",
      "alert": "OK",
      "vis_m": 9999,
      "fzfg": false,
      "metar_trigger": false,
      "taf_trigger": false,
      "metar": "METAR LIPR 190720Z 10008KT 9999 BKN025 10/07 Q1024",
      "taf": "TAF LIPR 190500Z 1906/2006 10012KT 9999 BKN030"
    },
    {
      "icao": "LIPX",
      "alert": "OK",
      "vis_m": 9999,
      "fzfg": false,
      "metar_trigger": false,
      "taf_trigger": false,
      "metar": "METAR LIPX 190720Z 10005KT 9999 BKN070 06/M06 Q1026",
      "taf": "TAF LIPX 190500Z 1906/2006 10007KT 9999 SCT050"
    },
    {
      "icao": "LIPY",
      "alert": "OK",
      "vis_m": 9999,
      "fzfg": false,
      "metar_trigger": false,
      "taf_trigger": false,
      "metar": "METAR LIPY 190720Z AUTO 09006KT 060V130 9999 SCT030/// 10/08 Q1024",
      "taf": "TAF LIPY 190500Z 1906/2006 09012KT 9999 FEW030 SCT070"
    },
    {
      "icao": "LIPZ",
      "alert": "OK",
      "vis_m": 9999,
      "fzfg": false,
      "metar_trigger": false,
      "taf_trigger": false,
      "metar": "METAR LIPZ 190720Z 03010KT CAVOK 01/M05 Q1027 NOSIG",
      "taf": "TAF LIPZ 190500Z 1906/2012 04010KT 9999 FEW070"
    },
    {
      "icao": "LIRF",
      "alert": "OK",
      "vis_m": 9999,
      "fzfg": false,
      "metar_trigger": false,
      "taf_trigger": false,
      "metar": "METAR LIRF 190720Z 06007KT 9999 BKN055 11/07 Q1018 NOSIG",
      "taf": "TAF LIRF 190500Z 1906/2012 06010KT 9999 SCT045"
    },
    {
      "icao": "LIRN",
      "alert": "OK",
      "vis_m": 8000,
      "fzfg": false,
      "metar_trigger": false,
      "taf_trigger": false,
      "metar": "METAR LIRN 190720Z 06012KT 8000 -RA BKN050 10/07 Q1019 NOSIG",
      "taf": "TAF LIRN 190500Z 1906/2006 05010KT 9999 SCT040"
    },
    {
      "icao": "LIRP",
      "alert": "OK",
      "vis_m": 9999,
      "fzfg": false,
      "metar_trigger": false,
      "taf_trigger": false,
      "metar": "METAR LIRP 190715Z 07014KT CAVOK 12/04 Q1020 NOSIG",
      "taf": "TAF LIRP 190500Z 1906/2006 07012KT 9999 BKN080"
    },
    {
      "icao": "LIRZ",
      "alert": "OK",
      "vis_m": 9999,
      "fzfg": false,
      "metar_trigger": false,
      "taf_trigger": false,
      "metar": "METAR LIRZ 190720Z AUTO 04009KT 9999 NCD 10/02 Q1020",
      "taf": "TAF LIRZ 190500Z 1906/2006 03013KT CAVOK"
    },
    {
      "icao": "LJLJ",
      "alert": "OK",
      "vis_m": 9999,
      "fzfg": false,
      "metar_trigger": false,
      "taf_trigger": false,
      "metar": "METAR LJLJ 190730Z 08007KT 9999 OVC023 M02/M07 Q1032 NOSIG",
      "taf": "TAF LJLJ 190500Z 1906/2006 12006KT 9999 OVC017"
    },
    {
      "icao": "LKMT",
      "alert": "OK",
      "vis_m": 9999,
      "fzfg": false,
      "metar_trigger": false,
      "taf_trigger": false,
      "metar": "METAR LKMT 190730Z 20004KT CAVOK M06/M07 Q1033 NOSIG",
      "taf": "TAF LKMT 190500Z 1906/2006 22014KT CAVOK"
    },
    {
      "icao": "LKPR",
      "alert": "OK",
      "vis_m": 9999,
      "fzfg": false,
      "metar_trigger": false,
      "taf_trigger": false,
      "metar": "METAR LKPR 190730Z 11007KT CAVOK M05/M07 Q1026 NOSIG",
      "taf": "TAF LKPR 190500Z 1906/2012 11010KT CAVOK"
    },
    {
      "icao": "LLBG",
      "alert": "OK",
      "vis_m": 9999,
      "fzfg": false,
      "metar_trigger": false,
      "taf_trigger": false,
      "metar": "METAR LLBG 190720Z VRB02KT 9999 FEW050 14/08 Q1020 NOSIG",
      "taf": "TAF LLBG 190513Z 1906/2006 VRB04KT 9999 SCT040"
    },
    {
      "icao": "LMML",
      "alert": "OK",
      "vis_m": 9000,
      "fzfg": false,
      "metar_trigger": false,
      "taf_trigger": false,
      "metar": "METAR LMML 190715Z 10024KT 9000 BKN012 15/13 Q1013 NOSIG",
      "taf": "TAF LMML 190500Z 1906/2006 12015KT 9999 SCT015"
    },
    {
      "icao": "LOWW",
      "alert": "OK",
      "vis_m": 9999,
      "fzfg": false,
      "metar_trigger": false,
      "taf_trigger": false,
      "metar": "METAR LOWW 190720Z 14019KT 9999 FEW010 BKN012 M06/M08 Q1034 TEMPO SCT012",
      "taf": "TAF LOWW 190515Z 1906/2012 14013KT CAVOK TXM03/1913Z TNM07/2006Z"
    },
    {
      "icao": "LPFR",
      "alert": "OK",
      "vis_m": 9999,
      "fzfg": false,
      "metar_trigger": false,
      "taf_trigger": false,
      "metar": "METAR LPFR 190730Z 29004KT 250V330 CAVOK 06/03 Q1019",
      "taf": "TAF LPFR 190500Z 1906/2006 33005KT CAVOK"
    },
    {
      "icao": "LPMA",
      "alert": "OK",
      "vis_m": 9999,
      "fzfg": false,
      "metar_trigger": false,
      "taf_trigger": false,
      "metar": "METAR LPMA 190730Z 36008KT 290V070 9999 SCT015 14/10 Q1024",
      "taf": "TAF LPMA 190500Z 1906/2006 01010KT 9999 SCT015"
    },
    {
      "icao": "LPPR",
      "alert": "OK",
      "vis_m": 9999,
      "fzfg": false,
      "metar_trigger": false,
      "taf_trigger": false,
      "metar": "METAR LPPR 190730Z 12006KT CAVOK 05/05 Q1020",
      "taf": "TAF LPPR 190500Z 1906/2006 11005KT CAVOK"
    },
    {
      "icao": "LPPS",
      "alert": "OK",
      "vis_m": 9999,
      "fzfg": false,
      "metar_trigger": false,
      "taf_trigger": false,
      "metar": "METAR LPPS 190730Z 01009KT 9999 FEW015 SCT030 14/10 Q1024",
      "taf": "TAF LPPS 190500Z 1906/2012 01015KT 9999 SCT015"
    },
    {
      "icao": "LPPT",
      "alert": "OK",
      "vis_m": 9999,
      "fzfg": false,
      "metar_trigger": false,
      "taf_trigger": false,
      "metar": "METAR LPPT 190730Z 21003KT 180V250 9999 FEW030 08/07 Q1020",
      "taf": "TAF LPPT 190500Z 1906/2012 29005KT 9999 FEW020"
    },
    {
      "icao": "LQBK",
      "alert": "OK",
      "vis_m": 9999,
      "fzfg": false,
      "metar_trigger": false,
      "taf_trigger": false,
      "metar": "METAR LQBK 190730Z 02005KT 350V050 9999 BKN010 OVC017 M04/M06 Q1035 NOSIG",
      "taf": "TAF LQBK 190500Z 1906/2006 03006KT 9999 BKN017 OVC025 TXM00/1914Z TNM03/2006Z"
    },
    {
      "icao": "LQSA",
      "alert": "OK",
      "vis_m": 9999,
      "fzfg": false,
      "metar_trigger": false,
      "taf_trigger": false,
      "metar": "METAR LQSA 190730Z 30003KT 9999 BKN016 M04/M04 Q1030 NOSIG",
      "taf": "TAF LQSA 190500Z 1906/2006 VRB02KT 3000 BR FEW030 TX00/1913Z TNM07/2006Z"
    },
    {
      "icao": "LQTZ",
      "alert": "OK",
      "vis_m": 7000,
      "fzfg": false,
      "metar_trigger": false,
      "taf_trigger": false,
      "metar": "METAR LQTZ 190730Z 11004KT 7000 SCT020 M06/M07 Q1033",
      "taf": "TAF LQTZ 190500Z 1906/2006 10006KT 9999 SCT017 BKN030 TX01/1913Z TNM09/2006Z"
    },
    {
      "icao": "LRBC",
      "alert": "OK",
      "vis_m": 9999,
      "fzfg": false,
      "metar_trigger": false,
      "taf_trigger": false,
      "metar": "METAR LRBC 190730Z 04003KT 360V090 9999 SCT048 OVC056 M07/M11 Q1040",
      "taf": "TAF LRBC 190500Z 1906/1915 32006KT 9999 BKN040"
    },
    {
      "icao": "LRBS",
      "alert": "OK",
      "vis_m": 9999,
      "fzfg": false,
      "metar_trigger": false,
      "taf_trigger": false,
      "metar": "METAR LRBS 190730Z 25005KT 230V290 9999 -SN OVC041 M06/M08 Q1040",
      "taf": "TAF LRBS 190500Z 1906/2006 27007KT 9999 BKN035"
    },
    {
      "icao": "LRBV",
      "alert": "OK",
      "vis_m": 9999,
      "fzfg": false,
      "metar_trigger": false,
      "taf_trigger": false,
      "metar": "METAR LRBV 190730Z 23003KT 9999 BKN043 M10/M12 Q1035",
      "taf": "TAF LRBV 190500Z 1906/1915 21007KT 9999 BKN035"
    },
    {
      "icao": "LRCL",
      "alert": "OK",
      "vis_m": 5000,
      "fzfg": false,
      "metar_trigger": false,
      "taf_trigger": false,
      "metar": "METAR LRCL 190730Z 07004KT 5000 BR FEW001 M14/M16 Q1037",
      "taf": ""
    },
    {
      "icao": "LRCV",
      "alert": "OK",
      "vis_m": 4000,
      "fzfg": false,
      "metar_trigger": false,
      "taf_trigger": false,
      "metar": "METAR LRCV 190730Z 02004KT 4000 BR FEW010 SCT024 M08/M10 Q1039",
      "taf": "TAF LRCV 190500Z 1906/1915 VRB04KT 5000 BR BKN030"
    },
    {
      "icao": "LRIA",
      "alert": "OK",
      "vis_m": 2500,
      "fzfg": true,
      "metar_trigger": false,
      "taf_trigger": false,
      "metar": "METAR LRIA 190730Z 30003KT 260V330 2500 -SN BR OVC001 M11/M13 Q1041",
      "taf": "TAF LRIA 190500Z 1906/1915 VRB04KT 0350 FZFG VV001"
    },
    {
      "icao": "LROP",
      "alert": "OK",
      "vis_m": 7000,
      "fzfg": false,
      "metar_trigger": false,
      "taf_trigger": false,
      "metar": "METAR LROP 190730Z 25005KT 7000 -SN BKN039 OVC044 M06/M09 Q1039 TEMPO 5000 -SN BR",
      "taf": "TAF LROP 190500Z 1906/2006 27007KT 9999 BKN035"
    },
    {
      "icao": "LRSB",
      "alert": "OK",
      "vis_m": 4000,
      "fzfg": false,
      "metar_trigger": false,
      "taf_trigger": false,
      "metar": "METAR LRSB 190730Z 28004KT 4000 BR NSC M13/M15 Q1035",
      "taf": "TAF LRSB 190500Z 1906/2006 VRB04KT CAVOK"
    },
    {
      "icao": "LRSM",
      "alert": "OK",
      "vis_m": 3000,
      "fzfg": true,
      "metar_trigger": false,
      "taf_trigger": false,
      "metar": "METAR LRSM 190730Z 26003KT 3000 BR BKN002 M13/M15 Q1039",
      "taf": "TAF LRSM 190500Z 1906/1915 VRB04KT 0800 FZFG BKN002"
    },
    {
      "icao": "LRSV",
      "alert": "OK",
      "vis_m": 8000,
      "fzfg": false,
      "metar_trigger": false,
      "taf_trigger": false,
      "metar": "METAR LRSV 190730Z 19003KT 8000 FEW013 M10/M11 Q1037",
      "taf": "TAF LRSV 190500Z 1906/1915 VRB04KT CAVOK"
    },
    {
      "icao": "LRTM",
      "alert": "OK",
      "vis_m": 4000,
      "fzfg": false,
      "metar_trigger": false,
      "taf_trigger": false,
      "metar": "METAR LRTM 190730Z 08002KT 4000 BR FEW001 M16/M19 Q1038",
      "taf": "TAF LRTM 190500Z 1906/1915 VRB04KT 3000 BR BKN003"
    },
    {
      "icao": "LRTR",
      "alert": "OK",
      "vis_m": 9999,
      "fzfg": false,
      "metar_trigger": false,
      "taf_trigger": false,
      "metar": "METAR LRTR 190730Z 08002KT CAVOK M07/M10 Q1037",
      "taf": "TAF LRTR 190500Z 1906/2006 06006KT CAVOK"
    },
    {
      "icao": "LTAC",
      "alert": "OK",
      "vis_m": 9999,
      "fzfg": false,
      "metar_trigger": false,
      "taf_trigger": false,
      "metar": "METAR LTAC 190720Z VRB02KT 9999 FEW040 M05/M09 Q1023 NOSIG RMK RWY21C VRB02KT RWY03L VRB02KT RWY21R VRB01KT RWY03R VRB01KT RWY21L VRB02KT",
      "taf": "TAF LTAC 190440Z 1906/2006 VRB02KT 9999 SCT040 SCT100"
    },
    {
      "icao": "LTFM",
      "alert": "OK",
      "vis_m": 4000,
      "fzfg": false,
      "metar_trigger": false,
      "taf_trigger": false,
      "metar": "METAR LTFM 190720Z 35027KT 4000 1200NW R35R/1100D R17L/P1500N R34L/1200N R36/P1500D -SHSN BKN006 BKN022 01/M01 Q1032 NOSIG RMK RWY17L 34026KT RWY34L 34025KT RWY16R 34022KT RWY36 34027KT RWY18 35029KT",
      "taf": "TAF LTFM 190440Z 1906/2012 35024G35KT 7000 -SHSN BKN012 BKN022"
    },
    {
      "icao": "LUKK",
      "alert": "OK",
      "vis_m": 9999,
      "fzfg": false,
      "metar_trigger": false,
      "taf_trigger": false,
      "metar": "METAR LUKK 190730Z 32004G15KT 250V040 9999 FEW007 OVC048 M08/M09 Q1039 NOSIG",
      "taf": "TAF LUKK 190512Z 1906/2006 36009KT 9999 OVC012"
    },
    {
      "icao": "LWOH",
      "alert": "OK",
      "vis_m": 9999,
      "fzfg": false,
      "metar_trigger": false,
      "taf_trigger": false,
      "metar": "METAR LWOH 190720Z 02010KT 350V050 9999 SCT033 01/M06 Q1028",
      "taf": "TAF LWOH 190550Z 1906/2006 03006KT 9999 SCT040"
    },
    {
      "icao": "LWSK",
      "alert": "OK",
      "vis_m": 9999,
      "fzfg": false,
      "metar_trigger": false,
      "taf_trigger": false,
      "metar": "METAR LWSK 190720Z 05004KT 350V100 9999 FEW048 M04/M08 Q1034 NOSIG",
      "taf": "TAF LWSK 190550Z 1906/2006 VRB03KT 9999 FEW050"
    },
    {
      "icao": "LYBE",
      "alert": "OK",
      "vis_m": 9999,
      "fzfg": false,
      "metar_trigger": false,
      "taf_trigger": false,
      "metar": "METAR LYBE 190730Z 11011KT CAVOK M05/M09 Q1036 NOSIG",
      "taf": "TAF LYBE 190500Z 1906/2006 10014KT CAVOK TX01/1913ZZ TNM07/2005Z"
    },
    {
      "icao": "LYNI",
      "alert": "OK",
      "vis_m": 9999,
      "fzfg": false,
      "metar_trigger": false,
      "taf_trigger": false,
      "metar": "METAR LYNI 190730Z VRB02KT CAVOK M07/M09 Q1035 NOSIG",
      "taf": "TAF LYNI 190500Z 1906/2006 05007KT CAVOK TX01/1913Z TNM10/2005Z"
    },
    {
      "icao": "LYPG",
      "alert": "OK",
      "vis_m": 9999,
      "fzfg": false,
      "metar_trigger": false,
      "taf_trigger": false,
      "metar": "METAR LYPG 190730Z 34005KT CAVOK 00/M03 Q1028 NOSIG",
      "taf": "TAF LYPG 190500Z 1906/2006 35007KT CAVOK TX09/1913Z TNM02/1906Z"
    },
    {
      "icao": "LZIB",
      "alert": "OK",
      "vis_m": 6000,
      "fzfg": false,
      "metar_trigger": false,
      "taf_trigger": false,
      "metar": "METAR LZIB 190730Z 11010KT 6000 FEW010 M05/M06 Q1036 TEMPO 4000 BR",
      "taf": "TAF LZIB 190515Z 1906/2006 13008KT CAVOK"
    },
    {
      "icao": "LZKZ",
      "alert": "OK",
      "vis_m": 9999,
      "fzfg": false,
      "metar_trigger": false,
      "taf_trigger": false,
      "metar": "METAR LZKZ 190730Z VRB01KT CAVOK M12/M13 Q1037 NOSIG",
      "taf": "TAF LZKZ 190515Z 1906/2006 VRB02KT CAVOK"
    },
    {
      "icao": "LZTT",
      "alert": "OK",
      "vis_m": 9999,
      "fzfg": false,
      "metar_trigger": false,
      "taf_trigger": false,
      "metar": "METAR LZTT 190730Z 28005KT CAVOK M13/M15 Q1032 NOSIG",
      "taf": "TAF LZTT 190515Z 1906/2006 27004KT CAVOK"
    },
    {
      "icao": "OEJN",
      "alert": "OK",
      "vis_m": 9999,
      "fzfg": false,
      "metar_trigger": false,
      "taf_trigger": false,
      "metar": "METAR OEJN 190700Z 01009KT CAVOK 25/13 Q1015 NOSIG",
      "taf": "TAF OEJN 190500Z 1906/2012 33013KT 9999 FEW040"
    },
    {
      "icao": "OEMA",
      "alert": "OK",
      "vis_m": 9999,
      "fzfg": false,
      "metar_trigger": false,
      "taf_trigger": false,
      "metar": "METAR OEMA 190700Z 09002KT CAVOK 18/03 Q1019 NOSIG",
      "taf": "TAF OEMA 190500Z 1906/2012 VRB03KT CAVOK"
    },
    {
      "icao": "OJAI",
      "alert": "OK",
      "vis_m": 4500,
      "fzfg": false,
      "metar_trigger": false,
      "taf_trigger": false,
      "metar": "METAR OJAI 190700Z 28009KT 4500 HZ SCT030 09/05 Q1019 NOSIG",
      "taf": "TAF OJAI 190500Z 1906/2012 27012KT 4000 BR FEW025TCU SCT030"
    },
    {
      "icao": "OMAA",
      "alert": "OK",
      "vis_m": 9999,
      "fzfg": false,
      "metar_trigger": false,
      "taf_trigger": false,
      "metar": "METAR OMAA 190700Z 16009KT CAVOK 21/13 Q1016 NOSIG",
      "taf": "TAF OMAA 190500Z 1906/2012 18006KT 8000 NSC"
    },
    {
      "icao": "OMDB",
      "alert": "OK",
      "vis_m": 9999,
      "fzfg": false,
      "metar_trigger": false,
      "taf_trigger": false,
      "metar": "METAR OMDB 190730Z VRB03KT 9999 FEW045 22/13 Q1017 BECMG 30010KT",
      "taf": "TAF OMDB 190500Z 1906/2012 20005KT 8000 NSC"
    },
    {
      "icao": "UAAA",
      "alert": "OK",
      "vis_m": 4800,
      "fzfg": false,
      "metar_trigger": false,
      "taf_trigger": false,
      "metar": "METAR UAAA 190730Z 33002MPS 300V360 4800 BR FU BKN200 M11/M15 Q1024 NOSIG",
      "taf": "TAF UAAA 190501Z 1906/2006 31003MPS 6000 SCT050 BKN100 TXM09/1908Z TNM17/2003Z"
    },
    {
      "icao": "UBBB",
      "alert": "OK",
      "vis_m": 9999,
      "fzfg": false,
      "metar_trigger": false,
      "taf_trigger": false,
      "metar": "METAR UBBB 190730Z 03016KT 9999 OVC022 03/M02 Q1028 NOSIG",
      "taf": "TAF UBBB 190502Z 1906/2006 03014KT 9999 BKN020 TX04/1910Z TN01/2001Z"
    },
    {
      "icao": "UDSG",
      "alert": "OK",
      "vis_m": 9999,
      "fzfg": false,
      "metar_trigger": false,
      "taf_trigger": false,
      "metar": "METAR UDSG 190730Z 22004KT 9999 BKN040 M03/M09 Q1014 NOSIG",
      "taf": "TAF UDSG 190458Z 1906/2006 36006KT 5000 BR BKN030"
    },
    {
      "icao": "UDYZ",
      "alert": "OK",
      "vis_m": 9000,
      "fzfg": false,
      "metar_trigger": false,
      "taf_trigger": false,
      "metar": "METAR UDYZ 190730Z 11006KT 9000 -SN FEW008 OVC033 00/M01 Q1016 NOSIG",
      "taf": "TAF UDYZ 190500Z 1906/2006 VRB04KT 2000 BR BKN020"
    },
    {
      "icao": "UGKO",
      "alert": "OK",
      "vis_m": 9999,
      "fzfg": false,
      "metar_trigger": false,
      "taf_trigger": false,
      "metar": "METAR UGKO 190730Z 23005KT 9999 BKN090 04/02 Q1019 NOSIG",
      "taf": "TAF UGKO 190500Z 1906/2006 26007KT 9999 SCT023 BKN050 TX04/1911Z TNM01/2002Z"
    }
  ]
}