{
  "ts_utc": "2026-05-23T01:30:48Z",
  "threshold_m": 150,
  "source": "stations_override.txt (ICAO list) + aviationweather.gov (METAR/TAF raw)",
  "station_count": 159,
  "stations": [
    {
      "icao": "BIKF",
      "alert": "OK",
      "vis_m": 9999,
      "fzfg": false,
      "metar_trigger": false,
      "taf_trigger": false,
      "metar": "METAR BIKF 230100Z 13012KT 9999 FEW010 OVC048 09/07 Q1006",
      "taf": "TAF BIKF 230101Z 2303/2403 11014KT 9999 -RA BKN012 OVC020 TX10/2312Z TN06/2403Z"
    },
    {
      "icao": "BKPR",
      "alert": "OK",
      "vis_m": 9999,
      "fzfg": false,
      "metar_trigger": false,
      "taf_trigger": false,
      "metar": "METAR BKPR 230130Z 30002KT 9999 FEW020 BKN035 14/13 Q1021 NOSIG",
      "taf": "TAF BKPR 222330Z 2300/2324 01010KT 9999 BKN040"
    },
    {
      "icao": "EBCI",
      "alert": "OK",
      "vis_m": 9999,
      "fzfg": false,
      "metar_trigger": false,
      "taf_trigger": false,
      "metar": "METAR EBCI 230120Z 17002KT CAVOK 16/13 Q1027 NOSIG",
      "taf": "TAF EBCI 222300Z 2300/2406 17003KT CAVOK"
    },
    {
      "icao": "EDDB",
      "alert": "OK",
      "vis_m": 9999,
      "fzfg": false,
      "metar_trigger": false,
      "taf_trigger": false,
      "metar": "METAR EDDB 230120Z AUTO 07002KT CAVOK 12/12 Q1028 NOSIG",
      "taf": "TAF EDDB 222300Z 2300/2324 VRB01KT CAVOK"
    },
    {
      "icao": "EDDH",
      "alert": "OK",
      "vis_m": 9999,
      "fzfg": false,
      "metar_trigger": false,
      "taf_trigger": false,
      "metar": "METAR EDDH 230120Z AUTO VRB02KT CAVOK 13/12 Q1028 NOSIG",
      "taf": "TAF EDDH 222300Z 2300/2406 VRB03KT CAVOK"
    },
    {
      "icao": "EDDK",
      "alert": "OK",
      "vis_m": 9999,
      "fzfg": false,
      "metar_trigger": false,
      "taf_trigger": false,
      "metar": "METAR EDDK 230120Z AUTO 00000KT CAVOK 13/12 Q1026 NOSIG",
      "taf": "TAF EDDK 222300Z 2300/2406 VRB03KT CAVOK"
    },
    {
      "icao": "EDDN",
      "alert": "OK",
      "vis_m": 9999,
      "fzfg": false,
      "metar_trigger": false,
      "taf_trigger": false,
      "metar": "METAR EDDN 230120Z AUTO 00000KT CAVOK 12/10 Q1028",
      "taf": "TAF EDDN 222300Z 2300/2324 VRB03KT CAVOK"
    },
    {
      "icao": "EDDS",
      "alert": "OK",
      "vis_m": 9999,
      "fzfg": false,
      "metar_trigger": false,
      "taf_trigger": false,
      "metar": "METAR EDDS 230120Z AUTO 29003KT CAVOK 13/09 Q1027",
      "taf": "TAF EDDS 222300Z 2300/2324 VRB03KT CAVOK"
    },
    {
      "icao": "EDFH",
      "alert": "OK",
      "vis_m": 9999,
      "fzfg": false,
      "metar_trigger": false,
      "taf_trigger": false,
      "metar": "METAR EDFH 230120Z 14007KT CAVOK 15/09 Q1028",
      "taf": "TAF EDFH 222300Z 2300/2324 14005KT CAVOK"
    },
    {
      "icao": "EDJA",
      "alert": "OK",
      "vis_m": 9999,
      "fzfg": false,
      "metar_trigger": false,
      "taf_trigger": false,
      "metar": "METAR EDJA 230120Z AUTO 05004KT 9999 // FEW120/// 10/08 Q1028",
      "taf": "TAF EDJA 221700Z 2218/2303 06007KT CAVOK"
    },
    {
      "icao": "EDLW",
      "alert": "OK",
      "vis_m": 9999,
      "fzfg": false,
      "metar_trigger": false,
      "taf_trigger": false,
      "metar": "METAR EDLW 230120Z AUTO 16006KT 9999 // NCD 16/13 Q1026",
      "taf": "TAF EDLW 221700Z 2218/2318 05005KT CAVOK"
    },
    {
      "icao": "EDNY",
      "alert": "OK",
      "vis_m": 9999,
      "fzfg": false,
      "metar_trigger": false,
      "taf_trigger": false,
      "metar": "METAR EDNY 230120Z AUTO 07003KT 9999 // NCD 11/09 Q1027",
      "taf": "TAF EDNY 221700Z 2218/2303 24005KT CAVOK"
    },
    {
      "icao": "EDSB",
      "alert": "OK",
      "vis_m": 9999,
      "fzfg": false,
      "metar_trigger": false,
      "taf_trigger": false,
      "metar": "METAR EDSB 230120Z AUTO 00000KT 9999 NCD 15/13 Q1026",
      "taf": "TAF EDSB 222300Z 2300/2324 VRB03KT CAVOK"
    },
    {
      "icao": "EETN",
      "alert": "OK",
      "vis_m": 9999,
      "fzfg": false,
      "metar_trigger": false,
      "taf_trigger": false,
      "metar": "METAR EETN 230120Z 25006KT CAVOK 10/09 Q1019",
      "taf": "TAF EETN 222330Z 2300/2324 26010KT CAVOK"
    },
    {
      "icao": "EFTU",
      "alert": "OK",
      "vis_m": 7000,
      "fzfg": false,
      "metar_trigger": false,
      "taf_trigger": false,
      "metar": "METAR EFTU 230120Z AUTO 13001KT 7000 2100 NCD 07/07 Q1018",
      "taf": "TAF EFTU 222332Z 2300/2324 28005KT CAVOK"
    },
    {
      "icao": "EGBB",
      "alert": "OK",
      "vis_m": 9999,
      "fzfg": false,
      "metar_trigger": false,
      "taf_trigger": false,
      "metar": "METAR EGBB 230120Z 19003KT 160V250 9999 BKN048 18/13 Q1023",
      "taf": "TAF EGBB 222259Z 2300/2324 20003KT CAVOK"
    },
    {
      "icao": "EGGP",
      "alert": "OK",
      "vis_m": 9999,
      "fzfg": false,
      "metar_trigger": false,
      "taf_trigger": false,
      "metar": "METAR EGGP 230120Z 30004KT 9999 SCT019 15/12 Q1024",
      "taf": "TAF EGGP 222257Z 2300/2324 32005KT 9999 FEW030"
    },
    {
      "icao": "EGGW",
      "alert": "OK",
      "vis_m": 9999,
      "fzfg": false,
      "metar_trigger": false,
      "taf_trigger": false,
      "metar": "METAR EGGW 230120Z AUTO 17005KT 9999 NCD 18/13 Q1023",
      "taf": "TAF EGGW 222312Z 2300/2324 VRB03KT CAVOK"
    },
    {
      "icao": "EGKK",
      "alert": "OK",
      "vis_m": 9999,
      "fzfg": false,
      "metar_trigger": false,
      "taf_trigger": false,
      "metar": "METAR EGKK 230120Z 08004KT CAVOK 16/14 Q1023",
      "taf": "TAF EGKK 222255Z 2300/2406 VRB03KT CAVOK"
    },
    {
      "icao": "EGNM",
      "alert": "OK",
      "vis_m": 9999,
      "fzfg": false,
      "metar_trigger": false,
      "taf_trigger": false,
      "metar": "METAR EGNM 230120Z 27009KT CAVOK 13/11 Q1023",
      "taf": "TAF EGNM 222257Z 2300/2324 26007KT 9999 FEW035"
    },
    {
      "icao": "EGPD",
      "alert": "OK",
      "vis_m": 9999,
      "fzfg": false,
      "metar_trigger": false,
      "taf_trigger": false,
      "metar": "METAR EGPD 230120Z COR AUTO VRB04KT 9999 NCD 15/10 Q1018 NOSIG",
      "taf": "TAF EGPD 222257Z 2300/2324 20009KT 9999 FEW040"
    },
    {
      "icao": "EGPF",
      "alert": "OK",
      "vis_m": 9999,
      "fzfg": false,
      "metar_trigger": false,
      "taf_trigger": false,
      "metar": "METAR EGPF 230120Z AUTO 23010KT 9999 FEW039 SCT045 12/12 Q1020",
      "taf": "TAF EGPF 222259Z 2300/2324 23010KT 9999 SCT030"
    },
    {
      "icao": "EHBK",
      "alert": "OK",
      "vis_m": 9999,
      "fzfg": false,
      "metar_trigger": false,
      "taf_trigger": false,
      "metar": "METAR EHBK 230125Z AUTO 20005KT 9999 NCD 15/12 Q1026",
      "taf": "TAF EHBK 222309Z 2300/2406 19005KT CAVOK"
    },
    {
      "icao": "EHEH",
      "alert": "OK",
      "vis_m": 9999,
      "fzfg": false,
      "metar_trigger": false,
      "taf_trigger": false,
      "metar": "METAR EHEH 230055Z AUTO 23001KT 9999 ////// 12/12 Q1026 BLU",
      "taf": ""
    },
    {
      "icao": "EKBI",
      "alert": "OK",
      "vis_m": 7000,
      "fzfg": false,
      "metar_trigger": false,
      "taf_trigger": false,
      "metar": "METAR EKBI 230120Z AUTO 11001KT 7000 NCD 10/10 Q1027",
      "taf": "TAF EKBI 222327Z 2300/2324 18006KT CAVOK"
    },
    {
      "icao": "EKCH",
      "alert": "OK",
      "vis_m": 8000,
      "fzfg": false,
      "metar_trigger": false,
      "taf_trigger": false,
      "metar": "METAR EKCH 230120Z 24005KT 8000 MIFG NSC 11/11 Q1028 NOSIG",
      "taf": "TAF EKCH 222327Z 2300/2324 23004KT 9999 FEW030"
    },
    {
      "icao": "ENAL",
      "alert": "OK",
      "vis_m": 9999,
      "fzfg": false,
      "metar_trigger": false,
      "taf_trigger": false,
      "metar": "METAR ENAL 230120Z AUTO 22003KT 100V270 9999 BKN044/// OVC053/// 13/10 Q1016",
      "taf": "TAF ENAL 222300Z 2300/2309 15007KT 9999 -RA FEW020 BKN040"
    },
    {
      "icao": "ENBR",
      "alert": "OK",
      "vis_m": 9999,
      "fzfg": false,
      "metar_trigger": false,
      "taf_trigger": false,
      "metar": "METAR ENBR 230120Z 17010KT 9999 -RA SCT018 BKN037 13/11 Q1019 RMK WIND 1200FT 16018KT",
      "taf": "TAF ENBR 222300Z 2300/2324 15012KT 9999 -RA FEW010 BKN025"
    },
    {
      "icao": "ENGM",
      "alert": "OK",
      "vis_m": 9999,
      "fzfg": false,
      "metar_trigger": false,
      "taf_trigger": false,
      "metar": "METAR ENGM 230120Z 18006KT 9999 3400SE NSC 12/10 Q1022",
      "taf": "TAF ENGM 222300Z 2300/2324 20006KT CAVOK"
    },
    {
      "icao": "ENHD",
      "alert": "OK",
      "vis_m": 9999,
      "fzfg": false,
      "metar_trigger": false,
      "taf_trigger": false,
      "metar": "METAR ENHD 230120Z AUTO 16012KT 9999 NCD 14/10 Q1020",
      "taf": "TAF ENHD 221400Z 2215/2222 17012KT 9999 SCT012 BKN025"
    },
    {
      "icao": "ENTC",
      "alert": "OK",
      "vis_m": 9999,
      "fzfg": false,
      "metar_trigger": false,
      "taf_trigger": false,
      "metar": "METAR ENTC 230120Z AUTO 21012KT 9999 -RA OVC044/// 10/06 Q1015 RMK WIND 2600FT 18017KT",
      "taf": "TAF ENTC 222300Z 2300/2324 18009KT 9999 SCT025 BKN040"
    },
    {
      "icao": "ENTO",
      "alert": "OK",
      "vis_m": 9999,
      "fzfg": false,
      "metar_trigger": false,
      "taf_trigger": false,
      "metar": "METAR ENTO 230120Z AUTO 00000KT 9999 // NCD 12/12 Q1023",
      "taf": "TAF ENTO 222300Z 2300/2324 18006KT CAVOK"
    },
    {
      "icao": "ENVA",
      "alert": "OK",
      "vis_m": 9999,
      "fzfg": false,
      "metar_trigger": false,
      "taf_trigger": false,
      "metar": "METAR ENVA 230120Z AUTO 10003KT 9999 BKN054/// 12/11 Q1018 RMK WIND 670FT 15006KT",
      "taf": "TAF ENVA 222300Z 2300/2324 12007KT 9999 SCT050"
    },
    {
      "icao": "ENZV",
      "alert": "OK",
      "vis_m": 9999,
      "fzfg": false,
      "metar_trigger": false,
      "taf_trigger": false,
      "metar": "METAR ENZV 230120Z AUTO 16011KT 9999 FEW041/// 15/11 Q1021",
      "taf": "TAF ENZV 222300Z 2300/2324 16010KT 9999 FEW020 SCT040"
    },
    {
      "icao": "EPGD",
      "alert": "OK",
      "vis_m": 9999,
      "fzfg": false,
      "metar_trigger": false,
      "taf_trigger": false,
      "metar": "METAR EPGD 230100Z 27007KT 9999 BKN019 13/10 Q1027",
      "taf": "TAF EPGD 222330Z 2300/2324 28010KT 9999 OVC018"
    },
    {
      "icao": "EPKK",
      "alert": "OK",
      "vis_m": 9999,
      "fzfg": false,
      "metar_trigger": false,
      "taf_trigger": false,
      "metar": "METAR EPKK 230100Z 25002KT CAVOK 09/07 Q1029",
      "taf": "TAF EPKK 222330Z 2300/2324 VRB02KT CAVOK"
    },
    {
      "icao": "EPKT",
      "alert": "OK",
      "vis_m": 9999,
      "fzfg": false,
      "metar_trigger": false,
      "taf_trigger": false,
      "metar": "METAR EPKT 230100Z 35003KT CAVOK 06/06 Q1029",
      "taf": "TAF EPKT 222330Z 2300/2324 VRB02KT CAVOK"
    },
    {
      "icao": "EPLB",
      "alert": "OK",
      "vis_m": 9999,
      "fzfg": false,
      "metar_trigger": false,
      "taf_trigger": false,
      "metar": "METAR EPLB 230100Z VRB02KT CAVOK 09/07 Q1028",
      "taf": "TAF EPLB 222330Z 2300/2324 VRB03KT CAVOK"
    },
    {
      "icao": "EPMO",
      "alert": "OK",
      "vis_m": 9999,
      "fzfg": false,
      "metar_trigger": false,
      "taf_trigger": false,
      "metar": "METAR EPMO 230100Z 25002KT CAVOK 12/09 Q1028",
      "taf": "TAF EPMO 222330Z 2300/2324 VRB03KT CAVOK"
    },
    {
      "icao": "EPPO",
      "alert": "OK",
      "vis_m": 6000,
      "fzfg": false,
      "metar_trigger": false,
      "taf_trigger": false,
      "metar": "METAR EPPO 230100Z 27001KT 6000 MIFG NSC 11/10 Q1029",
      "taf": "TAF EPPO 222330Z 2300/2324 30003KT CAVOK"
    },
    {
      "icao": "EPRA",
      "alert": "OK",
      "vis_m": 9999,
      "fzfg": false,
      "metar_trigger": false,
      "taf_trigger": false,
      "metar": "METAR EPRA 230100Z 28002KT CAVOK 11/07 Q1028",
      "taf": "TAF EPRA 222330Z 2300/2309 28004KT CAVOK"
    },
    {
      "icao": "EPRZ",
      "alert": "OK",
      "vis_m": 9999,
      "fzfg": false,
      "metar_trigger": false,
      "taf_trigger": false,
      "metar": "METAR EPRZ 230100Z VRB01KT CAVOK 11/07 Q1027",
      "taf": "TAF EPRZ 222330Z 2300/2324 34006KT CAVOK"
    },
    {
      "icao": "EPSC",
      "alert": "OK",
      "vis_m": 600,
      "fzfg": false,
      "metar_trigger": false,
      "taf_trigger": false,
      "metar": "METAR EPSC 230100Z 13002KT 0600 R31/0900U FG NSC 09/09 Q1029",
      "taf": "TAF EPSC 222330Z 2300/2324 VRB02KT CAVOK"
    },
    {
      "icao": "EPSY",
      "alert": "OK",
      "vis_m": 9999,
      "fzfg": false,
      "metar_trigger": false,
      "taf_trigger": false,
      "metar": "METAR EPSY 230100Z 00000KT 9999 SCT040 07/06 Q1028",
      "taf": "TAF EPSY 222330Z 2300/2309 VRB02KT CAVOK"
    },
    {
      "icao": "EPWA",
      "alert": "OK",
      "vis_m": 9999,
      "fzfg": false,
      "metar_trigger": false,
      "taf_trigger": false,
      "metar": "METAR EPWA 230100Z 00000KT CAVOK 10/07 Q1028 NOSIG",
      "taf": "TAF EPWA 222330Z 2300/2324 VRB04KT CAVOK"
    },
    {
      "icao": "EPWR",
      "alert": "OK",
      "vis_m": 9999,
      "fzfg": false,
      "metar_trigger": false,
      "taf_trigger": false,
      "metar": "METAR EPWR 230100Z 21001KT CAVOK 12/11 Q1029",
      "taf": "TAF EPWR 222330Z 2300/2324 29003KT CAVOK"
    },
    {
      "icao": "ESGG",
      "alert": "OK",
      "vis_m": 3700,
      "fzfg": false,
      "metar_trigger": false,
      "taf_trigger": false,
      "metar": "METAR ESGG 230120Z 22006KT 3700 BR NSC 11/10 Q1026",
      "taf": "TAF ESGG 222330Z 2300/2324 19003KT 9999 FEW003"
    },
    {
      "icao": "ESKN",
      "alert": "OK",
      "vis_m": 9999,
      "fzfg": false,
      "metar_trigger": false,
      "taf_trigger": false,
      "metar": "METAR ESKN 230120Z 25006KT CAVOK 09/07 Q1023",
      "taf": "TAF ESKN 222330Z 2300/2324 27009KT CAVOK"
    },
    {
      "icao": "ESMS",
      "alert": "OK",
      "vis_m": 5000,
      "fzfg": false,
      "metar_trigger": false,
      "taf_trigger": false,
      "metar": "METAR ESMS 230120Z 16002KT 5000 R17/0450N R35/0375N MIFG NSC 09/09 Q1027",
      "taf": "TAF ESMS 222327Z 2300/2324 23004KT 9999 FEW030"
    },
    {
      "icao": "ESSA",
      "alert": "OK",
      "vis_m": 9999,
      "fzfg": false,
      "metar_trigger": false,
      "taf_trigger": false,
      "metar": "METAR ESSA 230120Z 26007KT CAVOK 11/08 Q1021 NOSIG",
      "taf": "TAF ESSA 222330Z 2300/2324 26006KT CAVOK"
    },
    {
      "icao": "EYKA",
      "alert": "OK",
      "vis_m": 9999,
      "fzfg": false,
      "metar_trigger": false,
      "taf_trigger": false,
      "metar": "METAR EYKA 230120Z 28003KT 250V310 CAVOK 08/07 Q1026",
      "taf": "TAF EYKA 222311Z 2300/2324 27006KT 9000 NSC"
    },
    {
      "icao": "EYPA",
      "alert": "OK",
      "vis_m": 6000,
      "fzfg": false,
      "metar_trigger": false,
      "taf_trigger": false,
      "metar": "METAR EYPA 230120Z 17003KT 6000 BKN004 08/08 Q1025",
      "taf": "TAF EYPA 222325Z 2300/2324 VRB03KT 5000 BR BKN005"
    },
    {
      "icao": "EYVI",
      "alert": "OK",
      "vis_m": 9999,
      "fzfg": false,
      "metar_trigger": false,
      "taf_trigger": false,
      "metar": "METAR EYVI 230120Z 26002KT 9999 MIFG NSC 06/05 Q1026 TEMPO 1500 MIFG BR",
      "taf": "TAF EYVI 222315Z 2300/2324 VRB03KT 7000 NSC"
    },
    {
      "icao": "GCFV",
      "alert": "OK",
      "vis_m": 9999,
      "fzfg": false,
      "metar_trigger": false,
      "taf_trigger": false,
      "metar": "METAR GCFV 230100Z AUTO 01011KT CAVOK 19/15 Q1018",
      "taf": "TAF GCFV 222000Z 2221/2321 33010KT 9999 FEW020 TX28/2314Z TN18/2306Z"
    },
    {
      "icao": "GCLP",
      "alert": "OK",
      "vis_m": 9999,
      "fzfg": false,
      "metar_trigger": false,
      "taf_trigger": false,
      "metar": "METAR GCLP 230100Z 02023KT 9999 FEW025 19/15 Q1018 NOSIG",
      "taf": "TAF GCLP 222000Z 2221/2321 01020KT 9999 FEW020 TX26/2314Z TN20/2306Z"
    },
    {
      "icao": "GCTS",
      "alert": "OK",
      "vis_m": 9999,
      "fzfg": false,
      "metar_trigger": false,
      "taf_trigger": false,
      "metar": "METAR GCTS 230100Z 00000KT CAVOK 19/15 Q1019 NOSIG",
      "taf": "TAF GCTS 222000Z 2221/2321 35005KT 9999 FEW020 TX27/2314Z TN18/2306Z"
    },
    {
      "icao": "GMAD",
      "alert": "OK",
      "vis_m": 6000,
      "fzfg": false,
      "metar_trigger": false,
      "taf_trigger": false,
      "metar": "METAR GMAD 230100Z 00000KT 6000 OVC005 18/17 Q1017 NOSIG",
      "taf": "TAF GMAD 222300Z 2300/2406 20006KT 8000 BKN006"
    },
    {
      "icao": "GMMN",
      "alert": "OK",
      "vis_m": 9999,
      "fzfg": false,
      "metar_trigger": false,
      "taf_trigger": false,
      "metar": "METAR GMMN 230100Z 32004KT CAVOK 21/15 Q1018 NOSIG",
      "taf": "TAF GMMN 222300Z 2300/2406 19005KT CAVOK"
    },
    {
      "icao": "GMMX",
      "alert": "OK",
      "vis_m": 8000,
      "fzfg": false,
      "metar_trigger": false,
      "taf_trigger": false,
      "metar": "METAR GMMX 230100Z VRB02KT 8000 SCT030 24/09 Q1019 NOSIG",
      "taf": "TAF GMMX 222300Z 2300/2406 24006KT 8000 SCT030"
    },
    {
      "icao": "HEGN",
      "alert": "OK",
      "vis_m": 9999,
      "fzfg": false,
      "metar_trigger": false,
      "taf_trigger": false,
      "metar": "METAR HEGN 230100Z 29009KT CAVOK 24/05 Q1012 NOSIG",
      "taf": "TAF HEGN 222300Z 2300/2406 30012KT CAVOK"
    },
    {
      "icao": "HEMA",
      "alert": "OK",
      "vis_m": 9999,
      "fzfg": false,
      "metar_trigger": false,
      "taf_trigger": false,
      "metar": "METAR HEMA 230100Z 31010KT CAVOK 26/05 Q1011 NOSIG",
      "taf": "TAF HEMA 222300Z 2300/2406 26012KT CAVOK"
    },
    {
      "icao": "HESH",
      "alert": "OK",
      "vis_m": 9999,
      "fzfg": false,
      "metar_trigger": false,
      "taf_trigger": false,
      "metar": "METAR HESH 230100Z 34005KT CAVOK 26/12 Q1012 NOSIG",
      "taf": "TAF HESH 222300Z 2300/2406 33010KT CAVOK"
    },
    {
      "icao": "HESX",
      "alert": "OK",
      "vis_m": 9999,
      "fzfg": false,
      "metar_trigger": false,
      "taf_trigger": false,
      "metar": "METAR HESX 230100Z 01004KT CAVOK 17/12 Q1015 NOSIG",
      "taf": "TAF HESX 222300Z 2300/2406 03010KT CAVOK"
    },
    {
      "icao": "LATI",
      "alert": "OK",
      "vis_m": 9999,
      "fzfg": false,
      "metar_trigger": false,
      "taf_trigger": false,
      "metar": "METAR LATI 230120Z 32007KT 9999 BKN110 20/12 Q1017 NOSIG",
      "taf": "TAF LATI 222300Z 2300/2324 VRB05KT 9999 SCT090 TX30/2312Z TN15/2304Z"
    },
    {
      "icao": "LBPD",
      "alert": "OK",
      "vis_m": 9999,
      "fzfg": false,
      "metar_trigger": false,
      "taf_trigger": false,
      "metar": "METAR LBPD 230100Z AUTO 29009KT 9999 BKN069/// BKN100/// 17/14 Q1018",
      "taf": "TAF LBPD 222300Z 2300/2324 28010KT 9999 SCT030 BKN050"
    },
    {
      "icao": "LBSF",
      "alert": "OK",
      "vis_m": 6000,
      "fzfg": false,
      "metar_trigger": false,
      "taf_trigger": false,
      "metar": "METAR LBSF 230100Z AUTO 25006KT 6000 RA OVC074/// 13/12 Q1021 TEMPO 5000 RA",
      "taf": "TAF LBSF 222300Z 2300/2324 VRB04KT 9999 SCT040 BKN060"
    },
    {
      "icao": "LBWN",
      "alert": "OK",
      "vis_m": 9999,
      "fzfg": false,
      "metar_trigger": false,
      "taf_trigger": false,
      "metar": "METAR LBWN 230100Z AUTO 10003KT 050V170 9999 OVC008/// 16/16 Q1017 TEMPO BKN003",
      "taf": "TAF LBWN 222300Z 2300/2324 VRB04KT 5000 BR SCT003 BKN006"
    },
    {
      "icao": "LCLK",
      "alert": "OK",
      "vis_m": 9999,
      "fzfg": false,
      "metar_trigger": false,
      "taf_trigger": false,
      "metar": "METAR LCLK 230100Z 28003KT 9999 SCT020 BKN030 19/17 Q1013 NOSIG",
      "taf": "TAF LCLK 222330Z 2300/2400 26007KT 9999 FEW020"
    },
    {
      "icao": "LCPH",
      "alert": "OK",
      "vis_m": 9999,
      "fzfg": false,
      "metar_trigger": false,
      "taf_trigger": false,
      "metar": "METAR LCPH 230100Z AUTO 04004KT 010V080 9999 BKN015 BKN020 17/15 Q1013 NOSIG",
      "taf": "TAF LCPH 222330Z 2300/2400 34005KT 9999 SCT015"
    },
    {
      "icao": "LEAL",
      "alert": "OK",
      "vis_m": 9999,
      "fzfg": false,
      "metar_trigger": false,
      "taf_trigger": false,
      "metar": "METAR LEAL 230100Z 31003KT CAVOK 19/10 Q1023 NOSIG",
      "taf": "TAF LEAL 222300Z 2300/2324 33005KT CAVOK TX28/2312Z TN16/2306Z"
    },
    {
      "icao": "LEBB",
      "alert": "OK",
      "vis_m": 9999,
      "fzfg": false,
      "metar_trigger": false,
      "taf_trigger": false,
      "metar": "METAR LEBB 230100Z AUTO 10004KT 070V130 CAVOK 19/15 Q1024",
      "taf": "TAF LEBB 222300Z 2300/2324 33009KT CAVOK TX29/2313Z TN18/2304Z"
    },
    {
      "icao": "LEBL",
      "alert": "OK",
      "vis_m": 9999,
      "fzfg": false,
      "metar_trigger": false,
      "taf_trigger": false,
      "metar": "METAR LEBL 230100Z 32005KT CAVOK 19/14 Q1024 NOSIG",
      "taf": "TAF LEBL 222300Z 2300/2324 20005KT CAVOK TX24/2312Z TN18/2306Z"
    },
    {
      "icao": "LECH",
      "alert": "OK",
      "vis_m": 9999,
      "fzfg": false,
      "metar_trigger": false,
      "taf_trigger": false,
      "metar": "METAR LECH 230100Z AUTO 02003KT CAVOK 15/10 Q1025",
      "taf": "TAF LECH 222300Z 2300/2324 VRB04KT 9999 FEW020 TX30/2312Z TN14/2306Z"
    },
    {
      "icao": "LEMD",
      "alert": "OK",
      "vis_m": 9999,
      "fzfg": false,
      "metar_trigger": false,
      "taf_trigger": false,
      "metar": "METAR LEMD 230100Z 13006KT 080V160 CAVOK 20/07 Q1025 NOSIG",
      "taf": "TAF LEMD 222300Z 2300/2406 VRB04KT CAVOK TX33/2316Z TN14/2306Z"
    },
    {
      "icao": "LEMG",
      "alert": "OK",
      "vis_m": 9999,
      "fzfg": false,
      "metar_trigger": false,
      "taf_trigger": false,
      "metar": "METAR LEMG 230100Z 28006KT CAVOK 19/08 Q1023 NOSIG",
      "taf": "TAF LEMG 222300Z 2300/2324 29005KT CAVOK TX27/2314Z TN18/2307Z"
    },
    {
      "icao": "LEVC",
      "alert": "OK",
      "vis_m": 9999,
      "fzfg": false,
      "metar_trigger": false,
      "taf_trigger": false,
      "metar": "METAR LEVC 230100Z 32004KT 270V340 CAVOK 18/12 Q1024 NOSIG",
      "taf": "TAF LEVC 222300Z 2300/2324 VRB04KT CAVOK TX31/2314Z TN16/2306Z"
    },
    {
      "icao": "LEXJ",
      "alert": "OK",
      "vis_m": 7000,
      "fzfg": false,
      "metar_trigger": false,
      "taf_trigger": false,
      "metar": "METAR LEXJ 230100Z AUTO 25003KT 210V280 7000 NSC 19/13 Q1024",
      "taf": "TAF LEXJ 222000Z 2221/2321 25009KT CAVOK TX28/2312Z TN18/2303Z"
    },
    {
      "icao": "LEZG",
      "alert": "OK",
      "vis_m": 9999,
      "fzfg": false,
      "metar_trigger": false,
      "taf_trigger": false,
      "metar": "METAR LEZG 230100Z 07004KT CAVOK 21/13 Q1023 NOSIG",
      "taf": "TAF LEZG 222300Z 2300/2324 10009KT CAVOK TX36/2315Z TN19/2306Z"
    },
    {
      "icao": "LEZL",
      "alert": "OK",
      "vis_m": 9999,
      "fzfg": false,
      "metar_trigger": false,
      "taf_trigger": false,
      "metar": "METAR LEZL 230100Z AUTO 03003KT CAVOK 20/10 Q1020",
      "taf": "TAF LEZL 222000Z 2221/2321 22007KT CAVOK TX38/2315Z TN18/2307Z"
    },
    {
      "icao": "LFBD",
      "alert": "OK",
      "vis_m": 9999,
      "fzfg": false,
      "metar_trigger": false,
      "taf_trigger": false,
      "metar": "METAR LFBD 230100Z AUTO 05003KT CAVOK 18/14 Q1023 NOSIG",
      "taf": "TAF LFBD 222300Z 2300/2406 08005KT CAVOK TX34/2313Z TN17/2306Z"
    },
    {
      "icao": "LFLL",
      "alert": "OK",
      "vis_m": 9999,
      "fzfg": false,
      "metar_trigger": false,
      "taf_trigger": false,
      "metar": "METAR LFLL 230100Z 14003KT CAVOK 18/12 Q1025 NOSIG",
      "taf": "TAF LFLL 222300Z 2300/2406 VRB03KT CAVOK"
    },
    {
      "icao": "LFLS",
      "alert": "OK",
      "vis_m": 9999,
      "fzfg": false,
      "metar_trigger": false,
      "taf_trigger": false,
      "metar": "METAR LFLS 230100Z AUTO 07005KT CAVOK 12/11 Q1026",
      "taf": "TAF LFLS 221400Z 2215/2315 VRB03KT CAVOK"
    },
    {
      "icao": "LFMN",
      "alert": "OK",
      "vis_m": 9999,
      "fzfg": false,
      "metar_trigger": false,
      "taf_trigger": false,
      "metar": "METAR LFMN 230100Z 04003KT 360V090 CAVOK 20/11 Q1024 NOSIG",
      "taf": "TAF LFMN 222000Z 2221/2403 VRB02KT CAVOK"
    },
    {
      "icao": "LFOB",
      "alert": "OK",
      "vis_m": 9999,
      "fzfg": false,
      "metar_trigger": false,
      "taf_trigger": false,
      "metar": "METAR LFOB 230100Z AUTO 03002KT CAVOK 12/11 Q1026 NOSIG",
      "taf": "TAF LFOB 222300Z 2300/2324 VRB03KT CAVOK"
    },
    {
      "icao": "LFPO",
      "alert": "OK",
      "vis_m": 9999,
      "fzfg": false,
      "metar_trigger": false,
      "taf_trigger": false,
      "metar": "METAR LFPO 230100Z AUTO 15002KT CAVOK 14/13 Q1026 NOSIG",
      "taf": "TAF LFPO 222300Z 2300/2406 12004KT CAVOK"
    },
    {
      "icao": "LFSB",
      "alert": "OK",
      "vis_m": 9999,
      "fzfg": false,
      "metar_trigger": false,
      "taf_trigger": false,
      "metar": "METAR LFSB 230100Z AUTO 18002KT CAVOK 13/10 Q1026 NOSIG",
      "taf": "TAF LFSB 222300Z 2300/2324 VRB03KT CAVOK"
    },
    {
      "icao": "LGAV",
      "alert": "OK",
      "vis_m": 9999,
      "fzfg": false,
      "metar_trigger": false,
      "taf_trigger": false,
      "metar": "METAR LGAV 230050Z 09003KT 9999 FEW025 BKN040 18/16 Q1015 NOSIG",
      "taf": "TAF LGAV 222300Z 2300/2324 23007KT 9999 SCT025 BKN040"
    },
    {
      "icao": "LGTS",
      "alert": "OK",
      "vis_m": 9999,
      "fzfg": false,
      "metar_trigger": false,
      "taf_trigger": false,
      "metar": "METAR LGTS 230120Z 36006KT 9999 FEW020 SCT030 21/14 Q1016 NOSIG",
      "taf": "TAF LGTS 222300Z 2300/2324 VRB03KT 9999 SCT030"
    },
    {
      "icao": "LHBP",
      "alert": "OK",
      "vis_m": 9999,
      "fzfg": false,
      "metar_trigger": false,
      "taf_trigger": false,
      "metar": "METAR LHBP 230100Z 35005KT CAVOK 15/09 Q1026 NOSIG",
      "taf": "TAF LHBP 222315Z 2300/2324 35004KT CAVOK"
    },
    {
      "icao": "LHDC",
      "alert": "OK",
      "vis_m": 9999,
      "fzfg": false,
      "metar_trigger": false,
      "taf_trigger": false,
      "metar": "METAR LHDC 230045Z AUTO 01009KT 330V040 CAVOK 17/07 Q1024",
      "taf": "TAF LHDC 221415Z 2215/2224 02013KT CAVOK"
    },
    {
      "icao": "LIBD",
      "alert": "OK",
      "vis_m": 9999,
      "fzfg": false,
      "metar_trigger": false,
      "taf_trigger": false,
      "metar": "METAR LIBD 230120Z 28008KT CAVOK 18/12 Q1020",
      "taf": "TAF LIBD 222300Z 2300/2324 28010KT CAVOK"
    },
    {
      "icao": "LIBG",
      "alert": "OK",
      "vis_m": 9999,
      "fzfg": false,
      "metar_trigger": false,
      "taf_trigger": false,
      "metar": "METAR LIBG 230120Z AUTO 35010KT 9999 FEW093/// 19/12 Q1018",
      "taf": "TAF LIBG 222300Z 2300/2324 34008KT CAVOK"
    },
    {
      "icao": "LIBP",
      "alert": "OK",
      "vis_m": 9999,
      "fzfg": false,
      "metar_trigger": false,
      "taf_trigger": false,
      "metar": "METAR LIBP 230120Z AUTO 25004KT 9999 NCD 13/09 Q1024",
      "taf": "TAF LIBP 222300Z 2300/2324 24006KT 9999 FEW080"
    },
    {
      "icao": "LIBR",
      "alert": "OK",
      "vis_m": 9999,
      "fzfg": false,
      "metar_trigger": false,
      "taf_trigger": false,
      "metar": "METAR LIBR 230120Z 32016KT CAVOK 19/15 Q1018",
      "taf": "TAF LIBR 222300Z 2300/2324 32016G26KT CAVOK"
    },
    {
      "icao": "LICA",
      "alert": "OK",
      "vis_m": 9999,
      "fzfg": false,
      "metar_trigger": false,
      "taf_trigger": false,
      "metar": "METAR LICA 230120Z AUTO 24003KT 210V280 9999 NCD 17/15 Q1020",
      "taf": "TAF LICA 222300Z 2300/2324 VRB05KT 9999 SCT040"
    },
    {
      "icao": "LICC",
      "alert": "OK",
      "vis_m": 9999,
      "fzfg": false,
      "metar_trigger": false,
      "taf_trigger": false,
      "metar": "METAR LICC 230120Z 22006KT CAVOK 15/08 Q1019",
      "taf": "TAF LICC 222300Z 2300/2324 VRB05KT 9999 FEW050"
    },
    {
      "icao": "LICJ",
      "alert": "OK",
      "vis_m": 9999,
      "fzfg": false,
      "metar_trigger": false,
      "taf_trigger": false,
      "metar": "METAR LICJ 230120Z 14004KT CAVOK 17/14 Q1021",
      "taf": "TAF LICJ 222300Z 2300/2324 VRB05KT CAVOK"
    },
    {
      "icao": "LIMC",
      "alert": "OK",
      "vis_m": 9999,
      "fzfg": false,
      "metar_trigger": false,
      "taf_trigger": false,
      "metar": "METAR LIMC 230120Z 01006KT CAVOK 16/12 Q1026 NOSIG",
      "taf": "TAF LIMC 222300Z 2300/2406 VRB05KT 9999 FEW060"
    },
    {
      "icao": "LIME",
      "alert": "OK",
      "vis_m": 9999,
      "fzfg": false,
      "metar_trigger": false,
      "taf_trigger": false,
      "metar": "METAR LIME 230120Z 36004KT CAVOK 19/13 Q1026 NOSIG",
      "taf": "TAF LIME 222300Z 2300/2324 VRB05KT 9999 FEW055"
    },
    {
      "icao": "LIMF",
      "alert": "OK",
      "vis_m": 9999,
      "fzfg": false,
      "metar_trigger": false,
      "taf_trigger": false,
      "metar": "METAR LIMF 230120Z 29004KT CAVOK 19/14 Q1026",
      "taf": "TAF LIMF 222300Z 2300/2324 VRB04KT 9999 FEW050"
    },
    {
      "icao": "LIMJ",
      "alert": "OK",
      "vis_m": 9999,
      "fzfg": false,
      "metar_trigger": false,
      "taf_trigger": false,
      "metar": "METAR LIMJ 230120Z AUTO 05006G16KT 010V120 9999 NCD 19/13 Q1024",
      "taf": "TAF LIMJ 222300Z 2300/2324 VRB05KT CAVOK"
    },
    {
      "icao": "LIPE",
      "alert": "OK",
      "vis_m": 9999,
      "fzfg": false,
      "metar_trigger": false,
      "taf_trigger": false,
      "metar": "METAR LIPE 230120Z 19007KT CAVOK 17/10 Q1025",
      "taf": "TAF LIPE 222300Z 2300/2324 VRB05KT 9999 FEW070"
    },
    {
      "icao": "LIPH",
      "alert": "OK",
      "vis_m": 9999,
      "fzfg": false,
      "metar_trigger": false,
      "taf_trigger": false,
      "metar": "METAR LIPH 230120Z AUTO 36004KT 9999 NCD 17/13 Q1025",
      "taf": "TAF LIPH 222300Z 2300/2324 VRB05KT 9999 FEW070"
    },
    {
      "icao": "LIPQ",
      "alert": "OK",
      "vis_m": 9999,
      "fzfg": false,
      "metar_trigger": false,
      "taf_trigger": false,
      "metar": "METAR LIPQ 230120Z AUTO 07005KT 9999 NCD 18/10 Q1025",
      "taf": "TAF LIPQ 222300Z 2300/2324 VRB05KT 9999 FEW070"
    },
    {
      "icao": "LIPR",
      "alert": "OK",
      "vis_m": 9999,
      "fzfg": false,
      "metar_trigger": false,
      "taf_trigger": false,
      "metar": "METAR LIPR 230120Z AUTO 21003KT 9999 NCD 14/09 Q1025",
      "taf": "TAF LIPR 222300Z 2300/2324 VRB05KT CAVOK"
    },
    {
      "icao": "LIPX",
      "alert": "OK",
      "vis_m": 9999,
      "fzfg": false,
      "metar_trigger": false,
      "taf_trigger": false,
      "metar": "METAR LIPX 230120Z 01003KT 9999 SCT080 16/13 Q1025",
      "taf": "TAF LIPX 222300Z 2300/2324 VRB05KT 9999 FEW050"
    },
    {
      "icao": "LIPY",
      "alert": "OK",
      "vis_m": 9999,
      "fzfg": false,
      "metar_trigger": false,
      "taf_trigger": false,
      "metar": "METAR LIPY 230120Z AUTO 21003KT 180V280 9999 NCD 13/10 Q1025",
      "taf": "TAF LIPY 222300Z 2300/2324 VRB05KT CAVOK"
    },
    {
      "icao": "LIPZ",
      "alert": "OK",
      "vis_m": 9999,
      "fzfg": false,
      "metar_trigger": false,
      "taf_trigger": false,
      "metar": "METAR LIPZ 230120Z 31002KT CAVOK 19/13 Q1025 NOSIG",
      "taf": "TAF LIPZ 222300Z 2300/2406 VRB05KT 9999 FEW070"
    },
    {
      "icao": "LIRF",
      "alert": "OK",
      "vis_m": 9999,
      "fzfg": false,
      "metar_trigger": false,
      "taf_trigger": false,
      "metar": "METAR LIRF 230120Z 04005KT CAVOK 17/09 Q1022 NOSIG",
      "taf": "TAF LIRF 222300Z 2300/2406 03008KT CAVOK"
    },
    {
      "icao": "LIRN",
      "alert": "OK",
      "vis_m": 9999,
      "fzfg": false,
      "metar_trigger": false,
      "taf_trigger": false,
      "metar": "METAR LIRN 230120Z 30005KT CAVOK 19/07 Q1021 NOSIG",
      "taf": "TAF LIRN 222300Z 2300/2324 VRB05KT 9999 FEW040"
    },
    {
      "icao": "LIRP",
      "alert": "OK",
      "vis_m": 9999,
      "fzfg": false,
      "metar_trigger": false,
      "taf_trigger": false,
      "metar": "METAR LIRP 230115Z 10005KT CAVOK 15/11 Q1025 NOSIG",
      "taf": "TAF LIRP 222300Z 2300/2324 VRB03KT CAVOK"
    },
    {
      "icao": "LIRZ",
      "alert": "OK",
      "vis_m": 9999,
      "fzfg": false,
      "metar_trigger": false,
      "taf_trigger": false,
      "metar": "METAR LIRZ 230120Z AUTO 33007KT 9999 NCD 12/09 Q1025",
      "taf": "TAF LIRZ 222300Z 2300/2324 VRB05KT CAVOK"
    },
    {
      "icao": "LJLJ",
      "alert": "OK",
      "vis_m": 9999,
      "fzfg": false,
      "metar_trigger": false,
      "taf_trigger": false,
      "metar": "METAR LJLJ 230100Z VRB02KT 9999 FEW060 SCT240 11/09 Q1027 NOSIG",
      "taf": "TAF LJLJ 222300Z 2300/2400 VRB02KT 9999 FEW070"
    },
    {
      "icao": "LKMT",
      "alert": "OK",
      "vis_m": 9999,
      "fzfg": false,
      "metar_trigger": false,
      "taf_trigger": false,
      "metar": "METAR LKMT 230100Z 18001KT CAVOK 11/09 Q1029 NOSIG",
      "taf": "TAF LKMT 222300Z 2300/2324 03008KT CAVOK"
    },
    {
      "icao": "LKPR",
      "alert": "OK",
      "vis_m": 9999,
      "fzfg": false,
      "metar_trigger": false,
      "taf_trigger": false,
      "metar": "METAR LKPR 230100Z 00000KT CAVOK 11/09 Q1029 NOSIG",
      "taf": "TAF LKPR 222300Z 2300/2406 05005KT CAVOK"
    },
    {
      "icao": "LLBG",
      "alert": "OK",
      "vis_m": 9999,
      "fzfg": false,
      "metar_trigger": false,
      "taf_trigger": false,
      "metar": "METAR LLBG 230120Z VRB03KT CAVOK 18/14 Q1015 NOSIG",
      "taf": ""
    },
    {
      "icao": "LMML",
      "alert": "OK",
      "vis_m": 9999,
      "fzfg": false,
      "metar_trigger": false,
      "taf_trigger": false,
      "metar": "METAR LMML 230115Z 12004KT CAVOK 18/15 Q1020 NOSIG",
      "taf": "TAF LMML 222300Z 2300/2324 VRB06KT 9999 FEW018"
    },
    {
      "icao": "LOWW",
      "alert": "OK",
      "vis_m": 9999,
      "fzfg": false,
      "metar_trigger": false,
      "taf_trigger": false,
      "metar": "METAR LOWW 230120Z 33007KT CAVOK 13/09 Q1028 NOSIG",
      "taf": "TAF LOWW 222315Z 2300/2406 34003KT 9999 FEW050 TX26/2313Z TN13/2303Z"
    },
    {
      "icao": "LPFR",
      "alert": "OK",
      "vis_m": 9999,
      "fzfg": false,
      "metar_trigger": false,
      "taf_trigger": false,
      "metar": "METAR LPFR 230100Z 06011KT CAVOK 22/10 Q1019",
      "taf": "TAF LPFR 222300Z 2300/2324 08008KT CAVOK"
    },
    {
      "icao": "LPMA",
      "alert": "OK",
      "vis_m": 9999,
      "fzfg": false,
      "metar_trigger": false,
      "taf_trigger": false,
      "metar": "METAR LPMA 230100Z 01016KT 340V040 9999 FEW013 18/14 Q1022",
      "taf": "TAF LPMA 222300Z 2300/2324 02013KT 9999 FEW013"
    },
    {
      "icao": "LPPR",
      "alert": "OK",
      "vis_m": 9999,
      "fzfg": false,
      "metar_trigger": false,
      "taf_trigger": false,
      "metar": "METAR LPPR 230100Z 27005KT 220V340 9999 VCSH FEW040 19/14 Q1021",
      "taf": "TAF LPPR 222300Z 2300/2324 VRB02KT 9999 FEW040"
    },
    {
      "icao": "LPPS",
      "alert": "OK",
      "vis_m": 9999,
      "fzfg": false,
      "metar_trigger": false,
      "taf_trigger": false,
      "metar": "METAR LPPS 230100Z 36014KT 9999 SCT012 18/15 Q1022",
      "taf": "TAF LPPS 222300Z 2300/2406 01013KT 9999 FEW012"
    },
    {
      "icao": "LPPT",
      "alert": "OK",
      "vis_m": 9999,
      "fzfg": false,
      "metar_trigger": false,
      "taf_trigger": false,
      "metar": "METAR LPPT 230100Z 27004KT 230V310 CAVOK 22/10 Q1020",
      "taf": "TAF LPPT 222300Z 2300/2406 32007KT CAVOK"
    },
    {
      "icao": "LQBK",
      "alert": "OK",
      "vis_m": 9999,
      "fzfg": false,
      "metar_trigger": false,
      "taf_trigger": false,
      "metar": "METAR LQBK 230100Z 13004KT 360V160 CAVOK 11/09 Q1025 NOSIG",
      "taf": "TAF LQBK 222300Z 2300/2324 32005KT CAVOK TX26/2314Z TN09/2304Z"
    },
    {
      "icao": "LQSA",
      "alert": "OK",
      "vis_m": 9999,
      "fzfg": false,
      "metar_trigger": false,
      "taf_trigger": false,
      "metar": "METAR LQSA 230100Z 36003KT 320V030 CAVOK 14/10 Q1025",
      "taf": "TAF LQSA 222300Z 2300/2324 29005KT 9999 SCT050 TX21/2313Z TN10/2304Z"
    },
    {
      "icao": "LQTZ",
      "alert": "OK",
      "vis_m": 9999,
      "fzfg": false,
      "metar_trigger": false,
      "taf_trigger": false,
      "metar": "METAR LQTZ 230100Z 32004KT CAVOK 15/13 Q1024",
      "taf": "TAF LQTZ 222300Z 2300/2324 27005KT 9999 SCT060 TX26/2314Z TN12/2304Z"
    },
    {
      "icao": "LRBC",
      "alert": "OK",
      "vis_m": 9999,
      "fzfg": false,
      "metar_trigger": false,
      "taf_trigger": false,
      "metar": "METAR LRBC 230100Z 35006KT CAVOK 13/12 Q1022",
      "taf": "TAF LRBC 222300Z 2300/2309 34016KT 9999 SCT030"
    },
    {
      "icao": "LRBS",
      "alert": "OK",
      "vis_m": 8000,
      "fzfg": false,
      "metar_trigger": false,
      "taf_trigger": false,
      "metar": "METAR LRBS 230100Z 00000KT 8000 FEW048 16/15 Q1018 TEMPO 5000 -SHRA",
      "taf": "TAF LRBS 222300Z 2300/2324 VRB04KT CAVOK"
    },
    {
      "icao": "LRBV",
      "alert": "OK",
      "vis_m": 9999,
      "fzfg": false,
      "metar_trigger": false,
      "taf_trigger": false,
      "metar": "METAR LRBV 230100Z AUTO 30008KT 9999 OVC044/// 14/13 Q1022",
      "taf": "TAF LRBV 222000Z 2221/2306 30008KT 9999 BKN030 BKN055"
    },
    {
      "icao": "LRCL",
      "alert": "OK",
      "vis_m": 9999,
      "fzfg": false,
      "metar_trigger": false,
      "taf_trigger": false,
      "metar": "METAR LRCL 230100Z 28006KT CAVOK 11/09 Q1023",
      "taf": "TAF LRCL 222300Z 2300/2309 VRB04KT CAVOK"
    },
    {
      "icao": "LRCV",
      "alert": "OK",
      "vis_m": 9999,
      "fzfg": false,
      "metar_trigger": false,
      "taf_trigger": false,
      "metar": "METAR LRCV 230100Z 32006KT CAVOK 15/15 Q1019",
      "taf": "TAF LRCV 222300Z 2300/2309 VRB04KT CAVOK"
    },
    {
      "icao": "LRIA",
      "alert": "OK",
      "vis_m": 9999,
      "fzfg": false,
      "metar_trigger": false,
      "taf_trigger": false,
      "metar": "METAR LRIA 230100Z 26006KT 240V310 CAVOK 14/12 Q1022",
      "taf": "TAF LRIA 222300Z 2300/2309 30012KT 9999 SCT020"
    },
    {
      "icao": "LROP",
      "alert": "OK",
      "vis_m": 9999,
      "fzfg": false,
      "metar_trigger": false,
      "taf_trigger": false,
      "metar": "METAR LROP 230100Z 15002KT CAVOK 16/15 Q1018 TEMPO 5000 -SHRA",
      "taf": "TAF LROP 222300Z 2300/2324 VRB04KT CAVOK"
    },
    {
      "icao": "LRSB",
      "alert": "OK",
      "vis_m": 9999,
      "fzfg": false,
      "metar_trigger": false,
      "taf_trigger": false,
      "metar": "METAR LRSB 230100Z 26007KT CAVOK 13/12 Q1022",
      "taf": "TAF LRSB 222300Z 2300/2324 VRB04KT 9999 SCT050"
    },
    {
      "icao": "LRSM",
      "alert": "OK",
      "vis_m": 9999,
      "fzfg": false,
      "metar_trigger": false,
      "taf_trigger": false,
      "metar": "METAR LRSM 230100Z AUTO VRB02KT 9999 NCD 11/08 Q1024",
      "taf": "TAF LRSM 221400Z 2215/2224 03014KT CAVOK"
    },
    {
      "icao": "LRSV",
      "alert": "OK",
      "vis_m": 9999,
      "fzfg": false,
      "metar_trigger": false,
      "taf_trigger": false,
      "metar": "METAR LRSV 230100Z 30012KT 9999 BKN048 14/09 Q1023",
      "taf": "TAF LRSV 222300Z 2300/2309 VRB04KT 9999 SCT015 BKN040CB"
    },
    {
      "icao": "LRTM",
      "alert": "OK",
      "vis_m": 9999,
      "fzfg": false,
      "metar_trigger": false,
      "taf_trigger": false,
      "metar": "METAR LRTM 230100Z 35006KT 310V030 CAVOK 17/11 Q1022",
      "taf": "TAF LRTM 222300Z 2300/2309 VRB04KT CAVOK"
    },
    {
      "icao": "LRTR",
      "alert": "OK",
      "vis_m": 9999,
      "fzfg": false,
      "metar_trigger": false,
      "taf_trigger": false,
      "metar": "METAR LRTR 230100Z 01009KT CAVOK 14/10 Q1021",
      "taf": "TAF LRTR 222300Z 2300/2324 36008KT CAVOK"
    },
    {
      "icao": "LTAC",
      "alert": "OK",
      "vis_m": 9999,
      "fzfg": false,
      "metar_trigger": false,
      "taf_trigger": false,
      "metar": "METAR LTAC 230120Z 14003KT 080V200 9999 FEW040 BKN080 11/09 Q1015 NOSIG RMK RWY21C 13002KT RWY03L 10003KT 060V160 RWY21R VRB01KT RWY03R 14003KT RWY21L 11003KT 070V140",
      "taf": "TAF LTAC 222240Z 2300/2324 VRB02KT CAVOK"
    },
    {
      "icao": "LTFM",
      "alert": "OK",
      "vis_m": 7000,
      "fzfg": false,
      "metar_trigger": false,
      "taf_trigger": false,
      "metar": "METAR LTFM 230120Z 04010KT 7000 BKN003 BKN022 16/15 Q1016 NOSIG RMK RWY17L 04009KT RWY34L 04010KT RWY16R 04009KT RWY36 04009KT RWY18 05008KT",
      "taf": "TAF LTFM 222240Z 2300/2406 36012KT 4000 BR BKN003 BKN022"
    },
    {
      "icao": "LUKK",
      "alert": "OK",
      "vis_m": 9999,
      "fzfg": false,
      "metar_trigger": false,
      "taf_trigger": false,
      "metar": "METAR LUKK 230100Z 34013KT CAVOK 16/14 Q1019 NOSIG",
      "taf": "TAF LUKK 222320Z 2300/2324 34010KT 9999 SCT040"
    },
    {
      "icao": "LWOH",
      "alert": "OK",
      "vis_m": null,
      "fzfg": false,
      "metar_trigger": false,
      "taf_trigger": false,
      "metar": "",
      "taf": "TAF LWOH 222010Z 2221/2321 33060KT 9999 BKN050"
    },
    {
      "icao": "LWSK",
      "alert": "OK",
      "vis_m": 9999,
      "fzfg": false,
      "metar_trigger": false,
      "taf_trigger": false,
      "metar": "METAR LWSK 230120Z 07003KT 360V130 9999 BKN033 OVC090 16/14 Q1020 NOSIG",
      "taf": "TAF LWSK 222010Z 2221/2321 VRB02KT 9999 RA SCT020 OVC040"
    },
    {
      "icao": "LYBE",
      "alert": "OK",
      "vis_m": 9999,
      "fzfg": false,
      "metar_trigger": false,
      "taf_trigger": false,
      "metar": "METAR LYBE 230100Z 32006KT CAVOK 13/09 Q1022 NOSIG",
      "taf": "TAF LYBE 222300Z 2300/2324 34009KT CAVOK TX27/2313Z TN14/2304Z"
    },
    {
      "icao": "LYNI",
      "alert": "OK",
      "vis_m": 9999,
      "fzfg": false,
      "metar_trigger": false,
      "taf_trigger": false,
      "metar": "METAR LYNI 230100Z 33007KT 9999 FEW047 BKN090 17/15 Q1020 NOSIG",
      "taf": "TAF LYNI 222300Z 2300/2324 35007KT 9999 SCT035 SCT060 TX23/2313Z TN13/2304Z"
    },
    {
      "icao": "LYPG",
      "alert": "OK",
      "vis_m": 9999,
      "fzfg": false,
      "metar_trigger": false,
      "taf_trigger": false,
      "metar": "METAR LYPG 230100Z 35016KT 9999 FEW060 22/11 Q1018 NOSIG",
      "taf": "TAF LYPG 222300Z 2300/2324 36018KT 9999 SCT060 TX29/2312Z TN18/2304Z"
    },
    {
      "icao": "LZIB",
      "alert": "OK",
      "vis_m": 9999,
      "fzfg": false,
      "metar_trigger": false,
      "taf_trigger": false,
      "metar": "METAR LZIB 230100Z 36007KT CAVOK 16/09 Q1027 NOSIG",
      "taf": "TAF LZIB 222315Z 2300/2400 35005KT CAVOK"
    },
    {
      "icao": "LZKZ",
      "alert": "OK",
      "vis_m": 9999,
      "fzfg": false,
      "metar_trigger": false,
      "taf_trigger": false,
      "metar": "METAR LZKZ 230100Z 36010KT CAVOK 17/07 Q1026 NOSIG",
      "taf": "TAF LZKZ 222315Z 2300/2400 36005KT CAVOK"
    },
    {
      "icao": "LZTT",
      "alert": "OK",
      "vis_m": 9999,
      "fzfg": false,
      "metar_trigger": false,
      "taf_trigger": false,
      "metar": "METAR LZTT 230100Z 28006KT 250V310 CAVOK 06/05 Q1028",
      "taf": "TAF LZTT 222315Z 2300/2400 VRB03KT CAVOK"
    },
    {
      "icao": "OEJN",
      "alert": "OK",
      "vis_m": 9999,
      "fzfg": false,
      "metar_trigger": false,
      "taf_trigger": false,
      "metar": "METAR OEJN 230100Z 36008KT CAVOK 27/21 Q1008 NOSIG",
      "taf": "TAF OEJN 222300Z 2300/2406 01006KT CAVOK"
    },
    {
      "icao": "OEMA",
      "alert": "OK",
      "vis_m": 9999,
      "fzfg": false,
      "metar_trigger": false,
      "taf_trigger": false,
      "metar": "METAR OEMA 230100Z 02004KT CAVOK 28/M05 Q1014 NOSIG",
      "taf": "TAF OEMA 222300Z 2300/2406 VRB03KT CAVOK"
    },
    {
      "icao": "OJAI",
      "alert": "OK",
      "vis_m": 5000,
      "fzfg": false,
      "metar_trigger": false,
      "taf_trigger": false,
      "metar": "METAR OJAI 230100Z 33004KT 5000 HZ NSC 12/09 Q1017 NOSIG",
      "taf": "TAF OJAI 222244Z 2300/2406 29010KT 5000 HZ NSC"
    },
    {
      "icao": "OMAA",
      "alert": "OK",
      "vis_m": 9999,
      "fzfg": false,
      "metar_trigger": false,
      "taf_trigger": false,
      "metar": "METAR OMAA 230130Z 30002KT CAVOK 29/23 Q1007 NOSIG",
      "taf": "TAF OMAA 222300Z 2300/2406 31010KT 8000 NSC"
    },
    {
      "icao": "OMDB",
      "alert": "OK",
      "vis_m": 9999,
      "fzfg": false,
      "metar_trigger": false,
      "taf_trigger": false,
      "metar": "METAR OMDB 230130Z 19006KT 140V220 CAVOK 31/19 Q1006 NOSIG",
      "taf": "TAF OMDB 222300Z 2300/2406 19006KT 8000 NSC"
    },
    {
      "icao": "UAAA",
      "alert": "OK",
      "vis_m": 5000,
      "fzfg": false,
      "metar_trigger": false,
      "taf_trigger": false,
      "metar": "METAR UAAA 230100Z 26004MPS 5000 -SHRA BR BKN050CB OVC100 10/09 Q1018 NOSIG",
      "taf": "TAF UAAA 222304Z 2300/2324 34003G08MPS 9999 BKN020CB OVC050 TX16/2310Z TN07/2300Z"
    },
    {
      "icao": "UBBB",
      "alert": "OK",
      "vis_m": 9999,
      "fzfg": false,
      "metar_trigger": false,
      "taf_trigger": false,
      "metar": "METAR UBBB 230100Z 29006KT CAVOK 16/15 Q1015 NOSIG",
      "taf": "TAF UBBB 222305Z 2300/2324 32005KT 9999 SCT010 TX23/2310Z TN15/2300Z"
    },
    {
      "icao": "UDSG",
      "alert": "OK",
      "vis_m": 9999,
      "fzfg": false,
      "metar_trigger": false,
      "taf_trigger": false,
      "metar": "METAR UDSG 230100Z 04003KT 9999 BKN049CB 06/06 Q1019 NOSIG",
      "taf": "TAF UDSG 222258Z 2300/2324 24006KT 9999 SCT040"
    },
    {
      "icao": "UDYZ",
      "alert": "OK",
      "vis_m": 9999,
      "fzfg": false,
      "metar_trigger": false,
      "taf_trigger": false,
      "metar": "METAR UDYZ 230100Z 28001KT 9999 SCT046 12/10 Q1017 NOSIG",
      "taf": "TAF UDYZ 222300Z 2300/2324 16006KT 9999 FEW040"
    },
    {
      "icao": "UGKO",
      "alert": "OK",
      "vis_m": 9999,
      "fzfg": false,
      "metar_trigger": false,
      "taf_trigger": false,
      "metar": "METAR UGKO 230100Z 14003KT 9999 -RA SCT036 BKN090 13/13 Q1015 NOSIG",
      "taf": "TAF UGKO 222300Z 2300/2324 09006KT CAVOK TX27/2311Z TN12/2302Z"
    }
  ]
}