{
  "ts_utc": "2026-05-06T18:57:18Z",
  "threshold_m": 150,
  "source": "stations_override.txt (ICAO list) + aviationweather.gov (METAR/TAF raw)",
  "station_count": 159,
  "stations": [
    {
      "icao": "BIKF",
      "alert": "OK",
      "vis_m": 9999,
      "fzfg": false,
      "metar_trigger": false,
      "taf_trigger": false,
      "metar": "METAR BIKF 061830Z 03019KT 9999 BKN038 03/M06 Q1022",
      "taf": "TAF BIKF 061658Z 0618/0718 02016KT 9999 SCT040 TX05/0715Z TNM01/0705Z"
    },
    {
      "icao": "BKPR",
      "alert": "OK",
      "vis_m": null,
      "fzfg": false,
      "metar_trigger": false,
      "taf_trigger": false,
      "metar": "",
      "taf": "TAF BKPR 061730Z 0618/0718 24008KT 9999 SCT080"
    },
    {
      "icao": "EBCI",
      "alert": "OK",
      "vis_m": 9999,
      "fzfg": false,
      "metar_trigger": false,
      "taf_trigger": false,
      "metar": "METAR EBCI 061850Z COR 02005KT 9999 FEW035 11/07 Q1010 NOSIG",
      "taf": "TAF EBCI 061720Z 0618/0724 02007KT 9999 SCT040"
    },
    {
      "icao": "EDDB",
      "alert": "OK",
      "vis_m": 9999,
      "fzfg": false,
      "metar_trigger": false,
      "taf_trigger": false,
      "metar": "METAR EDDB 061850Z AUTO 06008KT 9999 SCT017 10/08 Q1007 NOSIG",
      "taf": "TAF EDDB 061700Z 0618/0718 03008KT 9999 BKN015"
    },
    {
      "icao": "EDDH",
      "alert": "OK",
      "vis_m": 9999,
      "fzfg": false,
      "metar_trigger": false,
      "taf_trigger": false,
      "metar": "METAR EDDH 061850Z AUTO 06009KT 9999 SCT046 10/06 Q1010 NOSIG",
      "taf": "TAF EDDH 061700Z 0618/0724 05007KT 9999 SCT030"
    },
    {
      "icao": "EDDK",
      "alert": "OK",
      "vis_m": 9999,
      "fzfg": false,
      "metar_trigger": false,
      "taf_trigger": false,
      "metar": "METAR EDDK 061850Z AUTO 33006KT 9999 OVC013 09/08 Q1009 TEMPO BKN015",
      "taf": "TAF EDDK 061700Z 0618/0724 33007KT 9999 BKN006 OVC011"
    },
    {
      "icao": "EDDN",
      "alert": "OK",
      "vis_m": 9999,
      "fzfg": false,
      "metar_trigger": false,
      "taf_trigger": false,
      "metar": "METAR EDDN 061850Z AUTO 29007KT 9999 -SHRA FEW030 SCT041 FEW///CB 13/11 Q1006 RESHRA NOSIG",
      "taf": "TAF EDDN 061700Z 0618/0718 24005KT 9999 BKN040"
    },
    {
      "icao": "EDDS",
      "alert": "OK",
      "vis_m": 9999,
      "fzfg": false,
      "metar_trigger": false,
      "taf_trigger": false,
      "metar": "METAR EDDS 061850Z AUTO 22006KT 150V290 9999 SHRA FEW049 FEW///TCU 10/09 Q1008 NOSIG",
      "taf": "TAF EDDS 061700Z 0618/0718 21005KT 9999 BKN045"
    },
    {
      "icao": "EDFH",
      "alert": "OK",
      "vis_m": 4000,
      "fzfg": false,
      "metar_trigger": false,
      "taf_trigger": false,
      "metar": "METAR EDFH 061850Z 33007KT 4000 BR OVC003 08/08 Q1008",
      "taf": "TAF EDFH 061700Z 0618/0718 33005KT 9999 BKN010"
    },
    {
      "icao": "EDJA",
      "alert": "OK",
      "vis_m": 9999,
      "fzfg": false,
      "metar_trigger": false,
      "taf_trigger": false,
      "metar": "METAR EDJA 061850Z 23012KT CAVOK 09/06 Q1009",
      "taf": "TAF EDJA 061700Z 0618/0703 24015G25KT 9999 SCT020"
    },
    {
      "icao": "EDLW",
      "alert": "OK",
      "vis_m": 4100,
      "fzfg": false,
      "metar_trigger": false,
      "taf_trigger": false,
      "metar": "METAR EDLW 061850Z 01006KT 4100 BR OVC002 08/08 Q1009",
      "taf": "TAF EDLW 061700Z 0618/0718 35005KT 9999 OVC004"
    },
    {
      "icao": "EDNY",
      "alert": "OK",
      "vis_m": 9999,
      "fzfg": false,
      "metar_trigger": false,
      "taf_trigger": false,
      "metar": "METAR EDNY 061850Z 25007KT 9999 FEW029 11/07 Q1010",
      "taf": "TAF EDNY 061700Z 0618/0703 24008KT 9999 SCT040"
    },
    {
      "icao": "EDSB",
      "alert": "OK",
      "vis_m": 5000,
      "fzfg": false,
      "metar_trigger": false,
      "taf_trigger": false,
      "metar": "METAR EDSB 061850Z 20014KT 5000 RA BR SCT011 BKN028 OVC037 11/11 Q1008",
      "taf": "TAF EDSB 061700Z 0618/0718 23007KT 9999 BKN045"
    },
    {
      "icao": "EETN",
      "alert": "OK",
      "vis_m": 9999,
      "fzfg": false,
      "metar_trigger": false,
      "taf_trigger": false,
      "metar": "METAR EETN 061850Z VRB02KT CAVOK 06/M01 Q1014 NOSIG",
      "taf": "TAF EETN 061730Z 0618/0718 35006KT CAVOK"
    },
    {
      "icao": "EFTU",
      "alert": "OK",
      "vis_m": 9999,
      "fzfg": false,
      "metar_trigger": false,
      "taf_trigger": false,
      "metar": "METAR EFTU 061850Z AUTO 30004KT CAVOK 05/M09 Q1014",
      "taf": "TAF EFTU 061723Z 0618/0718 29007KT CAVOK"
    },
    {
      "icao": "EGBB",
      "alert": "OK",
      "vis_m": 9999,
      "fzfg": false,
      "metar_trigger": false,
      "taf_trigger": false,
      "metar": "METAR EGBB 061850Z 06006KT 010V090 CAVOK 09/04 Q1015",
      "taf": "TAF EGBB 061655Z 0618/0718 04007KT 9999 SCT035"
    },
    {
      "icao": "EGGP",
      "alert": "OK",
      "vis_m": 9999,
      "fzfg": false,
      "metar_trigger": false,
      "taf_trigger": false,
      "metar": "METAR EGGP 061850Z 13007KT CAVOK 11/01 Q1014",
      "taf": "TAF EGGP 061655Z 0618/0718 08007KT 9999 FEW035"
    },
    {
      "icao": "EGGW",
      "alert": "OK",
      "vis_m": 9999,
      "fzfg": false,
      "metar_trigger": false,
      "taf_trigger": false,
      "metar": "METAR EGGW 061850Z AUTO 02010G21KT 350V050 9999 NCD 09/05 Q1014",
      "taf": "TAF EGGW 061653Z 0618/0718 03009KT 9999 SCT030"
    },
    {
      "icao": "EGKK",
      "alert": "OK",
      "vis_m": 9999,
      "fzfg": false,
      "metar_trigger": false,
      "taf_trigger": false,
      "metar": "METAR EGKK 061850Z 07006KT 9999 SCT045 11/05 Q1013",
      "taf": "TAF EGKK 061700Z 0618/0724 04010KT 9999 SCT030"
    },
    {
      "icao": "EGNM",
      "alert": "OK",
      "vis_m": 9999,
      "fzfg": false,
      "metar_trigger": false,
      "taf_trigger": false,
      "metar": "METAR EGNM 061850Z 10006KT 9999 FEW030 07/02 Q1015",
      "taf": "TAF EGNM 061653Z 0618/0718 08005KT 9999 SCT025"
    },
    {
      "icao": "EGPD",
      "alert": "OK",
      "vis_m": 9999,
      "fzfg": false,
      "metar_trigger": false,
      "taf_trigger": false,
      "metar": "METAR EGPD 061850Z COR AUTO 17013KT 9999 NCD 07/01 Q1015 NOSIG",
      "taf": "TAF EGPD 061657Z 0618/0718 17010KT 9999 FEW045"
    },
    {
      "icao": "EGPF",
      "alert": "OK",
      "vis_m": 9999,
      "fzfg": false,
      "metar_trigger": false,
      "taf_trigger": false,
      "metar": "METAR EGPF 061850Z AUTO 31003KT 260V330 9999 NCD 11/02 Q1014",
      "taf": "TAF EGPF 061653Z 0618/0718 18004KT 9999 SCT030"
    },
    {
      "icao": "EHBK",
      "alert": "OK",
      "vis_m": 9999,
      "fzfg": false,
      "metar_trigger": false,
      "taf_trigger": false,
      "metar": "METAR EHBK 061825Z AUTO 36005KT 320V060 9999 FEW010/// SCT013/// OVC016/// 09/07 Q1010 TEMPO BKN014",
      "taf": "TAF EHBK 061711Z 0618/0724 36005KT 9999 OVC016"
    },
    {
      "icao": "EHEH",
      "alert": "OK",
      "vis_m": 9999,
      "fzfg": false,
      "metar_trigger": false,
      "taf_trigger": false,
      "metar": "METAR EHEH 061825Z AUTO 02005KT 290V050 9999 OVC039 11/06 Q1010 BLU NOSIG",
      "taf": "TAF EHEH 061711Z 0618/0724 02007KT 9999 FEW018 BKN020"
    },
    {
      "icao": "EKBI",
      "alert": "OK",
      "vis_m": 9999,
      "fzfg": false,
      "metar_trigger": false,
      "taf_trigger": false,
      "metar": "METAR EKBI 061850Z AUTO 35005KT 9999 OVC054/// 11/03 Q1012",
      "taf": "TAF EKBI 061727Z 0618/0718 02006KT 9999 FEW045"
    },
    {
      "icao": "EKCH",
      "alert": "OK",
      "vis_m": 9999,
      "fzfg": false,
      "metar_trigger": false,
      "taf_trigger": false,
      "metar": "METAR EKCH 061850Z AUTO 17010KT 9999 NCD 08/03 Q1013 NOSIG",
      "taf": "TAF EKCH 061727Z 0618/0718 14010KT CAVOK"
    },
    {
      "icao": "ENAL",
      "alert": "OK",
      "vis_m": 9999,
      "fzfg": false,
      "metar_trigger": false,
      "taf_trigger": false,
      "metar": "METAR ENAL 061850Z 22013KT 9999 FEW035 SCT046 06/00 Q1012",
      "taf": "TAF ENAL 061700Z 0618/0703 23012KT 9999 FEW025TCU SCT040"
    },
    {
      "icao": "ENBR",
      "alert": "OK",
      "vis_m": 9999,
      "fzfg": false,
      "metar_trigger": false,
      "taf_trigger": false,
      "metar": "METAR ENBR 061850Z 26003KT 200V300 9999 FEW020TCU FEW028 05/00 Q1015 TEMPO SHRA RMK WIND 1200FT 28005KT",
      "taf": "TAF ENBR 061700Z 0618/0718 VRB05KT 9999 FEW015TCU SCT025"
    },
    {
      "icao": "ENGM",
      "alert": "OK",
      "vis_m": 9999,
      "fzfg": false,
      "metar_trigger": false,
      "taf_trigger": false,
      "metar": "METAR ENGM 061850Z VRB02KT CAVOK 09/M10 Q1010 NOSIG",
      "taf": "TAF ENGM 061700Z 0618/0718 30005KT CAVOK"
    },
    {
      "icao": "ENHD",
      "alert": "OK",
      "vis_m": 9999,
      "fzfg": false,
      "metar_trigger": false,
      "taf_trigger": false,
      "metar": "METAR ENHD 061850Z 30006KT CAVOK 06/M01 Q1016",
      "taf": "TAF ENHD 061400Z 0615/0622 32010KT 9999 SCT035"
    },
    {
      "icao": "ENTC",
      "alert": "OK",
      "vis_m": 9999,
      "fzfg": false,
      "metar_trigger": false,
      "taf_trigger": false,
      "metar": "METAR ENTC 061850Z 36004KT 330V060 9999 FEW057 04/M03 Q1009 NOSIG RMK WIND 2600FT 00000KT",
      "taf": "TAF ENTC 061700Z 0618/0718 02008KT 9999 FEW040"
    },
    {
      "icao": "ENTO",
      "alert": "OK",
      "vis_m": 9999,
      "fzfg": false,
      "metar_trigger": false,
      "taf_trigger": false,
      "metar": "METAR ENTO 061850Z 25005KT CAVOK 08/M03 Q1011 NOSIG",
      "taf": "TAF ENTO 061700Z 0618/0718 19010KT CAVOK"
    },
    {
      "icao": "ENVA",
      "alert": "OK",
      "vis_m": 9999,
      "fzfg": false,
      "metar_trigger": false,
      "taf_trigger": false,
      "metar": "METAR ENVA 061850Z COR 19014KT 9999 -SN SCT034CB BKN050 03/01 Q1013 BECMG 24008KT TEMPO SHSNRA RMK WIND 670FT 19019KT",
      "taf": ""
    },
    {
      "icao": "ENZV",
      "alert": "OK",
      "vis_m": 9999,
      "fzfg": false,
      "metar_trigger": false,
      "taf_trigger": false,
      "metar": "METAR ENZV 061850Z 34014KT CAVOK 07/M02 Q1015 NOSIG",
      "taf": "TAF ENZV 061700Z 0618/0718 33015KT CAVOK"
    },
    {
      "icao": "EPGD",
      "alert": "OK",
      "vis_m": 4000,
      "fzfg": false,
      "metar_trigger": false,
      "taf_trigger": false,
      "metar": "METAR EPGD 061830Z 04013KT 010V070 4000 -RADZ BR OVC002 05/05 Q1008",
      "taf": "TAF EPGD 061730Z 0618/0718 05014KT 9999 BKN006"
    },
    {
      "icao": "EPKK",
      "alert": "OK",
      "vis_m": 9999,
      "fzfg": false,
      "metar_trigger": false,
      "taf_trigger": false,
      "metar": "METAR EPKK 061830Z 01003KT 280V050 CAVOK 16/14 Q1006",
      "taf": "TAF EPKK 061730Z 0618/0718 21005KT CAVOK"
    },
    {
      "icao": "EPKT",
      "alert": "OK",
      "vis_m": 9999,
      "fzfg": false,
      "metar_trigger": false,
      "taf_trigger": false,
      "metar": "METAR EPKT 061830Z 14006KT CAVOK 19/07 Q1006",
      "taf": "TAF EPKT 061730Z 0618/0718 20007KT CAVOK"
    },
    {
      "icao": "EPLB",
      "alert": "OK",
      "vis_m": 9999,
      "fzfg": false,
      "metar_trigger": false,
      "taf_trigger": false,
      "metar": "METAR EPLB 061830Z 21003KT CAVOK 20/11 Q1006",
      "taf": "TAF EPLB 061730Z 0618/0718 19005KT CAVOK"
    },
    {
      "icao": "EPMO",
      "alert": "OK",
      "vis_m": 9999,
      "fzfg": false,
      "metar_trigger": false,
      "taf_trigger": false,
      "metar": "METAR EPMO 061830Z 17003KT CAVOK 19/11 Q1005",
      "taf": "TAF EPMO 061730Z 0618/0718 26006KT CAVOK"
    },
    {
      "icao": "EPPO",
      "alert": "OK",
      "vis_m": 9999,
      "fzfg": false,
      "metar_trigger": false,
      "taf_trigger": false,
      "metar": "METAR EPPO 061830Z 32007KT 9999 BKN013 11/09 Q1006",
      "taf": "TAF EPPO 061730Z 0618/0718 30010KT 9999 BKN013"
    },
    {
      "icao": "EPRA",
      "alert": "OK",
      "vis_m": 9999,
      "fzfg": false,
      "metar_trigger": false,
      "taf_trigger": false,
      "metar": "METAR EPRA 061830Z 23003KT CAVOK 21/08 Q1006",
      "taf": "TAF EPRA 061730Z 0618/0703 24006KT CAVOK"
    },
    {
      "icao": "EPRZ",
      "alert": "OK",
      "vis_m": 9999,
      "fzfg": false,
      "metar_trigger": false,
      "taf_trigger": false,
      "metar": "METAR EPRZ 061830Z 18008KT CAVOK 21/08 Q1007",
      "taf": "TAF EPRZ 061730Z 0618/0718 18009KT CAVOK"
    },
    {
      "icao": "EPSC",
      "alert": "OK",
      "vis_m": 9999,
      "fzfg": false,
      "metar_trigger": false,
      "taf_trigger": false,
      "metar": "METAR EPSC 061830Z 01006KT 330V030 9999 SCT009 BKN017 07/05 Q1008",
      "taf": "TAF EPSC 061730Z 0618/0718 02012KT 9999 OVC009"
    },
    {
      "icao": "EPSY",
      "alert": "OK",
      "vis_m": 9999,
      "fzfg": false,
      "metar_trigger": false,
      "taf_trigger": false,
      "metar": "METAR EPSY 061830Z 30004KT CAVOK 16/09 Q1005",
      "taf": "TAF EPSY 061730Z 0618/0703 27006KT CAVOK"
    },
    {
      "icao": "EPWA",
      "alert": "OK",
      "vis_m": 9999,
      "fzfg": false,
      "metar_trigger": false,
      "taf_trigger": false,
      "metar": "METAR EPWA 061830Z 34006KT 320V020 CAVOK 21/11 Q1005 NOSIG",
      "taf": "TAF EPWA 061730Z 0618/0718 26006KT CAVOK"
    },
    {
      "icao": "EPWR",
      "alert": "OK",
      "vis_m": 6000,
      "fzfg": false,
      "metar_trigger": false,
      "taf_trigger": false,
      "metar": "METAR EPWR 061830Z 21006KT 6000 SHRA VCTS BKN030CB 14/14 Q1006",
      "taf": "TAF EPWR 061730Z 0618/0718 VRB05KT 9999 -SHRA SCT030CB"
    },
    {
      "icao": "ESGG",
      "alert": "OK",
      "vis_m": 9999,
      "fzfg": false,
      "metar_trigger": false,
      "taf_trigger": false,
      "metar": "METAR ESGG 061850Z 31005KT 270V330 CAVOK 09/M04 Q1011",
      "taf": "TAF ESGG 061730Z 0618/0718 30006KT CAVOK"
    },
    {
      "icao": "ESKN",
      "alert": "OK",
      "vis_m": 9999,
      "fzfg": false,
      "metar_trigger": false,
      "taf_trigger": false,
      "metar": "METAR ESKN 061850Z 13007KT CAVOK 06/M00 Q1013",
      "taf": "TAF ESKN 061730Z 0618/0718 16011KT CAVOK"
    },
    {
      "icao": "ESMS",
      "alert": "OK",
      "vis_m": 9999,
      "fzfg": false,
      "metar_trigger": false,
      "taf_trigger": false,
      "metar": "METAR ESMS 061850Z 16005KT CAVOK 06/03 Q1012",
      "taf": "TAF ESMS 061727Z 0618/0718 10010KT CAVOK"
    },
    {
      "icao": "ESSA",
      "alert": "OK",
      "vis_m": 9999,
      "fzfg": false,
      "metar_trigger": false,
      "taf_trigger": false,
      "metar": "METAR ESSA 061850Z 14010KT CAVOK 07/M05 Q1013 NOSIG",
      "taf": "TAF ESSA 061730Z 0618/0718 15012KT CAVOK"
    },
    {
      "icao": "EYKA",
      "alert": "OK",
      "vis_m": 9999,
      "fzfg": false,
      "metar_trigger": false,
      "taf_trigger": false,
      "metar": "METAR EYKA 061850Z 36010KT 9999 SCT055CB 09/04 Q1007",
      "taf": "TAF EYKA 061700Z 0618/0718 VRB03KT 6000 SCT040"
    },
    {
      "icao": "EYPA",
      "alert": "OK",
      "vis_m": 9000,
      "fzfg": false,
      "metar_trigger": false,
      "taf_trigger": false,
      "metar": "METAR EYPA 061850Z 05009KT 9000 -SHRA FEW010CB BKN043 05/04 Q1010",
      "taf": "TAF EYPA 061700Z 0618/0718 05011KT 5000 RA BR SCT010 BKN030"
    },
    {
      "icao": "EYVI",
      "alert": "OK",
      "vis_m": 9999,
      "fzfg": false,
      "metar_trigger": false,
      "taf_trigger": false,
      "metar": "METAR EYVI 061850Z 09004KT 060V120 9999 SCT090CB 13/10 Q1005 TEMPO 5000 SHRA",
      "taf": "TAF EYVI 061700Z 0618/0718 06010KT 8000 SCT040"
    },
    {
      "icao": "GCFV",
      "alert": "OK",
      "vis_m": 9999,
      "fzfg": false,
      "metar_trigger": false,
      "taf_trigger": false,
      "metar": "METAR GCFV 061830Z 04013KT 9999 FEW015 BKN035 20/15 Q1013",
      "taf": "TAF GCFV 061400Z 0615/0715 05015KT 9999 SCT025 TX24/0714Z TN17/0706Z"
    },
    {
      "icao": "GCLP",
      "alert": "OK",
      "vis_m": 9999,
      "fzfg": false,
      "metar_trigger": false,
      "taf_trigger": false,
      "metar": "METAR GCLP 061830Z 02013KT 9999 FEW025 BKN035 20/15 Q1013 NOSIG",
      "taf": "TAF GCLP 061400Z 0615/0715 02012KT 9999 SCT030 TX22/0714Z TN17/0706Z"
    },
    {
      "icao": "GCTS",
      "alert": "OK",
      "vis_m": 9999,
      "fzfg": false,
      "metar_trigger": false,
      "taf_trigger": false,
      "metar": "METAR GCTS 061830Z 07013KT 9999 FEW020 BKN040 20/14 Q1013 NOSIG",
      "taf": "TAF GCTS 061400Z 0615/0715 08010KT 9999 BKN025 TX23/0714Z TN16/0706Z"
    },
    {
      "icao": "GMAD",
      "alert": "OK",
      "vis_m": 9999,
      "fzfg": false,
      "metar_trigger": false,
      "taf_trigger": false,
      "metar": "METAR GMAD 061830Z 22013KT 9999 FEW030TCU SCT200 21/10 Q1008 NOSIG",
      "taf": "TAF GMAD 061700Z 0618/0724 20012KT 8000 SCT026 SCT200"
    },
    {
      "icao": "GMMN",
      "alert": "OK",
      "vis_m": 9999,
      "fzfg": false,
      "metar_trigger": false,
      "taf_trigger": false,
      "metar": "METAR GMMN 061830Z 36011KT 330V030 9999 BKN026 17/12 Q1011 NOSIG",
      "taf": "TAF GMMN 061700Z 0618/0724 36012KT 9999 BKN040"
    },
    {
      "icao": "GMMX",
      "alert": "OK",
      "vis_m": 9999,
      "fzfg": false,
      "metar_trigger": false,
      "taf_trigger": false,
      "metar": "METAR GMMX 061830Z 32004KT 270V050 9999 SCT030 BKN100 23/10 Q1009 NOSIG",
      "taf": "TAF GMMX 061700Z 0618/0724 06006KT 8000 SCT030 BKN080"
    },
    {
      "icao": "HEGN",
      "alert": "OK",
      "vis_m": 9999,
      "fzfg": false,
      "metar_trigger": false,
      "taf_trigger": false,
      "metar": "METAR HEGN 061800Z 34013KT CAVOK 23/10 Q1012 NOSIG",
      "taf": "TAF HEGN 061700Z 0618/0724 32010G20KT CAVOK"
    },
    {
      "icao": "HEMA",
      "alert": "OK",
      "vis_m": 9999,
      "fzfg": false,
      "metar_trigger": false,
      "taf_trigger": false,
      "metar": "METAR HEMA 061800Z 33009KT CAVOK 23/08 Q1011 NOSIG",
      "taf": "TAF HEMA 061700Z 0618/0724 33010G20KT CAVOK"
    },
    {
      "icao": "HESH",
      "alert": "OK",
      "vis_m": 9999,
      "fzfg": false,
      "metar_trigger": false,
      "taf_trigger": false,
      "metar": "METAR HESH 061800Z 34008KT CAVOK 26/07 Q1011 NOSIG",
      "taf": "TAF HESH 061700Z 0618/0724 36012KT CAVOK"
    },
    {
      "icao": "HESX",
      "alert": "OK",
      "vis_m": 9999,
      "fzfg": false,
      "metar_trigger": false,
      "taf_trigger": false,
      "metar": "METAR HESX 061800Z 36009KT CAVOK 19/08 Q1016 NOSIG",
      "taf": "TAF HESX 061700Z 0618/0724 01012KT CAVOK"
    },
    {
      "icao": "LATI",
      "alert": "OK",
      "vis_m": 9999,
      "fzfg": false,
      "metar_trigger": false,
      "taf_trigger": false,
      "metar": "METAR LATI 061850Z 36003KT 9999 SCT022 BKN097 17/13 Q1017 NOSIG",
      "taf": "TAF LATI 061700Z 0618/0718 VRB05KT 9999 SCT040 BKN090 TX26/0712Z TN13/0704Z"
    },
    {
      "icao": "LBPD",
      "alert": "OK",
      "vis_m": 9999,
      "fzfg": false,
      "metar_trigger": false,
      "taf_trigger": false,
      "metar": "METAR LBPD 061830Z AUTO 11010KT 9999 NCD 18/11 Q1013 NOSIG",
      "taf": "TAF LBPD 061700Z 0618/0718 11010KT 9999 SCT070"
    },
    {
      "icao": "LBSF",
      "alert": "OK",
      "vis_m": 9999,
      "fzfg": false,
      "metar_trigger": false,
      "taf_trigger": false,
      "metar": "METAR LBSF 061830Z AUTO 07006KT 9999 NSC 19/06 Q1014 NOSIG",
      "taf": "TAF LBSF 061700Z 0618/0718 13010KT 9999 SCT070"
    },
    {
      "icao": "LBWN",
      "alert": "OK",
      "vis_m": 9999,
      "fzfg": false,
      "metar_trigger": false,
      "taf_trigger": false,
      "metar": "METAR LBWN 061830Z AUTO 12005KT 9999 SCT010/// 11/11 Q1017 NOSIG",
      "taf": "TAF LBWN 061700Z 0618/0718 09010KT CAVOK"
    },
    {
      "icao": "LCLK",
      "alert": "OK",
      "vis_m": 9999,
      "fzfg": false,
      "metar_trigger": false,
      "taf_trigger": false,
      "metar": "METAR LCLK 061830Z 28003KT 240V310 9999 FEW050 17/11 Q1017 NOSIG",
      "taf": "TAF LCLK 061730Z 0618/0718 30007KT 9999 FEW030"
    },
    {
      "icao": "LCPH",
      "alert": "OK",
      "vis_m": 9999,
      "fzfg": false,
      "metar_trigger": false,
      "taf_trigger": false,
      "metar": "METAR LCPH 061830Z 01003KT 9999 FEW050 17/11 Q1017 NOSIG",
      "taf": "TAF LCPH 061730Z 0618/0718 02007KT 9999 FEW030"
    },
    {
      "icao": "LEAL",
      "alert": "OK",
      "vis_m": 9999,
      "fzfg": false,
      "metar_trigger": false,
      "taf_trigger": false,
      "metar": "METAR LEAL 061830Z 08010KT 040V110 9999 FEW020 20/13 Q1011 NOSIG",
      "taf": "TAF LEAL 061700Z 0618/0718 09010KT 9999 FEW020 TX23/0712Z TN14/0705Z"
    },
    {
      "icao": "LEBB",
      "alert": "OK",
      "vis_m": 9999,
      "fzfg": false,
      "metar_trigger": false,
      "taf_trigger": false,
      "metar": "METAR LEBB 061830Z VRB02KT 9999 FEW020 15/11 Q1014 NOSIG",
      "taf": "TAF LEBB 061700Z 0618/0718 VRB03KT 9999 SCT015 TX21/0713Z TN07/0705Z"
    },
    {
      "icao": "LEBL",
      "alert": "OK",
      "vis_m": 9999,
      "fzfg": false,
      "metar_trigger": false,
      "taf_trigger": false,
      "metar": "METAR LEBL 061830Z 16004KT 130V200 9999 FEW020 18/11 Q1011 NOSIG",
      "taf": "TAF LEBL 061700Z 0618/0718 18009KT 9999 FEW020 TX19/0713Z TN13/0705Z"
    },
    {
      "icao": "LECH",
      "alert": "OK",
      "vis_m": 9999,
      "fzfg": false,
      "metar_trigger": false,
      "taf_trigger": false,
      "metar": "METAR LECH 061830Z AUTO 15005KT 100V200 CAVOK 15/10 Q1012",
      "taf": "TAF LECH 061700Z 0618/0718 VRB04KT 9999 FEW020 TX20/0714Z TN09/0705Z"
    },
    {
      "icao": "LEMD",
      "alert": "OK",
      "vis_m": 9999,
      "fzfg": false,
      "metar_trigger": false,
      "taf_trigger": false,
      "metar": "METAR LEMD 061830Z VRB01KT 9999 FEW075 19/M02 Q1010 NOSIG",
      "taf": "TAF LEMD 061700Z 0618/0724 VRB04KT 9999 FEW060 TX21/0716Z TN08/0705Z"
    },
    {
      "icao": "LEMG",
      "alert": "OK",
      "vis_m": 9999,
      "fzfg": false,
      "metar_trigger": false,
      "taf_trigger": false,
      "metar": "METAR LEMG 061830Z 09008KT CAVOK 18/14 Q1008 NOSIG",
      "taf": "TAF LEMG 061700Z 0618/0718 10008KT 9999 FEW020 TX23/0714Z TN16/0707Z"
    },
    {
      "icao": "LEVC",
      "alert": "OK",
      "vis_m": 9999,
      "fzfg": false,
      "metar_trigger": false,
      "taf_trigger": false,
      "metar": "METAR LEVC 061830Z 13007KT 100V170 CAVOK 18/10 Q1011 NOSIG",
      "taf": "TAF LEVC 061700Z 0618/0718 12009KT 9999 FEW030 TX21/0712Z TN11/0705Z"
    },
    {
      "icao": "LEXJ",
      "alert": "OK",
      "vis_m": 9999,
      "fzfg": false,
      "metar_trigger": false,
      "taf_trigger": false,
      "metar": "METAR LEXJ 061830Z VRB01KT 9999 FEW036 BKN050 14/11 Q1014",
      "taf": ""
    },
    {
      "icao": "LEZG",
      "alert": "OK",
      "vis_m": 9999,
      "fzfg": false,
      "metar_trigger": false,
      "taf_trigger": false,
      "metar": "METAR LEZG 061830Z 33008KT 290V350 CAVOK 18/07 Q1011 NOSIG",
      "taf": "TAF LEZG 061700Z 0618/0718 32010KT 9999 FEW050 TX21/0714Z TN09/0705Z"
    },
    {
      "icao": "LEZL",
      "alert": "OK",
      "vis_m": 9999,
      "fzfg": false,
      "metar_trigger": false,
      "taf_trigger": false,
      "metar": "METAR LEZL 061830Z 23009KT 200V260 CAVOK 23/07 Q1008 NOSIG",
      "taf": "TAF LEZL 061400Z 0615/0715 VRB03KT CAVOK TX27/0615Z TN13/0707Z"
    },
    {
      "icao": "LFBD",
      "alert": "OK",
      "vis_m": 9999,
      "fzfg": false,
      "metar_trigger": false,
      "taf_trigger": false,
      "metar": "METAR LFBD 061830Z AUTO 31009KT CAVOK 14/08 Q1013 NOSIG",
      "taf": "TAF LFBD 061700Z 0618/0724 30010KT 9999 BKN030 TX20/0714Z TN08/0703Z"
    },
    {
      "icao": "LFLL",
      "alert": "OK",
      "vis_m": 9999,
      "fzfg": false,
      "metar_trigger": false,
      "taf_trigger": false,
      "metar": "METAR LFLL 061830Z 23005KT 9999 FEW033CB BKN060 BKN080 15/09 Q1011 TEMPO VRB15G25KT 4000 SHRA SCT030CB",
      "taf": "TAF LFLL 061700Z 0618/0724 16006KT 9999 FEW040 BKN180"
    },
    {
      "icao": "LFLS",
      "alert": "OK",
      "vis_m": 9999,
      "fzfg": false,
      "metar_trigger": false,
      "taf_trigger": false,
      "metar": "METAR LFLS 061830Z AUTO VRB03KT 9999 NSC 13/11 Q1011 NOSIG",
      "taf": "TAF LFLS 061400Z 0615/0715 VRB04KT 9999 SCT045"
    },
    {
      "icao": "LFMN",
      "alert": "OK",
      "vis_m": 9999,
      "fzfg": false,
      "metar_trigger": false,
      "taf_trigger": false,
      "metar": "METAR LFMN 061830Z 23014KT CAVOK 19/12 Q1008 NOSIG",
      "taf": "TAF LFMN 061400Z 0615/0721 21022KT CAVOK"
    },
    {
      "icao": "LFOB",
      "alert": "OK",
      "vis_m": 9999,
      "fzfg": false,
      "metar_trigger": false,
      "taf_trigger": false,
      "metar": "METAR LFOB 061830Z AUTO 33008KT CAVOK 12/08 Q1012 NOSIG",
      "taf": "TAF LFOB 061700Z 0618/0718 32010KT 9999 SCT030"
    },
    {
      "icao": "LFPO",
      "alert": "OK",
      "vis_m": 9999,
      "fzfg": false,
      "metar_trigger": false,
      "taf_trigger": false,
      "metar": "METAR LFPO 061830Z AUTO 34010KT CAVOK 13/07 Q1011 NOSIG",
      "taf": "TAF LFPO 061700Z 0618/0724 34007KT CAVOK"
    },
    {
      "icao": "LFSB",
      "alert": "OK",
      "vis_m": 9999,
      "fzfg": false,
      "metar_trigger": false,
      "taf_trigger": false,
      "metar": "METAR LFSB 061830Z AUTO 06003KT 9999 FEW047/// BKN056/// OVC070/// ///TCU 11/10 Q1010 NOSIG",
      "taf": "TAF LFSB 061700Z 0618/0718 25005KT 9999 BKN040"
    },
    {
      "icao": "LGAV",
      "alert": "OK",
      "vis_m": 9999,
      "fzfg": false,
      "metar_trigger": false,
      "taf_trigger": false,
      "metar": "METAR LGAV 061850Z 01003KT CAVOK 14/07 Q1017 NOSIG",
      "taf": "TAF LGAV 061700Z 0618/0718 VRB03KT 9999 FEW025"
    },
    {
      "icao": "LGTS",
      "alert": "OK",
      "vis_m": 9999,
      "fzfg": false,
      "metar_trigger": false,
      "taf_trigger": false,
      "metar": "METAR LGTS 061850Z 19003KT 9999 FEW025 18/14 Q1015 NOSIG",
      "taf": "TAF LGTS 061700Z 0618/0718 VRB03KT 9999 FEW025"
    },
    {
      "icao": "LHBP",
      "alert": "OK",
      "vis_m": 9999,
      "fzfg": false,
      "metar_trigger": false,
      "taf_trigger": false,
      "metar": "METAR LHBP 061830Z 22004KT CAVOK 22/10 Q1009 NOSIG",
      "taf": "TAF LHBP 061715Z 0618/0718 21007KT CAVOK"
    },
    {
      "icao": "LHDC",
      "alert": "OK",
      "vis_m": 9999,
      "fzfg": false,
      "metar_trigger": false,
      "taf_trigger": false,
      "metar": "METAR LHDC 061815Z AUTO 16004KT CAVOK 20/08 Q1010",
      "taf": "TAF LHDC 061415Z 0615/0624 21013KT CAVOK"
    },
    {
      "icao": "LIBD",
      "alert": "OK",
      "vis_m": 9999,
      "fzfg": false,
      "metar_trigger": false,
      "taf_trigger": false,
      "metar": "METAR LIBD 061850Z 18007KT CAVOK 18/14 Q1013",
      "taf": "TAF LIBD 061700Z 0618/0718 17010KT CAVOK"
    },
    {
      "icao": "LIBG",
      "alert": "OK",
      "vis_m": 9999,
      "fzfg": false,
      "metar_trigger": false,
      "taf_trigger": false,
      "metar": "METAR LIBG 061750Z 16007KT 9999 SCT020 17/16 Q1015",
      "taf": "TAF LIBG 061400Z 0615/0624 16012KT 9999 BKN015"
    },
    {
      "icao": "LIBP",
      "alert": "OK",
      "vis_m": 9999,
      "fzfg": false,
      "metar_trigger": false,
      "taf_trigger": false,
      "metar": "METAR LIBP 061850Z AUTO 05003KT 010V090 9999 BKN100/// BKN190/// 19/16 Q1011",
      "taf": "TAF LIBP 061700Z 0618/0718 VRB05KT 9999 FEW080"
    },
    {
      "icao": "LIBR",
      "alert": "OK",
      "vis_m": 9999,
      "fzfg": false,
      "metar_trigger": false,
      "taf_trigger": false,
      "metar": "METAR LIBR 061850Z 19010KT CAVOK 18/12 Q1015",
      "taf": "TAF LIBR 061700Z 0618/0718 17011KT 9999 FEW015"
    },
    {
      "icao": "LICA",
      "alert": "OK",
      "vis_m": 9999,
      "fzfg": false,
      "metar_trigger": false,
      "taf_trigger": false,
      "metar": "METAR LICA 061850Z AUTO 06012KT 9999 NCD 18/15 Q1013",
      "taf": "TAF LICA 061700Z 0618/0718 08013KT 9999 FEW020"
    },
    {
      "icao": "LICC",
      "alert": "OK",
      "vis_m": 9999,
      "fzfg": false,
      "metar_trigger": false,
      "taf_trigger": false,
      "metar": "METAR LICC 061850Z 06009KT 9999 SCT015 18/14 Q1014",
      "taf": "TAF LICC 061700Z 0618/0718 06012KT 9999 SCT020"
    },
    {
      "icao": "LICJ",
      "alert": "OK",
      "vis_m": 9999,
      "fzfg": false,
      "metar_trigger": false,
      "taf_trigger": false,
      "metar": "METAR LICJ 061850Z 05015KT CAVOK 21/08 Q1011",
      "taf": "TAF LICJ 061700Z 0618/0718 07012KT 9999 FEW020"
    },
    {
      "icao": "LIMC",
      "alert": "OK",
      "vis_m": 9999,
      "fzfg": false,
      "metar_trigger": false,
      "taf_trigger": false,
      "metar": "METAR LIMC 061850Z 06004KT 340V100 9999 SCT050TCU 13/11 Q1009 NOSIG",
      "taf": "TAF LIMC 061700Z 0618/0724 01008KT 9999 BKN015"
    },
    {
      "icao": "LIME",
      "alert": "OK",
      "vis_m": 9999,
      "fzfg": false,
      "metar_trigger": false,
      "taf_trigger": false,
      "metar": "METAR LIME 061850Z 35006KT 9999 SCT020TCU BKN040 13/10 Q1009 NOSIG",
      "taf": "TAF LIME 061700Z 0618/0718 VRB05KT 9999 BKN020 BKN060"
    },
    {
      "icao": "LIMF",
      "alert": "OK",
      "vis_m": 9999,
      "fzfg": false,
      "metar_trigger": false,
      "taf_trigger": false,
      "metar": "METAR LIMF 061850Z 04005KT 9999 SCT045 SCT100 15/12 Q1008",
      "taf": "TAF LIMF 061700Z 0618/0718 VRB05KT 9999 SCT040"
    },
    {
      "icao": "LIMJ",
      "alert": "OK",
      "vis_m": 9999,
      "fzfg": false,
      "metar_trigger": false,
      "taf_trigger": false,
      "metar": "METAR LIMJ 061850Z 17009KT 9999 SCT018 SCT050 18/13 Q1010",
      "taf": "TAF LIMJ 061700Z 0618/0718 17010KT 9999 FEW030"
    },
    {
      "icao": "LIPE",
      "alert": "OK",
      "vis_m": 9999,
      "fzfg": false,
      "metar_trigger": false,
      "taf_trigger": false,
      "metar": "METAR LIPE 061850Z 14005KT 120V180 CAVOK 18/09 Q1009",
      "taf": "TAF LIPE 061700Z 0618/0718 18010KT CAVOK"
    },
    {
      "icao": "LIPH",
      "alert": "OK",
      "vis_m": 9999,
      "fzfg": false,
      "metar_trigger": false,
      "taf_trigger": false,
      "metar": "METAR LIPH 061850Z 04004KT 9999 SCT010 16/15 Q1010",
      "taf": "TAF LIPH 061700Z 0618/0718 VRB05KT 9999 BKN015"
    },
    {
      "icao": "LIPQ",
      "alert": "OK",
      "vis_m": 9999,
      "fzfg": false,
      "metar_trigger": false,
      "taf_trigger": false,
      "metar": "METAR LIPQ 061850Z AUTO 16007KT 9999 OVC120/// 17/15 Q1010",
      "taf": "TAF LIPQ 061700Z 0618/0718 15007KT 9999 BKN030"
    },
    {
      "icao": "LIPR",
      "alert": "OK",
      "vis_m": 9999,
      "fzfg": false,
      "metar_trigger": false,
      "taf_trigger": false,
      "metar": "METAR LIPR 061850Z 22006KT 190V250 9999 FEW070 20/12 Q1010",
      "taf": "TAF LIPR 061700Z 0618/0718 20010KT 9999 FEW050"
    },
    {
      "icao": "LIPX",
      "alert": "OK",
      "vis_m": 9999,
      "fzfg": false,
      "metar_trigger": false,
      "taf_trigger": false,
      "metar": "METAR LIPX 061850Z 10006KT 9999 FEW040 17/14 Q1009",
      "taf": "TAF LIPX 061700Z 0618/0718 VRB05KT 9999 SCT040"
    },
    {
      "icao": "LIPY",
      "alert": "OK",
      "vis_m": 9999,
      "fzfg": false,
      "metar_trigger": false,
      "taf_trigger": false,
      "metar": "METAR LIPY 061850Z AUTO 16004KT 9999 BKN200/// 18/15 Q1011",
      "taf": "TAF LIPY 061700Z 0618/0718 15007KT 9999 FEW040"
    },
    {
      "icao": "LIPZ",
      "alert": "OK",
      "vis_m": 9999,
      "fzfg": false,
      "metar_trigger": false,
      "taf_trigger": false,
      "metar": "METAR LIPZ 061850Z VRB03KT CAVOK 17/14 Q1009 NOSIG",
      "taf": "TAF LIPZ 061700Z 0618/0724 02005KT 9999 BKN015"
    },
    {
      "icao": "LIRF",
      "alert": "OK",
      "vis_m": 9999,
      "fzfg": false,
      "metar_trigger": false,
      "taf_trigger": false,
      "metar": "METAR LIRF 061850Z 14007KT 9999 SCT025 17/15 Q1013 TEMPO 4000 TSRA",
      "taf": "TAF LIRF 061700Z 0618/0724 19012KT 8000 BKN020"
    },
    {
      "icao": "LIRN",
      "alert": "OK",
      "vis_m": 9999,
      "fzfg": false,
      "metar_trigger": false,
      "taf_trigger": false,
      "metar": "METAR LIRN 061850Z 22008KT 9999 FEW060 19/10 Q1015 NOSIG",
      "taf": "TAF LIRN 061700Z 0618/0718 VRB05KT 9999 BKN070"
    },
    {
      "icao": "LIRP",
      "alert": "OK",
      "vis_m": 9999,
      "fzfg": false,
      "metar_trigger": false,
      "taf_trigger": false,
      "metar": "METAR LIRP 061845Z 19002KT 9999 FEW020 SCT060 16/13 Q1011 NOSIG",
      "taf": "TAF LIRP 061700Z 0618/0718 24012KT 9999 SCT020 SCT050"
    },
    {
      "icao": "LIRZ",
      "alert": "OK",
      "vis_m": 9999,
      "fzfg": false,
      "metar_trigger": false,
      "taf_trigger": false,
      "metar": "METAR LIRZ 061850Z AUTO 18003KT 9999 BKN045/// BKN096/// 17/13 Q1013",
      "taf": "TAF LIRZ 061700Z 0618/0718 20012KT 9999 BKN030"
    },
    {
      "icao": "LJLJ",
      "alert": "OK",
      "vis_m": 9999,
      "fzfg": false,
      "metar_trigger": false,
      "taf_trigger": false,
      "metar": "METAR LJLJ 061830Z VRB01KT 9999 -RA FEW020 SCT040 BKN075 15/12 Q1010 NOSIG",
      "taf": "TAF LJLJ 061700Z 0618/0718 VRB02KT 9999 FEW020 BKN040"
    },
    {
      "icao": "LKMT",
      "alert": "OK",
      "vis_m": 9999,
      "fzfg": false,
      "metar_trigger": false,
      "taf_trigger": false,
      "metar": "METAR LKMT 061830Z 19009KT CAVOK 21/09 Q1005 NOSIG",
      "taf": "TAF LKMT 061700Z 0618/0718 20012KT CAVOK"
    },
    {
      "icao": "LKPR",
      "alert": "OK",
      "vis_m": 8000,
      "fzfg": false,
      "metar_trigger": false,
      "taf_trigger": false,
      "metar": "METAR LKPR 061830Z VRB02KT 8000 -TSRA BKN040CB 14/12 Q1005 NOSIG",
      "taf": ""
    },
    {
      "icao": "LLBG",
      "alert": "OK",
      "vis_m": 9999,
      "fzfg": false,
      "metar_trigger": false,
      "taf_trigger": false,
      "metar": "METAR LLBG 061850Z VRB03KT 9999 FEW030 18/10 Q1017 NOSIG",
      "taf": "TAF LLBG 061703Z 0618/0718 VRB04KT 9999 FEW030 TX23/0712Z TN13/0703Z"
    },
    {
      "icao": "LMML",
      "alert": "OK",
      "vis_m": 9999,
      "fzfg": false,
      "metar_trigger": false,
      "taf_trigger": false,
      "metar": "METAR LMML 061845Z 10021KT CAVOK 18/15 Q1010 NOSIG",
      "taf": "TAF LMML 061700Z 0618/0718 10018KT 9999 FEW015"
    },
    {
      "icao": "LOWW",
      "alert": "OK",
      "vis_m": 9999,
      "fzfg": false,
      "metar_trigger": false,
      "taf_trigger": false,
      "metar": "METAR LOWW 061850Z 17017KT CAVOK 19/10 Q1005 NOSIG",
      "taf": "TAF LOWW 061726Z 0618/0724 16014KT CAVOK TX22/0713Z TN13/0724Z"
    },
    {
      "icao": "LPFR",
      "alert": "OK",
      "vis_m": 9999,
      "fzfg": false,
      "metar_trigger": false,
      "taf_trigger": false,
      "metar": "METAR LPFR 061830Z 29017KT 9999 FEW025 21/09 Q1009",
      "taf": "TAF LPFR 061700Z 0618/0718 26018KT 9999 FEW020"
    },
    {
      "icao": "LPMA",
      "alert": "OK",
      "vis_m": 9999,
      "fzfg": false,
      "metar_trigger": false,
      "taf_trigger": false,
      "metar": "METAR LPMA 061830Z 01009KT 330V050 9999 SCT015 SCT030 17/09 Q1017",
      "taf": "TAF LPMA 061700Z 0618/0718 01015KT 9999 SCT015"
    },
    {
      "icao": "LPPR",
      "alert": "OK",
      "vis_m": 9999,
      "fzfg": false,
      "metar_trigger": false,
      "taf_trigger": false,
      "metar": "METAR LPPR 061830Z 34012KT 9999 FEW025 FEW028TCU 16/08 Q1011",
      "taf": "TAF LPPR 061700Z 0618/0718 32015KT 9999 FEW025"
    },
    {
      "icao": "LPPS",
      "alert": "OK",
      "vis_m": 9999,
      "fzfg": false,
      "metar_trigger": false,
      "taf_trigger": false,
      "metar": "METAR LPPS 061830Z 01012KT 9999 SCT015 17/10 Q1017",
      "taf": "TAF LPPS 061700Z 0618/0724 02013KT 9999 SCT015 SCT030"
    },
    {
      "icao": "LPPT",
      "alert": "OK",
      "vis_m": 9999,
      "fzfg": false,
      "metar_trigger": false,
      "taf_trigger": false,
      "metar": "METAR LPPT 061830Z 32010KT 290V350 9999 FEW030 17/09 Q1011",
      "taf": "TAF LPPT 061700Z 0618/0724 32013KT 9999 FEW030"
    },
    {
      "icao": "LQBK",
      "alert": "OK",
      "vis_m": 9999,
      "fzfg": false,
      "metar_trigger": false,
      "taf_trigger": false,
      "metar": "METAR LQBK 061830Z 19012KT 9999 -RA FEW047TCU 20/08 Q1011 NOSIG",
      "taf": "TAF LQBK 061700Z 0618/0718 20005KT CAVOK TX20/0618Z TN09/0703Z"
    },
    {
      "icao": "LQSA",
      "alert": "OK",
      "vis_m": 9999,
      "fzfg": false,
      "metar_trigger": false,
      "taf_trigger": false,
      "metar": "METAR LQSA 061830Z VRB03KT 9999 FEW070 17/07 Q1014 NOSIG",
      "taf": "TAF LQSA 061700Z 0618/0718 VRB02KT 9999 SCT050 TX22/0714Z TN09/0704Z"
    },
    {
      "icao": "LQTZ",
      "alert": "OK",
      "vis_m": 9999,
      "fzfg": false,
      "metar_trigger": false,
      "taf_trigger": false,
      "metar": "METAR LQTZ 061830Z 22003KT 9999 FEW050 21/08 Q1011",
      "taf": "TAF LQTZ 061700Z 0618/0718 10005KT 9999 SCT050 TX24/0713Z TN08/0704Z"
    },
    {
      "icao": "LRBC",
      "alert": "OK",
      "vis_m": 9999,
      "fzfg": false,
      "metar_trigger": false,
      "taf_trigger": false,
      "metar": "METAR LRBC 061830Z 15013KT CAVOK 19/08 Q1013",
      "taf": "TAF LRBC 061700Z 0618/0703 16012KT CAVOK"
    },
    {
      "icao": "LRBS",
      "alert": "OK",
      "vis_m": 9999,
      "fzfg": false,
      "metar_trigger": false,
      "taf_trigger": false,
      "metar": "METAR LRBS 061830Z 09009KT CAVOK 18/09 Q1014 NOSIG",
      "taf": "TAF LRBS 061700Z 0618/0718 09008KT CAVOK"
    },
    {
      "icao": "LRBV",
      "alert": "OK",
      "vis_m": 9999,
      "fzfg": false,
      "metar_trigger": false,
      "taf_trigger": false,
      "metar": "METAR LRBV 061830Z 21013KT CAVOK 18/08 Q1014",
      "taf": "TAF LRBV 061700Z 0618/0703 22014KT CAVOK"
    },
    {
      "icao": "LRCL",
      "alert": "OK",
      "vis_m": 9999,
      "fzfg": false,
      "metar_trigger": false,
      "taf_trigger": false,
      "metar": "METAR LRCL 061830Z VRB03KT CAVOK 20/07 Q1011",
      "taf": "TAF LRCL 061700Z 0618/0703 VRB04KT CAVOK"
    },
    {
      "icao": "LRCV",
      "alert": "OK",
      "vis_m": 9999,
      "fzfg": false,
      "metar_trigger": false,
      "taf_trigger": false,
      "metar": "METAR LRCV 061830Z 12006KT CAVOK 17/12 Q1013",
      "taf": "TAF LRCV 061700Z 0618/0703 VRB04KT CAVOK"
    },
    {
      "icao": "LRIA",
      "alert": "OK",
      "vis_m": 9999,
      "fzfg": false,
      "metar_trigger": false,
      "taf_trigger": false,
      "metar": "METAR LRIA 061830Z 18011KT 150V210 CAVOK 21/06 Q1013",
      "taf": "TAF LRIA 061700Z 0618/0703 16012KT CAVOK"
    },
    {
      "icao": "LROP",
      "alert": "OK",
      "vis_m": 9999,
      "fzfg": false,
      "metar_trigger": false,
      "taf_trigger": false,
      "metar": "METAR LROP 061830Z 10009KT CAVOK 18/09 Q1014 NOSIG",
      "taf": "TAF LROP 061700Z 0618/0718 10008KT CAVOK"
    },
    {
      "icao": "LRSB",
      "alert": "OK",
      "vis_m": 9999,
      "fzfg": false,
      "metar_trigger": false,
      "taf_trigger": false,
      "metar": "METAR LRSB 061830Z 25003KT 200V300 9999 FEW080 19/06 Q1013",
      "taf": "TAF LRSB 061700Z 0618/0718 VRB04KT CAVOK"
    },
    {
      "icao": "LRSM",
      "alert": "OK",
      "vis_m": 9999,
      "fzfg": false,
      "metar_trigger": false,
      "taf_trigger": false,
      "metar": "METAR LRSM 061830Z AUTO 23003KT 9999 NCD 19/08 Q1011",
      "taf": "TAF LRSM 061400Z 0615/0624 24012KT CAVOK"
    },
    {
      "icao": "LRSV",
      "alert": "OK",
      "vis_m": 9999,
      "fzfg": false,
      "metar_trigger": false,
      "taf_trigger": false,
      "metar": "METAR LRSV 061830Z 17016KT CAVOK 19/05 Q1012",
      "taf": "TAF LRSV 061700Z 0618/0703 17014KT CAVOK"
    },
    {
      "icao": "LRTM",
      "alert": "OK",
      "vis_m": 9999,
      "fzfg": false,
      "metar_trigger": false,
      "taf_trigger": false,
      "metar": "METAR LRTM 061830Z 17009KT 9999 -RA NSC 23/07 Q1011",
      "taf": "TAF LRTM 061700Z 0618/0703 VRB04KT CAVOK"
    },
    {
      "icao": "LRTR",
      "alert": "OK",
      "vis_m": 9999,
      "fzfg": false,
      "metar_trigger": false,
      "taf_trigger": false,
      "metar": "METAR LRTR 061830Z 09005KT CAVOK 16/11 Q1011",
      "taf": "TAF LRTR 061700Z 0618/0718 VRB04KT CAVOK"
    },
    {
      "icao": "LTAC",
      "alert": "OK",
      "vis_m": 9999,
      "fzfg": false,
      "metar_trigger": false,
      "taf_trigger": false,
      "metar": "METAR LTAC 061850Z VRB01KT CAVOK 09/03 Q1018 NOSIG",
      "taf": "TAF LTAC 061640Z 0618/0718 VRB02KT 9999 FEW040"
    },
    {
      "icao": "LTFM",
      "alert": "OK",
      "vis_m": 9999,
      "fzfg": false,
      "metar_trigger": false,
      "taf_trigger": false,
      "metar": "METAR LTFM 061850Z 07008KT CAVOK 12/10 Q1017 NOSIG",
      "taf": "TAF LTFM 061640Z 0618/0724 08012KT CAVOK"
    },
    {
      "icao": "LUKK",
      "alert": "OK",
      "vis_m": 9999,
      "fzfg": false,
      "metar_trigger": false,
      "taf_trigger": false,
      "metar": "METAR LUKK 061830Z 22011KT CAVOK 16/03 Q1015 NOSIG",
      "taf": "TAF LUKK 061702Z 0618/0718 20009KT CAVOK"
    },
    {
      "icao": "LWOH",
      "alert": "OK",
      "vis_m": 9999,
      "fzfg": false,
      "metar_trigger": false,
      "taf_trigger": false,
      "metar": "METAR LWOH 061850Z 12005KT 9999 BKN050 15/06 Q1017",
      "taf": "TAF LWOH 061730Z 0618/0718 13008KT 9999 SCT050 BKN090"
    },
    {
      "icao": "LWSK",
      "alert": "OK",
      "vis_m": 9999,
      "fzfg": false,
      "metar_trigger": false,
      "taf_trigger": false,
      "metar": "METAR LWSK 061850Z COR VRB04KT 9999 SCT060 21/09 Q1013 NOSIG",
      "taf": "TAF LWSK 061730Z 0618/0718 16010KT 9999 SCT100"
    },
    {
      "icao": "LYBE",
      "alert": "OK",
      "vis_m": 9999,
      "fzfg": false,
      "metar_trigger": false,
      "taf_trigger": false,
      "metar": "METAR LYBE 061830Z 13006KT CAVOK 21/09 Q1010 NOSIG",
      "taf": "TAF LYBE 061700Z 0618/0718 20006KT CAVOK TX24/0618Z TN15/0704Z"
    },
    {
      "icao": "LYNI",
      "alert": "OK",
      "vis_m": 9999,
      "fzfg": false,
      "metar_trigger": false,
      "taf_trigger": false,
      "metar": "METAR LYNI 061830Z VRB01KT CAVOK 21/07 Q1012 NOSIG",
      "taf": "TAF LYNI 061700Z 0618/0718 16005KT CAVOK TX25/0618Z TN12/0704Z"
    },
    {
      "icao": "LYPG",
      "alert": "OK",
      "vis_m": 9999,
      "fzfg": false,
      "metar_trigger": false,
      "taf_trigger": false,
      "metar": "METAR LYPG 061830Z 13003KT 9999 SCT050 BKN070 18/12 Q1016 NOSIG",
      "taf": "TAF LYPG 061700Z 0618/0718 36005KT 9999 SCT040 BKN070 TX22/0713Z TN14/0704Z"
    },
    {
      "icao": "LZIB",
      "alert": "OK",
      "vis_m": 9999,
      "fzfg": false,
      "metar_trigger": false,
      "taf_trigger": false,
      "metar": "METAR LZIB 061830Z 17015KT CAVOK 20/11 Q1005 NOSIG",
      "taf": "TAF LZIB 061715Z 0618/0718 19012KT 9999 FEW045"
    },
    {
      "icao": "LZKZ",
      "alert": "OK",
      "vis_m": 9999,
      "fzfg": false,
      "metar_trigger": false,
      "taf_trigger": false,
      "metar": "METAR LZKZ 061830Z 19006KT CAVOK 19/08 Q1009 NOSIG",
      "taf": "TAF LZKZ 061715Z 0618/0718 21009KT CAVOK"
    },
    {
      "icao": "LZTT",
      "alert": "OK",
      "vis_m": 9999,
      "fzfg": false,
      "metar_trigger": false,
      "taf_trigger": false,
      "metar": "METAR LZTT 061830Z 23003KT 200V260 9999 FEW057 15/07 Q1010",
      "taf": "TAF LZTT 061715Z 0618/0718 25007KT 9999 FEW050"
    },
    {
      "icao": "OEJN",
      "alert": "OK",
      "vis_m": 9999,
      "fzfg": false,
      "metar_trigger": false,
      "taf_trigger": false,
      "metar": "METAR OEJN 061800Z 34013KT CAVOK 27/18 Q1008 NOSIG",
      "taf": "TAF OEJN 061700Z 0618/0724 35010KT 7000 FEW040"
    },
    {
      "icao": "OEMA",
      "alert": "OK",
      "vis_m": 9999,
      "fzfg": false,
      "metar_trigger": false,
      "taf_trigger": false,
      "metar": "METAR OEMA 061800Z 25007KT CAVOK 35/M03 Q1011 NOSIG",
      "taf": "TAF OEMA 061700Z 0618/0724 30006KT 9999 FEW045"
    },
    {
      "icao": "OJAI",
      "alert": "OK",
      "vis_m": 5000,
      "fzfg": false,
      "metar_trigger": false,
      "taf_trigger": false,
      "metar": "METAR OJAI 061800Z 28008KT 5000 HZ NSC 14/06 Q1018 NOSIG",
      "taf": "TAF OJAI 061700Z 0618/0724 29008KT 5000 HZ FEW035"
    },
    {
      "icao": "OMAA",
      "alert": "OK",
      "vis_m": 9999,
      "fzfg": false,
      "metar_trigger": false,
      "taf_trigger": false,
      "metar": "METAR OMAA 061830Z 05005KT CAVOK 32/17 Q1006 NOSIG",
      "taf": "TAF OMAA 061700Z 0618/0800 04007KT 8000 NSC"
    },
    {
      "icao": "OMDB",
      "alert": "OK",
      "vis_m": 9999,
      "fzfg": false,
      "metar_trigger": false,
      "taf_trigger": false,
      "metar": "METAR OMDB 061830Z VRB02KT CAVOK 35/14 Q1006 NOSIG",
      "taf": "TAF OMDB 061700Z 0618/0800 VRB02KT 8000 NSC"
    },
    {
      "icao": "UAAA",
      "alert": "OK",
      "vis_m": 9999,
      "fzfg": false,
      "metar_trigger": false,
      "taf_trigger": false,
      "metar": "METAR UAAA 061830Z 00000MPS 9999 SCT100 17/11 Q1016 NOSIG",
      "taf": "TAF UAAA 061704Z 0618/0718 18002G07MPS 9999 FEW050CB SCT100 TX28/0708Z TN11/0701Z"
    },
    {
      "icao": "UBBB",
      "alert": "OK",
      "vis_m": 9999,
      "fzfg": false,
      "metar_trigger": false,
      "taf_trigger": false,
      "metar": "METAR UBBB 061830Z 27004KT CAVOK 12/09 Q1016 NOSIG",
      "taf": "TAF UBBB 061657Z 0618/0718 30005KT 9999 SCT040 TX20/0710Z TN11/0701Z"
    },
    {
      "icao": "UDSG",
      "alert": "OK",
      "vis_m": 9999,
      "fzfg": false,
      "metar_trigger": false,
      "taf_trigger": false,
      "metar": "METAR UDSG 061830Z 14003KT 9999 SCT049CB 04/01 Q1017 NOSIG",
      "taf": "TAF UDSG 061658Z 0618/0718 36006KT 9999 SCT040"
    },
    {
      "icao": "UDYZ",
      "alert": "OK",
      "vis_m": 9999,
      "fzfg": false,
      "metar_trigger": false,
      "taf_trigger": false,
      "metar": "METAR UDYZ 061830Z VRB01KT 9999 FEW043CB 13/03 Q1014 NOSIG",
      "taf": "TAF UDYZ 061700Z 0618/0718 04006KT 9999 FEW040"
    },
    {
      "icao": "UGKO",
      "alert": "OK",
      "vis_m": 9999,
      "fzfg": false,
      "metar_trigger": false,
      "taf_trigger": false,
      "metar": "METAR UGKO 061830Z VRB02KT 9999 SCT021 BKN030 12/11 Q1019 NOSIG",
      "taf": "TAF UGKO 061700Z 0618/0718 25006KT 9999 SCT030 BKN045 TX18/0711Z TN08/0702Z"
    }
  ]
}