{
  "ts_utc": "2026-02-15T17:46:05Z",
  "threshold_m": 150,
  "source": "stations_override.txt (ICAO list) + aviationweather.gov (METAR/TAF raw)",
  "station_count": 159,
  "stations": [
    {
      "icao": "BIKF",
      "alert": "OK",
      "vis_m": 9999,
      "fzfg": false,
      "metar_trigger": false,
      "taf_trigger": false,
      "metar": "METAR BIKF 151730Z 03009KT CAVOK M04/M11 Q1001",
      "taf": "TAF BIKF 151659Z 1518/1618 04008KT CAVOK TXM02/1618Z TNM06/1521Z"
    },
    {
      "icao": "BKPR",
      "alert": "OK",
      "vis_m": 9999,
      "fzfg": false,
      "metar_trigger": false,
      "taf_trigger": false,
      "metar": "METAR BKPR 151730Z 34014KT 9999 -RA FEW015 BKN025 05/03 Q1004 NOSIG",
      "taf": ""
    },
    {
      "icao": "EBCI",
      "alert": "OK",
      "vis_m": 600,
      "fzfg": false,
      "metar_trigger": false,
      "taf_trigger": false,
      "metar": "METAR EBCI 151720Z 17009KT 0600 R24/1200N SN SCT002 BKN003 M00/M00 Q0999 TEMPO 1200 -SN",
      "taf": "TAF EBCI 151700Z 1518/1624 18012KT 2000 -SN BKN006"
    },
    {
      "icao": "EDDB",
      "alert": "OK",
      "vis_m": 9999,
      "fzfg": false,
      "metar_trigger": false,
      "taf_trigger": false,
      "metar": "METAR EDDB 151720Z AUTO 10008KT CAVOK M03/M08 Q1014 NOSIG",
      "taf": "TAF EDDB 151700Z 1518/1618 11008KT CAVOK"
    },
    {
      "icao": "EDDH",
      "alert": "OK",
      "vis_m": 9999,
      "fzfg": false,
      "metar_trigger": false,
      "taf_trigger": false,
      "metar": "METAR EDDH 151720Z AUTO 12013KT CAVOK M02/M06 Q1009 NOSIG",
      "taf": "TAF EDDH 151700Z 1518/1624 13013KT CAVOK"
    },
    {
      "icao": "EDDK",
      "alert": "OK",
      "vis_m": 9999,
      "fzfg": false,
      "metar_trigger": false,
      "taf_trigger": false,
      "metar": "METAR EDDK 151720Z AUTO 13013KT 9999 FEW037 SCT047 03/M03 Q1004 BECMG 3500 -SN OVC009",
      "taf": "TAF EDDK 151700Z 1518/1624 14012KT 3500 -SN OVC009"
    },
    {
      "icao": "EDDN",
      "alert": "OK",
      "vis_m": 9999,
      "fzfg": false,
      "metar_trigger": false,
      "taf_trigger": false,
      "metar": "METAR EDDN 151720Z AUTO 13010KT 9999 SCT036 M01/M07 Q1010 NOSIG",
      "taf": "TAF EDDN 151700Z 1518/1618 14005KT 9999 BKN030"
    },
    {
      "icao": "EDDS",
      "alert": "OK",
      "vis_m": 9999,
      "fzfg": false,
      "metar_trigger": false,
      "taf_trigger": false,
      "metar": "METAR EDDS 151720Z AUTO 15007KT 110V170 9999 BKN034 02/M02 Q1007 NOSIG",
      "taf": "TAF EDDS 151700Z 1518/1618 13005KT 9999 BKN030"
    },
    {
      "icao": "EDFH",
      "alert": "OK",
      "vis_m": 4000,
      "fzfg": false,
      "metar_trigger": false,
      "taf_trigger": false,
      "metar": "METAR EDFH 151720Z 15014KT 130V190 4000 -SHSN FEW003 BKN017CB OVC024 M00/M03 Q1003",
      "taf": "TAF EDFH 151700Z 1518/1618 15012KT 9999 BKN020"
    },
    {
      "icao": "EDJA",
      "alert": "OK",
      "vis_m": 9999,
      "fzfg": false,
      "metar_trigger": false,
      "taf_trigger": false,
      "metar": "METAR EDJA 151720Z 10006KT 9999 FEW026 M01/M03 Q1008",
      "taf": "TAF EDJA 151700Z 1518/1603 12005KT 9999 SCT025"
    },
    {
      "icao": "EDLW",
      "alert": "OK",
      "vis_m": 9999,
      "fzfg": false,
      "metar_trigger": false,
      "taf_trigger": false,
      "metar": "METAR EDLW 151650Z 13012KT 100V160 CAVOK 02/M05 Q1005",
      "taf": "TAF EDLW 151700Z 1518/1618 15010KT 9999 BKN030"
    },
    {
      "icao": "EDNY",
      "alert": "OK",
      "vis_m": 9999,
      "fzfg": false,
      "metar_trigger": false,
      "taf_trigger": false,
      "metar": "METAR EDNY 151720Z AUTO VRB02KT 9999 // OVC190/// 01/M01 Q1008",
      "taf": "TAF EDNY 151700Z 1518/1603 06004KT 9999 SCT040"
    },
    {
      "icao": "EDSB",
      "alert": "OK",
      "vis_m": 9999,
      "fzfg": false,
      "metar_trigger": false,
      "taf_trigger": false,
      "metar": "METAR EDSB 151720Z 07004KT 040V110 CAVOK 03/M01 Q1006",
      "taf": "TAF EDSB 151700Z 1518/1618 16005KT 9999 BKN030"
    },
    {
      "icao": "EETN",
      "alert": "OK",
      "vis_m": 9999,
      "fzfg": false,
      "metar_trigger": false,
      "taf_trigger": false,
      "metar": "METAR EETN 151720Z 27007KT 9999 OVC025 M04/M08 Q1015 NOSIG",
      "taf": "TAF EETN 151730Z 1518/1618 25009KT 9999 OVC025"
    },
    {
      "icao": "EFTU",
      "alert": "OK",
      "vis_m": 9999,
      "fzfg": false,
      "metar_trigger": false,
      "taf_trigger": false,
      "metar": "METAR EFTU 151720Z AUTO 10002KT 9999 BKN013 M13/M14 Q1014",
      "taf": "TAF EFTU 151735Z 1518/1618 VRB02KT CAVOK"
    },
    {
      "icao": "EGBB",
      "alert": "OK",
      "vis_m": 9999,
      "fzfg": false,
      "metar_trigger": false,
      "taf_trigger": false,
      "metar": "METAR EGBB 151720Z 26010KT 9999 FEW039 07/04 Q0993",
      "taf": "TAF EGBB 151704Z 1518/1618 25009KT 9999 FEW030"
    },
    {
      "icao": "EGGP",
      "alert": "OK",
      "vis_m": 9999,
      "fzfg": false,
      "metar_trigger": false,
      "taf_trigger": false,
      "metar": "METAR EGGP 151720Z 28010KT 9999 FEW034 SCT055TCU 07/03 Q0992",
      "taf": "TAF EGGP 151703Z 1518/1618 26012KT 9999 FEW025"
    },
    {
      "icao": "EGGW",
      "alert": "OK",
      "vis_m": 9999,
      "fzfg": false,
      "metar_trigger": false,
      "taf_trigger": false,
      "metar": "METAR EGGW 151720Z 01010KT 350V050 9999 3000E RA VCTS FEW003 SCT008 BKN014CB 06/06 Q0994 RETSRA",
      "taf": "TAF EGGW 151656Z 1518/1618 25012KT 9999 BKN003"
    },
    {
      "icao": "EGKK",
      "alert": "OK",
      "vis_m": 9999,
      "fzfg": false,
      "metar_trigger": false,
      "taf_trigger": false,
      "metar": "METAR EGKK 151720Z 23007KT 9999 FEW030 08/06 Q0995",
      "taf": "TAF EGKK 151656Z 1518/1624 24008KT 9999 SCT018"
    },
    {
      "icao": "EGNM",
      "alert": "OK",
      "vis_m": 9999,
      "fzfg": false,
      "metar_trigger": false,
      "taf_trigger": false,
      "metar": "METAR EGNM 151720Z 25005KT 9999 VCSH FEW016 SCT026 05/04 Q0990",
      "taf": "TAF EGNM 151702Z 1518/1618 26009KT 9999 SCT015"
    },
    {
      "icao": "EGPD",
      "alert": "OK",
      "vis_m": 9999,
      "fzfg": false,
      "metar_trigger": false,
      "taf_trigger": false,
      "metar": "METAR EGPD 151720Z AUTO 17005KT 9999 FEW009 SCT019 BKN036 04/03 Q0987 TEMPO BKN012",
      "taf": "TAF EGPD 151655Z 1518/1618 17008KT 9999 SCT020"
    },
    {
      "icao": "EGPF",
      "alert": "OK",
      "vis_m": 9999,
      "fzfg": false,
      "metar_trigger": false,
      "taf_trigger": false,
      "metar": "METAR EGPF 151720Z AUTO VRB01KT 9999 BKN022/// OVC044/// //////TCU 05/04 Q0988",
      "taf": "TAF EGPF 151701Z 1518/1618 26005KT 9999 FEW015 SCT030"
    },
    {
      "icao": "EHBK",
      "alert": "OK",
      "vis_m": 1000,
      "fzfg": false,
      "metar_trigger": false,
      "taf_trigger": false,
      "metar": "METAR EHBK 151725Z AUTO 13007KT 1000 R21/1500N SN FEW001/// SCT003/// BKN004/// 00/M00 Q1001 TEMPO 0500 BKN002",
      "taf": "TAF EHBK 151719Z 1518/1624 16010KT 1000 SN BKN004"
    },
    {
      "icao": "EHEH",
      "alert": "OK",
      "vis_m": 700,
      "fzfg": false,
      "metar_trigger": false,
      "taf_trigger": false,
      "metar": "METAR EHEH 151725Z AUTO 14008KT 110V230 0700 R21/1000D SN FEW000 BKN003 BKN004 FEW015CB 00/00 Q1001 RED TEMPO 0800 SN SCT003 BKN005 RMK LVPB TREND REMOTE BY EHWX",
      "taf": "TAF EHEH 151124Z 1512/1618 16010G20KT CAVOK"
    },
    {
      "icao": "EKBI",
      "alert": "OK",
      "vis_m": 9999,
      "fzfg": false,
      "metar_trigger": false,
      "taf_trigger": false,
      "metar": "METAR EKBI 151720Z AUTO 12013KT 9999 OVC130/// M04/M07 Q1008",
      "taf": "TAF EKBI 151727Z 1518/1618 15015KT CAVOK"
    },
    {
      "icao": "EKCH",
      "alert": "OK",
      "vis_m": 9999,
      "fzfg": false,
      "metar_trigger": false,
      "taf_trigger": false,
      "metar": "METAR EKCH 151720Z AUTO 15013KT 9999 NCD M02/M08 Q1014 NOSIG",
      "taf": "TAF EKCH 151727Z 1518/1618 15012KT CAVOK"
    },
    {
      "icao": "ENAL",
      "alert": "OK",
      "vis_m": 9999,
      "fzfg": false,
      "metar_trigger": false,
      "taf_trigger": false,
      "metar": "METAR ENAL 151720Z 16015KT CAVOK 05/M07 Q0994",
      "taf": "TAF ENAL 151700Z 1518/1603 17018KT CAVOK"
    },
    {
      "icao": "ENBR",
      "alert": "OK",
      "vis_m": 9999,
      "fzfg": false,
      "metar_trigger": false,
      "taf_trigger": false,
      "metar": "METAR ENBR 151720Z 16029KT 9999 VCSH FEW008 SCT019 BKN026 02/M01 Q0998 TEMPO 15028G340KT RMK WIND 1200FT 15040G53KT",
      "taf": "TAF ENBR 151700Z 1518/1618 14022KT 9999 SCT012 BKN030"
    },
    {
      "icao": "ENGM",
      "alert": "OK",
      "vis_m": 9999,
      "fzfg": false,
      "metar_trigger": false,
      "taf_trigger": false,
      "metar": "METAR ENGM 151720Z VRB02KT 9999 2600SE -SG FEW002 SCT004 OVC006 M10/M12 Q1008 TEMPO 2000 -SG",
      "taf": "TAF ENGM 151700Z 1518/1618 36003KT 2000 -SG OVC004"
    },
    {
      "icao": "ENHD",
      "alert": "OK",
      "vis_m": 9999,
      "fzfg": false,
      "metar_trigger": false,
      "taf_trigger": false,
      "metar": "METAR ENHD 151720Z 15024G35KT 9999 FEW017 SCT049 03/M03 Q0998 RESN",
      "taf": "TAF ENHD 151400Z 1515/1523 15018KT 9999 SCT008 BKN018"
    },
    {
      "icao": "ENTC",
      "alert": "OK",
      "vis_m": 9999,
      "fzfg": false,
      "metar_trigger": false,
      "taf_trigger": false,
      "metar": "METAR ENTC 151720Z 18012KT 9999 BKN025 M02/M06 Q1000 NOSIG RMK WIND 2600FT 19014KT",
      "taf": "TAF ENTC 151700Z 1518/1618 18010KT 9999 BKN030"
    },
    {
      "icao": "ENTO",
      "alert": "OK",
      "vis_m": 6000,
      "fzfg": false,
      "metar_trigger": false,
      "taf_trigger": false,
      "metar": "METAR ENTO 151720Z 18018KT 6000 -SN FEW002 SCT006 BKN007 M02/M02 Q1009 TEMPO 4000 -SN",
      "taf": "TAF ENTO 151700Z 1518/1618 18015KT 9999 -SN OVC018"
    },
    {
      "icao": "ENVA",
      "alert": "OK",
      "vis_m": 9999,
      "fzfg": false,
      "metar_trigger": false,
      "taf_trigger": false,
      "metar": "METAR ENVA 151720Z 10007KT 070V130 CAVOK M03/M12 Q1001 RMK WIND 670FT 16016KT",
      "taf": "TAF ENVA 151700Z 1518/1618 08008KT CAVOK"
    },
    {
      "icao": "ENZV",
      "alert": "OK",
      "vis_m": 9999,
      "fzfg": false,
      "metar_trigger": false,
      "taf_trigger": false,
      "metar": "METAR ENZV 151720Z 16021KT 9999 NSC 02/M03 Q1000 TEMPO 18025G35KT",
      "taf": "TAF ENZV 151700Z 1518/1618 16022KT 9999 SCT035"
    },
    {
      "icao": "EPGD",
      "alert": "OK",
      "vis_m": 9999,
      "fzfg": false,
      "metar_trigger": false,
      "taf_trigger": false,
      "metar": "METAR EPGD 151730Z 08006KT CAVOK M09/M12 Q1016",
      "taf": "TAF EPGD 151730Z 1518/1618 10008KT CAVOK"
    },
    {
      "icao": "EPKK",
      "alert": "OK",
      "vis_m": 9999,
      "fzfg": false,
      "metar_trigger": false,
      "taf_trigger": false,
      "metar": "METAR EPKK 151730Z 31005KT 9999 OVC020 M04/M08 Q1013",
      "taf": "TAF EPKK 151730Z 1518/1618 35007KT 9999 OVC021"
    },
    {
      "icao": "EPKT",
      "alert": "OK",
      "vis_m": 9999,
      "fzfg": false,
      "metar_trigger": false,
      "taf_trigger": false,
      "metar": "METAR EPKT 151730Z 32006KT 9999 OVC022 M06/M10 Q1013",
      "taf": "TAF EPKT 151730Z 1518/1618 35007KT 9999 OVC022"
    },
    {
      "icao": "EPLB",
      "alert": "OK",
      "vis_m": 5000,
      "fzfg": false,
      "metar_trigger": false,
      "taf_trigger": false,
      "metar": "METAR EPLB 151730Z 33005KT 5000 -SN BR FEW042 M08/M10 Q1012",
      "taf": "TAF EPLB 151730Z 1518/1618 36010KT 4000 -SN BR SCT010 BKN025"
    },
    {
      "icao": "EPMO",
      "alert": "OK",
      "vis_m": 9999,
      "fzfg": false,
      "metar_trigger": false,
      "taf_trigger": false,
      "metar": "METAR EPMO 151730Z 36005KT CAVOK M08/M11 Q1015",
      "taf": "TAF EPMO 151730Z 1518/1618 01007KT CAVOK"
    },
    {
      "icao": "EPPO",
      "alert": "OK",
      "vis_m": 9999,
      "fzfg": false,
      "metar_trigger": false,
      "taf_trigger": false,
      "metar": "METAR EPPO 151730Z 05005KT CAVOK M06/M09 Q1015",
      "taf": "TAF EPPO 151730Z 1518/1618 06006KT 9999 FEW025"
    },
    {
      "icao": "EPRA",
      "alert": "OK",
      "vis_m": 9999,
      "fzfg": false,
      "metar_trigger": false,
      "taf_trigger": false,
      "metar": "METAR EPRA 151730Z 33008KT 9999 BKN022 M06/M10 Q1013",
      "taf": "TAF EPRA 151730Z 1518/1603 35008KT 9999 BKN023"
    },
    {
      "icao": "EPRZ",
      "alert": "OK",
      "vis_m": 4000,
      "fzfg": false,
      "metar_trigger": false,
      "taf_trigger": false,
      "metar": "METAR EPRZ 151730Z 34012KT 4000 -SN BR SCT011 OVC023 M06/M08 Q1012",
      "taf": "TAF EPRZ 151730Z 1518/1618 34010KT 6000 SCT008 BKN016"
    },
    {
      "icao": "EPSC",
      "alert": "OK",
      "vis_m": 9999,
      "fzfg": false,
      "metar_trigger": false,
      "taf_trigger": false,
      "metar": "METAR EPSC 151730Z 10006KT CAVOK M03/M09 Q1015",
      "taf": "TAF EPSC 151730Z 1518/1618 11006KT CAVOK"
    },
    {
      "icao": "EPSY",
      "alert": "OK",
      "vis_m": 9999,
      "fzfg": false,
      "metar_trigger": false,
      "taf_trigger": false,
      "metar": "METAR EPSY 151730Z 36007KT CAVOK M11/M14 Q1016",
      "taf": "TAF EPSY 151730Z 1518/1603 02008KT CAVOK"
    },
    {
      "icao": "EPWA",
      "alert": "OK",
      "vis_m": 9999,
      "fzfg": false,
      "metar_trigger": false,
      "taf_trigger": false,
      "metar": "METAR EPWA 151730Z 02008KT CAVOK M06/M11 Q1014 NOSIG",
      "taf": "TAF EPWA 151730Z 1518/1618 01008KT CAVOK"
    },
    {
      "icao": "EPWR",
      "alert": "OK",
      "vis_m": 9999,
      "fzfg": false,
      "metar_trigger": false,
      "taf_trigger": false,
      "metar": "METAR EPWR 151730Z 01004KT 9999 BKN037 M03/M10 Q1015",
      "taf": "TAF EPWR 151730Z 1518/1618 04006KT 9999 BKN035"
    },
    {
      "icao": "ESGG",
      "alert": "OK",
      "vis_m": 9999,
      "fzfg": false,
      "metar_trigger": false,
      "taf_trigger": false,
      "metar": "METAR ESGG 151720Z 15007KT CAVOK M05/M10 Q1012",
      "taf": "TAF ESGG 151730Z 1518/1618 16010KT CAVOK"
    },
    {
      "icao": "ESKN",
      "alert": "OK",
      "vis_m": 9999,
      "fzfg": false,
      "metar_trigger": false,
      "taf_trigger": false,
      "metar": "METAR ESKN 151720Z 09002KT CAVOK M10/M11 Q1015",
      "taf": "TAF ESKN 151730Z 1518/1618 14005KT CAVOK"
    },
    {
      "icao": "ESMS",
      "alert": "OK",
      "vis_m": 9999,
      "fzfg": false,
      "metar_trigger": false,
      "taf_trigger": false,
      "metar": "METAR ESMS 151720Z 13006KT CAVOK M04/M10 Q1014",
      "taf": "TAF ESMS 151727Z 1518/1618 15008KT CAVOK"
    },
    {
      "icao": "ESSA",
      "alert": "OK",
      "vis_m": 9999,
      "fzfg": false,
      "metar_trigger": false,
      "taf_trigger": false,
      "metar": "METAR ESSA 151720Z 26010KT 9999 BKN013 M06/M09 Q1014 BECMG BKN016",
      "taf": "TAF ESSA 151730Z 1518/1618 24009KT 9999 BKN016"
    },
    {
      "icao": "EYKA",
      "alert": "OK",
      "vis_m": 9999,
      "fzfg": false,
      "metar_trigger": false,
      "taf_trigger": false,
      "metar": "METAR EYKA 151720Z 34004KT CAVOK M14/M17 Q1018",
      "taf": "TAF EYKA 151700Z 1518/1618 VRB04KT 9000 NSC"
    },
    {
      "icao": "EYPA",
      "alert": "OK",
      "vis_m": 9999,
      "fzfg": false,
      "metar_trigger": false,
      "taf_trigger": false,
      "metar": "METAR EYPA 151720Z VRB01KT CAVOK M14/M17 Q1019",
      "taf": "TAF EYPA 151700Z 1518/1618 VRB03KT 9000 NSC"
    },
    {
      "icao": "EYVI",
      "alert": "OK",
      "vis_m": 9999,
      "fzfg": false,
      "metar_trigger": false,
      "taf_trigger": false,
      "metar": "METAR EYVI 151720Z 02008KT CAVOK M14/M19 Q1015 NOSIG",
      "taf": "TAF EYVI 151700Z 1518/1618 01007KT 9000 NSC"
    },
    {
      "icao": "GCFV",
      "alert": "OK",
      "vis_m": 9000,
      "fzfg": false,
      "metar_trigger": false,
      "taf_trigger": false,
      "metar": "METAR GCFV 151730Z 02016KT 9000 FEW020 19/13 Q1024",
      "taf": "TAF GCFV 151400Z 1515/1615 03018KT 9999 FEW040 TX24/1614Z TN17/1606Z"
    },
    {
      "icao": "GCLP",
      "alert": "OK",
      "vis_m": 9999,
      "fzfg": false,
      "metar_trigger": false,
      "taf_trigger": false,
      "metar": "METAR GCLP 151730Z 01020KT 340V040 9999 SCT030 19/13 Q1025 NOSIG",
      "taf": "TAF GCLP 151400Z 1515/1615 02025KT 9999 SCT035 TX27/1614Z TN16/1606Z"
    },
    {
      "icao": "GCTS",
      "alert": "OK",
      "vis_m": 9999,
      "fzfg": false,
      "metar_trigger": false,
      "taf_trigger": false,
      "metar": "METAR GCTS 151730Z 06022G32KT 9999 FEW030 20/11 Q1024 WS R07 NOSIG",
      "taf": "TAF GCTS 151400Z 1515/1615 08028KT 9999 FEW035 TX28/1614Z TN18/1606Z"
    },
    {
      "icao": "GMAD",
      "alert": "OK",
      "vis_m": 9999,
      "fzfg": false,
      "metar_trigger": false,
      "taf_trigger": false,
      "metar": "METAR GMAD 151730Z 22012KT CAVOK 21/09 Q1023 NOSIG",
      "taf": "TAF GMAD 151700Z 1518/1624 20008KT 8000 NSC"
    },
    {
      "icao": "GMMN",
      "alert": "OK",
      "vis_m": 9999,
      "fzfg": false,
      "metar_trigger": false,
      "taf_trigger": false,
      "metar": "METAR GMMN 151730Z 03010KT 010V070 CAVOK 14/10 Q1030 NOSIG",
      "taf": "TAF GMMN 151100Z 1512/1618 06009KT CAVOK"
    },
    {
      "icao": "GMMX",
      "alert": "OK",
      "vis_m": 9999,
      "fzfg": false,
      "metar_trigger": false,
      "taf_trigger": false,
      "metar": "METAR GMMX 151730Z 08008KT CAVOK 18/03 Q1028 NOSIG",
      "taf": "TAF GMMX 151700Z 1518/1624 24008KT 8000 NSC"
    },
    {
      "icao": "HEGN",
      "alert": "OK",
      "vis_m": 9999,
      "fzfg": false,
      "metar_trigger": false,
      "taf_trigger": false,
      "metar": "METAR HEGN 151700Z 00000KT CAVOK 24/11 Q1016 NOSIG",
      "taf": "TAF HEGN 151700Z 1518/1624 32012KT CAVOK"
    },
    {
      "icao": "HEMA",
      "alert": "OK",
      "vis_m": 9999,
      "fzfg": false,
      "metar_trigger": false,
      "taf_trigger": false,
      "metar": "METAR HEMA 151700Z 33010KT CAVOK 24/11 Q1016 NOSIG",
      "taf": "TAF HEMA 151700Z 1518/1624 30012KT CAVOK"
    },
    {
      "icao": "HESH",
      "alert": "OK",
      "vis_m": 9999,
      "fzfg": false,
      "metar_trigger": false,
      "taf_trigger": false,
      "metar": "METAR HESH 151700Z 35008KT CAVOK 25/04 Q1016 NOSIG",
      "taf": "TAF HESH 151700Z 1518/1624 36012KT CAVOK"
    },
    {
      "icao": "HESX",
      "alert": "OK",
      "vis_m": 9999,
      "fzfg": false,
      "metar_trigger": false,
      "taf_trigger": false,
      "metar": "METAR HESX 151700Z 04005KT CAVOK 23/05 Q1015 NOSIG",
      "taf": "TAF HESX 151700Z 1518/1624 15005KT 6000 NSC"
    },
    {
      "icao": "LATI",
      "alert": "OK",
      "vis_m": 9999,
      "fzfg": false,
      "metar_trigger": false,
      "taf_trigger": false,
      "metar": "METAR LATI 151720Z VRB02KT 9999 SCT020 OVC041 11/08 Q1003 NOSIG",
      "taf": "TAF LATI 151700Z 1518/1618 VRB05KT 9999 RA SCT025 OVC040 TX15/1612Z TN08/1605Z"
    },
    {
      "icao": "LBPD",
      "alert": "OK",
      "vis_m": 9999,
      "fzfg": false,
      "metar_trigger": false,
      "taf_trigger": false,
      "metar": "METAR LBPD 151730Z AUTO 25005KT 9999 -SHRA FEW052/// SCT072/// BKN092/// 10/09 Q1000 TEMPO 5000 RA SCT020 OVC033",
      "taf": "TAF LBPD 151700Z 1518/1618 25016KT 9999 SCT030 BKN050"
    },
    {
      "icao": "LBSF",
      "alert": "OK",
      "vis_m": 9999,
      "fzfg": false,
      "metar_trigger": false,
      "taf_trigger": false,
      "metar": "METAR LBSF 151730Z AUTO 01003KT 300V070 9999 -SHRA FEW023/// OVC033/// 06/05 Q1001 NOSIG",
      "taf": "TAF LBSF 151700Z 1518/1618 29014KT 9999 BKN050"
    },
    {
      "icao": "LBWN",
      "alert": "OK",
      "vis_m": 9999,
      "fzfg": false,
      "metar_trigger": false,
      "taf_trigger": false,
      "metar": "METAR LBWN 151730Z AUTO 23006KT 210V270 9999 -RA SCT033/// 10/10 Q1000 RERA TEMPO 27020G30KT",
      "taf": "TAF LBWN 151700Z 1518/1618 10010KT 9999 BKN040"
    },
    {
      "icao": "LCLK",
      "alert": "OK",
      "vis_m": 9999,
      "fzfg": false,
      "metar_trigger": false,
      "taf_trigger": false,
      "metar": "METAR LCLK 151730Z 07010KT CAVOK 17/15 Q1020 NOSIG",
      "taf": "TAF LCLK 151730Z 1518/1618 06010KT 9999 FEW025"
    },
    {
      "icao": "LCPH",
      "alert": "OK",
      "vis_m": 9999,
      "fzfg": false,
      "metar_trigger": false,
      "taf_trigger": false,
      "metar": "METAR LCPH 151730Z 14009KT 090V160 9999 FEW030 16/13 Q1018 NOSIG",
      "taf": "TAF LCPH 151730Z 1518/1618 14010KT 9999 FEW020"
    },
    {
      "icao": "LEAL",
      "alert": "OK",
      "vis_m": 9999,
      "fzfg": false,
      "metar_trigger": false,
      "taf_trigger": false,
      "metar": "METAR LEAL 151730Z 31006KT 250V340 CAVOK 19/01 Q1021 NOSIG",
      "taf": "TAF LEAL 151700Z 1518/1618 29012KT CAVOK TX22/1613Z TN13/1606Z"
    },
    {
      "icao": "LEBB",
      "alert": "OK",
      "vis_m": 9000,
      "fzfg": false,
      "metar_trigger": false,
      "taf_trigger": false,
      "metar": "SPECI LEBB 151742Z VRB01KT 9000 RA OVC060 13/09 Q1020 NOSIG",
      "taf": "TAF LEBB 151700Z 1518/1618 20008KT 9999 FEW030 BKN050 TX15/1518Z TN10/1520Z"
    },
    {
      "icao": "LEBL",
      "alert": "OK",
      "vis_m": 9999,
      "fzfg": false,
      "metar_trigger": false,
      "taf_trigger": false,
      "metar": "METAR LEBL 151730Z 25003KT 190V310 CAVOK 13/08 Q1016 NOSIG",
      "taf": "TAF LEBL 151700Z 1518/1618 22009KT 9999 FEW035 TX21/1613Z TN13/1606Z"
    },
    {
      "icao": "LECH",
      "alert": "OK",
      "vis_m": 9999,
      "fzfg": false,
      "metar_trigger": false,
      "taf_trigger": false,
      "metar": "METAR LECH 151730Z AUTO 10004KT CAVOK 15/02 Q1018",
      "taf": ""
    },
    {
      "icao": "LEMD",
      "alert": "OK",
      "vis_m": 9999,
      "fzfg": false,
      "metar_trigger": false,
      "taf_trigger": false,
      "metar": "METAR LEMD 151730Z 28015KT CAVOK 12/03 Q1024 NOSIG",
      "taf": "TAF LEMD 151700Z 1518/1624 24008KT 9999 FEW040 TX14/1614Z TN07/1607Z"
    },
    {
      "icao": "LEMG",
      "alert": "OK",
      "vis_m": 9999,
      "fzfg": false,
      "metar_trigger": false,
      "taf_trigger": false,
      "metar": "METAR LEMG 151730Z 31012KT CAVOK 15/06 Q1027 NOSIG",
      "taf": "TAF LEMG 151700Z 1518/1618 30012KT CAVOK TX19/1614Z TN12/1607Z"
    },
    {
      "icao": "LEVC",
      "alert": "OK",
      "vis_m": 9999,
      "fzfg": false,
      "metar_trigger": false,
      "taf_trigger": false,
      "metar": "METAR LEVC 151730Z 26018KT CAVOK 17/04 Q1019 NOSIG",
      "taf": "TAF LEVC 151700Z 1518/1618 27014KT CAVOK TX23/1614Z TN13/1606Z"
    },
    {
      "icao": "LEXJ",
      "alert": "OK",
      "vis_m": 9999,
      "fzfg": false,
      "metar_trigger": false,
      "taf_trigger": false,
      "metar": "METAR LEXJ 151730Z 27006KT 250V310 9999 FEW030 BKN070 14/08 Q1019",
      "taf": "TAF LEXJ 151400Z 1515/1615 24009KT 9999 SCT050 BKN070 TX16/1515Z TN11/1601Z"
    },
    {
      "icao": "LEZG",
      "alert": "OK",
      "vis_m": 9999,
      "fzfg": false,
      "metar_trigger": false,
      "taf_trigger": false,
      "metar": "METAR LEZG 151730Z 29009KT CAVOK 12/06 Q1020 NOSIG",
      "taf": "TAF LEZG 151700Z 1518/1618 27012KT CAVOK TX17/1612Z TN11/1606Z"
    },
    {
      "icao": "LEZL",
      "alert": "OK",
      "vis_m": 9999,
      "fzfg": false,
      "metar_trigger": false,
      "taf_trigger": false,
      "metar": "METAR LEZL 151730Z 31011KT 9999 FEW045 16/09 Q1029 NOSIG",
      "taf": "TAF LEZL 151400Z 1515/1615 30008KT CAVOK TX18/1515Z TN06/1607Z"
    },
    {
      "icao": "LFBD",
      "alert": "OK",
      "vis_m": 4400,
      "fzfg": false,
      "metar_trigger": false,
      "taf_trigger": false,
      "metar": "METAR LFBD 151730Z AUTO 26016KT 4400 -RA BR BKN007 OVC012 12/11 Q1013 TEMPO RA BECMG 24015G25KT",
      "taf": "TAF LFBD 151100Z 1512/1618 24010KT 9999 BKN010 TX13/1612Z TN10/1512Z"
    },
    {
      "icao": "LFLL",
      "alert": "OK",
      "vis_m": 8000,
      "fzfg": false,
      "metar_trigger": false,
      "taf_trigger": false,
      "metar": "METAR LFLL 151730Z 15007KT 8000 -RA SCT041 OVC050 04/02 Q1010 NOSIG",
      "taf": "TAF LFLL 151700Z 1518/1624 16010KT 9999 OVC040"
    },
    {
      "icao": "LFLS",
      "alert": "OK",
      "vis_m": 9999,
      "fzfg": false,
      "metar_trigger": false,
      "taf_trigger": false,
      "metar": "METAR LFLS 151730Z AUTO 08012KT 9999 -RA BKN046 BKN054 OVC066 03/02 Q1011 TEMPO 4000 RA",
      "taf": ""
    },
    {
      "icao": "LFMN",
      "alert": "OK",
      "vis_m": 9999,
      "fzfg": false,
      "metar_trigger": false,
      "taf_trigger": false,
      "metar": "METAR LFMN 151730Z 03007KT CAVOK 12/06 Q1006 NOSIG",
      "taf": "TAF LFMN 151400Z 1515/1621 20008KT CAVOK"
    },
    {
      "icao": "LFOB",
      "alert": "OK",
      "vis_m": 5000,
      "fzfg": false,
      "metar_trigger": false,
      "taf_trigger": false,
      "metar": "METAR LFOB 151730Z AUTO 17004KT 5000 -RA BR BKN007/// OVC012/// ///TCU 03/03 Q0999 TEMPO 2000 RADZ OVC002 BECMG 27010KT",
      "taf": ""
    },
    {
      "icao": "LFPO",
      "alert": "OK",
      "vis_m": 8000,
      "fzfg": false,
      "metar_trigger": false,
      "taf_trigger": false,
      "metar": "METAR LFPO 151730Z 23009KT 8000 -RADZ SCT004 BKN008 05/05 Q1000 NOSIG",
      "taf": "TAF LFPO 151700Z 1518/1624 25010KT 6000 BKN012"
    },
    {
      "icao": "LFSB",
      "alert": "OK",
      "vis_m": 9999,
      "fzfg": false,
      "metar_trigger": false,
      "taf_trigger": false,
      "metar": "METAR LFSB 151730Z AUTO 11010KT 9999 FEW050 BKN060 OVC074 05/00 Q1006 TEMPO 4000 RA",
      "taf": "TAF LFSB 151700Z 1518/1618 12008KT 9999 OVC050"
    },
    {
      "icao": "LGAV",
      "alert": "OK",
      "vis_m": 9999,
      "fzfg": false,
      "metar_trigger": false,
      "taf_trigger": false,
      "metar": "METAR LGAV 151720Z 22010KT 9999 FEW020 14/10 Q1005 NOSIG",
      "taf": "TAF LGAV 151700Z 1518/1618 21012KT 9000 FEW015 SCT025"
    },
    {
      "icao": "LGTS",
      "alert": "OK",
      "vis_m": 9999,
      "fzfg": false,
      "metar_trigger": false,
      "taf_trigger": false,
      "metar": "METAR LGTS 151720Z 12005KT 9999 SCT020 15/09 Q1000 NOSIG",
      "taf": "TAF LGTS 151700Z 1518/1618 20013KT 9999 FEW025"
    },
    {
      "icao": "LHBP",
      "alert": "OK",
      "vis_m": 9999,
      "fzfg": false,
      "metar_trigger": false,
      "taf_trigger": false,
      "metar": "METAR LHBP 151730Z 30014KT 9999 SCT037 BKN050 00/M05 Q1008 NOSIG",
      "taf": "TAF LHBP 151715Z 1518/1618 31011KT CAVOK"
    },
    {
      "icao": "LHDC",
      "alert": "OK",
      "vis_m": 9999,
      "fzfg": false,
      "metar_trigger": false,
      "taf_trigger": false,
      "metar": "METAR LHDC 151715Z AUTO 36016G27KT 330V030 CAVOK M00/M06 Q1005 NOSIG",
      "taf": "TAF LHDC 151715Z 1518/1603 36018G30KT CAVOK"
    },
    {
      "icao": "LIBD",
      "alert": "OK",
      "vis_m": 9999,
      "fzfg": false,
      "metar_trigger": false,
      "taf_trigger": false,
      "metar": "METAR LIBD 151720Z 29009KT 9999 BKN030 11/07 Q1004",
      "taf": "TAF LIBD 151700Z 1518/1618 27010KT 9999 FEW030"
    },
    {
      "icao": "LIBG",
      "alert": "OK",
      "vis_m": 9999,
      "fzfg": false,
      "metar_trigger": false,
      "taf_trigger": false,
      "metar": "METAR LIBG 151650Z 30007KT 260V340 9999 FEW040 13/07 Q1003",
      "taf": "TAF LIBG 151700Z 1518/1603 29010KT 9999 FEW040"
    },
    {
      "icao": "LIBP",
      "alert": "OK",
      "vis_m": 9999,
      "fzfg": false,
      "metar_trigger": false,
      "taf_trigger": false,
      "metar": "METAR LIBP 151720Z AUTO 29004KT 9999 FEW058/// BKN098/// 10/04 Q1008 REDZ",
      "taf": "TAF LIBP 151700Z 1518/1618 VRB05KT 9999 FEW030 SCT060"
    },
    {
      "icao": "LIBR",
      "alert": "OK",
      "vis_m": 9999,
      "fzfg": false,
      "metar_trigger": false,
      "taf_trigger": false,
      "metar": "METAR LIBR 151720Z 30015KT 9999 BKN030 12/08 Q1003",
      "taf": "TAF LIBR 151700Z 1518/1618 29016KT 9999 SCT030"
    },
    {
      "icao": "LICA",
      "alert": "OK",
      "vis_m": 9999,
      "fzfg": false,
      "metar_trigger": false,
      "taf_trigger": false,
      "metar": "METAR LICA 151720Z AUTO 28007KT 9999 NCD 13/11 Q1005",
      "taf": "TAF LICA 151700Z 1518/1618 28008KT 9999 OVC060"
    },
    {
      "icao": "LICC",
      "alert": "OK",
      "vis_m": 9999,
      "fzfg": false,
      "metar_trigger": false,
      "taf_trigger": false,
      "metar": "METAR LICC 151720Z 26005KT 190V280 9999 FEW020 BKN070 14/11 Q1005",
      "taf": "TAF LICC 151700Z 1518/1618 27006KT 9999 SCT020"
    },
    {
      "icao": "LICJ",
      "alert": "OK",
      "vis_m": 9999,
      "fzfg": false,
      "metar_trigger": false,
      "taf_trigger": false,
      "metar": "METAR LICJ 151720Z 32014KT 9999 SCT020 SCT030 15/11 Q1009",
      "taf": "TAF LICJ 151700Z 1518/1618 31016KT 9999 SCT030"
    },
    {
      "icao": "LIMC",
      "alert": "OK",
      "vis_m": 9999,
      "fzfg": false,
      "metar_trigger": false,
      "taf_trigger": false,
      "metar": "METAR LIMC 151720Z 25005KT 230V320 CAVOK 12/M04 Q1006 NOSIG",
      "taf": "TAF LIMC 151700Z 1518/1624 VRB06KT CAVOK"
    },
    {
      "icao": "LIME",
      "alert": "OK",
      "vis_m": 9999,
      "fzfg": false,
      "metar_trigger": false,
      "taf_trigger": false,
      "metar": "METAR LIME 151720Z 12003KT CAVOK 11/02 Q1006 NOSIG",
      "taf": "TAF LIME 151700Z 1518/1618 VRB05KT CAVOK"
    },
    {
      "icao": "LIMF",
      "alert": "OK",
      "vis_m": null,
      "fzfg": false,
      "metar_trigger": false,
      "taf_trigger": false,
      "metar": "METAR LIMF 151720Z AUTO 26003KT //// // NCD 12/M01 Q1006",
      "taf": "TAF LIMF 151700Z 1518/1618 VRB05KT CAVOK"
    },
    {
      "icao": "LIMJ",
      "alert": "OK",
      "vis_m": 9999,
      "fzfg": false,
      "metar_trigger": false,
      "taf_trigger": false,
      "metar": "METAR LIMJ 151720Z 27010KT CAVOK 14/09 Q1006",
      "taf": "TAF LIMJ 151700Z 1518/1618 VRB05KT CAVOK"
    },
    {
      "icao": "LIPE",
      "alert": "OK",
      "vis_m": 9999,
      "fzfg": false,
      "metar_trigger": false,
      "taf_trigger": false,
      "metar": "METAR LIPE 151720Z 12008KT CAVOK 09/03 Q1007",
      "taf": "TAF LIPE 151700Z 1518/1618 VRB05KT 9999 FEW060"
    },
    {
      "icao": "LIPH",
      "alert": "OK",
      "vis_m": 9999,
      "fzfg": false,
      "metar_trigger": false,
      "taf_trigger": false,
      "metar": "METAR LIPH 151720Z 13004KT CAVOK 11/03 Q1007",
      "taf": "TAF LIPH 151700Z 1518/1618 04006KT 9999 FEW020 SCT060"
    },
    {
      "icao": "LIPQ",
      "alert": "OK",
      "vis_m": 9999,
      "fzfg": false,
      "metar_trigger": false,
      "taf_trigger": false,
      "metar": "METAR LIPQ 151720Z AUTO 15006KT 9999 FEW077/// 09/M01 Q1008",
      "taf": "TAF LIPQ 151700Z 1518/1618 VRB05KT 9999 FEW060"
    },
    {
      "icao": "LIPR",
      "alert": "OK",
      "vis_m": 9999,
      "fzfg": false,
      "metar_trigger": false,
      "taf_trigger": false,
      "metar": "METAR LIPR 151720Z 06001KT CAVOK 08/07 Q1008",
      "taf": "TAF LIPR 151700Z 1518/1618 VRB05KT CAVOK"
    },
    {
      "icao": "LIPX",
      "alert": "OK",
      "vis_m": 9999,
      "fzfg": false,
      "metar_trigger": false,
      "taf_trigger": false,
      "metar": "METAR LIPX 151720Z 26003KT 240V300 CAVOK 10/02 Q1006",
      "taf": "TAF LIPX 151700Z 1518/1618 VRB05KT CAVOK"
    },
    {
      "icao": "LIPY",
      "alert": "OK",
      "vis_m": 9999,
      "fzfg": false,
      "metar_trigger": false,
      "taf_trigger": false,
      "metar": "METAR LIPY 151720Z AUTO VRB01KT 9999 BKN040/// 10/08 Q1008",
      "taf": "TAF LIPY 151700Z 1518/1618 VRB05KT 9999 FEW020"
    },
    {
      "icao": "LIPZ",
      "alert": "OK",
      "vis_m": 9999,
      "fzfg": false,
      "metar_trigger": false,
      "taf_trigger": false,
      "metar": "METAR LIPZ 151720Z 13004KT 9999 FEW060 09/06 Q1008 NOSIG",
      "taf": "TAF LIPZ 151700Z 1518/1624 VRB05KT 9999 FEW060"
    },
    {
      "icao": "LIRF",
      "alert": "OK",
      "vis_m": 9999,
      "fzfg": false,
      "metar_trigger": false,
      "taf_trigger": false,
      "metar": "METAR LIRF 151720Z 34005KT CAVOK 11/06 Q1006 NOSIG",
      "taf": "TAF LIRF 151700Z 1518/1624 35010KT CAVOK"
    },
    {
      "icao": "LIRN",
      "alert": "OK",
      "vis_m": 9999,
      "fzfg": false,
      "metar_trigger": false,
      "taf_trigger": false,
      "metar": "METAR LIRN 151720Z 02006KT 9999 BKN040 13/05 Q1006 NOSIG",
      "taf": "TAF LIRN 151700Z 1518/1618 VRB06KT 9999 BKN080"
    },
    {
      "icao": "LIRP",
      "alert": "OK",
      "vis_m": 9999,
      "fzfg": false,
      "metar_trigger": false,
      "taf_trigger": false,
      "metar": "METAR LIRP 151715Z 31002KT CAVOK 12/09 Q1007 NOSIG",
      "taf": "TAF LIRP 151700Z 1518/1618 26005KT 9999 FEW040"
    },
    {
      "icao": "LIRZ",
      "alert": "OK",
      "vis_m": 9999,
      "fzfg": false,
      "metar_trigger": false,
      "taf_trigger": false,
      "metar": "METAR LIRZ 151720Z AUTO 04006KT 9999 NCD 08/04 Q1007",
      "taf": "TAF LIRZ 151700Z 1518/1618 02010KT 9999 BKN030"
    },
    {
      "icao": "LJLJ",
      "alert": "OK",
      "vis_m": 9999,
      "fzfg": false,
      "metar_trigger": false,
      "taf_trigger": false,
      "metar": "METAR LJLJ 151730Z VRB01KT 9999 FEW035 02/01 Q1010 NOSIG",
      "taf": "TAF LJLJ 151700Z 1518/1618 02006KT 9999 FEW065"
    },
    {
      "icao": "LKMT",
      "alert": "OK",
      "vis_m": 9999,
      "fzfg": false,
      "metar_trigger": false,
      "taf_trigger": false,
      "metar": "METAR LKMT 151730Z 36007KT 9999 OVC027 M05/M08 Q1014 NOSIG",
      "taf": "TAF LKMT 151700Z 1518/1618 01012KT 9999 BKN025"
    },
    {
      "icao": "LKPR",
      "alert": "OK",
      "vis_m": 9999,
      "fzfg": false,
      "metar_trigger": false,
      "taf_trigger": false,
      "metar": "METAR LKPR 151730Z VRB02KT 9999 FEW033 M04/M09 Q1012 NOSIG",
      "taf": "TAF LKPR 151700Z 1518/1624 14007KT CAVOK"
    },
    {
      "icao": "LLBG",
      "alert": "OK",
      "vis_m": 9000,
      "fzfg": false,
      "metar_trigger": false,
      "taf_trigger": false,
      "metar": "METAR LLBG 151720Z VRB02KT 9000 NSC 18/07 Q1016 NOSIG",
      "taf": "TAF LLBG 151716Z 1518/1618 VRB04KT CAVOK"
    },
    {
      "icao": "LMML",
      "alert": "OK",
      "vis_m": 9999,
      "fzfg": false,
      "metar_trigger": false,
      "taf_trigger": false,
      "metar": "METAR LMML 151745Z 29021G31KT 9999 FEW014 14/11 Q1009 NOSIG",
      "taf": "TAF LMML 151700Z 1518/1618 29020G30KT 9999 SCT020"
    },
    {
      "icao": "LOWW",
      "alert": "OK",
      "vis_m": 9999,
      "fzfg": false,
      "metar_trigger": false,
      "taf_trigger": false,
      "metar": "METAR LOWW 151720Z 34015KT 9999 FEW030 BKN032 M01/M07 Q1013 NOSIG",
      "taf": "TAF LOWW 151715Z 1518/1624 35011KT 9999 FEW030 BKN035 TXM01/1615Z TNM06/1601Z"
    },
    {
      "icao": "LPFR",
      "alert": "OK",
      "vis_m": 9999,
      "fzfg": false,
      "metar_trigger": false,
      "taf_trigger": false,
      "metar": "METAR LPFR 151730Z 29009KT 9999 FEW030 15/10 Q1030",
      "taf": "TAF LPFR 151700Z 1518/1618 27010KT 9999 SCT025"
    },
    {
      "icao": "LPMA",
      "alert": "OK",
      "vis_m": 9999,
      "fzfg": false,
      "metar_trigger": false,
      "taf_trigger": false,
      "metar": "METAR LPMA 151730Z 03018KT 9999 FEW016 17/11 Q1030",
      "taf": "TAF LPMA 151700Z 1518/1618 02015KT 9999 SCT015"
    },
    {
      "icao": "LPPR",
      "alert": "OK",
      "vis_m": 9999,
      "fzfg": false,
      "metar_trigger": false,
      "taf_trigger": false,
      "metar": "METAR LPPR 151730Z 23009KT 200V260 9999 FEW012 SCT020 BKN040 14/12 Q1028",
      "taf": "TAF LPPR 151700Z 1518/1618 22010KT 9999 SCT012 BKN025"
    },
    {
      "icao": "LPPS",
      "alert": "OK",
      "vis_m": 9999,
      "fzfg": false,
      "metar_trigger": false,
      "taf_trigger": false,
      "metar": "METAR LPPS 151730Z 07011KT 020V100 9999 FEW015 16/11 Q1031",
      "taf": "TAF LPPS 151700Z 1518/1624 06012KT 9999 SCT015"
    },
    {
      "icao": "LPPT",
      "alert": "OK",
      "vis_m": 9999,
      "fzfg": false,
      "metar_trigger": false,
      "taf_trigger": false,
      "metar": "METAR LPPT 151730Z 29005KT 250V330 9999 FEW017 SCT021 BKN032 13/10 Q1031",
      "taf": "TAF LPPT 151700Z 1518/1624 29012KT 9999 SCT025"
    },
    {
      "icao": "LQBK",
      "alert": "OK",
      "vis_m": 9999,
      "fzfg": false,
      "metar_trigger": false,
      "taf_trigger": false,
      "metar": "METAR LQBK 151730Z 27007KT 240V310 CAVOK 03/M02 Q1011 NOSIG",
      "taf": "TAF LQBK 151700Z 1518/1618 26005KT CAVOK TX06/1613Z TNM05/1606Z"
    },
    {
      "icao": "LQSA",
      "alert": "OK",
      "vis_m": 9999,
      "fzfg": false,
      "metar_trigger": false,
      "taf_trigger": false,
      "metar": "METAR LQSA 151730Z 30008KT 9999 FEW020 OVC025 01/M01 Q1009 NOSIG",
      "taf": "TAF LQSA 151700Z 1518/1618 31005KT 9999 SCT020 BKN030 TX08/1614Z TNM04/1605Z"
    },
    {
      "icao": "LQTZ",
      "alert": "OK",
      "vis_m": 6000,
      "fzfg": false,
      "metar_trigger": false,
      "taf_trigger": false,
      "metar": "METAR LQTZ 151730Z 31005KT 6000 -SN BKN007 OVC020 01/01 Q1011",
      "taf": "TAF LQTZ 151700Z 1518/1618 27005KT 9999 FEW010 BKN020 TX05/1613Z TNM06/1605Z"
    },
    {
      "icao": "LRBC",
      "alert": "OK",
      "vis_m": 9999,
      "fzfg": false,
      "metar_trigger": false,
      "taf_trigger": false,
      "metar": "METAR LRBC 151730Z 35016KT 9999 -RASN OVC027 01/00 Q1000",
      "taf": "TAF LRBC 151700Z 1518/1603 34016KT 5000 -SN BR BKN010 OVC020"
    },
    {
      "icao": "LRBS",
      "alert": "OK",
      "vis_m": 800,
      "fzfg": false,
      "metar_trigger": false,
      "taf_trigger": false,
      "metar": "METAR LRBS 151730Z 20003KT 0800 R07/1900N FG BKN001 OVC038 09/09 Q0996 BECMG 24015KT 1500 BR BKN002",
      "taf": "TAF LRBS 151700Z 1518/1618 VRB04KT 0600 -RA FG BKN001"
    },
    {
      "icao": "LRBV",
      "alert": "OK",
      "vis_m": 9999,
      "fzfg": false,
      "metar_trigger": false,
      "taf_trigger": false,
      "metar": "METAR LRBV 151730Z 29008KT 250V330 9999 -RA FEW007 SCT013 BKN020 06/04 Q0996",
      "taf": "TAF LRBV 151700Z 1518/1603 28010KT 9999 SCT010 BKN050"
    },
    {
      "icao": "LRCL",
      "alert": "OK",
      "vis_m": 9999,
      "fzfg": false,
      "metar_trigger": false,
      "taf_trigger": false,
      "metar": "METAR LRCL 151730Z 27013KT 9999 -RA BKN010 OVC022 03/00 Q1000",
      "taf": "TAF LRCL 151700Z 1518/1603 29015KT 9999 BKN010 OVC025"
    },
    {
      "icao": "LRCV",
      "alert": "OK",
      "vis_m": 5000,
      "fzfg": false,
      "metar_trigger": false,
      "taf_trigger": false,
      "metar": "METAR LRCV 151730Z 27014KT 5000 BR SCT001 OVC003 08/08 Q0999",
      "taf": "TAF LRCV 151700Z 1518/1603 26017KT 3000 -RA BR OVC001"
    },
    {
      "icao": "LRIA",
      "alert": "OK",
      "vis_m": 9999,
      "fzfg": false,
      "metar_trigger": false,
      "taf_trigger": false,
      "metar": "METAR LRIA 151730Z 29014KT 9999 -RASN OVC004 01/00 Q1001",
      "taf": "TAF LRIA 151700Z 1518/1603 31012KT 5000 -RA BR OVC005"
    },
    {
      "icao": "LROP",
      "alert": "OK",
      "vis_m": 700,
      "fzfg": false,
      "metar_trigger": false,
      "taf_trigger": false,
      "metar": "METAR LROP 151730Z 17004KT 0700 R08R/0800N R08L/1200D FG BKN001 BKN011 OVC012 09/09 Q0995 BECMG 24015KT 1500 BR BKN002",
      "taf": "TAF LROP 151700Z 1518/1618 VRB04KT 0600 -RA FG BKN001"
    },
    {
      "icao": "LRSB",
      "alert": "OK",
      "vis_m": 6000,
      "fzfg": false,
      "metar_trigger": false,
      "taf_trigger": false,
      "metar": "METAR LRSB 151730Z 30007KT 6000 -RA SCT005 OVC008 05/05 Q0998",
      "taf": "TAF LRSB 151700Z 1518/1618 30010KT 5000 -RA BR BKN005 OVC010"
    },
    {
      "icao": "LRSM",
      "alert": "OK",
      "vis_m": 9999,
      "fzfg": false,
      "metar_trigger": false,
      "taf_trigger": false,
      "metar": "METAR LRSM 151730Z AUTO 34013KT 9999 -SN BKN027/// OVC032/// 01/M02 Q1003",
      "taf": ""
    },
    {
      "icao": "LRSV",
      "alert": "OK",
      "vis_m": 4000,
      "fzfg": false,
      "metar_trigger": false,
      "taf_trigger": false,
      "metar": "METAR LRSV 151730Z 31026KT 4000 -SN BR BKN011 BKN040 M02/M03 Q1001",
      "taf": "TAF LRSV 151700Z 1518/1603 31022KT 5000 -SN BR BKN015"
    },
    {
      "icao": "LRTM",
      "alert": "OK",
      "vis_m": 9999,
      "fzfg": false,
      "metar_trigger": false,
      "taf_trigger": false,
      "metar": "METAR LRTM 151730Z AUTO 30012KT 9999 DZRA BKN007/// BKN012/// 05/04 Q0998",
      "taf": "TAF LRTM 151700Z 1518/1603 26005KT 9999 BKN010 OVC025"
    },
    {
      "icao": "LRTR",
      "alert": "OK",
      "vis_m": 9999,
      "fzfg": false,
      "metar_trigger": false,
      "taf_trigger": false,
      "metar": "METAR LRTR 151730Z 34015KT 9999 -RA SCT006 BKN010 BKN025 01/00 Q1005",
      "taf": "TAF LRTR 151700Z 1518/1618 34014KT 9999 BKN007 BKN030"
    },
    {
      "icao": "LTAC",
      "alert": "OK",
      "vis_m": 9999,
      "fzfg": false,
      "metar_trigger": false,
      "taf_trigger": false,
      "metar": "METAR LTAC 151720Z 16004KT CAVOK 12/05 Q1014 NOSIG RMK RWY21C VRB02KT RWY03L 16003KT 130V240 RWY21R 00000KT RWY03R 14003KT RWY21L VRB02KT",
      "taf": "TAF LTAC 151640Z 1518/1618 VRB02KT CAVOK"
    },
    {
      "icao": "LTFM",
      "alert": "OK",
      "vis_m": 9999,
      "fzfg": false,
      "metar_trigger": false,
      "taf_trigger": false,
      "metar": "METAR LTFM 151720Z 22018KT 9999 FEW040 BKN100 19/05 Q1002 NOSIG RMK RWY17L 22017G32KT RWY34L 21015KT RWY16R 21017KT RWY36 22014KT RWY18 23020KT",
      "taf": "TAF LTFM 151640Z 1518/1624 22023G35KT 9999 SCT040 BKN100"
    },
    {
      "icao": "LUKK",
      "alert": "OK",
      "vis_m": 5000,
      "fzfg": false,
      "metar_trigger": false,
      "taf_trigger": false,
      "metar": "METAR LUKK 151730Z 34007KT 300V010 5000 -RA BR BKN003 OVC007 05/05 Q0998 NOSIG",
      "taf": "TAF LUKK 151723Z 1518/1618 32014KT 3000 -RA BR BKN003"
    },
    {
      "icao": "LWOH",
      "alert": "OK",
      "vis_m": 9999,
      "fzfg": false,
      "metar_trigger": false,
      "taf_trigger": false,
      "metar": "METAR LWOH 151720Z 28005KT 250V320 9999 FEW015 BKN037 06/05 Q1002",
      "taf": "TAF LWOH 151430Z 1515/1615 18010KT 9999 FEW020 BKN040"
    },
    {
      "icao": "LWSK",
      "alert": "OK",
      "vis_m": 9999,
      "fzfg": false,
      "metar_trigger": false,
      "taf_trigger": false,
      "metar": "METAR LWSK 151720Z 04010KT 9999 SCT060 BKN080 12/07 Q1001 NOSIG",
      "taf": "TAF LWSK 151430Z 1515/1615 18008KT 9999 SCT060"
    },
    {
      "icao": "LYBE",
      "alert": "OK",
      "vis_m": 4500,
      "fzfg": false,
      "metar_trigger": false,
      "taf_trigger": false,
      "metar": "METAR LYBE 151730Z 29013KT 4500 -SN BKN004 OVC040 00/M00 Q1009 RESN NOSIG",
      "taf": "TAF LYBE 151700Z 1518/1618 28010KT 4000 SN BKN003 OVC025 TX07/1613Z TNM03/1606Z"
    },
    {
      "icao": "LYNI",
      "alert": "OK",
      "vis_m": 9999,
      "fzfg": false,
      "metar_trigger": false,
      "taf_trigger": false,
      "metar": "METAR LYNI 151730Z 32017KT 9999 -DZ BKN013 OVC030 03/02 Q1005 NOSIG",
      "taf": "TAF LYNI 151700Z 1518/1618 33020G30KT 9999 SCT010 BKN040 TX08/1613Z TN01/1606Z"
    },
    {
      "icao": "LYPG",
      "alert": "OK",
      "vis_m": 9999,
      "fzfg": false,
      "metar_trigger": false,
      "taf_trigger": false,
      "metar": "METAR LYPG 151730Z 35005KT 9999 BKN040 OVC080 09/07 Q1003 NOSIG",
      "taf": "TAF LYPG 151700Z 1518/1618 36009KT 9999 SCT040 BKN080 TX13/1612Z TN07/1605Z"
    },
    {
      "icao": "LZIB",
      "alert": "OK",
      "vis_m": 9999,
      "fzfg": false,
      "metar_trigger": false,
      "taf_trigger": false,
      "metar": "METAR LZIB 151730Z 35009KT 310V020 9999 FEW025 M01/M08 Q1013 NOSIG",
      "taf": "TAF LZIB 151715Z 1518/1618 35007KT 9999 FEW025 BKN035"
    },
    {
      "icao": "LZKZ",
      "alert": "OK",
      "vis_m": 9999,
      "fzfg": false,
      "metar_trigger": false,
      "taf_trigger": false,
      "metar": "METAR LZKZ 151730Z 02022KT 9999 FEW030 M02/M06 Q1007 NOSIG",
      "taf": "TAF LZKZ 151715Z 1518/1618 36020KT 9999 FEW025"
    },
    {
      "icao": "LZTT",
      "alert": "OK",
      "vis_m": 9999,
      "fzfg": false,
      "metar_trigger": false,
      "taf_trigger": false,
      "metar": "METAR LZTT 151730Z 16003KT 110V190 9999 FEW016 SCT030 M06/M09 Q1006 NOSIG",
      "taf": "TAF LZTT 151715Z 1518/1618 16004KT 9999 SCT015 BKN030"
    },
    {
      "icao": "OEJN",
      "alert": "OK",
      "vis_m": 9999,
      "fzfg": false,
      "metar_trigger": false,
      "taf_trigger": false,
      "metar": "METAR OEJN 151700Z 33004KT CAVOK 27/18 Q1013 NOSIG",
      "taf": "TAF OEJN 151700Z 1518/1624 VRB03KT 7000 NSC"
    },
    {
      "icao": "OEMA",
      "alert": "OK",
      "vis_m": 9999,
      "fzfg": false,
      "metar_trigger": false,
      "taf_trigger": false,
      "metar": "METAR OEMA 151700Z 05007KT CAVOK 29/M02 Q1020 NOSIG",
      "taf": "TAF OEMA 151700Z 1518/1624 09010KT 7000 NSC"
    },
    {
      "icao": "OJAI",
      "alert": "OK",
      "vis_m": 3000,
      "fzfg": false,
      "metar_trigger": false,
      "taf_trigger": false,
      "metar": "METAR OJAI 151700Z 07009KT 3000 DU NSC 14/01 Q1023 NOSIG",
      "taf": "TAF OJAI 151700Z 1518/1624 13010KT 3000 DU NSC"
    },
    {
      "icao": "OMAA",
      "alert": "OK",
      "vis_m": 9999,
      "fzfg": false,
      "metar_trigger": false,
      "taf_trigger": false,
      "metar": "METAR OMAA 151730Z 20003KT CAVOK 24/14 Q1014 NOSIG",
      "taf": "TAF OMAA 151700Z 1518/1700 28010KT 8000 NSC"
    },
    {
      "icao": "OMDB",
      "alert": "OK",
      "vis_m": 9999,
      "fzfg": false,
      "metar_trigger": false,
      "taf_trigger": false,
      "metar": "METAR OMDB 151730Z 17004KT 130V200 CAVOK 25/12 Q1013 NOSIG",
      "taf": "TAF OMDB 151700Z 1518/1700 28012KT CAVOK"
    },
    {
      "icao": "UAAA",
      "alert": "OK",
      "vis_m": 1200,
      "fzfg": false,
      "metar_trigger": false,
      "taf_trigger": false,
      "metar": "METAR UAAA 151730Z 14002MPS 110V180 1200 R23L/P2000N BR OVC100 01/M00 Q1016 NOSIG",
      "taf": "TAF UAAA 151701Z 1518/1618 24003MPS 1100 BR FU BKN003 OVC011 TX03/1609Z TNM02/1602Z"
    },
    {
      "icao": "UBBB",
      "alert": "OK",
      "vis_m": 9999,
      "fzfg": false,
      "metar_trigger": false,
      "taf_trigger": false,
      "metar": "METAR UBBB 151730Z 31004KT CAVOK 08/06 Q1024 NOSIG",
      "taf": "TAF UBBB 151705Z 1518/1618 VRB04KT 9999 FEW030 TX15/1610Z TN06/1700Z"
    },
    {
      "icao": "UDSG",
      "alert": "OK",
      "vis_m": 9999,
      "fzfg": false,
      "metar_trigger": false,
      "taf_trigger": false,
      "metar": "METAR UDSG 151730Z 05003KT 9999 NSC M02/M03 Q1025 NOSIG",
      "taf": "TAF UDSG 151658Z 1518/1618 VRB06KT 9999 FEW040"
    },
    {
      "icao": "UDYZ",
      "alert": "OK",
      "vis_m": 9999,
      "fzfg": false,
      "metar_trigger": false,
      "taf_trigger": false,
      "metar": "METAR UDYZ 151730Z 04006KT 9999 NSC 07/03 Q1024 NOSIG",
      "taf": "TAF UDYZ 151700Z 1518/1618 VRB06KT 9999 FEW050"
    },
    {
      "icao": "UGKO",
      "alert": "OK",
      "vis_m": 9999,
      "fzfg": false,
      "metar_trigger": false,
      "taf_trigger": false,
      "metar": "METAR UGKO 151730Z 08010KT CAVOK 11/06 Q1017 NOSIG",
      "taf": "TAF UGKO 151700Z 1518/1618 08020KT CAVOK TX23/1611Z TN11/1603Z"
    }
  ]
}