{
  "ts_utc": "2026-02-03T21:58:41Z",
  "threshold_m": 150,
  "source": "stations_override.txt (ICAO list) + aviationweather.gov (METAR/TAF raw)",
  "station_count": 159,
  "stations": [
    {
      "icao": "BIKF",
      "alert": "OK",
      "vis_m": 9999,
      "fzfg": false,
      "metar_trigger": false,
      "taf_trigger": false,
      "metar": "METAR BIKF 032130Z 09012KT CAVOK 03/M01 Q1009",
      "taf": "TAF BIKF 031948Z 0321/0421 07015KT 9999 FEW030 TX03/0321Z TN00/0421Z"
    },
    {
      "icao": "BKPR",
      "alert": "OK",
      "vis_m": null,
      "fzfg": false,
      "metar_trigger": false,
      "taf_trigger": false,
      "metar": "",
      "taf": "TAF BKPR 031730Z 0318/0418 19010KT 9999 SCT040"
    },
    {
      "icao": "EBCI",
      "alert": "OK",
      "vis_m": 9999,
      "fzfg": false,
      "metar_trigger": false,
      "taf_trigger": false,
      "metar": "METAR EBCI 032150Z 19008KT 9999 FEW024 BKN045 08/05 Q0997 NOSIG",
      "taf": "TAF EBCI 031709Z 0318/0424 20010KT 9999 SCT015 BKN030"
    },
    {
      "icao": "EDDB",
      "alert": "OK",
      "vis_m": 9999,
      "fzfg": false,
      "metar_trigger": false,
      "taf_trigger": false,
      "metar": "METAR EDDB 032150Z AUTO 10011KT 9999 FEW022 BKN036 M05/M13 Q1009 NOSIG",
      "taf": "TAF EDDB 031700Z 0318/0418 08013KT 9999 OVC025"
    },
    {
      "icao": "EDDH",
      "alert": "OK",
      "vis_m": 9999,
      "fzfg": false,
      "metar_trigger": false,
      "taf_trigger": false,
      "metar": "METAR EDDH 032150Z AUTO 10012KT 070V130 9999 OVC025 M04/M11 Q1007 TEMPO 10015G25KT",
      "taf": "TAF EDDH 031700Z 0318/0424 09013KT 9999 BKN035"
    },
    {
      "icao": "EDDK",
      "alert": "OK",
      "vis_m": 9999,
      "fzfg": false,
      "metar_trigger": false,
      "taf_trigger": false,
      "metar": "METAR EDDK 032150Z AUTO 13011KT CAVOK 04/02 Q1000 NOSIG",
      "taf": "TAF EDDK 031700Z 0318/0424 12009KT 9999 BKN025"
    },
    {
      "icao": "EDDN",
      "alert": "OK",
      "vis_m": 7000,
      "fzfg": false,
      "metar_trigger": false,
      "taf_trigger": false,
      "metar": "METAR EDDN 032150Z AUTO 12007KT 7000 NCD M01/M02 Q1004",
      "taf": "TAF EDDN 031700Z 0318/0418 10006KT 9999 SCT035"
    },
    {
      "icao": "EDDS",
      "alert": "OK",
      "vis_m": 6000,
      "fzfg": false,
      "metar_trigger": false,
      "taf_trigger": false,
      "metar": "METAR EDDS 032150Z AUTO 35003KT 310V010 6000 NCD M00/M01 Q1002",
      "taf": "TAF EDDS 031700Z 0318/0418 VRB02KT CAVOK"
    },
    {
      "icao": "EDFH",
      "alert": "OK",
      "vis_m": 400,
      "fzfg": true,
      "metar_trigger": false,
      "taf_trigger": false,
      "metar": "METAR EDFH 032150Z 14013KT 0400 R21/0500N FZFG SCT000 BKN028 OVC045 M00/M00 Q1000",
      "taf": "TAF EDFH 031700Z 0318/0418 14015KT 4000 BR SCT005 OVC015"
    },
    {
      "icao": "EDJA",
      "alert": "OK",
      "vis_m": 9999,
      "fzfg": false,
      "metar_trigger": false,
      "taf_trigger": false,
      "metar": "METAR EDJA 032150Z COR 02003KT 350V100 CAVOK M01/M02 Q1003",
      "taf": "TAF EDJA 031700Z 0318/0403 22006KT CAVOK"
    },
    {
      "icao": "EDLW",
      "alert": "OK",
      "vis_m": 9999,
      "fzfg": false,
      "metar_trigger": false,
      "taf_trigger": false,
      "metar": "METAR EDLW 032150Z AUTO 14005KT 110V170 9999 // FEW021/// BKN024/// OVC030/// 04/02 Q0999",
      "taf": "TAF EDLW 031700Z 0318/0418 10007KT 9999 BKN025"
    },
    {
      "icao": "EDNY",
      "alert": "OK",
      "vis_m": 9999,
      "fzfg": false,
      "metar_trigger": false,
      "taf_trigger": false,
      "metar": "METAR EDNY 032150Z AUTO 05004KT 020V080 9999 // NCD M01/M02 Q1003",
      "taf": "TAF EDNY 031700Z 0318/0403 04004KT CAVOK"
    },
    {
      "icao": "EDSB",
      "alert": "OK",
      "vis_m": 300,
      "fzfg": false,
      "metar_trigger": false,
      "taf_trigger": false,
      "metar": "METAR EDSB 032150Z AUTO 06003KT 0300 R21/0375N VV/// M00/M00 Q1002",
      "taf": ""
    },
    {
      "icao": "EETN",
      "alert": "OK",
      "vis_m": 9999,
      "fzfg": false,
      "metar_trigger": false,
      "taf_trigger": false,
      "metar": "METAR EETN 032150Z 01005KT 340V040 9999 BKN015 M08/M11 Q1028 TEMPO BKN009",
      "taf": "TAF EETN 031730Z 0318/0418 02006KT 9999 SCT020"
    },
    {
      "icao": "EFTU",
      "alert": "OK",
      "vis_m": 9999,
      "fzfg": false,
      "metar_trigger": false,
      "taf_trigger": false,
      "metar": "METAR EFTU 032150Z AUTO VRB01KT 9999 -SHSN OVC025 M12/M14 Q1029",
      "taf": "TAF EFTU 032030Z 0321/0421 VRB01KT 9999 BKN028"
    },
    {
      "icao": "EGBB",
      "alert": "OK",
      "vis_m": 1500,
      "fzfg": false,
      "metar_trigger": false,
      "taf_trigger": false,
      "metar": "METAR EGBB 032150Z 03003KT 350V080 1500 -RASN OVC003 01/00 Q0993",
      "taf": "TAF EGBB 031656Z 0318/0418 08009KT 7000 BKN008"
    },
    {
      "icao": "EGGP",
      "alert": "OK",
      "vis_m": 9000,
      "fzfg": false,
      "metar_trigger": false,
      "taf_trigger": false,
      "metar": "METAR EGGP 032150Z 10006KT 9000 -RA OVC009 02/M00 Q0994",
      "taf": "TAF EGGP 031702Z 0318/0418 10008KT 9999 BKN016"
    },
    {
      "icao": "EGGW",
      "alert": "OK",
      "vis_m": 3900,
      "fzfg": false,
      "metar_trigger": false,
      "taf_trigger": false,
      "metar": "METAR EGGW 032150Z AUTO 03003KT 3900 -DZ BKN002 BKN013 BKN029 00/00 Q0993",
      "taf": ""
    },
    {
      "icao": "EGKK",
      "alert": "OK",
      "vis_m": 9000,
      "fzfg": false,
      "metar_trigger": false,
      "taf_trigger": false,
      "metar": "METAR EGKK 032150Z 08003KT 9000 BKN004 04/04 Q0993",
      "taf": "TAF EGKK 031655Z 0318/0424 VRB04KT 9999 BKN010"
    },
    {
      "icao": "EGNM",
      "alert": "OK",
      "vis_m": 300,
      "fzfg": false,
      "metar_trigger": false,
      "taf_trigger": false,
      "metar": "METAR EGNM 032150Z 04004KT 020V090 0300 R32/0325N FG VV/// 01/01 Q0994",
      "taf": ""
    },
    {
      "icao": "EGPD",
      "alert": "OK",
      "vis_m": 9999,
      "fzfg": false,
      "metar_trigger": false,
      "taf_trigger": false,
      "metar": "METAR EGPD 032150Z AUTO 11014KT 9999 -RA BKN007 BKN012 OVC021 02/01 Q1001 RERA TEMPO RA BKN006",
      "taf": "TAF EGPD 031657Z 0318/0418 10012KT 9999 SCT012 BKN025"
    },
    {
      "icao": "EGPF",
      "alert": "OK",
      "vis_m": 9999,
      "fzfg": false,
      "metar_trigger": false,
      "taf_trigger": false,
      "metar": "METAR EGPF 032150Z AUTO 07013KT 9999 SCT016 OVC038 03/01 Q0996",
      "taf": "TAF EGPF 031654Z 0318/0418 08012KT 9999 SCT020"
    },
    {
      "icao": "EHBK",
      "alert": "OK",
      "vis_m": 9999,
      "fzfg": false,
      "metar_trigger": false,
      "taf_trigger": false,
      "metar": "METAR EHBK 032155Z AUTO 19012KT 160V220 9999 SCT033 BKN046 08/06 Q0998 NOSIG",
      "taf": "TAF EHBK 031710Z 0318/0424 18008KT 9999 BKN045"
    },
    {
      "icao": "EHEH",
      "alert": "OK",
      "vis_m": null,
      "fzfg": false,
      "metar_trigger": false,
      "taf_trigger": false,
      "metar": "",
      "taf": "TAF EHEH 031755Z 0318/0424 11007KT 7000 SCT010 BKN012"
    },
    {
      "icao": "EKBI",
      "alert": "OK",
      "vis_m": 9999,
      "fzfg": false,
      "metar_trigger": false,
      "taf_trigger": false,
      "metar": "METAR EKBI 032150Z AUTO 10022G34KT 9999 FEW023/// OVC057/// M02/M07 Q1011",
      "taf": "TAF EKBI 032027Z 0321/0421 10022G40KT 9999 BKN030"
    },
    {
      "icao": "EKCH",
      "alert": "OK",
      "vis_m": 9999,
      "fzfg": false,
      "metar_trigger": false,
      "taf_trigger": false,
      "metar": "METAR EKCH 032150Z AUTO 09021G31KT 9999 OVC017/// M02/M05 Q1016 TEMPO 10020G33KT",
      "taf": "TAF EKCH 032027Z 0321/0421 10020KT 9999 BKN020"
    },
    {
      "icao": "ENAL",
      "alert": "OK",
      "vis_m": 9999,
      "fzfg": false,
      "metar_trigger": false,
      "taf_trigger": false,
      "metar": "METAR ENAL 032150Z AUTO 12011KT 9999 NCD M03/M13 Q1019",
      "taf": "TAF ENAL 032000Z 0321/0406 13016KT 9999 FEW050"
    },
    {
      "icao": "ENBR",
      "alert": "OK",
      "vis_m": 9999,
      "fzfg": false,
      "metar_trigger": false,
      "taf_trigger": false,
      "metar": "METAR ENBR 032150Z VRB01KT CAVOK M04/M12 Q1017 RMK WIND 1200FT 10008KT",
      "taf": "TAF ENBR 031700Z 0318/0418 07005KT CAVOK"
    },
    {
      "icao": "ENGM",
      "alert": "OK",
      "vis_m": 9999,
      "fzfg": false,
      "metar_trigger": false,
      "taf_trigger": false,
      "metar": "METAR ENGM 032150Z 03004KT 9999 -SN OVC017 M09/M12 Q1026 NOSIG",
      "taf": "TAF ENGM 031700Z 0318/0418 02005KT 9999 -SN BKN020"
    },
    {
      "icao": "ENHD",
      "alert": "OK",
      "vis_m": 9999,
      "fzfg": false,
      "metar_trigger": false,
      "taf_trigger": false,
      "metar": "METAR ENHD 032150Z AUTO 10026KT 9999 NCD M00/M12 Q1015",
      "taf": "TAF ENHD 031400Z 0315/0323 09015KT CAVOK"
    },
    {
      "icao": "ENTC",
      "alert": "OK",
      "vis_m": 9999,
      "fzfg": false,
      "metar_trigger": false,
      "taf_trigger": false,
      "metar": "METAR ENTC 032150Z 18013KT 9999 FEW024 SCT033 BKN055 M00/M05 Q1022 NOSIG RMK WIND 2600FT 25010KT",
      "taf": "TAF ENTC 031700Z 0318/0418 19012KT 9999 SCT015 BKN030"
    },
    {
      "icao": "ENTO",
      "alert": "OK",
      "vis_m": 9999,
      "fzfg": false,
      "metar_trigger": false,
      "taf_trigger": false,
      "metar": "METAR ENTO 032150Z 03009KT 010V070 9999 BKN019/// M06/M10 Q1024 NOSIG",
      "taf": "TAF ENTO 031700Z 0318/0418 08010KT 9999 BKN025"
    },
    {
      "icao": "ENVA",
      "alert": "OK",
      "vis_m": 9999,
      "fzfg": false,
      "metar_trigger": false,
      "taf_trigger": false,
      "metar": "METAR ENVA 032150Z 10004KT CAVOK M11/M16 Q1023 RMK WIND 670FT 13008KT",
      "taf": "TAF ENVA 031700Z 0318/0418 09006KT CAVOK"
    },
    {
      "icao": "ENZV",
      "alert": "OK",
      "vis_m": 9999,
      "fzfg": false,
      "metar_trigger": false,
      "taf_trigger": false,
      "metar": "METAR ENZV 032150Z 09010KT 9999 SCT045 M01/M10 Q1015",
      "taf": "TAF ENZV 031700Z 0318/0418 09015KT CAVOK"
    },
    {
      "icao": "EPGD",
      "alert": "OK",
      "vis_m": 9999,
      "fzfg": false,
      "metar_trigger": false,
      "taf_trigger": false,
      "metar": "METAR EPGD 032130Z 09008KT CAVOK M13/M17 Q1019",
      "taf": "TAF EPGD 031730Z 0318/0418 11008KT CAVOK"
    },
    {
      "icao": "EPKK",
      "alert": "OK",
      "vis_m": 4000,
      "fzfg": false,
      "metar_trigger": false,
      "taf_trigger": false,
      "metar": "METAR EPKK 032130Z 05007KT 4000 -SN BR SCT009 BKN022 M05/M06 Q1011",
      "taf": "TAF EPKK 032030Z 0321/0421 06008KT 4000 -SN BR OVC012"
    },
    {
      "icao": "EPKT",
      "alert": "OK",
      "vis_m": 6000,
      "fzfg": false,
      "metar_trigger": false,
      "taf_trigger": false,
      "metar": "METAR EPKT 032130Z 07006KT 040V100 6000 -SN FEW012 OVC023 M04/M05 Q1010",
      "taf": "TAF EPKT 031730Z 0318/0418 08010KT 9999 BKN040"
    },
    {
      "icao": "EPLB",
      "alert": "OK",
      "vis_m": 9999,
      "fzfg": false,
      "metar_trigger": false,
      "taf_trigger": false,
      "metar": "METAR EPLB 032130Z 11012KT 9999 BKN026 M08/M14 Q1016",
      "taf": "TAF EPLB 031730Z 0318/0418 09010KT 9999 BKN022"
    },
    {
      "icao": "EPMO",
      "alert": "OK",
      "vis_m": 9999,
      "fzfg": false,
      "metar_trigger": false,
      "taf_trigger": false,
      "metar": "METAR EPMO 032130Z 08015KT 9999 BKN018 M12/M16 Q1017",
      "taf": "TAF EPMO 031730Z 0318/0418 09009KT 9999 BKN027"
    },
    {
      "icao": "EPPO",
      "alert": "OK",
      "vis_m": 9999,
      "fzfg": false,
      "metar_trigger": false,
      "taf_trigger": false,
      "metar": "METAR EPPO 032130Z 08014KT CAVOK M09/M15 Q1013",
      "taf": ""
    },
    {
      "icao": "EPRA",
      "alert": "OK",
      "vis_m": 9999,
      "fzfg": false,
      "metar_trigger": false,
      "taf_trigger": false,
      "metar": "METAR EPRA 032130Z 09013KT 9999 BKN035 M07/M14 Q1014",
      "taf": "TAF EPRA 032030Z 0321/0406 08010KT 9999 BKN030"
    },
    {
      "icao": "EPRZ",
      "alert": "OK",
      "vis_m": 6000,
      "fzfg": false,
      "metar_trigger": false,
      "taf_trigger": false,
      "metar": "METAR EPRZ 032130Z 09015KT 6000 -SN FEW018 BKN043 M06/M09 Q1014",
      "taf": "TAF EPRZ 031730Z 0318/0418 10010KT 9999 SCT032"
    },
    {
      "icao": "EPSC",
      "alert": "OK",
      "vis_m": 9999,
      "fzfg": false,
      "metar_trigger": false,
      "taf_trigger": false,
      "metar": "METAR EPSC 032130Z 09008KT CAVOK M09/M16 Q1013",
      "taf": "TAF EPSC 031730Z 0318/0418 09010KT CAVOK"
    },
    {
      "icao": "EPSY",
      "alert": "OK",
      "vis_m": 9999,
      "fzfg": false,
      "metar_trigger": false,
      "taf_trigger": false,
      "metar": "METAR EPSY 032130Z 07004KT 030V130 CAVOK M14/M17 Q1020",
      "taf": "TAF EPSY 032030Z 0321/0406 08008KT CAVOK"
    },
    {
      "icao": "EPWA",
      "alert": "OK",
      "vis_m": 9999,
      "fzfg": false,
      "metar_trigger": false,
      "taf_trigger": false,
      "metar": "METAR EPWA 032130Z 10010KT 9999 OVC014 M09/M16 Q1017 TEMPO BKN020",
      "taf": "TAF EPWA 032030Z 0321/0421 09010KT 9999 BKN030"
    },
    {
      "icao": "EPWR",
      "alert": "OK",
      "vis_m": 5000,
      "fzfg": false,
      "metar_trigger": false,
      "taf_trigger": false,
      "metar": "METAR EPWR 032130Z 10010KT 5000 -SN BR FEW010 BKN017 M04/M05 Q1010",
      "taf": "TAF EPWR 032030Z 0321/0421 10010KT 6000 -SN SCT012 BKN025"
    },
    {
      "icao": "ESGG",
      "alert": "OK",
      "vis_m": 9999,
      "fzfg": false,
      "metar_trigger": false,
      "taf_trigger": false,
      "metar": "METAR ESGG 032150Z 08012G23KT CAVOK M05/M09 Q1019",
      "taf": "TAF ESGG 032030Z 0321/0421 08015KT CAVOK"
    },
    {
      "icao": "ESKN",
      "alert": "OK",
      "vis_m": 9999,
      "fzfg": false,
      "metar_trigger": false,
      "taf_trigger": false,
      "metar": "METAR ESKN 032150Z 05009KT 9999 BKN029 M06/M10 Q1027",
      "taf": "TAF ESKN 032030Z 0321/0421 05008KT 9999 BKN030"
    },
    {
      "icao": "ESMS",
      "alert": "OK",
      "vis_m": 9999,
      "fzfg": false,
      "metar_trigger": false,
      "taf_trigger": false,
      "metar": "METAR ESMS 032150Z 09021KT 9999 OVC016 M03/M06 Q1016",
      "taf": "TAF ESMS 032027Z 0321/0421 09020KT 9999 BKN016"
    },
    {
      "icao": "ESSA",
      "alert": "OK",
      "vis_m": 9999,
      "fzfg": false,
      "metar_trigger": false,
      "taf_trigger": false,
      "metar": "METAR ESSA 032150Z 04006KT CAVOK M11/M13 Q1028 NOSIG",
      "taf": "TAF ESSA 032030Z 0321/0421 03006KT 9999 SCT025"
    },
    {
      "icao": "EYKA",
      "alert": "OK",
      "vis_m": 9999,
      "fzfg": false,
      "metar_trigger": false,
      "taf_trigger": false,
      "metar": "METAR EYKA 032150Z 08006KT CAVOK M17/M19 Q1025",
      "taf": "TAF EYKA 031712Z 0318/0418 VRB04KT 5000 BR SCT005"
    },
    {
      "icao": "EYPA",
      "alert": "OK",
      "vis_m": 9999,
      "fzfg": false,
      "metar_trigger": false,
      "taf_trigger": false,
      "metar": "METAR EYPA 032150Z 08005KT CAVOK M12/M16 Q1026",
      "taf": "TAF EYPA 031712Z 0318/0418 VRB04KT 9000 NSC"
    },
    {
      "icao": "EYVI",
      "alert": "OK",
      "vis_m": 9999,
      "fzfg": false,
      "metar_trigger": false,
      "taf_trigger": false,
      "metar": "METAR EYVI 032150Z VRB02KT CAVOK M15/M17 Q1024 NOSIG",
      "taf": "TAF EYVI 031711Z 0318/0418 VRB04KT 5000 BR SCT005"
    },
    {
      "icao": "GCFV",
      "alert": "OK",
      "vis_m": 9999,
      "fzfg": false,
      "metar_trigger": false,
      "taf_trigger": false,
      "metar": "METAR GCFV 032130Z 26003KT 9999 SCT030 17/12 Q1018",
      "taf": "TAF GCFV 032000Z 0321/0421 26005KT 9999 FEW030 TX22/0414Z TN16/0406Z"
    },
    {
      "icao": "GCLP",
      "alert": "OK",
      "vis_m": 9999,
      "fzfg": false,
      "metar_trigger": false,
      "taf_trigger": false,
      "metar": "METAR GCLP 032130Z VRB02KT 9999 BKN032 18/13 Q1019 NOSIG",
      "taf": "TAF GCLP 032000Z 0321/0421 30005KT 9999 SCT030 TX22/0414Z TN14/0406Z"
    },
    {
      "icao": "GCTS",
      "alert": "OK",
      "vis_m": 9999,
      "fzfg": false,
      "metar_trigger": false,
      "taf_trigger": false,
      "metar": "METAR GCTS 032130Z 02004KT 330V050 9999 FEW035 16/10 Q1019 NOSIG",
      "taf": "TAF GCTS 032000Z 0321/0421 31007KT 9999 FEW030 TX24/0414Z TN16/0406Z"
    },
    {
      "icao": "GMAD",
      "alert": "OK",
      "vis_m": 8000,
      "fzfg": false,
      "metar_trigger": false,
      "taf_trigger": false,
      "metar": "METAR GMAD 032130Z 21007KT 8000 NSC 14/14 Q1017 NOSIG",
      "taf": "TAF GMAD 031700Z 0318/0424 26012KT 8000 SCT016 SCT080"
    },
    {
      "icao": "GMMN",
      "alert": "OK",
      "vis_m": 9999,
      "fzfg": false,
      "metar_trigger": false,
      "taf_trigger": false,
      "metar": "METAR GMMN 032130Z 22018KT 190V250 9999 BKN020 SCT023TCU 13/11 Q1014 NOSIG",
      "taf": "TAF GMMN 031700Z 0318/0424 23015KT 8000 SCT016TCU BKN020"
    },
    {
      "icao": "GMMX",
      "alert": "OK",
      "vis_m": 9999,
      "fzfg": false,
      "metar_trigger": false,
      "taf_trigger": false,
      "metar": "METAR GMMX 032130Z 23006KT 9999 FEW026 SCT100 12/09 Q1016 NOSIG",
      "taf": "TAF GMMX 031700Z 0318/0424 24006KT 8000 SCT023 SCT100"
    },
    {
      "icao": "HEGN",
      "alert": "OK",
      "vis_m": null,
      "fzfg": false,
      "metar_trigger": false,
      "taf_trigger": false,
      "metar": "",
      "taf": "TAF HEGN 031700Z 0318/0424 32010G22KT CAVOK"
    },
    {
      "icao": "HEMA",
      "alert": "OK",
      "vis_m": null,
      "fzfg": false,
      "metar_trigger": false,
      "taf_trigger": false,
      "metar": "",
      "taf": "TAF HEMA 031700Z 0318/0424 33008G20KT 6000 NSC"
    },
    {
      "icao": "HESH",
      "alert": "OK",
      "vis_m": null,
      "fzfg": false,
      "metar_trigger": false,
      "taf_trigger": false,
      "metar": "",
      "taf": "TAF HESH 031700Z 0318/0424 36013KT CAVOK"
    },
    {
      "icao": "HESX",
      "alert": "OK",
      "vis_m": null,
      "fzfg": false,
      "metar_trigger": false,
      "taf_trigger": false,
      "metar": "",
      "taf": "TAF HESX 031700Z 0318/0424 28010KT CAVOK"
    },
    {
      "icao": "LATI",
      "alert": "OK",
      "vis_m": 9999,
      "fzfg": false,
      "metar_trigger": false,
      "taf_trigger": false,
      "metar": "METAR LATI 032150Z 16006KT CAVOK 07/04 Q1014 NOSIG",
      "taf": "TAF LATI 031700Z 0318/0418 VRB03KT CAVOK TX19/0413Z TN09/0406Z"
    },
    {
      "icao": "LBPD",
      "alert": "OK",
      "vis_m": 9999,
      "fzfg": false,
      "metar_trigger": false,
      "taf_trigger": false,
      "metar": "METAR LBPD 032130Z AUTO 00000KT 9999 OVC015/// M00/M00 Q1022",
      "taf": "TAF LBPD 031700Z 0318/0418 VRB03KT 9999 OVC015"
    },
    {
      "icao": "LBSF",
      "alert": "OK",
      "vis_m": 9999,
      "fzfg": false,
      "metar_trigger": false,
      "taf_trigger": false,
      "metar": "METAR LBSF 032130Z AUTO 09005KT 9999 BKN062/// M02/M03 Q1019 NOSIG",
      "taf": "TAF LBSF 031700Z 0318/0418 10010KT 9999 SCT050"
    },
    {
      "icao": "LBWN",
      "alert": "OK",
      "vis_m": 9999,
      "fzfg": false,
      "metar_trigger": false,
      "taf_trigger": false,
      "metar": "METAR LBWN 032130Z AUTO 17006KT 140V200 9999 OVC017/// 03/00 Q1022 NOSIG",
      "taf": "TAF LBWN 031700Z 0318/0418 10010KT 9999 SCT020 BKN040"
    },
    {
      "icao": "LCLK",
      "alert": "OK",
      "vis_m": 9999,
      "fzfg": false,
      "metar_trigger": false,
      "taf_trigger": false,
      "metar": "METAR LCLK 032130Z 35009KT 310V010 9999 SCT050 12/07 Q1019 NOSIG",
      "taf": "TAF LCLK 031730Z 0318/0418 29008KT CAVOK"
    },
    {
      "icao": "LCPH",
      "alert": "OK",
      "vis_m": 9999,
      "fzfg": false,
      "metar_trigger": false,
      "taf_trigger": false,
      "metar": "METAR LCPH 032130Z 02006KT CAVOK 10/06 Q1020 NOSIG",
      "taf": "TAF LCPH 031730Z 0318/0418 02009KT CAVOK"
    },
    {
      "icao": "LEAL",
      "alert": "OK",
      "vis_m": 9999,
      "fzfg": false,
      "metar_trigger": false,
      "taf_trigger": false,
      "metar": "METAR LEAL 032130Z 26004KT CAVOK 08/04 Q1003 NOSIG",
      "taf": "TAF LEAL 031700Z 0318/0418 26008KT 9999 FEW030 TX18/0413Z TN07/0407Z"
    },
    {
      "icao": "LEBB",
      "alert": "OK",
      "vis_m": 9999,
      "fzfg": false,
      "metar_trigger": false,
      "taf_trigger": false,
      "metar": "METAR LEBB 032130Z 14007KT 080V180 9999 FEW050 11/03 Q0994 NOSIG",
      "taf": ""
    },
    {
      "icao": "LEBL",
      "alert": "OK",
      "vis_m": 9999,
      "fzfg": false,
      "metar_trigger": false,
      "taf_trigger": false,
      "metar": "METAR LEBL 032130Z 32005KT 9999 FEW020 08/04 Q1000 NOSIG",
      "taf": "TAF LEBL 031700Z 0318/0418 24010KT 9999 FEW020 TX14/0414Z TN05/0406Z"
    },
    {
      "icao": "LECH",
      "alert": "OK",
      "vis_m": 9999,
      "fzfg": false,
      "metar_trigger": false,
      "taf_trigger": false,
      "metar": "METAR LECH 032130Z AUTO 22005KT CAVOK 06/02 Q1000",
      "taf": ""
    },
    {
      "icao": "LEMD",
      "alert": "OK",
      "vis_m": 9999,
      "fzfg": false,
      "metar_trigger": false,
      "taf_trigger": false,
      "metar": "METAR LEMD 032130Z 18007KT 150V210 9999 FEW018 SCT022 BKN030 06/05 Q0999 NOSIG",
      "taf": "TAF LEMD 031700Z 0318/0424 22010KT 9999 SCT020 TX12/0414Z TN04/0407Z"
    },
    {
      "icao": "LEMG",
      "alert": "OK",
      "vis_m": 9999,
      "fzfg": false,
      "metar_trigger": false,
      "taf_trigger": false,
      "metar": "SPECI LEMG 032140Z 08003KT 040V110 9999 -RA FEW030 SCT045 BKN060 11/10 Q1005 RERA TEMPO 4000 RA BKN015",
      "taf": "TAF LEMG 031700Z 0318/0418 VRB03KT 9999 SCT020 TX16/0414Z TN10/0407Z"
    },
    {
      "icao": "LEVC",
      "alert": "OK",
      "vis_m": 9999,
      "fzfg": false,
      "metar_trigger": false,
      "taf_trigger": false,
      "metar": "METAR LEVC 032130Z 25007KT CAVOK 09/04 Q1002 NOSIG",
      "taf": "TAF LEVC 031700Z 0318/0418 22007KT 9999 FEW030 TX19/0413Z TN08/0406Z"
    },
    {
      "icao": "LEXJ",
      "alert": "OK",
      "vis_m": 9999,
      "fzfg": false,
      "metar_trigger": false,
      "taf_trigger": false,
      "metar": "METAR LEXJ 032130Z 21011G24KT 160V270 CAVOK 12/02 Q0992",
      "taf": "TAF LEXJ 032000Z 0321/0421 20009KT CAVOK TX16/0416Z TN08/0404Z"
    },
    {
      "icao": "LEZG",
      "alert": "OK",
      "vis_m": 9999,
      "fzfg": false,
      "metar_trigger": false,
      "taf_trigger": false,
      "metar": "METAR LEZG 032130Z 12006KT 100V160 9999 SCT060 07/04 Q0999 NOSIG",
      "taf": "TAF LEZG 031700Z 0318/0418 23008KT 9999 FEW020 TX12/0414Z TN05/0406Z"
    },
    {
      "icao": "LEZL",
      "alert": "OK",
      "vis_m": 8000,
      "fzfg": false,
      "metar_trigger": false,
      "taf_trigger": false,
      "metar": "SPECI LEZL 032156Z 21012KT 160V250 8000 RA BKN007 BKN020 13/12 Q1003 NOSIG",
      "taf": "TAF LEZL 032000Z 0321/0421 18009KT 9999 BKN020 TX18/0415Z TN12/0407Z"
    },
    {
      "icao": "LFBD",
      "alert": "OK",
      "vis_m": 9999,
      "fzfg": false,
      "metar_trigger": false,
      "taf_trigger": false,
      "metar": "METAR LFBD 032130Z AUTO 14007KT CAVOK 07/04 Q0995 NOSIG",
      "taf": "TAF LFBD 031700Z 0318/0424 22005KT CAVOK TX12/0417Z TN06/0406Z"
    },
    {
      "icao": "LFLL",
      "alert": "OK",
      "vis_m": 9999,
      "fzfg": false,
      "metar_trigger": false,
      "taf_trigger": false,
      "metar": "METAR LFLL 032130Z 15007KT CAVOK 09/06 Q1000 NOSIG",
      "taf": "TAF LFLL 031700Z 0318/0424 15006KT CAVOK"
    },
    {
      "icao": "LFLS",
      "alert": "OK",
      "vis_m": 9999,
      "fzfg": false,
      "metar_trigger": false,
      "taf_trigger": false,
      "metar": "METAR LFLS 032130Z AUTO VRB01KT CAVOK 03/03 Q1001",
      "taf": "TAF LFLS 031400Z 0315/0415 24008KT CAVOK"
    },
    {
      "icao": "LFMN",
      "alert": "OK",
      "vis_m": 9999,
      "fzfg": false,
      "metar_trigger": false,
      "taf_trigger": false,
      "metar": "METAR LFMN 032130Z 34008KT 9999 VCTS FEW010 SCT017 FEW018CB BKN027 10/08 Q1005 TEMPO 2000 TSRA BKN020CB",
      "taf": "TAF LFMN 032000Z 0321/0503 34010KT 9999 BKN030"
    },
    {
      "icao": "LFOB",
      "alert": "OK",
      "vis_m": 9999,
      "fzfg": false,
      "metar_trigger": false,
      "taf_trigger": false,
      "metar": "METAR LFOB 032130Z AUTO 18006KT 9999 FEW023 SCT240 07/06 Q0996 NOSIG",
      "taf": "TAF LFOB 031700Z 0318/0418 21010KT 9999 SCT020"
    },
    {
      "icao": "LFPO",
      "alert": "OK",
      "vis_m": 9999,
      "fzfg": false,
      "metar_trigger": false,
      "taf_trigger": false,
      "metar": "METAR LFPO 032130Z 20005KT 9999 FEW046 07/05 Q0997 NOSIG",
      "taf": "TAF LFPO 031700Z 0318/0424 20009KT 9999 SCT025"
    },
    {
      "icao": "LFSB",
      "alert": "OK",
      "vis_m": 9999,
      "fzfg": false,
      "metar_trigger": false,
      "taf_trigger": false,
      "metar": "METAR LFSB 032130Z AUTO 16006KT CAVOK 05/04 Q1002 NOSIG",
      "taf": "TAF LFSB 031700Z 0318/0418 16004KT CAVOK"
    },
    {
      "icao": "LGAV",
      "alert": "OK",
      "vis_m": 9999,
      "fzfg": false,
      "metar_trigger": false,
      "taf_trigger": false,
      "metar": "METAR LGAV 032150Z VRB03KT CAVOK 08/05 Q1020 NOSIG",
      "taf": "TAF LGAV 031700Z 0318/0418 21010KT 9999 FEW025"
    },
    {
      "icao": "LGTS",
      "alert": "OK",
      "vis_m": 9999,
      "fzfg": false,
      "metar_trigger": false,
      "taf_trigger": false,
      "metar": "METAR LGTS 032150Z VRB02KT 9999 FEW020 BKN030 09/09 Q1020 NOSIG",
      "taf": "TAF LGTS 031700Z 0318/0418 VRB03KT 9999 SCT030"
    },
    {
      "icao": "LHBP",
      "alert": "OK",
      "vis_m": 9000,
      "fzfg": false,
      "metar_trigger": false,
      "taf_trigger": false,
      "metar": "METAR LHBP 032130Z 06007KT 030V090 9000 -FZDZ BKN006 OVC014 01/M00 Q1012 REFZRA TEMPO -FZRA",
      "taf": "TAF LHBP 031715Z 0318/0418 10010KT 5000 PL FZRA BKN007 OVC020"
    },
    {
      "icao": "LHDC",
      "alert": "OK",
      "vis_m": 7000,
      "fzfg": false,
      "metar_trigger": false,
      "taf_trigger": false,
      "metar": "METAR LHDC 032115Z AUTO 08009KT 7000 -RA FEW047 OVC056 03/02 Q1013",
      "taf": "TAF LHDC 031415Z 0315/0324 08006KT 7000 -SN OVC030"
    },
    {
      "icao": "LIBD",
      "alert": "OK",
      "vis_m": 9999,
      "fzfg": false,
      "metar_trigger": false,
      "taf_trigger": false,
      "metar": "METAR LIBD 032150Z AUTO 17008KT 9999 BKN120/// 15/12 Q1009",
      "taf": "TAF LIBD 031700Z 0318/0418 18012KT CAVOK"
    },
    {
      "icao": "LIBG",
      "alert": "OK",
      "vis_m": null,
      "fzfg": false,
      "metar_trigger": false,
      "taf_trigger": false,
      "metar": "",
      "taf": "TAF LIBG 031700Z 0318/0403 17020G30KT 9999 FEW010 SCT020"
    },
    {
      "icao": "LIBP",
      "alert": "OK",
      "vis_m": 9999,
      "fzfg": false,
      "metar_trigger": false,
      "taf_trigger": false,
      "metar": "METAR LIBP 032150Z AUTO 04003KT 360V080 9999 BKN083/// OVC160/// 11/09 Q1007",
      "taf": "TAF LIBP 031700Z 0318/0418 VRB05KT 9999 SCT050"
    },
    {
      "icao": "LIBR",
      "alert": "OK",
      "vis_m": 9999,
      "fzfg": false,
      "metar_trigger": false,
      "taf_trigger": false,
      "metar": "METAR LIBR 032150Z 18016KT CAVOK 14/12 Q1011",
      "taf": "TAF LIBR 031700Z 0318/0418 16025G35KT 9999 SCT030"
    },
    {
      "icao": "LICA",
      "alert": "OK",
      "vis_m": 9999,
      "fzfg": false,
      "metar_trigger": false,
      "taf_trigger": false,
      "metar": "METAR LICA 032150Z AUTO 08016KT 9999 NCD 14/12 Q1010",
      "taf": "TAF LICA 031700Z 0318/0418 07015KT 9999 SCT025"
    },
    {
      "icao": "LICC",
      "alert": "OK",
      "vis_m": 9999,
      "fzfg": false,
      "metar_trigger": false,
      "taf_trigger": false,
      "metar": "METAR LICC 032150Z 08005KT 9999 FEW020 15/11 Q1011",
      "taf": "TAF LICC 031700Z 0318/0418 VRB05KT 9999 FEW030"
    },
    {
      "icao": "LICJ",
      "alert": "OK",
      "vis_m": 9999,
      "fzfg": false,
      "metar_trigger": false,
      "taf_trigger": false,
      "metar": "METAR LICJ 032150Z VRB02KT CAVOK 16/11 Q1005",
      "taf": "TAF LICJ 031700Z 0318/0418 18015KT 9999 SCT030"
    },
    {
      "icao": "LIMC",
      "alert": "OK",
      "vis_m": 2000,
      "fzfg": false,
      "metar_trigger": false,
      "taf_trigger": false,
      "metar": "METAR LIMC 032150Z VRB01KT 2000 -RA BR OVC004 04/04 Q1008 NOSIG",
      "taf": ""
    },
    {
      "icao": "LIME",
      "alert": "OK",
      "vis_m": 6000,
      "fzfg": false,
      "metar_trigger": false,
      "taf_trigger": false,
      "metar": "METAR LIME 032150Z VRB02KT 6000 SCT004 BKN010 05/05 Q1007 NOSIG",
      "taf": "TAF LIME 031700Z 0318/0418 VRB05KT 6000 SCT006 BKN020"
    },
    {
      "icao": "LIMF",
      "alert": "OK",
      "vis_m": 6000,
      "fzfg": false,
      "metar_trigger": false,
      "taf_trigger": false,
      "metar": "METAR LIMF 032150Z 25005KT 6000 SCT030 03/02 Q1007",
      "taf": "TAF LIMF 031700Z 0318/0418 VRB05KT 6000 SCT030"
    },
    {
      "icao": "LIMJ",
      "alert": "OK",
      "vis_m": 9999,
      "fzfg": false,
      "metar_trigger": false,
      "taf_trigger": false,
      "metar": "METAR LIMJ 032150Z 04017KT 9999 SCT025 SCT040 06/02 Q1006",
      "taf": "TAF LIMJ 031700Z 0318/0418 35015KT 9999 BKN030"
    },
    {
      "icao": "LIPE",
      "alert": "OK",
      "vis_m": 6000,
      "fzfg": false,
      "metar_trigger": false,
      "taf_trigger": false,
      "metar": "METAR LIPE 032150Z 27005KT 6000 BKN010 05/05 Q1008",
      "taf": "TAF LIPE 031700Z 0318/0418 27005KT 6000 FEW005 BKN014"
    },
    {
      "icao": "LIPH",
      "alert": "OK",
      "vis_m": 9999,
      "fzfg": false,
      "metar_trigger": false,
      "taf_trigger": false,
      "metar": "METAR LIPH 032150Z 32003KT CAVOK 06/05 Q1007",
      "taf": "TAF LIPH 031700Z 0318/0418 VRB06KT 6000 SCT020"
    },
    {
      "icao": "LIPQ",
      "alert": "OK",
      "vis_m": 2000,
      "fzfg": false,
      "metar_trigger": false,
      "taf_trigger": false,
      "metar": "METAR LIPQ 032150Z AUTO 09002KT 2000 BR BKN027/// BKN086/// 09/08 Q1007",
      "taf": "TAF LIPQ 031700Z 0318/0418 VRB05KT 9000 SCT020"
    },
    {
      "icao": "LIPR",
      "alert": "OK",
      "vis_m": 5000,
      "fzfg": false,
      "metar_trigger": false,
      "taf_trigger": false,
      "metar": "METAR LIPR 032150Z 29005KT 5000 -RA BR BKN005 SCT015 07/06 Q1008",
      "taf": "TAF LIPR 031700Z 0318/0418 32008KT 9999 BKN040"
    },
    {
      "icao": "LIPX",
      "alert": "OK",
      "vis_m": 8000,
      "fzfg": false,
      "metar_trigger": false,
      "taf_trigger": false,
      "metar": "METAR LIPX 032150Z 32004KT 8000 BKN050 06/04 Q1007",
      "taf": "TAF LIPX 031700Z 0318/0418 VRB05KT 6000 BKN006"
    },
    {
      "icao": "LIPY",
      "alert": "OK",
      "vis_m": 3300,
      "fzfg": false,
      "metar_trigger": false,
      "taf_trigger": false,
      "metar": "METAR LIPY 032150Z AUTO 01004KT 3300 -RA BR OVC003/// 09/08 Q1007",
      "taf": "TAF LIPY 031700Z 0318/0418 VRB05KT 9999 SCT050"
    },
    {
      "icao": "LIPZ",
      "alert": "OK",
      "vis_m": 9999,
      "fzfg": false,
      "metar_trigger": false,
      "taf_trigger": false,
      "metar": "METAR LIPZ 032150Z 27003KT 9999 BKN010 07/07 Q1007 NOSIG",
      "taf": "TAF LIPZ 031700Z 0318/0424 VRB05KT 8000 FEW020"
    },
    {
      "icao": "LIRF",
      "alert": "OK",
      "vis_m": 9000,
      "fzfg": false,
      "metar_trigger": false,
      "taf_trigger": false,
      "metar": "METAR LIRF 032150Z 14007KT 9000 -RA FEW015 SCT030 13/12 Q1007 REDZ NOSIG",
      "taf": "TAF LIRF 031700Z 0318/0424 15015KT 9999 SCT030"
    },
    {
      "icao": "LIRN",
      "alert": "OK",
      "vis_m": 9999,
      "fzfg": false,
      "metar_trigger": false,
      "taf_trigger": false,
      "metar": "METAR LIRN 032150Z 20005KT 170V240 9999 BKN050 15/11 Q1008 NOSIG",
      "taf": "TAF LIRN 031700Z 0318/0418 17015KT 9999 SCT030"
    },
    {
      "icao": "LIRP",
      "alert": "OK",
      "vis_m": 9999,
      "fzfg": false,
      "metar_trigger": false,
      "taf_trigger": false,
      "metar": "METAR LIRP 032115Z 08006KT 9999 SCT040 SCT050 11/11 Q1005 NOSIG",
      "taf": "TAF LIRP 031700Z 0318/0418 09010KT 9999 SCT040"
    },
    {
      "icao": "LIRZ",
      "alert": "OK",
      "vis_m": 5000,
      "fzfg": false,
      "metar_trigger": false,
      "taf_trigger": false,
      "metar": "METAR LIRZ 032150Z AUTO 13003KT 080V150 5000 -RA BKN005/// 10/10 Q1007 RERA",
      "taf": "TAF LIRZ 031700Z 0318/0418 VRB05KT 9999 BKN020"
    },
    {
      "icao": "LJLJ",
      "alert": "OK",
      "vis_m": 3000,
      "fzfg": false,
      "metar_trigger": false,
      "taf_trigger": false,
      "metar": "METAR LJLJ 032130Z VRB01KT 3000 BR FEW001 BKN008 OVC045 03/02 Q1008 NOSIG",
      "taf": "TAF LJLJ 031700Z 0318/0418 11002KT 7000 -RA FEW004 OVC020"
    },
    {
      "icao": "LKMT",
      "alert": "OK",
      "vis_m": 7000,
      "fzfg": false,
      "metar_trigger": false,
      "taf_trigger": false,
      "metar": "METAR LKMT 032130Z 04006KT 7000 OVC026 M04/M07 Q1009 NOSIG",
      "taf": "TAF LKMT 031700Z 0318/0418 02006KT 8000 OVC030"
    },
    {
      "icao": "LKPR",
      "alert": "OK",
      "vis_m": 8000,
      "fzfg": false,
      "metar_trigger": false,
      "taf_trigger": false,
      "metar": "METAR LKPR 032130Z 11003KT 8000 SCT005 OVC007 M01/M02 Q1005 NOSIG",
      "taf": "TAF LKPR 032000Z 0321/0503 11008KT 9000 OVC015"
    },
    {
      "icao": "LLBG",
      "alert": "OK",
      "vis_m": 9999,
      "fzfg": false,
      "metar_trigger": false,
      "taf_trigger": false,
      "metar": "METAR LLBG 032150Z 29007KT 9999 FEW035 SCT050 16/10 Q1020 NOSIG",
      "taf": "TAF LLBG 031703Z 0318/0418 28007KT 9999 SCT035"
    },
    {
      "icao": "LMML",
      "alert": "OK",
      "vis_m": 9999,
      "fzfg": false,
      "metar_trigger": false,
      "taf_trigger": false,
      "metar": "METAR LMML 032145Z 14013KT CAVOK 15/13 Q1009 NOSIG",
      "taf": "TAF LMML 031700Z 0318/0418 15012KT CAVOK"
    },
    {
      "icao": "LOWW",
      "alert": "OK",
      "vis_m": 9999,
      "fzfg": false,
      "metar_trigger": false,
      "taf_trigger": false,
      "metar": "METAR LOWW 032150Z 13004KT 100V170 9999 BKN012 00/M01 Q1009 TEMPO BKN008",
      "taf": "TAF LOWW 032015Z 0321/0503 12010KT 9999 OVC009 TX01/0503Z TNM00/0400Z"
    },
    {
      "icao": "LPFR",
      "alert": "OK",
      "vis_m": 5000,
      "fzfg": false,
      "metar_trigger": false,
      "taf_trigger": false,
      "metar": "METAR LPFR 032130Z 21015KT 5000 RA BKN005 BKN008 14/14 Q1000",
      "taf": "TAF LPFR 031700Z 0318/0418 25015KT 9999 FEW015 SCT030"
    },
    {
      "icao": "LPMA",
      "alert": "OK",
      "vis_m": 9999,
      "fzfg": false,
      "metar_trigger": false,
      "taf_trigger": false,
      "metar": "METAR LPMA 032130Z VRB02KT 9999 FEW015 17/12 Q1014",
      "taf": "TAF LPMA 031700Z 0318/0418 VRB05KT 9999 SCT015"
    },
    {
      "icao": "LPPR",
      "alert": "OK",
      "vis_m": 3000,
      "fzfg": false,
      "metar_trigger": false,
      "taf_trigger": false,
      "metar": "METAR LPPR 032130Z 16017KT 3000 RADZ BR BKN009 BKN013 FEW018TCU 09/07 Q0992",
      "taf": "TAF LPPR 031700Z 0318/0418 21008KT 9999 SCT020"
    },
    {
      "icao": "LPPS",
      "alert": "OK",
      "vis_m": 9999,
      "fzfg": false,
      "metar_trigger": false,
      "taf_trigger": false,
      "metar": "METAR LPPS 032130Z 27017KT 9999 BKN011 SCT030 17/15 Q1015",
      "taf": "TAF LPPS 031700Z 0318/0424 27017KT 9999 SCT015"
    },
    {
      "icao": "LPPT",
      "alert": "OK",
      "vis_m": 6000,
      "fzfg": false,
      "metar_trigger": false,
      "taf_trigger": false,
      "metar": "METAR LPPT 032130Z 23007KT 6000 -RA FEW002 BKN010 13/13 Q0994 RERA",
      "taf": ""
    },
    {
      "icao": "LQBK",
      "alert": "OK",
      "vis_m": 6000,
      "fzfg": false,
      "metar_trigger": false,
      "taf_trigger": false,
      "metar": "METAR LQBK 032130Z 30003KT 6000 RA SCT047 05/04 Q1008 NOSIG",
      "taf": "TAF LQBK 031700Z 0318/0418 VRB03KT 9999 SCT045 TX11/0414Z TN04/0406Z"
    },
    {
      "icao": "LQSA",
      "alert": "OK",
      "vis_m": 9999,
      "fzfg": false,
      "metar_trigger": false,
      "taf_trigger": false,
      "metar": "METAR LQSA 032130Z 10005KT 060V130 9999 -RA BKN045 09/09 Q1009 NOSIG",
      "taf": "TAF LQSA 031700Z 0318/0418 15015KT 9999 BKN045 TX12/0413Z TN05/0405Z"
    },
    {
      "icao": "LQTZ",
      "alert": "OK",
      "vis_m": 9999,
      "fzfg": false,
      "metar_trigger": false,
      "taf_trigger": false,
      "metar": "METAR LQTZ 032130Z 12008KT 9999 BKN065 10/07 Q1008",
      "taf": "TAF LQTZ 031700Z 0318/0418 08005KT 9999 SCT055 TX14/0413Z TN06/0406Z"
    },
    {
      "icao": "LRBC",
      "alert": "OK",
      "vis_m": 9999,
      "fzfg": false,
      "metar_trigger": false,
      "taf_trigger": false,
      "metar": "METAR LRBC 032130Z 16010KT CAVOK M05/M08 Q1020",
      "taf": "TAF LRBC 032000Z 0321/0406 16012KT CAVOK"
    },
    {
      "icao": "LRBS",
      "alert": "OK",
      "vis_m": 9999,
      "fzfg": false,
      "metar_trigger": false,
      "taf_trigger": false,
      "metar": "METAR LRBS 032130Z 04003KT CAVOK M04/M09 Q1022 NOSIG",
      "taf": "TAF LRBS 031700Z 0318/0418 06006KT CAVOK"
    },
    {
      "icao": "LRBV",
      "alert": "OK",
      "vis_m": 9999,
      "fzfg": false,
      "metar_trigger": false,
      "taf_trigger": false,
      "metar": "METAR LRBV 032130Z AUTO 10006KT 9999 BKN094/// BKN110/// OVC130/// 00/M03 Q1015",
      "taf": ""
    },
    {
      "icao": "LRCL",
      "alert": "OK",
      "vis_m": 9999,
      "fzfg": false,
      "metar_trigger": false,
      "taf_trigger": false,
      "metar": "METAR LRCL 032130Z 07006KT 9999 OVC057 02/M02 Q1014",
      "taf": "TAF LRCL 032000Z 0321/0406 11006KT 9999 BKN050"
    },
    {
      "icao": "LRCV",
      "alert": "OK",
      "vis_m": 9999,
      "fzfg": false,
      "metar_trigger": false,
      "taf_trigger": false,
      "metar": "METAR LRCV 032130Z 02003KT CAVOK M07/M08 Q1021",
      "taf": "TAF LRCV 032000Z 0321/0406 VRB04KT CAVOK"
    },
    {
      "icao": "LRIA",
      "alert": "OK",
      "vis_m": 9999,
      "fzfg": false,
      "metar_trigger": false,
      "taf_trigger": false,
      "metar": "METAR LRIA 032130Z 11011KT CAVOK M06/M10 Q1022",
      "taf": "TAF LRIA 032000Z 0321/0406 12008KT CAVOK"
    },
    {
      "icao": "LROP",
      "alert": "OK",
      "vis_m": 9999,
      "fzfg": false,
      "metar_trigger": false,
      "taf_trigger": false,
      "metar": "METAR LROP 032130Z 04005KT CAVOK M04/M11 Q1022 NOSIG",
      "taf": "TAF LROP 031700Z 0318/0418 06006KT CAVOK"
    },
    {
      "icao": "LRSB",
      "alert": "OK",
      "vis_m": 9999,
      "fzfg": false,
      "metar_trigger": false,
      "taf_trigger": false,
      "metar": "METAR LRSB 032130Z 28003KT 9999 SCT065 M00/M01 Q1014",
      "taf": "TAF LRSB 031700Z 0318/0418 VRB04KT CAVOK"
    },
    {
      "icao": "LRSM",
      "alert": "OK",
      "vis_m": 9999,
      "fzfg": false,
      "metar_trigger": false,
      "taf_trigger": false,
      "metar": "METAR LRSM 032130Z AUTO 13007KT 9999 -RA SCT023/// OVC029/// 03/01 Q1015",
      "taf": "TAF LRSM 031400Z 0315/0324 VRB04KT 9999 BKN040"
    },
    {
      "icao": "LRSV",
      "alert": "OK",
      "vis_m": 9999,
      "fzfg": false,
      "metar_trigger": false,
      "taf_trigger": false,
      "metar": "METAR LRSV 032130Z 14011KT CAVOK M07/M09 Q1017",
      "taf": "TAF LRSV 032000Z 0321/0406 14010KT CAVOK"
    },
    {
      "icao": "LRTM",
      "alert": "OK",
      "vis_m": 6000,
      "fzfg": false,
      "metar_trigger": false,
      "taf_trigger": false,
      "metar": "METAR LRTM 032130Z AUTO 35001KT 6000 NCD 01/M00 Q1015",
      "taf": "TAF LRTM 032000Z 0321/0406 VRB04KT CAVOK"
    },
    {
      "icao": "LRTR",
      "alert": "OK",
      "vis_m": 9999,
      "fzfg": false,
      "metar_trigger": false,
      "taf_trigger": false,
      "metar": "METAR LRTR 032130Z 10012KT CAVOK 02/00 Q1013",
      "taf": "TAF LRTR 031700Z 0318/0418 11012KT CAVOK"
    },
    {
      "icao": "LTAC",
      "alert": "OK",
      "vis_m": 9999,
      "fzfg": false,
      "metar_trigger": false,
      "taf_trigger": false,
      "metar": "METAR LTAC 032150Z 23003KT CAVOK M01/M04 Q1020 NOSIG",
      "taf": "TAF LTAC 031640Z 0318/0418 VRB02KT 9999 SCT040"
    },
    {
      "icao": "LTFM",
      "alert": "OK",
      "vis_m": 9999,
      "fzfg": false,
      "metar_trigger": false,
      "taf_trigger": false,
      "metar": "METAR LTFM 032150Z 16003KT 9999 SCT033 04/01 Q1023 NOSIG",
      "taf": "TAF LTFM 031640Z 0318/0424 13005KT 9999 BKN022"
    },
    {
      "icao": "LUKK",
      "alert": "OK",
      "vis_m": 9999,
      "fzfg": false,
      "metar_trigger": false,
      "taf_trigger": false,
      "metar": "METAR LUKK 032130Z 12005KT CAVOK M08/M10 Q1024 NOSIG",
      "taf": "TAF LUKK 031708Z 0318/0418 13008KT CAVOK"
    },
    {
      "icao": "LWOH",
      "alert": "OK",
      "vis_m": null,
      "fzfg": false,
      "metar_trigger": false,
      "taf_trigger": false,
      "metar": "",
      "taf": "TAF LWOH 032030Z 0321/0421 VRB02KT 9999 BKN040"
    },
    {
      "icao": "LWSK",
      "alert": "OK",
      "vis_m": 9999,
      "fzfg": false,
      "metar_trigger": false,
      "taf_trigger": false,
      "metar": "METAR LWSK 032150Z VRB02KT 9999 SCT020 BKN033 04/02 Q1018 NOSIG",
      "taf": "TAF LWSK 032030Z 0321/0421 VRB02KT 9999 BKN025"
    },
    {
      "icao": "LYBE",
      "alert": "OK",
      "vis_m": 9999,
      "fzfg": false,
      "metar_trigger": false,
      "taf_trigger": false,
      "metar": "METAR LYBE 032130Z 11009KT 9999 -RA NSC 05/01 Q1011 NOSIG",
      "taf": "TAF LYBE 031700Z 0318/0418 12014KT CAVOK TX10/0412Z TN05/0406Z"
    },
    {
      "icao": "LYNI",
      "alert": "OK",
      "vis_m": 9999,
      "fzfg": false,
      "metar_trigger": false,
      "taf_trigger": false,
      "metar": "METAR LYNI 032130Z 12005KT 9999 BKN040 OVC090 06/01 Q1016 NOSIG",
      "taf": "TAF LYNI 031700Z 0318/0418 11008KT 9999 BKN040 TX11/0413Z TN03/0406Z"
    },
    {
      "icao": "LYPG",
      "alert": "OK",
      "vis_m": 700,
      "fzfg": false,
      "metar_trigger": false,
      "taf_trigger": false,
      "metar": "METAR LYPG 032130Z VRB02KT 0700 R18/1100D R36/1300D FG FEW004 SCT050 BKN090 07/07 Q1015 NOSIG",
      "taf": ""
    },
    {
      "icao": "LZIB",
      "alert": "OK",
      "vis_m": 9999,
      "fzfg": false,
      "metar_trigger": false,
      "taf_trigger": false,
      "metar": "METAR LZIB 032130Z 06005KT 030V100 9999 FEW008 BKN010 OVC016 01/M01 Q1010 NOSIG",
      "taf": ""
    },
    {
      "icao": "LZKZ",
      "alert": "OK",
      "vis_m": 2000,
      "fzfg": false,
      "metar_trigger": false,
      "taf_trigger": false,
      "metar": "METAR LZKZ 032130Z 36004KT 2000 -SN BR OVC008 M00/M01 Q1013 TEMPO 3200 SN BKN012",
      "taf": "TAF LZKZ 031715Z 0318/0418 VRB02KT 4000 -SN BR SCT004 BKN016 OVC025"
    },
    {
      "icao": "LZTT",
      "alert": "OK",
      "vis_m": 9999,
      "fzfg": false,
      "metar_trigger": false,
      "taf_trigger": false,
      "metar": "METAR LZTT 032130Z 20004KT 170V240 9999 -SN FEW010 BKN036 OVC050 M03/M04 Q1010",
      "taf": "TAF LZTT 031715Z 0318/0418 VRB02KT 4000 -SN SCT010 OVC020"
    },
    {
      "icao": "OEJN",
      "alert": "OK",
      "vis_m": 9999,
      "fzfg": false,
      "metar_trigger": false,
      "taf_trigger": false,
      "metar": "METAR OEJN 032100Z 36008KT 9999 FEW040 24/18 Q1016 NOSIG",
      "taf": "TAF OEJN 031700Z 0318/0424 01008KT 7000 NSC"
    },
    {
      "icao": "OEMA",
      "alert": "OK",
      "vis_m": 9999,
      "fzfg": false,
      "metar_trigger": false,
      "taf_trigger": false,
      "metar": "METAR OEMA 032100Z 29006KT CAVOK 23/02 Q1019 NOSIG",
      "taf": "TAF OEMA 031700Z 0318/0424 33006KT CAVOK"
    },
    {
      "icao": "OJAI",
      "alert": "OK",
      "vis_m": 4000,
      "fzfg": false,
      "metar_trigger": false,
      "taf_trigger": false,
      "metar": "METAR OJAI 032100Z 28010KT 4000 BR SCT020 10/08 Q1021 NOSIG",
      "taf": "TAF OJAI 031645Z 0318/0424 26014KT 4000 BR SCT035"
    },
    {
      "icao": "OMAA",
      "alert": "OK",
      "vis_m": 9999,
      "fzfg": false,
      "metar_trigger": false,
      "taf_trigger": false,
      "metar": "METAR OMAA 032130Z 08005KT CAVOK 18/11 Q1016 NOSIG",
      "taf": "TAF OMAA 031700Z 0318/0500 07007KT 8000 NSC"
    },
    {
      "icao": "OMDB",
      "alert": "OK",
      "vis_m": 9000,
      "fzfg": false,
      "metar_trigger": false,
      "taf_trigger": false,
      "metar": "METAR OMDB 032130Z 13007KT 9000 NSC 21/15 Q1016 NOSIG",
      "taf": "TAF OMDB 031700Z 0318/0500 10005KT 8000 NSC"
    },
    {
      "icao": "UAAA",
      "alert": "OK",
      "vis_m": 9999,
      "fzfg": false,
      "metar_trigger": false,
      "taf_trigger": false,
      "metar": "METAR UAAA 032130Z 00000MPS 9999 BKN050CB OVC100 04/02 Q1022 NOSIG",
      "taf": "TAF UAAA 031702Z 0318/0418 26003MPS 3100 -SHRA BR FU BKN011CB OVC050 TX06/0409Z TNM02/0402Z"
    },
    {
      "icao": "UBBB",
      "alert": "OK",
      "vis_m": 9999,
      "fzfg": false,
      "metar_trigger": false,
      "taf_trigger": false,
      "metar": "METAR UBBB 032130Z 33024G34KT 9999 BKN007 06/05 Q1012 NOSIG",
      "taf": "TAF UBBB 031658Z 0318/0418 33022G32KT 9999 SCT010 SCT030 TX03/0406Z TN04/0409Z"
    },
    {
      "icao": "UDSG",
      "alert": "OK",
      "vis_m": 9999,
      "fzfg": false,
      "metar_trigger": false,
      "taf_trigger": false,
      "metar": "METAR UDSG 032130Z 34018KT 9999 BKN026 M00/M06 Q1013 NOSIG",
      "taf": "TAF UDSG 031658Z 0318/0418 VRB06KT 5000 BR BKN030"
    },
    {
      "icao": "UDYZ",
      "alert": "OK",
      "vis_m": 4000,
      "fzfg": false,
      "metar_trigger": false,
      "taf_trigger": false,
      "metar": "METAR UDYZ 032130Z 05005KT 4000 BR SCT046 01/01 Q1011 NOSIG",
      "taf": "TAF UDYZ 031700Z 0318/0418 VRB06KT 1500 BR BKN030"
    },
    {
      "icao": "UGKO",
      "alert": "OK",
      "vis_m": 9999,
      "fzfg": false,
      "metar_trigger": false,
      "taf_trigger": false,
      "metar": "METAR UGKO 032130Z 25006KT 9999 -RA SCT005 BKN009 OVC016 04/04 Q1022 NOSIG",
      "taf": "TAF UGKO 031700Z 0318/0418 25008KT 9000 SCT030 OVC050 TX07/0410Z TN02/0418Z"
    }
  ]
}