{
  "ts_utc": "2026-01-10T14:49:04Z",
  "threshold_m": 150,
  "source": "stations_override.txt (ICAO list) + aviationweather.gov (METAR/TAF raw)",
  "station_count": 159,
  "stations": [
    {
      "icao": "BIKF",
      "alert": "OK",
      "vis_m": 9999,
      "fzfg": false,
      "metar_trigger": false,
      "taf_trigger": false,
      "metar": "METAR BIKF 101430Z 02004KT 9999 FEW030 M03/M06 Q1009",
      "taf": "TAF BIKF 101332Z 1015/1115 04005KT 9999 FEW030 TXM01/1112Z TNM05/1018Z"
    },
    {
      "icao": "BKPR",
      "alert": "OK",
      "vis_m": 9999,
      "fzfg": false,
      "metar_trigger": false,
      "taf_trigger": false,
      "metar": "METAR BKPR 101430Z 36005KT 9999 FEW010 SCT015 BKN040 03/03 Q0995 TEMPO 4500 RA",
      "taf": "TAF BKPR 101130Z 1012/1112 17008KT 8000 SCT015 BKN030"
    },
    {
      "icao": "EBCI",
      "alert": "OK",
      "vis_m": 6000,
      "fzfg": false,
      "metar_trigger": false,
      "taf_trigger": false,
      "metar": "METAR EBCI 101420Z 36006KT 310V030 6000 FEW006 BKN009 M02/M03 Q1012 TEMPO 2500 -SN",
      "taf": "TAF EBCI 101100Z 1012/1118 35008KT 8000 BKN006"
    },
    {
      "icao": "EDDB",
      "alert": "OK",
      "vis_m": 9999,
      "fzfg": false,
      "metar_trigger": false,
      "taf_trigger": false,
      "metar": "METAR EDDB 101420Z AUTO 25006KT CAVOK M04/M08 Q1012 NOSIG",
      "taf": "TAF EDDB 101100Z 1012/1112 34005KT CAVOK"
    },
    {
      "icao": "EDDH",
      "alert": "OK",
      "vis_m": 9999,
      "fzfg": false,
      "metar_trigger": false,
      "taf_trigger": false,
      "metar": "METAR EDDH 101420Z AUTO 36006KT 320V040 9999 FEW019 BKN044 00/M02 Q1016 NOSIG",
      "taf": "TAF EDDH 101100Z 1012/1118 03006KT 9999 SCT040"
    },
    {
      "icao": "EDDK",
      "alert": "OK",
      "vis_m": 8000,
      "fzfg": false,
      "metar_trigger": false,
      "taf_trigger": false,
      "metar": "METAR EDDK 101420Z AUTO 32009KT 8000 BKN007 OVC011 M02/M03 Q1011 BECMG BKN012",
      "taf": "TAF EDDK 101100Z 1012/1118 34007KT 8000 OVC012"
    },
    {
      "icao": "EDDN",
      "alert": "OK",
      "vis_m": 2700,
      "fzfg": false,
      "metar_trigger": false,
      "taf_trigger": false,
      "metar": "METAR EDDN 101420Z AUTO 35009KT 2700 -SN BR BKN004 M00/M01 Q1006 TEMPO 5000 BKN005",
      "taf": ""
    },
    {
      "icao": "EDDS",
      "alert": "OK",
      "vis_m": 9999,
      "fzfg": false,
      "metar_trigger": false,
      "taf_trigger": false,
      "metar": "METAR EDDS 101420Z AUTO 27006KT 9999 -SN SCT015 BKN026 BKN040 01/M00 Q1006 TEMPO BKN012",
      "taf": "TAF EDDS 101100Z 1012/1112 26007KT 9999 SCT014 BKN030"
    },
    {
      "icao": "EDFH",
      "alert": "OK",
      "vis_m": 7000,
      "fzfg": false,
      "metar_trigger": false,
      "taf_trigger": false,
      "metar": "METAR EDFH 101420Z 34006KT 310V030 7000 -SN OVC005 M03/M04 Q1007",
      "taf": "TAF EDFH 101100Z 1012/1112 33008KT 8000 BKN005"
    },
    {
      "icao": "EDJA",
      "alert": "OK",
      "vis_m": 3400,
      "fzfg": false,
      "metar_trigger": false,
      "taf_trigger": false,
      "metar": "METAR EDJA 101420Z 24012KT 3400 -SN BR BKN007 BKN014 OVC035 M00/M02 Q1006",
      "taf": "TAF EDJA 101400Z 1015/1024 24015G25KT 6000 OVC010"
    },
    {
      "icao": "EDLW",
      "alert": "OK",
      "vis_m": 9999,
      "fzfg": false,
      "metar_trigger": false,
      "taf_trigger": false,
      "metar": "METAR EDLW 101420Z 03010KT CAVOK M03/M07 Q1012",
      "taf": "TAF EDLW 101100Z 1012/1112 05010KT 6000 SCT004 BKN007"
    },
    {
      "icao": "EDNY",
      "alert": "OK",
      "vis_m": 8000,
      "fzfg": false,
      "metar_trigger": false,
      "taf_trigger": false,
      "metar": "METAR EDNY 101420Z 25012KT 230V290 8000 -SN BKN016 BKN018 OVC021 01/M01 Q1008",
      "taf": "TAF EDNY 101400Z 1015/1024 25012KT 7000 BKN015"
    },
    {
      "icao": "EDSB",
      "alert": "OK",
      "vis_m": 2900,
      "fzfg": false,
      "metar_trigger": false,
      "taf_trigger": false,
      "metar": "METAR EDSB 101420Z 23005KT 200V270 2900 SN BKN005 OVC021 01/00 Q1008",
      "taf": ""
    },
    {
      "icao": "EETN",
      "alert": "OK",
      "vis_m": 1000,
      "fzfg": false,
      "metar_trigger": false,
      "taf_trigger": false,
      "metar": "METAR EETN 101420Z 03017G27KT 360V060 1000 R08/P2000N +SN BLSN VV012 M06/M08 Q1006 TEMPO 0600",
      "taf": "TAF EETN 101130Z 1012/1112 04015G25KT 2500 SN BLSN BKN012 OVC020"
    },
    {
      "icao": "EFTU",
      "alert": "OK",
      "vis_m": 9999,
      "fzfg": false,
      "metar_trigger": false,
      "taf_trigger": false,
      "metar": "METAR EFTU 101420Z AUTO 03009KT 360V060 CAVOK M09/M12 Q1013",
      "taf": "TAF EFTU 101433Z 1015/1115 02010KT CAVOK"
    },
    {
      "icao": "EGBB",
      "alert": "OK",
      "vis_m": 9999,
      "fzfg": false,
      "metar_trigger": false,
      "taf_trigger": false,
      "metar": "METAR EGBB 101420Z VRB01KT CAVOK 04/M02 Q1018",
      "taf": "TAF EGBB 101055Z 1012/1112 32006KT 9999 FEW025"
    },
    {
      "icao": "EGGP",
      "alert": "OK",
      "vis_m": 9999,
      "fzfg": false,
      "metar_trigger": false,
      "taf_trigger": false,
      "metar": "METAR EGGP 101420Z 16005KT 130V200 9999 SCT030 04/00 Q1018",
      "taf": "TAF EGGP 101057Z 1012/1112 15005KT 9999 SCT040"
    },
    {
      "icao": "EGGW",
      "alert": "OK",
      "vis_m": 9999,
      "fzfg": false,
      "metar_trigger": false,
      "taf_trigger": false,
      "metar": "METAR EGGW 101420Z AUTO 33006KT 9999 BKN015 02/00 Q1017",
      "taf": "TAF EGGW 101101Z 1012/1112 33009KT 9999 BKN007"
    },
    {
      "icao": "EGKK",
      "alert": "OK",
      "vis_m": 9999,
      "fzfg": false,
      "metar_trigger": false,
      "taf_trigger": false,
      "metar": "METAR EGKK 101420Z 34007KT 310V030 9999 SCT017 03/M00 Q1018",
      "taf": ""
    },
    {
      "icao": "EGNM",
      "alert": "OK",
      "vis_m": 9999,
      "fzfg": false,
      "metar_trigger": false,
      "taf_trigger": false,
      "metar": "METAR EGNM 101420Z VRB02KT CAVOK 03/M02 Q1017",
      "taf": "TAF EGNM 101057Z 1012/1112 27005KT 9999 FEW040"
    },
    {
      "icao": "EGPD",
      "alert": "OK",
      "vis_m": 9999,
      "fzfg": false,
      "metar_trigger": false,
      "taf_trigger": false,
      "metar": "METAR EGPD 101420Z COR AUTO 18012KT 9999 NCD 03/M01 Q1014 NOSIG",
      "taf": "TAF EGPD 101055Z 1012/1112 17008KT 9999 FEW015 SCT025"
    },
    {
      "icao": "EGPF",
      "alert": "OK",
      "vis_m": 9999,
      "fzfg": false,
      "metar_trigger": false,
      "taf_trigger": false,
      "metar": "METAR EGPF 101420Z AUTO VRB03KT 9999 -RA SCT013 BKN021 OVC030 04/02 Q1014",
      "taf": "TAF EGPF 101104Z 1012/1112 VRB04KT 9999 FEW015 SCT030"
    },
    {
      "icao": "EHBK",
      "alert": "OK",
      "vis_m": 9999,
      "fzfg": false,
      "metar_trigger": false,
      "taf_trigger": false,
      "metar": "METAR EHBK 101425Z AUTO 36006KT 320V030 9999 SCT008 OVC009 M03/M05 Q1012 BECMG BKN012",
      "taf": "TAF EHBK 101119Z 1012/1118 35007KT 9999 BKN012"
    },
    {
      "icao": "EHEH",
      "alert": "OK",
      "vis_m": 9999,
      "fzfg": false,
      "metar_trigger": false,
      "taf_trigger": false,
      "metar": "METAR EHEH 101425Z AUTO 03009KT 350V070 9999 OVC016 M02/M06 Q1014 WHT BECMG SCT014 BKN018 RMK TREND REMOTE BY EHWX",
      "taf": ""
    },
    {
      "icao": "EKBI",
      "alert": "OK",
      "vis_m": 9999,
      "fzfg": false,
      "metar_trigger": false,
      "taf_trigger": false,
      "metar": "METAR EKBI 101420Z AUTO 02006KT 9999 NCD M02/M09 Q1020",
      "taf": "TAF EKBI 101427Z 1015/1115 02006KT CAVOK"
    },
    {
      "icao": "EKCH",
      "alert": "OK",
      "vis_m": 9999,
      "fzfg": false,
      "metar_trigger": false,
      "taf_trigger": false,
      "metar": "METAR EKCH 101420Z AUTO 01015KT 9999 NCD M02/M10 Q1018 NOSIG",
      "taf": "TAF EKCH 101427Z 1015/1115 01015KT CAVOK"
    },
    {
      "icao": "ENAL",
      "alert": "OK",
      "vis_m": 9999,
      "fzfg": false,
      "metar_trigger": false,
      "taf_trigger": false,
      "metar": "METAR ENAL 101420Z 17008KT CAVOK M02/M09 Q1021",
      "taf": "TAF ENAL 101400Z 1015/1024 17008KT CAVOK"
    },
    {
      "icao": "ENBR",
      "alert": "OK",
      "vis_m": 9999,
      "fzfg": false,
      "metar_trigger": false,
      "taf_trigger": false,
      "metar": "METAR ENBR 101420Z 12006KT CAVOK M03/M10 Q1022 NOSIG RMK WIND 1200FT 12015KT",
      "taf": ""
    },
    {
      "icao": "ENGM",
      "alert": "OK",
      "vis_m": 9999,
      "fzfg": false,
      "metar_trigger": false,
      "taf_trigger": false,
      "metar": "METAR ENGM 101420Z 04003KT CAVOK M13/M15 Q1022 NOSIG",
      "taf": "TAF ENGM 101100Z 1012/1112 35005KT CAVOK"
    },
    {
      "icao": "ENHD",
      "alert": "OK",
      "vis_m": 9999,
      "fzfg": false,
      "metar_trigger": false,
      "taf_trigger": false,
      "metar": "METAR ENHD 101420Z 11018KT 9999 SCT046 M02/M10 Q1023",
      "taf": "TAF ENHD 101400Z 1015/1023 12012KT 9999 SCT040"
    },
    {
      "icao": "ENTC",
      "alert": "OK",
      "vis_m": 9999,
      "fzfg": false,
      "metar_trigger": false,
      "taf_trigger": false,
      "metar": "METAR ENTC 101420Z VRB02KT CAVOK M12/M14 Q1019 NOSIG RMK WIND 2600FT 17011KT",
      "taf": "TAF ENTC 101100Z 1012/1112 20005KT CAVOK"
    },
    {
      "icao": "ENTO",
      "alert": "OK",
      "vis_m": 9999,
      "fzfg": false,
      "metar_trigger": false,
      "taf_trigger": false,
      "metar": "METAR ENTO 101420Z 35005KT CAVOK M08/M12 Q1023 NOSIG",
      "taf": "TAF ENTO 101100Z 1012/1112 36005KT CAVOK"
    },
    {
      "icao": "ENVA",
      "alert": "OK",
      "vis_m": 9999,
      "fzfg": false,
      "metar_trigger": false,
      "taf_trigger": false,
      "metar": "METAR ENVA 101420Z 12004KT 090V150 9999 SCT049 M08/M11 Q1022 NOSIG RMK WIND 670FT 15010KT",
      "taf": "TAF ENVA 101100Z 1012/1112 10006KT CAVOK"
    },
    {
      "icao": "ENZV",
      "alert": "OK",
      "vis_m": 9999,
      "fzfg": false,
      "metar_trigger": false,
      "taf_trigger": false,
      "metar": "METAR ENZV 101420Z 09012KT 9999 BKN045 M02/M10 Q1023 NOSIG",
      "taf": "TAF ENZV 101100Z 1012/1112 10012KT 9999 SCT040"
    },
    {
      "icao": "EPGD",
      "alert": "OK",
      "vis_m": 9999,
      "fzfg": false,
      "metar_trigger": false,
      "taf_trigger": false,
      "metar": "METAR EPGD 101430Z 36015KT 9999 DRSN FEW012 SCT031TCU M01/M07 Q1005",
      "taf": "TAF EPGD 101130Z 1012/1112 36012KT 9999 -SHSN SCT020TCU"
    },
    {
      "icao": "EPKK",
      "alert": "OK",
      "vis_m": 9999,
      "fzfg": false,
      "metar_trigger": false,
      "taf_trigger": false,
      "metar": "METAR EPKK 101430Z 20006KT CAVOK M09/M13 Q1005",
      "taf": "TAF EPKK 101430Z 1015/1115 23005KT 9999 SCT025"
    },
    {
      "icao": "EPKT",
      "alert": "OK",
      "vis_m": 9999,
      "fzfg": false,
      "metar_trigger": false,
      "taf_trigger": false,
      "metar": "METAR EPKT 101430Z 30008KT 280V340 9999 SCT014 M09/M13 Q1006",
      "taf": "TAF EPKT 101130Z 1012/1112 34005KT 9999 SCT030"
    },
    {
      "icao": "EPLB",
      "alert": "OK",
      "vis_m": 5000,
      "fzfg": false,
      "metar_trigger": false,
      "taf_trigger": false,
      "metar": "METAR EPLB 101430Z 27010KT 5000 -SN BR FEW023 SCT028 BKN037 M10/M12 Q1002",
      "taf": "TAF EPLB 101130Z 1012/1112 27010KT 9999 SCT010 BKN015"
    },
    {
      "icao": "EPMO",
      "alert": "OK",
      "vis_m": 2600,
      "fzfg": false,
      "metar_trigger": false,
      "taf_trigger": false,
      "metar": "METAR EPMO 101430Z 25009KT 2600 -SN BR SCT027 M07/M08 Q1003",
      "taf": "TAF EPMO 101130Z 1012/1112 29008KT 5000 -SN BR BKN030"
    },
    {
      "icao": "EPPO",
      "alert": "OK",
      "vis_m": 9999,
      "fzfg": false,
      "metar_trigger": false,
      "taf_trigger": false,
      "metar": "METAR EPPO 101430Z 28008KT CAVOK M05/M10 Q1008",
      "taf": "TAF EPPO 101130Z 1012/1112 33010KT 9999 BKN035"
    },
    {
      "icao": "EPRA",
      "alert": "OK",
      "vis_m": 9999,
      "fzfg": false,
      "metar_trigger": false,
      "taf_trigger": false,
      "metar": "METAR EPRA 101430Z 30009KT 9999 SCT017 BKN035 M09/M12 Q1003",
      "taf": "TAF EPRA 101430Z 1015/1024 30008KT 9999 BKN020"
    },
    {
      "icao": "EPRZ",
      "alert": "OK",
      "vis_m": 9999,
      "fzfg": false,
      "metar_trigger": false,
      "taf_trigger": false,
      "metar": "METAR EPRZ 101430Z 26011KT 9999 SCT014 BKN024 M11/M14 Q1004",
      "taf": "TAF EPRZ 101130Z 1012/1112 27008KT 9999 BKN013"
    },
    {
      "icao": "EPSC",
      "alert": "OK",
      "vis_m": 9999,
      "fzfg": false,
      "metar_trigger": false,
      "taf_trigger": false,
      "metar": "METAR EPSC 101430Z 35011KT 320V020 9999 FEW018TCU 01/M04 Q1011",
      "taf": "TAF EPSC 101130Z 1012/1112 32008KT 9999 BKN040"
    },
    {
      "icao": "EPSY",
      "alert": "OK",
      "vis_m": 9999,
      "fzfg": false,
      "metar_trigger": false,
      "taf_trigger": false,
      "metar": "METAR EPSY 101430Z 31005KT 9999 SCT012 BKN022 M07/M08 Q1002",
      "taf": "TAF EPSY 101430Z 1015/1024 33008KT 9999 BKN025"
    },
    {
      "icao": "EPWA",
      "alert": "OK",
      "vis_m": 2200,
      "fzfg": false,
      "metar_trigger": false,
      "taf_trigger": false,
      "metar": "METAR EPWA 101430Z 27008KT 2200 SN BKN018 M08/M09 Q1003 BECMG 4000 -SN",
      "taf": "TAF EPWA 101430Z 1015/1115 28008KT 5000 -SN BKN020"
    },
    {
      "icao": "EPWR",
      "alert": "OK",
      "vis_m": 9999,
      "fzfg": false,
      "metar_trigger": false,
      "taf_trigger": false,
      "metar": "METAR EPWR 101430Z 29008KT 9999 BKN029 M06/M11 Q1009",
      "taf": "TAF EPWR 101430Z 1015/1115 31009KT 9999 BKN027"
    },
    {
      "icao": "ESGG",
      "alert": "OK",
      "vis_m": 9999,
      "fzfg": false,
      "metar_trigger": false,
      "taf_trigger": false,
      "metar": "METAR ESGG 101420Z 03010KT CAVOK M07/M10 Q1020",
      "taf": "TAF ESGG 101430Z 1015/1115 02009KT CAVOK"
    },
    {
      "icao": "ESKN",
      "alert": "OK",
      "vis_m": 9999,
      "fzfg": false,
      "metar_trigger": false,
      "taf_trigger": false,
      "metar": "METAR ESKN 101420Z 34012KT 9999 FEW013 M06/M08 Q1017",
      "taf": "TAF ESKN 101430Z 1015/1115 35014G25KT CAVOK"
    },
    {
      "icao": "ESMS",
      "alert": "OK",
      "vis_m": 9999,
      "fzfg": false,
      "metar_trigger": false,
      "taf_trigger": false,
      "metar": "METAR ESMS 101420Z 35012KT CAVOK M06/M11 Q1016",
      "taf": "TAF ESMS 101427Z 1015/1115 34010KT CAVOK"
    },
    {
      "icao": "ESSA",
      "alert": "OK",
      "vis_m": 9999,
      "fzfg": false,
      "metar_trigger": false,
      "taf_trigger": false,
      "metar": "METAR ESSA 101420Z 34011KT CAVOK M05/M07 Q1016 NOSIG",
      "taf": "TAF ESSA 101430Z 1015/1115 35012G22KT CAVOK"
    },
    {
      "icao": "EYKA",
      "alert": "OK",
      "vis_m": 7000,
      "fzfg": false,
      "metar_trigger": false,
      "taf_trigger": false,
      "metar": "METAR EYKA 101420Z 33002KT 7000 SCT026 OVC031 M11/M14 Q1000",
      "taf": "TAF EYKA 101100Z 1012/1112 VRB04KT 5000 SN SCT010 BKN015"
    },
    {
      "icao": "EYPA",
      "alert": "OK",
      "vis_m": 9999,
      "fzfg": false,
      "metar_trigger": false,
      "taf_trigger": false,
      "metar": "METAR EYPA 101420Z COR 01010KT 330V030 CAVOK M05/M08 Q1004",
      "taf": "TAF EYPA 101100Z 1012/1112 36008KT 8000 SCT025"
    },
    {
      "icao": "EYVI",
      "alert": "OK",
      "vis_m": 9999,
      "fzfg": false,
      "metar_trigger": false,
      "taf_trigger": false,
      "metar": "METAR EYVI 101420Z 32004KT 9999 -SN SCT011 M11/M14 Q0998 NOSIG",
      "taf": "TAF EYVI 101107Z 1012/1112 35007KT 5000 SN BKN025"
    },
    {
      "icao": "GCFV",
      "alert": "OK",
      "vis_m": 9999,
      "fzfg": false,
      "metar_trigger": false,
      "taf_trigger": false,
      "metar": "METAR GCFV 101430Z 02014KT 9999 FEW030 SCT045 20/10 Q1026",
      "taf": "TAF GCFV 101400Z 1015/1115 04015KT 9999 SCT025 TX20/1114Z TN14/1106Z"
    },
    {
      "icao": "GCLP",
      "alert": "OK",
      "vis_m": 9999,
      "fzfg": false,
      "metar_trigger": false,
      "taf_trigger": false,
      "metar": "METAR GCLP 101430Z 02016KT 350V050 9999 FEW035 BKN050 20/12 Q1026 NOSIG",
      "taf": "TAF GCLP 101400Z 1015/1115 03016KT 9999 SCT025 BKN045 TX21/1114Z TN15/1106Z"
    },
    {
      "icao": "GCTS",
      "alert": "OK",
      "vis_m": 9999,
      "fzfg": false,
      "metar_trigger": false,
      "taf_trigger": false,
      "metar": "METAR GCTS 101430Z 09020KT 9999 SCT050 20/10 Q1027 NOSIG",
      "taf": "TAF GCTS 101400Z 1015/1115 09018KT 9999 SCT045 TX23/1114Z TN16/1106Z"
    },
    {
      "icao": "GMAD",
      "alert": "OK",
      "vis_m": 9999,
      "fzfg": false,
      "metar_trigger": false,
      "taf_trigger": false,
      "metar": "METAR GMAD 101430Z 25008KT 230V290 CAVOK 18/07 Q1024 NOSIG",
      "taf": "TAF GMAD 101100Z 1012/1118 28008KT CAVOK"
    },
    {
      "icao": "GMMN",
      "alert": "OK",
      "vis_m": 9999,
      "fzfg": false,
      "metar_trigger": false,
      "taf_trigger": false,
      "metar": "METAR GMMN 101430Z 05005KT 020V080 9999 BKN016 14/11 Q1027 NOSIG",
      "taf": "TAF GMMN 101100Z 1012/1118 02010KT 9999 BKN016"
    },
    {
      "icao": "GMMX",
      "alert": "OK",
      "vis_m": 9999,
      "fzfg": false,
      "metar_trigger": false,
      "taf_trigger": false,
      "metar": "METAR GMMX 101430Z VRB03KT CAVOK 17/08 Q1026 NOSIG",
      "taf": "TAF GMMX 101100Z 1012/1118 06008KT 8000 NSC"
    },
    {
      "icao": "HEGN",
      "alert": "OK",
      "vis_m": 9999,
      "fzfg": false,
      "metar_trigger": false,
      "taf_trigger": false,
      "metar": "METAR HEGN 101400Z 34020KT CAVOK 20/07 Q1018 NOSIG",
      "taf": "TAF HEGN 101100Z 1012/1118 36010G20KT CAVOK"
    },
    {
      "icao": "HEMA",
      "alert": "OK",
      "vis_m": 9999,
      "fzfg": false,
      "metar_trigger": false,
      "taf_trigger": false,
      "metar": "METAR HEMA 101400Z 34014KT 9999 SCT025 19/10 Q1017 NOSIG",
      "taf": "TAF HEMA 101100Z 1012/1118 35012G26KT 6000 SCT020"
    },
    {
      "icao": "HESH",
      "alert": "OK",
      "vis_m": 9999,
      "fzfg": false,
      "metar_trigger": false,
      "taf_trigger": false,
      "metar": "METAR HESH 101400Z 34008KT CAVOK 20/07 Q1018 NOSIG",
      "taf": "TAF HESH 101100Z 1012/1118 01016KT CAVOK"
    },
    {
      "icao": "HESX",
      "alert": "OK",
      "vis_m": 9999,
      "fzfg": false,
      "metar_trigger": false,
      "taf_trigger": false,
      "metar": "METAR HESX 101400Z 27006KT CAVOK 18/08 Q1019 NOSIG",
      "taf": ""
    },
    {
      "icao": "LATI",
      "alert": "OK",
      "vis_m": null,
      "fzfg": false,
      "metar_trigger": false,
      "taf_trigger": false,
      "metar": "",
      "taf": ""
    },
    {
      "icao": "LBPD",
      "alert": "OK",
      "vis_m": 9999,
      "fzfg": false,
      "metar_trigger": false,
      "taf_trigger": false,
      "metar": "METAR LBPD 101430Z AUTO 14003KT 9999 OVC095/// 04/03 Q0996 NOSIG",
      "taf": "TAF LBPD 101100Z 1012/1112 VRB03KT 9999 SCT050"
    },
    {
      "icao": "LBSF",
      "alert": "OK",
      "vis_m": 9999,
      "fzfg": false,
      "metar_trigger": false,
      "taf_trigger": false,
      "metar": "METAR LBSF 101430Z 06003KT 9999 4000W -RA BKN005 BKN045 OVC052 04/03 Q0995 TEMPO 3000 RA BR SCT004",
      "taf": "TAF LBSF 101100Z 1012/1112 08010KT 9999 SCT030 BKN050"
    },
    {
      "icao": "LBWN",
      "alert": "OK",
      "vis_m": 9999,
      "fzfg": false,
      "metar_trigger": false,
      "taf_trigger": false,
      "metar": "METAR LBWN 101430Z 01003KT 9999 OVC045 07/05 Q0998 TEMPO 5000 RA",
      "taf": "TAF LBWN 101100Z 1012/1112 06008KT 9999 BKN040"
    },
    {
      "icao": "LCLK",
      "alert": "OK",
      "vis_m": 9999,
      "fzfg": false,
      "metar_trigger": false,
      "taf_trigger": false,
      "metar": "METAR LCLK 101430Z 21014KT 9999 FEW015 FEW030TCU SCT045 17/14 Q1016 NOSIG",
      "taf": "TAF LCLK 101130Z 1012/1112 22018KT 9999 FEW030"
    },
    {
      "icao": "LCPH",
      "alert": "OK",
      "vis_m": 9999,
      "fzfg": false,
      "metar_trigger": false,
      "taf_trigger": false,
      "metar": "METAR LCPH 101430Z 25013KT 9999 VCSH FEW025 FEW035TCU BKN050 16/12 Q1016 NOSIG",
      "taf": "TAF LCPH 101130Z 1012/1112 24016KT 9999 SCT030 SCT050"
    },
    {
      "icao": "LEAL",
      "alert": "OK",
      "vis_m": 9999,
      "fzfg": false,
      "metar_trigger": false,
      "taf_trigger": false,
      "metar": "METAR LEAL 101430Z 29013KT 250V330 CAVOK 16/01 Q1023 NOSIG",
      "taf": "TAF LEAL 101100Z 1012/1112 29017KT CAVOK TX16/1014Z TN07/1106Z"
    },
    {
      "icao": "LEBB",
      "alert": "OK",
      "vis_m": 9999,
      "fzfg": false,
      "metar_trigger": false,
      "taf_trigger": false,
      "metar": "METAR LEBB 101430Z 26008KT 220V290 9999 -RA SCT021 FEW025TCU BKN040 10/08 Q1026 RESHRA TEMPO SHRA",
      "taf": "TAF LEBB 101100Z 1012/1112 27010KT 9999 FEW020 BKN040 TX13/1112Z TN04/1105Z"
    },
    {
      "icao": "LEBL",
      "alert": "OK",
      "vis_m": 9999,
      "fzfg": false,
      "metar_trigger": false,
      "taf_trigger": false,
      "metar": "METAR LEBL 101430Z 28016KT 250V330 9999 FEW035 13/02 Q1018 NOSIG",
      "taf": "TAF LEBL 101100Z 1012/1112 30010KT 9999 FEW020 TX15/1013Z TN05/1106Z"
    },
    {
      "icao": "LECH",
      "alert": "OK",
      "vis_m": 9000,
      "fzfg": false,
      "metar_trigger": false,
      "taf_trigger": false,
      "metar": "METAR LECH 101430Z AUTO 30012KT 260V340 9000 NCD 13/M04 Q1021",
      "taf": ""
    },
    {
      "icao": "LEMD",
      "alert": "OK",
      "vis_m": 9999,
      "fzfg": false,
      "metar_trigger": false,
      "taf_trigger": false,
      "metar": "METAR LEMD 101430Z 14003KT 110V180 CAVOK 09/M01 Q1025 NOSIG",
      "taf": "TAF LEMD 101100Z 1012/1118 VRB03KT CAVOK TX10/1014Z TNM03/1106Z"
    },
    {
      "icao": "LEMG",
      "alert": "OK",
      "vis_m": 9999,
      "fzfg": false,
      "metar_trigger": false,
      "taf_trigger": false,
      "metar": "METAR LEMG 101430Z 29016KT CAVOK 15/04 Q1025 NOSIG",
      "taf": ""
    },
    {
      "icao": "LEVC",
      "alert": "OK",
      "vis_m": 9999,
      "fzfg": false,
      "metar_trigger": false,
      "taf_trigger": false,
      "metar": "METAR LEVC 101430Z 25010KT 220V290 CAVOK 17/00 Q1022 NOSIG",
      "taf": "TAF LEVC 101100Z 1012/1112 29008KT CAVOK TX16/1014Z TN04/1106Z"
    },
    {
      "icao": "LEXJ",
      "alert": "OK",
      "vis_m": 9999,
      "fzfg": false,
      "metar_trigger": false,
      "taf_trigger": false,
      "metar": "METAR LEXJ 101430Z 29012KT 260V320 9999 SCT034 BKN050 12/06 Q1026",
      "taf": "TAF LEXJ 101400Z 1015/1115 27012KT 9999 BKN035 TX15/1113Z TN08/1101Z"
    },
    {
      "icao": "LEZG",
      "alert": "OK",
      "vis_m": 9999,
      "fzfg": false,
      "metar_trigger": false,
      "taf_trigger": false,
      "metar": "METAR LEZG 101430Z 31019KT 9999 BKN070 12/00 Q1023 NOSIG",
      "taf": "TAF LEZG 101100Z 1012/1112 28012KT 9999 FEW040 TX12/1015Z TN03/1106Z"
    },
    {
      "icao": "LEZL",
      "alert": "OK",
      "vis_m": 9999,
      "fzfg": false,
      "metar_trigger": false,
      "taf_trigger": false,
      "metar": "METAR LEZL 101430Z VRB02KT CAVOK 15/06 Q1027 NOSIG",
      "taf": "TAF LEZL 101400Z 1015/1115 22004KT CAVOK TX15/1115Z TN04/1107Z"
    },
    {
      "icao": "LFBD",
      "alert": "OK",
      "vis_m": 9999,
      "fzfg": false,
      "metar_trigger": false,
      "taf_trigger": false,
      "metar": "METAR LFBD 101430Z AUTO 32008KT 290V350 9999 BKN040/// BKN098/// ///TCU 09/06 Q1021 TEMPO VRB15G30KT 2000 SHRA BKN025CB",
      "taf": "TAF LFBD 101100Z 1012/1118 30005KT 9999 SCT030 TX09/1013Z TN02/1022Z"
    },
    {
      "icao": "LFLL",
      "alert": "OK",
      "vis_m": 9999,
      "fzfg": false,
      "metar_trigger": false,
      "taf_trigger": false,
      "metar": "METAR LFLL 101430Z 01004KT 340V050 9999 BKN033 BKN053 05/00 Q1014 NOSIG",
      "taf": ""
    },
    {
      "icao": "LFLS",
      "alert": "OK",
      "vis_m": 9999,
      "fzfg": false,
      "metar_trigger": false,
      "taf_trigger": false,
      "metar": "METAR LFLS 101430Z AUTO 02005KT 9999 FEW015/// OVC032/// ///TCU 02/00 Q1014 TEMPO 1200 -SHSN BKN008 BKN015TCU",
      "taf": "TAF LFLS 101400Z 1015/1115 33007KT 9999 SCT020 BKN040"
    },
    {
      "icao": "LFMN",
      "alert": "OK",
      "vis_m": 9999,
      "fzfg": false,
      "metar_trigger": false,
      "taf_trigger": false,
      "metar": "METAR LFMN 101430Z 32013KT 290V350 CAVOK 14/M10 Q1004 TEMPO 30015G25KT",
      "taf": "TAF LFMN 101400Z 1015/1121 33013KT CAVOK"
    },
    {
      "icao": "LFOB",
      "alert": "OK",
      "vis_m": 9999,
      "fzfg": false,
      "metar_trigger": false,
      "taf_trigger": false,
      "metar": "METAR LFOB 101430Z AUTO 32017KT 9999 FEW025 SCT030 BKN035 04/M00 Q1015",
      "taf": ""
    },
    {
      "icao": "LFPO",
      "alert": "OK",
      "vis_m": 9999,
      "fzfg": false,
      "metar_trigger": false,
      "taf_trigger": false,
      "metar": "METAR LFPO 101430Z 33011KT 300V360 9999 BKN032 BKN041 04/M01 Q1015 NOSIG",
      "taf": "TAF LFPO 101100Z 1012/1118 31010G25KT 9999 SCT025"
    },
    {
      "icao": "LFSB",
      "alert": "OK",
      "vis_m": 9999,
      "fzfg": false,
      "metar_trigger": false,
      "taf_trigger": false,
      "metar": "METAR LFSB 101430Z AUTO 24012KT 9999 FEW017 OVC096 02/M00 Q1010 NOSIG",
      "taf": "TAF LFSB 101100Z 1012/1112 25015KT 9999 SCT025 BKN040"
    },
    {
      "icao": "LGAV",
      "alert": "OK",
      "vis_m": 9999,
      "fzfg": false,
      "metar_trigger": false,
      "taf_trigger": false,
      "metar": "METAR LGAV 101420Z 25016G27KT 220V290 9999 BKN030 18/06 Q1002 NOSIG",
      "taf": "TAF LGAV 101100Z 1012/1112 24020KT 9999 SCT025 SCT080"
    },
    {
      "icao": "LGTS",
      "alert": "OK",
      "vis_m": 7000,
      "fzfg": false,
      "metar_trigger": false,
      "taf_trigger": false,
      "metar": "METAR LGTS 101420Z VRB02KT 7000 -DZ SCT015 BKN025 08/08 Q0998 NOSIG",
      "taf": "TAF LGTS 101100Z 1012/1112 22010KT 9999 SCT030"
    },
    {
      "icao": "LHBP",
      "alert": "OK",
      "vis_m": 4000,
      "fzfg": false,
      "metar_trigger": false,
      "taf_trigger": false,
      "metar": "METAR LHBP 101430Z VRB01KT 4000 BR BKN010 M04/M06 Q1002 TEMPO 2500 BR BKN008",
      "taf": "TAF LHBP 101115Z 1012/1112 VRB02KT 6000 SCT008 BKN025"
    },
    {
      "icao": "LHDC",
      "alert": "OK",
      "vis_m": 6000,
      "fzfg": false,
      "metar_trigger": false,
      "taf_trigger": false,
      "metar": "METAR LHDC 101415Z AUTO 04006KT 6000 OVC025 M03/M06 Q1002 NOSIG",
      "taf": "TAF LHDC 101415Z 1015/1024 VRB03KT 7000 BKN025 BKN060"
    },
    {
      "icao": "LIBD",
      "alert": "OK",
      "vis_m": 9999,
      "fzfg": false,
      "metar_trigger": false,
      "taf_trigger": false,
      "metar": "METAR LIBD 101420Z 28012KT 9999 SCT030 10/04 Q0997",
      "taf": "TAF LIBD 101100Z 1012/1112 28018G30KT 9999 SCT040"
    },
    {
      "icao": "LIBG",
      "alert": "OK",
      "vis_m": 9999,
      "fzfg": false,
      "metar_trigger": false,
      "taf_trigger": false,
      "metar": "METAR LIBG 101350Z 25010KT 9999 FEW040 11/08 Q0998",
      "taf": "TAF LIBG 101400Z 1015/1024 23013KT 9999 SCT040"
    },
    {
      "icao": "LIBP",
      "alert": "OK",
      "vis_m": 9999,
      "fzfg": false,
      "metar_trigger": false,
      "taf_trigger": false,
      "metar": "METAR LIBP 101420Z AUTO 33006KT 280V360 9999 FEW063/// BKN100/// 08/03 Q1001",
      "taf": "TAF LIBP 101100Z 1012/1112 33012KT 9999 SCT040"
    },
    {
      "icao": "LIBR",
      "alert": "OK",
      "vis_m": 9999,
      "fzfg": false,
      "metar_trigger": false,
      "taf_trigger": false,
      "metar": "METAR LIBR 101420Z 24018KT CAVOK 10/04 Q0997",
      "taf": "TAF LIBR 101100Z 1012/1112 26015KT 9999 SCT040"
    },
    {
      "icao": "LICA",
      "alert": "OK",
      "vis_m": null,
      "fzfg": false,
      "metar_trigger": false,
      "taf_trigger": false,
      "metar": "METAR LICA 101420Z AUTO 28023G34KT //// // BKN035/// 10/06 Q1002 RETS",
      "taf": "TAF LICA 101100Z 1012/1112 25025G37KT 9999 SCT020"
    },
    {
      "icao": "LICC",
      "alert": "OK",
      "vis_m": 9999,
      "fzfg": false,
      "metar_trigger": false,
      "taf_trigger": false,
      "metar": "METAR LICC 101420Z 26023G35KT CAVOK 15/10 Q1006",
      "taf": "TAF LICC 101100Z 1012/1112 26018G30KT 9999 FEW050"
    },
    {
      "icao": "LICJ",
      "alert": "OK",
      "vis_m": 9999,
      "fzfg": false,
      "metar_trigger": false,
      "taf_trigger": false,
      "metar": "METAR LICJ 101420Z 29031G44KT 9999 DZ SCT035 BKN050 11/06 Q1009 RERA",
      "taf": "TAF LICJ 101100Z 1012/1112 29030G40KT 9999 SCT030"
    },
    {
      "icao": "LIMC",
      "alert": "OK",
      "vis_m": 8000,
      "fzfg": false,
      "metar_trigger": false,
      "taf_trigger": false,
      "metar": "METAR LIMC 101420Z 26005KT 8000 NSC 05/01 Q1004 NOSIG",
      "taf": "TAF LIMC 101100Z 1012/1118 VRB04KT 7000 NSC"
    },
    {
      "icao": "LIME",
      "alert": "OK",
      "vis_m": 9999,
      "fzfg": false,
      "metar_trigger": false,
      "taf_trigger": false,
      "metar": "METAR LIME 101420Z 26010KT 9999 FEW100 07/M01 Q1002 NOSIG",
      "taf": "TAF LIME 101100Z 1012/1112 VRB04KT 8000 NSC"
    },
    {
      "icao": "LIMF",
      "alert": "OK",
      "vis_m": 9999,
      "fzfg": false,
      "metar_trigger": false,
      "taf_trigger": false,
      "metar": "METAR LIMF 101420Z 29013KT CAVOK 10/M13 Q1003",
      "taf": "TAF LIMF 101100Z 1012/1112 30010KT 8000 NSC"
    },
    {
      "icao": "LIMJ",
      "alert": "OK",
      "vis_m": 9999,
      "fzfg": false,
      "metar_trigger": false,
      "taf_trigger": false,
      "metar": "METAR LIMJ 101420Z 05007KT 010V070 CAVOK 11/M08 Q1004",
      "taf": "TAF LIMJ 101100Z 1012/1112 04013KT CAVOK"
    },
    {
      "icao": "LIPE",
      "alert": "OK",
      "vis_m": 9000,
      "fzfg": false,
      "metar_trigger": false,
      "taf_trigger": false,
      "metar": "METAR LIPE 101420Z 29007KT 9000 NSC 07/00 Q1003",
      "taf": "TAF LIPE 101100Z 1012/1112 28006KT 7000 NSC"
    },
    {
      "icao": "LIPH",
      "alert": "OK",
      "vis_m": 9999,
      "fzfg": false,
      "metar_trigger": false,
      "taf_trigger": false,
      "metar": "METAR LIPH 101420Z 23004KT 9999 FEW060 09/01 Q1002",
      "taf": "TAF LIPH 101100Z 1012/1112 VRB05KT 9999 SCT040"
    },
    {
      "icao": "LIPQ",
      "alert": "OK",
      "vis_m": 9999,
      "fzfg": false,
      "metar_trigger": false,
      "taf_trigger": false,
      "metar": "METAR LIPQ 101420Z AUTO VRB01KT 9999 NCD 11/M00 Q1002",
      "taf": "TAF LIPQ 101100Z 1012/1112 VRB05KT 9999 BKN030"
    },
    {
      "icao": "LIPR",
      "alert": "OK",
      "vis_m": 9999,
      "fzfg": false,
      "metar_trigger": false,
      "taf_trigger": false,
      "metar": "METAR LIPR 101420Z 30011KT CAVOK 07/00 Q1003",
      "taf": "TAF LIPR 101100Z 1012/1112 30010KT 6000 SCT040"
    },
    {
      "icao": "LIPX",
      "alert": "OK",
      "vis_m": 9999,
      "fzfg": false,
      "metar_trigger": false,
      "taf_trigger": false,
      "metar": "METAR LIPX 101420Z 24009KT CAVOK 06/02 Q1002",
      "taf": "TAF LIPX 101100Z 1012/1112 VRB05KT 8000 NSC"
    },
    {
      "icao": "LIPY",
      "alert": "OK",
      "vis_m": 9999,
      "fzfg": false,
      "metar_trigger": false,
      "taf_trigger": false,
      "metar": "METAR LIPY 101420Z AUTO 30008KT 270V340 9999 NCD 07/02 Q1003",
      "taf": "TAF LIPY 101100Z 1012/1112 30012KT 9999 SCT050"
    },
    {
      "icao": "LIPZ",
      "alert": "OK",
      "vis_m": 9999,
      "fzfg": false,
      "metar_trigger": false,
      "taf_trigger": false,
      "metar": "METAR LIPZ 101420Z 21006KT CAVOK 08/02 Q1002 NOSIG",
      "taf": "TAF LIPZ 101100Z 1012/1118 VRB05KT CAVOK"
    },
    {
      "icao": "LIRF",
      "alert": "OK",
      "vis_m": 9999,
      "fzfg": false,
      "metar_trigger": false,
      "taf_trigger": false,
      "metar": "METAR LIRF 101420Z 11006KT 9999 VCTS SCT015CB SCT035 09/06 Q1001 NOSIG",
      "taf": ""
    },
    {
      "icao": "LIRN",
      "alert": "OK",
      "vis_m": 9999,
      "fzfg": false,
      "metar_trigger": false,
      "taf_trigger": false,
      "metar": "METAR LIRN 101420Z 31006KT 260V360 9999 BKN040 10/05 Q1000 NOSIG",
      "taf": "TAF LIRN 101100Z 1012/1112 34016KT 9999 SCT030"
    },
    {
      "icao": "LIRP",
      "alert": "OK",
      "vis_m": 9999,
      "fzfg": false,
      "metar_trigger": false,
      "taf_trigger": false,
      "metar": "METAR LIRP 101415Z 30012KT CAVOK 11/M02 Q1002 NOSIG",
      "taf": "TAF LIRP 101100Z 1012/1112 34005KT CAVOK"
    },
    {
      "icao": "LIRZ",
      "alert": "OK",
      "vis_m": 9999,
      "fzfg": false,
      "metar_trigger": false,
      "taf_trigger": false,
      "metar": "METAR LIRZ 101420Z AUTO 32007KT 9999 NCD 09/02 Q1002",
      "taf": "TAF LIRZ 101100Z 1012/1112 35011KT 9999 BKN040"
    },
    {
      "icao": "LJLJ",
      "alert": "OK",
      "vis_m": 150,
      "fzfg": false,
      "metar_trigger": false,
      "taf_trigger": false,
      "metar": "METAR LJLJ 101430Z VRB01KT 0150 R30/0200N FG VV001 00/M00 Q1002 NOSIG",
      "taf": "TAF LJLJ 101100Z 1012/1112 VRB02KT 0200 FG VV001"
    },
    {
      "icao": "LKMT",
      "alert": "OK",
      "vis_m": 7000,
      "fzfg": false,
      "metar_trigger": false,
      "taf_trigger": false,
      "metar": "METAR LKMT 101430Z 05006KT 7000 FEW017 M10/M13 Q1006 NOSIG",
      "taf": "TAF LKMT 101100Z 1012/1112 36012KT 6000 -SN OVC013"
    },
    {
      "icao": "LKPR",
      "alert": "OK",
      "vis_m": 9000,
      "fzfg": false,
      "metar_trigger": false,
      "taf_trigger": false,
      "metar": "METAR LKPR 101430Z 36006KT 340V040 9000 SCT006 OVC014 M06/M08 Q1007 BECMG SCT020",
      "taf": "TAF LKPR 101400Z 1015/1121 02005KT 5000 -SN BR BKN008 OVC015"
    },
    {
      "icao": "LLBG",
      "alert": "OK",
      "vis_m": 9999,
      "fzfg": false,
      "metar_trigger": false,
      "taf_trigger": false,
      "metar": "METAR LLBG 101420Z 20007KT 9999 FEW030 SCT040 BKN050 17/11 Q1020 NOSIG",
      "taf": "TAF LLBG 101102Z 1012/1112 21012KT 9999 SCT030"
    },
    {
      "icao": "LMML",
      "alert": "OK",
      "vis_m": 9999,
      "fzfg": false,
      "metar_trigger": false,
      "taf_trigger": false,
      "metar": "METAR LMML 101445Z 27025G35KT 9999 SCT029 14/08 Q1011 TEMPO 8000 SHRA",
      "taf": "TAF LMML 101100Z 1012/1112 29026G36KT 9999 FEW020 SCT045"
    },
    {
      "icao": "LOWW",
      "alert": "OK",
      "vis_m": 2300,
      "fzfg": false,
      "metar_trigger": false,
      "taf_trigger": false,
      "metar": "METAR LOWW 101420Z 36010KT 2300 1400S R29///// -SN BR FEW005 SCT011 BKN022 M03/M05 Q1004 TEMPO BKN012",
      "taf": "TAF LOWW 101415Z 1015/1121 35012KT 6000 SCT004 BKN050 TXM03/1111Z TNM07/1100Z"
    },
    {
      "icao": "LPFR",
      "alert": "OK",
      "vis_m": 9999,
      "fzfg": false,
      "metar_trigger": false,
      "taf_trigger": false,
      "metar": "METAR LPFR 101430Z 25007KT 9999 FEW025 BKN040 15/09 Q1028",
      "taf": "TAF LPFR 101100Z 1012/1112 34005KT 9999 FEW025"
    },
    {
      "icao": "LPMA",
      "alert": "OK",
      "vis_m": 9999,
      "fzfg": false,
      "metar_trigger": false,
      "taf_trigger": false,
      "metar": "METAR LPMA 101430Z 04009KT 9999 FEW016 18/11 Q1029",
      "taf": "TAF LPMA 101100Z 1012/1112 01007KT 9999 SCT015"
    },
    {
      "icao": "LPPR",
      "alert": "OK",
      "vis_m": 9999,
      "fzfg": false,
      "metar_trigger": false,
      "taf_trigger": false,
      "metar": "METAR LPPR 101430Z 22005KT 200V260 9999 SCT025 14/08 Q1028",
      "taf": "TAF LPPR 101100Z 1012/1112 19010KT 9999 FEW020 BKN035"
    },
    {
      "icao": "LPPS",
      "alert": "OK",
      "vis_m": 9999,
      "fzfg": false,
      "metar_trigger": false,
      "taf_trigger": false,
      "metar": "METAR LPPS 101430Z 14005KT 100V180 9999 FEW015 18/12 Q1030",
      "taf": "TAF LPPS 101100Z 1012/1118 02008KT 9999 SCT015 SCT030"
    },
    {
      "icao": "LPPT",
      "alert": "OK",
      "vis_m": 9999,
      "fzfg": false,
      "metar_trigger": false,
      "taf_trigger": false,
      "metar": "METAR LPPT 101430Z 23004KT 180V260 9999 FEW024 SCT030 BKN038 14/09 Q1029",
      "taf": "TAF LPPT 101100Z 1012/1118 29005KT 9999 FEW020 BKN035"
    },
    {
      "icao": "LQBK",
      "alert": "OK",
      "vis_m": 600,
      "fzfg": false,
      "metar_trigger": false,
      "taf_trigger": false,
      "metar": "METAR LQBK 101430Z COR VRB02KT 0600 R16/0800N FG BKN002 OVC005 01/01 Q1003 TEMPO 0800",
      "taf": "TAF LQBK 101100Z 1012/1112 30005KT 7000 SCT010 BKN030 TX01/1012Z TNM07/1105Z"
    },
    {
      "icao": "LQSA",
      "alert": "OK",
      "vis_m": 7000,
      "fzfg": false,
      "metar_trigger": false,
      "taf_trigger": false,
      "metar": "METAR LQSA 101430Z 29006KT 7000 -DZ SCT013 BKN025 OVC040 01/01 Q0998 NOSIG",
      "taf": ""
    },
    {
      "icao": "LQTZ",
      "alert": "OK",
      "vis_m": 1800,
      "fzfg": false,
      "metar_trigger": false,
      "taf_trigger": false,
      "metar": "METAR LQTZ 101430Z 28005KT 1800 -RA BR OVC002 00/00 Q1000",
      "taf": "TAF LQTZ 101100Z 1012/1112 27006KT 3000 BR BKN005 OVC012 TX02/1013Z TNM06/1106Z"
    },
    {
      "icao": "LRBC",
      "alert": "OK",
      "vis_m": 9999,
      "fzfg": false,
      "metar_trigger": false,
      "taf_trigger": false,
      "metar": "METAR LRBC 101430Z 35005KT 9999 SCT044 M03/M07 Q1000",
      "taf": "TAF LRBC 101400Z 1015/1024 VRB04KT 9999 SCT050"
    },
    {
      "icao": "LRBS",
      "alert": "OK",
      "vis_m": 9999,
      "fzfg": false,
      "metar_trigger": false,
      "taf_trigger": false,
      "metar": "METAR LRBS 101430Z 09003KT 9999 SCT015 03/M00 Q0999 NOSIG",
      "taf": "TAF LRBS 101100Z 1012/1112 VRB04KT 9999 BKN020"
    },
    {
      "icao": "LRBV",
      "alert": "OK",
      "vis_m": 6000,
      "fzfg": false,
      "metar_trigger": false,
      "taf_trigger": false,
      "metar": "METAR LRBV 101430Z VRB02KT 6000 SCT011 OVC021 M02/M04 Q0999",
      "taf": "TAF LRBV 101400Z 1015/1024 VRB04KT 5000 BR OVC025"
    },
    {
      "icao": "LRCL",
      "alert": "OK",
      "vis_m": 9999,
      "fzfg": false,
      "metar_trigger": false,
      "taf_trigger": false,
      "metar": "METAR LRCL 101430Z 05002KT 9999 OVC024 M03/M06 Q1001",
      "taf": "TAF LRCL 101400Z 1015/1024 VRB04KT 9999 OVC025"
    },
    {
      "icao": "LRCV",
      "alert": "OK",
      "vis_m": 3800,
      "fzfg": false,
      "metar_trigger": false,
      "taf_trigger": false,
      "metar": "METAR LRCV 101430Z 28003KT 3800 BR FEW008 SCT010 OVC045 01/00 Q0998",
      "taf": "TAF LRCV 101400Z 1015/1024 VRB04KT 3000 BR OVC010"
    },
    {
      "icao": "LRIA",
      "alert": "OK",
      "vis_m": 9999,
      "fzfg": false,
      "metar_trigger": false,
      "taf_trigger": false,
      "metar": "METAR LRIA 101430Z 32007KT CAVOK M03/M08 Q1001",
      "taf": "TAF LRIA 101400Z 1015/1024 VRB04KT CAVOK"
    },
    {
      "icao": "LROP",
      "alert": "OK",
      "vis_m": 9999,
      "fzfg": false,
      "metar_trigger": false,
      "taf_trigger": false,
      "metar": "METAR LROP 101430Z 09004KT 9999 FEW016 03/00 Q0999 NOSIG",
      "taf": "TAF LROP 101100Z 1012/1112 VRB04KT 9999 BKN020"
    },
    {
      "icao": "LRSB",
      "alert": "OK",
      "vis_m": 9999,
      "fzfg": false,
      "metar_trigger": false,
      "taf_trigger": false,
      "metar": "METAR LRSB 101430Z 26002KT 9999 FEW013 OVC016 M01/M02 Q0999",
      "taf": "TAF LRSB 101100Z 1012/1112 VRB04KT 9999 BKN020"
    },
    {
      "icao": "LRSM",
      "alert": "OK",
      "vis_m": 9999,
      "fzfg": false,
      "metar_trigger": false,
      "taf_trigger": false,
      "metar": "METAR LRSM 101430Z AUTO 02005KT 9999 BKN018/// OVC034/// M02/M05 Q1002",
      "taf": ""
    },
    {
      "icao": "LRSV",
      "alert": "OK",
      "vis_m": 9999,
      "fzfg": false,
      "metar_trigger": false,
      "taf_trigger": false,
      "metar": "METAR LRSV 101430Z 03008KT CAVOK M08/M10 Q0999",
      "taf": "TAF LRSV 101400Z 1015/1024 03008KT CAVOK"
    },
    {
      "icao": "LRTM",
      "alert": "OK",
      "vis_m": 8000,
      "fzfg": false,
      "metar_trigger": false,
      "taf_trigger": false,
      "metar": "METAR LRTM 101430Z 06003KT 8000 BKN027 M02/M05 Q1000",
      "taf": "TAF LRTM 101400Z 1015/1024 VRB04KT 9999 SCT020 BKN030"
    },
    {
      "icao": "LRTR",
      "alert": "OK",
      "vis_m": 3000,
      "fzfg": false,
      "metar_trigger": false,
      "taf_trigger": false,
      "metar": "METAR LRTR 101430Z 36008KT 3000 BR SCT003 BKN004 OVC017 M01/M01 Q1001",
      "taf": "TAF LRTR 101100Z 1012/1112 VRB04KT 1500 BR BKN002"
    },
    {
      "icao": "LTAC",
      "alert": "OK",
      "vis_m": 4800,
      "fzfg": false,
      "metar_trigger": false,
      "taf_trigger": false,
      "metar": "SPECI LTAC 101437Z 01004KT 4800 -RASN BR FEW010 BKN026 BKN080 01/M00 Q1008 BECMG 20012KT 6000",
      "taf": ""
    },
    {
      "icao": "LTFM",
      "alert": "OK",
      "vis_m": 9999,
      "fzfg": false,
      "metar_trigger": false,
      "taf_trigger": false,
      "metar": "METAR LTFM 101420Z 22021KT 9999 SCT035 BKN090 14/09 Q0998 NOSIG RMK RWY17L 22015KT RWY34L 20015KT RWY16R 21014KT RWY36 22015KT RWY18 22021KT",
      "taf": ""
    },
    {
      "icao": "LUKK",
      "alert": "OK",
      "vis_m": 9999,
      "fzfg": false,
      "metar_trigger": false,
      "taf_trigger": false,
      "metar": "METAR LUKK 101430Z 10003KT CAVOK M05/M06 Q1001 NOSIG",
      "taf": "TAF LUKK 101105Z 1012/1112 VRB05KT CAVOK"
    },
    {
      "icao": "LWOH",
      "alert": "OK",
      "vis_m": null,
      "fzfg": false,
      "metar_trigger": false,
      "taf_trigger": false,
      "metar": "",
      "taf": "TAF LWOH 101425Z 1015/1115 15012KT 9999 -RA FEW020 BKN040"
    },
    {
      "icao": "LWSK",
      "alert": "OK",
      "vis_m": null,
      "fzfg": false,
      "metar_trigger": false,
      "taf_trigger": false,
      "metar": "",
      "taf": "TAF LWSK 101425Z 1015/1115 VRB02KT 9999 FEW030 SCT060"
    },
    {
      "icao": "LYBE",
      "alert": "OK",
      "vis_m": 1500,
      "fzfg": true,
      "metar_trigger": false,
      "taf_trigger": false,
      "metar": "METAR LYBE 101430Z 36009KT 1500 0700E R12L/P2000N R30R/0750N BCFG BR OVC002 M00/M01 Q1001 TEMPO 0700 FZFG",
      "taf": "TAF LYBE 101100Z 1012/1112 36007KT 0300 FG VV001 TX01/1013Z TNM04/1106Z"
    },
    {
      "icao": "LYNI",
      "alert": "OK",
      "vis_m": 4000,
      "fzfg": false,
      "metar_trigger": false,
      "taf_trigger": false,
      "metar": "METAR LYNI 101430Z 34010G20KT 4000 RASN SCT008 OVC025 01/01 Q0997 NOSIG",
      "taf": "TAF LYNI 101100Z 1012/1112 07004KT 4000 BR SCT015 BKN030 TX02/1012Z TNM03/1106Z"
    },
    {
      "icao": "LYPG",
      "alert": "OK",
      "vis_m": 8000,
      "fzfg": false,
      "metar_trigger": false,
      "taf_trigger": false,
      "metar": "METAR LYPG 101430Z 10010KT 8000 FEW006 SCT030TCU BKN040 08/06 Q0995 TEMPO 20015KT 4000 SHRA",
      "taf": "TAF LYPG 101100Z 1012/1112 16005KT 7000 RA FEW010 SCT030 OVC070 TX08/1012Z TN04/1105Z"
    },
    {
      "icao": "LZIB",
      "alert": "OK",
      "vis_m": 9999,
      "fzfg": false,
      "metar_trigger": false,
      "taf_trigger": false,
      "metar": "METAR LZIB 101430Z 34009KT 9999 BKN046 M01/M05 Q1003 TEMPO -SN BKN010",
      "taf": "TAF LZIB 101115Z 1012/1112 06004KT 9999 SCT010 BKN035"
    },
    {
      "icao": "LZKZ",
      "alert": "OK",
      "vis_m": 9999,
      "fzfg": false,
      "metar_trigger": false,
      "taf_trigger": false,
      "metar": "METAR LZKZ 101430Z 02013KT 9999 BKN034 OVC037 M05/M09 Q1002 NOSIG",
      "taf": "TAF LZKZ 101115Z 1012/1112 03006KT 9999 SCT010 BKN030"
    },
    {
      "icao": "LZTT",
      "alert": "OK",
      "vis_m": 9999,
      "fzfg": false,
      "metar_trigger": false,
      "taf_trigger": false,
      "metar": "METAR LZTT 101430Z VRB02KT 9999 BKN018 M06/M09 Q0999 NOSIG",
      "taf": ""
    },
    {
      "icao": "OEJN",
      "alert": "OK",
      "vis_m": 9999,
      "fzfg": false,
      "metar_trigger": false,
      "taf_trigger": false,
      "metar": "METAR OEJN 101400Z 31011KT 9999 FEW040 28/15 Q1013 NOSIG",
      "taf": "TAF OEJN 101100Z 1012/1118 32010KT 9999 SCT040"
    },
    {
      "icao": "OEMA",
      "alert": "OK",
      "vis_m": 9999,
      "fzfg": false,
      "metar_trigger": false,
      "taf_trigger": false,
      "metar": "METAR OEMA 101400Z VRB03KT CAVOK 23/01 Q1019 NOSIG",
      "taf": "TAF OEMA 101100Z 1012/1118 07010KT 7000 NSC"
    },
    {
      "icao": "OJAI",
      "alert": "OK",
      "vis_m": 5000,
      "fzfg": false,
      "metar_trigger": false,
      "taf_trigger": false,
      "metar": "METAR OJAI 101400Z 24012KT 5000 HZ SCT030 11/07 Q1021 NOSIG",
      "taf": "TAF OJAI 101100Z 1012/1118 26012KT 5000 HZ SCT030"
    },
    {
      "icao": "OMAA",
      "alert": "OK",
      "vis_m": 9999,
      "fzfg": false,
      "metar_trigger": false,
      "taf_trigger": false,
      "metar": "METAR OMAA 101400Z 33008KT CAVOK 22/11 Q1018 NOSIG",
      "taf": "TAF OMAA 101100Z 1012/1118 VRB02KT 8000 FEW045"
    },
    {
      "icao": "OMDB",
      "alert": "OK",
      "vis_m": 9999,
      "fzfg": false,
      "metar_trigger": false,
      "taf_trigger": false,
      "metar": "METAR OMDB 101430Z 32011KT CAVOK 23/12 Q1018 NOSIG",
      "taf": "TAF OMDB 101100Z 1012/1118 31010KT 8000 NSC"
    },
    {
      "icao": "UAAA",
      "alert": "OK",
      "vis_m": 650,
      "fzfg": true,
      "metar_trigger": false,
      "taf_trigger": false,
      "metar": "METAR UAAA 101430Z 19001MPS 0650 R05R/1800N FZFG FU FEW100 M03/M05 Q1018 NOSIG",
      "taf": "TAF UAAA 101104Z 1012/1112 24003MPS 1600 BR FU SCT011 BKN100 TX05/1109Z TNM05/1101Z"
    },
    {
      "icao": "UBBB",
      "alert": "OK",
      "vis_m": 9999,
      "fzfg": false,
      "metar_trigger": false,
      "taf_trigger": false,
      "metar": "METAR UBBB 101430Z 32014KT 9999 BKN012 OVC021 08/05 Q1014 NOSIG",
      "taf": "TAF UBBB 101055Z 1012/1112 33018KT 9999 SCT017 BKN030 TX09/1012Z TN04/1102Z"
    },
    {
      "icao": "UDSG",
      "alert": "OK",
      "vis_m": 9999,
      "fzfg": false,
      "metar_trigger": false,
      "taf_trigger": false,
      "metar": "METAR UDSG 101430Z 07002KT 9999 FEW049 M09/M12 Q1014 NOSIG",
      "taf": "TAF UDSG 101058Z 1012/1112 VRB06KT 5000 BR SCT030"
    },
    {
      "icao": "UDYZ",
      "alert": "OK",
      "vis_m": 1500,
      "fzfg": false,
      "metar_trigger": false,
      "taf_trigger": false,
      "metar": "METAR UDYZ 101430Z VRB01KT 1500 1100W R08/1500D BR SCT046 00/M01 Q1014 NOSIG",
      "taf": "TAF UDYZ 101100Z 1012/1112 VRB04KT 1500 BR SCT030"
    },
    {
      "icao": "UGKO",
      "alert": "OK",
      "vis_m": 9999,
      "fzfg": false,
      "metar_trigger": false,
      "taf_trigger": false,
      "metar": "METAR UGKO 101430Z 08006KT CAVOK 03/01 Q1015 NOSIG",
      "taf": "TAF UGKO 101100Z 1012/1112 08010KT CAVOK TX15/1111Z TN03/1022Z"
    }
  ]
}