{
  "ts_utc": "2026-07-08T13:11:11Z",
  "threshold_m": 150,
  "source": "stations_override.txt (ICAO list) + aviationweather.gov (METAR/TAF raw)",
  "station_count": 159,
  "stations": [
    {
      "icao": "BIKF",
      "alert": "OK",
      "vis_m": 9999,
      "fzfg": false,
      "metar_trigger": false,
      "taf_trigger": false,
      "metar": "METAR BIKF 081300Z 21007KT 9999 BKN011 BKN022 11/09 Q1002",
      "taf": ""
    },
    {
      "icao": "BKPR",
      "alert": "OK",
      "vis_m": 9999,
      "fzfg": false,
      "metar_trigger": false,
      "taf_trigger": false,
      "metar": "METAR BKPR 081300Z 31006KT CAVOK 28/14 Q1012 NOSIG",
      "taf": "TAF BKPR 081130Z 0812/0912 27012KT 9999 SCT040"
    },
    {
      "icao": "EBCI",
      "alert": "OK",
      "vis_m": 9999,
      "fzfg": false,
      "metar_trigger": false,
      "taf_trigger": false,
      "metar": "METAR EBCI 081250Z 33006KT 270V020 9999 FEW030 SCT040 26/16 Q1020 NOSIG",
      "taf": "TAF EBCI 081100Z 0812/0918 34008KT 9999 SCT035"
    },
    {
      "icao": "EDDB",
      "alert": "OK",
      "vis_m": 9999,
      "fzfg": false,
      "metar_trigger": false,
      "taf_trigger": false,
      "metar": "METAR EDDB 081250Z AUTO 30012KT 260V350 9999 FEW046 21/08 Q1013 TEMPO 30015G25KT",
      "taf": "TAF EDDB 081100Z 0812/0912 29013KT CAVOK"
    },
    {
      "icao": "EDDH",
      "alert": "OK",
      "vis_m": 9999,
      "fzfg": false,
      "metar_trigger": false,
      "taf_trigger": false,
      "metar": "METAR EDDH 081250Z AUTO 28015KT 240V320 9999 FEW029 19/12 Q1015 TEMPO 29015G25KT",
      "taf": "TAF EDDH 081100Z 0812/0918 30015KT 9999 SCT030"
    },
    {
      "icao": "EDDK",
      "alert": "OK",
      "vis_m": 9999,
      "fzfg": false,
      "metar_trigger": false,
      "taf_trigger": false,
      "metar": "METAR EDDK 081250Z AUTO 34007KT 290V030 9999 FEW029 OVC041 22/15 Q1019 NOSIG",
      "taf": "TAF EDDK 081100Z 0812/0918 32008KT 9999 BKN030"
    },
    {
      "icao": "EDDN",
      "alert": "OK",
      "vis_m": 9999,
      "fzfg": false,
      "metar_trigger": false,
      "taf_trigger": false,
      "metar": "METAR EDDN 081250Z AUTO 32011KT 9999 FEW039 22/13 Q1017 NOSIG",
      "taf": "TAF EDDN 081100Z 0812/0912 30013KT 9999 BKN040"
    },
    {
      "icao": "EDDS",
      "alert": "OK",
      "vis_m": 9999,
      "fzfg": false,
      "metar_trigger": false,
      "taf_trigger": false,
      "metar": "METAR EDDS 081250Z AUTO 30010KT 270V340 9999 SCT047 26/13 Q1018 NOSIG",
      "taf": "TAF EDDS 081100Z 0812/0912 31011KT 9999 FEW045"
    },
    {
      "icao": "EDFH",
      "alert": "OK",
      "vis_m": 9999,
      "fzfg": false,
      "metar_trigger": false,
      "taf_trigger": false,
      "metar": "METAR EDFH 081250Z 32009KT 270V360 9999 SCT037 23/14 Q1019",
      "taf": "TAF EDFH 081100Z 0812/0912 32009KT 9999 SCT035"
    },
    {
      "icao": "EDJA",
      "alert": "OK",
      "vis_m": 9999,
      "fzfg": false,
      "metar_trigger": false,
      "taf_trigger": false,
      "metar": "METAR EDJA 081250Z 27005KT 240V320 9999 BKN045 OVC051 21/13 Q1019",
      "taf": "TAF EDJA 081100Z 0812/0821 28009KT 9999 BKN055"
    },
    {
      "icao": "EDLW",
      "alert": "OK",
      "vis_m": 9999,
      "fzfg": false,
      "metar_trigger": false,
      "taf_trigger": false,
      "metar": "METAR EDLW 081250Z 27005KT 220V350 9999 SCT020 BKN026 OVC036 20/15 Q1019",
      "taf": "TAF EDLW 081100Z 0812/0912 30006KT 9999 BKN030"
    },
    {
      "icao": "EDNY",
      "alert": "OK",
      "vis_m": 9999,
      "fzfg": false,
      "metar_trigger": false,
      "taf_trigger": false,
      "metar": "METAR EDNY 081250Z 11005KT 080V140 CAVOK 25/14 Q1018",
      "taf": ""
    },
    {
      "icao": "EDSB",
      "alert": "OK",
      "vis_m": 9999,
      "fzfg": false,
      "metar_trigger": false,
      "taf_trigger": false,
      "metar": "METAR EDSB 081250Z VRB02KT CAVOK 26/14 Q1018",
      "taf": "TAF EDSB 081100Z 0812/0912 31005KT CAVOK"
    },
    {
      "icao": "EETN",
      "alert": "OK",
      "vis_m": 9999,
      "fzfg": false,
      "metar_trigger": false,
      "taf_trigger": false,
      "metar": "METAR EETN 081250Z 10005KT 050V170 9999 BKN014 SCT020 16/13 Q0998 NOSIG",
      "taf": "TAF EETN 081130Z 0812/0912 04012KT 9999 SCT015 BKN040"
    },
    {
      "icao": "EFTU",
      "alert": "OK",
      "vis_m": 9999,
      "fzfg": false,
      "metar_trigger": false,
      "taf_trigger": false,
      "metar": "METAR EFTU 081250Z AUTO 03004KT 350V070 9999 //////CB 17/11 Q1000",
      "taf": "TAF EFTU 081126Z 0812/0912 01004KT 9999 BKN035"
    },
    {
      "icao": "EGBB",
      "alert": "OK",
      "vis_m": 9999,
      "fzfg": false,
      "metar_trigger": false,
      "taf_trigger": false,
      "metar": "METAR EGBB 081250Z 22006KT 160V300 CAVOK 30/11 Q1020",
      "taf": "TAF EGBB 081056Z 0812/0912 28006KT CAVOK"
    },
    {
      "icao": "EGGP",
      "alert": "OK",
      "vis_m": 9999,
      "fzfg": false,
      "metar_trigger": false,
      "taf_trigger": false,
      "metar": "METAR EGGP 081250Z VRB04KT CAVOK 28/13 Q1020",
      "taf": "TAF EGGP 081056Z 0812/0912 VRB04KT CAVOK"
    },
    {
      "icao": "EGGW",
      "alert": "OK",
      "vis_m": 9999,
      "fzfg": false,
      "metar_trigger": false,
      "taf_trigger": false,
      "metar": "METAR EGGW 081250Z AUTO 28005KT 220V360 9999 NCD 29/15 Q1020",
      "taf": "TAF EGGW 081059Z 0812/0912 34006KT CAVOK"
    },
    {
      "icao": "EGKK",
      "alert": "OK",
      "vis_m": 9999,
      "fzfg": false,
      "metar_trigger": false,
      "taf_trigger": false,
      "metar": "METAR EGKK 081250Z 25007KT 200V310 CAVOK 30/12 Q1019",
      "taf": "TAF EGKK 081056Z 0812/0918 VRB04KT CAVOK"
    },
    {
      "icao": "EGNM",
      "alert": "OK",
      "vis_m": 9999,
      "fzfg": false,
      "metar_trigger": false,
      "taf_trigger": false,
      "metar": "METAR EGNM 081250Z 27011KT 9999 FEW032 26/16 Q1020",
      "taf": "TAF EGNM 081100Z 0812/0912 29008KT 9999 FEW030"
    },
    {
      "icao": "EGPD",
      "alert": "OK",
      "vis_m": 9999,
      "fzfg": false,
      "metar_trigger": false,
      "taf_trigger": false,
      "metar": "METAR EGPD 081250Z AUTO 11007KT 070V140 9999 FEW034 23/16 Q1017",
      "taf": "TAF EGPD 081055Z 0812/0912 VRB03KT 9999 SCT025"
    },
    {
      "icao": "EGPF",
      "alert": "OK",
      "vis_m": 9999,
      "fzfg": false,
      "metar_trigger": false,
      "taf_trigger": false,
      "metar": "METAR EGPF 081250Z AUTO 24010KT 9999 NCD 23/16 Q1019",
      "taf": "TAF EGPF 081101Z 0812/0912 25008KT 9999 SCT015"
    },
    {
      "icao": "EHBK",
      "alert": "OK",
      "vis_m": 9999,
      "fzfg": false,
      "metar_trigger": false,
      "taf_trigger": false,
      "metar": "METAR EHBK 081255Z AUTO 36006KT 300V070 9999 SCT031 BKN036 24/16 Q1019 NOSIG",
      "taf": "TAF EHBK 081111Z 0812/0918 34007KT 9999 BKN035"
    },
    {
      "icao": "EHEH",
      "alert": "OK",
      "vis_m": 9999,
      "fzfg": false,
      "metar_trigger": false,
      "taf_trigger": false,
      "metar": "METAR EHEH 081255Z AUTO 34005KT 260V030 9999 OVC024 21/15 Q1020 WHT NOSIG RMK TREND REMOTE BY EHWX",
      "taf": "TAF EHEH 081127Z 0812/0918 33006KT 9999 OVC025"
    },
    {
      "icao": "EKBI",
      "alert": "OK",
      "vis_m": 9999,
      "fzfg": false,
      "metar_trigger": false,
      "taf_trigger": false,
      "metar": "METAR EKBI 081250Z AUTO 29016G26KT 9999 FEW029/// 19/12 Q1013",
      "taf": "TAF EKBI 081127Z 0812/0912 29015KT 9999 FEW020"
    },
    {
      "icao": "EKCH",
      "alert": "OK",
      "vis_m": 9999,
      "fzfg": false,
      "metar_trigger": false,
      "taf_trigger": false,
      "metar": "METAR EKCH 081250Z AUTO 29016G26KT 9999 FEW046/// 20/09 Q1010 NOSIG",
      "taf": "TAF EKCH 081127Z 0812/0912 29015KT CAVOK"
    },
    {
      "icao": "ENAL",
      "alert": "OK",
      "vis_m": 9999,
      "fzfg": false,
      "metar_trigger": false,
      "taf_trigger": false,
      "metar": "METAR ENAL 081250Z 28006KT 240V320 9999 FEW025 SCT042 13/09 Q1014",
      "taf": "TAF ENAL 081100Z 0812/0821 26008KT 9999 FEW010 BKN020"
    },
    {
      "icao": "ENBR",
      "alert": "OK",
      "vis_m": 9999,
      "fzfg": false,
      "metar_trigger": false,
      "taf_trigger": false,
      "metar": "METAR ENBR 081250Z 31003KT 270V340 CAVOK 15/09 Q1015 NOSIG RMK WIND 1200FT 28009KT",
      "taf": "TAF ENBR 081100Z 0812/0912 30006KT 9999 FEW020 SCT040"
    },
    {
      "icao": "ENGM",
      "alert": "OK",
      "vis_m": 9999,
      "fzfg": false,
      "metar_trigger": false,
      "taf_trigger": false,
      "metar": "METAR ENGM 081250Z 03014KT CAVOK 22/04 Q1008 NOSIG",
      "taf": "TAF ENGM 081100Z 0812/0912 01012KT CAVOK"
    },
    {
      "icao": "ENHD",
      "alert": "OK",
      "vis_m": 9999,
      "fzfg": false,
      "metar_trigger": false,
      "taf_trigger": false,
      "metar": "METAR ENHD 081250Z 32008KT CAVOK 15/09 Q1016",
      "taf": "TAF ENHD 081100Z 0812/0821 34010KT 9999 SCT018"
    },
    {
      "icao": "ENTC",
      "alert": "OK",
      "vis_m": 9999,
      "fzfg": false,
      "metar_trigger": false,
      "taf_trigger": false,
      "metar": "METAR ENTC 081250Z 27012KT CAVOK 15/08 Q1004 NOSIG RMK WIND 2600FT 33010KT",
      "taf": "TAF ENTC 081100Z 0812/0912 27009KT 9999 SCT060"
    },
    {
      "icao": "ENTO",
      "alert": "OK",
      "vis_m": 9999,
      "fzfg": false,
      "metar_trigger": false,
      "taf_trigger": false,
      "metar": "METAR ENTO 081250Z 18009KT CAVOK 21/09 Q1009 NOSIG",
      "taf": "TAF ENTO 081100Z 0812/0912 20010KT CAVOK"
    },
    {
      "icao": "ENVA",
      "alert": "OK",
      "vis_m": 9999,
      "fzfg": false,
      "metar_trigger": false,
      "taf_trigger": false,
      "metar": "METAR ENVA 081250Z 28017KT 9999 FEW018 SCT023 BKN039 12/09 Q1012 NOSIG RMK WIND 670FT 29020KT",
      "taf": "TAF ENVA 081100Z 0812/0912 28018KT 9999 BKN018"
    },
    {
      "icao": "ENZV",
      "alert": "OK",
      "vis_m": 9999,
      "fzfg": false,
      "metar_trigger": false,
      "taf_trigger": false,
      "metar": "METAR ENZV 081250Z 31014KT CAVOK 15/09 Q1015 NOSIG",
      "taf": "TAF ENZV 081100Z 0812/0912 31012KT 9999 FEW020"
    },
    {
      "icao": "EPGD",
      "alert": "OK",
      "vis_m": 9999,
      "fzfg": false,
      "metar_trigger": false,
      "taf_trigger": false,
      "metar": "METAR EPGD 081300Z 30018KT 9999 FEW027 SCT046 16/09 Q1006",
      "taf": "TAF EPGD 081130Z 0812/0912 30021KT 9999 BKN030"
    },
    {
      "icao": "EPKK",
      "alert": "OK",
      "vis_m": 9999,
      "fzfg": false,
      "metar_trigger": false,
      "taf_trigger": false,
      "metar": "METAR EPKK 081300Z 27016KT 9999 BKN060 20/06 Q1010",
      "taf": "TAF EPKK 081130Z 0812/0912 28012KT 9999 SCT045"
    },
    {
      "icao": "EPKT",
      "alert": "OK",
      "vis_m": 9999,
      "fzfg": false,
      "metar_trigger": false,
      "taf_trigger": false,
      "metar": "METAR EPKT 081300Z 31011KT 280V340 CAVOK 19/06 Q1011",
      "taf": "TAF EPKT 081130Z 0812/0912 30012KT 9999 SCT040"
    },
    {
      "icao": "EPLB",
      "alert": "OK",
      "vis_m": 9999,
      "fzfg": false,
      "metar_trigger": false,
      "taf_trigger": false,
      "metar": "METAR EPLB 081300Z 27023KT CAVOK 22/06 Q1006",
      "taf": "TAF EPLB 081130Z 0812/0912 27017KT CAVOK"
    },
    {
      "icao": "EPMO",
      "alert": "OK",
      "vis_m": 9999,
      "fzfg": false,
      "metar_trigger": false,
      "taf_trigger": false,
      "metar": "METAR EPMO 081300Z 26023KT 9999 SCT043 19/10 Q1005",
      "taf": "TAF EPMO 081130Z 0812/0912 28020KT 9999 SCT045"
    },
    {
      "icao": "EPPO",
      "alert": "OK",
      "vis_m": 9999,
      "fzfg": false,
      "metar_trigger": false,
      "taf_trigger": false,
      "metar": "METAR EPPO 081300Z 29015KT CAVOK 21/08 Q1010",
      "taf": "TAF EPPO 081130Z 0812/0912 28012KT 9999 SCT035"
    },
    {
      "icao": "EPRA",
      "alert": "OK",
      "vis_m": 9999,
      "fzfg": false,
      "metar_trigger": false,
      "taf_trigger": false,
      "metar": "METAR EPRA 081300Z 29018KT 260V320 CAVOK 19/06 Q1007",
      "taf": "TAF EPRA 081130Z 0812/0821 28016KT 9999 SCT040"
    },
    {
      "icao": "EPRZ",
      "alert": "OK",
      "vis_m": 9999,
      "fzfg": false,
      "metar_trigger": false,
      "taf_trigger": false,
      "metar": "METAR EPRZ 081300Z 28014KT 250V310 CAVOK 20/07 Q1009",
      "taf": "TAF EPRZ 081130Z 0812/0912 28014KT 9999 SCT040"
    },
    {
      "icao": "EPSC",
      "alert": "OK",
      "vis_m": 9999,
      "fzfg": false,
      "metar_trigger": false,
      "taf_trigger": false,
      "metar": "METAR EPSC 081300Z 28016KT 250V310 9999 FEW045 21/11 Q1010",
      "taf": "TAF EPSC 081130Z 0812/0912 29015KT 9999 BKN030"
    },
    {
      "icao": "EPSY",
      "alert": "OK",
      "vis_m": 9999,
      "fzfg": false,
      "metar_trigger": false,
      "taf_trigger": false,
      "metar": "METAR EPSY 081300Z 32015G29KT 290V360 9999 BKN042 16/08 Q1003",
      "taf": "TAF EPSY 081130Z 0812/0821 30015G25KT 9999 BKN040"
    },
    {
      "icao": "EPWA",
      "alert": "OK",
      "vis_m": 9999,
      "fzfg": false,
      "metar_trigger": false,
      "taf_trigger": false,
      "metar": "METAR EPWA 081300Z 28018KT 9999 FEW017 SCT044CB 18/10 Q1006 NOSIG",
      "taf": "TAF EPWA 081130Z 0812/0912 28018KT 9999 SCT045"
    },
    {
      "icao": "EPWR",
      "alert": "OK",
      "vis_m": 9999,
      "fzfg": false,
      "metar_trigger": false,
      "taf_trigger": false,
      "metar": "METAR EPWR 081300Z 31017G28KT CAVOK 22/06 Q1012",
      "taf": "TAF EPWR 081130Z 0812/0912 28015KT 9999 FEW045"
    },
    {
      "icao": "ESGG",
      "alert": "OK",
      "vis_m": 9999,
      "fzfg": false,
      "metar_trigger": false,
      "taf_trigger": false,
      "metar": "METAR ESGG 081250Z 31009KT 270V340 CAVOK 20/06 Q1008",
      "taf": "TAF ESGG 081130Z 0812/0912 30010G20KT CAVOK"
    },
    {
      "icao": "ESKN",
      "alert": "OK",
      "vis_m": 9999,
      "fzfg": false,
      "metar_trigger": false,
      "taf_trigger": false,
      "metar": "METAR ESKN 081250Z 31014KT 280V340 9999 VCSH SCT042CB SCT067 17/08 Q1004",
      "taf": "TAF ESKN 081130Z 0812/0912 33012G22KT 9999 SCT040"
    },
    {
      "icao": "ESMS",
      "alert": "OK",
      "vis_m": 9999,
      "fzfg": false,
      "metar_trigger": false,
      "taf_trigger": false,
      "metar": "METAR ESMS 081250Z 31018KT 270V330 CAVOK 21/10 Q1009",
      "taf": "TAF ESMS 081127Z 0812/0912 30015KT 9999 FEW015"
    },
    {
      "icao": "ESSA",
      "alert": "OK",
      "vis_m": 9999,
      "fzfg": false,
      "metar_trigger": false,
      "taf_trigger": false,
      "metar": "METAR ESSA 081250Z 35011G22KT 320V020 9999 FEW039 15/05 Q1003 NOSIG",
      "taf": ""
    },
    {
      "icao": "EYKA",
      "alert": "OK",
      "vis_m": 9999,
      "fzfg": false,
      "metar_trigger": false,
      "taf_trigger": false,
      "metar": "METAR EYKA 081250Z 32009KT 280V030 9999 -SHRA SCT013 BKN021CB BKN028 13/12 Q0994",
      "taf": "TAF EYKA 081100Z 0812/0912 VRB03KT 8000 SCT010 BKN020"
    },
    {
      "icao": "EYPA",
      "alert": "OK",
      "vis_m": 7000,
      "fzfg": false,
      "metar_trigger": false,
      "taf_trigger": false,
      "metar": "METAR EYPA 081250Z 34013G26KT 260V030 7000 -SHRA BKN011CB 14/13 Q0997",
      "taf": "TAF EYPA 081100Z 0812/0912 32008KT 6000 SCT010 BKN020"
    },
    {
      "icao": "EYVI",
      "alert": "OK",
      "vis_m": 5000,
      "fzfg": false,
      "metar_trigger": false,
      "taf_trigger": false,
      "metar": "METAR EYVI 081250Z 15010KT 110V170 5000 SHRA BKN008CB OVC015 12/11 Q0992 NOSIG",
      "taf": ""
    },
    {
      "icao": "GCFV",
      "alert": "OK",
      "vis_m": 9999,
      "fzfg": false,
      "metar_trigger": false,
      "taf_trigger": false,
      "metar": "METAR GCFV 081300Z 04009KT 9999 FEW025 25/21 Q1018",
      "taf": "TAF GCFV 080800Z 0809/0909 05010KT CAVOK TX31/0814Z TN23/0906Z"
    },
    {
      "icao": "GCLP",
      "alert": "OK",
      "vis_m": 9999,
      "fzfg": false,
      "metar_trigger": false,
      "taf_trigger": false,
      "metar": "METAR GCLP 081300Z 03024KT 9999 FEW025 27/20 Q1018 NOSIG",
      "taf": "TAF GCLP 080800Z 0809/0909 02020KT CAVOK TX30/0814Z TN22/0906Z"
    },
    {
      "icao": "GCTS",
      "alert": "OK",
      "vis_m": 9999,
      "fzfg": false,
      "metar_trigger": false,
      "taf_trigger": false,
      "metar": "METAR GCTS 081300Z 10013KT CAVOK 29/20 Q1019 WS R07 NOSIG",
      "taf": ""
    },
    {
      "icao": "GMAD",
      "alert": "OK",
      "vis_m": 8000,
      "fzfg": false,
      "metar_trigger": false,
      "taf_trigger": false,
      "metar": "METAR GMAD 081300Z 26011KT 230V290 8000 NSC 31/20 Q1016 NOSIG",
      "taf": "TAF GMAD 081100Z 0812/0918 26010KT 8000 NSC"
    },
    {
      "icao": "GMMN",
      "alert": "OK",
      "vis_m": 9999,
      "fzfg": false,
      "metar_trigger": false,
      "taf_trigger": false,
      "metar": "METAR GMMN 081300Z 35009KT 300V060 CAVOK 36/15 Q1017 NOSIG",
      "taf": "TAF GMMN 081100Z 0812/0918 03008KT CAVOK"
    },
    {
      "icao": "GMMX",
      "alert": "OK",
      "vis_m": 9999,
      "fzfg": false,
      "metar_trigger": false,
      "taf_trigger": false,
      "metar": "METAR GMMX 081300Z 36006KT 280V080 CAVOK 40/08 Q1018 NOSIG",
      "taf": "TAF GMMX 081100Z 0812/0918 32006KT CAVOK"
    },
    {
      "icao": "HEGN",
      "alert": "OK",
      "vis_m": 9999,
      "fzfg": false,
      "metar_trigger": false,
      "taf_trigger": false,
      "metar": "METAR HEGN 081200Z 36016KT CAVOK 35/02 Q1006 NOSIG",
      "taf": "TAF HEGN 081100Z 0812/0918 35015KT CAVOK"
    },
    {
      "icao": "HEMA",
      "alert": "OK",
      "vis_m": 9999,
      "fzfg": false,
      "metar_trigger": false,
      "taf_trigger": false,
      "metar": "METAR HEMA 081200Z 01014KT CAVOK 32/21 Q1007 NOSIG",
      "taf": "TAF HEMA 081100Z 0812/0918 36010G20KT CAVOK"
    },
    {
      "icao": "HESH",
      "alert": "OK",
      "vis_m": 9999,
      "fzfg": false,
      "metar_trigger": false,
      "taf_trigger": false,
      "metar": "METAR HESH 081200Z 02008KT CAVOK 36/12 Q1006 NOSIG",
      "taf": "TAF HESH 081100Z 0812/0918 02014KT CAVOK"
    },
    {
      "icao": "HESX",
      "alert": "OK",
      "vis_m": 9999,
      "fzfg": false,
      "metar_trigger": false,
      "taf_trigger": false,
      "metar": "METAR HESX 081200Z 30012KT CAVOK 33/11 Q1009 NOSIG",
      "taf": "TAF HESX 081100Z 0812/0918 29011KT CAVOK"
    },
    {
      "icao": "LATI",
      "alert": "OK",
      "vis_m": 9999,
      "fzfg": false,
      "metar_trigger": false,
      "taf_trigger": false,
      "metar": "METAR LATI 081250Z 28006KT 210V340 CAVOK 32/16 Q1011 NOSIG",
      "taf": "TAF LATI 081100Z 0812/0912 31012KT CAVOK TX34/0912Z TN18/0904Z"
    },
    {
      "icao": "LBPD",
      "alert": "OK",
      "vis_m": 9999,
      "fzfg": false,
      "metar_trigger": false,
      "taf_trigger": false,
      "metar": "METAR LBPD 081300Z AUTO 30010KT 260V330 9999 NCD 33/09 Q1008 NOSIG",
      "taf": "TAF LBPD 081100Z 0812/0912 29012KT 9999 SCT070"
    },
    {
      "icao": "LBSF",
      "alert": "OK",
      "vis_m": 9999,
      "fzfg": false,
      "metar_trigger": false,
      "taf_trigger": false,
      "metar": "METAR LBSF 081300Z 03013KT 9999 SCT077 BKN089 26/10 Q1012 WS ALL RWY TEMPO 5000 TSRA FEW030CB",
      "taf": "TAF LBSF 081100Z 0812/0912 32012KT 9999 SCT060"
    },
    {
      "icao": "LBWN",
      "alert": "OK",
      "vis_m": 9999,
      "fzfg": false,
      "metar_trigger": false,
      "taf_trigger": false,
      "metar": "METAR LBWN 081300Z AUTO 25012KT 210V270 9999 NSC 32/15 Q1007 NOSIG",
      "taf": "TAF LBWN 081100Z 0812/0912 26010KT 9999 SCT040"
    },
    {
      "icao": "LCLK",
      "alert": "OK",
      "vis_m": 9999,
      "fzfg": false,
      "metar_trigger": false,
      "taf_trigger": false,
      "metar": "METAR LCLK 081300Z 21020KT 9999 FEW035 31/23 Q1006 NOSIG",
      "taf": "TAF LCLK 081130Z 0812/0912 20019KT 8000 FEW013"
    },
    {
      "icao": "LCPH",
      "alert": "OK",
      "vis_m": 9999,
      "fzfg": false,
      "metar_trigger": false,
      "taf_trigger": false,
      "metar": "METAR LCPH 081300Z 25007KT 9999 FEW017 30/23 Q1007 NOSIG",
      "taf": "TAF LCPH 081130Z 0812/0912 23010KT 9999 FEW015"
    },
    {
      "icao": "LEAL",
      "alert": "OK",
      "vis_m": 9999,
      "fzfg": false,
      "metar_trigger": false,
      "taf_trigger": false,
      "metar": "METAR LEAL 081300Z 19009KT 150V240 CAVOK 35/15 Q1016 NOSIG",
      "taf": "TAF LEAL 081100Z 0812/0912 18010KT CAVOK TX38/0812Z TN25/0906Z"
    },
    {
      "icao": "LEBB",
      "alert": "OK",
      "vis_m": 9999,
      "fzfg": false,
      "metar_trigger": false,
      "taf_trigger": false,
      "metar": "METAR LEBB 081300Z VRB05KT 9999 SCT027 29/21 Q1018 NOSIG",
      "taf": "TAF LEBB 081100Z 0812/0912 33008KT 9999 SCT020 TX29/0912Z TN18/0904Z"
    },
    {
      "icao": "LEBL",
      "alert": "OK",
      "vis_m": 9999,
      "fzfg": false,
      "metar_trigger": false,
      "taf_trigger": false,
      "metar": "METAR LEBL 081300Z 21009KT CAVOK 35/14 Q1015 NOSIG",
      "taf": "TAF LEBL 081100Z 0812/0912 VRB04KT CAVOK TX33/0813Z TN26/0906Z"
    },
    {
      "icao": "LECH",
      "alert": "OK",
      "vis_m": 9999,
      "fzfg": false,
      "metar_trigger": false,
      "taf_trigger": false,
      "metar": "METAR LECH 081300Z AUTO 13011KT 100V160 CAVOK 36/12 Q1017",
      "taf": "TAF LECH 081100Z 0812/0912 VRB03KT CAVOK TX39/0812Z TN20/0906Z"
    },
    {
      "icao": "LEMD",
      "alert": "OK",
      "vis_m": 9999,
      "fzfg": false,
      "metar_trigger": false,
      "taf_trigger": false,
      "metar": "METAR LEMD 081300Z 20008KT 090V260 CAVOK 38/05 Q1019 NOSIG",
      "taf": "TAF LEMD 081100Z 0812/0918 24010KT CAVOK TX40/0816Z TN19/0905Z"
    },
    {
      "icao": "LEMG",
      "alert": "OK",
      "vis_m": 9999,
      "fzfg": false,
      "metar_trigger": false,
      "taf_trigger": false,
      "metar": "METAR LEMG 081300Z 14009KT 100V170 CAVOK 32/10 Q1017 NOSIG",
      "taf": "TAF LEMG 081100Z 0812/0912 13010KT CAVOK TX35/0814Z TN23/0905Z"
    },
    {
      "icao": "LEVC",
      "alert": "OK",
      "vis_m": 9999,
      "fzfg": false,
      "metar_trigger": false,
      "taf_trigger": false,
      "metar": "METAR LEVC 081300Z 13011KT 090V150 CAVOK 37/13 Q1014 NOSIG",
      "taf": "TAF LEVC 081100Z 0812/0912 08010KT CAVOK TX39/0814Z TN23/0906Z"
    },
    {
      "icao": "LEXJ",
      "alert": "OK",
      "vis_m": 9999,
      "fzfg": false,
      "metar_trigger": false,
      "taf_trigger": false,
      "metar": "METAR LEXJ 081300Z 06003KT 9999 OVC025 24/19 Q1019",
      "taf": "TAF LEXJ 080800Z 0809/0909 02008KT 9999 SCT015 TX25/0813Z TN20/0903Z"
    },
    {
      "icao": "LEZG",
      "alert": "OK",
      "vis_m": 9999,
      "fzfg": false,
      "metar_trigger": false,
      "taf_trigger": false,
      "metar": "METAR LEZG 081300Z 34003KT CAVOK 38/10 Q1016 NOSIG",
      "taf": "TAF LEZG 081100Z 0812/0912 31008KT CAVOK TX42/0815Z TN24/0906Z"
    },
    {
      "icao": "LEZL",
      "alert": "OK",
      "vis_m": 9999,
      "fzfg": false,
      "metar_trigger": false,
      "taf_trigger": false,
      "metar": "METAR LEZL 081300Z 23005KT 150V320 CAVOK 39/06 Q1015 NOSIG",
      "taf": "TAF LEZL 080800Z 0809/0909 VRB02KT CAVOK TX41/0815Z TN19/0905Z"
    },
    {
      "icao": "LFBD",
      "alert": "OK",
      "vis_m": 9999,
      "fzfg": false,
      "metar_trigger": false,
      "taf_trigger": false,
      "metar": "METAR LFBD 081300Z AUTO VRB03KT CAVOK 35/17 Q1017 NOSIG",
      "taf": "TAF LFBD 081100Z 0812/0918 29005KT CAVOK TX38/0815Z TN20/0905Z"
    },
    {
      "icao": "LFLL",
      "alert": "OK",
      "vis_m": 9999,
      "fzfg": false,
      "metar_trigger": false,
      "taf_trigger": false,
      "metar": "METAR LFLL 081300Z 36012KT 310V030 CAVOK 34/07 Q1016 NOSIG",
      "taf": "TAF LFLL 081100Z 0812/0918 35010KT CAVOK"
    },
    {
      "icao": "LFLS",
      "alert": "OK",
      "vis_m": 9999,
      "fzfg": false,
      "metar_trigger": false,
      "taf_trigger": false,
      "metar": "METAR LFLS 081300Z AUTO 32014KT 290V350 CAVOK 35/02 Q1017 TEMPO 35015G25KT",
      "taf": "TAF LFLS 080800Z 0809/0909 35012KT CAVOK"
    },
    {
      "icao": "LFMN",
      "alert": "OK",
      "vis_m": 9999,
      "fzfg": false,
      "metar_trigger": false,
      "taf_trigger": false,
      "metar": "METAR LFMN 081300Z 12007KT 9999 FEW018 28/22 Q1012 NOSIG",
      "taf": "TAF LFMN 080800Z 0809/0915 12007KT 9999 FEW020"
    },
    {
      "icao": "LFOB",
      "alert": "OK",
      "vis_m": 9999,
      "fzfg": false,
      "metar_trigger": false,
      "taf_trigger": false,
      "metar": "METAR LFOB 081300Z AUTO 36007G20KT 300V050 CAVOK 32/16 Q1018 NOSIG",
      "taf": "TAF LFOB 081100Z 0812/0912 VRB04KT CAVOK"
    },
    {
      "icao": "LFPO",
      "alert": "OK",
      "vis_m": 9999,
      "fzfg": false,
      "metar_trigger": false,
      "taf_trigger": false,
      "metar": "METAR LFPO 081300Z 36007KT 290V050 CAVOK 32/11 Q1018 NOSIG",
      "taf": "TAF LFPO 081100Z 0812/0918 03006KT CAVOK"
    },
    {
      "icao": "LFSB",
      "alert": "OK",
      "vis_m": 9999,
      "fzfg": false,
      "metar_trigger": false,
      "taf_trigger": false,
      "metar": "METAR LFSB 081300Z AUTO VRB01KT 9999 FEW008 BKN140 30/12 Q1017 NOSIG",
      "taf": "TAF LFSB 081100Z 0812/0912 36007KT CAVOK"
    },
    {
      "icao": "LGAV",
      "alert": "OK",
      "vis_m": 9999,
      "fzfg": false,
      "metar_trigger": false,
      "taf_trigger": false,
      "metar": "METAR LGAV 081250Z 10008KT 050V120 9999 FEW025 34/10 Q1010 NOSIG",
      "taf": "TAF LGAV 081100Z 0812/0912 VRB03KT 9999 FEW025"
    },
    {
      "icao": "LGTS",
      "alert": "OK",
      "vis_m": 9999,
      "fzfg": false,
      "metar_trigger": false,
      "taf_trigger": false,
      "metar": "METAR LGTS 081250Z 25006KT 9999 FEW025 33/16 Q1008 NOSIG",
      "taf": "TAF LGTS 081100Z 0812/0912 VRB03KT 9999 FEW030"
    },
    {
      "icao": "LHBP",
      "alert": "OK",
      "vis_m": 9999,
      "fzfg": false,
      "metar_trigger": false,
      "taf_trigger": false,
      "metar": "METAR LHBP 081300Z 30018G28KT CAVOK 27/11 Q1010 NOSIG",
      "taf": "TAF LHBP 081115Z 0812/0912 31017G30KT 9999 FEW045 BKN090"
    },
    {
      "icao": "LHDC",
      "alert": "OK",
      "vis_m": 9999,
      "fzfg": false,
      "metar_trigger": false,
      "taf_trigger": false,
      "metar": "METAR LHDC 081245Z AUTO VRB07KT CAVOK 27/12 Q1008 NOSIG",
      "taf": "TAF LHDC 081115Z 0812/0821 31008KT CAVOK"
    },
    {
      "icao": "LIBD",
      "alert": "OK",
      "vis_m": 9999,
      "fzfg": false,
      "metar_trigger": false,
      "taf_trigger": false,
      "metar": "METAR LIBD 081250Z 06010KT CAVOK 32/15 Q1011",
      "taf": "TAF LIBD 081100Z 0812/0912 08010KT CAVOK"
    },
    {
      "icao": "LIBG",
      "alert": "OK",
      "vis_m": 9999,
      "fzfg": false,
      "metar_trigger": false,
      "taf_trigger": false,
      "metar": "METAR LIBG 081250Z AUTO 22007KT 180V270 9999 NCD 34/13 Q1011",
      "taf": "TAF LIBG 081100Z 0812/0912 VRB04KT CAVOK"
    },
    {
      "icao": "LIBP",
      "alert": "OK",
      "vis_m": 9999,
      "fzfg": false,
      "metar_trigger": false,
      "taf_trigger": false,
      "metar": "METAR LIBP 081250Z AUTO 09008KT 050V130 9999 NCD 34/14 Q1010",
      "taf": "TAF LIBP 081100Z 0812/0912 08010KT CAVOK"
    },
    {
      "icao": "LIBR",
      "alert": "OK",
      "vis_m": 9999,
      "fzfg": false,
      "metar_trigger": false,
      "taf_trigger": false,
      "metar": "METAR LIBR 081250Z 07007KT CAVOK 29/18 Q1011",
      "taf": "TAF LIBR 081100Z 0812/0912 04010KT CAVOK"
    },
    {
      "icao": "LICA",
      "alert": "OK",
      "vis_m": 9999,
      "fzfg": false,
      "metar_trigger": false,
      "taf_trigger": false,
      "metar": "METAR LICA 081250Z AUTO 24014KT 9999 FEW023/// 29/22 Q1014",
      "taf": "TAF LICA 081100Z 0812/0912 27014KT 9999 SCT020"
    },
    {
      "icao": "LICC",
      "alert": "OK",
      "vis_m": 9999,
      "fzfg": false,
      "metar_trigger": false,
      "taf_trigger": false,
      "metar": "METAR LICC 081250Z 07014KT CAVOK 31/19 Q1012",
      "taf": "TAF LICC 081100Z 0812/0912 09012KT CAVOK"
    },
    {
      "icao": "LICJ",
      "alert": "OK",
      "vis_m": 9999,
      "fzfg": false,
      "metar_trigger": false,
      "taf_trigger": false,
      "metar": "METAR LICJ 081250Z 30008KT CAVOK 28/23 Q1015",
      "taf": "TAF LICJ 081100Z 0812/0912 30012KT CAVOK"
    },
    {
      "icao": "LIMC",
      "alert": "OK",
      "vis_m": 9999,
      "fzfg": false,
      "metar_trigger": false,
      "taf_trigger": false,
      "metar": "METAR LIMC 081250Z 24008KT 200V290 CAVOK 35/10 Q1011 NOSIG",
      "taf": "TAF LIMC 081100Z 0812/0918 VRB05KT CAVOK"
    },
    {
      "icao": "LIME",
      "alert": "OK",
      "vis_m": 9999,
      "fzfg": false,
      "metar_trigger": false,
      "taf_trigger": false,
      "metar": "METAR LIME 081250Z 27015KT CAVOK 36/05 Q1010 NOSIG",
      "taf": "TAF LIME 081100Z 0812/0912 28010KT CAVOK"
    },
    {
      "icao": "LIMF",
      "alert": "OK",
      "vis_m": 9999,
      "fzfg": false,
      "metar_trigger": false,
      "taf_trigger": false,
      "metar": "METAR LIMF 081250Z 25005KT 150V310 CAVOK 37/10 Q1010",
      "taf": "TAF LIMF 081100Z 0812/0912 VRB05KT CAVOK"
    },
    {
      "icao": "LIMJ",
      "alert": "OK",
      "vis_m": 9999,
      "fzfg": false,
      "metar_trigger": false,
      "taf_trigger": false,
      "metar": "METAR LIMJ 081250Z 17004KT 9999 SCT020 27/23 Q1012",
      "taf": "TAF LIMJ 081100Z 0812/0912 19010KT 9999 SCT020"
    },
    {
      "icao": "LIPE",
      "alert": "OK",
      "vis_m": 9999,
      "fzfg": false,
      "metar_trigger": false,
      "taf_trigger": false,
      "metar": "METAR LIPE 081250Z 30005KT 260V010 CAVOK 35/13 Q1009",
      "taf": "TAF LIPE 081100Z 0812/0912 30010KT CAVOK"
    },
    {
      "icao": "LIPH",
      "alert": "OK",
      "vis_m": 9999,
      "fzfg": false,
      "metar_trigger": false,
      "taf_trigger": false,
      "metar": "METAR LIPH 081250Z 08005KT 050V130 CAVOK 29/20 Q1010",
      "taf": "TAF LIPH 081100Z 0812/0912 VRB05KT CAVOK"
    },
    {
      "icao": "LIPQ",
      "alert": "OK",
      "vis_m": 9999,
      "fzfg": false,
      "metar_trigger": false,
      "taf_trigger": false,
      "metar": "METAR LIPQ 081250Z AUTO 04003KT 340V070 9999 FEW140/// BKN220/// 29/17 Q1010",
      "taf": "TAF LIPQ 081100Z 0812/0912 VRB05KT 9999 FEW080"
    },
    {
      "icao": "LIPR",
      "alert": "OK",
      "vis_m": 9999,
      "fzfg": false,
      "metar_trigger": false,
      "taf_trigger": false,
      "metar": "METAR LIPR 081250Z 08010KT 050V110 9999 FEW030 31/20 Q1010",
      "taf": "TAF LIPR 081100Z 0812/0912 08010KT CAVOK"
    },
    {
      "icao": "LIPX",
      "alert": "OK",
      "vis_m": 9999,
      "fzfg": false,
      "metar_trigger": false,
      "taf_trigger": false,
      "metar": "METAR LIPX 081250Z VRB03KT CAVOK 33/21 Q1009",
      "taf": "TAF LIPX 081100Z 0812/0912 VRB05KT CAVOK"
    },
    {
      "icao": "LIPY",
      "alert": "OK",
      "vis_m": 9999,
      "fzfg": false,
      "metar_trigger": false,
      "taf_trigger": false,
      "metar": "METAR LIPY 081250Z AUTO 06011KT 9999 FEW230/// 31/20 Q1010",
      "taf": "TAF LIPY 081100Z 0812/0912 06010KT CAVOK"
    },
    {
      "icao": "LIPZ",
      "alert": "OK",
      "vis_m": 9999,
      "fzfg": false,
      "metar_trigger": false,
      "taf_trigger": false,
      "metar": "METAR LIPZ 081250Z 09007KT CAVOK 29/22 Q1010 NOSIG",
      "taf": "TAF LIPZ 081100Z 0812/0918 14010KT CAVOK"
    },
    {
      "icao": "LIRF",
      "alert": "OK",
      "vis_m": 9999,
      "fzfg": false,
      "metar_trigger": false,
      "taf_trigger": false,
      "metar": "METAR LIRF 081250Z 24009KT CAVOK 30/22 Q1013 NOSIG",
      "taf": "TAF LIRF 081100Z 0812/0918 25012KT 9999 FEW015"
    },
    {
      "icao": "LIRN",
      "alert": "OK",
      "vis_m": 9999,
      "fzfg": false,
      "metar_trigger": false,
      "taf_trigger": false,
      "metar": "METAR LIRN 081250Z 19010KT 9999 FEW025 29/21 Q1014 NOSIG",
      "taf": "TAF LIRN 081100Z 0812/0912 24012KT 9999 SCT020"
    },
    {
      "icao": "LIRP",
      "alert": "OK",
      "vis_m": 9999,
      "fzfg": false,
      "metar_trigger": false,
      "taf_trigger": false,
      "metar": "METAR LIRP 081245Z 25009KT CAVOK 30/20 Q1013 NOSIG",
      "taf": "TAF LIRP 081100Z 0812/0912 27010KT 9999 FEW030"
    },
    {
      "icao": "LIRZ",
      "alert": "OK",
      "vis_m": 9999,
      "fzfg": false,
      "metar_trigger": false,
      "taf_trigger": false,
      "metar": "METAR LIRZ 081250Z AUTO 28008KT 230V320 9999 NCD 34/16 Q1012",
      "taf": "TAF LIRZ 081100Z 0812/0912 26012KT CAVOK"
    },
    {
      "icao": "LJLJ",
      "alert": "OK",
      "vis_m": 9999,
      "fzfg": false,
      "metar_trigger": false,
      "taf_trigger": false,
      "metar": "METAR LJLJ 081300Z 10006KT 080V140 9999 FEW080 BKN110 26/16 Q1012 NOSIG",
      "taf": "TAF LJLJ 081100Z 0812/0912 12004KT CAVOK"
    },
    {
      "icao": "LKMT",
      "alert": "OK",
      "vis_m": 9999,
      "fzfg": false,
      "metar_trigger": false,
      "taf_trigger": false,
      "metar": "METAR LKMT 081300Z 35011KT 310V020 CAVOK 23/03 Q1011 NOSIG",
      "taf": "TAF LKMT 081100Z 0812/0912 01009KT CAVOK"
    },
    {
      "icao": "LKPR",
      "alert": "OK",
      "vis_m": 9999,
      "fzfg": false,
      "metar_trigger": false,
      "taf_trigger": false,
      "metar": "METAR LKPR 081300Z 31017KT CAVOK 22/06 Q1014 NOSIG",
      "taf": "TAF LKPR 081100Z 0812/0918 29012KT CAVOK"
    },
    {
      "icao": "LLBG",
      "alert": "OK",
      "vis_m": 9999,
      "fzfg": false,
      "metar_trigger": false,
      "taf_trigger": false,
      "metar": "METAR LLBG 081250Z 28012KT 9999 FEW040 30/18 Q1008 NOSIG",
      "taf": "TAF LLBG 081104Z 0812/0912 27012KT 9999 FEW035 TX30/0812Z TN24/0904Z"
    },
    {
      "icao": "LMML",
      "alert": "OK",
      "vis_m": 9999,
      "fzfg": false,
      "metar_trigger": false,
      "taf_trigger": false,
      "metar": "METAR LMML 081245Z 25012KT 230V300 9999 FEW020 31/18 Q1015 NOSIG",
      "taf": "TAF LMML 081100Z 0812/0912 29010KT 9999 FEW020"
    },
    {
      "icao": "LOWW",
      "alert": "OK",
      "vis_m": 9999,
      "fzfg": false,
      "metar_trigger": false,
      "taf_trigger": false,
      "metar": "METAR LOWW 081250Z 32013KT 9999 FEW015 SCT030 20/17 Q1013 RESHRA TEMPO 4000 SHRA",
      "taf": "TAF LOWW 081115Z 0812/0918 30012KT 9999 BKN050 TX26/0915Z TN15/0903Z"
    },
    {
      "icao": "LPFR",
      "alert": "OK",
      "vis_m": 9999,
      "fzfg": false,
      "metar_trigger": false,
      "taf_trigger": false,
      "metar": "METAR LPFR 081300Z 18008KT CAVOK 30/16 Q1016",
      "taf": "TAF LPFR 081112Z 0812/0912 18007KT CAVOK"
    },
    {
      "icao": "LPMA",
      "alert": "OK",
      "vis_m": 9999,
      "fzfg": false,
      "metar_trigger": false,
      "taf_trigger": false,
      "metar": "METAR LPMA 081300Z 15005KT 120V180 9999 SCT015 25/19 Q1021",
      "taf": "TAF LPMA 081112Z 0812/0912 VRB05KT 9999 SCT015"
    },
    {
      "icao": "LPPR",
      "alert": "OK",
      "vis_m": 9999,
      "fzfg": false,
      "metar_trigger": false,
      "taf_trigger": false,
      "metar": "METAR LPPR 081300Z 31009KT 280V340 CAVOK 20/16 Q1018",
      "taf": "TAF LPPR 081112Z 0812/0912 30010KT CAVOK"
    },
    {
      "icao": "LPPS",
      "alert": "OK",
      "vis_m": 9999,
      "fzfg": false,
      "metar_trigger": false,
      "taf_trigger": false,
      "metar": "METAR LPPS 081300Z 32008KT 270V040 9999 FEW015 26/19 Q1021",
      "taf": "TAF LPPS 081112Z 0812/0918 32008KT 9999 SCT015"
    },
    {
      "icao": "LPPT",
      "alert": "OK",
      "vis_m": 9999,
      "fzfg": false,
      "metar_trigger": false,
      "taf_trigger": false,
      "metar": "METAR LPPT 081300Z 09006KT 060V150 CAVOK 31/16 Q1017 NOSIG",
      "taf": "TAF LPPT 081112Z 0812/0918 VRB05KT CAVOK"
    },
    {
      "icao": "LQBK",
      "alert": "OK",
      "vis_m": 9999,
      "fzfg": false,
      "metar_trigger": false,
      "taf_trigger": false,
      "metar": "METAR LQBK 081300Z 06008KT 020V090 CAVOK 27/14 Q1012 NOSIG",
      "taf": "TAF LQBK 081100Z 0812/0912 04006KT CAVOK TX30/0814Z TN16/0903Z"
    },
    {
      "icao": "LQSA",
      "alert": "OK",
      "vis_m": 9999,
      "fzfg": false,
      "metar_trigger": false,
      "taf_trigger": false,
      "metar": "METAR LQSA 081300Z VRB02KT CAVOK 25/15 Q1013 NOSIG",
      "taf": "TAF LQSA 081100Z 0812/0912 VRB02KT CAVOK TX26/0814Z TN14/0903Z"
    },
    {
      "icao": "LQTZ",
      "alert": "OK",
      "vis_m": 9999,
      "fzfg": false,
      "metar_trigger": false,
      "taf_trigger": false,
      "metar": "METAR LQTZ 081300Z 05008KT 020V080 9999 FEW060 25/16 Q1013",
      "taf": "TAF LQTZ 081100Z 0812/0912 VRB02KT 9999 SCT060 TX27/0812Z TN13/0903Z"
    },
    {
      "icao": "LRBC",
      "alert": "OK",
      "vis_m": 9999,
      "fzfg": false,
      "metar_trigger": false,
      "taf_trigger": false,
      "metar": "METAR LRBC 081300Z 28004KT 250V310 9999 SCT059 22/15 Q1007",
      "taf": "TAF LRBC 081100Z 0812/0821 VRB04KT 9999 SCT045"
    },
    {
      "icao": "LRBS",
      "alert": "OK",
      "vis_m": 9999,
      "fzfg": false,
      "metar_trigger": false,
      "taf_trigger": false,
      "metar": "METAR LRBS 081300Z 32008G18KT 230V030 9999 FEW062CB 28/16 Q1008 RETS TEMPO 5000 TSRA",
      "taf": "TAF LRBS 081100Z 0812/0912 28010KT CAVOK"
    },
    {
      "icao": "LRBV",
      "alert": "OK",
      "vis_m": 9999,
      "fzfg": false,
      "metar_trigger": false,
      "taf_trigger": false,
      "metar": "METAR LRBV 081300Z 26011KT 220V290 9999 FEW048 21/12 Q1010",
      "taf": "TAF LRBV 081100Z 0812/0821 28012KT 9999 SCT035 BKN065"
    },
    {
      "icao": "LRCL",
      "alert": "OK",
      "vis_m": 7000,
      "fzfg": false,
      "metar_trigger": false,
      "taf_trigger": false,
      "metar": "METAR LRCL 081300Z 32012KT 7000 SHRA FEW021 SCT038CB BKN040 16/14 Q1009",
      "taf": "TAF LRCL 081100Z 0812/0821 30008KT 9999 SCT055"
    },
    {
      "icao": "LRCV",
      "alert": "OK",
      "vis_m": 9999,
      "fzfg": false,
      "metar_trigger": false,
      "taf_trigger": false,
      "metar": "METAR LRCV 081300Z 32003KT CAVOK 24/16 Q1010",
      "taf": "TAF LRCV 081100Z 0812/0821 30012KT 9999 SCT045"
    },
    {
      "icao": "LRIA",
      "alert": "OK",
      "vis_m": 9999,
      "fzfg": false,
      "metar_trigger": false,
      "taf_trigger": false,
      "metar": "METAR LRIA 081300Z 23008KT 180V270 9999 FEW045CB 23/14 Q1007",
      "taf": "TAF LRIA 081100Z 0812/0821 VRB04KT CAVOK"
    },
    {
      "icao": "LROP",
      "alert": "OK",
      "vis_m": 9999,
      "fzfg": false,
      "metar_trigger": false,
      "taf_trigger": false,
      "metar": "METAR LROP 081300Z 30018KT 9999 FEW050CB 27/16 Q1008 RETS TEMPO 5000 TSRA",
      "taf": "TAF LROP 081100Z 0812/0912 28010KT CAVOK"
    },
    {
      "icao": "LRSB",
      "alert": "OK",
      "vis_m": 9999,
      "fzfg": false,
      "metar_trigger": false,
      "taf_trigger": false,
      "metar": "METAR LRSB 081300Z VRB02KT 9999 FEW070 21/17 Q1010",
      "taf": "TAF LRSB 081100Z 0812/0912 32012KT 9999 SCT045"
    },
    {
      "icao": "LRSM",
      "alert": "OK",
      "vis_m": 9999,
      "fzfg": false,
      "metar_trigger": false,
      "taf_trigger": false,
      "metar": "METAR LRSM 081300Z 01006KT 310V060 CAVOK 24/12 Q1008",
      "taf": "TAF LRSM 081100Z 0812/0821 28010KT CAVOK"
    },
    {
      "icao": "LRSV",
      "alert": "OK",
      "vis_m": 9999,
      "fzfg": false,
      "metar_trigger": false,
      "taf_trigger": false,
      "metar": "METAR LRSV 081300Z 19003KT 140V260 9999 -SHRA FEW035CB 16/14 Q1008",
      "taf": "TAF LRSV 081100Z 0812/0821 25007KT 9999 SCT040CB"
    },
    {
      "icao": "LRTM",
      "alert": "OK",
      "vis_m": 9999,
      "fzfg": false,
      "metar_trigger": false,
      "taf_trigger": false,
      "metar": "METAR LRTM 081300Z 21014KT 9999 FEW042 FEW048CB 22/17 Q1008",
      "taf": "TAF LRTM 081100Z 0812/0821 21010KT 9999 SCT045"
    },
    {
      "icao": "LRTR",
      "alert": "OK",
      "vis_m": 9999,
      "fzfg": false,
      "metar_trigger": false,
      "taf_trigger": false,
      "metar": "METAR LRTR 081300Z 26013KT 9999 FEW030 25/13 Q1011",
      "taf": "TAF LRTR 081100Z 0812/0912 24010KT CAVOK"
    },
    {
      "icao": "LTAC",
      "alert": "OK",
      "vis_m": 9999,
      "fzfg": false,
      "metar_trigger": false,
      "taf_trigger": false,
      "metar": "METAR LTAC 081250Z 32008KT 250V360 9999 SCT040 28/07 Q1011 NOSIG RMK RWY21C 28009G20KT 240V310 RWY03L 28007KT 230V330 RWY21R 25008KT 200V290 RWY03R 28004KT 180V340 RWY21L 26009KT 190V320",
      "taf": "TAF LTAC 081040Z 0812/0912 VRB02KT 9999 SCT040"
    },
    {
      "icao": "LTFM",
      "alert": "OK",
      "vis_m": 9999,
      "fzfg": false,
      "metar_trigger": false,
      "taf_trigger": false,
      "metar": "METAR LTFM 081250Z 05010KT 020V090 CAVOK 30/10 Q1009 NOSIG RMK RWY17L 08010KT RWY34L 07009KT 030V100 RWY16R 07010KT 040V100 RWY36 08010KT 020V090 RWY18 07010KT",
      "taf": "TAF LTFM 081040Z 0812/0918 07010KT CAVOK"
    },
    {
      "icao": "LUKK",
      "alert": "OK",
      "vis_m": 9999,
      "fzfg": false,
      "metar_trigger": false,
      "taf_trigger": false,
      "metar": "METAR LUKK 081300Z 29012KT 260V320 CAVOK 25/13 Q1006 TEMPO 30016G26KT",
      "taf": "TAF LUKK 081101Z 0812/0912 30012KT 9999 SCT040"
    },
    {
      "icao": "LWOH",
      "alert": "OK",
      "vis_m": 9999,
      "fzfg": false,
      "metar_trigger": false,
      "taf_trigger": false,
      "metar": "METAR LWOH 081250Z 20004KT 160V260 9999 FEW040TCU SCT050 26/17 Q1014",
      "taf": "TAF LWOH 081135Z 0812/0912 16008KT 9999 FEW040"
    },
    {
      "icao": "LWSK",
      "alert": "OK",
      "vis_m": 9999,
      "fzfg": false,
      "metar_trigger": false,
      "taf_trigger": false,
      "metar": "METAR LWSK 081250Z 28004KT 170V340 9999 FEW050 35/13 Q1009 NOSIG",
      "taf": "TAF LWSK 081135Z 0812/0912 36010KT 9999 SCT040"
    },
    {
      "icao": "LYBE",
      "alert": "OK",
      "vis_m": 9999,
      "fzfg": false,
      "metar_trigger": false,
      "taf_trigger": false,
      "metar": "METAR LYBE 081300Z 36006KT 330V040 CAVOK 24/15 Q1013 NOSIG",
      "taf": "TAF LYBE 081100Z 0812/0912 04008KT CAVOK TX26/0812Z TN15/0903Z"
    },
    {
      "icao": "LYNI",
      "alert": "OK",
      "vis_m": 9999,
      "fzfg": false,
      "metar_trigger": false,
      "taf_trigger": false,
      "metar": "METAR LYNI 081300Z 33010KT 280V020 9999 FEW040 28/12 Q1011 NOSIG",
      "taf": "TAF LYNI 081100Z 0812/0912 32006KT CAVOK TX32/0812Z TN15/0903Z"
    },
    {
      "icao": "LYPG",
      "alert": "OK",
      "vis_m": 9999,
      "fzfg": false,
      "metar_trigger": false,
      "taf_trigger": false,
      "metar": "METAR LYPG 081300Z 18009KT 150V210 9999 FEW050 32/17 Q1010 NOSIG",
      "taf": "TAF LYPG 081100Z 0812/0912 18009KT 9999 SCT040 SCT080 TX33/0813Z TN24/0903Z"
    },
    {
      "icao": "LZIB",
      "alert": "OK",
      "vis_m": 9999,
      "fzfg": false,
      "metar_trigger": false,
      "taf_trigger": false,
      "metar": "METAR LZIB 081300Z 29013KT 9999 BKN039 25/14 Q1011 NOSIG",
      "taf": "TAF LZIB 081115Z 0812/0912 30010KT 9999 SCT040"
    },
    {
      "icao": "LZKZ",
      "alert": "OK",
      "vis_m": 9999,
      "fzfg": false,
      "metar_trigger": false,
      "taf_trigger": false,
      "metar": "METAR LZKZ 081300Z 02012KT CAVOK 23/06 Q1008 NOSIG",
      "taf": ""
    },
    {
      "icao": "LZTT",
      "alert": "OK",
      "vis_m": 9999,
      "fzfg": false,
      "metar_trigger": false,
      "taf_trigger": false,
      "metar": "METAR LZTT 081300Z 27017KT 9999 FEW063 20/03 Q1010 NOSIG",
      "taf": "TAF LZTT 081115Z 0812/0912 26016KT 9999 FEW050"
    },
    {
      "icao": "OEJN",
      "alert": "OK",
      "vis_m": 9999,
      "fzfg": false,
      "metar_trigger": false,
      "taf_trigger": false,
      "metar": "METAR OEJN 081300Z 30014KT CAVOK 37/22 Q1003 NOSIG",
      "taf": "TAF OEJN 081100Z 0812/0918 35012KT 7000 NSC"
    },
    {
      "icao": "OEMA",
      "alert": "OK",
      "vis_m": 9999,
      "fzfg": false,
      "metar_trigger": false,
      "taf_trigger": false,
      "metar": "METAR OEMA 081300Z 31010KT 9999 FEW045 44/05 Q1007 NOSIG",
      "taf": "TAF OEMA 081100Z 0812/0918 32015KT CAVOK"
    },
    {
      "icao": "OJAI",
      "alert": "OK",
      "vis_m": 5000,
      "fzfg": false,
      "metar_trigger": false,
      "taf_trigger": false,
      "metar": "METAR OJAI 081300Z 28012KT 5000 DU NSC 30/12 Q1012 NOSIG",
      "taf": "TAF OJAI 081100Z 0812/0918 30008KT 5000 HZ NSC"
    },
    {
      "icao": "OMAA",
      "alert": "OK",
      "vis_m": 9999,
      "fzfg": false,
      "metar_trigger": false,
      "taf_trigger": false,
      "metar": "METAR OMAA 081300Z 31010KT CAVOK 38/26 Q0994 NOSIG",
      "taf": "TAF OMAA 081100Z 0812/0918 31010KT 8000 NSC"
    },
    {
      "icao": "OMDB",
      "alert": "OK",
      "vis_m": 9999,
      "fzfg": false,
      "metar_trigger": false,
      "taf_trigger": false,
      "metar": "METAR OMDB 081300Z 32012KT CAVOK 38/26 Q0994 NOSIG",
      "taf": "TAF OMDB 081100Z 0812/0918 31012KT 8000 NSC"
    },
    {
      "icao": "UAAA",
      "alert": "OK",
      "vis_m": 9999,
      "fzfg": false,
      "metar_trigger": false,
      "taf_trigger": false,
      "metar": "METAR UAAA 081300Z 17002MPS 9999 SCT050CB BKN100 29/12 Q1007 NOSIG",
      "taf": "TAF UAAA 080507Z 0806/0906 26003G08MPS 9999 SCT050CB BKN100 TX31/0810Z TN19/0902Z"
    },
    {
      "icao": "UBBB",
      "alert": "OK",
      "vis_m": 9999,
      "fzfg": false,
      "metar_trigger": false,
      "taf_trigger": false,
      "metar": "METAR UBBB 081300Z 35020KT 9999 SCT018 26/20 Q1007 NOSIG",
      "taf": "TAF UBBB 081044Z 0812/0912 33016G26KT 9999 SCT030 TX27/0812Z TN22/0801Z"
    },
    {
      "icao": "UDSG",
      "alert": "OK",
      "vis_m": 9999,
      "fzfg": false,
      "metar_trigger": false,
      "taf_trigger": false,
      "metar": "METAR UDSG 081300Z 07007KT 030V100 9999 SCT046CB 23/13 Q1013 NOSIG",
      "taf": "TAF UDSG 081100Z 0812/0912 03006KT 9999 SCT040"
    },
    {
      "icao": "UDYZ",
      "alert": "OK",
      "vis_m": 9999,
      "fzfg": false,
      "metar_trigger": false,
      "taf_trigger": false,
      "metar": "METAR UDYZ 081300Z VRB01KT 9999 VCTS BKN043CB 26/15 Q1008 NOSIG",
      "taf": "TAF UDYZ 081100Z 0812/0912 22006KT 9999 SCT040"
    },
    {
      "icao": "UGKO",
      "alert": "OK",
      "vis_m": 9999,
      "fzfg": false,
      "metar_trigger": false,
      "taf_trigger": false,
      "metar": "METAR UGKO 081300Z 24009KT 9999 SCT029 BKN065 25/18 Q1008 NOSIG",
      "taf": "TAF UGKO 081100Z 0812/0912 26007KT 9999 SCT020 BKN050 TX31/0911Z TN18/0902Z"
    }
  ]
}