{
  "ts_utc": "2026-03-19T12:32:06Z",
  "threshold_m": 150,
  "source": "stations_override.txt (ICAO list) + aviationweather.gov (METAR/TAF raw)",
  "station_count": 159,
  "stations": [
    {
      "icao": "BIKF",
      "alert": "OK",
      "vis_m": 4000,
      "fzfg": false,
      "metar_trigger": false,
      "taf_trigger": false,
      "metar": "METAR BIKF 191200Z 20036KT 4000 -DZRA BR OVC006 07/06 Q0990",
      "taf": "TAF BIKF 191053Z 1912/2012 22037G50KT 7000 RA BKN010 OVC020 TX07/1912Z TNM01/2008Z"
    },
    {
      "icao": "BKPR",
      "alert": "OK",
      "vis_m": 9999,
      "fzfg": false,
      "metar_trigger": false,
      "taf_trigger": false,
      "metar": "METAR BKPR 191230Z 01018KT 9999 SCT050 BKN085 10/M02 Q1013 NOSIG",
      "taf": "TAF BKPR 191130Z 1912/2012 04015KT 9999 SCT050 BKN090"
    },
    {
      "icao": "EBCI",
      "alert": "OK",
      "vis_m": 9999,
      "fzfg": false,
      "metar_trigger": false,
      "taf_trigger": false,
      "metar": "METAR EBCI 191220Z 04012KT 010V070 CAVOK 15/03 Q1025 NOSIG",
      "taf": "TAF EBCI 191104Z 1912/2018 05007KT CAVOK"
    },
    {
      "icao": "EDDB",
      "alert": "OK",
      "vis_m": 9999,
      "fzfg": false,
      "metar_trigger": false,
      "taf_trigger": false,
      "metar": "METAR EDDB 191220Z AUTO VRB02KT CAVOK 15/01 Q1025 NOSIG",
      "taf": "TAF EDDB 191100Z 1912/2012 35005KT CAVOK"
    },
    {
      "icao": "EDDH",
      "alert": "OK",
      "vis_m": 9999,
      "fzfg": false,
      "metar_trigger": false,
      "taf_trigger": false,
      "metar": "METAR EDDH 191220Z AUTO VRB04KT CAVOK 15/03 Q1026 NOSIG",
      "taf": "TAF EDDH 191100Z 1912/2018 29004KT CAVOK"
    },
    {
      "icao": "EDDK",
      "alert": "OK",
      "vis_m": 9999,
      "fzfg": false,
      "metar_trigger": false,
      "taf_trigger": false,
      "metar": "METAR EDDK 191220Z AUTO 03010KT 350V070 CAVOK 17/M02 Q1024 NOSIG",
      "taf": "TAF EDDK 191100Z 1912/2018 36007KT CAVOK"
    },
    {
      "icao": "EDDN",
      "alert": "OK",
      "vis_m": 9999,
      "fzfg": false,
      "metar_trigger": false,
      "taf_trigger": false,
      "metar": "METAR EDDN 191220Z AUTO 07010KT 010V110 CAVOK 13/M01 Q1023 NOSIG",
      "taf": "TAF EDDN 191100Z 1912/2012 07008KT CAVOK"
    },
    {
      "icao": "EDDS",
      "alert": "OK",
      "vis_m": 9999,
      "fzfg": false,
      "metar_trigger": false,
      "taf_trigger": false,
      "metar": "METAR EDDS 191220Z AUTO 03008KT 010V070 CAVOK 14/M00 Q1021 NOSIG",
      "taf": "TAF EDDS 191100Z 1912/2012 06008KT CAVOK"
    },
    {
      "icao": "EDFH",
      "alert": "OK",
      "vis_m": 9999,
      "fzfg": false,
      "metar_trigger": false,
      "taf_trigger": false,
      "metar": "METAR EDFH 191220Z 06006KT 350V100 CAVOK 12/01 Q1024",
      "taf": "TAF EDFH 191100Z 1912/2012 07007KT CAVOK"
    },
    {
      "icao": "EDJA",
      "alert": "OK",
      "vis_m": 9999,
      "fzfg": false,
      "metar_trigger": false,
      "taf_trigger": false,
      "metar": "METAR EDJA 191220Z 06012KT CAVOK 09/02 Q1021",
      "taf": "TAF EDJA 191100Z 1912/1921 05010KT CAVOK"
    },
    {
      "icao": "EDLW",
      "alert": "OK",
      "vis_m": 9999,
      "fzfg": false,
      "metar_trigger": false,
      "taf_trigger": false,
      "metar": "METAR EDLW 191220Z 07006KT 010V110 CAVOK 14/01 Q1025",
      "taf": "TAF EDLW 191100Z 1912/2012 04005KT CAVOK"
    },
    {
      "icao": "EDNY",
      "alert": "OK",
      "vis_m": 9999,
      "fzfg": false,
      "metar_trigger": false,
      "taf_trigger": false,
      "metar": "METAR EDNY 191220Z VRB07KT CAVOK 13/01 Q1020",
      "taf": "TAF EDNY 191100Z 1912/1921 02008KT CAVOK"
    },
    {
      "icao": "EDSB",
      "alert": "OK",
      "vis_m": 9999,
      "fzfg": false,
      "metar_trigger": false,
      "taf_trigger": false,
      "metar": "METAR EDSB 191220Z 02014KT CAVOK 15/01 Q1022",
      "taf": "TAF EDSB 191100Z 1912/2012 03013KT CAVOK"
    },
    {
      "icao": "EETN",
      "alert": "OK",
      "vis_m": 6000,
      "fzfg": false,
      "metar_trigger": false,
      "taf_trigger": false,
      "metar": "METAR EETN 191220Z 23008KT 6000 OVC005 02/02 Q1018 TEMPO 3000 DZ BR OVC004",
      "taf": "TAF EETN 191130Z 1912/2012 23010KT 8000 OVC007"
    },
    {
      "icao": "EFTU",
      "alert": "OK",
      "vis_m": 9999,
      "fzfg": false,
      "metar_trigger": false,
      "taf_trigger": false,
      "metar": "METAR EFTU 191220Z AUTO 30007KT 270V340 CAVOK 08/02 Q1017",
      "taf": "TAF EFTU 191123Z 1912/2012 30007KT CAVOK"
    },
    {
      "icao": "EGBB",
      "alert": "OK",
      "vis_m": 9999,
      "fzfg": false,
      "metar_trigger": false,
      "taf_trigger": false,
      "metar": "METAR EGBB 191220Z 10009KT 070V130 CAVOK 15/03 Q1027",
      "taf": "TAF EGBB 191053Z 1912/2012 08006KT CAVOK"
    },
    {
      "icao": "EGGP",
      "alert": "OK",
      "vis_m": 9999,
      "fzfg": false,
      "metar_trigger": false,
      "taf_trigger": false,
      "metar": "METAR EGGP 191220Z 12004KT 080V150 CAVOK 14/02 Q1027",
      "taf": "TAF EGGP 191058Z 1912/2012 10004KT CAVOK"
    },
    {
      "icao": "EGGW",
      "alert": "OK",
      "vis_m": 9999,
      "fzfg": false,
      "metar_trigger": false,
      "taf_trigger": false,
      "metar": "METAR EGGW 191220Z AUTO 08008KT 9999 NCD 15/04 Q1027",
      "taf": "TAF EGGW 191059Z 1912/2012 07007KT CAVOK"
    },
    {
      "icao": "EGKK",
      "alert": "OK",
      "vis_m": 9999,
      "fzfg": false,
      "metar_trigger": false,
      "taf_trigger": false,
      "metar": "METAR EGKK 191220Z 07011KT CAVOK 16/05 Q1026",
      "taf": "TAF EGKK 191059Z 1912/2018 07011KT CAVOK"
    },
    {
      "icao": "EGNM",
      "alert": "OK",
      "vis_m": 9999,
      "fzfg": false,
      "metar_trigger": false,
      "taf_trigger": false,
      "metar": "METAR EGNM 191220Z 05007KT 9999 FEW018 13/08 Q1028",
      "taf": "TAF EGNM 191059Z 1912/2012 07005KT 9999 FEW030"
    },
    {
      "icao": "EGPD",
      "alert": "OK",
      "vis_m": 9999,
      "fzfg": false,
      "metar_trigger": false,
      "taf_trigger": false,
      "metar": "METAR EGPD 191220Z COR 11006KT 060V140 9999 FEW035 11/03 Q1030 NOSIG",
      "taf": "TAF EGPD 191057Z 1912/2012 VRB03KT 9999 FEW040"
    },
    {
      "icao": "EGPF",
      "alert": "OK",
      "vis_m": 9999,
      "fzfg": false,
      "metar_trigger": false,
      "taf_trigger": false,
      "metar": "METAR EGPF 191220Z AUTO 07008KT 9999 NCD 14/07 Q1029",
      "taf": "TAF EGPF 191056Z 1912/2012 08006KT 9999 SCT040"
    },
    {
      "icao": "EHBK",
      "alert": "OK",
      "vis_m": 9999,
      "fzfg": false,
      "metar_trigger": false,
      "taf_trigger": false,
      "metar": "METAR EHBK 191225Z AUTO 05008KT 010V130 9999 NCD 15/03 Q1025 NOSIG",
      "taf": "TAF EHBK 191106Z 1912/2018 05006KT CAVOK"
    },
    {
      "icao": "EHEH",
      "alert": "OK",
      "vis_m": 9999,
      "fzfg": false,
      "metar_trigger": false,
      "taf_trigger": false,
      "metar": "METAR EHEH 191225Z AUTO 05007KT 020V120 9999 NCD 16/02 Q1026 BLU NOSIG RMK TREND REMOTE BY EHWX",
      "taf": "TAF EHEH 191129Z 1912/2018 05003KT CAVOK"
    },
    {
      "icao": "EKBI",
      "alert": "OK",
      "vis_m": 9999,
      "fzfg": false,
      "metar_trigger": false,
      "taf_trigger": false,
      "metar": "METAR EKBI 191220Z AUTO 31009KT 9999 FEW015/// OVC036/// 11/07 Q1026",
      "taf": "TAF EKBI 191127Z 1912/2012 30008KT 9999 BKN005"
    },
    {
      "icao": "EKCH",
      "alert": "OK",
      "vis_m": 9999,
      "fzfg": false,
      "metar_trigger": false,
      "taf_trigger": false,
      "metar": "METAR EKCH 191220Z AUTO 22004KT 180V250 9999 OVC050/// 11/03 Q1025 NOSIG",
      "taf": "TAF EKCH 191127Z 1912/2012 26004KT 9999 BKN045"
    },
    {
      "icao": "ENAL",
      "alert": "OK",
      "vis_m": 9999,
      "fzfg": false,
      "metar_trigger": false,
      "taf_trigger": false,
      "metar": "METAR ENAL 191220Z 19005KT 140V240 9999 VCSH FEW010 SCT025 BKN033 08/05 Q1024",
      "taf": "TAF ENAL 191100Z 1912/1921 24008KT 9999 -SHRA FEW010 SCT020 BKN040"
    },
    {
      "icao": "ENBR",
      "alert": "OK",
      "vis_m": 9999,
      "fzfg": false,
      "metar_trigger": false,
      "taf_trigger": false,
      "metar": "METAR ENBR 191220Z 19007KT 9999 VCSH SCT014 BKN024 08/05 Q1027 TEMPO SCT008 BKN014TCU RMK WIND 1200FT 27010KT",
      "taf": "TAF ENBR 191100Z 1912/2012 18008KT 9999 FEW012 BKN020"
    },
    {
      "icao": "ENGM",
      "alert": "OK",
      "vis_m": 9999,
      "fzfg": false,
      "metar_trigger": false,
      "taf_trigger": false,
      "metar": "METAR ENGM 191220Z 01004KT 270V070 CAVOK 12/01 Q1022 NOSIG",
      "taf": "TAF ENGM 191100Z 1912/2012 35008KT CAVOK"
    },
    {
      "icao": "ENHD",
      "alert": "OK",
      "vis_m": 9999,
      "fzfg": false,
      "metar_trigger": false,
      "taf_trigger": false,
      "metar": "METAR ENHD 191220Z 30005KT 270V330 9999 FEW004 SCT006 BKN011 08/06 Q1027",
      "taf": "TAF ENHD 191100Z 1912/1921 33008KT 9999 FEW003 BKN008"
    },
    {
      "icao": "ENTC",
      "alert": "OK",
      "vis_m": 9999,
      "fzfg": false,
      "metar_trigger": false,
      "taf_trigger": false,
      "metar": "METAR ENTC 191220Z 29021KT 9999 -SHRA BKN017 04/M00 Q1000 TEMPO 27030G40KT 4500 SHRASNGS RMK WIND 2600FT 30044G58KT",
      "taf": "TAF ENTC 191100Z 1912/2012 27015KT 9999 BKN020"
    },
    {
      "icao": "ENTO",
      "alert": "OK",
      "vis_m": 9999,
      "fzfg": false,
      "metar_trigger": false,
      "taf_trigger": false,
      "metar": "METAR ENTO 191220Z 34005KT 300V360 CAVOK 12/M00 Q1023 NOSIG",
      "taf": "TAF ENTO 191100Z 1912/2012 35005KT CAVOK"
    },
    {
      "icao": "ENVA",
      "alert": "OK",
      "vis_m": 9999,
      "fzfg": false,
      "metar_trigger": false,
      "taf_trigger": false,
      "metar": "METAR ENVA 191220Z 29013KT 9999 SCT020 BKN031 06/02 Q1022 RESN NOSIG RMK WIND 670FT 29013KT",
      "taf": "TAF ENVA 191100Z 1912/2012 28018KT 9999 -SHRA FEW020 BKN035"
    },
    {
      "icao": "ENZV",
      "alert": "OK",
      "vis_m": 9999,
      "fzfg": false,
      "metar_trigger": false,
      "taf_trigger": false,
      "metar": "METAR ENZV 191220Z 31008KT 9999 BKN010 08/05 Q1028 TEMPO BKN008",
      "taf": ""
    },
    {
      "icao": "EPGD",
      "alert": "OK",
      "vis_m": 9999,
      "fzfg": false,
      "metar_trigger": false,
      "taf_trigger": false,
      "metar": "METAR EPGD 191200Z 30008KT 9999 BKN045 10/M01 Q1024",
      "taf": "TAF EPGD 191130Z 1912/2012 29007KT 9999 SCT048"
    },
    {
      "icao": "EPKK",
      "alert": "OK",
      "vis_m": 9999,
      "fzfg": false,
      "metar_trigger": false,
      "taf_trigger": false,
      "metar": "METAR EPKK 191200Z 09006KT 030V140 9999 BKN060 12/M04 Q1023",
      "taf": "TAF EPKK 191130Z 1912/2012 VRB02KT 9999 SCT050"
    },
    {
      "icao": "EPKT",
      "alert": "OK",
      "vis_m": 9999,
      "fzfg": false,
      "metar_trigger": false,
      "taf_trigger": false,
      "metar": "METAR EPKT 191200Z VRB03KT 9999 SCT043TCU 12/00 Q1023",
      "taf": "TAF EPKT 191130Z 1912/2012 VRB02KT 9999 SCT045"
    },
    {
      "icao": "EPLB",
      "alert": "OK",
      "vis_m": 9999,
      "fzfg": false,
      "metar_trigger": false,
      "taf_trigger": false,
      "metar": "METAR EPLB 191200Z 05007KT 9999 FEW048 11/M00 Q1023",
      "taf": "TAF EPLB 191130Z 1912/2012 05006KT CAVOK"
    },
    {
      "icao": "EPMO",
      "alert": "OK",
      "vis_m": 9999,
      "fzfg": false,
      "metar_trigger": false,
      "taf_trigger": false,
      "metar": "METAR EPMO 191200Z VRB05KT 9999 SCT040 12/01 Q1024",
      "taf": "TAF EPMO 191130Z 1912/2012 35005KT 9999 SCT040"
    },
    {
      "icao": "EPPO",
      "alert": "OK",
      "vis_m": 9999,
      "fzfg": false,
      "metar_trigger": false,
      "taf_trigger": false,
      "metar": "METAR EPPO 191200Z 30004KT 240V340 CAVOK 13/M00 Q1025",
      "taf": "TAF EPPO 191130Z 1912/2012 32004KT CAVOK"
    },
    {
      "icao": "EPRA",
      "alert": "OK",
      "vis_m": 9999,
      "fzfg": false,
      "metar_trigger": false,
      "taf_trigger": false,
      "metar": "METAR EPRA 191200Z VRB03KT CAVOK 12/01 Q1023",
      "taf": "TAF EPRA 191130Z 1912/1921 VRB03KT CAVOK"
    },
    {
      "icao": "EPRZ",
      "alert": "OK",
      "vis_m": 9999,
      "fzfg": false,
      "metar_trigger": false,
      "taf_trigger": false,
      "metar": "METAR EPRZ 191200Z 36009KT CAVOK 11/M02 Q1022",
      "taf": "TAF EPRZ 191130Z 1912/2012 35010KT CAVOK"
    },
    {
      "icao": "EPSC",
      "alert": "OK",
      "vis_m": 9999,
      "fzfg": false,
      "metar_trigger": false,
      "taf_trigger": false,
      "metar": "METAR EPSC 191200Z 29007KT 240V310 CAVOK 13/00 Q1025",
      "taf": "TAF EPSC 191130Z 1912/2012 VRB03KT CAVOK"
    },
    {
      "icao": "EPSY",
      "alert": "OK",
      "vis_m": 9999,
      "fzfg": false,
      "metar_trigger": false,
      "taf_trigger": false,
      "metar": "METAR EPSY 191200Z VRB02KT CAVOK 12/M05 Q1024",
      "taf": "TAF EPSY 191130Z 1912/1921 33006KT CAVOK"
    },
    {
      "icao": "EPWA",
      "alert": "OK",
      "vis_m": 9999,
      "fzfg": false,
      "metar_trigger": false,
      "taf_trigger": false,
      "metar": "METAR EPWA 191200Z 31004KT 270V030 9999 FEW045TCU SCT047 12/01 Q1024 NOSIG",
      "taf": "TAF EPWA 191130Z 1912/2012 36005KT 9999 BKN045"
    },
    {
      "icao": "EPWR",
      "alert": "OK",
      "vis_m": 9999,
      "fzfg": false,
      "metar_trigger": false,
      "taf_trigger": false,
      "metar": "METAR EPWR 191200Z 02005KT 340V110 9999 SCT040 13/03 Q1024",
      "taf": "TAF EPWR 191130Z 1912/2012 02005KT CAVOK"
    },
    {
      "icao": "ESGG",
      "alert": "OK",
      "vis_m": 9999,
      "fzfg": false,
      "metar_trigger": false,
      "taf_trigger": false,
      "metar": "METAR ESGG 191220Z 29005KT 260V330 9999 SCT006 BKN062 07/05 Q1023",
      "taf": "TAF ESGG 191130Z 1912/2012 24010KT 5000 BR OVC005"
    },
    {
      "icao": "ESKN",
      "alert": "OK",
      "vis_m": 9999,
      "fzfg": false,
      "metar_trigger": false,
      "taf_trigger": false,
      "metar": "METAR ESKN 191220Z 31011KT 9999 SCT018 08/04 Q1021",
      "taf": "TAF ESKN 191130Z 1912/2012 30008KT 9999 SCT017"
    },
    {
      "icao": "ESMS",
      "alert": "OK",
      "vis_m": 9999,
      "fzfg": false,
      "metar_trigger": false,
      "taf_trigger": false,
      "metar": "METAR ESMS 191220Z 24008KT CAVOK 11/02 Q1024",
      "taf": "TAF ESMS 191127Z 1912/2012 30006KT 9999 BKN045"
    },
    {
      "icao": "ESSA",
      "alert": "OK",
      "vis_m": 9999,
      "fzfg": false,
      "metar_trigger": false,
      "taf_trigger": false,
      "metar": "METAR ESSA 191220Z 04008KT CAVOK 10/01 Q1020 NOSIG",
      "taf": "TAF ESSA 191130Z 1912/2012 34006KT CAVOK"
    },
    {
      "icao": "EYKA",
      "alert": "OK",
      "vis_m": 9999,
      "fzfg": false,
      "metar_trigger": false,
      "taf_trigger": false,
      "metar": "METAR EYKA 191220Z 28005KT 240V010 CAVOK 09/M02 Q1023",
      "taf": "TAF EYKA 191100Z 1912/2012 VRB04KT 8000 SCT045"
    },
    {
      "icao": "EYPA",
      "alert": "OK",
      "vis_m": 9999,
      "fzfg": false,
      "metar_trigger": false,
      "taf_trigger": false,
      "metar": "METAR EYPA 191220Z 21007KT 170V260 9999 BKN038 05/01 Q1023",
      "taf": "TAF EYPA 191100Z 1912/2012 VRB05KT 8000 SCT015 BKN030"
    },
    {
      "icao": "EYVI",
      "alert": "OK",
      "vis_m": 9999,
      "fzfg": false,
      "metar_trigger": false,
      "taf_trigger": false,
      "metar": "METAR EYVI 191220Z 26006KT 230V310 CAVOK 10/01 Q1022 NOSIG",
      "taf": "TAF EYVI 191110Z 1912/2012 VRB03KT 9000 SCT040"
    },
    {
      "icao": "GCFV",
      "alert": "OK",
      "vis_m": 9999,
      "fzfg": false,
      "metar_trigger": false,
      "taf_trigger": false,
      "metar": "METAR GCFV 191200Z 20014KT 170V250 9999 FEW025 SCT035 19/12 Q1004 RERA",
      "taf": "TAF GCFV 190800Z 1909/2009 21020KT 9999 SCT030 TX22/1914Z TN16/2006Z"
    },
    {
      "icao": "GCLP",
      "alert": "OK",
      "vis_m": 9999,
      "fzfg": false,
      "metar_trigger": false,
      "taf_trigger": false,
      "metar": "METAR GCLP 191200Z 22021G31KT 190V250 9999 FEW030 BKN042 20/12 Q1003 NOSIG",
      "taf": ""
    },
    {
      "icao": "GCTS",
      "alert": "OK",
      "vis_m": 9999,
      "fzfg": false,
      "metar_trigger": false,
      "taf_trigger": false,
      "metar": "METAR GCTS 191200Z 28017KT 9999 FEW035TCU SCT040 BKN075 17/11 Q1003 NOSIG",
      "taf": "TAF GCTS 190800Z 1909/2009 28018KT 9999 SCT030 BKN100 TX23/1914Z TN16/2006Z"
    },
    {
      "icao": "GMAD",
      "alert": "OK",
      "vis_m": 6000,
      "fzfg": false,
      "metar_trigger": false,
      "taf_trigger": false,
      "metar": "METAR GMAD 191200Z 25011KT 6000 SCT020 SCT083 23/13 Q1005 NOSIG",
      "taf": "TAF GMAD 191100Z 1912/2018 28016KT 8000 SCT020 SCT080"
    },
    {
      "icao": "GMMN",
      "alert": "OK",
      "vis_m": 9999,
      "fzfg": false,
      "metar_trigger": false,
      "taf_trigger": false,
      "metar": "METAR GMMN 191200Z 02007KT 330V080 9999 SCT014TCU BKN020 19/15 Q1005 NOSIG",
      "taf": "TAF GMMN 191100Z 1912/2018 02006KT 320V080 9999 SCT014 BKN020"
    },
    {
      "icao": "GMMX",
      "alert": "OK",
      "vis_m": 8000,
      "fzfg": false,
      "metar_trigger": false,
      "taf_trigger": false,
      "metar": "METAR GMMX 191200Z 32006KT 240V030 8000 SCT023 SCT200 21/13 Q1003 NOSIG",
      "taf": "TAF GMMX 190500Z 1906/2012 04006KT 8000 SCT080"
    },
    {
      "icao": "HEGN",
      "alert": "OK",
      "vis_m": 1000,
      "fzfg": false,
      "metar_trigger": false,
      "taf_trigger": false,
      "metar": "METAR HEGN 191200Z 30016KT 1000 R34/1400 R16/1000 SA NSC 24/05 Q1006 NOSIG",
      "taf": "TAF HEGN 191100Z 1912/2018 29015G25KT 6000 NSC"
    },
    {
      "icao": "HEMA",
      "alert": "OK",
      "vis_m": 500,
      "fzfg": false,
      "metar_trigger": false,
      "taf_trigger": false,
      "metar": "METAR HEMA 191200Z 25016KT 0500 R15/0500 SS NSC 27/00 Q1006 NOSIG",
      "taf": "TAF HEMA 191100Z 1912/2018 29015G25KT 6000 NSC"
    },
    {
      "icao": "HESH",
      "alert": "OK",
      "vis_m": 1000,
      "fzfg": false,
      "metar_trigger": false,
      "taf_trigger": false,
      "metar": "METAR HESH 191200Z 27010KT 1000 R22/1000 R22L/1000 25/05 Q1005 NOSIG",
      "taf": "TAF HESH 191100Z 1912/2018 28010G20KT 6000 NSC"
    },
    {
      "icao": "HESX",
      "alert": "OK",
      "vis_m": 9999,
      "fzfg": false,
      "metar_trigger": false,
      "taf_trigger": false,
      "metar": "METAR HESX 191200Z 34014KT 9999 SCT020 22/09 Q1006 NOSIG",
      "taf": "TAF HESX 191100Z 1912/2018 26013KT 9999 SCT025"
    },
    {
      "icao": "LATI",
      "alert": "OK",
      "vis_m": 9999,
      "fzfg": false,
      "metar_trigger": false,
      "taf_trigger": false,
      "metar": "METAR LATI 191220Z 05009KT 020V100 9999 SCT098 18/02 Q1008 NOSIG",
      "taf": "TAF LATI 191100Z 1912/2012 12010KT 9999 FEW100 TX20/2012Z TN04/2005Z"
    },
    {
      "icao": "LBPD",
      "alert": "OK",
      "vis_m": 9999,
      "fzfg": false,
      "metar_trigger": false,
      "taf_trigger": false,
      "metar": "METAR LBPD 191230Z AUTO 18003KT 140V230 9999 OVC064/// 09/M01 Q1016 NOSIG",
      "taf": "TAF LBPD 191100Z 1912/2012 VRB04KT 9999 SCT040 BKN060"
    },
    {
      "icao": "LBSF",
      "alert": "OK",
      "vis_m": 9999,
      "fzfg": false,
      "metar_trigger": false,
      "taf_trigger": false,
      "metar": "METAR LBSF 191230Z 11008KT 9999 OVC050 07/M04 Q1015 NOSIG",
      "taf": "TAF LBSF 191100Z 1912/2012 05014KT 9999 SCT025 OVC040"
    },
    {
      "icao": "LBWN",
      "alert": "OK",
      "vis_m": 9999,
      "fzfg": false,
      "metar_trigger": false,
      "taf_trigger": false,
      "metar": "METAR LBWN 191230Z 04015G25KT 010V070 9999 BKN044 09/M01 Q1016 NOSIG",
      "taf": "TAF LBWN 191100Z 1912/2012 02014KT 9999 BKN025"
    },
    {
      "icao": "LCLK",
      "alert": "OK",
      "vis_m": 9999,
      "fzfg": false,
      "metar_trigger": false,
      "taf_trigger": false,
      "metar": "METAR LCLK 191200Z 00000KT 9999 FEW020 SCT050 16/15 Q0999 NOSIG",
      "taf": "TAF LCLK 191130Z 1912/2012 07010KT 9999 FEW030 SCT050"
    },
    {
      "icao": "LCPH",
      "alert": "OK",
      "vis_m": 9999,
      "fzfg": false,
      "metar_trigger": false,
      "taf_trigger": false,
      "metar": "METAR LCPH 191200Z 25008KT 9999 FEW025CB 20/15 Q0999 NOSIG",
      "taf": "TAF LCPH 191130Z 1912/2012 25010KT 9999 FEW030 SCT050"
    },
    {
      "icao": "LEAL",
      "alert": "OK",
      "vis_m": 9999,
      "fzfg": false,
      "metar_trigger": false,
      "taf_trigger": false,
      "metar": "METAR LEAL 191200Z 08020KT CAVOK 18/11 Q1014 NOSIG",
      "taf": "TAF LEAL 191100Z 1912/2012 08018KT 9999 FEW020 TX18/1912Z TN11/2007Z"
    },
    {
      "icao": "LEBB",
      "alert": "OK",
      "vis_m": 9999,
      "fzfg": false,
      "metar_trigger": false,
      "taf_trigger": false,
      "metar": "METAR LEBB 191200Z 12012KT 070V170 CAVOK 21/08 Q1012 NOSIG",
      "taf": "TAF LEBB 191100Z 1912/2012 14009KT CAVOK TX20/1914Z TN08/2006Z"
    },
    {
      "icao": "LEBL",
      "alert": "OK",
      "vis_m": 9000,
      "fzfg": false,
      "metar_trigger": false,
      "taf_trigger": false,
      "metar": "METAR LEBL 191200Z 06012KT 9000 SCT028 SCT036 BKN064 15/09 Q1018 NOSIG",
      "taf": "TAF LEBL 191100Z 1912/2012 07012KT 9999 FEW030 TX17/1912Z TN08/2006Z"
    },
    {
      "icao": "LECH",
      "alert": "OK",
      "vis_m": 9000,
      "fzfg": false,
      "metar_trigger": false,
      "taf_trigger": false,
      "metar": "METAR LECH 191200Z AUTO 09011KT 050V120 9000 BKN031 OVC040 13/07 Q1017",
      "taf": "TAF LECH 191100Z 1912/2012 08008KT 9999 SCT020 BKN040 TX17/1912Z TN06/2007Z"
    },
    {
      "icao": "LEMD",
      "alert": "OK",
      "vis_m": 9999,
      "fzfg": false,
      "metar_trigger": false,
      "taf_trigger": false,
      "metar": "METAR LEMD 191200Z 08003KT CAVOK 15/03 Q1013 NOSIG",
      "taf": "TAF LEMD 191100Z 1912/2018 VRB04KT CAVOK TX20/1915Z TN05/2007Z"
    },
    {
      "icao": "LEMG",
      "alert": "OK",
      "vis_m": 9999,
      "fzfg": false,
      "metar_trigger": false,
      "taf_trigger": false,
      "metar": "METAR LEMG 191200Z 17012KT 120V210 9999 FEW020 18/11 Q1010 NOSIG",
      "taf": "TAF LEMG 191100Z 1912/2012 13011KT 9999 SCT020 TX20/1913Z TN11/2006Z"
    },
    {
      "icao": "LEVC",
      "alert": "OK",
      "vis_m": 9999,
      "fzfg": false,
      "metar_trigger": false,
      "taf_trigger": false,
      "metar": "METAR LEVC 191200Z 09013KT 060V120 9999 SCT028 BKN042 15/08 Q1017 NOSIG",
      "taf": "TAF LEVC 191100Z 1912/2012 07014KT 9999 FEW020 BKN035 TX17/1912Z TN10/2007Z"
    },
    {
      "icao": "LEXJ",
      "alert": "OK",
      "vis_m": 9999,
      "fzfg": false,
      "metar_trigger": false,
      "taf_trigger": false,
      "metar": "METAR LEXJ 191200Z 05005KT 350V100 CAVOK 17/09 Q1010",
      "taf": "TAF LEXJ 190800Z 1909/2009 VRB03KT CAVOK TX21/1913Z TN07/2007Z"
    },
    {
      "icao": "LEZG",
      "alert": "OK",
      "vis_m": 9999,
      "fzfg": false,
      "metar_trigger": false,
      "taf_trigger": false,
      "metar": "METAR LEZG 191200Z 10015KT 080V140 9999 SCT035 15/06 Q1016 NOSIG",
      "taf": "TAF LEZG 191100Z 1912/2012 11012KT 9999 SCT025 TX18/1914Z TN06/2007Z"
    },
    {
      "icao": "LEZL",
      "alert": "OK",
      "vis_m": 9999,
      "fzfg": false,
      "metar_trigger": false,
      "taf_trigger": false,
      "metar": "METAR LEZL 191200Z 29002KT CAVOK 21/09 Q1007 NOSIG",
      "taf": "TAF LEZL 190800Z 1909/2009 08007KT 9999 FEW035 TX24/1915Z TN13/2007Z"
    },
    {
      "icao": "LFBD",
      "alert": "OK",
      "vis_m": 9999,
      "fzfg": false,
      "metar_trigger": false,
      "taf_trigger": false,
      "metar": "METAR LFBD 191200Z AUTO 13015KT CAVOK 18/05 Q1016 TEMPO 10015G25KT",
      "taf": "TAF LFBD 191100Z 1912/2018 11012KT CAVOK TX18/1915Z TN04/2006Z"
    },
    {
      "icao": "LFLL",
      "alert": "OK",
      "vis_m": 9999,
      "fzfg": false,
      "metar_trigger": false,
      "taf_trigger": false,
      "metar": "METAR LFLL 191200Z 29003KT 220V350 CAVOK 14/05 Q1019 NOSIG",
      "taf": "TAF LFLL 191100Z 1912/2018 31003KT CAVOK"
    },
    {
      "icao": "LFLS",
      "alert": "OK",
      "vis_m": 9999,
      "fzfg": false,
      "metar_trigger": false,
      "taf_trigger": false,
      "metar": "METAR LFLS 191200Z AUTO 02006KT 350V050 CAVOK 14/02 Q1019 NOSIG",
      "taf": "TAF LFLS 190800Z 1909/2009 09007KT CAVOK"
    },
    {
      "icao": "LFMN",
      "alert": "OK",
      "vis_m": 9999,
      "fzfg": false,
      "metar_trigger": false,
      "taf_trigger": false,
      "metar": "METAR LFMN 191200Z COR 12017KT 9999 FEW040 17/06 Q1016 NOSIG",
      "taf": ""
    },
    {
      "icao": "LFOB",
      "alert": "OK",
      "vis_m": 9999,
      "fzfg": false,
      "metar_trigger": false,
      "taf_trigger": false,
      "metar": "METAR LFOB 191200Z AUTO 08012KT CAVOK 15/05 Q1023 NOSIG",
      "taf": "TAF LFOB 191100Z 1912/2012 07010KT CAVOK"
    },
    {
      "icao": "LFPO",
      "alert": "OK",
      "vis_m": 9999,
      "fzfg": false,
      "metar_trigger": false,
      "taf_trigger": false,
      "metar": "METAR LFPO 191200Z 05010KT 020V090 CAVOK 15/04 Q1022 NOSIG",
      "taf": "TAF LFPO 191100Z 1912/2018 07008KT CAVOK"
    },
    {
      "icao": "LFSB",
      "alert": "OK",
      "vis_m": 9999,
      "fzfg": false,
      "metar_trigger": false,
      "taf_trigger": false,
      "metar": "METAR LFSB 191200Z AUTO 01006KT 340V050 CAVOK 13/03 Q1021 NOSIG",
      "taf": "TAF LFSB 191100Z 1912/2012 35005KT CAVOK"
    },
    {
      "icao": "LGAV",
      "alert": "OK",
      "vis_m": 9999,
      "fzfg": false,
      "metar_trigger": false,
      "taf_trigger": false,
      "metar": "METAR LGAV 191220Z 02020G31KT 9999 FEW018 BKN025 11/05 Q1009 NOSIG",
      "taf": "TAF LGAV 191100Z 1912/2012 01016KT 9999 FEW018 SCT025 BKN070"
    },
    {
      "icao": "LGTS",
      "alert": "OK",
      "vis_m": 9999,
      "fzfg": false,
      "metar_trigger": false,
      "taf_trigger": false,
      "metar": "METAR LGTS 191220Z 23008KT 9999 SCT025 12/03 Q1013 NOSIG",
      "taf": "TAF LGTS 191100Z 1912/2012 VRB03KT 9999 SCT025"
    },
    {
      "icao": "LHBP",
      "alert": "OK",
      "vis_m": 9999,
      "fzfg": false,
      "metar_trigger": false,
      "taf_trigger": false,
      "metar": "METAR LHBP 191230Z 09011KT CAVOK 12/M03 Q1021 NOSIG",
      "taf": "TAF LHBP 191115Z 1912/2012 07014KT CAVOK"
    },
    {
      "icao": "LHDC",
      "alert": "OK",
      "vis_m": 9999,
      "fzfg": false,
      "metar_trigger": false,
      "taf_trigger": false,
      "metar": "METAR LHDC 191145Z AUTO 03010KT 360V070 CAVOK 12/M02 Q1020 NOSIG",
      "taf": "TAF LHDC 191115Z 1912/1921 04009KT CAVOK"
    },
    {
      "icao": "LIBD",
      "alert": "OK",
      "vis_m": 9999,
      "fzfg": false,
      "metar_trigger": false,
      "taf_trigger": false,
      "metar": "METAR LIBD 191220Z 03009KT 360V070 9999 FEW015 SCT030 13/06 Q1010",
      "taf": "TAF LIBD 191100Z 1912/2012 VRB05KT 9999 SCT030"
    },
    {
      "icao": "LIBG",
      "alert": "OK",
      "vis_m": 9999,
      "fzfg": false,
      "metar_trigger": false,
      "taf_trigger": false,
      "metar": "METAR LIBG 191150Z 03011KT 9999 -RA BKN030 11/08 Q1009",
      "taf": "TAF LIBG 191100Z 1912/1921 01012KT 9999 SCT025"
    },
    {
      "icao": "LIBP",
      "alert": "OK",
      "vis_m": 9999,
      "fzfg": false,
      "metar_trigger": false,
      "taf_trigger": false,
      "metar": "METAR LIBP 191220Z AUTO 36011KT 320V030 9999 FEW100/// SCT120/// 14/05 Q1014",
      "taf": "TAF LIBP 191100Z 1912/2012 VRB05KT 9999 FEW050"
    },
    {
      "icao": "LIBR",
      "alert": "OK",
      "vis_m": 9999,
      "fzfg": false,
      "metar_trigger": false,
      "taf_trigger": false,
      "metar": "METAR LIBR 191220Z 04003KT 350V100 CAVOK 13/08 Q1009",
      "taf": "TAF LIBR 191100Z 1912/2012 04010KT 9999 BKN050"
    },
    {
      "icao": "LICA",
      "alert": "OK",
      "vis_m": 9999,
      "fzfg": false,
      "metar_trigger": false,
      "taf_trigger": false,
      "metar": "METAR LICA 191220Z AUTO 28014KT 9999 NCD 12/06 Q1009",
      "taf": "TAF LICA 191100Z 1912/2012 27012KT 8000 FEW030"
    },
    {
      "icao": "LICC",
      "alert": "OK",
      "vis_m": 9999,
      "fzfg": false,
      "metar_trigger": false,
      "taf_trigger": false,
      "metar": "METAR LICC 191220Z 07008KT 9999 SCT050 13/11 Q1009",
      "taf": "TAF LICC 191100Z 1912/2012 09010KT 9999 SCT035"
    },
    {
      "icao": "LICJ",
      "alert": "OK",
      "vis_m": 9999,
      "fzfg": false,
      "metar_trigger": false,
      "taf_trigger": false,
      "metar": "METAR LICJ 191220Z 02012KT 9999 FEW030 14/07 Q1012",
      "taf": "TAF LICJ 191100Z 1912/2012 02013KT 9999 SCT025"
    },
    {
      "icao": "LIMC",
      "alert": "OK",
      "vis_m": 9999,
      "fzfg": false,
      "metar_trigger": false,
      "taf_trigger": false,
      "metar": "METAR LIMC 191220Z VRB06KT CAVOK 17/M00 Q1018 NOSIG",
      "taf": "TAF LIMC 191100Z 1912/2018 23010KT CAVOK"
    },
    {
      "icao": "LIME",
      "alert": "OK",
      "vis_m": 9999,
      "fzfg": false,
      "metar_trigger": false,
      "taf_trigger": false,
      "metar": "METAR LIME 191220Z VRB03KT CAVOK 16/01 Q1018 NOSIG",
      "taf": "TAF LIME 191100Z 1912/2012 24010KT CAVOK"
    },
    {
      "icao": "LIMF",
      "alert": "OK",
      "vis_m": 9999,
      "fzfg": false,
      "metar_trigger": false,
      "taf_trigger": false,
      "metar": "METAR LIMF 191220Z 13005KT 090V190 CAVOK 16/M02 Q1018",
      "taf": "TAF LIMF 191100Z 1912/2012 VRB05KT CAVOK"
    },
    {
      "icao": "LIMJ",
      "alert": "OK",
      "vis_m": 9999,
      "fzfg": false,
      "metar_trigger": false,
      "taf_trigger": false,
      "metar": "METAR LIMJ 191220Z 01011KT 340V050 CAVOK 19/M01 Q1016 WS R28",
      "taf": "TAF LIMJ 191100Z 1912/2012 04008KT CAVOK"
    },
    {
      "icao": "LIPE",
      "alert": "OK",
      "vis_m": 9999,
      "fzfg": false,
      "metar_trigger": false,
      "taf_trigger": false,
      "metar": "METAR LIPE 191220Z 06014KT 9999 FEW060 17/M04 Q1018",
      "taf": "TAF LIPE 191100Z 1912/2012 05013KT CAVOK"
    },
    {
      "icao": "LIPH",
      "alert": "OK",
      "vis_m": 9999,
      "fzfg": false,
      "metar_trigger": false,
      "taf_trigger": false,
      "metar": "METAR LIPH 191220Z 15006KT 100V220 CAVOK 16/02 Q1018",
      "taf": "TAF LIPH 191100Z 1912/2012 VRB05KT CAVOK"
    },
    {
      "icao": "LIPQ",
      "alert": "OK",
      "vis_m": 9999,
      "fzfg": false,
      "metar_trigger": false,
      "taf_trigger": false,
      "metar": "METAR LIPQ 191220Z AUTO 27006KT 250V330 9999 SCT084/// 17/00 Q1017",
      "taf": "TAF LIPQ 191100Z 1912/2012 09012KT CAVOK"
    },
    {
      "icao": "LIPR",
      "alert": "OK",
      "vis_m": 9999,
      "fzfg": false,
      "metar_trigger": false,
      "taf_trigger": false,
      "metar": "METAR LIPR 191220Z 06011KT 9999 FEW040 14/04 Q1017",
      "taf": "TAF LIPR 191100Z 1912/2012 05013KT CAVOK"
    },
    {
      "icao": "LIPX",
      "alert": "OK",
      "vis_m": 9999,
      "fzfg": false,
      "metar_trigger": false,
      "taf_trigger": false,
      "metar": "METAR LIPX 191220Z 20003KT 100V240 CAVOK 18/M01 Q1018",
      "taf": "TAF LIPX 191100Z 1912/2012 VRB05KT CAVOK"
    },
    {
      "icao": "LIPY",
      "alert": "OK",
      "vis_m": 9999,
      "fzfg": false,
      "metar_trigger": false,
      "taf_trigger": false,
      "metar": "METAR LIPY 191220Z AUTO 04012KT 9999 NCD 14/07 Q1016",
      "taf": "TAF LIPY 191100Z 1912/2012 03013KT 9999 BKN040"
    },
    {
      "icao": "LIPZ",
      "alert": "OK",
      "vis_m": 9999,
      "fzfg": false,
      "metar_trigger": false,
      "taf_trigger": false,
      "metar": "METAR LIPZ 191220Z 12007KT 090V160 CAVOK 15/02 Q1018 NOSIG",
      "taf": "TAF LIPZ 191100Z 1912/2018 10010KT CAVOK"
    },
    {
      "icao": "LIRF",
      "alert": "OK",
      "vis_m": 9999,
      "fzfg": false,
      "metar_trigger": false,
      "taf_trigger": false,
      "metar": "METAR LIRF 191220Z VRB03KT 9999 SCT055 18/02 Q1011 NOSIG",
      "taf": "TAF LIRF 191100Z 1912/2018 03010KT 9999 FEW050"
    },
    {
      "icao": "LIRN",
      "alert": "OK",
      "vis_m": 9999,
      "fzfg": false,
      "metar_trigger": false,
      "taf_trigger": false,
      "metar": "METAR LIRN 191220Z 04018KT 9999 SCT050 14/05 Q1011 NOSIG",
      "taf": "TAF LIRN 191100Z 1912/2012 04010KT CAVOK"
    },
    {
      "icao": "LIRP",
      "alert": "OK",
      "vis_m": 9999,
      "fzfg": false,
      "metar_trigger": false,
      "taf_trigger": false,
      "metar": "METAR LIRP 191215Z 06011KT CAVOK 17/M01 Q1015 NOSIG",
      "taf": "TAF LIRP 191100Z 1912/2012 05015KT CAVOK"
    },
    {
      "icao": "LIRZ",
      "alert": "OK",
      "vis_m": 9999,
      "fzfg": false,
      "metar_trigger": false,
      "taf_trigger": false,
      "metar": "METAR LIRZ 191220Z AUTO 03016G26KT 350V060 9999 SCT061/// 14/01 Q1014",
      "taf": "TAF LIRZ 191100Z 1912/2012 03012KT 9999 FEW050"
    },
    {
      "icao": "LJLJ",
      "alert": "OK",
      "vis_m": 9999,
      "fzfg": false,
      "metar_trigger": false,
      "taf_trigger": false,
      "metar": "METAR LJLJ 191200Z 10016KT 9999 FEW069 13/M03 Q1018 NOSIG",
      "taf": "TAF LJLJ 191100Z 1912/2012 09008KT 9999 FEW065"
    },
    {
      "icao": "LKMT",
      "alert": "OK",
      "vis_m": 9999,
      "fzfg": false,
      "metar_trigger": false,
      "taf_trigger": false,
      "metar": "METAR LKMT 191200Z 03013KT CAVOK 12/M01 Q1023 NOSIG",
      "taf": "TAF LKMT 191100Z 1912/2012 02012KT CAVOK"
    },
    {
      "icao": "LKPR",
      "alert": "OK",
      "vis_m": 9999,
      "fzfg": false,
      "metar_trigger": false,
      "taf_trigger": false,
      "metar": "METAR LKPR 191200Z 03007KT 320V100 CAVOK 12/M01 Q1024 NOSIG",
      "taf": "TAF LKPR 191100Z 1912/2018 04004KT CAVOK"
    },
    {
      "icao": "LLBG",
      "alert": "OK",
      "vis_m": 9999,
      "fzfg": false,
      "metar_trigger": false,
      "taf_trigger": false,
      "metar": "METAR LLBG 191220Z 25020G30KT 9999 FEW023 20/13 Q1001 NOSIG",
      "taf": "TAF LLBG 191103Z 1912/2012 24015KT 9999 SCT030 BKN040 TX22/1912Z TN13/2004Z"
    },
    {
      "icao": "LMML",
      "alert": "OK",
      "vis_m": 9999,
      "fzfg": false,
      "metar_trigger": false,
      "taf_trigger": false,
      "metar": "METAR LMML 191215Z 29018KT 9999 FEW034 16/08 Q1010 NOSIG",
      "taf": "TAF LMML 191100Z 1912/2012 32015KT 9999 FEW025"
    },
    {
      "icao": "LOWW",
      "alert": "OK",
      "vis_m": 9999,
      "fzfg": false,
      "metar_trigger": false,
      "taf_trigger": false,
      "metar": "METAR LOWW 191220Z 36008KT 310V040 CAVOK 13/M01 Q1022 NOSIG",
      "taf": "TAF LOWW 191115Z 1912/2018 34006KT CAVOK TX14/1913Z TN02/2004Z"
    },
    {
      "icao": "LPFR",
      "alert": "OK",
      "vis_m": 9999,
      "fzfg": false,
      "metar_trigger": false,
      "taf_trigger": false,
      "metar": "METAR LPFR 191200Z 14014KT 9999 FEW008 FEW018CB BKN045 16/14 Q1007",
      "taf": "TAF LPFR 191100Z 1912/2012 13013KT 9999 SCT015"
    },
    {
      "icao": "LPMA",
      "alert": "OK",
      "vis_m": 9999,
      "fzfg": false,
      "metar_trigger": false,
      "taf_trigger": false,
      "metar": "METAR LPMA 191200Z 21026KT 9999 SCT013 FEW018CB 16/09 Q0994",
      "taf": "TAF LPMA 191100Z 1912/2012 21020G32KT 9999 SCT015"
    },
    {
      "icao": "LPPR",
      "alert": "OK",
      "vis_m": 9999,
      "fzfg": false,
      "metar_trigger": false,
      "taf_trigger": false,
      "metar": "METAR LPPR 191200Z 30004KT CAVOK 19/10 Q1008",
      "taf": "TAF LPPR 191100Z 1912/2012 VRB05KT 9999 SCT030"
    },
    {
      "icao": "LPPS",
      "alert": "OK",
      "vis_m": 9999,
      "fzfg": false,
      "metar_trigger": false,
      "taf_trigger": false,
      "metar": "METAR LPPS 191200Z 21021G33KT 9999 FEW015 16/08 Q0995",
      "taf": "TAF LPPS 191100Z 1912/2018 20015KT 9999 SCT015 SCT030"
    },
    {
      "icao": "LPPT",
      "alert": "OK",
      "vis_m": 9999,
      "fzfg": false,
      "metar_trigger": false,
      "taf_trigger": false,
      "metar": "METAR LPPT 191200Z 16009KT 9999 SCT008 BKN028 15/13 Q1006",
      "taf": "TAF LPPT 191100Z 1912/2018 13010KT 9999 SCT012"
    },
    {
      "icao": "LQBK",
      "alert": "OK",
      "vis_m": 9999,
      "fzfg": false,
      "metar_trigger": false,
      "taf_trigger": false,
      "metar": "METAR LQBK 191200Z 36007KT 320V040 9999 SCT049 12/M00 Q1018 NOSIG",
      "taf": "TAF LQBK 191100Z 1912/2012 34005KT CAVOK TX14/1913Z TN01/2005Z"
    },
    {
      "icao": "LQSA",
      "alert": "OK",
      "vis_m": 9999,
      "fzfg": false,
      "metar_trigger": false,
      "taf_trigger": false,
      "metar": "METAR LQSA 191200Z 07007KT 020V120 9999 BKN055 10/M02 Q1016 NOSIG",
      "taf": "TAF LQSA 191100Z 1912/2012 VRB02KT 9999 BKN055 TX10/1913Z TN01/2005Z"
    },
    {
      "icao": "LQTZ",
      "alert": "OK",
      "vis_m": 9999,
      "fzfg": false,
      "metar_trigger": false,
      "taf_trigger": false,
      "metar": "METAR LQTZ 191200Z 05006KT 010V100 9999 SCT050 BKN060 11/M00 Q1018",
      "taf": "TAF LQTZ 191100Z 1912/2012 11005KT CAVOK TX13/1913Z TNM01/2005Z"
    },
    {
      "icao": "LRBC",
      "alert": "OK",
      "vis_m": 9999,
      "fzfg": false,
      "metar_trigger": false,
      "taf_trigger": false,
      "metar": "METAR LRBC 191200Z 35009KT 330V030 9999 BKN024 08/01 Q1020",
      "taf": "TAF LRBC 191100Z 1912/1921 35010KT 9999 SCT015 BKN040"
    },
    {
      "icao": "LRBS",
      "alert": "OK",
      "vis_m": 9999,
      "fzfg": false,
      "metar_trigger": false,
      "taf_trigger": false,
      "metar": "METAR LRBS 191200Z 05015KT 360V070 9999 FEW036 09/M02 Q1018 NOSIG",
      "taf": "TAF LRBS 191100Z 1912/2012 06014KT 9999 BKN035"
    },
    {
      "icao": "LRBV",
      "alert": "OK",
      "vis_m": 9999,
      "fzfg": false,
      "metar_trigger": false,
      "taf_trigger": false,
      "metar": "METAR LRBV 191200Z 11003KT 9999 FEW034 SCT045 OVC053 04/M03 Q1018",
      "taf": "TAF LRBV 191100Z 1912/1921 06006KT 9999 BKN050"
    },
    {
      "icao": "LRCL",
      "alert": "OK",
      "vis_m": 9999,
      "fzfg": false,
      "metar_trigger": false,
      "taf_trigger": false,
      "metar": "METAR LRCL 191200Z 02006KT 320V080 9999 BKN062 09/M05 Q1019",
      "taf": "TAF LRCL 191100Z 1912/1921 04005KT CAVOK"
    },
    {
      "icao": "LRCV",
      "alert": "OK",
      "vis_m": 9999,
      "fzfg": false,
      "metar_trigger": false,
      "taf_trigger": false,
      "metar": "METAR LRCV 191200Z 13009KT 9999 FEW023 08/02 Q1019",
      "taf": "TAF LRCV 191100Z 1912/1921 09010KT CAVOK"
    },
    {
      "icao": "LRIA",
      "alert": "OK",
      "vis_m": 9999,
      "fzfg": false,
      "metar_trigger": false,
      "taf_trigger": false,
      "metar": "METAR LRIA 191200Z 33009KT 9999 BKN023 BKN037 07/02 Q1020",
      "taf": "TAF LRIA 191100Z 1912/1921 32008KT 9999 BKN020 BKN040"
    },
    {
      "icao": "LROP",
      "alert": "OK",
      "vis_m": 9999,
      "fzfg": false,
      "metar_trigger": false,
      "taf_trigger": false,
      "metar": "METAR LROP 191200Z 07018KT 9999 SCT044 09/M05 Q1019 NOSIG",
      "taf": "TAF LROP 191100Z 1912/2012 07018KT 9999 BKN035"
    },
    {
      "icao": "LRSB",
      "alert": "OK",
      "vis_m": 9999,
      "fzfg": false,
      "metar_trigger": false,
      "taf_trigger": false,
      "metar": "METAR LRSB 191200Z 10005KT 050V150 9999 SCT050 OVC065 08/M03 Q1018",
      "taf": "TAF LRSB 191100Z 1912/2012 VRB04KT 9999 BKN045"
    },
    {
      "icao": "LRSM",
      "alert": "OK",
      "vis_m": 9999,
      "fzfg": false,
      "metar_trigger": false,
      "taf_trigger": false,
      "metar": "METAR LRSM 191200Z 04006KT 010V070 CAVOK 11/M02 Q1020",
      "taf": "TAF LRSM 191100Z 1912/1921 05010KT CAVOK"
    },
    {
      "icao": "LRSV",
      "alert": "OK",
      "vis_m": 9999,
      "fzfg": false,
      "metar_trigger": false,
      "taf_trigger": false,
      "metar": "METAR LRSV 191200Z 35009KT 9999 BKN013 05/02 Q1020",
      "taf": "TAF LRSV 191100Z 1912/1921 35010KT 9999 BKN010 BKN030"
    },
    {
      "icao": "LRTM",
      "alert": "OK",
      "vis_m": 9999,
      "fzfg": false,
      "metar_trigger": false,
      "taf_trigger": false,
      "metar": "METAR LRTM 191200Z 04004KT 330V110 9999 SCT036 FEW037TCU 09/M04 Q1019",
      "taf": "TAF LRTM 191100Z 1912/1921 06006KT CAVOK"
    },
    {
      "icao": "LRTR",
      "alert": "OK",
      "vis_m": 9999,
      "fzfg": false,
      "metar_trigger": false,
      "taf_trigger": false,
      "metar": "METAR LRTR 191200Z 02007KT CAVOK 11/M01 Q1019 NOSIG",
      "taf": "TAF LRTR 191100Z 1912/2012 04008KT CAVOK"
    },
    {
      "icao": "LTAC",
      "alert": "OK",
      "vis_m": 9999,
      "fzfg": false,
      "metar_trigger": false,
      "taf_trigger": false,
      "metar": "METAR LTAC 191220Z 04016KT 9999 -SHRA SCT015 BKN022 BKN080 08/06 Q1003 NOSIG RMK RWY21C 03015KT RWY03L 04016KT RWY21R 03015KT RWY03R 02016KT RWY21L 03015KT",
      "taf": "TAF LTAC 191040Z 1912/2012 05012KT 9999 -SHRA SCT010 BKN030 BKN080"
    },
    {
      "icao": "LTFM",
      "alert": "OK",
      "vis_m": 9999,
      "fzfg": false,
      "metar_trigger": false,
      "taf_trigger": false,
      "metar": "METAR LTFM 191220Z 04024KT 9999 SCT019 BKN039 09/02 Q1012 NOSIG RMK RWY17L 04021KT RWY34L 03018G29KT RWY16R 04019KT RWY36 03022KT RWY18 04019KT",
      "taf": "TAF LTFM 191040Z 1912/2018 03024G35KT 9999 SCT018 BKN035"
    },
    {
      "icao": "LUKK",
      "alert": "OK",
      "vis_m": 9999,
      "fzfg": false,
      "metar_trigger": false,
      "taf_trigger": false,
      "metar": "METAR LUKK 191200Z 01009KT 9999 FEW029 SCT037 OVC045 07/00 Q1019 NOSIG",
      "taf": "TAF LUKK 191109Z 1912/2012 01010KT 9999 BKN025"
    },
    {
      "icao": "LWOH",
      "alert": "OK",
      "vis_m": 9999,
      "fzfg": false,
      "metar_trigger": false,
      "taf_trigger": false,
      "metar": "METAR LWOH 191220Z 32011KT 290V350 9999 BKN035 07/01 Q1011",
      "taf": "TAF LWOH 191130Z 1912/2012 36008KT 9999 SCT040"
    },
    {
      "icao": "LWSK",
      "alert": "OK",
      "vis_m": 9999,
      "fzfg": false,
      "metar_trigger": false,
      "taf_trigger": false,
      "metar": "METAR LWSK 191220Z 36006KT 320V040 9999 SCT050 13/00 Q1013 NOSIG",
      "taf": "TAF LWSK 191130Z 1912/2012 02010KT 9999 SCT050"
    },
    {
      "icao": "LYBE",
      "alert": "OK",
      "vis_m": 9999,
      "fzfg": false,
      "metar_trigger": false,
      "taf_trigger": false,
      "metar": "METAR LYBE 191200Z 04009KT CAVOK 12/M00 Q1019 NOSIG",
      "taf": "TAF LYBE 191100Z 1912/2012 05012KT CAVOK TX13/1913Z TN03/2005Z"
    },
    {
      "icao": "LYNI",
      "alert": "OK",
      "vis_m": 9999,
      "fzfg": false,
      "metar_trigger": false,
      "taf_trigger": false,
      "metar": "METAR LYNI 191200Z 04014KT 010V080 9999 FEW050 BKN070 12/M04 Q1015 NOSIG",
      "taf": "TAF LYNI 191100Z 1912/2012 04016KT 9999 SCT070 TX14/1913Z TN01/2005Z"
    },
    {
      "icao": "LYPG",
      "alert": "OK",
      "vis_m": 9999,
      "fzfg": false,
      "metar_trigger": false,
      "taf_trigger": false,
      "metar": "METAR LYPG 191200Z VRB03KT 9999 FEW090 18/M02 Q1010 NOSIG",
      "taf": "TAF LYPG 191100Z 1912/2012 36010KT 9999 SCT090 TX17/2012Z TN09/2005Z"
    },
    {
      "icao": "LZIB",
      "alert": "OK",
      "vis_m": 9999,
      "fzfg": false,
      "metar_trigger": false,
      "taf_trigger": false,
      "metar": "METAR LZIB 191230Z 04006KT 350V090 CAVOK 14/M03 Q1021 NOSIG",
      "taf": "TAF LZIB 191115Z 1912/2012 06007KT CAVOK"
    },
    {
      "icao": "LZKZ",
      "alert": "OK",
      "vis_m": 9999,
      "fzfg": false,
      "metar_trigger": false,
      "taf_trigger": false,
      "metar": "METAR LZKZ 191230Z 04010KT CAVOK 10/M02 Q1021 NOSIG",
      "taf": "TAF LZKZ 191115Z 1912/2012 03013KT CAVOK"
    },
    {
      "icao": "LZTT",
      "alert": "OK",
      "vis_m": 9999,
      "fzfg": false,
      "metar_trigger": false,
      "taf_trigger": false,
      "metar": "METAR LZTT 191230Z 06014KT 9999 SCT060 09/M05 Q1021 NOSIG",
      "taf": "TAF LZTT 191115Z 1912/2012 06013KT 9999 SCT050"
    },
    {
      "icao": "OEJN",
      "alert": "OK",
      "vis_m": 6000,
      "fzfg": false,
      "metar_trigger": false,
      "taf_trigger": false,
      "metar": "METAR OEJN 191200Z 27016KT 6000 FEW040 30/18 Q1006 NOSIG",
      "taf": "TAF OEJN 191100Z 1912/2018 18015KT 7000 SCT040"
    },
    {
      "icao": "OEMA",
      "alert": "OK",
      "vis_m": 8000,
      "fzfg": false,
      "metar_trigger": false,
      "taf_trigger": false,
      "metar": "METAR OEMA 191200Z 27021KT 8000 BKN040 29/12 Q1006 NOSIG",
      "taf": "TAF OEMA 191100Z 1912/2018 27016KT 7000 SCT045"
    },
    {
      "icao": "OJAI",
      "alert": "OK",
      "vis_m": null,
      "fzfg": false,
      "metar_trigger": false,
      "taf_trigger": false,
      "metar": "",
      "taf": ""
    },
    {
      "icao": "OMAA",
      "alert": "OK",
      "vis_m": null,
      "fzfg": false,
      "metar_trigger": false,
      "taf_trigger": false,
      "metar": "",
      "taf": ""
    },
    {
      "icao": "OMDB",
      "alert": "OK",
      "vis_m": null,
      "fzfg": false,
      "metar_trigger": false,
      "taf_trigger": false,
      "metar": "",
      "taf": ""
    },
    {
      "icao": "UAAA",
      "alert": "OK",
      "vis_m": 9999,
      "fzfg": false,
      "metar_trigger": false,
      "taf_trigger": false,
      "metar": "METAR UAAA 191200Z 02003MPS 9999 NSC 14/M04 Q1018 NOSIG",
      "taf": "TAF UAAA 191102Z 1912/2012 16002G07MPS 9999 FEW100 TX16/2010Z TN00/2000Z"
    },
    {
      "icao": "UBBB",
      "alert": "OK",
      "vis_m": 9999,
      "fzfg": false,
      "metar_trigger": false,
      "taf_trigger": false,
      "metar": "METAR UBBB 191230Z 16021KT CAVOK 14/08 Q1017 NOSIG",
      "taf": "TAF UBBB 191055Z 1912/2012 15008KT 9999 SCT035 TX14/1912Z TN07/2000Z"
    },
    {
      "icao": "UDSG",
      "alert": "OK",
      "vis_m": 9999,
      "fzfg": false,
      "metar_trigger": false,
      "taf_trigger": false,
      "metar": "METAR UDSG 191200Z 22002KT 9999 SCT049 10/M00 Q1013 NOSIG",
      "taf": "TAF UDSG 191058Z 1912/2012 VRB06KT 9999 SCT040"
    },
    {
      "icao": "UDYZ",
      "alert": "OK",
      "vis_m": 9999,
      "fzfg": false,
      "metar_trigger": false,
      "taf_trigger": false,
      "metar": "METAR UDYZ 191200Z 10004KT 070V150 9999 FEW046 16/M00 Q1011 NOSIG",
      "taf": "TAF UDYZ 191100Z 1912/2012 16006KT 9999 FEW040"
    },
    {
      "icao": "UGKO",
      "alert": "OK",
      "vis_m": 9999,
      "fzfg": false,
      "metar_trigger": false,
      "taf_trigger": false,
      "metar": "METAR UGKO 191200Z 08031G44KT CAVOK 20/02 Q1005 NOSIG",
      "taf": "TAF UGKO 191100Z 1912/2012 08031G43KT CAVOK TX21/1912Z TN14/2003Z"
    }
  ]
}