{
  "ts_utc": "2026-01-06T23:33:48Z",
  "threshold_m": 150,
  "source": "stations_override.txt (ICAO list) + aviationweather.gov (METAR/TAF raw)",
  "station_count": 159,
  "stations": [
    {
      "icao": "BIKF",
      "alert": "OK",
      "vis_m": 9999,
      "fzfg": false,
      "metar_trigger": false,
      "taf_trigger": false,
      "metar": "METAR BIKF 062300Z 08014KT 9999 FEW033 BKN210 M05/M09 Q1014",
      "taf": "TAF BIKF 062225Z 0700/0800 08017KT CAVOK TXM02/0800Z TNM05/0700Z"
    },
    {
      "icao": "BKPR",
      "alert": "OK",
      "vis_m": 9999,
      "fzfg": false,
      "metar_trigger": false,
      "taf_trigger": false,
      "metar": "METAR BKPR 062330Z 17005KT 140V210 9999 BKN055 07/07 Q1006 NOSIG",
      "taf": "TAF BKPR 062330Z 0700/0724 18007KT 9999 SCT020 BKN040"
    },
    {
      "icao": "EBCI",
      "alert": "OK",
      "vis_m": 6000,
      "fzfg": false,
      "metar_trigger": false,
      "taf_trigger": false,
      "metar": "METAR EBCI 062320Z 19013KT 6000 -SN BKN008 BKN035 M02/M03 Q1014 NOSIG",
      "taf": "TAF EBCI 061700Z 0618/0724 19011KT 6000 SCT005"
    },
    {
      "icao": "EDDB",
      "alert": "OK",
      "vis_m": 5000,
      "fzfg": false,
      "metar_trigger": false,
      "taf_trigger": false,
      "metar": "METAR EDDB 062320Z AUTO 18005KT 5000 1700 BR SCT036 M09/M10 Q1016 TEMPO 1500 BCFG",
      "taf": "TAF EDDB 062300Z 0700/0724 20004KT 6000 NSC"
    },
    {
      "icao": "EDDH",
      "alert": "OK",
      "vis_m": 9999,
      "fzfg": false,
      "metar_trigger": false,
      "taf_trigger": false,
      "metar": "METAR EDDH 062320Z AUTO 22011KT 9999 OVC012 M00/M02 Q1012 TEMPO BKN015",
      "taf": "TAF EDDH 062300Z 0700/0806 22007KT 9999 BKN012"
    },
    {
      "icao": "EDDK",
      "alert": "OK",
      "vis_m": 9999,
      "fzfg": false,
      "metar_trigger": false,
      "taf_trigger": false,
      "metar": "METAR EDDK 062320Z AUTO 15009KT CAVOK M04/M06 Q1016 NOSIG",
      "taf": "TAF EDDK 062300Z 0700/0806 14007KT 9999 BKN020"
    },
    {
      "icao": "EDDN",
      "alert": "OK",
      "vis_m": 6000,
      "fzfg": false,
      "metar_trigger": false,
      "taf_trigger": false,
      "metar": "METAR EDDN 062320Z AUTO 20003KT 6000 -SN BKN015 M05/M07 Q1017",
      "taf": "TAF EDDN 062300Z 0700/0724 20005KT 8000 BKN015"
    },
    {
      "icao": "EDDS",
      "alert": "OK",
      "vis_m": 6000,
      "fzfg": false,
      "metar_trigger": false,
      "taf_trigger": false,
      "metar": "METAR EDDS 062320Z AUTO VRB01KT 6000 -SN FEW009 BKN030 OVC039 M04/M06 Q1016",
      "taf": "TAF EDDS 062300Z 0700/0724 VRB03KT 9999 BKN030"
    },
    {
      "icao": "EDFH",
      "alert": "OK",
      "vis_m": 9999,
      "fzfg": false,
      "metar_trigger": false,
      "taf_trigger": false,
      "metar": "METAR EDFH 062320Z 24007KT 200V270 9999 BKN009 M04/M06 Q1015",
      "taf": "TAF EDFH 062300Z 0700/0724 23008KT 9999 BKN012"
    },
    {
      "icao": "EDJA",
      "alert": "OK",
      "vis_m": 9999,
      "fzfg": false,
      "metar_trigger": false,
      "taf_trigger": false,
      "metar": "METAR EDJA 062320Z AUTO VRB02KT 9999 // SCT008/// OVC011/// M06/M08 Q1015",
      "taf": "TAF EDJA 061700Z 0618/0703 VRB03KT 9999 OVC035"
    },
    {
      "icao": "EDLW",
      "alert": "OK",
      "vis_m": 9999,
      "fzfg": false,
      "metar_trigger": false,
      "taf_trigger": false,
      "metar": "METAR EDLW 062320Z AUTO 19008KT 9999 // NCD M02/M05 Q1014",
      "taf": "TAF EDLW 061700Z 0618/0718 21008KT 9999 BKN010"
    },
    {
      "icao": "EDNY",
      "alert": "OK",
      "vis_m": 9000,
      "fzfg": false,
      "metar_trigger": false,
      "taf_trigger": false,
      "metar": "METAR EDNY 062320Z AUTO VRB02KT 9000 -SN OVC025/// M05/M06 Q1017",
      "taf": "TAF EDNY 061700Z 0618/0703 VRB03KT 7000 FEW020 BKN030"
    },
    {
      "icao": "EDSB",
      "alert": "OK",
      "vis_m": 9999,
      "fzfg": false,
      "metar_trigger": false,
      "taf_trigger": false,
      "metar": "METAR EDSB 062320Z AUTO 21003KT 9999 FEW014/// SCT032/// BKN039/// M04/M05 Q1019",
      "taf": "TAF EDSB 062300Z 0700/0724 20005KT 9999 BKN020"
    },
    {
      "icao": "EETN",
      "alert": "OK",
      "vis_m": 3500,
      "fzfg": false,
      "metar_trigger": false,
      "taf_trigger": false,
      "metar": "METAR EETN 062320Z 11010KT 3500 SN OVC034 M06/M07 Q1015",
      "taf": ""
    },
    {
      "icao": "EFTU",
      "alert": "OK",
      "vis_m": 9999,
      "fzfg": false,
      "metar_trigger": false,
      "taf_trigger": false,
      "metar": "METAR EFTU 062320Z AUTO 10009KT 9999 OVC009 M04/M06 Q1014",
      "taf": "TAF EFTU 062022Z 0621/0721 11010KT 9999 -SN FEW006 BKN020"
    },
    {
      "icao": "EGBB",
      "alert": "OK",
      "vis_m": 9999,
      "fzfg": false,
      "metar_trigger": false,
      "taf_trigger": false,
      "metar": "METAR EGBB 062320Z 23009KT 200V280 9999 -RA SCT009 BKN034 04/03 Q1003",
      "taf": "TAF EGBB 062303Z 0700/0724 21009KT 9999 SCT035"
    },
    {
      "icao": "EGGP",
      "alert": "OK",
      "vis_m": 9999,
      "fzfg": false,
      "metar_trigger": false,
      "taf_trigger": false,
      "metar": "METAR EGGP 062320Z 28014KT 9999 FEW026 SCT031 05/02 Q1003",
      "taf": "TAF EGGP 062304Z 0700/0724 29015KT 9999 FEW015 SCT025"
    },
    {
      "icao": "EGGW",
      "alert": "OK",
      "vis_m": 6000,
      "fzfg": false,
      "metar_trigger": false,
      "taf_trigger": false,
      "metar": "METAR EGGW 062320Z AUTO 22015KT 6000 -RA OVC009/// //////TCU 03/02 Q1005",
      "taf": "TAF EGGW 062302Z 0700/0724 22017G27KT 9999 SCT030"
    },
    {
      "icao": "EGKK",
      "alert": "OK",
      "vis_m": 9999,
      "fzfg": false,
      "metar_trigger": false,
      "taf_trigger": false,
      "metar": "METAR EGKK 062320Z 22014KT 9999 BKN018 05/03 Q1008",
      "taf": "TAF EGKK 062310Z 0700/0806 22010KT 9999 SCT025"
    },
    {
      "icao": "EGNM",
      "alert": "OK",
      "vis_m": null,
      "fzfg": false,
      "metar_trigger": false,
      "taf_trigger": false,
      "metar": "",
      "taf": "TAF EGNM 061655Z 0618/0718 21009KT 9999 SCT018"
    },
    {
      "icao": "EGPD",
      "alert": "OK",
      "vis_m": 6000,
      "fzfg": false,
      "metar_trigger": false,
      "taf_trigger": false,
      "metar": "METAR EGPD 062320Z AUTO 31014KT 6000 -RA BKN006 OVC009 01/00 Q0995 RERA TEMPO 4000 RA",
      "taf": "TAF EGPD 062303Z 0700/0724 32012KT 9999 BKN015"
    },
    {
      "icao": "EGPF",
      "alert": "OK",
      "vis_m": 9999,
      "fzfg": false,
      "metar_trigger": false,
      "taf_trigger": false,
      "metar": "METAR EGPF 062320Z AUTO 27007KT 9999 NCD 03/00 Q0999",
      "taf": "TAF EGPF 062256Z 0700/0724 28010KT 9999 SCT025"
    },
    {
      "icao": "EHBK",
      "alert": "OK",
      "vis_m": 9999,
      "fzfg": false,
      "metar_trigger": false,
      "taf_trigger": false,
      "metar": "METAR EHBK 062325Z AUTO 20015KT 9999 SCT031/// M03/M05 Q1014",
      "taf": "TAF EHBK 062322Z 0700/0806 19011KT CAVOK"
    },
    {
      "icao": "EHEH",
      "alert": "OK",
      "vis_m": 7000,
      "fzfg": false,
      "metar_trigger": false,
      "taf_trigger": false,
      "metar": "METAR EHEH 062325Z AUTO 19009KT 7000 BR SCT006 BKN007 BKN008 M03/M04 Q1014 GRN RMK TREND REMOTE BY EHWX",
      "taf": "TAF EHEH 061728Z 0618/0724 21006KT 9999 BKN020"
    },
    {
      "icao": "EKBI",
      "alert": "OK",
      "vis_m": 9999,
      "fzfg": false,
      "metar_trigger": false,
      "taf_trigger": false,
      "metar": "METAR EKBI 062320Z AUTO 18008KT 9999 BKN003/// M00/M00 Q1007",
      "taf": "TAF EKBI 062327Z 0700/0724 17009KT 9999 BKN020"
    },
    {
      "icao": "EKCH",
      "alert": "OK",
      "vis_m": 9999,
      "fzfg": false,
      "metar_trigger": false,
      "taf_trigger": false,
      "metar": "METAR EKCH 062320Z 20011KT 9999 SCT010 BKN027 01/M01 Q1011 TEMPO BKN012",
      "taf": "TAF EKCH 062327Z 0700/0724 17012KT 9000 BKN020"
    },
    {
      "icao": "ENAL",
      "alert": "OK",
      "vis_m": 9999,
      "fzfg": false,
      "metar_trigger": false,
      "taf_trigger": false,
      "metar": "METAR ENAL 062320Z AUTO 14012KT 9999 NCD M04/M12 Q1011",
      "taf": "TAF ENAL 062000Z 0621/0706 12010KT CAVOK"
    },
    {
      "icao": "ENBR",
      "alert": "OK",
      "vis_m": 9999,
      "fzfg": false,
      "metar_trigger": false,
      "taf_trigger": false,
      "metar": "METAR ENBR 062320Z 02005KT CAVOK M07/M13 Q1009 RMK WIND 1200FT 11009KT",
      "taf": "TAF ENBR 061700Z 0618/0718 08006KT CAVOK"
    },
    {
      "icao": "ENGM",
      "alert": "OK",
      "vis_m": 9999,
      "fzfg": false,
      "metar_trigger": false,
      "taf_trigger": false,
      "metar": "METAR ENGM 062320Z 34004KT 9999 SCT013 OVC019 M12/M15 Q1011",
      "taf": "TAF ENGM 061700Z 0618/0718 01008KT 9999 SCT012 BKN025"
    },
    {
      "icao": "ENHD",
      "alert": "OK",
      "vis_m": 9999,
      "fzfg": false,
      "metar_trigger": false,
      "taf_trigger": false,
      "metar": "METAR ENHD 062320Z AUTO 09012KT 9999 NCD M04/M10 Q1008",
      "taf": "TAF ENHD 061400Z 0615/0623 09008KT 9999 FEW040"
    },
    {
      "icao": "ENTC",
      "alert": "OK",
      "vis_m": 9999,
      "fzfg": false,
      "metar_trigger": false,
      "taf_trigger": false,
      "metar": "METAR ENTC 062320Z VRB02KT CAVOK M14/M16 Q1023 RMK WIND 2600FT 16015KT",
      "taf": "TAF ENTC 061700Z 0618/0718 VRB03KT CAVOK"
    },
    {
      "icao": "ENTO",
      "alert": "OK",
      "vis_m": 9999,
      "fzfg": false,
      "metar_trigger": false,
      "taf_trigger": false,
      "metar": "METAR ENTO 062320Z AUTO 36006KT 9999 NCD M13/M15 Q1012",
      "taf": "TAF ENTO 061700Z 0618/0718 36008KT 9999 BKN025"
    },
    {
      "icao": "ENVA",
      "alert": "OK",
      "vis_m": 9999,
      "fzfg": false,
      "metar_trigger": false,
      "taf_trigger": false,
      "metar": "METAR ENVA 062320Z AUTO 11005KT 9999 NCD M17/M19 Q1016 RMK WIND 670FT 10009KT",
      "taf": "TAF ENVA 061700Z 0618/0718 11008KT CAVOK"
    },
    {
      "icao": "ENZV",
      "alert": "OK",
      "vis_m": 9999,
      "fzfg": false,
      "metar_trigger": false,
      "taf_trigger": false,
      "metar": "METAR ENZV 062320Z 08003KT 9999 FEW049 M04/M09 Q1008",
      "taf": "TAF ENZV 061700Z 0618/0718 13005KT 9999 FEW035"
    },
    {
      "icao": "EPGD",
      "alert": "OK",
      "vis_m": 2700,
      "fzfg": false,
      "metar_trigger": false,
      "taf_trigger": false,
      "metar": "METAR EPGD 062300Z 24005KT 2700 BR BKN002 M08/M08 Q1014",
      "taf": "TAF EPGD 062330Z 0700/0724 26005KT 4000 BR BKN002"
    },
    {
      "icao": "EPKK",
      "alert": "OK",
      "vis_m": 5000,
      "fzfg": false,
      "metar_trigger": false,
      "taf_trigger": false,
      "metar": "METAR EPKK 062300Z 23003KT 5000 BR NSC M05/M06 Q1015",
      "taf": "TAF EPKK 062330Z 0700/0724 23004KT 6000 BKN026"
    },
    {
      "icao": "EPKT",
      "alert": "OK",
      "vis_m": 6000,
      "fzfg": false,
      "metar_trigger": false,
      "taf_trigger": false,
      "metar": "METAR EPKT 062300Z 30001KT 6000 NSC M09/M10 Q1015",
      "taf": "TAF EPKT 062330Z 0700/0724 VRB02KT 6000 NSC"
    },
    {
      "icao": "EPLB",
      "alert": "OK",
      "vis_m": 1600,
      "fzfg": false,
      "metar_trigger": false,
      "taf_trigger": false,
      "metar": "METAR EPLB 062300Z 31005KT 1600 -SN BR FEW018 SCT023 OVC030 M05/M06 Q1015",
      "taf": "TAF EPLB 062330Z 0700/0724 33005KT 4000 -SN BR BKN020"
    },
    {
      "icao": "EPMO",
      "alert": "OK",
      "vis_m": 1700,
      "fzfg": false,
      "metar_trigger": false,
      "taf_trigger": false,
      "metar": "METAR EPMO 062300Z VRB02KT 1700 MIFG BR NSC M10/M11 Q1016",
      "taf": "TAF EPMO 062330Z 0700/0724 VRB03KT 2000 BR NSC"
    },
    {
      "icao": "EPPO",
      "alert": "OK",
      "vis_m": 8000,
      "fzfg": false,
      "metar_trigger": false,
      "taf_trigger": false,
      "metar": "METAR EPPO 062300Z 21003KT 8000 BKN009 OVC020 M04/M06 Q1016",
      "taf": "TAF EPPO 062330Z 0700/0724 28003KT 8000 BKN020"
    },
    {
      "icao": "EPRA",
      "alert": "OK",
      "vis_m": 9000,
      "fzfg": false,
      "metar_trigger": false,
      "taf_trigger": false,
      "metar": "METAR EPRA 062300Z 33004KT 9000 NSC M06/M09 Q1015",
      "taf": "TAF EPRA 062330Z 0700/0709 34006KT 8000 NSC"
    },
    {
      "icao": "EPRZ",
      "alert": "OK",
      "vis_m": 1400,
      "fzfg": false,
      "metar_trigger": false,
      "taf_trigger": false,
      "metar": "METAR EPRZ 062300Z 01003KT 1400 R27/P2000N SN BR FEW002 OVC017 M04/M05 Q1015",
      "taf": "TAF EPRZ 062330Z 0700/0724 02010KT 1400 SN BKN006 BKN013"
    },
    {
      "icao": "EPSC",
      "alert": "OK",
      "vis_m": 2700,
      "fzfg": false,
      "metar_trigger": false,
      "taf_trigger": false,
      "metar": "METAR EPSC 062300Z 13005KT 2700 BR FEW002 BKN004 M06/M07 Q1015",
      "taf": "TAF EPSC 062330Z 0700/0724 15007KT 5000 BR SCT020"
    },
    {
      "icao": "EPSY",
      "alert": "OK",
      "vis_m": 3500,
      "fzfg": false,
      "metar_trigger": false,
      "taf_trigger": false,
      "metar": "METAR EPSY 062300Z VRB01KT 3500 BR NSC M14/M15 Q1015",
      "taf": "TAF EPSY 062330Z 0700/0709 17003KT 4000 BR NSC"
    },
    {
      "icao": "EPWA",
      "alert": "OK",
      "vis_m": 4700,
      "fzfg": false,
      "metar_trigger": false,
      "taf_trigger": false,
      "metar": "METAR EPWA 062300Z 29003KT 4700 BR NSC M09/M10 Q1016 NOSIG",
      "taf": "TAF EPWA 062330Z 0700/0724 30004KT 4000 BR NSC"
    },
    {
      "icao": "EPWR",
      "alert": "OK",
      "vis_m": 9999,
      "fzfg": false,
      "metar_trigger": false,
      "taf_trigger": false,
      "metar": "METAR EPWR 062300Z 28003KT 9999 SCT017 BKN023 M04/M07 Q1016",
      "taf": "TAF EPWR 062330Z 0700/0724 24003KT 9999 BKN030"
    },
    {
      "icao": "ESGG",
      "alert": "OK",
      "vis_m": 9999,
      "fzfg": false,
      "metar_trigger": false,
      "taf_trigger": false,
      "metar": "METAR ESGG 062320Z 10005KT 9999 SCT033 OVC046 M07/M08 Q1009 RESN",
      "taf": "TAF ESGG 062330Z 0700/0724 10005KT 9999 -SN BKN004"
    },
    {
      "icao": "ESKN",
      "alert": "OK",
      "vis_m": 9999,
      "fzfg": false,
      "metar_trigger": false,
      "taf_trigger": false,
      "metar": "METAR ESKN 062320Z 26010KT 9999 BKN004 M06/M06 Q1010",
      "taf": "TAF ESKN 062330Z 0700/0724 26009KT 9999 BKN004"
    },
    {
      "icao": "ESMS",
      "alert": "OK",
      "vis_m": 4000,
      "fzfg": false,
      "metar_trigger": false,
      "taf_trigger": false,
      "metar": "METAR ESMS 062320Z AUTO 11001KT 4000 BR FEW023/// OVC048/// M05/M05 Q1011",
      "taf": "TAF ESMS 062327Z 0700/0724 VRB03KT 5000 BKN020"
    },
    {
      "icao": "ESSA",
      "alert": "OK",
      "vis_m": 9999,
      "fzfg": false,
      "metar_trigger": false,
      "taf_trigger": false,
      "metar": "METAR ESSA 062320Z 24007KT 9999 FEW004 BKN011 M02/M02 Q1008 TEMPO BKN004",
      "taf": "TAF ESSA 062330Z 0700/0724 25004KT 9999 BKN015"
    },
    {
      "icao": "EYKA",
      "alert": "OK",
      "vis_m": 7000,
      "fzfg": false,
      "metar_trigger": false,
      "taf_trigger": false,
      "metar": "METAR EYKA 062320Z 24004KT 7000 FEW007 M06/M07 Q1014",
      "taf": "TAF EYKA 062300Z 0700/0724 VRB04KT 5000 BR SCT005 BKN010"
    },
    {
      "icao": "EYPA",
      "alert": "OK",
      "vis_m": 8000,
      "fzfg": false,
      "metar_trigger": false,
      "taf_trigger": false,
      "metar": "METAR EYPA 062320Z AUTO 15004KT 8000 OVC046/// M07/M08 Q1012",
      "taf": "TAF EYPA 062300Z 0700/0724 VRB04KT 6000 BKN030"
    },
    {
      "icao": "EYVI",
      "alert": "OK",
      "vis_m": 8000,
      "fzfg": false,
      "metar_trigger": false,
      "taf_trigger": false,
      "metar": "METAR EYVI 062320Z 27008KT 8000 OVC005 M05/M06 Q1013 NOSIG",
      "taf": "TAF EYVI 062300Z 0700/0724 VRB05KT 5000 BR BKN005"
    },
    {
      "icao": "GCFV",
      "alert": "OK",
      "vis_m": 9999,
      "fzfg": false,
      "metar_trigger": false,
      "taf_trigger": false,
      "metar": "METAR GCFV 062300Z 36017KT 9999 SCT035 16/08 Q1025",
      "taf": "TAF GCFV 062000Z 0621/0721 02020KT 9999 SCT035 TX20/0714Z TN14/0706Z"
    },
    {
      "icao": "GCLP",
      "alert": "OK",
      "vis_m": 9999,
      "fzfg": false,
      "metar_trigger": false,
      "taf_trigger": false,
      "metar": "METAR GCLP 062300Z 36011KT 9999 SCT040 15/10 Q1026 NOSIG",
      "taf": "TAF GCLP 062000Z 0621/0721 02020KT 9999 SCT035 BKN050 TX18/0714Z TN15/0706Z"
    },
    {
      "icao": "GCTS",
      "alert": "OK",
      "vis_m": 9999,
      "fzfg": false,
      "metar_trigger": false,
      "taf_trigger": false,
      "metar": "METAR GCTS 062300Z 04011KT 350V070 9999 FEW035 16/09 Q1026 NOSIG",
      "taf": "TAF GCTS 062000Z 0621/0721 05015KT 9999 SCT035 TX22/0714Z TN15/0706Z"
    },
    {
      "icao": "GMAD",
      "alert": "OK",
      "vis_m": 9999,
      "fzfg": false,
      "metar_trigger": false,
      "taf_trigger": false,
      "metar": "METAR GMAD 062300Z 11006KT CAVOK 09/06 Q1019 NOSIG",
      "taf": "TAF GMAD 062300Z 0700/0806 12006KT 6000 SCT020"
    },
    {
      "icao": "GMMN",
      "alert": "OK",
      "vis_m": 9999,
      "fzfg": false,
      "metar_trigger": false,
      "taf_trigger": false,
      "metar": "METAR GMMN 062300Z 21005KT 9999 SCT030 05/04 Q1025 NOSIG",
      "taf": "TAF GMMN 061700Z 0618/0724 36006KT 9999 BKN030"
    },
    {
      "icao": "GMMX",
      "alert": "OK",
      "vis_m": 9999,
      "fzfg": false,
      "metar_trigger": false,
      "taf_trigger": false,
      "metar": "METAR GMMX 062300Z 07005KT CAVOK 07/04 Q1025 NOSIG",
      "taf": "TAF GMMX 062300Z 0700/0806 06006KT 8000 NSC"
    },
    {
      "icao": "HEGN",
      "alert": "OK",
      "vis_m": 9999,
      "fzfg": false,
      "metar_trigger": false,
      "taf_trigger": false,
      "metar": "METAR HEGN 062300Z 30009KT CAVOK 17/07 Q1019 NOSIG",
      "taf": "TAF HEGN 062300Z 0700/0806 29010KT CAVOK"
    },
    {
      "icao": "HEMA",
      "alert": "OK",
      "vis_m": 6000,
      "fzfg": false,
      "metar_trigger": false,
      "taf_trigger": false,
      "metar": "METAR HEMA 062300Z 28009KT 6000 NSC 17/10 Q1018 NOSIG",
      "taf": "TAF HEMA 062300Z 0700/0806 28011KT CAVOK"
    },
    {
      "icao": "HESH",
      "alert": "OK",
      "vis_m": 9999,
      "fzfg": false,
      "metar_trigger": false,
      "taf_trigger": false,
      "metar": "METAR HESH 062300Z 34006KT CAVOK 20/13 Q1019 NOSIG",
      "taf": "TAF HESH 062300Z 0700/0806 32009KT CAVOK"
    },
    {
      "icao": "HESX",
      "alert": "OK",
      "vis_m": 6000,
      "fzfg": false,
      "metar_trigger": false,
      "taf_trigger": false,
      "metar": "METAR HESX 062300Z 08006KT 6000 NSC 11/06 Q1020 NOSIG",
      "taf": "TAF HESX 062300Z 0700/0806 08009KT 6000 NSC"
    },
    {
      "icao": "LATI",
      "alert": "OK",
      "vis_m": 9999,
      "fzfg": false,
      "metar_trigger": false,
      "taf_trigger": false,
      "metar": "METAR LATI 062320Z 17009KT 9999 -RA BKN064 14/09 Q1005 NOSIG",
      "taf": "TAF LATI 062300Z 0700/0724 16010KT 9999 -RA SCT050 BKN080 TX16/0712Z TN11/0705Z"
    },
    {
      "icao": "LBPD",
      "alert": "OK",
      "vis_m": 9999,
      "fzfg": false,
      "metar_trigger": false,
      "taf_trigger": false,
      "metar": "METAR LBPD 062330Z AUTO 30006KT 250V320 9999 -SHRA OVC052/// 10/10 Q1009",
      "taf": "TAF LBPD 062300Z 0700/0724 VRB03KT 9999 BKN050"
    },
    {
      "icao": "LBSF",
      "alert": "OK",
      "vis_m": 9999,
      "fzfg": false,
      "metar_trigger": false,
      "taf_trigger": false,
      "metar": "METAR LBSF 062330Z AUTO 06006KT 040V100 9999 SCT053/// BKN088/// 08/06 Q1008 NOSIG",
      "taf": "TAF LBSF 062300Z 0700/0724 VRB03KT 9999 SCT040 BKN060"
    },
    {
      "icao": "LBWN",
      "alert": "OK",
      "vis_m": 9999,
      "fzfg": false,
      "metar_trigger": false,
      "taf_trigger": false,
      "metar": "METAR LBWN 062330Z AUTO 17006KT 140V210 9999 FEW029/// 14/10 Q1010 NOSIG",
      "taf": "TAF LBWN 062300Z 0700/0724 19012KT 9999 SCT015 SCT030"
    },
    {
      "icao": "LCLK",
      "alert": "OK",
      "vis_m": 9999,
      "fzfg": false,
      "metar_trigger": false,
      "taf_trigger": false,
      "metar": "METAR LCLK 062300Z 31006KT CAVOK 12/11 Q1022 NOSIG",
      "taf": "TAF LCLK 062330Z 0700/0800 34006KT 9999 FEW035"
    },
    {
      "icao": "LCPH",
      "alert": "OK",
      "vis_m": 9999,
      "fzfg": false,
      "metar_trigger": false,
      "taf_trigger": false,
      "metar": "METAR LCPH 062300Z 01007KT CAVOK 14/09 Q1021 NOSIG",
      "taf": "TAF LCPH 062330Z 0700/0800 06009KT 9999 FEW030"
    },
    {
      "icao": "LEAL",
      "alert": "OK",
      "vis_m": 9999,
      "fzfg": false,
      "metar_trigger": false,
      "taf_trigger": false,
      "metar": "METAR LEAL 062300Z 28008KT 9999 FEW025 06/M01 Q1018 NOSIG",
      "taf": "TAF LEAL 062300Z 0700/0724 30012KT 9999 FEW030 TX13/0714Z TN04/0706Z"
    },
    {
      "icao": "LEBB",
      "alert": "OK",
      "vis_m": 9999,
      "fzfg": false,
      "metar_trigger": false,
      "taf_trigger": false,
      "metar": "METAR LEBB 062300Z AUTO VRB02KT 9999 SCT047 OVC060 02/02 Q1022",
      "taf": "TAF LEBB 062300Z 0700/0724 15008KT 9999 SCT020 BKN040 TX11/0714Z TN01/0703Z"
    },
    {
      "icao": "LEBL",
      "alert": "OK",
      "vis_m": 9999,
      "fzfg": false,
      "metar_trigger": false,
      "taf_trigger": false,
      "metar": "METAR LEBL 062300Z 33013KT CAVOK 02/M03 Q1016 NOSIG",
      "taf": "TAF LEBL 062300Z 0700/0724 34013KT CAVOK TX10/0713Z TN01/0706Z"
    },
    {
      "icao": "LECH",
      "alert": "OK",
      "vis_m": 9999,
      "fzfg": false,
      "metar_trigger": false,
      "taf_trigger": false,
      "metar": "METAR LECH 062300Z AUTO 33017G31KT 290V010 CAVOK 04/M10 Q1016",
      "taf": ""
    },
    {
      "icao": "LEMD",
      "alert": "OK",
      "vis_m": 9999,
      "fzfg": false,
      "metar_trigger": false,
      "taf_trigger": false,
      "metar": "METAR LEMD 062300Z VRB01KT CAVOK M01/M08 Q1021 NOSIG",
      "taf": "TAF LEMD 062300Z 0700/0806 VRB04KT CAVOK TX08/0715Z TNM04/0707Z"
    },
    {
      "icao": "LEMG",
      "alert": "OK",
      "vis_m": 9999,
      "fzfg": false,
      "metar_trigger": false,
      "taf_trigger": false,
      "metar": "METAR LEMG 062300Z 28011KT CAVOK 07/M05 Q1022 NOSIG",
      "taf": "TAF LEMG 062300Z 0700/0724 29012KT 9999 FEW040 TX13/0714Z TN04/0706Z"
    },
    {
      "icao": "LEVC",
      "alert": "OK",
      "vis_m": 9999,
      "fzfg": false,
      "metar_trigger": false,
      "taf_trigger": false,
      "metar": "METAR LEVC 062300Z 27004KT 220V320 CAVOK 02/M03 Q1018 NOSIG",
      "taf": "TAF LEVC 062300Z 0700/0724 31008KT CAVOK TX13/0714Z TNM01/0706Z"
    },
    {
      "icao": "LEXJ",
      "alert": "OK",
      "vis_m": 6000,
      "fzfg": false,
      "metar_trigger": false,
      "taf_trigger": false,
      "metar": "METAR LEXJ 062300Z AUTO 23005KT 190V260 6000 BKN069 BKN078 05/01 Q1021",
      "taf": "TAF LEXJ 062000Z 0621/0721 22009KT 9999 SCT040 BKN070 TX12/0713Z TN04/0621Z"
    },
    {
      "icao": "LEZG",
      "alert": "OK",
      "vis_m": 9999,
      "fzfg": false,
      "metar_trigger": false,
      "taf_trigger": false,
      "metar": "METAR LEZG 062300Z 28021KT CAVOK 02/M03 Q1019 NOSIG",
      "taf": "TAF LEZG 062300Z 0700/0724 30012KT 9999 FEW030 TX09/0715Z TNM01/0706Z"
    },
    {
      "icao": "LEZL",
      "alert": "OK",
      "vis_m": 9999,
      "fzfg": false,
      "metar_trigger": false,
      "taf_trigger": false,
      "metar": "METAR LEZL 062300Z 00000KT CAVOK 04/01 Q1024 NOSIG",
      "taf": "TAF LEZL 062000Z 0621/0721 33004KT CAVOK TX12/0715Z TN00/0707Z"
    },
    {
      "icao": "LFBD",
      "alert": "OK",
      "vis_m": 6000,
      "fzfg": false,
      "metar_trigger": false,
      "taf_trigger": false,
      "metar": "METAR LFBD 062300Z AUTO 15004KT 6000 NSC M03/M04 Q1021 TEMPO 3000 BR",
      "taf": "TAF LFBD 062300Z 0700/0806 15004KT CAVOK TX10/0800Z TNM03/0700Z"
    },
    {
      "icao": "LFLL",
      "alert": "OK",
      "vis_m": 9999,
      "fzfg": false,
      "metar_trigger": false,
      "taf_trigger": false,
      "metar": "METAR LFLL 062300Z 36010KT 9999 FEW015 BKN030 M02/M05 Q1018 NOSIG",
      "taf": "TAF LFLL 062300Z 0700/0806 35010KT 9999 BKN019"
    },
    {
      "icao": "LFLS",
      "alert": "OK",
      "vis_m": 9999,
      "fzfg": false,
      "metar_trigger": false,
      "taf_trigger": false,
      "metar": "METAR LFLS 062300Z AUTO 34011KT 9999 FEW017 OVC036 M04/M06 Q1017",
      "taf": "TAF LFLS 061400Z 0615/0715 36010KT 9999 BKN007"
    },
    {
      "icao": "LFMN",
      "alert": "OK",
      "vis_m": 9999,
      "fzfg": false,
      "metar_trigger": false,
      "taf_trigger": false,
      "metar": "METAR LFMN 062300Z 34014KT 9999 FEW046TCU SCT080 BKN100 04/01 Q1007 BECMG NSC",
      "taf": ""
    },
    {
      "icao": "LFOB",
      "alert": "OK",
      "vis_m": 9999,
      "fzfg": false,
      "metar_trigger": false,
      "taf_trigger": false,
      "metar": "METAR LFOB 062300Z AUTO 21010KT 9999 FEW047 SCT056 OVC066 M00/M02 Q1016 NOSIG",
      "taf": "TAF LFOB 062300Z 0700/0724 23007KT 6000 NSC"
    },
    {
      "icao": "LFPO",
      "alert": "OK",
      "vis_m": 4200,
      "fzfg": false,
      "metar_trigger": false,
      "taf_trigger": false,
      "metar": "METAR LFPO 062300Z AUTO 20011KT 4200 BR OVC003 M02/M03 Q1018",
      "taf": "TAF LFPO 061700Z 0618/0724 19005KT 8000 FEW030"
    },
    {
      "icao": "LFSB",
      "alert": "OK",
      "vis_m": 9000,
      "fzfg": false,
      "metar_trigger": false,
      "taf_trigger": false,
      "metar": "METAR LFSB 062300Z AUTO 00000KT 9000 FEW010 OVC027 M03/M05 Q1018 TEMPO BKN011",
      "taf": "TAF LFSB 061700Z 0618/0718 27004KT 9999 BKN025"
    },
    {
      "icao": "LGAV",
      "alert": "OK",
      "vis_m": 9999,
      "fzfg": false,
      "metar_trigger": false,
      "taf_trigger": false,
      "metar": "METAR LGAV 062320Z 00000KT 9999 FEW020 SCT030 16/11 Q1013 NOSIG",
      "taf": "TAF LGAV 062300Z 0700/0724 14009KT 9999 FEW020 SCT030"
    },
    {
      "icao": "LGTS",
      "alert": "OK",
      "vis_m": 8000,
      "fzfg": false,
      "metar_trigger": false,
      "taf_trigger": false,
      "metar": "METAR LGTS 062320Z VRB03KT 8000 DZ FEW020 11/11 Q1010 NOSIG",
      "taf": "TAF LGTS 062300Z 0700/0724 VRB03KT 9999 SCT025"
    },
    {
      "icao": "LHBP",
      "alert": "OK",
      "vis_m": 700,
      "fzfg": false,
      "metar_trigger": false,
      "taf_trigger": false,
      "metar": "METAR LHBP 062330Z COR 34005KT 0700 R31L/1800U R31R/1400U +SN VV006 M02/M02 Q1011 BECMG 1500 SN OVC012",
      "taf": "TAF LHBP 062315Z 0700/0724 32007KT 5000 -SN BKN018 OVC050"
    },
    {
      "icao": "LHDC",
      "alert": "OK",
      "vis_m": 4500,
      "fzfg": false,
      "metar_trigger": false,
      "taf_trigger": false,
      "metar": "METAR LHDC 062245Z AUTO 02009KT 340V060 4500 -SN BR BKN009 M02/M03 Q1010 REFZRA NOSIG",
      "taf": "TAF LHDC 061415Z 0615/0624 05008KT 9999 SCT012 OVC020"
    },
    {
      "icao": "LIBD",
      "alert": "OK",
      "vis_m": 8000,
      "fzfg": false,
      "metar_trigger": false,
      "taf_trigger": false,
      "metar": "METAR LIBD 062320Z 29006KT 260V330 8000 BKN045 08/06 Q1005",
      "taf": "TAF LIBD 062300Z 0700/0724 28012KT 6000 BKN010"
    },
    {
      "icao": "LIBG",
      "alert": "OK",
      "vis_m": null,
      "fzfg": false,
      "metar_trigger": false,
      "taf_trigger": false,
      "metar": "",
      "taf": "TAF LIBG 061700Z 0618/0703 15009KT 9999 SCT015"
    },
    {
      "icao": "LIBP",
      "alert": "OK",
      "vis_m": 9999,
      "fzfg": false,
      "metar_trigger": false,
      "taf_trigger": false,
      "metar": "METAR LIBP 062320Z AUTO 30006KT 260V330 9999 OVC037/// 06/01 Q1007",
      "taf": "TAF LIBP 062300Z 0700/0724 30009KT 6000 BKN020"
    },
    {
      "icao": "LIBR",
      "alert": "OK",
      "vis_m": 7000,
      "fzfg": false,
      "metar_trigger": false,
      "taf_trigger": false,
      "metar": "METAR LIBR 062320Z 20009KT 7000 SCT010 15/14 Q1004",
      "taf": "TAF LIBR 062300Z 0700/0724 21013KT 6000 BKN010"
    },
    {
      "icao": "LICA",
      "alert": "OK",
      "vis_m": 9999,
      "fzfg": false,
      "metar_trigger": false,
      "taf_trigger": false,
      "metar": "METAR LICA 062320Z AUTO 26010KT 9999 OVC020/// 16/13 Q1006",
      "taf": "TAF LICA 062300Z 0700/0724 27013KT 9999 SCT050"
    },
    {
      "icao": "LICC",
      "alert": "OK",
      "vis_m": 9999,
      "fzfg": false,
      "metar_trigger": false,
      "taf_trigger": false,
      "metar": "METAR LICC 062320Z 26011KT CAVOK 12/09 Q1007",
      "taf": "TAF LICC 062300Z 0700/0724 26013KT 7000 FEW060"
    },
    {
      "icao": "LICJ",
      "alert": "OK",
      "vis_m": 9999,
      "fzfg": false,
      "metar_trigger": false,
      "taf_trigger": false,
      "metar": "METAR LICJ 062320Z 18006KT CAVOK 13/09 Q1007",
      "taf": "TAF LICJ 062300Z 0700/0724 22014KT 9999 SCT030"
    },
    {
      "icao": "LIMC",
      "alert": "OK",
      "vis_m": 9999,
      "fzfg": false,
      "metar_trigger": false,
      "taf_trigger": false,
      "metar": "METAR LIMC 062320Z 02005KT CAVOK M05/M07 Q1011 NOSIG",
      "taf": "TAF LIMC 062300Z 0700/0806 VRB04KT CAVOK"
    },
    {
      "icao": "LIME",
      "alert": "OK",
      "vis_m": 9999,
      "fzfg": false,
      "metar_trigger": false,
      "taf_trigger": false,
      "metar": "METAR LIME 062320Z 02002KT 9999 SCT023 M01/M04 Q1011 NOSIG",
      "taf": "TAF LIME 062300Z 0700/0724 VRB04KT 9999 FEW025"
    },
    {
      "icao": "LIMF",
      "alert": "OK",
      "vis_m": 9999,
      "fzfg": false,
      "metar_trigger": false,
      "taf_trigger": false,
      "metar": "METAR LIMF 062320Z 32003KT CAVOK M02/M09 Q1011",
      "taf": "TAF LIMF 062300Z 0700/0724 VRB03KT CAVOK"
    },
    {
      "icao": "LIMJ",
      "alert": "OK",
      "vis_m": 9999,
      "fzfg": false,
      "metar_trigger": false,
      "taf_trigger": false,
      "metar": "METAR LIMJ 062320Z 04016KT CAVOK 03/M06 Q1008",
      "taf": "TAF LIMJ 062300Z 0700/0724 04015KT CAVOK"
    },
    {
      "icao": "LIPE",
      "alert": "OK",
      "vis_m": 7000,
      "fzfg": false,
      "metar_trigger": false,
      "taf_trigger": false,
      "metar": "METAR LIPE 062320Z 28006KT 7000 BKN030 00/00 Q1011",
      "taf": "TAF LIPE 062300Z 0700/0724 26007KT 6000 BKN030"
    },
    {
      "icao": "LIPH",
      "alert": "OK",
      "vis_m": 9999,
      "fzfg": false,
      "metar_trigger": false,
      "taf_trigger": false,
      "metar": "METAR LIPH 062320Z AUTO 30004KT 280V340 9999 OVC094/// 01/M02 Q1011",
      "taf": "TAF LIPH 062300Z 0700/0724 VRB05KT CAVOK"
    },
    {
      "icao": "LIPQ",
      "alert": "OK",
      "vis_m": 9999,
      "fzfg": false,
      "metar_trigger": false,
      "taf_trigger": false,
      "metar": "METAR LIPQ 062320Z AUTO VRB01KT 9999 FEW089/// BKN200/// M02/M04 Q1011",
      "taf": "TAF LIPQ 062300Z 0700/0724 08006KT 9999 SCT070"
    },
    {
      "icao": "LIPR",
      "alert": "OK",
      "vis_m": 8000,
      "fzfg": false,
      "metar_trigger": false,
      "taf_trigger": false,
      "metar": "METAR LIPR 062320Z AUTO 29012KT 8000 DZRA BKN005/// 01/00 Q1009",
      "taf": "TAF LIPR 062300Z 0700/0724 29012KT 6000 BKN015"
    },
    {
      "icao": "LIPX",
      "alert": "OK",
      "vis_m": 6000,
      "fzfg": false,
      "metar_trigger": false,
      "taf_trigger": false,
      "metar": "METAR LIPX 062320Z 31004KT 280V350 6000 SCT025 M03/M05 Q1011",
      "taf": "TAF LIPX 062300Z 0700/0724 VRB05KT 9999 FEW030"
    },
    {
      "icao": "LIPY",
      "alert": "OK",
      "vis_m": 9999,
      "fzfg": false,
      "metar_trigger": false,
      "taf_trigger": false,
      "metar": "METAR LIPY 062320Z AUTO 36012KT 9999 BKN022/// OVC067/// 05/01 Q1008",
      "taf": "TAF LIPY 062300Z 0700/0724 33013KT 6000 BKN020"
    },
    {
      "icao": "LIPZ",
      "alert": "OK",
      "vis_m": 9999,
      "fzfg": false,
      "metar_trigger": false,
      "taf_trigger": false,
      "metar": "METAR LIPZ 062320Z 33006KT CAVOK 00/M02 Q1011 NOSIG",
      "taf": "TAF LIPZ 062300Z 0700/0806 34006KT CAVOK"
    },
    {
      "icao": "LIRF",
      "alert": "OK",
      "vis_m": 9999,
      "fzfg": false,
      "metar_trigger": false,
      "taf_trigger": false,
      "metar": "METAR LIRF 062320Z 04006KT 9999 SCT025 06/04 Q1005 NOSIG",
      "taf": "TAF LIRF 062300Z 0700/0806 04010KT 9999 SCT020"
    },
    {
      "icao": "LIRN",
      "alert": "OK",
      "vis_m": 9999,
      "fzfg": false,
      "metar_trigger": false,
      "taf_trigger": false,
      "metar": "METAR LIRN 062320Z 24004KT 9999 SCT030 11/09 Q1005 NOSIG",
      "taf": "TAF LIRN 062300Z 0700/0724 VRB06KT 9999 SCT030"
    },
    {
      "icao": "LIRP",
      "alert": "OK",
      "vis_m": 9999,
      "fzfg": false,
      "metar_trigger": false,
      "taf_trigger": false,
      "metar": "METAR LIRP 062315Z 11008KT 9999 SCT080 04/00 Q1007 NOSIG",
      "taf": "TAF LIRP 062300Z 0700/0724 12007KT 9999 SCT080"
    },
    {
      "icao": "LIRZ",
      "alert": "OK",
      "vis_m": 9999,
      "fzfg": false,
      "metar_trigger": false,
      "taf_trigger": false,
      "metar": "METAR LIRZ 062320Z AUTO 35009KT 9999 OVC043/// 03/00 Q1006",
      "taf": "TAF LIRZ 062300Z 0700/0724 01013KT 9999 BKN020"
    },
    {
      "icao": "LJLJ",
      "alert": "OK",
      "vis_m": 8000,
      "fzfg": false,
      "metar_trigger": false,
      "taf_trigger": false,
      "metar": "METAR LJLJ 062300Z 35002KT 8000 -SN FEW003 SCT010 BKN095 M06/M07 Q1012 NOSIG",
      "taf": "TAF LJLJ 062300Z 0700/0800 13005KT 7000 -SN FEW005 BKN070"
    },
    {
      "icao": "LKMT",
      "alert": "OK",
      "vis_m": 9999,
      "fzfg": false,
      "metar_trigger": false,
      "taf_trigger": false,
      "metar": "METAR LKMT 062300Z 03002KT 9999 FEW037 M06/M08 Q1015 NOSIG",
      "taf": "TAF LKMT 062300Z 0700/0724 03007KT CAVOK"
    },
    {
      "icao": "LKPR",
      "alert": "OK",
      "vis_m": 9999,
      "fzfg": false,
      "metar_trigger": false,
      "taf_trigger": false,
      "metar": "METAR LKPR 062300Z 22004KT 9999 BKN032 M06/M07 Q1016 NOSIG",
      "taf": "TAF LKPR 062300Z 0700/0806 22005KT 9999 BKN030"
    },
    {
      "icao": "LLBG",
      "alert": "OK",
      "vis_m": 9000,
      "fzfg": false,
      "metar_trigger": false,
      "taf_trigger": false,
      "metar": "METAR LLBG 062320Z VRB03KT 9000 NSC 12/09 Q1021 BECMG 3000 BCFG SCT005",
      "taf": "TAF LLBG 062303Z 0700/0724 VRB03KT 8000 NSC"
    },
    {
      "icao": "LMML",
      "alert": "OK",
      "vis_m": 9999,
      "fzfg": false,
      "metar_trigger": false,
      "taf_trigger": false,
      "metar": "METAR LMML 062315Z VRB01KT CAVOK 12/12 Q1008 NOSIG",
      "taf": "TAF LMML 062300Z 0700/0724 19008KT 9999 FEW015"
    },
    {
      "icao": "LOWW",
      "alert": "OK",
      "vis_m": 9999,
      "fzfg": false,
      "metar_trigger": false,
      "taf_trigger": false,
      "metar": "METAR LOWW 062320Z 32013KT CAVOK M03/M09 Q1015 NOSIG",
      "taf": "TAF LOWW 062315Z 0700/0806 32012KT 9999 FEW050 TXM02/0712Z TNM06/0804Z"
    },
    {
      "icao": "LPFR",
      "alert": "OK",
      "vis_m": 9999,
      "fzfg": false,
      "metar_trigger": false,
      "taf_trigger": false,
      "metar": "METAR LPFR 062300Z 33007KT CAVOK 06/01 Q1025",
      "taf": "TAF LPFR 062300Z 0700/0724 VRB05KT CAVOK"
    },
    {
      "icao": "LPMA",
      "alert": "OK",
      "vis_m": 9999,
      "fzfg": false,
      "metar_trigger": false,
      "taf_trigger": false,
      "metar": "METAR LPMA 062300Z 36011KT 330V030 9999 SCT015 14/07 Q1030",
      "taf": "TAF LPMA 062300Z 0700/0724 02013KT 9999 SCT015"
    },
    {
      "icao": "LPPR",
      "alert": "OK",
      "vis_m": 9999,
      "fzfg": false,
      "metar_trigger": false,
      "taf_trigger": false,
      "metar": "METAR LPPR 062300Z VRB02KT 9999 -RA FEW018 SCT034 BKN040 07/04 Q1024",
      "taf": "TAF LPPR 062300Z 0700/0724 VRB02KT 9999 SCT015 BKN035"
    },
    {
      "icao": "LPPS",
      "alert": "OK",
      "vis_m": 9999,
      "fzfg": false,
      "metar_trigger": false,
      "taf_trigger": false,
      "metar": "METAR LPPS 062300Z 05010KT 360V090 9999 SCT015 14/07 Q1030",
      "taf": "TAF LPPS 062300Z 0700/0806 04010KT 9999 SCT015"
    },
    {
      "icao": "LPPT",
      "alert": "OK",
      "vis_m": 9999,
      "fzfg": false,
      "metar_trigger": false,
      "taf_trigger": false,
      "metar": "METAR LPPT 062300Z 00000KT 9999 FEW040 07/04 Q1026",
      "taf": "TAF LPPT 062300Z 0700/0806 VRB02KT 9999 FEW015 BKN035"
    },
    {
      "icao": "LQBK",
      "alert": "OK",
      "vis_m": 2500,
      "fzfg": false,
      "metar_trigger": false,
      "taf_trigger": false,
      "metar": "METAR LQBK 062300Z 27005KT 2500 SN BR OVC015 M03/M04 Q1013 NOSIG",
      "taf": "TAF LQBK 062300Z 0700/0724 33007KT 6000 -SN BKN012 OVC025 TXM01/0713Z TNM05/0705Z"
    },
    {
      "icao": "LQSA",
      "alert": "OK",
      "vis_m": 1500,
      "fzfg": false,
      "metar_trigger": false,
      "taf_trigger": false,
      "metar": "METAR LQSA 062300Z 30004KT 280V010 1500 R11/1300D +SN VV011 M04/M04 Q1008",
      "taf": "TAF LQSA 062300Z 0700/0724 29005KT 7000 SCT010 OVC030 TXM02/0713Z TNM06/0705Z"
    },
    {
      "icao": "LQTZ",
      "alert": "OK",
      "vis_m": 3500,
      "fzfg": false,
      "metar_trigger": false,
      "taf_trigger": false,
      "metar": "METAR LQTZ 062300Z 28006KT 3500 -SN BR BKN010 OVC020 M04/M04 Q1012",
      "taf": "TAF LQTZ 062300Z 0700/0724 30005KT 6000 -SN BKN010 OVC025 TXM01/0713Z TNM06/0705Z"
    },
    {
      "icao": "LRBC",
      "alert": "OK",
      "vis_m": 9999,
      "fzfg": false,
      "metar_trigger": false,
      "taf_trigger": false,
      "metar": "METAR LRBC 062300Z 35004KT 9999 -DZ OVC008 01/01 Q1012",
      "taf": "TAF LRBC 062300Z 0700/0709 35007KT 9999 OVC010"
    },
    {
      "icao": "LRBS",
      "alert": "OK",
      "vis_m": 2000,
      "fzfg": false,
      "metar_trigger": false,
      "taf_trigger": false,
      "metar": "METAR LRBS 062300Z 07006KT 2000 BR BKN003 03/03 Q1010 BECMG 1000 BR OVC001",
      "taf": "TAF LRBS 062300Z 0700/0724 07010KT 0600 FG OVC001"
    },
    {
      "icao": "LRBV",
      "alert": "OK",
      "vis_m": 4300,
      "fzfg": false,
      "metar_trigger": false,
      "taf_trigger": false,
      "metar": "METAR LRBV 062300Z AUTO 14005KT 100V180 4300 BR BKN041/// OVC098/// 01/00 Q1007",
      "taf": "TAF LRBV 062000Z 0621/0706 10007KT 5000 BR SCT035 BKN060"
    },
    {
      "icao": "LRCL",
      "alert": "OK",
      "vis_m": 3000,
      "fzfg": false,
      "metar_trigger": false,
      "taf_trigger": false,
      "metar": "METAR LRCL 062300Z 05006KT 3000 BR BKN002 BKN006 01/01 Q1008",
      "taf": "TAF LRCL 062300Z 0700/0709 VRB04KT 3000 BR BKN002 BKN045"
    },
    {
      "icao": "LRCV",
      "alert": "OK",
      "vis_m": 200,
      "fzfg": false,
      "metar_trigger": false,
      "taf_trigger": false,
      "metar": "METAR LRCV 062300Z 23001KT 0200 R26/0325N FG VV002 02/02 Q1009",
      "taf": "TAF LRCV 062300Z 0700/0709 VRB04KT 0300 FG OVC002"
    },
    {
      "icao": "LRIA",
      "alert": "OK",
      "vis_m": 7000,
      "fzfg": false,
      "metar_trigger": false,
      "taf_trigger": false,
      "metar": "METAR LRIA 062300Z 30005KT 7000 OVC002 00/00 Q1012",
      "taf": "TAF LRIA 062300Z 0700/0709 31006KT 7000 OVC003"
    },
    {
      "icao": "LROP",
      "alert": "OK",
      "vis_m": 3000,
      "fzfg": false,
      "metar_trigger": false,
      "taf_trigger": false,
      "metar": "METAR LROP 062300Z 08007KT 3000 BR OVC002 04/04 Q1010 BECMG 1500 BR OVC001",
      "taf": "TAF LROP 062300Z 0700/0724 07010KT 0600 FG OVC001"
    },
    {
      "icao": "LRSB",
      "alert": "OK",
      "vis_m": 350,
      "fzfg": false,
      "metar_trigger": false,
      "taf_trigger": false,
      "metar": "METAR LRSB 062300Z 32003KT 0350 R27/0500N FG OVC003 01/01 Q1007",
      "taf": "TAF LRSB 062300Z 0700/0724 VRB04KT 0300 FG OVC001"
    },
    {
      "icao": "LRSM",
      "alert": "OK",
      "vis_m": 3300,
      "fzfg": false,
      "metar_trigger": false,
      "taf_trigger": false,
      "metar": "METAR LRSM 062300Z AUTO 00000KT 3300 -FZDZ BKN002/// OVC004/// M00/M01 Q1009",
      "taf": ""
    },
    {
      "icao": "LRSV",
      "alert": "OK",
      "vis_m": 5000,
      "fzfg": false,
      "metar_trigger": false,
      "taf_trigger": false,
      "metar": "METAR LRSV 062300Z 33006KT 5000 BR OVC006 M02/M02 Q1010",
      "taf": "TAF LRSV 062300Z 0700/0709 33007KT 5000 BR OVC005"
    },
    {
      "icao": "LRTM",
      "alert": "OK",
      "vis_m": 300,
      "fzfg": false,
      "metar_trigger": false,
      "taf_trigger": false,
      "metar": "METAR LRTM 062300Z AUTO 00000KT 0300 R07/0375N FG VV001 00/00 Q1008",
      "taf": "TAF LRTM 061400Z 0615/0624 VRB04KT 1500 BR BKN010 BKN035"
    },
    {
      "icao": "LRTR",
      "alert": "OK",
      "vis_m": 2000,
      "fzfg": false,
      "metar_trigger": false,
      "taf_trigger": false,
      "metar": "METAR LRTR 062300Z 30003KT 2000 -FZDZ BR BKN002 OVC009 M01/M01 Q1010",
      "taf": "TAF LRTR 062300Z 0700/0724 VRB04KT 1500 -FZDZ BR BKN002 OVC010"
    },
    {
      "icao": "LTAC",
      "alert": "OK",
      "vis_m": 4300,
      "fzfg": false,
      "metar_trigger": false,
      "taf_trigger": false,
      "metar": "METAR LTAC 062320Z VRB01KT 4300 BR FEW040 SCT100 01/00 Q1021 NOSIG RMK RWY21C 00000KT RWY03L 29002KT RWY21R 00000KT RWY03R 00000KT RWY21L 00000KT",
      "taf": "TAF LTAC 062240Z 0700/0724 VRB02KT 4000 BR SCT040 SCT100"
    },
    {
      "icao": "LTFM",
      "alert": "OK",
      "vis_m": 9999,
      "fzfg": false,
      "metar_trigger": false,
      "taf_trigger": false,
      "metar": "METAR LTFM 062320Z 19010KT CAVOK 11/07 Q1013 NOSIG RMK RWY17L 18012KT RWY34L 18012KT RWY16R 19013KT RWY36 17012KT RWY18 18013KT",
      "taf": "TAF LTFM 062240Z 0700/0806 19015KT CAVOK"
    },
    {
      "icao": "LUKK",
      "alert": "OK",
      "vis_m": 3300,
      "fzfg": false,
      "metar_trigger": false,
      "taf_trigger": false,
      "metar": "METAR LUKK 062300Z VRB03KT 3300 BR OVC002 02/02 Q1011 NOSIG",
      "taf": "TAF LUKK 062303Z 0700/0724 VRB04KT 3000 BR OVC002"
    },
    {
      "icao": "LWOH",
      "alert": "OK",
      "vis_m": null,
      "fzfg": false,
      "metar_trigger": false,
      "taf_trigger": false,
      "metar": "",
      "taf": "TAF LWOH 062315Z 0700/0724 14006KT 9999 RA SCT015 OVC035"
    },
    {
      "icao": "LWSK",
      "alert": "OK",
      "vis_m": 4000,
      "fzfg": false,
      "metar_trigger": false,
      "taf_trigger": false,
      "metar": "METAR LWSK 062320Z 08003KT 4000 BR SCT015 07/06 Q1008 NOSIG",
      "taf": "TAF LWSK 062315Z 0700/0724 VRB02KT 6000 SCT015"
    },
    {
      "icao": "LYBE",
      "alert": "OK",
      "vis_m": 4000,
      "fzfg": false,
      "metar_trigger": false,
      "taf_trigger": false,
      "metar": "METAR LYBE 062300Z 28007KT 4000 BR OVC003 M03/M03 Q1011 NOSIG",
      "taf": "TAF LYBE 062300Z 0700/0724 27007KT 4000 BR BKN005 BKN025 TXM01/0713Z TNM04/0706Z"
    },
    {
      "icao": "LYNI",
      "alert": "OK",
      "vis_m": 9999,
      "fzfg": false,
      "metar_trigger": false,
      "taf_trigger": false,
      "metar": "METAR LYNI 062300Z 31006KT 280V350 9999 FEW004 SCT010 OVC070 01/01 Q1008 NOSIG",
      "taf": "TAF LYNI 062300Z 0700/0724 32007KT 9999 BKN010 BKN030 TX01/0700Z TNM03/0724Z"
    },
    {
      "icao": "LYPG",
      "alert": "OK",
      "vis_m": 9999,
      "fzfg": false,
      "metar_trigger": false,
      "taf_trigger": false,
      "metar": "METAR LYPG 062300Z 12012KT 100V170 9999 -RA FEW030 SCT040 BKN070 14/12 Q1003 TEMPO 5000 RA",
      "taf": "TAF LYPG 062300Z 0700/0724 15009KT 8000 RA FEW020 BKN034 OVC070 TX15/0700Z TN06/0724Z"
    },
    {
      "icao": "LZIB",
      "alert": "OK",
      "vis_m": 9999,
      "fzfg": false,
      "metar_trigger": false,
      "taf_trigger": false,
      "metar": "METAR LZIB 062330Z 34011KT 310V010 CAVOK M02/M09 Q1014 NOSIG",
      "taf": "TAF LZIB 062315Z 0700/0800 33009KT CAVOK"
    },
    {
      "icao": "LZKZ",
      "alert": "OK",
      "vis_m": 2000,
      "fzfg": false,
      "metar_trigger": false,
      "taf_trigger": false,
      "metar": "METAR LZKZ 062330Z 36021KT 2000 SN BLSN VV011 M03/M05 Q1011 NOSIG",
      "taf": "TAF LZKZ 062315Z 0700/0800 01020KT 4000 -SN OVC020"
    },
    {
      "icao": "LZTT",
      "alert": "OK",
      "vis_m": 1500,
      "fzfg": false,
      "metar_trigger": false,
      "taf_trigger": false,
      "metar": "METAR LZTT 062330Z 07007KT 1500 SN BKN009 OVC016 M07/M08 Q1009",
      "taf": "TAF LZTT 062315Z 0700/0800 09009KT 9999 SCT016 BKN045"
    },
    {
      "icao": "OEJN",
      "alert": "OK",
      "vis_m": 9999,
      "fzfg": false,
      "metar_trigger": false,
      "taf_trigger": false,
      "metar": "METAR OEJN 062300Z 00000KT CAVOK 24/13 Q1016 NOSIG",
      "taf": "TAF OEJN 062300Z 0700/0806 36006KT CAVOK"
    },
    {
      "icao": "OEMA",
      "alert": "OK",
      "vis_m": 9999,
      "fzfg": false,
      "metar_trigger": false,
      "taf_trigger": false,
      "metar": "METAR OEMA 062300Z 36005KT CAVOK 17/01 Q1023 NOSIG",
      "taf": "TAF OEMA 062300Z 0700/0806 08006KT CAVOK"
    },
    {
      "icao": "OJAI",
      "alert": "OK",
      "vis_m": 5000,
      "fzfg": false,
      "metar_trigger": false,
      "taf_trigger": false,
      "metar": "METAR OJAI 062300Z 05006KT 5000 HZ NSC 09/M01 Q1024 NOSIG",
      "taf": "TAF OJAI 062225Z 0700/0806 VRB02KT 5000 HZ NSC"
    },
    {
      "icao": "OMAA",
      "alert": "OK",
      "vis_m": 9999,
      "fzfg": false,
      "metar_trigger": false,
      "taf_trigger": false,
      "metar": "METAR OMAA 062300Z 32006KT 230V010 CAVOK 20/11 Q1020 NOSIG",
      "taf": "TAF OMAA 062300Z 0700/0806 VRB02KT 8000 NSC"
    },
    {
      "icao": "OMDB",
      "alert": "OK",
      "vis_m": 9999,
      "fzfg": false,
      "metar_trigger": false,
      "taf_trigger": false,
      "metar": "METAR OMDB 062300Z VRB01KT CAVOK 21/10 Q1020 NOSIG",
      "taf": "TAF OMDB 062300Z 0700/0806 07005KT 8000 NSC"
    },
    {
      "icao": "UAAA",
      "alert": "OK",
      "vis_m": 5000,
      "fzfg": false,
      "metar_trigger": false,
      "taf_trigger": false,
      "metar": "METAR UAAA 062300Z 15003MPS 5000 BR SCT200 M05/M07 Q1030 NOSIG",
      "taf": "TAF UAAA 062305Z 0700/0724 22003MPS 2200 BR FU SCT011 BKN050 TX03/0709Z TNM06/0701Z"
    },
    {
      "icao": "UBBB",
      "alert": "OK",
      "vis_m": 200,
      "fzfg": false,
      "metar_trigger": false,
      "taf_trigger": false,
      "metar": "METAR UBBB 062330Z 15010KT 0200 R16/0550 R17/0550 FG BKN001 07/07 Q1022 NOSIG",
      "taf": "TAF UBBB 062300Z 0700/0724 16006KT 0200 FG VV002 TX12/0710Z TN04/0703Z"
    },
    {
      "icao": "UDSG",
      "alert": "OK",
      "vis_m": 4400,
      "fzfg": false,
      "metar_trigger": false,
      "taf_trigger": false,
      "metar": "METAR UDSG 062300Z 02002KT 4400 BR FEW049 M15/M16 Q1027 NOSIG",
      "taf": "TAF UDSG 062258Z 0700/0724 VRB06KT 5000 BR FEW040"
    },
    {
      "icao": "UDYZ",
      "alert": "OK",
      "vis_m": 3400,
      "fzfg": false,
      "metar_trigger": false,
      "taf_trigger": false,
      "metar": "METAR UDYZ 062300Z VRB02KT 3400 BR NSC M12/M14 Q1030 NOSIG",
      "taf": "TAF UDYZ 062300Z 0700/0724 VRB04KT 2300 BR FEW040"
    },
    {
      "icao": "UGKO",
      "alert": "OK",
      "vis_m": 9999,
      "fzfg": false,
      "metar_trigger": false,
      "taf_trigger": false,
      "metar": "METAR UGKO 062300Z 07008KT CAVOK 03/M03 Q1021 NOSIG",
      "taf": "TAF UGKO 062300Z 0700/0724 09007KT CAVOK TX16/0712Z TN01/0703Z"
    }
  ]
}