{
  "ts_utc": "2025-12-28T10:11:52Z",
  "threshold_m": 150,
  "source": "stations_override.txt (ICAO list) + aviationweather.gov (METAR/TAF raw)",
  "station_count": 159,
  "stations": [
    {
      "icao": "BIKF",
      "alert": "OK",
      "vis_m": 9999,
      "fzfg": false,
      "metar_trigger": false,
      "taf_trigger": false,
      "metar": "METAR BIKF 281000Z 25013KT 9999 SCT005 BKN032 07/06 Q1036",
      "taf": "TAF BIKF 280730Z 2809/2909 25012KT 8000 -DZRA SCT007 BKN014 OVC024 TX07/2815Z TN03/2909Z"
    },
    {
      "icao": "BKPR",
      "alert": "OK",
      "vis_m": 9999,
      "fzfg": false,
      "metar_trigger": false,
      "taf_trigger": false,
      "metar": "METAR BKPR 281000Z 03021KT 9999 FEW025 SCT030 03/M01 Q1018 NOSIG",
      "taf": "TAF BKPR 280530Z 2806/2906 34009KT 9999 FEW040"
    },
    {
      "icao": "EBCI",
      "alert": "OK",
      "vis_m": 9999,
      "fzfg": false,
      "metar_trigger": false,
      "taf_trigger": false,
      "metar": "METAR EBCI 280950Z 07007KT 9999 BKN015 03/M01 Q1030 NOSIG",
      "taf": "TAF EBCI 280520Z 2806/2912 06005KT 3000 BR BKN019"
    },
    {
      "icao": "EDDB",
      "alert": "OK",
      "vis_m": 9999,
      "fzfg": false,
      "metar_trigger": false,
      "taf_trigger": false,
      "metar": "METAR EDDB 280950Z AUTO 30006KT CAVOK 01/M02 Q1030 NOSIG",
      "taf": "TAF EDDB 280500Z 2806/2906 32007KT CAVOK"
    },
    {
      "icao": "EDDH",
      "alert": "OK",
      "vis_m": 9999,
      "fzfg": true,
      "metar_trigger": false,
      "taf_trigger": false,
      "metar": "METAR EDDH 280950Z AUTO VRB02KT CAVOK M01/M02 Q1033 NOSIG",
      "taf": "TAF EDDH 280500Z 2806/2912 VRB03KT 0300 FZFG OVC001"
    },
    {
      "icao": "EDDK",
      "alert": "OK",
      "vis_m": 8000,
      "fzfg": false,
      "metar_trigger": false,
      "taf_trigger": false,
      "metar": "METAR EDDK 280950Z AUTO 17002KT 8000 NCD M00/M02 Q1032 NOSIG",
      "taf": "TAF EDDK 280500Z 2806/2912 VRB03KT 9999 OVC020"
    },
    {
      "icao": "EDDN",
      "alert": "OK",
      "vis_m": 9999,
      "fzfg": false,
      "metar_trigger": false,
      "taf_trigger": false,
      "metar": "METAR EDDN 280950Z AUTO VRB01KT CAVOK M01/M04 Q1030 BECMG 06005KT",
      "taf": "TAF EDDN 280500Z 2806/2906 03003KT CAVOK"
    },
    {
      "icao": "EDDS",
      "alert": "OK",
      "vis_m": 9999,
      "fzfg": false,
      "metar_trigger": false,
      "taf_trigger": false,
      "metar": "METAR EDDS 280950Z AUTO VRB02KT CAVOK M02/M04 Q1028 NOSIG",
      "taf": "TAF EDDS 280500Z 2806/2906 VRB03KT CAVOK"
    },
    {
      "icao": "EDFH",
      "alert": "OK",
      "vis_m": 9999,
      "fzfg": false,
      "metar_trigger": false,
      "taf_trigger": false,
      "metar": "METAR EDFH 280950Z 11007KT CAVOK 01/M01 Q1029",
      "taf": "TAF EDFH 280500Z 2806/2906 09010KT 9999 OVC008"
    },
    {
      "icao": "EDJA",
      "alert": "OK",
      "vis_m": 5000,
      "fzfg": false,
      "metar_trigger": false,
      "taf_trigger": false,
      "metar": "METAR EDJA 280950Z 05006KT 5000 OVC002 M04/M05 Q1027",
      "taf": "TAF EDJA 280800Z 2809/2818 05008KT 9999 SCT005"
    },
    {
      "icao": "EDLW",
      "alert": "OK",
      "vis_m": 2800,
      "fzfg": false,
      "metar_trigger": false,
      "taf_trigger": false,
      "metar": "METAR EDLW 280950Z 36002KT 2800 R06/0650D BR FEW007 M02/M02 Q1032",
      "taf": ""
    },
    {
      "icao": "EDNY",
      "alert": "OK",
      "vis_m": 9999,
      "fzfg": false,
      "metar_trigger": false,
      "taf_trigger": false,
      "metar": "METAR EDNY 280950Z 05009KT 9999 FEW012 M01/M04 Q1028",
      "taf": "TAF EDNY 280800Z 2809/2818 05007KT 9999 SCT009"
    },
    {
      "icao": "EDSB",
      "alert": "OK",
      "vis_m": 9999,
      "fzfg": false,
      "metar_trigger": false,
      "taf_trigger": false,
      "metar": "METAR EDSB 280950Z VRB02KT CAVOK M01/M03 Q1029",
      "taf": "TAF EDSB 280500Z 2806/2906 03010KT CAVOK"
    },
    {
      "icao": "EETN",
      "alert": "OK",
      "vis_m": 9999,
      "fzfg": false,
      "metar_trigger": false,
      "taf_trigger": false,
      "metar": "METAR EETN 280950Z 34016G26KT 9999 FEW039 M00/M08 Q1009 NOSIG",
      "taf": "TAF EETN 280530Z 2806/2906 34020G32KT 9999 BKN030"
    },
    {
      "icao": "EFTU",
      "alert": "OK",
      "vis_m": 9999,
      "fzfg": false,
      "metar_trigger": false,
      "taf_trigger": false,
      "metar": "METAR EFTU 280950Z AUTO 32005KT 280V350 CAVOK M01/M09 Q1012",
      "taf": "TAF EFTU 280831Z 2809/2909 31008KT CAVOK"
    },
    {
      "icao": "EGBB",
      "alert": "OK",
      "vis_m": 9999,
      "fzfg": false,
      "metar_trigger": false,
      "taf_trigger": false,
      "metar": "METAR EGBB 280950Z 06010KT 9999 OVC020 06/02 Q1035",
      "taf": ""
    },
    {
      "icao": "EGGP",
      "alert": "OK",
      "vis_m": 9999,
      "fzfg": false,
      "metar_trigger": false,
      "taf_trigger": false,
      "metar": "METAR EGGP 280950Z 10006KT 9999 BKN024 06/01 Q1036",
      "taf": "TAF EGGP 280501Z 2806/2906 09008KT 9999 BKN026"
    },
    {
      "icao": "EGGW",
      "alert": "OK",
      "vis_m": 9999,
      "fzfg": false,
      "metar_trigger": false,
      "taf_trigger": false,
      "metar": "METAR EGGW 280950Z AUTO 05008KT 010V080 9999 OVC020 05/02 Q1033",
      "taf": ""
    },
    {
      "icao": "EGKK",
      "alert": "OK",
      "vis_m": 9999,
      "fzfg": false,
      "metar_trigger": false,
      "taf_trigger": false,
      "metar": "METAR EGKK 280950Z 03009KT 9999 BKN021 07/04 Q1032",
      "taf": "TAF EGKK 280454Z 2806/2912 04010KT 9999 BKN020"
    },
    {
      "icao": "EGNM",
      "alert": "OK",
      "vis_m": 9999,
      "fzfg": false,
      "metar_trigger": false,
      "taf_trigger": false,
      "metar": "METAR EGNM 280950Z 07006KT 9999 BKN018 05/02 Q1036",
      "taf": "TAF EGNM 280500Z 2806/2906 05008KT 9999 BKN020"
    },
    {
      "icao": "EGPD",
      "alert": "OK",
      "vis_m": 9999,
      "fzfg": false,
      "metar_trigger": false,
      "taf_trigger": false,
      "metar": "METAR EGPD 280950Z COR AUTO 35003KT 310V040 9999 OVC023 03/01 Q1038 NOSIG",
      "taf": "TAF EGPD 280456Z 2806/2906 30004KT 9999 BKN025"
    },
    {
      "icao": "EGPF",
      "alert": "OK",
      "vis_m": 9999,
      "fzfg": false,
      "metar_trigger": false,
      "taf_trigger": false,
      "metar": "METAR EGPF 280950Z AUTO 06005KT 030V090 9999 OVC023 05/02 Q1038",
      "taf": "TAF EGPF 280456Z 2806/2906 05006KT 9999 BKN030"
    },
    {
      "icao": "EHBK",
      "alert": "OK",
      "vis_m": 9000,
      "fzfg": false,
      "metar_trigger": false,
      "taf_trigger": false,
      "metar": "METAR EHBK 280955Z AUTO 04004KT 9000 NCD 03/01 Q1031 NOSIG",
      "taf": "TAF EHBK 280517Z 2806/2912 05005KT 4000 BR BKN020"
    },
    {
      "icao": "EHEH",
      "alert": "OK",
      "vis_m": 9999,
      "fzfg": false,
      "metar_trigger": false,
      "taf_trigger": false,
      "metar": "METAR EHEH 280955Z AUTO 03005KT 9999 NCD 04/01 Q1033 BLU NOSIG RMK TREND REMOTE BY EHWX",
      "taf": "TAF EHEH 280548Z 2806/2912 06003KT 9999 OVC020"
    },
    {
      "icao": "EKBI",
      "alert": "OK",
      "vis_m": 9999,
      "fzfg": false,
      "metar_trigger": false,
      "taf_trigger": false,
      "metar": "METAR EKBI 280950Z AUTO 14001KT 9999 NCD M03/M04 Q1031",
      "taf": "TAF EKBI 280827Z 2809/2909 24004KT CAVOK"
    },
    {
      "icao": "EKCH",
      "alert": "OK",
      "vis_m": 9999,
      "fzfg": false,
      "metar_trigger": false,
      "taf_trigger": false,
      "metar": "METAR EKCH 280950Z AUTO VRB07KT 9999 NCD 03/M04 Q1030 NOSIG",
      "taf": "TAF EKCH 280827Z 2809/2909 29010KT CAVOK"
    },
    {
      "icao": "ENAL",
      "alert": "OK",
      "vis_m": 9999,
      "fzfg": false,
      "metar_trigger": false,
      "taf_trigger": false,
      "metar": "METAR ENAL 280950Z 23023KT 9999 -DZRA FEW010 BKN025 05/03 Q1027",
      "taf": "TAF ENAL 280800Z 2809/2818 24018KT 9999 FEW020 BKN035"
    },
    {
      "icao": "ENBR",
      "alert": "OK",
      "vis_m": 9999,
      "fzfg": false,
      "metar_trigger": false,
      "taf_trigger": false,
      "metar": "METAR ENBR 280950Z 05002KT 9999 BKN032 00/M01 Q1033 NOSIG RMK WIND 1200FT 02008KT",
      "taf": ""
    },
    {
      "icao": "ENGM",
      "alert": "OK",
      "vis_m": 9999,
      "fzfg": false,
      "metar_trigger": false,
      "taf_trigger": false,
      "metar": "METAR ENGM 280950Z VRB02KT CAVOK M05/M08 Q1023 NOSIG",
      "taf": "TAF ENGM 280500Z 2806/2906 VRB03KT CAVOK"
    },
    {
      "icao": "ENHD",
      "alert": "OK",
      "vis_m": 9999,
      "fzfg": false,
      "metar_trigger": false,
      "taf_trigger": false,
      "metar": "METAR ENHD 280950Z 36016KT CAVOK 04/M01 Q1032",
      "taf": "TAF ENHD 280800Z 2809/2818 35018KT 9999 SCT040"
    },
    {
      "icao": "ENTC",
      "alert": "OK",
      "vis_m": 1400,
      "fzfg": false,
      "metar_trigger": false,
      "taf_trigger": false,
      "metar": "METAR ENTC 280950Z 26012KT 220V280 1400 R36/P2000N R18/P2000N -SN VV019 M00/M03 Q0996 TEMPO 28015G28KT 4500 -SHSN VV012 RMK WIND 2600FT 29029G41KT",
      "taf": ""
    },
    {
      "icao": "ENTO",
      "alert": "OK",
      "vis_m": 9999,
      "fzfg": false,
      "metar_trigger": false,
      "taf_trigger": false,
      "metar": "METAR ENTO 280950Z 18006KT CAVOK 00/M07 Q1025 NOSIG",
      "taf": "TAF ENTO 280500Z 2806/2906 28008KT CAVOK"
    },
    {
      "icao": "ENVA",
      "alert": "OK",
      "vis_m": 9999,
      "fzfg": false,
      "metar_trigger": false,
      "taf_trigger": false,
      "metar": "METAR ENVA 280950Z 25023KT 9999 -RA VV019 04/02 Q1019 TEMPO 27025G35KT 4000 SHRA BKN012CB RMK WIND 670FT 26021G37KT",
      "taf": ""
    },
    {
      "icao": "ENZV",
      "alert": "OK",
      "vis_m": 9999,
      "fzfg": false,
      "metar_trigger": false,
      "taf_trigger": false,
      "metar": "METAR ENZV 280950Z 36014KT CAVOK 03/M02 Q1032 NOSIG",
      "taf": "TAF ENZV 280500Z 2806/2906 35010KT CAVOK"
    },
    {
      "icao": "EPGD",
      "alert": "OK",
      "vis_m": 9999,
      "fzfg": false,
      "metar_trigger": false,
      "taf_trigger": false,
      "metar": "METAR EPGD 281000Z 33017KT 9999 BKN029 03/M03 Q1021",
      "taf": "TAF EPGD 280530Z 2806/2906 34018KT 9999 SCT040"
    },
    {
      "icao": "EPKK",
      "alert": "OK",
      "vis_m": 9999,
      "fzfg": false,
      "metar_trigger": false,
      "taf_trigger": false,
      "metar": "METAR EPKK 281000Z 27013KT 9999 FEW022 OVC041 00/M03 Q1021",
      "taf": "TAF EPKK 280830Z 2809/2909 27012KT 9999 FEW020 BKN040"
    },
    {
      "icao": "EPKT",
      "alert": "OK",
      "vis_m": 9999,
      "fzfg": false,
      "metar_trigger": false,
      "taf_trigger": false,
      "metar": "METAR EPKT 281000Z 29013KT 9999 SCT015 BKN038 M00/M03 Q1022",
      "taf": "TAF EPKT 280530Z 2806/2906 32012KT 9999 SCT009 BKN015"
    },
    {
      "icao": "EPLB",
      "alert": "OK",
      "vis_m": 9999,
      "fzfg": false,
      "metar_trigger": false,
      "taf_trigger": false,
      "metar": "METAR EPLB 281000Z 30017KT 9999 SCT023 BKN031 OVC044 01/M02 Q1012",
      "taf": "TAF EPLB 280530Z 2806/2906 30015KT 9999 SCT032"
    },
    {
      "icao": "EPMO",
      "alert": "OK",
      "vis_m": 9999,
      "fzfg": false,
      "metar_trigger": false,
      "taf_trigger": false,
      "metar": "METAR EPMO 281000Z 30015KT 9999 BKN037 03/M03 Q1017",
      "taf": "TAF EPMO 280530Z 2806/2906 29014KT 9999 BKN042"
    },
    {
      "icao": "EPPO",
      "alert": "OK",
      "vis_m": 9999,
      "fzfg": false,
      "metar_trigger": false,
      "taf_trigger": false,
      "metar": "METAR EPPO 281000Z 32009G19KT CAVOK 02/M03 Q1025",
      "taf": "TAF EPPO 280530Z 2806/2906 31010KT 9999 BKN040"
    },
    {
      "icao": "EPRA",
      "alert": "OK",
      "vis_m": 9999,
      "fzfg": false,
      "metar_trigger": false,
      "taf_trigger": false,
      "metar": "METAR EPRA 281000Z 31020KT 9999 BKN042 01/M03 Q1016",
      "taf": "TAF EPRA 280830Z 2809/2818 30015KT 9999 BKN040"
    },
    {
      "icao": "EPRZ",
      "alert": "OK",
      "vis_m": 9999,
      "fzfg": false,
      "metar_trigger": false,
      "taf_trigger": false,
      "metar": "METAR EPRZ 281000Z 28018KT 9999 -SHSN SCT018TCU BKN026 01/M03 Q1016",
      "taf": "TAF EPRZ 280530Z 2806/2906 29017KT 9999 SCT017"
    },
    {
      "icao": "EPSC",
      "alert": "OK",
      "vis_m": 9999,
      "fzfg": false,
      "metar_trigger": false,
      "taf_trigger": false,
      "metar": "METAR EPSC 281000Z 28009KT CAVOK 02/M01 Q1027",
      "taf": "TAF EPSC 280530Z 2806/2906 29008KT CAVOK"
    },
    {
      "icao": "EPSY",
      "alert": "OK",
      "vis_m": 9999,
      "fzfg": false,
      "metar_trigger": false,
      "taf_trigger": false,
      "metar": "METAR EPSY 281000Z 33015G26KT 290V360 9999 FEW027 BKN034 03/M03 Q1015",
      "taf": "TAF EPSY 280830Z 2809/2818 33015KT 9999 BKN030"
    },
    {
      "icao": "EPWA",
      "alert": "OK",
      "vis_m": 9999,
      "fzfg": false,
      "metar_trigger": false,
      "taf_trigger": false,
      "metar": "METAR EPWA 281000Z 30018KT 9999 BKN036 03/M03 Q1017 NOSIG",
      "taf": "TAF EPWA 280830Z 2809/2909 30015KT 9999 SCT045"
    },
    {
      "icao": "EPWR",
      "alert": "OK",
      "vis_m": 9999,
      "fzfg": false,
      "metar_trigger": false,
      "taf_trigger": false,
      "metar": "METAR EPWR 281000Z 31013KT 9999 BKN038 01/M02 Q1026",
      "taf": "TAF EPWR 280830Z 2809/2909 30012KT 9999 SCT040"
    },
    {
      "icao": "ESGG",
      "alert": "OK",
      "vis_m": 9999,
      "fzfg": false,
      "metar_trigger": false,
      "taf_trigger": false,
      "metar": "METAR ESGG 280950Z 21007KT CAVOK M00/M04 Q1026",
      "taf": "TAF ESGG 280830Z 2809/2909 30004KT CAVOK"
    },
    {
      "icao": "ESKN",
      "alert": "OK",
      "vis_m": 9999,
      "fzfg": false,
      "metar_trigger": false,
      "taf_trigger": false,
      "metar": "METAR ESKN 280950Z 28007KT CAVOK 00/M04 Q1021",
      "taf": "TAF ESKN 280830Z 2809/2909 32007KT CAVOK"
    },
    {
      "icao": "ESMS",
      "alert": "OK",
      "vis_m": 9999,
      "fzfg": false,
      "metar_trigger": false,
      "taf_trigger": false,
      "metar": "METAR ESMS 280950Z 32010KT CAVOK 01/M04 Q1028",
      "taf": "TAF ESMS 280827Z 2809/2909 30010KT CAVOK"
    },
    {
      "icao": "ESSA",
      "alert": "OK",
      "vis_m": 9999,
      "fzfg": false,
      "metar_trigger": false,
      "taf_trigger": false,
      "metar": "METAR ESSA 280950Z 29007KT CAVOK M00/M06 Q1018 NOSIG",
      "taf": "TAF ESSA 280830Z 2809/2909 31010KT CAVOK"
    },
    {
      "icao": "EYKA",
      "alert": "OK",
      "vis_m": 9999,
      "fzfg": false,
      "metar_trigger": false,
      "taf_trigger": false,
      "metar": "METAR EYKA 280950Z 32010G23KT 240V030 9999 OVC030 02/M05 Q1009",
      "taf": "TAF EYKA 280507Z 2806/2906 32014G24KT 9000 BKN020"
    },
    {
      "icao": "EYPA",
      "alert": "OK",
      "vis_m": 9999,
      "fzfg": false,
      "metar_trigger": false,
      "taf_trigger": false,
      "metar": "METAR EYPA 280950Z 01015G27KT 340V040 9999 BKN039 04/M04 Q1014",
      "taf": "TAF EYPA 280509Z 2806/2906 35015G30KT 9000 BKN030"
    },
    {
      "icao": "EYVI",
      "alert": "OK",
      "vis_m": 9999,
      "fzfg": false,
      "metar_trigger": false,
      "taf_trigger": false,
      "metar": "METAR EYVI 280950Z 33014KT 9999 VCSH BKN012CB 00/M02 Q1005 TEMPO 1500 SHSNRA BKN010",
      "taf": ""
    },
    {
      "icao": "GCFV",
      "alert": "OK",
      "vis_m": 9999,
      "fzfg": false,
      "metar_trigger": false,
      "taf_trigger": false,
      "metar": "METAR GCFV 281000Z VRB02KT 9999 SCT035 20/13 Q1020",
      "taf": "TAF GCFV 280800Z 2809/2909 20005KT 9999 SCT030 TX22/2814Z TN13/2906Z"
    },
    {
      "icao": "GCLP",
      "alert": "OK",
      "vis_m": 9999,
      "fzfg": false,
      "metar_trigger": false,
      "taf_trigger": false,
      "metar": "METAR GCLP 281000Z 22006KT 190V310 9999 FEW040 20/11 Q1020 NOSIG",
      "taf": "TAF GCLP 280800Z 2809/2909 12004KT 9999 BKN040 TX22/2814Z TN15/2906Z"
    },
    {
      "icao": "GCTS",
      "alert": "OK",
      "vis_m": 9999,
      "fzfg": false,
      "metar_trigger": false,
      "taf_trigger": false,
      "metar": "METAR GCTS 281000Z VRB02KT 9999 FEW040 20/11 Q1021 NOSIG",
      "taf": "TAF GCTS 280800Z 2809/2909 13007KT 9999 SCT040 TX23/2814Z TN15/2906Z"
    },
    {
      "icao": "GMAD",
      "alert": "OK",
      "vis_m": 6000,
      "fzfg": false,
      "metar_trigger": false,
      "taf_trigger": false,
      "metar": "METAR GMAD 281000Z 20012KT 6000 SCT020 BKN080 15/15 Q1017 NOSIG",
      "taf": "TAF GMAD 280500Z 2806/2912 22005KT 6000 BKN020 BKN080"
    },
    {
      "icao": "GMMN",
      "alert": "OK",
      "vis_m": 6000,
      "fzfg": false,
      "metar_trigger": false,
      "taf_trigger": false,
      "metar": "METAR GMMN 281000Z 22017KT 190V250 6000 -RA BKN026 11/08 Q1013 NOSIG",
      "taf": "TAF GMMN 280500Z 2806/2912 20013KT 9999 BKN016TCU"
    },
    {
      "icao": "GMMX",
      "alert": "OK",
      "vis_m": 4000,
      "fzfg": false,
      "metar_trigger": false,
      "taf_trigger": false,
      "metar": "METAR GMMX 281000Z 19008KT 4000 -RA SCT010 BKN016 FEW020CB 09/08 Q1016 TEMPO 1500 RA",
      "taf": "TAF GMMX 280500Z 2806/2912 20006KT 6000 SCT010 BKN016"
    },
    {
      "icao": "HEGN",
      "alert": "OK",
      "vis_m": 9999,
      "fzfg": false,
      "metar_trigger": false,
      "taf_trigger": false,
      "metar": "METAR HEGN 281000Z 33008KT CAVOK 22/04 Q1013 NOSIG",
      "taf": "TAF HEGN 280500Z 2806/2912 34015KT CAVOK"
    },
    {
      "icao": "HEMA",
      "alert": "OK",
      "vis_m": 9999,
      "fzfg": false,
      "metar_trigger": false,
      "taf_trigger": false,
      "metar": "METAR HEMA 281000Z 30007KT CAVOK 23/03 Q1014 NOSIG",
      "taf": "TAF HEMA 280500Z 2806/2912 35014KT CAVOK"
    },
    {
      "icao": "HESH",
      "alert": "OK",
      "vis_m": 9999,
      "fzfg": false,
      "metar_trigger": false,
      "taf_trigger": false,
      "metar": "METAR HESH 281000Z 14006KT CAVOK 23/06 Q1013 NOSIG",
      "taf": "TAF HESH 280500Z 2806/2912 01012KT CAVOK"
    },
    {
      "icao": "HESX",
      "alert": "OK",
      "vis_m": 9999,
      "fzfg": false,
      "metar_trigger": false,
      "taf_trigger": false,
      "metar": "METAR HESX 281000Z 30008KT 9999 SCT020 18/08 Q1013 NOSIG",
      "taf": "TAF HESX 280500Z 2806/2912 26008KT 9999 FEW025"
    },
    {
      "icao": "LATI",
      "alert": "OK",
      "vis_m": 9999,
      "fzfg": false,
      "metar_trigger": false,
      "taf_trigger": false,
      "metar": "METAR LATI 280950Z VRB01KT CAVOK 12/00 Q1016 NOSIG",
      "taf": "TAF LATI 280500Z 2806/2906 VRB05KT 9999 SCT030 TX15/2812Z TNM02/2904Z"
    },
    {
      "icao": "LBPD",
      "alert": "OK",
      "vis_m": 9999,
      "fzfg": false,
      "metar_trigger": false,
      "taf_trigger": false,
      "metar": "METAR LBPD 281000Z AUTO 30037KT 9999 FEW072/// 09/M02 Q1009 TEMPO 27035G48KT",
      "taf": "TAF LBPD 280500Z 2806/2906 28018KT 9999 SCT035"
    },
    {
      "icao": "LBSF",
      "alert": "OK",
      "vis_m": 9999,
      "fzfg": false,
      "metar_trigger": false,
      "taf_trigger": false,
      "metar": "METAR LBSF 281000Z 29028G39KT 9999 SCT025 03/M03 Q1013 WS ALL RWY TEMPO 29030G46KT",
      "taf": "TAF LBSF 280500Z 2806/2906 29016KT 9999 SCT015 BKN030"
    },
    {
      "icao": "LBWN",
      "alert": "OK",
      "vis_m": 9999,
      "fzfg": false,
      "metar_trigger": false,
      "taf_trigger": false,
      "metar": "METAR LBWN 281000Z 27010KT 9999 -RASN SCT027 BKN049 02/01 Q1009 NOSIG",
      "taf": "TAF LBWN 280500Z 2806/2906 29016G28KT 9999 SCT030"
    },
    {
      "icao": "LCLK",
      "alert": "OK",
      "vis_m": 9999,
      "fzfg": false,
      "metar_trigger": false,
      "taf_trigger": false,
      "metar": "METAR LCLK 281000Z VRB03KT 9999 FEW025 16/04 Q1008 NOSIG",
      "taf": "TAF LCLK 280530Z 2806/2906 33008KT 9999 FEW030 SCT060"
    },
    {
      "icao": "LCPH",
      "alert": "OK",
      "vis_m": 9999,
      "fzfg": false,
      "metar_trigger": false,
      "taf_trigger": false,
      "metar": "METAR LCPH 281000Z 31011KT 250V330 9999 SCT050 15/02 Q1008 NOSIG",
      "taf": "TAF LCPH 280530Z 2806/2906 02008KT 9999 FEW030 SCT060"
    },
    {
      "icao": "LEAL",
      "alert": "OK",
      "vis_m": 9999,
      "fzfg": false,
      "metar_trigger": false,
      "taf_trigger": false,
      "metar": "METAR LEAL 281000Z 06014KT 030V090 9999 BKN020 FEW025TCU 16/13 Q1016 NOSIG",
      "taf": "TAF LEAL 280500Z 2806/2906 04010KT 9999 SCT020 TX15/2813Z TN11/2806Z"
    },
    {
      "icao": "LEBB",
      "alert": "OK",
      "vis_m": 9999,
      "fzfg": false,
      "metar_trigger": false,
      "taf_trigger": false,
      "metar": "METAR LEBB 281000Z 09007KT 060V120 9999 FEW050 14/07 Q1020 NOSIG",
      "taf": "TAF LEBB 280500Z 2806/2906 12008KT CAVOK TX14/2814Z TN03/2903Z"
    },
    {
      "icao": "LEBL",
      "alert": "OK",
      "vis_m": 9999,
      "fzfg": false,
      "metar_trigger": false,
      "taf_trigger": false,
      "metar": "METAR LEBL 281000Z 34006KT 9999 FEW038 13/10 Q1020 NOSIG",
      "taf": ""
    },
    {
      "icao": "LECH",
      "alert": "OK",
      "vis_m": 3000,
      "fzfg": false,
      "metar_trigger": false,
      "taf_trigger": false,
      "metar": "METAR LECH 281000Z AUTO 03009KT 350V060 3000 RA SCT020 BKN035 09/09 Q1019",
      "taf": ""
    },
    {
      "icao": "LEMD",
      "alert": "OK",
      "vis_m": 9999,
      "fzfg": false,
      "metar_trigger": false,
      "taf_trigger": false,
      "metar": "METAR LEMD 281000Z 01004KT 330V080 9999 -RA FEW010 BKN065 08/04 Q1017 NOSIG",
      "taf": "TAF LEMD 280500Z 2806/2912 09006KT 9999 SCT040 BKN045 TX12/2815Z TN03/2906Z"
    },
    {
      "icao": "LEMG",
      "alert": "OK",
      "vis_m": 9999,
      "fzfg": false,
      "metar_trigger": false,
      "taf_trigger": false,
      "metar": "METAR LEMG 281000Z VRB01KT 9999 VCFG FEW012 BKN050 12/10 Q1013 NOSIG",
      "taf": "TAF LEMG 280500Z 2806/2906 VRB03KT 9999 FEW020 TX16/2814Z TN12/2806Z"
    },
    {
      "icao": "LEVC",
      "alert": "OK",
      "vis_m": 9999,
      "fzfg": false,
      "metar_trigger": false,
      "taf_trigger": false,
      "metar": "METAR LEVC 281000Z 04005KT 360V100 9999 FEW016 BKN061 14/11 Q1018 TEMPO 2500 TSRA SCT025CB",
      "taf": ""
    },
    {
      "icao": "LEXJ",
      "alert": "OK",
      "vis_m": 9999,
      "fzfg": false,
      "metar_trigger": false,
      "taf_trigger": false,
      "metar": "METAR LEXJ 281000Z 17003KT 9999 FEW048 11/06 Q1019",
      "taf": "TAF LEXJ 280800Z 2809/2909 10009KT CAVOK TX15/2814Z TN07/2809Z"
    },
    {
      "icao": "LEZG",
      "alert": "OK",
      "vis_m": 9999,
      "fzfg": false,
      "metar_trigger": false,
      "taf_trigger": false,
      "metar": "METAR LEZG 281000Z VRB01KT 9999 BKN030 OVC065 10/10 Q1020 NOSIG",
      "taf": "TAF LEZG 280500Z 2806/2906 13006KT 9999 SCT015 BKN025 TX11/2814Z TN05/2806Z"
    },
    {
      "icao": "LEZL",
      "alert": "OK",
      "vis_m": 9999,
      "fzfg": false,
      "metar_trigger": false,
      "taf_trigger": false,
      "metar": "METAR LEZL 281000Z 05004KT 010V080 9999 FEW044 12/10 Q1013 NOSIG",
      "taf": "TAF LEZL 280800Z 2809/2909 08005KT CAVOK TX17/2815Z TN05/2906Z"
    },
    {
      "icao": "LFBD",
      "alert": "OK",
      "vis_m": 9999,
      "fzfg": false,
      "metar_trigger": false,
      "taf_trigger": false,
      "metar": "METAR LFBD 281000Z AUTO 05006KT 9999 OVC031 07/01 Q1022 NOSIG",
      "taf": "TAF LFBD 280500Z 2806/2912 05005KT CAVOK TX12/2814Z TN01/2905Z"
    },
    {
      "icao": "LFLL",
      "alert": "OK",
      "vis_m": 5000,
      "fzfg": false,
      "metar_trigger": false,
      "taf_trigger": false,
      "metar": "METAR LFLL 281000Z VRB03KT 5000 BR BKN002 OVC004 M00/M01 Q1025 NOSIG",
      "taf": "TAF LFLL 280500Z 2806/2912 VRB03KT 6000 OVC006"
    },
    {
      "icao": "LFLS",
      "alert": "OK",
      "vis_m": 9999,
      "fzfg": false,
      "metar_trigger": false,
      "taf_trigger": false,
      "metar": "METAR LFLS 281000Z AUTO 10005KT 9999 SCT008 01/M01 Q1024 NOSIG",
      "taf": "TAF LFLS 280800Z 2809/2909 03007KT 9000 NSC"
    },
    {
      "icao": "LFMN",
      "alert": "OK",
      "vis_m": 9999,
      "fzfg": false,
      "metar_trigger": false,
      "taf_trigger": false,
      "metar": "METAR LFMN 281000Z 32015KT CAVOK 12/M05 Q1019 NOSIG",
      "taf": "TAF LFMN 280800Z 2809/2915 33012KT CAVOK"
    },
    {
      "icao": "LFOB",
      "alert": "OK",
      "vis_m": 9999,
      "fzfg": false,
      "metar_trigger": false,
      "taf_trigger": false,
      "metar": "METAR LFOB 281000Z AUTO 06011KT 9999 OVC014 04/01 Q1030",
      "taf": "TAF LFOB 272300Z 2800/2824 02006KT 8000 NSC"
    },
    {
      "icao": "LFPO",
      "alert": "OK",
      "vis_m": 9999,
      "fzfg": false,
      "metar_trigger": false,
      "taf_trigger": false,
      "metar": "METAR LFPO 281000Z AUTO 04010KT 9999 BKN009 02/00 Q1029",
      "taf": "TAF LFPO 280500Z 2806/2912 02008KT 6000 BKN006"
    },
    {
      "icao": "LFSB",
      "alert": "OK",
      "vis_m": 4500,
      "fzfg": false,
      "metar_trigger": false,
      "taf_trigger": false,
      "metar": "METAR LFSB 281000Z AUTO 34007KT 4500 BR SCT004 SCT009 BKN014 M00/M01 Q1028 TEMPO BKN009",
      "taf": ""
    },
    {
      "icao": "LGAV",
      "alert": "OK",
      "vis_m": 9999,
      "fzfg": false,
      "metar_trigger": false,
      "taf_trigger": false,
      "metar": "METAR LGAV 280950Z 08007KT CAVOK 15/05 Q1011 NOSIG",
      "taf": "TAF LGAV 280500Z 2806/2906 28010KT 9999 FEW020"
    },
    {
      "icao": "LGTS",
      "alert": "OK",
      "vis_m": 9999,
      "fzfg": false,
      "metar_trigger": false,
      "taf_trigger": false,
      "metar": "METAR LGTS 280950Z 31029G39KT 9999 FEW025 13/01 Q1011 NOSIG",
      "taf": "TAF LGTS 280500Z 2806/2906 33015KT 9999 FEW030"
    },
    {
      "icao": "LHBP",
      "alert": "OK",
      "vis_m": 9999,
      "fzfg": false,
      "metar_trigger": false,
      "taf_trigger": false,
      "metar": "METAR LHBP 281000Z 32018G28KT CAVOK 04/M05 Q1021 NOSIG",
      "taf": "TAF LHBP 280515Z 2806/2906 31012G22KT CAVOK"
    },
    {
      "icao": "LHDC",
      "alert": "OK",
      "vis_m": 9999,
      "fzfg": false,
      "metar_trigger": false,
      "taf_trigger": false,
      "metar": "METAR LHDC 280945Z AUTO 26007KT 230V290 CAVOK 02/M02 Q1019 NOSIG",
      "taf": "TAF LHDC 280815Z 2809/2818 27008KT CAVOK"
    },
    {
      "icao": "LIBD",
      "alert": "OK",
      "vis_m": 9999,
      "fzfg": false,
      "metar_trigger": false,
      "taf_trigger": false,
      "metar": "METAR LIBD 280950Z 26008KT CAVOK 11/05 Q1018",
      "taf": "TAF LIBD 280500Z 2806/2906 28010KT 9999 FEW030"
    },
    {
      "icao": "LIBG",
      "alert": "OK",
      "vis_m": 9999,
      "fzfg": false,
      "metar_trigger": false,
      "taf_trigger": false,
      "metar": "METAR LIBG 280950Z 25005KT CAVOK 11/09 Q1017",
      "taf": "TAF LIBG 280800Z 2809/2818 VRB05KT CAVOK"
    },
    {
      "icao": "LIBP",
      "alert": "OK",
      "vis_m": 9999,
      "fzfg": false,
      "metar_trigger": false,
      "taf_trigger": false,
      "metar": "METAR LIBP 280950Z AUTO 24004KT 200V260 9999 NCD 11/03 Q1020",
      "taf": "TAF LIBP 280500Z 2806/2906 VRB06KT CAVOK"
    },
    {
      "icao": "LIBR",
      "alert": "OK",
      "vis_m": 9999,
      "fzfg": false,
      "metar_trigger": false,
      "taf_trigger": false,
      "metar": "METAR LIBR 280950Z 32017KT 9999 SCT025 12/08 Q1017",
      "taf": "TAF LIBR 280500Z 2806/2906 33013KT 9999 FEW025"
    },
    {
      "icao": "LICA",
      "alert": "OK",
      "vis_m": 9999,
      "fzfg": false,
      "metar_trigger": false,
      "taf_trigger": false,
      "metar": "METAR LICA 280950Z AUTO 23009KT 9999 NCD 15/10 Q1019",
      "taf": "TAF LICA 280500Z 2806/2906 07008KT CAVOK"
    },
    {
      "icao": "LICC",
      "alert": "OK",
      "vis_m": 9999,
      "fzfg": false,
      "metar_trigger": false,
      "taf_trigger": false,
      "metar": "METAR LICC 280950Z 24008KT CAVOK 14/12 Q1020",
      "taf": "TAF LICC 280500Z 2806/2906 28008KT 9999 FEW030"
    },
    {
      "icao": "LICJ",
      "alert": "OK",
      "vis_m": 9999,
      "fzfg": false,
      "metar_trigger": false,
      "taf_trigger": false,
      "metar": "METAR LICJ 280950Z 33004KT CAVOK 15/11 Q1020",
      "taf": "TAF LICJ 280500Z 2806/2906 VRB05KT 9999 FEW040"
    },
    {
      "icao": "LIMC",
      "alert": "OK",
      "vis_m": 9999,
      "fzfg": false,
      "metar_trigger": false,
      "taf_trigger": false,
      "metar": "METAR LIMC 280950Z VRB02KT CAVOK 08/02 Q1019 NOSIG",
      "taf": "TAF LIMC 280500Z 2806/2912 VRB05KT 6000 FEW030"
    },
    {
      "icao": "LIME",
      "alert": "OK",
      "vis_m": 9999,
      "fzfg": false,
      "metar_trigger": false,
      "taf_trigger": false,
      "metar": "METAR LIME 280950Z 12004KT 080V150 CAVOK 08/M00 Q1019 NOSIG",
      "taf": "TAF LIME 280500Z 2806/2906 VRB05KT CAVOK"
    },
    {
      "icao": "LIMF",
      "alert": "OK",
      "vis_m": 9999,
      "fzfg": false,
      "metar_trigger": false,
      "taf_trigger": false,
      "metar": "METAR LIMF 280950Z VRB01KT CAVOK 08/01 Q1019",
      "taf": "TAF LIMF 280500Z 2806/2906 VRB06KT CAVOK"
    },
    {
      "icao": "LIMJ",
      "alert": "OK",
      "vis_m": 9999,
      "fzfg": false,
      "metar_trigger": false,
      "taf_trigger": false,
      "metar": "METAR LIMJ 280950Z VRB02KT CAVOK 13/02 Q1020",
      "taf": "TAF LIMJ 280500Z 2806/2906 03012KT CAVOK"
    },
    {
      "icao": "LIPE",
      "alert": "OK",
      "vis_m": 9999,
      "fzfg": false,
      "metar_trigger": false,
      "taf_trigger": false,
      "metar": "METAR LIPE 280950Z 23003KT 190V260 CAVOK 08/01 Q1020",
      "taf": "TAF LIPE 280500Z 2806/2906 VRB06KT CAVOK"
    },
    {
      "icao": "LIPH",
      "alert": "OK",
      "vis_m": 9999,
      "fzfg": false,
      "metar_trigger": false,
      "taf_trigger": false,
      "metar": "METAR LIPH 280950Z 03003KT 360V090 CAVOK 07/01 Q1020",
      "taf": "TAF LIPH 280500Z 2806/2906 VRB05KT CAVOK"
    },
    {
      "icao": "LIPQ",
      "alert": "OK",
      "vis_m": 9999,
      "fzfg": false,
      "metar_trigger": false,
      "taf_trigger": false,
      "metar": "METAR LIPQ 280950Z AUTO 13005KT 090V160 9999 NCD 12/00 Q1020",
      "taf": "TAF LIPQ 280500Z 2806/2906 VRB05KT CAVOK"
    },
    {
      "icao": "LIPR",
      "alert": "OK",
      "vis_m": 9999,
      "fzfg": false,
      "metar_trigger": false,
      "taf_trigger": false,
      "metar": "METAR LIPR 280950Z VRB02KT CAVOK 10/01 Q1020",
      "taf": "TAF LIPR 280500Z 2806/2906 VRB06KT CAVOK"
    },
    {
      "icao": "LIPX",
      "alert": "OK",
      "vis_m": 9999,
      "fzfg": false,
      "metar_trigger": false,
      "taf_trigger": false,
      "metar": "METAR LIPX 280950Z 21003KT CAVOK 06/01 Q1020",
      "taf": "TAF LIPX 280500Z 2806/2906 VRB06KT CAVOK"
    },
    {
      "icao": "LIPY",
      "alert": "OK",
      "vis_m": 9999,
      "fzfg": false,
      "metar_trigger": false,
      "taf_trigger": false,
      "metar": "METAR LIPY 280950Z AUTO 20003KT 9999 NCD 10/02 Q1020",
      "taf": "TAF LIPY 280500Z 2806/2906 VRB05KT CAVOK"
    },
    {
      "icao": "LIPZ",
      "alert": "OK",
      "vis_m": 6000,
      "fzfg": false,
      "metar_trigger": false,
      "taf_trigger": false,
      "metar": "METAR LIPZ 280950Z 05003KT 360V080 6000 SCT003 04/03 Q1020 NOSIG",
      "taf": "TAF LIPZ 280500Z 2806/2912 VRB05KT CAVOK"
    },
    {
      "icao": "LIRF",
      "alert": "OK",
      "vis_m": 9999,
      "fzfg": false,
      "metar_trigger": false,
      "taf_trigger": false,
      "metar": "METAR LIRF 280950Z 07003KT 040V110 CAVOK 08/04 Q1020 NOSIG",
      "taf": "TAF LIRF 280500Z 2806/2912 04008KT CAVOK"
    },
    {
      "icao": "LIRN",
      "alert": "OK",
      "vis_m": 9999,
      "fzfg": false,
      "metar_trigger": false,
      "taf_trigger": false,
      "metar": "METAR LIRN 280950Z VRB02KT CAVOK 10/01 Q1020 NOSIG",
      "taf": "TAF LIRN 280500Z 2806/2906 02007KT CAVOK"
    },
    {
      "icao": "LIRP",
      "alert": "OK",
      "vis_m": 9999,
      "fzfg": false,
      "metar_trigger": false,
      "taf_trigger": false,
      "metar": "METAR LIRP 280945Z 12006KT CAVOK 06/04 Q1020 NOSIG",
      "taf": "TAF LIRP 280500Z 2806/2906 12005KT CAVOK"
    },
    {
      "icao": "LIRZ",
      "alert": "OK",
      "vis_m": 9999,
      "fzfg": false,
      "metar_trigger": false,
      "taf_trigger": false,
      "metar": "METAR LIRZ 280950Z AUTO 15003KT 120V200 9999 NCD 03/00 Q1020",
      "taf": "TAF LIRZ 280500Z 2806/2906 VRB06KT CAVOK"
    },
    {
      "icao": "LJLJ",
      "alert": "OK",
      "vis_m": 7000,
      "fzfg": true,
      "metar_trigger": false,
      "taf_trigger": false,
      "metar": "METAR LJLJ 281000Z 31003KT 280V340 7000 SCT004 OVC010 M01/M01 Q1025 NOSIG",
      "taf": "TAF LJLJ 280500Z 2806/2906 30002KT 0400 FZFG VV002"
    },
    {
      "icao": "LKMT",
      "alert": "OK",
      "vis_m": 9999,
      "fzfg": false,
      "metar_trigger": false,
      "taf_trigger": false,
      "metar": "METAR LKMT 281000Z 34009KT 9999 BKN043 01/M04 Q1025 NOSIG",
      "taf": "TAF LKMT 280500Z 2806/2906 35010KT 9999 BKN040"
    },
    {
      "icao": "LKPR",
      "alert": "OK",
      "vis_m": 9999,
      "fzfg": false,
      "metar_trigger": false,
      "taf_trigger": false,
      "metar": "METAR LKPR 281000Z 28006KT 250V310 9999 BKN021 01/M03 Q1028 NOSIG",
      "taf": "TAF LKPR 280800Z 2809/2915 28008KT CAVOK"
    },
    {
      "icao": "LLBG",
      "alert": "OK",
      "vis_m": 9999,
      "fzfg": false,
      "metar_trigger": false,
      "taf_trigger": false,
      "metar": "METAR LLBG 280950Z 33009KT 9999 SCT035 BKN050 14/10 Q1010 RERA TEMPO 5000 RA FEW025TCU BKN030",
      "taf": "TAF LLBG 280502Z 2806/2906 27013KT 9999 SCT035"
    },
    {
      "icao": "LMML",
      "alert": "OK",
      "vis_m": 9999,
      "fzfg": false,
      "metar_trigger": false,
      "taf_trigger": false,
      "metar": "METAR LMML 280945Z 10006KT 070V140 9999 FEW030 17/11 Q1020 NOSIG",
      "taf": "TAF LMML 280500Z 2806/2906 07006KT 9999 FEW020"
    },
    {
      "icao": "LOWW",
      "alert": "OK",
      "vis_m": 9999,
      "fzfg": false,
      "metar_trigger": false,
      "taf_trigger": false,
      "metar": "METAR LOWW 280950Z 33019KT 300V360 9999 FEW026 BKN030 03/M03 Q1026 NOSIG",
      "taf": "TAF LOWW 280815Z 2809/2915 31013KT 9999 SCT035 TX04/2813Z TNM04/2905Z"
    },
    {
      "icao": "LPFR",
      "alert": "OK",
      "vis_m": 6000,
      "fzfg": false,
      "metar_trigger": false,
      "taf_trigger": false,
      "metar": "METAR LPFR 281000Z 13011KT 6000 -SHRA FEW014 FEW018CB BKN040 11/10 Q1010 RESHRA",
      "taf": ""
    },
    {
      "icao": "LPMA",
      "alert": "OK",
      "vis_m": 9999,
      "fzfg": false,
      "metar_trigger": false,
      "taf_trigger": false,
      "metar": "METAR LPMA 281000Z 20005KT 140V270 9999 FEW016 17/06 Q1019",
      "taf": "TAF LPMA 280500Z 2806/2906 VRB05KT 9999 SCT015"
    },
    {
      "icao": "LPPR",
      "alert": "OK",
      "vis_m": 9999,
      "fzfg": false,
      "metar_trigger": false,
      "taf_trigger": false,
      "metar": "METAR LPPR 281000Z 05003KT 320V130 CAVOK 10/05 Q1015",
      "taf": "TAF LPPR 280500Z 2806/2906 VRB02KT CAVOK"
    },
    {
      "icao": "LPPS",
      "alert": "OK",
      "vis_m": 9999,
      "fzfg": false,
      "metar_trigger": false,
      "taf_trigger": false,
      "metar": "METAR LPPS 281000Z 31010KT 9999 SCT014 15/10 Q1019",
      "taf": "TAF LPPS 280500Z 2806/2912 33013KT 9999 SCT015"
    },
    {
      "icao": "LPPT",
      "alert": "OK",
      "vis_m": 9999,
      "fzfg": false,
      "metar_trigger": false,
      "taf_trigger": false,
      "metar": "METAR LPPT 281000Z 05012G28KT 360V090 9999 FEW015 10/08 Q1013",
      "taf": "TAF LPPT 280500Z 2806/2912 05010KT 9999 FEW015 BKN030"
    },
    {
      "icao": "LQBK",
      "alert": "OK",
      "vis_m": 9999,
      "fzfg": false,
      "metar_trigger": false,
      "taf_trigger": false,
      "metar": "METAR LQBK 281000Z VRB03KT CAVOK 04/00 Q1026 NOSIG",
      "taf": "TAF LQBK 280500Z 2806/2906 30005KT CAVOK TX06/2813Z TNM05/2905Z"
    },
    {
      "icao": "LQSA",
      "alert": "OK",
      "vis_m": 9999,
      "fzfg": false,
      "metar_trigger": false,
      "taf_trigger": false,
      "metar": "METAR LQSA 281000Z VRB02KT 9999 FEW012 SCT022 02/M01 Q1023 NOSIG",
      "taf": "TAF LQSA 280500Z 2806/2906 VRB02KT 9999 OVC008 TX03/2813Z TNM08/2905Z"
    },
    {
      "icao": "LQTZ",
      "alert": "OK",
      "vis_m": 9999,
      "fzfg": false,
      "metar_trigger": false,
      "taf_trigger": false,
      "metar": "METAR LQTZ 281000Z 28005KT 250V310 9999 BKN035 02/00 Q1024",
      "taf": "TAF LQTZ 280500Z 2806/2906 36005KT 9999 SCT030 TX02/2813Z TNM08/2905Z"
    },
    {
      "icao": "LRBC",
      "alert": "OK",
      "vis_m": 9999,
      "fzfg": false,
      "metar_trigger": false,
      "taf_trigger": false,
      "metar": "METAR LRBC 281000Z 33018KT 9999 BKN059 05/M04 Q1006",
      "taf": "TAF LRBC 280800Z 2809/2818 31016KT 9999 BKN050"
    },
    {
      "icao": "LRBS",
      "alert": "OK",
      "vis_m": 9999,
      "fzfg": false,
      "metar_trigger": false,
      "taf_trigger": false,
      "metar": "METAR LRBS 281000Z 35008KT 260V050 CAVOK 05/M06 Q1011 NOSIG",
      "taf": "TAF LRBS 280500Z 2806/2906 27009KT CAVOK"
    },
    {
      "icao": "LRBV",
      "alert": "OK",
      "vis_m": 9999,
      "fzfg": false,
      "metar_trigger": false,
      "taf_trigger": false,
      "metar": "METAR LRBV 281000Z 30021KT 9999 BKN018 BKN022 M01/M04 Q1010",
      "taf": "TAF LRBV 280800Z 2809/2818 31018G30KT 9999 SCT015 BKN030"
    },
    {
      "icao": "LRCL",
      "alert": "OK",
      "vis_m": 9999,
      "fzfg": false,
      "metar_trigger": false,
      "taf_trigger": false,
      "metar": "METAR LRCL 281000Z 30021G31KT 9999 FEW030 OVC062 02/M04 Q1014",
      "taf": "TAF LRCL 280800Z 2809/2818 29018KT 9999 SCT045 BKN065"
    },
    {
      "icao": "LRCV",
      "alert": "OK",
      "vis_m": 9999,
      "fzfg": false,
      "metar_trigger": false,
      "taf_trigger": false,
      "metar": "METAR LRCV 281000Z 32011KT CAVOK 04/M03 Q1013",
      "taf": "TAF LRCV 280800Z 2809/2818 31014KT CAVOK"
    },
    {
      "icao": "LRIA",
      "alert": "OK",
      "vis_m": 9999,
      "fzfg": false,
      "metar_trigger": false,
      "taf_trigger": false,
      "metar": "METAR LRIA 281000Z 30027G37KT 270V330 9999 BKN025 03/M02 Q1004",
      "taf": "TAF LRIA 280800Z 2809/2818 31020KT 9999 BKN035"
    },
    {
      "icao": "LROP",
      "alert": "OK",
      "vis_m": 9999,
      "fzfg": false,
      "metar_trigger": false,
      "taf_trigger": false,
      "metar": "METAR LROP 281000Z 33011KT CAVOK 06/M09 Q1010 NOSIG",
      "taf": "TAF LROP 280500Z 2806/2906 27009KT CAVOK"
    },
    {
      "icao": "LRSB",
      "alert": "OK",
      "vis_m": 9999,
      "fzfg": false,
      "metar_trigger": false,
      "taf_trigger": false,
      "metar": "METAR LRSB 281000Z 29016KT 9999 FEW030 SCT050 BKN070 02/M06 Q1012 NOSIG",
      "taf": "TAF LRSB 280500Z 2806/2906 31012KT 9999 SCT010 BKN030"
    },
    {
      "icao": "LRSM",
      "alert": "OK",
      "vis_m": 9999,
      "fzfg": false,
      "metar_trigger": false,
      "taf_trigger": false,
      "metar": "METAR LRSM 281000Z 32019KT 9999 FEW032 04/M03 Q1016",
      "taf": "TAF LRSM 280800Z 2809/2818 31015KT 9999 BKN040"
    },
    {
      "icao": "LRSV",
      "alert": "OK",
      "vis_m": 1500,
      "fzfg": false,
      "metar_trigger": false,
      "taf_trigger": false,
      "metar": "METAR LRSV 281000Z 31022KT 1500 SN BLSN BKN016 BKN026 M00/M02 Q1005",
      "taf": ""
    },
    {
      "icao": "LRTM",
      "alert": "OK",
      "vis_m": 9999,
      "fzfg": false,
      "metar_trigger": false,
      "taf_trigger": false,
      "metar": "METAR LRTM 281000Z 28019G30KT 9999 SCT016 SCT023 02/M03 Q1012",
      "taf": "TAF LRTM 280800Z 2809/2818 29015KT 9999 SCT010 BKN025"
    },
    {
      "icao": "LRTR",
      "alert": "OK",
      "vis_m": 9999,
      "fzfg": false,
      "metar_trigger": false,
      "taf_trigger": false,
      "metar": "METAR LRTR 281000Z 31011KT CAVOK 03/M01 Q1020 NOSIG",
      "taf": "TAF LRTR 280500Z 2806/2906 32010KT 9999 SCT025"
    },
    {
      "icao": "LTAC",
      "alert": "OK",
      "vis_m": 9999,
      "fzfg": false,
      "metar_trigger": false,
      "taf_trigger": false,
      "metar": "METAR LTAC 280950Z 24015KT 9999 SCT023 BKN080 00/M06 Q1004 NOSIG RMK RWY21C 23014KT RWY03L 24013KT RWY21R 23014KT 200V260 RWY03R 23011KT RWY21L 24014KT",
      "taf": "TAF LTAC 280440Z 2806/2906 VRB02KT 9999 SCT030 BKN080"
    },
    {
      "icao": "LTFM",
      "alert": "OK",
      "vis_m": 9999,
      "fzfg": false,
      "metar_trigger": false,
      "taf_trigger": false,
      "metar": "METAR LTFM 280950Z 32016KT 9999 -SHRA BKN025 07/00 Q1008 NOSIG RMK RWY17L 31017KT RWY34L 30012KT RWY16R 31012KT RWY36 31016KT RWY18 33022KT",
      "taf": "TAF LTFM 280440Z 2806/2912 22020G30KT 9999 BKN022"
    },
    {
      "icao": "LUKK",
      "alert": "OK",
      "vis_m": 9999,
      "fzfg": false,
      "metar_trigger": false,
      "taf_trigger": false,
      "metar": "METAR LUKK 281000Z 33018G30KT 300V360 9999 BKN028 BKN044 03/M03 Q1001 TEMPO 34024G36KT",
      "taf": "TAF LUKK 280525Z 2806/2906 31018G28KT 9999 BKN015"
    },
    {
      "icao": "LWOH",
      "alert": "OK",
      "vis_m": 9999,
      "fzfg": false,
      "metar_trigger": false,
      "taf_trigger": false,
      "metar": "METAR LWOH 280950Z 17004KT 130V250 CAVOK 06/00 Q1015",
      "taf": "TAF LWOH 280820Z 2809/2909 VRB02KT CAVOK"
    },
    {
      "icao": "LWSK",
      "alert": "OK",
      "vis_m": 9999,
      "fzfg": false,
      "metar_trigger": false,
      "taf_trigger": false,
      "metar": "METAR LWSK 280950Z 01023G34KT 340V040 9999 FEW060 07/01 Q1016 NOSIG",
      "taf": "TAF LWSK 280820Z 2809/2909 VRB02KT CAVOK"
    },
    {
      "icao": "LYBE",
      "alert": "OK",
      "vis_m": 9999,
      "fzfg": false,
      "metar_trigger": false,
      "taf_trigger": false,
      "metar": "METAR LYBE 281000Z 28013KT CAVOK 03/M01 Q1023 NOSIG",
      "taf": "TAF LYBE 280500Z 2806/2906 32015KT 9999 BKN025 TX04/2812Z TNM03/2906Z"
    },
    {
      "icao": "LYNI",
      "alert": "OK",
      "vis_m": 9999,
      "fzfg": false,
      "metar_trigger": false,
      "taf_trigger": false,
      "metar": "METAR LYNI 281000Z 29018G28KT 9999 SCT030 04/M03 Q1019 NOSIG",
      "taf": "TAF LYNI 280500Z 2806/2906 32017KT 9999 BKN030 TX03/2812Z TNM02/2906Z"
    },
    {
      "icao": "LYPG",
      "alert": "OK",
      "vis_m": 9999,
      "fzfg": false,
      "metar_trigger": false,
      "taf_trigger": false,
      "metar": "METAR LYPG 281000Z 13004KT 100V160 CAVOK 09/M01 Q1017 BECMG 36012KT",
      "taf": "TAF LYPG 280500Z 2806/2906 34005KT CAVOK TX13/2813Z TNM00/2806Z"
    },
    {
      "icao": "LZIB",
      "alert": "OK",
      "vis_m": 9999,
      "fzfg": false,
      "metar_trigger": false,
      "taf_trigger": false,
      "metar": "METAR LZIB 281000Z 33015KT 290V350 9999 SCT034 BKN042 04/M03 Q1025 NOSIG",
      "taf": "TAF LZIB 280515Z 2806/2906 30014KT 9999 FEW045"
    },
    {
      "icao": "LZKZ",
      "alert": "OK",
      "vis_m": 9999,
      "fzfg": false,
      "metar_trigger": false,
      "taf_trigger": false,
      "metar": "METAR LZKZ 281000Z 33017G30KT 310V010 9999 FEW039 SCT046 04/M06 Q1018 NOSIG",
      "taf": "TAF LZKZ 280515Z 2806/2906 35012KT 9999 SCT045"
    },
    {
      "icao": "LZTT",
      "alert": "OK",
      "vis_m": 9999,
      "fzfg": false,
      "metar_trigger": false,
      "taf_trigger": false,
      "metar": "METAR LZTT 281000Z 26016KT 240V300 9999 FEW016 SCT050 01/M07 Q1015 NOSIG",
      "taf": "TAF LZTT 280515Z 2806/2906 26014KT 9999 BKN050"
    },
    {
      "icao": "OEJN",
      "alert": "OK",
      "vis_m": 9999,
      "fzfg": false,
      "metar_trigger": false,
      "taf_trigger": false,
      "metar": "METAR OEJN 281000Z 35007KT CAVOK 28/09 Q1011 NOSIG",
      "taf": "TAF OEJN 280500Z 2806/2912 36006KT CAVOK"
    },
    {
      "icao": "OEMA",
      "alert": "OK",
      "vis_m": 9999,
      "fzfg": false,
      "metar_trigger": false,
      "taf_trigger": false,
      "metar": "METAR OEMA 281000Z 25009KT CAVOK 21/M01 Q1014 NOSIG",
      "taf": "TAF OEMA 280500Z 2806/2912 28010KT CAVOK"
    },
    {
      "icao": "OJAI",
      "alert": "OK",
      "vis_m": 3500,
      "fzfg": false,
      "metar_trigger": false,
      "taf_trigger": false,
      "metar": "METAR OJAI 281000Z 24018KT 3500 BR FEW025 SCT080 10/07 Q1009 NOSIG",
      "taf": "TAF OJAI 280500Z 2806/2912 29018G30KT 3000 RA BR FEW020TCU BKN025"
    },
    {
      "icao": "OMAA",
      "alert": "OK",
      "vis_m": 9999,
      "fzfg": false,
      "metar_trigger": false,
      "taf_trigger": false,
      "metar": "METAR OMAA 281000Z 16013KT CAVOK 27/10 Q1011 NOSIG",
      "taf": "TAF OMAA 280500Z 2806/2912 16012KT 8000 NSC"
    },
    {
      "icao": "OMDB",
      "alert": "OK",
      "vis_m": 9999,
      "fzfg": false,
      "metar_trigger": false,
      "taf_trigger": false,
      "metar": "METAR OMDB 281000Z 20011KT 170V240 9999 FEW045 27/12 Q1011 NOSIG",
      "taf": "TAF OMDB 280500Z 2806/2912 18008KT 8000 NSC"
    },
    {
      "icao": "UAAA",
      "alert": "OK",
      "vis_m": 3000,
      "fzfg": false,
      "metar_trigger": false,
      "taf_trigger": false,
      "metar": "METAR UAAA 281000Z VRB01MPS 3000 BR SCT100 BKN200 M00/M03 Q1014 NOSIG",
      "taf": "TAF UAAA 280508Z 2806/2906 28003MPS 3100 BR BKN011 OVC100 TX01/2809Z TNM03/2901Z"
    },
    {
      "icao": "UBBB",
      "alert": "OK",
      "vis_m": 9999,
      "fzfg": false,
      "metar_trigger": false,
      "taf_trigger": false,
      "metar": "METAR UBBB 281000Z 33014KT 9999 -SHRA SCT027CB OVC027 06/03 Q1002 NOSIG",
      "taf": "TAF UBBB 280502Z 2806/2906 33018G28KT 9999 SCT012 BKN020 TX06/2808Z TN02/2902Z"
    },
    {
      "icao": "UDSG",
      "alert": "OK",
      "vis_m": 9999,
      "fzfg": false,
      "metar_trigger": false,
      "taf_trigger": false,
      "metar": "METAR UDSG 281000Z 23003KT 9999 NSC M05/M10 Q1000 NOSIG",
      "taf": "TAF UDSG 280500Z 2806/2906 VRB06KT 5000 BR BKN030"
    },
    {
      "icao": "UDYZ",
      "alert": "OK",
      "vis_m": 9999,
      "fzfg": false,
      "metar_trigger": false,
      "taf_trigger": false,
      "metar": "METAR UDYZ 281000Z VRB02KT 9999 FEW046 01/M04 Q1001 NOSIG",
      "taf": "TAF UDYZ 280500Z 2806/2906 24006KT 6000 SCT040"
    },
    {
      "icao": "UGKO",
      "alert": "OK",
      "vis_m": 5000,
      "fzfg": false,
      "metar_trigger": false,
      "taf_trigger": false,
      "metar": "METAR UGKO 281000Z VRB02KT 5000 -SNRA SCT002 BKN010 OVC035 01/00 Q1005 NOSIG",
      "taf": "TAF UGKO 280500Z 2806/2906 09007KT 9999 SCT015 OVC045 TX04/2811Z TNM01/2904Z"
    }
  ]
}