{
  "ts_utc": "2026-02-03T08:54:35Z",
  "threshold_m": 150,
  "source": "stations_override.txt (ICAO list) + aviationweather.gov (METAR/TAF raw)",
  "station_count": 159,
  "stations": [
    {
      "icao": "BIKF",
      "alert": "OK",
      "vis_m": 9999,
      "fzfg": false,
      "metar_trigger": false,
      "taf_trigger": false,
      "metar": "METAR BIKF 030830Z 11022KT 9999 FEW033 BKN340 06/02 Q1006",
      "taf": "TAF BIKF 030747Z 0309/0409 11018G30KT 9999 -SHRA FEW020 BKN035 TX06/0315Z TN01/0406Z"
    },
    {
      "icao": "BKPR",
      "alert": "OK",
      "vis_m": null,
      "fzfg": false,
      "metar_trigger": false,
      "taf_trigger": false,
      "metar": "",
      "taf": ""
    },
    {
      "icao": "EBCI",
      "alert": "OK",
      "vis_m": 4500,
      "fzfg": false,
      "metar_trigger": false,
      "taf_trigger": false,
      "metar": "METAR EBCI 030820Z 08008KT 4500 -RA SCT030 BKN045 03/02 Q0993 TEMPO 2500 RADZ BKN012",
      "taf": "TAF EBCI 030520Z 0306/0412 11010KT 9999 SCT020 BKN035"
    },
    {
      "icao": "EDDB",
      "alert": "OK",
      "vis_m": 9999,
      "fzfg": false,
      "metar_trigger": false,
      "taf_trigger": false,
      "metar": "METAR EDDB 030850Z AUTO 09016KT 9999 OVC042 M07/M13 Q1011 NOSIG",
      "taf": "TAF EDDB 030500Z 0306/0406 08012G22KT 9999 BKN035"
    },
    {
      "icao": "EDDH",
      "alert": "OK",
      "vis_m": 9999,
      "fzfg": false,
      "metar_trigger": false,
      "taf_trigger": false,
      "metar": "METAR EDDH 030850Z AUTO 10016KT 070V130 9999 OVC017 M06/M13 Q1009 TEMPO 09015G25KT",
      "taf": "TAF EDDH 030500Z 0306/0412 09013KT 9999 FEW020 BKN035"
    },
    {
      "icao": "EDDK",
      "alert": "OK",
      "vis_m": 9999,
      "fzfg": false,
      "metar_trigger": false,
      "taf_trigger": false,
      "metar": "METAR EDDK 030850Z AUTO 11008KT 070V150 9999 -RA FEW040 01/M03 Q0997 TEMPO RA",
      "taf": "TAF EDDK 030500Z 0306/0412 12010KT 9999 FEW015 BKN045"
    },
    {
      "icao": "EDDN",
      "alert": "OK",
      "vis_m": 9999,
      "fzfg": false,
      "metar_trigger": false,
      "taf_trigger": false,
      "metar": "METAR EDDN 030850Z AUTO 09012KT 060V120 9999 FEW015 01/M02 Q0999 NOSIG",
      "taf": ""
    },
    {
      "icao": "EDDS",
      "alert": "OK",
      "vis_m": 9000,
      "fzfg": false,
      "metar_trigger": false,
      "taf_trigger": false,
      "metar": "METAR EDDS 030850Z AUTO 07006KT 9000 NSC 00/M03 Q0996 NOSIG",
      "taf": ""
    },
    {
      "icao": "EDFH",
      "alert": "OK",
      "vis_m": 4400,
      "fzfg": false,
      "metar_trigger": false,
      "taf_trigger": false,
      "metar": "METAR EDFH 030820Z 13016KT 4400 -FZRA BR OVC002 M01/M02 Q0995",
      "taf": "TAF EDFH 030500Z 0306/0406 13015KT 6000 OVC005"
    },
    {
      "icao": "EDJA",
      "alert": "OK",
      "vis_m": 5000,
      "fzfg": false,
      "metar_trigger": false,
      "taf_trigger": false,
      "metar": "METAR EDJA 030820Z 07009KT 5000 BR OVC005 M02/M03 Q0995",
      "taf": "TAF EDJA 030800Z 0309/0318 07009KT 4000 BR OVC004"
    },
    {
      "icao": "EDLW",
      "alert": "OK",
      "vis_m": 9999,
      "fzfg": false,
      "metar_trigger": false,
      "taf_trigger": false,
      "metar": "METAR EDLW 030820Z COR 04012KT CAVOK M01/M04 Q0998",
      "taf": "TAF EDLW 030500Z 0306/0406 08010KT 9999 SCT045"
    },
    {
      "icao": "EDNY",
      "alert": "OK",
      "vis_m": 9999,
      "fzfg": false,
      "metar_trigger": false,
      "taf_trigger": false,
      "metar": "METAR EDNY 030820Z 02008KT 350V060 CAVOK 00/M02 Q0995",
      "taf": "TAF EDNY 030800Z 0309/0318 04008KT 9999 FEW040"
    },
    {
      "icao": "EDSB",
      "alert": "OK",
      "vis_m": 9000,
      "fzfg": false,
      "metar_trigger": false,
      "taf_trigger": false,
      "metar": "METAR EDSB 030820Z 02006KT 9000 -RA FEW040 02/M01 Q0996",
      "taf": "TAF EDSB 030500Z 0306/0406 03009KT 8000 BKN045"
    },
    {
      "icao": "EETN",
      "alert": "OK",
      "vis_m": 9999,
      "fzfg": false,
      "metar_trigger": false,
      "taf_trigger": false,
      "metar": "METAR EETN 030850Z 06008KT 030V090 9999 BKN009 M08/M10 Q1027 NOSIG",
      "taf": ""
    },
    {
      "icao": "EFTU",
      "alert": "OK",
      "vis_m": 9999,
      "fzfg": false,
      "metar_trigger": false,
      "taf_trigger": false,
      "metar": "METAR EFTU 030850Z AUTO VRB02KT 9999 OVC002 M18/M20 Q1029",
      "taf": "TAF EFTU 030825Z 0309/0409 04003KT 9999 BKN001"
    },
    {
      "icao": "EGBB",
      "alert": "OK",
      "vis_m": 6000,
      "fzfg": false,
      "metar_trigger": false,
      "taf_trigger": false,
      "metar": "METAR EGBB 030820Z 08012KT 050V130 6000 OVC009 04/02 Q0994",
      "taf": "TAF EGBB 030500Z 0306/0406 08012KT 7000 BKN010"
    },
    {
      "icao": "EGGP",
      "alert": "OK",
      "vis_m": 9999,
      "fzfg": false,
      "metar_trigger": false,
      "taf_trigger": false,
      "metar": "METAR EGGP 030820Z 10016KT 9999 BKN013 OVC022 04/01 Q0994",
      "taf": "TAF EGGP 030502Z 0306/0406 09014KT 9999 BKN018"
    },
    {
      "icao": "EGGW",
      "alert": "OK",
      "vis_m": 8000,
      "fzfg": false,
      "metar_trigger": false,
      "taf_trigger": false,
      "metar": "METAR EGGW 030820Z AUTO 08012KT 8000 OVC007 03/02 Q0993",
      "taf": "TAF EGGW 030459Z 0306/0406 08012KT 9999 SCT007 BKN010"
    },
    {
      "icao": "EGKK",
      "alert": "OK",
      "vis_m": 5000,
      "fzfg": false,
      "metar_trigger": false,
      "taf_trigger": false,
      "metar": "METAR EGKK 030820Z 07011KT 5000 -RADZ BKN007 05/04 Q0991",
      "taf": "TAF EGKK 030459Z 0306/0412 08010KT 9999 BKN010"
    },
    {
      "icao": "EGNM",
      "alert": "OK",
      "vis_m": 8000,
      "fzfg": false,
      "metar_trigger": false,
      "taf_trigger": false,
      "metar": "METAR EGNM 030820Z 08014KT 8000 -RA SCT008 BKN010 01/M00 Q0997",
      "taf": ""
    },
    {
      "icao": "EGPD",
      "alert": "OK",
      "vis_m": 3300,
      "fzfg": false,
      "metar_trigger": false,
      "taf_trigger": false,
      "metar": "METAR EGPD 030820Z AUTO 09014KT 3300 -RASN BKN005/// OVC014/// //////TCU 01/00 Q1006 RESN RERA TEMPO 2000 RASN",
      "taf": ""
    },
    {
      "icao": "EGPF",
      "alert": "OK",
      "vis_m": 9999,
      "fzfg": false,
      "metar_trigger": false,
      "taf_trigger": false,
      "metar": "METAR EGPF 030820Z AUTO 07016KT 9999 BKN016 OVC022 05/02 Q1000",
      "taf": ""
    },
    {
      "icao": "EHBK",
      "alert": "OK",
      "vis_m": 9999,
      "fzfg": false,
      "metar_trigger": false,
      "taf_trigger": false,
      "metar": "METAR EHBK 030825Z AUTO 08013KT 9999 NSC 02/M01 Q0995 NOSIG",
      "taf": "TAF EHBK 030511Z 0306/0412 08010KT 9999 SCT045"
    },
    {
      "icao": "EHEH",
      "alert": "OK",
      "vis_m": null,
      "fzfg": false,
      "metar_trigger": false,
      "taf_trigger": false,
      "metar": "",
      "taf": "TAF EHEH 030552Z 0306/0412 08011KT 9000 BKN018"
    },
    {
      "icao": "EKBI",
      "alert": "OK",
      "vis_m": 9999,
      "fzfg": false,
      "metar_trigger": false,
      "taf_trigger": false,
      "metar": "METAR EKBI 030850Z AUTO 10021G32KT 9999 BKN055/// M03/M12 Q1013",
      "taf": "TAF EKBI 030827Z 0309/0409 10020KT 9999 BKN030"
    },
    {
      "icao": "EKCH",
      "alert": "OK",
      "vis_m": 9999,
      "fzfg": false,
      "metar_trigger": false,
      "taf_trigger": false,
      "metar": "METAR EKCH 030850Z AUTO 11022KT 9999 NCD M02/M09 Q1019 TEMPO 10020G30KT",
      "taf": "TAF EKCH 030827Z 0309/0409 10020G30KT 9999 FEW040"
    },
    {
      "icao": "ENAL",
      "alert": "OK",
      "vis_m": 9999,
      "fzfg": false,
      "metar_trigger": false,
      "taf_trigger": false,
      "metar": "METAR ENAL 030820Z 14014KT 9999 BKN028 M02/M08 Q1018",
      "taf": "TAF ENAL 030800Z 0309/0318 14012KT 9999 BKN030"
    },
    {
      "icao": "ENBR",
      "alert": "OK",
      "vis_m": 9999,
      "fzfg": false,
      "metar_trigger": false,
      "taf_trigger": false,
      "metar": "METAR ENBR 030820Z 05002KT CAVOK M08/M16 Q1019 NOSIG RMK WIND 1200FT 11007KT",
      "taf": "TAF ENBR 030500Z 0306/0406 06005KT CAVOK"
    },
    {
      "icao": "ENGM",
      "alert": "OK",
      "vis_m": 9999,
      "fzfg": false,
      "metar_trigger": false,
      "taf_trigger": false,
      "metar": "METAR ENGM 030820Z 35003KT 9999 -SN FEW008 BKN042 M10/M12 Q1026 NOSIG",
      "taf": ""
    },
    {
      "icao": "ENHD",
      "alert": "OK",
      "vis_m": 9999,
      "fzfg": false,
      "metar_trigger": false,
      "taf_trigger": false,
      "metar": "METAR ENHD 030820Z 08010KT CAVOK M04/M16 Q1019",
      "taf": "TAF ENHD 030800Z 0309/0318 10010KT CAVOK"
    },
    {
      "icao": "ENTC",
      "alert": "OK",
      "vis_m": 9999,
      "fzfg": false,
      "metar_trigger": false,
      "taf_trigger": false,
      "metar": "METAR ENTC 030820Z 18009KT 9999 BKN032 M00/M03 Q1023 NOSIG RMK WIND 2600FT 23010KT",
      "taf": "TAF ENTC 030500Z 0306/0406 21009KT 9999 FEW020 BKN050"
    },
    {
      "icao": "ENTO",
      "alert": "OK",
      "vis_m": 9999,
      "fzfg": false,
      "metar_trigger": false,
      "taf_trigger": false,
      "metar": "METAR ENTO 030820Z 07006KT 040V100 9999 -SN FEW031 BKN041 M05/M09 Q1025 NOSIG",
      "taf": "TAF ENTO 030500Z 0306/0406 09005KT 9999 BKN040"
    },
    {
      "icao": "ENVA",
      "alert": "OK",
      "vis_m": 9999,
      "fzfg": false,
      "metar_trigger": false,
      "taf_trigger": false,
      "metar": "METAR ENVA 030820Z 08003KT 040V110 CAVOK M09/M17 Q1022 NOSIG RMK WIND 670FT 15012KT",
      "taf": "TAF ENVA 030500Z 0306/0406 09007KT CAVOK"
    },
    {
      "icao": "ENZV",
      "alert": "OK",
      "vis_m": 9999,
      "fzfg": false,
      "metar_trigger": false,
      "taf_trigger": false,
      "metar": "METAR ENZV 030820Z 09011KT 9999 FEW045 M03/M13 Q1018 NOSIG",
      "taf": "TAF ENZV 030500Z 0306/0406 09010KT CAVOK"
    },
    {
      "icao": "EPGD",
      "alert": "OK",
      "vis_m": 5000,
      "fzfg": false,
      "metar_trigger": false,
      "taf_trigger": false,
      "metar": "METAR EPGD 030830Z 28001KT 5000 BR NSC M16/M19 Q1020",
      "taf": "TAF EPGD 030530Z 0306/0406 VRB03KT CAVOK"
    },
    {
      "icao": "EPKK",
      "alert": "OK",
      "vis_m": 9999,
      "fzfg": false,
      "metar_trigger": false,
      "taf_trigger": false,
      "metar": "METAR EPKK 030830Z 06011KT 9999 BKN060 M10/M14 Q1014",
      "taf": "TAF EPKK 030830Z 0309/0409 06012KT CAVOK"
    },
    {
      "icao": "EPKT",
      "alert": "OK",
      "vis_m": 9999,
      "fzfg": false,
      "metar_trigger": false,
      "taf_trigger": false,
      "metar": "METAR EPKT 030830Z 08009KT 9999 OVC048 M08/M12 Q1013",
      "taf": "TAF EPKT 030530Z 0306/0406 08010KT 9999 BKN040"
    },
    {
      "icao": "EPLB",
      "alert": "OK",
      "vis_m": 6000,
      "fzfg": false,
      "metar_trigger": false,
      "taf_trigger": false,
      "metar": "METAR EPLB 030830Z 06006KT 6000 NSC M20/M22 Q1019",
      "taf": "TAF EPLB 030530Z 0306/0406 07002KT 4000 BR NSC"
    },
    {
      "icao": "EPMO",
      "alert": "OK",
      "vis_m": 6000,
      "fzfg": false,
      "metar_trigger": false,
      "taf_trigger": false,
      "metar": "METAR EPMO 030830Z 07007KT 6000 NSC M18/M19 Q1020",
      "taf": "TAF EPMO 030530Z 0306/0406 07005KT 8000 NSC"
    },
    {
      "icao": "EPPO",
      "alert": "OK",
      "vis_m": 9999,
      "fzfg": false,
      "metar_trigger": false,
      "taf_trigger": false,
      "metar": "METAR EPPO 030830Z 10013KT CAVOK M11/M20 Q1017",
      "taf": "TAF EPPO 030530Z 0306/0406 09014KT CAVOK"
    },
    {
      "icao": "EPRA",
      "alert": "OK",
      "vis_m": 9000,
      "fzfg": false,
      "metar_trigger": false,
      "taf_trigger": false,
      "metar": "METAR EPRA 030830Z 07003KT 040V100 9000 NSC M18/M22 Q1018",
      "taf": "TAF EPRA 030830Z 0309/0318 07006KT CAVOK"
    },
    {
      "icao": "EPRZ",
      "alert": "OK",
      "vis_m": 9999,
      "fzfg": false,
      "metar_trigger": false,
      "taf_trigger": false,
      "metar": "METAR EPRZ 030830Z 08011KT 9999 OVC010 M09/M13 Q1016",
      "taf": ""
    },
    {
      "icao": "EPSC",
      "alert": "OK",
      "vis_m": 9999,
      "fzfg": false,
      "metar_trigger": false,
      "taf_trigger": false,
      "metar": "METAR EPSC 030830Z 08012KT CAVOK M10/M19 Q1017",
      "taf": "TAF EPSC 030530Z 0306/0406 09012KT CAVOK"
    },
    {
      "icao": "EPSY",
      "alert": "OK",
      "vis_m": 9999,
      "fzfg": false,
      "metar_trigger": false,
      "taf_trigger": false,
      "metar": "METAR EPSY 030830Z 00000KT CAVOK M21/M26 Q1021",
      "taf": "TAF EPSY 030830Z 0309/0318 04005KT CAVOK"
    },
    {
      "icao": "EPWA",
      "alert": "OK",
      "vis_m": 9999,
      "fzfg": false,
      "metar_trigger": false,
      "taf_trigger": false,
      "metar": "METAR EPWA 030830Z 10005KT CAVOK M16/M20 Q1020 NOSIG",
      "taf": "TAF EPWA 030830Z 0309/0409 09009KT CAVOK"
    },
    {
      "icao": "EPWR",
      "alert": "OK",
      "vis_m": 9999,
      "fzfg": false,
      "metar_trigger": false,
      "taf_trigger": false,
      "metar": "METAR EPWR 030830Z 09010KT 9999 BKN017 OVC035 M08/M13 Q1014",
      "taf": "TAF EPWR 030830Z 0309/0409 10012KT 9999 BKN020"
    },
    {
      "icao": "ESGG",
      "alert": "OK",
      "vis_m": 9999,
      "fzfg": false,
      "metar_trigger": false,
      "taf_trigger": false,
      "metar": "METAR ESGG 030820Z 09010KT 9999 FEW033 M06/M09 Q1022",
      "taf": "TAF ESGG 030830Z 0309/0409 10011KT 9999 SCT030"
    },
    {
      "icao": "ESKN",
      "alert": "OK",
      "vis_m": 9999,
      "fzfg": false,
      "metar_trigger": false,
      "taf_trigger": false,
      "metar": "METAR ESKN 030820Z 04005KT 010V070 CAVOK M08/M11 Q1028",
      "taf": "TAF ESKN 030830Z 0309/0409 06005KT CAVOK"
    },
    {
      "icao": "ESMS",
      "alert": "OK",
      "vis_m": 9999,
      "fzfg": false,
      "metar_trigger": false,
      "taf_trigger": false,
      "metar": "METAR ESMS 030820Z 11013KT 9999 FEW023 M04/M08 Q1019",
      "taf": "TAF ESMS 030827Z 0309/0409 11015KT 9999 FEW040"
    },
    {
      "icao": "ESSA",
      "alert": "OK",
      "vis_m": 9999,
      "fzfg": false,
      "metar_trigger": false,
      "taf_trigger": false,
      "metar": "METAR ESSA 030820Z 36005KT 9999 BKN023 M13/M15 Q1029 NOSIG",
      "taf": "TAF ESSA 030830Z 0309/0409 03005KT 9999 BKN025"
    },
    {
      "icao": "EYKA",
      "alert": "OK",
      "vis_m": 7000,
      "fzfg": false,
      "metar_trigger": false,
      "taf_trigger": false,
      "metar": "METAR EYKA 030850Z 07003KT 030V100 7000 NSC M15/M17 Q1023",
      "taf": "TAF EYKA 030500Z 0306/0406 VRB03KT 5000 BR NSC"
    },
    {
      "icao": "EYPA",
      "alert": "OK",
      "vis_m": 9999,
      "fzfg": false,
      "metar_trigger": false,
      "taf_trigger": false,
      "metar": "METAR EYPA 030850Z 07005KT 040V100 CAVOK M09/M13 Q1024",
      "taf": "TAF EYPA 030500Z 0306/0406 VRB03KT 9000 NSC"
    },
    {
      "icao": "EYVI",
      "alert": "OK",
      "vis_m": 9999,
      "fzfg": false,
      "metar_trigger": false,
      "taf_trigger": false,
      "metar": "METAR EYVI 030850Z VRB02KT CAVOK M14/M17 Q1021 NOSIG",
      "taf": "TAF EYVI 030500Z 0306/0406 VRB04KT 5000 BR NSC"
    },
    {
      "icao": "GCFV",
      "alert": "OK",
      "vis_m": 9999,
      "fzfg": false,
      "metar_trigger": false,
      "taf_trigger": false,
      "metar": "METAR GCFV 030830Z 33007KT 9999 FEW030 17/11 Q1018",
      "taf": "TAF GCFV 030800Z 0309/0409 32009KT 9999 FEW040 TX22/0314Z TN16/0406Z"
    },
    {
      "icao": "GCLP",
      "alert": "OK",
      "vis_m": 9999,
      "fzfg": false,
      "metar_trigger": false,
      "taf_trigger": false,
      "metar": "METAR GCLP 030830Z 35009KT 9999 FEW035 17/10 Q1018 NOSIG",
      "taf": "TAF GCLP 030800Z 0309/0409 36012KT 9999 SCT040 TX22/0314Z TN15/0406Z"
    },
    {
      "icao": "GCTS",
      "alert": "OK",
      "vis_m": 9999,
      "fzfg": false,
      "metar_trigger": false,
      "taf_trigger": false,
      "metar": "METAR GCTS 030830Z 02005KT 9999 FEW030 16/11 Q1019 NOSIG",
      "taf": "TAF GCTS 030800Z 0309/0409 18007KT 9999 SCT035 TX23/0314Z TN15/0406Z"
    },
    {
      "icao": "GMAD",
      "alert": "OK",
      "vis_m": 8000,
      "fzfg": false,
      "metar_trigger": false,
      "taf_trigger": false,
      "metar": "METAR GMAD 030830Z 19004KT 160V230 8000 SCT030 12/12 Q1015 NOSIG",
      "taf": "TAF GMAD 030500Z 0306/0412 06008KT 8000 BKN020"
    },
    {
      "icao": "GMMN",
      "alert": "OK",
      "vis_m": 9999,
      "fzfg": false,
      "metar_trigger": false,
      "taf_trigger": false,
      "metar": "METAR GMMN 030830Z 21013KT 9999 SCT014 BKN020 10/09 Q1013 TEMPO 4000 RA",
      "taf": "TAF GMMN 030500Z 0306/0412 20014KT 9999 SCT010 SCT020"
    },
    {
      "icao": "GMMX",
      "alert": "OK",
      "vis_m": 9999,
      "fzfg": false,
      "metar_trigger": false,
      "taf_trigger": false,
      "metar": "METAR GMMX 030830Z 21005KT 170V240 9999 SCT026 SCT100 11/08 Q1014 NOSIG",
      "taf": "TAF GMMX 030500Z 0306/0412 24006KT 8000 SCT023 SCT080"
    },
    {
      "icao": "HEGN",
      "alert": "OK",
      "vis_m": 9999,
      "fzfg": false,
      "metar_trigger": false,
      "taf_trigger": false,
      "metar": "METAR HEGN 030800Z 31017KT CAVOK 22/03 Q1020 NOSIG",
      "taf": "TAF HEGN 030500Z 0306/0412 32013G26KT 6000 NSC"
    },
    {
      "icao": "HEMA",
      "alert": "OK",
      "vis_m": 9999,
      "fzfg": false,
      "metar_trigger": false,
      "taf_trigger": false,
      "metar": "METAR HEMA 030800Z 31014KT CAVOK 21/02 Q1019 NOSIG",
      "taf": "TAF HEMA 030500Z 0306/0412 33008G20KT 6000 NSC"
    },
    {
      "icao": "HESH",
      "alert": "OK",
      "vis_m": 9999,
      "fzfg": false,
      "metar_trigger": false,
      "taf_trigger": false,
      "metar": "METAR HESH 030800Z 01010KT CAVOK 23/07 Q1019 NOSIG",
      "taf": "TAF HESH 030500Z 0306/0412 33008G20KT 6000 NSC"
    },
    {
      "icao": "HESX",
      "alert": "OK",
      "vis_m": 9999,
      "fzfg": false,
      "metar_trigger": false,
      "taf_trigger": false,
      "metar": "METAR HESX 030800Z 22007KT CAVOK 13/03 Q1020 NOSIG",
      "taf": "TAF HESX 030500Z 0306/0412 26008KT CAVOK"
    },
    {
      "icao": "LATI",
      "alert": "OK",
      "vis_m": 9999,
      "fzfg": false,
      "metar_trigger": false,
      "taf_trigger": false,
      "metar": "METAR LATI 030850Z 14005KT 9999 FEW059 BKN120 13/05 Q1016 NOSIG",
      "taf": "TAF LATI 030500Z 0306/0406 VRB05KT 9999 FEW030 BKN070 TX16/0312Z TN07/0405Z"
    },
    {
      "icao": "LBPD",
      "alert": "OK",
      "vis_m": 9999,
      "fzfg": false,
      "metar_trigger": false,
      "taf_trigger": false,
      "metar": "METAR LBPD 030830Z AUTO 09005KT 9999 SCT008/// BKN010/// OVC019/// M01/M02 Q1021 NOSIG",
      "taf": "TAF LBPD 030500Z 0306/0406 VRB03KT 8000 SCT008 BKN015"
    },
    {
      "icao": "LBSF",
      "alert": "OK",
      "vis_m": 9999,
      "fzfg": false,
      "metar_trigger": false,
      "taf_trigger": false,
      "metar": "METAR LBSF 030830Z VRB02KT 9999 OVC011 M00/M03 Q1018 NOSIG",
      "taf": "TAF LBSF 030500Z 0306/0406 VRB03KT 9999 BKN015 OVC030"
    },
    {
      "icao": "LBWN",
      "alert": "OK",
      "vis_m": 9999,
      "fzfg": false,
      "metar_trigger": false,
      "taf_trigger": false,
      "metar": "METAR LBWN 030830Z VRB02KT 9999 FEW029 M01/M10 Q1022 NOSIG",
      "taf": "TAF LBWN 030500Z 0306/0406 VRB04KT 9999 BKN040"
    },
    {
      "icao": "LCLK",
      "alert": "OK",
      "vis_m": 9999,
      "fzfg": false,
      "metar_trigger": false,
      "taf_trigger": false,
      "metar": "METAR LCLK 030830Z 34006KT 270V020 9999 FEW020 20/09 Q1014 BECMG 30018KT",
      "taf": "TAF LCLK 030530Z 0306/0406 24010KT 9999 FEW020"
    },
    {
      "icao": "LCPH",
      "alert": "OK",
      "vis_m": 9999,
      "fzfg": false,
      "metar_trigger": false,
      "taf_trigger": false,
      "metar": "METAR LCPH 030830Z 31024KT 9999 SCT035 17/08 Q1016 NOSIG",
      "taf": "TAF LCPH 030530Z 0306/0406 29020G30KT 9999 FEW020"
    },
    {
      "icao": "LEAL",
      "alert": "OK",
      "vis_m": 9999,
      "fzfg": false,
      "metar_trigger": false,
      "taf_trigger": false,
      "metar": "METAR LEAL 030830Z VRB02KT CAVOK 10/05 Q1005 NOSIG",
      "taf": ""
    },
    {
      "icao": "LEBB",
      "alert": "OK",
      "vis_m": 9999,
      "fzfg": false,
      "metar_trigger": false,
      "taf_trigger": false,
      "metar": "METAR LEBB 030830Z 19010KT 120V250 CAVOK 11/01 Q0997 NOSIG",
      "taf": "TAF LEBB 030500Z 0306/0406 21009KT 9999 SCT040 TX14/0314Z TN07/0406Z"
    },
    {
      "icao": "LEBL",
      "alert": "OK",
      "vis_m": 9999,
      "fzfg": false,
      "metar_trigger": false,
      "taf_trigger": false,
      "metar": "METAR LEBL 030830Z 32009KT 300V010 9999 FEW025 08/05 Q1002 NOSIG",
      "taf": "TAF LEBL 030500Z 0306/0406 29005KT 9999 FEW020 TX15/0314Z TN08/0306Z"
    },
    {
      "icao": "LECH",
      "alert": "OK",
      "vis_m": 9999,
      "fzfg": false,
      "metar_trigger": false,
      "taf_trigger": false,
      "metar": "METAR LECH 030830Z AUTO 22007KT CAVOK 09/01 Q1003",
      "taf": ""
    },
    {
      "icao": "LEMD",
      "alert": "OK",
      "vis_m": 9999,
      "fzfg": false,
      "metar_trigger": false,
      "taf_trigger": false,
      "metar": "METAR LEMD 030830Z 19010KT 9999 -RA SCT018 BKN030 05/05 Q1001 NOSIG",
      "taf": ""
    },
    {
      "icao": "LEMG",
      "alert": "OK",
      "vis_m": 9999,
      "fzfg": false,
      "metar_trigger": false,
      "taf_trigger": false,
      "metar": "SPECI LEMG 030839Z 29006KT 9999 RA FEW005 SCT050 BKN070 08/08 Q1008 NOSIG",
      "taf": "TAF LEMG 030500Z 0306/0406 29005KT 9999 FEW025 SCT040 TX17/0314Z TN09/0307Z"
    },
    {
      "icao": "LEVC",
      "alert": "OK",
      "vis_m": 9999,
      "fzfg": false,
      "metar_trigger": false,
      "taf_trigger": false,
      "metar": "METAR LEVC 030830Z 28004G14KT 260V330 9999 FEW042 SCT048 11/04 Q1004 NOSIG",
      "taf": "TAF LEVC 030500Z 0306/0406 25007KT 9999 FEW030 TX16/0313Z TN08/0306Z"
    },
    {
      "icao": "LEXJ",
      "alert": "OK",
      "vis_m": 9999,
      "fzfg": false,
      "metar_trigger": false,
      "taf_trigger": false,
      "metar": "METAR LEXJ 030830Z 20015G26KT 160V250 9999 FEW060 11/01 Q0995",
      "taf": "TAF LEXJ 030800Z 0309/0409 23009KT 9999 FEW040 TX15/0312Z TN08/0407Z"
    },
    {
      "icao": "LEZG",
      "alert": "OK",
      "vis_m": 9999,
      "fzfg": false,
      "metar_trigger": false,
      "taf_trigger": false,
      "metar": "METAR LEZG 030830Z 01001KT CAVOK 10/02 Q1001 NOSIG",
      "taf": "TAF LEZG 030500Z 0306/0406 23009KT 9999 FEW050 TX13/0314Z TN04/0306Z"
    },
    {
      "icao": "LEZL",
      "alert": "OK",
      "vis_m": 9999,
      "fzfg": false,
      "metar_trigger": false,
      "taf_trigger": false,
      "metar": "METAR LEZL 030830Z 20005KT 160V240 CAVOK 10/08 Q1006 NOSIG",
      "taf": "TAF LEZL 030800Z 0309/0409 22008KT 9999 SCT020 TX15/0315Z TN12/0407Z"
    },
    {
      "icao": "LFBD",
      "alert": "OK",
      "vis_m": 9999,
      "fzfg": false,
      "metar_trigger": false,
      "taf_trigger": false,
      "metar": "METAR LFBD 030830Z AUTO 22004KT 180V250 9999 -RA FEW013/// BKN042/// OVC048/// ///TCU 07/06 Q0997 BECMG NSC",
      "taf": ""
    },
    {
      "icao": "LFLL",
      "alert": "OK",
      "vis_m": 9999,
      "fzfg": false,
      "metar_trigger": false,
      "taf_trigger": false,
      "metar": "METAR LFLL 030830Z 18015KT 9999 SCT043 BKN053 08/06 Q0999 NOSIG",
      "taf": "TAF LFLL 030500Z 0306/0412 17010KT CAVOK"
    },
    {
      "icao": "LFLS",
      "alert": "OK",
      "vis_m": 9999,
      "fzfg": false,
      "metar_trigger": false,
      "taf_trigger": false,
      "metar": "METAR LFLS 030830Z AUTO 20007KT 170V230 9999 OVC062 08/05 Q0999 TEMPO BKN011",
      "taf": "TAF LFLS 030800Z 0309/0409 19009KT 9999 BKN055"
    },
    {
      "icao": "LFMN",
      "alert": "OK",
      "vis_m": 9999,
      "fzfg": false,
      "metar_trigger": false,
      "taf_trigger": false,
      "metar": "METAR LFMN 030830Z 04005KT 360V070 9999 BKN024 11/09 Q1003 NOSIG",
      "taf": "TAF LFMN 030800Z 0309/0415 10012KT CAVOK"
    },
    {
      "icao": "LFOB",
      "alert": "OK",
      "vis_m": 3500,
      "fzfg": false,
      "metar_trigger": false,
      "taf_trigger": false,
      "metar": "METAR LFOB 030830Z AUTO 09004KT 3500 -RA BR OVC004/// ///TCU 06/06 Q0989 TEMPO 2000 RA OVC004",
      "taf": ""
    },
    {
      "icao": "LFPO",
      "alert": "OK",
      "vis_m": 6000,
      "fzfg": false,
      "metar_trigger": false,
      "taf_trigger": false,
      "metar": "METAR LFPO 030830Z 24009KT 6000 -RA SCT006 SCT020 BKN040 08/08 Q0990 NOSIG",
      "taf": "TAF LFPO 030500Z 0306/0412 10008KT 9999 BKN012"
    },
    {
      "icao": "LFSB",
      "alert": "OK",
      "vis_m": 1500,
      "fzfg": false,
      "metar_trigger": false,
      "taf_trigger": false,
      "metar": "METAR LFSB 030830Z AUTO 11005KT 1500 1100 R15/P2000 R33/1600D BR OVC002 03/03 Q0997 TEMPO 24010G20KT FEW040TCU BECMG 9999 NSW",
      "taf": ""
    },
    {
      "icao": "LGAV",
      "alert": "OK",
      "vis_m": 9999,
      "fzfg": false,
      "metar_trigger": false,
      "taf_trigger": false,
      "metar": "METAR LGAV 030820Z VRB01KT CAVOK 14/03 Q1020 NOSIG",
      "taf": "TAF LGAV 030500Z 0306/0406 VRB05KT 9999 FEW020"
    },
    {
      "icao": "LGTS",
      "alert": "OK",
      "vis_m": 9999,
      "fzfg": false,
      "metar_trigger": false,
      "taf_trigger": false,
      "metar": "METAR LGTS 030820Z VRB03KT 9999 FEW025 08/07 Q1020 NOSIG",
      "taf": ""
    },
    {
      "icao": "LHBP",
      "alert": "OK",
      "vis_m": 1500,
      "fzfg": false,
      "metar_trigger": false,
      "taf_trigger": false,
      "metar": "METAR LHBP 030830Z 11011KT 1500 SN SCT005 BKN012 OVC024 M02/M03 Q1014 TEMPO 1200 SN DRSN BKN004 OVC023",
      "taf": "TAF LHBP 030515Z 0306/0406 11012KT 7000 -SN FEW008 OVC030"
    },
    {
      "icao": "LHDC",
      "alert": "OK",
      "vis_m": 9999,
      "fzfg": false,
      "metar_trigger": false,
      "taf_trigger": false,
      "metar": "METAR LHDC 030815Z AUTO 08006KT 050V110 CAVOK 00/M02 Q1016 NOSIG",
      "taf": "TAF LHDC 030815Z 0309/0318 08006KT CAVOK"
    },
    {
      "icao": "LIBD",
      "alert": "OK",
      "vis_m": 9999,
      "fzfg": false,
      "metar_trigger": false,
      "taf_trigger": false,
      "metar": "METAR LIBD 030820Z 14006KT CAVOK 13/09 Q1012",
      "taf": "TAF LIBD 030500Z 0306/0406 18010KT 9999 FEW030"
    },
    {
      "icao": "LIBG",
      "alert": "OK",
      "vis_m": 9999,
      "fzfg": false,
      "metar_trigger": false,
      "taf_trigger": false,
      "metar": "METAR LIBG 030750Z 13004KT 060V180 9999 FEW010 SCT020 12/12 Q1013",
      "taf": "TAF LIBG 030800Z 0309/0318 15012KT 9999 FEW040"
    },
    {
      "icao": "LIBP",
      "alert": "OK",
      "vis_m": 9999,
      "fzfg": false,
      "metar_trigger": false,
      "taf_trigger": false,
      "metar": "METAR LIBP 030820Z AUTO VRB01KT 9999 FEW170/// SCT200/// 08/04 Q1007",
      "taf": "TAF LIBP 030500Z 0306/0406 VRB05KT 9999 SCT050"
    },
    {
      "icao": "LIBR",
      "alert": "OK",
      "vis_m": 9999,
      "fzfg": false,
      "metar_trigger": false,
      "taf_trigger": false,
      "metar": "METAR LIBR 030820Z 17011KT 9999 FEW035 13/11 Q1013",
      "taf": "TAF LIBR 030500Z 0306/0406 16010KT 9999 FEW030"
    },
    {
      "icao": "LICA",
      "alert": "OK",
      "vis_m": 9999,
      "fzfg": false,
      "metar_trigger": false,
      "taf_trigger": false,
      "metar": "METAR LICA 030820Z AUTO 07017KT 9999 NCD 14/09 Q1012",
      "taf": "TAF LICA 030500Z 0306/0406 07013KT 9999 SCT025"
    },
    {
      "icao": "LICC",
      "alert": "OK",
      "vis_m": 9999,
      "fzfg": false,
      "metar_trigger": false,
      "taf_trigger": false,
      "metar": "METAR LICC 030820Z 24008KT CAVOK 11/08 Q1014",
      "taf": "TAF LICC 030500Z 0306/0406 24014KT 9999 FEW030"
    },
    {
      "icao": "LICJ",
      "alert": "OK",
      "vis_m": 9999,
      "fzfg": false,
      "metar_trigger": false,
      "taf_trigger": false,
      "metar": "METAR LICJ 030820Z 19016KT CAVOK 18/06 Q1009",
      "taf": "TAF LICJ 030500Z 0306/0406 18018G28KT 9999 SCT030"
    },
    {
      "icao": "LIMC",
      "alert": "OK",
      "vis_m": 4000,
      "fzfg": false,
      "metar_trigger": false,
      "taf_trigger": false,
      "metar": "METAR LIMC 030820Z 02004KT 4000 -RA BR BKN025 01/01 Q1006 NOSIG",
      "taf": "TAF LIMC 030500Z 0306/0412 VRB05KT 3000 RA BKN010"
    },
    {
      "icao": "LIME",
      "alert": "OK",
      "vis_m": 4000,
      "fzfg": false,
      "metar_trigger": false,
      "taf_trigger": false,
      "metar": "METAR LIME 030820Z 31003KT 280V340 4000 -RA BR SCT004 BKN010 04/04 Q1006 NOSIG",
      "taf": "TAF LIME 030500Z 0306/0406 VRB05KT 4000 RA BKN020"
    },
    {
      "icao": "LIMF",
      "alert": "OK",
      "vis_m": 6000,
      "fzfg": false,
      "metar_trigger": false,
      "taf_trigger": false,
      "metar": "METAR LIMF 030820Z 29004KT 6000 SCT015 BKN050 02/00 Q1006",
      "taf": "TAF LIMF 030500Z 0306/0406 VRB05KT 2000 SNRA BKN015"
    },
    {
      "icao": "LIMJ",
      "alert": "OK",
      "vis_m": 9999,
      "fzfg": false,
      "metar_trigger": false,
      "taf_trigger": false,
      "metar": "METAR LIMJ 030820Z 03018KT 9999 FEW040 SCT060 06/01 Q1005",
      "taf": "TAF LIMJ 030500Z 0306/0406 04015KT 4000 RA SCT020 BKN030"
    },
    {
      "icao": "LIPE",
      "alert": "OK",
      "vis_m": 800,
      "fzfg": false,
      "metar_trigger": false,
      "taf_trigger": false,
      "metar": "METAR LIPE 030820Z 25006KT 0800 R12/1900U R30/1800U -DZ FG OVC002 05/05 Q1005",
      "taf": "TAF LIPE 030500Z 0306/0406 VRB05KT 6000 BKN015"
    },
    {
      "icao": "LIPH",
      "alert": "OK",
      "vis_m": 2000,
      "fzfg": false,
      "metar_trigger": false,
      "taf_trigger": false,
      "metar": "METAR LIPH 030820Z 05009KT 2000 -RA BR BKN004 BKN020 05/05 Q1007",
      "taf": "TAF LIPH 030500Z 0306/0406 05010KT 5000 RA SCT010 BKN020"
    },
    {
      "icao": "LIPQ",
      "alert": "OK",
      "vis_m": 6000,
      "fzfg": false,
      "metar_trigger": false,
      "taf_trigger": false,
      "metar": "METAR LIPQ 030820Z AUTO 02006KT 6000 RA OVC013/// 06/06 Q1007",
      "taf": "TAF LIPQ 030500Z 0306/0406 05006KT 4000 RA BKN020"
    },
    {
      "icao": "LIPR",
      "alert": "OK",
      "vis_m": 9999,
      "fzfg": false,
      "metar_trigger": false,
      "taf_trigger": false,
      "metar": "METAR LIPR 030820Z 09003KT 040V160 9999 BKN035 11/07 Q1005",
      "taf": "TAF LIPR 030500Z 0306/0406 14010KT 9999 BKN040"
    },
    {
      "icao": "LIPX",
      "alert": "OK",
      "vis_m": 6000,
      "fzfg": false,
      "metar_trigger": false,
      "taf_trigger": false,
      "metar": "METAR LIPX 030820Z VRB02KT 6000 RA BKN020 07/06 Q1005",
      "taf": "TAF LIPX 030500Z 0306/0406 08010KT 4000 RA BKN030"
    },
    {
      "icao": "LIPY",
      "alert": "OK",
      "vis_m": 9999,
      "fzfg": false,
      "metar_trigger": false,
      "taf_trigger": false,
      "metar": "METAR LIPY 030820Z AUTO 17003KT 100V210 9999 OVC056/// 12/05 Q1007",
      "taf": "TAF LIPY 030500Z 0306/0406 15010KT 9999 BKN050"
    },
    {
      "icao": "LIPZ",
      "alert": "OK",
      "vis_m": 3000,
      "fzfg": false,
      "metar_trigger": false,
      "taf_trigger": false,
      "metar": "METAR LIPZ 030820Z 05011KT 3000 -RA BKN005 BKN015 05/05 Q1007 NOSIG",
      "taf": "TAF LIPZ 030500Z 0306/0412 05012KT 5000 RA SCT010 BKN020"
    },
    {
      "icao": "LIRF",
      "alert": "OK",
      "vis_m": 9999,
      "fzfg": false,
      "metar_trigger": false,
      "taf_trigger": false,
      "metar": "METAR LIRF 030820Z 13017KT 9999 -RA FEW035 SCT045 14/10 Q1008 NOSIG",
      "taf": "TAF LIRF 030500Z 0306/0412 15015KT 9999 SCT030"
    },
    {
      "icao": "LIRN",
      "alert": "OK",
      "vis_m": 9999,
      "fzfg": false,
      "metar_trigger": false,
      "taf_trigger": false,
      "metar": "METAR LIRN 030820Z 03003KT CAVOK 12/07 Q1011 NOSIG",
      "taf": "TAF LIRN 030500Z 0306/0406 18012KT 9999 SCT030"
    },
    {
      "icao": "LIRP",
      "alert": "OK",
      "vis_m": 9999,
      "fzfg": false,
      "metar_trigger": false,
      "taf_trigger": false,
      "metar": "METAR LIRP 030815Z 26012KT 9999 RA FEW010CB FEW015TCU BKN020 12/12 Q1005 TEMPO 5000 SHRA",
      "taf": "TAF LIRP 030500Z 0306/0406 13010KT 9999 RA FEW020 SCT050"
    },
    {
      "icao": "LIRZ",
      "alert": "OK",
      "vis_m": 9999,
      "fzfg": false,
      "metar_trigger": false,
      "taf_trigger": false,
      "metar": "METAR LIRZ 030820Z AUTO 23003KT 190V260 9999 OVC036/// 10/07 Q1008",
      "taf": "TAF LIRZ 030500Z 0306/0406 18010KT 9999 BKN035"
    },
    {
      "icao": "LJLJ",
      "alert": "OK",
      "vis_m": 3000,
      "fzfg": false,
      "metar_trigger": false,
      "taf_trigger": false,
      "metar": "METAR LJLJ 030830Z VRB02KT 3000 -RA BR SCT002 OVC023 02/01 Q1008 NOSIG",
      "taf": "TAF LJLJ 030500Z 0306/0406 11002KT 3000 -RA BR SCT002 BKN005 OVC020"
    },
    {
      "icao": "LKMT",
      "alert": "OK",
      "vis_m": 9000,
      "fzfg": false,
      "metar_trigger": false,
      "taf_trigger": false,
      "metar": "METAR LKMT 030830Z 03007KT 9000 OVC039 M07/M11 Q1012 NOSIG",
      "taf": "TAF LKMT 030500Z 0306/0406 02010KT 9999 BKN035"
    },
    {
      "icao": "LKPR",
      "alert": "OK",
      "vis_m": 9000,
      "fzfg": false,
      "metar_trigger": false,
      "taf_trigger": false,
      "metar": "METAR LKPR 030830Z 11010KT 9000 SCT007 OVC015 M01/M02 Q1005 NOSIG",
      "taf": "TAF LKPR 030800Z 0309/0415 10010KT 6000 SCT007 OVC014"
    },
    {
      "icao": "LLBG",
      "alert": "OK",
      "vis_m": 9999,
      "fzfg": false,
      "metar_trigger": false,
      "taf_trigger": false,
      "metar": "METAR LLBG 030850Z 19008KT 9999 -RA FEW012 BKN032 16/13 Q1019 BECMG 7000 RA FEW020TCU BKN025",
      "taf": "TAF LLBG 030506Z 0306/0406 16008KT 8000 SCT030"
    },
    {
      "icao": "LMML",
      "alert": "OK",
      "vis_m": 9999,
      "fzfg": false,
      "metar_trigger": false,
      "taf_trigger": false,
      "metar": "METAR LMML 030845Z 17013KT CAVOK 17/13 Q1014 NOSIG",
      "taf": "TAF LMML 030500Z 0306/0406 19015KT CAVOK"
    },
    {
      "icao": "LOWW",
      "alert": "OK",
      "vis_m": 9999,
      "fzfg": false,
      "metar_trigger": false,
      "taf_trigger": false,
      "metar": "METAR LOWW 030820Z 12013KT 9999 FEW010 OVC011 M01/M03 Q1009 NOSIG",
      "taf": "TAF LOWW 030815Z 0309/0415 12015KT 9999 BKN012 TX01/0414Z TNM01/0309Z"
    },
    {
      "icao": "LPFR",
      "alert": "OK",
      "vis_m": 9999,
      "fzfg": false,
      "metar_trigger": false,
      "taf_trigger": false,
      "metar": "METAR LPFR 030830Z 34004KT 9999 FEW015 FEW018CB 10/08 Q1005",
      "taf": "TAF LPFR 030500Z 0306/0406 28013KT 9999 FEW015 SCT030"
    },
    {
      "icao": "LPMA",
      "alert": "OK",
      "vis_m": 9999,
      "fzfg": false,
      "metar_trigger": false,
      "taf_trigger": false,
      "metar": "METAR LPMA 030830Z 30004KT 9999 FEW015 14/07 Q1016",
      "taf": "TAF LPMA 030500Z 0306/0406 VRB05KT 9999 SCT015"
    },
    {
      "icao": "LPPR",
      "alert": "OK",
      "vis_m": 7000,
      "fzfg": false,
      "metar_trigger": false,
      "taf_trigger": false,
      "metar": "METAR LPPR 030830Z 21007KT 7000 -SHRA FEW020CB BKN040 09/07 Q0998",
      "taf": "TAF LPPR 030500Z 0306/0406 22012KT 9999 FEW015 SCT030"
    },
    {
      "icao": "LPPS",
      "alert": "OK",
      "vis_m": 9999,
      "fzfg": false,
      "metar_trigger": false,
      "taf_trigger": false,
      "metar": "METAR LPPS 030830Z 29014KT 9999 SCT014 16/10 Q1015",
      "taf": "TAF LPPS 030500Z 0306/0412 30017KT 9999 SCT015"
    },
    {
      "icao": "LPPT",
      "alert": "OK",
      "vis_m": 9999,
      "fzfg": false,
      "metar_trigger": false,
      "taf_trigger": false,
      "metar": "METAR LPPT 030830Z 30003KT 240V340 9999 FEW025 FEW030TCU 10/07 Q1002",
      "taf": "TAF LPPT 030500Z 0306/0412 23008KT 9999 FEW015 SCT030"
    },
    {
      "icao": "LQBK",
      "alert": "OK",
      "vis_m": 8000,
      "fzfg": false,
      "metar_trigger": false,
      "taf_trigger": false,
      "metar": "METAR LQBK 030830Z 34005KT 8000 NSC 02/00 Q1010 NOSIG",
      "taf": ""
    },
    {
      "icao": "LQSA",
      "alert": "OK",
      "vis_m": 8000,
      "fzfg": false,
      "metar_trigger": false,
      "taf_trigger": false,
      "metar": "METAR LQSA 030830Z VRB02KT 8000 FEW055 03/01 Q1011 TEMPO 15012KT",
      "taf": "TAF LQSA 030500Z 0306/0406 10008KT 9999 SCT050 TX13/0313Z TNM02/0306Z"
    },
    {
      "icao": "LQTZ",
      "alert": "OK",
      "vis_m": 9999,
      "fzfg": false,
      "metar_trigger": false,
      "taf_trigger": false,
      "metar": "METAR LQTZ 030830Z 11010KT 9999 SCT050 04/02 Q1011",
      "taf": "TAF LQTZ 030500Z 0306/0406 06005KT CAVOK TX13/0314Z TNM02/0306Z"
    },
    {
      "icao": "LRBC",
      "alert": "OK",
      "vis_m": 9999,
      "fzfg": false,
      "metar_trigger": false,
      "taf_trigger": false,
      "metar": "METAR LRBC 030830Z 15011KT 9999 SCT065 M06/M12 Q1020",
      "taf": "TAF LRBC 030800Z 0309/0318 16010KT CAVOK"
    },
    {
      "icao": "LRBS",
      "alert": "OK",
      "vis_m": 9999,
      "fzfg": false,
      "metar_trigger": false,
      "taf_trigger": false,
      "metar": "METAR LRBS 030830Z VRB01KT CAVOK M03/M11 Q1022 NOSIG",
      "taf": "TAF LRBS 030500Z 0306/0406 23005KT 5000 BR NSC"
    },
    {
      "icao": "LRBV",
      "alert": "OK",
      "vis_m": 9999,
      "fzfg": false,
      "metar_trigger": false,
      "taf_trigger": false,
      "metar": "METAR LRBV 030830Z 07003KT 020V100 CAVOK M02/M07 Q1015",
      "taf": "TAF LRBV 030800Z 0309/0318 VRB04KT CAVOK"
    },
    {
      "icao": "LRCL",
      "alert": "OK",
      "vis_m": 9999,
      "fzfg": false,
      "metar_trigger": false,
      "taf_trigger": false,
      "metar": "METAR LRCL 030830Z 12010KT 9999 BKN009 00/M02 Q1015",
      "taf": "TAF LRCL 030800Z 0309/0318 VRB04KT 9999 OVC010"
    },
    {
      "icao": "LRCV",
      "alert": "OK",
      "vis_m": 9999,
      "fzfg": false,
      "metar_trigger": false,
      "taf_trigger": false,
      "metar": "METAR LRCV 030830Z 13005KT 9999 FEW014 OVC027 M06/M09 Q1021",
      "taf": "TAF LRCV 030800Z 0309/0318 VRB04KT 9999 BKN030"
    },
    {
      "icao": "LRIA",
      "alert": "OK",
      "vis_m": 9999,
      "fzfg": false,
      "metar_trigger": false,
      "taf_trigger": false,
      "metar": "METAR LRIA 030830Z 11009KT CAVOK M08/M15 Q1021",
      "taf": "TAF LRIA 030800Z 0309/0318 11009KT CAVOK"
    },
    {
      "icao": "LROP",
      "alert": "OK",
      "vis_m": 9999,
      "fzfg": false,
      "metar_trigger": false,
      "taf_trigger": false,
      "metar": "METAR LROP 030830Z 28004KT CAVOK M03/M13 Q1022 NOSIG",
      "taf": "TAF LROP 030500Z 0306/0406 23005KT 5000 BR NSC"
    },
    {
      "icao": "LRSB",
      "alert": "OK",
      "vis_m": 9999,
      "fzfg": false,
      "metar_trigger": false,
      "taf_trigger": false,
      "metar": "METAR LRSB 030830Z 16003KT 140V210 CAVOK 00/M05 Q1015",
      "taf": "TAF LRSB 030500Z 0306/0406 VRB04KT CAVOK"
    },
    {
      "icao": "LRSM",
      "alert": "OK",
      "vis_m": 7000,
      "fzfg": false,
      "metar_trigger": false,
      "taf_trigger": false,
      "metar": "METAR LRSM 030830Z 07004KT 7000 BKN040 00/M01 Q1017",
      "taf": "TAF LRSM 030800Z 0309/0318 VRB04KT 9999 BKN040"
    },
    {
      "icao": "LRSV",
      "alert": "OK",
      "vis_m": 9999,
      "fzfg": false,
      "metar_trigger": false,
      "taf_trigger": false,
      "metar": "METAR LRSV 030830Z 14009KT 9999 BKN043 M09/M12 Q1017",
      "taf": "TAF LRSV 030800Z 0309/0318 11008KT 9999 BKN045"
    },
    {
      "icao": "LRTM",
      "alert": "OK",
      "vis_m": 9999,
      "fzfg": false,
      "metar_trigger": false,
      "taf_trigger": false,
      "metar": "METAR LRTM 030830Z VRB01KT 9999 FEW022 01/M02 Q1016",
      "taf": "TAF LRTM 030800Z 0309/0318 VRB04KT CAVOK"
    },
    {
      "icao": "LRTR",
      "alert": "OK",
      "vis_m": 9999,
      "fzfg": false,
      "metar_trigger": false,
      "taf_trigger": false,
      "metar": "METAR LRTR 030830Z 10011KT CAVOK M01/M03 Q1015 NOSIG",
      "taf": "TAF LRTR 030500Z 0306/0406 10010KT 9999 BKN045"
    },
    {
      "icao": "LTAC",
      "alert": "OK",
      "vis_m": 9999,
      "fzfg": false,
      "metar_trigger": false,
      "taf_trigger": false,
      "metar": "METAR LTAC 030820Z 31008KT 280V350 9999 FEW020 BKN030 03/M03 Q1016 NOSIG",
      "taf": "TAF LTAC 030440Z 0306/0406 VRB02KT 9999 SCT040 BKN100"
    },
    {
      "icao": "LTFM",
      "alert": "OK",
      "vis_m": 9999,
      "fzfg": false,
      "metar_trigger": false,
      "taf_trigger": false,
      "metar": "METAR LTFM 030820Z 03004KT 330V060 9999 BKN014 BKN029 02/M01 Q1022 NOSIG",
      "taf": "TAF LTFM 030440Z 0306/0412 36010KT 9999 BKN012 BKN028"
    },
    {
      "icao": "LUKK",
      "alert": "OK",
      "vis_m": 9999,
      "fzfg": false,
      "metar_trigger": false,
      "taf_trigger": false,
      "metar": "METAR LUKK 030830Z VRB03KT CAVOK M10/M15 Q1022 NOSIG",
      "taf": "TAF LUKK 030506Z 0306/0406 VRB06KT CAVOK"
    },
    {
      "icao": "LWOH",
      "alert": "OK",
      "vis_m": 9999,
      "fzfg": false,
      "metar_trigger": false,
      "taf_trigger": false,
      "metar": "METAR LWOH 030850Z 36003KT 320V040 9999 SCT040 05/03 Q1017",
      "taf": "TAF LWOH 030840Z 0309/0409 VRB02KT 9999 SCT040"
    },
    {
      "icao": "LWSK",
      "alert": "OK",
      "vis_m": 9999,
      "fzfg": false,
      "metar_trigger": false,
      "taf_trigger": false,
      "metar": "METAR LWSK 030850Z VRB01KT 9999 OVC022 02/M00 Q1019 NOSIG",
      "taf": "TAF LWSK 030840Z 0309/0409 VRB02KT 9999 BKN020"
    },
    {
      "icao": "LYBE",
      "alert": "OK",
      "vis_m": 9999,
      "fzfg": false,
      "metar_trigger": false,
      "taf_trigger": false,
      "metar": "METAR LYBE 030830Z 13008KT CAVOK 01/M03 Q1014 NOSIG",
      "taf": "TAF LYBE 030500Z 0306/0406 10008KT CAVOK TX07/0313Z TNM03/0306Z"
    },
    {
      "icao": "LYNI",
      "alert": "OK",
      "vis_m": 9999,
      "fzfg": false,
      "metar_trigger": false,
      "taf_trigger": false,
      "metar": "METAR LYNI 030830Z 19003KT 150V240 CAVOK 00/M02 Q1017 NOSIG",
      "taf": "TAF LYNI 030500Z 0306/0406 08006KT CAVOK TX06/0313Z TNM03/0306Z"
    },
    {
      "icao": "LYPG",
      "alert": "OK",
      "vis_m": 8000,
      "fzfg": false,
      "metar_trigger": false,
      "taf_trigger": false,
      "metar": "METAR LYPG 030830Z 08001KT 8000 FEW034 BKN060 BKN080 06/05 Q1017 NOSIG",
      "taf": "TAF LYPG 030500Z 0306/0406 36005KT 9999 FEW020 BKN043 BKN080 TX12/0316Z TN04/0306Z"
    },
    {
      "icao": "LZIB",
      "alert": "OK",
      "vis_m": 9999,
      "fzfg": false,
      "metar_trigger": false,
      "taf_trigger": false,
      "metar": "METAR LZIB 030830Z 10013KT 9999 -FZDZ FEW010 OVC013 M00/M03 Q1011 TEMPO OVC009",
      "taf": ""
    },
    {
      "icao": "LZKZ",
      "alert": "OK",
      "vis_m": 9999,
      "fzfg": false,
      "metar_trigger": false,
      "taf_trigger": false,
      "metar": "METAR LZKZ 030830Z 00000KT 9999 -SN SCT014 OVC021 M02/M04 Q1015 NOSIG",
      "taf": "TAF LZKZ 030515Z 0306/0406 VRB02KT 9999 BKN017"
    },
    {
      "icao": "LZTT",
      "alert": "OK",
      "vis_m": 9000,
      "fzfg": false,
      "metar_trigger": false,
      "taf_trigger": false,
      "metar": "METAR LZTT 030830Z 15006KT 9000 -SN SCT007 BKN024 M03/M04 Q1011 TEMPO BKN006 OVC026",
      "taf": "TAF LZTT 030515Z 0306/0406 17004KT 9999 OVC020"
    },
    {
      "icao": "OEJN",
      "alert": "OK",
      "vis_m": 9999,
      "fzfg": false,
      "metar_trigger": false,
      "taf_trigger": false,
      "metar": "METAR OEJN 030800Z 34004KT CAVOK 30/16 Q1016 NOSIG",
      "taf": "TAF OEJN 030500Z 0306/0412 33012KT 7000 SCT040"
    },
    {
      "icao": "OEMA",
      "alert": "OK",
      "vis_m": 9999,
      "fzfg": false,
      "metar_trigger": false,
      "taf_trigger": false,
      "metar": "METAR OEMA 030800Z 22003KT CAVOK 26/12 Q1019 NOSIG",
      "taf": "TAF OEMA 030500Z 0306/0412 30012KT 7000 NSC"
    },
    {
      "icao": "OJAI",
      "alert": "OK",
      "vis_m": 3000,
      "fzfg": false,
      "metar_trigger": false,
      "taf_trigger": false,
      "metar": "METAR OJAI 030800Z 25023KT 3000 -RA SCT025 SCT030 11/07 Q1019 NOSIG",
      "taf": ""
    },
    {
      "icao": "OMAA",
      "alert": "OK",
      "vis_m": 9999,
      "fzfg": false,
      "metar_trigger": false,
      "taf_trigger": false,
      "metar": "METAR OMAA 030830Z 11004KT 030V150 CAVOK 27/01 Q1017 NOSIG",
      "taf": "TAF OMAA 030500Z 0306/0412 20005KT 8000 NSC"
    },
    {
      "icao": "OMDB",
      "alert": "OK",
      "vis_m": 9999,
      "fzfg": false,
      "metar_trigger": false,
      "taf_trigger": false,
      "metar": "METAR OMDB 030830Z VRB03KT CAVOK 26/10 Q1017 BECMG 30010KT",
      "taf": "TAF OMDB 030500Z 0306/0412 VRB02KT 4000 HZ NSC"
    },
    {
      "icao": "UAAA",
      "alert": "OK",
      "vis_m": 9999,
      "fzfg": false,
      "metar_trigger": false,
      "taf_trigger": false,
      "metar": "METAR UAAA 030830Z 25004MPS 9999 SCT050 BKN100 09/03 Q1018 NOSIG",
      "taf": "TAF UAAA 030505Z 0306/0406 22003MPS 9999 SCT050CB BKN100 TX09/0309Z TNM01/0402Z"
    },
    {
      "icao": "UBBB",
      "alert": "OK",
      "vis_m": 2000,
      "fzfg": false,
      "metar_trigger": false,
      "taf_trigger": false,
      "metar": "METAR UBBB 030830Z 30014KT 2000 BR OVC003 06/06 Q1008 NOSIG",
      "taf": ""
    },
    {
      "icao": "UDSG",
      "alert": "OK",
      "vis_m": 5000,
      "fzfg": false,
      "metar_trigger": false,
      "taf_trigger": false,
      "metar": "METAR UDSG 030830Z 15002KT 5000 -RA BR OVC013 02/02 Q1011 NOSIG",
      "taf": "TAF UDSG 030458Z 0306/0406 VRB06KT 5000 BR OVC030"
    },
    {
      "icao": "UDYZ",
      "alert": "OK",
      "vis_m": 1100,
      "fzfg": false,
      "metar_trigger": false,
      "taf_trigger": false,
      "metar": "METAR UDYZ 030830Z 34006KT 1100 0750W R08/0750N -SHRA BCFG FEW006 BKN036CB 03/02 Q1010 NOSIG",
      "taf": "TAF UDYZ 030500Z 0306/0406 24006KT 1500 BR BKN020"
    },
    {
      "icao": "UGKO",
      "alert": "OK",
      "vis_m": 9999,
      "fzfg": false,
      "metar_trigger": false,
      "taf_trigger": false,
      "metar": "METAR UGKO 030830Z 28008KT 9999 -RA SCT017 BKN040 10/09 Q1010 NOSIG",
      "taf": "TAF UGKO 030500Z 0306/0406 09007KT 9999 BKN050 TX11/0311Z TN04/0403Z"
    }
  ]
}