{
  "ts_utc": "2026-03-05T08:01:13Z",
  "threshold_m": 150,
  "source": "stations_override.txt (ICAO list) + aviationweather.gov (METAR/TAF raw)",
  "station_count": 159,
  "stations": [
    {
      "icao": "BIKF",
      "alert": "OK",
      "vis_m": 6000,
      "fzfg": false,
      "metar_trigger": false,
      "taf_trigger": false,
      "metar": "METAR BIKF 050730Z 21017KT 6000 -SHSN FEW004TCU BKN020CB M00/M01 Q0997",
      "taf": ""
    },
    {
      "icao": "BKPR",
      "alert": "OK",
      "vis_m": 7000,
      "fzfg": false,
      "metar_trigger": false,
      "taf_trigger": false,
      "metar": "METAR BKPR 050800Z VRB02KT 7000 -RA BKN040 08/07 Q1025 NOSIG",
      "taf": "TAF BKPR 050530Z 0506/0606 35008KT 9999 BKN040"
    },
    {
      "icao": "EBCI",
      "alert": "OK",
      "vis_m": 9999,
      "fzfg": false,
      "metar_trigger": false,
      "taf_trigger": false,
      "metar": "METAR EBCI 050750Z 12005KT 100V170 CAVOK 09/02 Q1019 NOSIG",
      "taf": "TAF EBCI 050500Z 0506/0612 15007KT CAVOK"
    },
    {
      "icao": "EDDB",
      "alert": "OK",
      "vis_m": 9999,
      "fzfg": false,
      "metar_trigger": false,
      "taf_trigger": false,
      "metar": "METAR EDDB 050750Z AUTO 10004KT CAVOK 03/M01 Q1028 NOSIG",
      "taf": "TAF EDDB 050500Z 0506/0606 11005KT CAVOK"
    },
    {
      "icao": "EDDH",
      "alert": "OK",
      "vis_m": 9999,
      "fzfg": false,
      "metar_trigger": false,
      "taf_trigger": false,
      "metar": "METAR EDDH 050750Z AUTO 14006KT 110V170 CAVOK 05/M01 Q1025 NOSIG",
      "taf": "TAF EDDH 050500Z 0506/0612 12006KT CAVOK"
    },
    {
      "icao": "EDDK",
      "alert": "OK",
      "vis_m": 9999,
      "fzfg": false,
      "metar_trigger": false,
      "taf_trigger": false,
      "metar": "METAR EDDK 050750Z AUTO 11006KT 070V150 CAVOK 09/03 Q1022 NOSIG",
      "taf": "TAF EDDK 050500Z 0506/0612 11005KT CAVOK"
    },
    {
      "icao": "EDDN",
      "alert": "OK",
      "vis_m": 9999,
      "fzfg": false,
      "metar_trigger": false,
      "taf_trigger": false,
      "metar": "METAR EDDN 050750Z AUTO 11003KT CAVOK 04/02 Q1025 NOSIG",
      "taf": "TAF EDDN 050500Z 0506/0606 10004KT CAVOK"
    },
    {
      "icao": "EDDS",
      "alert": "OK",
      "vis_m": 8000,
      "fzfg": false,
      "metar_trigger": false,
      "taf_trigger": false,
      "metar": "METAR EDDS 050750Z AUTO VRB01KT 8000 NCD 05/02 Q1022 NOSIG",
      "taf": "TAF EDDS 050500Z 0506/0606 VRB03KT CAVOK"
    },
    {
      "icao": "EDFH",
      "alert": "OK",
      "vis_m": 9999,
      "fzfg": false,
      "metar_trigger": false,
      "taf_trigger": false,
      "metar": "METAR EDFH 050750Z 13016KT CAVOK 06/01 Q1021",
      "taf": "TAF EDFH 050500Z 0506/0606 13010KT CAVOK"
    },
    {
      "icao": "EDJA",
      "alert": "OK",
      "vis_m": 250,
      "fzfg": true,
      "metar_trigger": false,
      "taf_trigger": false,
      "metar": "METAR EDJA 050750Z VRB02KT 0250 R06/0300N FZFG VV/// M01/M02 Q1023",
      "taf": "TAF EDJA 050500Z 0506/0515 04005KT 0200 FZFG VV001"
    },
    {
      "icao": "EDLW",
      "alert": "OK",
      "vis_m": 9999,
      "fzfg": false,
      "metar_trigger": false,
      "taf_trigger": false,
      "metar": "METAR EDLW 050750Z 04003KT 350V070 CAVOK 08/05 Q1022",
      "taf": "TAF EDLW 050500Z 0506/0606 13006KT CAVOK"
    },
    {
      "icao": "EDNY",
      "alert": "OK",
      "vis_m": 1800,
      "fzfg": false,
      "metar_trigger": false,
      "taf_trigger": false,
      "metar": "METAR EDNY 050750Z 05006KT 1800 BR OVC005 01/01 Q1023",
      "taf": ""
    },
    {
      "icao": "EDSB",
      "alert": "OK",
      "vis_m": 9999,
      "fzfg": false,
      "metar_trigger": false,
      "taf_trigger": false,
      "metar": "METAR EDSB 050750Z 00000KT CAVOK 05/01 Q1022",
      "taf": "TAF EDSB 050500Z 0506/0606 05004KT CAVOK"
    },
    {
      "icao": "EETN",
      "alert": "OK",
      "vis_m": 9999,
      "fzfg": false,
      "metar_trigger": false,
      "taf_trigger": false,
      "metar": "METAR EETN 050750Z 31012KT CAVOK 02/M01 Q1016 NOSIG",
      "taf": "TAF EETN 050530Z 0506/0606 31012KT CAVOK"
    },
    {
      "icao": "EFTU",
      "alert": "OK",
      "vis_m": 9999,
      "fzfg": false,
      "metar_trigger": false,
      "taf_trigger": false,
      "metar": "METAR EFTU 050750Z AUTO 32006KT 270V360 CAVOK 03/00 Q1017",
      "taf": "TAF EFTU 050523Z 0506/0606 31007KT CAVOK"
    },
    {
      "icao": "EGBB",
      "alert": "OK",
      "vis_m": 3100,
      "fzfg": false,
      "metar_trigger": false,
      "taf_trigger": false,
      "metar": "METAR EGBB 050750Z 15003KT 3100 BR NSC 04/04 Q1015",
      "taf": "TAF EGBB 050455Z 0506/0606 14006KT 4000 BR FEW020"
    },
    {
      "icao": "EGGP",
      "alert": "OK",
      "vis_m": 4000,
      "fzfg": false,
      "metar_trigger": false,
      "taf_trigger": false,
      "metar": "METAR EGGP 050750Z 12005KT 4000 BR NSC 06/05 Q1015",
      "taf": "TAF EGGP 050456Z 0506/0606 12006KT 2500 BR FEW040"
    },
    {
      "icao": "EGGW",
      "alert": "OK",
      "vis_m": 3500,
      "fzfg": false,
      "metar_trigger": false,
      "taf_trigger": false,
      "metar": "METAR EGGW 050750Z AUTO 13005KT 3500 BR NCD 05/05 Q1016",
      "taf": "TAF EGGW 050454Z 0506/0606 13005KT 2000 BR FEW040"
    },
    {
      "icao": "EGKK",
      "alert": "OK",
      "vis_m": 5000,
      "fzfg": false,
      "metar_trigger": false,
      "taf_trigger": false,
      "metar": "METAR EGKK 050750Z 07004KT 5000 BR NSC 06/06 Q1016",
      "taf": "TAF EGKK 050454Z 0506/0612 09005KT 2000 BR FEW045"
    },
    {
      "icao": "EGNM",
      "alert": "OK",
      "vis_m": 100,
      "fzfg": false,
      "metar_trigger": false,
      "taf_trigger": false,
      "metar": "METAR EGNM 050750Z 13004KT 0100 R14/0200N FG VV/// 05/05 Q1015",
      "taf": "TAF EGNM 050458Z 0506/0606 14006KT 0300 FG VV///"
    },
    {
      "icao": "EGPD",
      "alert": "OK",
      "vis_m": 4000,
      "fzfg": false,
      "metar_trigger": false,
      "taf_trigger": false,
      "metar": "METAR EGPD 050750Z 17013KT 4000 BR BKN004 07/06 Q1012 TEMPO 5000 BKN005",
      "taf": ""
    },
    {
      "icao": "EGPF",
      "alert": "OK",
      "vis_m": 6000,
      "fzfg": false,
      "metar_trigger": false,
      "taf_trigger": false,
      "metar": "METAR EGPF 050750Z AUTO 19007KT 160V230 6000 -RA BKN015 10/08 Q1011",
      "taf": "TAF EGPF 050457Z 0506/0606 16007KT 9999 SCT025"
    },
    {
      "icao": "EHBK",
      "alert": "OK",
      "vis_m": 9999,
      "fzfg": false,
      "metar_trigger": false,
      "taf_trigger": false,
      "metar": "METAR EHBK 050755Z AUTO 11005KT 9999 NCD 09/04 Q1020 NOSIG",
      "taf": "TAF EHBK 050504Z 0506/0612 10005KT CAVOK"
    },
    {
      "icao": "EHEH",
      "alert": "OK",
      "vis_m": 9999,
      "fzfg": false,
      "metar_trigger": false,
      "taf_trigger": false,
      "metar": "METAR EHEH 050755Z AUTO 13005KT 100V160 9999 NCD 09/04 Q1020 BLU NOSIG RMK TREND REMOTE BY EHWX",
      "taf": "TAF EHEH 050501Z 0506/0612 13006KT CAVOK"
    },
    {
      "icao": "EKBI",
      "alert": "OK",
      "vis_m": 9999,
      "fzfg": false,
      "metar_trigger": false,
      "taf_trigger": false,
      "metar": "METAR EKBI 050750Z AUTO 13007KT 9999 NCD 03/M00 Q1025",
      "taf": "TAF EKBI 050527Z 0506/0606 11005KT CAVOK"
    },
    {
      "icao": "EKCH",
      "alert": "OK",
      "vis_m": 9999,
      "fzfg": false,
      "metar_trigger": false,
      "taf_trigger": false,
      "metar": "METAR EKCH 050750Z 22002KT 6000 0800SW R22L/P1500N R04L/0500N R12/P1500N BCFG NSC 01/01 Q1027 BECMG TL0900 CAVOK",
      "taf": "TAF EKCH 050527Z 0506/0606 22006KT 9999 FEW030"
    },
    {
      "icao": "ENAL",
      "alert": "OK",
      "vis_m": 9999,
      "fzfg": false,
      "metar_trigger": false,
      "taf_trigger": false,
      "metar": "METAR ENAL 050750Z 17010KT 9999 SCT057 09/03 Q1015",
      "taf": "TAF ENAL 050500Z 0506/0515 19008KT 9999 SCT040"
    },
    {
      "icao": "ENBR",
      "alert": "OK",
      "vis_m": 9999,
      "fzfg": false,
      "metar_trigger": false,
      "taf_trigger": false,
      "metar": "METAR ENBR 050750Z 13011KT CAVOK 05/M05 Q1020 NOSIG RMK WIND 1200FT 14022KT",
      "taf": "TAF ENBR 050500Z 0506/0606 15012KT 9999 FEW040"
    },
    {
      "icao": "ENGM",
      "alert": "OK",
      "vis_m": 9999,
      "fzfg": false,
      "metar_trigger": false,
      "taf_trigger": false,
      "metar": "METAR ENGM 050750Z VRB02KT CAVOK M02/M04 Q1021 NOSIG",
      "taf": "TAF ENGM 050500Z 0506/0606 VRB03KT CAVOK"
    },
    {
      "icao": "ENHD",
      "alert": "OK",
      "vis_m": 9999,
      "fzfg": false,
      "metar_trigger": false,
      "taf_trigger": false,
      "metar": "METAR ENHD 050750Z 13015KT 9999 BKN030 05/M03 Q1020",
      "taf": "TAF ENHD 050500Z 0506/0515 13015KT CAVOK"
    },
    {
      "icao": "ENTC",
      "alert": "OK",
      "vis_m": 9999,
      "fzfg": false,
      "metar_trigger": false,
      "taf_trigger": false,
      "metar": "METAR ENTC 050750Z VRB02KT 9999 -RA FEW009 SCT012 BKN020 02/00 Q1010 TEMPO BKN012 RMK WIND 2600FT 26008KT",
      "taf": "TAF ENTC 050500Z 0506/0606 22005KT 9999 SCT015 BKN020"
    },
    {
      "icao": "ENTO",
      "alert": "OK",
      "vis_m": 9999,
      "fzfg": false,
      "metar_trigger": false,
      "taf_trigger": false,
      "metar": "METAR ENTO 050750Z 00000KT 9999 VCFG NSC M01/M03 Q1022 NOSIG",
      "taf": "TAF ENTO 050500Z 0506/0606 28005KT CAVOK"
    },
    {
      "icao": "ENVA",
      "alert": "OK",
      "vis_m": 9999,
      "fzfg": false,
      "metar_trigger": false,
      "taf_trigger": false,
      "metar": "METAR ENVA 050750Z 07004KT 9999 -DZRA SCT022 OVC041 01/01 Q1018 NOSIG RMK WIND 670FT 14013KT",
      "taf": "TAF ENVA 050500Z 0506/0606 11008KT 9999 -RADZ BKN030"
    },
    {
      "icao": "ENZV",
      "alert": "OK",
      "vis_m": 9999,
      "fzfg": false,
      "metar_trigger": false,
      "taf_trigger": false,
      "metar": "METAR ENZV 050750Z 14008KT CAVOK 05/M04 Q1021 NOSIG",
      "taf": "TAF ENZV 050500Z 0506/0606 14012KT CAVOK"
    },
    {
      "icao": "EPGD",
      "alert": "OK",
      "vis_m": 9999,
      "fzfg": false,
      "metar_trigger": false,
      "taf_trigger": false,
      "metar": "METAR EPGD 050730Z 26009KT 9999 BKN002 01/01 Q1025",
      "taf": "TAF EPGD 050530Z 0506/0606 28008KT 3000 BR BKN003"
    },
    {
      "icao": "EPKK",
      "alert": "OK",
      "vis_m": 9000,
      "fzfg": false,
      "metar_trigger": false,
      "taf_trigger": false,
      "metar": "METAR EPKK 050730Z VRB01KT 9000 NSC 03/M01 Q1027",
      "taf": "TAF EPKK 050530Z 0506/0606 23003KT CAVOK"
    },
    {
      "icao": "EPKT",
      "alert": "OK",
      "vis_m": 9999,
      "fzfg": false,
      "metar_trigger": false,
      "taf_trigger": false,
      "metar": "METAR EPKT 050730Z VRB01KT CAVOK 01/M02 Q1027",
      "taf": "TAF EPKT 050530Z 0506/0606 25003KT 2000 BR NSC"
    },
    {
      "icao": "EPLB",
      "alert": "OK",
      "vis_m": 9999,
      "fzfg": false,
      "metar_trigger": false,
      "taf_trigger": false,
      "metar": "METAR EPLB 050730Z 28006KT CAVOK 03/01 Q1025",
      "taf": "TAF EPLB 050530Z 0506/0606 28010KT CAVOK"
    },
    {
      "icao": "EPMO",
      "alert": "OK",
      "vis_m": 9999,
      "fzfg": false,
      "metar_trigger": false,
      "taf_trigger": false,
      "metar": "METAR EPMO 050730Z 27007KT CAVOK 02/01 Q1026",
      "taf": "TAF EPMO 050530Z 0506/0606 28007KT CAVOK"
    },
    {
      "icao": "EPPO",
      "alert": "OK",
      "vis_m": 9999,
      "fzfg": false,
      "metar_trigger": false,
      "taf_trigger": false,
      "metar": "METAR EPPO 050730Z VRB01KT CAVOK 02/M01 Q1028",
      "taf": "TAF EPPO 050530Z 0506/0606 VRB02KT CAVOK"
    },
    {
      "icao": "EPRA",
      "alert": "OK",
      "vis_m": 9999,
      "fzfg": false,
      "metar_trigger": false,
      "taf_trigger": false,
      "metar": "METAR EPRA 050730Z 30006KT 270V330 CAVOK 02/M01 Q1026",
      "taf": "TAF EPRA 050530Z 0506/0515 28008KT CAVOK"
    },
    {
      "icao": "EPRZ",
      "alert": "OK",
      "vis_m": 9999,
      "fzfg": false,
      "metar_trigger": false,
      "taf_trigger": false,
      "metar": "METAR EPRZ 050730Z 27008KT CAVOK 03/M00 Q1026",
      "taf": "TAF EPRZ 050530Z 0506/0606 27005KT CAVOK"
    },
    {
      "icao": "EPSC",
      "alert": "OK",
      "vis_m": 6000,
      "fzfg": false,
      "metar_trigger": false,
      "taf_trigger": false,
      "metar": "METAR EPSC 050730Z 13002KT 6000 NSC 01/M01 Q1028",
      "taf": "TAF EPSC 050530Z 0506/0606 VRB02KT CAVOK"
    },
    {
      "icao": "EPSY",
      "alert": "OK",
      "vis_m": 9999,
      "fzfg": false,
      "metar_trigger": false,
      "taf_trigger": false,
      "metar": "METAR EPSY 050730Z 26003KT 230V300 CAVOK 00/M00 Q1025",
      "taf": "TAF EPSY 050530Z 0506/0515 28005KT CAVOK"
    },
    {
      "icao": "EPWA",
      "alert": "OK",
      "vis_m": 9999,
      "fzfg": false,
      "metar_trigger": false,
      "taf_trigger": false,
      "metar": "METAR EPWA 050730Z 28007KT CAVOK 02/00 Q1026 NOSIG",
      "taf": "TAF EPWA 050530Z 0506/0606 28006KT CAVOK"
    },
    {
      "icao": "EPWR",
      "alert": "OK",
      "vis_m": 9999,
      "fzfg": false,
      "metar_trigger": false,
      "taf_trigger": false,
      "metar": "METAR EPWR 050730Z VRB02KT CAVOK 02/M00 Q1028",
      "taf": "TAF EPWR 050530Z 0506/0606 VRB02KT CAVOK"
    },
    {
      "icao": "ESGG",
      "alert": "OK",
      "vis_m": 9999,
      "fzfg": false,
      "metar_trigger": false,
      "taf_trigger": false,
      "metar": "METAR ESGG 050750Z 22007KT CAVOK 00/M01 Q1025",
      "taf": "TAF ESGG 050530Z 0506/0606 21006KT CAVOK"
    },
    {
      "icao": "ESKN",
      "alert": "OK",
      "vis_m": 9999,
      "fzfg": false,
      "metar_trigger": false,
      "taf_trigger": false,
      "metar": "METAR ESKN 050750Z 27006KT CAVOK 02/00 Q1022",
      "taf": "TAF ESKN 050530Z 0506/0606 27007KT CAVOK"
    },
    {
      "icao": "ESMS",
      "alert": "WARNING",
      "vis_m": 450,
      "fzfg": true,
      "metar_trigger": false,
      "taf_trigger": true,
      "metar": "METAR ESMS 050750Z 20002KT 0450 R17/0650N R35/0400N FZFG NSC M00/M00 Q1026",
      "taf": "TAF ESMS 050527Z 0506/0606 30003KT 0100 FZFG NSC"
    },
    {
      "icao": "ESSA",
      "alert": "OK",
      "vis_m": 9999,
      "fzfg": false,
      "metar_trigger": false,
      "taf_trigger": false,
      "metar": "METAR ESSA 050750Z 25006KT CAVOK 02/M01 Q1021 NOSIG",
      "taf": "TAF ESSA 050530Z 0506/0606 26007KT CAVOK"
    },
    {
      "icao": "EYKA",
      "alert": "OK",
      "vis_m": 9999,
      "fzfg": false,
      "metar_trigger": false,
      "taf_trigger": false,
      "metar": "METAR EYKA 050750Z 27008KT 250V310 CAVOK 02/M01 Q1020",
      "taf": "TAF EYKA 050500Z 0506/0606 29010KT 8000 NSC"
    },
    {
      "icao": "EYPA",
      "alert": "OK",
      "vis_m": 9999,
      "fzfg": false,
      "metar_trigger": false,
      "taf_trigger": false,
      "metar": "METAR EYPA 050750Z 36004KT 260V050 CAVOK 03/01 Q1023",
      "taf": ""
    },
    {
      "icao": "EYVI",
      "alert": "OK",
      "vis_m": 9999,
      "fzfg": false,
      "metar_trigger": false,
      "taf_trigger": false,
      "metar": "METAR EYVI 050750Z 31010KT CAVOK 01/M01 Q1018 NOSIG",
      "taf": "TAF EYVI 050500Z 0506/0606 VRB05KT 9000 NSC"
    },
    {
      "icao": "GCFV",
      "alert": "OK",
      "vis_m": 9999,
      "fzfg": false,
      "metar_trigger": false,
      "taf_trigger": false,
      "metar": "METAR GCFV 050730Z 32008KT 9999 FEW040 15/11 Q1021",
      "taf": "TAF GCFV 050200Z 0503/0603 35005KT 9999 SCT030 TX20/0514Z TN15/0506Z"
    },
    {
      "icao": "GCLP",
      "alert": "OK",
      "vis_m": 9999,
      "fzfg": false,
      "metar_trigger": false,
      "taf_trigger": false,
      "metar": "METAR GCLP 050730Z 35010KT 9999 -RA FEW020 BKN045 17/13 Q1022 NOSIG",
      "taf": "TAF GCLP 050200Z 0503/0603 36013KT 9999 SCT025 TX21/0514Z TN15/0506Z"
    },
    {
      "icao": "GCTS",
      "alert": "OK",
      "vis_m": 9999,
      "fzfg": false,
      "metar_trigger": false,
      "taf_trigger": false,
      "metar": "METAR GCTS 050730Z 02006KT 9999 FEW030 15/08 Q1022 NOSIG",
      "taf": "TAF GCTS 050200Z 0503/0603 03009KT 9999 SCT025 TX22/0514Z TN15/0506Z"
    },
    {
      "icao": "GMAD",
      "alert": "OK",
      "vis_m": 8000,
      "fzfg": false,
      "metar_trigger": false,
      "taf_trigger": false,
      "metar": "METAR GMAD 050730Z 27007KT 8000 NSC 13/12 Q1016 NOSIG",
      "taf": "TAF GMAD 050500Z 0506/0612 25009KT 6000 FEW023 BKN100"
    },
    {
      "icao": "GMMN",
      "alert": "OK",
      "vis_m": 5000,
      "fzfg": false,
      "metar_trigger": false,
      "taf_trigger": false,
      "metar": "SPECI GMMN 050744Z 19006KT 5000 FEW001 08/07 Q1018 NOSIG",
      "taf": "TAF GMMN 050500Z 0506/0612 20004KT 0800 FG BKN001"
    },
    {
      "icao": "GMMX",
      "alert": "OK",
      "vis_m": 6000,
      "fzfg": false,
      "metar_trigger": false,
      "taf_trigger": false,
      "metar": "METAR GMMX 050730Z 23006KT 210V270 6000 OVC004 12/11 Q1018 TEMPO 3000 DZ",
      "taf": "TAF GMMX 050500Z 0506/0612 28006KT 6000 OVC004"
    },
    {
      "icao": "HEGN",
      "alert": "OK",
      "vis_m": 9999,
      "fzfg": false,
      "metar_trigger": false,
      "taf_trigger": false,
      "metar": "METAR HEGN 050700Z 32012KT CAVOK 19/07 Q1022 NOSIG",
      "taf": "TAF HEGN 050500Z 0506/0612 32016KT CAVOK"
    },
    {
      "icao": "HEMA",
      "alert": "OK",
      "vis_m": 9999,
      "fzfg": false,
      "metar_trigger": false,
      "taf_trigger": false,
      "metar": "METAR HEMA 050700Z 32018KT 9999 FEW025 SCT200 21/09 Q1020 NOSIG",
      "taf": "TAF HEMA 050500Z 0506/0612 33008G20KT CAVOK"
    },
    {
      "icao": "HESH",
      "alert": "OK",
      "vis_m": 9999,
      "fzfg": false,
      "metar_trigger": false,
      "taf_trigger": false,
      "metar": "METAR HESH 050700Z 36013KT CAVOK 20/05 Q1021 NOSIG",
      "taf": "TAF HESH 050500Z 0506/0612 34013KT CAVOK"
    },
    {
      "icao": "HESX",
      "alert": "OK",
      "vis_m": 6000,
      "fzfg": false,
      "metar_trigger": false,
      "taf_trigger": false,
      "metar": "METAR HESX 050700Z 34002KT 6000 NSC 12/08 Q1023 NOSIG",
      "taf": "TAF HESX 050500Z 0506/0612 02009KT 9999 FEW020"
    },
    {
      "icao": "LATI",
      "alert": "OK",
      "vis_m": 7000,
      "fzfg": false,
      "metar_trigger": false,
      "taf_trigger": false,
      "metar": "METAR LATI 050750Z VRB03KT 7000 FEW076 BKN098 12/08 Q1026 NOSIG",
      "taf": "TAF LATI 050500Z 0506/0606 VRB05KT 9999 BKN080 TX16/0512Z TN04/0604Z"
    },
    {
      "icao": "LBPD",
      "alert": "OK",
      "vis_m": 9999,
      "fzfg": false,
      "metar_trigger": false,
      "taf_trigger": false,
      "metar": "METAR LBPD 050800Z AUTO 00000KT 9999 BKN063/// OVC083/// 09/06 Q1023 NOSIG",
      "taf": "TAF LBPD 050500Z 0506/0606 VRB03KT 9999 BKN070"
    },
    {
      "icao": "LBSF",
      "alert": "OK",
      "vis_m": 8000,
      "fzfg": false,
      "metar_trigger": false,
      "taf_trigger": false,
      "metar": "METAR LBSF 050800Z 28006KT 8000 -RA FEW008 BKN051 OVC060 08/06 Q1024 NOSIG",
      "taf": "TAF LBSF 050500Z 0506/0606 VRB03KT 9999 SCT030 OVC050"
    },
    {
      "icao": "LBWN",
      "alert": "OK",
      "vis_m": 6000,
      "fzfg": false,
      "metar_trigger": false,
      "taf_trigger": false,
      "metar": "METAR LBWN 050800Z 24005KT 200V260 6000 NSC 10/05 Q1022 TEMPO 4000 BR",
      "taf": "TAF LBWN 050500Z 0506/0606 VRB04KT 9999 SCT040"
    },
    {
      "icao": "LCLK",
      "alert": "OK",
      "vis_m": 9999,
      "fzfg": false,
      "metar_trigger": false,
      "taf_trigger": false,
      "metar": "METAR LCLK 050730Z 05003KT 360V100 9999 FEW030 18/04 Q1024 NOSIG",
      "taf": "TAF LCLK 050530Z 0506/0606 32008KT 9999 FEW040"
    },
    {
      "icao": "LCPH",
      "alert": "OK",
      "vis_m": 9999,
      "fzfg": false,
      "metar_trigger": false,
      "taf_trigger": false,
      "metar": "METAR LCPH 050730Z 15007KT 110V170 9999 FEW040 18/04 Q1023 NOSIG",
      "taf": "TAF LCPH 050530Z 0506/0606 05008KT 9999 FEW030"
    },
    {
      "icao": "LEAL",
      "alert": "OK",
      "vis_m": 9999,
      "fzfg": false,
      "metar_trigger": false,
      "taf_trigger": false,
      "metar": "METAR LEAL 050730Z 25003KT CAVOK 14/10 Q1010 NOSIG",
      "taf": "TAF LEAL 050500Z 0506/0606 VRB04KT 9999 SCT030 TX17/0513Z TN10/0506Z"
    },
    {
      "icao": "LEBB",
      "alert": "OK",
      "vis_m": 9999,
      "fzfg": false,
      "metar_trigger": false,
      "taf_trigger": false,
      "metar": "METAR LEBB 050730Z 10005KT 070V150 CAVOK 16/09 Q1014 NOSIG",
      "taf": "TAF LEBB 050500Z 0506/0606 13009KT CAVOK TX20/0515Z TN11/0606Z"
    },
    {
      "icao": "LEBL",
      "alert": "OK",
      "vis_m": 3000,
      "fzfg": false,
      "metar_trigger": false,
      "taf_trigger": false,
      "metar": "METAR LEBL 050730Z 05021KT 3000 DZ BR BKN016 OVC022 14/12 Q1015 NOSIG",
      "taf": "TAF LEBL 050500Z 0506/0606 07015KT 9999 SCT020 TX15/0512Z TN13/0506Z"
    },
    {
      "icao": "LECH",
      "alert": "OK",
      "vis_m": 7000,
      "fzfg": false,
      "metar_trigger": false,
      "taf_trigger": false,
      "metar": "METAR LECH 050730Z AUTO 02011KT 350V060 7000 -RA BKN004 OVC008 11/10 Q1014",
      "taf": ""
    },
    {
      "icao": "LEMD",
      "alert": "OK",
      "vis_m": 9999,
      "fzfg": false,
      "metar_trigger": false,
      "taf_trigger": false,
      "metar": "METAR LEMD 050730Z 34003KT CAVOK 08/08 Q1015 NOSIG",
      "taf": "TAF LEMD 050500Z 0506/0612 VRB04KT 9999 FEW060 TX16/0514Z TN08/0507Z"
    },
    {
      "icao": "LEMG",
      "alert": "OK",
      "vis_m": 9999,
      "fzfg": false,
      "metar_trigger": false,
      "taf_trigger": false,
      "metar": "METAR LEMG 050730Z 28010KT 9999 FEW015 09/06 Q1014 NOSIG",
      "taf": "TAF LEMG 050500Z 0506/0606 30012KT CAVOK TX19/0514Z TN09/0507Z"
    },
    {
      "icao": "LEVC",
      "alert": "OK",
      "vis_m": 9999,
      "fzfg": false,
      "metar_trigger": false,
      "taf_trigger": false,
      "metar": "METAR LEVC 050730Z COR 32017KT 9999 -RA FEW015 BKN065 13/12 Q1011 RERA NOSIG",
      "taf": "TAF LEVC 050500Z 0506/0606 04010KT 9999 OVC020 TX14/0513Z TN11/0506Z"
    },
    {
      "icao": "LEXJ",
      "alert": "OK",
      "vis_m": 6000,
      "fzfg": false,
      "metar_trigger": false,
      "taf_trigger": false,
      "metar": "METAR LEXJ 050730Z 22003KT 150V290 6000 OVC007 10/08 Q1015",
      "taf": ""
    },
    {
      "icao": "LEZG",
      "alert": "OK",
      "vis_m": 4500,
      "fzfg": false,
      "metar_trigger": false,
      "taf_trigger": false,
      "metar": "METAR LEZG 050730Z VRB01KT 4500 BR BKN050 OVC070 11/11 Q1016 NOSIG",
      "taf": "TAF LEZG 050500Z 0506/0606 VRB04KT 9999 BKN030 TX15/0514Z TN10/0506Z"
    },
    {
      "icao": "LEZL",
      "alert": "OK",
      "vis_m": 9999,
      "fzfg": false,
      "metar_trigger": false,
      "taf_trigger": false,
      "metar": "METAR LEZL 050730Z 09006KT 9999 BKN024 10/10 Q1016 NOSIG",
      "taf": "TAF LEZL 050200Z 0503/0603 22005KT 9999 FEW015 SCT040 TX18/0515Z TN09/0507Z"
    },
    {
      "icao": "LFBD",
      "alert": "OK",
      "vis_m": 9999,
      "fzfg": false,
      "metar_trigger": false,
      "taf_trigger": false,
      "metar": "METAR LFBD 050730Z AUTO 15009KT CAVOK 12/09 Q1015 NOSIG",
      "taf": "TAF LFBD 050500Z 0506/0612 13010KT CAVOK TX20/0514Z TN09/0606Z"
    },
    {
      "icao": "LFLL",
      "alert": "OK",
      "vis_m": 9999,
      "fzfg": false,
      "metar_trigger": false,
      "taf_trigger": false,
      "metar": "METAR LFLL 050730Z 16007KT CAVOK 08/05 Q1020 NOSIG",
      "taf": "TAF LFLL 050500Z 0506/0612 15006KT CAVOK"
    },
    {
      "icao": "LFLS",
      "alert": "OK",
      "vis_m": 9999,
      "fzfg": false,
      "metar_trigger": false,
      "taf_trigger": false,
      "metar": "METAR LFLS 050730Z AUTO 09008KT CAVOK 08/04 Q1020 NOSIG",
      "taf": "TAF LFLS 050200Z 0503/0603 09008KT CAVOK"
    },
    {
      "icao": "LFMN",
      "alert": "OK",
      "vis_m": 9999,
      "fzfg": false,
      "metar_trigger": false,
      "taf_trigger": false,
      "metar": "METAR LFMN 050730Z 32011KT 9999 FEW100 OVC230 12/04 Q1022 NOSIG",
      "taf": "TAF LFMN 050200Z 0503/0609 33010KT CAVOK"
    },
    {
      "icao": "LFOB",
      "alert": "OK",
      "vis_m": 9999,
      "fzfg": false,
      "metar_trigger": false,
      "taf_trigger": false,
      "metar": "METAR LFOB 050730Z AUTO 00000KT CAVOK 04/02 Q1018 NOSIG",
      "taf": ""
    },
    {
      "icao": "LFPO",
      "alert": "OK",
      "vis_m": 9999,
      "fzfg": false,
      "metar_trigger": false,
      "taf_trigger": false,
      "metar": "METAR LFPO 050730Z 00000KT CAVOK 07/04 Q1018 NOSIG",
      "taf": "TAF LFPO 050500Z 0506/0612 VRB03KT CAVOK"
    },
    {
      "icao": "LFSB",
      "alert": "OK",
      "vis_m": 9999,
      "fzfg": false,
      "metar_trigger": false,
      "taf_trigger": false,
      "metar": "METAR LFSB 050730Z AUTO 31001KT CAVOK 03/03 Q1022 NOSIG",
      "taf": "TAF LFSB 050500Z 0506/0606 10004KT CAVOK"
    },
    {
      "icao": "LGAV",
      "alert": "OK",
      "vis_m": 9999,
      "fzfg": false,
      "metar_trigger": false,
      "taf_trigger": false,
      "metar": "METAR LGAV 050750Z VRB01KT CAVOK 15/04 Q1025 NOSIG",
      "taf": "TAF LGAV 050500Z 0506/0606 VRB03KT 9999 FEW020"
    },
    {
      "icao": "LGTS",
      "alert": "OK",
      "vis_m": 8000,
      "fzfg": false,
      "metar_trigger": false,
      "taf_trigger": false,
      "metar": "METAR LGTS 050750Z 00000KT 8000 FEW018 11/07 Q1025 NOSIG",
      "taf": ""
    },
    {
      "icao": "LHBP",
      "alert": "OK",
      "vis_m": 7000,
      "fzfg": false,
      "metar_trigger": false,
      "taf_trigger": false,
      "metar": "METAR LHBP 050730Z VRB02KT 7000 NSC 10/05 Q1025 NOSIG",
      "taf": "TAF LHBP 050515Z 0506/0606 34005KT 4000 BR NSC"
    },
    {
      "icao": "LHDC",
      "alert": "OK",
      "vis_m": 7000,
      "fzfg": false,
      "metar_trigger": false,
      "taf_trigger": false,
      "metar": "METAR LHDC 050715Z AUTO 00000KT 7000 NCD 07/04 Q1025 NOSIG",
      "taf": "TAF LHDC 050515Z 0506/0515 03003KT CAVOK"
    },
    {
      "icao": "LIBD",
      "alert": "OK",
      "vis_m": 4000,
      "fzfg": false,
      "metar_trigger": false,
      "taf_trigger": false,
      "metar": "METAR LIBD 050750Z 28004KT 4000 -DZ BR FEW006 BKN010 12/12 Q1026",
      "taf": "TAF LIBD 050500Z 0506/0606 VRB05KT 6000 SCT015"
    },
    {
      "icao": "LIBG",
      "alert": "OK",
      "vis_m": 8000,
      "fzfg": false,
      "metar_trigger": false,
      "taf_trigger": false,
      "metar": "SPECI LIBG 050654Z VRB02KT 8000 NSC 10/10 Q1026",
      "taf": "TAF LIBG 050737Z 0508/0515 VRB05KT 9999 SCT020"
    },
    {
      "icao": "LIBP",
      "alert": "OK",
      "vis_m": 4900,
      "fzfg": false,
      "metar_trigger": false,
      "taf_trigger": false,
      "metar": "METAR LIBP 050750Z AUTO 23004KT 4900 BR FEW006/// OVC031/// 12/11 Q1027",
      "taf": "TAF LIBP 050500Z 0506/0606 VRB05KT 3000 BR BKN015"
    },
    {
      "icao": "LIBR",
      "alert": "OK",
      "vis_m": 9999,
      "fzfg": false,
      "metar_trigger": false,
      "taf_trigger": false,
      "metar": "METAR LIBR 050750Z 31005KT CAVOK 13/12 Q1026",
      "taf": "TAF LIBR 050500Z 0506/0606 VRB05KT 4000 BR SCT020"
    },
    {
      "icao": "LICA",
      "alert": "OK",
      "vis_m": 9999,
      "fzfg": false,
      "metar_trigger": false,
      "taf_trigger": false,
      "metar": "METAR LICA 050750Z AUTO 07016KT 9999 NCD 15/11 Q1025",
      "taf": "TAF LICA 050500Z 0506/0606 06013KT CAVOK"
    },
    {
      "icao": "LICC",
      "alert": "OK",
      "vis_m": 6000,
      "fzfg": false,
      "metar_trigger": false,
      "taf_trigger": false,
      "metar": "METAR LICC 050750Z 20004KT 6000 FEW020 SCT030 12/10 Q1025",
      "taf": "TAF LICC 050500Z 0506/0606 VRB05KT 9999 SCT020"
    },
    {
      "icao": "LICJ",
      "alert": "OK",
      "vis_m": 9999,
      "fzfg": false,
      "metar_trigger": false,
      "taf_trigger": false,
      "metar": "METAR LICJ 050750Z 06006KT CAVOK 15/12 Q1022",
      "taf": "TAF LICJ 050500Z 0506/0606 VRB05KT 9999 SCT030"
    },
    {
      "icao": "LIMC",
      "alert": "OK",
      "vis_m": 2000,
      "fzfg": false,
      "metar_trigger": false,
      "taf_trigger": false,
      "metar": "METAR LIMC 050750Z 07004KT 2000 BR BKN005 09/08 Q1027 BECMG 3500 BR",
      "taf": "TAF LIMC 050500Z 0506/0612 VRB05KT 7000 SCT030"
    },
    {
      "icao": "LIME",
      "alert": "OK",
      "vis_m": 100,
      "fzfg": false,
      "metar_trigger": false,
      "taf_trigger": false,
      "metar": "METAR LIME 050750Z 10002KT 0100 R28/0600U FG VV001 08/08 Q1027 BECMG 0700 FG",
      "taf": "TAF LIME 050500Z 0506/0606 VRB05KT 7000 SCT025"
    },
    {
      "icao": "LIMF",
      "alert": "OK",
      "vis_m": 8000,
      "fzfg": false,
      "metar_trigger": false,
      "taf_trigger": false,
      "metar": "METAR LIMF 050750Z VRB01KT 8000 BKN030 09/06 Q1027",
      "taf": "TAF LIMF 050500Z 0506/0606 VRB04KT 7000 SCT030"
    },
    {
      "icao": "LIMJ",
      "alert": "OK",
      "vis_m": 9999,
      "fzfg": false,
      "metar_trigger": false,
      "taf_trigger": false,
      "metar": "METAR LIMJ 050750Z 04016KT CAVOK 13/07 Q1025",
      "taf": "TAF LIMJ 050500Z 0506/0606 36013KT 9999 FEW040"
    },
    {
      "icao": "LIPE",
      "alert": "OK",
      "vis_m": 4000,
      "fzfg": false,
      "metar_trigger": false,
      "taf_trigger": false,
      "metar": "METAR LIPE 050750Z VRB01KT 4000 BR FEW012 BKN018 09/07 Q1028",
      "taf": "TAF LIPE 050500Z 0506/0606 VRB04KT 6000 SCT015"
    },
    {
      "icao": "LIPH",
      "alert": "OK",
      "vis_m": 1500,
      "fzfg": false,
      "metar_trigger": false,
      "taf_trigger": false,
      "metar": "METAR LIPH 050750Z 25003KT 220V280 1500 BR BKN020 09/08 Q1028",
      "taf": "TAF LIPH 050500Z 0506/0606 VRB04KT 2000 BR BKN016"
    },
    {
      "icao": "LIPQ",
      "alert": "OK",
      "vis_m": 4300,
      "fzfg": false,
      "metar_trigger": false,
      "taf_trigger": false,
      "metar": "METAR LIPQ 050750Z AUTO 09003KT 4300 BR OVC007/// 09/08 Q1028",
      "taf": "TAF LIPQ 050500Z 0506/0606 VRB05KT 2000 BR SCT015"
    },
    {
      "icao": "LIPR",
      "alert": "OK",
      "vis_m": 5000,
      "fzfg": false,
      "metar_trigger": false,
      "taf_trigger": false,
      "metar": "METAR LIPR 050750Z 28005KT 5000 BR BKN025 OVC030 11/09 Q1027",
      "taf": "TAF LIPR 050500Z 0506/0606 VRB05KT 6000 BKN014"
    },
    {
      "icao": "LIPX",
      "alert": "OK",
      "vis_m": 2300,
      "fzfg": false,
      "metar_trigger": false,
      "taf_trigger": false,
      "metar": "METAR LIPX 050750Z 14002KT 2300 BR BKN010 09/08 Q1028",
      "taf": "TAF LIPX 050500Z 0506/0606 VRB05KT 5000 BR FEW020"
    },
    {
      "icao": "LIPY",
      "alert": "OK",
      "vis_m": 8000,
      "fzfg": false,
      "metar_trigger": false,
      "taf_trigger": false,
      "metar": "METAR LIPY 050750Z AUTO 35003KT 310V040 8000 BKN010/// OVC033/// 12/10 Q1027",
      "taf": "TAF LIPY 050500Z 0506/0606 VRB05KT 7000 SCT015"
    },
    {
      "icao": "LIPZ",
      "alert": "OK",
      "vis_m": 6000,
      "fzfg": false,
      "metar_trigger": false,
      "taf_trigger": false,
      "metar": "METAR LIPZ 050750Z 32005KT 300V360 6000 BKN015 09/08 Q1028 NOSIG",
      "taf": ""
    },
    {
      "icao": "LIRF",
      "alert": "OK",
      "vis_m": 6000,
      "fzfg": false,
      "metar_trigger": false,
      "taf_trigger": false,
      "metar": "METAR LIRF 050750Z 07005KT 6000 NSC 12/10 Q1024 NOSIG",
      "taf": "TAF LIRF 050500Z 0506/0612 05006KT 9000 NSC"
    },
    {
      "icao": "LIRN",
      "alert": "OK",
      "vis_m": 5000,
      "fzfg": false,
      "metar_trigger": false,
      "taf_trigger": false,
      "metar": "METAR LIRN 050750Z 30003KT 270V340 5000 BR NSC 14/10 Q1024 NOSIG",
      "taf": "TAF LIRN 050500Z 0506/0606 VRB05KT 7000 NSC"
    },
    {
      "icao": "LIRP",
      "alert": "OK",
      "vis_m": 9999,
      "fzfg": false,
      "metar_trigger": false,
      "taf_trigger": false,
      "metar": "METAR LIRP 050745Z 13007KT CAVOK 11/10 Q1024 NOSIG",
      "taf": "TAF LIRP 050500Z 0506/0606 12005KT CAVOK"
    },
    {
      "icao": "LIRZ",
      "alert": "OK",
      "vis_m": 9999,
      "fzfg": false,
      "metar_trigger": false,
      "taf_trigger": false,
      "metar": "METAR LIRZ 050750Z AUTO 21003KT 170V240 9999 NCD 08/07 Q1025",
      "taf": "TAF LIRZ 050500Z 0506/0606 VRB05KT 9999 FEW060"
    },
    {
      "icao": "LJLJ",
      "alert": "OK",
      "vis_m": 9999,
      "fzfg": false,
      "metar_trigger": false,
      "taf_trigger": false,
      "metar": "METAR LJLJ 050730Z 28003KT 240V300 CAVOK 03/02 Q1027 NOSIG",
      "taf": "TAF LJLJ 050500Z 0506/0606 VRB02KT CAVOK"
    },
    {
      "icao": "LKMT",
      "alert": "OK",
      "vis_m": 9999,
      "fzfg": false,
      "metar_trigger": false,
      "taf_trigger": false,
      "metar": "METAR LKMT 050730Z 00000KT CAVOK 03/01 Q1028 NOSIG",
      "taf": "TAF LKMT 050500Z 0506/0606 03003KT CAVOK"
    },
    {
      "icao": "LKPR",
      "alert": "OK",
      "vis_m": 9000,
      "fzfg": false,
      "metar_trigger": false,
      "taf_trigger": false,
      "metar": "METAR LKPR 050730Z 00000KT 9000 NSC 03/01 Q1027 NOSIG",
      "taf": "TAF LKPR 050500Z 0506/0612 VRB02KT 8000 NSC"
    },
    {
      "icao": "LLBG",
      "alert": "OK",
      "vis_m": 9999,
      "fzfg": false,
      "metar_trigger": false,
      "taf_trigger": false,
      "metar": "METAR LLBG 050750Z 01007KT CAVOK 17/06 Q1023 NOSIG",
      "taf": "TAF LLBG 050501Z 0506/0606 VRB03KT 9999 FEW045 TX21/0512Z TN08/0604Z"
    },
    {
      "icao": "LMML",
      "alert": "OK",
      "vis_m": 9999,
      "fzfg": false,
      "metar_trigger": false,
      "taf_trigger": false,
      "metar": "METAR LMML 050745Z 11014KT 9999 FEW017 16/12 Q1023 NOSIG",
      "taf": "TAF LMML 050500Z 0506/0606 13015KT 9999 FEW017"
    },
    {
      "icao": "LOWW",
      "alert": "OK",
      "vis_m": 9999,
      "fzfg": false,
      "metar_trigger": false,
      "taf_trigger": false,
      "metar": "METAR LOWW 050750Z 35005KT CAVOK 07/03 Q1027 NOSIG",
      "taf": ""
    },
    {
      "icao": "LPFR",
      "alert": "OK",
      "vis_m": 9999,
      "fzfg": false,
      "metar_trigger": false,
      "taf_trigger": false,
      "metar": "METAR LPFR 050730Z 35003KT 320V040 9999 BKN015 12/10 Q1015",
      "taf": "TAF LPFR 050500Z 0506/0606 30007KT 9999 SCT012"
    },
    {
      "icao": "LPMA",
      "alert": "OK",
      "vis_m": 9999,
      "fzfg": false,
      "metar_trigger": false,
      "taf_trigger": false,
      "metar": "METAR LPMA 050730Z 33006KT 270V040 9999 FEW015 16/11 Q1023",
      "taf": "TAF LPMA 050500Z 0506/0606 VRB05KT 9999 SCT015"
    },
    {
      "icao": "LPPR",
      "alert": "OK",
      "vis_m": 9000,
      "fzfg": false,
      "metar_trigger": false,
      "taf_trigger": false,
      "metar": "METAR LPPR 050730Z 32005KT 290V350 9000 FEW012 BKN017 12/10 Q1016",
      "taf": "TAF LPPR 050500Z 0506/0606 VRB02KT 9999 SCT012"
    },
    {
      "icao": "LPPS",
      "alert": "OK",
      "vis_m": 9999,
      "fzfg": false,
      "metar_trigger": false,
      "taf_trigger": false,
      "metar": "METAR LPPS 050730Z 34012KT 9999 SCT011 15/13 Q1023",
      "taf": "TAF LPPS 050500Z 0506/0612 33008KT 9999 SCT010 BKN030"
    },
    {
      "icao": "LPPT",
      "alert": "OK",
      "vis_m": 9999,
      "fzfg": false,
      "metar_trigger": false,
      "taf_trigger": false,
      "metar": "METAR LPPT 050730Z 34007KT 270V020 9999 BKN013 12/10 Q1016",
      "taf": "TAF LPPT 050500Z 0506/0612 31012KT 9999 FEW012"
    },
    {
      "icao": "LQBK",
      "alert": "OK",
      "vis_m": 9999,
      "fzfg": false,
      "metar_trigger": false,
      "taf_trigger": false,
      "metar": "METAR LQBK 050730Z 11005KT CAVOK 09/05 Q1027 NOSIG",
      "taf": "TAF LQBK 050500Z 0506/0606 29005KT CAVOK TX16/0514Z TN02/0605Z"
    },
    {
      "icao": "LQSA",
      "alert": "OK",
      "vis_m": 6000,
      "fzfg": false,
      "metar_trigger": false,
      "taf_trigger": false,
      "metar": "METAR LQSA 050730Z 00000KT 6000 2500NW SCT002 BKN060 06/06 Q1026 NOSIG",
      "taf": "TAF LQSA 050500Z 0506/0606 30006KT 2000 BR BKN004 TX14/0514Z TNM01/0605Z"
    },
    {
      "icao": "LQTZ",
      "alert": "OK",
      "vis_m": 9999,
      "fzfg": false,
      "metar_trigger": false,
      "taf_trigger": false,
      "metar": "METAR LQTZ 050730Z VRB02KT 9999 FEW040 BKN050 09/06 Q1026",
      "taf": "TAF LQTZ 050500Z 0506/0606 VRB02KT 9999 SCT050 TX14/0514Z TN01/0605Z"
    },
    {
      "icao": "LRBC",
      "alert": "OK",
      "vis_m": 9999,
      "fzfg": false,
      "metar_trigger": false,
      "taf_trigger": false,
      "metar": "METAR LRBC 050730Z 03004KT CAVOK 07/02 Q1023",
      "taf": "TAF LRBC 050500Z 0506/0515 36008KT CAVOK"
    },
    {
      "icao": "LRBS",
      "alert": "OK",
      "vis_m": 6000,
      "fzfg": false,
      "metar_trigger": false,
      "taf_trigger": false,
      "metar": "METAR LRBS 050730Z 26006KT 230V290 6000 NSC 09/05 Q1023 NOSIG",
      "taf": "TAF LRBS 050500Z 0506/0606 VRB04KT 3000 BR NSC"
    },
    {
      "icao": "LRBV",
      "alert": "OK",
      "vis_m": 9999,
      "fzfg": false,
      "metar_trigger": false,
      "taf_trigger": false,
      "metar": "METAR LRBV 050730Z 01001KT 9999 FEW082 07/01 Q1023",
      "taf": "TAF LRBV 050500Z 0506/0515 VRB04KT 9999 SCT045"
    },
    {
      "icao": "LRCL",
      "alert": "OK",
      "vis_m": 9999,
      "fzfg": false,
      "metar_trigger": false,
      "taf_trigger": false,
      "metar": "METAR LRCL 050730Z VRB02KT CAVOK 08/01 Q1024",
      "taf": "TAF LRCL 050500Z 0506/0515 VRB04KT CAVOK"
    },
    {
      "icao": "LRCV",
      "alert": "OK",
      "vis_m": 4500,
      "fzfg": false,
      "metar_trigger": false,
      "taf_trigger": false,
      "metar": "METAR LRCV 050730Z 30007KT 4500 BR NSC 08/05 Q1022",
      "taf": "TAF LRCV 050500Z 0506/0515 31006KT 1500 BR NSC"
    },
    {
      "icao": "LRIA",
      "alert": "OK",
      "vis_m": 9999,
      "fzfg": false,
      "metar_trigger": false,
      "taf_trigger": false,
      "metar": "METAR LRIA 050730Z 30008KT 270V350 CAVOK 05/M00 Q1023",
      "taf": "TAF LRIA 050500Z 0506/0515 31008KT CAVOK"
    },
    {
      "icao": "LROP",
      "alert": "OK",
      "vis_m": 6000,
      "fzfg": false,
      "metar_trigger": false,
      "taf_trigger": false,
      "metar": "METAR LROP 050730Z 24005KT 220V290 6000 NSC 08/02 Q1022 NOSIG",
      "taf": "TAF LROP 050500Z 0506/0606 VRB04KT 3000 BR NSC"
    },
    {
      "icao": "LRSB",
      "alert": "OK",
      "vis_m": 9999,
      "fzfg": false,
      "metar_trigger": false,
      "taf_trigger": false,
      "metar": "METAR LRSB 050730Z 22003KT 200V260 9999 FEW050 SCT070 08/03 Q1023 NOSIG",
      "taf": "TAF LRSB 050500Z 0506/0606 VRB04KT 9999 SCT060 BKN080"
    },
    {
      "icao": "LRSM",
      "alert": "OK",
      "vis_m": 9999,
      "fzfg": false,
      "metar_trigger": false,
      "taf_trigger": false,
      "metar": "METAR LRSM 050730Z VRB02KT CAVOK 08/04 Q1024",
      "taf": "TAF LRSM 050500Z 0506/0515 VRB04KT 9999 SCT045"
    },
    {
      "icao": "LRSV",
      "alert": "OK",
      "vis_m": 9999,
      "fzfg": false,
      "metar_trigger": false,
      "taf_trigger": false,
      "metar": "METAR LRSV 050730Z 32011KT CAVOK 06/M00 Q1022",
      "taf": "TAF LRSV 050500Z 0506/0515 32012KT 9999 SCT040"
    },
    {
      "icao": "LRTM",
      "alert": "OK",
      "vis_m": 8000,
      "fzfg": false,
      "metar_trigger": false,
      "taf_trigger": false,
      "metar": "METAR LRTM 050730Z VRB02KT 8000 FEW008 05/01 Q1024",
      "taf": "TAF LRTM 050500Z 0506/0515 VRB04KT CAVOK"
    },
    {
      "icao": "LRTR",
      "alert": "OK",
      "vis_m": 9999,
      "fzfg": false,
      "metar_trigger": false,
      "taf_trigger": false,
      "metar": "METAR LRTR 050730Z 11004KT 9999 FEW050CB 07/05 Q1025 NOSIG",
      "taf": "TAF LRTR 050500Z 0506/0606 VRB04KT 9999 SCT045"
    },
    {
      "icao": "LTAC",
      "alert": "OK",
      "vis_m": 9999,
      "fzfg": false,
      "metar_trigger": false,
      "taf_trigger": false,
      "metar": "METAR LTAC 050750Z 03003KT 320V070 CAVOK 02/M07 Q1024 NOSIG RMK RWY21C VRB02KT RWY03L 34003KT 290V020 RWY21R VRB02KT RWY03R 35003KT 310V020 RWY21L 35003KT",
      "taf": "TAF LTAC 050440Z 0506/0606 VRB02KT CAVOK"
    },
    {
      "icao": "LTFM",
      "alert": "OK",
      "vis_m": 8000,
      "fzfg": false,
      "metar_trigger": false,
      "taf_trigger": false,
      "metar": "METAR LTFM 050750Z 21010KT 8000 NSC 11/05 Q1023 NOSIG RMK RWY17L 22008KT RWY34L 21010KT RWY16R 22008KT RWY36 22011KT RWY18 21011KT",
      "taf": "TAF LTFM 050440Z 0506/0612 20010KT CAVOK"
    },
    {
      "icao": "LUKK",
      "alert": "OK",
      "vis_m": 9999,
      "fzfg": false,
      "metar_trigger": false,
      "taf_trigger": false,
      "metar": "METAR LUKK 050730Z 34010KT 310V010 CAVOK 08/00 Q1021 TEMPO 35016G26KT",
      "taf": "TAF LUKK 050518Z 0506/0606 33012KT CAVOK"
    },
    {
      "icao": "LWOH",
      "alert": "OK",
      "vis_m": 9999,
      "fzfg": false,
      "metar_trigger": false,
      "taf_trigger": false,
      "metar": "METAR LWOH 050750Z 17002KT 9999 SCT040 SCT090 08/06 Q1025",
      "taf": "TAF LWOH 050530Z 0506/0606 VRB02KT 9999 FEW040 BKN060"
    },
    {
      "icao": "LWSK",
      "alert": "OK",
      "vis_m": 9999,
      "fzfg": false,
      "metar_trigger": false,
      "taf_trigger": false,
      "metar": "METAR LWSK 050750Z VRB02KT 9999 SCT050 BKN085 11/07 Q1025 NOSIG",
      "taf": "TAF LWSK 050530Z 0506/0606 VRB02KT 9999 SCT050 BKN070"
    },
    {
      "icao": "LYBE",
      "alert": "OK",
      "vis_m": 8000,
      "fzfg": false,
      "metar_trigger": false,
      "taf_trigger": false,
      "metar": "METAR LYBE 050730Z 21004KT 8000 SCT043 09/06 Q1026 NOSIG",
      "taf": "TAF LYBE 050500Z 0506/0606 29007KT 9999 SCT040 TX15/0513Z TN02/0606Z"
    },
    {
      "icao": "LYNI",
      "alert": "OK",
      "vis_m": 4000,
      "fzfg": false,
      "metar_trigger": false,
      "taf_trigger": false,
      "metar": "METAR LYNI 050730Z 29004KT 260V320 4000 BR BKN004 BKN040 09/09 Q1025 BECMG 30016KT 6000 SHRA SCT010 SCT033TCU BKN037",
      "taf": ""
    },
    {
      "icao": "LYPG",
      "alert": "OK",
      "vis_m": 9999,
      "fzfg": false,
      "metar_trigger": false,
      "taf_trigger": false,
      "metar": "METAR LYPG 050730Z VRB02KT 9999 SCT090 13/10 Q1025 NOSIG",
      "taf": "TAF LYPG 050500Z 0506/0606 VRB02KT 9999 FEW030 SCT040 TX17/0514Z TN06/0605Z"
    },
    {
      "icao": "LZIB",
      "alert": "OK",
      "vis_m": 5000,
      "fzfg": false,
      "metar_trigger": false,
      "taf_trigger": false,
      "metar": "METAR LZIB 050730Z 21004KT 5000 BR NSC 07/05 Q1026 NOSIG",
      "taf": ""
    },
    {
      "icao": "LZKZ",
      "alert": "OK",
      "vis_m": 9999,
      "fzfg": false,
      "metar_trigger": false,
      "taf_trigger": false,
      "metar": "METAR LZKZ 050730Z 02011KT CAVOK 08/M01 Q1025 NOSIG",
      "taf": "TAF LZKZ 050515Z 0506/0606 03008KT CAVOK"
    },
    {
      "icao": "LZTT",
      "alert": "OK",
      "vis_m": 9999,
      "fzfg": false,
      "metar_trigger": false,
      "taf_trigger": false,
      "metar": "METAR LZTT 050730Z 06004KT 9999 FEW016 03/00 Q1025 NOSIG",
      "taf": "TAF LZTT 050515Z 0506/0606 VRB02KT 9999 SCT025"
    },
    {
      "icao": "OEJN",
      "alert": "OK",
      "vis_m": 9999,
      "fzfg": false,
      "metar_trigger": false,
      "taf_trigger": false,
      "metar": "METAR OEJN 050800Z 02005KT CAVOK 31/M03 Q1013 NOSIG",
      "taf": "TAF OEJN 050500Z 0506/0612 05010KT 7000 FEW040"
    },
    {
      "icao": "OEMA",
      "alert": "OK",
      "vis_m": 9999,
      "fzfg": false,
      "metar_trigger": false,
      "taf_trigger": false,
      "metar": "METAR OEMA 050800Z 11009KT CAVOK 21/M07 Q1022 NOSIG",
      "taf": "TAF OEMA 050500Z 0506/0612 08012KT CAVOK"
    },
    {
      "icao": "OJAI",
      "alert": "OK",
      "vis_m": 5000,
      "fzfg": false,
      "metar_trigger": false,
      "taf_trigger": false,
      "metar": "METAR OJAI 050700Z 26008KT 5000 HZ SCT030 12/03 Q1024 NOSIG",
      "taf": "TAF OJAI 050500Z 0506/0612 29012KT 5000 HZ SCT030"
    },
    {
      "icao": "OMAA",
      "alert": "OK",
      "vis_m": null,
      "fzfg": false,
      "metar_trigger": false,
      "taf_trigger": false,
      "metar": "",
      "taf": "TAF OMAA 050500Z 0506/0612 33012KT 8000 FEW025"
    },
    {
      "icao": "OMDB",
      "alert": "OK",
      "vis_m": null,
      "fzfg": false,
      "metar_trigger": false,
      "taf_trigger": false,
      "metar": "",
      "taf": "TAF OMDB 050500Z 0506/0612 29013KT 8000 FEW020"
    },
    {
      "icao": "UAAA",
      "alert": "OK",
      "vis_m": 9999,
      "fzfg": false,
      "metar_trigger": false,
      "taf_trigger": false,
      "metar": "METAR UAAA 050730Z VRB01MPS 9999 SCT016 OVC100 06/02 Q1016 NOSIG",
      "taf": "TAF UAAA 050500Z 0506/0606 03003G08MPS 5000 BR SCT030CB BKN100 TX06/0509Z TNM01/0601Z"
    },
    {
      "icao": "UBBB",
      "alert": "OK",
      "vis_m": 9999,
      "fzfg": false,
      "metar_trigger": false,
      "taf_trigger": false,
      "metar": "METAR UBBB 050730Z 09006KT 9999 FEW035 09/01 Q1024 NOSIG",
      "taf": "TAF UBBB 050501Z 0506/0606 34008KT 9999 BKN030 TX10/0510Z TN04/0603Z"
    },
    {
      "icao": "UDSG",
      "alert": "OK",
      "vis_m": 9999,
      "fzfg": false,
      "metar_trigger": false,
      "taf_trigger": false,
      "metar": "METAR UDSG 050730Z 20003KT 9999 NSC M07/M11 Q1023 NOSIG",
      "taf": "TAF UDSG 050500Z 0506/0606 VRB06KT 9999 FEW050"
    },
    {
      "icao": "UDYZ",
      "alert": "OK",
      "vis_m": 9999,
      "fzfg": false,
      "metar_trigger": false,
      "taf_trigger": false,
      "metar": "METAR UDYZ 050730Z VRB02KT 9999 NSC 04/M05 Q1023 NOSIG",
      "taf": "TAF UDYZ 050500Z 0506/0606 16004KT 9999 FEW040"
    },
    {
      "icao": "UGKO",
      "alert": "OK",
      "vis_m": 9999,
      "fzfg": false,
      "metar_trigger": false,
      "taf_trigger": false,
      "metar": "METAR UGKO 050730Z 09003KT 050V150 9999 BKN065 06/03 Q1027 NOSIG",
      "taf": "TAF UGKO 050500Z 0506/0606 08007KT 9999 SCT030 BKN050 TX10/0511Z TN02/0603Z"
    }
  ]
}