{
  "ts_utc": "2025-12-31T12:58:10Z",
  "threshold_m": 150,
  "source": "stations_override.txt (ICAO list) + aviationweather.gov (METAR/TAF raw)",
  "station_count": 159,
  "stations": [
    {
      "icao": "BIKF",
      "alert": "OK",
      "vis_m": 9999,
      "fzfg": false,
      "metar_trigger": false,
      "taf_trigger": false,
      "metar": "METAR BIKF 311230Z 01009KT CAVOK 01/M01 Q1028",
      "taf": "TAF BIKF 311034Z 3112/0112 33015KT 9999 FEW020 BKN040 TX05/3112Z TNM04/0106Z"
    },
    {
      "icao": "BKPR",
      "alert": "OK",
      "vis_m": null,
      "fzfg": false,
      "metar_trigger": false,
      "taf_trigger": false,
      "metar": "",
      "taf": "TAF BKPR 311130Z 3112/0112 33008KT 9999 SCT040"
    },
    {
      "icao": "EBCI",
      "alert": "OK",
      "vis_m": 2600,
      "fzfg": false,
      "metar_trigger": false,
      "taf_trigger": false,
      "metar": "METAR EBCI 311250Z 24008KT 2600 BR BKN002 02/02 Q1025 BECMG 3500 BR",
      "taf": "TAF EBCI 311100Z 3112/0118 26006KT 9999 SCT012 SCT030"
    },
    {
      "icao": "EDDB",
      "alert": "OK",
      "vis_m": 9999,
      "fzfg": false,
      "metar_trigger": false,
      "taf_trigger": false,
      "metar": "METAR EDDB 311250Z AUTO 28014KT 9999 VCSH BKN005 FEW///TCU 02/01 Q1011 NOSIG",
      "taf": "TAF EDDB 311100Z 3112/0112 25010KT 9999 BKN006"
    },
    {
      "icao": "EDDH",
      "alert": "OK",
      "vis_m": 9999,
      "fzfg": false,
      "metar_trigger": false,
      "taf_trigger": false,
      "metar": "METAR EDDH 311250Z AUTO 29011KT 9999 SHRA FEW019 BKN035 BKN043 FEW///TCU 06/04 Q1013 TEMPO NSW BKN013CB",
      "taf": "TAF EDDH 311100Z 3112/0118 28009KT 9999 SCT020 SCT035"
    },
    {
      "icao": "EDDK",
      "alert": "OK",
      "vis_m": 9999,
      "fzfg": false,
      "metar_trigger": false,
      "taf_trigger": false,
      "metar": "METAR EDDK 311250Z AUTO 28008KT 9999 FEW013 BKN021 BKN028 04/02 Q1024 TEMPO BKN014",
      "taf": "TAF EDDK 311100Z 3112/0118 26007KT 9999 BKN012"
    },
    {
      "icao": "EDDN",
      "alert": "OK",
      "vis_m": 9999,
      "fzfg": false,
      "metar_trigger": false,
      "taf_trigger": false,
      "metar": "METAR EDDN 311250Z AUTO 26011KT 9999 OVC014 M01/M04 Q1021 NOSIG",
      "taf": "TAF EDDN 311100Z 3112/0112 26012KT 9999 OVC012"
    },
    {
      "icao": "EDDS",
      "alert": "OK",
      "vis_m": 9999,
      "fzfg": false,
      "metar_trigger": false,
      "taf_trigger": false,
      "metar": "METAR EDDS 311250Z AUTO 24004KT 200V270 CAVOK 01/M06 Q1023 NOSIG",
      "taf": "TAF EDDS 311100Z 3112/0112 23004KT 9999 SCT030"
    },
    {
      "icao": "EDFH",
      "alert": "OK",
      "vis_m": 9000,
      "fzfg": false,
      "metar_trigger": false,
      "taf_trigger": false,
      "metar": "METAR EDFH 311250Z 27008KT 9000 -SN SCT002 BKN007 OVC014 M01/M02 Q1022",
      "taf": ""
    },
    {
      "icao": "EDJA",
      "alert": "OK",
      "vis_m": 9999,
      "fzfg": false,
      "metar_trigger": false,
      "taf_trigger": false,
      "metar": "METAR EDJA 311250Z 22007KT CAVOK M01/M11 Q1022",
      "taf": "TAF EDJA 311100Z 3112/3121 24008KT CAVOK"
    },
    {
      "icao": "EDLW",
      "alert": "OK",
      "vis_m": 7000,
      "fzfg": false,
      "metar_trigger": false,
      "taf_trigger": false,
      "metar": "METAR EDLW 311250Z 23011KT 7000 SCT007 OVC022 02/02 Q1021",
      "taf": "TAF EDLW 311100Z 3112/0112 24010KT 4500 BR BKN004"
    },
    {
      "icao": "EDNY",
      "alert": "OK",
      "vis_m": 9999,
      "fzfg": false,
      "metar_trigger": false,
      "taf_trigger": false,
      "metar": "METAR EDNY 311250Z VRB02KT CAVOK 00/M08 Q1024",
      "taf": "TAF EDNY 311100Z 3112/3121 VRB03KT CAVOK"
    },
    {
      "icao": "EDSB",
      "alert": "OK",
      "vis_m": 9999,
      "fzfg": false,
      "metar_trigger": false,
      "taf_trigger": false,
      "metar": "METAR EDSB 311250Z 18006KT CAVOK 01/M05 Q1026",
      "taf": "TAF EDSB 311100Z 3112/0112 20005KT 9999 BKN030"
    },
    {
      "icao": "EETN",
      "alert": "OK",
      "vis_m": 9999,
      "fzfg": false,
      "metar_trigger": false,
      "taf_trigger": false,
      "metar": "METAR EETN 311250Z 01008KT 330V030 9999 FEW011 SCT029 M06/M11 Q1005 NOSIG",
      "taf": ""
    },
    {
      "icao": "EFTU",
      "alert": "OK",
      "vis_m": 9999,
      "fzfg": false,
      "metar_trigger": false,
      "taf_trigger": false,
      "metar": "METAR EFTU 311250Z AUTO VRB02KT CAVOK M08/M11 Q1007",
      "taf": "TAF EFTU 311125Z 3112/0112 VRB01KT CAVOK"
    },
    {
      "icao": "EGBB",
      "alert": "OK",
      "vis_m": 9999,
      "fzfg": false,
      "metar_trigger": false,
      "taf_trigger": false,
      "metar": "METAR EGBB 311250Z 30008KT CAVOK 04/M01 Q1028",
      "taf": "TAF EGBB 311057Z 3112/0112 27006KT 9999 FEW040"
    },
    {
      "icao": "EGGP",
      "alert": "OK",
      "vis_m": 9999,
      "fzfg": false,
      "metar_trigger": false,
      "taf_trigger": false,
      "metar": "METAR EGGP 311250Z 30011KT 9999 BKN030 06/M00 Q1028",
      "taf": "TAF EGGP 311102Z 3112/0112 27010KT 9999 SCT035"
    },
    {
      "icao": "EGGW",
      "alert": "OK",
      "vis_m": 9999,
      "fzfg": false,
      "metar_trigger": false,
      "taf_trigger": false,
      "metar": "METAR EGGW 311250Z AUTO 29009KT 9999 NCD 02/M01 Q1027",
      "taf": "TAF EGGW 311056Z 3112/0112 27009KT 9999 FEW025"
    },
    {
      "icao": "EGKK",
      "alert": "OK",
      "vis_m": 9999,
      "fzfg": false,
      "metar_trigger": false,
      "taf_trigger": false,
      "metar": "METAR EGKK 311250Z 30006KT CAVOK 04/01 Q1028",
      "taf": "TAF EGKK 311100Z 3112/0118 31005KT 5000 BR FEW020"
    },
    {
      "icao": "EGNM",
      "alert": "OK",
      "vis_m": 9999,
      "fzfg": false,
      "metar_trigger": false,
      "taf_trigger": false,
      "metar": "METAR EGNM 311250Z 28020KT 9999 SCT016 04/00 Q1024",
      "taf": "TAF EGNM 311103Z 3112/0112 28018KT 9999 FEW040"
    },
    {
      "icao": "EGPD",
      "alert": "OK",
      "vis_m": 9999,
      "fzfg": false,
      "metar_trigger": false,
      "taf_trigger": false,
      "metar": "METAR EGPD 311250Z COR AUTO 28017KT 9999 BKN028 08/02 Q1018 NOSIG",
      "taf": "TAF EGPD 311053Z 3112/0112 27009KT 9999 SCT030"
    },
    {
      "icao": "EGPF",
      "alert": "OK",
      "vis_m": 9999,
      "fzfg": false,
      "metar_trigger": false,
      "taf_trigger": false,
      "metar": "METAR EGPF 311250Z AUTO 25014KT 9999 FEW021 SCT026 06/04 Q1024",
      "taf": "TAF EGPF 311102Z 3112/0112 26005KT 9999 SCT025"
    },
    {
      "icao": "EHBK",
      "alert": "OK",
      "vis_m": 9000,
      "fzfg": false,
      "metar_trigger": false,
      "taf_trigger": false,
      "metar": "METAR EHBK 311225Z AUTO 23007KT 200V260 9000 SCT004 BKN006 BKN007 03/02 Q1025 BECMG 9999 NSW SCT040",
      "taf": "TAF EHBK 311118Z 3112/0118 24006KT 6000 SCT004 SCT040"
    },
    {
      "icao": "EHEH",
      "alert": "OK",
      "vis_m": 9999,
      "fzfg": false,
      "metar_trigger": false,
      "taf_trigger": false,
      "metar": "SPECI EHEH 311230Z AUTO 24005KT 210V290 9999 SCT016 BKN020 BKN027 04/04 Q1024 WHT TEMPO FEW007 SCT015 BKN018 RMK TREND REMOTE BY EHWX",
      "taf": "TAF EHEH 311125Z 3112/0118 24007KT 9999 BKN025"
    },
    {
      "icao": "EKBI",
      "alert": "OK",
      "vis_m": 9999,
      "fzfg": false,
      "metar_trigger": false,
      "taf_trigger": false,
      "metar": "METAR EKBI 311250Z AUTO 29007KT 9999 NCD 05/02 Q1011",
      "taf": "TAF EKBI 311127Z 3112/0112 29010KT 9999 BKN020"
    },
    {
      "icao": "EKCH",
      "alert": "OK",
      "vis_m": 9999,
      "fzfg": false,
      "metar_trigger": false,
      "taf_trigger": false,
      "metar": "METAR EKCH 311250Z AUTO VRB06KT 9999 NCD 04/02 Q1009 NOSIG",
      "taf": ""
    },
    {
      "icao": "ENAL",
      "alert": "OK",
      "vis_m": 9999,
      "fzfg": false,
      "metar_trigger": false,
      "taf_trigger": false,
      "metar": "METAR ENAL 311250Z 21011KT 9999 VCSH FEW010 SCT055 05/02 Q1003",
      "taf": "TAF ENAL 311100Z 3112/3121 22015KT 9999 -SHRA SCT020 BKN030"
    },
    {
      "icao": "ENBR",
      "alert": "OK",
      "vis_m": 9999,
      "fzfg": false,
      "metar_trigger": false,
      "taf_trigger": false,
      "metar": "METAR ENBR 311250Z 15007KT 9999 -SHRA FEW004 SCT008 BKN015 02/02 Q1009 TEMPO 4000 SHRASN BKN008 SCT015CB RMK WIND 1200FT 26010KT",
      "taf": "TAF ENBR 311100Z 3112/0112 14007KT 9999 -SHRASN SCT015 BKN025"
    },
    {
      "icao": "ENGM",
      "alert": "OK",
      "vis_m": 9999,
      "fzfg": false,
      "metar_trigger": false,
      "taf_trigger": false,
      "metar": "METAR ENGM 311250Z 22004KT CAVOK M01/M06 Q1007 NOSIG",
      "taf": "TAF ENGM 311100Z 3112/0112 18008KT CAVOK"
    },
    {
      "icao": "ENHD",
      "alert": "OK",
      "vis_m": 9999,
      "fzfg": false,
      "metar_trigger": false,
      "taf_trigger": false,
      "metar": "METAR ENHD 311250Z 25006KT 140V280 9999 -SHRA FEW012 SCT018 BKN024 04/04 Q1010",
      "taf": "TAF ENHD 311100Z 3112/3118 VRB05KT 9999 -SHRA FEW015 BKN030"
    },
    {
      "icao": "ENTC",
      "alert": "OK",
      "vis_m": 9999,
      "fzfg": false,
      "metar_trigger": false,
      "taf_trigger": false,
      "metar": "METAR ENTC 311250Z 23006KT 9999 FEW012 M09/M12 Q1007 NOSIG RMK WIND 2600FT 07003KT",
      "taf": ""
    },
    {
      "icao": "ENTO",
      "alert": "OK",
      "vis_m": 9999,
      "fzfg": false,
      "metar_trigger": false,
      "taf_trigger": false,
      "metar": "METAR ENTO 311250Z 20003KT CAVOK M01/M06 Q1008 NOSIG",
      "taf": "TAF ENTO 311100Z 3112/0112 35005KT CAVOK"
    },
    {
      "icao": "ENVA",
      "alert": "OK",
      "vis_m": 9999,
      "fzfg": false,
      "metar_trigger": false,
      "taf_trigger": false,
      "metar": "METAR ENVA 311250Z 07003KT 320V110 9999 -SHSN FEW014 SCT026 BKN032 M00/M01 Q1002 TEMPO 1500 SHSN VV012 RMK WIND 670FT 19013KT",
      "taf": "TAF ENVA 311100Z 3112/0112 10007KT 9999 -SHSN FEW020TCU BKN035"
    },
    {
      "icao": "ENZV",
      "alert": "OK",
      "vis_m": 9000,
      "fzfg": false,
      "metar_trigger": false,
      "taf_trigger": false,
      "metar": "METAR ENZV 311250Z 18003KT 9000 -SHRA OVC026 04/03 Q1011 TEMPO 4000 SHRA BKN010 SCT015CB",
      "taf": "TAF ENZV 311100Z 3112/0112 VRB05KT 9999 -SHRA FEW010 BKN020"
    },
    {
      "icao": "EPGD",
      "alert": "OK",
      "vis_m": 400,
      "fzfg": false,
      "metar_trigger": false,
      "taf_trigger": false,
      "metar": "METAR EPGD 311230Z 28008KT 0400 R29/0900U +SHSN BKN001 BKN010CB M02/M02 Q1006",
      "taf": "TAF EPGD 311130Z 3112/0112 VRB05KT 9999 BKN020"
    },
    {
      "icao": "EPKK",
      "alert": "OK",
      "vis_m": 9999,
      "fzfg": false,
      "metar_trigger": false,
      "taf_trigger": false,
      "metar": "METAR EPKK 311230Z 27009KT 240V300 9999 SCT022 M02/M07 Q1012",
      "taf": "TAF EPKK 311130Z 3112/0112 26009KT 9999 BKN020"
    },
    {
      "icao": "EPKT",
      "alert": "OK",
      "vis_m": 9999,
      "fzfg": false,
      "metar_trigger": false,
      "taf_trigger": false,
      "metar": "METAR EPKT 311230Z 24009KT 9999 SCT013 BKN020 M03/M06 Q1011",
      "taf": "TAF EPKT 311130Z 3112/0112 30010KT 9999 BKN020"
    },
    {
      "icao": "EPLB",
      "alert": "OK",
      "vis_m": 9999,
      "fzfg": false,
      "metar_trigger": false,
      "taf_trigger": false,
      "metar": "METAR EPLB 311230Z 29010KT 9999 FEW023 M03/M07 Q1008",
      "taf": "TAF EPLB 311130Z 3112/0112 28012KT 9999 SCT022"
    },
    {
      "icao": "EPMO",
      "alert": "OK",
      "vis_m": 2500,
      "fzfg": false,
      "metar_trigger": false,
      "taf_trigger": false,
      "metar": "METAR EPMO 311230Z 25009KT 2500 -SHSN FEW006 SCT025CB BKN033 M04/M04 Q1009",
      "taf": "TAF EPMO 311130Z 3112/0112 26010KT 9999 BKN020"
    },
    {
      "icao": "EPPO",
      "alert": "OK",
      "vis_m": 9999,
      "fzfg": false,
      "metar_trigger": false,
      "taf_trigger": false,
      "metar": "METAR EPPO 311230Z 25008KT 9999 BKN012 M02/M05 Q1010",
      "taf": "TAF EPPO 311130Z 3112/0112 25010KT CAVOK"
    },
    {
      "icao": "EPRA",
      "alert": "OK",
      "vis_m": 9999,
      "fzfg": false,
      "metar_trigger": false,
      "taf_trigger": false,
      "metar": "METAR EPRA 311230Z 30007KT 9999 BKN025 M03/M07 Q1009",
      "taf": "TAF EPRA 311130Z 3112/3121 29010KT 9999 BKN025"
    },
    {
      "icao": "EPRZ",
      "alert": "OK",
      "vis_m": 9999,
      "fzfg": false,
      "metar_trigger": false,
      "taf_trigger": false,
      "metar": "METAR EPRZ 311230Z 28013KT 9999 BKN024 M03/M07 Q1010",
      "taf": "TAF EPRZ 311130Z 3112/0112 27010KT 9999 BKN020"
    },
    {
      "icao": "EPSC",
      "alert": "OK",
      "vis_m": 9999,
      "fzfg": false,
      "metar_trigger": false,
      "taf_trigger": false,
      "metar": "METAR EPSC 311230Z 22004KT 9999 OVC005 M01/M02 Q1009",
      "taf": "TAF EPSC 311130Z 3112/0112 22005KT 9999 BKN012"
    },
    {
      "icao": "EPSY",
      "alert": "OK",
      "vis_m": 2800,
      "fzfg": false,
      "metar_trigger": false,
      "taf_trigger": false,
      "metar": "METAR EPSY 311230Z VRB03KT 2800 -SHSN BKN011CB M05/M06 Q1008 RESHSN",
      "taf": "TAF EPSY 311130Z 3112/3121 25005KT 9999 BKN030"
    },
    {
      "icao": "EPWA",
      "alert": "OK",
      "vis_m": 9999,
      "fzfg": false,
      "metar_trigger": false,
      "taf_trigger": false,
      "metar": "METAR EPWA 311230Z 27009KT 9999 SCT022 M03/M06 Q1009 BECMG 3000 -SHSN",
      "taf": "TAF EPWA 311130Z 3112/0112 27010KT 9999 BKN020"
    },
    {
      "icao": "EPWR",
      "alert": "OK",
      "vis_m": 3500,
      "fzfg": false,
      "metar_trigger": false,
      "taf_trigger": false,
      "metar": "METAR EPWR 311230Z 24011KT 3500 -SN BR FEW012 BKN023 M02/M03 Q1012",
      "taf": "TAF EPWR 311130Z 3112/0112 26010KT CAVOK"
    },
    {
      "icao": "ESGG",
      "alert": "OK",
      "vis_m": 9999,
      "fzfg": false,
      "metar_trigger": false,
      "taf_trigger": false,
      "metar": "METAR ESGG 311250Z 04003KT CAVOK M01/M03 Q1008",
      "taf": "TAF ESGG 311130Z 3112/0112 03005KT CAVOK"
    },
    {
      "icao": "ESKN",
      "alert": "OK",
      "vis_m": 9999,
      "fzfg": false,
      "metar_trigger": false,
      "taf_trigger": false,
      "metar": "METAR ESKN 311250Z 35003KT 9999 FEW020 M04/M05 Q1009",
      "taf": "TAF ESKN 311130Z 3112/0112 36005KT CAVOK"
    },
    {
      "icao": "ESMS",
      "alert": "OK",
      "vis_m": 9999,
      "fzfg": false,
      "metar_trigger": false,
      "taf_trigger": false,
      "metar": "METAR ESMS 311250Z 29008KT 9999 FEW021 03/02 Q1008",
      "taf": "TAF ESMS 311127Z 3112/0112 28005KT 9999 FEW040"
    },
    {
      "icao": "ESSA",
      "alert": "OK",
      "vis_m": 9999,
      "fzfg": false,
      "metar_trigger": false,
      "taf_trigger": false,
      "metar": "METAR ESSA 311250Z 28004KT CAVOK M06/M07 Q1008 NOSIG",
      "taf": "TAF ESSA 311130Z 3112/0112 31003KT CAVOK"
    },
    {
      "icao": "EYKA",
      "alert": "OK",
      "vis_m": 9999,
      "fzfg": false,
      "metar_trigger": false,
      "taf_trigger": false,
      "metar": "METAR EYKA 311250Z 31005KT 260V020 CAVOK M06/M14 Q1006",
      "taf": "TAF EYKA 311100Z 3112/0112 VRB04KT 8000 NSC"
    },
    {
      "icao": "EYPA",
      "alert": "OK",
      "vis_m": 9999,
      "fzfg": false,
      "metar_trigger": false,
      "taf_trigger": false,
      "metar": "METAR EYPA 311250Z AUTO VRB01KT 9999 NCD M04/M14 Q1008",
      "taf": "TAF EYPA 311100Z 3112/0112 VRB04KT 8000 NSC"
    },
    {
      "icao": "EYVI",
      "alert": "OK",
      "vis_m": 9999,
      "fzfg": false,
      "metar_trigger": false,
      "taf_trigger": false,
      "metar": "METAR EYVI 311250Z 33011KT 9999 SCT016 M08/M11 Q1003 NOSIG",
      "taf": "TAF EYVI 311100Z 3112/0112 32010KT 9000 BKN015"
    },
    {
      "icao": "GCFV",
      "alert": "OK",
      "vis_m": 9999,
      "fzfg": false,
      "metar_trigger": false,
      "taf_trigger": false,
      "metar": "METAR GCFV 311230Z 14009KT 9999 FEW020 20/15 Q1019",
      "taf": "TAF GCFV 310800Z 3109/0109 16008KT 9999 FEW025 TX21/3114Z TN14/0106Z"
    },
    {
      "icao": "GCLP",
      "alert": "OK",
      "vis_m": 9999,
      "fzfg": false,
      "metar_trigger": false,
      "taf_trigger": false,
      "metar": "METAR GCLP 311230Z 17012KT 9999 FEW017 21/15 Q1019 NOSIG",
      "taf": "TAF GCLP 310800Z 3109/0109 19014KT 9999 FEW030 TX22/3114Z TN15/0106Z"
    },
    {
      "icao": "GCTS",
      "alert": "OK",
      "vis_m": 9999,
      "fzfg": false,
      "metar_trigger": false,
      "taf_trigger": false,
      "metar": "METAR GCTS 311230Z 19005KT 150V260 CAVOK 20/13 Q1020 NOSIG",
      "taf": "TAF GCTS 310800Z 3109/0109 22010KT 9999 SCT030 TX24/3114Z TN17/0106Z"
    },
    {
      "icao": "GMAD",
      "alert": "OK",
      "vis_m": 9999,
      "fzfg": false,
      "metar_trigger": false,
      "taf_trigger": false,
      "metar": "METAR GMAD 311230Z 08006KT 040V120 9999 FEW040 20/11 Q1019 NOSIG",
      "taf": "TAF GMAD 311100Z 3112/0118 27010KT 8000 SCT030"
    },
    {
      "icao": "GMMN",
      "alert": "OK",
      "vis_m": 9999,
      "fzfg": false,
      "metar_trigger": false,
      "taf_trigger": false,
      "metar": "METAR GMMN 311230Z 22015KT 9999 BKN013 16/14 Q1018 NOSIG",
      "taf": "TAF GMMN 311100Z 3112/0118 21016KT 9999 BKN013"
    },
    {
      "icao": "GMMX",
      "alert": "OK",
      "vis_m": 9999,
      "fzfg": false,
      "metar_trigger": false,
      "taf_trigger": false,
      "metar": "METAR GMMX 311230Z 32003KT 240V360 9999 SCT026 18/11 Q1020 NOSIG",
      "taf": "TAF GMMX 311100Z 3112/0118 28006KT 8000 SCT026"
    },
    {
      "icao": "HEGN",
      "alert": "OK",
      "vis_m": 9999,
      "fzfg": false,
      "metar_trigger": false,
      "taf_trigger": false,
      "metar": "METAR HEGN 311200Z 07006KT CAVOK 23/09 Q1014 NOSIG",
      "taf": "TAF HEGN 311100Z 3112/0118 05010KT CAVOK"
    },
    {
      "icao": "HEMA",
      "alert": "OK",
      "vis_m": 9999,
      "fzfg": false,
      "metar_trigger": false,
      "taf_trigger": false,
      "metar": "METAR HEMA 311200Z 11010KT CAVOK 23/14 Q1013 NOSIG",
      "taf": "TAF HEMA 311100Z 3112/0118 19010KT CAVOK"
    },
    {
      "icao": "HESH",
      "alert": "OK",
      "vis_m": 9999,
      "fzfg": false,
      "metar_trigger": false,
      "taf_trigger": false,
      "metar": "METAR HESH 311200Z 17016KT 9999 SCT020 25/04 Q1012 NOSIG",
      "taf": "TAF HESH 311100Z 3112/0118 22010KT 9999 SCT025"
    },
    {
      "icao": "HESX",
      "alert": "OK",
      "vis_m": 9999,
      "fzfg": false,
      "metar_trigger": false,
      "taf_trigger": false,
      "metar": "METAR HESX 311200Z 21015KT CAVOK 20/03 Q1013 NOSIG",
      "taf": "TAF HESX 311100Z 3112/0118 25014KT CAVOK"
    },
    {
      "icao": "LATI",
      "alert": "OK",
      "vis_m": 9999,
      "fzfg": false,
      "metar_trigger": false,
      "taf_trigger": false,
      "metar": "METAR LATI 311250Z 32005KT 290V010 CAVOK 08/M16 Q1013 NOSIG",
      "taf": "TAF LATI 311100Z 3112/0112 34013KT CAVOK TX09/3113Z TNM05/0105Z"
    },
    {
      "icao": "LBPD",
      "alert": "OK",
      "vis_m": 9999,
      "fzfg": false,
      "metar_trigger": false,
      "taf_trigger": false,
      "metar": "METAR LBPD 311230Z AUTO 29017KT 9999 NCD 02/M13 Q1014 NOSIG",
      "taf": "TAF LBPD 311100Z 3112/0112 27016KT CAVOK"
    },
    {
      "icao": "LBSF",
      "alert": "OK",
      "vis_m": 9999,
      "fzfg": false,
      "metar_trigger": false,
      "taf_trigger": false,
      "metar": "METAR LBSF 311230Z 28018KT 9999 FEW043 M02/M12 Q1013 NOSIG",
      "taf": "TAF LBSF 311100Z 3112/0112 28016KT SCT030"
    },
    {
      "icao": "LBWN",
      "alert": "OK",
      "vis_m": 9999,
      "fzfg": false,
      "metar_trigger": false,
      "taf_trigger": false,
      "metar": "METAR LBWN 311230Z AUTO 28017G27KT 9999 FEW048/// 02/M09 Q1011 NOSIG",
      "taf": "TAF LBWN 311100Z 3112/0112 29015KT 9999 SCT045"
    },
    {
      "icao": "LCLK",
      "alert": "OK",
      "vis_m": 9999,
      "fzfg": false,
      "metar_trigger": false,
      "taf_trigger": false,
      "metar": "METAR LCLK 311230Z 25014KT 9999 FEW025 FEW030CB BKN050 19/12 Q1005 TEMPO 5000 SHRA SCT020TCU",
      "taf": "TAF LCLK 311130Z 3112/0112 25020KT 9999 FEW020 SCT040"
    },
    {
      "icao": "LCPH",
      "alert": "OK",
      "vis_m": 9999,
      "fzfg": false,
      "metar_trigger": false,
      "taf_trigger": false,
      "metar": "METAR LCPH 311230Z 27019KT 250V320 9999 FEW025 FEW030CB BKN070 17/11 Q1006 TEMPO 3000 TSRA SCT025CB",
      "taf": "TAF LCPH 311130Z 3112/0112 26020KT 9999 SCT020 BKN040"
    },
    {
      "icao": "LEAL",
      "alert": "OK",
      "vis_m": 9999,
      "fzfg": false,
      "metar_trigger": false,
      "taf_trigger": false,
      "metar": "METAR LEAL 311230Z 29011KT 260V320 CAVOK 16/05 Q1018 NOSIG",
      "taf": "TAF LEAL 311100Z 3112/0112 12008KT CAVOK TX16/3114Z TN07/0106Z"
    },
    {
      "icao": "LEBB",
      "alert": "OK",
      "vis_m": 9999,
      "fzfg": false,
      "metar_trigger": false,
      "taf_trigger": false,
      "metar": "METAR LEBB 311230Z VRB02KT 9999 SCT024 BKN034 09/04 Q1022 NOSIG",
      "taf": "TAF LEBB 311100Z 3112/0112 12006KT 9999 FEW020 BKN030 TX11/0112Z TN01/0100Z"
    },
    {
      "icao": "LEBL",
      "alert": "OK",
      "vis_m": 9999,
      "fzfg": false,
      "metar_trigger": false,
      "taf_trigger": false,
      "metar": "METAR LEBL 311230Z 32007G17KT 280V010 9999 FEW025 SCT045 12/06 Q1019 NOSIG",
      "taf": "TAF LEBL 311100Z 3112/0112 34008KT 9999 SCT030 TX15/3112Z TN04/0106Z"
    },
    {
      "icao": "LECH",
      "alert": "OK",
      "vis_m": 9999,
      "fzfg": false,
      "metar_trigger": false,
      "taf_trigger": false,
      "metar": "METAR LECH 311230Z AUTO 11003KT 080V150 9999 OVC045 11/03 Q1018",
      "taf": ""
    },
    {
      "icao": "LEMD",
      "alert": "OK",
      "vis_m": 9999,
      "fzfg": false,
      "metar_trigger": false,
      "taf_trigger": false,
      "metar": "METAR LEMD 311230Z 17003KT 100V220 CAVOK 08/01 Q1018 NOSIG",
      "taf": "TAF LEMD 311100Z 3112/0118 VRB03KT CAVOK TX08/3114Z TNM03/0108Z"
    },
    {
      "icao": "LEMG",
      "alert": "OK",
      "vis_m": 9999,
      "fzfg": false,
      "metar_trigger": false,
      "taf_trigger": false,
      "metar": "METAR LEMG 311230Z 28003KT 230V320 9999 FEW060 16/08 Q1018 NOSIG",
      "taf": "TAF LEMG 311100Z 3112/0112 14005KT CAVOK TX18/3114Z TN13/0107Z"
    },
    {
      "icao": "LEVC",
      "alert": "OK",
      "vis_m": 9999,
      "fzfg": false,
      "metar_trigger": false,
      "taf_trigger": false,
      "metar": "METAR LEVC 311230Z 07003KT 350V110 9999 BKN038 12/03 Q1019 NOSIG",
      "taf": "TAF LEVC 311100Z 3112/0112 VRB04KT 9999 SCT040 TX15/3114Z TN05/0106Z"
    },
    {
      "icao": "LEXJ",
      "alert": "OK",
      "vis_m": 9999,
      "fzfg": false,
      "metar_trigger": false,
      "taf_trigger": false,
      "metar": "METAR LEXJ 311230Z 06005KT 360V110 9999 BKN023 OVC033 09/04 Q1022",
      "taf": "TAF LEXJ 310800Z 3109/0109 VRB03KT 9999 SCT020 BKN030 TX10/3115Z TN03/0103Z"
    },
    {
      "icao": "LEZG",
      "alert": "OK",
      "vis_m": 9999,
      "fzfg": false,
      "metar_trigger": false,
      "taf_trigger": false,
      "metar": "METAR LEZG 311230Z 29011KT 260V320 CAVOK 09/03 Q1019 NOSIG",
      "taf": "TAF LEZG 311100Z 3112/0112 29010KT CAVOK TX09/3114Z TNM00/0106Z"
    },
    {
      "icao": "LEZL",
      "alert": "OK",
      "vis_m": 8000,
      "fzfg": false,
      "metar_trigger": false,
      "taf_trigger": false,
      "metar": "METAR LEZL 311230Z 05008KT 8000 FEW005 10/09 Q1019 NOSIG",
      "taf": ""
    },
    {
      "icao": "LFBD",
      "alert": "OK",
      "vis_m": 9999,
      "fzfg": false,
      "metar_trigger": false,
      "taf_trigger": false,
      "metar": "METAR LFBD 311230Z AUTO 06007KT 030V090 CAVOK 03/M04 Q1023 NOSIG",
      "taf": "TAF LFBD 311100Z 3112/0118 05005KT CAVOK TX05/3114Z TNM05/0106Z"
    },
    {
      "icao": "LFLL",
      "alert": "OK",
      "vis_m": 9999,
      "fzfg": false,
      "metar_trigger": false,
      "taf_trigger": false,
      "metar": "METAR LFLL 311230Z 33006KT 290V360 9999 FEW022 00/M05 Q1024 NOSIG",
      "taf": "TAF LFLL 311100Z 3112/0118 35006KT CAVOK"
    },
    {
      "icao": "LFLS",
      "alert": "OK",
      "vis_m": 9999,
      "fzfg": false,
      "metar_trigger": false,
      "taf_trigger": false,
      "metar": "METAR LFLS 311230Z AUTO 36008KT CAVOK M01/M03 Q1022 NOSIG",
      "taf": "TAF LFLS 310800Z 3109/0109 36005KT CAVOK"
    },
    {
      "icao": "LFMN",
      "alert": "OK",
      "vis_m": 9999,
      "fzfg": false,
      "metar_trigger": false,
      "taf_trigger": false,
      "metar": "METAR LFMN 311230Z 12011KT 9999 FEW043 13/02 Q1018 NOSIG",
      "taf": "TAF LFMN 310800Z 3109/0115 33008KT 9999 FEW043"
    },
    {
      "icao": "LFOB",
      "alert": "OK",
      "vis_m": 9999,
      "fzfg": false,
      "metar_trigger": false,
      "taf_trigger": false,
      "metar": "METAR LFOB 311230Z AUTO VRB01KT 9999 OVC034 03/02 Q1028 NOSIG",
      "taf": "TAF LFOB 311100Z 3112/0112 26005KT 9999 FEW020"
    },
    {
      "icao": "LFPO",
      "alert": "OK",
      "vis_m": 9999,
      "fzfg": false,
      "metar_trigger": false,
      "taf_trigger": false,
      "metar": "METAR LFPO 311230Z 34004KT 310V030 9999 FEW016 05/00 Q1028 NOSIG",
      "taf": ""
    },
    {
      "icao": "LFSB",
      "alert": "OK",
      "vis_m": 9999,
      "fzfg": false,
      "metar_trigger": false,
      "taf_trigger": false,
      "metar": "METAR LFSB 311230Z AUTO 35004KT 310V040 CAVOK 00/M06 Q1025 NOSIG",
      "taf": "TAF LFSB 311100Z 3112/0112 VRB03KT CAVOK"
    },
    {
      "icao": "LGAV",
      "alert": "OK",
      "vis_m": 9999,
      "fzfg": false,
      "metar_trigger": false,
      "taf_trigger": false,
      "metar": "METAR LGAV 311250Z 03014KT 9999 SCT020 BKN070 07/01 Q1011 NOSIG",
      "taf": "TAF LGAV 311100Z 3112/0112 02016KT 9999 FEW016 SCT025"
    },
    {
      "icao": "LGTS",
      "alert": "OK",
      "vis_m": 9999,
      "fzfg": false,
      "metar_trigger": false,
      "taf_trigger": false,
      "metar": "METAR LGTS 311250Z 33017KT 9999 FEW025 05/M09 Q1015 NOSIG",
      "taf": "TAF LGTS 311100Z 3112/0112 34018KT 9999 SCT030"
    },
    {
      "icao": "LHBP",
      "alert": "OK",
      "vis_m": 9999,
      "fzfg": false,
      "metar_trigger": false,
      "taf_trigger": false,
      "metar": "METAR LHBP 311230Z 32019KT 9999 -SHSN SCT035 M00/M07 Q1016 NOSIG",
      "taf": "TAF LHBP 311115Z 3112/0112 31015G25KT 9999 SCT035 SCT160"
    },
    {
      "icao": "LHDC",
      "alert": "OK",
      "vis_m": 9999,
      "fzfg": false,
      "metar_trigger": false,
      "taf_trigger": false,
      "metar": "METAR LHDC 311215Z AUTO 30006KT 270V340 CAVOK M01/M07 Q1014 NOSIG",
      "taf": "TAF LHDC 311115Z 3112/3121 27008KT CAVOK"
    },
    {
      "icao": "LIBD",
      "alert": "OK",
      "vis_m": 9999,
      "fzfg": false,
      "metar_trigger": false,
      "taf_trigger": false,
      "metar": "METAR LIBD 311250Z 33007KT 290V030 9999 SCT030 06/M05 Q1017",
      "taf": "TAF LIBD 311100Z 3112/0112 36015KT 9999 FEW050"
    },
    {
      "icao": "LIBG",
      "alert": "OK",
      "vis_m": 9999,
      "fzfg": false,
      "metar_trigger": false,
      "taf_trigger": false,
      "metar": "METAR LIBG 311150Z 35020KT CAVOK 07/M04 Q1016",
      "taf": "TAF LIBG 311100Z 3112/3121 35014KT CAVOK"
    },
    {
      "icao": "LIBP",
      "alert": "OK",
      "vis_m": 9999,
      "fzfg": false,
      "metar_trigger": false,
      "taf_trigger": false,
      "metar": "METAR LIBP 311250Z AUTO 11006KT 9999 NCD 08/M04 Q1020",
      "taf": ""
    },
    {
      "icao": "LIBR",
      "alert": "OK",
      "vis_m": 9999,
      "fzfg": false,
      "metar_trigger": false,
      "taf_trigger": false,
      "metar": "METAR LIBR 311250Z 35018KT 9999 SCT030 07/M06 Q1015",
      "taf": ""
    },
    {
      "icao": "LICA",
      "alert": "OK",
      "vis_m": 9999,
      "fzfg": false,
      "metar_trigger": false,
      "taf_trigger": false,
      "metar": "METAR LICA 311250Z AUTO VRB02KT 9999 NCD 15/01 Q1013",
      "taf": "TAF LICA 311100Z 3112/0112 01007KT CAVOK"
    },
    {
      "icao": "LICC",
      "alert": "OK",
      "vis_m": 8000,
      "fzfg": false,
      "metar_trigger": false,
      "taf_trigger": false,
      "metar": "METAR LICC 311250Z 08008KT 8000 SCT025 BKN050 12/09 Q1014",
      "taf": "TAF LICC 311100Z 3112/0112 08010KT 9999 BKN030"
    },
    {
      "icao": "LICJ",
      "alert": "OK",
      "vis_m": 9999,
      "fzfg": false,
      "metar_trigger": false,
      "taf_trigger": false,
      "metar": "METAR LICJ 311250Z 23008KT 9999 -RA SCT060 15/08 Q1013",
      "taf": "TAF LICJ 311100Z 3112/0112 VRB06KT 9999 FEW030"
    },
    {
      "icao": "LIMC",
      "alert": "OK",
      "vis_m": 9999,
      "fzfg": false,
      "metar_trigger": false,
      "taf_trigger": false,
      "metar": "METAR LIMC 311250Z VRB03KT CAVOK 07/00 Q1019 NOSIG",
      "taf": "TAF LIMC 311100Z 3112/0118 VRB04KT 9999 SCT040"
    },
    {
      "icao": "LIME",
      "alert": "OK",
      "vis_m": 9999,
      "fzfg": false,
      "metar_trigger": false,
      "taf_trigger": false,
      "metar": "METAR LIME 311250Z 21004KT 130V270 9999 FEW045 06/M01 Q1019 NOSIG",
      "taf": "TAF LIME 311100Z 3112/0112 VRB04KT 9999 SCT040"
    },
    {
      "icao": "LIMF",
      "alert": "OK",
      "vis_m": 9999,
      "fzfg": false,
      "metar_trigger": false,
      "taf_trigger": false,
      "metar": "METAR LIMF 311250Z 11003KT 060V150 CAVOK 07/00 Q1018",
      "taf": "TAF LIMF 311100Z 3112/0112 VRB04KT 3000 BR SCT040"
    },
    {
      "icao": "LIMJ",
      "alert": "OK",
      "vis_m": 9999,
      "fzfg": false,
      "metar_trigger": false,
      "taf_trigger": false,
      "metar": "METAR LIMJ 311250Z 04011KT CAVOK 10/M02 Q1018",
      "taf": "TAF LIMJ 311100Z 3112/0112 03012KT 9999 SCT030"
    },
    {
      "icao": "LIPE",
      "alert": "OK",
      "vis_m": 9999,
      "fzfg": false,
      "metar_trigger": false,
      "taf_trigger": false,
      "metar": "METAR LIPE 311250Z 32005KT 280V350 9999 FEW060 06/01 Q1020",
      "taf": "TAF LIPE 311100Z 3112/0112 VRB04KT 4000 BR BKN020"
    },
    {
      "icao": "LIPH",
      "alert": "OK",
      "vis_m": 9999,
      "fzfg": false,
      "metar_trigger": false,
      "taf_trigger": false,
      "metar": "METAR LIPH 311250Z 06003KT 020V090 9999 BKN050 06/M04 Q1020",
      "taf": "TAF LIPH 311100Z 3112/0112 VRB04KT 9999 SCT045"
    },
    {
      "icao": "LIPQ",
      "alert": "OK",
      "vis_m": 9999,
      "fzfg": false,
      "metar_trigger": false,
      "taf_trigger": false,
      "metar": "METAR LIPQ 311250Z AUTO 36004KT 330V030 9999 SCT051/// 07/M07 Q1020",
      "taf": "TAF LIPQ 311100Z 3112/0112 VRB05KT 9999 SCT050"
    },
    {
      "icao": "LIPR",
      "alert": "OK",
      "vis_m": 9999,
      "fzfg": false,
      "metar_trigger": false,
      "taf_trigger": false,
      "metar": "METAR LIPR 311250Z 03005KT CAVOK 07/M01 Q1019",
      "taf": "TAF LIPR 311100Z 3112/0112 17008KT 7000 FEW030"
    },
    {
      "icao": "LIPX",
      "alert": "OK",
      "vis_m": 9999,
      "fzfg": false,
      "metar_trigger": false,
      "taf_trigger": false,
      "metar": "METAR LIPX 311250Z 21005KT CAVOK 07/M02 Q1019",
      "taf": "TAF LIPX 311100Z 3112/0112 VRB04KT 9999 FEW040"
    },
    {
      "icao": "LIPY",
      "alert": "OK",
      "vis_m": 9999,
      "fzfg": false,
      "metar_trigger": false,
      "taf_trigger": false,
      "metar": "METAR LIPY 311250Z AUTO 14004KT 100V180 9999 BKN055/// 08/M02 Q1019",
      "taf": "TAF LIPY 311100Z 3112/0112 13006KT 9999 SCT045"
    },
    {
      "icao": "LIPZ",
      "alert": "OK",
      "vis_m": 9999,
      "fzfg": false,
      "metar_trigger": false,
      "taf_trigger": false,
      "metar": "METAR LIPZ 311250Z 05005KT 360V070 9999 BKN060 06/M04 Q1020 NOSIG",
      "taf": "TAF LIPZ 311100Z 3112/0118 06006KT 9999 SCT040"
    },
    {
      "icao": "LIRF",
      "alert": "OK",
      "vis_m": 9999,
      "fzfg": false,
      "metar_trigger": false,
      "taf_trigger": false,
      "metar": "METAR LIRF 311250Z 03003KT 9999 SCT045 10/M03 Q1016 NOSIG",
      "taf": "TAF LIRF 311100Z 3112/0118 05010KT 9999 SCT035"
    },
    {
      "icao": "LIRN",
      "alert": "OK",
      "vis_m": 9999,
      "fzfg": false,
      "metar_trigger": false,
      "taf_trigger": false,
      "metar": "METAR LIRN 311250Z 05011KT 020V090 9999 FEW070 09/M06 Q1016 NOSIG",
      "taf": "TAF LIRN 311100Z 3112/0112 05010KT CAVOK"
    },
    {
      "icao": "LIRP",
      "alert": "OK",
      "vis_m": 9999,
      "fzfg": false,
      "metar_trigger": false,
      "taf_trigger": false,
      "metar": "METAR LIRP 311245Z 12012KT CAVOK 09/M03 Q1017 NOSIG",
      "taf": "TAF LIRP 311100Z 3112/0112 12012KT 9999 FEW060"
    },
    {
      "icao": "LIRZ",
      "alert": "OK",
      "vis_m": 9999,
      "fzfg": false,
      "metar_trigger": false,
      "taf_trigger": false,
      "metar": "METAR LIRZ 311250Z AUTO 06012KT 9999 NCD 08/M07 Q1017",
      "taf": "TAF LIRZ 311100Z 3112/0112 05010KT CAVOK"
    },
    {
      "icao": "LJLJ",
      "alert": "OK",
      "vis_m": 9999,
      "fzfg": false,
      "metar_trigger": false,
      "taf_trigger": false,
      "metar": "METAR LJLJ 311230Z 07004KT 9999 FEW040 M01/M04 Q1019 NOSIG",
      "taf": "TAF LJLJ 311100Z 3112/0112 VRB02KT 9999 FEW040"
    },
    {
      "icao": "LKMT",
      "alert": "OK",
      "vis_m": 9999,
      "fzfg": false,
      "metar_trigger": false,
      "taf_trigger": false,
      "metar": "METAR LKMT 311230Z 24012KT 9999 OVC030 M02/M06 Q1014 NOSIG",
      "taf": "TAF LKMT 311100Z 3112/0112 21012KT 9999 BKN030"
    },
    {
      "icao": "LKPR",
      "alert": "OK",
      "vis_m": 9999,
      "fzfg": false,
      "metar_trigger": false,
      "taf_trigger": false,
      "metar": "METAR LKPR 311230Z 22020G30KT 9999 -SN FEW008 BKN035 M02/M04 Q1013 TEMPO 3000 SN BKN012",
      "taf": "TAF LKPR 311100Z 3112/0118 23018KT 7000 -SN BKN023"
    },
    {
      "icao": "LLBG",
      "alert": "OK",
      "vis_m": 9999,
      "fzfg": false,
      "metar_trigger": false,
      "taf_trigger": false,
      "metar": "METAR LLBG 311250Z 23015KT 9999 SCT045 19/07 Q1011 NOSIG RMK SCT150",
      "taf": "TAF LLBG 311109Z 3112/0112 22015KT 9999 FEW050"
    },
    {
      "icao": "LMML",
      "alert": "OK",
      "vis_m": 9999,
      "fzfg": false,
      "metar_trigger": false,
      "taf_trigger": false,
      "metar": "METAR LMML 311245Z 25006KT 9999 FEW018 14/11 Q1013 NOSIG",
      "taf": "TAF LMML 311100Z 3112/0112 29012KT 9999 SCT020"
    },
    {
      "icao": "LOWW",
      "alert": "OK",
      "vis_m": 9999,
      "fzfg": false,
      "metar_trigger": false,
      "taf_trigger": false,
      "metar": "METAR LOWW 311250Z 30022G32KT 9999 FEW050 M00/M10 Q1018 TEMPO FM1330 4500 -SN",
      "taf": "TAF LOWW 311115Z 3112/0118 30018KT 9999 BKN030 TX04/0111Z TNM01/3114Z"
    },
    {
      "icao": "LPFR",
      "alert": "OK",
      "vis_m": 9999,
      "fzfg": false,
      "metar_trigger": false,
      "taf_trigger": false,
      "metar": "METAR LPFR 311230Z 07010KT 9999 FEW010 BKN030 14/09 Q1017",
      "taf": "TAF LPFR 311100Z 3112/0112 08012KT 9999 FEW015 BKN035"
    },
    {
      "icao": "LPMA",
      "alert": "OK",
      "vis_m": 9000,
      "fzfg": false,
      "metar_trigger": false,
      "taf_trigger": false,
      "metar": "METAR LPMA 311230Z 20014KT 9000 -RADZ SCT008 BKN015 FEW018CB 19/17 Q1016",
      "taf": "TAF LPMA 311100Z 3112/0112 21018KT 9999 SCT015"
    },
    {
      "icao": "LPPR",
      "alert": "OK",
      "vis_m": 9999,
      "fzfg": false,
      "metar_trigger": false,
      "taf_trigger": false,
      "metar": "METAR LPPR 311230Z 13007KT 090V160 CAVOK 13/06 Q1019",
      "taf": "TAF LPPR 311100Z 3112/0112 11010KT CAVOK"
    },
    {
      "icao": "LPPS",
      "alert": "OK",
      "vis_m": 9999,
      "fzfg": false,
      "metar_trigger": false,
      "taf_trigger": false,
      "metar": "METAR LPPS 311230Z 17013KT 9999 SCT010 20/17 Q1016",
      "taf": "TAF LPPS 311100Z 3112/0118 18012KT 9999 SCT010"
    },
    {
      "icao": "LPPT",
      "alert": "OK",
      "vis_m": 700,
      "fzfg": false,
      "metar_trigger": false,
      "taf_trigger": false,
      "metar": "METAR LPPT 311230Z 06004KT 020V100 0700 R02/P2000 PRFG SCT001 BKN002 08/08 Q1018",
      "taf": "TAF LPPT 311100Z 3112/0118 06005KT 0200 FG VV001"
    },
    {
      "icao": "LQBK",
      "alert": "OK",
      "vis_m": 9999,
      "fzfg": false,
      "metar_trigger": false,
      "taf_trigger": false,
      "metar": "METAR LQBK 311230Z VRB03KT CAVOK 02/M07 Q1021 NOSIG",
      "taf": "TAF LQBK 311100Z 3112/0112 32005KT CAVOK TX02/3113Z TNM05/0106Z"
    },
    {
      "icao": "LQSA",
      "alert": "OK",
      "vis_m": 9999,
      "fzfg": false,
      "metar_trigger": false,
      "taf_trigger": false,
      "metar": "METAR LQSA 311230Z 36005G15KT 310V060 9999 BKN055 M01/M12 Q1018 NOSIG",
      "taf": "TAF LQSA 311100Z 3112/0112 29005KT 9999 SCT045 TX02/0112Z TNM08/0104Z"
    },
    {
      "icao": "LQTZ",
      "alert": "OK",
      "vis_m": 9999,
      "fzfg": false,
      "metar_trigger": false,
      "taf_trigger": false,
      "metar": "METAR LQTZ 311230Z 29008KT 260V320 9999 SCT040 BKN055 M00/M09 Q1020",
      "taf": "TAF LQTZ 311100Z 3112/0112 27006KT 9999 SCT040 TX01/3113Z TNM06/0106Z"
    },
    {
      "icao": "LRBC",
      "alert": "OK",
      "vis_m": 9999,
      "fzfg": false,
      "metar_trigger": false,
      "taf_trigger": false,
      "metar": "METAR LRBC 311230Z 29014KT CAVOK 01/M15 Q1007",
      "taf": "TAF LRBC 311100Z 3112/3121 28014KT 9999 BKN055"
    },
    {
      "icao": "LRBS",
      "alert": "OK",
      "vis_m": 9999,
      "fzfg": false,
      "metar_trigger": false,
      "taf_trigger": false,
      "metar": "METAR LRBS 311230Z 29010KT 250V330 CAVOK 02/M12 Q1012 NOSIG",
      "taf": "TAF LRBS 311100Z 3112/0112 27010KT CAVOK"
    },
    {
      "icao": "LRBV",
      "alert": "OK",
      "vis_m": 9999,
      "fzfg": false,
      "metar_trigger": false,
      "taf_trigger": false,
      "metar": "METAR LRBV 311230Z 28012KT 250V310 9999 BKN034 BKN045 M04/M11 Q1009",
      "taf": "TAF LRBV 311100Z 3112/3121 28017KT 9999 SCT025 BKN040"
    },
    {
      "icao": "LRCL",
      "alert": "OK",
      "vis_m": 9999,
      "fzfg": false,
      "metar_trigger": false,
      "taf_trigger": false,
      "metar": "METAR LRCL 311230Z 30015KT 9999 FEW041 M02/M12 Q1012",
      "taf": "TAF LRCL 311100Z 3112/3121 30014KT 9999 BKN050"
    },
    {
      "icao": "LRCV",
      "alert": "OK",
      "vis_m": 9999,
      "fzfg": false,
      "metar_trigger": false,
      "taf_trigger": false,
      "metar": "METAR LRCV 311230Z 29016KT CAVOK 00/M08 Q1013",
      "taf": "TAF LRCV 311100Z 3112/3121 29016KT CAVOK"
    },
    {
      "icao": "LRIA",
      "alert": "OK",
      "vis_m": 9999,
      "fzfg": false,
      "metar_trigger": false,
      "taf_trigger": false,
      "metar": "METAR LRIA 311230Z 31017KT 280V340 9999 BKN044 00/M08 Q1007",
      "taf": "TAF LRIA 311100Z 3112/3121 28012KT 9999 BKN035"
    },
    {
      "icao": "LROP",
      "alert": "OK",
      "vis_m": 9999,
      "fzfg": false,
      "metar_trigger": false,
      "taf_trigger": false,
      "metar": "METAR LROP 311230Z 28015KT CAVOK 02/M15 Q1011 NOSIG",
      "taf": "TAF LROP 311100Z 3112/0112 28010KT CAVOK"
    },
    {
      "icao": "LRSB",
      "alert": "OK",
      "vis_m": 9999,
      "fzfg": false,
      "metar_trigger": false,
      "taf_trigger": false,
      "metar": "METAR LRSB 311230Z 29010KT 9999 FEW060 BKN070 M03/M10 Q1011",
      "taf": "TAF LRSB 311100Z 3112/0112 29010KT 9999 BKN045"
    },
    {
      "icao": "LRSM",
      "alert": "OK",
      "vis_m": 9999,
      "fzfg": false,
      "metar_trigger": false,
      "taf_trigger": false,
      "metar": "METAR LRSM 311230Z 25014KT 9999 FEW032 OVC040 M03/M07 Q1013",
      "taf": "TAF LRSM 311100Z 3112/3121 26014KT 9999 SCT030"
    },
    {
      "icao": "LRSV",
      "alert": "OK",
      "vis_m": 9999,
      "fzfg": false,
      "metar_trigger": false,
      "taf_trigger": false,
      "metar": "METAR LRSV 311230Z 33012KT 290V360 9999 DRSN BKN047 M03/M08 Q1005",
      "taf": "TAF LRSV 311100Z 3112/3121 31016KT 9999 BKN035"
    },
    {
      "icao": "LRTM",
      "alert": "OK",
      "vis_m": 9999,
      "fzfg": false,
      "metar_trigger": false,
      "taf_trigger": false,
      "metar": "METAR LRTM 311230Z 28011KT 9999 FEW024 SCT038 M02/M11 Q1011",
      "taf": "TAF LRTM 311100Z 3112/3121 28014KT 9999 SCT025 BKN040"
    },
    {
      "icao": "LRTR",
      "alert": "OK",
      "vis_m": 9999,
      "fzfg": false,
      "metar_trigger": false,
      "taf_trigger": false,
      "metar": "METAR LRTR 311230Z 31013KT 9999 BKN041 M01/M07 Q1016",
      "taf": "TAF LRTR 311100Z 3112/0112 31013KT 9999 SCT025"
    },
    {
      "icao": "LTAC",
      "alert": "OK",
      "vis_m": 9999,
      "fzfg": false,
      "metar_trigger": false,
      "taf_trigger": false,
      "metar": "METAR LTAC 311220Z 35010KT 330V030 9999 SCT030 BKN080 00/M06 Q1004 NOSIG RMK RWY21C 32010KT RWY03L 35009KT RWY21R 31009KT RWY03R 33008KT 290V350 RWY21L 33011KT",
      "taf": "TAF LTAC 311040Z 3112/0112 VRB02KT 9999 SCT035 BKN090"
    },
    {
      "icao": "LTFM",
      "alert": "OK",
      "vis_m": 9999,
      "fzfg": false,
      "metar_trigger": false,
      "taf_trigger": false,
      "metar": "METAR LTFM 311220Z 34010KT 300V360 9999 FEW040 03/M10 Q1013 NOSIG RMK RWY17L 33011KT RWY34L 33011KT RWY16R 32011KT 290V350 RWY36 33012KT 300V360 RWY18 34011KT",
      "taf": "TAF LTFM 311040Z 3112/0118 33015G25KT CAVOK"
    },
    {
      "icao": "LUKK",
      "alert": "OK",
      "vis_m": 9999,
      "fzfg": false,
      "metar_trigger": false,
      "taf_trigger": false,
      "metar": "METAR LUKK 311230Z 33018KT 290V360 9999 FEW038 SCT048 M01/M09 Q1005 TEMPO 30018G28KT",
      "taf": "TAF LUKK 311110Z 3112/0112 30014KT 9999 BKN025"
    },
    {
      "icao": "LWOH",
      "alert": "OK",
      "vis_m": 9999,
      "fzfg": false,
      "metar_trigger": false,
      "taf_trigger": false,
      "metar": "METAR LWOH 311250Z 02009KT 340V040 9999 FEW045 01/M13 Q1012",
      "taf": "TAF LWOH 311135Z 3112/0112 33010KT CAVOK"
    },
    {
      "icao": "LWSK",
      "alert": "OK",
      "vis_m": 9999,
      "fzfg": false,
      "metar_trigger": false,
      "taf_trigger": false,
      "metar": "METAR LWSK 311250Z 35009KT 300V010 9999 FEW060 03/M11 Q1016 NOSIG",
      "taf": "TAF LWSK 311135Z 3112/0112 36012KT CAVOK"
    },
    {
      "icao": "LYBE",
      "alert": "OK",
      "vis_m": 9999,
      "fzfg": false,
      "metar_trigger": false,
      "taf_trigger": false,
      "metar": "METAR LYBE 311230Z 30016KT 9999 BKN040 00/M09 Q1018 NOSIG",
      "taf": "TAF LYBE 311100Z 3112/0112 30016KT 9999 SCT040 TX05/0112Z TNM04/3123Z"
    },
    {
      "icao": "LYNI",
      "alert": "OK",
      "vis_m": 9999,
      "fzfg": false,
      "metar_trigger": false,
      "taf_trigger": false,
      "metar": "METAR LYNI 311230Z 29015KT 250V320 9999 BKN043 M00/M11 Q1017 NOSIG",
      "taf": "TAF LYNI 311100Z 3112/0112 31012KT 9999 SCT027 BKN040 TX02/0112Z TNM06/0106Z"
    },
    {
      "icao": "LYPG",
      "alert": "OK",
      "vis_m": 9999,
      "fzfg": false,
      "metar_trigger": false,
      "taf_trigger": false,
      "metar": "METAR LYPG 311230Z 35020KT CAVOK 05/M16 Q1016 NOSIG",
      "taf": "TAF LYPG 311100Z 3112/0112 36015G25KT CAVOK TX07/3112Z TNM05/0106Z"
    },
    {
      "icao": "LZIB",
      "alert": "OK",
      "vis_m": 9999,
      "fzfg": false,
      "metar_trigger": false,
      "taf_trigger": false,
      "metar": "METAR LZIB 311230Z 30016KT 9999 FEW041 00/M08 Q1018 NOSIG",
      "taf": "TAF LZIB 311115Z 3112/0112 29018KT 9999 FEW035"
    },
    {
      "icao": "LZKZ",
      "alert": "OK",
      "vis_m": 9999,
      "fzfg": false,
      "metar_trigger": false,
      "taf_trigger": false,
      "metar": "METAR LZKZ 311230Z 24009KT 9999 SCT047 M01/M11 Q1012 NOSIG",
      "taf": "TAF LZKZ 311115Z 3112/0112 32006KT 9999 BKN025"
    },
    {
      "icao": "LZTT",
      "alert": "OK",
      "vis_m": 9999,
      "fzfg": false,
      "metar_trigger": false,
      "taf_trigger": false,
      "metar": "METAR LZTT 311230Z 30010KT 270V010 9999 -SHSN FEW033 SCT060 M04/M12 Q1009 NOSIG",
      "taf": "TAF LZTT 311115Z 3112/0112 25006KT 9999 -SN SCT020 BKN040"
    },
    {
      "icao": "OEJN",
      "alert": "OK",
      "vis_m": 9999,
      "fzfg": false,
      "metar_trigger": false,
      "taf_trigger": false,
      "metar": "METAR OEJN 311200Z 29007KT CAVOK 29/02 Q1013 NOSIG",
      "taf": "TAF OEJN 311100Z 3112/0118 33010KT CAVOK"
    },
    {
      "icao": "OEMA",
      "alert": "OK",
      "vis_m": 9999,
      "fzfg": false,
      "metar_trigger": false,
      "taf_trigger": false,
      "metar": "METAR OEMA 311200Z 15004KT CAVOK 25/M05 Q1016 NOSIG",
      "taf": "TAF OEMA 311100Z 3112/0118 26008KT 7000 NSC"
    },
    {
      "icao": "OJAI",
      "alert": "OK",
      "vis_m": 7000,
      "fzfg": false,
      "metar_trigger": false,
      "taf_trigger": false,
      "metar": "METAR OJAI 311200Z 25020KT 7000 BKN025 13/06 Q1012 NOSIG",
      "taf": "TAF OJAI 311038Z 3112/0118 25014KT 5000 HZ SCT030"
    },
    {
      "icao": "OMAA",
      "alert": "OK",
      "vis_m": 9999,
      "fzfg": false,
      "metar_trigger": false,
      "taf_trigger": false,
      "metar": "METAR OMAA 311200Z 31014KT 9999 BKN045 20/09 Q1016 NOSIG",
      "taf": "TAF OMAA 311100Z 3112/0118 31014KT 8000 SCT040"
    },
    {
      "icao": "OMDB",
      "alert": "OK",
      "vis_m": 9999,
      "fzfg": false,
      "metar_trigger": false,
      "taf_trigger": false,
      "metar": "METAR OMDB 311230Z 29007KT 170V330 9999 SCT045 22/09 Q1016 NOSIG",
      "taf": "TAF OMDB 311100Z 3112/0118 30010KT 9999 BKN045"
    },
    {
      "icao": "UAAA",
      "alert": "OK",
      "vis_m": 4200,
      "fzfg": false,
      "metar_trigger": false,
      "taf_trigger": false,
      "metar": "METAR UAAA 311230Z 00000MPS 4200 BR FU BKN050 OVC100 04/01 Q1014 NOSIG",
      "taf": "TAF UAAA 311103Z 3112/0112 29003G08MPS 5000 BR FU BKN050CB OVC100 TX02/0109Z TNM01/0101Z"
    },
    {
      "icao": "UBBB",
      "alert": "OK",
      "vis_m": 9999,
      "fzfg": false,
      "metar_trigger": false,
      "taf_trigger": false,
      "metar": "METAR UBBB 311230Z 18026G36KT CAVOK 09/M02 Q1004 NOSIG",
      "taf": "TAF UBBB 311110Z 3112/0112 19022G32KT CAVOK TX10/3112Z TN04/0103Z"
    },
    {
      "icao": "UDSG",
      "alert": "OK",
      "vis_m": 2100,
      "fzfg": false,
      "metar_trigger": false,
      "taf_trigger": false,
      "metar": "METAR UDSG 311230Z 28006KT 2100 -SN BR OVC016 M07/M09 Q1007 NOSIG",
      "taf": "TAF UDSG 311058Z 3112/0112 VRB06KT 1500 BR OVC020"
    },
    {
      "icao": "UDYZ",
      "alert": "OK",
      "vis_m": 9999,
      "fzfg": false,
      "metar_trigger": false,
      "taf_trigger": false,
      "metar": "METAR UDYZ 311230Z 07003KT 9999 BKN046 M00/M09 Q1010 NOSIG",
      "taf": "TAF UDYZ 311100Z 3112/0112 VRB06KT 9999 SCT040"
    },
    {
      "icao": "UGKO",
      "alert": "OK",
      "vis_m": 9999,
      "fzfg": false,
      "metar_trigger": false,
      "taf_trigger": false,
      "metar": "METAR UGKO 311230Z 07005KT CAVOK 03/00 Q1005 NOSIG",
      "taf": "TAF UGKO 311100Z 3112/0112 08007KT 9999 SCT020 OVC050 TX05/3112Z TNM00/0103Z"
    }
  ]
}