{
  "ts_utc": "2026-02-11T20:22:26Z",
  "threshold_m": 150,
  "source": "stations_override.txt (ICAO list) + aviationweather.gov (METAR/TAF raw)",
  "station_count": 159,
  "stations": [
    {
      "icao": "BIKF",
      "alert": "OK",
      "vis_m": 9999,
      "fzfg": false,
      "metar_trigger": false,
      "taf_trigger": false,
      "metar": "METAR BIKF 112000Z 06005KT CAVOK M04/M09 Q1007",
      "taf": "TAF BIKF 111957Z 1121/1221 06008KT CAVOK TXM02/1218Z TNM08/1208Z"
    },
    {
      "icao": "BKPR",
      "alert": "OK",
      "vis_m": 9999,
      "fzfg": false,
      "metar_trigger": false,
      "taf_trigger": false,
      "metar": "METAR BKPR 112000Z 17009KT 9999 SCT020 BKN090 07/05 Q0999 NOSIG",
      "taf": "TAF BKPR 111730Z 1118/1218 16010KT 9999 SCT030 BKN080"
    },
    {
      "icao": "EBCI",
      "alert": "OK",
      "vis_m": 9999,
      "fzfg": false,
      "metar_trigger": false,
      "taf_trigger": false,
      "metar": "METAR EBCI 111950Z 19009KT 9999 FEW008 BKN035 09/07 Q0982 TEMPO 2800 RADZ BKN008",
      "taf": "TAF EBCI 111715Z 1118/1224 21010KT 9999 SCT012 BKN016"
    },
    {
      "icao": "EDDB",
      "alert": "OK",
      "vis_m": 5000,
      "fzfg": false,
      "metar_trigger": false,
      "taf_trigger": false,
      "metar": "METAR EDDB 111950Z AUTO 11003KT 090V150 5000 BR BKN005 BKN009 OVC032 04/04 Q0984 TEMPO 4500 -RADZ BKN004",
      "taf": "TAF EDDB 111700Z 1118/1218 14005KT 9999 BKN020"
    },
    {
      "icao": "EDDH",
      "alert": "OK",
      "vis_m": 4700,
      "fzfg": false,
      "metar_trigger": false,
      "taf_trigger": false,
      "metar": "METAR EDDH 111950Z AUTO 07006KT 4700 -DZ BR OVC003 01/01 Q0984 TEMPO 3000",
      "taf": "TAF EDDH 111700Z 1118/1224 08007KT 3500 BR OVC003"
    },
    {
      "icao": "EDDK",
      "alert": "OK",
      "vis_m": 9999,
      "fzfg": false,
      "metar_trigger": false,
      "taf_trigger": false,
      "metar": "METAR EDDK 111950Z AUTO 20007KT 9999 -RA SCT021 BKN027 OVC037 10/07 Q0985 NOSIG",
      "taf": "TAF EDDK 111700Z 1118/1224 21007KT 9999 BKN020"
    },
    {
      "icao": "EDDN",
      "alert": "OK",
      "vis_m": 9999,
      "fzfg": false,
      "metar_trigger": false,
      "taf_trigger": false,
      "metar": "METAR EDDN 111950Z AUTO 22009KT 9999 VCSH BKN019 BKN039 OVC045 FEW///TCU 09/07 Q0988 NOSIG",
      "taf": "TAF EDDN 111700Z 1118/1218 22007KT 9999 SCT020 BKN040"
    },
    {
      "icao": "EDDS",
      "alert": "OK",
      "vis_m": 9999,
      "fzfg": false,
      "metar_trigger": false,
      "taf_trigger": false,
      "metar": "METAR EDDS 111950Z AUTO 20005KT 170V230 9999 FEW019 08/05 Q0989 NOSIG",
      "taf": "TAF EDDS 111700Z 1118/1218 19006KT 9999 BKN030"
    },
    {
      "icao": "EDFH",
      "alert": "OK",
      "vis_m": 9999,
      "fzfg": false,
      "metar_trigger": false,
      "taf_trigger": false,
      "metar": "METAR EDFH 111950Z 23012KT 190V250 9999 BKN013 07/06 Q0986",
      "taf": "TAF EDFH 111700Z 1118/1218 19013KT 9999 BKN006"
    },
    {
      "icao": "EDJA",
      "alert": "OK",
      "vis_m": 9999,
      "fzfg": false,
      "metar_trigger": false,
      "taf_trigger": false,
      "metar": "METAR EDJA 111950Z 24017G31KT 9999 FEW016 07/04 Q0992",
      "taf": ""
    },
    {
      "icao": "EDLW",
      "alert": "OK",
      "vis_m": 9999,
      "fzfg": false,
      "metar_trigger": false,
      "taf_trigger": false,
      "metar": "METAR EDLW 111950Z 22012KT 9999 FEW012 BKN018 OVC031 10/08 Q0983",
      "taf": "TAF EDLW 111700Z 1118/1218 21009KT 9999 FEW010 OVC030"
    },
    {
      "icao": "EDNY",
      "alert": "OK",
      "vis_m": 9999,
      "fzfg": false,
      "metar_trigger": false,
      "taf_trigger": false,
      "metar": "METAR EDNY 111950Z 23004KT 180V260 CAVOK 06/04 Q0993",
      "taf": "TAF EDNY 111700Z 1118/1203 24010KT 9999 SCT040"
    },
    {
      "icao": "EDSB",
      "alert": "OK",
      "vis_m": 9000,
      "fzfg": false,
      "metar_trigger": false,
      "taf_trigger": false,
      "metar": "METAR EDSB 111950Z 19017KT 9000 -RA NSC 10/07 Q0989",
      "taf": "TAF EDSB 111700Z 1118/1218 20014KT 9999 BKN030"
    },
    {
      "icao": "EETN",
      "alert": "OK",
      "vis_m": 9999,
      "fzfg": false,
      "metar_trigger": false,
      "taf_trigger": false,
      "metar": "METAR EETN 112020Z 16007KT 9999 FEW038 M07/M09 Q0993 NOSIG",
      "taf": "TAF EETN 111730Z 1118/1218 16008KT 9999 BKN040"
    },
    {
      "icao": "EFTU",
      "alert": "OK",
      "vis_m": 9999,
      "fzfg": false,
      "metar_trigger": false,
      "taf_trigger": false,
      "metar": "METAR EFTU 111950Z AUTO 07007KT 030V090 9999 -SHSN BKN014 M06/M08 Q0992",
      "taf": "TAF EFTU 111737Z 1118/1218 04006KT 9999 -SN FEW012 BKN020"
    },
    {
      "icao": "EGBB",
      "alert": "OK",
      "vis_m": 9999,
      "fzfg": false,
      "metar_trigger": false,
      "taf_trigger": false,
      "metar": "METAR EGBB 111950Z 15003KT CAVOK 05/05 Q0976",
      "taf": "TAF EGBB 111700Z 1118/1218 19004KT 9999 SCT035"
    },
    {
      "icao": "EGGP",
      "alert": "OK",
      "vis_m": 9999,
      "fzfg": false,
      "metar_trigger": false,
      "taf_trigger": false,
      "metar": "METAR EGGP 111950Z 06002KT 9999 BKN042 08/07 Q0976",
      "taf": ""
    },
    {
      "icao": "EGGW",
      "alert": "OK",
      "vis_m": 9999,
      "fzfg": false,
      "metar_trigger": false,
      "taf_trigger": false,
      "metar": "METAR EGGW 111950Z AUTO 18006KT 140V210 9999 OVC005 08/07 Q0976",
      "taf": ""
    },
    {
      "icao": "EGKK",
      "alert": "OK",
      "vis_m": 9999,
      "fzfg": false,
      "metar_trigger": false,
      "taf_trigger": false,
      "metar": "METAR EGKK 111950Z 16006KT 9999 -RA BKN007 09/09 Q0977",
      "taf": "TAF EGKK 111658Z 1118/1224 18010KT 9999 SCT012 BKN020"
    },
    {
      "icao": "EGNM",
      "alert": "OK",
      "vis_m": 9999,
      "fzfg": false,
      "metar_trigger": false,
      "taf_trigger": false,
      "metar": "METAR EGNM 111950Z 36004KT 9999 -RA FEW007 SCT019 05/05 Q0976",
      "taf": "TAF EGNM 111702Z 1118/1218 02008KT 9999 SCT005"
    },
    {
      "icao": "EGPD",
      "alert": "OK",
      "vis_m": 9999,
      "fzfg": false,
      "metar_trigger": false,
      "taf_trigger": false,
      "metar": "METAR EGPD 111950Z AUTO 08014KT 9999 SCT026 BKN030 OVC037 04/M01 Q0986 TEMPO BKN012",
      "taf": "TAF EGPD 111655Z 1118/1218 09012KT 9999 SCT012 BKN025"
    },
    {
      "icao": "EGPF",
      "alert": "OK",
      "vis_m": 9999,
      "fzfg": false,
      "metar_trigger": false,
      "taf_trigger": false,
      "metar": "METAR EGPF 111950Z AUTO 06016KT 9999 -RA OVC011 04/03 Q0981",
      "taf": "TAF EGPF 111701Z 1118/1218 07009KT 9999 BKN016"
    },
    {
      "icao": "EHBK",
      "alert": "OK",
      "vis_m": 9999,
      "fzfg": false,
      "metar_trigger": false,
      "taf_trigger": false,
      "metar": "METAR EHBK 111955Z AUTO 21006KT 9999 FEW028 BKN031 BKN037 09/08 Q0984 REDZ NOSIG",
      "taf": "TAF EHBK 111715Z 1118/1224 24007KT 9999 SCT025"
    },
    {
      "icao": "EHEH",
      "alert": "OK",
      "vis_m": 9999,
      "fzfg": false,
      "metar_trigger": false,
      "taf_trigger": false,
      "metar": "METAR EHEH 111955Z AUTO 19007KT 9999 OVC180 09/07 Q0982 BLU NOSIG",
      "taf": "TAF EHEH 111740Z 1118/1224 24012KT 8000 SCT030"
    },
    {
      "icao": "EKBI",
      "alert": "OK",
      "vis_m": 7000,
      "fzfg": false,
      "metar_trigger": false,
      "taf_trigger": false,
      "metar": "METAR EKBI 111950Z AUTO 07013KT 7000 OVC004/// M00/M01 Q0987",
      "taf": ""
    },
    {
      "icao": "EKCH",
      "alert": "OK",
      "vis_m": 9999,
      "fzfg": false,
      "metar_trigger": false,
      "taf_trigger": false,
      "metar": "METAR EKCH 111950Z 06012KT 9999 BKN010 00/M01 Q0989 TEMPO BKN015",
      "taf": "TAF EKCH 111727Z 1118/1218 05012KT 8000 BKN009"
    },
    {
      "icao": "ENAL",
      "alert": "OK",
      "vis_m": 9999,
      "fzfg": false,
      "metar_trigger": false,
      "taf_trigger": false,
      "metar": "METAR ENAL 111950Z 15008KT CAVOK M02/M07 Q0992",
      "taf": "TAF ENAL 111700Z 1118/1203 10005KT CAVOK"
    },
    {
      "icao": "ENBR",
      "alert": "OK",
      "vis_m": 9999,
      "fzfg": false,
      "metar_trigger": false,
      "taf_trigger": false,
      "metar": "METAR ENBR 111950Z VRB02KT 9999 FEW019 BKN045 M01/M05 Q0991 NOSIG RMK WIND 1200FT 13004KT",
      "taf": "TAF ENBR 111700Z 1118/1218 VRB03KT 9999 BKN035"
    },
    {
      "icao": "ENGM",
      "alert": "OK",
      "vis_m": 9999,
      "fzfg": false,
      "metar_trigger": false,
      "taf_trigger": false,
      "metar": "METAR ENGM 111950Z 04005KT 9999 -SN BKN030 M06/M09 Q0994 NOSIG",
      "taf": "TAF ENGM 111700Z 1118/1218 01008KT 9999 BKN025"
    },
    {
      "icao": "ENHD",
      "alert": "OK",
      "vis_m": 9999,
      "fzfg": false,
      "metar_trigger": false,
      "taf_trigger": false,
      "metar": "METAR ENHD 111950Z 09006KT CAVOK M05/M09 Q0991",
      "taf": "TAF ENHD 111400Z 1115/1123 09005KT CAVOK"
    },
    {
      "icao": "ENTC",
      "alert": "OK",
      "vis_m": 9999,
      "fzfg": false,
      "metar_trigger": false,
      "taf_trigger": false,
      "metar": "METAR ENTC 111950Z VRB02KT CAVOK M12/M14 Q0997 NOSIG RMK WIND 2600FT 13006KT",
      "taf": "TAF ENTC 111700Z 1118/1218 VRB03KT CAVOK"
    },
    {
      "icao": "ENTO",
      "alert": "OK",
      "vis_m": 9999,
      "fzfg": false,
      "metar_trigger": false,
      "taf_trigger": false,
      "metar": "METAR ENTO 111950Z 02008KT 9999 OVC016 M03/M07 Q0994 NOSIG",
      "taf": "TAF ENTO 111700Z 1118/1218 02008KT 9999 FEW015 BKN030"
    },
    {
      "icao": "ENVA",
      "alert": "OK",
      "vis_m": 9999,
      "fzfg": false,
      "metar_trigger": false,
      "taf_trigger": false,
      "metar": "METAR ENVA 111950Z 10007KT CAVOK M10/M14 Q0995 NOSIG RMK WIND 670FT 12010KT",
      "taf": "TAF ENVA 111700Z 1118/1218 10005KT CAVOK"
    },
    {
      "icao": "ENZV",
      "alert": "OK",
      "vis_m": 9999,
      "fzfg": false,
      "metar_trigger": false,
      "taf_trigger": false,
      "metar": "METAR ENZV 111950Z 12004KT CAVOK M01/M09 Q0992 NOSIG",
      "taf": "TAF ENZV 111700Z 1118/1218 10005KT 9999 BKN040"
    },
    {
      "icao": "EPGD",
      "alert": "OK",
      "vis_m": 750,
      "fzfg": true,
      "metar_trigger": false,
      "taf_trigger": false,
      "metar": "METAR EPGD 112000Z 32001KT 0750 R29/1900N -SN FZFG SCT000 OVC002 M00/M00 Q0986",
      "taf": "TAF EPGD 111730Z 1118/1218 VRB02KT 2000 BR OVC005"
    },
    {
      "icao": "EPKK",
      "alert": "OK",
      "vis_m": 7000,
      "fzfg": false,
      "metar_trigger": false,
      "taf_trigger": false,
      "metar": "METAR EPKK 112000Z VRB01KT 7000 -RA OVC026 04/01 Q0988",
      "taf": "TAF EPKK 111730Z 1118/1218 24010KT 9999 BKN035"
    },
    {
      "icao": "EPKT",
      "alert": "OK",
      "vis_m": 9000,
      "fzfg": false,
      "metar_trigger": false,
      "taf_trigger": false,
      "metar": "METAR EPKT 112000Z 20008KT 9000 -RA BKN008 OVC016 04/03 Q0987",
      "taf": ""
    },
    {
      "icao": "EPLB",
      "alert": "OK",
      "vis_m": 9999,
      "fzfg": false,
      "metar_trigger": false,
      "taf_trigger": false,
      "metar": "METAR EPLB 112000Z 22010KT CAVOK 03/01 Q0989",
      "taf": "TAF EPLB 111730Z 1118/1218 18008KT CAVOK"
    },
    {
      "icao": "EPMO",
      "alert": "OK",
      "vis_m": 9999,
      "fzfg": false,
      "metar_trigger": false,
      "taf_trigger": false,
      "metar": "METAR EPMO 112000Z 16005KT 140V200 CAVOK 03/01 Q0987",
      "taf": "TAF EPMO 111730Z 1118/1218 15006KT CAVOK"
    },
    {
      "icao": "EPPO",
      "alert": "OK",
      "vis_m": 9999,
      "fzfg": false,
      "metar_trigger": false,
      "taf_trigger": false,
      "metar": "METAR EPPO 112000Z 13002KT 9999 -RA BKN049 03/01 Q0985",
      "taf": "TAF EPPO 111730Z 1118/1218 12005KT 9999 SCT035"
    },
    {
      "icao": "EPRA",
      "alert": "OK",
      "vis_m": 9999,
      "fzfg": false,
      "metar_trigger": false,
      "taf_trigger": false,
      "metar": "METAR EPRA 112000Z 17008KT CAVOK 02/M00 Q0988",
      "taf": "TAF EPRA 111730Z 1118/1203 17008KT CAVOK"
    },
    {
      "icao": "EPRZ",
      "alert": "OK",
      "vis_m": 9999,
      "fzfg": false,
      "metar_trigger": false,
      "taf_trigger": false,
      "metar": "METAR EPRZ 112000Z 21007KT CAVOK 04/01 Q0990",
      "taf": "TAF EPRZ 111730Z 1118/1218 19012KT 9999 BKN040"
    },
    {
      "icao": "EPSC",
      "alert": "OK",
      "vis_m": 800,
      "fzfg": false,
      "metar_trigger": false,
      "taf_trigger": false,
      "metar": "METAR EPSC 112000Z 04003KT 010V080 0800 R31/1800U FG OVC002 02/02 Q0985",
      "taf": "TAF EPSC 111730Z 1118/1218 VRB02KT 2500 BR OVC005"
    },
    {
      "icao": "EPSY",
      "alert": "OK",
      "vis_m": 6000,
      "fzfg": false,
      "metar_trigger": false,
      "taf_trigger": false,
      "metar": "METAR EPSY 112000Z VRB03KT 6000 -RASN OVC027 01/00 Q0987",
      "taf": "TAF EPSY 111730Z 1118/1203 18004KT 8000 BKN030"
    },
    {
      "icao": "EPWA",
      "alert": "OK",
      "vis_m": 9999,
      "fzfg": false,
      "metar_trigger": false,
      "taf_trigger": false,
      "metar": "METAR EPWA 112000Z 16007KT CAVOK 03/00 Q0987 NOSIG",
      "taf": "TAF EPWA 111730Z 1118/1218 17008KT CAVOK"
    },
    {
      "icao": "EPWR",
      "alert": "OK",
      "vis_m": 9999,
      "fzfg": false,
      "metar_trigger": false,
      "taf_trigger": false,
      "metar": "METAR EPWR 112000Z 14004KT 9999 -RA BKN028 03/03 Q0986",
      "taf": "TAF EPWR 111730Z 1118/1218 16008KT 9999 BKN045"
    },
    {
      "icao": "ESGG",
      "alert": "OK",
      "vis_m": 9999,
      "fzfg": false,
      "metar_trigger": false,
      "taf_trigger": false,
      "metar": "METAR ESGG 111950Z 05007KT 9999 FEW014 OVC039 M03/M05 Q0990",
      "taf": "TAF ESGG 111730Z 1118/1218 04007KT 9999 SCT006 BKN020"
    },
    {
      "icao": "ESKN",
      "alert": "OK",
      "vis_m": 9999,
      "fzfg": false,
      "metar_trigger": false,
      "taf_trigger": false,
      "metar": "METAR ESKN 111950Z 36005KT 330V040 9999 BKN007 M05/M06 Q0993",
      "taf": "TAF ESKN 111730Z 1118/1218 02006KT 9999 BKN007"
    },
    {
      "icao": "ESMS",
      "alert": "OK",
      "vis_m": 3600,
      "fzfg": false,
      "metar_trigger": false,
      "taf_trigger": false,
      "metar": "METAR ESMS 111950Z 06013KT 3600 BR OVC003 M01/M01 Q0988",
      "taf": ""
    },
    {
      "icao": "ESSA",
      "alert": "OK",
      "vis_m": 9999,
      "fzfg": false,
      "metar_trigger": false,
      "taf_trigger": false,
      "metar": "METAR ESSA 111950Z 35007KT 9999 -SN OVC010 M06/M08 Q0993 TEMPO BKN009",
      "taf": "TAF ESSA 111730Z 1118/1218 35009KT 9999 -SN OVC009"
    },
    {
      "icao": "EYKA",
      "alert": "OK",
      "vis_m": 2000,
      "fzfg": false,
      "metar_trigger": false,
      "taf_trigger": false,
      "metar": "METAR EYKA 112020Z 15004KT 090V180 2000 -SN BR OVC007 M00/M00 Q0988",
      "taf": "TAF EYKA 111700Z 1118/1218 VRB04KT 5000 SN BR BKN010 OVC015"
    },
    {
      "icao": "EYPA",
      "alert": "OK",
      "vis_m": 7000,
      "fzfg": false,
      "metar_trigger": false,
      "taf_trigger": false,
      "metar": "METAR EYPA 112020Z 10009KT 7000 SCT011 OVC022 M05/M07 Q0989",
      "taf": "TAF EYPA 111700Z 1118/1218 VRB05KT 5000 BR BKN015"
    },
    {
      "icao": "EYVI",
      "alert": "OK",
      "vis_m": 3100,
      "fzfg": false,
      "metar_trigger": false,
      "taf_trigger": false,
      "metar": "METAR EYVI 111950Z 17011KT 3100 SN BR BKN006 M01/M02 Q0989 TEMPO 1500 SN BR",
      "taf": "TAF EYVI 111705Z 1118/1218 17008KT 5000 SN BR SCT010 OVC015"
    },
    {
      "icao": "GCFV",
      "alert": "OK",
      "vis_m": 9999,
      "fzfg": false,
      "metar_trigger": false,
      "taf_trigger": false,
      "metar": "METAR GCFV 112000Z 02012KT 9999 BKN011 19/16 Q1025",
      "taf": "TAF GCFV 111400Z 1115/1215 05012KT 9999 SCT015 TX22/1214Z TN17/1206Z"
    },
    {
      "icao": "GCLP",
      "alert": "OK",
      "vis_m": 9999,
      "fzfg": false,
      "metar_trigger": false,
      "taf_trigger": false,
      "metar": "METAR GCLP 112000Z 01017KT 9999 FEW012 SCT020 19/16 Q1024 NOSIG",
      "taf": "TAF GCLP 111400Z 1115/1215 02018KT 9999 SCT020 TX23/1214Z TN17/1206Z"
    },
    {
      "icao": "GCTS",
      "alert": "OK",
      "vis_m": 9999,
      "fzfg": false,
      "metar_trigger": false,
      "taf_trigger": false,
      "metar": "METAR GCTS 111930Z 07013KT 9999 FEW030 19/15 Q1024 NOSIG",
      "taf": "TAF GCTS 111400Z 1115/1215 08015KT 9999 FEW020 TX25/1214Z TN17/1206Z"
    },
    {
      "icao": "GMAD",
      "alert": "OK",
      "vis_m": 1500,
      "fzfg": false,
      "metar_trigger": false,
      "taf_trigger": false,
      "metar": "METAR GMAD 112000Z 21003KT 1500 R27/1300V1400U -DZ OVC002 15/15 Q1024 NOSIG",
      "taf": ""
    },
    {
      "icao": "GMMN",
      "alert": "OK",
      "vis_m": 5000,
      "fzfg": false,
      "metar_trigger": false,
      "taf_trigger": false,
      "metar": "METAR GMMN 112000Z VRB01KT 5000 SCT003 14/13 Q1026 NOSIG",
      "taf": "TAF GMMN 111700Z 1118/1224 32006KT 8000 SCT008"
    },
    {
      "icao": "GMMX",
      "alert": "OK",
      "vis_m": 9999,
      "fzfg": false,
      "metar_trigger": false,
      "taf_trigger": false,
      "metar": "METAR GMMX 112000Z 34004KT 300V040 CAVOK 21/15 Q1025 NOSIG",
      "taf": "TAF GMMX 111700Z 1118/1224 28006KT CAVOK"
    },
    {
      "icao": "HEGN",
      "alert": "OK",
      "vis_m": 9999,
      "fzfg": false,
      "metar_trigger": false,
      "taf_trigger": false,
      "metar": "METAR HEGN 112000Z 00000KT CAVOK 20/10 Q1017 NOSIG",
      "taf": "TAF HEGN 111700Z 1118/1224 32010KT CAVOK"
    },
    {
      "icao": "HEMA",
      "alert": "OK",
      "vis_m": 9999,
      "fzfg": false,
      "metar_trigger": false,
      "taf_trigger": false,
      "metar": "METAR HEMA 112000Z 24003KT CAVOK 22/16 Q1016 NOSIG",
      "taf": "TAF HEMA 111700Z 1118/1224 29010KT CAVOK"
    },
    {
      "icao": "HESH",
      "alert": "OK",
      "vis_m": 9999,
      "fzfg": false,
      "metar_trigger": false,
      "taf_trigger": false,
      "metar": "METAR HESH 112000Z 00000KT CAVOK 20/13 Q1016 NOSIG",
      "taf": "TAF HESH 111700Z 1118/1224 34010KT CAVOK"
    },
    {
      "icao": "HESX",
      "alert": "OK",
      "vis_m": 9999,
      "fzfg": false,
      "metar_trigger": false,
      "taf_trigger": false,
      "metar": "METAR HESX 112000Z 26004KT CAVOK 16/03 Q1017 NOSIG",
      "taf": "TAF HESX 111700Z 1118/1224 27010KT CAVOK"
    },
    {
      "icao": "LATI",
      "alert": "OK",
      "vis_m": 9999,
      "fzfg": false,
      "metar_trigger": false,
      "taf_trigger": false,
      "metar": "METAR LATI 112020Z 34004KT 9999 -DZ FEW059 SCT068 OVC088 11/08 Q0997 NOSIG",
      "taf": "TAF LATI 111700Z 1118/1218 VRB05KT 9999 RA SCT040 OVC060 TX16/1212Z TN08/1205Z"
    },
    {
      "icao": "LBPD",
      "alert": "OK",
      "vis_m": 9999,
      "fzfg": false,
      "metar_trigger": false,
      "taf_trigger": false,
      "metar": "METAR LBPD 112000Z AUTO 28003KT 9999 OVC009/// 02/02 Q1004 NOSIG",
      "taf": "TAF LBPD 111700Z 1118/1218 VRB04KT 9999 BKN010"
    },
    {
      "icao": "LBSF",
      "alert": "OK",
      "vis_m": 9999,
      "fzfg": false,
      "metar_trigger": false,
      "taf_trigger": false,
      "metar": "METAR LBSF 112000Z AUTO 10009KT 9999 NCD M00/M02 Q1002 NOSIG",
      "taf": "TAF LBSF 111700Z 1118/1218 11012KT 9999 SCT030 BKN050"
    },
    {
      "icao": "LBWN",
      "alert": "OK",
      "vis_m": 9999,
      "fzfg": false,
      "metar_trigger": false,
      "taf_trigger": false,
      "metar": "METAR LBWN 112000Z AUTO 16002KT 9999 NCD 01/01 Q1003 NOSIG",
      "taf": ""
    },
    {
      "icao": "LCLK",
      "alert": "OK",
      "vis_m": 9999,
      "fzfg": false,
      "metar_trigger": false,
      "taf_trigger": false,
      "metar": "METAR LCLK 112000Z 22009KT 9999 FEW025 14/11 Q1012 NOSIG",
      "taf": "TAF LCLK 111730Z 1118/1218 24009KT 9999 FEW030"
    },
    {
      "icao": "LCPH",
      "alert": "OK",
      "vis_m": 9999,
      "fzfg": false,
      "metar_trigger": false,
      "taf_trigger": false,
      "metar": "METAR LCPH 112000Z 26008KT 9999 SCT023 BKN065 16/11 Q1012 NOSIG",
      "taf": "TAF LCPH 111730Z 1118/1218 28015KT 9999 FEW025 SCT035"
    },
    {
      "icao": "LEAL",
      "alert": "OK",
      "vis_m": 9999,
      "fzfg": false,
      "metar_trigger": false,
      "taf_trigger": false,
      "metar": "METAR LEAL 112000Z 25020G33KT CAVOK 23/08 Q1008 NOSIG",
      "taf": "TAF LEAL 111700Z 1118/1218 27015KT 9999 FEW030 TX23/1213Z TN12/1206Z"
    },
    {
      "icao": "LEBB",
      "alert": "OK",
      "vis_m": 9999,
      "fzfg": false,
      "metar_trigger": false,
      "taf_trigger": false,
      "metar": "METAR LEBB 112000Z 23008KT 190V290 CAVOK 17/11 Q0997 NOSIG",
      "taf": "TAF LEBB 111700Z 1118/1218 22009KT 9999 FEW035 BKN050 TX19/1118Z TN09/1208Z"
    },
    {
      "icao": "LEBL",
      "alert": "OK",
      "vis_m": 9999,
      "fzfg": false,
      "metar_trigger": false,
      "taf_trigger": false,
      "metar": "METAR LEBL 112000Z 33016KT 300V360 9999 -RA SCT034 SCT040TCU 15/13 Q1000 NOSIG",
      "taf": ""
    },
    {
      "icao": "LECH",
      "alert": "OK",
      "vis_m": 9000,
      "fzfg": false,
      "metar_trigger": false,
      "taf_trigger": false,
      "metar": "METAR LECH 112000Z AUTO 24013G23KT 210V280 9000 BKN058 20/10 Q1002",
      "taf": ""
    },
    {
      "icao": "LEMD",
      "alert": "OK",
      "vis_m": 9999,
      "fzfg": false,
      "metar_trigger": false,
      "taf_trigger": false,
      "metar": "SPECI LEMD 112018Z 24019KT 9999 BKN013 BKN040 14/14 Q1009 RERA NOSIG",
      "taf": "TAF LEMD 111700Z 1118/1224 24010KT 9999 FEW015 TX13/1215Z TN07/1207Z"
    },
    {
      "icao": "LEMG",
      "alert": "OK",
      "vis_m": 9999,
      "fzfg": false,
      "metar_trigger": false,
      "taf_trigger": false,
      "metar": "METAR LEMG 112000Z 17004KT 140V200 9999 FEW030 16/14 Q1019 NOSIG",
      "taf": "TAF LEMG 111700Z 1118/1218 VRB03KT 9999 FEW050 TX23/1214Z TN11/1207Z"
    },
    {
      "icao": "LEVC",
      "alert": "OK",
      "vis_m": 9999,
      "fzfg": false,
      "metar_trigger": false,
      "taf_trigger": false,
      "metar": "METAR LEVC 112000Z 26036G57KT CAVOK 21/12 Q1003 NOSIG",
      "taf": "TAF LEVC 111700Z 1118/1218 27015KT 9999 FEW045 TX21/1214Z TN15/1206Z"
    },
    {
      "icao": "LEXJ",
      "alert": "OK",
      "vis_m": 9999,
      "fzfg": false,
      "metar_trigger": false,
      "taf_trigger": false,
      "metar": "METAR LEXJ 112000Z 28024G36KT 260V320 CAVOK 17/03 Q0998",
      "taf": ""
    },
    {
      "icao": "LEZG",
      "alert": "OK",
      "vis_m": 9999,
      "fzfg": false,
      "metar_trigger": false,
      "taf_trigger": false,
      "metar": "METAR LEZG 112000Z 25024G34KT 9999 FEW080 17/14 Q1001 NOSIG",
      "taf": ""
    },
    {
      "icao": "LEZL",
      "alert": "OK",
      "vis_m": 4000,
      "fzfg": false,
      "metar_trigger": false,
      "taf_trigger": false,
      "metar": "SPECI LEZL 112014Z 24015KT 4000 DZ OVC010 16/15 Q1020 BECMG 9999 -DZ",
      "taf": ""
    },
    {
      "icao": "LFBD",
      "alert": "OK",
      "vis_m": 9999,
      "fzfg": false,
      "metar_trigger": false,
      "taf_trigger": false,
      "metar": "METAR LFBD 112000Z AUTO 26020KT 220V290 9999 BKN031/// BKN038/// ///TCU 14/11 Q0992 TEMPO 26020G45KT 3000 SHRA BKN020TCU SCT030CB",
      "taf": "TAF LFBD 111700Z 1118/1224 20010KT CAVOK TX13/1118Z TN10/1205Z"
    },
    {
      "icao": "LFLL",
      "alert": "OK",
      "vis_m": 9999,
      "fzfg": false,
      "metar_trigger": false,
      "taf_trigger": false,
      "metar": "METAR LFLL 112000Z 17015KT CAVOK 12/06 Q0993 TEMPO 20025G35KT 3000 SHRA BKN040TCU",
      "taf": "TAF LFLL 111700Z 1118/1224 18010KT 9999 BKN050"
    },
    {
      "icao": "LFLS",
      "alert": "OK",
      "vis_m": 9999,
      "fzfg": false,
      "metar_trigger": false,
      "taf_trigger": false,
      "metar": "METAR LFLS 112000Z AUTO 15006KT 130V190 9999 OVC062 11/05 Q0994 TEMPO 19015G30KT 3000 RA",
      "taf": "TAF LFLS 111400Z 1115/1215 22008KT 9999 BKN040"
    },
    {
      "icao": "LFMN",
      "alert": "OK",
      "vis_m": 9999,
      "fzfg": false,
      "metar_trigger": false,
      "taf_trigger": false,
      "metar": "METAR LFMN 112000Z 03004KT 350V100 CAVOK 13/10 Q0996 BECMG 30008KT",
      "taf": "TAF LFMN 112000Z 1121/1303 30008KT CAVOK"
    },
    {
      "icao": "LFOB",
      "alert": "OK",
      "vis_m": 6000,
      "fzfg": false,
      "metar_trigger": false,
      "taf_trigger": false,
      "metar": "METAR LFOB 112000Z AUTO 16011KT 6000 -RA BKN005/// OVC010/// ///TCU 10/10 Q0978 TEMPO 19020G30KT 3000 RA BKN004",
      "taf": ""
    },
    {
      "icao": "LFPO",
      "alert": "OK",
      "vis_m": 4000,
      "fzfg": false,
      "metar_trigger": false,
      "taf_trigger": false,
      "metar": "METAR LFPO 112000Z 19013KT 160V220 4000 -RA OVC006 11/10 Q0980 TEMPO 2500 SHRA BKN006TCU",
      "taf": "TAF LFPO 111700Z 1118/1224 17010KT 6000 SCT033 BKN073"
    },
    {
      "icao": "LFSB",
      "alert": "OK",
      "vis_m": 9999,
      "fzfg": false,
      "metar_trigger": false,
      "taf_trigger": false,
      "metar": "METAR LFSB 112000Z AUTO 14006KT CAVOK 09/04 Q0991 NOSIG",
      "taf": "TAF LFSB 111700Z 1118/1218 17006KT 9999 SCT025 BKN050"
    },
    {
      "icao": "LGAV",
      "alert": "OK",
      "vis_m": 9000,
      "fzfg": false,
      "metar_trigger": false,
      "taf_trigger": false,
      "metar": "METAR LGAV 111950Z VRB03KT 9000 -RA SCT015 BKN025 14/11 Q1002 NOSIG",
      "taf": "TAF LGAV 111700Z 1118/1218 18010KT 9999 SCT020 BKN070"
    },
    {
      "icao": "LGTS",
      "alert": "OK",
      "vis_m": 9999,
      "fzfg": false,
      "metar_trigger": false,
      "taf_trigger": false,
      "metar": "METAR LGTS 111950Z 25004KT 9999 -RA FEW020 BKN035 11/11 Q1001 NOSIG",
      "taf": "TAF LGTS 111700Z 1118/1218 14010KT 9999 FEW010 BKN030"
    },
    {
      "icao": "LHBP",
      "alert": "OK",
      "vis_m": 8000,
      "fzfg": false,
      "metar_trigger": false,
      "taf_trigger": false,
      "metar": "METAR LHBP 112000Z VRB01KT 8000 -RA NSC 04/04 Q0994 NOSIG",
      "taf": "TAF LHBP 111715Z 1118/1218 18006KT CAVOK"
    },
    {
      "icao": "LHDC",
      "alert": "OK",
      "vis_m": 9999,
      "fzfg": false,
      "metar_trigger": false,
      "taf_trigger": false,
      "metar": "METAR LHDC 111945Z AUTO 18010KT 9999 -RA OVC035 07/05 Q0995",
      "taf": "TAF LHDC 111415Z 1115/1124 19012KT 9999 BKN040 BKN060"
    },
    {
      "icao": "LIBD",
      "alert": "OK",
      "vis_m": 9999,
      "fzfg": false,
      "metar_trigger": false,
      "taf_trigger": false,
      "metar": "METAR LIBD 111950Z 23004KT 9999 BKN030 11/10 Q0997",
      "taf": "TAF LIBD 111700Z 1118/1218 26006KT 9999 FEW040"
    },
    {
      "icao": "LIBG",
      "alert": "OK",
      "vis_m": null,
      "fzfg": false,
      "metar_trigger": false,
      "taf_trigger": false,
      "metar": "",
      "taf": "TAF LIBG 111700Z 1118/1203 VRB04KT 9999 FEW040"
    },
    {
      "icao": "LIBP",
      "alert": "OK",
      "vis_m": 9999,
      "fzfg": false,
      "metar_trigger": false,
      "taf_trigger": false,
      "metar": "METAR LIBP 111950Z AUTO 21003KT 9999 NCD 07/07 Q0997",
      "taf": "TAF LIBP 111700Z 1118/1218 VRB05KT 9999 FEW060"
    },
    {
      "icao": "LIBR",
      "alert": "OK",
      "vis_m": 9999,
      "fzfg": false,
      "metar_trigger": false,
      "taf_trigger": false,
      "metar": "METAR LIBR 111950Z 32003KT 9999 SCT012 BKN025 12/11 Q0997",
      "taf": "TAF LIBR 111700Z 1118/1218 VRB05KT 9999 SCT030"
    },
    {
      "icao": "LICA",
      "alert": "OK",
      "vis_m": 9000,
      "fzfg": false,
      "metar_trigger": false,
      "taf_trigger": false,
      "metar": "METAR LICA 111950Z AUTO 26023G34KT 9000 FEW021/// OVC039/// 15/12 Q1001",
      "taf": "TAF LICA 111700Z 1118/1218 25022G33KT 9999 BKN020"
    },
    {
      "icao": "LICC",
      "alert": "OK",
      "vis_m": 9999,
      "fzfg": false,
      "metar_trigger": false,
      "taf_trigger": false,
      "metar": "METAR LICC 111950Z 26022KT 9999 FEW030 15/11 Q1003",
      "taf": "TAF LICC 111700Z 1118/1218 26018G30KT 9999 SCT030"
    },
    {
      "icao": "LICJ",
      "alert": "OK",
      "vis_m": 9999,
      "fzfg": false,
      "metar_trigger": false,
      "taf_trigger": false,
      "metar": "METAR LICJ 111950Z 23017KT CAVOK 16/11 Q1005",
      "taf": "TAF LICJ 111700Z 1118/1218 26022G35KT 9999 SCT020"
    },
    {
      "icao": "LIMC",
      "alert": "OK",
      "vis_m": 9999,
      "fzfg": false,
      "metar_trigger": false,
      "taf_trigger": false,
      "metar": "METAR LIMC 111950Z 06004KT 9999 MIFG NSC 04/03 Q0995 NOSIG",
      "taf": "TAF LIMC 111700Z 1118/1224 VRB04KT 8000 FEW030"
    },
    {
      "icao": "LIME",
      "alert": "OK",
      "vis_m": 9999,
      "fzfg": false,
      "metar_trigger": false,
      "taf_trigger": false,
      "metar": "METAR LIME 111950Z VRB02KT 9999 BKN035 09/07 Q0996 NOSIG",
      "taf": "TAF LIME 111700Z 1118/1218 VRB05KT 9999 SCT030"
    },
    {
      "icao": "LIMF",
      "alert": "OK",
      "vis_m": 9999,
      "fzfg": false,
      "metar_trigger": false,
      "taf_trigger": false,
      "metar": "METAR LIMF 111950Z 28005KT CAVOK 07/04 Q0995",
      "taf": "TAF LIMF 111700Z 1118/1218 VRB03KT 9999 FEW025"
    },
    {
      "icao": "LIMJ",
      "alert": "OK",
      "vis_m": 9999,
      "fzfg": false,
      "metar_trigger": false,
      "taf_trigger": false,
      "metar": "METAR LIMJ 111950Z 05006KT 310V070 CAVOK 11/07 Q0996",
      "taf": "TAF LIMJ 111700Z 1118/1218 VRB05KT 9999 FEW015"
    },
    {
      "icao": "LIPE",
      "alert": "OK",
      "vis_m": 9999,
      "fzfg": false,
      "metar_trigger": false,
      "taf_trigger": false,
      "metar": "METAR LIPE 111950Z 20003KT 9999 SCT018 06/06 Q0997",
      "taf": "TAF LIPE 111700Z 1118/1218 VRB05KT 8000 SCT020"
    },
    {
      "icao": "LIPH",
      "alert": "OK",
      "vis_m": 9999,
      "fzfg": false,
      "metar_trigger": false,
      "taf_trigger": false,
      "metar": "METAR LIPH 111950Z 06003KT 9999 BKN050 09/09 Q0996",
      "taf": "TAF LIPH 111700Z 1118/1218 VRB05KT 7000 BKN010"
    },
    {
      "icao": "LIPQ",
      "alert": "OK",
      "vis_m": 5000,
      "fzfg": false,
      "metar_trigger": false,
      "taf_trigger": false,
      "metar": "METAR LIPQ 111950Z AUTO 12003KT 5000 BR FEW002/// OVC019/// 10/10 Q0996",
      "taf": "TAF LIPQ 111700Z 1118/1218 VRB04KT 2000 BR BKN005"
    },
    {
      "icao": "LIPR",
      "alert": "OK",
      "vis_m": 9999,
      "fzfg": false,
      "metar_trigger": false,
      "taf_trigger": false,
      "metar": "METAR LIPR 111950Z 22003KT 9999 BKN020 09/08 Q0997",
      "taf": "TAF LIPR 111700Z 1118/1218 VRB05KT 4000 BR SCT020"
    },
    {
      "icao": "LIPX",
      "alert": "OK",
      "vis_m": 9000,
      "fzfg": false,
      "metar_trigger": false,
      "taf_trigger": false,
      "metar": "METAR LIPX 111950Z 22005KT 9000 SCT070 08/08 Q0996",
      "taf": "TAF LIPX 111700Z 1118/1218 VRB05KT 8000 BKN014"
    },
    {
      "icao": "LIPY",
      "alert": "OK",
      "vis_m": 7000,
      "fzfg": false,
      "metar_trigger": false,
      "taf_trigger": false,
      "metar": "METAR LIPY 111950Z AUTO 01004KT 7000 BKN008/// BKN067/// 10/09 Q0997",
      "taf": "TAF LIPY 111700Z 1118/1218 VRB05KT 4000 BR SCT040"
    },
    {
      "icao": "LIPZ",
      "alert": "OK",
      "vis_m": 9999,
      "fzfg": false,
      "metar_trigger": false,
      "taf_trigger": false,
      "metar": "METAR LIPZ 111950Z 06002KT 9999 SCT050 09/09 Q0996 NOSIG",
      "taf": "TAF LIPZ 111700Z 1118/1224 VRB05KT 7000 BKN010"
    },
    {
      "icao": "LIRF",
      "alert": "OK",
      "vis_m": 9999,
      "fzfg": false,
      "metar_trigger": false,
      "taf_trigger": false,
      "metar": "METAR LIRF 111950Z 10004KT CAVOK 12/12 Q0999 NOSIG",
      "taf": "TAF LIRF 111700Z 1118/1224 VRB05KT 9999 SCT020"
    },
    {
      "icao": "LIRN",
      "alert": "OK",
      "vis_m": 9999,
      "fzfg": false,
      "metar_trigger": false,
      "taf_trigger": false,
      "metar": "METAR LIRN 111950Z VRB02KT 9999 FEW015 SCT060 12/11 Q1000 NOSIG",
      "taf": "TAF LIRN 111700Z 1118/1218 VRB05KT 9999 SCT020"
    },
    {
      "icao": "LIRP",
      "alert": "OK",
      "vis_m": 9999,
      "fzfg": false,
      "metar_trigger": false,
      "taf_trigger": false,
      "metar": "METAR LIRP 111945Z 30009KT 9999 BKN040 14/12 Q0997 NOSIG",
      "taf": "TAF LIRP 111700Z 1118/1218 VRB03KT 9999 FEW020"
    },
    {
      "icao": "LIRZ",
      "alert": "OK",
      "vis_m": 9999,
      "fzfg": false,
      "metar_trigger": false,
      "taf_trigger": false,
      "metar": "METAR LIRZ 111950Z AUTO VRB02KT 9999 BKN026/// 11/10 Q0998",
      "taf": "TAF LIRZ 111700Z 1118/1218 19008KT 9999 BKN030"
    },
    {
      "icao": "LJLJ",
      "alert": "OK",
      "vis_m": 9999,
      "fzfg": false,
      "metar_trigger": false,
      "taf_trigger": false,
      "metar": "METAR LJLJ 112000Z VRB01KT 9999 3000SE MIFG FEW001 SCT040 BKN055 06/06 Q0995 NOSIG",
      "taf": "TAF LJLJ 111700Z 1118/1218 VRB02KT 9999 FEW003 SCT030 BKN045"
    },
    {
      "icao": "LKMT",
      "alert": "OK",
      "vis_m": 9999,
      "fzfg": false,
      "metar_trigger": false,
      "taf_trigger": false,
      "metar": "METAR LKMT 112000Z 23010KT 9999 -RA FEW024 BKN043 06/04 Q0988 NOSIG",
      "taf": "TAF LKMT 111700Z 1118/1218 22012KT 9999 BKN022"
    },
    {
      "icao": "LKPR",
      "alert": "OK",
      "vis_m": 9999,
      "fzfg": false,
      "metar_trigger": false,
      "taf_trigger": false,
      "metar": "METAR LKPR 112000Z 21014KT 9999 -RA FEW045 07/06 Q0986 NOSIG",
      "taf": "TAF LKPR 112000Z 1121/1303 22014KT 9999 BKN040"
    },
    {
      "icao": "LLBG",
      "alert": "OK",
      "vis_m": 9999,
      "fzfg": false,
      "metar_trigger": false,
      "taf_trigger": false,
      "metar": "METAR LLBG 111950Z 15007KT CAVOK 15/11 Q1016 NOSIG RMK SCT075",
      "taf": "TAF LLBG 111702Z 1118/1218 VRB04KT CAVOK"
    },
    {
      "icao": "LMML",
      "alert": "OK",
      "vis_m": 9999,
      "fzfg": false,
      "metar_trigger": false,
      "taf_trigger": false,
      "metar": "METAR LMML 112015Z 27015KT CAVOK 16/12 Q1008 NOSIG",
      "taf": "TAF LMML 111700Z 1118/1218 23025G35KT 9999 FEW020"
    },
    {
      "icao": "LOWW",
      "alert": "OK",
      "vis_m": 8000,
      "fzfg": false,
      "metar_trigger": false,
      "taf_trigger": false,
      "metar": "METAR LOWW 111950Z 18011KT 8000 FEW044 SCT046 06/05 Q0992 BECMG 21008KT",
      "taf": "TAF LOWW 112015Z 1121/1303 20008KT 9999 FEW050 TX08/1303Z TN03/1203Z"
    },
    {
      "icao": "LPFR",
      "alert": "OK",
      "vis_m": 5000,
      "fzfg": false,
      "metar_trigger": false,
      "taf_trigger": false,
      "metar": "METAR LPFR 112000Z 25015KT 5000 -DZ BR OVC006 15/15 Q1021",
      "taf": "TAF LPFR 111700Z 1118/1218 25012KT 8000 SCT008 BKN015"
    },
    {
      "icao": "LPMA",
      "alert": "OK",
      "vis_m": 9999,
      "fzfg": false,
      "metar_trigger": false,
      "taf_trigger": false,
      "metar": "METAR LPMA 112000Z 04005KT 9999 BKN015 18/12 Q1027",
      "taf": "TAF LPMA 111700Z 1118/1218 04010KT 9999 FEW015 SCT030"
    },
    {
      "icao": "LPPR",
      "alert": "OK",
      "vis_m": 9999,
      "fzfg": false,
      "metar_trigger": false,
      "taf_trigger": false,
      "metar": "METAR LPPR 112000Z 28008G21KT 9999 SCT012 BKN025 15/11 Q1013",
      "taf": "TAF LPPR 111700Z 1118/1218 26012KT 9999 BKN020"
    },
    {
      "icao": "LPPS",
      "alert": "OK",
      "vis_m": 9999,
      "fzfg": false,
      "metar_trigger": false,
      "taf_trigger": false,
      "metar": "METAR LPPS 112000Z 31007KT 9999 SCT015 BKN030 17/13 Q1027",
      "taf": "TAF LPPS 111700Z 1118/1224 27007KT 9999 FEW015 BKN030"
    },
    {
      "icao": "LPPT",
      "alert": "OK",
      "vis_m": 9999,
      "fzfg": false,
      "metar_trigger": false,
      "taf_trigger": false,
      "metar": "METAR LPPT 112000Z 27013KT 9999 FEW002 SCT006 BKN012 16/15 Q1018",
      "taf": "TAF LPPT 111700Z 1118/1224 24015KT 5000 BR SCT003 BKN006"
    },
    {
      "icao": "LQBK",
      "alert": "OK",
      "vis_m": 7000,
      "fzfg": false,
      "metar_trigger": false,
      "taf_trigger": false,
      "metar": "METAR LQBK 112000Z 18003KT 7000 NSC 07/07 Q0995 NOSIG",
      "taf": "TAF LQBK 111700Z 1118/1218 16005KT 7000 SCT045 TX13/1213Z TN06/1205Z"
    },
    {
      "icao": "LQSA",
      "alert": "OK",
      "vis_m": 9999,
      "fzfg": false,
      "metar_trigger": false,
      "taf_trigger": false,
      "metar": "METAR LQSA 112000Z 30004KT CAVOK 07/05 Q0997 NOSIG",
      "taf": "TAF LQSA 111700Z 1118/1218 11005KT 9999 BKN050 TX13/1213Z TN04/1205Z"
    },
    {
      "icao": "LQTZ",
      "alert": "OK",
      "vis_m": 9999,
      "fzfg": false,
      "metar_trigger": false,
      "taf_trigger": false,
      "metar": "METAR LQTZ 112000Z VRB02KT 9999 SCT065 08/05 Q0996",
      "taf": "TAF LQTZ 111700Z 1118/1218 VRB02KT 9999 SCT060 TX15/1213Z TN04/1205Z"
    },
    {
      "icao": "LRBC",
      "alert": "OK",
      "vis_m": 1000,
      "fzfg": false,
      "metar_trigger": false,
      "taf_trigger": false,
      "metar": "METAR LRBC 112000Z COR 17010KT 1000 R16/1200D BR VV002 01/01 Q0999",
      "taf": ""
    },
    {
      "icao": "LRBS",
      "alert": "OK",
      "vis_m": 5000,
      "fzfg": false,
      "metar_trigger": false,
      "taf_trigger": false,
      "metar": "METAR LRBS 112000Z 00000KT 5000 BR NSC 00/M01 Q1002 BECMG 3000 BR",
      "taf": "TAF LRBS 111700Z 1118/1218 VRB04KT CAVOK"
    },
    {
      "icao": "LRBV",
      "alert": "OK",
      "vis_m": 9999,
      "fzfg": false,
      "metar_trigger": false,
      "taf_trigger": false,
      "metar": "METAR LRBV 112000Z 11007KT 080V180 CAVOK 02/M01 Q0998",
      "taf": "TAF LRBV 111700Z 1118/1203 21007KT CAVOK"
    },
    {
      "icao": "LRCL",
      "alert": "OK",
      "vis_m": 9999,
      "fzfg": false,
      "metar_trigger": false,
      "taf_trigger": false,
      "metar": "METAR LRCL 112000Z 10005KT 060V140 CAVOK 06/02 Q0996",
      "taf": "TAF LRCL 111700Z 1118/1203 10006KT CAVOK"
    },
    {
      "icao": "LRCV",
      "alert": "OK",
      "vis_m": 5000,
      "fzfg": false,
      "metar_trigger": false,
      "taf_trigger": false,
      "metar": "METAR LRCV 112000Z 34002KT 5000 BR NSC M00/M01 Q1001",
      "taf": "TAF LRCV 111700Z 1118/1203 VRB04KT 7000 SCT015"
    },
    {
      "icao": "LRIA",
      "alert": "OK",
      "vis_m": 9999,
      "fzfg": false,
      "metar_trigger": false,
      "taf_trigger": false,
      "metar": "METAR LRIA 112000Z 12011KT 110V180 CAVOK 02/01 Q0999",
      "taf": "TAF LRIA 111700Z 1118/1203 16010KT 9999 BKN015"
    },
    {
      "icao": "LROP",
      "alert": "OK",
      "vis_m": 6000,
      "fzfg": false,
      "metar_trigger": false,
      "taf_trigger": false,
      "metar": "METAR LROP 112000Z 28003KT 6000 NSC M00/M00 Q1002 BECMG 3000 BR",
      "taf": "TAF LROP 111700Z 1118/1218 VRB04KT CAVOK"
    },
    {
      "icao": "LRSB",
      "alert": "OK",
      "vis_m": 9999,
      "fzfg": false,
      "metar_trigger": false,
      "taf_trigger": false,
      "metar": "METAR LRSB 112000Z 23003KT 120V270 CAVOK 00/M02 Q0997",
      "taf": "TAF LRSB 111700Z 1118/1218 VRB04KT CAVOK"
    },
    {
      "icao": "LRSM",
      "alert": "OK",
      "vis_m": 9999,
      "fzfg": false,
      "metar_trigger": false,
      "taf_trigger": false,
      "metar": "METAR LRSM 112000Z AUTO 17006KT 9999 SCT055/// OVC070/// 07/03 Q0996",
      "taf": "TAF LRSM 111400Z 1115/1124 14007KT CAVOK"
    },
    {
      "icao": "LRSV",
      "alert": "OK",
      "vis_m": 9999,
      "fzfg": false,
      "metar_trigger": false,
      "taf_trigger": false,
      "metar": "METAR LRSV 112000Z 22009KT CAVOK 01/M00 Q0995",
      "taf": "TAF LRSV 111700Z 1118/1203 19008KT CAVOK"
    },
    {
      "icao": "LRTM",
      "alert": "OK",
      "vis_m": 9999,
      "fzfg": false,
      "metar_trigger": false,
      "taf_trigger": false,
      "metar": "METAR LRTM 112000Z AUTO 06004KT 040V100 9999 NCD 04/01 Q0997",
      "taf": "TAF LRTM 111700Z 1118/1203 VRB04KT CAVOK"
    },
    {
      "icao": "LRTR",
      "alert": "OK",
      "vis_m": 9999,
      "fzfg": false,
      "metar_trigger": false,
      "taf_trigger": false,
      "metar": "METAR LRTR 112000Z 09006KT CAVOK 05/03 Q0997",
      "taf": "TAF LRTR 111700Z 1118/1218 12006KT CAVOK"
    },
    {
      "icao": "LTAC",
      "alert": "OK",
      "vis_m": 9999,
      "fzfg": false,
      "metar_trigger": false,
      "taf_trigger": false,
      "metar": "METAR LTAC 111950Z 16004KT 9999 SCT029 BKN090 04/02 Q1009 NOSIG RMK RWY21C 17005KT RWY03L VRB02KT RWY21R VRB02KT RWY03R 15004KT RWY21L 17006KT",
      "taf": "TAF LTAC 111640Z 1118/1218 VRB02KT 9999 SCT040 SCT100"
    },
    {
      "icao": "LTFM",
      "alert": "OK",
      "vis_m": 9999,
      "fzfg": false,
      "metar_trigger": false,
      "taf_trigger": false,
      "metar": "METAR LTFM 111950Z 15005KT 9999 SCT040 BKN070 08/05 Q1006 NOSIG RMK RWY17L 18009KT RWY34L 15004KT 120V180 RWY16R 16008KT RWY36 16005KT RWY18 17007KT",
      "taf": ""
    },
    {
      "icao": "LUKK",
      "alert": "OK",
      "vis_m": 9999,
      "fzfg": false,
      "metar_trigger": false,
      "taf_trigger": false,
      "metar": "METAR LUKK 112000Z 18009KT 9999 OVC016 02/01 Q1001 NOSIG",
      "taf": "TAF LUKK 111700Z 1118/1218 16009KT 9999 OVC018"
    },
    {
      "icao": "LWOH",
      "alert": "OK",
      "vis_m": 9999,
      "fzfg": false,
      "metar_trigger": false,
      "taf_trigger": false,
      "metar": "METAR LWOH 111950Z 02004KT 350V050 9999 -RA SCT016 OVC038 07/05 Q0999",
      "taf": "TAF LWOH 111735Z 1118/1218 VRB02KT 9999 BKN045"
    },
    {
      "icao": "LWSK",
      "alert": "OK",
      "vis_m": 9999,
      "fzfg": false,
      "metar_trigger": false,
      "taf_trigger": false,
      "metar": "METAR LWSK 112020Z 14004KT 120V180 9999 SCT023 SCT055 08/05 Q1001 NOSIG",
      "taf": "TAF LWSK 111735Z 1118/1218 14008KT 9999 FEW025 SCT040 BKN070"
    },
    {
      "icao": "LYBE",
      "alert": "OK",
      "vis_m": 9999,
      "fzfg": false,
      "metar_trigger": false,
      "taf_trigger": false,
      "metar": "METAR LYBE 112000Z 14006KT CAVOK 09/05 Q0996 NOSIG",
      "taf": "TAF LYBE 111700Z 1118/1218 13008KT CAVOK TX18/1212Z TN04/1206Z"
    },
    {
      "icao": "LYNI",
      "alert": "OK",
      "vis_m": 9999,
      "fzfg": false,
      "metar_trigger": false,
      "taf_trigger": false,
      "metar": "METAR LYNI 112000Z 18004KT 140V220 9999 FEW090 08/05 Q0999 NOSIG",
      "taf": "TAF LYNI 111700Z 1118/1218 12005KT 9999 SCT050 TX14/1212Z TN03/1206Z"
    },
    {
      "icao": "LYPG",
      "alert": "OK",
      "vis_m": 5000,
      "fzfg": false,
      "metar_trigger": false,
      "taf_trigger": false,
      "metar": "METAR LYPG 112000Z 28002KT 5000 -RA BR FEW030 SCT050 OVC070 09/09 Q0998 NOSIG",
      "taf": "TAF LYPG 111700Z 1118/1218 36005KT 8000 FEW007 BKN040 OVC070 TX11/1213Z TN08/1205Z"
    },
    {
      "icao": "LZIB",
      "alert": "OK",
      "vis_m": 4200,
      "fzfg": false,
      "metar_trigger": false,
      "taf_trigger": false,
      "metar": "METAR LZIB 112000Z 02003KT 4200 -RA BR FEW005 04/03 Q0992 NOSIG",
      "taf": "TAF LZIB 111715Z 1118/1218 03006KT 7000 SCT004 BKN025"
    },
    {
      "icao": "LZKZ",
      "alert": "OK",
      "vis_m": 900,
      "fzfg": false,
      "metar_trigger": false,
      "taf_trigger": false,
      "metar": "METAR LZKZ 112000Z 17003KT 0900 R01/1700N FG OVC009 01/01 Q0993 NOSIG",
      "taf": "TAF LZKZ 111715Z 1118/1218 21005KT 3500 BR BKN006 OVC010"
    },
    {
      "icao": "LZTT",
      "alert": "OK",
      "vis_m": 9999,
      "fzfg": false,
      "metar_trigger": false,
      "taf_trigger": false,
      "metar": "METAR LZTT 112000Z 25012KT 9999 FEW020 SCT036 03/00 Q0990",
      "taf": ""
    },
    {
      "icao": "OEJN",
      "alert": "OK",
      "vis_m": 9999,
      "fzfg": false,
      "metar_trigger": false,
      "taf_trigger": false,
      "metar": "METAR OEJN 112000Z 32007KT CAVOK 26/19 Q1014 NOSIG",
      "taf": "TAF OEJN 111700Z 1118/1224 36006KT 7000 NSC"
    },
    {
      "icao": "OEMA",
      "alert": "OK",
      "vis_m": 9999,
      "fzfg": false,
      "metar_trigger": false,
      "taf_trigger": false,
      "metar": "METAR OEMA 112000Z 24008KT CAVOK 26/08 Q1017 NOSIG",
      "taf": "TAF OEMA 111700Z 1118/1224 VRB03KT CAVOK"
    },
    {
      "icao": "OJAI",
      "alert": "OK",
      "vis_m": 4000,
      "fzfg": false,
      "metar_trigger": false,
      "taf_trigger": false,
      "metar": "METAR OJAI 112000Z 27006KT 4000 HZ NSC 10/06 Q1017 NOSIG",
      "taf": "TAF OJAI 111700Z 1118/1224 25012KT 5000 HZ FEW035"
    },
    {
      "icao": "OMAA",
      "alert": "OK",
      "vis_m": 8000,
      "fzfg": false,
      "metar_trigger": false,
      "taf_trigger": false,
      "metar": "METAR OMAA 112000Z 36004KT 8000 NSC 22/18 Q1017 NOSIG",
      "taf": "TAF OMAA 111700Z 1118/1300 01006KT 8000 NSC"
    },
    {
      "icao": "OMDB",
      "alert": "OK",
      "vis_m": 9999,
      "fzfg": false,
      "metar_trigger": false,
      "taf_trigger": false,
      "metar": "METAR OMDB 112000Z 08006KT 050V110 CAVOK 23/15 Q1017 NOSIG",
      "taf": "TAF OMDB 111700Z 1118/1300 09007KT 8000 NSC"
    },
    {
      "icao": "UAAA",
      "alert": "OK",
      "vis_m": 1600,
      "fzfg": false,
      "metar_trigger": false,
      "taf_trigger": false,
      "metar": "SPECI UAAA 112010Z 36004MPS 1600 R05R/P2000 BR OVC002 M02/M02 Q1022 NOSIG RMK QBB060",
      "taf": "TAF UAAA 111702Z 1118/1218 02003G08MPS 1500 -SN BR BKN011 OVC020 TX00/1209Z TNM03/1203Z"
    },
    {
      "icao": "UBBB",
      "alert": "OK",
      "vis_m": 9999,
      "fzfg": false,
      "metar_trigger": false,
      "taf_trigger": false,
      "metar": "METAR UBBB 112000Z 13006KT 9999 OVC023 04/03 Q1016 NOSIG",
      "taf": "TAF UBBB 111702Z 1118/1218 16005KT 9999 SCT012 BKN030 TX07/1210Z TN00/1201Z"
    },
    {
      "icao": "UDSG",
      "alert": "OK",
      "vis_m": 4300,
      "fzfg": false,
      "metar_trigger": false,
      "taf_trigger": false,
      "metar": "METAR UDSG 112000Z 16001KT 4300 BR OVC008 M01/M01 Q1014 NOSIG",
      "taf": "TAF UDSG 111658Z 1118/1218 VRB06KT 3000 BR OVC020"
    },
    {
      "icao": "UDYZ",
      "alert": "OK",
      "vis_m": 3500,
      "fzfg": false,
      "metar_trigger": false,
      "taf_trigger": false,
      "metar": "METAR UDYZ 112000Z VRB01KT 3500 BR BKN020CB 02/02 Q1014 NOSIG",
      "taf": "TAF UDYZ 111700Z 1118/1218 VRB04KT 6000 BKN020"
    },
    {
      "icao": "UGKO",
      "alert": "OK",
      "vis_m": 9999,
      "fzfg": false,
      "metar_trigger": false,
      "taf_trigger": false,
      "metar": "METAR UGKO 112000Z 10014KT 9999 BKN053 06/00 Q1013 NOSIG",
      "taf": "TAF UGKO 111700Z 1118/1218 08015KT 9999 BKN050 TX17/1211Z TN04/1202Z"
    }
  ]
}