{
  "ts_utc": "2026-07-11T01:09:55Z",
  "threshold_m": 150,
  "source": "stations_override.txt (ICAO list) + aviationweather.gov (METAR/TAF raw)",
  "station_count": 159,
  "stations": [
    {
      "icao": "BIKF",
      "alert": "OK",
      "vis_m": 9999,
      "fzfg": false,
      "metar_trigger": false,
      "taf_trigger": false,
      "metar": "METAR BIKF 110100Z 17014KT 9999 BKN018 OVC033 10/08 Q1017",
      "taf": "TAF BIKF 101911Z 1021/1121 22014KT 9999 SCT014 BKN026 TX12/1115Z TN10/1102Z"
    },
    {
      "icao": "BKPR",
      "alert": "OK",
      "vis_m": 9999,
      "fzfg": false,
      "metar_trigger": false,
      "taf_trigger": false,
      "metar": "METAR BKPR 110100Z VRB01KT CAVOK 13/09 Q1019 NOSIG",
      "taf": "TAF BKPR 101730Z 1018/1118 35006KT CAVOK"
    },
    {
      "icao": "EBCI",
      "alert": "OK",
      "vis_m": 9999,
      "fzfg": false,
      "metar_trigger": false,
      "taf_trigger": false,
      "metar": "METAR EBCI 110050Z 05006KT CAVOK 19/14 Q1018 NOSIG",
      "taf": "TAF EBCI 101700Z 1018/1124 05010KT CAVOK"
    },
    {
      "icao": "EDDB",
      "alert": "OK",
      "vis_m": 9999,
      "fzfg": false,
      "metar_trigger": false,
      "taf_trigger": false,
      "metar": "METAR EDDB 110050Z AUTO 02004KT CAVOK 14/10 Q1019 NOSIG",
      "taf": "TAF EDDB 101700Z 1018/1118 36009KT CAVOK"
    },
    {
      "icao": "EDDH",
      "alert": "OK",
      "vis_m": 9999,
      "fzfg": false,
      "metar_trigger": false,
      "taf_trigger": false,
      "metar": "METAR EDDH 110050Z AUTO 32003KT 9999 R05/1200U FEW009 15/15 Q1019 TEMPO 4500 BCFG",
      "taf": "TAF EDDH 101700Z 1018/1124 34006KT 9999 FEW040"
    },
    {
      "icao": "EDDK",
      "alert": "OK",
      "vis_m": 9999,
      "fzfg": false,
      "metar_trigger": false,
      "taf_trigger": false,
      "metar": "METAR EDDK 110050Z AUTO 06005KT CAVOK 15/13 Q1018 NOSIG",
      "taf": "TAF EDDK 101700Z 1018/1124 03010KT CAVOK"
    },
    {
      "icao": "EDDN",
      "alert": "OK",
      "vis_m": 9999,
      "fzfg": false,
      "metar_trigger": false,
      "taf_trigger": false,
      "metar": "METAR EDDN 110050Z AUTO 01003KT CAVOK 16/11 Q1017",
      "taf": "TAF EDDN 101700Z 1018/1118 VRB03KT CAVOK"
    },
    {
      "icao": "EDDS",
      "alert": "OK",
      "vis_m": 9999,
      "fzfg": false,
      "metar_trigger": false,
      "taf_trigger": false,
      "metar": "METAR EDDS 110050Z AUTO VRB02KT CAVOK 20/12 Q1016",
      "taf": "TAF EDDS 101700Z 1018/1118 01008KT CAVOK"
    },
    {
      "icao": "EDFH",
      "alert": "OK",
      "vis_m": 9999,
      "fzfg": false,
      "metar_trigger": false,
      "taf_trigger": false,
      "metar": "METAR EDFH 110050Z 07005KT 030V110 CAVOK 18/11 Q1019",
      "taf": "TAF EDFH 101700Z 1018/1118 05008KT CAVOK"
    },
    {
      "icao": "EDJA",
      "alert": "OK",
      "vis_m": 9999,
      "fzfg": false,
      "metar_trigger": false,
      "taf_trigger": false,
      "metar": "METAR EDJA 110050Z AUTO 00000KT 9999 // NCD 14/11 Q1017",
      "taf": "TAF EDJA 101700Z 1018/1103 06005KT CAVOK"
    },
    {
      "icao": "EDLW",
      "alert": "OK",
      "vis_m": 9999,
      "fzfg": false,
      "metar_trigger": false,
      "taf_trigger": false,
      "metar": "METAR EDLW 110050Z AUTO 00000KT 9999 // NCD 15/11 Q1019",
      "taf": "TAF EDLW 101700Z 1018/1118 04008KT CAVOK"
    },
    {
      "icao": "EDNY",
      "alert": "OK",
      "vis_m": 9999,
      "fzfg": false,
      "metar_trigger": false,
      "taf_trigger": false,
      "metar": "METAR EDNY 110050Z AUTO 06005KT 9999 // NCD 20/11 Q1016",
      "taf": "TAF EDNY 101700Z 1018/1103 04005KT CAVOK"
    },
    {
      "icao": "EDSB",
      "alert": "OK",
      "vis_m": 9999,
      "fzfg": false,
      "metar_trigger": false,
      "taf_trigger": false,
      "metar": "METAR EDSB 110050Z AUTO 02009KT 9999 NCD 21/13 Q1015",
      "taf": "TAF EDSB 101700Z 1018/1118 02006KT CAVOK"
    },
    {
      "icao": "EETN",
      "alert": "OK",
      "vis_m": 9999,
      "fzfg": false,
      "metar_trigger": false,
      "taf_trigger": false,
      "metar": "METAR EETN 110050Z 02005KT CAVOK 17/12 Q1017",
      "taf": "TAF EETN 101730Z 1018/1118 05008KT CAVOK"
    },
    {
      "icao": "EFTU",
      "alert": "OK",
      "vis_m": 1700,
      "fzfg": false,
      "metar_trigger": false,
      "taf_trigger": false,
      "metar": "METAR EFTU 110050Z AUTO VRB01KT 1700 0400 R26/P2000D BR NCD 11/11 Q1019",
      "taf": "TAF EFTU 102028Z 1021/1121 VRB02KT CAVOK"
    },
    {
      "icao": "EGBB",
      "alert": "OK",
      "vis_m": 9999,
      "fzfg": false,
      "metar_trigger": false,
      "taf_trigger": false,
      "metar": "METAR EGBB 110050Z 05004KT 010V080 CAVOK 20/13 Q1021",
      "taf": "TAF EGBB 101653Z 1018/1118 09010KT CAVOK"
    },
    {
      "icao": "EGGP",
      "alert": "OK",
      "vis_m": 9999,
      "fzfg": false,
      "metar_trigger": false,
      "taf_trigger": false,
      "metar": "METAR EGGP 110050Z 13003KT CAVOK 19/17 Q1021",
      "taf": "TAF EGGP 101700Z 1018/1118 26012KT CAVOK"
    },
    {
      "icao": "EGGW",
      "alert": "OK",
      "vis_m": 9999,
      "fzfg": false,
      "metar_trigger": false,
      "taf_trigger": false,
      "metar": "METAR EGGW 110050Z AUTO 08006KT 9999 NCD 17/12 Q1020",
      "taf": "TAF EGGW 101659Z 1018/1118 10010KT CAVOK"
    },
    {
      "icao": "EGKK",
      "alert": "OK",
      "vis_m": 9999,
      "fzfg": false,
      "metar_trigger": false,
      "taf_trigger": false,
      "metar": "METAR EGKK 110050Z 07005KT CAVOK 18/15 Q1019",
      "taf": "TAF EGKK 101656Z 1018/1124 07010KT CAVOK"
    },
    {
      "icao": "EGNM",
      "alert": "OK",
      "vis_m": 9999,
      "fzfg": false,
      "metar_trigger": false,
      "taf_trigger": false,
      "metar": "METAR EGNM 110050Z 06003KT 020V090 CAVOK 16/14 Q1023",
      "taf": "TAF EGNM 101659Z 1018/1118 08009KT CAVOK"
    },
    {
      "icao": "EGPD",
      "alert": "OK",
      "vis_m": 3600,
      "fzfg": false,
      "metar_trigger": false,
      "taf_trigger": false,
      "metar": "METAR EGPD 110050Z AUTO 05003KT 360V110 3600 BR OVC001 14/14 Q1025",
      "taf": ""
    },
    {
      "icao": "EGPF",
      "alert": "OK",
      "vis_m": 9999,
      "fzfg": false,
      "metar_trigger": false,
      "taf_trigger": false,
      "metar": "METAR EGPF 110050Z AUTO 07007KT 9999 BKN010 17/15 Q1023",
      "taf": "TAF EGPF 101657Z 1018/1118 06012KT 9999 FEW025"
    },
    {
      "icao": "EHBK",
      "alert": "OK",
      "vis_m": 9999,
      "fzfg": false,
      "metar_trigger": false,
      "taf_trigger": false,
      "metar": "METAR EHBK 110055Z AUTO 04008KT 9999 NCD 18/14 Q1018",
      "taf": "TAF EHBK 101717Z 1018/1124 03011KT CAVOK"
    },
    {
      "icao": "EHEH",
      "alert": "OK",
      "vis_m": 9999,
      "fzfg": false,
      "metar_trigger": false,
      "taf_trigger": false,
      "metar": "METAR EHEH 110055Z AUTO 04005KT 010V070 9999 NCD 19/16 Q1019 BLU",
      "taf": "TAF EHEH 101717Z 1018/1124 04007KT CAVOK"
    },
    {
      "icao": "EKBI",
      "alert": "OK",
      "vis_m": 9999,
      "fzfg": false,
      "metar_trigger": false,
      "taf_trigger": false,
      "metar": "METAR EKBI 110050Z AUTO 33003KT 9999 NCD 14/13 Q1021",
      "taf": "TAF EKBI 102027Z 1021/1121 30005KT 9999 FEW030"
    },
    {
      "icao": "EKCH",
      "alert": "OK",
      "vis_m": 9999,
      "fzfg": false,
      "metar_trigger": false,
      "taf_trigger": false,
      "metar": "METAR EKCH 110050Z AUTO 13001KT 9999 NCD 16/13 Q1020 NOSIG",
      "taf": "TAF EKCH 102027Z 1021/1121 34008KT CAVOK"
    },
    {
      "icao": "ENAL",
      "alert": "OK",
      "vis_m": 9999,
      "fzfg": false,
      "metar_trigger": false,
      "taf_trigger": false,
      "metar": "METAR ENAL 110050Z AUTO VRB02KT 9999 OVC033/// 12/11 Q1024",
      "taf": "TAF ENAL 102000Z 1021/1106 27008KT 9000 BKN004"
    },
    {
      "icao": "ENBR",
      "alert": "OK",
      "vis_m": 9999,
      "fzfg": false,
      "metar_trigger": false,
      "taf_trigger": false,
      "metar": "METAR ENBR 110050Z 33007KT 9999 OVC002 14/14 Q1023 RMK WIND 1200FT 32011KT",
      "taf": "TAF ENBR 101700Z 1018/1118 33010KT CAVOK"
    },
    {
      "icao": "ENGM",
      "alert": "OK",
      "vis_m": 9999,
      "fzfg": false,
      "metar_trigger": false,
      "taf_trigger": false,
      "metar": "METAR ENGM 110050Z 05006KT 9999 -RA FEW002 18/17 Q1020",
      "taf": "TAF ENGM 101700Z 1018/1118 VRB03KT CAVOK"
    },
    {
      "icao": "ENHD",
      "alert": "OK",
      "vis_m": 200,
      "fzfg": false,
      "metar_trigger": false,
      "taf_trigger": false,
      "metar": "METAR ENHD 110050Z AUTO 35013KT 0200 R13/0650N R31/0900N FG VV001 14/13 Q1023",
      "taf": "TAF ENHD 101400Z 1015/1022 34015KT CAVOK"
    },
    {
      "icao": "ENTC",
      "alert": "OK",
      "vis_m": 9999,
      "fzfg": false,
      "metar_trigger": false,
      "taf_trigger": false,
      "metar": "METAR ENTC 110050Z AUTO VRB02KT 9999 -RA OVC043/// 13/11 Q1018 RMK WIND 2600FT 20015KT",
      "taf": "TAF ENTC 101700Z 1018/1118 20009KT 9999 BKN040"
    },
    {
      "icao": "ENTO",
      "alert": "OK",
      "vis_m": 4100,
      "fzfg": false,
      "metar_trigger": false,
      "taf_trigger": false,
      "metar": "METAR ENTO 110050Z AUTO 20004KT 170V230 4100 // NCD 18/15 Q1019",
      "taf": "TAF ENTO 101700Z 1018/1118 18006KT CAVOK"
    },
    {
      "icao": "ENVA",
      "alert": "OK",
      "vis_m": 9999,
      "fzfg": false,
      "metar_trigger": false,
      "taf_trigger": false,
      "metar": "METAR ENVA 110050Z 29006KT 9999 -DZ FEW007 SCT011 BKN015 14/14 Q1023 RMK WIND 670FT 28009KT",
      "taf": ""
    },
    {
      "icao": "ENZV",
      "alert": "OK",
      "vis_m": 9999,
      "fzfg": false,
      "metar_trigger": false,
      "taf_trigger": false,
      "metar": "METAR ENZV 110050Z AUTO 36009KT 9999 NCD 17/15 Q1022",
      "taf": "TAF ENZV 101700Z 1018/1118 31012KT CAVOK"
    },
    {
      "icao": "EPGD",
      "alert": "OK",
      "vis_m": 9999,
      "fzfg": false,
      "metar_trigger": false,
      "taf_trigger": false,
      "metar": "METAR EPGD 110100Z 31011KT 9999 OVC004 13/13 Q1017",
      "taf": "TAF EPGD 101730Z 1018/1118 34010KT 9999 BKN014"
    },
    {
      "icao": "EPKK",
      "alert": "OK",
      "vis_m": 9999,
      "fzfg": false,
      "metar_trigger": false,
      "taf_trigger": false,
      "metar": "METAR EPKK 110100Z 20003KT 9999 FEW056 15/12 Q1015",
      "taf": "TAF EPKK 102030Z 1021/1121 23003KT CAVOK"
    },
    {
      "icao": "EPKT",
      "alert": "OK",
      "vis_m": 9999,
      "fzfg": false,
      "metar_trigger": false,
      "taf_trigger": false,
      "metar": "METAR EPKT 110100Z VRB01KT CAVOK 13/12 Q1016",
      "taf": "TAF EPKT 101730Z 1018/1118 26010KT CAVOK"
    },
    {
      "icao": "EPLB",
      "alert": "OK",
      "vis_m": 9999,
      "fzfg": false,
      "metar_trigger": false,
      "taf_trigger": false,
      "metar": "METAR EPLB 110100Z 31006KT 9999 BKN005 14/14 Q1013",
      "taf": "TAF EPLB 101730Z 1018/1118 30010KT 9999 BKN035"
    },
    {
      "icao": "EPMO",
      "alert": "OK",
      "vis_m": 5000,
      "fzfg": false,
      "metar_trigger": false,
      "taf_trigger": false,
      "metar": "METAR EPMO 110100Z 31005KT 5000 BR BKN002 13/13 Q1014",
      "taf": "TAF EPMO 101730Z 1018/1118 32010KT 9999 SCT035"
    },
    {
      "icao": "EPPO",
      "alert": "OK",
      "vis_m": 9999,
      "fzfg": false,
      "metar_trigger": false,
      "taf_trigger": false,
      "metar": "METAR EPPO 110100Z 35004KT 9999 BKN021 15/12 Q1017",
      "taf": "TAF EPPO 101730Z 1018/1118 35008KT CAVOK"
    },
    {
      "icao": "EPRA",
      "alert": "OK",
      "vis_m": 9999,
      "fzfg": false,
      "metar_trigger": false,
      "taf_trigger": false,
      "metar": "METAR EPRA 110100Z 32006KT 9999 BKN011 14/12 Q1014",
      "taf": "TAF EPRA 102030Z 1021/1106 30006KT 9999 SCT040"
    },
    {
      "icao": "EPRZ",
      "alert": "OK",
      "vis_m": 9999,
      "fzfg": false,
      "metar_trigger": false,
      "taf_trigger": false,
      "metar": "METAR EPRZ 110100Z 27007KT 9999 BKN046 14/13 Q1014",
      "taf": ""
    },
    {
      "icao": "EPSC",
      "alert": "OK",
      "vis_m": 9999,
      "fzfg": false,
      "metar_trigger": false,
      "taf_trigger": false,
      "metar": "METAR EPSC 110100Z VRB01KT CAVOK 15/13 Q1018",
      "taf": "TAF EPSC 101730Z 1018/1118 36008KT CAVOK"
    },
    {
      "icao": "EPSY",
      "alert": "OK",
      "vis_m": 9999,
      "fzfg": false,
      "metar_trigger": false,
      "taf_trigger": false,
      "metar": "METAR EPSY 110100Z 34004KT CAVOK 12/12 Q1014",
      "taf": "TAF EPSY 102030Z 1021/1106 32006KT CAVOK"
    },
    {
      "icao": "EPWA",
      "alert": "OK",
      "vis_m": 9999,
      "fzfg": false,
      "metar_trigger": false,
      "taf_trigger": false,
      "metar": "METAR EPWA 110100Z 30006KT 9999 OVC005 14/13 Q1014 TEMPO OVC003",
      "taf": "TAF EPWA 102030Z 1021/1121 31008KT CAVOK"
    },
    {
      "icao": "EPWR",
      "alert": "OK",
      "vis_m": 9999,
      "fzfg": false,
      "metar_trigger": false,
      "taf_trigger": false,
      "metar": "METAR EPWR 110100Z 32006KT CAVOK 17/11 Q1016",
      "taf": "TAF EPWR 102030Z 1021/1121 33006KT CAVOK"
    },
    {
      "icao": "ESGG",
      "alert": "OK",
      "vis_m": 9999,
      "fzfg": false,
      "metar_trigger": false,
      "taf_trigger": false,
      "metar": "METAR ESGG 110050Z 00000KT CAVOK 19/10 Q1020",
      "taf": "TAF ESGG 102030Z 1021/1121 VRB03KT CAVOK"
    },
    {
      "icao": "ESKN",
      "alert": "OK",
      "vis_m": 200,
      "fzfg": false,
      "metar_trigger": false,
      "taf_trigger": false,
      "metar": "METAR ESKN 110050Z 08003KT 0200 R08/P2000N R26/P2000D BCFG NSC 11/11 Q1020",
      "taf": "TAF ESKN 102030Z 1021/1121 VRB02KT 9999 SCT045"
    },
    {
      "icao": "ESMS",
      "alert": "OK",
      "vis_m": 9999,
      "fzfg": false,
      "metar_trigger": false,
      "taf_trigger": false,
      "metar": "METAR ESMS 110050Z 06002KT CAVOK 12/12 Q1019",
      "taf": "TAF ESMS 102027Z 1021/1121 VRB05KT CAVOK"
    },
    {
      "icao": "ESSA",
      "alert": "OK",
      "vis_m": 9999,
      "fzfg": false,
      "metar_trigger": false,
      "taf_trigger": false,
      "metar": "METAR ESSA 110050Z VRB02KT CAVOK 11/10 Q1020 NOSIG",
      "taf": "TAF ESSA 102030Z 1021/1121 02005KT 9999 SCT030"
    },
    {
      "icao": "EYKA",
      "alert": "OK",
      "vis_m": 9999,
      "fzfg": false,
      "metar_trigger": false,
      "taf_trigger": false,
      "metar": "METAR EYKA 110050Z VRB02KT CAVOK 12/12 Q1013",
      "taf": "TAF EYKA 101706Z 1018/1118 VRB03KT 9000 NSC"
    },
    {
      "icao": "EYPA",
      "alert": "OK",
      "vis_m": 9999,
      "fzfg": false,
      "metar_trigger": false,
      "taf_trigger": false,
      "metar": "METAR EYPA 110050Z 04004KT CAVOK 12/11 Q1016",
      "taf": "TAF EYPA 101703Z 1018/1118 VRB03KT 9000 FEW045"
    },
    {
      "icao": "EYVI",
      "alert": "OK",
      "vis_m": 9999,
      "fzfg": false,
      "metar_trigger": false,
      "taf_trigger": false,
      "metar": "METAR EYVI 110050Z 34003KT 320V020 CAVOK 13/12 Q1013 NOSIG",
      "taf": "TAF EYVI 101709Z 1018/1118 VRB03KT 9000 NSC"
    },
    {
      "icao": "GCFV",
      "alert": "OK",
      "vis_m": 9999,
      "fzfg": false,
      "metar_trigger": false,
      "taf_trigger": false,
      "metar": "METAR GCFV 110100Z AUTO 36011KT CAVOK 23/18 Q1015",
      "taf": "TAF GCFV 102000Z 1021/1121 36010KT 9999 SCT025 TX27/1114Z TN21/1106Z"
    },
    {
      "icao": "GCLP",
      "alert": "OK",
      "vis_m": 9999,
      "fzfg": false,
      "metar_trigger": false,
      "taf_trigger": false,
      "metar": "METAR GCLP 110100Z 36014KT CAVOK 23/16 Q1015 NOSIG",
      "taf": "TAF GCLP 102000Z 1021/1121 36017KT 9999 SCT030 TX26/1114Z TN19/1106Z"
    },
    {
      "icao": "GCTS",
      "alert": "OK",
      "vis_m": 9999,
      "fzfg": false,
      "metar_trigger": false,
      "taf_trigger": false,
      "metar": "METAR GCTS 110100Z 29004KT 9999 FEW025 22/19 Q1016 NOSIG",
      "taf": "TAF GCTS 102000Z 1021/1121 VRB05KT 9999 SCT025 TX27/1114Z TN19/1106Z"
    },
    {
      "icao": "GMAD",
      "alert": "OK",
      "vis_m": 9999,
      "fzfg": false,
      "metar_trigger": false,
      "taf_trigger": false,
      "metar": "METAR GMAD 110100Z 10003KT 9999 BKN020 22/17 Q1012 NOSIG",
      "taf": "TAF GMAD 101700Z 1018/1124 20006KT 8000 FEW020"
    },
    {
      "icao": "GMMN",
      "alert": "OK",
      "vis_m": 9999,
      "fzfg": false,
      "metar_trigger": false,
      "taf_trigger": false,
      "metar": "METAR GMMN 110100Z 31003KT CAVOK 20/15 Q1013 NOSIG",
      "taf": "TAF GMMN 101700Z 1018/1124 32008KT 9999 FEW030"
    },
    {
      "icao": "GMMX",
      "alert": "OK",
      "vis_m": 9999,
      "fzfg": false,
      "metar_trigger": false,
      "taf_trigger": false,
      "metar": "METAR GMMX 110100Z 25005KT CAVOK 21/14 Q1013 NOSIG",
      "taf": "TAF GMMX 101700Z 1018/1124 06006KT CAVOK"
    },
    {
      "icao": "HEGN",
      "alert": "OK",
      "vis_m": 9999,
      "fzfg": false,
      "metar_trigger": false,
      "taf_trigger": false,
      "metar": "METAR HEGN 110000Z 30016KT CAVOK 30/12 Q1009 NOSIG",
      "taf": "TAF HEGN 101700Z 1018/1124 31014KT CAVOK"
    },
    {
      "icao": "HEMA",
      "alert": "OK",
      "vis_m": 9999,
      "fzfg": false,
      "metar_trigger": false,
      "taf_trigger": false,
      "metar": "METAR HEMA 110000Z 30009KT CAVOK 30/07 Q1008 NOSIG",
      "taf": "TAF HEMA 101700Z 1018/1124 30015KT CAVOK"
    },
    {
      "icao": "HESH",
      "alert": "OK",
      "vis_m": 9999,
      "fzfg": false,
      "metar_trigger": false,
      "taf_trigger": false,
      "metar": "METAR HESH 110000Z 34011KT CAVOK 30/17 Q1008 NOSIG",
      "taf": "TAF HESH 101700Z 1018/1124 35012KT CAVOK"
    },
    {
      "icao": "HESX",
      "alert": "OK",
      "vis_m": 9999,
      "fzfg": false,
      "metar_trigger": false,
      "taf_trigger": false,
      "metar": "METAR HESX 110000Z 36003KT CAVOK 23/19 Q1013 NOSIG",
      "taf": "TAF HESX 101700Z 1018/1124 36010KT CAVOK"
    },
    {
      "icao": "LATI",
      "alert": "OK",
      "vis_m": 9999,
      "fzfg": false,
      "metar_trigger": false,
      "taf_trigger": false,
      "metar": "METAR LATI 110050Z VRB02KT CAVOK 18/11 Q1016 NOSIG",
      "taf": "TAF LATI 101700Z 1018/1118 VRB05KT CAVOK TX35/1112Z TN16/1104Z"
    },
    {
      "icao": "LBPD",
      "alert": "OK",
      "vis_m": 9999,
      "fzfg": false,
      "metar_trigger": false,
      "taf_trigger": false,
      "metar": "METAR LBPD 110100Z AUTO 00000KT 9999 NCD 19/08 Q1018",
      "taf": "TAF LBPD 101700Z 1018/1118 31012KT CAVOK"
    },
    {
      "icao": "LBSF",
      "alert": "OK",
      "vis_m": 9999,
      "fzfg": false,
      "metar_trigger": false,
      "taf_trigger": false,
      "metar": "METAR LBSF 110100Z AUTO 00000KT 9999 NCD 11/08 Q1020 NOSIG",
      "taf": "TAF LBSF 101700Z 1018/1118 28010KT CAVOK"
    },
    {
      "icao": "LBWN",
      "alert": "OK",
      "vis_m": 9999,
      "fzfg": false,
      "metar_trigger": false,
      "taf_trigger": false,
      "metar": "METAR LBWN 110100Z AUTO 34003KT 9999 NCD 15/15 Q1016 NOSIG",
      "taf": "TAF LBWN 101700Z 1018/1118 VRB04KT 9999 SCT040"
    },
    {
      "icao": "LCLK",
      "alert": "OK",
      "vis_m": 9999,
      "fzfg": false,
      "metar_trigger": false,
      "taf_trigger": false,
      "metar": "METAR LCLK 110100Z 00000KT CAVOK 24/23 Q1010 NOSIG",
      "taf": "TAF LCLK 101730Z 1018/1118 22012KT 9999 FEW020"
    },
    {
      "icao": "LCPH",
      "alert": "OK",
      "vis_m": 9999,
      "fzfg": false,
      "metar_trigger": false,
      "taf_trigger": false,
      "metar": "METAR LCPH 110100Z AUTO 02006KT 010V080 9999 NCD 23/18 Q1010 NOSIG",
      "taf": "TAF LCPH 101730Z 1018/1118 30010KT 9999 SCT016"
    },
    {
      "icao": "LEAL",
      "alert": "OK",
      "vis_m": 9999,
      "fzfg": false,
      "metar_trigger": false,
      "taf_trigger": false,
      "metar": "METAR LEAL 110100Z 07004KT 9999 BKN013 28/25 Q1011 NOSIG",
      "taf": "TAF LEAL 101700Z 1018/1118 08010KT 9999 FEW020 TX34/1112Z TN23/1106Z"
    },
    {
      "icao": "LEBB",
      "alert": "OK",
      "vis_m": 9999,
      "fzfg": false,
      "metar_trigger": false,
      "taf_trigger": false,
      "metar": "METAR LEBB 110100Z AUTO 06003KT 010V080 9999 OVC033 24/22 Q1014",
      "taf": "TAF LEBB 101700Z 1018/1118 32009KT 9999 FEW010 BKN020 TX36/1112Z TN21/1105Z"
    },
    {
      "icao": "LEBL",
      "alert": "OK",
      "vis_m": 9999,
      "fzfg": false,
      "metar_trigger": false,
      "taf_trigger": false,
      "metar": "METAR LEBL 110100Z 06011KT 9999 SCT015 26/23 Q1012 NOSIG",
      "taf": "TAF LEBL 101700Z 1018/1118 07009KT 9999 FEW020 TX30/1112Z TN24/1105Z"
    },
    {
      "icao": "LECH",
      "alert": "OK",
      "vis_m": 9999,
      "fzfg": false,
      "metar_trigger": false,
      "taf_trigger": false,
      "metar": "METAR LECH 110100Z AUTO 00000KT CAVOK 21/18 Q1013",
      "taf": ""
    },
    {
      "icao": "LEMD",
      "alert": "OK",
      "vis_m": 9999,
      "fzfg": false,
      "metar_trigger": false,
      "taf_trigger": false,
      "metar": "METAR LEMD 110100Z VRB02KT CAVOK 21/06 Q1013 NOSIG",
      "taf": "TAF LEMD 101700Z 1018/1124 VRB04KT CAVOK TX38/1116Z TN19/1105Z"
    },
    {
      "icao": "LEMG",
      "alert": "OK",
      "vis_m": 9999,
      "fzfg": false,
      "metar_trigger": false,
      "taf_trigger": false,
      "metar": "METAR LEMG 110100Z 10003KT 050V140 CAVOK 23/17 Q1009 NOSIG",
      "taf": "TAF LEMG 101700Z 1018/1118 18010KT CAVOK TX35/1018Z TN22/1105Z"
    },
    {
      "icao": "LEVC",
      "alert": "OK",
      "vis_m": 9999,
      "fzfg": false,
      "metar_trigger": false,
      "taf_trigger": false,
      "metar": "METAR LEVC 110100Z 31008KT 280V340 9999 FEW025 24/19 Q1011 NOSIG",
      "taf": ""
    },
    {
      "icao": "LEXJ",
      "alert": "OK",
      "vis_m": 9999,
      "fzfg": false,
      "metar_trigger": false,
      "taf_trigger": false,
      "metar": "METAR LEXJ 110100Z AUTO 14002KT 9999 FEW015 SCT022 OVC028 22/20 Q1013",
      "taf": "TAF LEXJ 102000Z 1021/1121 VRB03KT 9999 BKN020 TX29/1113Z TN21/1105Z"
    },
    {
      "icao": "LEZG",
      "alert": "OK",
      "vis_m": 9999,
      "fzfg": false,
      "metar_trigger": false,
      "taf_trigger": false,
      "metar": "METAR LEZG 110100Z 11006KT CAVOK 26/16 Q1012 NOSIG",
      "taf": "TAF LEZG 101700Z 1018/1118 10014KT CAVOK TX39/1115Z TN21/1106Z"
    },
    {
      "icao": "LEZL",
      "alert": "OK",
      "vis_m": 9999,
      "fzfg": false,
      "metar_trigger": false,
      "taf_trigger": false,
      "metar": "METAR LEZL 110100Z AUTO 22006KT 190V250 9999 SCT025 21/16 Q1012",
      "taf": "TAF LEZL 102000Z 1021/1121 22009KT CAVOK TX30/1115Z TN21/1105Z"
    },
    {
      "icao": "LFBD",
      "alert": "OK",
      "vis_m": 9999,
      "fzfg": false,
      "metar_trigger": false,
      "taf_trigger": false,
      "metar": "METAR LFBD 110100Z AUTO 31003KT 210V330 CAVOK 24/16 Q1011 NOSIG",
      "taf": ""
    },
    {
      "icao": "LFLL",
      "alert": "OK",
      "vis_m": 9999,
      "fzfg": false,
      "metar_trigger": false,
      "taf_trigger": false,
      "metar": "METAR LFLL 110100Z 34005KT CAVOK 26/15 Q1015 NOSIG",
      "taf": ""
    },
    {
      "icao": "LFLS",
      "alert": "OK",
      "vis_m": 9999,
      "fzfg": false,
      "metar_trigger": false,
      "taf_trigger": false,
      "metar": "METAR LFLS 110100Z AUTO 08007KT 9999 ///CB 20/18 Q1016",
      "taf": "TAF LFLS 101400Z 1015/1115 22008KT CAVOK"
    },
    {
      "icao": "LFMN",
      "alert": "OK",
      "vis_m": 9999,
      "fzfg": false,
      "metar_trigger": false,
      "taf_trigger": false,
      "metar": "METAR LFMN 110100Z 33008KT CAVOK 26/15 Q1014 NOSIG",
      "taf": "TAF LFMN 102000Z 1021/1203 06005KT CAVOK"
    },
    {
      "icao": "LFOB",
      "alert": "OK",
      "vis_m": 9999,
      "fzfg": false,
      "metar_trigger": false,
      "taf_trigger": false,
      "metar": "METAR LFOB 110100Z AUTO 36004KT 320V050 CAVOK 20/13 Q1016 NOSIG",
      "taf": "TAF LFOB 101700Z 1018/1118 05010KT CAVOK"
    },
    {
      "icao": "LFPO",
      "alert": "OK",
      "vis_m": 9999,
      "fzfg": false,
      "metar_trigger": false,
      "taf_trigger": false,
      "metar": "METAR LFPO 110100Z AUTO 03008KT CAVOK 25/12 Q1015 NOSIG",
      "taf": "TAF LFPO 101700Z 1018/1124 04010KT CAVOK"
    },
    {
      "icao": "LFSB",
      "alert": "OK",
      "vis_m": 9999,
      "fzfg": false,
      "metar_trigger": false,
      "taf_trigger": false,
      "metar": "METAR LFSB 110100Z AUTO 28002KT CAVOK 20/12 Q1015 NOSIG",
      "taf": "TAF LFSB 101700Z 1018/1118 35007KT CAVOK"
    },
    {
      "icao": "LGAV",
      "alert": "OK",
      "vis_m": 9999,
      "fzfg": false,
      "metar_trigger": false,
      "taf_trigger": false,
      "metar": "METAR LGAV 110050Z 23001KT 9999 FEW025 20/14 Q1016 NOSIG",
      "taf": "TAF LGAV 101700Z 1018/1118 05012KT 9999 FEW025"
    },
    {
      "icao": "LGTS",
      "alert": "OK",
      "vis_m": 9999,
      "fzfg": false,
      "metar_trigger": false,
      "taf_trigger": false,
      "metar": "METAR LGTS 110050Z 13003KT 9999 FEW030 20/15 Q1016 NOSIG",
      "taf": "TAF LGTS 101700Z 1018/1118 VRB03KT 9999 FEW030"
    },
    {
      "icao": "LHBP",
      "alert": "OK",
      "vis_m": 9999,
      "fzfg": false,
      "metar_trigger": false,
      "taf_trigger": false,
      "metar": "METAR LHBP 110100Z 00000KT CAVOK 15/10 Q1015 NOSIG",
      "taf": "TAF LHBP 101715Z 1018/1118 33009KT CAVOK"
    },
    {
      "icao": "LHDC",
      "alert": "OK",
      "vis_m": 9999,
      "fzfg": false,
      "metar_trigger": false,
      "taf_trigger": false,
      "metar": "METAR LHDC 110045Z AUTO 08004KT CAVOK 16/10 Q1015",
      "taf": "TAF LHDC 101415Z 1015/1024 30009KT CAVOK"
    },
    {
      "icao": "LIBD",
      "alert": "OK",
      "vis_m": 9999,
      "fzfg": false,
      "metar_trigger": false,
      "taf_trigger": false,
      "metar": "METAR LIBD 110050Z 17002KT CAVOK 20/08 Q1015",
      "taf": "TAF LIBD 102300Z 1100/1124 VRB05KT CAVOK"
    },
    {
      "icao": "LIBG",
      "alert": "OK",
      "vis_m": 9999,
      "fzfg": false,
      "metar_trigger": false,
      "taf_trigger": false,
      "metar": "METAR LIBG 110050Z AUTO 11003KT 9999 NCD 20/07 Q1016",
      "taf": "TAF LIBG 102300Z 1100/1124 VRB05KT CAVOK"
    },
    {
      "icao": "LIBP",
      "alert": "OK",
      "vis_m": 9999,
      "fzfg": false,
      "metar_trigger": false,
      "taf_trigger": false,
      "metar": "METAR LIBP 110050Z AUTO 21005KT 9999 NCD 21/17 Q1014",
      "taf": "TAF LIBP 102300Z 1100/1124 VRB05KT CAVOK"
    },
    {
      "icao": "LIBR",
      "alert": "OK",
      "vis_m": 9999,
      "fzfg": false,
      "metar_trigger": false,
      "taf_trigger": false,
      "metar": "METAR LIBR 110050Z 24005KT CAVOK 22/13 Q1015",
      "taf": "TAF LIBR 102300Z 1100/1124 VRB05KT CAVOK"
    },
    {
      "icao": "LICA",
      "alert": "OK",
      "vis_m": 9999,
      "fzfg": false,
      "metar_trigger": false,
      "taf_trigger": false,
      "metar": "METAR LICA 110050Z AUTO 08006KT 9999 NCD 20/14 Q1015",
      "taf": "TAF LICA 102300Z 1100/1124 08006KT CAVOK"
    },
    {
      "icao": "LICC",
      "alert": "OK",
      "vis_m": 9999,
      "fzfg": false,
      "metar_trigger": false,
      "taf_trigger": false,
      "metar": "METAR LICC 110050Z VRB01KT CAVOK 25/19 Q1016",
      "taf": "TAF LICC 102300Z 1100/1124 VRB05KT 9999 FEW020"
    },
    {
      "icao": "LICJ",
      "alert": "OK",
      "vis_m": 9999,
      "fzfg": false,
      "metar_trigger": false,
      "taf_trigger": false,
      "metar": "METAR LICJ 102350Z 22008KT CAVOK 26/19 Q1015",
      "taf": "TAF LICJ 102300Z 1100/1124 VRB05KT CAVOK"
    },
    {
      "icao": "LIMC",
      "alert": "OK",
      "vis_m": 9999,
      "fzfg": false,
      "metar_trigger": false,
      "taf_trigger": false,
      "metar": "METAR LIMC 110050Z 03005KT CAVOK 23/19 Q1015 NOSIG",
      "taf": "TAF LIMC 102300Z 1100/1206 VRB05KT 9999 SCT030"
    },
    {
      "icao": "LIME",
      "alert": "OK",
      "vis_m": 9999,
      "fzfg": false,
      "metar_trigger": false,
      "taf_trigger": false,
      "metar": "METAR LIME 110020Z VRB02KT 9999 SCT070 SCT075 25/19 Q1015 NOSIG",
      "taf": "TAF LIME 102300Z 1100/1124 VRB05KT 9999 FEW050"
    },
    {
      "icao": "LIMF",
      "alert": "OK",
      "vis_m": 9999,
      "fzfg": false,
      "metar_trigger": false,
      "taf_trigger": false,
      "metar": "METAR LIMF 110050Z VRB01KT CAVOK 24/20 Q1015",
      "taf": "TAF LIMF 102300Z 1100/1124 VRB05KT 9999 FEW040"
    },
    {
      "icao": "LIMJ",
      "alert": "OK",
      "vis_m": 9999,
      "fzfg": false,
      "metar_trigger": false,
      "taf_trigger": false,
      "metar": "METAR LIMJ 110050Z 06004KT CAVOK 26/21 Q1014",
      "taf": "TAF LIMJ 102300Z 1100/1124 VRB05KT 9999 FEW020"
    },
    {
      "icao": "LIPE",
      "alert": "OK",
      "vis_m": 9999,
      "fzfg": false,
      "metar_trigger": false,
      "taf_trigger": false,
      "metar": "METAR LIPE 110050Z AUTO 23003KT 9999 NCD 25/19 Q1014",
      "taf": "TAF LIPE 102300Z 1100/1124 VRB05KT CAVOK"
    },
    {
      "icao": "LIPH",
      "alert": "OK",
      "vis_m": 9999,
      "fzfg": false,
      "metar_trigger": false,
      "taf_trigger": false,
      "metar": "METAR LIPH 110050Z AUTO VRB02KT 9999 BKN180/// 25/21 Q1014",
      "taf": "TAF LIPH 102300Z 1100/1124 VRB06KT 9999 SCT050"
    },
    {
      "icao": "LIPQ",
      "alert": "OK",
      "vis_m": 9999,
      "fzfg": false,
      "metar_trigger": false,
      "taf_trigger": false,
      "metar": "METAR LIPQ 110050Z AUTO 09003KT 9999 BKN190/// 21/17 Q1014",
      "taf": "TAF LIPQ 102300Z 1100/1124 VRB05KT 9999 SCT060"
    },
    {
      "icao": "LIPR",
      "alert": "OK",
      "vis_m": null,
      "fzfg": false,
      "metar_trigger": false,
      "taf_trigger": false,
      "metar": "",
      "taf": "TAF LIPR 101700Z 1018/1118 11010KT CAVOK"
    },
    {
      "icao": "LIPX",
      "alert": "OK",
      "vis_m": 9999,
      "fzfg": false,
      "metar_trigger": false,
      "taf_trigger": false,
      "metar": "METAR LIPX 110050Z 18002KT CAVOK 25/19 Q1014",
      "taf": "TAF LIPX 102300Z 1100/1124 VRB05KT CAVOK"
    },
    {
      "icao": "LIPY",
      "alert": "OK",
      "vis_m": 9999,
      "fzfg": false,
      "metar_trigger": false,
      "taf_trigger": false,
      "metar": "METAR LIPY 110050Z AUTO 17003KT 9999 BKN130/// 26/18 Q1014",
      "taf": "TAF LIPY 102300Z 1100/1124 VRB05KT CAVOK"
    },
    {
      "icao": "LIPZ",
      "alert": "OK",
      "vis_m": 9999,
      "fzfg": false,
      "metar_trigger": false,
      "taf_trigger": false,
      "metar": "METAR LIPZ 110050Z 13006KT CAVOK 26/23 Q1014 NOSIG",
      "taf": "TAF LIPZ 102300Z 1100/1206 VRB05KT 9999 SCT050"
    },
    {
      "icao": "LIRF",
      "alert": "OK",
      "vis_m": 9999,
      "fzfg": false,
      "metar_trigger": false,
      "taf_trigger": false,
      "metar": "METAR LIRF 110050Z VRB01KT CAVOK 22/21 Q1015 NOSIG",
      "taf": "TAF LIRF 102300Z 1100/1206 VRB05KT 9999 FEW010"
    },
    {
      "icao": "LIRN",
      "alert": "OK",
      "vis_m": 9999,
      "fzfg": false,
      "metar_trigger": false,
      "taf_trigger": false,
      "metar": "METAR LIRN 110050Z VRB01KT CAVOK 25/18 Q1016 NOSIG",
      "taf": "TAF LIRN 102300Z 1100/1124 VRB05KT CAVOK"
    },
    {
      "icao": "LIRP",
      "alert": "OK",
      "vis_m": 9999,
      "fzfg": false,
      "metar_trigger": false,
      "taf_trigger": false,
      "metar": "METAR LIRP 110045Z 12004KT CAVOK 21/20 Q1015 NOSIG",
      "taf": "TAF LIRP 102300Z 1100/1124 10004KT 9999 FEW030"
    },
    {
      "icao": "LIRZ",
      "alert": "OK",
      "vis_m": 9999,
      "fzfg": false,
      "metar_trigger": false,
      "taf_trigger": false,
      "metar": "METAR LIRZ 110050Z AUTO 35004KT 9999 NCD 21/18 Q1016",
      "taf": "TAF LIRZ 102300Z 1100/1124 VRB05KT CAVOK"
    },
    {
      "icao": "LJLJ",
      "alert": "OK",
      "vis_m": 9999,
      "fzfg": false,
      "metar_trigger": false,
      "taf_trigger": false,
      "metar": "METAR LJLJ 110100Z 10002KT CAVOK 18/16 Q1016 NOSIG",
      "taf": "TAF LJLJ 102300Z 1100/1200 08004KT 9999 FEW060"
    },
    {
      "icao": "LKMT",
      "alert": "OK",
      "vis_m": 9999,
      "fzfg": false,
      "metar_trigger": false,
      "taf_trigger": false,
      "metar": "METAR LKMT 110100Z 25004KT CAVOK 16/13 Q1016 NOSIG",
      "taf": "TAF LKMT 102300Z 1100/1124 VRB02KT CAVOK"
    },
    {
      "icao": "LKPR",
      "alert": "OK",
      "vis_m": 9999,
      "fzfg": false,
      "metar_trigger": false,
      "taf_trigger": false,
      "metar": "METAR LKPR 110100Z 27006KT CAVOK 14/10 Q1018 NOSIG",
      "taf": "TAF LKPR 102300Z 1100/1206 33006KT CAVOK"
    },
    {
      "icao": "LLBG",
      "alert": "OK",
      "vis_m": 9999,
      "fzfg": false,
      "metar_trigger": false,
      "taf_trigger": false,
      "metar": "METAR LLBG 110050Z 14004KT 9999 FEW025 24/18 Q1012 NOSIG",
      "taf": "TAF LLBG 102317Z 1100/1124 VRB04KT 9999 FEW025 TX31/1112Z TN23/1103Z"
    },
    {
      "icao": "LMML",
      "alert": "OK",
      "vis_m": 9999,
      "fzfg": false,
      "metar_trigger": false,
      "taf_trigger": false,
      "metar": "METAR LMML 110045Z 10006KT CAVOK 24/21 Q1016 NOSIG",
      "taf": "TAF LMML 102300Z 1100/1124 12008KT 9999 FEW015"
    },
    {
      "icao": "LOWW",
      "alert": "OK",
      "vis_m": 9999,
      "fzfg": false,
      "metar_trigger": false,
      "taf_trigger": false,
      "metar": "METAR LOWW 110050Z 16003KT CAVOK 17/09 Q1016 NOSIG",
      "taf": "TAF LOWW 102315Z 1100/1206 VRB04KT CAVOK TX30/1114Z TN15/1103Z"
    },
    {
      "icao": "LPFR",
      "alert": "OK",
      "vis_m": 9999,
      "fzfg": false,
      "metar_trigger": false,
      "taf_trigger": false,
      "metar": "METAR LPFR 110100Z 33009KT CAVOK 20/14 Q1010",
      "taf": "TAF LPFR 102300Z 1100/1124 VRB05KT CAVOK"
    },
    {
      "icao": "LPMA",
      "alert": "OK",
      "vis_m": 9999,
      "fzfg": false,
      "metar_trigger": false,
      "taf_trigger": false,
      "metar": "METAR LPMA 110100Z 33010KT 290V020 9999 SCT015 22/16 Q1015",
      "taf": "TAF LPMA 102300Z 1100/1124 VRB05KT 9999 SCT015 BKN030"
    },
    {
      "icao": "LPPR",
      "alert": "OK",
      "vis_m": 8000,
      "fzfg": false,
      "metar_trigger": false,
      "taf_trigger": false,
      "metar": "METAR LPPR 110100Z 00000KT 8000 NSC 15/13 Q1011",
      "taf": "TAF LPPR 102300Z 1100/1124 VRB02KT 9999 FEW025"
    },
    {
      "icao": "LPPS",
      "alert": "OK",
      "vis_m": 9999,
      "fzfg": false,
      "metar_trigger": false,
      "taf_trigger": false,
      "metar": "METAR LPPS 110100Z 31013KT 9999 FEW014 21/17 Q1016",
      "taf": "TAF LPPS 102300Z 1100/1206 31012KT 9999 SCT015 BKN030"
    },
    {
      "icao": "LPPT",
      "alert": "OK",
      "vis_m": 9999,
      "fzfg": false,
      "metar_trigger": false,
      "taf_trigger": false,
      "metar": "METAR LPPT 110100Z 30008KT 9999 FEW014 17/14 Q1011 NOSIG",
      "taf": "TAF LPPT 102300Z 1100/1206 32010KT 9999 FEW020"
    },
    {
      "icao": "LQBK",
      "alert": "OK",
      "vis_m": 9999,
      "fzfg": false,
      "metar_trigger": false,
      "taf_trigger": false,
      "metar": "METAR LQBK 110100Z 15005KT CAVOK 16/13 Q1015 NOSIG",
      "taf": "TAF LQBK 102300Z 1100/1124 19005KT CAVOK TX31/1115Z TN15/1103Z"
    },
    {
      "icao": "LQSA",
      "alert": "OK",
      "vis_m": 9999,
      "fzfg": false,
      "metar_trigger": false,
      "taf_trigger": false,
      "metar": "METAR LQSA 110100Z VRB02KT CAVOK 14/11 Q1019",
      "taf": "TAF LQSA 102300Z 1100/1124 VRB02KT CAVOK TX30/1112Z TN13/1103Z"
    },
    {
      "icao": "LQTZ",
      "alert": "OK",
      "vis_m": 9999,
      "fzfg": false,
      "metar_trigger": false,
      "taf_trigger": false,
      "metar": "METAR LQTZ 110100Z VRB02KT CAVOK 14/14 Q1017",
      "taf": "TAF LQTZ 102300Z 1100/1124 27005KT CAVOK TX31/1113Z TN11/1103Z"
    },
    {
      "icao": "LRBC",
      "alert": "OK",
      "vis_m": 9999,
      "fzfg": false,
      "metar_trigger": false,
      "taf_trigger": false,
      "metar": "METAR LRBC 110100Z 16003KT 130V210 CAVOK 14/13 Q1016",
      "taf": "TAF LRBC 102300Z 1100/1109 VRB04KT CAVOK"
    },
    {
      "icao": "LRBS",
      "alert": "OK",
      "vis_m": 9999,
      "fzfg": false,
      "metar_trigger": false,
      "taf_trigger": false,
      "metar": "METAR LRBS 110100Z VRB02KT CAVOK 15/13 Q1016 NOSIG",
      "taf": "TAF LRBS 102300Z 1100/1124 VRB04KT CAVOK"
    },
    {
      "icao": "LRBV",
      "alert": "OK",
      "vis_m": 9999,
      "fzfg": false,
      "metar_trigger": false,
      "taf_trigger": false,
      "metar": "METAR LRBV 110100Z AUTO VRB02KT 9999 BKN100/// 10/09 Q1017",
      "taf": "TAF LRBV 101700Z 1018/1103 29006KT CAVOK"
    },
    {
      "icao": "LRCL",
      "alert": "OK",
      "vis_m": 9999,
      "fzfg": false,
      "metar_trigger": false,
      "taf_trigger": false,
      "metar": "METAR LRCL 110100Z COR 00000KT CAVOK 14/13 Q1016",
      "taf": "TAF LRCL 102300Z 1100/1109 VRB04KT CAVOK"
    },
    {
      "icao": "LRCV",
      "alert": "OK",
      "vis_m": 9999,
      "fzfg": false,
      "metar_trigger": false,
      "taf_trigger": false,
      "metar": "METAR LRCV 110100Z 07005KT 040V210 CAVOK 13/11 Q1017",
      "taf": "TAF LRCV 102300Z 1100/1109 29006KT CAVOK"
    },
    {
      "icao": "LRIA",
      "alert": "OK",
      "vis_m": 9999,
      "fzfg": false,
      "metar_trigger": false,
      "taf_trigger": false,
      "metar": "METAR LRIA 110100Z 09003KT CAVOK 13/11 Q1015",
      "taf": "TAF LRIA 102300Z 1100/1109 VRB04KT CAVOK"
    },
    {
      "icao": "LROP",
      "alert": "OK",
      "vis_m": 9999,
      "fzfg": false,
      "metar_trigger": false,
      "taf_trigger": false,
      "metar": "METAR LROP 110100Z 05002KT CAVOK 16/14 Q1016 NOSIG",
      "taf": "TAF LROP 102300Z 1100/1124 VRB04KT CAVOK"
    },
    {
      "icao": "LRSB",
      "alert": "OK",
      "vis_m": 9999,
      "fzfg": false,
      "metar_trigger": false,
      "taf_trigger": false,
      "metar": "METAR LRSB 110100Z 13003KT 110V200 CAVOK 14/10 Q1016",
      "taf": "TAF LRSB 102300Z 1100/1124 VRB04KT CAVOK"
    },
    {
      "icao": "LRSM",
      "alert": "OK",
      "vis_m": 9999,
      "fzfg": false,
      "metar_trigger": false,
      "taf_trigger": false,
      "metar": "METAR LRSM 110100Z AUTO 10001KT 9999 FEW110/// SCT130/// 12/11 Q1015",
      "taf": "TAF LRSM 101400Z 1015/1024 VRB04KT CAVOK"
    },
    {
      "icao": "LRSV",
      "alert": "OK",
      "vis_m": 9999,
      "fzfg": false,
      "metar_trigger": false,
      "taf_trigger": false,
      "metar": "METAR LRSV 110100Z 23006KT CAVOK 11/10 Q1015",
      "taf": "TAF LRSV 102300Z 1100/1109 21006KT CAVOK"
    },
    {
      "icao": "LRTM",
      "alert": "OK",
      "vis_m": 9999,
      "fzfg": false,
      "metar_trigger": false,
      "taf_trigger": false,
      "metar": "METAR LRTM 110100Z 07004KT CAVOK 14/13 Q1016",
      "taf": "TAF LRTM 102300Z 1100/1109 VRB04KT CAVOK"
    },
    {
      "icao": "LRTR",
      "alert": "OK",
      "vis_m": 9999,
      "fzfg": false,
      "metar_trigger": false,
      "taf_trigger": false,
      "metar": "METAR LRTR 110100Z 08006KT CAVOK 11/09 Q1016",
      "taf": "TAF LRTR 102300Z 1100/1124 08006KT CAVOK"
    },
    {
      "icao": "LTAC",
      "alert": "OK",
      "vis_m": 9999,
      "fzfg": false,
      "metar_trigger": false,
      "taf_trigger": false,
      "metar": "METAR LTAC 110050Z 02003KT CAVOK 14/09 Q1019 NOSIG RMK RWY21C 02005KT RWY03L 02002KT RWY21R 36007KT RWY03R VRB02KT RWY21L 05004KT",
      "taf": "TAF LTAC 102240Z 1100/1124 VRB02KT CAVOK"
    },
    {
      "icao": "LTFM",
      "alert": "OK",
      "vis_m": 9999,
      "fzfg": false,
      "metar_trigger": false,
      "taf_trigger": false,
      "metar": "METAR LTFM 110050Z VRB03KT CAVOK 21/15 Q1017 NOSIG RMK RWY17L 29003KT RWY34L 00000KT RWY16R 30001KT RWY36 00000KT RWY18 VRB01KT",
      "taf": "TAF LTFM 102240Z 1100/1206 16007KT CAVOK"
    },
    {
      "icao": "LUKK",
      "alert": "OK",
      "vis_m": 9999,
      "fzfg": false,
      "metar_trigger": false,
      "taf_trigger": false,
      "metar": "METAR LUKK 110100Z 26004KT CAVOK 12/12 Q1016 NOSIG",
      "taf": "TAF LUKK 102312Z 1100/1124 VRB05KT CAVOK"
    },
    {
      "icao": "LWOH",
      "alert": "OK",
      "vis_m": 9999,
      "fzfg": false,
      "metar_trigger": false,
      "taf_trigger": false,
      "metar": "METAR LWOH 110050Z 32004KT CAVOK 14/09 Q1020",
      "taf": "TAF LWOH 102330Z 1100/1124 34006KT CAVOK"
    },
    {
      "icao": "LWSK",
      "alert": "OK",
      "vis_m": 9999,
      "fzfg": false,
      "metar_trigger": false,
      "taf_trigger": false,
      "metar": "METAR LWSK 110050Z 13002KT CAVOK 13/09 Q1019 NOSIG",
      "taf": "TAF LWSK 102330Z 1100/1124 VRB02KT CAVOK"
    },
    {
      "icao": "LYBE",
      "alert": "OK",
      "vis_m": 9999,
      "fzfg": false,
      "metar_trigger": false,
      "taf_trigger": false,
      "metar": "METAR LYBE 110100Z 20006KT CAVOK 20/11 Q1016 NOSIG",
      "taf": "TAF LYBE 102300Z 1100/1124 20005KT CAVOK TX32/1114Z TN16/1103Z"
    },
    {
      "icao": "LYNI",
      "alert": "OK",
      "vis_m": 9999,
      "fzfg": false,
      "metar_trigger": false,
      "taf_trigger": false,
      "metar": "METAR LYNI 110100Z VRB02KT 9999 BKN090 16/09 Q1018 NOSIG",
      "taf": "TAF LYNI 102300Z 1100/1124 10005KT CAVOK TX33/1114Z TN13/1103Z"
    },
    {
      "icao": "LYPG",
      "alert": "OK",
      "vis_m": 9999,
      "fzfg": false,
      "metar_trigger": false,
      "taf_trigger": false,
      "metar": "METAR LYPG 110100Z 33005KT CAVOK 23/09 Q1016 NOSIG",
      "taf": "TAF LYPG 102300Z 1100/1124 36006KT CAVOK TX34/1113Z TN22/1103Z"
    },
    {
      "icao": "LZIB",
      "alert": "OK",
      "vis_m": 9999,
      "fzfg": false,
      "metar_trigger": false,
      "taf_trigger": false,
      "metar": "METAR LZIB 110100Z 34004KT CAVOK 17/10 Q1015 NOSIG",
      "taf": "TAF LZIB 102315Z 1100/1200 04005KT CAVOK"
    },
    {
      "icao": "LZKZ",
      "alert": "OK",
      "vis_m": 9999,
      "fzfg": false,
      "metar_trigger": false,
      "taf_trigger": false,
      "metar": "METAR LZKZ 110100Z 11004KT CAVOK 13/11 Q1016 NOSIG",
      "taf": "TAF LZKZ 102315Z 1100/1200 30005KT CAVOK"
    },
    {
      "icao": "LZTT",
      "alert": "OK",
      "vis_m": 9999,
      "fzfg": false,
      "metar_trigger": false,
      "taf_trigger": false,
      "metar": "METAR LZTT 110100Z 24003KT 180V300 9999 BKN070 10/10 Q1016",
      "taf": "TAF LZTT 102315Z 1100/1200 27006KT 9999 BKN055"
    },
    {
      "icao": "OEJN",
      "alert": "OK",
      "vis_m": 9999,
      "fzfg": false,
      "metar_trigger": false,
      "taf_trigger": false,
      "metar": "METAR OEJN 110100Z 36004KT CAVOK 30/20 Q1005 NOSIG",
      "taf": "TAF OEJN 102300Z 1100/1206 36005KT 9999 FEW040"
    },
    {
      "icao": "OEMA",
      "alert": "OK",
      "vis_m": 9999,
      "fzfg": false,
      "metar_trigger": false,
      "taf_trigger": false,
      "metar": "METAR OEMA 110100Z VRB01KT CAVOK 32/M01 Q1010 NOSIG",
      "taf": "TAF OEMA 102300Z 1100/1206 VRB03KT CAVOK"
    },
    {
      "icao": "OJAI",
      "alert": "OK",
      "vis_m": 4000,
      "fzfg": false,
      "metar_trigger": false,
      "taf_trigger": false,
      "metar": "METAR OJAI 110100Z 19006KT 4000 HZ NSC 16/08 Q1015 NOSIG",
      "taf": "TAF OJAI 102300Z 1100/1206 30008KT 5000 HZ NSC"
    },
    {
      "icao": "OMAA",
      "alert": "OK",
      "vis_m": 9999,
      "fzfg": false,
      "metar_trigger": false,
      "taf_trigger": false,
      "metar": "METAR OMAA 110100Z 19003KT CAVOK 31/26 Q1000 NOSIG",
      "taf": "TAF OMAA 102300Z 1100/1206 17006KT 8000 NSC"
    },
    {
      "icao": "OMDB",
      "alert": "OK",
      "vis_m": 9999,
      "fzfg": false,
      "metar_trigger": false,
      "taf_trigger": false,
      "metar": "METAR OMDB 110100Z 18007KT 150V210 CAVOK 32/24 Q1000 NOSIG",
      "taf": "TAF OMDB 102300Z 1100/1206 19008KT 8000 NSC"
    },
    {
      "icao": "UAAA",
      "alert": "OK",
      "vis_m": 9999,
      "fzfg": false,
      "metar_trigger": false,
      "taf_trigger": false,
      "metar": "METAR UAAA 110100Z VRB01MPS 9999 NSC 21/13 Q1008 NOSIG",
      "taf": "TAF UAAA 102300Z 1100/1124 02002G07MPS 9999 FEW050CB SCT100 TX34/1110Z TN17/1101Z"
    },
    {
      "icao": "UBBB",
      "alert": "OK",
      "vis_m": 9999,
      "fzfg": false,
      "metar_trigger": false,
      "taf_trigger": false,
      "metar": "METAR UBBB 110100Z 30006KT CAVOK 24/22 Q1010 NOSIG",
      "taf": "TAF UBBB 102302Z 1100/1124 34006KT CAVOK TX31/1110Z TN21/1101Z"
    },
    {
      "icao": "UDSG",
      "alert": "OK",
      "vis_m": 9999,
      "fzfg": false,
      "metar_trigger": false,
      "taf_trigger": false,
      "metar": "METAR UDSG 110100Z 24005KT 9999 NSC 16/14 Q1019 NOSIG",
      "taf": "TAF UDSG 102258Z 1100/1124 06008KT 9999 FEW050"
    },
    {
      "icao": "UDYZ",
      "alert": "OK",
      "vis_m": 9999,
      "fzfg": false,
      "metar_trigger": false,
      "taf_trigger": false,
      "metar": "METAR UDYZ 110100Z 11002KT 9999 NSC 23/13 Q1013 NOSIG",
      "taf": "TAF UDYZ 102300Z 1100/1124 01008KT 9999 NSC"
    },
    {
      "icao": "UGKO",
      "alert": "OK",
      "vis_m": 9999,
      "fzfg": false,
      "metar_trigger": false,
      "taf_trigger": false,
      "metar": "METAR UGKO 110100Z 25003KT 9999 OVC054 22/20 Q1014 NOSIG",
      "taf": "TAF UGKO 102300Z 1100/1124 25007KT 9999 SCT023 BKN050 TX29/1111Z TN21/1102Z"
    }
  ]
}