{
  "ts_utc": "2026-07-11T23:29:30Z",
  "threshold_m": 150,
  "source": "stations_override.txt (ICAO list) + aviationweather.gov (METAR/TAF raw)",
  "station_count": 159,
  "stations": [
    {
      "icao": "BIKF",
      "alert": "OK",
      "vis_m": 350,
      "fzfg": false,
      "metar_trigger": false,
      "taf_trigger": false,
      "metar": "METAR BIKF 112300Z 17016KT 0350 R19/0450N FG OVC002 10/10 Q1023",
      "taf": "TAF BIKF 112228Z 1200/1300 19018KT 4000 -DZ BR OVC004 TX11/1215Z TN09/1203Z"
    },
    {
      "icao": "BKPR",
      "alert": "OK",
      "vis_m": null,
      "fzfg": false,
      "metar_trigger": false,
      "taf_trigger": false,
      "metar": "",
      "taf": ""
    },
    {
      "icao": "EBCI",
      "alert": "OK",
      "vis_m": 9999,
      "fzfg": false,
      "metar_trigger": false,
      "taf_trigger": false,
      "metar": "METAR EBCI 112320Z 04010KT CAVOK 22/14 Q1020 NOSIG",
      "taf": "TAF EBCI 112303Z 1200/1306 05005KT CAVOK"
    },
    {
      "icao": "EDDB",
      "alert": "OK",
      "vis_m": 9999,
      "fzfg": false,
      "metar_trigger": false,
      "taf_trigger": false,
      "metar": "METAR EDDB 112320Z AUTO 25002KT CAVOK 17/11 Q1020 NOSIG",
      "taf": "TAF EDDB 112300Z 1200/1224 27005KT CAVOK"
    },
    {
      "icao": "EDDH",
      "alert": "OK",
      "vis_m": 9999,
      "fzfg": false,
      "metar_trigger": false,
      "taf_trigger": false,
      "metar": "METAR EDDH 112320Z AUTO VRB02KT CAVOK 19/17 Q1022 NOSIG",
      "taf": "TAF EDDH 112300Z 1200/1306 VRB02KT CAVOK"
    },
    {
      "icao": "EDDK",
      "alert": "OK",
      "vis_m": 9999,
      "fzfg": false,
      "metar_trigger": false,
      "taf_trigger": false,
      "metar": "METAR EDDK 112320Z AUTO 07005KT CAVOK 21/13 Q1021 NOSIG",
      "taf": "TAF EDDK 112300Z 1200/1306 VRB03KT CAVOK"
    },
    {
      "icao": "EDDN",
      "alert": "OK",
      "vis_m": 9999,
      "fzfg": false,
      "metar_trigger": false,
      "taf_trigger": false,
      "metar": "METAR EDDN 112320Z AUTO VRB01KT CAVOK 15/10 Q1021",
      "taf": "TAF EDDN 112300Z 1200/1224 VRB02KT CAVOK"
    },
    {
      "icao": "EDDS",
      "alert": "OK",
      "vis_m": 9999,
      "fzfg": false,
      "metar_trigger": false,
      "taf_trigger": false,
      "metar": "METAR EDDS 112320Z AUTO 07004KT CAVOK 21/09 Q1020",
      "taf": "TAF EDDS 112300Z 1200/1224 01004KT CAVOK"
    },
    {
      "icao": "EDFH",
      "alert": "OK",
      "vis_m": 9999,
      "fzfg": false,
      "metar_trigger": false,
      "taf_trigger": false,
      "metar": "METAR EDFH 112320Z 09006KT 350V140 CAVOK 20/09 Q1022",
      "taf": "TAF EDFH 112300Z 1200/1224 10007KT CAVOK"
    },
    {
      "icao": "EDJA",
      "alert": "OK",
      "vis_m": 9999,
      "fzfg": false,
      "metar_trigger": false,
      "taf_trigger": false,
      "metar": "METAR EDJA 112320Z AUTO 05006KT 9999 // NCD 15/10 Q1020",
      "taf": "TAF EDJA 111700Z 1118/1203 05008KT CAVOK"
    },
    {
      "icao": "EDLW",
      "alert": "OK",
      "vis_m": 9999,
      "fzfg": false,
      "metar_trigger": false,
      "taf_trigger": false,
      "metar": "METAR EDLW 112320Z AUTO 09005KT 9999 // NCD 19/13 Q1021",
      "taf": "TAF EDLW 111700Z 1118/1218 07008KT CAVOK"
    },
    {
      "icao": "EDNY",
      "alert": "OK",
      "vis_m": 9999,
      "fzfg": false,
      "metar_trigger": false,
      "taf_trigger": false,
      "metar": "METAR EDNY 112320Z AUTO 03008KT 9999 // NCD 21/09 Q1019",
      "taf": "TAF EDNY 111700Z 1118/1203 02005KT CAVOK"
    },
    {
      "icao": "EDSB",
      "alert": "OK",
      "vis_m": 9999,
      "fzfg": false,
      "metar_trigger": false,
      "taf_trigger": false,
      "metar": "METAR EDSB 112320Z AUTO 04006KT CAVOK 24/12 Q1018",
      "taf": "TAF EDSB 112300Z 1200/1224 02007KT CAVOK"
    },
    {
      "icao": "EETN",
      "alert": "OK",
      "vis_m": 9999,
      "fzfg": false,
      "metar_trigger": false,
      "taf_trigger": false,
      "metar": "METAR EETN 112320Z 07007KT CAVOK 17/16 Q1016",
      "taf": "TAF EETN 111730Z 1118/1218 05012KT 9999 SCT045"
    },
    {
      "icao": "EFTU",
      "alert": "OK",
      "vis_m": 9999,
      "fzfg": false,
      "metar_trigger": false,
      "taf_trigger": false,
      "metar": "METAR EFTU 112320Z AUTO 02004KT 340V060 CAVOK 19/16 Q1017",
      "taf": "TAF EFTU 112036Z 1121/1221 36006KT 9999 BKN045"
    },
    {
      "icao": "EGBB",
      "alert": "OK",
      "vis_m": 9999,
      "fzfg": false,
      "metar_trigger": false,
      "taf_trigger": false,
      "metar": "METAR EGBB 112320Z 04010KT 9999 BKN015 18/14 Q1025",
      "taf": "TAF EGBB 112253Z 1200/1224 06010KT 9999 BKN016"
    },
    {
      "icao": "EGGP",
      "alert": "OK",
      "vis_m": 9999,
      "fzfg": false,
      "metar_trigger": false,
      "taf_trigger": false,
      "metar": "METAR EGGP 112320Z 07010KT CAVOK 20/13 Q1025",
      "taf": "TAF EGGP 112248Z 1200/1224 09008KT CAVOK"
    },
    {
      "icao": "EGGW",
      "alert": "OK",
      "vis_m": 9999,
      "fzfg": false,
      "metar_trigger": false,
      "taf_trigger": false,
      "metar": "METAR EGGW 112320Z AUTO 04008KT 020V080 9999 BKN011 16/13 Q1024",
      "taf": "TAF EGGW 112248Z 1200/1224 04010KT 9999 SCT014"
    },
    {
      "icao": "EGKK",
      "alert": "OK",
      "vis_m": 9999,
      "fzfg": false,
      "metar_trigger": false,
      "taf_trigger": false,
      "metar": "METAR EGKK 112320Z 05012KT 9999 FEW014 18/15 Q1023",
      "taf": "TAF EGKK 112255Z 1200/1306 04010KT CAVOK"
    },
    {
      "icao": "EGNM",
      "alert": "OK",
      "vis_m": 9999,
      "fzfg": false,
      "metar_trigger": false,
      "taf_trigger": false,
      "metar": "METAR EGNM 112320Z 04007KT CAVOK 15/14 Q1028",
      "taf": "TAF EGNM 112248Z 1200/1224 06010KT 9999 BKN012"
    },
    {
      "icao": "EGPD",
      "alert": "OK",
      "vis_m": 9999,
      "fzfg": false,
      "metar_trigger": false,
      "taf_trigger": false,
      "metar": "METAR EGPD 112320Z AUTO 02003KT 9999 OVC026 14/12 Q1031",
      "taf": "TAF EGPD 112253Z 1200/1224 04006KT 9999 BKN020"
    },
    {
      "icao": "EGPF",
      "alert": "OK",
      "vis_m": 9999,
      "fzfg": false,
      "metar_trigger": false,
      "taf_trigger": false,
      "metar": "METAR EGPF 112320Z AUTO 06010KT 9999 OVC007 16/15 Q1029",
      "taf": "TAF EGPF 112254Z 1200/1224 07010KT 9999 BKN010"
    },
    {
      "icao": "EHBK",
      "alert": "OK",
      "vis_m": 9999,
      "fzfg": false,
      "metar_trigger": false,
      "taf_trigger": false,
      "metar": "METAR EHBK 112325Z AUTO 05006KT 9999 NCD 21/12 Q1020",
      "taf": "TAF EHBK 112306Z 1200/1306 05007KT CAVOK"
    },
    {
      "icao": "EHEH",
      "alert": "OK",
      "vis_m": 9999,
      "fzfg": false,
      "metar_trigger": false,
      "taf_trigger": false,
      "metar": "METAR EHEH 112255Z AUTO 03005KT 9999 NCD 21/18 Q1021 BLU",
      "taf": "TAF EHEH 111701Z 1118/1224 04007KT CAVOK"
    },
    {
      "icao": "EKBI",
      "alert": "OK",
      "vis_m": 9999,
      "fzfg": false,
      "metar_trigger": false,
      "taf_trigger": false,
      "metar": "METAR EKBI 112320Z AUTO 29006KT 9999 NCD 15/14 Q1022",
      "taf": "TAF EKBI 112327Z 1200/1224 28005KT CAVOK"
    },
    {
      "icao": "EKCH",
      "alert": "OK",
      "vis_m": 9999,
      "fzfg": false,
      "metar_trigger": false,
      "taf_trigger": false,
      "metar": "METAR EKCH 112320Z AUTO 33007KT 9999 NCD 20/13 Q1020 NOSIG",
      "taf": "TAF EKCH 112327Z 1200/1224 35005KT CAVOK"
    },
    {
      "icao": "ENAL",
      "alert": "OK",
      "vis_m": 9999,
      "fzfg": false,
      "metar_trigger": false,
      "taf_trigger": false,
      "metar": "METAR ENAL 112320Z AUTO 03010KT 9999 FEW012/// 11/09 Q1029",
      "taf": "TAF ENAL 112000Z 1121/1206 04012KT 9999 FEW015"
    },
    {
      "icao": "ENBR",
      "alert": "OK",
      "vis_m": 9999,
      "fzfg": false,
      "metar_trigger": false,
      "taf_trigger": false,
      "metar": "METAR ENBR 112320Z AUTO 34006KT 9999 NCD 11/09 Q1026 RMK WIND 1200FT 34012KT",
      "taf": "TAF ENBR 111700Z 1118/1218 33012KT CAVOK"
    },
    {
      "icao": "ENGM",
      "alert": "OK",
      "vis_m": 9999,
      "fzfg": false,
      "metar_trigger": false,
      "taf_trigger": false,
      "metar": "METAR ENGM 112320Z 02011KT 9999 -RA BKN024 15/13 Q1025",
      "taf": ""
    },
    {
      "icao": "ENHD",
      "alert": "OK",
      "vis_m": 9999,
      "fzfg": false,
      "metar_trigger": false,
      "taf_trigger": false,
      "metar": "METAR ENHD 112320Z AUTO 34019KT 9999 VV006 12/10 Q1026",
      "taf": "TAF ENHD 111400Z 1115/1122 35018KT CAVOK"
    },
    {
      "icao": "ENTC",
      "alert": "OK",
      "vis_m": 9999,
      "fzfg": false,
      "metar_trigger": false,
      "taf_trigger": false,
      "metar": "METAR ENTC 112320Z AUTO 24004KT 220V280 9999 BKN038/// 11/07 Q1026 RMK WIND 2600FT 24012KT",
      "taf": "TAF ENTC 111700Z 1118/1218 27015KT 9999 SCT035 BKN050"
    },
    {
      "icao": "ENTO",
      "alert": "OK",
      "vis_m": 3100,
      "fzfg": false,
      "metar_trigger": false,
      "taf_trigger": false,
      "metar": "METAR ENTO 112320Z AUTO 02011KT 3100 // NCD 18/16 Q1023",
      "taf": ""
    },
    {
      "icao": "ENVA",
      "alert": "OK",
      "vis_m": 9999,
      "fzfg": false,
      "metar_trigger": false,
      "taf_trigger": false,
      "metar": "METAR ENVA 112320Z 08003KT 9999 FEW037 10/09 Q1030 RMK WIND 670FT 28005KT",
      "taf": "TAF ENVA 111700Z 1118/1218 27010KT 9999 FEW030"
    },
    {
      "icao": "ENZV",
      "alert": "OK",
      "vis_m": 9999,
      "fzfg": false,
      "metar_trigger": false,
      "taf_trigger": false,
      "metar": "METAR ENZV 112320Z 35007KT CAVOK 12/10 Q1025",
      "taf": "TAF ENZV 111700Z 1118/1218 34015KT CAVOK"
    },
    {
      "icao": "EPGD",
      "alert": "OK",
      "vis_m": 6000,
      "fzfg": false,
      "metar_trigger": false,
      "taf_trigger": false,
      "metar": "METAR EPGD 112300Z 32018KT 6000 -SHRA SCT007 BKN018TCU 15/14 Q1015 RESHRA",
      "taf": "TAF EPGD 111730Z 1118/1218 33012KT 9999 SCT030"
    },
    {
      "icao": "EPKK",
      "alert": "OK",
      "vis_m": 9999,
      "fzfg": false,
      "metar_trigger": false,
      "taf_trigger": false,
      "metar": "METAR EPKK 112300Z 23002KT CAVOK 13/11 Q1017",
      "taf": "TAF EPKK 112030Z 1121/1221 25006KT CAVOK"
    },
    {
      "icao": "EPKT",
      "alert": "OK",
      "vis_m": 9999,
      "fzfg": false,
      "metar_trigger": false,
      "taf_trigger": false,
      "metar": "METAR EPKT 112300Z VRB02KT CAVOK 14/12 Q1017",
      "taf": "TAF EPKT 111730Z 1118/1218 29005KT CAVOK"
    },
    {
      "icao": "EPLB",
      "alert": "OK",
      "vis_m": 9999,
      "fzfg": false,
      "metar_trigger": false,
      "taf_trigger": false,
      "metar": "METAR EPLB 112300Z 26002KT CAVOK 14/13 Q1016",
      "taf": "TAF EPLB 111730Z 1118/1218 27006KT 9999 SCT040"
    },
    {
      "icao": "EPMO",
      "alert": "OK",
      "vis_m": 9999,
      "fzfg": false,
      "metar_trigger": false,
      "taf_trigger": false,
      "metar": "METAR EPMO 112300Z 19006KT 170V230 CAVOK 14/14 Q1016",
      "taf": ""
    },
    {
      "icao": "EPPO",
      "alert": "OK",
      "vis_m": 9999,
      "fzfg": false,
      "metar_trigger": false,
      "taf_trigger": false,
      "metar": "METAR EPPO 112300Z 32005KT CAVOK 17/12 Q1018",
      "taf": ""
    },
    {
      "icao": "EPRA",
      "alert": "OK",
      "vis_m": 9999,
      "fzfg": false,
      "metar_trigger": false,
      "taf_trigger": false,
      "metar": "METAR EPRA 112300Z 35005KT 310V020 9999 -RA BKN029 15/13 Q1016",
      "taf": "TAF EPRA 112030Z 1121/1206 24008KT 9999 SCT040"
    },
    {
      "icao": "EPRZ",
      "alert": "OK",
      "vis_m": 9999,
      "fzfg": false,
      "metar_trigger": false,
      "taf_trigger": false,
      "metar": "METAR EPRZ 112300Z 24002KT CAVOK 15/11 Q1016",
      "taf": "TAF EPRZ 111730Z 1118/1218 28006KT CAVOK"
    },
    {
      "icao": "EPSC",
      "alert": "OK",
      "vis_m": 9999,
      "fzfg": false,
      "metar_trigger": false,
      "taf_trigger": false,
      "metar": "METAR EPSC 112300Z VRB01KT CAVOK 17/14 Q1018",
      "taf": "TAF EPSC 111730Z 1118/1218 32004KT CAVOK"
    },
    {
      "icao": "EPSY",
      "alert": "OK",
      "vis_m": 8000,
      "fzfg": false,
      "metar_trigger": false,
      "taf_trigger": false,
      "metar": "METAR EPSY 112300Z 24008KT 210V280 8000 -SHRA BKN015CB 14/13 Q1014",
      "taf": "TAF EPSY 112030Z 1121/1206 24004KT 9999 BKN040"
    },
    {
      "icao": "EPWA",
      "alert": "OK",
      "vis_m": 9999,
      "fzfg": false,
      "metar_trigger": false,
      "taf_trigger": false,
      "metar": "METAR EPWA 112300Z 18004KT CAVOK 14/13 Q1016 NOSIG",
      "taf": "TAF EPWA 112030Z 1121/1221 VRB04KT 9999 BKN030"
    },
    {
      "icao": "EPWR",
      "alert": "OK",
      "vis_m": 9999,
      "fzfg": false,
      "metar_trigger": false,
      "taf_trigger": false,
      "metar": "METAR EPWR 112300Z 29007KT CAVOK 17/10 Q1018",
      "taf": "TAF EPWR 112030Z 1121/1221 27005KT CAVOK"
    },
    {
      "icao": "ESGG",
      "alert": "OK",
      "vis_m": 9999,
      "fzfg": false,
      "metar_trigger": false,
      "taf_trigger": false,
      "metar": "METAR ESGG 112320Z 35005KT CAVOK 18/14 Q1020",
      "taf": "TAF ESGG 112030Z 1121/1221 36005KT CAVOK"
    },
    {
      "icao": "ESKN",
      "alert": "OK",
      "vis_m": 9999,
      "fzfg": false,
      "metar_trigger": false,
      "taf_trigger": false,
      "metar": "METAR ESKN 112320Z 34004KT 300V020 CAVOK 20/13 Q1019",
      "taf": "TAF ESKN 112030Z 1121/1221 01004KT CAVOK"
    },
    {
      "icao": "ESMS",
      "alert": "OK",
      "vis_m": 9999,
      "fzfg": false,
      "metar_trigger": false,
      "taf_trigger": false,
      "metar": "METAR ESMS 112320Z 31006KT CAVOK 15/14 Q1019",
      "taf": "TAF ESMS 112027Z 1121/1221 32010KT CAVOK"
    },
    {
      "icao": "ESSA",
      "alert": "OK",
      "vis_m": 9999,
      "fzfg": false,
      "metar_trigger": false,
      "taf_trigger": false,
      "metar": "METAR ESSA 112320Z 36010KT CAVOK 17/10 Q1019 NOSIG",
      "taf": "TAF ESSA 112030Z 1121/1221 04008KT CAVOK"
    },
    {
      "icao": "EYKA",
      "alert": "OK",
      "vis_m": 9999,
      "fzfg": false,
      "metar_trigger": false,
      "taf_trigger": false,
      "metar": "METAR EYKA 112320Z AUTO VRB02KT 9999 OVC015/// 14/14 Q1012",
      "taf": "TAF EYKA 112329Z 1200/1224 VRB03KT 5000 BR BKN005 BKN015"
    },
    {
      "icao": "EYPA",
      "alert": "OK",
      "vis_m": 6000,
      "fzfg": false,
      "metar_trigger": false,
      "taf_trigger": false,
      "metar": "METAR EYPA 112320Z AUTO VRB02KT 6000 NCD 16/15 Q1012",
      "taf": "TAF EYPA 112320Z 1200/1224 VRB03KT 5000 BR SCT005"
    },
    {
      "icao": "EYVI",
      "alert": "OK",
      "vis_m": 5000,
      "fzfg": false,
      "metar_trigger": false,
      "taf_trigger": false,
      "metar": "METAR EYVI 112320Z 22004KT 200V260 5000 -RA BR OVC004 14/13 Q1013 NOSIG",
      "taf": "TAF EYVI 112321Z 1200/1224 VRB03KT 5000 BR BKN005"
    },
    {
      "icao": "GCFV",
      "alert": "OK",
      "vis_m": 9999,
      "fzfg": false,
      "metar_trigger": false,
      "taf_trigger": false,
      "metar": "METAR GCFV 112300Z AUTO 01008KT 9999 SCT020 BKN026 23/19 Q1016",
      "taf": "TAF GCFV 112000Z 1121/1221 35008KT 9999 FEW030 TX25/1214Z TN20/1206Z"
    },
    {
      "icao": "GCLP",
      "alert": "OK",
      "vis_m": 9999,
      "fzfg": false,
      "metar_trigger": false,
      "taf_trigger": false,
      "metar": "METAR GCLP 112300Z 36013KT 9999 FEW040 23/16 Q1017 NOSIG",
      "taf": "TAF GCLP 112000Z 1121/1221 36015KT 9999 BKN035 TX25/1214Z TN19/1206Z"
    },
    {
      "icao": "GCTS",
      "alert": "OK",
      "vis_m": 9999,
      "fzfg": false,
      "metar_trigger": false,
      "taf_trigger": false,
      "metar": "METAR GCTS 112300Z 09007KT 9999 SCT030 23/18 Q1017 NOSIG",
      "taf": ""
    },
    {
      "icao": "GMAD",
      "alert": "OK",
      "vis_m": 9999,
      "fzfg": false,
      "metar_trigger": false,
      "taf_trigger": false,
      "metar": "METAR GMAD 112300Z 19007KT 9999 SCT020 22/19 Q1014 NOSIG",
      "taf": "TAF GMAD 112300Z 1200/1306 18006KT 8000 SCT020"
    },
    {
      "icao": "GMMN",
      "alert": "OK",
      "vis_m": 9999,
      "fzfg": false,
      "metar_trigger": false,
      "taf_trigger": false,
      "metar": "METAR GMMN 112300Z 03005KT 360V060 9999 FEW026 21/16 Q1015 NOSIG",
      "taf": "TAF GMMN 112300Z 1200/1306 04004KT 9999 FEW020"
    },
    {
      "icao": "GMMX",
      "alert": "OK",
      "vis_m": 9999,
      "fzfg": false,
      "metar_trigger": false,
      "taf_trigger": false,
      "metar": "METAR GMMX 112300Z 30007KT 250V330 CAVOK 23/15 Q1015 NOSIG",
      "taf": "TAF GMMX 112300Z 1200/1306 06006KT 8000 NSC"
    },
    {
      "icao": "HEGN",
      "alert": "OK",
      "vis_m": 9999,
      "fzfg": false,
      "metar_trigger": false,
      "taf_trigger": false,
      "metar": "METAR HEGN 112300Z 30008KT CAVOK 29/06 Q1008 NOSIG",
      "taf": "TAF HEGN 112300Z 1200/1306 30015KT CAVOK"
    },
    {
      "icao": "HEMA",
      "alert": "OK",
      "vis_m": 9999,
      "fzfg": false,
      "metar_trigger": false,
      "taf_trigger": false,
      "metar": "METAR HEMA 112300Z 32010KT CAVOK 30/09 Q1007 NOSIG",
      "taf": "TAF HEMA 112300Z 1200/1306 31015KT CAVOK"
    },
    {
      "icao": "HESH",
      "alert": "OK",
      "vis_m": 9999,
      "fzfg": false,
      "metar_trigger": false,
      "taf_trigger": false,
      "metar": "METAR HESH 112300Z 34012KT CAVOK 32/15 Q1007 NOSIG",
      "taf": "TAF HESH 112300Z 1200/1306 35012KT CAVOK"
    },
    {
      "icao": "HESX",
      "alert": "OK",
      "vis_m": 9999,
      "fzfg": false,
      "metar_trigger": false,
      "taf_trigger": false,
      "metar": "METAR HESX 112300Z 36005KT CAVOK 23/18 Q1013 NOSIG",
      "taf": "TAF HESX 112300Z 1200/1306 34009KT CAVOK"
    },
    {
      "icao": "LATI",
      "alert": "OK",
      "vis_m": 9999,
      "fzfg": false,
      "metar_trigger": false,
      "taf_trigger": false,
      "metar": "METAR LATI 112320Z VRB03KT CAVOK 21/10 Q1016 NOSIG",
      "taf": "TAF LATI 112300Z 1200/1224 VRB05KT CAVOK TX35/1212Z TN17/1204Z"
    },
    {
      "icao": "LBPD",
      "alert": "OK",
      "vis_m": 9999,
      "fzfg": false,
      "metar_trigger": false,
      "taf_trigger": false,
      "metar": "METAR LBPD 112300Z AUTO 11007KT 9999 NCD 22/11 Q1017",
      "taf": "TAF LBPD 112300Z 1200/1224 VRB04KT CAVOK"
    },
    {
      "icao": "LBSF",
      "alert": "OK",
      "vis_m": 9999,
      "fzfg": false,
      "metar_trigger": false,
      "taf_trigger": false,
      "metar": "METAR LBSF 112300Z AUTO 35003KT 310V020 9999 NSC 22/14 Q1019 NOSIG",
      "taf": "TAF LBSF 112300Z 1200/1224 VRB04KT CAVOK"
    },
    {
      "icao": "LBWN",
      "alert": "OK",
      "vis_m": 9999,
      "fzfg": false,
      "metar_trigger": false,
      "taf_trigger": false,
      "metar": "METAR LBWN 112300Z AUTO 00000KT 9999 NCD 17/14 Q1016 NOSIG",
      "taf": "TAF LBWN 112300Z 1200/1224 VRB04KT 9999 SCT045"
    },
    {
      "icao": "LCLK",
      "alert": "OK",
      "vis_m": 8000,
      "fzfg": false,
      "metar_trigger": false,
      "taf_trigger": false,
      "metar": "METAR LCLK 112300Z 00000KT 8000 NSC 24/23 Q1009 NOSIG",
      "taf": "TAF LCLK 111730Z 1118/1218 22006KT CAVOK"
    },
    {
      "icao": "LCPH",
      "alert": "OK",
      "vis_m": 9999,
      "fzfg": false,
      "metar_trigger": false,
      "taf_trigger": false,
      "metar": "METAR LCPH 112300Z 34006KT CAVOK 25/23 Q1009 NOSIG",
      "taf": "TAF LCPH 111730Z 1118/1218 35008KT CAVOK"
    },
    {
      "icao": "LEAL",
      "alert": "OK",
      "vis_m": 9999,
      "fzfg": false,
      "metar_trigger": false,
      "taf_trigger": false,
      "metar": "METAR LEAL 112300Z VRB02KT CAVOK 28/24 Q1012 NOSIG",
      "taf": "TAF LEAL 112300Z 1200/1224 VRB03KT 9999 FEW015 TX33/1212Z TN22/1206Z"
    },
    {
      "icao": "LEBB",
      "alert": "OK",
      "vis_m": 9999,
      "fzfg": false,
      "metar_trigger": false,
      "taf_trigger": false,
      "metar": "METAR LEBB 112300Z AUTO 07003KT 050V120 CAVOK 26/21 Q1010",
      "taf": "TAF LEBB 112300Z 1200/1224 12008KT CAVOK TX39/1213Z TN21/1224Z"
    },
    {
      "icao": "LEBL",
      "alert": "OK",
      "vis_m": 9999,
      "fzfg": false,
      "metar_trigger": false,
      "taf_trigger": false,
      "metar": "METAR LEBL 112300Z 06010KT 9999 SCT015 26/24 Q1015 NOSIG",
      "taf": "TAF LEBL 112300Z 1200/1224 07008KT 9999 SCT015 TX30/1212Z TN23/1205Z"
    },
    {
      "icao": "LECH",
      "alert": "OK",
      "vis_m": 9999,
      "fzfg": false,
      "metar_trigger": false,
      "taf_trigger": false,
      "metar": "METAR LECH 112300Z AUTO 07003KT 040V120 CAVOK 22/21 Q1016",
      "taf": "TAF LECH 112300Z 1200/1224 VRB04KT CAVOK TX34/1212Z TN19/1206Z"
    },
    {
      "icao": "LEMD",
      "alert": "OK",
      "vis_m": 9999,
      "fzfg": false,
      "metar_trigger": false,
      "taf_trigger": false,
      "metar": "METAR LEMD 112300Z 15015KT 130V190 CAVOK 29/15 Q1012 NOSIG",
      "taf": "TAF LEMD 112300Z 1200/1306 VRB05KT CAVOK TX35/1216Z TN19/1205Z"
    },
    {
      "icao": "LEMG",
      "alert": "OK",
      "vis_m": 9999,
      "fzfg": false,
      "metar_trigger": false,
      "taf_trigger": false,
      "metar": "METAR LEMG 112300Z 00000KT 9999 SCT045 22/17 Q1013 NOSIG",
      "taf": "TAF LEMG 112300Z 1200/1224 13003KT CAVOK TX33/1214Z TN21/1205Z"
    },
    {
      "icao": "LEVC",
      "alert": "OK",
      "vis_m": 9999,
      "fzfg": false,
      "metar_trigger": false,
      "taf_trigger": false,
      "metar": "METAR LEVC 112300Z 09004KT 040V120 9999 SCT013 BKN016 26/23 Q1014 NOSIG",
      "taf": "TAF LEVC 112300Z 1200/1224 VRB03KT 9999 FEW015 TX32/1214Z TN22/1206Z"
    },
    {
      "icao": "LEXJ",
      "alert": "OK",
      "vis_m": 9999,
      "fzfg": false,
      "metar_trigger": false,
      "taf_trigger": false,
      "metar": "METAR LEXJ 112300Z AUTO VRB02KT CAVOK 24/20 Q1009",
      "taf": "TAF LEXJ 112000Z 1121/1221 08009KT CAVOK TX30/1212Z TN21/1205Z"
    },
    {
      "icao": "LEZG",
      "alert": "OK",
      "vis_m": 9999,
      "fzfg": false,
      "metar_trigger": false,
      "taf_trigger": false,
      "metar": "METAR LEZG 112300Z 09006KT 060V120 CAVOK 28/14 Q1012 NOSIG",
      "taf": "TAF LEZG 112300Z 1200/1224 10010KT CAVOK TX38/1215Z TN22/1206Z"
    },
    {
      "icao": "LEZL",
      "alert": "OK",
      "vis_m": 9999,
      "fzfg": false,
      "metar_trigger": false,
      "taf_trigger": false,
      "metar": "METAR LEZL 112300Z 22011KT CAVOK 22/15 Q1014 NOSIG",
      "taf": "TAF LEZL 112000Z 1121/1221 23011KT 9999 SCT025 TX30/1215Z TN19/1205Z"
    },
    {
      "icao": "LFBD",
      "alert": "OK",
      "vis_m": 9999,
      "fzfg": false,
      "metar_trigger": false,
      "taf_trigger": false,
      "metar": "METAR LFBD 112300Z AUTO 11010KT CAVOK 29/14 Q1012 NOSIG",
      "taf": "TAF LFBD 112300Z 1200/1306 10008KT CAVOK TX40/1215Z TN26/1205Z"
    },
    {
      "icao": "LFLL",
      "alert": "OK",
      "vis_m": 9999,
      "fzfg": false,
      "metar_trigger": false,
      "taf_trigger": false,
      "metar": "METAR LFLL 112300Z 16002KT CAVOK 27/11 Q1016 NOSIG",
      "taf": "TAF LFLL 111700Z 1118/1224 VRB03KT CAVOK"
    },
    {
      "icao": "LFLS",
      "alert": "OK",
      "vis_m": 9999,
      "fzfg": false,
      "metar_trigger": false,
      "taf_trigger": false,
      "metar": "METAR LFLS 112300Z AUTO 09005KT CAVOK 21/14 Q1017",
      "taf": "TAF LFLS 111400Z 1115/1215 01007KT CAVOK"
    },
    {
      "icao": "LFMN",
      "alert": "OK",
      "vis_m": 9999,
      "fzfg": false,
      "metar_trigger": false,
      "taf_trigger": false,
      "metar": "METAR LFMN 112300Z VRB02KT CAVOK 26/22 Q1015 NOSIG",
      "taf": "TAF LFMN 112000Z 1121/1303 35008KT CAVOK"
    },
    {
      "icao": "LFOB",
      "alert": "OK",
      "vis_m": 9999,
      "fzfg": false,
      "metar_trigger": false,
      "taf_trigger": false,
      "metar": "METAR LFOB 112300Z AUTO 01010KT CAVOK 22/18 Q1019 NOSIG",
      "taf": "TAF LFOB 111700Z 1118/1218 05011KT CAVOK"
    },
    {
      "icao": "LFPO",
      "alert": "OK",
      "vis_m": 9999,
      "fzfg": false,
      "metar_trigger": false,
      "taf_trigger": false,
      "metar": "METAR LFPO 112300Z AUTO 03011KT CAVOK 27/12 Q1017 NOSIG",
      "taf": "TAF LFPO 112300Z 1200/1306 04012KT CAVOK"
    },
    {
      "icao": "LFSB",
      "alert": "OK",
      "vis_m": 9999,
      "fzfg": false,
      "metar_trigger": false,
      "taf_trigger": false,
      "metar": "METAR LFSB 112300Z AUTO 28003KT 210V330 CAVOK 21/09 Q1017 NOSIG",
      "taf": ""
    },
    {
      "icao": "LGAV",
      "alert": "OK",
      "vis_m": 9999,
      "fzfg": false,
      "metar_trigger": false,
      "taf_trigger": false,
      "metar": "METAR LGAV 112320Z VRB02KT CAVOK 23/15 Q1016 NOSIG",
      "taf": "TAF LGAV 112300Z 1200/1224 05012KT 9999 FEW025"
    },
    {
      "icao": "LGTS",
      "alert": "OK",
      "vis_m": 9999,
      "fzfg": false,
      "metar_trigger": false,
      "taf_trigger": false,
      "metar": "METAR LGTS 112320Z 10005KT CAVOK 21/17 Q1015 NOSIG",
      "taf": "TAF LGTS 112300Z 1200/1224 13003KT CAVOK"
    },
    {
      "icao": "LHBP",
      "alert": "OK",
      "vis_m": 9999,
      "fzfg": false,
      "metar_trigger": false,
      "taf_trigger": false,
      "metar": "METAR LHBP 112300Z VRB02KT CAVOK 21/10 Q1017 NOSIG",
      "taf": "TAF LHBP 112315Z 1200/1224 08008KT CAVOK"
    },
    {
      "icao": "LHDC",
      "alert": "OK",
      "vis_m": null,
      "fzfg": false,
      "metar_trigger": false,
      "taf_trigger": false,
      "metar": "",
      "taf": "TAF LHDC 111715Z 1118/1203 03005KT CAVOK"
    },
    {
      "icao": "LIBD",
      "alert": "OK",
      "vis_m": 9999,
      "fzfg": false,
      "metar_trigger": false,
      "taf_trigger": false,
      "metar": "METAR LIBD 112320Z 19004KT CAVOK 25/09 Q1015",
      "taf": "TAF LIBD 112300Z 1200/1224 21005KT CAVOK"
    },
    {
      "icao": "LIBG",
      "alert": "OK",
      "vis_m": 9999,
      "fzfg": false,
      "metar_trigger": false,
      "taf_trigger": false,
      "metar": "METAR LIBG 112320Z AUTO 34001KT 9999 NCD 21/16 Q1016",
      "taf": "TAF LIBG 112300Z 1200/1224 VRB05KT CAVOK"
    },
    {
      "icao": "LIBP",
      "alert": "OK",
      "vis_m": 9999,
      "fzfg": false,
      "metar_trigger": false,
      "taf_trigger": false,
      "metar": "METAR LIBP 112320Z AUTO 25005KT 9999 FEW170/// 24/21 Q1014",
      "taf": "TAF LIBP 112300Z 1200/1224 VRB05KT CAVOK"
    },
    {
      "icao": "LIBR",
      "alert": "OK",
      "vis_m": 9999,
      "fzfg": false,
      "metar_trigger": false,
      "taf_trigger": false,
      "metar": "METAR LIBR 112320Z 22005KT CAVOK 25/21 Q1015",
      "taf": "TAF LIBR 112300Z 1200/1224 18007KT CAVOK"
    },
    {
      "icao": "LICA",
      "alert": "OK",
      "vis_m": 9999,
      "fzfg": false,
      "metar_trigger": false,
      "taf_trigger": false,
      "metar": "METAR LICA 112320Z AUTO 08006KT 9999 NCD 20/18 Q1016",
      "taf": "TAF LICA 112300Z 1200/1224 08006KT CAVOK"
    },
    {
      "icao": "LICC",
      "alert": "OK",
      "vis_m": 9999,
      "fzfg": false,
      "metar_trigger": false,
      "taf_trigger": false,
      "metar": "METAR LICC 112320Z 25007KT CAVOK 26/20 Q1016",
      "taf": "TAF LICC 112300Z 1200/1224 26008KT CAVOK"
    },
    {
      "icao": "LICJ",
      "alert": "OK",
      "vis_m": 9999,
      "fzfg": false,
      "metar_trigger": false,
      "taf_trigger": false,
      "metar": "METAR LICJ 112320Z 18003KT 150V210 CAVOK 26/18 Q1015",
      "taf": "TAF LICJ 112300Z 1200/1224 21013KT CAVOK"
    },
    {
      "icao": "LIMC",
      "alert": "OK",
      "vis_m": 9999,
      "fzfg": false,
      "metar_trigger": false,
      "taf_trigger": false,
      "metar": "METAR LIMC 112320Z 04003KT 360V110 CAVOK 21/16 Q1017 NOSIG",
      "taf": "TAF LIMC 112300Z 1200/1306 VRB04KT CAVOK"
    },
    {
      "icao": "LIME",
      "alert": "OK",
      "vis_m": 9999,
      "fzfg": false,
      "metar_trigger": false,
      "taf_trigger": false,
      "metar": "METAR LIME 112320Z 17004KT 9999 FEW100 23/18 Q1017 NOSIG",
      "taf": "TAF LIME 112300Z 1200/1224 VRB04KT CAVOK"
    },
    {
      "icao": "LIMF",
      "alert": "OK",
      "vis_m": 9999,
      "fzfg": false,
      "metar_trigger": false,
      "taf_trigger": false,
      "metar": "METAR LIMF 112320Z 30004KT CAVOK 21/17 Q1017",
      "taf": "TAF LIMF 112300Z 1200/1224 VRB05KT CAVOK"
    },
    {
      "icao": "LIMJ",
      "alert": "OK",
      "vis_m": 9999,
      "fzfg": false,
      "metar_trigger": false,
      "taf_trigger": false,
      "metar": "METAR LIMJ 112320Z 06006KT CAVOK 26/16 Q1015",
      "taf": "TAF LIMJ 112300Z 1200/1224 VRB06KT CAVOK"
    },
    {
      "icao": "LIPE",
      "alert": "OK",
      "vis_m": 9999,
      "fzfg": false,
      "metar_trigger": false,
      "taf_trigger": false,
      "metar": "METAR LIPE 112320Z 16010KT 9999 -RA VCTS FEW020CB SCT070 21/19 Q1016 RETS RERA",
      "taf": "TAF LIPE 112300Z 1200/1224 VRB06KT CAVOK"
    },
    {
      "icao": "LIPH",
      "alert": "OK",
      "vis_m": 9999,
      "fzfg": false,
      "metar_trigger": false,
      "taf_trigger": false,
      "metar": "METAR LIPH 112320Z AUTO 36004KT 330V040 9999 BKN012/// BKN043/// OVC067/// 25/22 Q1016",
      "taf": "TAF LIPH 112300Z 1200/1224 VRB06KT CAVOK"
    },
    {
      "icao": "LIPQ",
      "alert": "OK",
      "vis_m": 9999,
      "fzfg": false,
      "metar_trigger": false,
      "taf_trigger": false,
      "metar": "METAR LIPQ 112320Z AUTO 03002KT 9999 NCD 20/18 Q1016",
      "taf": "TAF LIPQ 112300Z 1200/1224 VRB05KT 9999 SCT060"
    },
    {
      "icao": "LIPR",
      "alert": "OK",
      "vis_m": null,
      "fzfg": false,
      "metar_trigger": false,
      "taf_trigger": false,
      "metar": "",
      "taf": "TAF LIPR 112300Z 1200/1224 30006KT CAVOK"
    },
    {
      "icao": "LIPX",
      "alert": "OK",
      "vis_m": 9999,
      "fzfg": false,
      "metar_trigger": false,
      "taf_trigger": false,
      "metar": "METAR LIPX 112320Z 32006KT 9999 FEW070 21/19 Q1016",
      "taf": "TAF LIPX 112300Z 1200/1224 VRB04KT CAVOK"
    },
    {
      "icao": "LIPY",
      "alert": "OK",
      "vis_m": 9999,
      "fzfg": false,
      "metar_trigger": false,
      "taf_trigger": false,
      "metar": "METAR LIPY 112320Z AUTO 19003KT 9999 NCD 26/19 Q1013",
      "taf": "TAF LIPY 112300Z 1200/1224 33006KT CAVOK"
    },
    {
      "icao": "LIPZ",
      "alert": "OK",
      "vis_m": 9999,
      "fzfg": false,
      "metar_trigger": false,
      "taf_trigger": false,
      "metar": "METAR LIPZ 112320Z 30006KT 280V340 9999 RA VCTS SCT025CB 24/23 Q1016 WS IN APCH RWY 04R NOSIG",
      "taf": "TAF LIPZ 112300Z 1200/1306 VRB05KT CAVOK"
    },
    {
      "icao": "LIRF",
      "alert": "OK",
      "vis_m": 9999,
      "fzfg": false,
      "metar_trigger": false,
      "taf_trigger": false,
      "metar": "METAR LIRF 112320Z 09003KT CAVOK 23/22 Q1015 NOSIG",
      "taf": "TAF LIRF 112300Z 1200/1306 05006KT CAVOK"
    },
    {
      "icao": "LIRN",
      "alert": "OK",
      "vis_m": 9999,
      "fzfg": false,
      "metar_trigger": false,
      "taf_trigger": false,
      "metar": "METAR LIRN 112320Z VRB02KT CAVOK 25/22 Q1016 NOSIG",
      "taf": "TAF LIRN 112300Z 1200/1224 VRB05KT CAVOK"
    },
    {
      "icao": "LIRP",
      "alert": "OK",
      "vis_m": 9999,
      "fzfg": false,
      "metar_trigger": false,
      "taf_trigger": false,
      "metar": "METAR LIRP 112315Z 08003KT 9999 FEW020 24/22 Q1016 NOSIG",
      "taf": "TAF LIRP 112300Z 1200/1224 VRB03KT CAVOK"
    },
    {
      "icao": "LIRZ",
      "alert": "OK",
      "vis_m": 9999,
      "fzfg": false,
      "metar_trigger": false,
      "taf_trigger": false,
      "metar": "METAR LIRZ 112320Z AUTO 32004KT 9999 NCD 22/18 Q1017",
      "taf": "TAF LIRZ 112300Z 1200/1224 VRB05KT CAVOK"
    },
    {
      "icao": "LJLJ",
      "alert": "OK",
      "vis_m": 9999,
      "fzfg": false,
      "metar_trigger": false,
      "taf_trigger": false,
      "metar": "METAR LJLJ 112300Z VRB01KT 9999 FEW003 SCT110 17/17 Q1019 NOSIG",
      "taf": "TAF LJLJ 112300Z 1200/1300 VRB02KT 9999 FEW035"
    },
    {
      "icao": "LKMT",
      "alert": "OK",
      "vis_m": 9999,
      "fzfg": false,
      "metar_trigger": false,
      "taf_trigger": false,
      "metar": "METAR LKMT 112300Z 24005KT CAVOK 11/10 Q1018 NOSIG",
      "taf": "TAF LKMT 112300Z 1200/1224 34008KT CAVOK"
    },
    {
      "icao": "LKPR",
      "alert": "OK",
      "vis_m": 9999,
      "fzfg": false,
      "metar_trigger": false,
      "taf_trigger": false,
      "metar": "METAR LKPR 112300Z 34005KT CAVOK 18/11 Q1020 NOSIG",
      "taf": "TAF LKPR 112300Z 1200/1306 34008KT CAVOK"
    },
    {
      "icao": "LLBG",
      "alert": "OK",
      "vis_m": 9999,
      "fzfg": false,
      "metar_trigger": false,
      "taf_trigger": false,
      "metar": "METAR LLBG 112320Z 15006KT 9999 BKN019 25/21 Q1010 NOSIG",
      "taf": "TAF LLBG 112301Z 1200/1224 VRB04KT 9999 FEW022 TX32/1211Z TN22/1203Z"
    },
    {
      "icao": "LMML",
      "alert": "OK",
      "vis_m": 9999,
      "fzfg": false,
      "metar_trigger": false,
      "taf_trigger": false,
      "metar": "METAR LMML 112315Z 15005KT CAVOK 25/23 Q1017 NOSIG",
      "taf": "TAF LMML 112300Z 1200/1224 19009KT 9999 FEW011"
    },
    {
      "icao": "LOWW",
      "alert": "OK",
      "vis_m": 9999,
      "fzfg": false,
      "metar_trigger": false,
      "taf_trigger": false,
      "metar": "METAR LOWW 112320Z 31003KT CAVOK 20/10 Q1018 NOSIG",
      "taf": "TAF LOWW 112315Z 1200/1306 VRB05KT CAVOK TX29/1215Z TN17/1203Z"
    },
    {
      "icao": "LPFR",
      "alert": "OK",
      "vis_m": 9999,
      "fzfg": false,
      "metar_trigger": false,
      "taf_trigger": false,
      "metar": "METAR LPFR 112300Z 26004KT CAVOK 21/17 Q1014",
      "taf": "TAF LPFR 112300Z 1200/1224 VRB02KT 9999 FEW020"
    },
    {
      "icao": "LPMA",
      "alert": "OK",
      "vis_m": 9999,
      "fzfg": false,
      "metar_trigger": false,
      "taf_trigger": false,
      "metar": "METAR LPMA 112300Z 30005KT 270V340 9999 FEW016 21/14 Q1017",
      "taf": "TAF LPMA 112300Z 1200/1224 VRB05KT 9999 SCT015"
    },
    {
      "icao": "LPPR",
      "alert": "OK",
      "vis_m": 9999,
      "fzfg": false,
      "metar_trigger": false,
      "taf_trigger": false,
      "metar": "METAR LPPR 112300Z 17007KT CAVOK 19/17 Q1012",
      "taf": "TAF LPPR 112300Z 1200/1224 18008KT 9999 SCT018"
    },
    {
      "icao": "LPPS",
      "alert": "OK",
      "vis_m": 9999,
      "fzfg": false,
      "metar_trigger": false,
      "taf_trigger": false,
      "metar": "METAR LPPS 112300Z 30010KT 9999 FEW015 21/17 Q1017",
      "taf": "TAF LPPS 112300Z 1200/1306 30012KT 9999 SCT015"
    },
    {
      "icao": "LPPT",
      "alert": "OK",
      "vis_m": 9999,
      "fzfg": false,
      "metar_trigger": false,
      "taf_trigger": false,
      "metar": "METAR LPPT 112300Z 24005KT 9999 FEW016 19/16 Q1013 NOSIG",
      "taf": "TAF LPPT 112300Z 1200/1306 23008KT 9999 FEW025"
    },
    {
      "icao": "LQBK",
      "alert": "OK",
      "vis_m": 9999,
      "fzfg": false,
      "metar_trigger": false,
      "taf_trigger": false,
      "metar": "METAR LQBK 112300Z VRB03KT CAVOK 20/15 Q1017 NOSIG",
      "taf": "TAF LQBK 112300Z 1200/1224 24005KT CAVOK TX28/1214Z TN17/1203Z"
    },
    {
      "icao": "LQSA",
      "alert": "OK",
      "vis_m": 9999,
      "fzfg": false,
      "metar_trigger": false,
      "taf_trigger": false,
      "metar": "METAR LQSA 112300Z VRB03KT CAVOK 16/16 Q1020",
      "taf": "TAF LQSA 112300Z 1200/1224 VRB02KT 9999 SCT050 TX26/1212Z TN15/1203Z"
    },
    {
      "icao": "LQTZ",
      "alert": "OK",
      "vis_m": 9999,
      "fzfg": false,
      "metar_trigger": false,
      "taf_trigger": false,
      "metar": "METAR LQTZ 112300Z VRB02KT CAVOK 15/15 Q1017",
      "taf": "TAF LQTZ 112300Z 1200/1224 27005KT CAVOK TX29/1213Z TN14/1203Z"
    },
    {
      "icao": "LRBC",
      "alert": "OK",
      "vis_m": 9999,
      "fzfg": false,
      "metar_trigger": false,
      "taf_trigger": false,
      "metar": "METAR LRBC 112300Z 35001KT CAVOK 13/12 Q1018",
      "taf": "TAF LRBC 112000Z 1121/1206 VRB04KT CAVOK"
    },
    {
      "icao": "LRBS",
      "alert": "OK",
      "vis_m": 9999,
      "fzfg": false,
      "metar_trigger": false,
      "taf_trigger": false,
      "metar": "METAR LRBS 112300Z VRB02KT CAVOK 18/14 Q1015 NOSIG",
      "taf": "TAF LRBS 111700Z 1118/1218 VRB04KT CAVOK"
    },
    {
      "icao": "LRBV",
      "alert": "OK",
      "vis_m": 9999,
      "fzfg": false,
      "metar_trigger": false,
      "taf_trigger": false,
      "metar": "METAR LRBV 112300Z AUTO VRB04KT 9999 BKN110/// 16/12 Q1018",
      "taf": "TAF LRBV 111700Z 1118/1203 24006KT 9999 SCT060"
    },
    {
      "icao": "LRCL",
      "alert": "OK",
      "vis_m": 9999,
      "fzfg": false,
      "metar_trigger": false,
      "taf_trigger": false,
      "metar": "METAR LRCL 112300Z VRB02KT 9999 SCT048 15/12 Q1018",
      "taf": "TAF LRCL 112000Z 1121/1206 VRB04KT CAVOK"
    },
    {
      "icao": "LRCV",
      "alert": "OK",
      "vis_m": 9999,
      "fzfg": false,
      "metar_trigger": false,
      "taf_trigger": false,
      "metar": "METAR LRCV 112300Z 27007KT CAVOK 21/14 Q1016",
      "taf": "TAF LRCV 112000Z 1121/1206 VRB04KT CAVOK"
    },
    {
      "icao": "LRIA",
      "alert": "OK",
      "vis_m": 9999,
      "fzfg": false,
      "metar_trigger": false,
      "taf_trigger": false,
      "metar": "METAR LRIA 112300Z 28006KT 240V300 CAVOK 15/11 Q1017",
      "taf": "TAF LRIA 112000Z 1121/1206 VRB04KT CAVOK"
    },
    {
      "icao": "LROP",
      "alert": "OK",
      "vis_m": 9999,
      "fzfg": false,
      "metar_trigger": false,
      "taf_trigger": false,
      "metar": "METAR LROP 112300Z 03010KT CAVOK 19/14 Q1016 NOSIG",
      "taf": "TAF LROP 111700Z 1118/1218 VRB04KT CAVOK"
    },
    {
      "icao": "LRSB",
      "alert": "OK",
      "vis_m": 9999,
      "fzfg": false,
      "metar_trigger": false,
      "taf_trigger": false,
      "metar": "METAR LRSB 112300Z COR VRB01KT CAVOK 16/14 Q1018",
      "taf": "TAF LRSB 111700Z 1118/1218 30006KT CAVOK"
    },
    {
      "icao": "LRSM",
      "alert": "OK",
      "vis_m": 9999,
      "fzfg": false,
      "metar_trigger": false,
      "taf_trigger": false,
      "metar": "METAR LRSM 112300Z AUTO 16003KT 9999 NCD 13/11 Q1017",
      "taf": "TAF LRSM 112000Z 1121/1206 VRB04KT CAVOK"
    },
    {
      "icao": "LRSV",
      "alert": "OK",
      "vis_m": 9999,
      "fzfg": false,
      "metar_trigger": false,
      "taf_trigger": false,
      "metar": "METAR LRSV 112300Z 28007KT CAVOK 14/10 Q1017",
      "taf": "TAF LRSV 112000Z 1121/1206 30005KT CAVOK"
    },
    {
      "icao": "LRTM",
      "alert": "OK",
      "vis_m": 9999,
      "fzfg": false,
      "metar_trigger": false,
      "taf_trigger": false,
      "metar": "METAR LRTM 112300Z 08004KT CAVOK 13/13 Q1018",
      "taf": "TAF LRTM 112000Z 1121/1206 VRB04KT CAVOK"
    },
    {
      "icao": "LRTR",
      "alert": "OK",
      "vis_m": 9999,
      "fzfg": false,
      "metar_trigger": false,
      "taf_trigger": false,
      "metar": "METAR LRTR 112300Z 11006KT CAVOK 17/15 Q1015",
      "taf": "TAF LRTR 111700Z 1118/1218 VRB04KT 9999 SCT045"
    },
    {
      "icao": "LTAC",
      "alert": "OK",
      "vis_m": 9999,
      "fzfg": false,
      "metar_trigger": false,
      "taf_trigger": false,
      "metar": "METAR LTAC 112320Z 04009KT CAVOK 17/10 Q1018 NOSIG RMK RWY21C 05006KT RWY03L 03007KT RWY21R 03005KT 360V070 RWY03R 02010KT RWY21L 04008KT",
      "taf": "TAF LTAC 112240Z 1200/1224 VRB02KT CAVOK"
    },
    {
      "icao": "LTFM",
      "alert": "OK",
      "vis_m": 9999,
      "fzfg": false,
      "metar_trigger": false,
      "taf_trigger": false,
      "metar": "METAR LTFM 112320Z 15003KT 110V170 CAVOK 21/12 Q1016 NOSIG RMK RWY17L 11004KT RWY34L 00000KT RWY16R VRB02KT RWY36 09004KT 020V140 RWY18 10002KT",
      "taf": "TAF LTFM 112240Z 1200/1306 12006KT CAVOK"
    },
    {
      "icao": "LUKK",
      "alert": "OK",
      "vis_m": 9999,
      "fzfg": false,
      "metar_trigger": false,
      "taf_trigger": false,
      "metar": "METAR LUKK 112300Z 36003KT CAVOK 13/11 Q1017 NOSIG",
      "taf": "TAF LUKK 112323Z 1200/1224 VRB05KT CAVOK"
    },
    {
      "icao": "LWOH",
      "alert": "OK",
      "vis_m": 9999,
      "fzfg": false,
      "metar_trigger": false,
      "taf_trigger": false,
      "metar": "METAR LWOH 112320Z 31003KT CAVOK 14/12 Q1020",
      "taf": "TAF LWOH 112325Z 1200/1224 VRB02KT CAVOK"
    },
    {
      "icao": "LWSK",
      "alert": "OK",
      "vis_m": 9999,
      "fzfg": false,
      "metar_trigger": false,
      "taf_trigger": false,
      "metar": "METAR LWSK 112320Z 12003KT 100V190 CAVOK 21/13 Q1017 NOSIG",
      "taf": "TAF LWSK 112325Z 1200/1224 VRB02KT CAVOK"
    },
    {
      "icao": "LYBE",
      "alert": "OK",
      "vis_m": 9999,
      "fzfg": false,
      "metar_trigger": false,
      "taf_trigger": false,
      "metar": "METAR LYBE 112300Z 23006KT CAVOK 23/16 Q1016 NOSIG",
      "taf": "TAF LYBE 112300Z 1200/1224 23006KT CAVOK TX30/1214Z TN18/1203Z"
    },
    {
      "icao": "LYNI",
      "alert": "OK",
      "vis_m": 9999,
      "fzfg": false,
      "metar_trigger": false,
      "taf_trigger": false,
      "metar": "METAR LYNI 112300Z 07003KT CAVOK 19/18 Q1018 NOSIG",
      "taf": "TAF LYNI 112300Z 1200/1224 VRB02KT CAVOK TX28/1214Z TN18/1203Z"
    },
    {
      "icao": "LYPG",
      "alert": "OK",
      "vis_m": 9999,
      "fzfg": false,
      "metar_trigger": false,
      "taf_trigger": false,
      "metar": "METAR LYPG 112300Z 24004KT 9999 FEW090 25/13 Q1016 NOSIG",
      "taf": "TAF LYPG 112300Z 1200/1224 36005KT 9999 SCT080 TX32/1213Z TN22/1202Z"
    },
    {
      "icao": "LZIB",
      "alert": "OK",
      "vis_m": 9999,
      "fzfg": false,
      "metar_trigger": false,
      "taf_trigger": false,
      "metar": "METAR LZIB 112300Z VRB03KT CAVOK 20/10 Q1018 NOSIG",
      "taf": "TAF LZIB 112315Z 1200/1300 01005KT CAVOK"
    },
    {
      "icao": "LZKZ",
      "alert": "OK",
      "vis_m": 9999,
      "fzfg": false,
      "metar_trigger": false,
      "taf_trigger": false,
      "metar": "METAR LZKZ 112300Z VRB02KT CAVOK 15/12 Q1017 NOSIG",
      "taf": "TAF LZKZ 112315Z 1200/1300 03007KT CAVOK"
    },
    {
      "icao": "LZTT",
      "alert": "OK",
      "vis_m": 9999,
      "fzfg": false,
      "metar_trigger": false,
      "taf_trigger": false,
      "metar": "METAR LZTT 112300Z 27003KT 230V310 CAVOK 08/07 Q1019",
      "taf": "TAF LZTT 112315Z 1200/1300 27007KT 9999 FEW045 BKN060"
    },
    {
      "icao": "OEJN",
      "alert": "OK",
      "vis_m": 9999,
      "fzfg": false,
      "metar_trigger": false,
      "taf_trigger": false,
      "metar": "METAR OEJN 112300Z 33003KT CAVOK 31/20 Q1004 NOSIG",
      "taf": "TAF OEJN 112300Z 1200/1306 35005KT 9999 FEW040"
    },
    {
      "icao": "OEMA",
      "alert": "OK",
      "vis_m": 9999,
      "fzfg": false,
      "metar_trigger": false,
      "taf_trigger": false,
      "metar": "METAR OEMA 112300Z 33005KT CAVOK 37/04 Q1009 NOSIG",
      "taf": "TAF OEMA 112300Z 1200/1306 33005KT CAVOK"
    },
    {
      "icao": "OJAI",
      "alert": "OK",
      "vis_m": 5000,
      "fzfg": false,
      "metar_trigger": false,
      "taf_trigger": false,
      "metar": "METAR OJAI 112300Z 28008KT 5000 HZ NSC 20/15 Q1015 NOSIG",
      "taf": "TAF OJAI 112300Z 1200/1306 29010KT 5000 HZ NSC"
    },
    {
      "icao": "OMAA",
      "alert": "OK",
      "vis_m": 9999,
      "fzfg": false,
      "metar_trigger": false,
      "taf_trigger": false,
      "metar": "METAR OMAA 112300Z 19003KT CAVOK 31/25 Q0998 NOSIG",
      "taf": "TAF OMAA 112300Z 1200/1306 19005KT 8000 NSC"
    },
    {
      "icao": "OMDB",
      "alert": "OK",
      "vis_m": 9999,
      "fzfg": false,
      "metar_trigger": false,
      "taf_trigger": false,
      "metar": "METAR OMDB 112300Z 19010KT CAVOK 32/19 Q0998 NOSIG",
      "taf": "TAF OMDB 112300Z 1200/1306 19008KT 8000 NSC"
    },
    {
      "icao": "UAAA",
      "alert": "OK",
      "vis_m": 9999,
      "fzfg": false,
      "metar_trigger": false,
      "taf_trigger": false,
      "metar": "METAR UAAA 112300Z VRB01MPS 9999 FEW200 19/12 Q1005 NOSIG",
      "taf": "TAF UAAA 112300Z 1200/1224 32003G08MPS 9999 FEW050CB SCT100 TX35/1210Z TN19/1201Z"
    },
    {
      "icao": "UBBB",
      "alert": "OK",
      "vis_m": 9999,
      "fzfg": false,
      "metar_trigger": false,
      "taf_trigger": false,
      "metar": "METAR UBBB 112300Z 34016KT CAVOK 26/21 Q1012 NOSIG",
      "taf": "TAF UBBB 112250Z 1200/1224 33018G28KT 9999 FEW015 TX31/1210Z TN25/1201Z"
    },
    {
      "icao": "UDSG",
      "alert": "OK",
      "vis_m": 9999,
      "fzfg": false,
      "metar_trigger": false,
      "taf_trigger": false,
      "metar": "METAR UDSG 112300Z 36003KT 320V050 9999 FEW049 20/16 Q1020 NOSIG",
      "taf": "TAF UDSG 112300Z 1200/1224 VRB06KT 9999 FEW050"
    },
    {
      "icao": "UDYZ",
      "alert": "OK",
      "vis_m": 9999,
      "fzfg": false,
      "metar_trigger": false,
      "taf_trigger": false,
      "metar": "METAR UDYZ 112300Z 07002KT 9999 FEW046 25/17 Q1013 NOSIG",
      "taf": "TAF UDYZ 112300Z 1200/1224 20004KT 9999 FEW040"
    },
    {
      "icao": "UGKO",
      "alert": "OK",
      "vis_m": 9999,
      "fzfg": false,
      "metar_trigger": false,
      "taf_trigger": false,
      "metar": "METAR UGKO 112300Z 17004KT 9999 BKN080 21/20 Q1015 NOSIG",
      "taf": "TAF UGKO 112300Z 1200/1224 VRB02KT 9999 SCT030 BKN070 TX28/1212Z TN20/1202Z"
    }
  ]
}