{
  "ts_utc": "2026-01-12T13:49:52Z",
  "threshold_m": 150,
  "source": "stations_override.txt (ICAO list) + aviationweather.gov (METAR/TAF raw)",
  "station_count": 159,
  "stations": [
    {
      "icao": "BIKF",
      "alert": "OK",
      "vis_m": 9999,
      "fzfg": false,
      "metar_trigger": false,
      "taf_trigger": false,
      "metar": "METAR BIKF 121330Z 36027G37KT 9999 BKN027 M02/M07 Q0996",
      "taf": "TAF BIKF 121337Z 1215/1315 01027G37KT 9999 BKN025 TXM01/1220Z TNM03/1312Z"
    },
    {
      "icao": "BKPR",
      "alert": "OK",
      "vis_m": 9999,
      "fzfg": false,
      "metar_trigger": false,
      "taf_trigger": false,
      "metar": "METAR BKPR 121230Z 28004KT 240V320 9999 FEW040 M02/M10 Q1021 NOSIG",
      "taf": "TAF BKPR 121130Z 1212/1312 31008KT 9999 FEW040"
    },
    {
      "icao": "EBCI",
      "alert": "OK",
      "vis_m": 7000,
      "fzfg": false,
      "metar_trigger": false,
      "taf_trigger": false,
      "metar": "METAR EBCI 121320Z 20012KT 7000 -DZRA SCT003 BKN005 08/07 Q1008 TEMPO 2000 DZRA BR BKN003",
      "taf": "TAF EBCI 121103Z 1212/1318 20012KT 9999 SCT004 BKN008"
    },
    {
      "icao": "EDDB",
      "alert": "OK",
      "vis_m": 9999,
      "fzfg": false,
      "metar_trigger": false,
      "taf_trigger": false,
      "metar": "METAR EDDB 121320Z AUTO 15008KT 130V190 9999 BKN038 M03/M08 Q1013 NOSIG",
      "taf": "TAF EDDB 121100Z 1212/1312 14007KT 9999 SCT045"
    },
    {
      "icao": "EDDH",
      "alert": "OK",
      "vis_m": 2400,
      "fzfg": false,
      "metar_trigger": false,
      "taf_trigger": false,
      "metar": "METAR EDDH 121320Z AUTO 14011KT 2400 SN BR BKN004 M02/M02 Q1009 REFZRA TEMPO 3000 -FZDZ",
      "taf": "TAF EDDH 121128Z 1212/1318 14010KT 6000 BKN008"
    },
    {
      "icao": "EDDK",
      "alert": "OK",
      "vis_m": 9999,
      "fzfg": false,
      "metar_trigger": false,
      "taf_trigger": false,
      "metar": "METAR EDDK 121320Z AUTO 13008KT 9999 OVC022 05/02 Q1010 TEMPO RA",
      "taf": "TAF EDDK 121100Z 1212/1318 14007KT 9999 BKN020"
    },
    {
      "icao": "EDDN",
      "alert": "OK",
      "vis_m": 2000,
      "fzfg": false,
      "metar_trigger": false,
      "taf_trigger": false,
      "metar": "METAR EDDN 121320Z AUTO 13008KT 2000 FZDZ BR BKN005 M00/M01 Q1014 TEMPO 3500 NSW",
      "taf": ""
    },
    {
      "icao": "EDDS",
      "alert": "OK",
      "vis_m": 9999,
      "fzfg": false,
      "metar_trigger": false,
      "taf_trigger": false,
      "metar": "METAR EDDS 121320Z AUTO 23007KT 170V270 9999 FEW029 BKN039 BKN046 06/04 Q1012 NOSIG",
      "taf": "TAF EDDS 121100Z 1212/1312 21006KT 9999 BKN040"
    },
    {
      "icao": "EDFH",
      "alert": "OK",
      "vis_m": 8000,
      "fzfg": false,
      "metar_trigger": false,
      "taf_trigger": false,
      "metar": "METAR EDFH 121320Z 22012KT 8000 -RA OVC004 04/03 Q1010",
      "taf": ""
    },
    {
      "icao": "EDJA",
      "alert": "OK",
      "vis_m": 9999,
      "fzfg": false,
      "metar_trigger": false,
      "taf_trigger": false,
      "metar": "METAR EDJA 121320Z 22011KT 9999 -RA BKN040 OVC050 03/00 Q1015",
      "taf": "TAF EDJA 121100Z 1212/1221 22013KT 9999 SCT015 OVC030"
    },
    {
      "icao": "EDLW",
      "alert": "OK",
      "vis_m": 9999,
      "fzfg": false,
      "metar_trigger": false,
      "taf_trigger": false,
      "metar": "METAR EDLW 121320Z COR 18014KT 9999 SCT013 OVC018 05/03 Q1008",
      "taf": "TAF EDLW 121100Z 1212/1312 18010KT 9999 BKN025"
    },
    {
      "icao": "EDNY",
      "alert": "OK",
      "vis_m": 9999,
      "fzfg": false,
      "metar_trigger": false,
      "taf_trigger": false,
      "metar": "METAR EDNY 121320Z VRB02KT 9999 SCT041 OVC052 04/M00 Q1017",
      "taf": "TAF EDNY 121100Z 1212/1221 23004KT 9999 OVC035"
    },
    {
      "icao": "EDSB",
      "alert": "OK",
      "vis_m": 9999,
      "fzfg": false,
      "metar_trigger": false,
      "taf_trigger": false,
      "metar": "METAR EDSB 121320Z 21012KT 9999 -DZ OVC023 07/05 Q1014",
      "taf": "TAF EDSB 121100Z 1212/1312 20011KT 9999 BKN040"
    },
    {
      "icao": "EETN",
      "alert": "OK",
      "vis_m": 9999,
      "fzfg": false,
      "metar_trigger": false,
      "taf_trigger": false,
      "metar": "METAR EETN 121320Z 07005KT 9999 OVC017 M03/M05 Q1017 TEMPO BKN015",
      "taf": "TAF EETN 121130Z 1212/1312 09008KT 9999 SCT015 BKN025"
    },
    {
      "icao": "EFTU",
      "alert": "OK",
      "vis_m": 9999,
      "fzfg": false,
      "metar_trigger": false,
      "taf_trigger": false,
      "metar": "METAR EFTU 121320Z AUTO 07007KT CAVOK M08/M10 Q1019",
      "taf": "TAF EFTU 121132Z 1212/1312 09007KT 9999 BKN026"
    },
    {
      "icao": "EGBB",
      "alert": "OK",
      "vis_m": 9999,
      "fzfg": false,
      "metar_trigger": false,
      "taf_trigger": false,
      "metar": "METAR EGBB 121320Z 20009KT 180V240 9999 -RA BKN016 11/08 Q0999",
      "taf": "TAF EGBB 121054Z 1212/1312 19009KT 9999 BKN020"
    },
    {
      "icao": "EGGP",
      "alert": "OK",
      "vis_m": 9999,
      "fzfg": false,
      "metar_trigger": false,
      "taf_trigger": false,
      "metar": "METAR EGGP 121320Z 18008KT 9999 BKN032 09/07 Q0996",
      "taf": "TAF EGGP 121103Z 1212/1312 19010KT 9999 SCT030"
    },
    {
      "icao": "EGGW",
      "alert": "OK",
      "vis_m": 9999,
      "fzfg": false,
      "metar_trigger": false,
      "taf_trigger": false,
      "metar": "METAR EGGW 121320Z AUTO 21011KT 9999 BKN014 BKN022 10/08 Q1001",
      "taf": "TAF EGGW 121058Z 1212/1312 20010KT 9999 SCT020"
    },
    {
      "icao": "EGKK",
      "alert": "OK",
      "vis_m": 9999,
      "fzfg": false,
      "metar_trigger": false,
      "taf_trigger": false,
      "metar": "METAR EGKK 121320Z 22011KT 9999 VCSH BKN008 10/10 Q1003",
      "taf": ""
    },
    {
      "icao": "EGNM",
      "alert": "OK",
      "vis_m": 9999,
      "fzfg": false,
      "metar_trigger": false,
      "taf_trigger": false,
      "metar": "METAR EGNM 121320Z 23008KT 9999 -SHRA SCT017 SCT031 08/07 Q0995",
      "taf": "TAF EGNM 121103Z 1212/1312 22016G26KT 9999 BKN025"
    },
    {
      "icao": "EGPD",
      "alert": "OK",
      "vis_m": 9999,
      "fzfg": false,
      "metar_trigger": false,
      "taf_trigger": false,
      "metar": "METAR EGPD 121320Z COR AUTO 20019KT 9999 NCD 09/04 Q0986 NOSIG",
      "taf": "TAF EGPD 121055Z 1212/1312 22018G28KT 9999 SCT025"
    },
    {
      "icao": "EGPF",
      "alert": "OK",
      "vis_m": 9999,
      "fzfg": false,
      "metar_trigger": false,
      "taf_trigger": false,
      "metar": "METAR EGPF 121320Z AUTO 21015KT 9999 SCT015/// BKN029/// BKN043/// //////TCU 09/07 Q0989",
      "taf": "TAF EGPF 121055Z 1212/1312 21015KT 9999 SCT025"
    },
    {
      "icao": "EHBK",
      "alert": "OK",
      "vis_m": 9999,
      "fzfg": false,
      "metar_trigger": false,
      "taf_trigger": false,
      "metar": "METAR EHBK 121325Z AUTO 20015KT 9999 -RADZ FEW003/// OVC010/// 07/06 Q1008 REDZRA TEMPO BKN009",
      "taf": "TAF EHBK 121115Z 1212/1318 20018KT 9999 BKN012"
    },
    {
      "icao": "EHEH",
      "alert": "OK",
      "vis_m": 9999,
      "fzfg": false,
      "metar_trigger": false,
      "taf_trigger": false,
      "metar": "METAR EHEH 121325Z AUTO 18008KT 150V210 9999 OVC008 07/06 Q1007 GRN TEMPO 3000 BR -DZ SCT003 BKN005",
      "taf": "TAF EHEH 121114Z 1212/1318 20010KT 9999 BKN006"
    },
    {
      "icao": "EKBI",
      "alert": "OK",
      "vis_m": 3000,
      "fzfg": false,
      "metar_trigger": false,
      "taf_trigger": false,
      "metar": "METAR EKBI 121320Z 12010KT 3000 BR DRSN OVC005 M01/M02 Q1007",
      "taf": "TAF EKBI 121127Z 1212/1312 14015KT 1200 -SN BKN006"
    },
    {
      "icao": "EKCH",
      "alert": "OK",
      "vis_m": 9999,
      "fzfg": false,
      "metar_trigger": false,
      "taf_trigger": false,
      "metar": "METAR EKCH 121320Z AUTO 12012KT 9999 FEW084/// BKN094/// BKN160/// 00/M06 Q1012 BECMG 4000 SN BKN008",
      "taf": ""
    },
    {
      "icao": "ENAL",
      "alert": "OK",
      "vis_m": 9999,
      "fzfg": false,
      "metar_trigger": false,
      "taf_trigger": false,
      "metar": "METAR ENAL 121320Z 11012KT 9999 FEW062 06/M04 Q0995",
      "taf": "TAF ENAL 121100Z 1212/1221 14018KT 9999 SCT050"
    },
    {
      "icao": "ENBR",
      "alert": "OK",
      "vis_m": 9999,
      "fzfg": false,
      "metar_trigger": false,
      "taf_trigger": false,
      "metar": "METAR ENBR 121320Z 13015KT 9999 BKN044 04/M05 Q0996 TEMPO 13020G32KT RMK WIND 1200FT 13036G48KT",
      "taf": "TAF ENBR 121100Z 1212/1312 13018KT 9999 SCT050"
    },
    {
      "icao": "ENGM",
      "alert": "OK",
      "vis_m": 9999,
      "fzfg": false,
      "metar_trigger": false,
      "taf_trigger": false,
      "metar": "METAR ENGM 121250Z 04003KT 9999 -SN OVC018 M08/M10 Q1014 TEMPO 2500 -SN BKN008",
      "taf": ""
    },
    {
      "icao": "ENHD",
      "alert": "OK",
      "vis_m": 9999,
      "fzfg": false,
      "metar_trigger": false,
      "taf_trigger": false,
      "metar": "METAR ENHD 121320Z 13033G43KT 9999 BKN043 03/M03 Q0998 RESN",
      "taf": ""
    },
    {
      "icao": "ENTC",
      "alert": "OK",
      "vis_m": 9999,
      "fzfg": false,
      "metar_trigger": false,
      "taf_trigger": false,
      "metar": "METAR ENTC 121320Z 19019KT CAVOK M01/M12 Q1015 NOSIG RMK WIND 2600FT 18037KT",
      "taf": "TAF ENTC 121100Z 1212/1312 24009KT CAVOK"
    },
    {
      "icao": "ENTO",
      "alert": "OK",
      "vis_m": 9999,
      "fzfg": false,
      "metar_trigger": false,
      "taf_trigger": false,
      "metar": "METAR ENTO 121320Z 02006KT 9999 SCT007 OVC009 M07/M08 Q1013 TEMPO 4000 -SN",
      "taf": "TAF ENTO 121100Z 1212/1312 02008KT 9999 -SN BKN012"
    },
    {
      "icao": "ENVA",
      "alert": "OK",
      "vis_m": 9999,
      "fzfg": false,
      "metar_trigger": false,
      "taf_trigger": false,
      "metar": "METAR ENVA 121320Z 12021G32KT CAVOK M02/M10 Q1006 WS R09 NOSIG RMK WIND 670FT 14028G46KT",
      "taf": "TAF ENVA 121100Z 1212/1312 11015G28KT CAVOK"
    },
    {
      "icao": "ENZV",
      "alert": "OK",
      "vis_m": 9999,
      "fzfg": false,
      "metar_trigger": false,
      "taf_trigger": false,
      "metar": "METAR ENZV 121320Z 13024G38KT 9999 DRSN BKN047 02/M03 Q0999 NOSIG",
      "taf": ""
    },
    {
      "icao": "EPGD",
      "alert": "OK",
      "vis_m": 9999,
      "fzfg": false,
      "metar_trigger": false,
      "taf_trigger": false,
      "metar": "METAR EPGD 121330Z 29006KT 9999 BKN032 M01/M04 Q1015",
      "taf": "TAF EPGD 121130Z 1212/1312 29010KT 9999 BKN030"
    },
    {
      "icao": "EPKK",
      "alert": "OK",
      "vis_m": 9999,
      "fzfg": false,
      "metar_trigger": false,
      "taf_trigger": false,
      "metar": "METAR EPKK 121330Z 26008KT 9999 BKN027 M04/M10 Q1018",
      "taf": "TAF EPKK 121143Z 1212/1312 25010KT 9999 SCT026"
    },
    {
      "icao": "EPKT",
      "alert": "OK",
      "vis_m": 9999,
      "fzfg": false,
      "metar_trigger": false,
      "taf_trigger": false,
      "metar": "METAR EPKT 121330Z 26007KT 9999 BKN024 M06/M10 Q1017",
      "taf": "TAF EPKT 121145Z 1212/1312 28010KT 9999 SCT026"
    },
    {
      "icao": "EPLB",
      "alert": "OK",
      "vis_m": 9999,
      "fzfg": false,
      "metar_trigger": false,
      "taf_trigger": false,
      "metar": "METAR EPLB 121330Z 29005KT CAVOK M08/M11 Q1016",
      "taf": "TAF EPLB 121130Z 1212/1312 VRB02KT CAVOK"
    },
    {
      "icao": "EPMO",
      "alert": "OK",
      "vis_m": 9999,
      "fzfg": false,
      "metar_trigger": false,
      "taf_trigger": false,
      "metar": "METAR EPMO 121330Z VRB01KT 9999 -SN BKN008 BKN016 M04/M05 Q1016",
      "taf": ""
    },
    {
      "icao": "EPPO",
      "alert": "OK",
      "vis_m": 9999,
      "fzfg": false,
      "metar_trigger": false,
      "taf_trigger": false,
      "metar": "METAR EPPO 121330Z 17003KT CAVOK M06/M10 Q1017",
      "taf": "TAF EPPO 121144Z 1212/1312 VRB02KT CAVOK"
    },
    {
      "icao": "EPRA",
      "alert": "OK",
      "vis_m": 9999,
      "fzfg": false,
      "metar_trigger": false,
      "taf_trigger": false,
      "metar": "METAR EPRA 121330Z 28013KT 9999 -SN BKN010 M04/M06 Q1016",
      "taf": "TAF EPRA 121130Z 1212/1221 30006KT 8000 SCT014 BKN020"
    },
    {
      "icao": "EPRZ",
      "alert": "OK",
      "vis_m": 5000,
      "fzfg": false,
      "metar_trigger": false,
      "taf_trigger": false,
      "metar": "METAR EPRZ 121330Z 27011KT 5000 -SN BR BKN010 OVC020 M05/M07 Q1017",
      "taf": "TAF EPRZ 121144Z 1212/1312 30010KT 9999 BKN013"
    },
    {
      "icao": "EPSC",
      "alert": "OK",
      "vis_m": 9999,
      "fzfg": false,
      "metar_trigger": false,
      "taf_trigger": false,
      "metar": "METAR EPSC 121330Z 12010KT CAVOK M04/M08 Q1014",
      "taf": "TAF EPSC 120530Z 1206/1306 VRB02KT CAVOK"
    },
    {
      "icao": "EPSY",
      "alert": "OK",
      "vis_m": 9999,
      "fzfg": false,
      "metar_trigger": false,
      "taf_trigger": false,
      "metar": "METAR EPSY 121330Z 19005KT 9999 SCT042 M05/M09 Q1016",
      "taf": "TAF EPSY 121130Z 1212/1221 VRB03KT 9999 SCT030"
    },
    {
      "icao": "EPWA",
      "alert": "OK",
      "vis_m": 9999,
      "fzfg": false,
      "metar_trigger": false,
      "taf_trigger": false,
      "metar": "METAR EPWA 121330Z 28004KT 9999 -SN BKN010 M04/M06 Q1017 BECMG SCT010",
      "taf": ""
    },
    {
      "icao": "EPWR",
      "alert": "OK",
      "vis_m": 9999,
      "fzfg": false,
      "metar_trigger": false,
      "taf_trigger": false,
      "metar": "METAR EPWR 121330Z 11006KT CAVOK M02/M11 Q1017",
      "taf": "TAF EPWR 121145Z 1212/1312 VRB02KT CAVOK"
    },
    {
      "icao": "ESGG",
      "alert": "OK",
      "vis_m": 9999,
      "fzfg": false,
      "metar_trigger": false,
      "taf_trigger": false,
      "metar": "METAR ESGG 121320Z 11010KT CAVOK M07/M08 Q1012",
      "taf": "TAF ESGG 121130Z 1212/1312 12010KT CAVOK"
    },
    {
      "icao": "ESKN",
      "alert": "OK",
      "vis_m": 7000,
      "fzfg": false,
      "metar_trigger": false,
      "taf_trigger": false,
      "metar": "METAR ESKN 121320Z 31003KT 7000 -SN SCT006 BKN021 M06/M07 Q1016",
      "taf": "TAF ESKN 121130Z 1212/1312 34005KT 9999 SCT020"
    },
    {
      "icao": "ESMS",
      "alert": "OK",
      "vis_m": 9999,
      "fzfg": false,
      "metar_trigger": false,
      "taf_trigger": false,
      "metar": "METAR ESMS 121320Z 11007KT CAVOK M02/M04 Q1012",
      "taf": "TAF ESMS 121127Z 1212/1312 13005KT CAVOK"
    },
    {
      "icao": "ESSA",
      "alert": "OK",
      "vis_m": 4000,
      "fzfg": false,
      "metar_trigger": false,
      "taf_trigger": false,
      "metar": "METAR ESSA 121320Z 03005KT 4000 -SN BKN004 BKN025 M06/M07 Q1017 TEMPO 2000",
      "taf": "TAF ESSA 121130Z 1212/1312 05009KT 9999 BKN020"
    },
    {
      "icao": "EYKA",
      "alert": "OK",
      "vis_m": 4800,
      "fzfg": false,
      "metar_trigger": false,
      "taf_trigger": false,
      "metar": "METAR EYKA 121320Z 29003KT 270V330 4800 BR NSC M11/M13 Q1016",
      "taf": "TAF EYKA 121100Z 1212/1312 VRB04KT 9000 NSC"
    },
    {
      "icao": "EYPA",
      "alert": "OK",
      "vis_m": 9999,
      "fzfg": false,
      "metar_trigger": false,
      "taf_trigger": false,
      "metar": "METAR EYPA 121320Z 13003KT CAVOK M05/M07 Q1016",
      "taf": "TAF EYPA 121100Z 1212/1312 VRB04KT 9000 BKN020"
    },
    {
      "icao": "EYVI",
      "alert": "OK",
      "vis_m": 9999,
      "fzfg": false,
      "metar_trigger": false,
      "taf_trigger": false,
      "metar": "METAR EYVI 121320Z 31006KT 9999 FEW006 M12/M13 Q1014 NOSIG",
      "taf": "TAF EYVI 121100Z 1212/1312 VRB04KT 9000 SCT010 BKN020"
    },
    {
      "icao": "GCFV",
      "alert": "OK",
      "vis_m": 9999,
      "fzfg": false,
      "metar_trigger": false,
      "taf_trigger": false,
      "metar": "METAR GCFV 121330Z 09004KT 040V160 9999 FEW018 19/13 Q1022",
      "taf": "TAF GCFV 120800Z 1209/1309 11006KT 9999 FEW020 TX21/1214Z TN12/1306Z"
    },
    {
      "icao": "GCLP",
      "alert": "OK",
      "vis_m": 9999,
      "fzfg": false,
      "metar_trigger": false,
      "taf_trigger": false,
      "metar": "METAR GCLP 121330Z 06006KT 9999 FEW025 20/12 Q1022 NOSIG",
      "taf": "TAF GCLP 120800Z 1209/1309 05007KT 9999 FEW025 TX21/1214Z TN14/1306Z"
    },
    {
      "icao": "GCTS",
      "alert": "OK",
      "vis_m": 9999,
      "fzfg": false,
      "metar_trigger": false,
      "taf_trigger": false,
      "metar": "METAR GCTS 121330Z 13005KT 100V170 9999 FEW030 19/12 Q1022 NOSIG",
      "taf": "TAF GCTS 120800Z 1209/1309 11010KT 9999 FEW030 TX23/1214Z TN14/1306Z"
    },
    {
      "icao": "GMAD",
      "alert": "OK",
      "vis_m": 9999,
      "fzfg": false,
      "metar_trigger": false,
      "taf_trigger": false,
      "metar": "METAR GMAD 121330Z 07003KT CAVOK 22/07 Q1021 NOSIG",
      "taf": "TAF GMAD 121100Z 1212/1318 25006KT CAVOK"
    },
    {
      "icao": "GMMN",
      "alert": "OK",
      "vis_m": 9999,
      "fzfg": false,
      "metar_trigger": false,
      "taf_trigger": false,
      "metar": "METAR GMMN 121330Z 22012KT CAVOK 19/11 Q1021 NOSIG",
      "taf": "TAF GMMN 121100Z 1212/1318 22010KT CAVOK"
    },
    {
      "icao": "GMMX",
      "alert": "OK",
      "vis_m": 9999,
      "fzfg": false,
      "metar_trigger": false,
      "taf_trigger": false,
      "metar": "METAR GMMX 121330Z 35004KT 300V060 CAVOK 19/03 Q1021 NOSIG",
      "taf": "TAF GMMX 121100Z 1212/1318 10006KT 8000 NSC"
    },
    {
      "icao": "HEGN",
      "alert": "OK",
      "vis_m": 9999,
      "fzfg": false,
      "metar_trigger": false,
      "taf_trigger": false,
      "metar": "METAR HEGN 121300Z 36011KT CAVOK 22/07 Q1015 NOSIG",
      "taf": "TAF HEGN 121100Z 1212/1318 33012G24KT 6000 SCT025"
    },
    {
      "icao": "HEMA",
      "alert": "OK",
      "vis_m": 9999,
      "fzfg": false,
      "metar_trigger": false,
      "taf_trigger": false,
      "metar": "METAR HEMA 121300Z 03009KT CAVOK 23/09 Q1015 NOSIG",
      "taf": "TAF HEMA 121100Z 1212/1318 35008G20KT CAVOK"
    },
    {
      "icao": "HESH",
      "alert": "OK",
      "vis_m": 9999,
      "fzfg": false,
      "metar_trigger": false,
      "taf_trigger": false,
      "metar": "METAR HESH 121300Z 06005KT CAVOK 23/08 Q1014 NOSIG",
      "taf": "TAF HESH 121100Z 1212/1318 34006G18KT 9999 SCT025"
    },
    {
      "icao": "HESX",
      "alert": "OK",
      "vis_m": 300,
      "fzfg": false,
      "metar_trigger": false,
      "taf_trigger": false,
      "metar": "METAR HESX 121300Z 26023KT 0300 R34R1200 SS NSC 17/03 Q1015 NOSIG",
      "taf": ""
    },
    {
      "icao": "LATI",
      "alert": "OK",
      "vis_m": null,
      "fzfg": false,
      "metar_trigger": false,
      "taf_trigger": false,
      "metar": "",
      "taf": "TAF LATI 121100Z 1212/1312 33012KT CAVOK TX10/1312Z TNM02/1222Z"
    },
    {
      "icao": "LBPD",
      "alert": "OK",
      "vis_m": 9999,
      "fzfg": false,
      "metar_trigger": false,
      "taf_trigger": false,
      "metar": "METAR LBPD 121330Z AUTO 29023KT 9999 NCD 02/M10 Q1019 TEMPO 27020G30KT",
      "taf": "TAF LBPD 121100Z 1212/1312 28020KT CAVOK"
    },
    {
      "icao": "LBSF",
      "alert": "OK",
      "vis_m": 9999,
      "fzfg": false,
      "metar_trigger": false,
      "taf_trigger": false,
      "metar": "METAR LBSF 121330Z 28016KT 9999 SCT032 M03/M10 Q1019 TEMPO 28020G30KT",
      "taf": "TAF LBSF 121100Z 1212/1312 28020KT 9999 SCT050"
    },
    {
      "icao": "LBWN",
      "alert": "OK",
      "vis_m": 9999,
      "fzfg": false,
      "metar_trigger": false,
      "taf_trigger": false,
      "metar": "METAR LBWN 121330Z 29015KT 9999 FEW028 M01/M07 Q1019 NOSIG",
      "taf": "TAF LBWN 121100Z 1212/1312 31016KT 9999 SCT030"
    },
    {
      "icao": "LCLK",
      "alert": "OK",
      "vis_m": 9999,
      "fzfg": false,
      "metar_trigger": false,
      "taf_trigger": false,
      "metar": "METAR LCLK 121330Z 24011KT 9999 FEW008 FEW020CB BKN050 14/10 Q1006 NOSIG",
      "taf": "TAF LCLK 121130Z 1212/1312 22020KT 9999 SCT025"
    },
    {
      "icao": "LCPH",
      "alert": "OK",
      "vis_m": 9999,
      "fzfg": false,
      "metar_trigger": false,
      "taf_trigger": false,
      "metar": "METAR LCPH 121330Z 31014KT 9999 FEW025TCU FEW035CB SCT045 BKN070 15/09 Q1006 TEMPO 3000 TSRA SCT025CB",
      "taf": "TAF LCPH 121130Z 1212/1312 28020KT 9999 SCT020"
    },
    {
      "icao": "LEAL",
      "alert": "OK",
      "vis_m": 9999,
      "fzfg": false,
      "metar_trigger": false,
      "taf_trigger": false,
      "metar": "METAR LEAL 121330Z 22006KT 180V260 CAVOK 18/06 Q1021 NOSIG",
      "taf": "TAF LEAL 121100Z 1212/1312 29007KT CAVOK TX16/1213Z TN06/1306Z"
    },
    {
      "icao": "LEBB",
      "alert": "OK",
      "vis_m": 9999,
      "fzfg": false,
      "metar_trigger": false,
      "taf_trigger": false,
      "metar": "METAR LEBB 121330Z VRB07KT 9999 FEW040 17/07 Q1015 NOSIG",
      "taf": "TAF LEBB 121100Z 1212/1312 17009KT 9999 FEW040 TX17/1212Z TN11/1306Z"
    },
    {
      "icao": "LEBL",
      "alert": "OK",
      "vis_m": 9999,
      "fzfg": false,
      "metar_trigger": false,
      "taf_trigger": false,
      "metar": "METAR LEBL 121330Z 23016KT CAVOK 15/11 Q1020 NOSIG",
      "taf": "TAF LEBL 121100Z 1212/1312 22012KT 9999 FEW030 TX15/1212Z TN07/1306Z"
    },
    {
      "icao": "LECH",
      "alert": "OK",
      "vis_m": 9999,
      "fzfg": false,
      "metar_trigger": false,
      "taf_trigger": false,
      "metar": "METAR LECH 121330Z AUTO 11007KT 070V140 CAVOK 14/08 Q1020",
      "taf": ""
    },
    {
      "icao": "LEMD",
      "alert": "OK",
      "vis_m": 9999,
      "fzfg": false,
      "metar_trigger": false,
      "taf_trigger": false,
      "metar": "METAR LEMD 121330Z 21003KT 170V260 9999 SCT010 BKN020 08/05 Q1022 NOSIG",
      "taf": ""
    },
    {
      "icao": "LEMG",
      "alert": "OK",
      "vis_m": 9999,
      "fzfg": false,
      "metar_trigger": false,
      "taf_trigger": false,
      "metar": "METAR LEMG 121330Z 12006KT 100V170 CAVOK 15/10 Q1022 NOSIG",
      "taf": "TAF LEMG 121100Z 1212/1312 27006KT CAVOK TX17/1214Z TN06/1307Z"
    },
    {
      "icao": "LEVC",
      "alert": "OK",
      "vis_m": 9999,
      "fzfg": false,
      "metar_trigger": false,
      "taf_trigger": false,
      "metar": "METAR LEVC 121330Z 09005KT 040V130 CAVOK 17/07 Q1020 NOSIG",
      "taf": "TAF LEVC 121100Z 1212/1312 27005KT CAVOK TX19/1214Z TN04/1306Z"
    },
    {
      "icao": "LEXJ",
      "alert": "OK",
      "vis_m": 9999,
      "fzfg": false,
      "metar_trigger": false,
      "taf_trigger": false,
      "metar": "METAR LEXJ 121330Z 21017G29KT 150V250 CAVOK 16/07 Q1012",
      "taf": ""
    },
    {
      "icao": "LEZG",
      "alert": "OK",
      "vis_m": 9999,
      "fzfg": false,
      "metar_trigger": false,
      "taf_trigger": false,
      "metar": "METAR LEZG 121330Z 09007KT CAVOK 12/05 Q1020 NOSIG",
      "taf": "TAF LEZG 121100Z 1212/1312 VRB04KT CAVOK TX14/1215Z TN05/1306Z"
    },
    {
      "icao": "LEZL",
      "alert": "OK",
      "vis_m": 9999,
      "fzfg": false,
      "metar_trigger": false,
      "taf_trigger": false,
      "metar": "METAR LEZL 121330Z 25004KT 210V330 CAVOK 16/09 Q1021 NOSIG",
      "taf": "TAF LEZL 120800Z 1209/1309 03004KT CAVOK TX16/1215Z TN10/1307Z"
    },
    {
      "icao": "LFBD",
      "alert": "OK",
      "vis_m": 9999,
      "fzfg": false,
      "metar_trigger": false,
      "taf_trigger": false,
      "metar": "METAR LFBD 121330Z AUTO 20009KT 170V230 CAVOK 16/08 Q1014",
      "taf": ""
    },
    {
      "icao": "LFLL",
      "alert": "OK",
      "vis_m": 9999,
      "fzfg": false,
      "metar_trigger": false,
      "taf_trigger": false,
      "metar": "METAR LFLL 121330Z AUTO 16013KT CAVOK 11/M04 Q1018",
      "taf": "TAF LFLL 120500Z 1206/1312 16005KT CAVOK"
    },
    {
      "icao": "LFLS",
      "alert": "OK",
      "vis_m": 9999,
      "fzfg": false,
      "metar_trigger": false,
      "taf_trigger": false,
      "metar": "METAR LFLS 121330Z AUTO VRB02KT CAVOK 07/M00 Q1019",
      "taf": "TAF LFLS 120200Z 1203/1303 09005KT 9999 BKN060"
    },
    {
      "icao": "LFMN",
      "alert": "OK",
      "vis_m": 9999,
      "fzfg": false,
      "metar_trigger": false,
      "taf_trigger": false,
      "metar": "METAR LFMN 121330Z 22006KT CAVOK 13/01 Q1021 NOSIG",
      "taf": "TAF LFMN 120800Z 1209/1315 34010KT CAVOK"
    },
    {
      "icao": "LFOB",
      "alert": "OK",
      "vis_m": 9999,
      "fzfg": false,
      "metar_trigger": false,
      "taf_trigger": false,
      "metar": "METAR LFOB 121330Z AUTO 21016KT 9999 FEW017 SCT026 BKN062 12/09 Q1008",
      "taf": ""
    },
    {
      "icao": "LFPO",
      "alert": "OK",
      "vis_m": 9999,
      "fzfg": false,
      "metar_trigger": false,
      "taf_trigger": false,
      "metar": "METAR LFPO 121330Z 21010KT CAVOK 11/06 Q1010 NOSIG",
      "taf": "TAF LFPO 121100Z 1212/1318 22015G25KT 9999 BKN020"
    },
    {
      "icao": "LFSB",
      "alert": "OK",
      "vis_m": 9999,
      "fzfg": false,
      "metar_trigger": false,
      "taf_trigger": false,
      "metar": "METAR LFSB 121330Z AUTO 17006KT 140V230 9999 FEW052 BKN068 OVC082 06/03 Q1016 TEMPO FEW030TCU",
      "taf": "TAF LFSB 121100Z 1212/1312 19005KT 9999 SCT030 BKN043"
    },
    {
      "icao": "LGAV",
      "alert": "OK",
      "vis_m": 9999,
      "fzfg": false,
      "metar_trigger": false,
      "taf_trigger": false,
      "metar": "METAR LGAV 121320Z 33013KT 9999 FEW030 06/M04 Q1017 NOSIG",
      "taf": "TAF LGAV 121100Z 1212/1312 35015G25KT 9999 FEW020"
    },
    {
      "icao": "LGTS",
      "alert": "OK",
      "vis_m": 9999,
      "fzfg": false,
      "metar_trigger": false,
      "taf_trigger": false,
      "metar": "METAR LGTS 121320Z 32025KT 9999 FEW025 04/M06 Q1021 NOSIG",
      "taf": "TAF LGTS 121100Z 1212/1312 34015G30KT 9999 FEW025"
    },
    {
      "icao": "LHBP",
      "alert": "OK",
      "vis_m": 9999,
      "fzfg": false,
      "metar_trigger": false,
      "taf_trigger": false,
      "metar": "METAR LHBP 121330Z 26006KT 240V300 CAVOK M03/M10 Q1020 NOSIG",
      "taf": "TAF LHBP 121115Z 1212/1312 29008KT CAVOK"
    },
    {
      "icao": "LHDC",
      "alert": "OK",
      "vis_m": 9999,
      "fzfg": false,
      "metar_trigger": false,
      "taf_trigger": false,
      "metar": "METAR LHDC 121315Z AUTO 17007KT 140V210 CAVOK M08/M11 Q1020",
      "taf": "TAF LHDC 121115Z 1212/1221 19009KT CAVOK"
    },
    {
      "icao": "LIBD",
      "alert": "OK",
      "vis_m": 9999,
      "fzfg": false,
      "metar_trigger": false,
      "taf_trigger": false,
      "metar": "METAR LIBD 121320Z 30006KT 260V350 CAVOK 08/M02 Q1025",
      "taf": "TAF LIBD 121100Z 1212/1312 31010KT 9999 FEW035"
    },
    {
      "icao": "LIBG",
      "alert": "OK",
      "vis_m": 9999,
      "fzfg": false,
      "metar_trigger": false,
      "taf_trigger": false,
      "metar": "METAR LIBG 121250Z 35018KT 9999 FEW040 09/M03 Q1024",
      "taf": "TAF LIBG 121100Z 1212/1221 34017KT 9999 FEW040"
    },
    {
      "icao": "LIBP",
      "alert": "OK",
      "vis_m": 9999,
      "fzfg": false,
      "metar_trigger": false,
      "taf_trigger": false,
      "metar": "METAR LIBP 121320Z AUTO 20003KT 9999 NCD 10/M04 Q1024",
      "taf": "TAF LIBP 121100Z 1212/1312 24010KT CAVOK"
    },
    {
      "icao": "LIBR",
      "alert": "OK",
      "vis_m": 9999,
      "fzfg": false,
      "metar_trigger": false,
      "taf_trigger": false,
      "metar": "METAR LIBR 121320Z 01018KT CAVOK 08/M06 Q1024",
      "taf": "TAF LIBR 121100Z 1212/1312 35016KT 9999 FEW035"
    },
    {
      "icao": "LICA",
      "alert": "OK",
      "vis_m": 9999,
      "fzfg": false,
      "metar_trigger": false,
      "taf_trigger": false,
      "metar": "METAR LICA 121320Z AUTO 28015KT 9999 NCD 10/M03 Q1026",
      "taf": "TAF LICA 121100Z 1212/1312 26012KT CAVOK"
    },
    {
      "icao": "LICC",
      "alert": "OK",
      "vis_m": 9999,
      "fzfg": false,
      "metar_trigger": false,
      "taf_trigger": false,
      "metar": "METAR LICC 121320Z 13004KT 070V210 CAVOK 13/08 Q1025",
      "taf": "TAF LICC 121100Z 1212/1312 10008KT CAVOK"
    },
    {
      "icao": "LICJ",
      "alert": "OK",
      "vis_m": 9999,
      "fzfg": false,
      "metar_trigger": false,
      "taf_trigger": false,
      "metar": "METAR LICJ 121320Z VRB02KT CAVOK 13/03 Q1026",
      "taf": "TAF LICJ 121100Z 1212/1312 08010KT CAVOK"
    },
    {
      "icao": "LIMC",
      "alert": "OK",
      "vis_m": 9999,
      "fzfg": false,
      "metar_trigger": false,
      "taf_trigger": false,
      "metar": "METAR LIMC 121320Z 22003KT 190V250 CAVOK 09/M08 Q1021 NOSIG",
      "taf": "TAF LIMC 121100Z 1212/1318 VRB05KT CAVOK"
    },
    {
      "icao": "LIME",
      "alert": "OK",
      "vis_m": 9999,
      "fzfg": false,
      "metar_trigger": false,
      "taf_trigger": false,
      "metar": "METAR LIME 121320Z 25003KT 200V310 CAVOK 07/M06 Q1021 NOSIG",
      "taf": "TAF LIME 121100Z 1212/1312 VRB05KT CAVOK"
    },
    {
      "icao": "LIMF",
      "alert": "OK",
      "vis_m": 9999,
      "fzfg": false,
      "metar_trigger": false,
      "taf_trigger": false,
      "metar": "METAR LIMF 121320Z VRB01KT CAVOK 08/M08 Q1021",
      "taf": "TAF LIMF 121100Z 1212/1312 VRB05KT CAVOK"
    },
    {
      "icao": "LIMJ",
      "alert": "OK",
      "vis_m": 9999,
      "fzfg": false,
      "metar_trigger": false,
      "taf_trigger": false,
      "metar": "METAR LIMJ 121320Z 16008KT 9999 SCT029 SCT045 13/06 Q1022",
      "taf": "TAF LIMJ 121100Z 1212/1312 16010KT 9999 BKN030"
    },
    {
      "icao": "LIPE",
      "alert": "OK",
      "vis_m": 9999,
      "fzfg": false,
      "metar_trigger": false,
      "taf_trigger": false,
      "metar": "METAR LIPE 121320Z 02003KT 350V050 CAVOK 06/M02 Q1022",
      "taf": "TAF LIPE 121100Z 1212/1312 VRB03KT 9999 FEW035"
    },
    {
      "icao": "LIPH",
      "alert": "OK",
      "vis_m": 9999,
      "fzfg": false,
      "metar_trigger": false,
      "taf_trigger": false,
      "metar": "METAR LIPH 121320Z VRB02KT 9999 FEW030 07/M02 Q1022",
      "taf": "TAF LIPH 121100Z 1212/1312 VRB03KT 9999 FEW025"
    },
    {
      "icao": "LIPQ",
      "alert": "OK",
      "vis_m": 9999,
      "fzfg": false,
      "metar_trigger": false,
      "taf_trigger": false,
      "metar": "METAR LIPQ 121320Z AUTO 02004KT 9999 FEW035/// BKN110/// 06/00 Q1022",
      "taf": "TAF LIPQ 121100Z 1212/1312 VRB04KT 9999 SCT025"
    },
    {
      "icao": "LIPR",
      "alert": "OK",
      "vis_m": 9999,
      "fzfg": false,
      "metar_trigger": false,
      "taf_trigger": false,
      "metar": "METAR LIPR 121320Z 19003KT CAVOK 10/02 Q1022",
      "taf": "TAF LIPR 121100Z 1212/1312 VRB05KT 9999 FEW035"
    },
    {
      "icao": "LIPX",
      "alert": "OK",
      "vis_m": 9999,
      "fzfg": false,
      "metar_trigger": false,
      "taf_trigger": false,
      "metar": "METAR LIPX 121320Z VRB02KT CAVOK 06/M03 Q1022",
      "taf": "TAF LIPX 121100Z 1212/1312 VRB05KT 9999 SCT080"
    },
    {
      "icao": "LIPY",
      "alert": "OK",
      "vis_m": 9999,
      "fzfg": false,
      "metar_trigger": false,
      "taf_trigger": false,
      "metar": "METAR LIPY 121320Z AUTO 24014KT 9999 SCT085/// BKN110/// 11/00 Q1022",
      "taf": "TAF LIPY 121100Z 1212/1312 VRB05KT 9999 FEW045"
    },
    {
      "icao": "LIPZ",
      "alert": "OK",
      "vis_m": 9999,
      "fzfg": false,
      "metar_trigger": false,
      "taf_trigger": false,
      "metar": "METAR LIPZ 121320Z 03004KT 340V070 CAVOK 06/M02 Q1022 NOSIG",
      "taf": "TAF LIPZ 121100Z 1212/1318 VRB04KT 9999 FEW025"
    },
    {
      "icao": "LIRF",
      "alert": "OK",
      "vis_m": 9999,
      "fzfg": false,
      "metar_trigger": false,
      "taf_trigger": false,
      "metar": "METAR LIRF 121320Z 16004KT 110V210 CAVOK 11/M02 Q1026 NOSIG",
      "taf": "TAF LIRF 121100Z 1212/1318 14010KT 9999 FEW040"
    },
    {
      "icao": "LIRN",
      "alert": "OK",
      "vis_m": 9999,
      "fzfg": false,
      "metar_trigger": false,
      "taf_trigger": false,
      "metar": "METAR LIRN 121320Z VRB03KT CAVOK 10/M03 Q1026 NOSIG",
      "taf": "TAF LIRN 121100Z 1212/1312 VRB05KT CAVOK"
    },
    {
      "icao": "LIRP",
      "alert": "OK",
      "vis_m": 9999,
      "fzfg": false,
      "metar_trigger": false,
      "taf_trigger": false,
      "metar": "METAR LIRP 121315Z 09004KT 9999 SCT040 SCT050 07/04 Q1025 NOSIG",
      "taf": "TAF LIRP 121100Z 1212/1312 14005KT 9999 SCT020 BKN050"
    },
    {
      "icao": "LIRZ",
      "alert": "OK",
      "vis_m": 9999,
      "fzfg": false,
      "metar_trigger": false,
      "taf_trigger": false,
      "metar": "METAR LIRZ 121320Z AUTO VRB02KT 9999 NCD 06/M01 Q1025",
      "taf": "TAF LIRZ 121100Z 1212/1312 19006KT 9999 SCT040"
    },
    {
      "icao": "LJLJ",
      "alert": "OK",
      "vis_m": 9999,
      "fzfg": false,
      "metar_trigger": false,
      "taf_trigger": false,
      "metar": "METAR LJLJ 121330Z VRB01KT 9999 FEW070 BKN093 M04/M06 Q1020 NOSIG",
      "taf": "TAF LJLJ 121100Z 1212/1312 VRB02KT CAVOK"
    },
    {
      "icao": "LKMT",
      "alert": "OK",
      "vis_m": 9999,
      "fzfg": false,
      "metar_trigger": false,
      "taf_trigger": false,
      "metar": "METAR LKMT 121330Z 24011KT CAVOK M07/M11 Q1018 NOSIG",
      "taf": "TAF LKMT 121100Z 1212/1312 23010KT CAVOK"
    },
    {
      "icao": "LKPR",
      "alert": "OK",
      "vis_m": 3500,
      "fzfg": false,
      "metar_trigger": false,
      "taf_trigger": false,
      "metar": "METAR LKPR 121330Z 10005KT 070V140 3500 -SN BR FEW010 BKN025 M06/M07 Q1015 TEMPO 2000 SN BR BKN010",
      "taf": ""
    },
    {
      "icao": "LLBG",
      "alert": "OK",
      "vis_m": 9000,
      "fzfg": false,
      "metar_trigger": false,
      "taf_trigger": false,
      "metar": "METAR LLBG 121320Z 24018KT 9000 FEW033 SCT039 18/06 Q1012 NOSIG",
      "taf": "TAF LLBG 121108Z 1212/1312 21014KT 9999 FEW040"
    },
    {
      "icao": "LMML",
      "alert": "OK",
      "vis_m": 9999,
      "fzfg": false,
      "metar_trigger": false,
      "taf_trigger": false,
      "metar": "METAR LMML 121345Z 33008KT 310V010 9999 FEW040 13/02 Q1026 NOSIG",
      "taf": "TAF LMML 121100Z 1212/1312 35011KT 9999 FEW025"
    },
    {
      "icao": "LOWW",
      "alert": "OK",
      "vis_m": 9999,
      "fzfg": false,
      "metar_trigger": false,
      "taf_trigger": false,
      "metar": "METAR LOWW 121320Z 34003KT 250V010 CAVOK M02/M07 Q1019 NOSIG",
      "taf": "TAF LOWW 121115Z 1212/1318 11005KT CAVOK TX01/1314Z TNM04/1220Z"
    },
    {
      "icao": "LPFR",
      "alert": "OK",
      "vis_m": 9000,
      "fzfg": false,
      "metar_trigger": false,
      "taf_trigger": false,
      "metar": "METAR LPFR 121330Z 10009KT 9000 FEW003 SCT025 13/11 Q1020",
      "taf": "TAF LPFR 121100Z 1212/1312 09008KT 8000 SCT002"
    },
    {
      "icao": "LPMA",
      "alert": "OK",
      "vis_m": 9999,
      "fzfg": false,
      "metar_trigger": false,
      "taf_trigger": false,
      "metar": "METAR LPMA 121330Z 21025KT 9999 SCT015 19/11 Q1017",
      "taf": "TAF LPMA 121100Z 1212/1312 22015KT 9999 SCT015 SCT030"
    },
    {
      "icao": "LPPR",
      "alert": "OK",
      "vis_m": 9999,
      "fzfg": false,
      "metar_trigger": false,
      "taf_trigger": false,
      "metar": "METAR LPPR 121330Z 17021KT 9999 FEW020 BKN040 14/10 Q1015",
      "taf": "TAF LPPR 121100Z 1212/1312 17018KT 9999 BKN030"
    },
    {
      "icao": "LPPS",
      "alert": "OK",
      "vis_m": 9999,
      "fzfg": false,
      "metar_trigger": false,
      "taf_trigger": false,
      "metar": "METAR LPPS 121330Z 31010KT 270V340 9999 FEW014 18/14 Q1018",
      "taf": "TAF LPPS 121100Z 1212/1318 22012KT 9999 SCT012 SCT030"
    },
    {
      "icao": "LPPT",
      "alert": "OK",
      "vis_m": 9999,
      "fzfg": false,
      "metar_trigger": false,
      "taf_trigger": false,
      "metar": "METAR LPPT 121330Z 20019KT 9999 FEW025 BKN038 15/11 Q1017",
      "taf": "TAF LPPT 121100Z 1212/1318 18012KT 9999 SCT008 BKN020"
    },
    {
      "icao": "LQBK",
      "alert": "OK",
      "vis_m": 9999,
      "fzfg": false,
      "metar_trigger": false,
      "taf_trigger": false,
      "metar": "METAR LQBK 121330Z 04002KT CAVOK M03/M08 Q1022 NOSIG",
      "taf": "TAF LQBK 121100Z 1212/1312 20006KT CAVOK TXM02/1213Z TNM04/1306Z"
    },
    {
      "icao": "LQSA",
      "alert": "OK",
      "vis_m": 9999,
      "fzfg": false,
      "metar_trigger": false,
      "taf_trigger": false,
      "metar": "METAR LQSA 121330Z VRB02KT CAVOK M03/M09 Q1022 NOSIG",
      "taf": "TAF LQSA 121100Z 1212/1312 VRB02KT 8000 NSC TX01/1312Z TNM06/1306Z"
    },
    {
      "icao": "LQTZ",
      "alert": "OK",
      "vis_m": 9999,
      "fzfg": false,
      "metar_trigger": false,
      "taf_trigger": false,
      "metar": "METAR LQTZ 121330Z VRB02KT CAVOK 01/M08 Q1022",
      "taf": "TAF LQTZ 121100Z 1212/1312 28005KT CAVOK TXM01/1213Z TNM07/1223Z"
    },
    {
      "icao": "LRBC",
      "alert": "OK",
      "vis_m": 9999,
      "fzfg": false,
      "metar_trigger": false,
      "taf_trigger": false,
      "metar": "METAR LRBC 121330Z 27009KT 9999 BKN063 04/M07 Q1015",
      "taf": "TAF LRBC 121100Z 1212/1221 26012KT 9999 SCT045"
    },
    {
      "icao": "LRBS",
      "alert": "OK",
      "vis_m": 9999,
      "fzfg": false,
      "metar_trigger": false,
      "taf_trigger": false,
      "metar": "METAR LRBS 121330Z 26009KT CAVOK M04/M08 Q1018 NOSIG",
      "taf": "TAF LRBS 121100Z 1212/1312 25008KT CAVOK"
    },
    {
      "icao": "LRBV",
      "alert": "OK",
      "vis_m": 9999,
      "fzfg": false,
      "metar_trigger": false,
      "taf_trigger": false,
      "metar": "METAR LRBV 121330Z 31008KT 9999 FEW019 SCT024 BKN050 M06/M10 Q1016",
      "taf": "TAF LRBV 121100Z 1212/1221 30010KT 9999 BKN040"
    },
    {
      "icao": "LRCL",
      "alert": "OK",
      "vis_m": 9999,
      "fzfg": false,
      "metar_trigger": false,
      "taf_trigger": false,
      "metar": "METAR LRCL 121330Z VRB02KT 9999 BKN039 M05/M09 Q1018",
      "taf": "TAF LRCL 121100Z 1212/1221 VRB04KT 9999 SCT045"
    },
    {
      "icao": "LRCV",
      "alert": "OK",
      "vis_m": 9999,
      "fzfg": false,
      "metar_trigger": false,
      "taf_trigger": false,
      "metar": "METAR LRCV 121330Z 29016KT CAVOK M02/M07 Q1019",
      "taf": "TAF LRCV 121100Z 1212/1221 29016KT CAVOK"
    },
    {
      "icao": "LRIA",
      "alert": "OK",
      "vis_m": 9999,
      "fzfg": false,
      "metar_trigger": false,
      "taf_trigger": false,
      "metar": "METAR LRIA 121330Z 28006KT CAVOK M00/M08 Q1015",
      "taf": "TAF LRIA 121100Z 1212/1221 27012KT 9999 BKN040"
    },
    {
      "icao": "LROP",
      "alert": "OK",
      "vis_m": 9999,
      "fzfg": false,
      "metar_trigger": false,
      "taf_trigger": false,
      "metar": "METAR LROP 121330Z 25008KT CAVOK M04/M08 Q1018 NOSIG",
      "taf": "TAF LROP 121100Z 1212/1312 25008KT CAVOK"
    },
    {
      "icao": "LRSB",
      "alert": "OK",
      "vis_m": 9999,
      "fzfg": false,
      "metar_trigger": false,
      "taf_trigger": false,
      "metar": "METAR LRSB 121330Z 29008KT 9999 FEW020 SCT044 M05/M09 Q1017",
      "taf": "TAF LRSB 121100Z 1212/1312 30012KT 9999 BKN030"
    },
    {
      "icao": "LRSM",
      "alert": "OK",
      "vis_m": 9999,
      "fzfg": false,
      "metar_trigger": false,
      "taf_trigger": false,
      "metar": "METAR LRSM 121330Z 26006KT 9999 SCT044 M07/M11 Q1020",
      "taf": "TAF LRSM 121100Z 1212/1221 25012KT 9999 BKN035"
    },
    {
      "icao": "LRSV",
      "alert": "OK",
      "vis_m": 9999,
      "fzfg": false,
      "metar_trigger": false,
      "taf_trigger": false,
      "metar": "METAR LRSV 121330Z 31010KT CAVOK M03/M10 Q1013",
      "taf": "TAF LRSV 121100Z 1212/1221 27012KT 9999 SCT040"
    },
    {
      "icao": "LRTM",
      "alert": "OK",
      "vis_m": 9999,
      "fzfg": false,
      "metar_trigger": false,
      "taf_trigger": false,
      "metar": "METAR LRTM 121330Z 25004KT 9999 FEW021 BKN038 M04/M08 Q1018",
      "taf": "TAF LRTM 121100Z 1212/1221 VRB04KT 9999 BKN040"
    },
    {
      "icao": "LRTR",
      "alert": "OK",
      "vis_m": 9999,
      "fzfg": false,
      "metar_trigger": false,
      "taf_trigger": false,
      "metar": "METAR LRTR 121330Z 12004KT CAVOK M06/M12 Q1022",
      "taf": "TAF LRTR 121100Z 1212/1312 VRB04KT CAVOK"
    },
    {
      "icao": "LTAC",
      "alert": "OK",
      "vis_m": 9999,
      "fzfg": false,
      "metar_trigger": false,
      "taf_trigger": false,
      "metar": "METAR LTAC 121320Z 02007KT 9999 FEW015 BKN023 BKN080 01/M02 Q1007 NOSIG RMK RWY21C 03008KT RWY03L 02006KT RWY21R 03005KT RWY03R 03007KT RWY21L 04008KT",
      "taf": "TAF LTAC 121040Z 1212/1312 02008KT 9999 SCT040 BKN100"
    },
    {
      "icao": "LTFM",
      "alert": "OK",
      "vis_m": 9999,
      "fzfg": false,
      "metar_trigger": false,
      "taf_trigger": false,
      "metar": "METAR LTFM 121320Z 01016KT 9999 BKN024 BKN070 02/M03 Q1017 RESHSN NOSIG RMK RWY17L 01015KT RWY34L 35017KT RWY16R 36016KT RWY36 01017KT RWY18 01015KT",
      "taf": "TAF LTFM 121040Z 1212/1318 36018KT 9999 -SHSN BKN011 BKN020"
    },
    {
      "icao": "LUKK",
      "alert": "OK",
      "vis_m": 9999,
      "fzfg": false,
      "metar_trigger": false,
      "taf_trigger": false,
      "metar": "METAR LUKK 121330Z 27008KT 9999 BKN043 M02/M08 Q1015 NOSIG",
      "taf": "TAF LUKK 121124Z 1212/1312 29008KT CAVOK"
    },
    {
      "icao": "LWOH",
      "alert": "OK",
      "vis_m": null,
      "fzfg": false,
      "metar_trigger": false,
      "taf_trigger": false,
      "metar": "",
      "taf": "TAF LWOH 121111Z 1212/1312 36008KT CAVOK"
    },
    {
      "icao": "LWSK",
      "alert": "OK",
      "vis_m": null,
      "fzfg": false,
      "metar_trigger": false,
      "taf_trigger": false,
      "metar": "",
      "taf": "TAF LWSK 121111Z 1212/1312 VRB02KT 9999 FEW050"
    },
    {
      "icao": "LYBE",
      "alert": "OK",
      "vis_m": 9999,
      "fzfg": false,
      "metar_trigger": false,
      "taf_trigger": false,
      "metar": "METAR LYBE 121330Z 27005KT CAVOK M01/M09 Q1023 NOSIG",
      "taf": ""
    },
    {
      "icao": "LYNI",
      "alert": "OK",
      "vis_m": 9999,
      "fzfg": false,
      "metar_trigger": false,
      "taf_trigger": false,
      "metar": "METAR LYNI 121330Z 30004KT 9999 FEW040 M00/M09 Q1023 NOSIG",
      "taf": "TAF LYNI 121100Z 1212/1312 30005KT 9999 SCT050 TX00/1312Z TNM09/1301Z"
    },
    {
      "icao": "LYPG",
      "alert": "OK",
      "vis_m": 9999,
      "fzfg": false,
      "metar_trigger": false,
      "taf_trigger": false,
      "metar": "METAR LYPG 121330Z 01005KT 340V080 CAVOK 06/M16 Q1024 NOSIG",
      "taf": "TAF LYPG 121100Z 1212/1312 36007KT CAVOK TX06/1213Z TNM04/1301Z"
    },
    {
      "icao": "LZIB",
      "alert": "OK",
      "vis_m": 9999,
      "fzfg": false,
      "metar_trigger": false,
      "taf_trigger": false,
      "metar": "METAR LZIB 121330Z 22004KT CAVOK M01/M09 Q1020 NOSIG",
      "taf": "TAF LZIB 121115Z 1212/1312 22006KT CAVOK"
    },
    {
      "icao": "LZKZ",
      "alert": "OK",
      "vis_m": 9999,
      "fzfg": false,
      "metar_trigger": false,
      "taf_trigger": false,
      "metar": "METAR LZKZ 121330Z 21004KT 080V250 CAVOK M04/M09 Q1018 NOSIG",
      "taf": "TAF LZKZ 121115Z 1212/1312 23005KT CAVOK"
    },
    {
      "icao": "LZTT",
      "alert": "OK",
      "vis_m": 9999,
      "fzfg": false,
      "metar_trigger": false,
      "taf_trigger": false,
      "metar": "METAR LZTT 121330Z 27010KT 9999 FEW030 M05/M12 Q1014 NOSIG",
      "taf": "TAF LZTT 121115Z 1212/1312 25008KT 9999 FEW020 SCT050"
    },
    {
      "icao": "OEJN",
      "alert": "OK",
      "vis_m": 9999,
      "fzfg": false,
      "metar_trigger": false,
      "taf_trigger": false,
      "metar": "METAR OEJN 121300Z 25008KT CAVOK 29/17 Q1013 NOSIG",
      "taf": "TAF OEJN 121100Z 1212/1318 30010KT 7000 FEW040"
    },
    {
      "icao": "OEMA",
      "alert": "OK",
      "vis_m": 9999,
      "fzfg": false,
      "metar_trigger": false,
      "taf_trigger": false,
      "metar": "METAR OEMA 121300Z 24014KT CAVOK 26/09 Q1016 NOSIG",
      "taf": "TAF OEMA 121100Z 1212/1318 24008KT 7000 FEW040"
    },
    {
      "icao": "OJAI",
      "alert": "OK",
      "vis_m": 4000,
      "fzfg": false,
      "metar_trigger": false,
      "taf_trigger": false,
      "metar": "METAR OJAI 121300Z 25024KT 4000 BLDU FEW035 13/03 Q1013 NOSIG",
      "taf": "TAF OJAI 121100Z 1212/1318 25016KT 4000 BLDU SCT035"
    },
    {
      "icao": "OMAA",
      "alert": "OK",
      "vis_m": 9999,
      "fzfg": false,
      "metar_trigger": false,
      "taf_trigger": false,
      "metar": "METAR OMAA 121300Z 31007KT 280V340 CAVOK 24/10 Q1019 NOSIG",
      "taf": "TAF OMAA 121100Z 1212/1318 34009KT 8000 NSC"
    },
    {
      "icao": "OMDB",
      "alert": "OK",
      "vis_m": 9999,
      "fzfg": false,
      "metar_trigger": false,
      "taf_trigger": false,
      "metar": "METAR OMDB 121330Z 32009KT CAVOK 23/14 Q1020 NOSIG",
      "taf": "TAF OMDB 121100Z 1212/1318 31010KT 8000 NSC"
    },
    {
      "icao": "UAAA",
      "alert": "OK",
      "vis_m": 5000,
      "fzfg": false,
      "metar_trigger": false,
      "taf_trigger": false,
      "metar": "METAR UAAA 121330Z 21003MPS 5000 -SHRA BR BKN035CB OVC100 06/03 Q1028 NOSIG",
      "taf": "TAF UAAA 121101Z 1212/1312 24003G08MPS 3100 BR FU BKN030CB OVC100 TX07/1309Z TNM03/1301Z"
    },
    {
      "icao": "UBBB",
      "alert": "OK",
      "vis_m": 9999,
      "fzfg": false,
      "metar_trigger": false,
      "taf_trigger": false,
      "metar": "METAR UBBB 121330Z 19016KT CAVOK 13/01 Q1007 NOSIG",
      "taf": "TAF UBBB 121055Z 1212/1312 19018G28KT CAVOK TX14/1212Z TN07/1302Z"
    },
    {
      "icao": "UDSG",
      "alert": "OK",
      "vis_m": 9999,
      "fzfg": false,
      "metar_trigger": false,
      "taf_trigger": false,
      "metar": "METAR UDSG 121330Z 01001KT 9999 BKN049 00/M04 Q1014 NOSIG",
      "taf": "TAF UDSG 121058Z 1212/1312 VRB04KT 9999 SCT050"
    },
    {
      "icao": "UDYZ",
      "alert": "OK",
      "vis_m": 6000,
      "fzfg": false,
      "metar_trigger": false,
      "taf_trigger": false,
      "metar": "METAR UDYZ 121330Z VRB01KT 6000 FEW046 04/M02 Q1014 NOSIG",
      "taf": "TAF UDYZ 121100Z 1212/1312 26004KT 5000 BR FEW040"
    },
    {
      "icao": "UGKO",
      "alert": "OK",
      "vis_m": 9999,
      "fzfg": false,
      "metar_trigger": false,
      "taf_trigger": false,
      "metar": "METAR UGKO 121330Z 30007KT CAVOK 11/08 Q1010 NOSIG",
      "taf": "TAF UGKO 121100Z 1212/1312 26010KT 9999 BKN060 TX12/1212Z TN05/1303Z"
    }
  ]
}