{
  "ts_utc": "2026-01-05T20:35:03Z",
  "threshold_m": 150,
  "source": "stations_override.txt (ICAO list) + aviationweather.gov (METAR/TAF raw)",
  "station_count": 159,
  "stations": [
    {
      "icao": "BIKF",
      "alert": "OK",
      "vis_m": 9999,
      "fzfg": false,
      "metar_trigger": false,
      "taf_trigger": false,
      "metar": "METAR BIKF 052030Z 04008KT CAVOK M02/M04 Q1015",
      "taf": "TAF BIKF 051931Z 0521/0621 03013KT CAVOK TXM02/0521Z TNM06/0610Z"
    },
    {
      "icao": "BKPR",
      "alert": "OK",
      "vis_m": 9999,
      "fzfg": false,
      "metar_trigger": false,
      "taf_trigger": false,
      "metar": "METAR BKPR 052030Z 20007KT 9999 -DZ BKN055 09/07 Q1008 NOSIG",
      "taf": "TAF BKPR 051730Z 0518/0618 18008KT 9999 SCT020 BKN040"
    },
    {
      "icao": "EBCI",
      "alert": "OK",
      "vis_m": 9999,
      "fzfg": false,
      "metar_trigger": false,
      "taf_trigger": false,
      "metar": "METAR EBCI 052020Z 20010KT 9999 FEW007 SCT015 BKN023 M03/M04 Q1012 NOSIG",
      "taf": "TAF EBCI 051715Z 0518/0624 23007KT 9999 SCT007 BKN011"
    },
    {
      "icao": "EDDB",
      "alert": "OK",
      "vis_m": 9999,
      "fzfg": false,
      "metar_trigger": false,
      "taf_trigger": false,
      "metar": "METAR EDDB 052020Z AUTO 18006KT CAVOK M05/M07 Q1013 NOSIG",
      "taf": "TAF EDDB 051700Z 0518/0618 17004KT 9999 SCT045"
    },
    {
      "icao": "EDDH",
      "alert": "OK",
      "vis_m": 9999,
      "fzfg": false,
      "metar_trigger": false,
      "taf_trigger": false,
      "metar": "METAR EDDH 052020Z AUTO 20005KT 170V240 9999 SCT009 BKN014 OVC018 M01/M02 Q1010 TEMPO BKN008",
      "taf": "TAF EDDH 051700Z 0518/0624 21004KT 9999 BKN015"
    },
    {
      "icao": "EDDK",
      "alert": "OK",
      "vis_m": 9999,
      "fzfg": false,
      "metar_trigger": false,
      "taf_trigger": false,
      "metar": "METAR EDDK 052020Z AUTO 18004KT 150V210 9999 SCT018 BKN026 M01/M03 Q1012 NOSIG",
      "taf": "TAF EDDK 051700Z 0518/0624 16007KT 9999 FEW008 BKN020"
    },
    {
      "icao": "EDDN",
      "alert": "OK",
      "vis_m": 9999,
      "fzfg": false,
      "metar_trigger": false,
      "taf_trigger": false,
      "metar": "METAR EDDN 052020Z AUTO 10005KT CAVOK M09/M11 Q1013 NOSIG",
      "taf": "TAF EDDN 051700Z 0518/0618 VRB02KT 9999 SCT030"
    },
    {
      "icao": "EDDS",
      "alert": "OK",
      "vis_m": 9999,
      "fzfg": false,
      "metar_trigger": false,
      "taf_trigger": false,
      "metar": "METAR EDDS 052020Z AUTO 33001KT CAVOK M07/M11 Q1012 NOSIG",
      "taf": "TAF EDDS 051700Z 0518/0618 VRB03KT CAVOK"
    },
    {
      "icao": "EDFH",
      "alert": "OK",
      "vis_m": 4000,
      "fzfg": false,
      "metar_trigger": false,
      "taf_trigger": false,
      "metar": "METAR EDFH 052020Z 25006KT 4000 -SN FEW002 OVC004 M05/M06 Q1011",
      "taf": "TAF EDFH 051700Z 0518/0618 20006KT 9999 OVC010"
    },
    {
      "icao": "EDJA",
      "alert": "OK",
      "vis_m": 9999,
      "fzfg": false,
      "metar_trigger": false,
      "taf_trigger": false,
      "metar": "METAR EDJA 052020Z 17006KT CAVOK M13/M15 Q1012",
      "taf": "TAF EDJA 051700Z 0518/0603 22004KT CAVOK"
    },
    {
      "icao": "EDLW",
      "alert": "OK",
      "vis_m": 9999,
      "fzfg": false,
      "metar_trigger": false,
      "taf_trigger": false,
      "metar": "METAR EDLW 052020Z 21007KT 9999 FEW010 BKN016 OVC019 M01/M03 Q1011",
      "taf": "TAF EDLW 051700Z 0518/0618 22008KT 9999 BKN020"
    },
    {
      "icao": "EDNY",
      "alert": "OK",
      "vis_m": 9999,
      "fzfg": false,
      "metar_trigger": false,
      "taf_trigger": false,
      "metar": "METAR EDNY 052020Z 07003KT 030V100 9999 SCT025 M11/M13 Q1014",
      "taf": "TAF EDNY 051700Z 0518/0603 VRB03KT CAVOK"
    },
    {
      "icao": "EDSB",
      "alert": "OK",
      "vis_m": 9999,
      "fzfg": false,
      "metar_trigger": false,
      "taf_trigger": false,
      "metar": "METAR EDSB 052020Z VRB02KT CAVOK M08/M08 Q1015",
      "taf": "TAF EDSB 051700Z 0518/0618 VRB03KT CAVOK"
    },
    {
      "icao": "EETN",
      "alert": "OK",
      "vis_m": 9999,
      "fzfg": false,
      "metar_trigger": false,
      "taf_trigger": false,
      "metar": "METAR EETN 052020Z 16005KT CAVOK M15/M16 Q1019 NOSIG",
      "taf": "TAF EETN 051730Z 0518/0618 VRB02KT CAVOK"
    },
    {
      "icao": "EFTU",
      "alert": "OK",
      "vis_m": 9999,
      "fzfg": false,
      "metar_trigger": false,
      "taf_trigger": false,
      "metar": "METAR EFTU 052020Z AUTO VRB02KT CAVOK M21/M23 Q1018",
      "taf": "TAF EFTU 051723Z 0518/0618 VRB02KT CAVOK"
    },
    {
      "icao": "EGBB",
      "alert": "OK",
      "vis_m": 9999,
      "fzfg": false,
      "metar_trigger": false,
      "taf_trigger": false,
      "metar": "METAR EGBB 052020Z 32001KT CAVOK M03/M05 Q1017",
      "taf": "TAF EGBB 051656Z 0518/0618 30005KT 9999 FEW025"
    },
    {
      "icao": "EGGP",
      "alert": "OK",
      "vis_m": 9999,
      "fzfg": false,
      "metar_trigger": false,
      "taf_trigger": false,
      "metar": "METAR EGGP 052020Z 16003KT 9999 FEW034 M01/M05 Q1018",
      "taf": "TAF EGGP 051654Z 0518/0618 31005KT 9999 FEW030"
    },
    {
      "icao": "EGGW",
      "alert": "OK",
      "vis_m": 9999,
      "fzfg": false,
      "metar_trigger": false,
      "taf_trigger": false,
      "metar": "METAR EGGW 052020Z AUTO 31011KT 9999 NCD M03/M05 Q1016",
      "taf": "TAF EGGW 051658Z 0518/0618 31009KT 9999 FEW030"
    },
    {
      "icao": "EGKK",
      "alert": "OK",
      "vis_m": 9999,
      "fzfg": false,
      "metar_trigger": false,
      "taf_trigger": false,
      "metar": "METAR EGKK 052020Z 32006KT CAVOK M02/M05 Q1017",
      "taf": "TAF EGKK 051653Z 0518/0624 30006KT 9999 FEW035"
    },
    {
      "icao": "EGNM",
      "alert": "OK",
      "vis_m": 9999,
      "fzfg": false,
      "metar_trigger": false,
      "taf_trigger": false,
      "metar": "METAR EGNM 052020Z 28007KT CAVOK M04/M06 Q1016",
      "taf": "TAF EGNM 051659Z 0518/0618 27009KT 9999 FEW020"
    },
    {
      "icao": "EGPD",
      "alert": "OK",
      "vis_m": 9999,
      "fzfg": false,
      "metar_trigger": false,
      "taf_trigger": false,
      "metar": "METAR EGPD 052020Z COR AUTO 27010KT 9999 NCD M02/M04 Q1014 NOSIG",
      "taf": "TAF EGPD 051653Z 0518/0618 29010KT 9999 FEW012"
    },
    {
      "icao": "EGPF",
      "alert": "OK",
      "vis_m": 9999,
      "fzfg": false,
      "metar_trigger": false,
      "taf_trigger": false,
      "metar": "METAR EGPF 052020Z AUTO 25004KT 9999 NCD M01/M05 Q1017",
      "taf": "TAF EGPF 051655Z 0518/0618 28005KT CAVOK"
    },
    {
      "icao": "EHBK",
      "alert": "OK",
      "vis_m": 9999,
      "fzfg": false,
      "metar_trigger": false,
      "taf_trigger": false,
      "metar": "METAR EHBK 052025Z AUTO 20012KT 9999 OVC016 M02/M04 Q1012 NOSIG",
      "taf": "TAF EHBK 051721Z 0518/0624 22007KT 9999 BKN008"
    },
    {
      "icao": "EHEH",
      "alert": "OK",
      "vis_m": 8000,
      "fzfg": false,
      "metar_trigger": false,
      "taf_trigger": false,
      "metar": "METAR EHEH 052025Z AUTO 21008KT 8000 BR BKN007 OVC008 M01/M03 Q1011 GRN TEMPO 2000 SHSNGS SCT004 SCT015CB",
      "taf": ""
    },
    {
      "icao": "EKBI",
      "alert": "OK",
      "vis_m": 9999,
      "fzfg": false,
      "metar_trigger": false,
      "taf_trigger": false,
      "metar": "METAR EKBI 052020Z AUTO 34001KT 9999 OVC021/// M02/M03 Q1009",
      "taf": "TAF EKBI 052027Z 0521/0621 05005KT 9999 FEW006 BKN018"
    },
    {
      "icao": "EKCH",
      "alert": "OK",
      "vis_m": 5000,
      "fzfg": false,
      "metar_trigger": false,
      "taf_trigger": false,
      "metar": "METAR EKCH 052020Z 26003KT 5000 -SN OVC047 M01/M01 Q1010 TEMPO 1200 SHSN BKN012 SCT020CB",
      "taf": "TAF EKCH 052027Z 0521/0621 23004KT 8000 SCT030"
    },
    {
      "icao": "ENAL",
      "alert": "OK",
      "vis_m": 9999,
      "fzfg": false,
      "metar_trigger": false,
      "taf_trigger": false,
      "metar": "METAR ENAL 052020Z 14013KT 9999 SCT042 BKN053 M04/M11 Q1011",
      "taf": "TAF ENAL 051700Z 0518/0603 14012KT 9999 SCT035"
    },
    {
      "icao": "ENBR",
      "alert": "OK",
      "vis_m": 9999,
      "fzfg": false,
      "metar_trigger": false,
      "taf_trigger": false,
      "metar": "METAR ENBR 052020Z 06003KT 040V100 9999 FEW030 SCT040 M07/M13 Q1010 NOSIG RMK WIND 1200FT 08003KT",
      "taf": "TAF ENBR 051700Z 0518/0618 07005KT 9999 SCT050"
    },
    {
      "icao": "ENGM",
      "alert": "OK",
      "vis_m": 5000,
      "fzfg": false,
      "metar_trigger": false,
      "taf_trigger": false,
      "metar": "METAR ENGM 052020Z 02005KT 5000 -SN SCT034 BKN045 M09/M11 Q1013 TEMPO 4000",
      "taf": "TAF ENGM 051700Z 0518/0618 02005KT 8000 -SN SCT020 BKN040"
    },
    {
      "icao": "ENHD",
      "alert": "OK",
      "vis_m": 2900,
      "fzfg": false,
      "metar_trigger": false,
      "taf_trigger": false,
      "metar": "METAR ENHD 052020Z 07010KT 2900 -SN FEW002 SCT007 BKN009 M04/M05 Q1009",
      "taf": "TAF ENHD 051400Z 0515/0523 11015KT 9999 -SHSN FEW015CB BKN025"
    },
    {
      "icao": "ENTC",
      "alert": "OK",
      "vis_m": 9999,
      "fzfg": false,
      "metar_trigger": false,
      "taf_trigger": false,
      "metar": "METAR ENTC 052020Z 23010KT CAVOK M08/M12 Q1013 NOSIG RMK WIND 2600FT 12014KT",
      "taf": "TAF ENTC 051700Z 0518/0618 23005KT CAVOK"
    },
    {
      "icao": "ENTO",
      "alert": "OK",
      "vis_m": 9999,
      "fzfg": false,
      "metar_trigger": false,
      "taf_trigger": false,
      "metar": "METAR ENTO 052020Z 36010KT 9999 -SN OVC013 M07/M09 Q1012 NOSIG",
      "taf": ""
    },
    {
      "icao": "ENVA",
      "alert": "OK",
      "vis_m": 9999,
      "fzfg": false,
      "metar_trigger": false,
      "taf_trigger": false,
      "metar": "METAR ENVA 052020Z 11009KT CAVOK M16/M19 Q1014 NOSIG RMK WIND 670FT 11008KT",
      "taf": "TAF ENVA 051700Z 0518/0618 10007KT CAVOK"
    },
    {
      "icao": "ENZV",
      "alert": "OK",
      "vis_m": 9999,
      "fzfg": false,
      "metar_trigger": false,
      "taf_trigger": false,
      "metar": "METAR ENZV 052020Z 12011KT 9999 -SHSN FEW008 BKN034 OVC040 M04/M05 Q1009 TEMPO 1000 SHSN VV008",
      "taf": ""
    },
    {
      "icao": "EPGD",
      "alert": "OK",
      "vis_m": 9000,
      "fzfg": false,
      "metar_trigger": false,
      "taf_trigger": false,
      "metar": "METAR EPGD 052030Z 19003KT 9000 FEW048 M03/M04 Q1013",
      "taf": "TAF EPGD 051730Z 0518/0618 19006KT 9999 BKN030"
    },
    {
      "icao": "EPKK",
      "alert": "OK",
      "vis_m": 9999,
      "fzfg": false,
      "metar_trigger": false,
      "taf_trigger": false,
      "metar": "METAR EPKK 052030Z 03004KT 9999 SCT064 M03/M07 Q1011",
      "taf": "TAF EPKK 052030Z 0521/0621 06006KT CAVOK"
    },
    {
      "icao": "EPKT",
      "alert": "OK",
      "vis_m": 9999,
      "fzfg": false,
      "metar_trigger": false,
      "taf_trigger": false,
      "metar": "METAR EPKT 052030Z 36002KT CAVOK M05/M07 Q1012",
      "taf": "TAF EPKT 051730Z 0518/0618 VRB02KT CAVOK"
    },
    {
      "icao": "EPLB",
      "alert": "OK",
      "vis_m": 9999,
      "fzfg": false,
      "metar_trigger": false,
      "taf_trigger": false,
      "metar": "METAR EPLB 052030Z 06007KT CAVOK M06/M07 Q1013",
      "taf": "TAF EPLB 051730Z 0518/0618 09005KT CAVOK"
    },
    {
      "icao": "EPMO",
      "alert": "OK",
      "vis_m": 2000,
      "fzfg": false,
      "metar_trigger": false,
      "taf_trigger": false,
      "metar": "METAR EPMO 052030Z 06005KT 2000 0200W R08/0225D BCFG BR NSC M09/M09 Q1015",
      "taf": "TAF EPMO 051730Z 0518/0618 09004KT 4000 BR NSC"
    },
    {
      "icao": "EPPO",
      "alert": "OK",
      "vis_m": 8000,
      "fzfg": false,
      "metar_trigger": false,
      "taf_trigger": false,
      "metar": "METAR EPPO 052030Z 14004KT 8000 NSC M06/M08 Q1013",
      "taf": "TAF EPPO 051730Z 0518/0618 16004KT CAVOK"
    },
    {
      "icao": "EPRA",
      "alert": "OK",
      "vis_m": 9999,
      "fzfg": false,
      "metar_trigger": false,
      "taf_trigger": false,
      "metar": "METAR EPRA 052030Z 06004KT CAVOK M06/M09 Q1013",
      "taf": "TAF EPRA 052030Z 0521/0606 05006KT CAVOK"
    },
    {
      "icao": "EPRZ",
      "alert": "OK",
      "vis_m": 9999,
      "fzfg": false,
      "metar_trigger": false,
      "taf_trigger": false,
      "metar": "METAR EPRZ 052030Z 05005KT CAVOK M03/M06 Q1011",
      "taf": "TAF EPRZ 051730Z 0518/0618 06008KT CAVOK"
    },
    {
      "icao": "EPSC",
      "alert": "OK",
      "vis_m": 9999,
      "fzfg": false,
      "metar_trigger": false,
      "taf_trigger": false,
      "metar": "METAR EPSC 052030Z 15007KT CAVOK M02/M05 Q1012",
      "taf": "TAF EPSC 051730Z 0518/0618 16006KT 9999 BKN040"
    },
    {
      "icao": "EPSY",
      "alert": "OK",
      "vis_m": 200,
      "fzfg": true,
      "metar_trigger": false,
      "taf_trigger": false,
      "metar": "METAR EPSY 052030Z 00000KT 0200 R01/0250N FZFG FEW010 M10/M11 Q1015",
      "taf": "TAF EPSY 052030Z 0521/0606 VRB02KT 0300 FZFG NSC"
    },
    {
      "icao": "EPWA",
      "alert": "OK",
      "vis_m": 9999,
      "fzfg": false,
      "metar_trigger": false,
      "taf_trigger": false,
      "metar": "METAR EPWA 052030Z 13004KT CAVOK M06/M08 Q1014 NOSIG",
      "taf": "TAF EPWA 052030Z 0521/0621 VRB04KT CAVOK"
    },
    {
      "icao": "EPWR",
      "alert": "OK",
      "vis_m": 8000,
      "fzfg": false,
      "metar_trigger": false,
      "taf_trigger": false,
      "metar": "METAR EPWR 052030Z 31005KT 8000 NSC M08/M09 Q1014",
      "taf": "TAF EPWR 052030Z 0521/0621 29003KT CAVOK"
    },
    {
      "icao": "ESGG",
      "alert": "OK",
      "vis_m": 9999,
      "fzfg": false,
      "metar_trigger": false,
      "taf_trigger": false,
      "metar": "METAR ESGG 052020Z VRB02KT 9999 BKN049 M06/M07 Q1010",
      "taf": "TAF ESGG 052030Z 0521/0621 VRB02KT 9999 SCT045"
    },
    {
      "icao": "ESKN",
      "alert": "OK",
      "vis_m": 9999,
      "fzfg": false,
      "metar_trigger": false,
      "taf_trigger": false,
      "metar": "METAR ESKN 052020Z 05007KT 360V070 9999 BKN005 M02/M03 Q1011",
      "taf": "TAF ESKN 052030Z 0521/0621 06008KT 8000 -SN BKN030"
    },
    {
      "icao": "ESMS",
      "alert": "OK",
      "vis_m": 900,
      "fzfg": false,
      "metar_trigger": false,
      "taf_trigger": false,
      "metar": "METAR ESMS 052020Z 21003KT 0900 R17/P2000N R35/P2000N SN VV008 M01/M01 Q1009",
      "taf": "TAF ESMS 052027Z 0521/0621 18004KT 9999 BKN015"
    },
    {
      "icao": "ESSA",
      "alert": "OK",
      "vis_m": 9999,
      "fzfg": false,
      "metar_trigger": false,
      "taf_trigger": false,
      "metar": "METAR ESSA 052020Z 06009KT CAVOK M09/M11 Q1014 NOSIG",
      "taf": "TAF ESSA 052030Z 0521/0621 04010KT 9999 FEW035"
    },
    {
      "icao": "EYKA",
      "alert": "OK",
      "vis_m": 9999,
      "fzfg": false,
      "metar_trigger": false,
      "taf_trigger": false,
      "metar": "METAR EYKA 052020Z 19004KT 150V230 CAVOK M03/M06 Q1017",
      "taf": "TAF EYKA 051712Z 0518/0618 VRB04KT 5000 BR BKN015"
    },
    {
      "icao": "EYPA",
      "alert": "OK",
      "vis_m": 3000,
      "fzfg": false,
      "metar_trigger": false,
      "taf_trigger": false,
      "metar": "METAR EYPA 052020Z 16003KT 120V190 3000 SHSN BKN006 BKN011CB M02/M03 Q1014",
      "taf": ""
    },
    {
      "icao": "EYVI",
      "alert": "OK",
      "vis_m": 6000,
      "fzfg": false,
      "metar_trigger": false,
      "taf_trigger": false,
      "metar": "METAR EYVI 052020Z 16007KT 6000 FEW029 M07/M08 Q1017 TEMPO 3000 BR",
      "taf": "TAF EYVI 051706Z 0518/0618 19010KT 5000 BR SCT010 BKN015"
    },
    {
      "icao": "GCFV",
      "alert": "OK",
      "vis_m": 9999,
      "fzfg": false,
      "metar_trigger": false,
      "taf_trigger": false,
      "metar": "METAR GCFV 052000Z 34014KT 9999 FEW018 17/12 Q1017",
      "taf": "TAF GCFV 052000Z 0521/0621 02014KT 9999 SCT030 TX21/0614Z TN15/0606Z"
    },
    {
      "icao": "GCLP",
      "alert": "OK",
      "vis_m": 9999,
      "fzfg": false,
      "metar_trigger": false,
      "taf_trigger": false,
      "metar": "METAR GCLP 052000Z 36012KT 9999 FEW020 BKN045 18/14 Q1018 NOSIG",
      "taf": "TAF GCLP 052000Z 0521/0621 36017KT 9999 SCT030 TX21/0614Z TN15/0606Z"
    },
    {
      "icao": "GCTS",
      "alert": "OK",
      "vis_m": 9999,
      "fzfg": false,
      "metar_trigger": false,
      "taf_trigger": false,
      "metar": "METAR GCTS 052000Z 08015KT 9999 FEW030 BKN040 18/12 Q1018 NOSIG",
      "taf": "TAF GCTS 052000Z 0521/0621 07014KT 9999 SCT030 TX23/0614Z TN16/0606Z"
    },
    {
      "icao": "GMAD",
      "alert": "OK",
      "vis_m": 9999,
      "fzfg": false,
      "metar_trigger": false,
      "taf_trigger": false,
      "metar": "METAR GMAD 052030Z 27012KT 9999 FEW030 15/13 Q1012 NOSIG",
      "taf": "TAF GMAD 051700Z 0518/0624 27010KT 8000 SCT023TCU SCT080"
    },
    {
      "icao": "GMMN",
      "alert": "OK",
      "vis_m": 9999,
      "fzfg": false,
      "metar_trigger": false,
      "taf_trigger": false,
      "metar": "METAR GMMN 052030Z 31008KT 9999 BKN023 11/08 Q1015 NOSIG",
      "taf": "TAF GMMN 051700Z 0518/0618 32012KT 9999 BKN020 SCT030TCU"
    },
    {
      "icao": "GMMX",
      "alert": "OK",
      "vis_m": 8000,
      "fzfg": false,
      "metar_trigger": false,
      "taf_trigger": false,
      "metar": "METAR GMMX 052030Z 28003KT 250V310 8000 SCT010 BKN020 FEW033CB 12/10 Q1015 TEMPO 4000 RA",
      "taf": "TAF GMMX 051700Z 0518/0624 30008KT 8000 BKN023 SCT080"
    },
    {
      "icao": "HEGN",
      "alert": "OK",
      "vis_m": 9999,
      "fzfg": false,
      "metar_trigger": false,
      "taf_trigger": false,
      "metar": "METAR HEGN 052000Z 29003KT CAVOK 17/09 Q1018 NOSIG",
      "taf": "TAF HEGN 051700Z 0518/0624 34012KT CAVOK"
    },
    {
      "icao": "HEMA",
      "alert": "OK",
      "vis_m": 6000,
      "fzfg": false,
      "metar_trigger": false,
      "taf_trigger": false,
      "metar": "METAR HEMA 052000Z 30009KT 6000 NSC 18/16 Q1017 NOSIG",
      "taf": "TAF HEMA 051700Z 0518/0624 33013KT 6000 NSC"
    },
    {
      "icao": "HESH",
      "alert": "OK",
      "vis_m": 9999,
      "fzfg": false,
      "metar_trigger": false,
      "taf_trigger": false,
      "metar": "METAR HESH 052000Z 01007KT CAVOK 19/12 Q1018 NOSIG",
      "taf": "TAF HESH 051700Z 0518/0624 36010KT CAVOK"
    },
    {
      "icao": "HESX",
      "alert": "OK",
      "vis_m": 6000,
      "fzfg": false,
      "metar_trigger": false,
      "taf_trigger": false,
      "metar": "METAR HESX 052000Z 32003KT 6000 NSC 11/07 Q1020 NOSIG",
      "taf": "TAF HESX 051700Z 0518/0624 26006KT CAVOK"
    },
    {
      "icao": "LATI",
      "alert": "OK",
      "vis_m": 9999,
      "fzfg": false,
      "metar_trigger": false,
      "taf_trigger": false,
      "metar": "METAR LATI 052020Z 15008KT 9999 RA OVC066 12/07 Q1007 NOSIG",
      "taf": "TAF LATI 051700Z 0518/0618 14012KT 9999 SCT040 BKN080 TX18/0612Z TN12/0605Z"
    },
    {
      "icao": "LBPD",
      "alert": "OK",
      "vis_m": 9000,
      "fzfg": false,
      "metar_trigger": false,
      "taf_trigger": false,
      "metar": "METAR LBPD 052030Z AUTO VRB02KT 9000 FEW130/// BKN180/// 07/07 Q1012",
      "taf": "TAF LBPD 051700Z 0518/0618 VRB03KT 9999 SCT060"
    },
    {
      "icao": "LBSF",
      "alert": "OK",
      "vis_m": 9999,
      "fzfg": false,
      "metar_trigger": false,
      "taf_trigger": false,
      "metar": "METAR LBSF 052030Z AUTO VRB02KT 9999 SCT056/// 10/05 Q1011 NOSIG",
      "taf": "TAF LBSF 051700Z 0518/0618 11010KT 9999 SCT040 BKN060"
    },
    {
      "icao": "LBWN",
      "alert": "OK",
      "vis_m": 9999,
      "fzfg": false,
      "metar_trigger": false,
      "taf_trigger": false,
      "metar": "METAR LBWN 052030Z AUTO 12009KT 9999 NSC 11/11 Q1013 NOSIG",
      "taf": "TAF LBWN 051700Z 0518/0618 VRB04KT 9999 BKN040"
    },
    {
      "icao": "LCLK",
      "alert": "OK",
      "vis_m": 9999,
      "fzfg": false,
      "metar_trigger": false,
      "taf_trigger": false,
      "metar": "METAR LCLK 052030Z 34010KT CAVOK 13/09 Q1021 NOSIG",
      "taf": "TAF LCLK 051730Z 0518/0618 34008KT CAVOK"
    },
    {
      "icao": "LCPH",
      "alert": "OK",
      "vis_m": 9999,
      "fzfg": false,
      "metar_trigger": false,
      "taf_trigger": false,
      "metar": "METAR LCPH 052030Z 02006KT CAVOK 12/06 Q1020 NOSIG",
      "taf": "TAF LCPH 051730Z 0518/0618 08008KT 9999 FEW040"
    },
    {
      "icao": "LEAL",
      "alert": "OK",
      "vis_m": 9999,
      "fzfg": false,
      "metar_trigger": false,
      "taf_trigger": false,
      "metar": "METAR LEAL 052000Z 01008KT 350V060 9999 SCT025 OVC035 10/05 Q1009 NOSIG",
      "taf": "TAF LEAL 051700Z 0518/0618 VRB04KT 9999 SCT020 TX12/0614Z TN04/0606Z"
    },
    {
      "icao": "LEBB",
      "alert": "OK",
      "vis_m": 9999,
      "fzfg": false,
      "metar_trigger": false,
      "taf_trigger": false,
      "metar": "METAR LEBB 052000Z 09004KT 9999 FEW070 01/M02 Q1016 NOSIG",
      "taf": "TAF LEBB 051700Z 0518/0618 13005KT 9999 FEW030 TX07/0618Z TNM00/0521Z"
    },
    {
      "icao": "LEBL",
      "alert": "OK",
      "vis_m": 9999,
      "fzfg": false,
      "metar_trigger": false,
      "taf_trigger": false,
      "metar": "METAR LEBL 052000Z 32014KT 290V010 9999 FEW025 05/M01 Q1010 NOSIG",
      "taf": "TAF LEBL 051700Z 0518/0618 33013KT 9999 FEW030 SCT040 TX11/0613Z TN01/0606Z"
    },
    {
      "icao": "LECH",
      "alert": "OK",
      "vis_m": 9000,
      "fzfg": false,
      "metar_trigger": false,
      "taf_trigger": false,
      "metar": "METAR LECH 052000Z AUTO 34003KT 290V050 9000 NCD 03/M10 Q1010",
      "taf": ""
    },
    {
      "icao": "LEMD",
      "alert": "OK",
      "vis_m": 9999,
      "fzfg": false,
      "metar_trigger": false,
      "taf_trigger": false,
      "metar": "METAR LEMD 052000Z 36010KT 340V040 CAVOK 01/M07 Q1011 NOSIG",
      "taf": "TAF LEMD 051700Z 0518/0624 01010KT 9999 FEW040 TX06/0614Z TNM03/0607Z"
    },
    {
      "icao": "LEMG",
      "alert": "OK",
      "vis_m": 9999,
      "fzfg": false,
      "metar_trigger": false,
      "taf_trigger": false,
      "metar": "METAR LEMG 052000Z 28010KT 9999 VCSH FEW045TCU 11/08 Q1007 NOSIG",
      "taf": "TAF LEMG 051700Z 0518/0618 VRB04KT 9999 FEW050 TX12/0614Z TN04/0606Z"
    },
    {
      "icao": "LEVC",
      "alert": "OK",
      "vis_m": 9999,
      "fzfg": false,
      "metar_trigger": false,
      "taf_trigger": false,
      "metar": "METAR LEVC 052000Z 25003KT 220V280 9999 BKN056 06/04 Q1010 NOSIG",
      "taf": "TAF LEVC 051700Z 0518/0618 VRB04KT 9999 BKN015 TX12/0614Z TN00/0606Z"
    },
    {
      "icao": "LEXJ",
      "alert": "OK",
      "vis_m": 8000,
      "fzfg": false,
      "metar_trigger": false,
      "taf_trigger": false,
      "metar": "METAR LEXJ 052000Z 22007KT 8000 SCT049 BKN058 OVC068 06/M01 Q1016",
      "taf": "TAF LEXJ 052000Z 0521/0621 22005KT 9999 SCT010 BKN040 TX09/0614Z TN03/0523Z"
    },
    {
      "icao": "LEZG",
      "alert": "OK",
      "vis_m": 9999,
      "fzfg": false,
      "metar_trigger": false,
      "taf_trigger": false,
      "metar": "METAR LEZG 052030Z 29016KT CAVOK 02/M07 Q1012 NOSIG",
      "taf": "TAF LEZG 051700Z 0518/0618 31018KT 9999 FEW050 TX07/0615Z TN00/0606Z"
    },
    {
      "icao": "LEZL",
      "alert": "OK",
      "vis_m": 9999,
      "fzfg": false,
      "metar_trigger": false,
      "taf_trigger": false,
      "metar": "METAR LEZL 052000Z 35007KT CAVOK 10/03 Q1011 NOSIG",
      "taf": "TAF LEZL 052000Z 0521/0621 30004KT CAVOK TX13/0615Z TN02/0607Z"
    },
    {
      "icao": "LFBD",
      "alert": "OK",
      "vis_m": 9999,
      "fzfg": false,
      "metar_trigger": false,
      "taf_trigger": false,
      "metar": "METAR LFBD 052030Z AUTO 20007KT 9999 BKN048 BKN230 M00/M05 Q1015 NOSIG",
      "taf": "TAF LFBD 051700Z 0518/0624 VRB03KT CAVOK TX04/0614Z TNM02/0601Z"
    },
    {
      "icao": "LFLL",
      "alert": "OK",
      "vis_m": 9999,
      "fzfg": false,
      "metar_trigger": false,
      "taf_trigger": false,
      "metar": "METAR LFLL 052030Z 32008KT CAVOK M04/M06 Q1014 NOSIG",
      "taf": "TAF LFLL 051700Z 0518/0624 34008KT CAVOK"
    },
    {
      "icao": "LFLS",
      "alert": "OK",
      "vis_m": 9999,
      "fzfg": false,
      "metar_trigger": false,
      "taf_trigger": false,
      "metar": "METAR LFLS 052030Z AUTO VRB04KT CAVOK M05/M07 Q1012 NOSIG",
      "taf": "TAF LFLS 051400Z 0515/0615 36008KT CAVOK"
    },
    {
      "icao": "LFMN",
      "alert": "OK",
      "vis_m": 9999,
      "fzfg": false,
      "metar_trigger": false,
      "taf_trigger": false,
      "metar": "METAR LFMN 052030Z 33010KT 9999 BKN040 07/01 Q1005 NOSIG",
      "taf": "TAF LFMN 052000Z 0521/0703 32010KT 9999 BKN055 BKN135"
    },
    {
      "icao": "LFOB",
      "alert": "OK",
      "vis_m": 1600,
      "fzfg": true,
      "metar_trigger": false,
      "taf_trigger": false,
      "metar": "METAR LFOB 052030Z AUTO 31004KT 1600 0900 R30/1900U R12/0900U BCFG VV/// M03/M04 Q1015 TEMPO 0500 FZFG",
      "taf": ""
    },
    {
      "icao": "LFPO",
      "alert": "OK",
      "vis_m": 6000,
      "fzfg": false,
      "metar_trigger": false,
      "taf_trigger": false,
      "metar": "METAR LFPO 052030Z AUTO 29003KT 6000 FEW012 OVC120 M01/M02 Q1015 TEMPO 2500 BR BKN004",
      "taf": "TAF LFPO 051700Z 0518/0624 26004KT 6000 BKN008"
    },
    {
      "icao": "LFSB",
      "alert": "OK",
      "vis_m": 9999,
      "fzfg": false,
      "metar_trigger": false,
      "taf_trigger": false,
      "metar": "METAR LFSB 052030Z AUTO 17003KT CAVOK M07/M09 Q1014 NOSIG",
      "taf": "TAF LFSB 051700Z 0518/0618 VRB03KT CAVOK"
    },
    {
      "icao": "LGAV",
      "alert": "OK",
      "vis_m": 9999,
      "fzfg": false,
      "metar_trigger": false,
      "taf_trigger": false,
      "metar": "METAR LGAV 052020Z 17004KT 140V200 9999 FEW018 SCT030 15/10 Q1016 NOSIG",
      "taf": "TAF LGAV 051700Z 0518/0618 19014KT 9999 FEW018 SCT030 BKN070"
    },
    {
      "icao": "LGTS",
      "alert": "OK",
      "vis_m": 9999,
      "fzfg": false,
      "metar_trigger": false,
      "taf_trigger": false,
      "metar": "METAR LGTS 052020Z 13005KT 9999 SCT035 15/10 Q1012 NOSIG",
      "taf": "TAF LGTS 051700Z 0518/0618 14010KT 9999 SCT030"
    },
    {
      "icao": "LHBP",
      "alert": "OK",
      "vis_m": 3500,
      "fzfg": false,
      "metar_trigger": false,
      "taf_trigger": false,
      "metar": "METAR LHBP 052030Z 34007KT 3500 -SN FEW005 BKN017 OVC028 M02/M03 Q1010 NOSIG",
      "taf": "TAF LHBP 051715Z 0518/0618 35006KT 5000 -SN SCT010 OVC020"
    },
    {
      "icao": "LHDC",
      "alert": "OK",
      "vis_m": 4600,
      "fzfg": false,
      "metar_trigger": false,
      "taf_trigger": false,
      "metar": "METAR LHDC 052015Z AUTO 05004KT 4600 -SN BR OVC014 M01/M01 Q1010 NOSIG",
      "taf": "TAF LHDC 051715Z 0518/0603 05006KT 4000 -SN SCT012 OVC025"
    },
    {
      "icao": "LIBD",
      "alert": "OK",
      "vis_m": 8000,
      "fzfg": false,
      "metar_trigger": false,
      "taf_trigger": false,
      "metar": "METAR LIBD 052020Z 29006KT 8000 FEW010 BKN020 12/11 Q1004",
      "taf": "TAF LIBD 051700Z 0518/0618 28007KT 9999 SCT015"
    },
    {
      "icao": "LIBG",
      "alert": "OK",
      "vis_m": null,
      "fzfg": false,
      "metar_trigger": false,
      "taf_trigger": false,
      "metar": "",
      "taf": "TAF LIBG 051700Z 0518/0603 17012KT 9999 SCT030"
    },
    {
      "icao": "LIBP",
      "alert": "OK",
      "vis_m": 9999,
      "fzfg": false,
      "metar_trigger": false,
      "taf_trigger": false,
      "metar": "METAR LIBP 052020Z AUTO VRB02KT 9999 OVC008/// 07/06 Q1007",
      "taf": "TAF LIBP 051700Z 0518/0618 34007KT 9999 OVC008"
    },
    {
      "icao": "LIBR",
      "alert": "OK",
      "vis_m": 9000,
      "fzfg": false,
      "metar_trigger": false,
      "taf_trigger": false,
      "metar": "METAR LIBR 052020Z 20013KT 9000 -RA FEW015CB SCT025 16/14 Q1004",
      "taf": "TAF LIBR 051700Z 0518/0618 17013KT 9999 BKN015"
    },
    {
      "icao": "LICA",
      "alert": "OK",
      "vis_m": 5000,
      "fzfg": false,
      "metar_trigger": false,
      "taf_trigger": false,
      "metar": "METAR LICA 052020Z AUTO 09004KT 5000 BR NCD 12/12 Q1005",
      "taf": "TAF LICA 051700Z 0518/0618 VRB05KT 9999 SCT050"
    },
    {
      "icao": "LICC",
      "alert": "OK",
      "vis_m": 9999,
      "fzfg": false,
      "metar_trigger": false,
      "taf_trigger": false,
      "metar": "METAR LICC 052020Z 25008KT CAVOK 13/10 Q1005",
      "taf": "TAF LICC 051700Z 0518/0618 26013KT 9999 SCT030"
    },
    {
      "icao": "LICJ",
      "alert": "OK",
      "vis_m": 9999,
      "fzfg": false,
      "metar_trigger": false,
      "taf_trigger": false,
      "metar": "METAR LICJ 052020Z 20011KT CAVOK 16/09 Q1004",
      "taf": "TAF LICJ 051700Z 0518/0618 21016KT 9999 FEW030"
    },
    {
      "icao": "LIMC",
      "alert": "OK",
      "vis_m": 9999,
      "fzfg": false,
      "metar_trigger": false,
      "taf_trigger": false,
      "metar": "METAR LIMC 052020Z 05003KT CAVOK M04/M06 Q1008 NOSIG",
      "taf": "TAF LIMC 051700Z 0518/0624 VRB03KT CAVOK"
    },
    {
      "icao": "LIME",
      "alert": "OK",
      "vis_m": 9999,
      "fzfg": false,
      "metar_trigger": false,
      "taf_trigger": false,
      "metar": "METAR LIME 052020Z 01004KT CAVOK 00/M04 Q1007 NOSIG",
      "taf": "TAF LIME 051700Z 0518/0618 VRB03KT CAVOK"
    },
    {
      "icao": "LIMF",
      "alert": "OK",
      "vis_m": 9999,
      "fzfg": false,
      "metar_trigger": false,
      "taf_trigger": false,
      "metar": "METAR LIMF 052020Z 32002KT CAVOK M01/M08 Q1007",
      "taf": "TAF LIMF 051700Z 0518/0618 VRB03KT CAVOK"
    },
    {
      "icao": "LIMJ",
      "alert": "OK",
      "vis_m": 9999,
      "fzfg": false,
      "metar_trigger": false,
      "taf_trigger": false,
      "metar": "METAR LIMJ 052020Z 04019KT CAVOK 04/M04 Q1006",
      "taf": "TAF LIMJ 051700Z 0518/0618 01014KT CAVOK"
    },
    {
      "icao": "LIPE",
      "alert": "OK",
      "vis_m": 9999,
      "fzfg": false,
      "metar_trigger": false,
      "taf_trigger": false,
      "metar": "METAR LIPE 052020Z 26004KT 9999 BKN040 03/M03 Q1008",
      "taf": "TAF LIPE 051700Z 0518/0618 28007KT 9999 BKN020"
    },
    {
      "icao": "LIPH",
      "alert": "OK",
      "vis_m": 9999,
      "fzfg": false,
      "metar_trigger": false,
      "taf_trigger": false,
      "metar": "METAR LIPH 052020Z 01003KT CAVOK 01/M03 Q1008",
      "taf": "TAF LIPH 051700Z 0518/0618 03006KT 9999 SCT070"
    },
    {
      "icao": "LIPQ",
      "alert": "OK",
      "vis_m": 9999,
      "fzfg": false,
      "metar_trigger": false,
      "taf_trigger": false,
      "metar": "METAR LIPQ 052020Z AUTO 36003KT 330V050 9999 OVC045/// 03/M03 Q1008",
      "taf": "TAF LIPQ 051700Z 0518/0618 08008KT 9999 BKN030"
    },
    {
      "icao": "LIPR",
      "alert": "OK",
      "vis_m": 9999,
      "fzfg": false,
      "metar_trigger": false,
      "taf_trigger": false,
      "metar": "METAR LIPR 052020Z 29008KT 9999 BKN020 03/M01 Q1007",
      "taf": "TAF LIPR 051700Z 0518/0618 30012KT 9999 BKN020"
    },
    {
      "icao": "LIPX",
      "alert": "OK",
      "vis_m": 9999,
      "fzfg": false,
      "metar_trigger": false,
      "taf_trigger": false,
      "metar": "METAR LIPX 052020Z 34005KT CAVOK M00/M08 Q1008",
      "taf": "TAF LIPX 051700Z 0518/0618 VRB04KT CAVOK"
    },
    {
      "icao": "LIPY",
      "alert": "OK",
      "vis_m": 8000,
      "fzfg": false,
      "metar_trigger": false,
      "taf_trigger": false,
      "metar": "METAR LIPY 052020Z AUTO 30005KT 8000 -RA OVC008/// 04/03 Q1007",
      "taf": "TAF LIPY 051700Z 0518/0618 32010KT 9999 BKN010"
    },
    {
      "icao": "LIPZ",
      "alert": "OK",
      "vis_m": 9999,
      "fzfg": false,
      "metar_trigger": false,
      "taf_trigger": false,
      "metar": "METAR LIPZ 052020Z 35005KT 9999 SCT070 02/M02 Q1008 NOSIG",
      "taf": "TAF LIPZ 051700Z 0518/0624 02008KT 9999 SCT070"
    },
    {
      "icao": "LIRF",
      "alert": "OK",
      "vis_m": 9999,
      "fzfg": false,
      "metar_trigger": false,
      "taf_trigger": false,
      "metar": "METAR LIRF 052020Z 04003KT 9999 -RA SCT020 SCT045 12/11 Q1003 NOSIG",
      "taf": "TAF LIRF 051700Z 0518/0624 09008KT 9999 SCT020"
    },
    {
      "icao": "LIRN",
      "alert": "OK",
      "vis_m": 9999,
      "fzfg": false,
      "metar_trigger": false,
      "taf_trigger": false,
      "metar": "METAR LIRN 052020Z VRB01KT 9999 SCT070 12/10 Q1003 NOSIG",
      "taf": "TAF LIRN 051700Z 0518/0618 VRB06KT 9999 SCT020 SCT050"
    },
    {
      "icao": "LIRP",
      "alert": "OK",
      "vis_m": 9999,
      "fzfg": false,
      "metar_trigger": false,
      "taf_trigger": false,
      "metar": "METAR LIRP 052015Z 13006KT CAVOK 03/M01 Q1005 NOSIG",
      "taf": "TAF LIRP 051700Z 0518/0618 12008KT 9999 SCT040 BKN070"
    },
    {
      "icao": "LIRZ",
      "alert": "OK",
      "vis_m": 9999,
      "fzfg": false,
      "metar_trigger": false,
      "taf_trigger": false,
      "metar": "METAR LIRZ 052020Z AUTO 36006KT 9999 OVC016/// 05/04 Q1004",
      "taf": "TAF LIRZ 051700Z 0518/0618 01010KT 6000 RA BKN012 BKN020"
    },
    {
      "icao": "LJLJ",
      "alert": "OK",
      "vis_m": 6000,
      "fzfg": false,
      "metar_trigger": false,
      "taf_trigger": false,
      "metar": "METAR LJLJ 052030Z 00000KT 6000 -SN FEW004 BKN010 OVC055 M03/M04 Q1010 NOSIG",
      "taf": "TAF LJLJ 051700Z 0518/0618 10004KT 7000 -SN SCT020 OVC040"
    },
    {
      "icao": "LKMT",
      "alert": "OK",
      "vis_m": 9999,
      "fzfg": false,
      "metar_trigger": false,
      "taf_trigger": false,
      "metar": "METAR LKMT 052030Z VRB02KT CAVOK M04/M06 Q1012 NOSIG",
      "taf": "TAF LKMT 051700Z 0518/0618 18003KT CAVOK"
    },
    {
      "icao": "LKPR",
      "alert": "OK",
      "vis_m": 9999,
      "fzfg": false,
      "metar_trigger": false,
      "taf_trigger": false,
      "metar": "METAR LKPR 052030Z 21006KT 9999 SCT040 M05/M10 Q1012 NOSIG",
      "taf": "TAF LKPR 052000Z 0521/0703 23006KT 9999 BKN040"
    },
    {
      "icao": "LLBG",
      "alert": "OK",
      "vis_m": 9999,
      "fzfg": false,
      "metar_trigger": false,
      "taf_trigger": false,
      "metar": "METAR LLBG 052020Z VRB02KT CAVOK 13/07 Q1019 NOSIG",
      "taf": "TAF LLBG 051700Z 0518/0618 VRB03KT CAVOK"
    },
    {
      "icao": "LMML",
      "alert": "OK",
      "vis_m": 8000,
      "fzfg": false,
      "metar_trigger": false,
      "taf_trigger": false,
      "metar": "METAR LMML 052015Z 19006KT 8000 NSC 16/15 Q1007 NOSIG",
      "taf": "TAF LMML 051700Z 0518/0618 22012KT 8000 NSC"
    },
    {
      "icao": "LOWW",
      "alert": "OK",
      "vis_m": 9999,
      "fzfg": false,
      "metar_trigger": false,
      "taf_trigger": false,
      "metar": "METAR LOWW 052020Z 34007KT 9999 FEW038 SCT040 BKN042 M03/M08 Q1013 NOSIG",
      "taf": "TAF LOWW 052015Z 0521/0703 33010KT 9999 SCT050 TXM02/0613Z TNM04/0607Z"
    },
    {
      "icao": "LPFR",
      "alert": "OK",
      "vis_m": 9999,
      "fzfg": false,
      "metar_trigger": false,
      "taf_trigger": false,
      "metar": "METAR LPFR 052000Z 33010KT 290V350 CAVOK 09/M02 Q1014",
      "taf": ""
    },
    {
      "icao": "LPMA",
      "alert": "OK",
      "vis_m": 9999,
      "fzfg": false,
      "metar_trigger": false,
      "taf_trigger": false,
      "metar": "METAR LPMA 052000Z 01015G32KT 330V040 9999 SCT015 FEW018TCU 15/09 Q1023",
      "taf": "TAF LPMA 051700Z 0518/0618 02017KT 9999 SCT015"
    },
    {
      "icao": "LPPR",
      "alert": "OK",
      "vis_m": 9999,
      "fzfg": false,
      "metar_trigger": false,
      "taf_trigger": false,
      "metar": "METAR LPPR 052000Z 34011KT CAVOK 07/03 Q1017",
      "taf": "TAF LPPR 051700Z 0518/0618 02010KT CAVOK"
    },
    {
      "icao": "LPPS",
      "alert": "OK",
      "vis_m": 9999,
      "fzfg": false,
      "metar_trigger": false,
      "taf_trigger": false,
      "metar": "METAR LPPS 052000Z 03017G27KT 9999 SCT015 14/09 Q1023",
      "taf": "TAF LPPS 051700Z 0518/0624 02015KT 9999 SCT015"
    },
    {
      "icao": "LPPT",
      "alert": "OK",
      "vis_m": 9999,
      "fzfg": false,
      "metar_trigger": false,
      "taf_trigger": false,
      "metar": "METAR LPPT 052000Z 01005KT 9999 FEW025TCU 07/03 Q1016",
      "taf": "TAF LPPT 051700Z 0518/0624 34015KT 9999 FEW035"
    },
    {
      "icao": "LQBK",
      "alert": "OK",
      "vis_m": 8000,
      "fzfg": false,
      "metar_trigger": false,
      "taf_trigger": false,
      "metar": "METAR LQBK 052030Z 31006KT 8000 FZRA FEW007 SCT015 OVC023 M00/M01 Q1011 NOSIG",
      "taf": ""
    },
    {
      "icao": "LQSA",
      "alert": "OK",
      "vis_m": 800,
      "fzfg": false,
      "metar_trigger": false,
      "taf_trigger": false,
      "metar": "METAR LQSA 052030Z 00000KT 0800 R11/1000D RA BKN006 OVC030 00/00 Q1006 BECMG SN BKN008 OVC030",
      "taf": "TAF LQSA 051700Z 0518/0618 30005KT 3000 RA BKN008 OVC030 TX00/0518Z TNM02/0618Z"
    },
    {
      "icao": "LQTZ",
      "alert": "OK",
      "vis_m": 5000,
      "fzfg": false,
      "metar_trigger": false,
      "taf_trigger": false,
      "metar": "METAR LQTZ 052030Z 29004KT 5000 BR OVC005 M01/M01 Q1009",
      "taf": "TAF LQTZ 051700Z 0518/0618 30005KT 5000 BR BKN005 OVC015 TXM00/0613Z TNM03/0605Z"
    },
    {
      "icao": "LRBC",
      "alert": "OK",
      "vis_m": 2900,
      "fzfg": false,
      "metar_trigger": false,
      "taf_trigger": false,
      "metar": "METAR LRBC 052000Z VRB01KT 2900 BR OVC002 M01/M02 Q1015",
      "taf": "TAF LRBC 052000Z 0521/0606 VRB03KT 3000 -SN BKN002 OVC010"
    },
    {
      "icao": "LRBS",
      "alert": "OK",
      "vis_m": 800,
      "fzfg": false,
      "metar_trigger": false,
      "taf_trigger": false,
      "metar": "METAR LRBS 052000Z 04006KT 350V080 0800 R07/2000N -DZ FG OVC001 01/01 Q1014 TEMPO 1500 -RADZ BR OVC002",
      "taf": "TAF LRBS 051700Z 0518/0618 05010KT 9999 -RA OVC005"
    },
    {
      "icao": "LRBV",
      "alert": "OK",
      "vis_m": 9999,
      "fzfg": false,
      "metar_trigger": false,
      "taf_trigger": false,
      "metar": "METAR LRBV 052000Z VRB02KT 9999 FEW050 SCT079 01/M00 Q1010",
      "taf": "TAF LRBV 051700Z 0518/0603 VRB04KT 9999 SCT030 OVC050"
    },
    {
      "icao": "LRCL",
      "alert": "OK",
      "vis_m": 9999,
      "fzfg": false,
      "metar_trigger": false,
      "taf_trigger": false,
      "metar": "METAR LRCL 052000Z 06011KT 9999 OVC042 02/00 Q1009",
      "taf": "TAF LRCL 052000Z 0521/0606 06010KT 9999 OVC040"
    },
    {
      "icao": "LRCV",
      "alert": "OK",
      "vis_m": 450,
      "fzfg": false,
      "metar_trigger": false,
      "taf_trigger": false,
      "metar": "METAR LRCV 052000Z COR 10004KT 0450 R26/0800D -RADZ VV001 01/01 Q1014",
      "taf": "TAF LRCV 052000Z 0521/0606 VRB04KT 0500 FG VV001"
    },
    {
      "icao": "LRIA",
      "alert": "OK",
      "vis_m": 3000,
      "fzfg": false,
      "metar_trigger": false,
      "taf_trigger": false,
      "metar": "METAR LRIA 052000Z 11008KT 3000 -DZ BR BKN002 OVC005 M00/M00 Q1016",
      "taf": "TAF LRIA 052000Z 0521/0606 10008KT 3000 -DZ BKN002 OVC010"
    },
    {
      "icao": "LROP",
      "alert": "OK",
      "vis_m": 3500,
      "fzfg": false,
      "metar_trigger": false,
      "taf_trigger": false,
      "metar": "METAR LROP 052000Z 06010KT 3500 -RA BR OVC002 02/02 Q1014 BECMG 1500 -RADZ BR OVC001",
      "taf": "TAF LROP 051700Z 0518/0618 05010KT 9999 -RA OVC005"
    },
    {
      "icao": "LRSB",
      "alert": "OK",
      "vis_m": 5000,
      "fzfg": false,
      "metar_trigger": false,
      "taf_trigger": false,
      "metar": "METAR LRSB 052000Z 27003KT 240V320 5000 BR BKN085 M01/M02 Q1009",
      "taf": "TAF LRSB 051700Z 0518/0618 VRB04KT 5000 BR SCT005 BKN060"
    },
    {
      "icao": "LRSM",
      "alert": "OK",
      "vis_m": 3000,
      "fzfg": false,
      "metar_trigger": false,
      "taf_trigger": false,
      "metar": "METAR LRSM 052000Z AUTO 00000KT 3000 -RA BKN035/// OVC040/// 01/M00 Q1010",
      "taf": "TAF LRSM 051400Z 0515/0524 06006KT 9999 BKN035"
    },
    {
      "icao": "LRSV",
      "alert": "OK",
      "vis_m": 5000,
      "fzfg": false,
      "metar_trigger": false,
      "taf_trigger": false,
      "metar": "METAR LRSV 052000Z 14014KT 5000 BR BKN003 M02/M02 Q1012",
      "taf": "TAF LRSV 052000Z 0521/0606 13012KT 1500 BR OVC003"
    },
    {
      "icao": "LRTM",
      "alert": "OK",
      "vis_m": 3800,
      "fzfg": false,
      "metar_trigger": false,
      "taf_trigger": false,
      "metar": "METAR LRTM 052000Z AUTO 27002KT 3800 BR BKN055/// M00/M01 Q1010",
      "taf": "TAF LRTM 051400Z 0515/0524 VRB04KT 3000 -RASN BR BKN010 OVC025"
    },
    {
      "icao": "LRTR",
      "alert": "OK",
      "vis_m": 3500,
      "fzfg": false,
      "metar_trigger": false,
      "taf_trigger": false,
      "metar": "METAR LRTR 052000Z 09003KT 3500 RA BR BKN008 OVC035 01/01 Q1009",
      "taf": "TAF LRTR 051700Z 0518/0618 VRB04KT 5000 -RA BR OVC030"
    },
    {
      "icao": "LTAC",
      "alert": "OK",
      "vis_m": 6000,
      "fzfg": false,
      "metar_trigger": false,
      "taf_trigger": false,
      "metar": "METAR LTAC 052020Z VRB01KT 6000 NSC 01/M01 Q1021 NOSIG RMK RWY21C VRB02KT RWY03L 00000KT RWY21R 00000KT RWY03R 00000KT RWY21L 00000KT",
      "taf": "TAF LTAC 051640Z 0518/0618 VRB02KT CAVOK"
    },
    {
      "icao": "LTFM",
      "alert": "OK",
      "vis_m": 9999,
      "fzfg": false,
      "metar_trigger": false,
      "taf_trigger": false,
      "metar": "METAR LTFM 052020Z 19008KT 9999 FEW045 BKN180 13/06 Q1017 NOSIG RMK RWY17L 19008KT RWY34L 17008KT RWY16R 17009KT RWY36 17008KT RWY18 18008KT",
      "taf": "TAF LTFM 051640Z 0518/0624 19012KT CAVOK"
    },
    {
      "icao": "LUKK",
      "alert": "OK",
      "vis_m": 8000,
      "fzfg": false,
      "metar_trigger": false,
      "taf_trigger": false,
      "metar": "METAR LUKK 052030Z 09010KT 8000 -FZRA OVC004 M00/M01 Q1017 TEMPO 1500 FZRA BR BKN003",
      "taf": "TAF LUKK 051705Z 0518/0618 12006KT 5000 SN BKN008"
    },
    {
      "icao": "LWOH",
      "alert": "OK",
      "vis_m": 9999,
      "fzfg": false,
      "metar_trigger": false,
      "taf_trigger": false,
      "metar": "METAR LWOH 051950Z 34003KT 280V030 9999 BKN050 08/06 Q1010",
      "taf": "TAF LWOH 051735Z 0518/0618 16008KT 9999 SCT030 BKN050"
    },
    {
      "icao": "LWSK",
      "alert": "OK",
      "vis_m": 9999,
      "fzfg": false,
      "metar_trigger": false,
      "taf_trigger": false,
      "metar": "METAR LWSK 052020Z 11013KT 080V140 9999 FEW040 BKN080 13/07 Q1010 NOSIG",
      "taf": ""
    },
    {
      "icao": "LYBE",
      "alert": "OK",
      "vis_m": 3000,
      "fzfg": false,
      "metar_trigger": false,
      "taf_trigger": false,
      "metar": "METAR LYBE 052030Z 26005KT 3000 -FZRA BR BKN003 BKN013 M00/M01 Q1010 NOSIG",
      "taf": "TAF LYBE 051700Z 0518/0618 27005KT 4000 BR BKN005 BKN025 TX00/0518Z TNM01/0606Z"
    },
    {
      "icao": "LYNI",
      "alert": "OK",
      "vis_m": 9999,
      "fzfg": false,
      "metar_trigger": false,
      "taf_trigger": false,
      "metar": "METAR LYNI 052030Z 32003KT 290V350 9999 FEW043 OVC090 03/03 Q1009 NOSIG",
      "taf": "TAF LYNI 051700Z 0518/0618 05004KT 9999 BKN080 TX03/0518Z TN01/0606Z"
    },
    {
      "icao": "LYPG",
      "alert": "OK",
      "vis_m": 9999,
      "fzfg": false,
      "metar_trigger": false,
      "taf_trigger": false,
      "metar": "METAR LYPG 052030Z 00000KT 9999 RA FEW026 SCT033 OVC050 11/10 Q1007 TEMPO 5000 SHRA FEW027TCU BKN040",
      "taf": "TAF LYPG 051700Z 0518/0618 14012KT 6000 RA FEW015 BKN040 OVC070 TX14/0613Z TN11/0605Z"
    },
    {
      "icao": "LZIB",
      "alert": "OK",
      "vis_m": 7000,
      "fzfg": false,
      "metar_trigger": false,
      "taf_trigger": false,
      "metar": "METAR LZIB 052030Z 29009KT 7000 -SN FEW011 SCT027 M03/M06 Q1013 NOSIG",
      "taf": ""
    },
    {
      "icao": "LZKZ",
      "alert": "OK",
      "vis_m": 3400,
      "fzfg": false,
      "metar_trigger": false,
      "taf_trigger": false,
      "metar": "METAR LZKZ 052030Z 03007KT 3400 -SN OVC022 M02/M03 Q1010 TEMPO 1500 SN",
      "taf": "TAF LZKZ 051715Z 0518/0618 02006KT 9999 SCT040"
    },
    {
      "icao": "LZTT",
      "alert": "OK",
      "vis_m": 9999,
      "fzfg": false,
      "metar_trigger": false,
      "taf_trigger": false,
      "metar": "METAR LZTT 052030Z 27002KT 9999 BKN053 M05/M08 Q1008",
      "taf": "TAF LZTT 051715Z 0518/0618 VRB02KT 9999 SCT055 BKN080"
    },
    {
      "icao": "OEJN",
      "alert": "OK",
      "vis_m": 8000,
      "fzfg": false,
      "metar_trigger": false,
      "taf_trigger": false,
      "metar": "METAR OEJN 052000Z 02004KT 8000 FEW040 27/17 Q1016 NOSIG",
      "taf": "TAF OEJN 051700Z 0518/0624 35006KT 7000 FEW040"
    },
    {
      "icao": "OEMA",
      "alert": "OK",
      "vis_m": 2000,
      "fzfg": false,
      "metar_trigger": false,
      "taf_trigger": false,
      "metar": "METAR OEMA 052000Z 05009KT 2000 DU NSC 21/00 Q1022 NOSIG",
      "taf": "TAF OEMA 051700Z 0518/0624 09010KT 7000 NSC"
    },
    {
      "icao": "OJAI",
      "alert": "OK",
      "vis_m": 5000,
      "fzfg": false,
      "metar_trigger": false,
      "taf_trigger": false,
      "metar": "METAR OJAI 052000Z 05005KT 5000 HZ NSC 07/01 Q1024 NOSIG",
      "taf": "TAF OJAI 051649Z 0518/0624 VRB02KT 5000 HZ NSC"
    },
    {
      "icao": "OMAA",
      "alert": "OK",
      "vis_m": 9999,
      "fzfg": false,
      "metar_trigger": false,
      "taf_trigger": false,
      "metar": "METAR OMAA 052000Z 31004KT CAVOK 20/15 Q1020 NOSIG",
      "taf": "TAF OMAA 051700Z 0518/0700 05005KT 8000 FEW030"
    },
    {
      "icao": "OMDB",
      "alert": "OK",
      "vis_m": 9999,
      "fzfg": false,
      "metar_trigger": false,
      "taf_trigger": false,
      "metar": "METAR OMDB 052030Z 08005KT CAVOK 21/12 Q1020 NOSIG",
      "taf": "TAF OMDB 051700Z 0518/0700 06007KT 8000 FEW035"
    },
    {
      "icao": "UAAA",
      "alert": "OK",
      "vis_m": 4100,
      "fzfg": false,
      "metar_trigger": false,
      "taf_trigger": false,
      "metar": "METAR UAAA 052000Z 05002MPS 350V110 4100 BR OVC006 M01/M03 Q1036 NOSIG RMK QBB180",
      "taf": "TAF UAAA 051701Z 0518/0618 06003MPS 3100 BR FU BKN011 OVC030 TX01/0609Z TNM03/0602Z"
    },
    {
      "icao": "UBBB",
      "alert": "OK",
      "vis_m": 300,
      "fzfg": false,
      "metar_trigger": false,
      "taf_trigger": false,
      "metar": "METAR UBBB 052030Z 30008KT 0300 R34/0800 R35/P2000 FG SCT001 03/03 Q1025 NOSIG",
      "taf": "TAF UBBB 051706Z 0518/0618 20010KT CAVOK TX12/0610Z TN02/0602Z"
    },
    {
      "icao": "UDSG",
      "alert": "OK",
      "vis_m": 3500,
      "fzfg": false,
      "metar_trigger": false,
      "taf_trigger": false,
      "metar": "METAR UDSG 052000Z 00000KT 3500 BR NSC M15/M17 Q1030 NOSIG",
      "taf": "TAF UDSG 051700Z 0518/0618 VRB06KT 5000 BR FEW040"
    },
    {
      "icao": "UDYZ",
      "alert": "OK",
      "vis_m": 4200,
      "fzfg": false,
      "metar_trigger": false,
      "taf_trigger": false,
      "metar": "METAR UDYZ 052000Z VRB02KT 4200 BR NSC M11/M13 Q1033 NOSIG",
      "taf": "TAF UDYZ 051700Z 0518/0618 VRB04KT 2300 BR NSC"
    },
    {
      "icao": "UGKO",
      "alert": "OK",
      "vis_m": 9999,
      "fzfg": false,
      "metar_trigger": false,
      "taf_trigger": false,
      "metar": "METAR UGKO 052000Z 10004KT CAVOK 03/00 Q1022 NOSIG",
      "taf": "TAF UGKO 051700Z 0518/0618 08007KT CAVOK TX16/0611Z TN03/0523Z"
    }
  ]
}