{
  "ts_utc": "2026-04-25T03:31:05Z",
  "threshold_m": 150,
  "source": "stations_override.txt (ICAO list) + aviationweather.gov (METAR/TAF raw)",
  "station_count": 159,
  "stations": [
    {
      "icao": "BIKF",
      "alert": "OK",
      "vis_m": 9999,
      "fzfg": false,
      "metar_trigger": false,
      "taf_trigger": false,
      "metar": "METAR BIKF 250300Z 16009KT 9999 SCT015 BKN030 05/04 Q1025",
      "taf": "TAF BIKF 250103Z 2503/2603 15017KT 9999 SCT020 TX08/2515Z TN05/2503Z"
    },
    {
      "icao": "BKPR",
      "alert": "OK",
      "vis_m": 9999,
      "fzfg": false,
      "metar_trigger": false,
      "taf_trigger": false,
      "metar": "METAR BKPR 250330Z VRB02KT CAVOK 03/02 Q1017 NOSIG",
      "taf": "TAF BKPR 242330Z 2500/2524 VRB03KT CAVOK"
    },
    {
      "icao": "EBCI",
      "alert": "OK",
      "vis_m": 8000,
      "fzfg": false,
      "metar_trigger": false,
      "taf_trigger": false,
      "metar": "METAR EBCI 250320Z 04004KT 8000 NSC 05/03 Q1020 TEMPO 4000 BR",
      "taf": "TAF EBCI 242300Z 2500/2606 04004KT 9000 NSC"
    },
    {
      "icao": "EDDB",
      "alert": "OK",
      "vis_m": 9999,
      "fzfg": false,
      "metar_trigger": false,
      "taf_trigger": false,
      "metar": "METAR EDDB 250320Z AUTO 29012KT 9999 OVC015 07/04 Q1014 TEMPO BKN014",
      "taf": "TAF EDDB 242300Z 2500/2524 28008KT CAVOK"
    },
    {
      "icao": "EDDH",
      "alert": "OK",
      "vis_m": 9999,
      "fzfg": false,
      "metar_trigger": false,
      "taf_trigger": false,
      "metar": "METAR EDDH 250320Z AUTO 29012KT 240V320 9999 OVC016 07/03 Q1016 NOSIG",
      "taf": "TAF EDDH 242300Z 2500/2606 30010KT 9999 OVC015"
    },
    {
      "icao": "EDDK",
      "alert": "OK",
      "vis_m": 9999,
      "fzfg": false,
      "metar_trigger": false,
      "taf_trigger": false,
      "metar": "METAR EDDK 250320Z AUTO VRB02KT CAVOK 02/02 Q1020 NOSIG",
      "taf": "TAF EDDK 242300Z 2500/2606 VRB02KT CAVOK"
    },
    {
      "icao": "EDDN",
      "alert": "OK",
      "vis_m": 9999,
      "fzfg": false,
      "metar_trigger": false,
      "taf_trigger": false,
      "metar": "METAR EDDN 250320Z AUTO 10004KT CAVOK 03/01 Q1018",
      "taf": "TAF EDDN 242300Z 2500/2524 VRB03KT CAVOK"
    },
    {
      "icao": "EDDS",
      "alert": "OK",
      "vis_m": 9999,
      "fzfg": false,
      "metar_trigger": false,
      "taf_trigger": false,
      "metar": "METAR EDDS 250320Z AUTO VRB01KT CAVOK 03/M00 Q1018",
      "taf": "TAF EDDS 242300Z 2500/2524 VRB02KT CAVOK"
    },
    {
      "icao": "EDFH",
      "alert": "OK",
      "vis_m": 9999,
      "fzfg": false,
      "metar_trigger": false,
      "taf_trigger": false,
      "metar": "METAR EDFH 250320Z VRB02KT CAVOK 05/01 Q1019",
      "taf": "TAF EDFH 242300Z 2500/2524 VRB03KT CAVOK"
    },
    {
      "icao": "EDJA",
      "alert": "OK",
      "vis_m": 9999,
      "fzfg": false,
      "metar_trigger": false,
      "taf_trigger": false,
      "metar": "METAR EDJA 250320Z AUTO VRB02KT 9999 // FEW140/// 01/M02 Q1018",
      "taf": "TAF EDJA 250200Z 2503/2512 VRB02KT CAVOK"
    },
    {
      "icao": "EDLW",
      "alert": "OK",
      "vis_m": 7000,
      "fzfg": false,
      "metar_trigger": false,
      "taf_trigger": false,
      "metar": "METAR EDLW 250320Z VRB02KT 7000 NSC 04/04 Q1019",
      "taf": "TAF EDLW 250320Z 2504/2524 VRB03KT 7000 NSC"
    },
    {
      "icao": "EDNY",
      "alert": "OK",
      "vis_m": 9999,
      "fzfg": false,
      "metar_trigger": false,
      "taf_trigger": false,
      "metar": "METAR EDNY 250320Z AUTO 06003KT 360V110 9999 // NCD 02/M00 Q1018",
      "taf": "TAF EDNY 250200Z 2503/2512 VRB03KT CAVOK"
    },
    {
      "icao": "EDSB",
      "alert": "OK",
      "vis_m": 9999,
      "fzfg": false,
      "metar_trigger": false,
      "taf_trigger": false,
      "metar": "METAR EDSB 250320Z 04006KT CAVOK 07/02 Q1018",
      "taf": "TAF EDSB 242300Z 2500/2524 03004KT CAVOK"
    },
    {
      "icao": "EETN",
      "alert": "OK",
      "vis_m": 9999,
      "fzfg": false,
      "metar_trigger": false,
      "taf_trigger": false,
      "metar": "METAR EETN 250320Z 20007KT CAVOK 04/M00 Q0998",
      "taf": "TAF EETN 242330Z 2500/2524 20010KT BKN030"
    },
    {
      "icao": "EFTU",
      "alert": "OK",
      "vis_m": 9999,
      "fzfg": false,
      "metar_trigger": false,
      "taf_trigger": false,
      "metar": "METAR EFTU 250320Z AUTO 23004KT CAVOK 04/02 Q0995",
      "taf": "TAF EFTU 250227Z 2503/2603 25006KT CAVOK"
    },
    {
      "icao": "EGBB",
      "alert": "OK",
      "vis_m": 9999,
      "fzfg": false,
      "metar_trigger": false,
      "taf_trigger": false,
      "metar": "METAR EGBB 250320Z VRB01KT CAVOK 01/00 Q1021",
      "taf": "TAF EGBB 242315Z 2500/2524 VRB02KT CAVOK"
    },
    {
      "icao": "EGGP",
      "alert": "OK",
      "vis_m": 9999,
      "fzfg": false,
      "metar_trigger": false,
      "taf_trigger": false,
      "metar": "METAR EGGP 250320Z AUTO 05004KT 9999 NCD 05/01 Q1021",
      "taf": "TAF EGGP 242256Z 2500/2524 VRB03KT CAVOK"
    },
    {
      "icao": "EGGW",
      "alert": "OK",
      "vis_m": 9999,
      "fzfg": false,
      "metar_trigger": false,
      "taf_trigger": false,
      "metar": "METAR EGGW 250320Z AUTO 21002KT 9999 NCD 03/02 Q1021",
      "taf": ""
    },
    {
      "icao": "EGKK",
      "alert": "OK",
      "vis_m": 600,
      "fzfg": false,
      "metar_trigger": false,
      "taf_trigger": false,
      "metar": "METAR EGKK 250320Z VRB01KT 0600 R08R/P1500N FG SCT000 03/02 Q1021",
      "taf": "TAF EGKK 242259Z 2500/2606 06009KT 9999 FEW045"
    },
    {
      "icao": "EGNM",
      "alert": "OK",
      "vis_m": null,
      "fzfg": false,
      "metar_trigger": false,
      "taf_trigger": false,
      "metar": "",
      "taf": "TAF EGNM 242256Z 2500/2524 VRB04KT CAVOK"
    },
    {
      "icao": "EGPD",
      "alert": "OK",
      "vis_m": 9999,
      "fzfg": false,
      "metar_trigger": false,
      "taf_trigger": false,
      "metar": "METAR EGPD 250320Z AUTO 35005KT 9999 OVC010 06/04 Q1022 TEMPO BKN008",
      "taf": ""
    },
    {
      "icao": "EGPF",
      "alert": "OK",
      "vis_m": 9999,
      "fzfg": false,
      "metar_trigger": false,
      "taf_trigger": false,
      "metar": "METAR EGPF 250320Z AUTO 05003KT 9999 NCD 01/M00 Q1022",
      "taf": "TAF EGPF 242254Z 2500/2524 VRB03KT 9999 FEW010"
    },
    {
      "icao": "EHBK",
      "alert": "OK",
      "vis_m": 2800,
      "fzfg": false,
      "metar_trigger": false,
      "taf_trigger": false,
      "metar": "METAR EHBK 250325Z AUTO 03002KT 2800 BR OVC002 04/04 Q1020",
      "taf": "TAF EHBK 242315Z 2500/2606 01005KT CAVOK"
    },
    {
      "icao": "EHEH",
      "alert": "OK",
      "vis_m": 500,
      "fzfg": false,
      "metar_trigger": false,
      "taf_trigger": false,
      "metar": "METAR EHEH 250255Z AUTO 36003KT 310V060 0500 R03/1200D -UP OVC000 04/04 Q1021 RED BECMG 2500 BKN002",
      "taf": "TAF EHEH 242346Z 2500/2606 01002KT 8000 NSC"
    },
    {
      "icao": "EKBI",
      "alert": "OK",
      "vis_m": 9999,
      "fzfg": false,
      "metar_trigger": false,
      "taf_trigger": false,
      "metar": "METAR EKBI 250320Z AUTO 30015KT 270V330 9999 OVC015/// 06/03 Q1013",
      "taf": "TAF EKBI 250227Z 2503/2603 30018KT 9999 SCT015"
    },
    {
      "icao": "EKCH",
      "alert": "OK",
      "vis_m": 9999,
      "fzfg": false,
      "metar_trigger": false,
      "taf_trigger": false,
      "metar": "METAR EKCH 250320Z AUTO 28015KT 9999 NCD 06/04 Q1008 TEMPO 29016G26KT",
      "taf": "TAF EKCH 250227Z 2503/2603 28016KT 9999 FEW014"
    },
    {
      "icao": "ENAL",
      "alert": "OK",
      "vis_m": 9999,
      "fzfg": false,
      "metar_trigger": false,
      "taf_trigger": false,
      "metar": "METAR ENAL 250320Z AUTO 34011G22KT 310V010 9999 SCT026/// BKN044/// 05/01 Q1011",
      "taf": "TAF ENAL 250200Z 2503/2512 34012KT 9999 FEW015 BKN030"
    },
    {
      "icao": "ENBR",
      "alert": "OK",
      "vis_m": 9999,
      "fzfg": false,
      "metar_trigger": false,
      "taf_trigger": false,
      "metar": "METAR ENBR 250320Z 32011KT 9999 -SHRA SCT012 BKN020 04/03 Q1013 RMK WIND 1200FT 32022KT",
      "taf": "TAF ENBR 242300Z 2500/2524 32010KT 9999 SCT015 BKN025"
    },
    {
      "icao": "ENGM",
      "alert": "OK",
      "vis_m": 9999,
      "fzfg": false,
      "metar_trigger": false,
      "taf_trigger": false,
      "metar": "METAR ENGM 250320Z VRB03KT CAVOK 07/M04 Q1003",
      "taf": "TAF ENGM 242300Z 2500/2524 30008KT CAVOK"
    },
    {
      "icao": "ENHD",
      "alert": "OK",
      "vis_m": 9999,
      "fzfg": false,
      "metar_trigger": false,
      "taf_trigger": false,
      "metar": "METAR ENHD 250320Z AUTO 31013KT 9999 FEW010/// SCT013/// BKN017/// 06/04 Q1014",
      "taf": "TAF ENHD 250200Z 2503/2512 31020KT 9999 SCT010 BKN020"
    },
    {
      "icao": "ENTC",
      "alert": "OK",
      "vis_m": 9999,
      "fzfg": false,
      "metar_trigger": false,
      "taf_trigger": false,
      "metar": "METAR ENTC 250320Z 19004KT 9999 -SN FEW006 SCT009 BKN016 M03/M04 Q1000 RMK WIND 2600FT 27012KT",
      "taf": ""
    },
    {
      "icao": "ENTO",
      "alert": "OK",
      "vis_m": 9999,
      "fzfg": false,
      "metar_trigger": false,
      "taf_trigger": false,
      "metar": "METAR ENTO 250320Z AUTO 29007KT 9999 NCD 08/M03 Q1005",
      "taf": "TAF ENTO 242300Z 2500/2524 30008KT CAVOK"
    },
    {
      "icao": "ENVA",
      "alert": "OK",
      "vis_m": 9999,
      "fzfg": false,
      "metar_trigger": false,
      "taf_trigger": false,
      "metar": "METAR ENVA 250320Z 29010KT 9999 SCT033 BKN039 03/M00 Q1006 RMK WIND 670FT 31018KT",
      "taf": "TAF ENVA 242300Z 2500/2524 26020KT 9999 -SHRA FEW010 BKN020"
    },
    {
      "icao": "ENZV",
      "alert": "OK",
      "vis_m": 9999,
      "fzfg": false,
      "metar_trigger": false,
      "taf_trigger": false,
      "metar": "METAR ENZV 250320Z 33015KT 9999 FEW008 SCT017 BKN026 06/04 Q1014",
      "taf": "TAF ENZV 242300Z 2500/2524 33015KT 9999 SCT010 BKN020"
    },
    {
      "icao": "EPGD",
      "alert": "OK",
      "vis_m": 9999,
      "fzfg": false,
      "metar_trigger": false,
      "taf_trigger": false,
      "metar": "METAR EPGD 250300Z 26010KT CAVOK 06/03 Q1007",
      "taf": "TAF EPGD 242330Z 2500/2524 27008KT CAVOK"
    },
    {
      "icao": "EPKK",
      "alert": "OK",
      "vis_m": 9999,
      "fzfg": false,
      "metar_trigger": false,
      "taf_trigger": false,
      "metar": "METAR EPKK 250300Z 25007KT CAVOK 04/03 Q1014",
      "taf": "TAF EPKK 250230Z 2503/2603 24005KT 9999 SCT015"
    },
    {
      "icao": "EPKT",
      "alert": "OK",
      "vis_m": 6000,
      "fzfg": false,
      "metar_trigger": false,
      "taf_trigger": false,
      "metar": "METAR EPKT 250300Z 23006KT 6000 FEW045 04/03 Q1014",
      "taf": "TAF EPKT 242330Z 2500/2524 28008KT CAVOK"
    },
    {
      "icao": "EPLB",
      "alert": "OK",
      "vis_m": 9999,
      "fzfg": false,
      "metar_trigger": false,
      "taf_trigger": false,
      "metar": "METAR EPLB 250300Z 28010KT CAVOK 10/06 Q1010",
      "taf": "TAF EPLB 242330Z 2500/2524 27010KT CAVOK"
    },
    {
      "icao": "EPMO",
      "alert": "OK",
      "vis_m": 9999,
      "fzfg": false,
      "metar_trigger": false,
      "taf_trigger": false,
      "metar": "METAR EPMO 250300Z 23007KT CAVOK 10/06 Q1010",
      "taf": "TAF EPMO 242330Z 2500/2524 26010KT CAVOK"
    },
    {
      "icao": "EPPO",
      "alert": "OK",
      "vis_m": 9999,
      "fzfg": false,
      "metar_trigger": false,
      "taf_trigger": false,
      "metar": "METAR EPPO 250300Z 25007KT CAVOK 06/05 Q1012",
      "taf": "TAF EPPO 242330Z 2500/2524 26013KT 9999 SCT035"
    },
    {
      "icao": "EPRA",
      "alert": "OK",
      "vis_m": 9999,
      "fzfg": false,
      "metar_trigger": false,
      "taf_trigger": false,
      "metar": "METAR EPRA 250300Z 28011KT CAVOK 09/05 Q1011",
      "taf": "TAF EPRA 250230Z 2503/2512 28012KT CAVOK"
    },
    {
      "icao": "EPRZ",
      "alert": "OK",
      "vis_m": 9999,
      "fzfg": false,
      "metar_trigger": false,
      "taf_trigger": false,
      "metar": "METAR EPRZ 250300Z 25013KT 9999 SCT040 07/05 Q1012",
      "taf": "TAF EPRZ 242330Z 2500/2524 26008KT CAVOK"
    },
    {
      "icao": "EPSC",
      "alert": "OK",
      "vis_m": 9999,
      "fzfg": false,
      "metar_trigger": false,
      "taf_trigger": false,
      "metar": "METAR EPSC 250300Z 25008KT 210V270 9999 BKN011 08/05 Q1011",
      "taf": ""
    },
    {
      "icao": "EPSY",
      "alert": "OK",
      "vis_m": 9999,
      "fzfg": false,
      "metar_trigger": false,
      "taf_trigger": false,
      "metar": "METAR EPSY 250300Z 00000KT 9999 FEW022 00/M01 Q1008",
      "taf": "TAF EPSY 250230Z 2503/2512 20004KT 9999 SCT030"
    },
    {
      "icao": "EPWA",
      "alert": "OK",
      "vis_m": 9999,
      "fzfg": false,
      "metar_trigger": false,
      "taf_trigger": false,
      "metar": "METAR EPWA 250300Z 26009KT 9999 FEW044 10/06 Q1010 NOSIG",
      "taf": "TAF EPWA 250230Z 2503/2603 26010KT CAVOK"
    },
    {
      "icao": "EPWR",
      "alert": "OK",
      "vis_m": 9999,
      "fzfg": false,
      "metar_trigger": false,
      "taf_trigger": false,
      "metar": "METAR EPWR 250300Z 25008KT CAVOK 06/05 Q1014",
      "taf": "TAF EPWR 250230Z 2503/2603 24007KT 9999 BKN025"
    },
    {
      "icao": "ESGG",
      "alert": "OK",
      "vis_m": 9999,
      "fzfg": false,
      "metar_trigger": false,
      "taf_trigger": false,
      "metar": "METAR ESGG 250320Z 29007KT 250V310 CAVOK 06/04 Q1004",
      "taf": "TAF ESGG 250230Z 2503/2603 29008KT CAVOK"
    },
    {
      "icao": "ESKN",
      "alert": "OK",
      "vis_m": 9999,
      "fzfg": false,
      "metar_trigger": false,
      "taf_trigger": false,
      "metar": "METAR ESKN 250320Z 31004KT 280V340 CAVOK 06/03 Q0999",
      "taf": "TAF ESKN 250230Z 2503/2603 23005KT CAVOK"
    },
    {
      "icao": "ESMS",
      "alert": "OK",
      "vis_m": 9000,
      "fzfg": false,
      "metar_trigger": false,
      "taf_trigger": false,
      "metar": "METAR ESMS 250320Z 29012KT 9000 OVC012 06/04 Q1007",
      "taf": "TAF ESMS 250227Z 2503/2603 30015KT 9999 FEW014"
    },
    {
      "icao": "ESSA",
      "alert": "OK",
      "vis_m": 9999,
      "fzfg": false,
      "metar_trigger": false,
      "taf_trigger": false,
      "metar": "METAR ESSA 250320Z 25002KT 9999 SCT047 04/01 Q0999 TEMPO SHRA SCT050CB",
      "taf": "TAF ESSA 250230Z 2503/2603 30005KT CAVOK"
    },
    {
      "icao": "EYKA",
      "alert": "OK",
      "vis_m": 9999,
      "fzfg": false,
      "metar_trigger": false,
      "taf_trigger": false,
      "metar": "METAR EYKA 250320Z 27007KT CAVOK 03/01 Q1006",
      "taf": "TAF EYKA 242304Z 2500/2524 VRB03KT 9000 SCT030"
    },
    {
      "icao": "EYPA",
      "alert": "OK",
      "vis_m": 9999,
      "fzfg": false,
      "metar_trigger": false,
      "taf_trigger": false,
      "metar": "METAR EYPA 250320Z 18007KT CAVOK 03/02 Q1004",
      "taf": "TAF EYPA 242304Z 2500/2524 VRB04KT 9000 NSC"
    },
    {
      "icao": "EYVI",
      "alert": "OK",
      "vis_m": 9999,
      "fzfg": false,
      "metar_trigger": false,
      "taf_trigger": false,
      "metar": "METAR EYVI 250320Z 24004KT 190V280 CAVOK 05/02 Q1005 NOSIG",
      "taf": "TAF EYVI 241704Z 2418/2518 VRB03KT 9000 SCT030"
    },
    {
      "icao": "GCFV",
      "alert": "OK",
      "vis_m": 9999,
      "fzfg": false,
      "metar_trigger": false,
      "taf_trigger": false,
      "metar": "METAR GCFV 250300Z AUTO 34009KT CAVOK 18/14 Q1015",
      "taf": "TAF GCFV 250200Z 2503/2603 35012KT 9999 SCT020 TX22/2514Z TN17/2506Z"
    },
    {
      "icao": "GCLP",
      "alert": "OK",
      "vis_m": 9999,
      "fzfg": false,
      "metar_trigger": false,
      "taf_trigger": false,
      "metar": "METAR GCLP 250300Z 36013KT 9999 FEW035 19/13 Q1016 NOSIG",
      "taf": "TAF GCLP 250200Z 2503/2603 01016KT 9999 FEW030 TX22/2514Z TN16/2506Z"
    },
    {
      "icao": "GCTS",
      "alert": "OK",
      "vis_m": 9999,
      "fzfg": false,
      "metar_trigger": false,
      "taf_trigger": false,
      "metar": "METAR GCTS 250300Z 36003KT 9999 SCT025 17/13 Q1017 NOSIG",
      "taf": "TAF GCTS 250200Z 2503/2603 02005KT 9999 FEW030 TX23/2514Z TN16/2506Z"
    },
    {
      "icao": "GMAD",
      "alert": "OK",
      "vis_m": 8000,
      "fzfg": false,
      "metar_trigger": false,
      "taf_trigger": false,
      "metar": "METAR GMAD 250300Z 00000KT 8000 NSC 13/11 Q1009 NOSIG",
      "taf": "TAF GMAD 242300Z 2500/2606 16006KT 8000 FEW020"
    },
    {
      "icao": "GMMN",
      "alert": "OK",
      "vis_m": 9999,
      "fzfg": false,
      "metar_trigger": false,
      "taf_trigger": false,
      "metar": "METAR GMMN 250300Z 04004KT 9999 SCT016 13/11 Q1016 NOSIG",
      "taf": "TAF GMMN 242300Z 2500/2606 02005KT 9999 SCT020"
    },
    {
      "icao": "GMMX",
      "alert": "OK",
      "vis_m": null,
      "fzfg": false,
      "metar_trigger": false,
      "taf_trigger": false,
      "metar": "METAR GMMX 250300Z 06006KT 040V100 13/10 Q1014",
      "taf": "TAF GMMX 242300Z 2500/2606 06006KT 8000 BKN020"
    },
    {
      "icao": "HEGN",
      "alert": "OK",
      "vis_m": 9999,
      "fzfg": false,
      "metar_trigger": false,
      "taf_trigger": false,
      "metar": "METAR HEGN 250300Z 00000KT CAVOK 18/M02 Q1008 NOSIG",
      "taf": "TAF HEGN 242300Z 2500/2606 24008KT CAVOK"
    },
    {
      "icao": "HEMA",
      "alert": "OK",
      "vis_m": 9999,
      "fzfg": false,
      "metar_trigger": false,
      "taf_trigger": false,
      "metar": "METAR HEMA 250300Z 26004KT CAVOK 18/M00 Q1008 NOSIG",
      "taf": "TAF HEMA 242300Z 2500/2606 27008KT CAVOK"
    },
    {
      "icao": "HESH",
      "alert": "OK",
      "vis_m": 9999,
      "fzfg": false,
      "metar_trigger": false,
      "taf_trigger": false,
      "metar": "METAR HESH 250300Z 34008KT CAVOK 23/13 Q1008 NOSIG",
      "taf": "TAF HESH 242300Z 2500/2606 30008KT CAVOK"
    },
    {
      "icao": "HESX",
      "alert": "OK",
      "vis_m": 9999,
      "fzfg": false,
      "metar_trigger": false,
      "taf_trigger": false,
      "metar": "METAR HESX 250300Z 08012KT CAVOK 15/12 Q1008 NOSIG",
      "taf": "TAF HESX 242300Z 2500/2606 03010KT 7000 SCT020"
    },
    {
      "icao": "LATI",
      "alert": "OK",
      "vis_m": 9999,
      "fzfg": false,
      "metar_trigger": false,
      "taf_trigger": false,
      "metar": "METAR LATI 250320Z 15004KT CAVOK 07/04 Q1015 NOSIG",
      "taf": "TAF LATI 242300Z 2500/2524 VRB03KT CAVOK TX24/2512Z TN06/2504Z"
    },
    {
      "icao": "LBPD",
      "alert": "OK",
      "vis_m": 9999,
      "fzfg": false,
      "metar_trigger": false,
      "taf_trigger": false,
      "metar": "METAR LBPD 250300Z AUTO VRB01KT 9999 NCD 06/04 Q1015 NOSIG",
      "taf": "TAF LBPD 242300Z 2500/2524 VRB03KT 9999 SCT070"
    },
    {
      "icao": "LBSF",
      "alert": "OK",
      "vis_m": 9999,
      "fzfg": false,
      "metar_trigger": false,
      "taf_trigger": false,
      "metar": "METAR LBSF 250300Z AUTO VRB02KT 9999 NCD 03/01 Q1016 NOSIG",
      "taf": "TAF LBSF 242300Z 2500/2524 VRB03KT 9999 SCT070"
    },
    {
      "icao": "LBWN",
      "alert": "OK",
      "vis_m": 9999,
      "fzfg": false,
      "metar_trigger": false,
      "taf_trigger": false,
      "metar": "METAR LBWN 250300Z AUTO 33003KT 9999 NCD 08/04 Q1014 NOSIG",
      "taf": "TAF LBWN 242300Z 2500/2524 VRB03KT 9999 SCT045"
    },
    {
      "icao": "LCLK",
      "alert": "OK",
      "vis_m": 9999,
      "fzfg": false,
      "metar_trigger": false,
      "taf_trigger": false,
      "metar": "METAR LCLK 250300Z 05008KT CAVOK 18/17 Q1011 NOSIG",
      "taf": "TAF LCLK 242330Z 2500/2600 01008KT 9999 FEW030"
    },
    {
      "icao": "LCPH",
      "alert": "OK",
      "vis_m": 9999,
      "fzfg": false,
      "metar_trigger": false,
      "taf_trigger": false,
      "metar": "METAR LCPH 250300Z 07003KT 360V080 CAVOK 16/09 Q1010 NOSIG",
      "taf": "TAF LCPH 242330Z 2500/2600 04007KT 9999 FEW030"
    },
    {
      "icao": "LEAL",
      "alert": "OK",
      "vis_m": 9999,
      "fzfg": false,
      "metar_trigger": false,
      "taf_trigger": false,
      "metar": "METAR LEAL 250300Z 05004KT 9999 DZ FEW016 17/14 Q1017 NOSIG",
      "taf": "TAF LEAL 242300Z 2500/2524 VRB03KT 9999 FEW060 TX21/2512Z TN12/2506Z"
    },
    {
      "icao": "LEBB",
      "alert": "OK",
      "vis_m": 9999,
      "fzfg": false,
      "metar_trigger": false,
      "taf_trigger": false,
      "metar": "METAR LEBB 250300Z VRB01KT 9999 FEW014 SCT037 14/13 Q1020 NOSIG",
      "taf": "TAF LEBB 242300Z 2500/2524 31009KT 9999 FEW010 SCT050 TX18/2512Z TN12/2505Z"
    },
    {
      "icao": "LEBL",
      "alert": "OK",
      "vis_m": 9999,
      "fzfg": false,
      "metar_trigger": false,
      "taf_trigger": false,
      "metar": "METAR LEBL 250300Z 30005KT 9999 FEW045 12/08 Q1018 NOSIG",
      "taf": "TAF LEBL 242300Z 2500/2524 VRB04KT CAVOK TX20/2512Z TN12/2505Z"
    },
    {
      "icao": "LECH",
      "alert": "OK",
      "vis_m": 900,
      "fzfg": false,
      "metar_trigger": false,
      "taf_trigger": false,
      "metar": "METAR LECH 250300Z AUTO 22002KT 0900 R06/1700D FG VV/// 10/10 Q1018",
      "taf": "TAF LECH 242300Z 2500/2524 VRB03KT 9999 FEW020 TX24/2513Z TN10/2507Z"
    },
    {
      "icao": "LEMD",
      "alert": "OK",
      "vis_m": 9999,
      "fzfg": false,
      "metar_trigger": false,
      "taf_trigger": false,
      "metar": "METAR LEMD 250300Z 07002KT CAVOK 14/11 Q1018 NOSIG",
      "taf": "TAF LEMD 242300Z 2500/2606 VRB04KT 9999 FEW040 TX24/2515Z TN13/2506Z"
    },
    {
      "icao": "LEMG",
      "alert": "OK",
      "vis_m": 8000,
      "fzfg": false,
      "metar_trigger": false,
      "taf_trigger": false,
      "metar": "METAR LEMG 250300Z 32002KT 8000 SCT022 SCT044 BKN070 15/15 Q1016 NOSIG",
      "taf": "TAF LEMG 242300Z 2500/2524 29004KT 9999 FEW030 BKN050 TX19/2515Z TN14/2506Z"
    },
    {
      "icao": "LEVC",
      "alert": "OK",
      "vis_m": 9999,
      "fzfg": false,
      "metar_trigger": false,
      "taf_trigger": false,
      "metar": "METAR LEVC 250300Z VRB01KT CAVOK 16/14 Q1018 NOSIG",
      "taf": "TAF LEVC 242300Z 2500/2524 VRB03KT CAVOK TX22/2512Z TN12/2506Z"
    },
    {
      "icao": "LEXJ",
      "alert": "OK",
      "vis_m": 9999,
      "fzfg": false,
      "metar_trigger": false,
      "taf_trigger": false,
      "metar": "METAR LEXJ 250300Z AUTO 24005KT 210V270 9999 OVC020 14/12 Q1020",
      "taf": "TAF LEXJ 250200Z 2503/2603 29009KT 9000 FEW005 BKN016 TX19/2513Z TN11/2603Z"
    },
    {
      "icao": "LEZG",
      "alert": "OK",
      "vis_m": 9999,
      "fzfg": false,
      "metar_trigger": false,
      "taf_trigger": false,
      "metar": "METAR LEZG 250300Z 00000KT 9999 SCT065 15/11 Q1018 NOSIG",
      "taf": "TAF LEZG 242300Z 2500/2524 VRB03KT CAVOK TX27/2515Z TN12/2506Z"
    },
    {
      "icao": "LEZL",
      "alert": "OK",
      "vis_m": 9999,
      "fzfg": false,
      "metar_trigger": false,
      "taf_trigger": false,
      "metar": "METAR LEZL 250300Z AUTO 11002KT 9999 -RA FEW015 17/16 Q1016",
      "taf": "TAF LEZL 250200Z 2503/2603 VRB03KT 9999 FEW040 TX28/2515Z TN13/2506Z"
    },
    {
      "icao": "LFBD",
      "alert": "OK",
      "vis_m": 9999,
      "fzfg": false,
      "metar_trigger": false,
      "taf_trigger": false,
      "metar": "METAR LFBD 250300Z AUTO 26010KT 9999 OVC009 15/13 Q1018 TEMPO 3000 -DZ OVC003",
      "taf": "TAF LFBD 242300Z 2500/2606 26008KT 9999 BKN008 TX22/2514Z TN15/2506Z"
    },
    {
      "icao": "LFLL",
      "alert": "OK",
      "vis_m": 9999,
      "fzfg": false,
      "metar_trigger": false,
      "taf_trigger": false,
      "metar": "METAR LFLL 250300Z VRB01KT CAVOK 11/06 Q1017 NOSIG",
      "taf": "TAF LFLL 242300Z 2500/2606 01005KT CAVOK"
    },
    {
      "icao": "LFLS",
      "alert": "OK",
      "vis_m": 9999,
      "fzfg": false,
      "metar_trigger": false,
      "taf_trigger": false,
      "metar": "METAR LFLS 250300Z AUTO 12003KT CAVOK 05/03 Q1018 NOSIG",
      "taf": "TAF LFLS 250200Z 2503/2603 09005KT CAVOK"
    },
    {
      "icao": "LFMN",
      "alert": "OK",
      "vis_m": 9999,
      "fzfg": false,
      "metar_trigger": false,
      "taf_trigger": false,
      "metar": "METAR LFMN 250300Z 33006KT CAVOK 13/08 Q1016 NOSIG",
      "taf": "TAF LFMN 250200Z 2503/2609 34010KT CAVOK"
    },
    {
      "icao": "LFOB",
      "alert": "OK",
      "vis_m": 9999,
      "fzfg": false,
      "metar_trigger": false,
      "taf_trigger": false,
      "metar": "METAR LFOB 250300Z AUTO 32005KT CAVOK 00/M01 Q1020 TEMPO 4000 BR",
      "taf": "TAF LFOB 242300Z 2500/2524 VRB03KT CAVOK"
    },
    {
      "icao": "LFPO",
      "alert": "OK",
      "vis_m": 9999,
      "fzfg": false,
      "metar_trigger": false,
      "taf_trigger": false,
      "metar": "METAR LFPO 250300Z AUTO 02005KT CAVOK 10/03 Q1019 NOSIG",
      "taf": "TAF LFPO 242300Z 2500/2606 02008KT CAVOK"
    },
    {
      "icao": "LFSB",
      "alert": "OK",
      "vis_m": 9999,
      "fzfg": false,
      "metar_trigger": false,
      "taf_trigger": false,
      "metar": "METAR LFSB 250300Z AUTO 23002KT CAVOK 03/01 Q1018 NOSIG",
      "taf": "TAF LFSB 242300Z 2500/2524 31005KT CAVOK"
    },
    {
      "icao": "LGAV",
      "alert": "OK",
      "vis_m": 9999,
      "fzfg": false,
      "metar_trigger": false,
      "taf_trigger": false,
      "metar": "METAR LGAV 250320Z VRB01KT 9999 FEW030 06/01 Q1013 NOSIG",
      "taf": "TAF LGAV 242300Z 2500/2524 VRB05KT 9999 FEW025"
    },
    {
      "icao": "LGTS",
      "alert": "OK",
      "vis_m": 9999,
      "fzfg": false,
      "metar_trigger": false,
      "taf_trigger": false,
      "metar": "METAR LGTS 250320Z 11004KT CAVOK 08/07 Q1015 NOSIG",
      "taf": "TAF LGTS 242300Z 2500/2524 VRB03KT 9999 FEW030"
    },
    {
      "icao": "LHBP",
      "alert": "OK",
      "vis_m": 9999,
      "fzfg": false,
      "metar_trigger": false,
      "taf_trigger": false,
      "metar": "METAR LHBP 250300Z 31002KT CAVOK 05/02 Q1014 NOSIG",
      "taf": "TAF LHBP 242315Z 2500/2524 31004KT CAVOK"
    },
    {
      "icao": "LHDC",
      "alert": "OK",
      "vis_m": 9999,
      "fzfg": false,
      "metar_trigger": false,
      "taf_trigger": false,
      "metar": "METAR LHDC 250245Z AUTO VRB03KT CAVOK 07/02 Q1013 NOSIG",
      "taf": "TAF LHDC 250215Z 2503/2512 10005KT CAVOK"
    },
    {
      "icao": "LIBD",
      "alert": "OK",
      "vis_m": 9999,
      "fzfg": false,
      "metar_trigger": false,
      "taf_trigger": false,
      "metar": "METAR LIBD 250320Z 25005KT CAVOK 09/01 Q1015",
      "taf": "TAF LIBD 242300Z 2500/2524 26006KT CAVOK"
    },
    {
      "icao": "LIBG",
      "alert": "OK",
      "vis_m": null,
      "fzfg": false,
      "metar_trigger": false,
      "taf_trigger": false,
      "metar": "",
      "taf": "TAF LIBG 241700Z 2418/2503 VRB05KT CAVOK"
    },
    {
      "icao": "LIBP",
      "alert": "OK",
      "vis_m": 9999,
      "fzfg": false,
      "metar_trigger": false,
      "taf_trigger": false,
      "metar": "METAR LIBP 250320Z AUTO 23004KT 9999 NCD 06/03 Q1016",
      "taf": "TAF LIBP 242300Z 2500/2524 VRB05KT CAVOK"
    },
    {
      "icao": "LIBR",
      "alert": "OK",
      "vis_m": 9999,
      "fzfg": false,
      "metar_trigger": false,
      "taf_trigger": false,
      "metar": "METAR LIBR 250320Z 20002KT CAVOK 09/04 Q1015",
      "taf": "TAF LIBR 242300Z 2500/2524 33010KT CAVOK"
    },
    {
      "icao": "LICA",
      "alert": "OK",
      "vis_m": 9999,
      "fzfg": false,
      "metar_trigger": false,
      "taf_trigger": false,
      "metar": "METAR LICA 250320Z AUTO 06002KT 9999 FEW027/// 08/07 Q1017",
      "taf": "TAF LICA 242300Z 2500/2524 VRB05KT 9999 FEW040"
    },
    {
      "icao": "LICC",
      "alert": "OK",
      "vis_m": 9999,
      "fzfg": false,
      "metar_trigger": false,
      "taf_trigger": false,
      "metar": "METAR LICC 250320Z 25008KT CAVOK 09/05 Q1017",
      "taf": "TAF LICC 242300Z 2500/2524 26007KT CAVOK"
    },
    {
      "icao": "LICJ",
      "alert": "OK",
      "vis_m": 9999,
      "fzfg": false,
      "metar_trigger": false,
      "taf_trigger": false,
      "metar": "METAR LICJ 250320Z AUTO 19005KT 9999 NCD 10/03 Q1017",
      "taf": "TAF LICJ 242300Z 2500/2524 05012KT CAVOK"
    },
    {
      "icao": "LIMC",
      "alert": "OK",
      "vis_m": 9999,
      "fzfg": false,
      "metar_trigger": false,
      "taf_trigger": false,
      "metar": "METAR LIMC 250320Z VRB01KT CAVOK 09/08 Q1015 NOSIG",
      "taf": "TAF LIMC 242300Z 2500/2606 VRB05KT 9999 FEW050"
    },
    {
      "icao": "LIME",
      "alert": "OK",
      "vis_m": 9999,
      "fzfg": false,
      "metar_trigger": false,
      "taf_trigger": false,
      "metar": "METAR LIME 250320Z 34006KT 310V020 CAVOK 13/06 Q1016 NOSIG",
      "taf": "TAF LIME 242300Z 2500/2524 VRB04KT CAVOK"
    },
    {
      "icao": "LIMF",
      "alert": "OK",
      "vis_m": 9999,
      "fzfg": false,
      "metar_trigger": false,
      "taf_trigger": false,
      "metar": "METAR LIMF 250320Z VRB02KT CAVOK 10/06 Q1015",
      "taf": "TAF LIMF 242300Z 2500/2524 VRB04KT 9999 FEW040"
    },
    {
      "icao": "LIMJ",
      "alert": "OK",
      "vis_m": 9999,
      "fzfg": false,
      "metar_trigger": false,
      "taf_trigger": false,
      "metar": "METAR LIMJ 250320Z VRB02KT CAVOK 13/10 Q1017",
      "taf": "TAF LIMJ 242300Z 2500/2524 04005KT 9999 SCT018"
    },
    {
      "icao": "LIPE",
      "alert": "OK",
      "vis_m": 9999,
      "fzfg": false,
      "metar_trigger": false,
      "taf_trigger": false,
      "metar": "METAR LIPE 250320Z 20007KT CAVOK 12/06 Q1015",
      "taf": "TAF LIPE 242300Z 2500/2524 VRB05KT CAVOK"
    },
    {
      "icao": "LIPH",
      "alert": "OK",
      "vis_m": 9999,
      "fzfg": false,
      "metar_trigger": false,
      "taf_trigger": false,
      "metar": "METAR LIPH 250320Z AUTO 04002KT 9999 NCD 10/07 Q1015",
      "taf": "TAF LIPH 242300Z 2500/2524 VRB05KT CAVOK"
    },
    {
      "icao": "LIPQ",
      "alert": "OK",
      "vis_m": 9999,
      "fzfg": false,
      "metar_trigger": false,
      "taf_trigger": false,
      "metar": "METAR LIPQ 250320Z AUTO VRB02KT 9999 NCD 05/03 Q1016",
      "taf": "TAF LIPQ 242300Z 2500/2524 VRB05KT CAVOK"
    },
    {
      "icao": "LIPR",
      "alert": "OK",
      "vis_m": 9999,
      "fzfg": false,
      "metar_trigger": false,
      "taf_trigger": false,
      "metar": "METAR LIPR 250320Z AUTO VRB01KT 9999 NCD 08/06 Q1015",
      "taf": "TAF LIPR 242300Z 2500/2524 VRB05KT CAVOK"
    },
    {
      "icao": "LIPX",
      "alert": "OK",
      "vis_m": 9999,
      "fzfg": false,
      "metar_trigger": false,
      "taf_trigger": false,
      "metar": "METAR LIPX 250320Z VRB01KT CAVOK 09/06 Q1015",
      "taf": "TAF LIPX 242300Z 2500/2524 VRB04KT CAVOK"
    },
    {
      "icao": "LIPY",
      "alert": "OK",
      "vis_m": 9999,
      "fzfg": false,
      "metar_trigger": false,
      "taf_trigger": false,
      "metar": "METAR LIPY 250320Z AUTO 20004KT 9999 NCD 09/07 Q1015",
      "taf": "TAF LIPY 242300Z 2500/2524 VRB05KT CAVOK"
    },
    {
      "icao": "LIPZ",
      "alert": "OK",
      "vis_m": 9999,
      "fzfg": false,
      "metar_trigger": false,
      "taf_trigger": false,
      "metar": "METAR LIPZ 250320Z 03005KT CAVOK 10/07 Q1015 NOSIG",
      "taf": "TAF LIPZ 242300Z 2500/2606 04006KT CAVOK"
    },
    {
      "icao": "LIRF",
      "alert": "OK",
      "vis_m": 9999,
      "fzfg": false,
      "metar_trigger": false,
      "taf_trigger": false,
      "metar": "METAR LIRF 250320Z 09002KT CAVOK 07/06 Q1017 NOSIG",
      "taf": "TAF LIRF 242300Z 2500/2606 VRB05KT CAVOK"
    },
    {
      "icao": "LIRN",
      "alert": "OK",
      "vis_m": 9999,
      "fzfg": false,
      "metar_trigger": false,
      "taf_trigger": false,
      "metar": "METAR LIRN 250320Z 02002KT CAVOK 11/06 Q1017 NOSIG",
      "taf": "TAF LIRN 242300Z 2500/2524 VRB05KT CAVOK"
    },
    {
      "icao": "LIRP",
      "alert": "OK",
      "vis_m": 9999,
      "fzfg": false,
      "metar_trigger": false,
      "taf_trigger": false,
      "metar": "METAR LIRP 250315Z 12003KT CAVOK 07/06 Q1018 NOSIG",
      "taf": "TAF LIRP 242300Z 2500/2524 VRB03KT CAVOK"
    },
    {
      "icao": "LIRZ",
      "alert": "OK",
      "vis_m": 9999,
      "fzfg": false,
      "metar_trigger": false,
      "taf_trigger": false,
      "metar": "METAR LIRZ 250320Z AUTO VRB02KT 9999 NCD 04/02 Q1018",
      "taf": "TAF LIRZ 242300Z 2500/2524 VRB05KT CAVOK"
    },
    {
      "icao": "LJLJ",
      "alert": "OK",
      "vis_m": 9999,
      "fzfg": false,
      "metar_trigger": false,
      "taf_trigger": false,
      "metar": "METAR LJLJ 250300Z VRB01KT CAVOK 03/02 Q1017 NOSIG",
      "taf": "TAF LJLJ 242300Z 2500/2600 29003KT CAVOK"
    },
    {
      "icao": "LKMT",
      "alert": "OK",
      "vis_m": 6000,
      "fzfg": false,
      "metar_trigger": false,
      "taf_trigger": false,
      "metar": "METAR LKMT 250300Z 23004KT 6000 NSC 01/01 Q1015 NOSIG",
      "taf": "TAF LKMT 242300Z 2500/2524 02005KT CAVOK"
    },
    {
      "icao": "LKPR",
      "alert": "OK",
      "vis_m": 9999,
      "fzfg": false,
      "metar_trigger": false,
      "taf_trigger": false,
      "metar": "METAR LKPR 250300Z 22008KT 9999 FEW028 03/02 Q1015 NOSIG",
      "taf": "TAF LKPR 250200Z 2503/2609 25006KT CAVOK"
    },
    {
      "icao": "LLBG",
      "alert": "OK",
      "vis_m": 9999,
      "fzfg": false,
      "metar_trigger": false,
      "taf_trigger": false,
      "metar": "METAR LLBG 250320Z VRB03KT CAVOK 15/11 Q1009 NOSIG",
      "taf": "TAF LLBG 242302Z 2500/2524 VRB03KT CAVOK TX26/2511Z TN14/2503Z"
    },
    {
      "icao": "LMML",
      "alert": "OK",
      "vis_m": 9999,
      "fzfg": false,
      "metar_trigger": false,
      "taf_trigger": false,
      "metar": "METAR LMML 250315Z 27003KT CAVOK 11/08 Q1017 NOSIG",
      "taf": "TAF LMML 242300Z 2500/2524 28007KT 9999 FEW015"
    },
    {
      "icao": "LOWW",
      "alert": "OK",
      "vis_m": 9999,
      "fzfg": false,
      "metar_trigger": false,
      "taf_trigger": false,
      "metar": "METAR LOWW 250320Z 33009KT CAVOK 08/02 Q1016 NOSIG",
      "taf": "TAF LOWW 250215Z 2503/2609 30011KT CAVOK TX23/2514Z TN08/2504Z"
    },
    {
      "icao": "LPFR",
      "alert": "OK",
      "vis_m": 9999,
      "fzfg": false,
      "metar_trigger": false,
      "taf_trigger": false,
      "metar": "METAR LPFR 250300Z 34004KT CAVOK 16/12 Q1016",
      "taf": "TAF LPFR 242300Z 2500/2524 32008KT CAVOK"
    },
    {
      "icao": "LPMA",
      "alert": "OK",
      "vis_m": 9999,
      "fzfg": false,
      "metar_trigger": false,
      "taf_trigger": false,
      "metar": "METAR LPMA 250300Z 34007KT 270V030 9999 SCT015 17/09 Q1018",
      "taf": "TAF LPMA 242300Z 2500/2524 34008KT 9999 SCT015"
    },
    {
      "icao": "LPPR",
      "alert": "OK",
      "vis_m": 9999,
      "fzfg": false,
      "metar_trigger": false,
      "taf_trigger": false,
      "metar": "METAR LPPR 250300Z VRB02KT 9999 FEW001 10/10 Q1018",
      "taf": "TAF LPPR 242300Z 2500/2524 VRB02KT 9999 SCT008"
    },
    {
      "icao": "LPPS",
      "alert": "OK",
      "vis_m": 9999,
      "fzfg": false,
      "metar_trigger": false,
      "taf_trigger": false,
      "metar": "METAR LPPS 250300Z 33003KT 270V010 9999 FEW014 15/12 Q1019",
      "taf": "TAF LPPS 242300Z 2500/2606 02008KT 9999 SCT015"
    },
    {
      "icao": "LPPT",
      "alert": "OK",
      "vis_m": 9999,
      "fzfg": false,
      "metar_trigger": false,
      "taf_trigger": false,
      "metar": "METAR LPPT 250300Z 32007KT CAVOK 14/11 Q1017",
      "taf": "TAF LPPT 242300Z 2500/2606 33007KT 9999 SCT012"
    },
    {
      "icao": "LQBK",
      "alert": "OK",
      "vis_m": 9999,
      "fzfg": false,
      "metar_trigger": false,
      "taf_trigger": false,
      "metar": "METAR LQBK 250300Z VRB01KT CAVOK 03/01 Q1016 NOSIG",
      "taf": "TAF LQBK 242300Z 2500/2524 17006KT CAVOK TX23/2513Z TN04/2504Z"
    },
    {
      "icao": "LQSA",
      "alert": "OK",
      "vis_m": 9999,
      "fzfg": false,
      "metar_trigger": false,
      "taf_trigger": false,
      "metar": "METAR LQSA 250300Z VRB01KT CAVOK 02/01 Q1018",
      "taf": "TAF LQSA 242300Z 2500/2524 VRB02KT CAVOK TX22/2513Z TN01/2504Z"
    },
    {
      "icao": "LQTZ",
      "alert": "OK",
      "vis_m": 9999,
      "fzfg": false,
      "metar_trigger": false,
      "taf_trigger": false,
      "metar": "METAR LQTZ 250300Z 10003KT CAVOK 02/02 Q1017",
      "taf": "TAF LQTZ 242300Z 2500/2524 27005KT CAVOK TX22/2513Z TN00/2504Z"
    },
    {
      "icao": "LRBC",
      "alert": "OK",
      "vis_m": 9999,
      "fzfg": false,
      "metar_trigger": false,
      "taf_trigger": false,
      "metar": "METAR LRBC 250300Z 17001KT CAVOK 04/01 Q1014",
      "taf": "TAF LRBC 250200Z 2503/2512 VRB04KT CAVOK"
    },
    {
      "icao": "LRBS",
      "alert": "OK",
      "vis_m": 9999,
      "fzfg": false,
      "metar_trigger": false,
      "taf_trigger": false,
      "metar": "METAR LRBS 250300Z 08003KT CAVOK 07/02 Q1015 NOSIG",
      "taf": "TAF LRBS 242300Z 2500/2524 VRB04KT CAVOK"
    },
    {
      "icao": "LRBV",
      "alert": "OK",
      "vis_m": 9999,
      "fzfg": false,
      "metar_trigger": false,
      "taf_trigger": false,
      "metar": "METAR LRBV 250300Z AUTO 25004KT 9999 NCD 03/01 Q1015",
      "taf": "TAF LRBV 250200Z 2503/2512 VRB04KT CAVOK"
    },
    {
      "icao": "LRCL",
      "alert": "OK",
      "vis_m": 9999,
      "fzfg": false,
      "metar_trigger": false,
      "taf_trigger": false,
      "metar": "METAR LRCL 250300Z 28002KT CAVOK 04/01 Q1014",
      "taf": "TAF LRCL 250200Z 2503/2512 VRB04KT CAVOK"
    },
    {
      "icao": "LRCV",
      "alert": "OK",
      "vis_m": 9999,
      "fzfg": false,
      "metar_trigger": false,
      "taf_trigger": false,
      "metar": "METAR LRCV 250300Z 07010KT CAVOK 08/03 Q1014",
      "taf": "TAF LRCV 250200Z 2503/2512 06010KT CAVOK"
    },
    {
      "icao": "LRIA",
      "alert": "OK",
      "vis_m": 9999,
      "fzfg": false,
      "metar_trigger": false,
      "taf_trigger": false,
      "metar": "METAR LRIA 250300Z 25004KT 210V280 CAVOK 05/01 Q1014",
      "taf": "TAF LRIA 250200Z 2503/2512 26006KT CAVOK"
    },
    {
      "icao": "LROP",
      "alert": "OK",
      "vis_m": 9999,
      "fzfg": false,
      "metar_trigger": false,
      "taf_trigger": false,
      "metar": "METAR LROP 250300Z 09003KT CAVOK 05/02 Q1015 NOSIG",
      "taf": "TAF LROP 242300Z 2500/2524 VRB04KT CAVOK"
    },
    {
      "icao": "LRSB",
      "alert": "OK",
      "vis_m": 9999,
      "fzfg": false,
      "metar_trigger": false,
      "taf_trigger": false,
      "metar": "METAR LRSB 250300Z 30003KT 270V330 CAVOK 05/02 Q1014",
      "taf": "TAF LRSB 242300Z 2500/2524 VRB04KT CAVOK"
    },
    {
      "icao": "LRSM",
      "alert": "OK",
      "vis_m": 9999,
      "fzfg": false,
      "metar_trigger": false,
      "taf_trigger": false,
      "metar": "METAR LRSM 250300Z AUTO 08002KT 9999 BKN075/// 09/04 Q1013",
      "taf": "TAF LRSM 250200Z 2503/2512 VRB04KT CAVOK"
    },
    {
      "icao": "LRSV",
      "alert": "OK",
      "vis_m": 9999,
      "fzfg": false,
      "metar_trigger": false,
      "taf_trigger": false,
      "metar": "METAR LRSV 250300Z 28005KT CAVOK 07/01 Q1013",
      "taf": "TAF LRSV 250200Z 2503/2512 26007KT CAVOK"
    },
    {
      "icao": "LRTM",
      "alert": "OK",
      "vis_m": 9999,
      "fzfg": false,
      "metar_trigger": false,
      "taf_trigger": false,
      "metar": "METAR LRTM 250300Z 09005KT CAVOK 02/01 Q1015",
      "taf": "TAF LRTM 250200Z 2503/2512 VRB04KT CAVOK"
    },
    {
      "icao": "LRTR",
      "alert": "OK",
      "vis_m": 9999,
      "fzfg": false,
      "metar_trigger": false,
      "taf_trigger": false,
      "metar": "METAR LRTR 250300Z 10006KT CAVOK 03/02 Q1014",
      "taf": "TAF LRTR 242300Z 2500/2524 10006KT CAVOK"
    },
    {
      "icao": "LTAC",
      "alert": "OK",
      "vis_m": 9999,
      "fzfg": false,
      "metar_trigger": false,
      "taf_trigger": false,
      "metar": "METAR LTAC 250320Z 00000KT CAVOK 01/M00 Q1017 NOSIG RMK RWY21C 00000KT RWY03L 00000KT RWY21R 00000KT RWY03R 00000KT RWY21L 14002KT",
      "taf": "TAF LTAC 242240Z 2500/2524 VRB02KT CAVOK"
    },
    {
      "icao": "LTFM",
      "alert": "OK",
      "vis_m": 9999,
      "fzfg": false,
      "metar_trigger": false,
      "taf_trigger": false,
      "metar": "METAR LTFM 250320Z 19006KT CAVOK 08/05 Q1015 NOSIG RMK RWY17L 19005KT RWY34L 19004KT RWY16R 18003KT RWY36 18004KT RWY18 19008KT",
      "taf": "TAF LTFM 242240Z 2500/2606 20009KT CAVOK"
    },
    {
      "icao": "LUKK",
      "alert": "OK",
      "vis_m": 9999,
      "fzfg": false,
      "metar_trigger": false,
      "taf_trigger": false,
      "metar": "METAR LUKK 250300Z VRB03KT CAVOK 03/M00 Q1013 NOSIG",
      "taf": "TAF LUKK 242310Z 2500/2524 26006KT CAVOK"
    },
    {
      "icao": "LWOH",
      "alert": "OK",
      "vis_m": null,
      "fzfg": false,
      "metar_trigger": false,
      "taf_trigger": false,
      "metar": "",
      "taf": "TAF LWOH 250225Z 2503/2603 VRB02KT CAVOK"
    },
    {
      "icao": "LWSK",
      "alert": "OK",
      "vis_m": 9999,
      "fzfg": false,
      "metar_trigger": false,
      "taf_trigger": false,
      "metar": "METAR LWSK 250320Z VRB02KT CAVOK 04/02 Q1017 NOSIG",
      "taf": "TAF LWSK 250225Z 2503/2603 VRB02KT CAVOK"
    },
    {
      "icao": "LYBE",
      "alert": "OK",
      "vis_m": 9999,
      "fzfg": false,
      "metar_trigger": false,
      "taf_trigger": false,
      "metar": "METAR LYBE 250300Z 23010KT CAVOK 10/04 Q1015 NOSIG",
      "taf": "TAF LYBE 242300Z 2500/2524 22005KT CAVOK TX23/2513Z TN07/2504Z"
    },
    {
      "icao": "LYNI",
      "alert": "OK",
      "vis_m": 9999,
      "fzfg": false,
      "metar_trigger": false,
      "taf_trigger": false,
      "metar": "METAR LYNI 250300Z VRB01KT CAVOK 05/03 Q1016 NOSIG",
      "taf": "TAF LYNI 242300Z 2500/2524 08004KT CAVOK TX23/2513Z TN05/2504Z"
    },
    {
      "icao": "LYPG",
      "alert": "OK",
      "vis_m": 9999,
      "fzfg": false,
      "metar_trigger": false,
      "taf_trigger": false,
      "metar": "METAR LYPG 250300Z 32005KT CAVOK 10/06 Q1015 NOSIG",
      "taf": "TAF LYPG 242300Z 2500/2524 36005KT CAVOK TX24/2513Z TN07/2504Z"
    },
    {
      "icao": "LZIB",
      "alert": "OK",
      "vis_m": 9999,
      "fzfg": false,
      "metar_trigger": false,
      "taf_trigger": false,
      "metar": "METAR LZIB 250300Z 29012KT CAVOK 10/02 Q1015 NOSIG",
      "taf": "TAF LZIB 242315Z 2500/2600 30007KT CAVOK"
    },
    {
      "icao": "LZKZ",
      "alert": "OK",
      "vis_m": 9999,
      "fzfg": false,
      "metar_trigger": false,
      "taf_trigger": false,
      "metar": "METAR LZKZ 250300Z 00000KT CAVOK 08/04 Q1013 NOSIG",
      "taf": "TAF LZKZ 242315Z 2500/2600 01004KT CAVOK"
    },
    {
      "icao": "LZTT",
      "alert": "OK",
      "vis_m": 9999,
      "fzfg": false,
      "metar_trigger": false,
      "taf_trigger": false,
      "metar": "METAR LZTT 250300Z VRB02KT 9999 BKN050 01/M00 Q1013",
      "taf": "TAF LZTT 242315Z 2500/2600 30005KT CAVOK"
    },
    {
      "icao": "OEJN",
      "alert": "OK",
      "vis_m": 9999,
      "fzfg": false,
      "metar_trigger": false,
      "taf_trigger": false,
      "metar": "METAR OEJN 250300Z 27003KT 9999 FEW040 28/21 Q1007 NOSIG",
      "taf": "TAF OEJN 242300Z 2500/2606 VRB03KT 9999 SCT040"
    },
    {
      "icao": "OEMA",
      "alert": "OK",
      "vis_m": 3000,
      "fzfg": false,
      "metar_trigger": false,
      "taf_trigger": false,
      "metar": "METAR OEMA 250300Z VRB02KT 3000 HZ SCT040 27/14 Q1012 NOSIG",
      "taf": ""
    },
    {
      "icao": "OJAI",
      "alert": "OK",
      "vis_m": 3500,
      "fzfg": false,
      "metar_trigger": false,
      "taf_trigger": false,
      "metar": "METAR OJAI 250300Z 33004KT 3500 HZ NSC 11/05 Q1011 NOSIG",
      "taf": "TAF OJAI 242240Z 2500/2606 VRB02KT 5000 HZ NSC"
    },
    {
      "icao": "OMAA",
      "alert": "OK",
      "vis_m": 9999,
      "fzfg": false,
      "metar_trigger": false,
      "taf_trigger": false,
      "metar": "METAR OMAA 250330Z 13003KT CAVOK 27/18 Q1011 NOSIG",
      "taf": "TAF OMAA 242300Z 2500/2606 05005KT 8000 NSC"
    },
    {
      "icao": "OMDB",
      "alert": "OK",
      "vis_m": 9999,
      "fzfg": false,
      "metar_trigger": false,
      "taf_trigger": false,
      "metar": "METAR OMDB 250330Z 20005KT CAVOK 29/18 Q1010 NOSIG",
      "taf": "TAF OMDB 242300Z 2500/2606 VRB02KT CAVOK"
    },
    {
      "icao": "UAAA",
      "alert": "OK",
      "vis_m": 5000,
      "fzfg": false,
      "metar_trigger": false,
      "taf_trigger": false,
      "metar": "SPECI UAAA 250310Z 33002MPS 280V010 5000 BR SCT200 15/12 Q1020 NOSIG",
      "taf": ""
    },
    {
      "icao": "UBBB",
      "alert": "OK",
      "vis_m": 9999,
      "fzfg": false,
      "metar_trigger": false,
      "taf_trigger": false,
      "metar": "METAR UBBB 250300Z 30008KT CAVOK 11/09 Q1013 NOSIG",
      "taf": "TAF UBBB 242258Z 2500/2524 35010KT 9999 SCT012 BKN020 TX15/2510Z TN09/2500Z"
    },
    {
      "icao": "UDSG",
      "alert": "OK",
      "vis_m": 2300,
      "fzfg": false,
      "metar_trigger": false,
      "taf_trigger": false,
      "metar": "METAR UDSG 250300Z 30002KT 2300 BR SCT016CB BKN040 M01/M01 Q1017 NOSIG",
      "taf": ""
    },
    {
      "icao": "UDYZ",
      "alert": "OK",
      "vis_m": 9999,
      "fzfg": false,
      "metar_trigger": false,
      "taf_trigger": false,
      "metar": "METAR UDYZ 250300Z 11004KT 9999 -SHRA OVC040CB 07/05 Q1016 WS R08 NOSIG",
      "taf": "TAF UDYZ 242300Z 2500/2524 04006KT 9999 FEW040"
    },
    {
      "icao": "UGKO",
      "alert": "OK",
      "vis_m": 9999,
      "fzfg": false,
      "metar_trigger": false,
      "taf_trigger": false,
      "metar": "METAR UGKO 250300Z 07006KT 9999 BKN053 06/05 Q1018 NOSIG",
      "taf": "TAF UGKO 242300Z 2500/2524 09007KT 9999 BKN060 TX19/2511Z TN05/2502Z"
    }
  ]
}