{
  "ts_utc": "2026-05-15T15:25:26Z",
  "threshold_m": 150,
  "source": "stations_override.txt (ICAO list) + aviationweather.gov (METAR/TAF raw)",
  "station_count": 159,
  "stations": [
    {
      "icao": "BIKF",
      "alert": "OK",
      "vis_m": 9999,
      "fzfg": false,
      "metar_trigger": false,
      "taf_trigger": false,
      "metar": "METAR BIKF 151500Z 13021KT 9999 -DZ BKN009 OVC017 08/07 Q1004",
      "taf": ""
    },
    {
      "icao": "BKPR",
      "alert": "OK",
      "vis_m": null,
      "fzfg": false,
      "metar_trigger": false,
      "taf_trigger": false,
      "metar": "",
      "taf": "TAF BKPR 151130Z 1512/1612 24008KT 9999 SCT040"
    },
    {
      "icao": "EBCI",
      "alert": "OK",
      "vis_m": 6000,
      "fzfg": false,
      "metar_trigger": false,
      "taf_trigger": false,
      "metar": "METAR EBCI 151450Z 32005KT 270V020 6000 -SHRA FEW020TCU BKN035 07/04 Q1006 TEMPO 31015G25KT 4000 SHRAGS SCT022CB",
      "taf": "TAF EBCI 151100Z 1512/1618 32009KT 9999 FEW020TCU SCT040"
    },
    {
      "icao": "EDDB",
      "alert": "OK",
      "vis_m": 9999,
      "fzfg": false,
      "metar_trigger": false,
      "taf_trigger": false,
      "metar": "METAR EDDB 151520Z AUTO 27007KT 240V310 CAVOK 15/05 Q1001 NOSIG",
      "taf": "TAF EDDB 151100Z 1512/1612 28005KT 9999 SCT040"
    },
    {
      "icao": "EDDH",
      "alert": "OK",
      "vis_m": 9999,
      "fzfg": false,
      "metar_trigger": false,
      "taf_trigger": false,
      "metar": "METAR EDDH 151520Z AUTO 24009KT 210V280 9999 VCSH FEW046 FEW///CB 13/03 Q1001 TEMPO 25015G25KT SHRA SCT025CB",
      "taf": "TAF EDDH 151100Z 1512/1618 24010KT 9999 SCT035"
    },
    {
      "icao": "EDDK",
      "alert": "OK",
      "vis_m": 9999,
      "fzfg": false,
      "metar_trigger": false,
      "taf_trigger": false,
      "metar": "METAR EDDK 151520Z AUTO 27012KT 9999 VCSH SCT044 FEW///TCU 13/03 Q1003 TEMPO SHRA",
      "taf": "TAF EDDK 151100Z 1512/1618 30009KT 9999 SCT040"
    },
    {
      "icao": "EDDN",
      "alert": "OK",
      "vis_m": 9999,
      "fzfg": false,
      "metar_trigger": false,
      "taf_trigger": false,
      "metar": "METAR EDDN 151520Z AUTO 33006KT 300V010 9999 SHRA SCT044 FEW///CB 13/04 Q1002 TEMPO SHRA SCT030CB",
      "taf": "TAF EDDN 151100Z 1512/1612 29008KT 9999 SCT030 BKN045"
    },
    {
      "icao": "EDDS",
      "alert": "OK",
      "vis_m": 9999,
      "fzfg": false,
      "metar_trigger": false,
      "taf_trigger": false,
      "metar": "METAR EDDS 151520Z AUTO 33007KT 300V010 9999 -SHRA SCT025 SCT039 FEW///CB 09/05 Q1003 NOSIG",
      "taf": ""
    },
    {
      "icao": "EDFH",
      "alert": "OK",
      "vis_m": 9999,
      "fzfg": false,
      "metar_trigger": false,
      "taf_trigger": false,
      "metar": "METAR EDFH 151450Z VRB05KT CAVOK 11/02 Q1003",
      "taf": ""
    },
    {
      "icao": "EDJA",
      "alert": "OK",
      "vis_m": 9999,
      "fzfg": false,
      "metar_trigger": false,
      "taf_trigger": false,
      "metar": "METAR EDJA 151450Z 29006KT 260V320 9999 FEW042 11/01 Q1001",
      "taf": "TAF EDJA 151400Z 1515/1524 30007KT 9999 SCT040"
    },
    {
      "icao": "EDLW",
      "alert": "OK",
      "vis_m": 9999,
      "fzfg": false,
      "metar_trigger": false,
      "taf_trigger": false,
      "metar": "METAR EDLW 151450Z 27006KT 230V350 9999 VCSH FEW049CB 12/04 Q1003",
      "taf": "TAF EDLW 151100Z 1512/1612 25006KT 9999 SCT040"
    },
    {
      "icao": "EDNY",
      "alert": "OK",
      "vis_m": 9999,
      "fzfg": false,
      "metar_trigger": false,
      "taf_trigger": false,
      "metar": "METAR EDNY 151450Z 03004KT 340V080 9999 BKN035 BKN041 OVC054 10/05 Q1002",
      "taf": "TAF EDNY 151400Z 1515/1524 25006KT 9999 BKN040"
    },
    {
      "icao": "EDSB",
      "alert": "OK",
      "vis_m": 9999,
      "fzfg": false,
      "metar_trigger": false,
      "taf_trigger": false,
      "metar": "METAR EDSB 151450Z 08004KT 040V110 9999 -SHRA FEW032 BKN038 OVC044 09/06 Q1004",
      "taf": "TAF EDSB 151100Z 1512/1612 31005KT 9999 BKN030"
    },
    {
      "icao": "EETN",
      "alert": "OK",
      "vis_m": 9999,
      "fzfg": false,
      "metar_trigger": false,
      "taf_trigger": false,
      "metar": "METAR EETN 151520Z 07009KT CAVOK 15/02 Q1006 NOSIG",
      "taf": "TAF EETN 151130Z 1512/1612 05012KT CAVOK"
    },
    {
      "icao": "EFTU",
      "alert": "OK",
      "vis_m": 9999,
      "fzfg": false,
      "metar_trigger": false,
      "taf_trigger": false,
      "metar": "METAR EFTU 151520Z AUTO 25010KT CAVOK 17/06 Q1006",
      "taf": "TAF EFTU 151423Z 1515/1615 22009KT 9999 BKN045"
    },
    {
      "icao": "EGBB",
      "alert": "OK",
      "vis_m": 9999,
      "fzfg": false,
      "metar_trigger": false,
      "taf_trigger": false,
      "metar": "METAR EGBB 151520Z 33012KT CAVOK 13/00 Q1008",
      "taf": "TAF EGBB 151053Z 1512/1612 32011KT 9999 SCT040"
    },
    {
      "icao": "EGGP",
      "alert": "OK",
      "vis_m": 9999,
      "fzfg": false,
      "metar_trigger": false,
      "taf_trigger": false,
      "metar": "METAR EGGP 151520Z 30011KT 9999 FEW047 11/M02 Q1008",
      "taf": "TAF EGGP 151054Z 1512/1612 32010KT 9999 SCT040"
    },
    {
      "icao": "EGGW",
      "alert": "OK",
      "vis_m": 9999,
      "fzfg": false,
      "metar_trigger": false,
      "taf_trigger": false,
      "metar": "METAR EGGW 151520Z AUTO 33015KT 9999 NCD 13/M01 Q1007",
      "taf": ""
    },
    {
      "icao": "EGKK",
      "alert": "OK",
      "vis_m": 9999,
      "fzfg": false,
      "metar_trigger": false,
      "taf_trigger": false,
      "metar": "METAR EGKK 151520Z COR 34011KT 9999 -SHRA FEW034CB 13/03 Q1007",
      "taf": "TAF EGKK 151057Z 1512/1618 31010KT 9999 SCT035"
    },
    {
      "icao": "EGNM",
      "alert": "OK",
      "vis_m": 9999,
      "fzfg": false,
      "metar_trigger": false,
      "taf_trigger": false,
      "metar": "METAR EGNM 151520Z 30010KT CAVOK 10/M02 Q1007",
      "taf": "TAF EGNM 151054Z 1512/1612 31011KT 9999 FEW035"
    },
    {
      "icao": "EGPD",
      "alert": "OK",
      "vis_m": 9999,
      "fzfg": false,
      "metar_trigger": false,
      "taf_trigger": false,
      "metar": "METAR EGPD 151520Z AUTO 32022KT 9999 FEW036 SCT049 10/02 Q1005",
      "taf": "TAF EGPD 151100Z 1512/1612 33018G30KT 9999 FEW025 SCT035"
    },
    {
      "icao": "EGPF",
      "alert": "OK",
      "vis_m": 9999,
      "fzfg": false,
      "metar_trigger": false,
      "taf_trigger": false,
      "metar": "METAR EGPF 151520Z AUTO 29010KT 9999 NCD 12/01 Q1007",
      "taf": "TAF EGPF 151057Z 1512/1612 30010KT 9999 SCT030"
    },
    {
      "icao": "EHBK",
      "alert": "OK",
      "vis_m": 9999,
      "fzfg": false,
      "metar_trigger": false,
      "taf_trigger": false,
      "metar": "METAR EHBK 151455Z AUTO 29006KT 240V330 9999 FEW024 11/05 Q1004 RERA TEMPO 6000 SHRA FEW022CB",
      "taf": "TAF EHBK 151113Z 1512/1618 27007KT 9999 SCT035"
    },
    {
      "icao": "EHEH",
      "alert": "OK",
      "vis_m": 9999,
      "fzfg": false,
      "metar_trigger": false,
      "taf_trigger": false,
      "metar": "METAR EHEH 151455Z AUTO 29009KT 220V350 9999 BKN043 OVC048 10/04 Q1005 BLU TEMPO FEW015 SCT020CB SCT025",
      "taf": "TAF EHEH 151130Z 1512/1618 29006KT 9999 SCT030"
    },
    {
      "icao": "EKBI",
      "alert": "OK",
      "vis_m": 9999,
      "fzfg": false,
      "metar_trigger": false,
      "taf_trigger": false,
      "metar": "METAR EKBI 151520Z 19011KT 150V210 9999 -SHRA SCT016CB BKN018 09/07 Q0997",
      "taf": "TAF EKBI 151427Z 1515/1615 19011KT 9999 BKN020"
    },
    {
      "icao": "EKCH",
      "alert": "OK",
      "vis_m": 9999,
      "fzfg": false,
      "metar_trigger": false,
      "taf_trigger": false,
      "metar": "METAR EKCH 151520Z AUTO 16013KT 9999 NCD 12/03 Q1001 NOSIG",
      "taf": "TAF EKCH 151427Z 1515/1615 15013KT 9999 SCT030"
    },
    {
      "icao": "ENAL",
      "alert": "OK",
      "vis_m": 9999,
      "fzfg": false,
      "metar_trigger": false,
      "taf_trigger": false,
      "metar": "METAR ENAL 151450Z 05006KT 010V090 9999 SCT055 15/02 Q0997",
      "taf": "TAF ENAL 151400Z 1515/1524 14008KT 9999 FEW050"
    },
    {
      "icao": "ENBR",
      "alert": "OK",
      "vis_m": 9999,
      "fzfg": false,
      "metar_trigger": false,
      "taf_trigger": false,
      "metar": "METAR ENBR 151450Z 14005KT 070V180 9999 FEW039 BKN052 13/M00 Q0995 NOSIG RMK WIND 1200FT 10005KT",
      "taf": ""
    },
    {
      "icao": "ENGM",
      "alert": "OK",
      "vis_m": 9999,
      "fzfg": false,
      "metar_trigger": false,
      "taf_trigger": false,
      "metar": "METAR ENGM 151450Z 10006KT 060V120 9999 -SHRA FEW020CB SCT025 09/04 Q1000 NOSIG",
      "taf": ""
    },
    {
      "icao": "ENHD",
      "alert": "OK",
      "vis_m": 9999,
      "fzfg": false,
      "metar_trigger": false,
      "taf_trigger": false,
      "metar": "METAR ENHD 151450Z 12007KT 060V170 9999 VCSH FEW048 12/03 Q0994",
      "taf": "TAF ENHD 151400Z 1515/1522 11008KT 9999 BKN040"
    },
    {
      "icao": "ENTC",
      "alert": "OK",
      "vis_m": 9999,
      "fzfg": false,
      "metar_trigger": false,
      "taf_trigger": false,
      "metar": "METAR ENTC 151450Z 20011KT CAVOK 14/01 Q1005 NOSIG RMK WIND 2600FT 17036KT",
      "taf": "TAF ENTC 151100Z 1512/1612 19015KT CAVOK"
    },
    {
      "icao": "ENTO",
      "alert": "OK",
      "vis_m": 9999,
      "fzfg": false,
      "metar_trigger": false,
      "taf_trigger": false,
      "metar": "METAR ENTO 151450Z 17013KT 9999 SCT025CB 10/06 Q0999 NOSIG",
      "taf": "TAF ENTO 151100Z 1512/1612 15010KT 9999 FEW010 SCT050"
    },
    {
      "icao": "ENVA",
      "alert": "OK",
      "vis_m": 9999,
      "fzfg": false,
      "metar_trigger": false,
      "taf_trigger": false,
      "metar": "METAR ENVA 151450Z 14010KT CAVOK 14/01 Q1000 NOSIG RMK WIND 670FT 15017G28KT",
      "taf": "TAF ENVA 151100Z 1512/1612 13012KT 9999 SCT050"
    },
    {
      "icao": "ENZV",
      "alert": "OK",
      "vis_m": 9999,
      "fzfg": false,
      "metar_trigger": false,
      "taf_trigger": false,
      "metar": "METAR ENZV 151450Z 21004KT 170V240 9999 -RA BKN042 10/05 Q0994 REDZRA NOSIG",
      "taf": "TAF ENZV 151100Z 1512/1612 12005KT 9999 -SHRA SCT035 BKN040"
    },
    {
      "icao": "EPGD",
      "alert": "OK",
      "vis_m": 9999,
      "fzfg": false,
      "metar_trigger": false,
      "taf_trigger": false,
      "metar": "METAR EPGD 151500Z 26007KT 9999 FEW011 12/09 Q1000",
      "taf": "TAF EPGD 151130Z 1512/1612 VRB04KT 9999 SCT020"
    },
    {
      "icao": "EPKK",
      "alert": "OK",
      "vis_m": 9999,
      "fzfg": false,
      "metar_trigger": false,
      "taf_trigger": false,
      "metar": "METAR EPKK 151500Z 27005KT 9999 FEW030TCU 13/10 Q1001",
      "taf": "TAF EPKK 151430Z 1515/1615 24005KT 9999 SCT050"
    },
    {
      "icao": "EPKT",
      "alert": "OK",
      "vis_m": 9999,
      "fzfg": false,
      "metar_trigger": false,
      "taf_trigger": false,
      "metar": "METAR EPKT 151500Z 22013KT 9999 SCT030 14/07 Q1001",
      "taf": "TAF EPKT 151130Z 1512/1612 20008KT 9999 BKN030"
    },
    {
      "icao": "EPLB",
      "alert": "OK",
      "vis_m": 9999,
      "fzfg": false,
      "metar_trigger": false,
      "taf_trigger": false,
      "metar": "METAR EPLB 151500Z 12004KT CAVOK 18/09 Q1002",
      "taf": "TAF EPLB 151130Z 1512/1612 18012KT CAVOK"
    },
    {
      "icao": "EPMO",
      "alert": "OK",
      "vis_m": 9999,
      "fzfg": false,
      "metar_trigger": false,
      "taf_trigger": false,
      "metar": "METAR EPMO 151500Z VRB02KT 9999 SCT058CB 13/11 Q1001",
      "taf": "TAF EPMO 151130Z 1512/1612 15012KT CAVOK"
    },
    {
      "icao": "EPPO",
      "alert": "OK",
      "vis_m": 9999,
      "fzfg": false,
      "metar_trigger": false,
      "taf_trigger": false,
      "metar": "METAR EPPO 151500Z 31005KT 300V010 9999 SCT013 13/08 Q1000",
      "taf": "TAF EPPO 151130Z 1512/1612 34010KT 9999 BKN026"
    },
    {
      "icao": "EPRA",
      "alert": "OK",
      "vis_m": 8000,
      "fzfg": false,
      "metar_trigger": false,
      "taf_trigger": false,
      "metar": "METAR EPRA 151500Z 17009KT 8000 -SHRA VCTS BKN045CB 16/08 Q1001",
      "taf": "TAF EPRA 151430Z 1515/1524 17010KT CAVOK"
    },
    {
      "icao": "EPRZ",
      "alert": "OK",
      "vis_m": 9999,
      "fzfg": false,
      "metar_trigger": false,
      "taf_trigger": false,
      "metar": "METAR EPRZ 151500Z 19008KT 150V210 9999 TS SCT050CB 19/07 Q1002",
      "taf": "TAF EPRZ 151130Z 1512/1612 19014KT CAVOK"
    },
    {
      "icao": "EPSC",
      "alert": "OK",
      "vis_m": 9999,
      "fzfg": false,
      "metar_trigger": false,
      "taf_trigger": false,
      "metar": "METAR EPSC 151500Z 01003KT 310V050 CAVOK 13/09 Q1001",
      "taf": "TAF EPSC 151130Z 1512/1612 VRB04KT CAVOK"
    },
    {
      "icao": "EPSY",
      "alert": "OK",
      "vis_m": 9999,
      "fzfg": false,
      "metar_trigger": false,
      "taf_trigger": false,
      "metar": "METAR EPSY 151500Z 16009KT 110V210 CAVOK 19/04 Q1000",
      "taf": "TAF EPSY 151430Z 1515/1524 15010KT CAVOK"
    },
    {
      "icao": "EPWA",
      "alert": "OK",
      "vis_m": 9999,
      "fzfg": false,
      "metar_trigger": false,
      "taf_trigger": false,
      "metar": "METAR EPWA 151500Z 28005KT 230V310 CAVOK 15/10 Q1000 BECMG 18010KT",
      "taf": "TAF EPWA 151430Z 1515/1615 15010KT CAVOK"
    },
    {
      "icao": "EPWR",
      "alert": "OK",
      "vis_m": 9999,
      "fzfg": false,
      "metar_trigger": false,
      "taf_trigger": false,
      "metar": "METAR EPWR 151500Z 33005KT 270V340 9999 FEW028CB SCT035 14/07 Q1001",
      "taf": "TAF EPWR 151430Z 1515/1615 VRB02KT 9999 SCT030"
    },
    {
      "icao": "ESGG",
      "alert": "OK",
      "vis_m": 9999,
      "fzfg": false,
      "metar_trigger": false,
      "taf_trigger": false,
      "metar": "METAR ESGG 151520Z 20013KT 150V220 9999 BKN053CB 13/01 Q0999",
      "taf": "TAF ESGG 151430Z 1515/1615 16010KT 9999 FEW040"
    },
    {
      "icao": "ESKN",
      "alert": "OK",
      "vis_m": 9999,
      "fzfg": false,
      "metar_trigger": false,
      "taf_trigger": false,
      "metar": "METAR ESKN 151450Z 11008KT 9999 -DZ FEW042 BKN060 10/07 Q1004",
      "taf": "TAF ESKN 151430Z 1515/1615 13010KT 9999 FEW020"
    },
    {
      "icao": "ESMS",
      "alert": "OK",
      "vis_m": 9999,
      "fzfg": false,
      "metar_trigger": false,
      "taf_trigger": false,
      "metar": "METAR ESMS 151520Z 20009KT 9999 FEW040 13/01 Q1001",
      "taf": "TAF ESMS 151427Z 1515/1615 17007KT 9999 SCT025"
    },
    {
      "icao": "ESSA",
      "alert": "OK",
      "vis_m": 9999,
      "fzfg": false,
      "metar_trigger": false,
      "taf_trigger": false,
      "metar": "METAR ESSA 151520Z 14010KT CAVOK 13/04 Q1004 NOSIG",
      "taf": "TAF ESSA 151430Z 1515/1615 14010KT 9999 FEW040"
    },
    {
      "icao": "EYKA",
      "alert": "OK",
      "vis_m": 9999,
      "fzfg": false,
      "metar_trigger": false,
      "taf_trigger": false,
      "metar": "METAR EYKA 151520Z 14004KT CAVOK 20/05 Q1002",
      "taf": "TAF EYKA 151100Z 1512/1612 VRB05KT 9000 NSC"
    },
    {
      "icao": "EYPA",
      "alert": "OK",
      "vis_m": 9999,
      "fzfg": false,
      "metar_trigger": false,
      "taf_trigger": false,
      "metar": "METAR EYPA 151520Z 11007KT 060V140 CAVOK 21/05 Q1001",
      "taf": "TAF EYPA 151100Z 1512/1612 VRB05KT 9000 NSC"
    },
    {
      "icao": "EYVI",
      "alert": "OK",
      "vis_m": 9999,
      "fzfg": false,
      "metar_trigger": false,
      "taf_trigger": false,
      "metar": "METAR EYVI 151520Z VRB02KT CAVOK 19/02 Q1002 NOSIG",
      "taf": "TAF EYVI 151100Z 1512/1612 VRB03KT 9000 NSC"
    },
    {
      "icao": "GCFV",
      "alert": "OK",
      "vis_m": 9999,
      "fzfg": false,
      "metar_trigger": false,
      "taf_trigger": false,
      "metar": "METAR GCFV 151500Z 01020KT 9999 FEW040 SCT045 23/09 Q1017",
      "taf": "TAF GCFV 151400Z 1515/1615 02020KT 9999 SCT035 TX24/1614Z TN17/1606Z"
    },
    {
      "icao": "GCLP",
      "alert": "OK",
      "vis_m": 9999,
      "fzfg": false,
      "metar_trigger": false,
      "taf_trigger": false,
      "metar": "METAR GCLP 151500Z 01021KT 9999 BKN040 20/13 Q1019 NOSIG",
      "taf": "TAF GCLP 151400Z 1515/1615 02022KT 9999 SCT030 TX23/1614Z TN17/1606Z"
    },
    {
      "icao": "GCTS",
      "alert": "OK",
      "vis_m": 9999,
      "fzfg": false,
      "metar_trigger": false,
      "taf_trigger": false,
      "metar": "METAR GCTS 151500Z 10016KT 9999 BKN050 21/12 Q1019 WS R07 NOSIG",
      "taf": "TAF GCTS 151400Z 1515/1615 10020KT 9999 SCT035 TX23/1614Z TN15/1606Z"
    },
    {
      "icao": "GMAD",
      "alert": "OK",
      "vis_m": 6000,
      "fzfg": false,
      "metar_trigger": false,
      "taf_trigger": false,
      "metar": "METAR GMAD 151500Z 26021KT 230V290 6000 FEW030 26/10 Q1009 NOSIG",
      "taf": "TAF GMAD 151100Z 1512/1618 26010KT 8000 SCT026 SCT100"
    },
    {
      "icao": "GMMN",
      "alert": "OK",
      "vis_m": 9999,
      "fzfg": false,
      "metar_trigger": false,
      "taf_trigger": false,
      "metar": "METAR GMMN 151500Z 34012KT 310V020 9999 BKN030 20/11 Q1014 NOSIG",
      "taf": "TAF GMMN 151100Z 1512/1618 32010KT 9999 BKN020"
    },
    {
      "icao": "GMMX",
      "alert": "OK",
      "vis_m": 9999,
      "fzfg": false,
      "metar_trigger": false,
      "taf_trigger": false,
      "metar": "METAR GMMX 151500Z VRB04KT 9999 SCT023 SCT080 22/07 Q1013 NOSIG",
      "taf": "TAF GMMX 151100Z 1512/1618 36006KT 9999 SCT023 BKN080"
    },
    {
      "icao": "HEGN",
      "alert": "OK",
      "vis_m": 9999,
      "fzfg": false,
      "metar_trigger": false,
      "taf_trigger": false,
      "metar": "METAR HEGN 151500Z 34015KT CAVOK 35/03 Q1006 NOSIG",
      "taf": "TAF HEGN 151100Z 1512/1618 35012G22KT 6000 NSC"
    },
    {
      "icao": "HEMA",
      "alert": "OK",
      "vis_m": 9999,
      "fzfg": false,
      "metar_trigger": false,
      "taf_trigger": false,
      "metar": "METAR HEMA 151500Z 35013KT CAVOK 33/05 Q1005 NOSIG",
      "taf": "TAF HEMA 151100Z 1512/1618 36012G22KT 6000 NSC"
    },
    {
      "icao": "HESH",
      "alert": "OK",
      "vis_m": 9999,
      "fzfg": false,
      "metar_trigger": false,
      "taf_trigger": false,
      "metar": "METAR HESH 151500Z 03008KT CAVOK 34/10 Q1004 NOSIG",
      "taf": "TAF HESH 151100Z 1512/1618 01014KT CAVOK"
    },
    {
      "icao": "HESX",
      "alert": "OK",
      "vis_m": 9999,
      "fzfg": false,
      "metar_trigger": false,
      "taf_trigger": false,
      "metar": "METAR HESX 151500Z 32010KT CAVOK 27/06 Q1011 NOSIG",
      "taf": "TAF HESX 151100Z 1512/1618 34010KT CAVOK"
    },
    {
      "icao": "LATI",
      "alert": "OK",
      "vis_m": 9999,
      "fzfg": false,
      "metar_trigger": false,
      "taf_trigger": false,
      "metar": "METAR LATI 151520Z 21009KT 170V250 9999 FEW045 23/06 Q1007 NOSIG",
      "taf": "TAF LATI 151100Z 1512/1612 21010KT 9999 SCT040 BKN090 TX23/1512Z TN14/1604Z"
    },
    {
      "icao": "LBPD",
      "alert": "OK",
      "vis_m": 9999,
      "fzfg": false,
      "metar_trigger": false,
      "taf_trigger": false,
      "metar": "METAR LBPD 151500Z AUTO VRB06KT 9999 FEW100/// BKN130/// 22/10 Q1006 NOSIG",
      "taf": "TAF LBPD 151100Z 1512/1612 12010KT 9999 SCT070"
    },
    {
      "icao": "LBSF",
      "alert": "OK",
      "vis_m": 9999,
      "fzfg": false,
      "metar_trigger": false,
      "taf_trigger": false,
      "metar": "METAR LBSF 151500Z AUTO 33003KT 290V040 9999 NSC 20/09 Q1006 NOSIG",
      "taf": "TAF LBSF 151100Z 1512/1612 VRB04KT 9999 SCT060"
    },
    {
      "icao": "LBWN",
      "alert": "OK",
      "vis_m": 9999,
      "fzfg": false,
      "metar_trigger": false,
      "taf_trigger": false,
      "metar": "METAR LBWN 151500Z AUTO 11013KT 9999 NCD 17/10 Q1007 NOSIG",
      "taf": "TAF LBWN 151100Z 1512/1612 12010KT 9999 SCT045"
    },
    {
      "icao": "LCLK",
      "alert": "OK",
      "vis_m": 9999,
      "fzfg": false,
      "metar_trigger": false,
      "taf_trigger": false,
      "metar": "METAR LCLK 151500Z 21017KT 9999 FEW025 25/16 Q1004 NOSIG",
      "taf": "TAF LCLK 151130Z 1512/1612 22024KT 9999 FEW025 SCT060"
    },
    {
      "icao": "LCPH",
      "alert": "OK",
      "vis_m": 9999,
      "fzfg": false,
      "metar_trigger": false,
      "taf_trigger": false,
      "metar": "METAR LCPH 151500Z 31014KT 260V320 9999 BKN012 SCT017 21/17 Q1007 TEMPO SCT012",
      "taf": "TAF LCPH 151130Z 1512/1612 29016KT 9999 FEW012 SCT020"
    },
    {
      "icao": "LEAL",
      "alert": "OK",
      "vis_m": 9999,
      "fzfg": false,
      "metar_trigger": false,
      "taf_trigger": false,
      "metar": "METAR LEAL 151500Z 33011KT 290V350 9999 -SHRA FEW020TCU BKN060 21/04 Q1007 TEMPO SHRA FEW050TCU",
      "taf": "TAF LEAL 151100Z 1512/1612 30009KT 9999 FEW015 BKN060 TX26/1512Z TN11/1606Z"
    },
    {
      "icao": "LEBB",
      "alert": "OK",
      "vis_m": 9999,
      "fzfg": false,
      "metar_trigger": false,
      "taf_trigger": false,
      "metar": "METAR LEBB 151500Z 30016KT 9999 FEW030TCU SCT039 15/08 Q1013 NOSIG",
      "taf": "TAF LEBB 151100Z 1512/1612 31009KT 9999 FEW020 BKN040 TX15/1513Z TN07/1603Z"
    },
    {
      "icao": "LEBL",
      "alert": "OK",
      "vis_m": 9999,
      "fzfg": false,
      "metar_trigger": false,
      "taf_trigger": false,
      "metar": "METAR LEBL 151500Z COR VRB07KT 9999 FEW020 FEW030CB SCT050 BKN060 15/06 Q1006 NOSIG",
      "taf": ""
    },
    {
      "icao": "LECH",
      "alert": "OK",
      "vis_m": 9000,
      "fzfg": false,
      "metar_trigger": false,
      "taf_trigger": false,
      "metar": "METAR LECH 151500Z AUTO 30005G19KT 250V350 9000 NSC 17/02 Q1007",
      "taf": "TAF LECH 151100Z 1512/1612 33010KT 9999 FEW040 TX21/1514Z TN07/1606Z"
    },
    {
      "icao": "LEMD",
      "alert": "OK",
      "vis_m": 9999,
      "fzfg": false,
      "metar_trigger": false,
      "taf_trigger": false,
      "metar": "METAR LEMD 151500Z 33010KT 290V020 9999 FEW040TCU SCT060 16/03 Q1010 NOSIG",
      "taf": ""
    },
    {
      "icao": "LEMG",
      "alert": "OK",
      "vis_m": 9999,
      "fzfg": false,
      "metar_trigger": false,
      "taf_trigger": false,
      "metar": "METAR LEMG 151500Z 33015KT 300V360 9999 FEW080 27/08 Q1007 WS R31 NOSIG",
      "taf": "TAF LEMG 151100Z 1512/1612 29012KT CAVOK TX27/1514Z TN16/1607Z"
    },
    {
      "icao": "LEVC",
      "alert": "OK",
      "vis_m": 9999,
      "fzfg": false,
      "metar_trigger": false,
      "taf_trigger": false,
      "metar": "METAR LEVC 151500Z 27006KT 220V310 9999 FEW030 17/07 Q1008 NOSIG",
      "taf": "TAF LEVC 151100Z 1512/1612 30009KT 9999 FEW040 TX21/1512Z TN09/1606Z"
    },
    {
      "icao": "LEXJ",
      "alert": "OK",
      "vis_m": 9999,
      "fzfg": false,
      "metar_trigger": false,
      "taf_trigger": false,
      "metar": "METAR LEXJ 151500Z 33013KT 280V030 9999 SCT035 15/08 Q1014",
      "taf": "TAF LEXJ 151400Z 1515/1615 32009KT 9999 FEW025 SCT040 TX17/1615Z TN10/1603Z"
    },
    {
      "icao": "LEZG",
      "alert": "OK",
      "vis_m": 9999,
      "fzfg": false,
      "metar_trigger": false,
      "taf_trigger": false,
      "metar": "METAR LEZG 151500Z 29024KT 250V330 9999 FEW050 16/04 Q1009 NOSIG",
      "taf": "TAF LEZG 151100Z 1512/1612 32020KT 9999 FEW030 TX18/1518Z TN08/1605Z"
    },
    {
      "icao": "LEZL",
      "alert": "OK",
      "vis_m": 9999,
      "fzfg": false,
      "metar_trigger": false,
      "taf_trigger": false,
      "metar": "METAR LEZL 151500Z 27009KT 210V320 CAVOK 27/08 Q1009 NOSIG",
      "taf": "TAF LEZL 151400Z 1515/1615 22014KT CAVOK TX30/1615Z TN14/1607Z"
    },
    {
      "icao": "LFBD",
      "alert": "OK",
      "vis_m": 9999,
      "fzfg": false,
      "metar_trigger": false,
      "taf_trigger": false,
      "metar": "METAR LFBD 151500Z AUTO 31010KT 9999 FEW049/// BKN084/// ///CB 16/05 Q1010 TEMPO 33015G25KT 2000 -TSRA",
      "taf": ""
    },
    {
      "icao": "LFLL",
      "alert": "OK",
      "vis_m": 9999,
      "fzfg": false,
      "metar_trigger": false,
      "taf_trigger": false,
      "metar": "METAR LFLL 151500Z 34006KT 300V040 9999 VCSH FEW025TCU FEW026CB SCT230 11/06 Q1006 NOSIG",
      "taf": "TAF LFLL 151100Z 1512/1618 32008KT 9999 FEW030 BKN050"
    },
    {
      "icao": "LFLS",
      "alert": "OK",
      "vis_m": 9999,
      "fzfg": false,
      "metar_trigger": false,
      "taf_trigger": false,
      "metar": "METAR LFLS 151500Z AUTO 33015KT 9999 FEW026/// SCT031/// BKN037/// ///TCU 10/05 Q1005 TEMPO 33015G30KT 2000 TSRAGS BKN025CB",
      "taf": "TAF LFLS 151400Z 1515/1615 36010KT 9999 SCT025TCU BKN035"
    },
    {
      "icao": "LFMN",
      "alert": "OK",
      "vis_m": 9999,
      "fzfg": false,
      "metar_trigger": false,
      "taf_trigger": false,
      "metar": "METAR LFMN 151500Z 22019KT 9999 FEW060 20/07 Q0996 NOSIG",
      "taf": "TAF LFMN 151400Z 1515/1621 23020G30KT CAVOK"
    },
    {
      "icao": "LFOB",
      "alert": "OK",
      "vis_m": 9999,
      "fzfg": false,
      "metar_trigger": false,
      "taf_trigger": false,
      "metar": "METAR LFOB 151500Z AUTO 16003KT 110V200 9999 FEW027/// SCT058/// ///CB 11/06 Q1007 BECMG BKN025",
      "taf": "TAF LFOB 151100Z 1512/1612 32008KT 9999 BKN025"
    },
    {
      "icao": "LFPO",
      "alert": "OK",
      "vis_m": 9999,
      "fzfg": false,
      "metar_trigger": false,
      "taf_trigger": false,
      "metar": "METAR LFPO 151500Z 29009KT 250V330 9999 FEW036CB SCT110 BKN260 12/05 Q1007 TEMPO 32015G30KT SHRA BKN040CB",
      "taf": "TAF LFPO 151100Z 1512/1618 32008KT 9999 BKN040"
    },
    {
      "icao": "LFSB",
      "alert": "OK",
      "vis_m": 9999,
      "fzfg": false,
      "metar_trigger": false,
      "taf_trigger": false,
      "metar": "METAR LFSB 151500Z AUTO 33008KT 9999 BKN037/// BKN049/// BKN072/// ///CB 12/05 Q1004 TEMPO 4000 TSRA",
      "taf": "TAF LFSB 151100Z 1512/1612 31007KT 9999 FEW040 BKN050"
    },
    {
      "icao": "LGAV",
      "alert": "OK",
      "vis_m": 9999,
      "fzfg": false,
      "metar_trigger": false,
      "taf_trigger": false,
      "metar": "METAR LGAV 151520Z 20012KT 9999 FEW030 23/09 Q1009 NOSIG",
      "taf": "TAF LGAV 151100Z 1512/1612 25010KT 9999 FEW025"
    },
    {
      "icao": "LGTS",
      "alert": "OK",
      "vis_m": 9999,
      "fzfg": false,
      "metar_trigger": false,
      "taf_trigger": false,
      "metar": "METAR LGTS 151450Z 18015KT 9999 SCT030 22/15 Q1007 NOSIG",
      "taf": "TAF LGTS 151100Z 1512/1612 16013KT 9999 FEW030"
    },
    {
      "icao": "LHBP",
      "alert": "OK",
      "vis_m": 9999,
      "fzfg": false,
      "metar_trigger": false,
      "taf_trigger": false,
      "metar": "METAR LHBP 151500Z 27008KT CAVOK 20/06 Q1001 TEMPO 26015G27KT 4000 SHRA BKN070CB",
      "taf": "TAF LHBP 151115Z 1512/1612 21009KT CAVOK"
    },
    {
      "icao": "LHDC",
      "alert": "OK",
      "vis_m": 9999,
      "fzfg": false,
      "metar_trigger": false,
      "taf_trigger": false,
      "metar": "METAR LHDC 151445Z AUTO 17012KT 120V210 CAVOK 22/08 Q1002 TEMPO VRB18G35KT 4000 TSRA SQ SCT050CB",
      "taf": "TAF LHDC 151415Z 1515/1524 18011KT CAVOK"
    },
    {
      "icao": "LIBD",
      "alert": "OK",
      "vis_m": 9999,
      "fzfg": false,
      "metar_trigger": false,
      "taf_trigger": false,
      "metar": "METAR LIBD 151520Z 17010G20KT 130V190 9999 FEW045 24/11 Q1003",
      "taf": "TAF LIBD 151100Z 1512/1612 19013KT 9999 SCT040"
    },
    {
      "icao": "LIBG",
      "alert": "OK",
      "vis_m": 9999,
      "fzfg": false,
      "metar_trigger": false,
      "taf_trigger": false,
      "metar": "METAR LIBG 151450Z 17012KT CAVOK 21/15 Q1005",
      "taf": "TAF LIBG 151400Z 1515/1524 16014KT 9999 FEW040"
    },
    {
      "icao": "LIBP",
      "alert": "OK",
      "vis_m": 9999,
      "fzfg": false,
      "metar_trigger": false,
      "taf_trigger": false,
      "metar": "METAR LIBP 151520Z AUTO 23009KT 180V260 9999 BKN090/// BKN220/// 24/08 Q0999",
      "taf": "TAF LIBP 151100Z 1512/1612 22015KT 9999 FEW020 SCT070"
    },
    {
      "icao": "LIBR",
      "alert": "OK",
      "vis_m": 9999,
      "fzfg": false,
      "metar_trigger": false,
      "taf_trigger": false,
      "metar": "METAR LIBR 151520Z 20017KT CAVOK 22/13 Q1005",
      "taf": "TAF LIBR 151100Z 1512/1612 17015KT 9999 FEW040"
    },
    {
      "icao": "LICA",
      "alert": "OK",
      "vis_m": 9999,
      "fzfg": false,
      "metar_trigger": false,
      "taf_trigger": false,
      "metar": "METAR LICA 151520Z AUTO 07019KT 9999 NCD 23/15 Q1005",
      "taf": "TAF LICA 151100Z 1512/1612 08014KT 9999 SCT025"
    },
    {
      "icao": "LICC",
      "alert": "OK",
      "vis_m": 9999,
      "fzfg": false,
      "metar_trigger": false,
      "taf_trigger": false,
      "metar": "METAR LICC 151520Z 11007KT 060V140 9999 SCT040 24/17 Q1005",
      "taf": "TAF LICC 151100Z 1512/1612 25010KT 9999 SCT050"
    },
    {
      "icao": "LICJ",
      "alert": "OK",
      "vis_m": 9999,
      "fzfg": false,
      "metar_trigger": false,
      "taf_trigger": false,
      "metar": "METAR LICJ 151520Z 22015KT 9999 FEW040 24/15 Q1004",
      "taf": "TAF LICJ 151100Z 1512/1612 01010KT 9999 SCT040"
    },
    {
      "icao": "LIMC",
      "alert": "OK",
      "vis_m": 9999,
      "fzfg": false,
      "metar_trigger": false,
      "taf_trigger": false,
      "metar": "METAR LIMC 151450Z 14005KT 9999 BKN030 13/08 Q1000 NOSIG",
      "taf": "TAF LIMC 151100Z 1512/1618 VRB05KT 9999 FEW015 BKN040"
    },
    {
      "icao": "LIME",
      "alert": "OK",
      "vis_m": 9999,
      "fzfg": false,
      "metar_trigger": false,
      "taf_trigger": false,
      "metar": "METAR LIME 151450Z VRB02KT 9999 SCT010 SCT050 12/08 Q1000 NOSIG",
      "taf": "TAF LIME 151100Z 1512/1612 12007KT 9999 SCT040"
    },
    {
      "icao": "LIMF",
      "alert": "OK",
      "vis_m": 9999,
      "fzfg": false,
      "metar_trigger": false,
      "taf_trigger": false,
      "metar": "METAR LIMF 151450Z 06007KT 030V090 9999 SCT040 BKN140 12/08 Q1000",
      "taf": "TAF LIMF 151100Z 1512/1612 VRB05KT 9999 SCT030"
    },
    {
      "icao": "LIMJ",
      "alert": "OK",
      "vis_m": 9999,
      "fzfg": false,
      "metar_trigger": false,
      "taf_trigger": false,
      "metar": "METAR LIMJ 151450Z 21007KT 9999 FEW025CB BKN030 16/08 Q0999",
      "taf": "TAF LIMJ 151100Z 1512/1612 20012KT 9999 SCT040"
    },
    {
      "icao": "LIPE",
      "alert": "OK",
      "vis_m": 6000,
      "fzfg": false,
      "metar_trigger": false,
      "taf_trigger": false,
      "metar": "METAR LIPE 151450Z 04007KT 6000 BKN007 BKN028 13/12 Q1000",
      "taf": "TAF LIPE 151100Z 1512/1612 VRB05KT 7000 RA BKN060"
    },
    {
      "icao": "LIPH",
      "alert": "OK",
      "vis_m": 9999,
      "fzfg": false,
      "metar_trigger": false,
      "taf_trigger": false,
      "metar": "METAR LIPH 151520Z 06005KT 9999 -RA FEW010 BKN040 12/10 Q1000",
      "taf": "TAF LIPH 151100Z 1512/1612 VRB06KT 7000 RA SCT010 BKN045"
    },
    {
      "icao": "LIPQ",
      "alert": "OK",
      "vis_m": 6000,
      "fzfg": false,
      "metar_trigger": false,
      "taf_trigger": false,
      "metar": "METAR LIPQ 151520Z AUTO 02005KT 6000 +RA FEW006/// BKN026/// OVC049/// 13/12 Q1000",
      "taf": "TAF LIPQ 151100Z 1512/1612 19010KT 8000 RA SCT020 BKN060"
    },
    {
      "icao": "LIPR",
      "alert": "OK",
      "vis_m": 9999,
      "fzfg": false,
      "metar_trigger": false,
      "taf_trigger": false,
      "metar": "METAR LIPR 151520Z AUTO 36006KT 320V020 9999 -RA FEW007/// BKN028/// 14/13 Q1000",
      "taf": "TAF LIPR 151100Z 1512/1612 VRB05KT 8000 FEW030 SCT060"
    },
    {
      "icao": "LIPX",
      "alert": "OK",
      "vis_m": 9999,
      "fzfg": false,
      "metar_trigger": false,
      "taf_trigger": false,
      "metar": "METAR LIPX 151520Z 25005KT 9999 -RA SCT015 BKN035 12/09 Q1001",
      "taf": "TAF LIPX 151100Z 1512/1612 08010KT 9999 BKN030"
    },
    {
      "icao": "LIPY",
      "alert": "OK",
      "vis_m": 9999,
      "fzfg": false,
      "metar_trigger": false,
      "taf_trigger": false,
      "metar": "METAR LIPY 151520Z AUTO 21012KT 9999 FEW066/// BKN100/// 20/08 Q1000",
      "taf": "TAF LIPY 151100Z 1512/1612 22013KT 9999 BKN070"
    },
    {
      "icao": "LIPZ",
      "alert": "OK",
      "vis_m": 9999,
      "fzfg": false,
      "metar_trigger": false,
      "taf_trigger": false,
      "metar": "METAR LIPZ 151450Z 03009KT 9999 -RA FEW010 BKN050 12/10 Q1000 NOSIG",
      "taf": "TAF LIPZ 151100Z 1512/1618 04008KT 7000 RA SCT020 BKN060"
    },
    {
      "icao": "LIRF",
      "alert": "OK",
      "vis_m": 9999,
      "fzfg": false,
      "metar_trigger": false,
      "taf_trigger": false,
      "metar": "METAR LIRF 151450Z 22006KT 180V250 9999 FEW035 17/14 Q1003 RETSRA NOSIG",
      "taf": "TAF LIRF 151100Z 1512/1618 24014KT 9999 BKN030"
    },
    {
      "icao": "LIRN",
      "alert": "OK",
      "vis_m": 9999,
      "fzfg": false,
      "metar_trigger": false,
      "taf_trigger": false,
      "metar": "METAR LIRN 151450Z 18015KT 150V210 9999 FEW030 21/14 Q1004 NOSIG",
      "taf": "TAF LIRN 151100Z 1512/1612 21012KT 9999 BKN035"
    },
    {
      "icao": "LIRP",
      "alert": "OK",
      "vis_m": 9999,
      "fzfg": false,
      "metar_trigger": false,
      "taf_trigger": false,
      "metar": "METAR LIRP 151445Z 26013KT 9999 SCT025 SCT070 16/10 Q1001 NOSIG",
      "taf": "TAF LIRP 151100Z 1512/1612 25010KT 9999 SCT020 SCT080"
    },
    {
      "icao": "LIRZ",
      "alert": "OK",
      "vis_m": 9999,
      "fzfg": false,
      "metar_trigger": false,
      "taf_trigger": false,
      "metar": "METAR LIRZ 151520Z AUTO 20011KT 170V230 9999 -RA BKN034/// 15/11 Q1001",
      "taf": "TAF LIRZ 151100Z 1512/1612 20012KT 9999 SCT030"
    },
    {
      "icao": "LJLJ",
      "alert": "OK",
      "vis_m": 9999,
      "fzfg": false,
      "metar_trigger": false,
      "taf_trigger": false,
      "metar": "METAR LJLJ 151500Z VRB02KT 9999 -SHRA SCT030TCU BKN040 11/09 Q1001 NOSIG",
      "taf": "TAF LJLJ 151100Z 1512/1612 32004KT 9999 SCT030 BKN050"
    },
    {
      "icao": "LKMT",
      "alert": "OK",
      "vis_m": 9999,
      "fzfg": false,
      "metar_trigger": false,
      "taf_trigger": false,
      "metar": "METAR LKMT 151500Z 22012KT 9999 FEW028 13/08 Q1001 NOSIG",
      "taf": "TAF LKMT 151100Z 1512/1612 25010KT 9999 BKN030"
    },
    {
      "icao": "LKPR",
      "alert": "OK",
      "vis_m": 9999,
      "fzfg": false,
      "metar_trigger": false,
      "taf_trigger": false,
      "metar": "METAR LKPR 151500Z 28006KT 9999 FEW050TCU 14/02 Q1000 NOSIG",
      "taf": "TAF LKPR 151400Z 1515/1621 34004KT 9999 BKN045"
    },
    {
      "icao": "LLBG",
      "alert": "OK",
      "vis_m": 9999,
      "fzfg": false,
      "metar_trigger": false,
      "taf_trigger": false,
      "metar": "METAR LLBG 151520Z 27011KT 9999 FEW028 22/14 Q1009 NOSIG",
      "taf": "TAF LLBG 151103Z 1512/1612 30010KT 9999 SCT025 TX24/1512Z TN18/1604Z"
    },
    {
      "icao": "LMML",
      "alert": "OK",
      "vis_m": 9999,
      "fzfg": false,
      "metar_trigger": false,
      "taf_trigger": false,
      "metar": "METAR LMML 151515Z 25013KT 9999 -RA NSC 21/17 Q1008 TEMPO 8000 RA",
      "taf": "TAF LMML 151100Z 1512/1612 18015KT 9999 FEW015"
    },
    {
      "icao": "LOWW",
      "alert": "OK",
      "vis_m": 9999,
      "fzfg": false,
      "metar_trigger": false,
      "taf_trigger": false,
      "metar": "METAR LOWW 151450Z 11004KT 9999 FEW040 14/07 Q1002 TEMPO RA",
      "taf": "TAF LOWW 151415Z 1515/1621 10005KT 9999 FEW020 BKN050 TX15/1515Z TN09/1605Z"
    },
    {
      "icao": "LPFR",
      "alert": "OK",
      "vis_m": 9999,
      "fzfg": false,
      "metar_trigger": false,
      "taf_trigger": false,
      "metar": "METAR LPFR 151500Z 34013G23KT 300V360 9999 FEW030 25/08 Q1011",
      "taf": "TAF LPFR 151100Z 1512/1612 33010KT CAVOK"
    },
    {
      "icao": "LPMA",
      "alert": "OK",
      "vis_m": 9999,
      "fzfg": false,
      "metar_trigger": false,
      "taf_trigger": false,
      "metar": "METAR LPMA 151500Z 02011KT 9999 SCT015 SCT030 18/11 Q1023",
      "taf": "TAF LPMA 151100Z 1512/1612 01013KT 9999 SCT015 SCT030"
    },
    {
      "icao": "LPPR",
      "alert": "OK",
      "vis_m": 9999,
      "fzfg": false,
      "metar_trigger": false,
      "taf_trigger": false,
      "metar": "METAR LPPR 151500Z 32017KT 300V360 9999 FEW020 16/12 Q1015",
      "taf": "TAF LPPR 151100Z 1512/1612 34015KT 9999 SCT030"
    },
    {
      "icao": "LPPS",
      "alert": "OK",
      "vis_m": 9999,
      "fzfg": false,
      "metar_trigger": false,
      "taf_trigger": false,
      "metar": "METAR LPPS 151500Z 01017KT 9999 FEW015 18/10 Q1023",
      "taf": "TAF LPPS 151100Z 1512/1618 01015KT 9999 SCT014 BKN030"
    },
    {
      "icao": "LPPT",
      "alert": "OK",
      "vis_m": 9999,
      "fzfg": false,
      "metar_trigger": false,
      "taf_trigger": false,
      "metar": "METAR LPPT 151500Z 33015KT 9999 SCT032 19/11 Q1015",
      "taf": "TAF LPPT 151100Z 1512/1618 35015KT 9999 SCT035"
    },
    {
      "icao": "LQBK",
      "alert": "OK",
      "vis_m": 9999,
      "fzfg": false,
      "metar_trigger": false,
      "taf_trigger": false,
      "metar": "METAR LQBK 151500Z 32006KT 9999 FEW035 SCT047 16/11 Q1002 NOSIG",
      "taf": "TAF LQBK 151100Z 1512/1612 16006KT 9999 SCT040 TX23/1513Z TN11/1604Z"
    },
    {
      "icao": "LQSA",
      "alert": "OK",
      "vis_m": 9999,
      "fzfg": false,
      "metar_trigger": false,
      "taf_trigger": false,
      "metar": "METAR LQSA 151500Z 13011KT 9999 BKN060 17/07 Q1003 NOSIG",
      "taf": "TAF LQSA 151100Z 1512/1612 15009KT 9999 BKN050 TX20/1513Z TN10/1605Z"
    },
    {
      "icao": "LQTZ",
      "alert": "OK",
      "vis_m": 9999,
      "fzfg": false,
      "metar_trigger": false,
      "taf_trigger": false,
      "metar": "METAR LQTZ 151500Z 23009KT 170V270 9999 BKN060 20/07 Q1002",
      "taf": "TAF LQTZ 151100Z 1512/1612 12006KT CAVOK TX22/1513Z TN09/1603Z"
    },
    {
      "icao": "LRBC",
      "alert": "OK",
      "vis_m": 9999,
      "fzfg": false,
      "metar_trigger": false,
      "taf_trigger": false,
      "metar": "METAR LRBC 151500Z 16011KT CAVOK 21/10 Q1004",
      "taf": "TAF LRBC 151400Z 1515/1524 16008KT CAVOK"
    },
    {
      "icao": "LRBS",
      "alert": "OK",
      "vis_m": 9999,
      "fzfg": false,
      "metar_trigger": false,
      "taf_trigger": false,
      "metar": "METAR LRBS 151500Z VRB03KT CAVOK 24/07 Q1005 NOSIG",
      "taf": "TAF LRBS 151100Z 1512/1612 VRB04KT CAVOK"
    },
    {
      "icao": "LRBV",
      "alert": "OK",
      "vis_m": 9999,
      "fzfg": false,
      "metar_trigger": false,
      "taf_trigger": false,
      "metar": "METAR LRBV 151500Z 13006KT 100V170 9999 FEW062 20/04 Q1005",
      "taf": "TAF LRBV 151400Z 1515/1524 21008KT CAVOK"
    },
    {
      "icao": "LRCL",
      "alert": "OK",
      "vis_m": 9999,
      "fzfg": false,
      "metar_trigger": false,
      "taf_trigger": false,
      "metar": "METAR LRCL 151500Z 13005KT 100V160 9999 FEW065TCU SCT071 21/08 Q1003",
      "taf": "TAF LRCL 151400Z 1515/1524 VRB04KT CAVOK"
    },
    {
      "icao": "LRCV",
      "alert": "OK",
      "vis_m": 9999,
      "fzfg": false,
      "metar_trigger": false,
      "taf_trigger": false,
      "metar": "METAR LRCV 151500Z 17005KT 130V210 CAVOK 22/09 Q1005",
      "taf": "TAF LRCV 151400Z 1515/1524 VRB04KT CAVOK"
    },
    {
      "icao": "LRIA",
      "alert": "OK",
      "vis_m": 9999,
      "fzfg": false,
      "metar_trigger": false,
      "taf_trigger": false,
      "metar": "METAR LRIA 151500Z 17005KT 130V220 CAVOK 22/03 Q1005",
      "taf": "TAF LRIA 151400Z 1515/1524 VRB04KT CAVOK"
    },
    {
      "icao": "LROP",
      "alert": "OK",
      "vis_m": 9999,
      "fzfg": false,
      "metar_trigger": false,
      "taf_trigger": false,
      "metar": "METAR LROP 151500Z 26005KT 200V290 CAVOK 24/05 Q1005 NOSIG",
      "taf": "TAF LROP 151100Z 1512/1612 VRB04KT CAVOK"
    },
    {
      "icao": "LRSB",
      "alert": "OK",
      "vis_m": 9999,
      "fzfg": false,
      "metar_trigger": false,
      "taf_trigger": false,
      "metar": "METAR LRSB 151500Z VRB02KT 9999 FEW050TCU SCT055 20/08 Q1004 NOSIG",
      "taf": "TAF LRSB 151100Z 1512/1612 VRB04KT 9999 SCT055"
    },
    {
      "icao": "LRSM",
      "alert": "OK",
      "vis_m": 9999,
      "fzfg": false,
      "metar_trigger": false,
      "taf_trigger": false,
      "metar": "METAR LRSM 151500Z 20006KT CAVOK 22/08 Q1003",
      "taf": "TAF LRSM 151400Z 1515/1524 19008KT CAVOK"
    },
    {
      "icao": "LRSV",
      "alert": "OK",
      "vis_m": 9999,
      "fzfg": false,
      "metar_trigger": false,
      "taf_trigger": false,
      "metar": "METAR LRSV 151500Z 13009KT CAVOK 20/06 Q1004",
      "taf": "TAF LRSV 151400Z 1515/1524 14008KT CAVOK"
    },
    {
      "icao": "LRTM",
      "alert": "OK",
      "vis_m": 9999,
      "fzfg": false,
      "metar_trigger": false,
      "taf_trigger": false,
      "metar": "METAR LRTM 151500Z 14005KT 110V180 CAVOK 22/10 Q1004",
      "taf": "TAF LRTM 151400Z 1515/1524 VRB04KT CAVOK"
    },
    {
      "icao": "LRTR",
      "alert": "OK",
      "vis_m": 9999,
      "fzfg": false,
      "metar_trigger": false,
      "taf_trigger": false,
      "metar": "METAR LRTR 151500Z 16011KT CAVOK 23/07 Q1002",
      "taf": "TAF LRTR 151100Z 1512/1612 18012KT CAVOK"
    },
    {
      "icao": "LTAC",
      "alert": "OK",
      "vis_m": 9999,
      "fzfg": false,
      "metar_trigger": false,
      "taf_trigger": false,
      "metar": "METAR LTAC 151450Z VRB04KT 9999 SCT035 SCT080 16/05 Q1008 RESHRA NOSIG RMK RWY21C 06009KT RWY03L 07005KT 020V120 RWY21R 05009KT RWY03R VRB05KT RWY21L 07009KT 040V100",
      "taf": "TAF LTAC 151040Z 1512/1612 27012KT 9999 SCT040 SCT100"
    },
    {
      "icao": "LTFM",
      "alert": "OK",
      "vis_m": 9999,
      "fzfg": false,
      "metar_trigger": false,
      "taf_trigger": false,
      "metar": "METAR LTFM 151450Z 07008KT 030V110 CAVOK 19/09 Q1008 NOSIG RMK RWY17L 10011KT RWY34L 06008KT RWY16R 10010KT RWY36 08008KT 050V110 RWY18 10010KT",
      "taf": "TAF LTFM 151040Z 1512/1618 10009KT 9999 SCT040"
    },
    {
      "icao": "LUKK",
      "alert": "OK",
      "vis_m": 9999,
      "fzfg": false,
      "metar_trigger": false,
      "taf_trigger": false,
      "metar": "METAR LUKK 151500Z VRB04KT CAVOK 21/04 Q1005 NOSIG",
      "taf": "TAF LUKK 151105Z 1512/1612 VRB06KT CAVOK"
    },
    {
      "icao": "LWOH",
      "alert": "OK",
      "vis_m": 9999,
      "fzfg": false,
      "metar_trigger": false,
      "taf_trigger": false,
      "metar": "METAR LWOH 151520Z 15006KT 110V200 9999 SCT040 19/08 Q1008",
      "taf": "TAF LWOH 151150Z 1512/1612 15008KT 9999 SCT040"
    },
    {
      "icao": "LWSK",
      "alert": "OK",
      "vis_m": 9999,
      "fzfg": false,
      "metar_trigger": false,
      "taf_trigger": false,
      "metar": "METAR LWSK 151520Z 16005KT 110V230 9999 SCT085 24/07 Q1005 NOSIG",
      "taf": "TAF LWSK 151430Z 1515/1615 14010KT 9999 FEW050 SCT080 PROV30"
    },
    {
      "icao": "LYBE",
      "alert": "OK",
      "vis_m": 9999,
      "fzfg": false,
      "metar_trigger": false,
      "taf_trigger": false,
      "metar": "METAR LYBE 151500Z 16010KT 9999 FEW045 21/09 Q1002 NOSIG",
      "taf": "TAF LYBE 151100Z 1512/1612 20010KT 9999 SCT045 TX24/1513Z TN14/1604Z"
    },
    {
      "icao": "LYNI",
      "alert": "OK",
      "vis_m": 9999,
      "fzfg": false,
      "metar_trigger": false,
      "taf_trigger": false,
      "metar": "METAR LYNI 151500Z 18007KT 130V290 9999 SCT050 24/08 Q1003 NOSIG",
      "taf": "TAF LYNI 151100Z 1512/1612 21007KT 9999 SCT060 TX25/1513Z TN10/1604Z"
    },
    {
      "icao": "LYPG",
      "alert": "OK",
      "vis_m": 9999,
      "fzfg": false,
      "metar_trigger": false,
      "taf_trigger": false,
      "metar": "METAR LYPG 151500Z 13010KT 9999 FEW033 SCT080 21/11 Q1007 NOSIG",
      "taf": "TAF LYPG 151100Z 1512/1612 16012KT 9999 FEW025 BKN040 TX22/1513Z TN14/1604Z"
    },
    {
      "icao": "LZIB",
      "alert": "OK",
      "vis_m": 9999,
      "fzfg": false,
      "metar_trigger": false,
      "taf_trigger": false,
      "metar": "METAR LZIB 151500Z VRB02KT 9999 FEW036 15/06 Q1002 TEMPO RA",
      "taf": "TAF LZIB 151115Z 1512/1612 28008KT 9999 SCT025 BKN040"
    },
    {
      "icao": "LZKZ",
      "alert": "OK",
      "vis_m": 9999,
      "fzfg": false,
      "metar_trigger": false,
      "taf_trigger": false,
      "metar": "METAR LZKZ 151500Z 19013KT 9999 FEW040CB 19/07 Q1002 TEMPO TSRA",
      "taf": "TAF LZKZ 151115Z 1512/1612 20009KT 9999 SCT040"
    },
    {
      "icao": "LZTT",
      "alert": "OK",
      "vis_m": 9999,
      "fzfg": false,
      "metar_trigger": false,
      "taf_trigger": false,
      "metar": "METAR LZTT 151500Z 18010KT 150V230 9999 VCSH SCT050 12/06 Q1002 NOSIG",
      "taf": "TAF LZTT 151115Z 1512/1612 VRB02KT 9999 SCT045"
    },
    {
      "icao": "OEJN",
      "alert": "OK",
      "vis_m": 9999,
      "fzfg": false,
      "metar_trigger": false,
      "taf_trigger": false,
      "metar": "METAR OEJN 151500Z 30009KT CAVOK 34/19 Q1004 NOSIG",
      "taf": "TAF OEJN 151100Z 1512/1618 32012KT CAVOK"
    },
    {
      "icao": "OEMA",
      "alert": "OK",
      "vis_m": 9999,
      "fzfg": false,
      "metar_trigger": false,
      "taf_trigger": false,
      "metar": "METAR OEMA 151500Z 24009KT CAVOK 39/M05 Q1008 NOSIG",
      "taf": "TAF OEMA 151100Z 1512/1618 30012KT CAVOK"
    },
    {
      "icao": "OJAI",
      "alert": "OK",
      "vis_m": 4000,
      "fzfg": false,
      "metar_trigger": false,
      "taf_trigger": false,
      "metar": "METAR OJAI 151500Z 28015KT 4000 BLDU NSC 22/05 Q1010 NOSIG",
      "taf": "TAF OJAI 151045Z 1512/1618 28018G28KT 2000 BLDU NSC"
    },
    {
      "icao": "OMAA",
      "alert": "OK",
      "vis_m": 9999,
      "fzfg": false,
      "metar_trigger": false,
      "taf_trigger": false,
      "metar": "METAR OMAA 151500Z 30009KT CAVOK 31/15 Q1002 NOSIG",
      "taf": "TAF OMAA 151100Z 1512/1618 32018KT 8000 NSC"
    },
    {
      "icao": "OMDB",
      "alert": "OK",
      "vis_m": 9999,
      "fzfg": false,
      "metar_trigger": false,
      "taf_trigger": false,
      "metar": "METAR OMDB 151500Z 27009KT CAVOK 32/18 Q1001 NOSIG",
      "taf": "TAF OMDB 151100Z 1512/1618 27014KT 8000 NSC"
    },
    {
      "icao": "UAAA",
      "alert": "OK",
      "vis_m": 9999,
      "fzfg": false,
      "metar_trigger": false,
      "taf_trigger": false,
      "metar": "METAR UAAA 151500Z 07003MPS 9999 NSC 14/M03 Q1017 NOSIG",
      "taf": "TAF UAAA 151102Z 1512/1612 04002G07MPS 9999 FEW050CB SCT100 TX24/1606Z TN06/1601Z"
    },
    {
      "icao": "UBBB",
      "alert": "OK",
      "vis_m": 9999,
      "fzfg": false,
      "metar_trigger": false,
      "taf_trigger": false,
      "metar": "METAR UBBB 151500Z 18016KT 9999 FEW060CB 21/16 Q0999 NOSIG",
      "taf": "TAF UBBB 151053Z 1512/1612 16010KT 9999 FEW020 TX22/1512Z TN15/1600Z"
    },
    {
      "icao": "UDSG",
      "alert": "OK",
      "vis_m": 9999,
      "fzfg": false,
      "metar_trigger": false,
      "taf_trigger": false,
      "metar": "METAR UDSG 151500Z 19009KT 9999 SCT046CB 14/05 Q1008 NOSIG",
      "taf": "TAF UDSG 151058Z 1512/1612 24008KT 9999 BKN040"
    },
    {
      "icao": "UDYZ",
      "alert": "OK",
      "vis_m": 9999,
      "fzfg": false,
      "metar_trigger": false,
      "taf_trigger": false,
      "metar": "METAR UDYZ 151500Z VRB01KT 9999 SCT043CB 18/08 Q1005 NOSIG",
      "taf": "TAF UDYZ 151100Z 1512/1612 21006KT 9999 BKN040"
    },
    {
      "icao": "UGKO",
      "alert": "OK",
      "vis_m": 9999,
      "fzfg": false,
      "metar_trigger": false,
      "taf_trigger": false,
      "metar": "METAR UGKO 151500Z 26013KT 9999 BKN051 15/13 Q1007 NOSIG",
      "taf": "TAF UGKO 151100Z 1512/1612 26010KT 9999 BKN050 TX15/1512Z TN12/1602Z"
    }
  ]
}