{
  "ts_utc": "2026-01-28T17:18:43Z",
  "threshold_m": 150,
  "source": "stations_override.txt (ICAO list) + aviationweather.gov (METAR/TAF raw)",
  "station_count": 159,
  "stations": [
    {
      "icao": "BIKF",
      "alert": "OK",
      "vis_m": 9999,
      "fzfg": false,
      "metar_trigger": false,
      "taf_trigger": false,
      "metar": "METAR BIKF 281700Z 06019KT CAVOK 04/M05 Q0998",
      "taf": "TAF BIKF 281647Z 2818/2918 05014KT 9999 FEW025 TX06/2918Z TN02/2904Z"
    },
    {
      "icao": "BKPR",
      "alert": "OK",
      "vis_m": 9999,
      "fzfg": false,
      "metar_trigger": false,
      "taf_trigger": false,
      "metar": "METAR BKPR 281700Z 18008KT 9999 -RA FEW035 BKN050 05/02 Q1000 NOSIG",
      "taf": ""
    },
    {
      "icao": "EBCI",
      "alert": "OK",
      "vis_m": 800,
      "fzfg": false,
      "metar_trigger": false,
      "taf_trigger": false,
      "metar": "METAR EBCI 281650Z 36005KT 0800 R24/1900N FG SCT001 OVC002 04/04 Q0995 TEMPO 0400 FG",
      "taf": "TAF EBCI 281101Z 2812/2918 02003KT 1200 BR MIFG SCT002 BKN003"
    },
    {
      "icao": "EDDB",
      "alert": "OK",
      "vis_m": 9999,
      "fzfg": false,
      "metar_trigger": false,
      "taf_trigger": false,
      "metar": "METAR EDDB 281650Z AUTO 08010KT 9999 OVC013 M01/M03 Q1001 TEMPO BKN009",
      "taf": ""
    },
    {
      "icao": "EDDH",
      "alert": "OK",
      "vis_m": 9999,
      "fzfg": false,
      "metar_trigger": false,
      "taf_trigger": false,
      "metar": "METAR EDDH 281650Z AUTO 08010KT 050V110 9999 BKN010 01/M01 Q1001 TEMPO OVC015",
      "taf": "TAF EDDH 281100Z 2812/2918 09011KT 9999 OVC013"
    },
    {
      "icao": "EDDK",
      "alert": "OK",
      "vis_m": 9999,
      "fzfg": false,
      "metar_trigger": false,
      "taf_trigger": false,
      "metar": "METAR EDDK 281650Z AUTO 35005KT 9999 -RA BKN007 BKN011 OVC016 04/03 Q0994 TEMPO 2500 RADZ BKN004",
      "taf": ""
    },
    {
      "icao": "EDDN",
      "alert": "OK",
      "vis_m": 9999,
      "fzfg": false,
      "metar_trigger": false,
      "taf_trigger": false,
      "metar": "METAR EDDN 281650Z AUTO 04006KT 360V070 CAVOK 03/M00 Q0991 BECMG BKN010",
      "taf": "TAF EDDN 281100Z 2812/2912 05005KT CAVOK"
    },
    {
      "icao": "EDDS",
      "alert": "OK",
      "vis_m": 8000,
      "fzfg": false,
      "metar_trigger": false,
      "taf_trigger": false,
      "metar": "METAR EDDS 281650Z AUTO 33006KT 8000 BKN007 03/02 Q0990 TEMPO 4000 -RADZ",
      "taf": "TAF EDDS 281100Z 2812/2912 34003KT 9999 OVC025"
    },
    {
      "icao": "EDFH",
      "alert": "OK",
      "vis_m": 8000,
      "fzfg": false,
      "metar_trigger": false,
      "taf_trigger": false,
      "metar": "METAR EDFH 281650Z 04004KT 010V080 8000 -RA BKN002 01/01 Q0992",
      "taf": "TAF EDFH 281100Z 2812/2912 05005KT 2000 -RADZ OVC004"
    },
    {
      "icao": "EDJA",
      "alert": "OK",
      "vis_m": 7000,
      "fzfg": false,
      "metar_trigger": false,
      "taf_trigger": false,
      "metar": "METAR EDJA 281650Z 22001KT 7000 SCT008 OVC012 00/M01 Q0990",
      "taf": "TAF EDJA 281400Z 2815/2824 29004KT 9000 SCT005 OVC010"
    },
    {
      "icao": "EDLW",
      "alert": "OK",
      "vis_m": 3400,
      "fzfg": false,
      "metar_trigger": false,
      "taf_trigger": false,
      "metar": "METAR EDLW 281650Z 01007KT 3400 -SN OVC004 00/M00 Q0995",
      "taf": ""
    },
    {
      "icao": "EDNY",
      "alert": "OK",
      "vis_m": 5000,
      "fzfg": false,
      "metar_trigger": false,
      "taf_trigger": false,
      "metar": "METAR EDNY 281650Z VRB01KT 5000 BR FEW015 OVC025 02/01 Q0991",
      "taf": "TAF EDNY 281400Z 2815/2824 VRB03KT 7000 SCT010 BKN015"
    },
    {
      "icao": "EDSB",
      "alert": "OK",
      "vis_m": 5000,
      "fzfg": false,
      "metar_trigger": false,
      "taf_trigger": false,
      "metar": "METAR EDSB 281650Z 02005KT 5000 RA BR SCT006 OVC017 04/03 Q0992",
      "taf": ""
    },
    {
      "icao": "EETN",
      "alert": "OK",
      "vis_m": 9999,
      "fzfg": false,
      "metar_trigger": false,
      "taf_trigger": false,
      "metar": "METAR EETN 281650Z 08013KT 9999 OVC016 M07/M09 Q1014 TEMPO OVC012",
      "taf": "TAF EETN 281130Z 2812/2912 07012KT 9999 OVC008"
    },
    {
      "icao": "EFTU",
      "alert": "OK",
      "vis_m": 9999,
      "fzfg": false,
      "metar_trigger": false,
      "taf_trigger": false,
      "metar": "METAR EFTU 281650Z AUTO 08009KT 050V110 9999 -SHSN OVC010 M11/M13 Q1016",
      "taf": ""
    },
    {
      "icao": "EGBB",
      "alert": "OK",
      "vis_m": 9999,
      "fzfg": false,
      "metar_trigger": false,
      "taf_trigger": false,
      "metar": "METAR EGBB 281650Z 14004KT CAVOK 05/03 Q0995",
      "taf": "TAF EGBB 281658Z 2818/2918 14004KT 9999 FEW025"
    },
    {
      "icao": "EGGP",
      "alert": "OK",
      "vis_m": 9999,
      "fzfg": false,
      "metar_trigger": false,
      "taf_trigger": false,
      "metar": "METAR EGGP 281650Z 10005KT 9999 FEW036 06/03 Q0994",
      "taf": "TAF EGGP 281657Z 2818/2918 11005KT 9999 FEW035"
    },
    {
      "icao": "EGGW",
      "alert": "OK",
      "vis_m": 9999,
      "fzfg": false,
      "metar_trigger": false,
      "taf_trigger": false,
      "metar": "METAR EGGW 281650Z AUTO 11004KT 9999 OVC045 06/04 Q0995",
      "taf": "TAF EGGW 281701Z 2818/2918 12006KT 9999 SCT035"
    },
    {
      "icao": "EGKK",
      "alert": "OK",
      "vis_m": 9999,
      "fzfg": false,
      "metar_trigger": false,
      "taf_trigger": false,
      "metar": "METAR EGKK 281650Z VRB02KT 9999 BKN049 08/05 Q0995",
      "taf": "TAF EGKK 281701Z 2818/2924 09004KT 9999 FEW035"
    },
    {
      "icao": "EGNM",
      "alert": "OK",
      "vis_m": 150,
      "fzfg": false,
      "metar_trigger": false,
      "taf_trigger": false,
      "metar": "METAR EGNM 281650Z VRB01KT 0150 R32/0325N FG VV/// 02/02 Q0995",
      "taf": "TAF EGNM 281658Z 2818/2918 VRB02KT 0100 FG VV///"
    },
    {
      "icao": "EGPD",
      "alert": "OK",
      "vis_m": 4000,
      "fzfg": false,
      "metar_trigger": false,
      "taf_trigger": false,
      "metar": "METAR EGPD 281650Z 13010KT 080V150 4000 RA BKN005 06/05 Q0997 TEMPO 6000 -RA BKN008",
      "taf": "TAF EGPD 281658Z 2818/2918 13011KT 9999 BKN010"
    },
    {
      "icao": "EGPF",
      "alert": "OK",
      "vis_m": 9999,
      "fzfg": false,
      "metar_trigger": false,
      "taf_trigger": false,
      "metar": "METAR EGPF 281650Z AUTO 07007KT 9999 NCD 06/03 Q0996",
      "taf": "TAF EGPF 281658Z 2818/2918 09005KT 9999 SCT040"
    },
    {
      "icao": "EHBK",
      "alert": "OK",
      "vis_m": 900,
      "fzfg": false,
      "metar_trigger": false,
      "taf_trigger": false,
      "metar": "METAR EHBK 281655Z AUTO 01006KT 310V030 0900 R21/1300U FG VV000 04/04 Q0995 BECMG 1200 BR OVC001",
      "taf": "TAF EHBK 281105Z 2812/2918 01005KT 2000 BR BKN001"
    },
    {
      "icao": "EHEH",
      "alert": "OK",
      "vis_m": null,
      "fzfg": false,
      "metar_trigger": false,
      "taf_trigger": false,
      "metar": "",
      "taf": "TAF EHEH 281143Z 2812/2918 05004KT 3000 BR BKN005 OVC006"
    },
    {
      "icao": "EKBI",
      "alert": "OK",
      "vis_m": 9999,
      "fzfg": false,
      "metar_trigger": false,
      "taf_trigger": false,
      "metar": "METAR EKBI 281650Z AUTO 09014KT 9999 OVC013/// M01/M03 Q1006",
      "taf": ""
    },
    {
      "icao": "EKCH",
      "alert": "OK",
      "vis_m": 9999,
      "fzfg": false,
      "metar_trigger": false,
      "taf_trigger": false,
      "metar": "METAR EKCH 281650Z AUTO 04015KT 9999 OVC022/// M01/M04 Q1007 NOSIG",
      "taf": "TAF EKCH 281427Z 2815/2915 05015KT 9999 BKN018"
    },
    {
      "icao": "ENAL",
      "alert": "OK",
      "vis_m": 9999,
      "fzfg": false,
      "metar_trigger": false,
      "taf_trigger": false,
      "metar": "METAR ENAL 281650Z 15011KT 9999 BKN024 00/M06 Q1009",
      "taf": "TAF ENAL 281400Z 2815/2824 16006KT 9999 SCT020"
    },
    {
      "icao": "ENBR",
      "alert": "OK",
      "vis_m": 9999,
      "fzfg": false,
      "metar_trigger": false,
      "taf_trigger": false,
      "metar": "METAR ENBR 281650Z 04003KT CAVOK M03/M06 Q1009 NOSIG RMK WIND 1200FT 34004KT",
      "taf": "TAF ENBR 281100Z 2812/2912 14005KT CAVOK"
    },
    {
      "icao": "ENGM",
      "alert": "OK",
      "vis_m": 9999,
      "fzfg": false,
      "metar_trigger": false,
      "taf_trigger": false,
      "metar": "METAR ENGM 281650Z 02007KT 9999 -SN OVC029 M09/M12 Q1015 NOSIG",
      "taf": "TAF ENGM 281100Z 2812/2912 02007KT 9999 -SN BKN025"
    },
    {
      "icao": "ENHD",
      "alert": "OK",
      "vis_m": 9999,
      "fzfg": false,
      "metar_trigger": false,
      "taf_trigger": false,
      "metar": "METAR ENHD 281650Z 09006KT CAVOK M02/M13 Q1009",
      "taf": "TAF ENHD 281400Z 2815/2823 10008KT CAVOK"
    },
    {
      "icao": "ENTC",
      "alert": "OK",
      "vis_m": 9999,
      "fzfg": false,
      "metar_trigger": false,
      "taf_trigger": false,
      "metar": "METAR ENTC 281650Z VRB02KT 9999 BKN008 M07/M09 Q1015 TEMPO BKN012 RMK WIND 2600FT 05006KT",
      "taf": "TAF ENTC 281100Z 2812/2912 22015KT 9999 FEW010 SCT015"
    },
    {
      "icao": "ENTO",
      "alert": "OK",
      "vis_m": 9999,
      "fzfg": false,
      "metar_trigger": false,
      "taf_trigger": false,
      "metar": "METAR ENTO 281650Z 36010KT 9999 -SN OVC029 M07/M10 Q1014 NOSIG",
      "taf": "TAF ENTO 281100Z 2812/2912 02008KT 9999 -SN BKN025"
    },
    {
      "icao": "ENVA",
      "alert": "OK",
      "vis_m": 9999,
      "fzfg": false,
      "metar_trigger": false,
      "taf_trigger": false,
      "metar": "METAR ENVA 281650Z 10005KT 080V160 CAVOK M10/M17 Q1012 NOSIG RMK WIND 670FT 10009KT",
      "taf": "TAF ENVA 281100Z 2812/2912 10008KT CAVOK"
    },
    {
      "icao": "ENZV",
      "alert": "OK",
      "vis_m": 9999,
      "fzfg": false,
      "metar_trigger": false,
      "taf_trigger": false,
      "metar": "METAR ENZV 281650Z 14006KT 9999 BKN042 M03/M14 Q1009 NOSIG",
      "taf": "TAF ENZV 281100Z 2812/2912 14006KT CAVOK"
    },
    {
      "icao": "EPGD",
      "alert": "OK",
      "vis_m": 9000,
      "fzfg": false,
      "metar_trigger": false,
      "taf_trigger": false,
      "metar": "METAR EPGD 281700Z 03009KT 9000 OVC004 M03/M04 Q1003",
      "taf": "TAF EPGD 281130Z 2812/2912 05008KT 9999 BKN007"
    },
    {
      "icao": "EPKK",
      "alert": "OK",
      "vis_m": 4500,
      "fzfg": false,
      "metar_trigger": false,
      "taf_trigger": false,
      "metar": "METAR EPKK 281700Z 07005KT 4500 BR BKN010 01/M01 Q0998",
      "taf": "TAF EPKK 281430Z 2815/2915 06007KT 9999 BKN040"
    },
    {
      "icao": "EPKT",
      "alert": "OK",
      "vis_m": 5000,
      "fzfg": false,
      "metar_trigger": false,
      "taf_trigger": false,
      "metar": "METAR EPKT 281700Z 05008KT 5000 BR BKN005 00/M01 Q0998",
      "taf": ""
    },
    {
      "icao": "EPLB",
      "alert": "OK",
      "vis_m": 2300,
      "fzfg": false,
      "metar_trigger": false,
      "taf_trigger": false,
      "metar": "METAR EPLB 281700Z 34004KT 2300 BR OVC002 00/M00 Q0999",
      "taf": "TAF EPLB 281130Z 2812/2912 VRB02KT 6000 BKN010"
    },
    {
      "icao": "EPMO",
      "alert": "OK",
      "vis_m": 5000,
      "fzfg": false,
      "metar_trigger": false,
      "taf_trigger": false,
      "metar": "METAR EPMO 281700Z 34004KT 300V360 5000 BR SCT008 BKN022 M00/M01 Q1001",
      "taf": ""
    },
    {
      "icao": "EPPO",
      "alert": "OK",
      "vis_m": 8000,
      "fzfg": false,
      "metar_trigger": false,
      "taf_trigger": false,
      "metar": "METAR EPPO 281700Z 08007KT 8000 OVC010 M01/M03 Q1001",
      "taf": ""
    },
    {
      "icao": "EPRA",
      "alert": "OK",
      "vis_m": 3000,
      "fzfg": false,
      "metar_trigger": false,
      "taf_trigger": false,
      "metar": "METAR EPRA 281700Z 02003KT 3000 BR OVC003 M00/M01 Q1000",
      "taf": ""
    },
    {
      "icao": "EPRZ",
      "alert": "OK",
      "vis_m": 9999,
      "fzfg": false,
      "metar_trigger": false,
      "taf_trigger": false,
      "metar": "METAR EPRZ 281700Z 29002KT 9999 OVC015 02/00 Q0998",
      "taf": ""
    },
    {
      "icao": "EPSC",
      "alert": "OK",
      "vis_m": 6000,
      "fzfg": false,
      "metar_trigger": false,
      "taf_trigger": false,
      "metar": "METAR EPSC 281700Z 04004KT 010V080 6000 FEW003 OVC005 M01/M01 Q1002",
      "taf": ""
    },
    {
      "icao": "EPSY",
      "alert": "OK",
      "vis_m": 6000,
      "fzfg": false,
      "metar_trigger": false,
      "taf_trigger": false,
      "metar": "METAR EPSY 281700Z 01008KT 6000 OVC005 M05/M05 Q1001",
      "taf": "TAF EPSY 281430Z 2815/2824 02008KT 5000 BR OVC005"
    },
    {
      "icao": "EPWA",
      "alert": "OK",
      "vis_m": 9000,
      "fzfg": false,
      "metar_trigger": false,
      "taf_trigger": false,
      "metar": "METAR EPWA 281700Z 02006KT 330V050 9000 BKN008 01/M01 Q1000 NOSIG",
      "taf": "TAF EPWA 281430Z 2815/2915 35008KT 6000 BKN010"
    },
    {
      "icao": "EPWR",
      "alert": "OK",
      "vis_m": 9999,
      "fzfg": false,
      "metar_trigger": false,
      "taf_trigger": false,
      "metar": "METAR EPWR 281700Z 06006KT 030V090 9999 BKN013 01/M02 Q0999",
      "taf": "TAF EPWR 281430Z 2815/2915 08008KT 9999 BKN020"
    },
    {
      "icao": "ESGG",
      "alert": "OK",
      "vis_m": 9999,
      "fzfg": false,
      "metar_trigger": false,
      "taf_trigger": false,
      "metar": "METAR ESGG 281650Z 05007KT CAVOK M05/M09 Q1009",
      "taf": "TAF ESGG 281430Z 2815/2915 07012KT CAVOK"
    },
    {
      "icao": "ESKN",
      "alert": "OK",
      "vis_m": 9999,
      "fzfg": false,
      "metar_trigger": false,
      "taf_trigger": false,
      "metar": "METAR ESKN 281650Z 04007KT 9999 BKN035 M04/M08 Q1014",
      "taf": "TAF ESKN 281430Z 2815/2915 02008KT 9999 BKN035"
    },
    {
      "icao": "ESMS",
      "alert": "OK",
      "vis_m": 9999,
      "fzfg": false,
      "metar_trigger": false,
      "taf_trigger": false,
      "metar": "METAR ESMS 281650Z 06012KT 9999 OVC013 M01/M04 Q1006",
      "taf": ""
    },
    {
      "icao": "ESSA",
      "alert": "OK",
      "vis_m": 9999,
      "fzfg": false,
      "metar_trigger": false,
      "taf_trigger": false,
      "metar": "METAR ESSA 281650Z 35005KT CAVOK M10/M11 Q1015 NOSIG",
      "taf": "TAF ESSA 281430Z 2815/2915 03010KT 9999 FEW020"
    },
    {
      "icao": "EYKA",
      "alert": "OK",
      "vis_m": 9999,
      "fzfg": false,
      "metar_trigger": false,
      "taf_trigger": false,
      "metar": "METAR EYKA 281650Z 03008KT 340V060 9999 -SN OVC015 M08/M11 Q1003",
      "taf": "TAF EYKA 281702Z 2818/2918 03009KT 8000 OVC015"
    },
    {
      "icao": "EYPA",
      "alert": "OK",
      "vis_m": 9999,
      "fzfg": false,
      "metar_trigger": false,
      "taf_trigger": false,
      "metar": "METAR EYPA 281650Z 07012KT CAVOK M08/M12 Q1006",
      "taf": "TAF EYPA 281702Z 2818/2918 06012KT 9000 SCT015"
    },
    {
      "icao": "EYVI",
      "alert": "OK",
      "vis_m": 9999,
      "fzfg": false,
      "metar_trigger": false,
      "taf_trigger": false,
      "metar": "METAR EYVI 281650Z 04008KT 9999 -SN BKN008 OVC030 M07/M08 Q1001 NOSIG",
      "taf": "TAF EYVI 281702Z 2818/2918 04010KT 5000 SN BR SCT005 OVC020"
    },
    {
      "icao": "GCFV",
      "alert": "OK",
      "vis_m": 9999,
      "fzfg": false,
      "metar_trigger": false,
      "taf_trigger": false,
      "metar": "METAR GCFV 281700Z 30010KT 260V330 9999 FEW020 BKN025 20/15 Q1021",
      "taf": "TAF GCFV 281400Z 2815/2915 31013KT 9999 FEW020 BKN030 TX23/2914Z TN14/2906Z"
    },
    {
      "icao": "GCLP",
      "alert": "OK",
      "vis_m": 9999,
      "fzfg": false,
      "metar_trigger": false,
      "taf_trigger": false,
      "metar": "METAR GCLP 281700Z 03009KT 9999 FEW020 BKN030 20/16 Q1021 NOSIG",
      "taf": "TAF GCLP 281400Z 2815/2915 10004KT 9999 FEW020 BKN030 TX22/2914Z TN15/2906Z"
    },
    {
      "icao": "GCTS",
      "alert": "OK",
      "vis_m": 9999,
      "fzfg": false,
      "metar_trigger": false,
      "taf_trigger": false,
      "metar": "METAR GCTS 281700Z 16008KT 9999 BKN030 21/15 Q1022 NOSIG",
      "taf": "TAF GCTS 281400Z 2815/2915 17007KT 9999 SCT030 TX23/2914Z TN16/2906Z"
    },
    {
      "icao": "GMAD",
      "alert": "OK",
      "vis_m": 6000,
      "fzfg": false,
      "metar_trigger": false,
      "taf_trigger": false,
      "metar": "METAR GMAD 281700Z 25015KT 6000 BKN016 18/17 Q1019 NOSIG",
      "taf": "TAF GMAD 281700Z 2818/2924 23012KT 8000 BKN016"
    },
    {
      "icao": "GMMN",
      "alert": "OK",
      "vis_m": 9999,
      "fzfg": false,
      "metar_trigger": false,
      "taf_trigger": false,
      "metar": "METAR GMMN 281700Z 24016KT 9999 BKN020 17/14 Q1017 NOSIG",
      "taf": "TAF GMMN 281700Z 2818/2924 24016KT 9999 BKN020"
    },
    {
      "icao": "GMMX",
      "alert": "OK",
      "vis_m": 9999,
      "fzfg": false,
      "metar_trigger": false,
      "taf_trigger": false,
      "metar": "METAR GMMX 281700Z 28009KT 9999 SCT020 SCT090 18/12 Q1019 NOSIG",
      "taf": "TAF GMMX 281100Z 2812/2918 06006KT 8000 SCT033 SCT100"
    },
    {
      "icao": "HEGN",
      "alert": "OK",
      "vis_m": 2000,
      "fzfg": false,
      "metar_trigger": false,
      "taf_trigger": false,
      "metar": "METAR HEGN 281700Z 34008KT 2000 DU NSC 20/07 Q1019 NOSIG",
      "taf": "TAF HEGN 281700Z 2818/2924 35008KT 6000 NSC"
    },
    {
      "icao": "HEMA",
      "alert": "OK",
      "vis_m": 3000,
      "fzfg": false,
      "metar_trigger": false,
      "taf_trigger": false,
      "metar": "METAR HEMA 281700Z 00000KT 3000 DU NSC 19/03 Q1018 NOSIG",
      "taf": "TAF HEMA 281100Z 2812/2918 36018KT 6000 NSC"
    },
    {
      "icao": "HESH",
      "alert": "OK",
      "vis_m": 6000,
      "fzfg": false,
      "metar_trigger": false,
      "taf_trigger": false,
      "metar": "METAR HESH 281700Z 28003KT 6000 NSC 19/02 Q1018 NOSIG",
      "taf": "TAF HESH 281100Z 2812/2918 36012KT 6000 NSC"
    },
    {
      "icao": "HESX",
      "alert": "OK",
      "vis_m": 9999,
      "fzfg": false,
      "metar_trigger": false,
      "taf_trigger": false,
      "metar": "METAR HESX 281700Z 26009KT CAVOK 16/05 Q1017 NOSIG",
      "taf": "TAF HESX 281700Z 2818/2924 24009KT 9999 SCT020"
    },
    {
      "icao": "LATI",
      "alert": "OK",
      "vis_m": null,
      "fzfg": false,
      "metar_trigger": false,
      "taf_trigger": false,
      "metar": "",
      "taf": "TAF LATI 281700Z 2818/2918 16012KT 9999 SCT030 BKN070 TX13/2912Z TN07/2905Z"
    },
    {
      "icao": "LBPD",
      "alert": "OK",
      "vis_m": 9999,
      "fzfg": false,
      "metar_trigger": false,
      "taf_trigger": false,
      "metar": "METAR LBPD 281700Z AUTO VRB02KT 9999 OVC110/// 07/05 Q1003 NOSIG",
      "taf": "TAF LBPD 281700Z 2818/2918 VRB04KT CAVOK"
    },
    {
      "icao": "LBSF",
      "alert": "OK",
      "vis_m": 9999,
      "fzfg": false,
      "metar_trigger": false,
      "taf_trigger": false,
      "metar": "METAR LBSF 281700Z AUTO VRB01KT 9999 NSC 01/00 Q1002 NOSIG",
      "taf": "TAF LBSF 281700Z 2818/2918 VRB04KT CAVOK"
    },
    {
      "icao": "LBWN",
      "alert": "OK",
      "vis_m": 9999,
      "fzfg": false,
      "metar_trigger": false,
      "taf_trigger": false,
      "metar": "METAR LBWN 281700Z AUTO 12007KT 9999 BKN043/// 06/06 Q1004 NOSIG",
      "taf": "TAF LBWN 281700Z 2818/2918 12010KT 9999 SCT040"
    },
    {
      "icao": "LCLK",
      "alert": "OK",
      "vis_m": 9999,
      "fzfg": false,
      "metar_trigger": false,
      "taf_trigger": false,
      "metar": "METAR LCLK 281700Z 29003KT 9999 FEW025 SCT050 13/12 Q1013 NOSIG",
      "taf": "TAF LCLK 281130Z 2812/2912 20010KT 8000 FEW020 SCT040"
    },
    {
      "icao": "LCPH",
      "alert": "OK",
      "vis_m": 9999,
      "fzfg": false,
      "metar_trigger": false,
      "taf_trigger": false,
      "metar": "METAR LCPH 281700Z 31017KT 250V320 9999 FEW030 SCT040 16/10 Q1013 NOSIG",
      "taf": "TAF LCPH 281130Z 2812/2912 24006KT 5000 DU SCT030 SCT040"
    },
    {
      "icao": "LEAL",
      "alert": "OK",
      "vis_m": 9999,
      "fzfg": false,
      "metar_trigger": false,
      "taf_trigger": false,
      "metar": "METAR LEAL 281700Z 25019KT 210V290 9999 FEW060 18/02 Q0999 WS R28 NOSIG",
      "taf": ""
    },
    {
      "icao": "LEBB",
      "alert": "OK",
      "vis_m": 9999,
      "fzfg": false,
      "metar_trigger": false,
      "taf_trigger": false,
      "metar": "METAR LEBB 281700Z VRB02KT 9999 FEW045 SCT062 11/07 Q0997 TEMPO 3000 RA",
      "taf": "TAF LEBB 281100Z 2812/2912 22009KT 9999 FEW030 TX10/2816Z TN08/2906Z"
    },
    {
      "icao": "LEBL",
      "alert": "OK",
      "vis_m": 9999,
      "fzfg": false,
      "metar_trigger": false,
      "taf_trigger": false,
      "metar": "METAR LEBL 281630Z 32010KT 290V350 9999 FEW030 11/04 Q0993 NOSIG",
      "taf": "TAF LEBL 281100Z 2812/2912 23008KT 9999 FEW020 TX11/2812Z TN07/2906Z"
    },
    {
      "icao": "LECH",
      "alert": "OK",
      "vis_m": 9999,
      "fzfg": false,
      "metar_trigger": false,
      "taf_trigger": false,
      "metar": "METAR LECH 281700Z AUTO 07006KT 9999 SCT056 08/02 Q0998",
      "taf": ""
    },
    {
      "icao": "LEMD",
      "alert": "OK",
      "vis_m": 9999,
      "fzfg": false,
      "metar_trigger": false,
      "taf_trigger": false,
      "metar": "METAR LEMD 281700Z 29014KT 260V320 9999 FEW045 BKN055 09/02 Q1002 NOSIG",
      "taf": ""
    },
    {
      "icao": "LEMG",
      "alert": "OK",
      "vis_m": 9999,
      "fzfg": false,
      "metar_trigger": false,
      "taf_trigger": false,
      "metar": "METAR LEMG 281700Z 27006KT 240V300 9999 SCT070 15/10 Q1007 NOSIG",
      "taf": "TAF LEMG 281100Z 2812/2912 29012KT 9999 SCT020 TX19/2814Z TN13/2907Z"
    },
    {
      "icao": "LEVC",
      "alert": "OK",
      "vis_m": 9999,
      "fzfg": false,
      "metar_trigger": false,
      "taf_trigger": false,
      "metar": "METAR LEVC 281700Z 27018KT 250V310 9999 FEW030 12/03 Q1000 NOSIG",
      "taf": "TAF LEVC 281100Z 2812/2912 15005KT 9999 FEW030 TX17/2814Z TN09/2907Z"
    },
    {
      "icao": "LEXJ",
      "alert": "OK",
      "vis_m": 9999,
      "fzfg": false,
      "metar_trigger": false,
      "taf_trigger": false,
      "metar": "METAR LEXJ 281700Z 23003KT 190V260 9999 SCT062 SCT080 12/05 Q0997",
      "taf": "TAF LEXJ 281400Z 2815/2915 20009KT 9999 FEW040 TX16/2914Z TN09/2905Z"
    },
    {
      "icao": "LEZG",
      "alert": "OK",
      "vis_m": 9999,
      "fzfg": false,
      "metar_trigger": false,
      "taf_trigger": false,
      "metar": "METAR LEZG 281700Z 35002KT 9999 SCT040 BKN080 07/06 Q0999 NOSIG",
      "taf": "TAF LEZG 281100Z 2812/2912 09009KT 9999 FEW040 TX08/2813Z TN06/2900Z"
    },
    {
      "icao": "LEZL",
      "alert": "OK",
      "vis_m": 9999,
      "fzfg": false,
      "metar_trigger": false,
      "taf_trigger": false,
      "metar": "METAR LEZL 281700Z 23013KT 9999 FEW045 17/14 Q1008 NOSIG",
      "taf": "TAF LEZL 281400Z 2815/2915 24012KT 9999 SCT020 TX18/2915Z TN14/2907Z"
    },
    {
      "icao": "LFBD",
      "alert": "OK",
      "vis_m": 9999,
      "fzfg": false,
      "metar_trigger": false,
      "taf_trigger": false,
      "metar": "METAR LFBD 281700Z AUTO 10004KT 9999 BKN027 09/06 Q0996 NOSIG",
      "taf": "TAF LFBD 281100Z 2812/2918 VRB03KT 9999 BKN008 TX12/2815Z TN06/2906Z"
    },
    {
      "icao": "LFLL",
      "alert": "OK",
      "vis_m": 5000,
      "fzfg": false,
      "metar_trigger": false,
      "taf_trigger": false,
      "metar": "METAR LFLL 281700Z 34007KT 5000 RA FEW010 OVC018 06/05 Q0994 TEMPO 4000 BKN014",
      "taf": "TAF LFLL 281100Z 2812/2918 33006KT 9999 BKN016 BKN035"
    },
    {
      "icao": "LFLS",
      "alert": "OK",
      "vis_m": 9999,
      "fzfg": false,
      "metar_trigger": false,
      "taf_trigger": false,
      "metar": "METAR LFLS 281700Z AUTO VRB02KT 9999 -DZ OVC014 04/03 Q0993 TEMPO 4000 RA OVC008",
      "taf": "TAF LFLS 281400Z 2815/2915 VRB05KT 6000 -RA SCT012 OVC020"
    },
    {
      "icao": "LFMN",
      "alert": "OK",
      "vis_m": 9999,
      "fzfg": false,
      "metar_trigger": false,
      "taf_trigger": false,
      "metar": "METAR LFMN 281700Z 32008KT 9999 -DZ SCT013 OVC023 09/08 Q0990 NOSIG",
      "taf": "TAF LFMN 281400Z 2815/2921 24010KT 9999 BKN020"
    },
    {
      "icao": "LFOB",
      "alert": "OK",
      "vis_m": 9999,
      "fzfg": false,
      "metar_trigger": false,
      "taf_trigger": false,
      "metar": "METAR LFOB 281700Z AUTO 31003KT CAVOK 03/03 Q0995 TEMPO BKN010 BECMG 3000 BR",
      "taf": "TAF LFOB 281100Z 2812/2912 VRB03KT CAVOK"
    },
    {
      "icao": "LFPO",
      "alert": "OK",
      "vis_m": 9999,
      "fzfg": false,
      "metar_trigger": false,
      "taf_trigger": false,
      "metar": "METAR LFPO 281700Z AUTO 34004KT CAVOK 06/04 Q0995 NOSIG",
      "taf": "TAF LFPO 281100Z 2812/2918 VRB03KT CAVOK"
    },
    {
      "icao": "LFSB",
      "alert": "OK",
      "vis_m": 9999,
      "fzfg": false,
      "metar_trigger": false,
      "taf_trigger": false,
      "metar": "METAR LFSB 281700Z AUTO 27003KT 9999 -RA BKN014 BKN019 OVC024 03/03 Q0992 TEMPO 4000 -RA",
      "taf": "TAF LFSB 281100Z 2812/2912 32004KT 9999 SCT012 BKN020"
    },
    {
      "icao": "LGAV",
      "alert": "OK",
      "vis_m": 9999,
      "fzfg": false,
      "metar_trigger": false,
      "taf_trigger": false,
      "metar": "METAR LGAV 281650Z 21008KT 9999 FEW025 14/08 Q1008 NOSIG",
      "taf": "TAF LGAV 281700Z 2818/2918 22010KT 9999 FEW018 SCT070"
    },
    {
      "icao": "LGTS",
      "alert": "OK",
      "vis_m": 9999,
      "fzfg": false,
      "metar_trigger": false,
      "taf_trigger": false,
      "metar": "METAR LGTS 281650Z 15003KT 9999 FEW030 12/05 Q1005 NOSIG",
      "taf": "TAF LGTS 281700Z 2818/2918 34008KT 9999 FEW010 BKN025"
    },
    {
      "icao": "LHBP",
      "alert": "OK",
      "vis_m": 4500,
      "fzfg": false,
      "metar_trigger": false,
      "taf_trigger": false,
      "metar": "METAR LHBP 281700Z 07006KT 4500 -RA BR BKN004 OVC036 03/02 Q0997 NOSIG",
      "taf": ""
    },
    {
      "icao": "LHDC",
      "alert": "OK",
      "vis_m": 9999,
      "fzfg": false,
      "metar_trigger": false,
      "taf_trigger": false,
      "metar": "METAR LHDC 281645Z AUTO 07009KT CAVOK 04/03 Q0998 NOSIG",
      "taf": "TAF LHDC 281415Z 2815/2824 13006KT 9999 BKN045 OVC080"
    },
    {
      "icao": "LIBD",
      "alert": "OK",
      "vis_m": 9999,
      "fzfg": false,
      "metar_trigger": false,
      "taf_trigger": false,
      "metar": "METAR LIBD 281650Z 22015KT CAVOK 13/05 Q0996",
      "taf": "TAF LIBD 281100Z 2812/2912 17016KT 9999 SCT040"
    },
    {
      "icao": "LIBG",
      "alert": "OK",
      "vis_m": 9999,
      "fzfg": false,
      "metar_trigger": false,
      "taf_trigger": false,
      "metar": "METAR LIBG 281650Z 19005KT CAVOK 13/10 Q0998",
      "taf": "TAF LIBG 281400Z 2815/2824 21012KT 9999 FEW020"
    },
    {
      "icao": "LIBP",
      "alert": "OK",
      "vis_m": 9999,
      "fzfg": false,
      "metar_trigger": false,
      "taf_trigger": false,
      "metar": "METAR LIBP 281650Z AUTO 23021G34KT 9999 NCD 13/03 Q0991",
      "taf": "TAF LIBP 281100Z 2812/2912 23012KT 9999 SCT080"
    },
    {
      "icao": "LIBR",
      "alert": "OK",
      "vis_m": 9999,
      "fzfg": false,
      "metar_trigger": false,
      "taf_trigger": false,
      "metar": "METAR LIBR 281650Z 19008KT CAVOK 13/10 Q0998",
      "taf": "TAF LIBR 281100Z 2812/2912 18016KT 9999 SCT030"
    },
    {
      "icao": "LICA",
      "alert": "OK",
      "vis_m": 9999,
      "fzfg": false,
      "metar_trigger": false,
      "taf_trigger": false,
      "metar": "METAR LICA 281650Z AUTO 27016KT 9999 FEW036/// SCT077/// BKN180/// 15/10 Q1003",
      "taf": "TAF LICA 281100Z 2812/2912 27016KT 9999 SCT040"
    },
    {
      "icao": "LICC",
      "alert": "OK",
      "vis_m": 9999,
      "fzfg": false,
      "metar_trigger": false,
      "taf_trigger": false,
      "metar": "METAR LICC 281650Z 25015KT 9999 SCT120 16/12 Q1002",
      "taf": "TAF LICC 281100Z 2812/2912 25012KT 9999 SCT030"
    },
    {
      "icao": "LICJ",
      "alert": "OK",
      "vis_m": 9999,
      "fzfg": false,
      "metar_trigger": false,
      "taf_trigger": false,
      "metar": "METAR LICJ 281650Z 21017KT 9999 FEW065 14/08 Q1001",
      "taf": "TAF LICJ 281100Z 2812/2912 23022G32KT 9999 SCT040"
    },
    {
      "icao": "LIMC",
      "alert": "OK",
      "vis_m": 7000,
      "fzfg": false,
      "metar_trigger": false,
      "taf_trigger": false,
      "metar": "METAR LIMC 281650Z 32004KT 7000 FEW006 OVC020 05/05 Q0990 NOSIG",
      "taf": "TAF LIMC 281100Z 2812/2918 36010KT 3000 RA BKN014"
    },
    {
      "icao": "LIME",
      "alert": "OK",
      "vis_m": 6000,
      "fzfg": false,
      "metar_trigger": false,
      "taf_trigger": false,
      "metar": "METAR LIME 281650Z 22005KT 6000 -RA SCT010 BKN022 06/05 Q0990 NOSIG",
      "taf": "TAF LIME 281100Z 2812/2912 VRB04KT 3000 RA BKN014"
    },
    {
      "icao": "LIMF",
      "alert": "OK",
      "vis_m": 8000,
      "fzfg": false,
      "metar_trigger": false,
      "taf_trigger": false,
      "metar": "METAR LIMF 281650Z 10003KT 8000 SCT020 BKN050 05/03 Q0990",
      "taf": "TAF LIMF 281100Z 2812/2912 VRB04KT 7000 FEW040"
    },
    {
      "icao": "LIMJ",
      "alert": "OK",
      "vis_m": 9999,
      "fzfg": false,
      "metar_trigger": false,
      "taf_trigger": false,
      "metar": "METAR LIMJ 281650Z 04006KT 9999 SCT035 BKN042 08/04 Q0991",
      "taf": "TAF LIMJ 281100Z 2812/2912 04015KT 4000 RA BKN014"
    },
    {
      "icao": "LIPE",
      "alert": "OK",
      "vis_m": 3000,
      "fzfg": false,
      "metar_trigger": false,
      "taf_trigger": false,
      "metar": "METAR LIPE 281650Z 27009KT 3000 RA BR BKN005 07/07 Q0990 REDZ",
      "taf": ""
    },
    {
      "icao": "LIPH",
      "alert": "OK",
      "vis_m": 9999,
      "fzfg": false,
      "metar_trigger": false,
      "taf_trigger": false,
      "metar": "METAR LIPH 281650Z 05006KT 9999 SCT005 BKN010 09/09 Q0989",
      "taf": ""
    },
    {
      "icao": "LIPQ",
      "alert": "OK",
      "vis_m": 9000,
      "fzfg": false,
      "metar_trigger": false,
      "taf_trigger": false,
      "metar": "METAR LIPQ 281650Z AUTO 13007KT 9000 RA OVC011/// 11/10 Q0989",
      "taf": "TAF LIPQ 281100Z 2812/2912 12010KT 6000 RA OVC012"
    },
    {
      "icao": "LIPR",
      "alert": "OK",
      "vis_m": 9999,
      "fzfg": false,
      "metar_trigger": false,
      "taf_trigger": false,
      "metar": "METAR LIPR 281650Z AUTO 25005KT 9999 BKN100/// 10/07 Q0989",
      "taf": "TAF LIPR 281100Z 2812/2912 14010KT 8000 SCT040"
    },
    {
      "icao": "LIPX",
      "alert": "OK",
      "vis_m": 9000,
      "fzfg": false,
      "metar_trigger": false,
      "taf_trigger": false,
      "metar": "METAR LIPX 281650Z VRB02KT 9000 -RA OVC025 07/06 Q0990",
      "taf": ""
    },
    {
      "icao": "LIPY",
      "alert": "OK",
      "vis_m": 9999,
      "fzfg": false,
      "metar_trigger": false,
      "taf_trigger": false,
      "metar": "METAR LIPY 281650Z AUTO 23010KT 9999 BKN069/// OVC110/// 11/05 Q0990",
      "taf": "TAF LIPY 281100Z 2812/2912 14010KT 9999 FEW040 BKN070"
    },
    {
      "icao": "LIPZ",
      "alert": "OK",
      "vis_m": 8000,
      "fzfg": false,
      "metar_trigger": false,
      "taf_trigger": false,
      "metar": "METAR LIPZ 281650Z 23003KT 8000 -RA BKN015 08/08 Q0989 NOSIG",
      "taf": ""
    },
    {
      "icao": "LIRF",
      "alert": "OK",
      "vis_m": 9000,
      "fzfg": false,
      "metar_trigger": false,
      "taf_trigger": false,
      "metar": "METAR LIRF 281650Z 25019KT 9000 BKN035 13/07 Q0995 NOSIG",
      "taf": "TAF LIRF 281100Z 2812/2918 24021G33KT 9999 SCT030"
    },
    {
      "icao": "LIRN",
      "alert": "OK",
      "vis_m": 9999,
      "fzfg": false,
      "metar_trigger": false,
      "taf_trigger": false,
      "metar": "METAR LIRN 281650Z 22012KT 9999 -RA BKN035 13/08 Q0997 NOSIG",
      "taf": "TAF LIRN 281100Z 2812/2912 23018G30KT 9999 SCT030"
    },
    {
      "icao": "LIRP",
      "alert": "OK",
      "vis_m": 9999,
      "fzfg": false,
      "metar_trigger": false,
      "taf_trigger": false,
      "metar": "METAR LIRP 281645Z 22011KT 9999 -RA SCT020 SCT025 10/09 Q0992 NOSIG",
      "taf": "TAF LIRP 281100Z 2812/2912 26010KT 9999 SCT020 SCT040"
    },
    {
      "icao": "LIRZ",
      "alert": "OK",
      "vis_m": 9999,
      "fzfg": false,
      "metar_trigger": false,
      "taf_trigger": false,
      "metar": "METAR LIRZ 281650Z AUTO 15010KT 9999 -RA SCT017/// BKN028/// BKN078/// 07/06 Q0993",
      "taf": "TAF LIRZ 281100Z 2812/2912 20016KT 7000 BKN025"
    },
    {
      "icao": "LJLJ",
      "alert": "OK",
      "vis_m": 6000,
      "fzfg": false,
      "metar_trigger": false,
      "taf_trigger": false,
      "metar": "METAR LJLJ 281700Z 29004KT 280V350 6000 -RA FEW002 SCT010 BKN030 05/04 Q0991 NOSIG",
      "taf": "TAF LJLJ 281700Z 2818/2918 29005KT 7000 -RA FEW002 SCT015 OVC030"
    },
    {
      "icao": "LKMT",
      "alert": "OK",
      "vis_m": 3500,
      "fzfg": false,
      "metar_trigger": false,
      "taf_trigger": false,
      "metar": "METAR LKMT 281700Z 02007KT 3500 BR OVC016 01/00 Q0997 NOSIG",
      "taf": ""
    },
    {
      "icao": "LKPR",
      "alert": "OK",
      "vis_m": 7000,
      "fzfg": false,
      "metar_trigger": false,
      "taf_trigger": false,
      "metar": "METAR LKPR 281700Z 07009KT 7000 SCT011 OVC015 00/M01 Q0995 NOSIG",
      "taf": "TAF LKPR 281400Z 2815/2921 06008KT 6000 BKN008"
    },
    {
      "icao": "LLBG",
      "alert": "OK",
      "vis_m": 9999,
      "fzfg": false,
      "metar_trigger": false,
      "taf_trigger": false,
      "metar": "METAR LLBG 281650Z VRB03KT 9999 SCT025 SCT030 14/11 Q1017 TEMPO 7000 RA FEW025TCU BKN030",
      "taf": "TAF LLBG 281108Z 2812/2912 22017KT 8000 SCT035"
    },
    {
      "icao": "LMML",
      "alert": "OK",
      "vis_m": 9999,
      "fzfg": false,
      "metar_trigger": false,
      "taf_trigger": false,
      "metar": "METAR LMML 281715Z 23010KT CAVOK 15/12 Q1005 NOSIG",
      "taf": "TAF LMML 281700Z 2818/2918 24012KT 9999 FEW028"
    },
    {
      "icao": "LOWW",
      "alert": "OK",
      "vis_m": 4000,
      "fzfg": false,
      "metar_trigger": false,
      "taf_trigger": false,
      "metar": "METAR LOWW 281650Z VRB02KT 4000 BR SCT003 OVC004 01/01 Q0993 TEMPO 2000 BR",
      "taf": "TAF LOWW 281715Z 2818/2924 14007KT 3000 BR OVC003 TX02/2901Z TN00/2924Z"
    },
    {
      "icao": "LPFR",
      "alert": "OK",
      "vis_m": 2500,
      "fzfg": false,
      "metar_trigger": false,
      "taf_trigger": false,
      "metar": "METAR LPFR 281700Z 26015KT 2500 -RA BR SCT012 BKN030 14/14 Q1009",
      "taf": "TAF LPFR 281700Z 2818/2918 26015KT 8000 SCT012 BKN030"
    },
    {
      "icao": "LPMA",
      "alert": "OK",
      "vis_m": 9999,
      "fzfg": false,
      "metar_trigger": false,
      "taf_trigger": false,
      "metar": "METAR LPMA 281700Z 06004KT 020V100 9999 FEW014 20/14 Q1018",
      "taf": "TAF LPMA 281700Z 2818/2918 VRB05KT 9999 SCT015"
    },
    {
      "icao": "LPPR",
      "alert": "OK",
      "vis_m": 8000,
      "fzfg": false,
      "metar_trigger": false,
      "taf_trigger": false,
      "metar": "METAR LPPR 281700Z 22009KT 8000 VCSH FEW015 FEW020TCU SCT025 13/10 Q1002",
      "taf": "TAF LPPR 281700Z 2818/2918 22010KT 9999 SCT025"
    },
    {
      "icao": "LPPS",
      "alert": "OK",
      "vis_m": 9999,
      "fzfg": false,
      "metar_trigger": false,
      "taf_trigger": false,
      "metar": "METAR LPPS 281700Z 28014KT 9999 FEW013 SCT030 18/15 Q1018",
      "taf": "TAF LPPS 281700Z 2818/2924 27015KT 9999 SCT012 SCT030"
    },
    {
      "icao": "LPPT",
      "alert": "OK",
      "vis_m": 9999,
      "fzfg": false,
      "metar_trigger": false,
      "taf_trigger": false,
      "metar": "METAR LPPT 281700Z 23013KT 9999 FEW012 SCT015 15/12 Q1006",
      "taf": "TAF LPPT 281700Z 2818/2924 23012KT 9999 BKN016"
    },
    {
      "icao": "LQBK",
      "alert": "OK",
      "vis_m": 9999,
      "fzfg": false,
      "metar_trigger": false,
      "taf_trigger": false,
      "metar": "METAR LQBK 281700Z 29004KT 9999 RA FEW040 BKN047 07/06 Q0992 NOSIG",
      "taf": ""
    },
    {
      "icao": "LQSA",
      "alert": "OK",
      "vis_m": 9999,
      "fzfg": false,
      "metar_trigger": false,
      "taf_trigger": false,
      "metar": "METAR LQSA 281700Z 17013KT 9999 SCT055 09/03 Q0993 TEMPO 15015G25KT",
      "taf": "TAF LQSA 281700Z 2818/2918 15012KT 9999 SCT050 TX10/2914Z TN03/2905Z"
    },
    {
      "icao": "LQTZ",
      "alert": "OK",
      "vis_m": 9999,
      "fzfg": false,
      "metar_trigger": false,
      "taf_trigger": false,
      "metar": "METAR LQTZ 281700Z 10007KT 9999 BKN065 10/04 Q0992",
      "taf": "TAF LQTZ 281700Z 2818/2918 10006KT 9999 SCT060 TX11/2913Z TN03/2905Z"
    },
    {
      "icao": "LRBC",
      "alert": "OK",
      "vis_m": 700,
      "fzfg": false,
      "metar_trigger": false,
      "taf_trigger": false,
      "metar": "METAR LRBC 281700Z 08003KT 0700 R16/0800N FG VV002 01/01 Q1000",
      "taf": "TAF LRBC 281400Z 2815/2824 17008KT 0200 FG VV001"
    },
    {
      "icao": "LRBS",
      "alert": "OK",
      "vis_m": 8000,
      "fzfg": false,
      "metar_trigger": false,
      "taf_trigger": false,
      "metar": "METAR LRBS 281700Z 00000KT 8000 NSC 06/05 Q1002 NOSIG",
      "taf": "TAF LRBS 281100Z 2812/2912 24008KT 9999 SCT020"
    },
    {
      "icao": "LRBV",
      "alert": "OK",
      "vis_m": 9999,
      "fzfg": false,
      "metar_trigger": false,
      "taf_trigger": false,
      "metar": "METAR LRBV 281700Z 12004KT 090V150 CAVOK 04/02 Q0999",
      "taf": "TAF LRBV 281400Z 2815/2824 11007KT CAVOK"
    },
    {
      "icao": "LRCL",
      "alert": "OK",
      "vis_m": 7000,
      "fzfg": false,
      "metar_trigger": false,
      "taf_trigger": false,
      "metar": "METAR LRCL 281700Z AUTO 05002KT 7000 FEW004 BKN050 01/01 Q0999",
      "taf": "TAF LRCL 281400Z 2815/2824 08005KT 9999 OVC005"
    },
    {
      "icao": "LRCV",
      "alert": "OK",
      "vis_m": 350,
      "fzfg": false,
      "metar_trigger": false,
      "taf_trigger": false,
      "metar": "METAR LRCV 281700Z 09005KT 0350 R26/0400N FG BKN001 03/03 Q1001",
      "taf": ""
    },
    {
      "icao": "LRIA",
      "alert": "OK",
      "vis_m": 200,
      "fzfg": false,
      "metar_trigger": false,
      "taf_trigger": false,
      "metar": "METAR LRIA 281700Z 09005KT 0200 R14/0600N FG VV001 02/01 Q1001",
      "taf": ""
    },
    {
      "icao": "LROP",
      "alert": "OK",
      "vis_m": 5000,
      "fzfg": false,
      "metar_trigger": false,
      "taf_trigger": false,
      "metar": "METAR LROP 281700Z 30001KT 5000 MIFG NSC 04/04 Q1002 BECMG 3000 BR",
      "taf": "TAF LROP 281100Z 2812/2912 24008KT 9999 SCT020"
    },
    {
      "icao": "LRSB",
      "alert": "OK",
      "vis_m": 5000,
      "fzfg": false,
      "metar_trigger": false,
      "taf_trigger": false,
      "metar": "METAR LRSB 281700Z 27004KT 5000 BR NSC 03/03 Q0999",
      "taf": "TAF LRSB 281100Z 2812/2912 VRB04KT 9999 SCT005"
    },
    {
      "icao": "LRSM",
      "alert": "OK",
      "vis_m": 9999,
      "fzfg": false,
      "metar_trigger": false,
      "taf_trigger": false,
      "metar": "METAR LRSM 281700Z 29003KT 9999 -RA BKN045 04/02 Q0999",
      "taf": "TAF LRSM 281400Z 2815/2824 11005KT 9999 BKN040"
    },
    {
      "icao": "LRSV",
      "alert": "OK",
      "vis_m": 200,
      "fzfg": true,
      "metar_trigger": false,
      "taf_trigger": false,
      "metar": "METAR LRSV 281700Z 14003KT 0200 R34/0400N FZFG VV001 M00/M00 Q0999",
      "taf": "TAF LRSV 281400Z 2815/2824 VRB04KT 0100 FG VV001"
    },
    {
      "icao": "LRTM",
      "alert": "OK",
      "vis_m": 350,
      "fzfg": false,
      "metar_trigger": false,
      "taf_trigger": false,
      "metar": "METAR LRTM 281700Z 22003KT 0350 R07/0600N FG BKN001 OVC004 01/01 Q0999",
      "taf": "TAF LRTM 281400Z 2815/2824 VRB04KT 0300 FG BKN001 OVC005"
    },
    {
      "icao": "LRTR",
      "alert": "OK",
      "vis_m": 9999,
      "fzfg": false,
      "metar_trigger": false,
      "taf_trigger": false,
      "metar": "METAR LRTR 281700Z 10005KT CAVOK 07/04 Q0997 NOSIG",
      "taf": "TAF LRTR 281100Z 2812/2912 11010KT CAVOK"
    },
    {
      "icao": "LTAC",
      "alert": "OK",
      "vis_m": 9999,
      "fzfg": false,
      "metar_trigger": false,
      "taf_trigger": false,
      "metar": "METAR LTAC 281650Z VRB02KT 9999 SCT030 BKN080 05/03 Q1010 NOSIG RMK RWY21C 00000KT RWY03L 00000KT RWY21R VRB01KT RWY03R 00000KT RWY21L 00000KT",
      "taf": "TAF LTAC 281640Z 2818/2918 VRB02KT 9999 SCT040 BKN100"
    },
    {
      "icao": "LTFM",
      "alert": "OK",
      "vis_m": 9999,
      "fzfg": false,
      "metar_trigger": false,
      "taf_trigger": false,
      "metar": "METAR LTFM 281650Z 20009KT 9999 FEW038 11/08 Q1007 NOSIG RMK RWY17L 18009KT 140V220 RWY34L 20010KT RWY16R 22008KT RWY36 20008KT RWY18 21012KT",
      "taf": "TAF LTFM 281640Z 2818/2924 21014KT CAVOK"
    },
    {
      "icao": "LUKK",
      "alert": "OK",
      "vis_m": 1500,
      "fzfg": false,
      "metar_trigger": false,
      "taf_trigger": false,
      "metar": "METAR LUKK 281700Z 17007KT 1500 0600SW R08/0700N -DZ BR PRFG OVC002 02/02 Q1002 NOSIG",
      "taf": ""
    },
    {
      "icao": "LWOH",
      "alert": "OK",
      "vis_m": null,
      "fzfg": false,
      "metar_trigger": false,
      "taf_trigger": false,
      "metar": "",
      "taf": "TAF LWOH 281445Z 2815/2915 VRB03KT 9999 -RA BKN040"
    },
    {
      "icao": "LWSK",
      "alert": "OK",
      "vis_m": null,
      "fzfg": false,
      "metar_trigger": false,
      "taf_trigger": false,
      "metar": "",
      "taf": ""
    },
    {
      "icao": "LYBE",
      "alert": "OK",
      "vis_m": 9999,
      "fzfg": false,
      "metar_trigger": false,
      "taf_trigger": false,
      "metar": "METAR LYBE 281700Z 13013KT CAVOK 10/03 Q0995 NOSIG",
      "taf": "TAF LYBE 281100Z 2812/2912 12012KT CAVOK TX14/2912Z TN06/2906Z"
    },
    {
      "icao": "LYNI",
      "alert": "OK",
      "vis_m": 9999,
      "fzfg": false,
      "metar_trigger": false,
      "taf_trigger": false,
      "metar": "METAR LYNI 281700Z 17004KT 140V200 9999 FEW060 08/00 Q1000 NOSIG",
      "taf": "TAF LYNI 281100Z 2812/2912 13007KT CAVOK TX12/2813Z TN05/2906Z"
    },
    {
      "icao": "LYPG",
      "alert": "OK",
      "vis_m": 2500,
      "fzfg": false,
      "metar_trigger": false,
      "taf_trigger": false,
      "metar": "METAR LYPG 281700Z 17003KT 120V210 2500 1200S R18/P2000N R36/2000D RA BR FEW010 BKN040 OVC070 08/08 Q0998 NOSIG",
      "taf": "TAF LYPG 281100Z 2812/2912 16006KT 9999 FEW010 BKN040 OVC070 TX10/2813Z TN05/2905Z"
    },
    {
      "icao": "LZIB",
      "alert": "OK",
      "vis_m": 9999,
      "fzfg": false,
      "metar_trigger": false,
      "taf_trigger": false,
      "metar": "METAR LZIB 281700Z 04011KT 9999 FEW010 SCT020 BKN034 03/01 Q0994 TEMPO BKN010",
      "taf": "TAF LZIB 281715Z 2818/2918 06009KT 9999 BKN014 OVC030"
    },
    {
      "icao": "LZKZ",
      "alert": "OK",
      "vis_m": 6000,
      "fzfg": false,
      "metar_trigger": false,
      "taf_trigger": false,
      "metar": "METAR LZKZ 281700Z 26002KT 6000 OVC009 00/00 Q0998 NOSIG",
      "taf": "TAF LZKZ 281715Z 2818/2918 VRB02KT 5000 BR BKN009 OVC014"
    },
    {
      "icao": "LZTT",
      "alert": "OK",
      "vis_m": 9999,
      "fzfg": false,
      "metar_trigger": false,
      "taf_trigger": false,
      "metar": "METAR LZTT 281700Z VRB02KT 9999 FEW011 BKN020 01/M01 Q0995 BECMG 2500 -SN BKN014",
      "taf": "TAF LZTT 281715Z 2818/2918 07005KT 9999 SCT009 BKN025"
    },
    {
      "icao": "OEJN",
      "alert": "OK",
      "vis_m": 9999,
      "fzfg": false,
      "metar_trigger": false,
      "taf_trigger": false,
      "metar": "METAR OEJN 281700Z 35012KT CAVOK 25/15 Q1016 NOSIG",
      "taf": "TAF OEJN 281700Z 2818/2924 04005KT 7000 SCT040"
    },
    {
      "icao": "OEMA",
      "alert": "OK",
      "vis_m": 9999,
      "fzfg": false,
      "metar_trigger": false,
      "taf_trigger": false,
      "metar": "METAR OEMA 281700Z 23007KT CAVOK 24/M06 Q1018 NOSIG",
      "taf": "TAF OEMA 281700Z 2818/2924 30004KT 7000 NSC"
    },
    {
      "icao": "OJAI",
      "alert": "OK",
      "vis_m": 4000,
      "fzfg": false,
      "metar_trigger": false,
      "taf_trigger": false,
      "metar": "METAR OJAI 281700Z 26010KT 4000 HZ SCT030 09/05 Q1018 NOSIG",
      "taf": "TAF OJAI 281700Z 2818/2924 24014KT 3000 BR SCT025TCU BKN030"
    },
    {
      "icao": "OMAA",
      "alert": "OK",
      "vis_m": 9999,
      "fzfg": false,
      "metar_trigger": false,
      "taf_trigger": false,
      "metar": "METAR OMAA 281700Z 05006KT 360V070 CAVOK 20/14 Q1019 NOSIG",
      "taf": "TAF OMAA 281700Z 2818/3000 07005KT 8000 NSC"
    },
    {
      "icao": "OMDB",
      "alert": "OK",
      "vis_m": 9999,
      "fzfg": false,
      "metar_trigger": false,
      "taf_trigger": false,
      "metar": "METAR OMDB 281700Z 05009KT CAVOK 22/14 Q1019 NOSIG",
      "taf": "TAF OMDB 281700Z 2818/3000 08005KT 8000 NSC"
    },
    {
      "icao": "UAAA",
      "alert": "OK",
      "vis_m": 150,
      "fzfg": true,
      "metar_trigger": false,
      "taf_trigger": false,
      "metar": "METAR UAAA 281700Z VRB01MPS 0150 R23L/0550N FZFG VV002 M02/M02 Q1025 NOSIG RMK QBB060",
      "taf": ""
    },
    {
      "icao": "UBBB",
      "alert": "OK",
      "vis_m": 9999,
      "fzfg": false,
      "metar_trigger": false,
      "taf_trigger": false,
      "metar": "METAR UBBB 281700Z 16008KT 9999 OVC023 07/05 Q1017 NOSIG",
      "taf": "TAF UBBB 281701Z 2818/2918 15005KT 9999 SCT012 BKN025 TX09/2910Z TN04/2901Z"
    },
    {
      "icao": "UDSG",
      "alert": "OK",
      "vis_m": 3100,
      "fzfg": false,
      "metar_trigger": false,
      "taf_trigger": false,
      "metar": "METAR UDSG 281700Z 17003KT 3100 BR SCT040 M13/M14 Q1015 NOSIG",
      "taf": "TAF UDSG 281058Z 2812/2912 VRB06KT 3000 BR SCT020"
    },
    {
      "icao": "UDYZ",
      "alert": "OK",
      "vis_m": 3800,
      "fzfg": false,
      "metar_trigger": false,
      "taf_trigger": false,
      "metar": "METAR UDYZ 281700Z 20003KT 160V230 3800 BR BKN011 M04/M06 Q1018 NOSIG",
      "taf": "TAF UDYZ 281100Z 2812/2912 VRB04KT 3500 BR BKN010"
    },
    {
      "icao": "UGKO",
      "alert": "OK",
      "vis_m": 9999,
      "fzfg": false,
      "metar_trigger": false,
      "taf_trigger": false,
      "metar": "METAR UGKO 281700Z 10012KT CAVOK 10/M01 Q1009 NOSIG",
      "taf": "TAF UGKO 281700Z 2818/2918 09006KT CAVOK TX16/2911Z TN03/2905Z"
    }
  ]
}