{
  "ts_utc": "2026-04-02T10:37:54Z",
  "threshold_m": 150,
  "source": "stations_override.txt (ICAO list) + aviationweather.gov (METAR/TAF raw)",
  "station_count": 159,
  "stations": [
    {
      "icao": "BIKF",
      "alert": "OK",
      "vis_m": 3000,
      "fzfg": false,
      "metar_trigger": false,
      "taf_trigger": false,
      "metar": "METAR BIKF 021030Z 28007KT 3000 -SN BKN013 OVC022 00/M01 Q0995",
      "taf": "TAF BIKF 020733Z 0209/0309 19010KT 1500 -SN BR BKN004 OVC007 TX02/0215Z TNM03/0306Z"
    },
    {
      "icao": "BKPR",
      "alert": "OK",
      "vis_m": 8000,
      "fzfg": false,
      "metar_trigger": false,
      "taf_trigger": false,
      "metar": "METAR BKPR 021030Z 01019KT 8000 -RA SCT012 BKN025 07/06 Q0998 NOSIG",
      "taf": "TAF BKPR 020530Z 0206/0306 01018KT 9999 SCT015 BKN030"
    },
    {
      "icao": "EBCI",
      "alert": "OK",
      "vis_m": 5000,
      "fzfg": false,
      "metar_trigger": false,
      "taf_trigger": false,
      "metar": "METAR EBCI 021020Z 25006KT 5000 BR SCT007 SCT010 BKN035 09/06 Q1018 TEMPO 3500 -RADZ BR BKN004",
      "taf": "TAF EBCI 020503Z 0206/0312 26005KT 8000 SCT007 BKN025 BKN040"
    },
    {
      "icao": "EDDB",
      "alert": "OK",
      "vis_m": 9999,
      "fzfg": true,
      "metar_trigger": false,
      "taf_trigger": false,
      "metar": "METAR EDDB 021020Z AUTO 26008KT 190V290 9999 FEW034 11/02 Q1017 NOSIG",
      "taf": "TAF EDDB 020500Z 0206/0306 23004KT 0300 FZFG BKN001"
    },
    {
      "icao": "EDDH",
      "alert": "OK",
      "vis_m": 9999,
      "fzfg": false,
      "metar_trigger": false,
      "taf_trigger": false,
      "metar": "METAR EDDH 021020Z AUTO 25009KT 200V300 9999 SCT043 12/02 Q1015 NOSIG",
      "taf": "TAF EDDH 020500Z 0206/0312 18004KT CAVOK"
    },
    {
      "icao": "EDDK",
      "alert": "OK",
      "vis_m": 9999,
      "fzfg": false,
      "metar_trigger": false,
      "taf_trigger": false,
      "metar": "METAR EDDK 021020Z AUTO 28005KT 220V360 9999 SCT033 BKN040 12/04 Q1017 NOSIG",
      "taf": "TAF EDDK 020500Z 0206/0312 12004KT CAVOK"
    },
    {
      "icao": "EDDN",
      "alert": "OK",
      "vis_m": 9999,
      "fzfg": false,
      "metar_trigger": false,
      "taf_trigger": false,
      "metar": "METAR EDDN 021020Z AUTO 32005KT 290V050 CAVOK 09/00 Q1016 NOSIG",
      "taf": "TAF EDDN 020500Z 0206/0306 VRB02KT CAVOK"
    },
    {
      "icao": "EDDS",
      "alert": "OK",
      "vis_m": 9999,
      "fzfg": false,
      "metar_trigger": false,
      "taf_trigger": false,
      "metar": "METAR EDDS 021020Z AUTO 04003KT CAVOK 09/01 Q1016 NOSIG",
      "taf": "TAF EDDS 020500Z 0206/0306 VRB01KT CAVOK"
    },
    {
      "icao": "EDFH",
      "alert": "OK",
      "vis_m": 9999,
      "fzfg": false,
      "metar_trigger": false,
      "taf_trigger": false,
      "metar": "METAR EDFH 021020Z 27007KT 240V300 CAVOK 08/M01 Q1017",
      "taf": "TAF EDFH 020500Z 0206/0306 17004KT CAVOK"
    },
    {
      "icao": "EDJA",
      "alert": "OK",
      "vis_m": 9999,
      "fzfg": false,
      "metar_trigger": false,
      "taf_trigger": false,
      "metar": "METAR EDJA 021020Z 01008KT CAVOK 07/01 Q1015",
      "taf": "TAF EDJA 020800Z 0209/0218 05005KT 9999 FEW030"
    },
    {
      "icao": "EDLW",
      "alert": "OK",
      "vis_m": 9999,
      "fzfg": false,
      "metar_trigger": false,
      "taf_trigger": false,
      "metar": "METAR EDLW 021020Z 23008KT 210V280 9999 FEW035 12/04 Q1016",
      "taf": "TAF EDLW 020500Z 0206/0306 18008KT CAVOK"
    },
    {
      "icao": "EDNY",
      "alert": "OK",
      "vis_m": 9999,
      "fzfg": false,
      "metar_trigger": false,
      "taf_trigger": false,
      "metar": "METAR EDNY 021020Z 22007KT 190V260 CAVOK 07/02 Q1016",
      "taf": "TAF EDNY 020800Z 0209/0218 04006KT CAVOK"
    },
    {
      "icao": "EDSB",
      "alert": "OK",
      "vis_m": 9999,
      "fzfg": false,
      "metar_trigger": false,
      "taf_trigger": false,
      "metar": "METAR EDSB 021020Z 35006KT 310V030 CAVOK 10/01 Q1018",
      "taf": "TAF EDSB 020500Z 0206/0306 VRB02KT CAVOK"
    },
    {
      "icao": "EETN",
      "alert": "OK",
      "vis_m": 9999,
      "fzfg": false,
      "metar_trigger": false,
      "taf_trigger": false,
      "metar": "METAR EETN 021020Z 22010KT CAVOK 09/02 Q1012 NOSIG",
      "taf": "TAF EETN 020530Z 0206/0306 19010KT 9999 SCT003"
    },
    {
      "icao": "EFTU",
      "alert": "OK",
      "vis_m": 9999,
      "fzfg": false,
      "metar_trigger": false,
      "taf_trigger": false,
      "metar": "METAR EFTU 021020Z AUTO 23008KT 200V260 9999 OVC015 08/04 Q1010",
      "taf": "TAF EFTU 020838Z 0209/0309 22005KT 9999 BKN011"
    },
    {
      "icao": "EGBB",
      "alert": "OK",
      "vis_m": 9999,
      "fzfg": false,
      "metar_trigger": false,
      "taf_trigger": false,
      "metar": "METAR EGBB 021020Z 35004KT 300V040 9999 BKN025 07/01 Q1022",
      "taf": "TAF EGBB 020457Z 0206/0306 33010KT 9999 SCT025"
    },
    {
      "icao": "EGGP",
      "alert": "OK",
      "vis_m": 9999,
      "fzfg": false,
      "metar_trigger": false,
      "taf_trigger": false,
      "metar": "METAR EGGP 021020Z 20003KT 130V270 9999 FEW023 SCT028 08/01 Q1022",
      "taf": "TAF EGGP 020504Z 0206/0306 VRB03KT 9999 FEW015 SCT030"
    },
    {
      "icao": "EGGW",
      "alert": "OK",
      "vis_m": 9999,
      "fzfg": false,
      "metar_trigger": false,
      "taf_trigger": false,
      "metar": "METAR EGGW 021020Z AUTO 01008KT 330V030 9999 BKN020 OVC026 06/02 Q1022",
      "taf": "TAF EGGW 020458Z 0206/0306 33008KT 9999 SCT025"
    },
    {
      "icao": "EGKK",
      "alert": "OK",
      "vis_m": 9999,
      "fzfg": false,
      "metar_trigger": false,
      "taf_trigger": false,
      "metar": "METAR EGKK 021020Z 02008KT 340V060 9999 BKN028 08/01 Q1021",
      "taf": "TAF EGKK 020455Z 0206/0312 34009KT 9999 FEW030"
    },
    {
      "icao": "EGNM",
      "alert": "OK",
      "vis_m": 9999,
      "fzfg": false,
      "metar_trigger": false,
      "taf_trigger": false,
      "metar": "METAR EGNM 021020Z VRB03KT 9999 FEW024 06/M01 Q1021",
      "taf": "TAF EGNM 020503Z 0206/0306 34004KT 9999 FEW015 SCT030"
    },
    {
      "icao": "EGPD",
      "alert": "OK",
      "vis_m": 9999,
      "fzfg": false,
      "metar_trigger": false,
      "taf_trigger": false,
      "metar": "METAR EGPD 021020Z COR AUTO 27004KT 150V320 9999 FEW025 SCT030 07/01 Q1019 NOSIG",
      "taf": "TAF EGPD 020456Z 0206/0306 28007KT 9999 FEW040"
    },
    {
      "icao": "EGPF",
      "alert": "OK",
      "vis_m": 9999,
      "fzfg": false,
      "metar_trigger": false,
      "taf_trigger": false,
      "metar": "METAR EGPF 021020Z AUTO VRB04KT 9999 NCD 07/01 Q1021",
      "taf": "TAF EGPF 020449Z 0206/0306 VRB02KT 9999 FEW040"
    },
    {
      "icao": "EHBK",
      "alert": "OK",
      "vis_m": 9999,
      "fzfg": false,
      "metar_trigger": false,
      "taf_trigger": false,
      "metar": "METAR EHBK 021025Z AUTO 23010KT 200V260 9999 OVC010 09/06 Q1018 TEMPO 7000 -RADZ BKN008",
      "taf": "TAF EHBK 020514Z 0206/0312 20007KT CAVOK"
    },
    {
      "icao": "EHEH",
      "alert": "OK",
      "vis_m": 8000,
      "fzfg": false,
      "metar_trigger": false,
      "taf_trigger": false,
      "metar": "METAR EHEH 021025Z AUTO 26005KT 230V300 8000 BR SCT013 BKN015 BKN019 11/08 Q1017 WHT TEMPO BKN012",
      "taf": "TAF EHEH 020513Z 0206/0312 19004KT 9999 SCT008"
    },
    {
      "icao": "EKBI",
      "alert": "OK",
      "vis_m": 8000,
      "fzfg": false,
      "metar_trigger": false,
      "taf_trigger": false,
      "metar": "METAR EKBI 021020Z AUTO 21009KT 180V240 8000 -DZ OVC008/// 08/07 Q1012",
      "taf": "TAF EKBI 020827Z 0209/0309 20006KT 9999 BKN006"
    },
    {
      "icao": "EKCH",
      "alert": "OK",
      "vis_m": 9999,
      "fzfg": false,
      "metar_trigger": false,
      "taf_trigger": false,
      "metar": "METAR EKCH 021020Z AUTO 19009KT 9999 FEW180/// 09/03 Q1014 NOSIG",
      "taf": "TAF EKCH 020827Z 0209/0309 20008KT 9999 SCT040"
    },
    {
      "icao": "ENAL",
      "alert": "OK",
      "vis_m": 9999,
      "fzfg": false,
      "metar_trigger": false,
      "taf_trigger": false,
      "metar": "METAR ENAL 021020Z 09004KT 030V120 9999 -SNRA SCT006 BKN010 03/00 Q1016",
      "taf": ""
    },
    {
      "icao": "ENBR",
      "alert": "OK",
      "vis_m": 9999,
      "fzfg": false,
      "metar_trigger": false,
      "taf_trigger": false,
      "metar": "METAR ENBR 021020Z 35014KT 9999 FEW040 04/M03 Q1011 RMK WIND 1200FT 35018KT",
      "taf": "TAF ENBR 020500Z 0206/0306 34012KT CAVOK"
    },
    {
      "icao": "ENGM",
      "alert": "OK",
      "vis_m": 9999,
      "fzfg": false,
      "metar_trigger": false,
      "taf_trigger": false,
      "metar": "METAR ENGM 021020Z 01018KT 9999 -RADZ SCT013 BKN031 03/01 Q1009 TEMPO 4000 -SNRA",
      "taf": ""
    },
    {
      "icao": "ENHD",
      "alert": "OK",
      "vis_m": 9999,
      "fzfg": false,
      "metar_trigger": false,
      "taf_trigger": false,
      "metar": "METAR ENHD 021020Z 34027KT CAVOK 05/M01 Q1010",
      "taf": "TAF ENHD 020800Z 0209/0218 35030KT 9999 FEW020 SCT040"
    },
    {
      "icao": "ENTC",
      "alert": "OK",
      "vis_m": 9999,
      "fzfg": false,
      "metar_trigger": false,
      "taf_trigger": false,
      "metar": "METAR ENTC 021020Z 21030G41KT 9999 -SHRA BKN037 03/M01 Q0996 TEMPO 21028KT 3000 -SHSNRA BKN012 SCT020CB RMK WIND 2600FT 20034KT",
      "taf": ""
    },
    {
      "icao": "ENTO",
      "alert": "OK",
      "vis_m": 2000,
      "fzfg": false,
      "metar_trigger": false,
      "taf_trigger": false,
      "metar": "METAR ENTO 021020Z 20009KT 2000 -RA BR BKN001 OVC003 06/06 Q1008 TEMPO 4000 BKN004",
      "taf": ""
    },
    {
      "icao": "ENVA",
      "alert": "OK",
      "vis_m": 9999,
      "fzfg": false,
      "metar_trigger": false,
      "taf_trigger": false,
      "metar": "METAR ENVA 021020Z 25010KT 230V290 9999 FEW020TCU SCT029 05/M02 Q1014 NOSIG RMK WIND 670FT 25010KT",
      "taf": "TAF ENVA 020500Z 0206/0306 24005KT 8000 -RASN SCT007 BKN016"
    },
    {
      "icao": "ENZV",
      "alert": "OK",
      "vis_m": 9999,
      "fzfg": false,
      "metar_trigger": false,
      "taf_trigger": false,
      "metar": "METAR ENZV 021020Z 33017KT CAVOK 05/M02 Q1010",
      "taf": "TAF ENZV 020500Z 0206/0306 33012KT 9999 BKN020"
    },
    {
      "icao": "EPGD",
      "alert": "OK",
      "vis_m": 9999,
      "fzfg": false,
      "metar_trigger": false,
      "taf_trigger": false,
      "metar": "METAR EPGD 021030Z 24004KT 150V290 CAVOK 10/M04 Q1015",
      "taf": "TAF EPGD 020530Z 0206/0306 VRB04KT CAVOK"
    },
    {
      "icao": "EPKK",
      "alert": "OK",
      "vis_m": 9999,
      "fzfg": false,
      "metar_trigger": false,
      "taf_trigger": false,
      "metar": "METAR EPKK 021030Z VRB02KT 9999 BKN060 10/01 Q1013",
      "taf": "TAF EPKK 020830Z 0209/0309 VRB02KT 9999 BKN044"
    },
    {
      "icao": "EPKT",
      "alert": "OK",
      "vis_m": 9999,
      "fzfg": false,
      "metar_trigger": false,
      "taf_trigger": false,
      "metar": "METAR EPKT 021030Z 36011KT 340V040 CAVOK 10/M02 Q1013",
      "taf": "TAF EPKT 020530Z 0206/0306 02004KT CAVOK"
    },
    {
      "icao": "EPLB",
      "alert": "OK",
      "vis_m": 9999,
      "fzfg": false,
      "metar_trigger": false,
      "taf_trigger": false,
      "metar": "METAR EPLB 021030Z 36007KT CAVOK 14/04 Q1012",
      "taf": "TAF EPLB 020530Z 0206/0306 36006KT 9999 FEW030"
    },
    {
      "icao": "EPMO",
      "alert": "OK",
      "vis_m": 9999,
      "fzfg": false,
      "metar_trigger": false,
      "taf_trigger": false,
      "metar": "METAR EPMO 021030Z 35008KT 310V040 CAVOK 12/M05 Q1014",
      "taf": "TAF EPMO 020530Z 0206/0306 01006KT CAVOK"
    },
    {
      "icao": "EPPO",
      "alert": "OK",
      "vis_m": 9999,
      "fzfg": false,
      "metar_trigger": false,
      "taf_trigger": false,
      "metar": "METAR EPPO 021030Z 25005KT 160V320 CAVOK 12/M03 Q1016",
      "taf": "TAF EPPO 020530Z 0206/0306 34003KT CAVOK"
    },
    {
      "icao": "EPRA",
      "alert": "OK",
      "vis_m": 9999,
      "fzfg": false,
      "metar_trigger": false,
      "taf_trigger": false,
      "metar": "METAR EPRA 021030Z 36006KT 320V020 CAVOK 10/M00 Q1013",
      "taf": "TAF EPRA 020830Z 0209/0218 35008KT CAVOK"
    },
    {
      "icao": "EPRZ",
      "alert": "OK",
      "vis_m": 9999,
      "fzfg": false,
      "metar_trigger": false,
      "taf_trigger": false,
      "metar": "METAR EPRZ 021030Z 35007KT 320V020 CAVOK 13/05 Q1011",
      "taf": "TAF EPRZ 020530Z 0206/0306 32005KT 9999 BKN043"
    },
    {
      "icao": "EPSC",
      "alert": "OK",
      "vis_m": 9999,
      "fzfg": false,
      "metar_trigger": false,
      "taf_trigger": false,
      "metar": "METAR EPSC 021030Z 25007KT 220V280 9999 SCT041 12/02 Q1016",
      "taf": "TAF EPSC 020530Z 0206/0306 VRB02KT CAVOK"
    },
    {
      "icao": "EPSY",
      "alert": "OK",
      "vis_m": 9999,
      "fzfg": false,
      "metar_trigger": false,
      "taf_trigger": false,
      "metar": "METAR EPSY 021030Z 34007KT 280V010 CAVOK 11/M05 Q1015",
      "taf": "TAF EPSY 020830Z 0209/0218 VRB02KT CAVOK"
    },
    {
      "icao": "EPWA",
      "alert": "OK",
      "vis_m": 9999,
      "fzfg": false,
      "metar_trigger": false,
      "taf_trigger": false,
      "metar": "METAR EPWA 021030Z 01006KT 330V070 CAVOK 12/M01 Q1014 NOSIG",
      "taf": "TAF EPWA 020830Z 0209/0309 01008KT CAVOK"
    },
    {
      "icao": "EPWR",
      "alert": "OK",
      "vis_m": 9999,
      "fzfg": false,
      "metar_trigger": false,
      "taf_trigger": false,
      "metar": "METAR EPWR 021030Z 01003KT 250V050 CAVOK 12/M01 Q1015",
      "taf": "TAF EPWR 020830Z 0209/0309 30005KT CAVOK"
    },
    {
      "icao": "ESGG",
      "alert": "OK",
      "vis_m": 7000,
      "fzfg": false,
      "metar_trigger": false,
      "taf_trigger": false,
      "metar": "METAR ESGG 021020Z 20010KT 7000 BKN005 05/04 Q1011",
      "taf": "TAF ESGG 020830Z 0209/0309 18009KT 9999 BKN008"
    },
    {
      "icao": "ESKN",
      "alert": "OK",
      "vis_m": 9999,
      "fzfg": false,
      "metar_trigger": false,
      "taf_trigger": false,
      "metar": "METAR ESKN 021020Z 23005KT CAVOK 10/06 Q1011",
      "taf": "TAF ESKN 020830Z 0209/0309 23008KT CAVOK"
    },
    {
      "icao": "ESMS",
      "alert": "OK",
      "vis_m": 9999,
      "fzfg": false,
      "metar_trigger": false,
      "taf_trigger": false,
      "metar": "METAR ESMS 021020Z 22011KT 9999 FEW044 10/01 Q1014",
      "taf": "TAF ESMS 020827Z 0209/0309 20007KT CAVOK"
    },
    {
      "icao": "ESSA",
      "alert": "OK",
      "vis_m": 9999,
      "fzfg": false,
      "metar_trigger": false,
      "taf_trigger": false,
      "metar": "METAR ESSA 021020Z 25010KT 9999 BKN015 09/05 Q1010 TEMPO BKN015",
      "taf": "TAF ESSA 020830Z 0209/0309 23008KT 9999 BKN012"
    },
    {
      "icao": "EYKA",
      "alert": "OK",
      "vis_m": 9999,
      "fzfg": false,
      "metar_trigger": false,
      "taf_trigger": false,
      "metar": "METAR EYKA 021020Z VRB04KT CAVOK 12/M01 Q1015",
      "taf": "TAF EYKA 020500Z 0206/0306 VRB04KT 9000 NSC"
    },
    {
      "icao": "EYPA",
      "alert": "OK",
      "vis_m": 9999,
      "fzfg": false,
      "metar_trigger": false,
      "taf_trigger": false,
      "metar": "METAR EYPA 021020Z 22004KT 170V300 CAVOK 06/02 Q1016",
      "taf": ""
    },
    {
      "icao": "EYVI",
      "alert": "OK",
      "vis_m": 9999,
      "fzfg": false,
      "metar_trigger": false,
      "taf_trigger": false,
      "metar": "METAR EYVI 021020Z 31006KT 280V040 CAVOK 13/M02 Q1013 NOSIG",
      "taf": "TAF EYVI 020500Z 0206/0306 VRB04KT 9000 NSC"
    },
    {
      "icao": "GCFV",
      "alert": "OK",
      "vis_m": 9999,
      "fzfg": false,
      "metar_trigger": false,
      "taf_trigger": false,
      "metar": "METAR GCFV 021030Z 02013KT CAVOK 22/09 Q1020",
      "taf": "TAF GCFV 020800Z 0209/0309 04013KT CAVOK TX24/0214Z TN16/0306Z"
    },
    {
      "icao": "GCLP",
      "alert": "OK",
      "vis_m": 9999,
      "fzfg": false,
      "metar_trigger": false,
      "taf_trigger": false,
      "metar": "METAR GCLP 021030Z 03017KT 9999 FEW025 21/14 Q1020 NOSIG",
      "taf": "TAF GCLP 020800Z 0209/0309 02018KT CAVOK TX24/0214Z TN17/0306Z"
    },
    {
      "icao": "GCTS",
      "alert": "OK",
      "vis_m": 9999,
      "fzfg": false,
      "metar_trigger": false,
      "taf_trigger": false,
      "metar": "METAR GCTS 021030Z 07020KT CAVOK 23/07 Q1020 NOSIG",
      "taf": "TAF GCTS 020800Z 0209/0309 07018KT CAVOK TX25/0214Z TN16/0306Z"
    },
    {
      "icao": "GMAD",
      "alert": "OK",
      "vis_m": 9999,
      "fzfg": false,
      "metar_trigger": false,
      "taf_trigger": false,
      "metar": "METAR GMAD 021030Z 24004KT 190V300 CAVOK 22/12 Q1016 NOSIG",
      "taf": "TAF GMAD 020500Z 0206/0312 07004KT 6000 SCT010"
    },
    {
      "icao": "GMMN",
      "alert": "OK",
      "vis_m": 9999,
      "fzfg": false,
      "metar_trigger": false,
      "taf_trigger": false,
      "metar": "METAR GMMN 021030Z 05005KT 010V120 9999 FEW008 18/14 Q1020 BECMG CAVOK",
      "taf": "TAF GMMN 020500Z 0206/0312 15004KT 8000 BKN006"
    },
    {
      "icao": "GMMX",
      "alert": "OK",
      "vis_m": 9999,
      "fzfg": false,
      "metar_trigger": false,
      "taf_trigger": false,
      "metar": "METAR GMMX 021030Z VRB03KT CAVOK 21/10 Q1018 NOSIG",
      "taf": "TAF GMMX 020500Z 0206/0312 06006KT CAVOK"
    },
    {
      "icao": "HEGN",
      "alert": "OK",
      "vis_m": 9999,
      "fzfg": false,
      "metar_trigger": false,
      "taf_trigger": false,
      "metar": "METAR HEGN 021000Z 11010KT 9999 SCT020 BKN025 29/15 Q1007 NOSIG",
      "taf": "TAF HEGN 020500Z 0206/0312 16006G16KT 9999 BKN020"
    },
    {
      "icao": "HEMA",
      "alert": "OK",
      "vis_m": 9999,
      "fzfg": false,
      "metar_trigger": false,
      "taf_trigger": false,
      "metar": "METAR HEMA 021000Z 36008KT CAVOK 29/09 Q1008 NOSIG",
      "taf": "TAF HEMA 020500Z 0206/0312 08006G18KT 9999 BKN020"
    },
    {
      "icao": "HESH",
      "alert": "OK",
      "vis_m": 6000,
      "fzfg": false,
      "metar_trigger": false,
      "taf_trigger": false,
      "metar": "METAR HESH 021000Z 36010KT 6000 NSC 31/15 Q1008 NOSIG",
      "taf": "TAF HESH 020500Z 0206/0312 12006G16KT 9999 BKN020"
    },
    {
      "icao": "HESX",
      "alert": "OK",
      "vis_m": 800,
      "fzfg": false,
      "metar_trigger": false,
      "taf_trigger": false,
      "metar": "METAR HESX 021000Z 31008KT 0800 R34/0900 HZ NSC 19/11 Q1010 NOSIG",
      "taf": ""
    },
    {
      "icao": "LATI",
      "alert": "OK",
      "vis_m": 9999,
      "fzfg": false,
      "metar_trigger": false,
      "taf_trigger": false,
      "metar": "METAR LATI 021020Z VRB02KT 9999 -RA FEW020 OVC070 13/09 Q0994 NOSIG",
      "taf": "TAF LATI 020500Z 0206/0306 35010KT 9999 SCT050 BKN070 TX16/0211Z TN06/0304Z"
    },
    {
      "icao": "LBPD",
      "alert": "OK",
      "vis_m": 4000,
      "fzfg": false,
      "metar_trigger": false,
      "taf_trigger": false,
      "metar": "METAR LBPD 021030Z AUTO 15003KT 4000 -RA SCT005/// BKN007/// OVC012/// 09/09 Q0998 NOSIG",
      "taf": "TAF LBPD 020500Z 0206/0306 11010KT 6000 -RA SCT015 BKN020 OVC030"
    },
    {
      "icao": "LBSF",
      "alert": "OK",
      "vis_m": 9999,
      "fzfg": false,
      "metar_trigger": false,
      "taf_trigger": false,
      "metar": "METAR LBSF 021030Z 06009KT 9999 -RA BKN025 BKN037 OVC046 08/04 Q0998 NOSIG",
      "taf": "TAF LBSF 020500Z 0206/0306 09010KT 6000 -RA SCT015 BKN025 OVC040"
    },
    {
      "icao": "LBWN",
      "alert": "OK",
      "vis_m": 9999,
      "fzfg": false,
      "metar_trigger": false,
      "taf_trigger": false,
      "metar": "METAR LBWN 021030Z 06013KT 030V090 9999 FEW014 OVC018 10/10 Q1000 NOSIG",
      "taf": "TAF LBWN 020500Z 0206/0306 05014KT 9999 BKN013 BKN040"
    },
    {
      "icao": "LCLK",
      "alert": "OK",
      "vis_m": 7000,
      "fzfg": false,
      "metar_trigger": false,
      "taf_trigger": false,
      "metar": "METAR LCLK 021030Z 12006KT 7000 SCT020 SCT025 22/18 Q1006 NOSIG",
      "taf": ""
    },
    {
      "icao": "LCPH",
      "alert": "OK",
      "vis_m": 2500,
      "fzfg": false,
      "metar_trigger": false,
      "taf_trigger": false,
      "metar": "METAR LCPH 021030Z 31014KT 2500 DU SCT010 BKN015 BKN050 19/16 Q1007 TEMPO 1200 DU",
      "taf": ""
    },
    {
      "icao": "LEAL",
      "alert": "OK",
      "vis_m": 9999,
      "fzfg": false,
      "metar_trigger": false,
      "taf_trigger": false,
      "metar": "METAR LEAL 021030Z VRB08KT CAVOK 20/02 Q1016 NOSIG",
      "taf": ""
    },
    {
      "icao": "LEBB",
      "alert": "OK",
      "vis_m": 2500,
      "fzfg": false,
      "metar_trigger": false,
      "taf_trigger": false,
      "metar": "METAR LEBB 021030Z 31008KT 2500 -RA SCT011 BKN021 BKN030 11/10 Q1026 RERA TEMPO RA",
      "taf": "TAF LEBB 020500Z 0206/0306 32009KT 9999 FEW020 BKN030 TX13/0214Z TN08/0306Z"
    },
    {
      "icao": "LEBL",
      "alert": "OK",
      "vis_m": 9999,
      "fzfg": false,
      "metar_trigger": false,
      "taf_trigger": false,
      "metar": "METAR LEBL 021030Z 22013KT 9999 SCT036 15/07 Q1013 NOSIG",
      "taf": "TAF LEBL 020500Z 0206/0306 32006KT 9999 FEW020 SCT030 TX21/0213Z TN09/0206Z"
    },
    {
      "icao": "LECH",
      "alert": "OK",
      "vis_m": 9999,
      "fzfg": false,
      "metar_trigger": false,
      "taf_trigger": false,
      "metar": "METAR LECH 021030Z AUTO 35019G30KT 300V030 CAVOK 14/01 Q1015",
      "taf": "TAF LECH 020500Z 0206/0306 34020KT CAVOK TX19/0213Z TN11/0305Z"
    },
    {
      "icao": "LEMD",
      "alert": "OK",
      "vis_m": 9999,
      "fzfg": false,
      "metar_trigger": false,
      "taf_trigger": false,
      "metar": "METAR LEMD 021030Z 36013KT 330V050 CAVOK 13/01 Q1020 NOSIG",
      "taf": ""
    },
    {
      "icao": "LEMG",
      "alert": "OK",
      "vis_m": 9999,
      "fzfg": false,
      "metar_trigger": false,
      "taf_trigger": false,
      "metar": "METAR LEMG 021030Z 29015KT CAVOK 23/M01 Q1017 NOSIG",
      "taf": "TAF LEMG 020500Z 0206/0306 30010KT CAVOK TX24/0213Z TN09/0305Z"
    },
    {
      "icao": "LEVC",
      "alert": "OK",
      "vis_m": 9999,
      "fzfg": false,
      "metar_trigger": false,
      "taf_trigger": false,
      "metar": "METAR LEVC 021030Z 29010KT 260V320 CAVOK 17/02 Q1016 NOSIG",
      "taf": "TAF LEVC 020500Z 0206/0306 31015KT CAVOK TX23/0214Z TN15/0305Z"
    },
    {
      "icao": "LEXJ",
      "alert": "OK",
      "vis_m": 9000,
      "fzfg": false,
      "metar_trigger": false,
      "taf_trigger": false,
      "metar": "METAR LEXJ 021030Z 33008KT 280V030 9000 SCT022 BKN045 13/09 Q1027",
      "taf": "TAF LEXJ 020800Z 0209/0309 32009KT 9999 SCT010 BKN030 TX14/0212Z TN09/0303Z"
    },
    {
      "icao": "LEZG",
      "alert": "OK",
      "vis_m": 9999,
      "fzfg": false,
      "metar_trigger": false,
      "taf_trigger": false,
      "metar": "METAR LEZG 021030Z 31023KT 9999 BKN040 14/04 Q1019 NOSIG",
      "taf": "TAF LEZG 020500Z 0206/0306 29020KT 9999 SCT050 TX17/0214Z TN10/0305Z"
    },
    {
      "icao": "LEZL",
      "alert": "OK",
      "vis_m": 9999,
      "fzfg": false,
      "metar_trigger": false,
      "taf_trigger": false,
      "metar": "METAR LEZL 021030Z 07007KT 030V140 CAVOK 21/04 Q1020 NOSIG",
      "taf": "TAF LEZL 020800Z 0209/0309 05008KT CAVOK TX26/0215Z TN10/0307Z"
    },
    {
      "icao": "LFBD",
      "alert": "OK",
      "vis_m": 9999,
      "fzfg": false,
      "metar_trigger": false,
      "taf_trigger": false,
      "metar": "METAR LFBD 021030Z AUTO 35011KT 310V010 9999 FEW028 OVC062 13/06 Q1022 TEMPO 4000 -SHRA BKN015TCU",
      "taf": "TAF LFBD 020500Z 0206/0312 33005KT CAVOK TX16/0312Z TN07/0305Z"
    },
    {
      "icao": "LFLL",
      "alert": "OK",
      "vis_m": 9999,
      "fzfg": false,
      "metar_trigger": false,
      "taf_trigger": false,
      "metar": "METAR LFLL 021030Z 35013KT 9999 FEW039 09/M00 Q1016 NOSIG",
      "taf": "TAF LFLL 020500Z 0206/0312 36009KT CAVOK"
    },
    {
      "icao": "LFLS",
      "alert": "OK",
      "vis_m": 9999,
      "fzfg": false,
      "metar_trigger": false,
      "taf_trigger": false,
      "metar": "METAR LFLS 021030Z AUTO 36007KT 300V060 9999 SCT033 BKN041 07/M00 Q1015 BECMG 36017G27KT",
      "taf": "TAF LFLS 020800Z 0209/0309 36010KT CAVOK"
    },
    {
      "icao": "LFMN",
      "alert": "OK",
      "vis_m": 9999,
      "fzfg": false,
      "metar_trigger": false,
      "taf_trigger": false,
      "metar": "METAR LFMN 021030Z 19006KT CAVOK 16/03 Q1006 NOSIG",
      "taf": "TAF LFMN 020800Z 0209/0315 33006KT CAVOK"
    },
    {
      "icao": "LFOB",
      "alert": "OK",
      "vis_m": 9999,
      "fzfg": false,
      "metar_trigger": false,
      "taf_trigger": false,
      "metar": "METAR LFOB 021030Z AUTO 30009KT 9999 SCT020 BKN035 BKN044 12/08 Q1020 TEMPO 4000 -RADZ BKN012 OVC035",
      "taf": "TAF LFOB 020500Z 0206/0306 VRB04KT 9999 FEW020 BKN035"
    },
    {
      "icao": "LFPO",
      "alert": "OK",
      "vis_m": 9999,
      "fzfg": false,
      "metar_trigger": false,
      "taf_trigger": false,
      "metar": "METAR LFPO 021030Z 33005KT 290V020 9999 BKN014 10/09 Q1020 NOSIG",
      "taf": ""
    },
    {
      "icao": "LFSB",
      "alert": "OK",
      "vis_m": 9999,
      "fzfg": false,
      "metar_trigger": false,
      "taf_trigger": false,
      "metar": "METAR LFSB 021030Z AUTO VRB03KT CAVOK 10/01 Q1017 NOSIG",
      "taf": "TAF LFSB 020500Z 0206/0306 35005KT 9999 SCT050"
    },
    {
      "icao": "LGAV",
      "alert": "OK",
      "vis_m": 9999,
      "fzfg": false,
      "metar_trigger": false,
      "taf_trigger": false,
      "metar": "METAR LGAV 021020Z 21024G34KT 9999 SCT018 SCT030 BKN070 15/09 Q0997 NOSIG",
      "taf": "TAF LGAV 020500Z 0206/0306 22014KT 9999 FEW015 BKN025 BKN070"
    },
    {
      "icao": "LGTS",
      "alert": "OK",
      "vis_m": 6000,
      "fzfg": false,
      "metar_trigger": false,
      "taf_trigger": false,
      "metar": "METAR LGTS 021020Z 26016KT 6000 -RA SCT006 BKN018 10/10 Q0994 NOSIG",
      "taf": ""
    },
    {
      "icao": "LHBP",
      "alert": "OK",
      "vis_m": 9999,
      "fzfg": false,
      "metar_trigger": false,
      "taf_trigger": false,
      "metar": "METAR LHBP 021030Z 04008KT 010V080 9999 SCT040 15/05 Q1007 NOSIG",
      "taf": "TAF LHBP 020515Z 0206/0306 34008KT 9999 BKN035"
    },
    {
      "icao": "LHDC",
      "alert": "OK",
      "vis_m": 9999,
      "fzfg": false,
      "metar_trigger": false,
      "taf_trigger": false,
      "metar": "METAR LHDC 021015Z AUTO 05013KT 020V080 CAVOK 16/07 Q1005 NOSIG",
      "taf": "TAF LHDC 020815Z 0209/0218 04011KT CAVOK"
    },
    {
      "icao": "LIBD",
      "alert": "OK",
      "vis_m": 7000,
      "fzfg": false,
      "metar_trigger": false,
      "taf_trigger": false,
      "metar": "METAR LIBD 021020Z 05010KT 020V080 7000 RA VCSH BKN015 11/10 Q0995",
      "taf": "TAF LIBD 020500Z 0206/0306 04012KT 7000 RA BKN040"
    },
    {
      "icao": "LIBG",
      "alert": "OK",
      "vis_m": 7000,
      "fzfg": false,
      "metar_trigger": false,
      "taf_trigger": false,
      "metar": "METAR LIBG 020950Z 07010KT 7000 -RA SCT010 BKN040 12/12 Q0993",
      "taf": "TAF LIBG 020800Z 0209/0218 04012KT 7000 RA OVC030"
    },
    {
      "icao": "LIBP",
      "alert": "OK",
      "vis_m": 9999,
      "fzfg": false,
      "metar_trigger": false,
      "taf_trigger": false,
      "metar": "METAR LIBP 021020Z AUTO 36014KT 9999 -RA OVC022/// 10/08 Q1002 RERA",
      "taf": "TAF LIBP 020500Z 0206/0306 36015KT 7000 RA OVC030"
    },
    {
      "icao": "LIBR",
      "alert": "OK",
      "vis_m": 7000,
      "fzfg": false,
      "metar_trigger": false,
      "taf_trigger": false,
      "metar": "METAR LIBR 021020Z 08014KT 7000 -RA FEW015 SCT048 12/10 Q0994",
      "taf": "TAF LIBR 020500Z 0206/0306 05015KT 7000 RA OVC040"
    },
    {
      "icao": "LICA",
      "alert": "OK",
      "vis_m": 9999,
      "fzfg": false,
      "metar_trigger": false,
      "taf_trigger": false,
      "metar": "METAR LICA 021020Z AUTO 29014KT 9999 -RA OVC042/// 12/10 Q0993",
      "taf": "TAF LICA 020500Z 0206/0306 VRB05KT 9999 BKN040"
    },
    {
      "icao": "LICC",
      "alert": "OK",
      "vis_m": 9999,
      "fzfg": false,
      "metar_trigger": false,
      "taf_trigger": false,
      "metar": "METAR LICC 021020Z 23009KT 9999 SCT025 BKN090 16/14 Q0993",
      "taf": "TAF LICC 020500Z 0206/0306 26006KT 9999 SCT030"
    },
    {
      "icao": "LICJ",
      "alert": "OK",
      "vis_m": 6000,
      "fzfg": false,
      "metar_trigger": false,
      "taf_trigger": false,
      "metar": "METAR LICJ 021020Z VRB04G15KT 6000 -RA VCSH BKN012 12/10 Q0996",
      "taf": "TAF LICJ 020500Z 0206/0306 35013KT 9999 SCT020"
    },
    {
      "icao": "LIMC",
      "alert": "OK",
      "vis_m": 9999,
      "fzfg": false,
      "metar_trigger": false,
      "taf_trigger": false,
      "metar": "METAR LIMC 021020Z 14005KT 050V210 CAVOK 14/M04 Q1008 NOSIG",
      "taf": "TAF LIMC 020500Z 0206/0312 VRB05KT CAVOK"
    },
    {
      "icao": "LIME",
      "alert": "OK",
      "vis_m": 9999,
      "fzfg": false,
      "metar_trigger": false,
      "taf_trigger": false,
      "metar": "METAR LIME 021020Z 22005KT 130V280 CAVOK 14/00 Q1007 NOSIG",
      "taf": "TAF LIME 020500Z 0206/0306 01005KT CAVOK"
    },
    {
      "icao": "LIMF",
      "alert": "OK",
      "vis_m": 9999,
      "fzfg": false,
      "metar_trigger": false,
      "taf_trigger": false,
      "metar": "METAR LIMF 021020Z 11004KT 060V170 CAVOK 13/M04 Q1008",
      "taf": "TAF LIMF 020500Z 0206/0306 VRB05KT CAVOK"
    },
    {
      "icao": "LIMJ",
      "alert": "OK",
      "vis_m": 9999,
      "fzfg": false,
      "metar_trigger": false,
      "taf_trigger": false,
      "metar": "METAR LIMJ 021020Z 04010KT 360V070 CAVOK 18/M04 Q1006",
      "taf": "TAF LIMJ 020500Z 0206/0306 02010KT CAVOK"
    },
    {
      "icao": "LIPE",
      "alert": "OK",
      "vis_m": 9999,
      "fzfg": false,
      "metar_trigger": false,
      "taf_trigger": false,
      "metar": "METAR LIPE 021020Z 06010KT 020V090 9999 SCT070 14/01 Q1007",
      "taf": "TAF LIPE 020500Z 0206/0306 VRB05KT 9999 SCT060"
    },
    {
      "icao": "LIPH",
      "alert": "OK",
      "vis_m": 9999,
      "fzfg": false,
      "metar_trigger": false,
      "taf_trigger": false,
      "metar": "METAR LIPH 021020Z VRB01KT CAVOK 17/01 Q1007",
      "taf": "TAF LIPH 020500Z 0206/0306 VRB05KT 9999 SCT060"
    },
    {
      "icao": "LIPQ",
      "alert": "OK",
      "vis_m": 9999,
      "fzfg": false,
      "metar_trigger": false,
      "taf_trigger": false,
      "metar": "METAR LIPQ 021020Z AUTO 07012KT 030V110 9999 FEW240/// 17/00 Q1006",
      "taf": "TAF LIPQ 020500Z 0206/0306 VRB05KT CAVOK"
    },
    {
      "icao": "LIPR",
      "alert": "OK",
      "vis_m": 9999,
      "fzfg": false,
      "metar_trigger": false,
      "taf_trigger": false,
      "metar": "METAR LIPR 021020Z 05009KT 9999 BKN040 12/05 Q1006",
      "taf": "TAF LIPR 020500Z 0206/0306 04015KT 9999 SCT050"
    },
    {
      "icao": "LIPX",
      "alert": "OK",
      "vis_m": 9999,
      "fzfg": false,
      "metar_trigger": false,
      "taf_trigger": false,
      "metar": "METAR LIPX 021020Z 21005KT 160V310 CAVOK 16/M02 Q1007",
      "taf": "TAF LIPX 020500Z 0206/0306 VRB05KT CAVOK"
    },
    {
      "icao": "LIPY",
      "alert": "OK",
      "vis_m": 9999,
      "fzfg": false,
      "metar_trigger": false,
      "taf_trigger": false,
      "metar": "METAR LIPY 021020Z AUTO 03011KT 9999 OVC073/// 12/08 Q1004",
      "taf": "TAF LIPY 020500Z 0206/0306 03015KT 9999 BKN050"
    },
    {
      "icao": "LIPZ",
      "alert": "OK",
      "vis_m": 9999,
      "fzfg": false,
      "metar_trigger": false,
      "taf_trigger": false,
      "metar": "METAR LIPZ 021020Z 08005KT 040V110 CAVOK 13/01 Q1007 NOSIG",
      "taf": "TAF LIPZ 020500Z 0206/0312 VRB06KT CAVOK"
    },
    {
      "icao": "LIRF",
      "alert": "OK",
      "vis_m": 9999,
      "fzfg": false,
      "metar_trigger": false,
      "taf_trigger": false,
      "metar": "METAR LIRF 021020Z 01015KT CAVOK 14/05 Q0999 NOSIG",
      "taf": "TAF LIRF 020500Z 0206/0312 02016KT CAVOK"
    },
    {
      "icao": "LIRN",
      "alert": "OK",
      "vis_m": 9999,
      "fzfg": false,
      "metar_trigger": false,
      "taf_trigger": false,
      "metar": "METAR LIRN 021020Z 03012KT 9999 FEW020 BKN060 14/06 Q0996 NOSIG",
      "taf": "TAF LIRN 020500Z 0206/0306 03014KT 9999 SCT050"
    },
    {
      "icao": "LIRP",
      "alert": "OK",
      "vis_m": 9999,
      "fzfg": false,
      "metar_trigger": false,
      "taf_trigger": false,
      "metar": "METAR LIRP 021015Z 36005KT 300V080 CAVOK 16/01 Q1005 NOSIG",
      "taf": "TAF LIRP 020500Z 0206/0306 03005KT 9999 SCT080"
    },
    {
      "icao": "LIRZ",
      "alert": "OK",
      "vis_m": 9999,
      "fzfg": false,
      "metar_trigger": false,
      "taf_trigger": false,
      "metar": "METAR LIRZ 021020Z AUTO 01014KT 9999 R01/1400N SCT029/// BKN042/// 10/05 Q1003",
      "taf": "TAF LIRZ 020500Z 0206/0306 03013KT 9999 BKN040"
    },
    {
      "icao": "LJLJ",
      "alert": "OK",
      "vis_m": 9999,
      "fzfg": false,
      "metar_trigger": false,
      "taf_trigger": false,
      "metar": "METAR LJLJ 021030Z 13004KT 9999 BKN055 12/01 Q1007 NOSIG",
      "taf": "TAF LJLJ 020500Z 0206/0306 30003KT 9999 SCT055"
    },
    {
      "icao": "LKMT",
      "alert": "OK",
      "vis_m": 9999,
      "fzfg": false,
      "metar_trigger": false,
      "taf_trigger": false,
      "metar": "METAR LKMT 021030Z 03013KT CAVOK 10/02 Q1013 NOSIG",
      "taf": "TAF LKMT 020500Z 0206/0306 04008KT CAVOK"
    },
    {
      "icao": "LKPR",
      "alert": "OK",
      "vis_m": 9999,
      "fzfg": false,
      "metar_trigger": false,
      "taf_trigger": false,
      "metar": "METAR LKPR 021030Z 31006KT 250V030 9999 FEW036 09/00 Q1015 NOSIG",
      "taf": "TAF LKPR 020800Z 0209/0315 34006KT CAVOK"
    },
    {
      "icao": "LLBG",
      "alert": "OK",
      "vis_m": 8000,
      "fzfg": false,
      "metar_trigger": false,
      "taf_trigger": false,
      "metar": "METAR LLBG 021020Z 26011KT 8000 BKN038 22/17 Q1010 BECMG 5000 DU",
      "taf": "TAF LLBG 020502Z 0206/0306 15012KT CAVOK TX26/0208Z TN16/0303Z"
    },
    {
      "icao": "LMML",
      "alert": "OK",
      "vis_m": 9999,
      "fzfg": false,
      "metar_trigger": false,
      "taf_trigger": false,
      "metar": "METAR LMML 021015Z 27020G32KT 9999 FEW017CB 14/10 Q0997 BECMG 8000 SHRA",
      "taf": "TAF LMML 020500Z 0206/0306 28020G30KT 9999 SCT020"
    },
    {
      "icao": "LOWW",
      "alert": "OK",
      "vis_m": 9999,
      "fzfg": false,
      "metar_trigger": false,
      "taf_trigger": false,
      "metar": "METAR LOWW 021020Z 32015KT 9999 BKN050 09/02 Q1012 NOSIG",
      "taf": "TAF LOWW 020815Z 0209/0315 33015G25KT 9999 BKN040 TX15/0313Z TN06/0304Z"
    },
    {
      "icao": "LPFR",
      "alert": "OK",
      "vis_m": 9999,
      "fzfg": false,
      "metar_trigger": false,
      "taf_trigger": false,
      "metar": "METAR LPFR 021030Z 17007KT 120V230 CAVOK 20/12 Q1020",
      "taf": "TAF LPFR 020500Z 0206/0306 02008KT CAVOK"
    },
    {
      "icao": "LPMA",
      "alert": "OK",
      "vis_m": 9999,
      "fzfg": false,
      "metar_trigger": false,
      "taf_trigger": false,
      "metar": "METAR LPMA 021030Z 36014KT 330V030 9999 FEW015 22/03 Q1023",
      "taf": "TAF LPMA 020500Z 0206/0306 01015KT 9999 SCT015"
    },
    {
      "icao": "LPPR",
      "alert": "OK",
      "vis_m": 9999,
      "fzfg": false,
      "metar_trigger": false,
      "taf_trigger": false,
      "metar": "METAR LPPR 021030Z 34008KT 310V020 CAVOK 18/07 Q1023",
      "taf": "TAF LPPR 020500Z 0206/0306 VRB02KT CAVOK"
    },
    {
      "icao": "LPPS",
      "alert": "OK",
      "vis_m": 9999,
      "fzfg": false,
      "metar_trigger": false,
      "taf_trigger": false,
      "metar": "METAR LPPS 021030Z 02013KT 350V060 9999 FEW013 18/14 Q1024",
      "taf": "TAF LPPS 020500Z 0206/0312 03010KT 9999 SCT012"
    },
    {
      "icao": "LPPT",
      "alert": "OK",
      "vis_m": 9999,
      "fzfg": false,
      "metar_trigger": false,
      "taf_trigger": false,
      "metar": "METAR LPPT 021030Z 35005KT 280V050 CAVOK 19/10 Q1022",
      "taf": "TAF LPPT 020500Z 0206/0312 33012KT CAVOK"
    },
    {
      "icao": "LQBK",
      "alert": "OK",
      "vis_m": 9999,
      "fzfg": false,
      "metar_trigger": false,
      "taf_trigger": false,
      "metar": "METAR LQBK 021030Z 27006KT 9999 BKN027 08/03 Q1006 NOSIG",
      "taf": "TAF LQBK 020500Z 0206/0306 29007KT 9999 SCT030 BKN045 TX11/0213Z TN06/0305Z"
    },
    {
      "icao": "LQSA",
      "alert": "OK",
      "vis_m": 9999,
      "fzfg": false,
      "metar_trigger": false,
      "taf_trigger": false,
      "metar": "METAR LQSA 021030Z 30009KT 9999 -DZ BKN018 OVC025 05/03 Q1003 NOSIG",
      "taf": "TAF LQSA 020500Z 0206/0306 28008KT 9999 SCT020 BKN040 TX07/0213Z TN04/0305Z"
    },
    {
      "icao": "LQTZ",
      "alert": "OK",
      "vis_m": 9999,
      "fzfg": false,
      "metar_trigger": false,
      "taf_trigger": false,
      "metar": "METAR LQTZ 021030Z 29008KT 9999 OVC015 04/03 Q1005",
      "taf": "TAF LQTZ 020500Z 0206/0306 30005KT 7000 SCT015 OVC030 TX07/0213Z TN03/0305Z"
    },
    {
      "icao": "LRBC",
      "alert": "OK",
      "vis_m": 7000,
      "fzfg": false,
      "metar_trigger": false,
      "taf_trigger": false,
      "metar": "METAR LRBC 021030Z 35011KT 7000 OVC009 08/06 Q1007",
      "taf": "TAF LRBC 020800Z 0209/0218 35012KT 9999 BKN005"
    },
    {
      "icao": "LRBS",
      "alert": "OK",
      "vis_m": 5000,
      "fzfg": false,
      "metar_trigger": false,
      "taf_trigger": false,
      "metar": "METAR LRBS 021030Z 05015KT 030V090 5000 RA BR OVC006 09/08 Q1002 NOSIG",
      "taf": "TAF LRBS 020500Z 0206/0306 06018KT 9999 BKN010 OVC020"
    },
    {
      "icao": "LRBV",
      "alert": "OK",
      "vis_m": 9999,
      "fzfg": false,
      "metar_trigger": false,
      "taf_trigger": false,
      "metar": "METAR LRBV 021030Z VRB02KT 9999 BKN010 OVC033 08/06 Q1004",
      "taf": "TAF LRBV 020800Z 0209/0218 VRB04KT 9999 BKN010"
    },
    {
      "icao": "LRCL",
      "alert": "OK",
      "vis_m": 9999,
      "fzfg": false,
      "metar_trigger": false,
      "taf_trigger": false,
      "metar": "METAR LRCL 021030Z 26005KT 240V300 9999 BKN052 10/04 Q1005",
      "taf": "TAF LRCL 020800Z 0209/0218 VRB04KT 9999 BKN060"
    },
    {
      "icao": "LRCV",
      "alert": "OK",
      "vis_m": 4600,
      "fzfg": false,
      "metar_trigger": false,
      "taf_trigger": false,
      "metar": "METAR LRCV 021030Z 07010KT 4600 RA BR BKN007 OVC032 09/09 Q1002",
      "taf": "TAF LRCV 020800Z 0209/0218 08014KT 5000 -RA BR OVC010"
    },
    {
      "icao": "LRIA",
      "alert": "OK",
      "vis_m": 7000,
      "fzfg": false,
      "metar_trigger": false,
      "taf_trigger": false,
      "metar": "METAR LRIA 021030Z 32006KT 280V340 7000 OVC005 09/07 Q1007",
      "taf": "TAF LRIA 020800Z 0209/0218 31008KT 3000 BR OVC002"
    },
    {
      "icao": "LROP",
      "alert": "OK",
      "vis_m": 5000,
      "fzfg": false,
      "metar_trigger": false,
      "taf_trigger": false,
      "metar": "METAR LROP 021030Z 07020KT 5000 RA BR OVC007 09/08 Q1003 NOSIG",
      "taf": "TAF LROP 020500Z 0206/0306 06018KT 9999 BKN010 OVC020"
    },
    {
      "icao": "LRSB",
      "alert": "OK",
      "vis_m": 9999,
      "fzfg": false,
      "metar_trigger": false,
      "taf_trigger": false,
      "metar": "METAR LRSB 021030Z 31005KT 270V340 9999 FEW008 BKN019 BKN025 08/06 Q1004",
      "taf": "TAF LRSB 020500Z 0206/0306 VRB04KT 9999 BKN040"
    },
    {
      "icao": "LRSM",
      "alert": "OK",
      "vis_m": 9999,
      "fzfg": false,
      "metar_trigger": false,
      "taf_trigger": false,
      "metar": "METAR LRSM 021030Z VRB02KT CAVOK 15/08 Q1005",
      "taf": "TAF LRSM 020800Z 0209/0218 VRB04KT CAVOK"
    },
    {
      "icao": "LRSV",
      "alert": "OK",
      "vis_m": 8000,
      "fzfg": false,
      "metar_trigger": false,
      "taf_trigger": false,
      "metar": "METAR LRSV 021030Z 32013KT 8000 FEW009 BKN032 09/06 Q1007",
      "taf": "TAF LRSV 020800Z 0209/0218 32010KT 9999 BKN035"
    },
    {
      "icao": "LRTM",
      "alert": "OK",
      "vis_m": 9999,
      "fzfg": false,
      "metar_trigger": false,
      "taf_trigger": false,
      "metar": "METAR LRTM 021030Z VRB02KT 9999 SCT045 10/06 Q1005",
      "taf": "TAF LRTM 020800Z 0209/0218 VRB04KT 5000 BR SCT045"
    },
    {
      "icao": "LRTR",
      "alert": "OK",
      "vis_m": 9999,
      "fzfg": false,
      "metar_trigger": false,
      "taf_trigger": false,
      "metar": "METAR LRTR 021030Z 36010KT 9999 FEW043 16/08 Q1002 NOSIG",
      "taf": "TAF LRTR 020500Z 0206/0306 01010KT CAVOK"
    },
    {
      "icao": "LTAC",
      "alert": "OK",
      "vis_m": 6000,
      "fzfg": false,
      "metar_trigger": false,
      "taf_trigger": false,
      "metar": "METAR LTAC 021020Z VRB02KT 6000 -SHRA FEW010 BKN030 BKN080 11/10 Q1004 NOSIG RMK RWY21C VRB02KT RWY03L VRB02KT RWY21R VRB02KT RWY03R VRB01KT RWY21L VRB01KT",
      "taf": "TAF LTAC 020440Z 0206/0306 VRB02KT 9999 SCT040 BKN100"
    },
    {
      "icao": "LTFM",
      "alert": "OK",
      "vis_m": 9999,
      "fzfg": false,
      "metar_trigger": false,
      "taf_trigger": false,
      "metar": "METAR LTFM 021020Z 31005KT 270V340 9999 FEW006 BKN035 12/10 Q0999 NOSIG RMK RWY17L 05005KT RWY34L 32005KT RWY16R 32005KT RWY36 36005KT RWY18 31004KT 250V030",
      "taf": "TAF LTFM 020440Z 0206/0312 14013KT 9999 BKN004 BKN020"
    },
    {
      "icao": "LUKK",
      "alert": "OK",
      "vis_m": 9999,
      "fzfg": false,
      "metar_trigger": false,
      "taf_trigger": false,
      "metar": "METAR LUKK 021030Z 07006KT 9999 OVC012 13/09 Q1006 NOSIG",
      "taf": "TAF LUKK 020506Z 0206/0306 VRB06KT 5000 BR BKN005"
    },
    {
      "icao": "LWOH",
      "alert": "OK",
      "vis_m": 8000,
      "fzfg": false,
      "metar_trigger": false,
      "taf_trigger": false,
      "metar": "METAR LWOH 021020Z 31004KT 280V340 8000 RA OVC033 07/05 Q0995",
      "taf": "TAF LWOH 020810Z 0209/0309 34008KT 9999 RA SCT025 OVC035"
    },
    {
      "icao": "LWSK",
      "alert": "OK",
      "vis_m": 9999,
      "fzfg": false,
      "metar_trigger": false,
      "taf_trigger": false,
      "metar": "METAR LWSK 021020Z 33009KT 290V360 9999 -RA BKN035 OVC070 09/07 Q0997 NOSIG",
      "taf": "TAF LWSK 020810Z 0209/0309 VRB02KT 9999 -RA FEW020 BKN035 OVC070"
    },
    {
      "icao": "LYBE",
      "alert": "OK",
      "vis_m": 9999,
      "fzfg": false,
      "metar_trigger": false,
      "taf_trigger": false,
      "metar": "METAR LYBE 021030Z 33007KT 300V010 9999 BKN015 09/05 Q1004 NOSIG",
      "taf": "TAF LYBE 020500Z 0206/0306 35008KT 9999 SCT010 BKN045 TX11/0213Z TN05/0206Z"
    },
    {
      "icao": "LYNI",
      "alert": "OK",
      "vis_m": 9999,
      "fzfg": false,
      "metar_trigger": false,
      "taf_trigger": false,
      "metar": "METAR LYNI 021030Z 01008KT 320V060 9999 -RA FEW017 BKN050 10/04 Q0999 NOSIG",
      "taf": "TAF LYNI 020500Z 0206/0306 04014KT 9999 SCT040 BKN080 TX11/0213Z TN07/0305Z"
    },
    {
      "icao": "LYPG",
      "alert": "OK",
      "vis_m": 9999,
      "fzfg": false,
      "metar_trigger": false,
      "taf_trigger": false,
      "metar": "METAR LYPG 021030Z 02012KT 9999 FEW040 OVC080 15/03 Q0995 TEMPO 02022KT",
      "taf": "TAF LYPG 020500Z 0206/0306 36015KT 9999 FEW050 OVC090 TX16/0212Z TN10/0304Z"
    },
    {
      "icao": "LZIB",
      "alert": "OK",
      "vis_m": 9999,
      "fzfg": false,
      "metar_trigger": false,
      "taf_trigger": false,
      "metar": "METAR LZIB 021030Z 30010KT CAVOK 11/03 Q1010 NOSIG",
      "taf": "TAF LZIB 020515Z 0206/0306 35016KT CAVOK"
    },
    {
      "icao": "LZKZ",
      "alert": "OK",
      "vis_m": 9999,
      "fzfg": false,
      "metar_trigger": false,
      "taf_trigger": false,
      "metar": "METAR LZKZ 021030Z 36022KT CAVOK 13/05 Q1008 NOSIG",
      "taf": "TAF LZKZ 020515Z 0206/0306 01020KT CAVOK"
    },
    {
      "icao": "LZTT",
      "alert": "OK",
      "vis_m": 9999,
      "fzfg": false,
      "metar_trigger": false,
      "taf_trigger": false,
      "metar": "METAR LZTT 021030Z 12006KT 090V160 9999 FEW006 SCT036 BKN056 04/03 Q1010 NOSIG",
      "taf": "TAF LZTT 020515Z 0206/0306 08013KT 9999 -RA FEW005 OVC026"
    },
    {
      "icao": "OEJN",
      "alert": "OK",
      "vis_m": 8000,
      "fzfg": false,
      "metar_trigger": false,
      "taf_trigger": false,
      "metar": "METAR OEJN 021000Z 20009KT 8000 NSC 36/17 Q1008 NOSIG",
      "taf": "TAF OEJN 020500Z 0206/0312 20010KT 7000 NSC"
    },
    {
      "icao": "OEMA",
      "alert": "OK",
      "vis_m": 9999,
      "fzfg": false,
      "metar_trigger": false,
      "taf_trigger": false,
      "metar": "METAR OEMA 021000Z 19007KT CAVOK 36/00 Q1013 NOSIG",
      "taf": "TAF OEMA 020500Z 0206/0312 15015KT 7000 FEW040"
    },
    {
      "icao": "OJAI",
      "alert": "OK",
      "vis_m": 4000,
      "fzfg": false,
      "metar_trigger": false,
      "taf_trigger": false,
      "metar": "METAR OJAI 021000Z 18014KT 4000 HZ NSC 20/11 Q1012 NOSIG",
      "taf": "TAF OJAI 020500Z 0206/0312 12014KT 4000 BR FEW025TCU SCT030"
    },
    {
      "icao": "OMAA",
      "alert": "OK",
      "vis_m": null,
      "fzfg": false,
      "metar_trigger": false,
      "taf_trigger": false,
      "metar": "",
      "taf": ""
    },
    {
      "icao": "OMDB",
      "alert": "OK",
      "vis_m": null,
      "fzfg": false,
      "metar_trigger": false,
      "taf_trigger": false,
      "metar": "",
      "taf": ""
    },
    {
      "icao": "UAAA",
      "alert": "OK",
      "vis_m": 9999,
      "fzfg": false,
      "metar_trigger": false,
      "taf_trigger": false,
      "metar": "METAR UAAA 021030Z 04003MPS 340V100 9999 SCT200 25/03 Q1011 NOSIG",
      "taf": "TAF UAAA 020500Z 0206/0306 03003G08MPS 9999 FEW050 SCT100 TX26/0210Z TN09/0301Z"
    },
    {
      "icao": "UBBB",
      "alert": "OK",
      "vis_m": 9999,
      "fzfg": false,
      "metar_trigger": false,
      "taf_trigger": false,
      "metar": "METAR UBBB 021030Z 17020KT CAVOK 17/11 Q1012 NOSIG",
      "taf": "TAF UBBB 020508Z 0206/0306 15012KT 9999 SCT012 SCT025 TX18/0210Z TN09/0301Z"
    },
    {
      "icao": "UDSG",
      "alert": "OK",
      "vis_m": 9999,
      "fzfg": false,
      "metar_trigger": false,
      "taf_trigger": false,
      "metar": "METAR UDSG 021030Z 21009KT 9999 SCT043CB 12/M01 Q1014 NOSIG",
      "taf": "TAF UDSG 020458Z 0206/0306 24006KT 9999 SCT050"
    },
    {
      "icao": "UDYZ",
      "alert": "OK",
      "vis_m": 9999,
      "fzfg": false,
      "metar_trigger": false,
      "taf_trigger": false,
      "metar": "METAR UDYZ 021030Z VRB04KT 9999 FEW046 17/00 Q1012 NOSIG",
      "taf": "TAF UDYZ 020500Z 0206/0306 22006KT 9999 FEW040"
    },
    {
      "icao": "UGKO",
      "alert": "OK",
      "vis_m": 9999,
      "fzfg": false,
      "metar_trigger": false,
      "taf_trigger": false,
      "metar": "METAR UGKO 021030Z 09024KT CAVOK 24/05 Q1004 NOSIG",
      "taf": "TAF UGKO 020500Z 0206/0306 08010KT CAVOK TX25/0212Z TN13/0302Z"
    }
  ]
}