{
  "ts_utc": "2026-01-14T04:52:56Z",
  "threshold_m": 150,
  "source": "stations_override.txt (ICAO list) + aviationweather.gov (METAR/TAF raw)",
  "station_count": 159,
  "stations": [
    {
      "icao": "BIKF",
      "alert": "OK",
      "vis_m": 9999,
      "fzfg": false,
      "metar_trigger": false,
      "taf_trigger": false,
      "metar": "METAR BIKF 140430Z 06009KT CAVOK M04/M06 Q0990",
      "taf": "TAF BIKF 140411Z 1406/1506 07010KT 9999 SCT035 TX02/1502Z TNM04/1406Z"
    },
    {
      "icao": "BKPR",
      "alert": "OK",
      "vis_m": null,
      "fzfg": false,
      "metar_trigger": false,
      "taf_trigger": false,
      "metar": "",
      "taf": "TAF BKPR 132330Z 1400/1424 32005KT CAVOK"
    },
    {
      "icao": "EBCI",
      "alert": "OK",
      "vis_m": 9000,
      "fzfg": false,
      "metar_trigger": false,
      "taf_trigger": false,
      "metar": "METAR EBCI 140420Z 21011KT 9000 -DZ BKN013 09/06 Q1011 NOSIG",
      "taf": "TAF EBCI 132316Z 1400/1506 21009KT 9999 SCT008 BKN018"
    },
    {
      "icao": "EDDB",
      "alert": "OK",
      "vis_m": 7000,
      "fzfg": false,
      "metar_trigger": false,
      "taf_trigger": false,
      "metar": "METAR EDDB 140420Z AUTO 16006KT 7000 NSC 03/03 Q1010 NOSIG",
      "taf": "TAF EDDB 132300Z 1400/1424 17007KT 8000 SCT030"
    },
    {
      "icao": "EDDH",
      "alert": "OK",
      "vis_m": 5000,
      "fzfg": false,
      "metar_trigger": false,
      "taf_trigger": false,
      "metar": "METAR EDDH 140420Z AUTO 22007KT 5000 -RADZ BR BKN005 05/05 Q1006 TEMPO 2000 RADZ BKN003",
      "taf": "TAF EDDH 132300Z 1400/1506 17007KT 6000 SCT003 BKN020"
    },
    {
      "icao": "EDDK",
      "alert": "OK",
      "vis_m": 9999,
      "fzfg": false,
      "metar_trigger": false,
      "taf_trigger": false,
      "metar": "METAR EDDK 140420Z AUTO 19006KT CAVOK 10/06 Q1010 TEMPO RA",
      "taf": "TAF EDDK 132300Z 1400/1506 17009KT CAVOK"
    },
    {
      "icao": "EDDN",
      "alert": "OK",
      "vis_m": 4500,
      "fzfg": false,
      "metar_trigger": false,
      "taf_trigger": false,
      "metar": "METAR EDDN 140420Z AUTO 12006KT 4500 BR NSC M00/M01 Q1014",
      "taf": "TAF EDDN 132300Z 1400/1424 12006KT CAVOK"
    },
    {
      "icao": "EDDS",
      "alert": "OK",
      "vis_m": 9999,
      "fzfg": false,
      "metar_trigger": false,
      "taf_trigger": false,
      "metar": "METAR EDDS 140420Z AUTO 22003KT 180V270 CAVOK 06/02 Q1013",
      "taf": "TAF EDDS 132300Z 1400/1424 VRB02KT CAVOK"
    },
    {
      "icao": "EDFH",
      "alert": "OK",
      "vis_m": 9999,
      "fzfg": false,
      "metar_trigger": false,
      "taf_trigger": false,
      "metar": "METAR EDFH 140420Z 22010KT 180V240 9999 -RA BKN040 BKN046 08/06 Q1012",
      "taf": "TAF EDFH 132300Z 1400/1424 18008KT 9999 FEW040"
    },
    {
      "icao": "EDJA",
      "alert": "OK",
      "vis_m": 9999,
      "fzfg": false,
      "metar_trigger": false,
      "taf_trigger": false,
      "metar": "METAR EDJA 140420Z 19005KT CAVOK M00/M01 Q1015",
      "taf": "TAF EDJA 140200Z 1403/1412 22005KT CAVOK"
    },
    {
      "icao": "EDLW",
      "alert": "OK",
      "vis_m": 9999,
      "fzfg": false,
      "metar_trigger": false,
      "taf_trigger": false,
      "metar": "METAR EDLW 140420Z 21013KT 9999 -DZ SCT021 BKN024 09/07 Q1008",
      "taf": "TAF EDLW 131700Z 1318/1418 18012KT CAVOK"
    },
    {
      "icao": "EDNY",
      "alert": "OK",
      "vis_m": 300,
      "fzfg": false,
      "metar_trigger": false,
      "taf_trigger": false,
      "metar": "METAR EDNY 140420Z AUTO 06003KT 0300 R06/0375N // VV/// M00/M00 Q1017",
      "taf": ""
    },
    {
      "icao": "EDSB",
      "alert": "OK",
      "vis_m": 9999,
      "fzfg": false,
      "metar_trigger": false,
      "taf_trigger": false,
      "metar": "METAR EDSB 140420Z 20011KT CAVOK 09/04 Q1014",
      "taf": "TAF EDSB 132300Z 1400/1424 21004KT CAVOK"
    },
    {
      "icao": "EETN",
      "alert": "OK",
      "vis_m": 3500,
      "fzfg": false,
      "metar_trigger": false,
      "taf_trigger": false,
      "metar": "METAR EETN 140450Z 14004KT 3500 BR OVC002 M11/M12 Q1022 TEMPO 1200",
      "taf": "TAF EETN 132330Z 1400/1424 14005KT 9999 SCT020"
    },
    {
      "icao": "EFTU",
      "alert": "OK",
      "vis_m": 9999,
      "fzfg": false,
      "metar_trigger": false,
      "taf_trigger": false,
      "metar": "METAR EFTU 140450Z AUTO 13008KT 9999 -FZDZ OVC006 M07/M08 Q1019",
      "taf": "TAF EFTU 140237Z 1403/1503 15011KT 9999 OVC007"
    },
    {
      "icao": "EGBB",
      "alert": "OK",
      "vis_m": 9999,
      "fzfg": false,
      "metar_trigger": false,
      "taf_trigger": false,
      "metar": "METAR EGBB 140420Z 17003KT CAVOK M04/M05 Q1011",
      "taf": "TAF EGBB 132255Z 1400/1424 25007KT 9999 FEW025"
    },
    {
      "icao": "EGGP",
      "alert": "OK",
      "vis_m": 9999,
      "fzfg": false,
      "metar_trigger": false,
      "taf_trigger": false,
      "metar": "METAR EGGP 140420Z AUTO 18003KT 150V230 9999 NCD 00/M02 Q1010",
      "taf": ""
    },
    {
      "icao": "EGGW",
      "alert": "OK",
      "vis_m": 9999,
      "fzfg": false,
      "metar_trigger": false,
      "taf_trigger": false,
      "metar": "METAR EGGW 140420Z AUTO 28005KT 9999 NCD 00/M01 Q1011",
      "taf": "TAF EGGW 132301Z 1400/1424 30005KT 9999 FEW010"
    },
    {
      "icao": "EGKK",
      "alert": "OK",
      "vis_m": 9999,
      "fzfg": false,
      "metar_trigger": false,
      "taf_trigger": false,
      "metar": "METAR EGKK 140420Z 34002KT CAVOK 03/02 Q1012",
      "taf": ""
    },
    {
      "icao": "EGNM",
      "alert": "OK",
      "vis_m": null,
      "fzfg": false,
      "metar_trigger": false,
      "taf_trigger": false,
      "metar": "",
      "taf": "TAF EGNM 132258Z 1400/1424 27010KT 9999 FEW025"
    },
    {
      "icao": "EGPD",
      "alert": "OK",
      "vis_m": 9999,
      "fzfg": false,
      "metar_trigger": false,
      "taf_trigger": false,
      "metar": "METAR EGPD 140420Z COR AUTO 23008KT 9999 NCD 02/M02 Q1002 NOSIG",
      "taf": "TAF EGPD 132255Z 1400/1424 24009KT 9999 FEW040"
    },
    {
      "icao": "EGPF",
      "alert": "OK",
      "vis_m": 9000,
      "fzfg": false,
      "metar_trigger": false,
      "taf_trigger": false,
      "metar": "METAR EGPF 140420Z AUTO 24008KT 9000 -RA BKN020 OVC036 05/04 Q1005",
      "taf": "TAF EGPF 132302Z 1400/1424 26009KT 9999 SCT025"
    },
    {
      "icao": "EHBK",
      "alert": "OK",
      "vis_m": 9999,
      "fzfg": false,
      "metar_trigger": false,
      "taf_trigger": false,
      "metar": "METAR EHBK 140425Z AUTO 23012KT 9999 +DZ OVC016 09/08 Q1010",
      "taf": "TAF EHBK 132310Z 1400/1506 20013KT 9999 BKN018"
    },
    {
      "icao": "EHEH",
      "alert": "OK",
      "vis_m": 3800,
      "fzfg": false,
      "metar_trigger": false,
      "taf_trigger": false,
      "metar": "METAR EHEH 140425Z AUTO 23009KT 3800 +DZ BKN004 OVC006 09/08 Q1009 YLO",
      "taf": "TAF EHEH 132310Z 1400/1506 19010KT 9999 SCT030"
    },
    {
      "icao": "EKBI",
      "alert": "OK",
      "vis_m": 3300,
      "fzfg": false,
      "metar_trigger": false,
      "taf_trigger": false,
      "metar": "METAR EKBI 140420Z AUTO 26007KT 3300 BR OVC002/// 04/04 Q1003 REDZRA",
      "taf": ""
    },
    {
      "icao": "EKCH",
      "alert": "OK",
      "vis_m": 3900,
      "fzfg": false,
      "metar_trigger": false,
      "taf_trigger": false,
      "metar": "METAR EKCH 140420Z 17011KT 3900 -RA OVC003 04/04 Q1004 BECMG 6000 RA",
      "taf": "TAF EKCH 140227Z 1403/1503 15015KT 6000 -RA OVC004"
    },
    {
      "icao": "ENAL",
      "alert": "OK",
      "vis_m": 9999,
      "fzfg": false,
      "metar_trigger": false,
      "taf_trigger": false,
      "metar": "METAR ENAL 140420Z AUTO 13010KT 9999 -RA FEW035/// BKN047/// BKN061/// 05/M03 Q0992",
      "taf": "TAF ENAL 140200Z 1403/1412 13018KT 9999 BKN050"
    },
    {
      "icao": "ENBR",
      "alert": "OK",
      "vis_m": 9999,
      "fzfg": false,
      "metar_trigger": false,
      "taf_trigger": false,
      "metar": "METAR ENBR 140420Z 14017KT 9999 -SHRA BKN012 03/02 Q0995 RMK WIND 1200FT 16023KT",
      "taf": ""
    },
    {
      "icao": "ENGM",
      "alert": "OK",
      "vis_m": 2800,
      "fzfg": false,
      "metar_trigger": false,
      "taf_trigger": false,
      "metar": "METAR ENGM 140420Z 03005KT 2800 -SN SCT007 OVC013 M02/M03 Q1001",
      "taf": "TAF ENGM 132300Z 1400/1424 05010KT 3000 -SN FEW008 BKN015"
    },
    {
      "icao": "ENHD",
      "alert": "OK",
      "vis_m": 9000,
      "fzfg": false,
      "metar_trigger": false,
      "taf_trigger": false,
      "metar": "METAR ENHD 140420Z AUTO 23017KT 9000 RA FEW003/// SCT013/// BKN017/// 05/04 Q0996",
      "taf": "TAF ENHD 140200Z 1403/1412 24015KT 9999 BKN025"
    },
    {
      "icao": "ENTC",
      "alert": "OK",
      "vis_m": 9999,
      "fzfg": false,
      "metar_trigger": false,
      "taf_trigger": false,
      "metar": "METAR ENTC 140420Z AUTO 19014KT 9999 OVC055/// M05/M11 Q1009 RMK WIND 2600FT 17008KT",
      "taf": "TAF ENTC 132300Z 1400/1424 19014KT 9999 BKN055"
    },
    {
      "icao": "ENTO",
      "alert": "OK",
      "vis_m": 1800,
      "fzfg": false,
      "metar_trigger": false,
      "taf_trigger": false,
      "metar": "METAR ENTO 140420Z AUTO 04004KT 010V080 1800 -SN VV005 00/00 Q1000",
      "taf": "TAF ENTO 132300Z 1400/1424 VRB07KT 3000 -SN VV005"
    },
    {
      "icao": "ENVA",
      "alert": "OK",
      "vis_m": 9999,
      "fzfg": false,
      "metar_trigger": false,
      "taf_trigger": false,
      "metar": "METAR ENVA 140420Z AUTO VRB04KT 9999 NCD 02/M06 Q1000 RMK WIND 670FT 15016G31KT",
      "taf": "TAF ENVA 132300Z 1400/1424 11009KT CAVOK"
    },
    {
      "icao": "ENZV",
      "alert": "OK",
      "vis_m": 9000,
      "fzfg": false,
      "metar_trigger": false,
      "taf_trigger": false,
      "metar": "METAR ENZV 140420Z 22005KT 9000 RA BKN029 04/03 Q0998",
      "taf": "TAF ENZV 132300Z 1400/1424 13018KT 9999 -RA FEW020 BKN035"
    },
    {
      "icao": "EPGD",
      "alert": "OK",
      "vis_m": 7000,
      "fzfg": false,
      "metar_trigger": false,
      "taf_trigger": false,
      "metar": "METAR EPGD 140430Z 15010KT 7000 FEW007 BKN017 M04/M05 Q1014",
      "taf": "TAF EPGD 132330Z 1400/1424 15010KT 8000 BKN030"
    },
    {
      "icao": "EPKK",
      "alert": "OK",
      "vis_m": 3000,
      "fzfg": false,
      "metar_trigger": false,
      "taf_trigger": false,
      "metar": "METAR EPKK 140430Z 06005KT 3000 BR OVC006 M03/M04 Q1018",
      "taf": "TAF EPKK 140230Z 1403/1503 06004KT 3000 BR OVC007"
    },
    {
      "icao": "EPKT",
      "alert": "OK",
      "vis_m": 2000,
      "fzfg": false,
      "metar_trigger": false,
      "taf_trigger": false,
      "metar": "METAR EPKT 140430Z 16006KT 2000 BR BKN001 OVC003 M01/M01 Q1017",
      "taf": "TAF EPKT 132330Z 1400/1424 18004KT 2000 BR OVC007"
    },
    {
      "icao": "EPLB",
      "alert": "OK",
      "vis_m": 3500,
      "fzfg": false,
      "metar_trigger": false,
      "taf_trigger": false,
      "metar": "METAR EPLB 140430Z 10004KT 3500 BR OVC005 M09/M10 Q1021",
      "taf": "TAF EPLB 132330Z 1400/1424 VRB02KT 3000 BR BKN006"
    },
    {
      "icao": "EPMO",
      "alert": "OK",
      "vis_m": 2100,
      "fzfg": false,
      "metar_trigger": false,
      "taf_trigger": false,
      "metar": "METAR EPMO 140430Z 10005KT 2100 BR OVC004 M10/M11 Q1019",
      "taf": "TAF EPMO 132330Z 1400/1424 12007KT 3000 BR NSC"
    },
    {
      "icao": "EPPO",
      "alert": "OK",
      "vis_m": 2200,
      "fzfg": false,
      "metar_trigger": false,
      "taf_trigger": false,
      "metar": "METAR EPPO 140430Z 14008KT 2200 -RA BR SCT003 BKN029 01/00 Q1013 REFZRA",
      "taf": ""
    },
    {
      "icao": "EPRA",
      "alert": "OK",
      "vis_m": 3500,
      "fzfg": false,
      "metar_trigger": false,
      "taf_trigger": false,
      "metar": "METAR EPRA 140430Z 15006KT 3500 1500E BR BKN003 M10/M11 Q1019",
      "taf": "TAF EPRA 140230Z 1403/1412 14006KT 5000 BR SCT005"
    },
    {
      "icao": "EPRZ",
      "alert": "OK",
      "vis_m": 4400,
      "fzfg": false,
      "metar_trigger": false,
      "taf_trigger": false,
      "metar": "METAR EPRZ 140430Z 10005KT 4400 BR OVC024 M05/M07 Q1020",
      "taf": "TAF EPRZ 132330Z 1400/1424 20004KT 9999 OVC017"
    },
    {
      "icao": "EPSC",
      "alert": "OK",
      "vis_m": 4100,
      "fzfg": false,
      "metar_trigger": false,
      "taf_trigger": false,
      "metar": "METAR EPSC 140430Z 15012KT 4100 BR OVC003 02/02 Q1010",
      "taf": "TAF EPSC 132330Z 1400/1424 14013KT 1800 BR OVC002"
    },
    {
      "icao": "EPSY",
      "alert": "OK",
      "vis_m": 4500,
      "fzfg": false,
      "metar_trigger": false,
      "taf_trigger": false,
      "metar": "METAR EPSY 140430Z 14004KT 070V190 4500 BR OVC002 M13/M14 Q1019",
      "taf": "TAF EPSY 140230Z 1403/1412 13005KT 4000 BR NSC"
    },
    {
      "icao": "EPWA",
      "alert": "OK",
      "vis_m": 4700,
      "fzfg": false,
      "metar_trigger": false,
      "taf_trigger": false,
      "metar": "METAR EPWA 140430Z 13008KT 4700 BR OVC003 M09/M10 Q1020 TEMPO 2500 BR BKN002",
      "taf": ""
    },
    {
      "icao": "EPWR",
      "alert": "OK",
      "vis_m": 9999,
      "fzfg": false,
      "metar_trigger": false,
      "taf_trigger": false,
      "metar": "METAR EPWR 140430Z 13007KT CAVOK 02/01 Q1014",
      "taf": "TAF EPWR 140230Z 1403/1503 11010KT 5000 BR BKN040"
    },
    {
      "icao": "ESGG",
      "alert": "OK",
      "vis_m": 9000,
      "fzfg": false,
      "metar_trigger": false,
      "taf_trigger": false,
      "metar": "METAR ESGG 140420Z 15011KT 9000 -RA OVC003 02/01 Q1001",
      "taf": "TAF ESGG 140230Z 1403/1503 14012KT 8000 -RA OVC002"
    },
    {
      "icao": "ESKN",
      "alert": "OK",
      "vis_m": 2100,
      "fzfg": false,
      "metar_trigger": false,
      "taf_trigger": false,
      "metar": "METAR ESKN 140420Z 13015KT 2100 -SN OVC004 00/00 Q1011",
      "taf": ""
    },
    {
      "icao": "ESMS",
      "alert": "OK",
      "vis_m": 3500,
      "fzfg": false,
      "metar_trigger": false,
      "taf_trigger": false,
      "metar": "METAR ESMS 140420Z 16011KT 3500 -RA OVC002 02/02 Q1005",
      "taf": ""
    },
    {
      "icao": "ESSA",
      "alert": "OK",
      "vis_m": 8000,
      "fzfg": false,
      "metar_trigger": false,
      "taf_trigger": false,
      "metar": "METAR ESSA 140420Z 13011KT 8000 -SN SCT012 BKN017 OVC030 M01/M02 Q1013 TEMPO 2500",
      "taf": "TAF ESSA 140230Z 1403/1503 14010KT 8000 -SN FEW008 BKN015"
    },
    {
      "icao": "EYKA",
      "alert": "OK",
      "vis_m": 7000,
      "fzfg": false,
      "metar_trigger": false,
      "taf_trigger": false,
      "metar": "METAR EYKA 140450Z 13003KT 7000 SCT004 M16/M18 Q1023",
      "taf": ""
    },
    {
      "icao": "EYPA",
      "alert": "OK",
      "vis_m": 9999,
      "fzfg": false,
      "metar_trigger": false,
      "taf_trigger": false,
      "metar": "METAR EYPA 140450Z 14011KT CAVOK M11/M12 Q1019",
      "taf": ""
    },
    {
      "icao": "EYVI",
      "alert": "OK",
      "vis_m": 8000,
      "fzfg": false,
      "metar_trigger": false,
      "taf_trigger": false,
      "metar": "METAR EYVI 140450Z 14005KT 8000 -SN OVC002 M10/M12 Q1022 NOSIG",
      "taf": "TAF EYVI 132300Z 1400/1424 VRB04KT 5000 BR BKN002"
    },
    {
      "icao": "GCFV",
      "alert": "OK",
      "vis_m": 9999,
      "fzfg": false,
      "metar_trigger": false,
      "taf_trigger": false,
      "metar": "METAR GCFV 140430Z AUTO 32008KT CAVOK 16/09 Q1021",
      "taf": "TAF GCFV 140200Z 1403/1503 32007KT 9999 SCT025 TX20/1414Z TN14/1406Z"
    },
    {
      "icao": "GCLP",
      "alert": "OK",
      "vis_m": 9999,
      "fzfg": false,
      "metar_trigger": false,
      "taf_trigger": false,
      "metar": "METAR GCLP 140430Z 34011KT 9999 SCT035 BKN060 16/11 Q1021 NOSIG",
      "taf": "TAF GCLP 140200Z 1403/1503 36016KT 9999 SCT030 TX20/1414Z TN16/1406Z"
    },
    {
      "icao": "GCTS",
      "alert": "OK",
      "vis_m": 9999,
      "fzfg": false,
      "metar_trigger": false,
      "taf_trigger": false,
      "metar": "METAR GCTS 140430Z 35008KT 9999 FEW040 16/10 Q1021 NOSIG",
      "taf": "TAF GCTS 140200Z 1403/1503 02005KT 9999 SCT040 TX23/1414Z TN14/1406Z"
    },
    {
      "icao": "GMAD",
      "alert": "OK",
      "vis_m": 9999,
      "fzfg": false,
      "metar_trigger": false,
      "taf_trigger": false,
      "metar": "METAR GMAD 140430Z 07004KT CAVOK 11/11 Q1018 NOSIG",
      "taf": "TAF GMAD 132300Z 1400/1506 06006KT 8000 SCT020 BKN080"
    },
    {
      "icao": "GMMN",
      "alert": "OK",
      "vis_m": 9999,
      "fzfg": false,
      "metar_trigger": false,
      "taf_trigger": false,
      "metar": "METAR GMMN 140430Z 20007KT 9999 SCT020 09/07 Q1018 NOSIG",
      "taf": "TAF GMMN 132300Z 1400/1506 20010KT 9999 SCT030 SCT100"
    },
    {
      "icao": "GMMX",
      "alert": "OK",
      "vis_m": 6000,
      "fzfg": false,
      "metar_trigger": false,
      "taf_trigger": false,
      "metar": "METAR GMMX 140430Z 11007KT 6000 SCT010 BKN016 11/09 Q1018 TEMPO 3000 SHRA",
      "taf": "TAF GMMX 132300Z 1400/1506 12006KT 8000 SCT010 BKN016"
    },
    {
      "icao": "HEGN",
      "alert": "OK",
      "vis_m": 9999,
      "fzfg": false,
      "metar_trigger": false,
      "taf_trigger": false,
      "metar": "METAR HEGN 140400Z 30011KT CAVOK 12/02 Q1022 NOSIG",
      "taf": "TAF HEGN 132300Z 1400/1506 29010G20KT 6000 NSC"
    },
    {
      "icao": "HEMA",
      "alert": "OK",
      "vis_m": 9999,
      "fzfg": false,
      "metar_trigger": false,
      "taf_trigger": false,
      "metar": "METAR HEMA 140400Z 28010KT CAVOK 15/02 Q1021 NOSIG",
      "taf": "TAF HEMA 132300Z 1400/1506 30010G20KT 8000 NSC"
    },
    {
      "icao": "HESH",
      "alert": "OK",
      "vis_m": 9999,
      "fzfg": false,
      "metar_trigger": false,
      "taf_trigger": false,
      "metar": "METAR HESH 140400Z 35009KT CAVOK 14/03 Q1021 NOSIG",
      "taf": "TAF HESH 132300Z 1400/1506 33012KT 8000 NSC"
    },
    {
      "icao": "HESX",
      "alert": "OK",
      "vis_m": 9999,
      "fzfg": false,
      "metar_trigger": false,
      "taf_trigger": false,
      "metar": "METAR HESX 140400Z 26006KT CAVOK 08/04 Q1023 NOSIG",
      "taf": "TAF HESX 132300Z 1400/1506 29009KT 6000 SCT030"
    },
    {
      "icao": "LATI",
      "alert": "OK",
      "vis_m": 9999,
      "fzfg": false,
      "metar_trigger": false,
      "taf_trigger": false,
      "metar": "METAR LATI 140450Z 17005KT 9999 OVC059 06/03 Q1026 NOSIG",
      "taf": "TAF LATI 132300Z 1400/1424 VRB05KT 9999 SCT025 BKN060 TX12/1412Z TN03/1405Z"
    },
    {
      "icao": "LBPD",
      "alert": "OK",
      "vis_m": 9999,
      "fzfg": false,
      "metar_trigger": false,
      "taf_trigger": false,
      "metar": "METAR LBPD 140430Z AUTO 00000KT 9999 OVC065/// M01/M04 Q1021 NOSIG",
      "taf": "TAF LBPD 132300Z 1400/1424 VRB04KT 9999 OVC050"
    },
    {
      "icao": "LBSF",
      "alert": "OK",
      "vis_m": 9999,
      "fzfg": false,
      "metar_trigger": false,
      "taf_trigger": false,
      "metar": "METAR LBSF 140430Z 33004KT 9999 OVC052 01/M02 Q1022 NOSIG",
      "taf": "TAF LBSF 132300Z 1400/1424 30010KT 9999 OVC040"
    },
    {
      "icao": "LBWN",
      "alert": "OK",
      "vis_m": 9999,
      "fzfg": false,
      "metar_trigger": false,
      "taf_trigger": false,
      "metar": "METAR LBWN 140430Z AUTO 34008KT 290V360 9999 OVC013/// 00/M01 Q1022 NOSIG",
      "taf": "TAF LBWN 132300Z 1400/1424 VRB03KT 9999 SCT030"
    },
    {
      "icao": "LCLK",
      "alert": "OK",
      "vis_m": 9999,
      "fzfg": false,
      "metar_trigger": false,
      "taf_trigger": false,
      "metar": "METAR LCLK 140430Z 32004KT 280V340 9999 FEW025 05/02 Q1019 NOSIG",
      "taf": "TAF LCLK 132330Z 1400/1500 33009KT 9999 FEW020"
    },
    {
      "icao": "LCPH",
      "alert": "OK",
      "vis_m": 9999,
      "fzfg": false,
      "metar_trigger": false,
      "taf_trigger": false,
      "metar": "METAR LCPH 140430Z 01004KT 9999 FEW050 07/02 Q1019 NOSIG",
      "taf": "TAF LCPH 132330Z 1400/1500 35008KT 9999 FEW020"
    },
    {
      "icao": "LEAL",
      "alert": "OK",
      "vis_m": 9999,
      "fzfg": false,
      "metar_trigger": false,
      "taf_trigger": false,
      "metar": "METAR LEAL 140430Z 30002KT CAVOK 07/06 Q1017 NOSIG",
      "taf": "TAF LEAL 132300Z 1400/1424 VRB04KT 9999 SCT010 TX16/1413Z TN06/1406Z"
    },
    {
      "icao": "LEBB",
      "alert": "OK",
      "vis_m": 9999,
      "fzfg": false,
      "metar_trigger": false,
      "taf_trigger": false,
      "metar": "METAR LEBB 140430Z VRB02KT 9999 FEW030 11/06 Q1014 NOSIG",
      "taf": "TAF LEBB 132300Z 1400/1424 13008KT 9999 FEW040 SCT060 TX18/1413Z TN07/1424Z"
    },
    {
      "icao": "LEBL",
      "alert": "OK",
      "vis_m": 9000,
      "fzfg": false,
      "metar_trigger": false,
      "taf_trigger": false,
      "metar": "METAR LEBL 140430Z 33011KT 9000 SCT015 08/07 Q1017 NOSIG",
      "taf": "TAF LEBL 132300Z 1400/1424 34007KT 9999 FEW010 BKN020 TX15/1412Z TN06/1406Z"
    },
    {
      "icao": "LECH",
      "alert": "OK",
      "vis_m": 100,
      "fzfg": false,
      "metar_trigger": false,
      "taf_trigger": false,
      "metar": "METAR LECH 140430Z AUTO VRB02KT 0100 R06/0100N FG VV001 06/06 Q1017",
      "taf": ""
    },
    {
      "icao": "LEMD",
      "alert": "OK",
      "vis_m": 9000,
      "fzfg": false,
      "metar_trigger": false,
      "taf_trigger": false,
      "metar": "METAR LEMD 140430Z 19003KT 150V220 9000 FEW012 BKN035 07/07 Q1016 NOSIG",
      "taf": "TAF LEMD 132300Z 1400/1506 VRB03KT 9999 SCT030 TX12/1415Z TN04/1407Z"
    },
    {
      "icao": "LEMG",
      "alert": "OK",
      "vis_m": 9999,
      "fzfg": false,
      "metar_trigger": false,
      "taf_trigger": false,
      "metar": "METAR LEMG 140430Z VRB01KT 9999 FEW030 BKN070 11/10 Q1018 NOSIG",
      "taf": "TAF LEMG 132300Z 1400/1424 27008KT 9999 FEW030 TX17/1414Z TN10/1407Z"
    },
    {
      "icao": "LEVC",
      "alert": "OK",
      "vis_m": 8000,
      "fzfg": false,
      "metar_trigger": false,
      "taf_trigger": false,
      "metar": "METAR LEVC 140430Z 32004KT 8000 FEW010 04/03 Q1017 NOSIG",
      "taf": "TAF LEVC 132300Z 1400/1424 VRB04KT 9999 FEW015 TX19/1414Z TN04/1406Z"
    },
    {
      "icao": "LEXJ",
      "alert": "OK",
      "vis_m": 9999,
      "fzfg": false,
      "metar_trigger": false,
      "taf_trigger": false,
      "metar": "METAR LEXJ 140430Z 24005KT 200V260 CAVOK 12/06 Q1013",
      "taf": "TAF LEXJ 140200Z 1403/1503 21009KT 9999 FEW040 SCT070 TX17/1412Z TN08/1503Z"
    },
    {
      "icao": "LEZG",
      "alert": "OK",
      "vis_m": 1500,
      "fzfg": false,
      "metar_trigger": false,
      "taf_trigger": false,
      "metar": "METAR LEZG 140430Z 10003KT 1500 BR BKN002 05/05 Q1016 NOSIG",
      "taf": "TAF LEZG 132300Z 1400/1424 10005KT 9999 FEW010 TX14/1415Z TN05/1406Z"
    },
    {
      "icao": "LEZL",
      "alert": "OK",
      "vis_m": 8000,
      "fzfg": false,
      "metar_trigger": false,
      "taf_trigger": false,
      "metar": "METAR LEZL 140430Z 12003KT 8000 FEW014 SCT023 11/11 Q1017 NOSIG",
      "taf": "TAF LEZL 140200Z 1403/1503 VRB03KT 9999 FEW030 TX17/1415Z TN08/1407Z"
    },
    {
      "icao": "LFBD",
      "alert": "OK",
      "vis_m": 9999,
      "fzfg": false,
      "metar_trigger": false,
      "taf_trigger": false,
      "metar": "METAR LFBD 140430Z AUTO 16006KT CAVOK 09/09 Q1014 NOSIG",
      "taf": "TAF LFBD 132300Z 1400/1506 15005KT CAVOK TX15/1414Z TN05/1502Z"
    },
    {
      "icao": "LFLL",
      "alert": "OK",
      "vis_m": 9999,
      "fzfg": false,
      "metar_trigger": false,
      "taf_trigger": false,
      "metar": "METAR LFLL 140430Z 18014KT 150V210 CAVOK 11/06 Q1018 NOSIG",
      "taf": "TAF LFLL 132300Z 1400/1506 18012KT CAVOK"
    },
    {
      "icao": "LFLS",
      "alert": "OK",
      "vis_m": 9999,
      "fzfg": false,
      "metar_trigger": false,
      "taf_trigger": false,
      "metar": "METAR LFLS 140430Z AUTO VRB02KT CAVOK 04/02 Q1019 NOSIG",
      "taf": "TAF LFLS 140200Z 1403/1503 VRB03KT CAVOK"
    },
    {
      "icao": "LFMN",
      "alert": "OK",
      "vis_m": 9999,
      "fzfg": false,
      "metar_trigger": false,
      "taf_trigger": false,
      "metar": "METAR LFMN 140430Z 33009KT 9999 FEW033 09/05 Q1021 NOSIG",
      "taf": "TAF LFMN 140200Z 1403/1509 34010KT 9999 SCT035"
    },
    {
      "icao": "LFOB",
      "alert": "OK",
      "vis_m": 9999,
      "fzfg": false,
      "metar_trigger": false,
      "taf_trigger": false,
      "metar": "METAR LFOB 140430Z AUTO 22004KT 9999 BKN048 OVC062 10/07 Q1012 BECMG OVC009",
      "taf": "TAF LFOB 132300Z 1400/1424 20007KT CAVOK"
    },
    {
      "icao": "LFPO",
      "alert": "OK",
      "vis_m": 9999,
      "fzfg": false,
      "metar_trigger": false,
      "taf_trigger": false,
      "metar": "METAR LFPO 140430Z 22005KT 9999 -RA NSC 09/07 Q1013 NOSIG",
      "taf": "TAF LFPO 132300Z 1400/1506 20005KT CAVOK"
    },
    {
      "icao": "LFSB",
      "alert": "OK",
      "vis_m": 9999,
      "fzfg": false,
      "metar_trigger": false,
      "taf_trigger": false,
      "metar": "METAR LFSB 140430Z AUTO 18004KT CAVOK 01/01 Q1017 NOSIG",
      "taf": "TAF LFSB 132300Z 1400/1424 17005KT CAVOK"
    },
    {
      "icao": "LGAV",
      "alert": "OK",
      "vis_m": 9999,
      "fzfg": false,
      "metar_trigger": false,
      "taf_trigger": false,
      "metar": "METAR LGAV 140420Z 29004KT 9999 FEW025 04/01 Q1024 NOSIG",
      "taf": "TAF LGAV 132300Z 1400/1424 VRB03KT 9999 FEW025"
    },
    {
      "icao": "LGTS",
      "alert": "OK",
      "vis_m": 9999,
      "fzfg": false,
      "metar_trigger": false,
      "taf_trigger": false,
      "metar": "METAR LGTS 140420Z 10005KT 9999 FEW025 M02/M04 Q1024 NOSIG",
      "taf": "TAF LGTS 132300Z 1400/1424 34013KT 9999 FEW025"
    },
    {
      "icao": "LHBP",
      "alert": "OK",
      "vis_m": 5000,
      "fzfg": false,
      "metar_trigger": false,
      "taf_trigger": false,
      "metar": "METAR LHBP 140430Z 09005KT 5000 BR OVC005 M06/M07 Q1022 NOSIG",
      "taf": "TAF LHBP 132315Z 1400/1424 VRB03KT 6000 OVC015"
    },
    {
      "icao": "LHDC",
      "alert": "OK",
      "vis_m": 6000,
      "fzfg": false,
      "metar_trigger": false,
      "taf_trigger": false,
      "metar": "METAR LHDC 140415Z AUTO 04003KT 010V070 6000 OVC008 M05/M07 Q1023",
      "taf": ""
    },
    {
      "icao": "LIBD",
      "alert": "OK",
      "vis_m": 9999,
      "fzfg": false,
      "metar_trigger": false,
      "taf_trigger": false,
      "metar": "METAR LIBD 140420Z 21006KT CAVOK 04/02 Q1024",
      "taf": "TAF LIBD 132300Z 1400/1424 22007KT 9999 FEW040"
    },
    {
      "icao": "LIBG",
      "alert": "OK",
      "vis_m": null,
      "fzfg": false,
      "metar_trigger": false,
      "taf_trigger": false,
      "metar": "",
      "taf": "TAF LIBG 131700Z 1318/1403 VRB04KT 9999 FEW040"
    },
    {
      "icao": "LIBP",
      "alert": "OK",
      "vis_m": 9999,
      "fzfg": false,
      "metar_trigger": false,
      "taf_trigger": false,
      "metar": "METAR LIBP 140420Z AUTO 25002KT 9999 NCD 02/02 Q1024",
      "taf": "TAF LIBP 132300Z 1400/1424 VRB06KT CAVOK"
    },
    {
      "icao": "LIBR",
      "alert": "OK",
      "vis_m": 9999,
      "fzfg": false,
      "metar_trigger": false,
      "taf_trigger": false,
      "metar": "METAR LIBR 140420Z 24008KT CAVOK 04/02 Q1025",
      "taf": "TAF LIBR 132300Z 1400/1424 VRB06KT 9999 FEW030"
    },
    {
      "icao": "LICA",
      "alert": "OK",
      "vis_m": 9999,
      "fzfg": false,
      "metar_trigger": false,
      "taf_trigger": false,
      "metar": "METAR LICA 140420Z AUTO 09006KT 9999 NCD 02/01 Q1025",
      "taf": "TAF LICA 132300Z 1400/1424 VRB05KT CAVOK"
    },
    {
      "icao": "LICC",
      "alert": "OK",
      "vis_m": 9999,
      "fzfg": false,
      "metar_trigger": false,
      "taf_trigger": false,
      "metar": "METAR LICC 140420Z 23007KT 9999 SCT040 10/06 Q1025",
      "taf": "TAF LICC 132300Z 1400/1424 26010KT CAVOK"
    },
    {
      "icao": "LICJ",
      "alert": "OK",
      "vis_m": 9999,
      "fzfg": false,
      "metar_trigger": false,
      "taf_trigger": false,
      "metar": "METAR LICJ 140420Z 17005KT 140V250 CAVOK 14/07 Q1024",
      "taf": "TAF LICJ 132300Z 1400/1424 18010KT CAVOK"
    },
    {
      "icao": "LIMC",
      "alert": "OK",
      "vis_m": 4000,
      "fzfg": false,
      "metar_trigger": false,
      "taf_trigger": false,
      "metar": "METAR LIMC 140420Z 28003KT 4000 BR OVC045 03/02 Q1023 NOSIG",
      "taf": "TAF LIMC 132300Z 1400/1506 VRB05KT 9999 BKN040"
    },
    {
      "icao": "LIME",
      "alert": "OK",
      "vis_m": 2000,
      "fzfg": false,
      "metar_trigger": false,
      "taf_trigger": false,
      "metar": "METAR LIME 140420Z VRB02KT 2000 -RA BR BKN025 03/03 Q1022 NOSIG",
      "taf": "TAF LIME 132300Z 1400/1424 VRB04KT 4000 BR SCT035"
    },
    {
      "icao": "LIMF",
      "alert": "OK",
      "vis_m": 9999,
      "fzfg": false,
      "metar_trigger": false,
      "taf_trigger": false,
      "metar": "METAR LIMF 140420Z AUTO VRB01KT 9999 BKN036/// 02/M01 Q1022",
      "taf": "TAF LIMF 132300Z 1400/1424 VRB03KT 9999 SCT040"
    },
    {
      "icao": "LIMJ",
      "alert": "OK",
      "vis_m": 9999,
      "fzfg": false,
      "metar_trigger": false,
      "taf_trigger": false,
      "metar": "METAR LIMJ 140420Z 04004KT 9999 SCT015 BKN040 11/09 Q1021",
      "taf": "TAF LIMJ 132300Z 1400/1424 VRB05KT 9999 BKN020 BKN040"
    },
    {
      "icao": "LIPE",
      "alert": "OK",
      "vis_m": 9999,
      "fzfg": false,
      "metar_trigger": false,
      "taf_trigger": false,
      "metar": "METAR LIPE 140420Z 26005KT 9999 SCT060 04/01 Q1023",
      "taf": "TAF LIPE 132300Z 1400/1424 VRB04KT 9999 BKN060"
    },
    {
      "icao": "LIPH",
      "alert": "OK",
      "vis_m": 9999,
      "fzfg": false,
      "metar_trigger": false,
      "taf_trigger": false,
      "metar": "METAR LIPH 140420Z AUTO VRB01KT 9999 OVC023/// 04/00 Q1023",
      "taf": "TAF LIPH 132300Z 1400/1424 VRB04KT 9999 BKN040"
    },
    {
      "icao": "LIPQ",
      "alert": "OK",
      "vis_m": 5000,
      "fzfg": false,
      "metar_trigger": false,
      "taf_trigger": false,
      "metar": "METAR LIPQ 140420Z AUTO VRB01KT 5000 BR OVC028/// 05/04 Q1023",
      "taf": "TAF LIPQ 132300Z 1400/1424 VRB04KT 9999 BKN035"
    },
    {
      "icao": "LIPR",
      "alert": "OK",
      "vis_m": 6000,
      "fzfg": false,
      "metar_trigger": false,
      "taf_trigger": false,
      "metar": "METAR LIPR 140420Z AUTO 21004KT 6000 SCT067/// 02/01 Q1023",
      "taf": "TAF LIPR 132300Z 1400/1424 VRB05KT 9999 SCT050"
    },
    {
      "icao": "LIPX",
      "alert": "OK",
      "vis_m": 5000,
      "fzfg": false,
      "metar_trigger": false,
      "taf_trigger": false,
      "metar": "METAR LIPX 140420Z 27002KT 5000 BR OVC015 04/03 Q1023",
      "taf": "TAF LIPX 132300Z 1400/1424 VRB04KT 9999 BKN040"
    },
    {
      "icao": "LIPY",
      "alert": "OK",
      "vis_m": 9999,
      "fzfg": false,
      "metar_trigger": false,
      "taf_trigger": false,
      "metar": "METAR LIPY 140420Z AUTO VRB01KT 9999 NCD 05/02 Q1023",
      "taf": "TAF LIPY 132300Z 1400/1424 VRB05KT 9999 SCT050"
    },
    {
      "icao": "LIPZ",
      "alert": "OK",
      "vis_m": 6000,
      "fzfg": false,
      "metar_trigger": false,
      "taf_trigger": false,
      "metar": "METAR LIPZ 140420Z VRB01KT 6000 -RA BKN020 03/02 Q1023 NOSIG",
      "taf": "TAF LIPZ 132300Z 1400/1506 VRB04KT 9999 BKN040"
    },
    {
      "icao": "LIRF",
      "alert": "OK",
      "vis_m": 9999,
      "fzfg": false,
      "metar_trigger": false,
      "taf_trigger": false,
      "metar": "METAR LIRF 140420Z 10006KT 9999 SCT050 09/08 Q1024 NOSIG",
      "taf": "TAF LIRF 132300Z 1400/1506 09007KT 9999 SCT030"
    },
    {
      "icao": "LIRN",
      "alert": "OK",
      "vis_m": 9999,
      "fzfg": false,
      "metar_trigger": false,
      "taf_trigger": false,
      "metar": "METAR LIRN 140420Z 03003KT 350V140 9999 SCT050 07/05 Q1025 NOSIG",
      "taf": "TAF LIRN 132300Z 1400/1424 VRB05KT 9999 SCT030"
    },
    {
      "icao": "LIRP",
      "alert": "OK",
      "vis_m": 9999,
      "fzfg": false,
      "metar_trigger": false,
      "taf_trigger": false,
      "metar": "METAR LIRP 140415Z 13001KT 9999 BKN040 07/07 Q1023 NOSIG",
      "taf": "TAF LIRP 132300Z 1400/1424 12005KT 9999 SCT030 BKN050"
    },
    {
      "icao": "LIRZ",
      "alert": "OK",
      "vis_m": 9999,
      "fzfg": false,
      "metar_trigger": false,
      "taf_trigger": false,
      "metar": "METAR LIRZ 140420Z AUTO 26004KT 9999 FEW028/// BKN043/// 05/05 Q1024",
      "taf": "TAF LIRZ 132300Z 1400/1424 VRB05KT 9999 SCT050"
    },
    {
      "icao": "LJLJ",
      "alert": "OK",
      "vis_m": 9999,
      "fzfg": false,
      "metar_trigger": false,
      "taf_trigger": false,
      "metar": "METAR LJLJ 140430Z 28008KT 9999 FEW003 BKN033 OVC040 01/00 Q1020 NOSIG",
      "taf": "TAF LJLJ 132300Z 1400/1500 28005KT 9999 FEW003 BKN025 OVC030"
    },
    {
      "icao": "LKMT",
      "alert": "OK",
      "vis_m": 4500,
      "fzfg": false,
      "metar_trigger": false,
      "taf_trigger": false,
      "metar": "METAR LKMT 140430Z 22006KT 4500 BR OVC017 00/M00 Q1017 TEMPO OVC014",
      "taf": "TAF LKMT 132300Z 1400/1424 23012KT 4000 BR SCT005 OVC030"
    },
    {
      "icao": "LKPR",
      "alert": "OK",
      "vis_m": 300,
      "fzfg": true,
      "metar_trigger": false,
      "taf_trigger": false,
      "metar": "METAR LKPR 140430Z 18002KT 0300 R24/0550N R30/0375N FZFG VV002 M01/M01 Q1014 NOSIG",
      "taf": "TAF LKPR 140200Z 1403/1509 20004KT 0500 FG VV002"
    },
    {
      "icao": "LLBG",
      "alert": "OK",
      "vis_m": 9999,
      "fzfg": false,
      "metar_trigger": false,
      "taf_trigger": false,
      "metar": "METAR LLBG 140420Z 32005KT 9999 FEW050 13/08 Q1020 REDZ TEMPO 8000 RA BKN030 RMK BKN078",
      "taf": "TAF LLBG 132311Z 1400/1424 30015KT 9999 SCT040"
    },
    {
      "icao": "LMML",
      "alert": "OK",
      "vis_m": 9999,
      "fzfg": false,
      "metar_trigger": false,
      "taf_trigger": false,
      "metar": "METAR LMML 140445Z 19005KT 160V220 9999 BKN031 14/09 Q1025 NOSIG",
      "taf": "TAF LMML 132300Z 1400/1424 20010KT 9999 SCT025"
    },
    {
      "icao": "LOWW",
      "alert": "OK",
      "vis_m": 4100,
      "fzfg": false,
      "metar_trigger": false,
      "taf_trigger": false,
      "metar": "METAR LOWW 140420Z 14007KT 4100 BR BKN004 M04/M05 Q1019 NOSIG",
      "taf": "TAF LOWW 140215Z 1403/1509 13008KT 4000 BR OVC005 TXM01/1413Z TNM03/1408Z"
    },
    {
      "icao": "LPFR",
      "alert": "OK",
      "vis_m": 9999,
      "fzfg": false,
      "metar_trigger": false,
      "taf_trigger": false,
      "metar": "METAR LPFR 140430Z 01003KT 310V030 9999 SCT045 09/08 Q1017",
      "taf": "TAF LPFR 132300Z 1400/1424 VRB02KT 9999 FEW008"
    },
    {
      "icao": "LPMA",
      "alert": "OK",
      "vis_m": 9999,
      "fzfg": false,
      "metar_trigger": false,
      "taf_trigger": false,
      "metar": "METAR LPMA 140430Z 36007KT 290V050 9999 BKN015 15/07 Q1023",
      "taf": "TAF LPMA 132300Z 1400/1424 35010KT 9999 SCT015"
    },
    {
      "icao": "LPPR",
      "alert": "OK",
      "vis_m": 9999,
      "fzfg": false,
      "metar_trigger": false,
      "taf_trigger": false,
      "metar": "METAR LPPR 140430Z 16007KT 9999 FEW006 BKN017 11/10 Q1014",
      "taf": "TAF LPPR 132300Z 1400/1424 17007KT 9999 SCT012 BKN025"
    },
    {
      "icao": "LPPS",
      "alert": "OK",
      "vis_m": 9999,
      "fzfg": false,
      "metar_trigger": false,
      "taf_trigger": false,
      "metar": "METAR LPPS 140430Z 35013KT 9999 SCT015 15/08 Q1023",
      "taf": "TAF LPPS 132300Z 1400/1506 35018KT 9999 SCT015"
    },
    {
      "icao": "LPPT",
      "alert": "OK",
      "vis_m": 9999,
      "fzfg": false,
      "metar_trigger": false,
      "taf_trigger": false,
      "metar": "METAR LPPT 140430Z 26005KT 9999 FEW015 SCT040 11/10 Q1017",
      "taf": "TAF LPPT 132300Z 1400/1506 VRB05KT 9999 SCT012"
    },
    {
      "icao": "LQBK",
      "alert": "OK",
      "vis_m": 9999,
      "fzfg": false,
      "metar_trigger": false,
      "taf_trigger": false,
      "metar": "METAR LQBK 140430Z 19010KT CAVOK 07/03 Q1021 NOSIG",
      "taf": "TAF LQBK 132300Z 1400/1424 21006KT CAVOK TX11/1413Z TNM01/1406Z"
    },
    {
      "icao": "LQSA",
      "alert": "OK",
      "vis_m": 1500,
      "fzfg": false,
      "metar_trigger": false,
      "taf_trigger": false,
      "metar": "METAR LQSA 140430Z VRB02KT 1500 BR OVC001 M04/M04 Q1024",
      "taf": "TAF LQSA 132300Z 1400/1424 VRB02KT 2000 BR BKN008 TX08/1414Z TNM03/1406Z"
    },
    {
      "icao": "LQTZ",
      "alert": "OK",
      "vis_m": 5000,
      "fzfg": false,
      "metar_trigger": false,
      "taf_trigger": false,
      "metar": "METAR LQTZ 140430Z VRB01KT 5000 BR BKN050 01/01 Q1022",
      "taf": "TAF LQTZ 132300Z 1400/1424 VRB02KT 4000 BR SCT005 TX03/1413Z TNM02/1405Z"
    },
    {
      "icao": "LRBC",
      "alert": "OK",
      "vis_m": 8000,
      "fzfg": false,
      "metar_trigger": false,
      "taf_trigger": false,
      "metar": "METAR LRBC 140430Z VRB02KT 8000 SCT030 M07/M09 Q1023",
      "taf": "TAF LRBC 140200Z 1403/1412 VRB04KT 9999 BKN030"
    },
    {
      "icao": "LRBS",
      "alert": "OK",
      "vis_m": 4500,
      "fzfg": false,
      "metar_trigger": false,
      "taf_trigger": false,
      "metar": "METAR LRBS 140430Z 25004KT 4500 BR FEW010 M08/M09 Q1024 NOSIG",
      "taf": "TAF LRBS 132300Z 1400/1424 VRB04KT 9999 BKN040"
    },
    {
      "icao": "LRBV",
      "alert": "OK",
      "vis_m": 7000,
      "fzfg": false,
      "metar_trigger": false,
      "taf_trigger": false,
      "metar": "METAR LRBV 140430Z AUTO 00000KT 7000 FEW004/// OVC011/// M04/M05 Q1021",
      "taf": "TAF LRBV 140200Z 1403/1412 VRB04KT 5000 BR OVC005"
    },
    {
      "icao": "LRCL",
      "alert": "OK",
      "vis_m": 8000,
      "fzfg": false,
      "metar_trigger": false,
      "taf_trigger": false,
      "metar": "METAR LRCL 140430Z 00000KT 8000 OVC007 M06/M08 Q1023",
      "taf": "TAF LRCL 140200Z 1403/1412 VRB03KT 9999 BKN010 OVC020"
    },
    {
      "icao": "LRCV",
      "alert": "OK",
      "vis_m": 2500,
      "fzfg": false,
      "metar_trigger": false,
      "taf_trigger": false,
      "metar": "METAR LRCV 140430Z 11005KT 2500 0800E R26/P2000 BR BCFG OVC002 M03/M03 Q1022",
      "taf": "TAF LRCV 140200Z 1403/1412 VRB04KT 3000 BR OVC010"
    },
    {
      "icao": "LRIA",
      "alert": "OK",
      "vis_m": 9000,
      "fzfg": false,
      "metar_trigger": false,
      "taf_trigger": false,
      "metar": "METAR LRIA 140430Z 28003KT 250V320 9000 OVC047 M07/M08 Q1023",
      "taf": "TAF LRIA 140200Z 1403/1412 VRB04KT 5000 BR NSC"
    },
    {
      "icao": "LROP",
      "alert": "OK",
      "vis_m": 2500,
      "fzfg": false,
      "metar_trigger": false,
      "taf_trigger": false,
      "metar": "METAR LROP 140430Z 24004KT 2500 BR SCT002 M10/M11 Q1023 NOSIG",
      "taf": ""
    },
    {
      "icao": "LRSB",
      "alert": "OK",
      "vis_m": 800,
      "fzfg": true,
      "metar_trigger": false,
      "taf_trigger": false,
      "metar": "METAR LRSB 140430Z 19001KT 0800 R27/1100U FZFG OVC004 M04/M05 Q1021",
      "taf": ""
    },
    {
      "icao": "LRSM",
      "alert": "OK",
      "vis_m": null,
      "fzfg": true,
      "metar_trigger": false,
      "taf_trigger": false,
      "metar": "",
      "taf": "TAF LRSM 140200Z 1403/1412 VRB04KT 0300 FZFG VV001"
    },
    {
      "icao": "LRSV",
      "alert": "OK",
      "vis_m": 9999,
      "fzfg": false,
      "metar_trigger": false,
      "taf_trigger": false,
      "metar": "METAR LRSV 140430Z 00000KT 9999 FEW036 M09/M11 Q1021",
      "taf": "TAF LRSV 140200Z 1403/1412 33006KT 9999 BKN040"
    },
    {
      "icao": "LRTM",
      "alert": "OK",
      "vis_m": 7000,
      "fzfg": false,
      "metar_trigger": false,
      "taf_trigger": false,
      "metar": "METAR LRTM 140430Z AUTO 25002KT 7000 SCT012/// OVC020/// M06/M08 Q1023",
      "taf": "TAF LRTM 140200Z 1403/1412 VRB02KT 9999 OVC015"
    },
    {
      "icao": "LRTR",
      "alert": "OK",
      "vis_m": 2500,
      "fzfg": false,
      "metar_trigger": false,
      "taf_trigger": false,
      "metar": "METAR LRTR 140430Z 11004KT 2500 BR OVC038 M02/M02 Q1022",
      "taf": "TAF LRTR 132300Z 1400/1424 VRB04KT 3000 BR SCT005 BKN010"
    },
    {
      "icao": "LTAC",
      "alert": "OK",
      "vis_m": 9999,
      "fzfg": false,
      "metar_trigger": false,
      "taf_trigger": false,
      "metar": "METAR LTAC 140420Z VRB02KT CAVOK M06/M09 Q1020 NOSIG RMK RWY21C VRB02KT RWY03L 05001KT RWY21R 04002KT RWY03R VRB01KT RWY21L 01002KT",
      "taf": "TAF LTAC 132240Z 1400/1424 VRB02KT CAVOK"
    },
    {
      "icao": "LTFM",
      "alert": "OK",
      "vis_m": 9999,
      "fzfg": false,
      "metar_trigger": false,
      "taf_trigger": false,
      "metar": "METAR LTFM 140420Z 23010KT 9999 -SHRA FEW013 BKN026 BKN090 04/02 Q1022 NOSIG RMK RWY17L 22012KT RWY34L 22007KT RWY16R 22007KT RWY36 22008KT RWY18 23011KT",
      "taf": "TAF LTFM 132240Z 1400/1506 21012KT 9999 -SHRASN SCT013 BKN025"
    },
    {
      "icao": "LUKK",
      "alert": "OK",
      "vis_m": 7000,
      "fzfg": false,
      "metar_trigger": false,
      "taf_trigger": false,
      "metar": "METAR LUKK 140430Z VRB02KT 7000 NSC M09/M11 Q1023 TEMPO 3000 BR",
      "taf": "TAF LUKK 132321Z 1400/1424 VRB04KT 5000 BR SCT020"
    },
    {
      "icao": "LWOH",
      "alert": "OK",
      "vis_m": null,
      "fzfg": false,
      "metar_trigger": false,
      "taf_trigger": false,
      "metar": "",
      "taf": "TAF LWOH 140230Z 1403/1503 VRB02KT 9999 SCT040"
    },
    {
      "icao": "LWSK",
      "alert": "OK",
      "vis_m": 9999,
      "fzfg": false,
      "metar_trigger": false,
      "taf_trigger": false,
      "metar": "METAR LWSK 140450Z VRB01KT CAVOK M06/M08 Q1026 NOSIG",
      "taf": "TAF LWSK 140230Z 1403/1503 VRB02KT CAVOK"
    },
    {
      "icao": "LYBE",
      "alert": "OK",
      "vis_m": 8000,
      "fzfg": false,
      "metar_trigger": false,
      "taf_trigger": false,
      "metar": "METAR LYBE 140430Z 10003KT 8000 BKN045 02/M00 Q1022 NOSIG",
      "taf": "TAF LYBE 132300Z 1400/1424 05005KT 6000 BKN040 TX06/1412Z TN00/1405Z"
    },
    {
      "icao": "LYNI",
      "alert": "OK",
      "vis_m": 8000,
      "fzfg": false,
      "metar_trigger": false,
      "taf_trigger": false,
      "metar": "METAR LYNI 140430Z 12003KT 080V160 8000 BKN050 01/00 Q1024 NOSIG",
      "taf": "TAF LYNI 132300Z 1400/1424 09004KT 6000 BKN050 TX04/1413Z TN00/1406Z"
    },
    {
      "icao": "LYPG",
      "alert": "OK",
      "vis_m": 9999,
      "fzfg": false,
      "metar_trigger": false,
      "taf_trigger": false,
      "metar": "METAR LYPG 140430Z 27002KT 9999 SCT040 SCT070 03/02 Q1027 NOSIG",
      "taf": "TAF LYPG 132300Z 1400/1424 36005KT 9999 SCT034 BKN070 TX11/1413Z TN01/1406Z"
    },
    {
      "icao": "LZIB",
      "alert": "OK",
      "vis_m": 6000,
      "fzfg": false,
      "metar_trigger": false,
      "taf_trigger": false,
      "metar": "METAR LZIB 140430Z 05009KT 6000 OVC009 M04/M05 Q1020 NOSIG",
      "taf": ""
    },
    {
      "icao": "LZKZ",
      "alert": "OK",
      "vis_m": 9999,
      "fzfg": false,
      "metar_trigger": false,
      "taf_trigger": false,
      "metar": "METAR LZKZ 140430Z 15003KT 9999 FEW009 OVC028 M07/M08 Q1022 NOSIG",
      "taf": "TAF LZKZ 132315Z 1400/1500 VRB02KT 7000 FEW014 OVC028"
    },
    {
      "icao": "LZTT",
      "alert": "OK",
      "vis_m": 9999,
      "fzfg": false,
      "metar_trigger": false,
      "taf_trigger": false,
      "metar": "METAR LZTT 140430Z 15002KT 9999 OVC007 M07/M08 Q1017",
      "taf": "TAF LZTT 132315Z 1400/1500 VRB02KT 8000 OVC012"
    },
    {
      "icao": "OEJN",
      "alert": "OK",
      "vis_m": 9999,
      "fzfg": false,
      "metar_trigger": false,
      "taf_trigger": false,
      "metar": "METAR OEJN 140400Z 01007KT 9999 FEW040 22/10 Q1017 NOSIG",
      "taf": "TAF OEJN 132300Z 1400/1506 02008KT 7000 FEW040"
    },
    {
      "icao": "OEMA",
      "alert": "OK",
      "vis_m": 9000,
      "fzfg": false,
      "metar_trigger": false,
      "taf_trigger": false,
      "metar": "METAR OEMA 140400Z VRB02KT 9000 NSC 14/04 Q1021 NOSIG",
      "taf": "TAF OEMA 132300Z 1400/1506 33005KT CAVOK"
    },
    {
      "icao": "OJAI",
      "alert": "OK",
      "vis_m": 2000,
      "fzfg": false,
      "metar_trigger": false,
      "taf_trigger": false,
      "metar": "METAR OJAI 140400Z 27022KT 2000 BR SCT025 BKN030 06/05 Q1017 NOSIG",
      "taf": "TAF OJAI 132237Z 1400/1506 24018KT 3000 -RA BR BKN035"
    },
    {
      "icao": "OMAA",
      "alert": "OK",
      "vis_m": 6000,
      "fzfg": false,
      "metar_trigger": false,
      "taf_trigger": false,
      "metar": "SPECI OMAA 140431Z 12003KT 6000 NSC 17/10 Q1019 NOSIG",
      "taf": "TAF OMAA 132300Z 1400/1506 12005KT 7000 NSC"
    },
    {
      "icao": "OMDB",
      "alert": "OK",
      "vis_m": 5000,
      "fzfg": false,
      "metar_trigger": false,
      "taf_trigger": false,
      "metar": "METAR OMDB 140430Z 11003KT 070V130 5000 HZ NSC 18/11 Q1019 BECMG 7000 NSW",
      "taf": "TAF OMDB 132300Z 1400/1506 13005KT 6000 NSC"
    },
    {
      "icao": "UAAA",
      "alert": "OK",
      "vis_m": 2200,
      "fzfg": false,
      "metar_trigger": false,
      "taf_trigger": false,
      "metar": "METAR UAAA 140430Z 28002MPS 220V310 2200 BR OVC004 M02/M02 Q1018 NOSIG RMK QBB130",
      "taf": ""
    },
    {
      "icao": "UBBB",
      "alert": "OK",
      "vis_m": 9999,
      "fzfg": false,
      "metar_trigger": false,
      "taf_trigger": false,
      "metar": "METAR UBBB 140430Z 33024G36KT 9999 -SHRA SCT015 BKN038CB OVC038 04/02 Q1016 NOSIG",
      "taf": "TAF UBBB 132258Z 1400/1424 32024G34KT 8000 SCT010 FEW030CB OVC030 TX06/1410Z TN03/1401Z"
    },
    {
      "icao": "UDSG",
      "alert": "OK",
      "vis_m": 9999,
      "fzfg": false,
      "metar_trigger": false,
      "taf_trigger": false,
      "metar": "METAR UDSG 140430Z 30002KT 9999 FEW049 M08/M12 Q1013 NOSIG",
      "taf": "TAF UDSG 132300Z 1400/1424 VRB06KT 5000 BR BKN030"
    },
    {
      "icao": "UDYZ",
      "alert": "OK",
      "vis_m": 9999,
      "fzfg": false,
      "metar_trigger": false,
      "taf_trigger": false,
      "metar": "METAR UDYZ 140430Z 11004KT 9999 BKN006 M00/M03 Q1013 NOSIG",
      "taf": "TAF UDYZ 132300Z 1400/1424 14006KT 2300 BR SCT040"
    },
    {
      "icao": "UGKO",
      "alert": "OK",
      "vis_m": 9999,
      "fzfg": false,
      "metar_trigger": false,
      "taf_trigger": false,
      "metar": "METAR UGKO 140430Z VRB02KT 9999 SCT051 BKN098 01/01 Q1021 NOSIG",
      "taf": "TAF UGKO 132300Z 1400/1424 26007KT 9999 SCT017 BKN050 TX06/1411Z TN01/1403Z"
    }
  ]
}