{
  "ts_utc": "2026-07-19T12:36:43Z",
  "threshold_m": 150,
  "source": "stations_override.txt (ICAO list) + aviationweather.gov (METAR/TAF raw)",
  "station_count": 159,
  "stations": [
    {
      "icao": "BIKF",
      "alert": "OK",
      "vis_m": 2000,
      "fzfg": false,
      "metar_trigger": false,
      "taf_trigger": false,
      "metar": "METAR BIKF 191230Z 24011KT 2000 R19/P1500N BR OVC004 11/11 Q1026",
      "taf": "TAF BIKF 191059Z 1912/2012 24012KT 9999 -DZ OVC010 TX12/1915Z TN10/2003Z"
    },
    {
      "icao": "BKPR",
      "alert": "OK",
      "vis_m": 9999,
      "fzfg": false,
      "metar_trigger": false,
      "taf_trigger": false,
      "metar": "METAR BKPR 191230Z 30007KT 9999 FEW025 34/13 Q1014 NOSIG",
      "taf": "TAF BKPR 191130Z 1912/2012 02008KT 9999 FEW050"
    },
    {
      "icao": "EBCI",
      "alert": "OK",
      "vis_m": 9999,
      "fzfg": false,
      "metar_trigger": false,
      "taf_trigger": false,
      "metar": "METAR EBCI 191220Z 32005KT 270V020 9999 FEW041 21/09 Q1022 NOSIG",
      "taf": "TAF EBCI 191100Z 1912/2018 34009KT 9999 SCT040"
    },
    {
      "icao": "EDDB",
      "alert": "OK",
      "vis_m": 9999,
      "fzfg": false,
      "metar_trigger": false,
      "taf_trigger": false,
      "metar": "METAR EDDB 191220Z AUTO 27012KT CAVOK 21/09 Q1014 NOSIG",
      "taf": "TAF EDDB 191100Z 1912/2012 27012KT 9999 SCT030"
    },
    {
      "icao": "EDDH",
      "alert": "OK",
      "vis_m": 9999,
      "fzfg": false,
      "metar_trigger": false,
      "taf_trigger": false,
      "metar": "METAR EDDH 191220Z AUTO 28016KT 250V310 9999 FEW029 BKN038 18/09 Q1015 TEMPO 30015G25KT",
      "taf": "TAF EDDH 191100Z 1912/2018 29011KT 9999 BKN030"
    },
    {
      "icao": "EDDK",
      "alert": "OK",
      "vis_m": 9999,
      "fzfg": false,
      "metar_trigger": false,
      "taf_trigger": false,
      "metar": "METAR EDDK 191220Z AUTO 30011KT 240V350 CAVOK 22/07 Q1020 NOSIG",
      "taf": "TAF EDDK 191100Z 1912/2018 30011KT CAVOK"
    },
    {
      "icao": "EDDN",
      "alert": "OK",
      "vis_m": 9999,
      "fzfg": false,
      "metar_trigger": false,
      "taf_trigger": false,
      "metar": "METAR EDDN 191220Z AUTO 31013KT 280V350 9999 FEW046 20/09 Q1018 NOSIG",
      "taf": "TAF EDDN 191100Z 1912/2012 30010KT 9999 FEW045"
    },
    {
      "icao": "EDDS",
      "alert": "OK",
      "vis_m": 9999,
      "fzfg": false,
      "metar_trigger": false,
      "taf_trigger": false,
      "metar": "METAR EDDS 191220Z AUTO 32012KT 290V010 9999 FEW043 22/10 Q1019 NOSIG",
      "taf": "TAF EDDS 191100Z 1912/2012 32009KT 9999 SCT030"
    },
    {
      "icao": "EDFH",
      "alert": "OK",
      "vis_m": 9999,
      "fzfg": false,
      "metar_trigger": false,
      "taf_trigger": false,
      "metar": "METAR EDFH 191220Z 31007KT 250V350 9999 FEW048 18/07 Q1021",
      "taf": "TAF EDFH 191100Z 1912/2012 32010KT 9999 SCT035"
    },
    {
      "icao": "EDJA",
      "alert": "OK",
      "vis_m": 9999,
      "fzfg": false,
      "metar_trigger": false,
      "taf_trigger": false,
      "metar": "METAR EDJA 191220Z 22008G18KT 180V280 9999 SCT038 BKN046 20/11 Q1019",
      "taf": "TAF EDJA 191100Z 1912/1921 26005KT 9999 SCT030"
    },
    {
      "icao": "EDLW",
      "alert": "OK",
      "vis_m": 9999,
      "fzfg": false,
      "metar_trigger": false,
      "taf_trigger": false,
      "metar": "METAR EDLW 191220Z VRB05KT 9999 FEW039 20/10 Q1020",
      "taf": "TAF EDLW 191100Z 1912/2012 28009KT 9999 SCT030"
    },
    {
      "icao": "EDNY",
      "alert": "OK",
      "vis_m": 9999,
      "fzfg": false,
      "metar_trigger": false,
      "taf_trigger": false,
      "metar": "METAR EDNY 191220Z VRB05KT CAVOK 21/12 Q1019",
      "taf": "TAF EDNY 191100Z 1912/1921 24005KT 9999 SCT030"
    },
    {
      "icao": "EDSB",
      "alert": "OK",
      "vis_m": 9999,
      "fzfg": false,
      "metar_trigger": false,
      "taf_trigger": false,
      "metar": "METAR EDSB 191220Z VRB05KT CAVOK 22/09 Q1019",
      "taf": "TAF EDSB 191100Z 1912/2012 01005KT 9999 SCT045"
    },
    {
      "icao": "EETN",
      "alert": "OK",
      "vis_m": 9999,
      "fzfg": false,
      "metar_trigger": false,
      "taf_trigger": false,
      "metar": "METAR EETN 191220Z 32009KT 9999 FEW018 20/16 Q1009 TEMPO FEW025CB",
      "taf": "TAF EETN 191130Z 1912/2012 32010KT 9999 BKN025"
    },
    {
      "icao": "EFTU",
      "alert": "OK",
      "vis_m": 9999,
      "fzfg": false,
      "metar_trigger": false,
      "taf_trigger": false,
      "metar": "METAR EFTU 191220Z AUTO 05006KT 010V090 9999 BKN029 18/12 Q1010",
      "taf": "TAF EFTU 191125Z 1912/2012 03008KT 9999 BKN025"
    },
    {
      "icao": "EGBB",
      "alert": "OK",
      "vis_m": 9999,
      "fzfg": false,
      "metar_trigger": false,
      "taf_trigger": false,
      "metar": "METAR EGBB 191220Z VRB09KT 9999 BKN042 20/08 Q1026",
      "taf": ""
    },
    {
      "icao": "EGGP",
      "alert": "OK",
      "vis_m": 9999,
      "fzfg": false,
      "metar_trigger": false,
      "taf_trigger": false,
      "metar": "METAR EGGP 191220Z 03007KT 340V100 9999 SCT045 21/08 Q1026",
      "taf": "TAF EGGP 191056Z 1912/2012 08006KT 9999 FEW030"
    },
    {
      "icao": "EGGW",
      "alert": "OK",
      "vis_m": 9999,
      "fzfg": false,
      "metar_trigger": false,
      "taf_trigger": false,
      "metar": "METAR EGGW 191220Z AUTO 34012KT 9999 NCD 19/05 Q1025",
      "taf": "TAF EGGW 191100Z 1912/2012 01009KT 9999 FEW045"
    },
    {
      "icao": "EGKK",
      "alert": "OK",
      "vis_m": 9999,
      "fzfg": false,
      "metar_trigger": false,
      "taf_trigger": false,
      "metar": "METAR EGKK 191220Z 34011KT 300V020 CAVOK 21/06 Q1025",
      "taf": "TAF EGKK 191102Z 1912/2018 01012KT 9999 FEW040"
    },
    {
      "icao": "EGNM",
      "alert": "OK",
      "vis_m": 9999,
      "fzfg": false,
      "metar_trigger": false,
      "taf_trigger": false,
      "metar": "METAR EGNM 191220Z 36008KT 330V050 9999 FEW037 16/05 Q1027",
      "taf": "TAF EGNM 191056Z 1912/2012 01010KT 9999 FEW025"
    },
    {
      "icao": "EGPD",
      "alert": "OK",
      "vis_m": 9999,
      "fzfg": false,
      "metar_trigger": false,
      "taf_trigger": false,
      "metar": "METAR EGPD 191220Z AUTO 35011KT 9999 NCD 20/03 Q1026",
      "taf": "TAF EGPD 191055Z 1912/2012 33009KT 9999 FEW035"
    },
    {
      "icao": "EGPF",
      "alert": "OK",
      "vis_m": 9999,
      "fzfg": false,
      "metar_trigger": false,
      "taf_trigger": false,
      "metar": "METAR EGPF 191220Z AUTO VRB04KT 9999 NCD 22/07 Q1027",
      "taf": "TAF EGPF 191058Z 1912/2012 VRB03KT 9999 FEW035"
    },
    {
      "icao": "EHBK",
      "alert": "OK",
      "vis_m": 9999,
      "fzfg": false,
      "metar_trigger": false,
      "taf_trigger": false,
      "metar": "METAR EHBK 191225Z AUTO 35009KT 310V030 9999 NSC 21/09 Q1021 NOSIG",
      "taf": "TAF EHBK 191117Z 1912/2018 32008KT 9999 BKN040"
    },
    {
      "icao": "EHEH",
      "alert": "OK",
      "vis_m": 9999,
      "fzfg": false,
      "metar_trigger": false,
      "taf_trigger": false,
      "metar": "METAR EHEH 191225Z AUTO 32007KT 230V040 9999 BKN049 BKN055 OVC063 20/08 Q1021 BLU NOSIG RMK TREND REMOTE BY EHWX",
      "taf": "TAF EHEH 191112Z 1912/2018 33008KT 9999 BKN045"
    },
    {
      "icao": "EKBI",
      "alert": "OK",
      "vis_m": 9999,
      "fzfg": false,
      "metar_trigger": false,
      "taf_trigger": false,
      "metar": "METAR EKBI 191220Z AUTO 33014G26KT 9999 RA BKN012/// 13/12 Q1015",
      "taf": "TAF EKBI 191127Z 1912/2012 32012KT 9999 BKN020"
    },
    {
      "icao": "EKCH",
      "alert": "OK",
      "vis_m": 9999,
      "fzfg": false,
      "metar_trigger": false,
      "taf_trigger": false,
      "metar": "METAR EKCH 191220Z 22010KT 9999 BKN014 OVC021 16/16 Q1009 RERA NOSIG",
      "taf": ""
    },
    {
      "icao": "ENAL",
      "alert": "OK",
      "vis_m": 9999,
      "fzfg": false,
      "metar_trigger": false,
      "taf_trigger": false,
      "metar": "METAR ENAL 191220Z 02010KT CAVOK 15/08 Q1020",
      "taf": "TAF ENAL 191100Z 1912/1921 05012KT CAVOK"
    },
    {
      "icao": "ENBR",
      "alert": "OK",
      "vis_m": 9999,
      "fzfg": false,
      "metar_trigger": false,
      "taf_trigger": false,
      "metar": "METAR ENBR 191220Z 23006KT 120V260 9999 SCT035 18/10 Q1017 NOSIG RMK WIND 1200FT 02005KT",
      "taf": "TAF ENBR 191100Z 1912/2012 22005KT 9999 FEW040"
    },
    {
      "icao": "ENGM",
      "alert": "OK",
      "vis_m": 9999,
      "fzfg": false,
      "metar_trigger": false,
      "taf_trigger": false,
      "metar": "METAR ENGM 191220Z 02012KT CAVOK 14/04 Q1017 NOSIG",
      "taf": "TAF ENGM 191100Z 1912/2012 02010KT CAVOK"
    },
    {
      "icao": "ENHD",
      "alert": "OK",
      "vis_m": 9999,
      "fzfg": false,
      "metar_trigger": false,
      "taf_trigger": false,
      "metar": "METAR ENHD 191220Z 35008KT CAVOK 14/09 Q1017",
      "taf": "TAF ENHD 191100Z 1912/1921 35008KT 9999 FEW040"
    },
    {
      "icao": "ENTC",
      "alert": "OK",
      "vis_m": 9999,
      "fzfg": false,
      "metar_trigger": false,
      "taf_trigger": false,
      "metar": "METAR ENTC 191220Z 28011KT 9999 VCSH BKN035 BKN041 10/03 Q1017 NOSIG RMK WIND 2600FT 26012KT",
      "taf": "TAF ENTC 191100Z 1912/2012 28012KT 9999 BKN035"
    },
    {
      "icao": "ENTO",
      "alert": "OK",
      "vis_m": 9999,
      "fzfg": false,
      "metar_trigger": false,
      "taf_trigger": false,
      "metar": "METAR ENTO 191220Z 36009KT CAVOK 14/06 Q1017 NOSIG",
      "taf": "TAF ENTO 191100Z 1912/2012 36010KT CAVOK"
    },
    {
      "icao": "ENVA",
      "alert": "OK",
      "vis_m": 9999,
      "fzfg": false,
      "metar_trigger": false,
      "taf_trigger": false,
      "metar": "METAR ENVA 191220Z 24010KT 9999 FEW049 15/06 Q1020 NOSIG RMK WIND 670FT 29008KT",
      "taf": "TAF ENVA 191100Z 1912/2012 27010KT 9999 FEW045"
    },
    {
      "icao": "ENZV",
      "alert": "OK",
      "vis_m": 9999,
      "fzfg": false,
      "metar_trigger": false,
      "taf_trigger": false,
      "metar": "METAR ENZV 191220Z 29008KT CAVOK 16/11 Q1017 NOSIG",
      "taf": "TAF ENZV 191100Z 1912/2012 32008KT 9999 FEW040"
    },
    {
      "icao": "EPGD",
      "alert": "OK",
      "vis_m": 9999,
      "fzfg": false,
      "metar_trigger": false,
      "taf_trigger": false,
      "metar": "METAR EPGD 191230Z 23007KT 170V270 9999 SCT047 22/10 Q1012",
      "taf": "TAF EPGD 191130Z 1912/2012 24010KT 9999 SCT045"
    },
    {
      "icao": "EPKK",
      "alert": "OK",
      "vis_m": 9999,
      "fzfg": false,
      "metar_trigger": false,
      "taf_trigger": false,
      "metar": "METAR EPKK 191230Z 27004KT 260V340 9999 FEW056TCU 26/13 Q1011",
      "taf": "TAF EPKK 191130Z 1912/2012 VRB02KT 9999 SCT040"
    },
    {
      "icao": "EPKT",
      "alert": "OK",
      "vis_m": 9999,
      "fzfg": false,
      "metar_trigger": false,
      "taf_trigger": false,
      "metar": "METAR EPKT 191230Z 19008KT 160V220 CAVOK 26/14 Q1011",
      "taf": "TAF EPKT 191130Z 1912/2012 17008KT 9999 SCT040"
    },
    {
      "icao": "EPLB",
      "alert": "OK",
      "vis_m": 9999,
      "fzfg": false,
      "metar_trigger": false,
      "taf_trigger": false,
      "metar": "METAR EPLB 191230Z 13007KT 9999 VCTS FEW050CB 19/17 Q1013",
      "taf": "TAF EPLB 191130Z 1912/2012 VRB05KT CAVOK"
    },
    {
      "icao": "EPMO",
      "alert": "OK",
      "vis_m": 9999,
      "fzfg": false,
      "metar_trigger": false,
      "taf_trigger": false,
      "metar": "METAR EPMO 191230Z VRB04KT CAVOK 26/13 Q1012",
      "taf": "TAF EPMO 191130Z 1912/2012 VRB05KT CAVOK"
    },
    {
      "icao": "EPPO",
      "alert": "OK",
      "vis_m": 9999,
      "fzfg": false,
      "metar_trigger": false,
      "taf_trigger": false,
      "metar": "METAR EPPO 191230Z 25007KT 220V280 9999 -RA SCT008 BKN028 16/15 Q1015",
      "taf": "TAF EPPO 191130Z 1912/2012 25008KT CAVOK"
    },
    {
      "icao": "EPRA",
      "alert": "OK",
      "vis_m": 9999,
      "fzfg": false,
      "metar_trigger": false,
      "taf_trigger": false,
      "metar": "METAR EPRA 191230Z VRB06KT CAVOK 27/11 Q1011",
      "taf": "TAF EPRA 191130Z 1912/1921 VRB03KT CAVOK"
    },
    {
      "icao": "EPRZ",
      "alert": "OK",
      "vis_m": 9999,
      "fzfg": false,
      "metar_trigger": false,
      "taf_trigger": false,
      "metar": "METAR EPRZ 191230Z VRB02KT CAVOK 27/14 Q1011",
      "taf": "TAF EPRZ 191130Z 1912/2012 18006KT 9999 SCT040"
    },
    {
      "icao": "EPSC",
      "alert": "OK",
      "vis_m": 9999,
      "fzfg": false,
      "metar_trigger": false,
      "taf_trigger": false,
      "metar": "METAR EPSC 191230Z 23007KT 200V290 9999 SCT047 21/09 Q1012",
      "taf": "TAF EPSC 191130Z 1912/2012 22010KT 9999 SCT040"
    },
    {
      "icao": "EPSY",
      "alert": "OK",
      "vis_m": 9999,
      "fzfg": false,
      "metar_trigger": false,
      "taf_trigger": false,
      "metar": "METAR EPSY 191230Z 25006KT 210V310 9999 SCT044 23/12 Q1012",
      "taf": "TAF EPSY 191130Z 1912/1921 26006KT 9999 SCT040"
    },
    {
      "icao": "EPWA",
      "alert": "OK",
      "vis_m": 9999,
      "fzfg": false,
      "metar_trigger": false,
      "taf_trigger": false,
      "metar": "METAR EPWA 191230Z 36006KT 300V050 CAVOK 26/13 Q1012 NOSIG",
      "taf": "TAF EPWA 191130Z 1912/2012 VRB05KT CAVOK"
    },
    {
      "icao": "EPWR",
      "alert": "OK",
      "vis_m": 9999,
      "fzfg": false,
      "metar_trigger": false,
      "taf_trigger": false,
      "metar": "METAR EPWR 191230Z 34010KT 9999 SCT012 17/14 Q1014",
      "taf": ""
    },
    {
      "icao": "ESGG",
      "alert": "OK",
      "vis_m": 9999,
      "fzfg": false,
      "metar_trigger": false,
      "taf_trigger": false,
      "metar": "METAR ESGG 191220Z 03015KT 9999 BKN009 12/10 Q1012",
      "taf": "TAF ESGG 191130Z 1912/2012 03016KT 9999 -RA BKN009"
    },
    {
      "icao": "ESKN",
      "alert": "OK",
      "vis_m": 8000,
      "fzfg": false,
      "metar_trigger": false,
      "taf_trigger": false,
      "metar": "METAR ESKN 191220Z 35007KT 320V030 8000 -RA FEW008 SCT011 BKN014 13/12 Q1012",
      "taf": "TAF ESKN 191130Z 1912/2012 36012G22KT 9999 -RA SCT007 BKN012"
    },
    {
      "icao": "ESMS",
      "alert": "OK",
      "vis_m": 9999,
      "fzfg": false,
      "metar_trigger": false,
      "taf_trigger": false,
      "metar": "METAR ESMS 191220Z 22013KT 9999 SCT025 OVC045 18/12 Q1009",
      "taf": "TAF ESMS 191127Z 1912/2012 26008KT 9999 BKN020"
    },
    {
      "icao": "ESSA",
      "alert": "OK",
      "vis_m": 9999,
      "fzfg": false,
      "metar_trigger": false,
      "taf_trigger": false,
      "metar": "METAR ESSA 191220Z 36015KT 9999 -RA FEW023 BKN066 14/09 Q1012 NOSIG",
      "taf": "TAF ESSA 191130Z 1912/2012 01016KT CAVOK"
    },
    {
      "icao": "EYKA",
      "alert": "OK",
      "vis_m": 9999,
      "fzfg": false,
      "metar_trigger": false,
      "taf_trigger": false,
      "metar": "METAR EYKA 191220Z 28009KT 240V300 9999 BKN048 23/13 Q1013",
      "taf": "TAF EYKA 190500Z 1906/2006 25010KT 9000 SCT010 BKN015"
    },
    {
      "icao": "EYPA",
      "alert": "OK",
      "vis_m": 9999,
      "fzfg": false,
      "metar_trigger": false,
      "taf_trigger": false,
      "metar": "METAR EYPA 191220Z 25006KT 200V310 9999 FEW025 SCT045 19/13 Q1013",
      "taf": ""
    },
    {
      "icao": "EYVI",
      "alert": "OK",
      "vis_m": 9999,
      "fzfg": false,
      "metar_trigger": false,
      "taf_trigger": false,
      "metar": "METAR EYVI 191220Z 23007KT 180V300 9999 SCT043 22/13 Q1013 NOSIG",
      "taf": "TAF EYVI 191103Z 1912/2012 27013KT 9000 BKN025"
    },
    {
      "icao": "GCFV",
      "alert": "OK",
      "vis_m": 9999,
      "fzfg": false,
      "metar_trigger": false,
      "taf_trigger": false,
      "metar": "METAR GCFV 191230Z 04018KT CAVOK 26/20 Q1015",
      "taf": "TAF GCFV 190800Z 1909/2009 04016KT CAVOK TX27/1914Z TN22/2006Z"
    },
    {
      "icao": "GCLP",
      "alert": "OK",
      "vis_m": 9999,
      "fzfg": false,
      "metar_trigger": false,
      "taf_trigger": false,
      "metar": "METAR GCLP 191230Z 02029KT 9999 FEW028 27/19 Q1016 NOSIG",
      "taf": "TAF GCLP 190800Z 1909/2009 02024KT 9999 FEW025 TX29/1914Z TN23/2006Z"
    },
    {
      "icao": "GCTS",
      "alert": "OK",
      "vis_m": 9999,
      "fzfg": false,
      "metar_trigger": false,
      "taf_trigger": false,
      "metar": "METAR GCTS 191230Z 08021KT 9999 FEW020 28/18 Q1016 NOSIG",
      "taf": "TAF GCTS 190800Z 1909/2009 08022KT CAVOK TX29/1914Z TN22/2006Z"
    },
    {
      "icao": "GMAD",
      "alert": "OK",
      "vis_m": 8000,
      "fzfg": false,
      "metar_trigger": false,
      "taf_trigger": false,
      "metar": "METAR GMAD 191230Z 24008KT 200V260 8000 NSC 31/18 Q1011 NOSIG",
      "taf": "TAF GMAD 191100Z 1912/2018 27012KT 8000 NSC"
    },
    {
      "icao": "GMMN",
      "alert": "OK",
      "vis_m": 9999,
      "fzfg": false,
      "metar_trigger": false,
      "taf_trigger": false,
      "metar": "METAR GMMN 191230Z 36010KT CAVOK 27/18 Q1016 NOSIG",
      "taf": "TAF GMMN 191100Z 1912/2018 02012KT CAVOK"
    },
    {
      "icao": "GMMX",
      "alert": "OK",
      "vis_m": 8000,
      "fzfg": false,
      "metar_trigger": false,
      "taf_trigger": false,
      "metar": "METAR GMMX 191230Z VRB06KT 8000 SCT033 BKN100 30/19 Q1016 NOSIG",
      "taf": "TAF GMMX 191100Z 1912/2018 06006KT 8000 SCT033 SCT120"
    },
    {
      "icao": "HEGN",
      "alert": "OK",
      "vis_m": 9999,
      "fzfg": false,
      "metar_trigger": false,
      "taf_trigger": false,
      "metar": "METAR HEGN 191200Z 07004KT CAVOK 38/09 Q1008 NOSIG",
      "taf": "TAF HEGN 191100Z 1912/2018 04010KT CAVOK"
    },
    {
      "icao": "HEMA",
      "alert": "OK",
      "vis_m": 9999,
      "fzfg": false,
      "metar_trigger": false,
      "taf_trigger": false,
      "metar": "METAR HEMA 191200Z 08008KT CAVOK 36/18 Q1008 NOSIG",
      "taf": "TAF HEMA 191100Z 1912/2018 06010KT CAVOK"
    },
    {
      "icao": "HESH",
      "alert": "OK",
      "vis_m": 9999,
      "fzfg": false,
      "metar_trigger": false,
      "taf_trigger": false,
      "metar": "METAR HESH 191200Z 04006KT CAVOK 40/13 Q1007 NOSIG",
      "taf": "TAF HESH 191100Z 1912/2018 02010KT CAVOK"
    },
    {
      "icao": "HESX",
      "alert": "OK",
      "vis_m": 9999,
      "fzfg": false,
      "metar_trigger": false,
      "taf_trigger": false,
      "metar": "METAR HESX 191200Z 01007KT CAVOK 37/14 Q1009 NOSIG",
      "taf": "TAF HESX 191100Z 1912/2018 01008KT CAVOK"
    },
    {
      "icao": "LATI",
      "alert": "OK",
      "vis_m": 9999,
      "fzfg": false,
      "metar_trigger": false,
      "taf_trigger": false,
      "metar": "METAR LATI 191220Z 35005KT 280V070 CAVOK 35/19 Q1012 NOSIG",
      "taf": "TAF LATI 191100Z 1912/2012 26011KT CAVOK TX38/2012Z TN22/2004Z"
    },
    {
      "icao": "LBPD",
      "alert": "OK",
      "vis_m": 9999,
      "fzfg": false,
      "metar_trigger": false,
      "taf_trigger": false,
      "metar": "METAR LBPD 191230Z AUTO 06007KT 020V110 9999 NCD 34/17 Q1012 NOSIG",
      "taf": "TAF LBPD 191100Z 1912/2012 VRB04KT 9999 SCT070"
    },
    {
      "icao": "LBSF",
      "alert": "OK",
      "vis_m": 9999,
      "fzfg": false,
      "metar_trigger": false,
      "taf_trigger": false,
      "metar": "METAR LBSF 191230Z 28006KT 230V340 9999 FEW066 33/15 Q1014 NOSIG",
      "taf": "TAF LBSF 191100Z 1912/2012 VRB04KT 9999 SCT060"
    },
    {
      "icao": "LBWN",
      "alert": "OK",
      "vis_m": 9999,
      "fzfg": false,
      "metar_trigger": false,
      "taf_trigger": false,
      "metar": "METAR LBWN 191230Z AUTO 15011KT 120V180 9999 NSC 30/11 Q1013 NOSIG",
      "taf": "TAF LBWN 191100Z 1912/2012 12012KT 9999 SCT045"
    },
    {
      "icao": "LCLK",
      "alert": "OK",
      "vis_m": 9999,
      "fzfg": false,
      "metar_trigger": false,
      "taf_trigger": false,
      "metar": "METAR LCLK 191230Z 21016KT 180V240 9999 FEW030 33/26 Q1008 NOSIG",
      "taf": "TAF LCLK 191130Z 1912/2012 21017KT 9999 FEW025"
    },
    {
      "icao": "LCPH",
      "alert": "OK",
      "vis_m": 9999,
      "fzfg": false,
      "metar_trigger": false,
      "taf_trigger": false,
      "metar": "METAR LCPH 191230Z 25009KT 9999 FEW014 FEW030TCU 32/26 Q1009 NOSIG",
      "taf": "TAF LCPH 191130Z 1912/2012 30014KT 9999 FEW020"
    },
    {
      "icao": "LEAL",
      "alert": "OK",
      "vis_m": 9999,
      "fzfg": false,
      "metar_trigger": false,
      "taf_trigger": false,
      "metar": "METAR LEAL 191230Z 14008KT 080V210 9999 FEW014 BKN025 32/24 Q1013 NOSIG",
      "taf": "TAF LEAL 191100Z 1912/2012 12008KT 9999 SCT020 TX33/1916Z TN25/2005Z"
    },
    {
      "icao": "LEBB",
      "alert": "OK",
      "vis_m": 9999,
      "fzfg": false,
      "metar_trigger": false,
      "taf_trigger": false,
      "metar": "METAR LEBB 191230Z 34007KT 280V030 9999 SCT032 BKN049 29/21 Q1015 NOSIG",
      "taf": "TAF LEBB 191100Z 1912/2012 34009KT 9999 FEW035 TX30/2012Z TN20/2005Z"
    },
    {
      "icao": "LEBL",
      "alert": "OK",
      "vis_m": 9999,
      "fzfg": false,
      "metar_trigger": false,
      "taf_trigger": false,
      "metar": "METAR LEBL 191230Z 20010KT 140V240 CAVOK 32/22 Q1014 NOSIG",
      "taf": "TAF LEBL 191100Z 1912/2012 16009KT CAVOK TX33/1912Z TN26/2006Z"
    },
    {
      "icao": "LECH",
      "alert": "OK",
      "vis_m": 9000,
      "fzfg": false,
      "metar_trigger": false,
      "taf_trigger": false,
      "metar": "METAR LECH 191230Z AUTO 12010KT 080V150 9000 NSC 28/22 Q1015",
      "taf": "TAF LECH 191100Z 1912/2012 11010KT 9999 BKN025 TX34/1913Z TN21/2005Z"
    },
    {
      "icao": "LEMD",
      "alert": "OK",
      "vis_m": 9999,
      "fzfg": false,
      "metar_trigger": false,
      "taf_trigger": false,
      "metar": "METAR LEMD 191230Z 19009KT 120V240 CAVOK 33/04 Q1016 NOSIG",
      "taf": "TAF LEMD 191100Z 1912/2018 23010KT CAVOK TX37/1916Z TN17/2005Z"
    },
    {
      "icao": "LEMG",
      "alert": "OK",
      "vis_m": 9999,
      "fzfg": false,
      "metar_trigger": false,
      "taf_trigger": false,
      "metar": "METAR LEMG 191230Z 12010KT 100V170 CAVOK 28/16 Q1013 NOSIG",
      "taf": "TAF LEMG 191100Z 1912/2012 13010KT CAVOK TX33/1915Z TN23/2005Z"
    },
    {
      "icao": "LEVC",
      "alert": "OK",
      "vis_m": 9999,
      "fzfg": false,
      "metar_trigger": false,
      "taf_trigger": false,
      "metar": "METAR LEVC 191230Z 10009KT 070V150 9999 BKN018 32/25 Q1014 NOSIG",
      "taf": "TAF LEVC 191100Z 1912/2012 11010KT 9999 SCT020 TX34/1913Z TN24/2005Z"
    },
    {
      "icao": "LEXJ",
      "alert": "OK",
      "vis_m": 9999,
      "fzfg": false,
      "metar_trigger": false,
      "taf_trigger": false,
      "metar": "METAR LEXJ 191230Z 04008KT 320V120 CAVOK 26/21 Q1016",
      "taf": "TAF LEXJ 190800Z 1909/2009 04009KT 9999 FEW025 TX27/1914Z TN21/2005Z"
    },
    {
      "icao": "LEZG",
      "alert": "OK",
      "vis_m": 9999,
      "fzfg": false,
      "metar_trigger": false,
      "taf_trigger": false,
      "metar": "METAR LEZG 191230Z 06003KT 010V160 CAVOK 32/17 Q1014 NOSIG",
      "taf": "TAF LEZG 191100Z 1912/2012 30009KT CAVOK TX39/1914Z TN23/2005Z"
    },
    {
      "icao": "LEZL",
      "alert": "OK",
      "vis_m": 9999,
      "fzfg": false,
      "metar_trigger": false,
      "taf_trigger": false,
      "metar": "METAR LEZL 191230Z 23003KT CAVOK 34/13 Q1013 NOSIG",
      "taf": "TAF LEZL 190800Z 1909/2009 VRB03KT CAVOK TX37/1915Z TN20/2005Z"
    },
    {
      "icao": "LFBD",
      "alert": "OK",
      "vis_m": 9999,
      "fzfg": false,
      "metar_trigger": false,
      "taf_trigger": false,
      "metar": "METAR LFBD 191230Z AUTO VRB10KT CAVOK 33/11 Q1015 NOSIG",
      "taf": "TAF LFBD 191100Z 1912/2018 03010KT CAVOK TX36/1915Z TN21/2005Z"
    },
    {
      "icao": "LFLL",
      "alert": "OK",
      "vis_m": 9999,
      "fzfg": false,
      "metar_trigger": false,
      "taf_trigger": false,
      "metar": "METAR LFLL 191230Z 36011KT 330V060 CAVOK 29/12 Q1017 NOSIG",
      "taf": "TAF LFLL 191100Z 1912/2018 35010KT CAVOK"
    },
    {
      "icao": "LFLS",
      "alert": "OK",
      "vis_m": 9999,
      "fzfg": false,
      "metar_trigger": false,
      "taf_trigger": false,
      "metar": "METAR LFLS 191230Z AUTO 32011KT 290V360 CAVOK 29/11 Q1017 NOSIG",
      "taf": "TAF LFLS 190800Z 1909/2009 36009KT CAVOK"
    },
    {
      "icao": "LFMN",
      "alert": "OK",
      "vis_m": 9999,
      "fzfg": false,
      "metar_trigger": false,
      "taf_trigger": false,
      "metar": "METAR LFMN 191230Z 12007KT 9999 FEW016 31/24 Q1011 NOSIG",
      "taf": "TAF LFMN 190800Z 1909/2015 11010KT 9999 SCT020 BKN260"
    },
    {
      "icao": "LFOB",
      "alert": "OK",
      "vis_m": 9999,
      "fzfg": false,
      "metar_trigger": false,
      "taf_trigger": false,
      "metar": "METAR LFOB 191230Z AUTO 35007KT 310V050 CAVOK 23/07 Q1022 NOSIG",
      "taf": "TAF LFOB 191100Z 1912/2012 35009KT 9999 SCT030"
    },
    {
      "icao": "LFPO",
      "alert": "OK",
      "vis_m": 9999,
      "fzfg": false,
      "metar_trigger": false,
      "taf_trigger": false,
      "metar": "METAR LFPO 191230Z 03009KT 340V100 CAVOK 23/08 Q1022 NOSIG",
      "taf": "TAF LFPO 191100Z 1912/2018 02010KT CAVOK"
    },
    {
      "icao": "LFSB",
      "alert": "OK",
      "vis_m": 9999,
      "fzfg": false,
      "metar_trigger": false,
      "taf_trigger": false,
      "metar": "METAR LFSB 191230Z AUTO VRB05KT 9999 BKN043 BKN240 26/13 Q1018 NOSIG",
      "taf": "TAF LFSB 191100Z 1912/2012 36007KT 9999 FEW040"
    },
    {
      "icao": "LGAV",
      "alert": "OK",
      "vis_m": 9999,
      "fzfg": false,
      "metar_trigger": false,
      "taf_trigger": false,
      "metar": "METAR LGAV 191220Z 05011KT 9999 FEW025 35/11 Q1012 NOSIG",
      "taf": "TAF LGAV 191100Z 1912/2012 02012KT 9999 FEW025"
    },
    {
      "icao": "LGTS",
      "alert": "OK",
      "vis_m": 9999,
      "fzfg": false,
      "metar_trigger": false,
      "taf_trigger": false,
      "metar": "METAR LGTS 191220Z 19014KT 9999 FEW020 35/17 Q1011 NOSIG",
      "taf": "TAF LGTS 191100Z 1912/2012 VRB03KT 9999 FEW030"
    },
    {
      "icao": "LHBP",
      "alert": "OK",
      "vis_m": 9999,
      "fzfg": false,
      "metar_trigger": false,
      "taf_trigger": false,
      "metar": "METAR LHBP 191230Z 19008KT 140V240 9999 FEW060CB 30/13 Q1012 NOSIG",
      "taf": "TAF LHBP 191115Z 1912/2012 20008KT CAVOK"
    },
    {
      "icao": "LHDC",
      "alert": "OK",
      "vis_m": 9999,
      "fzfg": false,
      "metar_trigger": false,
      "taf_trigger": false,
      "metar": "METAR LHDC 191215Z AUTO 33004KT 280V010 9999 OVC098 //////TCU 27/15 Q1013 NOSIG",
      "taf": "TAF LHDC 191115Z 1912/1921 VRB03KT CAVOK"
    },
    {
      "icao": "LIBD",
      "alert": "OK",
      "vis_m": 9999,
      "fzfg": false,
      "metar_trigger": false,
      "taf_trigger": false,
      "metar": "METAR LIBD 191220Z 09010KT 060V120 CAVOK 35/18 Q1010",
      "taf": "TAF LIBD 191100Z 1912/2012 08011KT CAVOK"
    },
    {
      "icao": "LIBG",
      "alert": "OK",
      "vis_m": 9999,
      "fzfg": false,
      "metar_trigger": false,
      "taf_trigger": false,
      "metar": "METAR LIBG 191220Z 20007KT 150V230 CAVOK 37/14 Q1011",
      "taf": "TAF LIBG 191100Z 1912/2012 21010KT CAVOK"
    },
    {
      "icao": "LIBP",
      "alert": "OK",
      "vis_m": 9999,
      "fzfg": false,
      "metar_trigger": false,
      "taf_trigger": false,
      "metar": "METAR LIBP 191220Z AUTO 07010KT 9999 FEW230/// 32/24 Q1010",
      "taf": "TAF LIBP 191100Z 1912/2012 05010KT CAVOK"
    },
    {
      "icao": "LIBR",
      "alert": "OK",
      "vis_m": 9999,
      "fzfg": false,
      "metar_trigger": false,
      "taf_trigger": false,
      "metar": "METAR LIBR 191220Z 12009KT 090V150 CAVOK 32/23 Q1011",
      "taf": "TAF LIBR 191100Z 1912/2012 10011KT CAVOK"
    },
    {
      "icao": "LICA",
      "alert": "OK",
      "vis_m": 9999,
      "fzfg": false,
      "metar_trigger": false,
      "taf_trigger": false,
      "metar": "METAR LICA 191220Z AUTO 25007KT 210V280 9999 NCD 35/17 Q1012",
      "taf": "TAF LICA 191100Z 1912/2012 27012KT CAVOK"
    },
    {
      "icao": "LICC",
      "alert": "OK",
      "vis_m": 9999,
      "fzfg": false,
      "metar_trigger": false,
      "taf_trigger": false,
      "metar": "METAR LICC 191220Z 08010KT CAVOK 36/16 Q1012",
      "taf": "TAF LICC 191100Z 1912/2012 09012KT CAVOK"
    },
    {
      "icao": "LICJ",
      "alert": "OK",
      "vis_m": 9999,
      "fzfg": false,
      "metar_trigger": false,
      "taf_trigger": false,
      "metar": "METAR LICJ 191220Z VRB02KT CAVOK 34/19 Q1013",
      "taf": "TAF LICJ 191100Z 1912/2012 03010KT CAVOK"
    },
    {
      "icao": "LIMC",
      "alert": "OK",
      "vis_m": 9999,
      "fzfg": false,
      "metar_trigger": false,
      "taf_trigger": false,
      "metar": "METAR LIMC 191220Z 25007KT 200V350 CAVOK 31/16 Q1012 NOSIG",
      "taf": "TAF LIMC 191100Z 1912/2018 VRB05KT 9999 FEW050"
    },
    {
      "icao": "LIME",
      "alert": "OK",
      "vis_m": 9999,
      "fzfg": false,
      "metar_trigger": false,
      "taf_trigger": false,
      "metar": "METAR LIME 191220Z 23006KT 190V300 CAVOK 29/17 Q1012 NOSIG",
      "taf": "TAF LIME 191100Z 1912/2012 25010KT 9999 SCT050"
    },
    {
      "icao": "LIMF",
      "alert": "OK",
      "vis_m": 9999,
      "fzfg": false,
      "metar_trigger": false,
      "taf_trigger": false,
      "metar": "METAR LIMF 191220Z 17005KT 080V230 CAVOK 30/16 Q1013",
      "taf": "TAF LIMF 191100Z 1912/2012 VRB06KT 9999 FEW050"
    },
    {
      "icao": "LIMJ",
      "alert": "OK",
      "vis_m": 9999,
      "fzfg": false,
      "metar_trigger": false,
      "taf_trigger": false,
      "metar": "METAR LIMJ 191220Z 18005KT 9999 FEW030 29/24 Q1011",
      "taf": "TAF LIMJ 191100Z 1912/2012 19010KT 9999 SCT030"
    },
    {
      "icao": "LIPE",
      "alert": "OK",
      "vis_m": 9999,
      "fzfg": false,
      "metar_trigger": false,
      "taf_trigger": false,
      "metar": "METAR LIPE 191220Z 30005KT 260V360 CAVOK 31/21 Q1011",
      "taf": "TAF LIPE 191100Z 1912/2012 VRB05KT 9999 SCT030"
    },
    {
      "icao": "LIPH",
      "alert": "OK",
      "vis_m": 9999,
      "fzfg": false,
      "metar_trigger": false,
      "taf_trigger": false,
      "metar": "METAR LIPH 191220Z 18006KT 110V250 CAVOK 31/17 Q1010",
      "taf": "TAF LIPH 191100Z 1912/2012 VRB05KT CAVOK"
    },
    {
      "icao": "LIPQ",
      "alert": "OK",
      "vis_m": 9999,
      "fzfg": false,
      "metar_trigger": false,
      "taf_trigger": false,
      "metar": "METAR LIPQ 191220Z AUTO 22010KT 190V250 9999 NCD 30/16 Q1010",
      "taf": "TAF LIPQ 191100Z 1912/2012 19010KT CAVOK"
    },
    {
      "icao": "LIPR",
      "alert": "OK",
      "vis_m": 9999,
      "fzfg": false,
      "metar_trigger": false,
      "taf_trigger": false,
      "metar": "METAR LIPR 191220Z 04009KT CAVOK 28/23 Q1011",
      "taf": "TAF LIPR 191100Z 1912/2012 03012KT CAVOK"
    },
    {
      "icao": "LIPX",
      "alert": "OK",
      "vis_m": 9999,
      "fzfg": false,
      "metar_trigger": false,
      "taf_trigger": false,
      "metar": "METAR LIPX 191220Z 22006KT 160V260 CAVOK 30/17 Q1011",
      "taf": "TAF LIPX 191100Z 1912/2012 VRB05KT 9999 FEW050"
    },
    {
      "icao": "LIPY",
      "alert": "OK",
      "vis_m": 9999,
      "fzfg": false,
      "metar_trigger": false,
      "taf_trigger": false,
      "metar": "METAR LIPY 191220Z AUTO 05008KT 010V080 9999 FEW230/// 31/22 Q1011",
      "taf": "TAF LIPY 191100Z 1912/2012 04012KT CAVOK"
    },
    {
      "icao": "LIPZ",
      "alert": "OK",
      "vis_m": 9999,
      "fzfg": false,
      "metar_trigger": false,
      "taf_trigger": false,
      "metar": "METAR LIPZ 191220Z 17005KT 100V240 CAVOK 29/18 Q1011 NOSIG",
      "taf": "TAF LIPZ 191100Z 1912/2018 16010KT 9999 SCT040"
    },
    {
      "icao": "LIRF",
      "alert": "OK",
      "vis_m": 9999,
      "fzfg": false,
      "metar_trigger": false,
      "taf_trigger": false,
      "metar": "METAR LIRF 191220Z 18008KT 150V220 9999 FEW020 33/25 Q1012 NOSIG",
      "taf": "TAF LIRF 191100Z 1912/2018 17010KT CAVOK"
    },
    {
      "icao": "LIRN",
      "alert": "OK",
      "vis_m": 9999,
      "fzfg": false,
      "metar_trigger": false,
      "taf_trigger": false,
      "metar": "METAR LIRN 191220Z 20009KT 170V230 CAVOK 32/22 Q1013 NOSIG",
      "taf": "TAF LIRN 191100Z 1912/2012 22010KT CAVOK"
    },
    {
      "icao": "LIRP",
      "alert": "OK",
      "vis_m": 9999,
      "fzfg": false,
      "metar_trigger": false,
      "taf_trigger": false,
      "metar": "METAR LIRP 191215Z 24009KT 9999 SCT030 32/23 Q1012 NOSIG",
      "taf": "TAF LIRP 191100Z 1912/2012 25012KT 9999 SCT025"
    },
    {
      "icao": "LIRZ",
      "alert": "OK",
      "vis_m": 9999,
      "fzfg": false,
      "metar_trigger": false,
      "taf_trigger": false,
      "metar": "METAR LIRZ 191220Z AUTO 26009KT 220V300 9999 NCD 36/16 Q1012",
      "taf": "TAF LIRZ 191100Z 1912/2012 30012KT CAVOK"
    },
    {
      "icao": "LJLJ",
      "alert": "OK",
      "vis_m": 9999,
      "fzfg": false,
      "metar_trigger": false,
      "taf_trigger": false,
      "metar": "METAR LJLJ 191230Z VRB02KT 9999 FEW050 29/15 Q1012 NOSIG",
      "taf": "TAF LJLJ 191100Z 1912/2012 10005KT 9999 FEW045"
    },
    {
      "icao": "LKMT",
      "alert": "OK",
      "vis_m": 9999,
      "fzfg": false,
      "metar_trigger": false,
      "taf_trigger": false,
      "metar": "METAR LKMT 191230Z 22008KT 160V280 CAVOK 27/13 Q1011 TEMPO 3000 TSRA FEW050CB",
      "taf": "TAF LKMT 191100Z 1912/2012 21006KT CAVOK"
    },
    {
      "icao": "LKPR",
      "alert": "OK",
      "vis_m": 9999,
      "fzfg": false,
      "metar_trigger": false,
      "taf_trigger": false,
      "metar": "METAR LKPR 191230Z 33008KT 9999 FEW018CB SCT025 18/14 Q1016 BECMG SCT030",
      "taf": "TAF LKPR 191100Z 1912/2018 31008KT 9999 BKN035"
    },
    {
      "icao": "LLBG",
      "alert": "OK",
      "vis_m": 9999,
      "fzfg": false,
      "metar_trigger": false,
      "taf_trigger": false,
      "metar": "METAR LLBG 191220Z 30012KT 260V320 CAVOK 34/16 Q1009 NOSIG",
      "taf": "TAF LLBG 191107Z 1912/2012 31010KT CAVOK TX35/1912Z TN22/2003Z"
    },
    {
      "icao": "LMML",
      "alert": "OK",
      "vis_m": 9999,
      "fzfg": false,
      "metar_trigger": false,
      "taf_trigger": false,
      "metar": "METAR LMML 191215Z 16007KT 140V200 CAVOK 38/15 Q1014 NOSIG",
      "taf": "TAF LMML 191100Z 1912/2012 VRB05KT CAVOK"
    },
    {
      "icao": "LOWW",
      "alert": "OK",
      "vis_m": 9999,
      "fzfg": false,
      "metar_trigger": false,
      "taf_trigger": false,
      "metar": "METAR LOWW 191220Z 26007KT 9999 -SHRA FEW028 FEW040CB SCT050 20/17 Q1015 RESHRA RERA TEMPO SHRA",
      "taf": "TAF LOWW 191115Z 1912/2018 29012KT CAVOK TX26/2014Z TN14/2003Z"
    },
    {
      "icao": "LPFR",
      "alert": "OK",
      "vis_m": 9999,
      "fzfg": false,
      "metar_trigger": false,
      "taf_trigger": false,
      "metar": "METAR LPFR 191230Z 25012KT CAVOK 24/17 Q1015",
      "taf": "TAF LPFR 191100Z 1912/2012 24015KT CAVOK"
    },
    {
      "icao": "LPMA",
      "alert": "OK",
      "vis_m": 9999,
      "fzfg": false,
      "metar_trigger": false,
      "taf_trigger": false,
      "metar": "METAR LPMA 191230Z 03018KT 9999 FEW015 26/18 Q1020",
      "taf": "TAF LPMA 191100Z 1912/2012 02010KT 9999 SCT015"
    },
    {
      "icao": "LPPR",
      "alert": "OK",
      "vis_m": 9999,
      "fzfg": false,
      "metar_trigger": false,
      "taf_trigger": false,
      "metar": "METAR LPPR 191230Z 21010KT 190V260 9999 BKN026 25/18 Q1016",
      "taf": "TAF LPPR 191100Z 1912/2012 19010KT 9999 SCT020"
    },
    {
      "icao": "LPPS",
      "alert": "OK",
      "vis_m": 9999,
      "fzfg": false,
      "metar_trigger": false,
      "taf_trigger": false,
      "metar": "METAR LPPS 191230Z 01011KT 340V060 9999 SCT015 25/18 Q1021",
      "taf": "TAF LPPS 191100Z 1912/2018 02010KT 9999 SCT015"
    },
    {
      "icao": "LPPT",
      "alert": "OK",
      "vis_m": 9999,
      "fzfg": false,
      "metar_trigger": false,
      "taf_trigger": false,
      "metar": "METAR LPPT 191230Z 34010KT 310V020 9999 FEW038 26/15 Q1016 NOSIG",
      "taf": "TAF LPPT 191100Z 1912/2018 32010KT 9999 FEW030"
    },
    {
      "icao": "LQBK",
      "alert": "OK",
      "vis_m": 9999,
      "fzfg": false,
      "metar_trigger": false,
      "taf_trigger": false,
      "metar": "METAR LQBK 191230Z VRB03KT CAVOK 33/15 Q1011 NOSIG",
      "taf": "TAF LQBK 191100Z 1912/2012 36005KT CAVOK TX32/1913Z TN18/2003Z"
    },
    {
      "icao": "LQSA",
      "alert": "OK",
      "vis_m": 9999,
      "fzfg": false,
      "metar_trigger": false,
      "taf_trigger": false,
      "metar": "METAR LQSA 191230Z VRB04KT 9999 SCT060 32/17 Q1013 NOSIG",
      "taf": "TAF LQSA 191100Z 1912/2012 VRB02KT CAVOK TX34/1913Z TN18/2004Z"
    },
    {
      "icao": "LQTZ",
      "alert": "OK",
      "vis_m": 9999,
      "fzfg": false,
      "metar_trigger": false,
      "taf_trigger": false,
      "metar": "METAR LQTZ 191230Z 29005KT 230V350 9999 FEW050 31/18 Q1012",
      "taf": ""
    },
    {
      "icao": "LRBC",
      "alert": "OK",
      "vis_m": 9999,
      "fzfg": false,
      "metar_trigger": false,
      "taf_trigger": false,
      "metar": "METAR LRBC 191230Z 29006KT 9999 -SHRA FEW045CB 25/22 Q1011 RETS",
      "taf": "TAF LRBC 191100Z 1912/1921 VRB04KT 9999 FEW045CB"
    },
    {
      "icao": "LRBS",
      "alert": "OK",
      "vis_m": 9999,
      "fzfg": false,
      "metar_trigger": false,
      "taf_trigger": false,
      "metar": "METAR LRBS 191230Z 21005KT 160V260 9999 FEW050CB 34/20 Q1011 NOSIG",
      "taf": "TAF LRBS 191100Z 1912/2012 20008KT CAVOK"
    },
    {
      "icao": "LRBV",
      "alert": "OK",
      "vis_m": 8000,
      "fzfg": false,
      "metar_trigger": false,
      "taf_trigger": false,
      "metar": "METAR LRBV 191230Z 29011KT 220V330 8000 TSRA SCT022 SCT038 BKN045CB 20/18 Q1017",
      "taf": "TAF LRBV 191100Z 1912/1921 VRB04KT 9999 SCT045CB"
    },
    {
      "icao": "LRCL",
      "alert": "OK",
      "vis_m": 9999,
      "fzfg": false,
      "metar_trigger": false,
      "taf_trigger": false,
      "metar": "METAR LRCL 191230Z VRB01KT CAVOK 29/14 Q1012",
      "taf": "TAF LRCL 191100Z 1912/1921 VRB04KT CAVOK"
    },
    {
      "icao": "LRCV",
      "alert": "OK",
      "vis_m": 9999,
      "fzfg": false,
      "metar_trigger": false,
      "taf_trigger": false,
      "metar": "METAR LRCV 191230Z 31006KT 210V350 CAVOK 33/18 Q1011",
      "taf": "TAF LRCV 191100Z 1912/1921 24006KT CAVOK"
    },
    {
      "icao": "LRIA",
      "alert": "OK",
      "vis_m": 9999,
      "fzfg": false,
      "metar_trigger": false,
      "taf_trigger": false,
      "metar": "METAR LRIA 191230Z 12007KT 090V160 CAVOK 32/17 Q1011",
      "taf": "TAF LRIA 191100Z 1912/1921 14007KT 9999 SCT045"
    },
    {
      "icao": "LROP",
      "alert": "OK",
      "vis_m": 9999,
      "fzfg": false,
      "metar_trigger": false,
      "taf_trigger": false,
      "metar": "METAR LROP 191230Z 24007KT 9999 FEW060CB 31/21 Q1011 NOSIG",
      "taf": "TAF LROP 191100Z 1912/2012 20008KT CAVOK"
    },
    {
      "icao": "LRSB",
      "alert": "OK",
      "vis_m": 9999,
      "fzfg": false,
      "metar_trigger": false,
      "taf_trigger": false,
      "metar": "METAR LRSB 191230Z 13009KT 100V170 9999 FEW045 25/18 Q1014",
      "taf": ""
    },
    {
      "icao": "LRSM",
      "alert": "OK",
      "vis_m": 9999,
      "fzfg": false,
      "metar_trigger": false,
      "taf_trigger": false,
      "metar": "METAR LRSM 191230Z AUTO 31009KT 270V330 9999 -RA VCTS FEW075/// BKN100/// BKN120/// 28/17 Q1012",
      "taf": ""
    },
    {
      "icao": "LRSV",
      "alert": "OK",
      "vis_m": 9999,
      "fzfg": false,
      "metar_trigger": false,
      "taf_trigger": false,
      "metar": "METAR LRSV 191230Z 34010KT 9999 VCTS SCT037CB 24/18 Q1013",
      "taf": "TAF LRSV 191100Z 1912/1921 VRB04KT 9999 SCT045CB"
    },
    {
      "icao": "LRTM",
      "alert": "OK",
      "vis_m": 9999,
      "fzfg": false,
      "metar_trigger": false,
      "taf_trigger": false,
      "metar": "METAR LRTM 191230Z 24006KT 210V300 9999 SCT043 29/21 Q1013",
      "taf": "TAF LRTM 191100Z 1912/1921 29006KT 9999 FEW040"
    },
    {
      "icao": "LRTR",
      "alert": "OK",
      "vis_m": 9999,
      "fzfg": false,
      "metar_trigger": false,
      "taf_trigger": false,
      "metar": "METAR LRTR 191230Z VRB05KT CAVOK 32/16 Q1012",
      "taf": "TAF LRTR 191100Z 1912/2012 VRB04KT 9999 FEW045"
    },
    {
      "icao": "LTAC",
      "alert": "OK",
      "vis_m": 9999,
      "fzfg": false,
      "metar_trigger": false,
      "taf_trigger": false,
      "metar": "METAR LTAC 191220Z 30006KT 250V360 9999 SCT040 31/10 Q1015 NOSIG RMK RWY21C 12005KT 080V170 RWY03L VRB06KT RWY21R VRB05KT RWY03R VRB07KT RWY21L 02005KT 320V070",
      "taf": "TAF LTAC 191040Z 1912/2012 VRB02KT 9999 SCT040"
    },
    {
      "icao": "LTFM",
      "alert": "OK",
      "vis_m": 9999,
      "fzfg": false,
      "metar_trigger": false,
      "taf_trigger": false,
      "metar": "METAR LTFM 191220Z 06013KT 010V100 9999 FEW027 28/18 Q1014 NOSIG RMK RWY17L 06012KT 030V090 RWY34L 05012KT 010V070 RWY16R 06014KT 020V090 RWY36 05014KT RWY18 06012KT",
      "taf": "TAF LTFM 191040Z 1912/2018 06015KT 9999 FEW027"
    },
    {
      "icao": "LUKK",
      "alert": "OK",
      "vis_m": 9999,
      "fzfg": false,
      "metar_trigger": false,
      "taf_trigger": false,
      "metar": "METAR LUKK 191230Z 18015KT CAVOK 33/16 Q1011 NOSIG",
      "taf": "TAF LUKK 191121Z 1912/2012 18010KT CAVOK"
    },
    {
      "icao": "LWOH",
      "alert": "OK",
      "vis_m": 9999,
      "fzfg": false,
      "metar_trigger": false,
      "taf_trigger": false,
      "metar": "METAR LWOH 191220Z 16005KT 130V190 9999 FEW040 30/19 Q1016",
      "taf": "TAF LWOH 191105Z 1909/2009 16008KT 9999 FEW050"
    },
    {
      "icao": "LWSK",
      "alert": "OK",
      "vis_m": 9999,
      "fzfg": false,
      "metar_trigger": false,
      "taf_trigger": false,
      "metar": "METAR LWSK 191220Z VRB04KT 9999 FEW040 36/18 Q1011 NOSIG",
      "taf": "TAF LWSK 191105Z 1912/2012 VRB02KT CAVOK"
    },
    {
      "icao": "LYBE",
      "alert": "OK",
      "vis_m": 9999,
      "fzfg": false,
      "metar_trigger": false,
      "taf_trigger": false,
      "metar": "METAR LYBE 191230Z 29004KT 230V040 CAVOK 33/18 Q1012 NOSIG",
      "taf": "TAF LYBE 191100Z 1912/2012 28005KT CAVOK TX33/1914Z TN19/2003Z"
    },
    {
      "icao": "LYNI",
      "alert": "OK",
      "vis_m": 9999,
      "fzfg": false,
      "metar_trigger": false,
      "taf_trigger": false,
      "metar": "METAR LYNI 191230Z VRB02KT 9999 FEW050 34/18 Q1011 NOSIG",
      "taf": "TAF LYNI 191100Z 1912/2012 32006KT 9999 SCT055 TX35/1914Z TN19/2003Z"
    },
    {
      "icao": "LYPG",
      "alert": "OK",
      "vis_m": 9999,
      "fzfg": false,
      "metar_trigger": false,
      "taf_trigger": false,
      "metar": "METAR LYPG 191230Z 16006KT 110V220 9999 FEW050 37/15 Q1011 NOSIG",
      "taf": "TAF LYPG 191100Z 1912/2012 18009KT CAVOK TX38/1914Z TN24/2003Z"
    },
    {
      "icao": "LZIB",
      "alert": "OK",
      "vis_m": 9999,
      "fzfg": false,
      "metar_trigger": false,
      "taf_trigger": false,
      "metar": "METAR LZIB 191230Z 30023G35KT 9999 -SHRA VCTS FEW020 SCT057CB 21/16 Q1013 TEMPO NSW",
      "taf": "TAF LZIB 191115Z 1912/2012 23008KT CAVOK"
    },
    {
      "icao": "LZKZ",
      "alert": "OK",
      "vis_m": 9999,
      "fzfg": false,
      "metar_trigger": false,
      "taf_trigger": false,
      "metar": "METAR LZKZ 191230Z 17008KT 110V210 CAVOK 28/16 Q1012 NOSIG",
      "taf": "TAF LZKZ 191115Z 1912/2012 21009KT CAVOK"
    },
    {
      "icao": "LZTT",
      "alert": "OK",
      "vis_m": 9999,
      "fzfg": false,
      "metar_trigger": false,
      "taf_trigger": false,
      "metar": "METAR LZTT 191230Z 05007KT 9999 -SHRA SCT046 FEW053CB 22/15 Q1013 NOSIG",
      "taf": "TAF LZTT 191115Z 1912/2012 10009KT 9999 SCT060"
    },
    {
      "icao": "OEJN",
      "alert": "OK",
      "vis_m": 9999,
      "fzfg": false,
      "metar_trigger": false,
      "taf_trigger": false,
      "metar": "METAR OEJN 191200Z 31015KT CAVOK 37/19 Q1005 NOSIG",
      "taf": "TAF OEJN 191100Z 1912/2018 32015KT 9999 SCT040"
    },
    {
      "icao": "OEMA",
      "alert": "OK",
      "vis_m": 9999,
      "fzfg": false,
      "metar_trigger": false,
      "taf_trigger": false,
      "metar": "METAR OEMA 191200Z 27009KT CAVOK 44/M02 Q1010 NOSIG",
      "taf": "TAF OEMA 191100Z 1912/2018 32015KT CAVOK"
    },
    {
      "icao": "OJAI",
      "alert": "OK",
      "vis_m": 5000,
      "fzfg": false,
      "metar_trigger": false,
      "taf_trigger": false,
      "metar": "METAR OJAI 191200Z 27014KT 5000 HZ NSC 35/07 Q1014 NOSIG",
      "taf": "TAF OJAI 191100Z 1912/2018 29010KT 5000 HZ NSC"
    },
    {
      "icao": "OMAA",
      "alert": "OK",
      "vis_m": 9999,
      "fzfg": false,
      "metar_trigger": false,
      "taf_trigger": false,
      "metar": "METAR OMAA 191230Z 31011KT CAVOK 39/25 Q0997 NOSIG",
      "taf": "TAF OMAA 191100Z 1912/2018 33013KT 8000 NSC"
    },
    {
      "icao": "OMDB",
      "alert": "OK",
      "vis_m": 8000,
      "fzfg": false,
      "metar_trigger": false,
      "taf_trigger": false,
      "metar": "METAR OMDB 191230Z 31011KT 8000 NSC 39/24 Q0997 NOSIG",
      "taf": "TAF OMDB 191100Z 1912/2018 32012KT 8000 NSC"
    },
    {
      "icao": "UAAA",
      "alert": "OK",
      "vis_m": 9999,
      "fzfg": false,
      "metar_trigger": false,
      "taf_trigger": false,
      "metar": "METAR UAAA 191230Z 12003MPS 9999 FEW050 41/02 Q1004 NOSIG",
      "taf": "TAF UAAA 191103Z 1912/2012 05005MPS 9999 FEW050 SCT100 TX42/2010Z TN25/2000Z"
    },
    {
      "icao": "UBBB",
      "alert": "OK",
      "vis_m": 9999,
      "fzfg": false,
      "metar_trigger": false,
      "taf_trigger": false,
      "metar": "METAR UBBB 191230Z 01018KT CAVOK 30/20 Q1008 NOSIG",
      "taf": "TAF UBBB 191057Z 1912/2012 33022G32KT 9999 FEW015 TX30/1912Z TN23/2001Z"
    },
    {
      "icao": "UDSG",
      "alert": "OK",
      "vis_m": 9999,
      "fzfg": false,
      "metar_trigger": false,
      "taf_trigger": false,
      "metar": "METAR UDSG 191230Z 28004KT 230V330 9999 FEW049CB 29/11 Q1016 NOSIG",
      "taf": "TAF UDSG 191100Z 1912/2012 35006KT 9999 SCT050"
    },
    {
      "icao": "UDYZ",
      "alert": "OK",
      "vis_m": 9999,
      "fzfg": false,
      "metar_trigger": false,
      "taf_trigger": false,
      "metar": "METAR UDYZ 191230Z 17005KT 130V210 9999 FEW043CB 35/13 Q1009 NOSIG",
      "taf": "TAF UDYZ 191100Z 1912/2012 04006KT 9999 FEW040"
    },
    {
      "icao": "UGKO",
      "alert": "OK",
      "vis_m": 9999,
      "fzfg": false,
      "metar_trigger": false,
      "taf_trigger": false,
      "metar": "METAR UGKO 191230Z 25011KT 9999 SCT023CB BKN044 26/20 Q1012 NOSIG",
      "taf": "TAF UGKO 191100Z 1912/2012 26007KT 9999 SCT030 BKN070 TX29/2012Z TN19/2002Z"
    }
  ]
}