{
  "ts_utc": "2026-04-04T14:18:20Z",
  "threshold_m": 150,
  "source": "stations_override.txt (ICAO list) + aviationweather.gov (METAR/TAF raw)",
  "station_count": 159,
  "stations": [
    {
      "icao": "BIKF",
      "alert": "OK",
      "vis_m": 9999,
      "fzfg": false,
      "metar_trigger": false,
      "taf_trigger": false,
      "metar": "METAR BIKF 041400Z 08008KT 9999 FEW012CB SCT110 00/M02 Q0996",
      "taf": "TAF BIKF 041358Z 0415/0515 12008KT 9999 FEW015 BKN030 TX02/0515Z TNM05/0503Z"
    },
    {
      "icao": "BKPR",
      "alert": "OK",
      "vis_m": 9999,
      "fzfg": false,
      "metar_trigger": false,
      "taf_trigger": false,
      "metar": "METAR BKPR 041400Z 03014KT 9999 SCT055 15/05 Q1017 NOSIG",
      "taf": "TAF BKPR 041130Z 0412/0512 35008KT 9999 BKN040"
    },
    {
      "icao": "EBCI",
      "alert": "OK",
      "vis_m": 9999,
      "fzfg": false,
      "metar_trigger": false,
      "taf_trigger": false,
      "metar": "METAR EBCI 041350Z 22010KT 9999 SCT023 BKN032 14/09 Q1020 NOSIG",
      "taf": "TAF EBCI 041108Z 0412/0518 21013KT 9999 FEW018 SCT035"
    },
    {
      "icao": "EDDB",
      "alert": "OK",
      "vis_m": 9999,
      "fzfg": false,
      "metar_trigger": false,
      "taf_trigger": false,
      "metar": "METAR EDDB 041350Z AUTO 28020KT CAVOK 15/M01 Q1017 TEMPO 29020G30KT",
      "taf": "TAF EDDB 041100Z 0412/0512 29020G30KT CAVOK"
    },
    {
      "icao": "EDDH",
      "alert": "OK",
      "vis_m": 9999,
      "fzfg": false,
      "metar_trigger": false,
      "taf_trigger": false,
      "metar": "METAR EDDH 041350Z AUTO 28015G25KT 250V340 9999 FEW048 12/01 Q1017 NOSIG",
      "taf": "TAF EDDH 041100Z 0412/0518 27012KT 9999 SCT025"
    },
    {
      "icao": "EDDK",
      "alert": "OK",
      "vis_m": 9999,
      "fzfg": false,
      "metar_trigger": false,
      "taf_trigger": false,
      "metar": "METAR EDDK 041350Z AUTO 25008KT 9999 FEW028 SCT034 OVC042 14/08 Q1021 NOSIG",
      "taf": "TAF EDDK 041100Z 0412/0518 27009KT 9999 BKN040"
    },
    {
      "icao": "EDDN",
      "alert": "OK",
      "vis_m": 9999,
      "fzfg": false,
      "metar_trigger": false,
      "taf_trigger": false,
      "metar": "METAR EDDN 041350Z AUTO 28010KT 9999 BKN031 BKN037 14/08 Q1021 NOSIG",
      "taf": "TAF EDDN 041100Z 0412/0512 25010KT 9999 BKN035"
    },
    {
      "icao": "EDDS",
      "alert": "OK",
      "vis_m": 9999,
      "fzfg": false,
      "metar_trigger": false,
      "taf_trigger": false,
      "metar": "METAR EDDS 041350Z AUTO 25009KT 210V280 9999 BKN034 OVC043 15/08 Q1022 NOSIG",
      "taf": "TAF EDDS 041100Z 0412/0512 24009KT 9999 BKN025"
    },
    {
      "icao": "EDFH",
      "alert": "OK",
      "vis_m": 9999,
      "fzfg": false,
      "metar_trigger": false,
      "taf_trigger": false,
      "metar": "METAR EDFH 041350Z 24013KT 9999 SCT024 BKN027 OVC039 13/08 Q1021",
      "taf": "TAF EDFH 041100Z 0412/0512 26012KT 9999 FEW010 BKN020"
    },
    {
      "icao": "EDJA",
      "alert": "OK",
      "vis_m": 9999,
      "fzfg": false,
      "metar_trigger": false,
      "taf_trigger": false,
      "metar": "METAR EDJA 041350Z 24012KT 9999 FEW025 OVC034 12/07 Q1023",
      "taf": "TAF EDJA 041100Z 0412/0421 24015G25KT 9999 BKN035"
    },
    {
      "icao": "EDLW",
      "alert": "OK",
      "vis_m": 9999,
      "fzfg": false,
      "metar_trigger": false,
      "taf_trigger": false,
      "metar": "METAR EDLW 041350Z 23011KT 9999 FEW032 BKN041 14/08 Q1019",
      "taf": "TAF EDLW 041100Z 0412/0512 26009KT 9999 BKN040"
    },
    {
      "icao": "EDNY",
      "alert": "OK",
      "vis_m": 9999,
      "fzfg": false,
      "metar_trigger": false,
      "taf_trigger": false,
      "metar": "METAR EDNY 041350Z 23005KT 200V260 9999 FEW040 BKN049 15/07 Q1024",
      "taf": "TAF EDNY 041100Z 0412/0421 22006KT 9999 BKN030"
    },
    {
      "icao": "EDSB",
      "alert": "OK",
      "vis_m": 9999,
      "fzfg": false,
      "metar_trigger": false,
      "taf_trigger": false,
      "metar": "METAR EDSB 041350Z 24005KT 210V280 9999 FEW022 OVC026 14/10 Q1023",
      "taf": "TAF EDSB 041100Z 0412/0512 21010KT 9999 BKN020"
    },
    {
      "icao": "EETN",
      "alert": "OK",
      "vis_m": 9999,
      "fzfg": false,
      "metar_trigger": false,
      "taf_trigger": false,
      "metar": "METAR EETN 041350Z 17009KT 140V220 9999 SCT014 OVC031 04/01 Q0999 TEMPO 5000 RA BKN005",
      "taf": "TAF EETN 041130Z 0412/0512 18012KT 9999 BKN020"
    },
    {
      "icao": "EFTU",
      "alert": "OK",
      "vis_m": 9999,
      "fzfg": false,
      "metar_trigger": false,
      "taf_trigger": false,
      "metar": "METAR EFTU 041350Z AUTO 14008KT 9999 -SHRA OVC008 03/02 Q0996",
      "taf": "TAF EFTU 041124Z 0412/0512 15008KT 9999 -RA BKN005"
    },
    {
      "icao": "EGBB",
      "alert": "OK",
      "vis_m": 9999,
      "fzfg": false,
      "metar_trigger": false,
      "taf_trigger": false,
      "metar": "METAR EGBB 041350Z 20015KT 170V240 9999 BKN030 14/06 Q1009",
      "taf": "TAF EGBB 041059Z 0412/0512 16009KT 9999 SCT030"
    },
    {
      "icao": "EGGP",
      "alert": "OK",
      "vis_m": 9999,
      "fzfg": false,
      "metar_trigger": false,
      "taf_trigger": false,
      "metar": "METAR EGGP 041350Z 19010KT 160V230 9999 BKN035 12/06 Q1006",
      "taf": "TAF EGGP 041056Z 0412/0512 17015G25KT 9999 SCT018"
    },
    {
      "icao": "EGGW",
      "alert": "OK",
      "vis_m": 9999,
      "fzfg": false,
      "metar_trigger": false,
      "taf_trigger": false,
      "metar": "METAR EGGW 041350Z AUTO 20015KT 160V230 9999 BKN025 13/07 Q1012",
      "taf": "TAF EGGW 041059Z 0412/0512 19010KT 9999 SCT025"
    },
    {
      "icao": "EGKK",
      "alert": "OK",
      "vis_m": 9999,
      "fzfg": false,
      "metar_trigger": false,
      "taf_trigger": false,
      "metar": "METAR EGKK 041350Z 20014KT 9999 SCT022 12/07 Q1015",
      "taf": ""
    },
    {
      "icao": "EGNM",
      "alert": "OK",
      "vis_m": 9999,
      "fzfg": false,
      "metar_trigger": false,
      "taf_trigger": false,
      "metar": "METAR EGNM 041350Z 21016G26KT 180V250 9999 SCT029 SCT042 13/06 Q1006",
      "taf": "TAF EGNM 041057Z 0412/0512 17012KT 9999 SCT017"
    },
    {
      "icao": "EGPD",
      "alert": "OK",
      "vis_m": 9999,
      "fzfg": false,
      "metar_trigger": false,
      "taf_trigger": false,
      "metar": "METAR EGPD 041350Z AUTO 17015KT 9999 -RA SCT023 SCT032 OVC046 06/01 Q1005 TEMPO RA",
      "taf": "TAF EGPD 041056Z 0412/0512 18009KT 9999 SCT020"
    },
    {
      "icao": "EGPF",
      "alert": "OK",
      "vis_m": 4400,
      "fzfg": false,
      "metar_trigger": false,
      "taf_trigger": false,
      "metar": "METAR EGPF 041350Z AUTO 07012KT 4400 -DZ OVC008/// //////TCU 04/03 Q1000",
      "taf": ""
    },
    {
      "icao": "EHBK",
      "alert": "OK",
      "vis_m": 9999,
      "fzfg": false,
      "metar_trigger": false,
      "taf_trigger": false,
      "metar": "METAR EHBK 041355Z AUTO 23012KT 200V260 9999 SCT019 BKN023 BKN027 14/09 Q1020 NOSIG",
      "taf": "TAF EHBK 041120Z 0412/0518 24012KT 9999 BKN020"
    },
    {
      "icao": "EHEH",
      "alert": "OK",
      "vis_m": 9999,
      "fzfg": false,
      "metar_trigger": false,
      "taf_trigger": false,
      "metar": "METAR EHEH 041355Z AUTO 22012KT 200V260 9999 FEW027 BKN031 OVC035 15/09 Q1019 BLU NOSIG RMK TREND REMOTE BY EHWX",
      "taf": "TAF EHEH 041116Z 0412/0518 23010KT 9999 SCT035 BKN050"
    },
    {
      "icao": "EKBI",
      "alert": "OK",
      "vis_m": 9999,
      "fzfg": false,
      "metar_trigger": false,
      "taf_trigger": false,
      "metar": "METAR EKBI 041350Z AUTO 26019KT 9999 BKN031/// 08/01 Q1014",
      "taf": "TAF EKBI 041127Z 0412/0512 27018KT 9999 BKN030"
    },
    {
      "icao": "EKCH",
      "alert": "OK",
      "vis_m": 9999,
      "fzfg": false,
      "metar_trigger": false,
      "taf_trigger": false,
      "metar": "METAR EKCH 041350Z AUTO 28018KT 9999 BKN048/// 11/M00 Q1013 TEMPO 28020G30KT",
      "taf": "TAF EKCH 041127Z 0412/0512 28018KT 9999 BKN030"
    },
    {
      "icao": "ENAL",
      "alert": "OK",
      "vis_m": 9999,
      "fzfg": false,
      "metar_trigger": false,
      "taf_trigger": false,
      "metar": "METAR ENAL 041350Z 23028KT 9999 VCSH FEW022TCU SCT033 BKN042 06/01 Q0996",
      "taf": "TAF ENAL 041100Z 0412/0421 21022KT 9999 -SHRA FEW012 BKN025"
    },
    {
      "icao": "ENBR",
      "alert": "OK",
      "vis_m": 9999,
      "fzfg": false,
      "metar_trigger": false,
      "taf_trigger": false,
      "metar": "METAR ENBR 041350Z 25013KT 220V280 9999 FEW020CB SCT033 06/M01 Q1005 NOSIG RMK WIND 1200FT 27021KT",
      "taf": "TAF ENBR 041100Z 0412/0512 25015KT 9999 FEW015 SCT030"
    },
    {
      "icao": "ENGM",
      "alert": "OK",
      "vis_m": 9999,
      "fzfg": false,
      "metar_trigger": false,
      "taf_trigger": false,
      "metar": "METAR ENGM 041350Z 26006KT 200V340 CAVOK 08/M06 Q0999 TEMPO 27015G28KT",
      "taf": "TAF ENGM 041100Z 0412/0512 VRB03KT 9999 FEW030"
    },
    {
      "icao": "ENHD",
      "alert": "OK",
      "vis_m": 9999,
      "fzfg": false,
      "metar_trigger": false,
      "taf_trigger": false,
      "metar": "METAR ENHD 041350Z 25017KT 9999 FEW025CB SCT029 08/01 Q1007",
      "taf": "TAF ENHD 041100Z 0412/0421 26020KT 9999 FEW015 SCT030"
    },
    {
      "icao": "ENTC",
      "alert": "OK",
      "vis_m": 9999,
      "fzfg": false,
      "metar_trigger": false,
      "taf_trigger": false,
      "metar": "METAR ENTC 041350Z 05009KT CAVOK 02/M07 Q0999 NOSIG RMK WIND 2600FT 15012KT",
      "taf": "TAF ENTC 041100Z 0412/0512 02009KT 9999 FEW050"
    },
    {
      "icao": "ENTO",
      "alert": "OK",
      "vis_m": 9999,
      "fzfg": false,
      "metar_trigger": false,
      "taf_trigger": false,
      "metar": "METAR ENTO 041350Z 29014KT 250V340 CAVOK 10/M03 Q1002 TEMPO 26015G25KT",
      "taf": "TAF ENTO 041100Z 0412/0512 29015KT 9999 FEW040"
    },
    {
      "icao": "ENVA",
      "alert": "OK",
      "vis_m": 9999,
      "fzfg": false,
      "metar_trigger": false,
      "taf_trigger": false,
      "metar": "METAR ENVA 041350Z 20003KT 150V260 CAVOK 09/M02 Q0995 RMK WIND 670FT VRB02KT",
      "taf": "TAF ENVA 041100Z 0412/0512 12007KT CAVOK"
    },
    {
      "icao": "ENZV",
      "alert": "OK",
      "vis_m": 9999,
      "fzfg": false,
      "metar_trigger": false,
      "taf_trigger": false,
      "metar": "METAR ENZV 041350Z 26011KT 9999 FEW042TCU 08/01 Q1008 NOSIG",
      "taf": "TAF ENZV 041100Z 0412/0512 27015KT 9999 FEW015 BKN035"
    },
    {
      "icao": "EPGD",
      "alert": "OK",
      "vis_m": 9999,
      "fzfg": false,
      "metar_trigger": false,
      "taf_trigger": false,
      "metar": "METAR EPGD 041400Z 29026G40KT 9999 BKN033 08/00 Q1012",
      "taf": "TAF EPGD 041130Z 0412/0512 27020KT 9999 SCT033"
    },
    {
      "icao": "EPKK",
      "alert": "OK",
      "vis_m": 9999,
      "fzfg": false,
      "metar_trigger": false,
      "taf_trigger": false,
      "metar": "METAR EPKK 041400Z 26014KT 9999 -SHRA FEW014CB BKN047 13/06 Q1017",
      "taf": "TAF EPKK 041130Z 0412/0512 24015KT 9999 SCT030"
    },
    {
      "icao": "EPKT",
      "alert": "OK",
      "vis_m": 9999,
      "fzfg": false,
      "metar_trigger": false,
      "taf_trigger": false,
      "metar": "METAR EPKT 041400Z 25011KT 9999 -SHRA FEW027TCU OVC031 12/07 Q1017",
      "taf": "TAF EPKT 041130Z 0412/0512 27016KT 9999 SCT026"
    },
    {
      "icao": "EPLB",
      "alert": "OK",
      "vis_m": 9999,
      "fzfg": false,
      "metar_trigger": false,
      "taf_trigger": false,
      "metar": "METAR EPLB 041400Z 26018KT CAVOK 15/04 Q1013",
      "taf": "TAF EPLB 041130Z 0412/0512 27015KT CAVOK"
    },
    {
      "icao": "EPMO",
      "alert": "OK",
      "vis_m": 9999,
      "fzfg": false,
      "metar_trigger": false,
      "taf_trigger": false,
      "metar": "METAR EPMO 041400Z 24012KT 9999 FEW022 SCT030 12/07 Q1013",
      "taf": "TAF EPMO 041130Z 0412/0512 27015KT CAVOK"
    },
    {
      "icao": "EPPO",
      "alert": "OK",
      "vis_m": 9999,
      "fzfg": false,
      "metar_trigger": false,
      "taf_trigger": false,
      "metar": "METAR EPPO 041400Z 31017KT CAVOK 16/M05 Q1014",
      "taf": "TAF EPPO 041130Z 0412/0512 29015KT 9999 SCT040"
    },
    {
      "icao": "EPRA",
      "alert": "OK",
      "vis_m": 9999,
      "fzfg": false,
      "metar_trigger": false,
      "taf_trigger": false,
      "metar": "METAR EPRA 041400Z 28016KT 9999 BKN024 12/06 Q1014",
      "taf": "TAF EPRA 041130Z 0412/0421 27014KT CAVOK"
    },
    {
      "icao": "EPRZ",
      "alert": "OK",
      "vis_m": 9999,
      "fzfg": false,
      "metar_trigger": false,
      "taf_trigger": false,
      "metar": "METAR EPRZ 041400Z 28016KT 240V300 9999 FEW050CB 15/01 Q1015",
      "taf": "TAF EPRZ 041130Z 0412/0512 24015KT CAVOK"
    },
    {
      "icao": "EPSC",
      "alert": "OK",
      "vis_m": 9999,
      "fzfg": false,
      "metar_trigger": false,
      "taf_trigger": false,
      "metar": "METAR EPSC 041400Z 29018KT CAVOK 13/M01 Q1015",
      "taf": "TAF EPSC 041130Z 0412/0512 27016KT CAVOK"
    },
    {
      "icao": "EPSY",
      "alert": "OK",
      "vis_m": 9999,
      "fzfg": false,
      "metar_trigger": false,
      "taf_trigger": false,
      "metar": "METAR EPSY 041400Z VRB06KT 9999 SCT035TCU 11/05 Q1010",
      "taf": "TAF EPSY 041130Z 0412/0421 27012KT CAVOK"
    },
    {
      "icao": "EPWA",
      "alert": "OK",
      "vis_m": 9999,
      "fzfg": false,
      "metar_trigger": false,
      "taf_trigger": false,
      "metar": "METAR EPWA 041400Z 25013KT 9999 BKN020 13/07 Q1013 NOSIG",
      "taf": "TAF EPWA 041130Z 0412/0512 27015KT CAVOK"
    },
    {
      "icao": "EPWR",
      "alert": "OK",
      "vis_m": 9999,
      "fzfg": false,
      "metar_trigger": false,
      "taf_trigger": false,
      "metar": "METAR EPWR 041400Z 27015KT 9999 FEW029TCU 14/07 Q1016",
      "taf": "TAF EPWR 041130Z 0412/0512 28015KT 9999 BKN030"
    },
    {
      "icao": "ESGG",
      "alert": "OK",
      "vis_m": 9999,
      "fzfg": false,
      "metar_trigger": false,
      "taf_trigger": false,
      "metar": "METAR ESGG 041350Z 26022G32KT 9999 SCT026 07/01 Q1006",
      "taf": "TAF ESGG 041130Z 0412/0512 27018G30KT 9999 SCT020"
    },
    {
      "icao": "ESKN",
      "alert": "OK",
      "vis_m": 9999,
      "fzfg": false,
      "metar_trigger": false,
      "taf_trigger": false,
      "metar": "METAR ESKN 041350Z 28021G32KT 9999 BKN040 06/02 Q0997",
      "taf": "TAF ESKN 041130Z 0412/0512 27020G30KT 9999 BKN018"
    },
    {
      "icao": "ESMS",
      "alert": "OK",
      "vis_m": 9999,
      "fzfg": false,
      "metar_trigger": false,
      "taf_trigger": false,
      "metar": "METAR ESMS 041350Z 27021KT 9999 FEW049 10/M00 Q1011",
      "taf": "TAF ESMS 041127Z 0412/0512 27018KT 9999 BKN030"
    },
    {
      "icao": "ESSA",
      "alert": "OK",
      "vis_m": 8000,
      "fzfg": false,
      "metar_trigger": false,
      "taf_trigger": false,
      "metar": "METAR ESSA 041350Z 27015KT 8000 BKN007 OVC011 02/01 Q0994 TEMPO BKN005",
      "taf": ""
    },
    {
      "icao": "EYKA",
      "alert": "OK",
      "vis_m": 9999,
      "fzfg": false,
      "metar_trigger": false,
      "taf_trigger": false,
      "metar": "METAR EYKA 041350Z 26013KT 9999 FEW019 SCT024 09/05 Q1006",
      "taf": "TAF EYKA 041100Z 0412/0512 23014KT 9000 BKN030"
    },
    {
      "icao": "EYPA",
      "alert": "OK",
      "vis_m": 9999,
      "fzfg": false,
      "metar_trigger": false,
      "taf_trigger": false,
      "metar": "METAR EYPA 041350Z 25009G22KT 140V310 CAVOK 06/03 Q1005",
      "taf": ""
    },
    {
      "icao": "EYVI",
      "alert": "OK",
      "vis_m": 9999,
      "fzfg": false,
      "metar_trigger": false,
      "taf_trigger": false,
      "metar": "METAR EYVI 041350Z 24014KT 9999 FEW028 OVC035 08/02 Q1007 NOSIG",
      "taf": "TAF EYVI 041103Z 0412/0512 21015KT 9000 OVC025"
    },
    {
      "icao": "GCFV",
      "alert": "OK",
      "vis_m": 9999,
      "fzfg": false,
      "metar_trigger": false,
      "taf_trigger": false,
      "metar": "METAR GCFV 041400Z 12006KT 080V160 CAVOK 21/16 Q1016",
      "taf": "TAF GCFV 040800Z 0409/0509 15006KT 9999 FEW020 TX24/0414Z TN16/0506Z"
    },
    {
      "icao": "GCLP",
      "alert": "OK",
      "vis_m": 9999,
      "fzfg": false,
      "metar_trigger": false,
      "taf_trigger": false,
      "metar": "METAR GCLP 041400Z 06010KT 020V100 9999 FEW040 21/16 Q1017 NOSIG",
      "taf": "TAF GCLP 040800Z 0409/0509 04010KT 9999 FEW020 SCT060 TX23/0414Z TN16/0506Z"
    },
    {
      "icao": "GCTS",
      "alert": "OK",
      "vis_m": 9999,
      "fzfg": false,
      "metar_trigger": false,
      "taf_trigger": false,
      "metar": "METAR GCTS 041400Z 10010KT 080V140 9999 BKN090 22/15 Q1017 NOSIG",
      "taf": "TAF GCTS 040800Z 0409/0509 13008KT 9999 FEW020 SCT060 TX24/0414Z TN18/0506Z"
    },
    {
      "icao": "GMAD",
      "alert": "OK",
      "vis_m": 8000,
      "fzfg": false,
      "metar_trigger": false,
      "taf_trigger": false,
      "metar": "METAR GMAD 041400Z 26012KT 8000 NSC 24/M02 Q1015 NOSIG",
      "taf": "TAF GMAD 041100Z 0412/0518 05005KT 8000 NSC"
    },
    {
      "icao": "GMMN",
      "alert": "OK",
      "vis_m": 9999,
      "fzfg": false,
      "metar_trigger": false,
      "taf_trigger": false,
      "metar": "METAR GMMN 041400Z VRB02KT CAVOK 29/11 Q1016 NOSIG",
      "taf": "TAF GMMN 041100Z 0412/0514 32002KT CAVOK"
    },
    {
      "icao": "GMMX",
      "alert": "OK",
      "vis_m": 9999,
      "fzfg": false,
      "metar_trigger": false,
      "taf_trigger": false,
      "metar": "METAR GMMX 041400Z VRB06KT CAVOK 31/06 Q1016 NOSIG",
      "taf": "TAF GMMX 041100Z 0412/0518 06006KT 8000 NSC"
    },
    {
      "icao": "HEGN",
      "alert": "OK",
      "vis_m": 4000,
      "fzfg": false,
      "metar_trigger": false,
      "taf_trigger": false,
      "metar": "METAR HEGN 041400Z 36014KT 4000 SA NSC 28/02 Q1013 NOSIG",
      "taf": "TAF HEGN 041100Z 0412/0518 36010G22KT 6000 NSC"
    },
    {
      "icao": "HEMA",
      "alert": "OK",
      "vis_m": 9999,
      "fzfg": false,
      "metar_trigger": false,
      "taf_trigger": false,
      "metar": "METAR HEMA 041400Z 35017KT CAVOK 25/09 Q1013 NOSIG",
      "taf": "TAF HEMA 041100Z 0412/0518 36010G22KT 6000 NSC"
    },
    {
      "icao": "HESH",
      "alert": "OK",
      "vis_m": 9999,
      "fzfg": false,
      "metar_trigger": false,
      "taf_trigger": false,
      "metar": "METAR HESH 041400Z 05007KT CAVOK 27/05 Q1013 NOSIG",
      "taf": "TAF HESH 041100Z 0412/0518 02008G20KT 6000 NSC"
    },
    {
      "icao": "HESX",
      "alert": "OK",
      "vis_m": 9999,
      "fzfg": false,
      "metar_trigger": false,
      "taf_trigger": false,
      "metar": "METAR HESX 041400Z 25015KT CAVOK 24/M01 Q1016 NOSIG",
      "taf": "TAF HESX 041100Z 0412/0518 29010KT CAVOK"
    },
    {
      "icao": "LATI",
      "alert": "OK",
      "vis_m": null,
      "fzfg": false,
      "metar_trigger": false,
      "taf_trigger": false,
      "metar": "",
      "taf": "TAF LATI 041100Z 0412/0512 35015KT 9999 FEW070 TX24/0512Z TN08/0504Z"
    },
    {
      "icao": "LBPD",
      "alert": "OK",
      "vis_m": 9999,
      "fzfg": false,
      "metar_trigger": false,
      "taf_trigger": false,
      "metar": "METAR LBPD 041400Z AUTO 30005KT 250V330 9999 BKN220/// 16/08 Q1015 NOSIG",
      "taf": "TAF LBPD 041100Z 0412/0512 29014KT 9999 BKN050"
    },
    {
      "icao": "LBSF",
      "alert": "OK",
      "vis_m": 9999,
      "fzfg": false,
      "metar_trigger": false,
      "taf_trigger": false,
      "metar": "METAR LBSF 041400Z VRB05KT 9999 FEW032 SCT046 BKN065 14/06 Q1016 TEMPO SHRA FEW030TCU",
      "taf": "TAF LBSF 041100Z 0412/0512 32012KT 9999 SCT015 BKN035"
    },
    {
      "icao": "LBWN",
      "alert": "OK",
      "vis_m": 9999,
      "fzfg": false,
      "metar_trigger": false,
      "taf_trigger": false,
      "metar": "METAR LBWN 041400Z 12006KT 020V160 9999 FEW025TCU BKN030 15/13 Q1014 RESHRA NOSIG",
      "taf": "TAF LBWN 041100Z 0412/0512 02010KT 9999 SCT020 BKN040"
    },
    {
      "icao": "LCLK",
      "alert": "OK",
      "vis_m": 9999,
      "fzfg": false,
      "metar_trigger": false,
      "taf_trigger": false,
      "metar": "METAR LCLK 041400Z 29005KT 260V320 9999 FEW025CB SCT050 17/13 Q1014 NOSIG",
      "taf": "TAF LCLK 041130Z 0412/0512 22020KT 8000 FEW025"
    },
    {
      "icao": "LCPH",
      "alert": "OK",
      "vis_m": 9999,
      "fzfg": false,
      "metar_trigger": false,
      "taf_trigger": false,
      "metar": "METAR LCPH 041400Z 00000KT 9999 FEW025 FEW030CB SCT040 BKN060 17/13 Q1015 RERA NOSIG",
      "taf": "TAF LCPH 041130Z 0412/0512 25015KT 9999 FEW030 SCT050"
    },
    {
      "icao": "LEAL",
      "alert": "OK",
      "vis_m": 9999,
      "fzfg": false,
      "metar_trigger": false,
      "taf_trigger": false,
      "metar": "METAR LEAL 041400Z 18009KT 140V230 CAVOK 20/08 Q1024 NOSIG",
      "taf": "TAF LEAL 041100Z 0412/0512 21010KT CAVOK TX20/0412Z TN09/0506Z"
    },
    {
      "icao": "LEBB",
      "alert": "OK",
      "vis_m": 9999,
      "fzfg": false,
      "metar_trigger": false,
      "taf_trigger": false,
      "metar": "METAR LEBB 041400Z VRB02KT CAVOK 29/09 Q1020 NOSIG",
      "taf": "TAF LEBB 041100Z 0412/0512 31009KT CAVOK TX26/0414Z TN11/0502Z"
    },
    {
      "icao": "LEBL",
      "alert": "OK",
      "vis_m": 9999,
      "fzfg": false,
      "metar_trigger": false,
      "taf_trigger": false,
      "metar": "METAR LEBL 041400Z 21010KT 9999 FEW020 18/11 Q1023 NOSIG",
      "taf": "TAF LEBL 041100Z 0412/0512 20010KT 9999 FEW020 TX19/0412Z TN10/0506Z"
    },
    {
      "icao": "LECH",
      "alert": "OK",
      "vis_m": 9999,
      "fzfg": false,
      "metar_trigger": false,
      "taf_trigger": false,
      "metar": "METAR LECH 041400Z AUTO 12010KT 090V160 CAVOK 21/05 Q1023",
      "taf": "TAF LECH 041100Z 0412/0512 VRB04KT CAVOK TX23/0413Z TN09/0506Z"
    },
    {
      "icao": "LEMD",
      "alert": "OK",
      "vis_m": 9999,
      "fzfg": false,
      "metar_trigger": false,
      "taf_trigger": false,
      "metar": "METAR LEMD 041400Z 19005KT 130V250 CAVOK 22/06 Q1023 NOSIG",
      "taf": "TAF LEMD 041100Z 0412/0518 VRB04KT CAVOK TX25/0416Z TN07/0506Z"
    },
    {
      "icao": "LEMG",
      "alert": "OK",
      "vis_m": 9999,
      "fzfg": false,
      "metar_trigger": false,
      "taf_trigger": false,
      "metar": "METAR LEMG 041400Z 13009KT 090V150 CAVOK 18/10 Q1024 NOSIG",
      "taf": "TAF LEMG 041100Z 0412/0512 13010KT CAVOK TX21/0414Z TN11/0507Z"
    },
    {
      "icao": "LEVC",
      "alert": "OK",
      "vis_m": 9999,
      "fzfg": false,
      "metar_trigger": false,
      "taf_trigger": false,
      "metar": "METAR LEVC 041400Z 12011KT CAVOK 23/06 Q1023 NOSIG",
      "taf": "TAF LEVC 041100Z 0412/0512 VRB04KT CAVOK TX25/0414Z TN10/0506Z"
    },
    {
      "icao": "LEXJ",
      "alert": "OK",
      "vis_m": 9999,
      "fzfg": false,
      "metar_trigger": false,
      "taf_trigger": false,
      "metar": "METAR LEXJ 041400Z 07004KT 360V140 CAVOK 20/13 Q1020",
      "taf": ""
    },
    {
      "icao": "LEZG",
      "alert": "OK",
      "vis_m": 9999,
      "fzfg": false,
      "metar_trigger": false,
      "taf_trigger": false,
      "metar": "METAR LEZG 041400Z 32002KT CAVOK 23/03 Q1022 NOSIG",
      "taf": "TAF LEZG 041100Z 0412/0512 28005KT 9999 FEW050 TX27/0414Z TN10/0506Z"
    },
    {
      "icao": "LEZL",
      "alert": "OK",
      "vis_m": 9999,
      "fzfg": false,
      "metar_trigger": false,
      "taf_trigger": false,
      "metar": "METAR LEZL 041400Z 05007KT 010V100 CAVOK 28/01 Q1021 NOSIG",
      "taf": "TAF LEZL 040800Z 0409/0509 07008KT CAVOK TX28/0415Z TN10/0507Z"
    },
    {
      "icao": "LFBD",
      "alert": "OK",
      "vis_m": 9999,
      "fzfg": false,
      "metar_trigger": false,
      "taf_trigger": false,
      "metar": "METAR LFBD 041400Z AUTO 13009KT 100V160 CAVOK 22/08 Q1022 NOSIG",
      "taf": "TAF LFBD 041100Z 0412/0518 15008KT CAVOK TX22/0415Z TN07/0505Z"
    },
    {
      "icao": "LFLL",
      "alert": "OK",
      "vis_m": 9999,
      "fzfg": false,
      "metar_trigger": false,
      "taf_trigger": false,
      "metar": "METAR LFLL 041400Z 35007KT 310V020 CAVOK 18/10 Q1024 NOSIG",
      "taf": "TAF LFLL 041100Z 0412/0518 36007KT 9999 SCT033"
    },
    {
      "icao": "LFLS",
      "alert": "OK",
      "vis_m": 9999,
      "fzfg": false,
      "metar_trigger": false,
      "taf_trigger": false,
      "metar": "METAR LFLS 041400Z AUTO 01007KT 9999 SCT036 18/09 Q1023 NOSIG",
      "taf": "TAF LFLS 040800Z 0409/0509 35008KT 9999 BKN024"
    },
    {
      "icao": "LFMN",
      "alert": "OK",
      "vis_m": 9999,
      "fzfg": false,
      "metar_trigger": false,
      "taf_trigger": false,
      "metar": "METAR LFMN 041400Z 13006KT CAVOK 18/13 Q1021 NOSIG",
      "taf": "TAF LFMN 040800Z 0409/0515 16005KT CAVOK"
    },
    {
      "icao": "LFOB",
      "alert": "OK",
      "vis_m": 9999,
      "fzfg": false,
      "metar_trigger": false,
      "taf_trigger": false,
      "metar": "METAR LFOB 041400Z AUTO 19012KT 150V220 9999 FEW006 16/10 Q1020 NOSIG",
      "taf": "TAF LFOB 041100Z 0412/0512 19012KT 9999 BKN025"
    },
    {
      "icao": "LFPO",
      "alert": "OK",
      "vis_m": 9999,
      "fzfg": false,
      "metar_trigger": false,
      "taf_trigger": false,
      "metar": "METAR LFPO 041400Z 19013KT 9999 FEW030 BKN190 18/09 Q1021 NOSIG",
      "taf": "TAF LFPO 041100Z 0412/0518 20010KT 9999 BKN016"
    },
    {
      "icao": "LFSB",
      "alert": "OK",
      "vis_m": 9999,
      "fzfg": false,
      "metar_trigger": false,
      "taf_trigger": false,
      "metar": "METAR LFSB 041400Z AUTO 15005KT 9999 FEW028 SCT047 16/11 Q1024 NOSIG",
      "taf": "TAF LFSB 041100Z 0412/0512 30006KT 9999 BKN020"
    },
    {
      "icao": "LGAV",
      "alert": "OK",
      "vis_m": 9999,
      "fzfg": false,
      "metar_trigger": false,
      "taf_trigger": false,
      "metar": "METAR LGAV 041350Z 34006KT 9999 SCT025 BKN040 15/09 Q1013 NOSIG",
      "taf": "TAF LGAV 041100Z 0412/0512 35010KT 9999 SCT025 SCT070"
    },
    {
      "icao": "LGTS",
      "alert": "OK",
      "vis_m": 9999,
      "fzfg": false,
      "metar_trigger": false,
      "taf_trigger": false,
      "metar": "METAR LGTS 041350Z 28006KT 9999 FEW018TCU SCT025 19/09 Q1013 NOSIG",
      "taf": "TAF LGTS 041100Z 0412/0512 33012KT 9999 SCT030"
    },
    {
      "icao": "LHBP",
      "alert": "OK",
      "vis_m": 9999,
      "fzfg": false,
      "metar_trigger": false,
      "taf_trigger": false,
      "metar": "METAR LHBP 041400Z 31016KT CAVOK 17/04 Q1018 NOSIG",
      "taf": "TAF LHBP 041115Z 0412/0512 31013G23KT CAVOK"
    },
    {
      "icao": "LHDC",
      "alert": "OK",
      "vis_m": 9999,
      "fzfg": false,
      "metar_trigger": false,
      "taf_trigger": false,
      "metar": "METAR LHDC 041345Z AUTO 27010KT 240V330 CAVOK 18/02 Q1017 NOSIG",
      "taf": "TAF LHDC 041115Z 0412/0421 27008KT CAVOK"
    },
    {
      "icao": "LIBD",
      "alert": "OK",
      "vis_m": 9999,
      "fzfg": false,
      "metar_trigger": false,
      "taf_trigger": false,
      "metar": "METAR LIBD 041350Z AUTO 34008KT 300V020 9999 NCD 16/07 Q1018",
      "taf": "TAF LIBD 041100Z 0412/0512 34015KT CAVOK"
    },
    {
      "icao": "LIBG",
      "alert": "OK",
      "vis_m": 9999,
      "fzfg": false,
      "metar_trigger": false,
      "taf_trigger": false,
      "metar": "METAR LIBG 041350Z 35014KT 320V020 CAVOK 18/03 Q1017",
      "taf": "TAF LIBG 041100Z 0412/0421 33016KT 9999 SCT030"
    },
    {
      "icao": "LIBP",
      "alert": "OK",
      "vis_m": 9999,
      "fzfg": false,
      "metar_trigger": false,
      "taf_trigger": false,
      "metar": "METAR LIBP 041350Z AUTO 05008KT 9999 NCD 18/03 Q1020",
      "taf": "TAF LIBP 041100Z 0412/0512 35012KT CAVOK"
    },
    {
      "icao": "LIBR",
      "alert": "OK",
      "vis_m": 9999,
      "fzfg": false,
      "metar_trigger": false,
      "taf_trigger": false,
      "metar": "METAR LIBR 041350Z 33015KT CAVOK 16/10 Q1017",
      "taf": "TAF LIBR 041100Z 0412/0512 33016KT CAVOK"
    },
    {
      "icao": "LICA",
      "alert": "OK",
      "vis_m": 9999,
      "fzfg": false,
      "metar_trigger": false,
      "taf_trigger": false,
      "metar": "METAR LICA 041350Z AUTO 24010KT 9999 FEW084/// 17/12 Q1017",
      "taf": "TAF LICA 041100Z 0412/0512 26012KT 9999 FEW050"
    },
    {
      "icao": "LICC",
      "alert": "OK",
      "vis_m": 9999,
      "fzfg": false,
      "metar_trigger": false,
      "taf_trigger": false,
      "metar": "METAR LICC 041350Z 10008KT 060V130 9999 FEW050 20/16 Q1016",
      "taf": "TAF LICC 041100Z 0412/0512 09010KT 9999 FEW050"
    },
    {
      "icao": "LICJ",
      "alert": "OK",
      "vis_m": 9999,
      "fzfg": false,
      "metar_trigger": false,
      "taf_trigger": false,
      "metar": "METAR LICJ 041350Z 01011KT 9999 FEW025 16/12 Q1019",
      "taf": "TAF LICJ 041100Z 0412/0512 04013KT CAVOK"
    },
    {
      "icao": "LIMC",
      "alert": "OK",
      "vis_m": 9999,
      "fzfg": false,
      "metar_trigger": false,
      "taf_trigger": false,
      "metar": "METAR LIMC 041350Z 15004KT 100V210 CAVOK 23/01 Q1020 NOSIG",
      "taf": "TAF LIMC 041100Z 0412/0518 VRB05KT CAVOK"
    },
    {
      "icao": "LIME",
      "alert": "OK",
      "vis_m": 9999,
      "fzfg": false,
      "metar_trigger": false,
      "taf_trigger": false,
      "metar": "METAR LIME 041350Z 19005KT 130V260 CAVOK 20/04 Q1020 NOSIG",
      "taf": "TAF LIME 041100Z 0412/0512 VRB05KT CAVOK"
    },
    {
      "icao": "LIMF",
      "alert": "OK",
      "vis_m": 9999,
      "fzfg": false,
      "metar_trigger": false,
      "taf_trigger": false,
      "metar": "METAR LIMF 041350Z 02003KT 330V080 CAVOK 23/01 Q1020",
      "taf": "TAF LIMF 041100Z 0412/0512 VRB05KT CAVOK"
    },
    {
      "icao": "LIMJ",
      "alert": "OK",
      "vis_m": 9999,
      "fzfg": false,
      "metar_trigger": false,
      "taf_trigger": false,
      "metar": "METAR LIMJ 041350Z 15004KT CAVOK 16/12 Q1021",
      "taf": "TAF LIMJ 041100Z 0412/0512 VRB06KT CAVOK"
    },
    {
      "icao": "LIPE",
      "alert": "OK",
      "vis_m": 9999,
      "fzfg": false,
      "metar_trigger": false,
      "taf_trigger": false,
      "metar": "METAR LIPE 041350Z VRB03KT CAVOK 22/08 Q1020",
      "taf": "TAF LIPE 041100Z 0412/0512 VRB05KT CAVOK"
    },
    {
      "icao": "LIPH",
      "alert": "OK",
      "vis_m": 9999,
      "fzfg": false,
      "metar_trigger": false,
      "taf_trigger": false,
      "metar": "METAR LIPH 041350Z 17006KT 140V210 CAVOK 19/05 Q1021",
      "taf": "TAF LIPH 041100Z 0412/0512 20010KT CAVOK"
    },
    {
      "icao": "LIPQ",
      "alert": "OK",
      "vis_m": 9999,
      "fzfg": false,
      "metar_trigger": false,
      "taf_trigger": false,
      "metar": "METAR LIPQ 041350Z AUTO 26007KT 220V290 9999 FEW150/// 20/05 Q1021",
      "taf": "TAF LIPQ 041100Z 0412/0512 22010KT CAVOK"
    },
    {
      "icao": "LIPR",
      "alert": "OK",
      "vis_m": 9999,
      "fzfg": false,
      "metar_trigger": false,
      "taf_trigger": false,
      "metar": "METAR LIPR 041350Z 08005KT 050V120 CAVOK 18/06 Q1021",
      "taf": "TAF LIPR 041100Z 0412/0512 06010KT CAVOK"
    },
    {
      "icao": "LIPX",
      "alert": "OK",
      "vis_m": 9999,
      "fzfg": false,
      "metar_trigger": false,
      "taf_trigger": false,
      "metar": "METAR LIPX 041350Z 24004KT 160V300 CAVOK 21/03 Q1020",
      "taf": "TAF LIPX 041100Z 0412/0512 VRB05KT CAVOK"
    },
    {
      "icao": "LIPY",
      "alert": "OK",
      "vis_m": 9999,
      "fzfg": false,
      "metar_trigger": false,
      "taf_trigger": false,
      "metar": "METAR LIPY 041350Z AUTO 02006KT 340V040 9999 NCD 17/03 Q1021",
      "taf": "TAF LIPY 041100Z 0412/0512 34010KT CAVOK"
    },
    {
      "icao": "LIPZ",
      "alert": "OK",
      "vis_m": 9999,
      "fzfg": false,
      "metar_trigger": false,
      "taf_trigger": false,
      "metar": "METAR LIPZ 041350Z 17006KT CAVOK 18/04 Q1021 NOSIG",
      "taf": "TAF LIPZ 041100Z 0412/0518 17010KT CAVOK"
    },
    {
      "icao": "LIRF",
      "alert": "OK",
      "vis_m": 9999,
      "fzfg": false,
      "metar_trigger": false,
      "taf_trigger": false,
      "metar": "METAR LIRF 041350Z 26012KT 230V290 CAVOK 20/05 Q1018 NOSIG",
      "taf": "TAF LIRF 041100Z 0412/0518 28012KT CAVOK"
    },
    {
      "icao": "LIRN",
      "alert": "OK",
      "vis_m": 9999,
      "fzfg": false,
      "metar_trigger": false,
      "taf_trigger": false,
      "metar": "METAR LIRN 041350Z 03006KT 300V070 CAVOK 21/03 Q1018 NOSIG",
      "taf": "TAF LIRN 041100Z 0412/0512 03011KT CAVOK"
    },
    {
      "icao": "LIRP",
      "alert": "OK",
      "vis_m": 9999,
      "fzfg": false,
      "metar_trigger": false,
      "taf_trigger": false,
      "metar": "METAR LIRP 041345Z 29011KT CAVOK 20/03 Q1021 NOSIG",
      "taf": "TAF LIRP 041100Z 0412/0512 26006KT CAVOK"
    },
    {
      "icao": "LIRZ",
      "alert": "OK",
      "vis_m": 9999,
      "fzfg": false,
      "metar_trigger": false,
      "taf_trigger": false,
      "metar": "METAR LIRZ 041350Z AUTO 07012KT 9999 NCD 21/03 Q1020",
      "taf": "TAF LIRZ 041100Z 0412/0512 03012KT CAVOK"
    },
    {
      "icao": "LJLJ",
      "alert": "OK",
      "vis_m": 9999,
      "fzfg": false,
      "metar_trigger": false,
      "taf_trigger": false,
      "metar": "METAR LJLJ 041400Z 08005KT 020V110 9999 SCT085 18/01 Q1020 NOSIG",
      "taf": "TAF LJLJ 041100Z 0412/0512 12004KT 9999 BKN100"
    },
    {
      "icao": "LKMT",
      "alert": "OK",
      "vis_m": 9999,
      "fzfg": false,
      "metar_trigger": false,
      "taf_trigger": false,
      "metar": "METAR LKMT 041400Z 24013KT 9999 BKN030 13/07 Q1018 NOSIG",
      "taf": "TAF LKMT 041100Z 0412/0512 24014KT 9999 SCT040"
    },
    {
      "icao": "LKPR",
      "alert": "OK",
      "vis_m": 9999,
      "fzfg": false,
      "metar_trigger": false,
      "taf_trigger": false,
      "metar": "METAR LKPR 041400Z 32014KT 9999 -SHRA FEW020TCU BKN030 10/08 Q1019 NOSIG",
      "taf": "TAF LKPR 041100Z 0412/0518 25018KT 9999 SCT025 BKN040"
    },
    {
      "icao": "LLBG",
      "alert": "OK",
      "vis_m": 9999,
      "fzfg": false,
      "metar_trigger": false,
      "taf_trigger": false,
      "metar": "METAR LLBG 041350Z 32015KT CAVOK 21/07 Q1015 NOSIG",
      "taf": "TAF LLBG 041103Z 0412/0512 30012KT 7000 NSC TX22/0412Z TN12/0503Z"
    },
    {
      "icao": "LMML",
      "alert": "OK",
      "vis_m": 9999,
      "fzfg": false,
      "metar_trigger": false,
      "taf_trigger": false,
      "metar": "METAR LMML 041415Z 15004KT 130V200 9999 FEW030 17/11 Q1017 NOSIG",
      "taf": "TAF LMML 041100Z 0412/0512 VRB07KT 9999 FEW030"
    },
    {
      "icao": "LOWW",
      "alert": "OK",
      "vis_m": 9999,
      "fzfg": false,
      "metar_trigger": false,
      "taf_trigger": false,
      "metar": "METAR LOWW 041350Z 29015KT 9999 FEW028 15/07 Q1021 NOSIG",
      "taf": "TAF LOWW 041415Z 0415/0521 28010KT CAVOK TX23/0514Z TN08/0504Z"
    },
    {
      "icao": "LPFR",
      "alert": "OK",
      "vis_m": 9999,
      "fzfg": false,
      "metar_trigger": false,
      "taf_trigger": false,
      "metar": "METAR LPFR 041400Z 10012KT CAVOK 23/02 Q1021",
      "taf": "TAF LPFR 041100Z 0412/0512 10010KT CAVOK"
    },
    {
      "icao": "LPMA",
      "alert": "OK",
      "vis_m": 9999,
      "fzfg": false,
      "metar_trigger": false,
      "taf_trigger": false,
      "metar": "METAR LPMA 041400Z 01015KT 9999 FEW015 22/11 Q1018",
      "taf": "TAF LPMA 041100Z 0412/0512 02010KT 9999 SCT015"
    },
    {
      "icao": "LPPR",
      "alert": "OK",
      "vis_m": 9999,
      "fzfg": false,
      "metar_trigger": false,
      "taf_trigger": false,
      "metar": "METAR LPPR 041400Z 28005KT 240V320 CAVOK 20/10 Q1022",
      "taf": "TAF LPPR 041100Z 0412/0512 30008KT CAVOK"
    },
    {
      "icao": "LPPS",
      "alert": "OK",
      "vis_m": 9999,
      "fzfg": false,
      "metar_trigger": false,
      "taf_trigger": false,
      "metar": "METAR LPPS 041400Z 01010KT 320V070 9999 FEW014 19/14 Q1019",
      "taf": "TAF LPPS 041100Z 0412/0518 03012KT 9999 SCT012"
    },
    {
      "icao": "LPPT",
      "alert": "OK",
      "vis_m": 9999,
      "fzfg": false,
      "metar_trigger": false,
      "taf_trigger": false,
      "metar": "METAR LPPT 041400Z 12004KT 050V210 CAVOK 26/05 Q1021",
      "taf": "TAF LPPT 041100Z 0412/0518 VRB05KT CAVOK"
    },
    {
      "icao": "LQBK",
      "alert": "OK",
      "vis_m": 9999,
      "fzfg": false,
      "metar_trigger": false,
      "taf_trigger": false,
      "metar": "METAR LQBK 041400Z VRB04KT CAVOK 18/01 Q1020 NOSIG",
      "taf": "TAF LQBK 041100Z 0412/0512 16005KT CAVOK TX19/0413Z TN06/0505Z"
    },
    {
      "icao": "LQSA",
      "alert": "OK",
      "vis_m": 9999,
      "fzfg": false,
      "metar_trigger": false,
      "taf_trigger": false,
      "metar": "METAR LQSA 041400Z VRB05KT CAVOK 15/M04 Q1019 NOSIG",
      "taf": "TAF LQSA 041100Z 0412/0512 VRB02KT 9999 SCT060 TX16/0413Z TN02/0504Z"
    },
    {
      "icao": "LQTZ",
      "alert": "OK",
      "vis_m": 9999,
      "fzfg": false,
      "metar_trigger": false,
      "taf_trigger": false,
      "metar": "METAR LQTZ 041400Z 35006KT 280V040 CAVOK 17/01 Q1020",
      "taf": "TAF LQTZ 041100Z 0412/0512 27005KT 9999 SCT060 TX17/0413Z TN05/0505Z"
    },
    {
      "icao": "LRBC",
      "alert": "OK",
      "vis_m": 9999,
      "fzfg": false,
      "metar_trigger": false,
      "taf_trigger": false,
      "metar": "METAR LRBC 041400Z 04005KT 360V110 CAVOK 17/03 Q1014",
      "taf": "TAF LRBC 041100Z 0412/0421 35012KT CAVOK"
    },
    {
      "icao": "LRBS",
      "alert": "OK",
      "vis_m": 9999,
      "fzfg": false,
      "metar_trigger": false,
      "taf_trigger": false,
      "metar": "METAR LRBS 041400Z 06005KT 9999 FEW016 17/06 Q1015 NOSIG",
      "taf": "TAF LRBS 041100Z 0412/0512 VRB04KT 9999 SCT040"
    },
    {
      "icao": "LRBV",
      "alert": "OK",
      "vis_m": 9999,
      "fzfg": false,
      "metar_trigger": false,
      "taf_trigger": false,
      "metar": "METAR LRBV 041400Z 30008KT 270V330 9999 FEW039 BKN067 14/05 Q1016",
      "taf": "TAF LRBV 041100Z 0412/0421 29006KT 9999 BKN045"
    },
    {
      "icao": "LRCL",
      "alert": "OK",
      "vis_m": 9999,
      "fzfg": false,
      "metar_trigger": false,
      "taf_trigger": false,
      "metar": "METAR LRCL 041400Z 33013KT 290V360 CAVOK 17/00 Q1016",
      "taf": "TAF LRCL 041100Z 0412/0421 VRB04KT CAVOK"
    },
    {
      "icao": "LRCV",
      "alert": "OK",
      "vis_m": 9999,
      "fzfg": false,
      "metar_trigger": false,
      "taf_trigger": false,
      "metar": "METAR LRCV 041400Z 23008KT 9999 -TSRA SCT030 BKN038CB 12/10 Q1016 RETSRA",
      "taf": "TAF LRCV 041100Z 0412/0421 VRB04KT 9999 SCT030"
    },
    {
      "icao": "LRIA",
      "alert": "OK",
      "vis_m": 9999,
      "fzfg": false,
      "metar_trigger": false,
      "taf_trigger": false,
      "metar": "METAR LRIA 041400Z 33013KT 290V360 CAVOK 17/02 Q1014",
      "taf": "TAF LRIA 041100Z 0412/0421 32012KT CAVOK"
    },
    {
      "icao": "LROP",
      "alert": "OK",
      "vis_m": 9999,
      "fzfg": false,
      "metar_trigger": false,
      "taf_trigger": false,
      "metar": "METAR LROP 041400Z 08005KT 9999 -SHRA FEW050CB 16/07 Q1015 NOSIG",
      "taf": "TAF LROP 041100Z 0412/0512 VRB04KT 9999 SCT040"
    },
    {
      "icao": "LRSB",
      "alert": "OK",
      "vis_m": 9999,
      "fzfg": false,
      "metar_trigger": false,
      "taf_trigger": false,
      "metar": "METAR LRSB 041400Z COR 34003KT 290V040 9999 FEW045 16/06 Q1016 NOSIG",
      "taf": "TAF LRSB 041100Z 0412/0512 VRB04KT 9999 SCT070"
    },
    {
      "icao": "LRSM",
      "alert": "OK",
      "vis_m": 9999,
      "fzfg": false,
      "metar_trigger": false,
      "taf_trigger": false,
      "metar": "METAR LRSM 041400Z 28008KT 250V320 CAVOK 19/M01 Q1016",
      "taf": "TAF LRSM 041100Z 0412/0421 VRB04KT CAVOK"
    },
    {
      "icao": "LRSV",
      "alert": "OK",
      "vis_m": 9999,
      "fzfg": false,
      "metar_trigger": false,
      "taf_trigger": false,
      "metar": "METAR LRSV 041400Z 36006KT 300V040 CAVOK 15/01 Q1014",
      "taf": "TAF LRSV 041100Z 0412/0421 34008KT CAVOK"
    },
    {
      "icao": "LRTM",
      "alert": "OK",
      "vis_m": 9999,
      "fzfg": false,
      "metar_trigger": false,
      "taf_trigger": false,
      "metar": "METAR LRTM 041400Z 28008KT 240V320 9999 FEW033 FEW036TCU 17/03 Q1016",
      "taf": "TAF LRTM 041100Z 0412/0421 VRB04KT CAVOK"
    },
    {
      "icao": "LRTR",
      "alert": "OK",
      "vis_m": 9999,
      "fzfg": false,
      "metar_trigger": false,
      "taf_trigger": false,
      "metar": "METAR LRTR 041400Z 31009KT CAVOK 18/01 Q1018 NOSIG",
      "taf": "TAF LRTR 041100Z 0412/0512 35010KT CAVOK"
    },
    {
      "icao": "LTAC",
      "alert": "OK",
      "vis_m": 9999,
      "fzfg": false,
      "metar_trigger": false,
      "taf_trigger": false,
      "metar": "METAR LTAC 041350Z 27011KT 9999 FEW025CB SCT040 BKN080 15/03 Q1011 NOSIG RMK RWY21C 26011KT 220V280 RWY03L 27010KT RWY21R 25011KT RWY03R 24010KT RWY21L 26011KT",
      "taf": "TAF LTAC 041040Z 0412/0512 VRB02KT 9999 SCT040 SCT100"
    },
    {
      "icao": "LTFM",
      "alert": "OK",
      "vis_m": 500,
      "fzfg": false,
      "metar_trigger": false,
      "taf_trigger": false,
      "metar": "METAR LTFM 041350Z 36010KT 0500 R35R/0450D R17L/0900U R34L/0600U R36/0500D -SHRA FG BKN002 BKN022 09/09 Q1013 NOSIG RMK RWY17L 01009KT 320V020 RWY34L 35011KT RWY16R 36009KT RWY36 01012KT RWY18 01009KT",
      "taf": "TAF LTFM 041040Z 0412/0518 33012KT 2500 BR BKN002 BKN022"
    },
    {
      "icao": "LUKK",
      "alert": "OK",
      "vis_m": 9999,
      "fzfg": false,
      "metar_trigger": false,
      "taf_trigger": false,
      "metar": "METAR LUKK 041400Z 32016KT 300V010 CAVOK 17/00 Q1013 NOSIG",
      "taf": "TAF LUKK 041102Z 0412/0512 34012KT CAVOK"
    },
    {
      "icao": "LWOH",
      "alert": "OK",
      "vis_m": null,
      "fzfg": false,
      "metar_trigger": false,
      "taf_trigger": false,
      "metar": "",
      "taf": "TAF LWOH 041150Z 0412/0512 34012KT 9999 SCT040"
    },
    {
      "icao": "LWSK",
      "alert": "OK",
      "vis_m": null,
      "fzfg": false,
      "metar_trigger": false,
      "taf_trigger": false,
      "metar": "",
      "taf": "TAF LWSK 041150Z 0412/0512 36012KT 9999 BKN040"
    },
    {
      "icao": "LYBE",
      "alert": "OK",
      "vis_m": 9999,
      "fzfg": false,
      "metar_trigger": false,
      "taf_trigger": false,
      "metar": "METAR LYBE 041400Z 30009KT CAVOK 17/03 Q1019 NOSIG",
      "taf": "TAF LYBE 041100Z 0412/0512 32010KT 9999 SCT040 TX18/0413Z TN06/0506Z"
    },
    {
      "icao": "LYNI",
      "alert": "OK",
      "vis_m": 9999,
      "fzfg": false,
      "metar_trigger": false,
      "taf_trigger": false,
      "metar": "METAR LYNI 041400Z 31016KT 9999 FEW050 SCT073 16/07 Q1017 NOSIG",
      "taf": "TAF LYNI 041100Z 0412/0512 33016KT 9999 SCT040 TX14/0413Z TN04/0505Z"
    },
    {
      "icao": "LYPG",
      "alert": "OK",
      "vis_m": 9999,
      "fzfg": false,
      "metar_trigger": false,
      "taf_trigger": false,
      "metar": "METAR LYPG 041400Z 01014KT 340V040 9999 FEW050 21/01 Q1016 TEMPO 36025KT",
      "taf": ""
    },
    {
      "icao": "LZIB",
      "alert": "OK",
      "vis_m": 9999,
      "fzfg": false,
      "metar_trigger": false,
      "taf_trigger": false,
      "metar": "METAR LZIB 041400Z 29015KT 9999 FEW029 SCT033 14/07 Q1020 NOSIG",
      "taf": "TAF LZIB 041115Z 0412/0512 29014KT 9999 BKN040"
    },
    {
      "icao": "LZKZ",
      "alert": "OK",
      "vis_m": 9999,
      "fzfg": false,
      "metar_trigger": false,
      "taf_trigger": false,
      "metar": "METAR LZKZ 041400Z 22009KT 180V260 CAVOK 18/02 Q1015 NOSIG",
      "taf": "TAF LZKZ 041115Z 0412/0512 24009KT CAVOK"
    },
    {
      "icao": "LZTT",
      "alert": "OK",
      "vis_m": 9999,
      "fzfg": false,
      "metar_trigger": false,
      "taf_trigger": false,
      "metar": "METAR LZTT 041400Z 26012KT 220V280 9999 SCT063 14/01 Q1016 NOSIG",
      "taf": "TAF LZTT 041115Z 0412/0512 24005KT CAVOK"
    },
    {
      "icao": "OEJN",
      "alert": "OK",
      "vis_m": 5000,
      "fzfg": false,
      "metar_trigger": false,
      "taf_trigger": false,
      "metar": "METAR OEJN 041400Z 31015KT 5000 BLDU FEW040 SCT100 30/17 Q1009 NOSIG",
      "taf": "TAF OEJN 041100Z 0412/0518 30016KT 7000 FEW040"
    },
    {
      "icao": "OEMA",
      "alert": "OK",
      "vis_m": 7000,
      "fzfg": false,
      "metar_trigger": false,
      "taf_trigger": false,
      "metar": "METAR OEMA 041400Z 33013KT 7000 SCT040 BKN090 30/10 Q1012 NOSIG",
      "taf": "TAF OEMA 041100Z 0412/0518 30013KT 9999 SCT040"
    },
    {
      "icao": "OJAI",
      "alert": "OK",
      "vis_m": 4000,
      "fzfg": false,
      "metar_trigger": false,
      "taf_trigger": false,
      "metar": "METAR OJAI 041400Z 24012KT 4000 HZ SCT030 18/06 Q1016 NOSIG",
      "taf": "TAF OJAI 041100Z 0412/0518 25012KT 3000 DU NSC"
    },
    {
      "icao": "OMAA",
      "alert": "OK",
      "vis_m": null,
      "fzfg": false,
      "metar_trigger": false,
      "taf_trigger": false,
      "metar": "",
      "taf": ""
    },
    {
      "icao": "OMDB",
      "alert": "OK",
      "vis_m": null,
      "fzfg": false,
      "metar_trigger": false,
      "taf_trigger": false,
      "metar": "",
      "taf": ""
    },
    {
      "icao": "UAAA",
      "alert": "OK",
      "vis_m": 9999,
      "fzfg": false,
      "metar_trigger": false,
      "taf_trigger": false,
      "metar": "METAR UAAA 041400Z 26005MPS 9999 BKN050CB OVC100 20/10 Q1009 NOSIG",
      "taf": "TAF UAAA 041107Z 0412/0512 32002G07MPS 9999 BKN040CB OVC100 TX20/0509Z TN10/0501Z"
    },
    {
      "icao": "UBBB",
      "alert": "OK",
      "vis_m": 9999,
      "fzfg": false,
      "metar_trigger": false,
      "taf_trigger": false,
      "metar": "METAR UBBB 041400Z 32016KT 9999 FEW010 FEW060CB 12/10 Q1002 NOSIG",
      "taf": "TAF UBBB 041055Z 0412/0512 31014KT 9999 SCT010 FEW040CB BKN040 TX13/0412Z TN10/0501Z"
    },
    {
      "icao": "UDSG",
      "alert": "OK",
      "vis_m": 9999,
      "fzfg": false,
      "metar_trigger": false,
      "taf_trigger": false,
      "metar": "METAR UDSG 041400Z 19002KT 9999 SCT023CB OVC040 08/M00 Q1009 NOSIG",
      "taf": "TAF UDSG 041058Z 0412/0512 22006KT 9999 BKN040"
    },
    {
      "icao": "UDYZ",
      "alert": "OK",
      "vis_m": 9999,
      "fzfg": false,
      "metar_trigger": false,
      "taf_trigger": false,
      "metar": "METAR UDYZ 041400Z 30010KT 9999 SCT043CB 14/03 Q1006 NOSIG",
      "taf": "TAF UDYZ 041100Z 0412/0512 25006KT 9999 BKN040"
    },
    {
      "icao": "UGKO",
      "alert": "OK",
      "vis_m": 9999,
      "fzfg": false,
      "metar_trigger": false,
      "taf_trigger": false,
      "metar": "METAR UGKO 041400Z 27015KT 9999 SCT020 OVC047 14/07 Q1010 NOSIG",
      "taf": "TAF UGKO 041100Z 0412/0512 25007KT 9000 SCT020 OVC040 TX14/0412Z TN07/0422Z"
    }
  ]
}