{
  "ts_utc": "2026-02-03T16:29:20Z",
  "threshold_m": 150,
  "source": "stations_override.txt (ICAO list) + aviationweather.gov (METAR/TAF raw)",
  "station_count": 159,
  "stations": [
    {
      "icao": "BIKF",
      "alert": "OK",
      "vis_m": 9999,
      "fzfg": false,
      "metar_trigger": false,
      "taf_trigger": false,
      "metar": "METAR BIKF 031600Z 11021KT 9999 FEW026 SCT039 06/02 Q1007",
      "taf": "TAF BIKF 031628Z 0318/0418 11018G28KT 9999 SCT018 BKN028 TX05/0318Z TN01/0406Z"
    },
    {
      "icao": "BKPR",
      "alert": "OK",
      "vis_m": null,
      "fzfg": false,
      "metar_trigger": false,
      "taf_trigger": false,
      "metar": "",
      "taf": "TAF BKPR 031130Z 0312/0412 17012KT 9999 SCT040"
    },
    {
      "icao": "EBCI",
      "alert": "OK",
      "vis_m": 9999,
      "fzfg": false,
      "metar_trigger": false,
      "taf_trigger": false,
      "metar": "METAR EBCI 031620Z 22012KT 9999 SCT015 BKN030 08/05 Q0994 TEMPO 3500 RADZ",
      "taf": "TAF EBCI 031120Z 0312/0418 14008KT 9999 SCT020 BKN030"
    },
    {
      "icao": "EDDB",
      "alert": "OK",
      "vis_m": 9999,
      "fzfg": false,
      "metar_trigger": false,
      "taf_trigger": false,
      "metar": "METAR EDDB 031620Z AUTO 09010KT CAVOK M06/M13 Q1010 NOSIG",
      "taf": "TAF EDDB 031100Z 0312/0412 08012KT 9999 BKN035"
    },
    {
      "icao": "EDDH",
      "alert": "OK",
      "vis_m": 9999,
      "fzfg": false,
      "metar_trigger": false,
      "taf_trigger": false,
      "metar": "METAR EDDH 031620Z AUTO 09016KT 9999 OVC035 M04/M11 Q1008 TEMPO 10015G25KT",
      "taf": "TAF EDDH 031100Z 0312/0418 09013KT 9999 BKN020"
    },
    {
      "icao": "EDDK",
      "alert": "OK",
      "vis_m": 9999,
      "fzfg": false,
      "metar_trigger": false,
      "taf_trigger": false,
      "metar": "METAR EDDK 031620Z AUTO 13012KT 100V160 9999 BKN027 02/00 Q0998 NOSIG",
      "taf": "TAF EDDK 031100Z 0312/0418 12008KT 9999 SCT020 BKN030"
    },
    {
      "icao": "EDDN",
      "alert": "OK",
      "vis_m": 9999,
      "fzfg": false,
      "metar_trigger": false,
      "taf_trigger": false,
      "metar": "METAR EDDN 031620Z AUTO 10008KT 9999 BKN037 02/M02 Q1002 NOSIG",
      "taf": "TAF EDDN 031100Z 0312/0412 10010KT 9999 FEW020"
    },
    {
      "icao": "EDDS",
      "alert": "OK",
      "vis_m": 9999,
      "fzfg": false,
      "metar_trigger": false,
      "taf_trigger": false,
      "metar": "METAR EDDS 031620Z AUTO 10003KT CAVOK 05/03 Q1000 NOSIG",
      "taf": "TAF EDDS 031100Z 0312/0412 18003KT 9999 FEW040"
    },
    {
      "icao": "EDFH",
      "alert": "OK",
      "vis_m": 200,
      "fzfg": true,
      "metar_trigger": false,
      "taf_trigger": false,
      "metar": "METAR EDFH 031620Z 14017KT 0200 R21/1000D -FZRA FZFG VV/// M01/M01 Q0998",
      "taf": ""
    },
    {
      "icao": "EDJA",
      "alert": "OK",
      "vis_m": 9999,
      "fzfg": false,
      "metar_trigger": false,
      "taf_trigger": false,
      "metar": "METAR EDJA 031550Z 23012KT 9999 FEW023 06/02 Q1002",
      "taf": "TAF EDJA 031400Z 0315/0324 26008KT CAVOK"
    },
    {
      "icao": "EDLW",
      "alert": "OK",
      "vis_m": 5000,
      "fzfg": false,
      "metar_trigger": false,
      "taf_trigger": false,
      "metar": "METAR EDLW 031620Z 04009KT 5000 -DZ SCT018 OVC024 00/M00 Q0998",
      "taf": "TAF EDLW 031100Z 0312/0412 07011KT 9999 SCT020 BKN040"
    },
    {
      "icao": "EDNY",
      "alert": "OK",
      "vis_m": 9999,
      "fzfg": false,
      "metar_trigger": false,
      "taf_trigger": false,
      "metar": "METAR EDNY 031620Z 25007KT 210V310 9999 08/04 Q1002",
      "taf": "TAF EDNY 031400Z 0315/0324 27005KT 9999 SCT040"
    },
    {
      "icao": "EDSB",
      "alert": "OK",
      "vis_m": 2500,
      "fzfg": false,
      "metar_trigger": false,
      "taf_trigger": false,
      "metar": "METAR EDSB 031620Z 34002KT 2500 BR SCT003 SCT038 BKN045 02/02 Q1001",
      "taf": "TAF EDSB 031100Z 0312/0412 35003KT 6000 BKN015"
    },
    {
      "icao": "EETN",
      "alert": "OK",
      "vis_m": 9999,
      "fzfg": false,
      "metar_trigger": false,
      "taf_trigger": false,
      "metar": "METAR EETN 031620Z 01004KT 9999 FEW019 M08/M11 Q1028 NOSIG",
      "taf": "TAF EETN 031130Z 0312/0412 03010KT 9999 SCT015"
    },
    {
      "icao": "EFTU",
      "alert": "OK",
      "vis_m": 9999,
      "fzfg": false,
      "metar_trigger": false,
      "taf_trigger": false,
      "metar": "METAR EFTU 031620Z AUTO VRB01KT 9999 OVC031 M14/M15 Q1029",
      "taf": "TAF EFTU 031436Z 0315/0415 VRB02KT 9999 SCT030"
    },
    {
      "icao": "EGBB",
      "alert": "OK",
      "vis_m": 2300,
      "fzfg": false,
      "metar_trigger": false,
      "taf_trigger": false,
      "metar": "METAR EGBB 031620Z 07008KT 2300 RADZ BKN005 02/01 Q0993",
      "taf": "TAF EGBB 031057Z 0312/0412 08011KT 7000 BKN012"
    },
    {
      "icao": "EGGP",
      "alert": "OK",
      "vis_m": 8000,
      "fzfg": false,
      "metar_trigger": false,
      "taf_trigger": false,
      "metar": "METAR EGGP 031620Z 10009KT 8000 OVC013 02/M01 Q0994",
      "taf": "TAF EGGP 031058Z 0312/0412 09014KT 9999 BKN018"
    },
    {
      "icao": "EGGW",
      "alert": "OK",
      "vis_m": 2700,
      "fzfg": false,
      "metar_trigger": false,
      "taf_trigger": false,
      "metar": "METAR EGGW 031620Z AUTO 06006KT 020V080 2700 DZ BKN004/// OVC011/// //////TCU 02/02 Q0992",
      "taf": ""
    },
    {
      "icao": "EGKK",
      "alert": "OK",
      "vis_m": 8000,
      "fzfg": false,
      "metar_trigger": false,
      "taf_trigger": false,
      "metar": "METAR EGKK 031620Z 04005KT 010V070 8000 -RA SCT006 BKN009 05/05 Q0992",
      "taf": "TAF EGKK 031100Z 0312/0418 08010KT 9999 BKN010"
    },
    {
      "icao": "EGNM",
      "alert": "OK",
      "vis_m": 4000,
      "fzfg": false,
      "metar_trigger": false,
      "taf_trigger": false,
      "metar": "METAR EGNM 031620Z 07006KT 030V090 4000 BR SCT006 BKN008 00/M00 Q0995",
      "taf": "TAF EGNM 031055Z 0312/0412 08010KT 9999 SCT008 BKN010"
    },
    {
      "icao": "EGPD",
      "alert": "OK",
      "vis_m": 9999,
      "fzfg": false,
      "metar_trigger": false,
      "taf_trigger": false,
      "metar": "METAR EGPD 031620Z AUTO 11011KT 9999 SCT013 BKN019 OVC046 03/00 Q1002 RERA TEMPO BKN008",
      "taf": "TAF EGPD 031056Z 0312/0412 09012KT 9999 SCT012 BKN020"
    },
    {
      "icao": "EGPF",
      "alert": "OK",
      "vis_m": 9999,
      "fzfg": false,
      "metar_trigger": false,
      "taf_trigger": false,
      "metar": "METAR EGPF 031620Z AUTO 08014KT 9999 SCT020 OVC034 04/00 Q0998",
      "taf": "TAF EGPF 031103Z 0312/0412 08012KT 9999 SCT020"
    },
    {
      "icao": "EHBK",
      "alert": "OK",
      "vis_m": 9999,
      "fzfg": false,
      "metar_trigger": false,
      "taf_trigger": false,
      "metar": "METAR EHBK 031625Z AUTO 18010KT 9999 BKN016 OVC020 08/05 Q0995 NOSIG",
      "taf": "TAF EHBK 031122Z 0312/0418 08010KT 9999 BKN045"
    },
    {
      "icao": "EHEH",
      "alert": "OK",
      "vis_m": null,
      "fzfg": false,
      "metar_trigger": false,
      "taf_trigger": false,
      "metar": "",
      "taf": "TAF EHEH 031151Z 0312/0418 07012KT 8000 BR BKN045"
    },
    {
      "icao": "EKBI",
      "alert": "OK",
      "vis_m": 9999,
      "fzfg": false,
      "metar_trigger": false,
      "taf_trigger": false,
      "metar": "METAR EKBI 031620Z AUTO 09021KT 9999 SCT053/// M01/M09 Q1012",
      "taf": "TAF EKBI 031427Z 0315/0415 10022G38KT 9999 FEW030"
    },
    {
      "icao": "EKCH",
      "alert": "OK",
      "vis_m": 9999,
      "fzfg": false,
      "metar_trigger": false,
      "taf_trigger": false,
      "metar": "METAR EKCH 031620Z AUTO 09022KT 9999 NCD M01/M07 Q1017 TEMPO 10020G33KT",
      "taf": "TAF EKCH 031427Z 0315/0415 11023G34KT 9999 FEW030"
    },
    {
      "icao": "ENAL",
      "alert": "OK",
      "vis_m": 9999,
      "fzfg": false,
      "metar_trigger": false,
      "taf_trigger": false,
      "metar": "METAR ENAL 031620Z 13015KT 9999 BKN041 M01/M11 Q1019",
      "taf": "TAF ENAL 031400Z 0315/0324 14012KT 9999 SCT030"
    },
    {
      "icao": "ENBR",
      "alert": "OK",
      "vis_m": 9999,
      "fzfg": false,
      "metar_trigger": false,
      "taf_trigger": false,
      "metar": "METAR ENBR 031620Z 09006KT CAVOK M03/M16 Q1018 NOSIG RMK WIND 1200FT 10017KT",
      "taf": "TAF ENBR 031100Z 0312/0412 07005KT CAVOK"
    },
    {
      "icao": "ENGM",
      "alert": "OK",
      "vis_m": 9999,
      "fzfg": false,
      "metar_trigger": false,
      "taf_trigger": false,
      "metar": "METAR ENGM 031620Z 04003KT 9999 -SN BKN019 M08/M10 Q1025 NOSIG",
      "taf": "TAF ENGM 031100Z 0312/0412 02002KT 9999 -SN FEW030 BKN040"
    },
    {
      "icao": "ENHD",
      "alert": "OK",
      "vis_m": 9999,
      "fzfg": false,
      "metar_trigger": false,
      "taf_trigger": false,
      "metar": "METAR ENHD 031620Z 10022KT CAVOK M01/M11 Q1016",
      "taf": "TAF ENHD 031400Z 0315/0323 09015KT CAVOK"
    },
    {
      "icao": "ENTC",
      "alert": "OK",
      "vis_m": 9999,
      "fzfg": false,
      "metar_trigger": false,
      "taf_trigger": false,
      "metar": "METAR ENTC 031620Z 19014KT 9999 SCT026 BKN035 M00/M05 Q1022 NOSIG RMK WIND 2600FT 24009KT",
      "taf": "TAF ENTC 031100Z 0312/0412 19009KT 9999 FEW025 BKN045"
    },
    {
      "icao": "ENTO",
      "alert": "OK",
      "vis_m": 9999,
      "fzfg": false,
      "metar_trigger": false,
      "taf_trigger": false,
      "metar": "METAR ENTO 031620Z 10007KT 060V130 9999 OVC031 M03/M09 Q1024 NOSIG",
      "taf": "TAF ENTO 031100Z 0312/0412 08005KT 9999 BKN040"
    },
    {
      "icao": "ENVA",
      "alert": "OK",
      "vis_m": 9999,
      "fzfg": false,
      "metar_trigger": false,
      "taf_trigger": false,
      "metar": "METAR ENVA 031620Z 11003KT 070V140 CAVOK M07/M17 Q1022 NOSIG RMK WIND 670FT 14012KT",
      "taf": "TAF ENVA 031100Z 0312/0412 09007KT CAVOK"
    },
    {
      "icao": "ENZV",
      "alert": "OK",
      "vis_m": 9999,
      "fzfg": false,
      "metar_trigger": false,
      "taf_trigger": false,
      "metar": "METAR ENZV 031620Z 09017KT CAVOK M00/M09 Q1016 TEMPO 10018G28KT",
      "taf": "TAF ENZV 031100Z 0312/0412 09015KT CAVOK"
    },
    {
      "icao": "EPGD",
      "alert": "OK",
      "vis_m": 9999,
      "fzfg": false,
      "metar_trigger": false,
      "taf_trigger": false,
      "metar": "METAR EPGD 031600Z 10006KT CAVOK M11/M16 Q1019",
      "taf": "TAF EPGD 031130Z 0312/0412 11012KT CAVOK"
    },
    {
      "icao": "EPKK",
      "alert": "OK",
      "vis_m": 9999,
      "fzfg": false,
      "metar_trigger": false,
      "taf_trigger": false,
      "metar": "METAR EPKK 031600Z 06009KT 9999 FEW056 M06/M10 Q1012",
      "taf": "TAF EPKK 031430Z 0315/0415 06012KT CAVOK"
    },
    {
      "icao": "EPKT",
      "alert": "OK",
      "vis_m": 9999,
      "fzfg": false,
      "metar_trigger": false,
      "taf_trigger": false,
      "metar": "METAR EPKT 031600Z 07008KT 9999 BKN045 M05/M09 Q1011",
      "taf": "TAF EPKT 031130Z 0312/0412 08010KT CAVOK"
    },
    {
      "icao": "EPLB",
      "alert": "OK",
      "vis_m": 9999,
      "fzfg": false,
      "metar_trigger": false,
      "taf_trigger": false,
      "metar": "METAR EPLB 031600Z 08007KT 9999 OVC021 M09/M16 Q1018",
      "taf": "TAF EPLB 031130Z 0312/0412 09010KT CAVOK"
    },
    {
      "icao": "EPMO",
      "alert": "OK",
      "vis_m": 9999,
      "fzfg": false,
      "metar_trigger": false,
      "taf_trigger": false,
      "metar": "METAR EPMO 031600Z 07012KT CAVOK M11/M17 Q1018",
      "taf": "TAF EPMO 031130Z 0312/0412 09009KT CAVOK"
    },
    {
      "icao": "EPPO",
      "alert": "OK",
      "vis_m": 9999,
      "fzfg": false,
      "metar_trigger": false,
      "taf_trigger": false,
      "metar": "METAR EPPO 031600Z 08014KT CAVOK M07/M18 Q1013",
      "taf": "TAF EPPO 031130Z 0312/0412 09014KT CAVOK"
    },
    {
      "icao": "EPRA",
      "alert": "OK",
      "vis_m": 9999,
      "fzfg": false,
      "metar_trigger": false,
      "taf_trigger": false,
      "metar": "METAR EPRA 031600Z 08011KT 9999 BKN015 M08/M17 Q1016",
      "taf": "TAF EPRA 031430Z 0315/0324 08008KT 9999 BKN015"
    },
    {
      "icao": "EPRZ",
      "alert": "OK",
      "vis_m": 9999,
      "fzfg": false,
      "metar_trigger": false,
      "taf_trigger": false,
      "metar": "METAR EPRZ 031600Z 09015KT 9999 BKN032 BKN043 M06/M10 Q1015",
      "taf": "TAF EPRZ 031130Z 0312/0412 10010KT 9999 BKN018"
    },
    {
      "icao": "EPSC",
      "alert": "OK",
      "vis_m": 9999,
      "fzfg": false,
      "metar_trigger": false,
      "taf_trigger": false,
      "metar": "METAR EPSC 031600Z 07012KT CAVOK M06/M15 Q1014",
      "taf": "TAF EPSC 031130Z 0312/0412 09012KT CAVOK"
    },
    {
      "icao": "EPSY",
      "alert": "OK",
      "vis_m": 9999,
      "fzfg": false,
      "metar_trigger": false,
      "taf_trigger": false,
      "metar": "METAR EPSY 031600Z 07004KT 030V130 CAVOK M11/M17 Q1020",
      "taf": "TAF EPSY 031430Z 0315/0324 08005KT CAVOK"
    },
    {
      "icao": "EPWA",
      "alert": "OK",
      "vis_m": 9999,
      "fzfg": false,
      "metar_trigger": false,
      "taf_trigger": false,
      "metar": "METAR EPWA 031600Z 07010KT 050V120 CAVOK M09/M17 Q1018 NOSIG",
      "taf": "TAF EPWA 031430Z 0315/0415 09010KT CAVOK"
    },
    {
      "icao": "EPWR",
      "alert": "OK",
      "vis_m": 9999,
      "fzfg": false,
      "metar_trigger": false,
      "taf_trigger": false,
      "metar": "METAR EPWR 031600Z 09009KT 9999 SCT034 BKN044 M04/M10 Q1011",
      "taf": "TAF EPWR 031430Z 0315/0415 09010KT 9999 BKN035"
    },
    {
      "icao": "ESGG",
      "alert": "OK",
      "vis_m": 9999,
      "fzfg": false,
      "metar_trigger": false,
      "taf_trigger": false,
      "metar": "METAR ESGG 031620Z 08010KT 9999 FEW019 M03/M09 Q1020",
      "taf": "TAF ESGG 031430Z 0315/0415 10013KT 9999 SCT040"
    },
    {
      "icao": "ESKN",
      "alert": "OK",
      "vis_m": 9999,
      "fzfg": false,
      "metar_trigger": false,
      "taf_trigger": false,
      "metar": "METAR ESKN 031620Z 02005KT CAVOK M08/M11 Q1027",
      "taf": "TAF ESKN 031430Z 0315/0415 06005KT CAVOK"
    },
    {
      "icao": "ESMS",
      "alert": "OK",
      "vis_m": 9999,
      "fzfg": false,
      "metar_trigger": false,
      "taf_trigger": false,
      "metar": "METAR ESMS 031620Z 09020KT CAVOK M02/M08 Q1017",
      "taf": "TAF ESMS 031427Z 0315/0415 11018KT 9999 FEW020"
    },
    {
      "icao": "ESSA",
      "alert": "OK",
      "vis_m": 9999,
      "fzfg": false,
      "metar_trigger": false,
      "taf_trigger": false,
      "metar": "METAR ESSA 031620Z 01005KT CAVOK M11/M13 Q1028 NOSIG",
      "taf": "TAF ESSA 031430Z 0315/0415 03005KT 9999 SCT025"
    },
    {
      "icao": "EYKA",
      "alert": "OK",
      "vis_m": 9999,
      "fzfg": false,
      "metar_trigger": false,
      "taf_trigger": false,
      "metar": "METAR EYKA 031620Z 04004KT 010V070 CAVOK M13/M16 Q1024",
      "taf": "TAF EYKA 031100Z 0312/0412 VRB03KT 9000 NSC"
    },
    {
      "icao": "EYPA",
      "alert": "OK",
      "vis_m": 9999,
      "fzfg": false,
      "metar_trigger": false,
      "taf_trigger": false,
      "metar": "METAR EYPA 031620Z 08004KT CAVOK M09/M15 Q1025",
      "taf": "TAF EYPA 031100Z 0312/0412 08007KT 9000 NSC"
    },
    {
      "icao": "EYVI",
      "alert": "OK",
      "vis_m": 9000,
      "fzfg": false,
      "metar_trigger": false,
      "taf_trigger": false,
      "metar": "METAR EYVI 031620Z VRB01KT 9000 NSC M13/M15 Q1023 NOSIG",
      "taf": "TAF EYVI 031100Z 0312/0412 VRB04KT 9000 NSC"
    },
    {
      "icao": "GCFV",
      "alert": "OK",
      "vis_m": 9999,
      "fzfg": false,
      "metar_trigger": false,
      "taf_trigger": false,
      "metar": "METAR GCFV 031600Z 33011KT 290V360 9999 SCT035 21/09 Q1017",
      "taf": "TAF GCFV 031400Z 0315/0415 32010KT 9999 FEW030 TX22/0414Z TN16/0406Z"
    },
    {
      "icao": "GCLP",
      "alert": "OK",
      "vis_m": 9999,
      "fzfg": false,
      "metar_trigger": false,
      "taf_trigger": false,
      "metar": "METAR GCLP 031600Z 16007KT 100V190 9999 SCT040 20/12 Q1017 NOSIG",
      "taf": "TAF GCLP 031400Z 0315/0415 01010KT 9999 SCT030 TX22/0414Z TN14/0406Z"
    },
    {
      "icao": "GCTS",
      "alert": "OK",
      "vis_m": 9999,
      "fzfg": false,
      "metar_trigger": false,
      "taf_trigger": false,
      "metar": "METAR GCTS 031600Z 21008KT 170V240 9999 BKN030 19/12 Q1017 NOSIG",
      "taf": "TAF GCTS 031400Z 0315/0415 07006KT 9999 FEW035 TX24/0414Z TN16/0406Z"
    },
    {
      "icao": "GMAD",
      "alert": "OK",
      "vis_m": 9999,
      "fzfg": false,
      "metar_trigger": false,
      "taf_trigger": false,
      "metar": "METAR GMAD 031600Z 26016KT 9999 FEW023 BKN233 16/13 Q1014 NOSIG",
      "taf": "TAF GMAD 031100Z 0312/0418 27012KT 8000 SCT016"
    },
    {
      "icao": "GMMN",
      "alert": "OK",
      "vis_m": 6000,
      "fzfg": false,
      "metar_trigger": false,
      "taf_trigger": false,
      "metar": "METAR GMMN 031600Z 24015KT 6000 SCT016TCU BKN020 15/12 Q1012 NOSIG",
      "taf": "TAF GMMN 031100Z 0312/0418 22018KT 9999 SCT012 BKN020"
    },
    {
      "icao": "GMMX",
      "alert": "OK",
      "vis_m": 9999,
      "fzfg": false,
      "metar_trigger": false,
      "taf_trigger": false,
      "metar": "METAR GMMX 031600Z 27008KT 9999 BKN026 BKN090 14/10 Q1014 NOSIG",
      "taf": "TAF GMMX 031100Z 0312/0418 26008KT 8000 SCT023 SCT080"
    },
    {
      "icao": "HEGN",
      "alert": "OK",
      "vis_m": 9999,
      "fzfg": false,
      "metar_trigger": false,
      "taf_trigger": false,
      "metar": "METAR HEGN 031500Z 34020KT CAVOK 22/06 Q1018 NOSIG",
      "taf": "TAF HEGN 031100Z 0312/0418 34013G26KT 6000 NSC"
    },
    {
      "icao": "HEMA",
      "alert": "OK",
      "vis_m": 4000,
      "fzfg": false,
      "metar_trigger": false,
      "taf_trigger": false,
      "metar": "METAR HEMA 031500Z 35014KT 4000 SA NSC 22/10 Q1018 NOSIG",
      "taf": "TAF HEMA 031100Z 0312/0418 35010G22KT 6000 NSC"
    },
    {
      "icao": "HESH",
      "alert": "OK",
      "vis_m": 9999,
      "fzfg": false,
      "metar_trigger": false,
      "taf_trigger": false,
      "metar": "METAR HESH 031500Z 36013KT CAVOK 22/08 Q1018 NOSIG",
      "taf": "TAF HESH 031100Z 0312/0418 01006G18KT CAVOK"
    },
    {
      "icao": "HESX",
      "alert": "OK",
      "vis_m": 9999,
      "fzfg": false,
      "metar_trigger": false,
      "taf_trigger": false,
      "metar": "METAR HESX 031500Z 35010KT CAVOK 19/06 Q1021 NOSIG",
      "taf": "TAF HESX 031345Z 0314/0418 28010KT CAVOK"
    },
    {
      "icao": "LATI",
      "alert": "OK",
      "vis_m": 9999,
      "fzfg": false,
      "metar_trigger": false,
      "taf_trigger": false,
      "metar": "METAR LATI 031620Z 18003KT CAVOK 14/05 Q1014 NOSIG",
      "taf": "TAF LATI 031100Z 0312/0412 14012KT 9999 FEW030 BKN060 TX19/0412Z TN08/0405Z"
    },
    {
      "icao": "LBPD",
      "alert": "OK",
      "vis_m": 9999,
      "fzfg": false,
      "metar_trigger": false,
      "taf_trigger": false,
      "metar": "METAR LBPD 031600Z AUTO 00000KT 9999 OVC019/// 00/M00 Q1021 NOSIG",
      "taf": "TAF LBPD 031100Z 0312/0412 10010KT 9999 SCT012 BKN030"
    },
    {
      "icao": "LBSF",
      "alert": "OK",
      "vis_m": 9999,
      "fzfg": false,
      "metar_trigger": false,
      "taf_trigger": false,
      "metar": "METAR LBSF 031600Z AUTO 10011KT 9999 NSC M00/M02 Q1017 NOSIG",
      "taf": "TAF LBSF 031100Z 0312/0412 10010KT 9999 SCT010 BKN020"
    },
    {
      "icao": "LBWN",
      "alert": "OK",
      "vis_m": 9999,
      "fzfg": false,
      "metar_trigger": false,
      "taf_trigger": false,
      "metar": "METAR LBWN 031600Z 12007KT 9999 FEW024 M00/M03 Q1021 NOSIG",
      "taf": "TAF LBWN 031100Z 0312/0412 10010KT 9999 SCT020 BKN040"
    },
    {
      "icao": "LCLK",
      "alert": "OK",
      "vis_m": 9999,
      "fzfg": false,
      "metar_trigger": false,
      "taf_trigger": false,
      "metar": "METAR LCLK 031600Z 31012KT 9999 FEW020 14/08 Q1017 NOSIG",
      "taf": "TAF LCLK 031130Z 0312/0412 31020KT 9999 FEW020"
    },
    {
      "icao": "LCPH",
      "alert": "OK",
      "vis_m": 9999,
      "fzfg": false,
      "metar_trigger": false,
      "taf_trigger": false,
      "metar": "METAR LCPH 031600Z 33008KT 9999 FEW030 15/06 Q1018 NOSIG",
      "taf": "TAF LCPH 031130Z 0312/0412 29022KT 9999 FEW020"
    },
    {
      "icao": "LEAL",
      "alert": "OK",
      "vis_m": 9999,
      "fzfg": false,
      "metar_trigger": false,
      "taf_trigger": false,
      "metar": "METAR LEAL 031600Z 19007KT 140V230 9999 FEW030 16/07 Q1002 NOSIG",
      "taf": "TAF LEAL 031100Z 0312/0412 26008KT 9999 FEW030 TX17/0313Z TN07/0407Z"
    },
    {
      "icao": "LEBB",
      "alert": "OK",
      "vis_m": 9999,
      "fzfg": false,
      "metar_trigger": false,
      "taf_trigger": false,
      "metar": "METAR LEBB 031600Z 19008KT 140V250 9999 FEW045 15/02 Q0996 NOSIG",
      "taf": "TAF LEBB 031100Z 0312/0412 20009KT 9999 FEW040 TX16/0314Z TN07/0406Z"
    },
    {
      "icao": "LEBL",
      "alert": "OK",
      "vis_m": 9999,
      "fzfg": false,
      "metar_trigger": false,
      "taf_trigger": false,
      "metar": "METAR LEBL 031600Z 22012KT 9999 FEW025 14/09 Q1000 NOSIG",
      "taf": "TAF LEBL 031100Z 0312/0412 22010KT 9999 FEW020 TX15/0314Z TN05/0406Z"
    },
    {
      "icao": "LECH",
      "alert": "OK",
      "vis_m": 9999,
      "fzfg": false,
      "metar_trigger": false,
      "taf_trigger": false,
      "metar": "METAR LECH 031600Z AUTO 22011KT CAVOK 13/02 Q1000",
      "taf": ""
    },
    {
      "icao": "LEMD",
      "alert": "OK",
      "vis_m": 9999,
      "fzfg": false,
      "metar_trigger": false,
      "taf_trigger": false,
      "metar": "METAR LEMD 031600Z 22013G26KT 130V240 9999 FEW027 SCT033 08/03 Q1000 NOSIG",
      "taf": "TAF LEMD 031100Z 0312/0418 22010KT 9999 SCT020 TX08/0314Z TN04/0407Z"
    },
    {
      "icao": "LEMG",
      "alert": "OK",
      "vis_m": 9999,
      "fzfg": false,
      "metar_trigger": false,
      "taf_trigger": false,
      "metar": "METAR LEMG 031600Z 00000KT 9999 FEW025 SCT080 13/08 Q1005 NOSIG",
      "taf": "TAF LEMG 031100Z 0312/0412 29005KT 9999 FEW025 SCT040 TX17/0314Z TN10/0407Z"
    },
    {
      "icao": "LEVC",
      "alert": "OK",
      "vis_m": 9999,
      "fzfg": false,
      "metar_trigger": false,
      "taf_trigger": false,
      "metar": "METAR LEVC 031600Z 28011KT 250V310 9999 FEW020 SCT055 13/04 Q1001 NOSIG",
      "taf": "TAF LEVC 031100Z 0312/0412 25009KT 9999 FEW030 TX16/0313Z TN08/0406Z"
    },
    {
      "icao": "LEXJ",
      "alert": "OK",
      "vis_m": 9999,
      "fzfg": false,
      "metar_trigger": false,
      "taf_trigger": false,
      "metar": "METAR LEXJ 031600Z 20015G26KT 160V250 9999 FEW030 13/03 Q0994",
      "taf": "TAF LEXJ 031400Z 0315/0415 21009KT 9999 FEW060 TX16/0415Z TN08/0407Z"
    },
    {
      "icao": "LEZG",
      "alert": "OK",
      "vis_m": 9999,
      "fzfg": false,
      "metar_trigger": false,
      "taf_trigger": false,
      "metar": "METAR LEZG 031600Z 18005KT 9999 RA FEW020TCU SCT040 BKN050 10/05 Q1000 NOSIG",
      "taf": "TAF LEZG 031100Z 0312/0412 23009KT 9999 FEW020 TX12/0314Z TN05/0406Z"
    },
    {
      "icao": "LEZL",
      "alert": "OK",
      "vis_m": 9999,
      "fzfg": false,
      "metar_trigger": false,
      "taf_trigger": false,
      "metar": "METAR LEZL 031600Z 24007KT CAVOK 13/09 Q1005 NOSIG",
      "taf": "TAF LEZL 031400Z 0315/0415 26010KT 9999 SCT020 TX15/0315Z TN12/0407Z"
    },
    {
      "icao": "LFBD",
      "alert": "OK",
      "vis_m": 9999,
      "fzfg": false,
      "metar_trigger": false,
      "taf_trigger": false,
      "metar": "METAR LFBD 031600Z AUTO 23009KT CAVOK 14/04 Q0997 NOSIG",
      "taf": "TAF LFBD 031100Z 0312/0418 17010KT CAVOK TX14/0314Z TN05/0406Z"
    },
    {
      "icao": "LFLL",
      "alert": "OK",
      "vis_m": 9999,
      "fzfg": false,
      "metar_trigger": false,
      "taf_trigger": false,
      "metar": "METAR LFLL 031600Z 19007KT 9999 FEW050 SCT066 12/04 Q1000 NOSIG",
      "taf": "TAF LFLL 031100Z 0312/0418 18015G25KT CAVOK"
    },
    {
      "icao": "LFLS",
      "alert": "OK",
      "vis_m": 9999,
      "fzfg": false,
      "metar_trigger": false,
      "taf_trigger": false,
      "metar": "METAR LFLS 031600Z AUTO 23004KT 200V280 CAVOK 10/06 Q1000 TEMPO 4000 -SHRA SCT045CB",
      "taf": "TAF LFLS 031400Z 0315/0415 24008KT CAVOK"
    },
    {
      "icao": "LFMN",
      "alert": "OK",
      "vis_m": 9999,
      "fzfg": false,
      "metar_trigger": false,
      "taf_trigger": false,
      "metar": "METAR LFMN 031600Z 08016KT 9999 BKN016TCU BKN026 12/09 Q1004 NOSIG",
      "taf": "TAF LFMN 031400Z 0315/0421 10012KT 9999 BKN024"
    },
    {
      "icao": "LFOB",
      "alert": "OK",
      "vis_m": 9999,
      "fzfg": false,
      "metar_trigger": false,
      "taf_trigger": false,
      "metar": "METAR LFOB 031600Z AUTO 19009KT 140V210 9999 SCT018/// SCT037/// BKN045/// ///TCU 09/08 Q0994 TEMPO 4000 SHRA BKN009 BKN014TCU",
      "taf": "TAF LFOB 031100Z 0312/0412 23011KT 9999 OVC013"
    },
    {
      "icao": "LFPO",
      "alert": "OK",
      "vis_m": 9999,
      "fzfg": false,
      "metar_trigger": false,
      "taf_trigger": false,
      "metar": "METAR LFPO 031600Z 20006KT CAVOK 10/07 Q0996 TEMPO 4000 -SHRA BKN020TCU",
      "taf": "TAF LFPO 031100Z 0312/0418 21010G20KT 9999 SCT011 BKN018"
    },
    {
      "icao": "LFSB",
      "alert": "OK",
      "vis_m": 9999,
      "fzfg": false,
      "metar_trigger": false,
      "taf_trigger": false,
      "metar": "METAR LFSB 031600Z AUTO 27004KT 9999 BKN056 10/04 Q1001 NOSIG",
      "taf": "TAF LFSB 031100Z 0312/0412 17006KT CAVOK"
    },
    {
      "icao": "LGAV",
      "alert": "OK",
      "vis_m": 9999,
      "fzfg": false,
      "metar_trigger": false,
      "taf_trigger": false,
      "metar": "METAR LGAV 031620Z 24005KT 9999 FEW025 13/07 Q1020 NOSIG",
      "taf": "TAF LGAV 031100Z 0312/0412 VRB05KT 9999 FEW025"
    },
    {
      "icao": "LGTS",
      "alert": "OK",
      "vis_m": 9999,
      "fzfg": false,
      "metar_trigger": false,
      "taf_trigger": false,
      "metar": "METAR LGTS 031620Z VRB01KT 9999 SCT020 11/09 Q1020 NOSIG",
      "taf": "TAF LGTS 031100Z 0312/0412 VRB03KT 9999 SCT030"
    },
    {
      "icao": "LHBP",
      "alert": "OK",
      "vis_m": 6000,
      "fzfg": false,
      "metar_trigger": false,
      "taf_trigger": false,
      "metar": "METAR LHBP 031600Z 09008KT 6000 -FZRASN OVC007 M00/M01 Q1012 TEMPO 4500 -PL -FZRA BR",
      "taf": "TAF LHBP 031115Z 0312/0412 10011KT 1000 +SN DRSN VV004"
    },
    {
      "icao": "LHDC",
      "alert": "OK",
      "vis_m": 9999,
      "fzfg": false,
      "metar_trigger": false,
      "taf_trigger": false,
      "metar": "METAR LHDC 031545Z AUTO 10003KT 070V140 9999 -RA OVC029 02/00 Q1014 TEMPO 2500 SN",
      "taf": "TAF LHDC 031415Z 0315/0324 08006KT 7000 -SN OVC030"
    },
    {
      "icao": "LIBD",
      "alert": "OK",
      "vis_m": 9999,
      "fzfg": false,
      "metar_trigger": false,
      "taf_trigger": false,
      "metar": "METAR LIBD 031620Z AUTO 18009G19KT 9999 SCT120/// BKN180/// 15/11 Q1009",
      "taf": "TAF LIBD 031100Z 0312/0412 18012KT CAVOK"
    },
    {
      "icao": "LIBG",
      "alert": "OK",
      "vis_m": 8000,
      "fzfg": false,
      "metar_trigger": false,
      "taf_trigger": false,
      "metar": "METAR LIBG 031550Z 15011KT 8000 SCT010 BKN020 15/13 Q1011",
      "taf": "TAF LIBG 031400Z 0315/0324 17020G30KT 9999 FEW010 SCT020"
    },
    {
      "icao": "LIBP",
      "alert": "OK",
      "vis_m": 9999,
      "fzfg": false,
      "metar_trigger": false,
      "taf_trigger": false,
      "metar": "METAR LIBP 031620Z AUTO 16007KT 9999 SCT084/// BKN140/// 17/08 Q1005",
      "taf": "TAF LIBP 031100Z 0312/0412 VRB05KT 9999 SCT050"
    },
    {
      "icao": "LIBR",
      "alert": "OK",
      "vis_m": 9999,
      "fzfg": false,
      "metar_trigger": false,
      "taf_trigger": false,
      "metar": "METAR LIBR 031620Z 18011KT 9999 BKN025 15/11 Q1012",
      "taf": "TAF LIBR 031100Z 0312/0412 16025G35KT 9999 SCT030"
    },
    {
      "icao": "LICA",
      "alert": "OK",
      "vis_m": 9999,
      "fzfg": false,
      "metar_trigger": false,
      "taf_trigger": false,
      "metar": "METAR LICA 031620Z AUTO 07011KT 9999 NCD 16/12 Q1010",
      "taf": "TAF LICA 031100Z 0312/0412 07015KT 9999 SCT025"
    },
    {
      "icao": "LICC",
      "alert": "OK",
      "vis_m": 9999,
      "fzfg": false,
      "metar_trigger": false,
      "taf_trigger": false,
      "metar": "METAR LICC 031620Z 22004KT CAVOK 16/13 Q1012",
      "taf": "TAF LICC 031100Z 0312/0412 VRB05KT 9999 FEW030"
    },
    {
      "icao": "LICJ",
      "alert": "OK",
      "vis_m": 9999,
      "fzfg": false,
      "metar_trigger": false,
      "taf_trigger": false,
      "metar": "METAR LICJ 031620Z 20013G24KT 170V230 CAVOK 19/02 Q1008",
      "taf": "TAF LICJ 031100Z 0312/0412 18015KT 9999 SCT030"
    },
    {
      "icao": "LIMC",
      "alert": "OK",
      "vis_m": 2000,
      "fzfg": false,
      "metar_trigger": false,
      "taf_trigger": false,
      "metar": "METAR LIMC 031620Z 21004KT 2000 BR BKN002 04/04 Q1007 NOSIG",
      "taf": ""
    },
    {
      "icao": "LIME",
      "alert": "OK",
      "vis_m": 9999,
      "fzfg": false,
      "metar_trigger": false,
      "taf_trigger": false,
      "metar": "METAR LIME 031620Z 24003KT 210V270 9999 SCT007 BKN020 05/04 Q1007 NOSIG",
      "taf": "TAF LIME 031100Z 0312/0412 VRB05KT 6000 SCT008 BKN020"
    },
    {
      "icao": "LIMF",
      "alert": "OK",
      "vis_m": 9999,
      "fzfg": false,
      "metar_trigger": false,
      "taf_trigger": false,
      "metar": "METAR LIMF 031620Z 22004KT 9999 SCT012 BKN025 05/02 Q1007",
      "taf": "TAF LIMF 031100Z 0312/0412 VRB05KT 6000 SCT030"
    },
    {
      "icao": "LIMJ",
      "alert": "OK",
      "vis_m": 9999,
      "fzfg": false,
      "metar_trigger": false,
      "taf_trigger": false,
      "metar": "METAR LIMJ 031620Z 05013KT 9999 BKN030 BKN050 07/03 Q1005",
      "taf": "TAF LIMJ 031100Z 0312/0412 04013KT 9999 BKN030"
    },
    {
      "icao": "LIPE",
      "alert": "OK",
      "vis_m": 3500,
      "fzfg": false,
      "metar_trigger": false,
      "taf_trigger": false,
      "metar": "METAR LIPE 031620Z 27006KT 3500 BR SCT003 BKN006 06/06 Q1007",
      "taf": ""
    },
    {
      "icao": "LIPH",
      "alert": "OK",
      "vis_m": 9999,
      "fzfg": false,
      "metar_trigger": false,
      "taf_trigger": false,
      "metar": "METAR LIPH 031620Z VRB02KT 9999 BKN010 09/08 Q1006",
      "taf": "TAF LIPH 031100Z 0312/0412 VRB06KT 6000 SCT004 BKN014"
    },
    {
      "icao": "LIPQ",
      "alert": "OK",
      "vis_m": 9999,
      "fzfg": false,
      "metar_trigger": false,
      "taf_trigger": false,
      "metar": "METAR LIPQ 031620Z AUTO 07004KT 9999 BKN009/// OVC095/// 10/10 Q1007",
      "taf": ""
    },
    {
      "icao": "LIPR",
      "alert": "OK",
      "vis_m": 8000,
      "fzfg": false,
      "metar_trigger": false,
      "taf_trigger": false,
      "metar": "METAR LIPR 031620Z 30010KT 8000 BKN007 SCT030 08/07 Q1007",
      "taf": "TAF LIPR 031100Z 0312/0412 16012KT 9999 BKN040"
    },
    {
      "icao": "LIPX",
      "alert": "OK",
      "vis_m": 8000,
      "fzfg": false,
      "metar_trigger": false,
      "taf_trigger": false,
      "metar": "METAR LIPX 031620Z 22007KT 8000 BKN020 07/06 Q1007",
      "taf": "TAF LIPX 031100Z 0312/0412 VRB05KT 8000 BKN020"
    },
    {
      "icao": "LIPY",
      "alert": "OK",
      "vis_m": 9999,
      "fzfg": false,
      "metar_trigger": false,
      "taf_trigger": false,
      "metar": "METAR LIPY 031620Z AUTO VRB03KT 9999 -RA FEW038/// OVC055/// 11/10 Q1007",
      "taf": "TAF LIPY 031100Z 0312/0412 15010KT 9999 SCT050"
    },
    {
      "icao": "LIPZ",
      "alert": "OK",
      "vis_m": 9999,
      "fzfg": false,
      "metar_trigger": false,
      "taf_trigger": false,
      "metar": "METAR LIPZ 031620Z 33003KT 9999 FEW010 08/07 Q1006 NOSIG",
      "taf": ""
    },
    {
      "icao": "LIRF",
      "alert": "OK",
      "vis_m": 9999,
      "fzfg": false,
      "metar_trigger": false,
      "taf_trigger": false,
      "metar": "METAR LIRF 031620Z 13019KT 9999 -RA VCSH FEW020 BKN045 14/12 Q1006 TEMPO SHRA",
      "taf": "TAF LIRF 031100Z 0312/0418 15015KT 9999 SCT030"
    },
    {
      "icao": "LIRN",
      "alert": "OK",
      "vis_m": 9999,
      "fzfg": false,
      "metar_trigger": false,
      "taf_trigger": false,
      "metar": "METAR LIRN 031620Z 19010KT 140V220 CAVOK 15/10 Q1008 NOSIG",
      "taf": "TAF LIRN 031100Z 0312/0412 17015KT 9999 SCT030"
    },
    {
      "icao": "LIRP",
      "alert": "OK",
      "vis_m": 9999,
      "fzfg": false,
      "metar_trigger": false,
      "taf_trigger": false,
      "metar": "METAR LIRP 031615Z 09004KT 9999 SCT040 SCT070 13/12 Q1006 NOSIG",
      "taf": "TAF LIRP 031100Z 0312/0412 06005KT 9999 SCT020 SCT050"
    },
    {
      "icao": "LIRZ",
      "alert": "OK",
      "vis_m": 9999,
      "fzfg": false,
      "metar_trigger": false,
      "taf_trigger": false,
      "metar": "METAR LIRZ 031620Z AUTO VRB02KT 9999 -RA FEW021/// BKN040/// BKN073/// 11/10 Q1007",
      "taf": "TAF LIRZ 031100Z 0312/0412 18010KT 9999 BKN035"
    },
    {
      "icao": "LJLJ",
      "alert": "OK",
      "vis_m": 8000,
      "fzfg": false,
      "metar_trigger": false,
      "taf_trigger": false,
      "metar": "METAR LJLJ 031600Z 19004KT 8000 -RA FEW003 BKN023 OVC033 03/03 Q1007 NOSIG",
      "taf": "TAF LJLJ 031100Z 0312/0412 11002KT 5000 -RA BR BKN004 OVC020"
    },
    {
      "icao": "LKMT",
      "alert": "OK",
      "vis_m": 4500,
      "fzfg": false,
      "metar_trigger": false,
      "taf_trigger": false,
      "metar": "METAR LKMT 031600Z 04006KT 4500 -SN BR FEW018 BKN033 OVC039 M05/M08 Q1010 NOSIG",
      "taf": "TAF LKMT 031100Z 0312/0412 02006KT 9000 OVC030"
    },
    {
      "icao": "LKPR",
      "alert": "OK",
      "vis_m": 9999,
      "fzfg": false,
      "metar_trigger": false,
      "taf_trigger": false,
      "metar": "METAR LKPR 031600Z 09008KT 070V150 9999 FEW009 OVC011 M01/M02 Q1004 NOSIG",
      "taf": "TAF LKPR 031400Z 0315/0421 11010KT 9999 OVC011"
    },
    {
      "icao": "LLBG",
      "alert": "OK",
      "vis_m": 9999,
      "fzfg": false,
      "metar_trigger": false,
      "taf_trigger": false,
      "metar": "METAR LLBG 031620Z 28008KT 9999 SCT033 17/11 Q1020 NOSIG",
      "taf": "TAF LLBG 031102Z 0312/0412 29012KT 9999 SCT035"
    },
    {
      "icao": "LMML",
      "alert": "OK",
      "vis_m": 9999,
      "fzfg": false,
      "metar_trigger": false,
      "taf_trigger": false,
      "metar": "METAR LMML 031615Z 15013KT CAVOK 16/14 Q1011 NOSIG",
      "taf": ""
    },
    {
      "icao": "LOWW",
      "alert": "OK",
      "vis_m": 9999,
      "fzfg": false,
      "metar_trigger": false,
      "taf_trigger": false,
      "metar": "METAR LOWW 031620Z 12016KT 9999 FEW007 BKN008 00/M02 Q1006 NOSIG",
      "taf": "TAF LOWW 031415Z 0315/0421 12010KT 9999 OVC010 TX01/0421Z TNM00/0400Z"
    },
    {
      "icao": "LPFR",
      "alert": "OK",
      "vis_m": 9999,
      "fzfg": false,
      "metar_trigger": false,
      "taf_trigger": false,
      "metar": "METAR LPFR 031600Z 25015KT 9999 -RA FEW012 14/10 Q1005",
      "taf": "TAF LPFR 031100Z 0312/0412 26013KT 9999 FEW015 SCT030"
    },
    {
      "icao": "LPMA",
      "alert": "OK",
      "vis_m": 9999,
      "fzfg": false,
      "metar_trigger": false,
      "taf_trigger": false,
      "metar": "METAR LPMA 031600Z 06004KT 020V120 9999 FEW015 20/10 Q1013",
      "taf": "TAF LPMA 031100Z 0312/0412 VRB05KT 9999 SCT015"
    },
    {
      "icao": "LPPR",
      "alert": "OK",
      "vis_m": 9999,
      "fzfg": false,
      "metar_trigger": false,
      "taf_trigger": false,
      "metar": "METAR LPPR 031600Z VRB03KT 9999 FEW032 BKN040 12/07 Q0998",
      "taf": "TAF LPPR 031100Z 0312/0412 23010KT 9999 FEW020 SCT040"
    },
    {
      "icao": "LPPS",
      "alert": "OK",
      "vis_m": 9999,
      "fzfg": false,
      "metar_trigger": false,
      "taf_trigger": false,
      "metar": "METAR LPPS 031600Z 27020KT 9999 FEW014 18/15 Q1013",
      "taf": "TAF LPPS 031100Z 0312/0418 27017KT 9999 SCT015"
    },
    {
      "icao": "LPPT",
      "alert": "OK",
      "vis_m": 9000,
      "fzfg": false,
      "metar_trigger": false,
      "taf_trigger": false,
      "metar": "METAR LPPT 031600Z 23010KT 9000 -RA FEW020 SCT028 BKN048 12/09 Q1002",
      "taf": "TAF LPPT 031100Z 0312/0418 25010KT 9999 SCT020"
    },
    {
      "icao": "LQBK",
      "alert": "OK",
      "vis_m": 9999,
      "fzfg": false,
      "metar_trigger": false,
      "taf_trigger": false,
      "metar": "METAR LQBK 031600Z 31004KT CAVOK 06/03 Q1008 NOSIG",
      "taf": "TAF LQBK 031100Z 0312/0412 06005KT CAVOK TX08/0314Z TN04/0406Z"
    },
    {
      "icao": "LQSA",
      "alert": "OK",
      "vis_m": 9999,
      "fzfg": false,
      "metar_trigger": false,
      "taf_trigger": false,
      "metar": "METAR LQSA 031600Z 15012KT 9999 BKN050 10/05 Q1010 NOSIG",
      "taf": ""
    },
    {
      "icao": "LQTZ",
      "alert": "OK",
      "vis_m": 9999,
      "fzfg": false,
      "metar_trigger": false,
      "taf_trigger": false,
      "metar": "METAR LQTZ 031600Z VRB03KT 9999 -RA BKN055 14/05 Q1009",
      "taf": "TAF LQTZ 031100Z 0312/0412 06005KT 9999 SCT060 TX14/0314Z TN06/0406Z"
    },
    {
      "icao": "LRBC",
      "alert": "OK",
      "vis_m": 9999,
      "fzfg": false,
      "metar_trigger": false,
      "taf_trigger": false,
      "metar": "METAR LRBC 031600Z 22004KT CAVOK M05/M08 Q1020",
      "taf": "TAF LRBC 031400Z 0315/0324 16010KT CAVOK"
    },
    {
      "icao": "LRBS",
      "alert": "OK",
      "vis_m": 9999,
      "fzfg": false,
      "metar_trigger": false,
      "taf_trigger": false,
      "metar": "METAR LRBS 031600Z 10002KT CAVOK M03/M11 Q1022 NOSIG",
      "taf": "TAF LRBS 031100Z 0312/0412 29010KT CAVOK"
    },
    {
      "icao": "LRBV",
      "alert": "OK",
      "vis_m": 9999,
      "fzfg": false,
      "metar_trigger": false,
      "taf_trigger": false,
      "metar": "METAR LRBV 031600Z 12004KT CAVOK 02/M04 Q1015",
      "taf": "TAF LRBV 031400Z 0315/0324 VRB04KT CAVOK"
    },
    {
      "icao": "LRCL",
      "alert": "OK",
      "vis_m": 9999,
      "fzfg": false,
      "metar_trigger": false,
      "taf_trigger": false,
      "metar": "METAR LRCL 031600Z 10007KT 080V140 9999 BKN054 03/M02 Q1015",
      "taf": "TAF LRCL 031400Z 0315/0324 13008KT CAVOK"
    },
    {
      "icao": "LRCV",
      "alert": "OK",
      "vis_m": 9999,
      "fzfg": false,
      "metar_trigger": false,
      "taf_trigger": false,
      "metar": "METAR LRCV 031600Z 13004KT CAVOK M06/M09 Q1020",
      "taf": "TAF LRCV 031400Z 0315/0324 VRB04KT 9999 BKN025"
    },
    {
      "icao": "LRIA",
      "alert": "OK",
      "vis_m": 9999,
      "fzfg": false,
      "metar_trigger": false,
      "taf_trigger": false,
      "metar": "METAR LRIA 031600Z 12008KT CAVOK M06/M12 Q1021",
      "taf": "TAF LRIA 031400Z 0315/0324 11011KT CAVOK"
    },
    {
      "icao": "LROP",
      "alert": "OK",
      "vis_m": 9999,
      "fzfg": false,
      "metar_trigger": false,
      "taf_trigger": false,
      "metar": "METAR LROP 031600Z 00000KT CAVOK M03/M14 Q1022 NOSIG",
      "taf": "TAF LROP 031100Z 0312/0412 29010KT CAVOK"
    },
    {
      "icao": "LRSB",
      "alert": "OK",
      "vis_m": 9999,
      "fzfg": false,
      "metar_trigger": false,
      "taf_trigger": false,
      "metar": "METAR LRSB 031600Z 10007KT 9999 BKN076 02/M04 Q1014",
      "taf": "TAF LRSB 031100Z 0312/0412 VRB04KT CAVOK"
    },
    {
      "icao": "LRSM",
      "alert": "OK",
      "vis_m": 9999,
      "fzfg": false,
      "metar_trigger": false,
      "taf_trigger": false,
      "metar": "METAR LRSM 031600Z 14006KT 9999 -RA BKN040 04/M01 Q1015",
      "taf": "TAF LRSM 031400Z 0315/0324 VRB04KT 9999 BKN040"
    },
    {
      "icao": "LRSV",
      "alert": "OK",
      "vis_m": 9999,
      "fzfg": false,
      "metar_trigger": false,
      "taf_trigger": false,
      "metar": "METAR LRSV 031600Z 07004KT 040V100 CAVOK M07/M10 Q1018",
      "taf": "TAF LRSV 031400Z 0315/0324 11006KT CAVOK"
    },
    {
      "icao": "LRTM",
      "alert": "OK",
      "vis_m": 9999,
      "fzfg": false,
      "metar_trigger": false,
      "taf_trigger": false,
      "metar": "METAR LRTM 031600Z 06002KT CAVOK 03/M00 Q1015",
      "taf": "TAF LRTM 031400Z 0315/0324 VRB04KT CAVOK"
    },
    {
      "icao": "LRTR",
      "alert": "OK",
      "vis_m": 9999,
      "fzfg": false,
      "metar_trigger": false,
      "taf_trigger": false,
      "metar": "METAR LRTR 031600Z 10012KT CAVOK 03/00 Q1013 NOSIG",
      "taf": "TAF LRTR 031100Z 0312/0412 10010KT CAVOK"
    },
    {
      "icao": "LTAC",
      "alert": "OK",
      "vis_m": 9999,
      "fzfg": false,
      "metar_trigger": false,
      "taf_trigger": false,
      "metar": "METAR LTAC 031620Z 32006KT 280V040 9999 FEW020 BKN030 03/M02 Q1019 NOSIG",
      "taf": "TAF LTAC 031040Z 0312/0412 VRB02KT 9999 SCT040"
    },
    {
      "icao": "LTFM",
      "alert": "OK",
      "vis_m": 9999,
      "fzfg": false,
      "metar_trigger": false,
      "taf_trigger": false,
      "metar": "METAR LTFM 031620Z 10003KT 340V150 9999 BKN025 04/01 Q1023 NOSIG",
      "taf": "TAF LTFM 031040Z 0312/0418 05005KT 9999 BKN017 BKN027"
    },
    {
      "icao": "LUKK",
      "alert": "OK",
      "vis_m": 9999,
      "fzfg": false,
      "metar_trigger": false,
      "taf_trigger": false,
      "metar": "METAR LUKK 031600Z 12005KT CAVOK M05/M11 Q1022 NOSIG",
      "taf": "TAF LUKK 031118Z 0312/0412 VRB06KT CAVOK"
    },
    {
      "icao": "LWOH",
      "alert": "OK",
      "vis_m": 9999,
      "fzfg": false,
      "metar_trigger": false,
      "taf_trigger": false,
      "metar": "METAR LWOH 031620Z 00000KT 9999 BKN040 10/04 Q1016",
      "taf": ""
    },
    {
      "icao": "LWSK",
      "alert": "OK",
      "vis_m": 9999,
      "fzfg": false,
      "metar_trigger": false,
      "taf_trigger": false,
      "metar": "METAR LWSK 031620Z VRB02KT 9999 SCT035 05/02 Q1018 NOSIG",
      "taf": ""
    },
    {
      "icao": "LYBE",
      "alert": "OK",
      "vis_m": 9999,
      "fzfg": false,
      "metar_trigger": false,
      "taf_trigger": false,
      "metar": "METAR LYBE 031600Z 12010KT CAVOK 06/00 Q1011 NOSIG",
      "taf": "TAF LYBE 031100Z 0312/0412 12009KT CAVOK TX09/0412Z TN04/0406Z"
    },
    {
      "icao": "LYNI",
      "alert": "OK",
      "vis_m": 9999,
      "fzfg": false,
      "metar_trigger": false,
      "taf_trigger": false,
      "metar": "METAR LYNI 031600Z 14005KT 080V190 9999 BKN047 09/02 Q1015 NOSIG",
      "taf": "TAF LYNI 031100Z 0312/0412 11006KT 9999 SCT040 TX08/0313Z TN01/0406Z"
    },
    {
      "icao": "LYPG",
      "alert": "OK",
      "vis_m": 2400,
      "fzfg": false,
      "metar_trigger": false,
      "taf_trigger": false,
      "metar": "METAR LYPG 031600Z 00000KT 2400 -RA BR FEW010 SCT040 OVC090 08/07 Q1015 NOSIG",
      "taf": "TAF LYPG 031100Z 0312/0412 14008KT 9999 FEW030 BKN040 OVC080 TX12/0316Z TN08/0406Z"
    },
    {
      "icao": "LZIB",
      "alert": "OK",
      "vis_m": 9999,
      "fzfg": false,
      "metar_trigger": false,
      "taf_trigger": false,
      "metar": "METAR LZIB 031600Z 08011KT 9999 OVC007 00/M01 Q1009 NOSIG",
      "taf": "TAF LZIB 031115Z 0312/0412 11014KT 9999 SCT008 OVC016"
    },
    {
      "icao": "LZKZ",
      "alert": "OK",
      "vis_m": 7000,
      "fzfg": false,
      "metar_trigger": false,
      "taf_trigger": false,
      "metar": "METAR LZKZ 031600Z VRB01KT 7000 -SN FEW018 OVC030 M00/M03 Q1014 TEMPO 2500 SN",
      "taf": "TAF LZKZ 031115Z 0312/0412 VRB02KT 9999 BKN017 OVC025"
    },
    {
      "icao": "LZTT",
      "alert": "OK",
      "vis_m": 3500,
      "fzfg": false,
      "metar_trigger": false,
      "taf_trigger": false,
      "metar": "METAR LZTT 031600Z 15005KT 120V180 3500 -SN FEW010 BKN033 OVC060 M03/M05 Q1010 TEMPO 1500 SN BKN013 OVC026",
      "taf": "TAF LZTT 031115Z 0312/0412 17005KT 9999 SCT010 OVC020"
    },
    {
      "icao": "OEJN",
      "alert": "OK",
      "vis_m": 9999,
      "fzfg": false,
      "metar_trigger": false,
      "taf_trigger": false,
      "metar": "METAR OEJN 031600Z 34013KT CAVOK 26/18 Q1015 NOSIG",
      "taf": "TAF OEJN 031100Z 0312/0418 28010KT CAVOK"
    },
    {
      "icao": "OEMA",
      "alert": "OK",
      "vis_m": 9999,
      "fzfg": false,
      "metar_trigger": false,
      "taf_trigger": false,
      "metar": "METAR OEMA 031600Z 27005G16KT 220V300 CAVOK 27/05 Q1017 NOSIG",
      "taf": "TAF OEMA 031100Z 0312/0418 30010KT CAVOK"
    },
    {
      "icao": "OJAI",
      "alert": "OK",
      "vis_m": 6000,
      "fzfg": false,
      "metar_trigger": false,
      "taf_trigger": false,
      "metar": "METAR OJAI 031500Z 26017KT 6000 SCT025 SCT030 11/08 Q1019 NOSIG",
      "taf": "TAF OJAI 031100Z 0312/0418 24014KT 4000 -RA BR SCT015 SCT035"
    },
    {
      "icao": "OMAA",
      "alert": "OK",
      "vis_m": 9999,
      "fzfg": false,
      "metar_trigger": false,
      "taf_trigger": false,
      "metar": "METAR OMAA 031600Z 01007KT CAVOK 23/10 Q1016 NOSIG",
      "taf": "TAF OMAA 031100Z 0312/0418 35010KT 8000 NSC"
    },
    {
      "icao": "OMDB",
      "alert": "OK",
      "vis_m": 9000,
      "fzfg": false,
      "metar_trigger": false,
      "taf_trigger": false,
      "metar": "METAR OMDB 031600Z 03007KT 350V080 9000 NSC 23/16 Q1016 NOSIG",
      "taf": "TAF OMDB 031100Z 0312/0418 31010KT 8000 NSC"
    },
    {
      "icao": "UAAA",
      "alert": "OK",
      "vis_m": 2700,
      "fzfg": false,
      "metar_trigger": false,
      "taf_trigger": false,
      "metar": "METAR UAAA 031600Z 08002MPS 020V160 2700 BR FU SCT050CB OVC100 03/01 Q1021 NOSIG",
      "taf": "TAF UAAA 031105Z 0312/0412 26003MPS 3100 BR FU BKN011CB OVC050 TX05/0409Z TNM01/0402Z"
    },
    {
      "icao": "UBBB",
      "alert": "OK",
      "vis_m": 9999,
      "fzfg": false,
      "metar_trigger": false,
      "taf_trigger": false,
      "metar": "METAR UBBB 031600Z 34022KT CAVOK 07/05 Q1010 NOSIG",
      "taf": "TAF UBBB 031054Z 0312/0412 32020G30KT 9999 BKN010 BKN030 TX07/0312Z TN03/0403Z"
    },
    {
      "icao": "UDSG",
      "alert": "OK",
      "vis_m": 2200,
      "fzfg": false,
      "metar_trigger": false,
      "taf_trigger": false,
      "metar": "METAR UDSG 031600Z 14001KT 2200 BR BKN033 01/01 Q1011 NOSIG",
      "taf": "TAF UDSG 031058Z 0312/0412 VRB06KT 5000 BR OVC030"
    },
    {
      "icao": "UDYZ",
      "alert": "OK",
      "vis_m": 1500,
      "fzfg": false,
      "metar_trigger": false,
      "taf_trigger": false,
      "metar": "METAR UDYZ 031600Z 01006KT 330V050 1500 1300W R08/P2000D -SHRA BR BKN043CB 05/04 Q1010 NOSIG",
      "taf": "TAF UDYZ 031100Z 0312/0412 06006KT 2000 BR BKN030"
    },
    {
      "icao": "UGKO",
      "alert": "OK",
      "vis_m": 9999,
      "fzfg": false,
      "metar_trigger": false,
      "taf_trigger": false,
      "metar": "METAR UGKO 031600Z 27010KT 9999 -SHRA SCT013 BKN022CB 06/05 Q1020 NOSIG",
      "taf": "TAF UGKO 031100Z 0312/0412 25010KT 9000 SCT030 OVC050 TX08/0312Z TN04/0403Z"
    }
  ]
}