{
  "ts_utc": "2026-01-26T17:19:05Z",
  "threshold_m": 150,
  "source": "stations_override.txt (ICAO list) + aviationweather.gov (METAR/TAF raw)",
  "station_count": 159,
  "stations": [
    {
      "icao": "BIKF",
      "alert": "OK",
      "vis_m": 9999,
      "fzfg": false,
      "metar_trigger": false,
      "taf_trigger": false,
      "metar": "METAR BIKF 261700Z 06022KT CAVOK 05/M02 Q0999",
      "taf": "TAF BIKF 261645Z 2618/2718 08022G32KT 9999 SCT045 TX06/2715Z TN02/2709Z"
    },
    {
      "icao": "BKPR",
      "alert": "OK",
      "vis_m": 9999,
      "fzfg": false,
      "metar_trigger": false,
      "taf_trigger": false,
      "metar": "METAR BKPR 261700Z 31006KT 9999 -RA SCT020 BKN035 07/06 Q0998 TEMPO 5000",
      "taf": "TAF BKPR 261130Z 2612/2712 15008KT 9999 SCT020 BKN060"
    },
    {
      "icao": "EBCI",
      "alert": "OK",
      "vis_m": 2800,
      "fzfg": false,
      "metar_trigger": false,
      "taf_trigger": false,
      "metar": "METAR EBCI 261650Z 04003KT 010V080 2800 BR SCT004 OVC005 01/M00 Q1003 NOSIG",
      "taf": "TAF EBCI 261110Z 2612/2718 VRB03KT 2000 BR BKN003"
    },
    {
      "icao": "EDDB",
      "alert": "OK",
      "vis_m": 9000,
      "fzfg": false,
      "metar_trigger": false,
      "taf_trigger": false,
      "metar": "METAR EDDB 261650Z AUTO 19006KT 9000 -SN BKN020 M01/M02 Q0999 TEMPO 4000 -SN BKN009",
      "taf": ""
    },
    {
      "icao": "EDDH",
      "alert": "OK",
      "vis_m": 9999,
      "fzfg": false,
      "metar_trigger": false,
      "taf_trigger": false,
      "metar": "METAR EDDH 261650Z AUTO 36004KT 320V030 9999 -SN BKN007 01/00 Q1000 TEMPO 2500 SN BKN004",
      "taf": "TAF EDDH 261100Z 2612/2718 06007KT 8000 OVC007"
    },
    {
      "icao": "EDDK",
      "alert": "OK",
      "vis_m": 4500,
      "fzfg": false,
      "metar_trigger": false,
      "taf_trigger": false,
      "metar": "METAR EDDK 261650Z AUTO 27007KT 4500 BR BKN006 M01/M01 Q1003 BECMG 5000",
      "taf": ""
    },
    {
      "icao": "EDDN",
      "alert": "OK",
      "vis_m": 2500,
      "fzfg": false,
      "metar_trigger": false,
      "taf_trigger": false,
      "metar": "METAR EDDN 261650Z AUTO 31003KT 2500 SN BR SCT005 BKN017 M00/M01 Q1001 TEMPO 1200 SN OVC001",
      "taf": "TAF EDDN 261100Z 2612/2712 25005KT 2000 -SN BR OVC003"
    },
    {
      "icao": "EDDS",
      "alert": "OK",
      "vis_m": 9999,
      "fzfg": false,
      "metar_trigger": false,
      "taf_trigger": false,
      "metar": "METAR EDDS 261650Z AUTO 25005KT 210V280 9999 BKN022 04/01 Q1002 NOSIG",
      "taf": ""
    },
    {
      "icao": "EDFH",
      "alert": "OK",
      "vis_m": 9999,
      "fzfg": false,
      "metar_trigger": false,
      "taf_trigger": false,
      "metar": "METAR EDFH 261650Z COR 28013G24KT 9999 BKN015 02/M01 Q1001",
      "taf": "TAF EDFH 261100Z 2612/2712 27010KT 8000 BKN006"
    },
    {
      "icao": "EDJA",
      "alert": "OK",
      "vis_m": 9999,
      "fzfg": false,
      "metar_trigger": false,
      "taf_trigger": false,
      "metar": "METAR EDJA 261650Z COR 23012KT 9999 FEW028 02/M00 Q1002",
      "taf": "TAF EDJA 261400Z 2615/2624 23012KT 9999 OVC010"
    },
    {
      "icao": "EDLW",
      "alert": "OK",
      "vis_m": 3700,
      "fzfg": false,
      "metar_trigger": false,
      "taf_trigger": false,
      "metar": "METAR EDLW 261650Z 27006KT 230V300 3700 -SNRA BKN004 OVC007 00/M00 Q1001",
      "taf": "TAF EDLW 261100Z 2612/2712 27006KT 6000 OVC006"
    },
    {
      "icao": "EDNY",
      "alert": "OK",
      "vis_m": 9999,
      "fzfg": false,
      "metar_trigger": false,
      "taf_trigger": false,
      "metar": "METAR EDNY 261650Z 21006KT 9999 BKN039 05/02 Q1004",
      "taf": "TAF EDNY 261400Z 2615/2624 25012KT 9999 SCT025"
    },
    {
      "icao": "EDSB",
      "alert": "OK",
      "vis_m": 9999,
      "fzfg": false,
      "metar_trigger": false,
      "taf_trigger": false,
      "metar": "METAR EDSB 261650Z 22008KT 9999 -RA OVC034 06/03 Q1004",
      "taf": "TAF EDSB 261100Z 2612/2712 21007KT 6000 BKN020"
    },
    {
      "icao": "EETN",
      "alert": "OK",
      "vis_m": 9999,
      "fzfg": false,
      "metar_trigger": false,
      "taf_trigger": false,
      "metar": "METAR EETN 261650Z 01004KT CAVOK M06/M09 Q1011 NOSIG",
      "taf": "TAF EETN 261130Z 2612/2712 VRB02KT 9999 OVC012"
    },
    {
      "icao": "EFTU",
      "alert": "OK",
      "vis_m": 9999,
      "fzfg": false,
      "metar_trigger": false,
      "taf_trigger": false,
      "metar": "METAR EFTU 261650Z AUTO 01006KT 330V050 9999 BKN006 M06/M08 Q1012",
      "taf": "TAF EFTU 261425Z 2615/2715 36004KT 9999 BKN030"
    },
    {
      "icao": "EGBB",
      "alert": "OK",
      "vis_m": 6000,
      "fzfg": false,
      "metar_trigger": false,
      "taf_trigger": false,
      "metar": "METAR EGBB 261650Z 12011KT 6000 BKN010 04/02 Q0999",
      "taf": "TAF EGBB 261703Z 2618/2718 12009KT 6000 BKN010"
    },
    {
      "icao": "EGGP",
      "alert": "OK",
      "vis_m": 9000,
      "fzfg": false,
      "metar_trigger": false,
      "taf_trigger": false,
      "metar": "METAR EGGP 261650Z 13010KT 9000 BKN017 OVC035 04/01 Q0998",
      "taf": "TAF EGGP 261656Z 2618/2718 12010KT 9999 SCT015 BKN020"
    },
    {
      "icao": "EGGW",
      "alert": "OK",
      "vis_m": 5000,
      "fzfg": false,
      "metar_trigger": false,
      "taf_trigger": false,
      "metar": "METAR EGGW 261650Z AUTO 11009KT 5000 HZ OVC008 03/02 Q1000",
      "taf": "TAF EGGW 261705Z 2618/2718 12009KT 6000 BKN010"
    },
    {
      "icao": "EGKK",
      "alert": "OK",
      "vis_m": 6000,
      "fzfg": false,
      "metar_trigger": false,
      "taf_trigger": false,
      "metar": "METAR EGKK 261650Z 11008KT 6000 BKN010 06/04 Q1000",
      "taf": "TAF EGKK 261653Z 2618/2724 11009KT 9999 SCT020"
    },
    {
      "icao": "EGNM",
      "alert": "OK",
      "vis_m": 6000,
      "fzfg": false,
      "metar_trigger": false,
      "taf_trigger": false,
      "metar": "METAR EGNM 261650Z 10010KT 6000 FEW007 BKN009 01/00 Q1000",
      "taf": "TAF EGNM 261657Z 2618/2718 11008KT 6000 SCT007 BKN010"
    },
    {
      "icao": "EGPD",
      "alert": "OK",
      "vis_m": 9999,
      "fzfg": false,
      "metar_trigger": false,
      "taf_trigger": false,
      "metar": "METAR EGPD 261650Z 13016KT 9999 -RA BKN016 OVC026 05/02 Q1002 TEMPO BKN012",
      "taf": "TAF EGPD 261659Z 2618/2718 13016G28KT 9999 SCT016 BKN030"
    },
    {
      "icao": "EGPF",
      "alert": "OK",
      "vis_m": 9999,
      "fzfg": false,
      "metar_trigger": false,
      "taf_trigger": false,
      "metar": "METAR EGPF 261650Z AUTO 11013KT 9999 OVC025 05/01 Q0997",
      "taf": "TAF EGPF 261702Z 2618/2718 08011KT 9999 FEW018 SCT030"
    },
    {
      "icao": "EHBK",
      "alert": "OK",
      "vis_m": 3100,
      "fzfg": false,
      "metar_trigger": false,
      "taf_trigger": false,
      "metar": "METAR EHBK 261655Z AUTO 22006KT 3100 BR SCT005/// BKN006/// OVC009/// M01/M01 Q1003 NOSIG",
      "taf": ""
    },
    {
      "icao": "EHEH",
      "alert": "OK",
      "vis_m": null,
      "fzfg": false,
      "metar_trigger": false,
      "taf_trigger": false,
      "metar": "",
      "taf": "TAF EHEH 261150Z 2612/2718 29006KT 2500 BR BKN007"
    },
    {
      "icao": "EKBI",
      "alert": "OK",
      "vis_m": 9999,
      "fzfg": false,
      "metar_trigger": false,
      "taf_trigger": false,
      "metar": "METAR EKBI 261650Z AUTO 05011KT 9999 OVC010/// M02/M03 Q1005",
      "taf": "TAF EKBI 261427Z 2615/2715 05015KT 9999 BKN018"
    },
    {
      "icao": "EKCH",
      "alert": "OK",
      "vis_m": 2500,
      "fzfg": false,
      "metar_trigger": false,
      "taf_trigger": false,
      "metar": "METAR EKCH 261650Z 04014KT 2500 -SN OVC014 M00/M02 Q1004 TEMPO 1200 SN BKN008",
      "taf": ""
    },
    {
      "icao": "ENAL",
      "alert": "OK",
      "vis_m": 9999,
      "fzfg": false,
      "metar_trigger": false,
      "taf_trigger": false,
      "metar": "METAR ENAL 261650Z 18003KT CAVOK M06/M09 Q1011",
      "taf": "TAF ENAL 261400Z 2615/2624 17005KT CAVOK"
    },
    {
      "icao": "ENBR",
      "alert": "OK",
      "vis_m": 9999,
      "fzfg": false,
      "metar_trigger": false,
      "taf_trigger": false,
      "metar": "METAR ENBR 261650Z 05004KT CAVOK M04/M10 Q1010 NOSIG RMK WIND 1200FT VRB01KT",
      "taf": "TAF ENBR 261100Z 2612/2712 VRB03KT CAVOK"
    },
    {
      "icao": "ENGM",
      "alert": "OK",
      "vis_m": 9999,
      "fzfg": false,
      "metar_trigger": false,
      "taf_trigger": false,
      "metar": "METAR ENGM 261650Z 35003KT 330V030 CAVOK M13/M14 Q1013 NOSIG",
      "taf": "TAF ENGM 261100Z 2612/2712 36008KT CAVOK"
    },
    {
      "icao": "ENHD",
      "alert": "OK",
      "vis_m": 9999,
      "fzfg": false,
      "metar_trigger": false,
      "taf_trigger": false,
      "metar": "METAR ENHD 261650Z /////KT CAVOK M06/M11 Q1010 RMK WIND RWY 31 00000KT",
      "taf": "TAF ENHD 261400Z 2615/2623 12005KT CAVOK"
    },
    {
      "icao": "ENTC",
      "alert": "OK",
      "vis_m": 9999,
      "fzfg": false,
      "metar_trigger": false,
      "taf_trigger": false,
      "metar": "METAR ENTC 261650Z 10003KT 040V160 9999 BKN051 M04/M06 Q1012 NOSIG RMK WIND 2600FT 36018KT",
      "taf": "TAF ENTC 261100Z 2612/2712 04006KT 9999 FEW012 BKN030"
    },
    {
      "icao": "ENTO",
      "alert": "OK",
      "vis_m": 9999,
      "fzfg": false,
      "metar_trigger": false,
      "taf_trigger": false,
      "metar": "METAR ENTO 261650Z 01006KT CAVOK M10/M12 Q1013 NOSIG",
      "taf": "TAF ENTO 261100Z 2612/2712 01010KT CAVOK"
    },
    {
      "icao": "ENVA",
      "alert": "OK",
      "vis_m": 9999,
      "fzfg": false,
      "metar_trigger": false,
      "taf_trigger": false,
      "metar": "METAR ENVA 261650Z 11007KT CAVOK M09/M11 Q1014 NOSIG RMK WIND 670FT 10009KT",
      "taf": "TAF ENVA 261100Z 2612/2712 11008KT CAVOK"
    },
    {
      "icao": "ENZV",
      "alert": "OK",
      "vis_m": 9999,
      "fzfg": false,
      "metar_trigger": false,
      "taf_trigger": false,
      "metar": "METAR ENZV 261650Z 18003KT CAVOK M05/M13 Q1010 NOSIG",
      "taf": "TAF ENZV 261100Z 2612/2712 12006KT CAVOK"
    },
    {
      "icao": "EPGD",
      "alert": "OK",
      "vis_m": 2900,
      "fzfg": false,
      "metar_trigger": false,
      "taf_trigger": false,
      "metar": "METAR EPGD 261700Z 10006KT 2900 BR OVC003 M03/M04 Q1001",
      "taf": "TAF EPGD 261130Z 2612/2712 09010KT 6000 -FZRA OVC005"
    },
    {
      "icao": "EPKK",
      "alert": "OK",
      "vis_m": 5000,
      "fzfg": false,
      "metar_trigger": false,
      "taf_trigger": false,
      "metar": "METAR EPKK 261700Z 36002KT 5000 BR NSC 02/00 Q1001",
      "taf": "TAF EPKK 261430Z 2615/2715 22004KT 9999 SCT040"
    },
    {
      "icao": "EPKT",
      "alert": "OK",
      "vis_m": 2400,
      "fzfg": false,
      "metar_trigger": false,
      "taf_trigger": false,
      "metar": "METAR EPKT 261700Z VRB02KT 2400 BR NSC 01/01 Q1001",
      "taf": "TAF EPKT 261130Z 2612/2712 22007KT 9999 BKN030"
    },
    {
      "icao": "EPLB",
      "alert": "OK",
      "vis_m": 9999,
      "fzfg": false,
      "metar_trigger": false,
      "taf_trigger": false,
      "metar": "METAR EPLB 261700Z 10005KT CAVOK 01/01 Q1002",
      "taf": "TAF EPLB 261130Z 2612/2712 11012KT 9999 BKN035"
    },
    {
      "icao": "EPMO",
      "alert": "OK",
      "vis_m": 5000,
      "fzfg": false,
      "metar_trigger": false,
      "taf_trigger": false,
      "metar": "METAR EPMO 261700Z 09003KT 5000 BR SCT012 BKN018 00/M00 Q1001",
      "taf": "TAF EPMO 261130Z 2612/2712 10012KT 4000 -RA BR BKN008"
    },
    {
      "icao": "EPPO",
      "alert": "OK",
      "vis_m": 550,
      "fzfg": false,
      "metar_trigger": false,
      "taf_trigger": false,
      "metar": "METAR EPPO 261700Z 10004KT 0550 R28/P2000U FG OVC001 01/00 Q1000",
      "taf": ""
    },
    {
      "icao": "EPRA",
      "alert": "OK",
      "vis_m": 9999,
      "fzfg": false,
      "metar_trigger": false,
      "taf_trigger": false,
      "metar": "METAR EPRA 261700Z 13004KT CAVOK 02/00 Q1001",
      "taf": "TAF EPRA 261430Z 2615/2624 16006KT 8000 BKN040"
    },
    {
      "icao": "EPRZ",
      "alert": "OK",
      "vis_m": 6000,
      "fzfg": false,
      "metar_trigger": false,
      "taf_trigger": false,
      "metar": "METAR EPRZ 261700Z 06003KT 6000 FEW040 02/00 Q1001",
      "taf": "TAF EPRZ 261130Z 2612/2712 10012KT 9999 BKN040"
    },
    {
      "icao": "EPSC",
      "alert": "OK",
      "vis_m": 3100,
      "fzfg": false,
      "metar_trigger": false,
      "taf_trigger": false,
      "metar": "METAR EPSC 261700Z 11007KT 3100 BR SCT003 OVC004 M01/M01 Q1000",
      "taf": ""
    },
    {
      "icao": "EPSY",
      "alert": "OK",
      "vis_m": 3500,
      "fzfg": false,
      "metar_trigger": false,
      "taf_trigger": false,
      "metar": "METAR EPSY 261700Z VRB02KT 3500 BR OVC002 M02/M03 Q1001",
      "taf": ""
    },
    {
      "icao": "EPWA",
      "alert": "OK",
      "vis_m": 9999,
      "fzfg": false,
      "metar_trigger": false,
      "taf_trigger": false,
      "metar": "METAR EPWA 261700Z 12004KT 9999 FEW020 01/M00 Q1001 NOSIG",
      "taf": "TAF EPWA 261430Z 2615/2715 13005KT 8000 SCT012 BKN025"
    },
    {
      "icao": "EPWR",
      "alert": "OK",
      "vis_m": 9999,
      "fzfg": false,
      "metar_trigger": false,
      "taf_trigger": false,
      "metar": "METAR EPWR 261700Z 32003KT 290V350 CAVOK 04/M01 Q0999",
      "taf": "TAF EPWR 261430Z 2615/2715 21010KT 9999 SCT030"
    },
    {
      "icao": "ESGG",
      "alert": "OK",
      "vis_m": 9999,
      "fzfg": false,
      "metar_trigger": false,
      "taf_trigger": false,
      "metar": "METAR ESGG 261650Z 04010KT 010V070 9999 OVC019 M05/M08 Q1008",
      "taf": "TAF ESGG 261430Z 2615/2715 04013KT 9999 BKN020"
    },
    {
      "icao": "ESKN",
      "alert": "OK",
      "vis_m": 9999,
      "fzfg": false,
      "metar_trigger": false,
      "taf_trigger": false,
      "metar": "METAR ESKN 261650Z 01007KT 340V050 CAVOK M06/M09 Q1012",
      "taf": "TAF ESKN 261430Z 2615/2715 02009KT 9999 BKN025"
    },
    {
      "icao": "ESMS",
      "alert": "OK",
      "vis_m": 1900,
      "fzfg": false,
      "metar_trigger": false,
      "taf_trigger": false,
      "metar": "METAR ESMS 261650Z 06015KT 1900 -SN VV010 M00/M01 Q1003",
      "taf": "TAF ESMS 261427Z 2615/2715 06012KT 9999 BKN012"
    },
    {
      "icao": "ESSA",
      "alert": "OK",
      "vis_m": 9999,
      "fzfg": false,
      "metar_trigger": false,
      "taf_trigger": false,
      "metar": "METAR ESSA 261650Z 31004KT 9999 BKN013 M07/M10 Q1013 TEMPO BKN016",
      "taf": "TAF ESSA 261430Z 2615/2715 01008KT CAVOK"
    },
    {
      "icao": "EYKA",
      "alert": "OK",
      "vis_m": 4300,
      "fzfg": false,
      "metar_trigger": false,
      "taf_trigger": false,
      "metar": "METAR EYKA 261650Z 09006KT 4300 -FZRA BR OVC007 M05/M06 Q1006",
      "taf": "TAF EYKA 261709Z 2618/2718 VRB04KT 3000 -FZRA -SN OVC005"
    },
    {
      "icao": "EYPA",
      "alert": "OK",
      "vis_m": 9000,
      "fzfg": false,
      "metar_trigger": false,
      "taf_trigger": false,
      "metar": "METAR EYPA 261650Z 07009KT 040V110 9000 -FZDZ OVC021 M06/M09 Q1006",
      "taf": "TAF EYPA 261708Z 2618/2718 07012KT 3000 SN BKN005 OVC010"
    },
    {
      "icao": "EYVI",
      "alert": "OK",
      "vis_m": 6000,
      "fzfg": false,
      "metar_trigger": false,
      "taf_trigger": false,
      "metar": "METAR EYVI 261650Z 14008KT 6000 -FZRA OVC005 M05/M06 Q1005 NOSIG",
      "taf": "TAF EYVI 261710Z 2618/2718 VRB04KT 3000 -FZRA SN OVC005"
    },
    {
      "icao": "GCFV",
      "alert": "OK",
      "vis_m": 9999,
      "fzfg": false,
      "metar_trigger": false,
      "taf_trigger": false,
      "metar": "METAR GCFV 261700Z 11005KT 080V140 9999 FEW035 18/10 Q1023",
      "taf": "TAF GCFV 261400Z 2615/2715 27005KT CAVOK TX22/2714Z TN12/2706Z"
    },
    {
      "icao": "GCLP",
      "alert": "OK",
      "vis_m": 9999,
      "fzfg": false,
      "metar_trigger": false,
      "taf_trigger": false,
      "metar": "METAR GCLP 261700Z 14004KT 080V180 9999 BKN035 19/11 Q1023 NOSIG",
      "taf": "TAF GCLP 261400Z 2615/2715 13005KT 9999 SCT035 TX22/2714Z TN12/2706Z"
    },
    {
      "icao": "GCTS",
      "alert": "OK",
      "vis_m": 9999,
      "fzfg": false,
      "metar_trigger": false,
      "taf_trigger": false,
      "metar": "METAR GCTS 261700Z 25010KT 210V290 9999 FEW035 19/10 Q1023 NOSIG",
      "taf": "TAF GCTS 261400Z 2615/2715 22010KT 9999 SCT035 TX22/2714Z TN14/2706Z"
    },
    {
      "icao": "GMAD",
      "alert": "OK",
      "vis_m": 9999,
      "fzfg": false,
      "metar_trigger": false,
      "taf_trigger": false,
      "metar": "METAR GMAD 261700Z 00000KT 9999 FEW020 20/13 Q1020 NOSIG",
      "taf": "TAF GMAD 261100Z 2612/2718 06005KT 8000 NSC"
    },
    {
      "icao": "GMMN",
      "alert": "OK",
      "vis_m": 9999,
      "fzfg": false,
      "metar_trigger": false,
      "taf_trigger": false,
      "metar": "METAR GMMN 261700Z 22008KT 9999 BKN026 16/13 Q1020 NOSIG",
      "taf": "TAF GMMN 261700Z 2618/2724 22008KT 9999 BKN026"
    },
    {
      "icao": "GMMX",
      "alert": "OK",
      "vis_m": 9999,
      "fzfg": false,
      "metar_trigger": false,
      "taf_trigger": false,
      "metar": "METAR GMMX 261700Z 30004KT 260V330 CAVOK 17/08 Q1021 NOSIG",
      "taf": "TAF GMMX 261100Z 2612/2718 24006KT 8000 NSC"
    },
    {
      "icao": "HEGN",
      "alert": "OK",
      "vis_m": 9999,
      "fzfg": false,
      "metar_trigger": false,
      "taf_trigger": false,
      "metar": "METAR HEGN 261600Z 13003KT CAVOK 22/12 Q1015 NOSIG",
      "taf": "TAF HEGN 261700Z 2618/2724 11010KT CAVOK"
    },
    {
      "icao": "HEMA",
      "alert": "OK",
      "vis_m": 6000,
      "fzfg": false,
      "metar_trigger": false,
      "taf_trigger": false,
      "metar": "METAR HEMA 261600Z 07004KT 6000 NSC 21/13 Q1014 NOSIG",
      "taf": "TAF HEMA 261700Z 2618/2724 10010KT 6000 NSC"
    },
    {
      "icao": "HESH",
      "alert": "OK",
      "vis_m": 9999,
      "fzfg": false,
      "metar_trigger": false,
      "taf_trigger": false,
      "metar": "METAR HESH 261600Z 18008KT CAVOK 22/11 Q1015 NOSIG",
      "taf": "TAF HESH 261700Z 2618/2724 16010KT CAVOK"
    },
    {
      "icao": "HESX",
      "alert": "OK",
      "vis_m": 9999,
      "fzfg": false,
      "metar_trigger": false,
      "taf_trigger": false,
      "metar": "METAR HESX 261600Z 24010KT CAVOK 19/03 Q1013 NOSIG",
      "taf": "TAF HESX 261700Z 2618/2724 22009KT CAVOK"
    },
    {
      "icao": "LATI",
      "alert": "OK",
      "vis_m": null,
      "fzfg": false,
      "metar_trigger": false,
      "taf_trigger": false,
      "metar": "",
      "taf": "TAF LATI 261700Z 2618/2718 VRB05KT 9999 SCT040 BKN080 TX14/2712Z TN06/2705Z"
    },
    {
      "icao": "LBPD",
      "alert": "OK",
      "vis_m": 9000,
      "fzfg": false,
      "metar_trigger": false,
      "taf_trigger": false,
      "metar": "METAR LBPD 261700Z AUTO 28004KT 9000 SCT014/// BKN050/// OVC058/// 07/07 Q0998 NOSIG",
      "taf": "TAF LBPD 261700Z 2618/2718 11008KT 7000 SCT015 BKN040"
    },
    {
      "icao": "LBSF",
      "alert": "OK",
      "vis_m": 3300,
      "fzfg": false,
      "metar_trigger": false,
      "taf_trigger": false,
      "metar": "METAR LBSF 261700Z AUTO 11003KT 3300 -RA BR OVC021/// 06/06 Q0998 TEMPO 2000 RA",
      "taf": "TAF LBSF 261700Z 2618/2718 VRB04KT 6000 RA SCT012 OVC025"
    },
    {
      "icao": "LBWN",
      "alert": "OK",
      "vis_m": 9999,
      "fzfg": false,
      "metar_trigger": false,
      "taf_trigger": false,
      "metar": "METAR LBWN 261700Z AUTO 08009KT 9999 BKN011/// 10/09 Q1003 NOSIG",
      "taf": "TAF LBWN 261700Z 2618/2718 10010KT 9999 SCT015 BKN040"
    },
    {
      "icao": "LCLK",
      "alert": "OK",
      "vis_m": 9999,
      "fzfg": false,
      "metar_trigger": false,
      "taf_trigger": false,
      "metar": "METAR LCLK 261700Z 10010KT 9999 FEW020 SCT032 BKN038 18/14 Q1013 NOSIG",
      "taf": "TAF LCLK 261130Z 2612/2712 10013KT 9999 FEW020"
    },
    {
      "icao": "LCPH",
      "alert": "OK",
      "vis_m": 9999,
      "fzfg": false,
      "metar_trigger": false,
      "taf_trigger": false,
      "metar": "METAR LCPH 261700Z 10014KT 090V150 CAVOK 16/11 Q1011 NOSIG",
      "taf": "TAF LCPH 261130Z 2612/2712 11020KT 9999 FEW030"
    },
    {
      "icao": "LEAL",
      "alert": "OK",
      "vis_m": 9999,
      "fzfg": false,
      "metar_trigger": false,
      "taf_trigger": false,
      "metar": "METAR LEAL 261700Z 00000KT 9999 SCT060 17/14 Q1010 NOSIG",
      "taf": ""
    },
    {
      "icao": "LEBB",
      "alert": "OK",
      "vis_m": 9999,
      "fzfg": false,
      "metar_trigger": false,
      "taf_trigger": false,
      "metar": "METAR LEBB 261700Z 16007KT 120V220 9999 FEW025 BKN063 12/08 Q1001 NOSIG",
      "taf": "TAF LEBB 261100Z 2612/2712 20009KT 9999 FEW020 BKN035 TX18/2623Z TN05/2710Z"
    },
    {
      "icao": "LEBL",
      "alert": "OK",
      "vis_m": 9999,
      "fzfg": false,
      "metar_trigger": false,
      "taf_trigger": false,
      "metar": "METAR LEBL 261700Z 27004KT 9999 FEW030 13/05 Q1007 NOSIG",
      "taf": "TAF LEBL 261100Z 2612/2712 28010KT 9999 FEW050 TX16/2612Z TN09/2706Z"
    },
    {
      "icao": "LECH",
      "alert": "OK",
      "vis_m": 9999,
      "fzfg": false,
      "metar_trigger": false,
      "taf_trigger": false,
      "metar": "METAR LECH 261700Z AUTO 02004KT CAVOK 10/07 Q1008",
      "taf": ""
    },
    {
      "icao": "LEMD",
      "alert": "OK",
      "vis_m": 5000,
      "fzfg": false,
      "metar_trigger": false,
      "taf_trigger": false,
      "metar": "METAR LEMD 261700Z 28001KT 5000 BR FEW002 BKN009 BKN014 08/08 Q1009 TEMPO 3000",
      "taf": ""
    },
    {
      "icao": "LEMG",
      "alert": "OK",
      "vis_m": 9999,
      "fzfg": false,
      "metar_trigger": false,
      "taf_trigger": false,
      "metar": "METAR LEMG 261700Z 31003KT 280V350 9999 BKN050 17/13 Q1015 NOSIG",
      "taf": "TAF LEMG 261100Z 2612/2712 30009KT 9999 FEW040 TX20/2614Z TN10/2707Z"
    },
    {
      "icao": "LEVC",
      "alert": "OK",
      "vis_m": 9999,
      "fzfg": false,
      "metar_trigger": false,
      "taf_trigger": false,
      "metar": "METAR LEVC 261700Z 26010KT 9999 FEW048 17/09 Q1008 NOSIG",
      "taf": ""
    },
    {
      "icao": "LEXJ",
      "alert": "OK",
      "vis_m": 9999,
      "fzfg": false,
      "metar_trigger": false,
      "taf_trigger": false,
      "metar": "METAR LEXJ 261700Z 21015G25KT 160V250 9999 FEW070 15/07 Q0998",
      "taf": "TAF LEXJ 261400Z 2615/2715 23009KT 9999 SCT060 TX16/2621Z TN10/2709Z"
    },
    {
      "icao": "LEZG",
      "alert": "OK",
      "vis_m": 9999,
      "fzfg": false,
      "metar_trigger": false,
      "taf_trigger": false,
      "metar": "METAR LEZG 261700Z 09005KT 9999 -RA BKN060 09/09 Q1007 NOSIG",
      "taf": "TAF LEZG 261100Z 2612/2712 25010KT 9999 FEW040 TX12/2614Z TN08/2706Z"
    },
    {
      "icao": "LEZL",
      "alert": "OK",
      "vis_m": 9999,
      "fzfg": false,
      "metar_trigger": false,
      "taf_trigger": false,
      "metar": "METAR LEZL 261700Z 25012KT 9999 SCT020 18/15 Q1014 NOSIG",
      "taf": "TAF LEZL 261400Z 2615/2715 24010KT 9999 FEW015 SCT030 TX19/2615Z TN11/2707Z"
    },
    {
      "icao": "LFBD",
      "alert": "OK",
      "vis_m": 9999,
      "fzfg": false,
      "metar_trigger": false,
      "taf_trigger": false,
      "metar": "METAR LFBD 261700Z AUTO 15008KT CAVOK 10/07 Q1002 NOSIG",
      "taf": ""
    },
    {
      "icao": "LFLL",
      "alert": "OK",
      "vis_m": 9999,
      "fzfg": false,
      "metar_trigger": false,
      "taf_trigger": false,
      "metar": "METAR LFLL 261700Z 16002KT CAVOK 06/02 Q1006 NOSIG",
      "taf": "TAF LFLL 261100Z 2612/2718 VRB03KT 9999 BKN045"
    },
    {
      "icao": "LFLS",
      "alert": "OK",
      "vis_m": 9999,
      "fzfg": false,
      "metar_trigger": false,
      "taf_trigger": false,
      "metar": "METAR LFLS 261700Z AUTO VRB01KT CAVOK 03/M02 Q1006",
      "taf": "TAF LFLS 261400Z 2615/2715 36006KT 9999 SCT035"
    },
    {
      "icao": "LFMN",
      "alert": "OK",
      "vis_m": 9999,
      "fzfg": false,
      "metar_trigger": false,
      "taf_trigger": false,
      "metar": "METAR LFMN 261700Z 21010KT CAVOK 13/06 Q1003 BECMG 34010KT",
      "taf": "TAF LFMN 261400Z 2615/2721 21010KT CAVOK"
    },
    {
      "icao": "LFOB",
      "alert": "OK",
      "vis_m": 9999,
      "fzfg": false,
      "metar_trigger": false,
      "taf_trigger": false,
      "metar": "METAR LFOB 261700Z AUTO 14006KT 9999 BKN020 BKN026 OVC042 07/06 Q1001",
      "taf": "TAF LFOB 261100Z 2612/2712 16010KT 2000 BR OVC002"
    },
    {
      "icao": "LFPO",
      "alert": "OK",
      "vis_m": 9999,
      "fzfg": false,
      "metar_trigger": false,
      "taf_trigger": false,
      "metar": "METAR LFPO 261700Z 21007KT 9999 FEW015 SCT028 BKN036 07/04 Q1003 NOSIG",
      "taf": ""
    },
    {
      "icao": "LFSB",
      "alert": "OK",
      "vis_m": 9999,
      "fzfg": false,
      "metar_trigger": false,
      "taf_trigger": false,
      "metar": "METAR LFSB 261700Z AUTO 25008KT 9999 OVC052 06/01 Q1005 NOSIG",
      "taf": "TAF LFSB 261100Z 2612/2712 25011KT 9999 BKN020"
    },
    {
      "icao": "LGAV",
      "alert": "OK",
      "vis_m": 9999,
      "fzfg": false,
      "metar_trigger": false,
      "taf_trigger": false,
      "metar": "METAR LGAV 261650Z 26006KT 9999 FEW015TCU SCT025 BKN060 11/07 Q0999 NOSIG",
      "taf": "TAF LGAV 261700Z 2618/2718 23012KT 9999 SCT025"
    },
    {
      "icao": "LGTS",
      "alert": "OK",
      "vis_m": 9999,
      "fzfg": false,
      "metar_trigger": false,
      "taf_trigger": false,
      "metar": "METAR LGTS 261650Z VRB03KT 9999 -DZ SCT010 BKN025 10/10 Q0996 NOSIG",
      "taf": "TAF LGTS 261700Z 2618/2718 34010KT 9999 SCT010 BKN025"
    },
    {
      "icao": "LHBP",
      "alert": "OK",
      "vis_m": 1500,
      "fzfg": false,
      "metar_trigger": false,
      "taf_trigger": false,
      "metar": "METAR LHBP 261700Z 33005KT 1500 -DZ BCFG OVC002 05/05 Q1002 NOSIG",
      "taf": ""
    },
    {
      "icao": "LHDC",
      "alert": "OK",
      "vis_m": 3900,
      "fzfg": false,
      "metar_trigger": false,
      "taf_trigger": false,
      "metar": "METAR LHDC 261645Z AUTO 05003KT 3900 -RA BR OVC006 06/05 Q1001 RERA NOSIG",
      "taf": "TAF LHDC 261415Z 2615/2624 VRB03KT 6000 -RA SCT030 OVC040"
    },
    {
      "icao": "LIBD",
      "alert": "OK",
      "vis_m": 9999,
      "fzfg": false,
      "metar_trigger": false,
      "taf_trigger": false,
      "metar": "METAR LIBD 261650Z AUTO 33004KT 290V360 9999 NCD 11/07 Q1000",
      "taf": "TAF LIBD 261100Z 2612/2712 34008KT 9999 SCT025"
    },
    {
      "icao": "LIBG",
      "alert": "OK",
      "vis_m": 9999,
      "fzfg": false,
      "metar_trigger": false,
      "taf_trigger": false,
      "metar": "METAR LIBG 261650Z 01006KT CAVOK 10/05 Q0999",
      "taf": "TAF LIBG 261400Z 2615/2624 VRB06KT 9999 FEW030"
    },
    {
      "icao": "LIBP",
      "alert": "OK",
      "vis_m": 9999,
      "fzfg": false,
      "metar_trigger": false,
      "taf_trigger": false,
      "metar": "METAR LIBP 261650Z AUTO 36011KT 340V040 9999 FEW017/// BKN039/// 09/05 Q1003",
      "taf": "TAF LIBP 261100Z 2612/2712 33010KT CAVOK"
    },
    {
      "icao": "LIBR",
      "alert": "OK",
      "vis_m": 9999,
      "fzfg": false,
      "metar_trigger": false,
      "taf_trigger": false,
      "metar": "METAR LIBR 261650Z 33005KT CAVOK 11/06 Q0999",
      "taf": "TAF LIBR 261100Z 2612/2712 VRB06KT 9999 SCT025"
    },
    {
      "icao": "LICA",
      "alert": "OK",
      "vis_m": 9999,
      "fzfg": false,
      "metar_trigger": false,
      "taf_trigger": false,
      "metar": "METAR LICA 261650Z AUTO VRB02KT 9999 BKN074/// 12/09 Q0999",
      "taf": "TAF LICA 261100Z 2612/2712 26012KT 9999 BKN030"
    },
    {
      "icao": "LICC",
      "alert": "OK",
      "vis_m": 9999,
      "fzfg": false,
      "metar_trigger": false,
      "taf_trigger": false,
      "metar": "METAR LICC 261650Z 27006KT 9999 FEW020 BKN070 11/08 Q0999",
      "taf": "TAF LICC 261100Z 2612/2712 26012KT 9999 SCT030"
    },
    {
      "icao": "LICJ",
      "alert": "OK",
      "vis_m": 9999,
      "fzfg": false,
      "metar_trigger": false,
      "taf_trigger": false,
      "metar": "METAR LICJ 261650Z 31017KT 9999 -RA SCT025 SCT045 13/08 Q1001",
      "taf": "TAF LICJ 261100Z 2612/2712 22013KT 9999 BKN030"
    },
    {
      "icao": "LIMC",
      "alert": "OK",
      "vis_m": 9999,
      "fzfg": false,
      "metar_trigger": false,
      "taf_trigger": false,
      "metar": "METAR LIMC 261650Z 22005KT CAVOK 07/03 Q1003 NOSIG",
      "taf": "TAF LIMC 261100Z 2612/2718 VRB04KT 9999 SCT015"
    },
    {
      "icao": "LIME",
      "alert": "OK",
      "vis_m": 9999,
      "fzfg": false,
      "metar_trigger": false,
      "taf_trigger": false,
      "metar": "METAR LIME 261650Z 23006KT CAVOK 06/03 Q1003 NOSIG",
      "taf": "TAF LIME 261100Z 2612/2712 VRB05KT 7000 FEW020"
    },
    {
      "icao": "LIMF",
      "alert": "OK",
      "vis_m": 9999,
      "fzfg": false,
      "metar_trigger": false,
      "taf_trigger": false,
      "metar": "METAR LIMF 261650Z 07001KT CAVOK 07/02 Q1003",
      "taf": "TAF LIMF 261100Z 2612/2712 VRB04KT 6000 SCT020"
    },
    {
      "icao": "LIMJ",
      "alert": "OK",
      "vis_m": 9999,
      "fzfg": false,
      "metar_trigger": false,
      "taf_trigger": false,
      "metar": "METAR LIMJ 261650Z 03008KT CAVOK 09/02 Q1003",
      "taf": "TAF LIMJ 261100Z 2612/2712 03010KT 9999 BKN040"
    },
    {
      "icao": "LIPE",
      "alert": "OK",
      "vis_m": 9999,
      "fzfg": false,
      "metar_trigger": false,
      "taf_trigger": false,
      "metar": "METAR LIPE 261650Z 20003KT CAVOK 05/03 Q1003",
      "taf": "TAF LIPE 261100Z 2612/2712 VRB04KT 6000 SCT015"
    },
    {
      "icao": "LIPH",
      "alert": "OK",
      "vis_m": 9999,
      "fzfg": false,
      "metar_trigger": false,
      "taf_trigger": false,
      "metar": "METAR LIPH 261650Z 23004KT CAVOK 07/05 Q1002",
      "taf": "TAF LIPH 261100Z 2612/2712 VRB04KT 9999 FEW025"
    },
    {
      "icao": "LIPQ",
      "alert": "OK",
      "vis_m": 9999,
      "fzfg": false,
      "metar_trigger": false,
      "taf_trigger": false,
      "metar": "METAR LIPQ 261650Z AUTO 22003KT 9999 NCD 06/04 Q1002",
      "taf": "TAF LIPQ 261100Z 2612/2712 VRB04KT 9999 SCT020"
    },
    {
      "icao": "LIPR",
      "alert": "OK",
      "vis_m": 8000,
      "fzfg": false,
      "metar_trigger": false,
      "taf_trigger": false,
      "metar": "METAR LIPR 261650Z 30006KT 8000 BKN020 07/03 Q1004",
      "taf": "TAF LIPR 261100Z 2612/2712 30010KT 9999 SCT025"
    },
    {
      "icao": "LIPX",
      "alert": "OK",
      "vis_m": 9999,
      "fzfg": false,
      "metar_trigger": false,
      "taf_trigger": false,
      "metar": "METAR LIPX 261650Z 25007KT CAVOK 06/03 Q1003",
      "taf": "TAF LIPX 261100Z 2612/2712 27010KT 8000 SCT020"
    },
    {
      "icao": "LIPY",
      "alert": "OK",
      "vis_m": 9999,
      "fzfg": false,
      "metar_trigger": false,
      "taf_trigger": false,
      "metar": "METAR LIPY 261650Z AUTO 29006KT 9999 OVC020/// 07/05 Q1003",
      "taf": "TAF LIPY 261100Z 2612/2712 34010KT 9999 SCT020"
    },
    {
      "icao": "LIPZ",
      "alert": "OK",
      "vis_m": 9999,
      "fzfg": false,
      "metar_trigger": false,
      "taf_trigger": false,
      "metar": "METAR LIPZ 261650Z 21005KT CAVOK 06/05 Q1002 NOSIG",
      "taf": "TAF LIPZ 261100Z 2612/2718 VRB04KT 7000 FEW020"
    },
    {
      "icao": "LIRF",
      "alert": "OK",
      "vis_m": 9999,
      "fzfg": false,
      "metar_trigger": false,
      "taf_trigger": false,
      "metar": "METAR LIRF 261650Z 34002KT CAVOK 09/08 Q1001 NOSIG",
      "taf": "TAF LIRF 261100Z 2612/2718 36006KT 9999 SCT030"
    },
    {
      "icao": "LIRN",
      "alert": "OK",
      "vis_m": 9999,
      "fzfg": false,
      "metar_trigger": false,
      "taf_trigger": false,
      "metar": "METAR LIRN 261650Z VRB02KT 9999 BKN070 10/08 Q0999 NOSIG",
      "taf": "TAF LIRN 261100Z 2612/2712 VRB05KT 9999 SCT040"
    },
    {
      "icao": "LIRP",
      "alert": "OK",
      "vis_m": 9999,
      "fzfg": false,
      "metar_trigger": false,
      "taf_trigger": false,
      "metar": "METAR LIRP 261645Z 33006KT 9999 FEW040 09/06 Q1003 NOSIG",
      "taf": "TAF LIRP 261100Z 2612/2712 12004KT 9999 FEW020 SCT040"
    },
    {
      "icao": "LIRZ",
      "alert": "OK",
      "vis_m": 9999,
      "fzfg": false,
      "metar_trigger": false,
      "taf_trigger": false,
      "metar": "METAR LIRZ 261650Z AUTO 01006KT 9999 NCD 07/04 Q1002",
      "taf": "TAF LIRZ 261100Z 2612/2712 VRB05KT 9999 FEW040"
    },
    {
      "icao": "LJLJ",
      "alert": "OK",
      "vis_m": 400,
      "fzfg": false,
      "metar_trigger": false,
      "taf_trigger": false,
      "metar": "METAR LJLJ 261700Z 30004KT 0400 R30/0600N FG VV001 03/03 Q1002 NOSIG",
      "taf": "TAF LJLJ 261700Z 2618/2718 30003KT 0400 FG VV001"
    },
    {
      "icao": "LKMT",
      "alert": "OK",
      "vis_m": 9999,
      "fzfg": false,
      "metar_trigger": false,
      "taf_trigger": false,
      "metar": "METAR LKMT 261700Z 22009KT CAVOK 01/00 Q1001 NOSIG",
      "taf": "TAF LKMT 261100Z 2612/2712 23008KT 9999 SCT008 BKN016"
    },
    {
      "icao": "LKPR",
      "alert": "OK",
      "vis_m": 1200,
      "fzfg": false,
      "metar_trigger": false,
      "taf_trigger": false,
      "metar": "METAR LKPR 261700Z 29006KT 240V300 1200 R24/1600D R30/1700D SN BR BKN002 OVC007 00/M00 Q0999 BECMG 6000 -SN BKN009",
      "taf": "TAF LKPR 261400Z 2615/2721 23009KT 9999 OVC016"
    },
    {
      "icao": "LLBG",
      "alert": "OK",
      "vis_m": 9999,
      "fzfg": false,
      "metar_trigger": false,
      "taf_trigger": false,
      "metar": "METAR LLBG 261650Z 11005KT CAVOK 16/06 Q1014 NOSIG",
      "taf": "TAF LLBG 261703Z 2618/2718 11005KT CAVOK"
    },
    {
      "icao": "LMML",
      "alert": "OK",
      "vis_m": 9999,
      "fzfg": false,
      "metar_trigger": false,
      "taf_trigger": false,
      "metar": "METAR LMML 261715Z 30029G41KT 9999 FEW022 12/07 Q1002 NOSIG",
      "taf": "TAF LMML 261700Z 2618/2718 30020KT 9999 SCT015"
    },
    {
      "icao": "LOWW",
      "alert": "OK",
      "vis_m": 5000,
      "fzfg": false,
      "metar_trigger": false,
      "taf_trigger": false,
      "metar": "METAR LOWW 261650Z 18005KT 5000 BR FEW050 00/M01 Q1003 TEMPO 4000 BR",
      "taf": "TAF LOWW 261715Z 2618/2724 22005KT 9999 FEW005 TX03/2714Z TNM01/2706Z"
    },
    {
      "icao": "LPFR",
      "alert": "OK",
      "vis_m": 9000,
      "fzfg": false,
      "metar_trigger": false,
      "taf_trigger": false,
      "metar": "METAR LPFR 261700Z 23009KT 9000 FEW012 BKN035 16/15 Q1015",
      "taf": "TAF LPFR 261700Z 2618/2718 25015KT 9999 SCT012 BKN030"
    },
    {
      "icao": "LPMA",
      "alert": "OK",
      "vis_m": 9999,
      "fzfg": false,
      "metar_trigger": false,
      "taf_trigger": false,
      "metar": "METAR LPMA 261700Z 23015G27KT 190V260 9999 BKN016 18/12 Q1016",
      "taf": "TAF LPMA 261700Z 2618/2718 22018KT 9999 SCT015"
    },
    {
      "icao": "LPPR",
      "alert": "OK",
      "vis_m": 5000,
      "fzfg": false,
      "metar_trigger": false,
      "taf_trigger": false,
      "metar": "METAR LPPR 261700Z 19021KT 5000 -RADZ BR BKN006 BKN011 14/13 Q1004",
      "taf": "TAF LPPR 261700Z 2618/2718 20018G30KT 6000 -RA SCT006 BKN012"
    },
    {
      "icao": "LPPS",
      "alert": "OK",
      "vis_m": 9999,
      "fzfg": false,
      "metar_trigger": false,
      "taf_trigger": false,
      "metar": "METAR LPPS 261700Z 21012KT 9999 FEW015 19/13 Q1016",
      "taf": "TAF LPPS 261700Z 2618/2724 23010KT 9999 SCT015 SCT030"
    },
    {
      "icao": "LPPT",
      "alert": "OK",
      "vis_m": 9999,
      "fzfg": false,
      "metar_trigger": false,
      "taf_trigger": false,
      "metar": "METAR LPPT 261700Z 22020KT 9999 SCT009 BKN048 15/14 Q1009",
      "taf": "TAF LPPT 261700Z 2618/2724 23017KT 9999 SCT012 BKN025"
    },
    {
      "icao": "LQBK",
      "alert": "OK",
      "vis_m": 9999,
      "fzfg": false,
      "metar_trigger": false,
      "taf_trigger": false,
      "metar": "METAR LQBK 261700Z 32004KT 9999 -RA BKN045 06/05 Q1002 NOSIG",
      "taf": ""
    },
    {
      "icao": "LQSA",
      "alert": "OK",
      "vis_m": 9999,
      "fzfg": false,
      "metar_trigger": false,
      "taf_trigger": false,
      "metar": "METAR LQSA 261700Z 00000KT 9999 BKN045 05/04 Q1000 NOSIG",
      "taf": "TAF LQSA 261700Z 2618/2718 VRB02KT 9999 SCT045 TX08/2713Z TN01/2705Z"
    },
    {
      "icao": "LQTZ",
      "alert": "OK",
      "vis_m": 9999,
      "fzfg": false,
      "metar_trigger": false,
      "taf_trigger": false,
      "metar": "METAR LQTZ 261700Z 27003KT 9999 SCT050 08/04 Q1000",
      "taf": "TAF LQTZ 261700Z 2618/2718 28006KT 9999 SCT015 BKN030 TX11/2713Z TN00/2706Z"
    },
    {
      "icao": "LRBC",
      "alert": "OK",
      "vis_m": 250,
      "fzfg": false,
      "metar_trigger": false,
      "taf_trigger": false,
      "metar": "METAR LRBC 261700Z 17006KT 0250 R16/0700N FG VV002 04/04 Q1005",
      "taf": "TAF LRBC 261400Z 2615/2624 15006KT 0600 FG OVC002"
    },
    {
      "icao": "LRBS",
      "alert": "OK",
      "vis_m": 5000,
      "fzfg": false,
      "metar_trigger": false,
      "taf_trigger": false,
      "metar": "METAR LRBS 261700Z COR 06012KT 5000 BR SCT003 07/07 Q1002 NOSIG",
      "taf": ""
    },
    {
      "icao": "LRBV",
      "alert": "OK",
      "vis_m": 9999,
      "fzfg": false,
      "metar_trigger": false,
      "taf_trigger": false,
      "metar": "METAR LRBV 261700Z 02007KT 350V050 9999 FEW037 SCT045 08/04 Q1001",
      "taf": "TAF LRBV 261400Z 2615/2624 11008KT 9999 BKN040"
    },
    {
      "icao": "LRCL",
      "alert": "OK",
      "vis_m": 9999,
      "fzfg": false,
      "metar_trigger": false,
      "taf_trigger": false,
      "metar": "METAR LRCL 261700Z VRB01KT 9999 -RA OVC052 03/02 Q1001",
      "taf": "TAF LRCL 261400Z 2615/2624 VRB04KT CAVOK"
    },
    {
      "icao": "LRCV",
      "alert": "OK",
      "vis_m": 700,
      "fzfg": false,
      "metar_trigger": false,
      "taf_trigger": false,
      "metar": "METAR LRCV 261700Z 05005KT 0700 R26/1100D RA FG BKN001 OVC040 03/03 Q1000",
      "taf": "TAF LRCV 261400Z 2615/2624 VRB04KT 0250 -RA FG VV001"
    },
    {
      "icao": "LRIA",
      "alert": "OK",
      "vis_m": 9999,
      "fzfg": false,
      "metar_trigger": false,
      "taf_trigger": false,
      "metar": "METAR LRIA 261700Z 12018KT 9999 -RA OVC003 04/04 Q1006",
      "taf": "TAF LRIA 261400Z 2615/2624 11012KT 5000 -RA BR BKN002 OVC020"
    },
    {
      "icao": "LROP",
      "alert": "OK",
      "vis_m": 4000,
      "fzfg": false,
      "metar_trigger": false,
      "taf_trigger": false,
      "metar": "METAR LROP 261700Z 07014KT 4000 FEW003 07/07 Q1002 NOSIG",
      "taf": ""
    },
    {
      "icao": "LRSB",
      "alert": "OK",
      "vis_m": 9999,
      "fzfg": false,
      "metar_trigger": false,
      "taf_trigger": false,
      "metar": "METAR LRSB 261700Z 16012KT 9999 SCT045 11/07 Q0999",
      "taf": "TAF LRSB 261100Z 2612/2712 15017KT CAVOK"
    },
    {
      "icao": "LRSM",
      "alert": "OK",
      "vis_m": 2000,
      "fzfg": false,
      "metar_trigger": false,
      "taf_trigger": false,
      "metar": "METAR LRSM 261700Z 10003KT 2000 BR NSC 04/03 Q1001",
      "taf": ""
    },
    {
      "icao": "LRSV",
      "alert": "OK",
      "vis_m": 400,
      "fzfg": false,
      "metar_trigger": false,
      "taf_trigger": false,
      "metar": "METAR LRSV 261700Z 12006KT 0400 R34/0600N -RA FG VV001 01/01 Q1004",
      "taf": "TAF LRSV 261400Z 2615/2624 13008KT 0350 -RA FG VV002"
    },
    {
      "icao": "LRTM",
      "alert": "OK",
      "vis_m": 6000,
      "fzfg": false,
      "metar_trigger": false,
      "taf_trigger": false,
      "metar": "METAR LRTM 261700Z 26005KT 6000 FEW014 SCT038 03/01 Q1000",
      "taf": "TAF LRTM 261400Z 2615/2624 VRB04KT 5000 -RA BR SCT015"
    },
    {
      "icao": "LRTR",
      "alert": "OK",
      "vis_m": 4500,
      "fzfg": false,
      "metar_trigger": false,
      "taf_trigger": false,
      "metar": "METAR LRTR 261700Z 31006KT 4500 -RA BR SCT004 SCT015 BKN030 06/06 Q1000 TEMPO 3000 BR BKN003",
      "taf": "TAF LRTR 261100Z 2612/2712 VRB04KT 9999 SCT045"
    },
    {
      "icao": "LTAC",
      "alert": "OK",
      "vis_m": 9999,
      "fzfg": false,
      "metar_trigger": false,
      "taf_trigger": false,
      "metar": "METAR LTAC 261650Z 04006KT 9999 SCT040 BKN100 05/03 Q1009 NOSIG",
      "taf": "TAF LTAC 261640Z 2618/2718 17008KT 9999 SCT040 BKN100"
    },
    {
      "icao": "LTFM",
      "alert": "OK",
      "vis_m": 9999,
      "fzfg": false,
      "metar_trigger": false,
      "taf_trigger": false,
      "metar": "METAR LTFM 261650Z 08008KT 9999 SCT040 BKN080 13/08 Q1000 NOSIG",
      "taf": "TAF LTFM 261640Z 2618/2724 12007KT 9999 SCT040 BKN090"
    },
    {
      "icao": "LUKK",
      "alert": "OK",
      "vis_m": 7000,
      "fzfg": false,
      "metar_trigger": false,
      "taf_trigger": false,
      "metar": "METAR LUKK 261700Z 11010KT 7000 -RA OVC002 00/00 Q1009 NOSIG",
      "taf": ""
    },
    {
      "icao": "LWOH",
      "alert": "OK",
      "vis_m": null,
      "fzfg": false,
      "metar_trigger": false,
      "taf_trigger": false,
      "metar": "",
      "taf": "TAF LWOH 261430Z 2615/2715 VRB02KT 9999 SCT020 BKN035"
    },
    {
      "icao": "LWSK",
      "alert": "OK",
      "vis_m": 2000,
      "fzfg": false,
      "metar_trigger": false,
      "taf_trigger": false,
      "metar": "METAR LWSK 261650Z AUTO 02003KT 2000 -RA BR FEW003/// BKN009/// OVC032/// 10/09 Q0997 NOSIG",
      "taf": "TAF LWSK 261430Z 2615/2715 VRB02KT 5000 RA FEW004 BKN015 OVC035"
    },
    {
      "icao": "LYBE",
      "alert": "OK",
      "vis_m": 9999,
      "fzfg": false,
      "metar_trigger": false,
      "taf_trigger": false,
      "metar": "METAR LYBE 261700Z 00000KT 9999 FEW017 07/04 Q1000 NOSIG",
      "taf": "TAF LYBE 261100Z 2612/2712 14010KT 9999 SCT040 TX10/2712Z TN03/2706Z"
    },
    {
      "icao": "LYNI",
      "alert": "OK",
      "vis_m": 9999,
      "fzfg": false,
      "metar_trigger": false,
      "taf_trigger": false,
      "metar": "METAR LYNI 261700Z 33015KT 9999 -RA SCT017 BKN043 OVC080 05/04 Q0999 NOSIG",
      "taf": "TAF LYNI 261100Z 2612/2712 05013KT 9999 SCT020 BKN050 TX11/2612Z TN03/2706Z"
    },
    {
      "icao": "LYPG",
      "alert": "OK",
      "vis_m": 9999,
      "fzfg": false,
      "metar_trigger": false,
      "taf_trigger": false,
      "metar": "METAR LYPG 261700Z 10002KT 9999 FEW016 08/06 Q0999 NOSIG",
      "taf": "TAF LYPG 261100Z 2612/2712 34006KT 9999 FEW013 SCT040 BKN080 TX11/2613Z TN04/2704Z"
    },
    {
      "icao": "LZIB",
      "alert": "OK",
      "vis_m": 9999,
      "fzfg": false,
      "metar_trigger": false,
      "taf_trigger": false,
      "metar": "METAR LZIB 261700Z 19006KT 9999 FEW010 01/00 Q1003 TEMPO 2500 BR BKN007",
      "taf": "TAF LZIB 261715Z 2618/2718 26006KT 9999 FEW012"
    },
    {
      "icao": "LZKZ",
      "alert": "OK",
      "vis_m": 500,
      "fzfg": false,
      "metar_trigger": false,
      "taf_trigger": false,
      "metar": "METAR LZKZ 261700Z VRB01KT 0500 R01/1300U FG FEW003 OVC037 04/04 Q1001 NOSIG",
      "taf": "TAF LZKZ 261715Z 2618/2718 VRB02KT 0700 FG FEW001 BKN008"
    },
    {
      "icao": "LZTT",
      "alert": "OK",
      "vis_m": 400,
      "fzfg": false,
      "metar_trigger": false,
      "taf_trigger": false,
      "metar": "METAR LZTT 261700Z 31002KT 0400 R27/0800N FG OVC002 02/02 Q1000 NOSIG",
      "taf": "TAF LZTT 261715Z 2618/2718 24004KT 9999 FEW006 SCT035"
    },
    {
      "icao": "OEJN",
      "alert": "OK",
      "vis_m": 9999,
      "fzfg": false,
      "metar_trigger": false,
      "taf_trigger": false,
      "metar": "METAR OEJN 261700Z 26003KT CAVOK 27/12 Q1013 NOSIG",
      "taf": "TAF OEJN 261700Z 2618/2724 VRB03KT 7000 NSC"
    },
    {
      "icao": "OEMA",
      "alert": "OK",
      "vis_m": 9999,
      "fzfg": false,
      "metar_trigger": false,
      "taf_trigger": false,
      "metar": "METAR OEMA 261700Z 03004KT CAVOK 20/M03 Q1020 NOSIG",
      "taf": "TAF OEMA 261700Z 2618/2724 08015KT 7000 NSC"
    },
    {
      "icao": "OJAI",
      "alert": "OK",
      "vis_m": null,
      "fzfg": false,
      "metar_trigger": false,
      "taf_trigger": false,
      "metar": "",
      "taf": "TAF OJAI 261658Z 2618/2724 VRB02KT 5000 HZ NSC"
    },
    {
      "icao": "OMAA",
      "alert": "OK",
      "vis_m": 9999,
      "fzfg": false,
      "metar_trigger": false,
      "taf_trigger": false,
      "metar": "METAR OMAA 261700Z 29009KT 9999 FEW030 19/13 Q1019 NOSIG",
      "taf": "TAF OMAA 261700Z 2618/2800 31010KT 8000 FEW045"
    },
    {
      "icao": "OMDB",
      "alert": "OK",
      "vis_m": 9999,
      "fzfg": false,
      "metar_trigger": false,
      "taf_trigger": false,
      "metar": "METAR OMDB 261700Z 03006KT 010V080 9999 FEW030 21/14 Q1019 NOSIG",
      "taf": "TAF OMDB 261700Z 2618/2800 14004KT 8000 NSC"
    },
    {
      "icao": "UAAA",
      "alert": "OK",
      "vis_m": 2400,
      "fzfg": false,
      "metar_trigger": false,
      "taf_trigger": false,
      "metar": "METAR UAAA 261700Z 16001MPS 2400 BR FU SCT200 M04/M07 Q1020 NOSIG",
      "taf": "TAF UAAA 261102Z 2612/2712 23003MPS 3100 BR FU SCT050 BKN100 TX03/2708Z TNM11/2702Z"
    },
    {
      "icao": "UBBB",
      "alert": "OK",
      "vis_m": 8000,
      "fzfg": false,
      "metar_trigger": false,
      "taf_trigger": false,
      "metar": "METAR UBBB 261700Z 33015G25KT 8000 -RA BKN005 OVC023 05/04 Q1024 NOSIG",
      "taf": "TAF UBBB 261700Z 2618/2718 32018G28KT 9999 SCT009 BKN025 TX05/2710Z TN02/2701Z"
    },
    {
      "icao": "UDSG",
      "alert": "OK",
      "vis_m": 4900,
      "fzfg": false,
      "metar_trigger": false,
      "taf_trigger": false,
      "metar": "METAR UDSG 261700Z 06002KT 4900 BR FEW049 M12/M13 Q1022 NOSIG",
      "taf": "TAF UDSG 261058Z 2612/2712 VRB06KT 3000 BR BKN030"
    },
    {
      "icao": "UDYZ",
      "alert": "OK",
      "vis_m": 3100,
      "fzfg": false,
      "metar_trigger": false,
      "taf_trigger": false,
      "metar": "METAR UDYZ 261700Z 20005KT 3100 BR BKN007 M05/M06 Q1025 NOSIG",
      "taf": "TAF UDYZ 261100Z 2612/2712 VRB04KT 2300 BR BKN005"
    },
    {
      "icao": "UGKO",
      "alert": "OK",
      "vis_m": 9999,
      "fzfg": false,
      "metar_trigger": false,
      "taf_trigger": false,
      "metar": "METAR UGKO 261700Z 07015KT CAVOK 10/03 Q1013 NOSIG",
      "taf": "TAF UGKO 261700Z 2618/2718 08027G37KT CAVOK TX13/2711Z TN07/2620Z"
    }
  ]
}