{
  "ts_utc": "2026-06-19T19:03:58Z",
  "threshold_m": 150,
  "source": "stations_override.txt (ICAO list) + aviationweather.gov (METAR/TAF raw)",
  "station_count": 159,
  "stations": [
    {
      "icao": "BIKF",
      "alert": "OK",
      "vis_m": 9999,
      "fzfg": false,
      "metar_trigger": false,
      "taf_trigger": false,
      "metar": "METAR BIKF 191830Z 03012KT CAVOK 14/07 Q0998",
      "taf": "TAF BIKF 191659Z 1918/2018 03015KT 9999 FEW040 TX14/1918Z TN08/2006Z"
    },
    {
      "icao": "BKPR",
      "alert": "OK",
      "vis_m": 9999,
      "fzfg": false,
      "metar_trigger": false,
      "taf_trigger": false,
      "metar": "METAR BKPR 191900Z 35005KT CAVOK 21/11 Q1021 NOSIG",
      "taf": "TAF BKPR 191730Z 1918/2018 02008KT CAVOK"
    },
    {
      "icao": "EBCI",
      "alert": "OK",
      "vis_m": 9999,
      "fzfg": false,
      "metar_trigger": false,
      "taf_trigger": false,
      "metar": "METAR EBCI 191850Z 15003KT 110V200 9999 -SHRA NSC 29/20 Q1014 NOSIG",
      "taf": "TAF EBCI 191700Z 1918/2024 19005KT CAVOK"
    },
    {
      "icao": "EDDB",
      "alert": "OK",
      "vis_m": 9999,
      "fzfg": false,
      "metar_trigger": false,
      "taf_trigger": false,
      "metar": "METAR EDDB 191850Z AUTO 10009KT CAVOK 26/19 Q1016 NOSIG",
      "taf": "TAF EDDB 191700Z 1918/2018 10006KT CAVOK"
    },
    {
      "icao": "EDDH",
      "alert": "OK",
      "vis_m": 9999,
      "fzfg": false,
      "metar_trigger": false,
      "taf_trigger": false,
      "metar": "METAR EDDH 191850Z AUTO 10005KT 060V120 CAVOK 29/19 Q1014 NOSIG",
      "taf": "TAF EDDH 191700Z 1918/2024 14003KT CAVOK"
    },
    {
      "icao": "EDDK",
      "alert": "OK",
      "vis_m": 9999,
      "fzfg": false,
      "metar_trigger": false,
      "taf_trigger": false,
      "metar": "METAR EDDK 191850Z AUTO 05011KT 030V100 9999 SHRA FEW///TCU 21/19 Q1015 RETS BECMG NSW",
      "taf": "TAF EDDK 191700Z 1918/2024 11004KT CAVOK"
    },
    {
      "icao": "EDDN",
      "alert": "OK",
      "vis_m": 9999,
      "fzfg": false,
      "metar_trigger": false,
      "taf_trigger": false,
      "metar": "METAR EDDN 191850Z AUTO 10005KT CAVOK 31/15 Q1017 NOSIG",
      "taf": "TAF EDDN 191700Z 1918/2018 10004KT CAVOK"
    },
    {
      "icao": "EDDS",
      "alert": "OK",
      "vis_m": 9999,
      "fzfg": false,
      "metar_trigger": false,
      "taf_trigger": false,
      "metar": "METAR EDDS 191850Z AUTO 19005KT 100V240 CAVOK 30/12 Q1018 TEMPO 21015G30KT TSRA BKN045CB",
      "taf": "TAF EDDS 191700Z 1918/2018 VRB03KT 9999 SCT040"
    },
    {
      "icao": "EDFH",
      "alert": "OK",
      "vis_m": 9999,
      "fzfg": false,
      "metar_trigger": false,
      "taf_trigger": false,
      "metar": "METAR EDFH 191850Z 06006KT 010V120 CAVOK 24/15 Q1018",
      "taf": "TAF EDFH 191700Z 1918/2018 16006KT CAVOK"
    },
    {
      "icao": "EDJA",
      "alert": "OK",
      "vis_m": 9999,
      "fzfg": false,
      "metar_trigger": false,
      "taf_trigger": false,
      "metar": "METAR EDJA 191850Z 20009KT CAVOK 23/14 Q1021",
      "taf": "TAF EDJA 191700Z 1918/2003 05004KT CAVOK"
    },
    {
      "icao": "EDLW",
      "alert": "OK",
      "vis_m": 9999,
      "fzfg": false,
      "metar_trigger": false,
      "taf_trigger": false,
      "metar": "METAR EDLW 191850Z 22011KT 190V260 9999 -TSRA SCT083CB 27/16 Q1015",
      "taf": "TAF EDLW 191700Z 1918/2018 15006KT CAVOK"
    },
    {
      "icao": "EDNY",
      "alert": "OK",
      "vis_m": 9999,
      "fzfg": false,
      "metar_trigger": false,
      "taf_trigger": false,
      "metar": "METAR EDNY 191850Z 26006KT 210V340 CAVOK 22/17 Q1021",
      "taf": "TAF EDNY 191700Z 1918/2003 17006KT CAVOK"
    },
    {
      "icao": "EDSB",
      "alert": "OK",
      "vis_m": 9999,
      "fzfg": false,
      "metar_trigger": false,
      "taf_trigger": false,
      "metar": "METAR EDSB 191850Z VRB02KT CAVOK 29/19 Q1015",
      "taf": "TAF EDSB 191727Z 1918/2018 VRB03KT CAVOK"
    },
    {
      "icao": "EETN",
      "alert": "OK",
      "vis_m": 9999,
      "fzfg": false,
      "metar_trigger": false,
      "taf_trigger": false,
      "metar": "METAR EETN 191850Z 25007KT CAVOK 17/08 Q1017 NOSIG",
      "taf": "TAF EETN 191730Z 1918/2018 26006KT CAVOK"
    },
    {
      "icao": "EFTU",
      "alert": "OK",
      "vis_m": 9999,
      "fzfg": false,
      "metar_trigger": false,
      "taf_trigger": false,
      "metar": "METAR EFTU 191850Z AUTO 23005KT 200V260 CAVOK 19/08 Q1016",
      "taf": "TAF EFTU 191723Z 1918/2018 26007KT CAVOK"
    },
    {
      "icao": "EGBB",
      "alert": "OK",
      "vis_m": 9999,
      "fzfg": false,
      "metar_trigger": false,
      "taf_trigger": false,
      "metar": "METAR EGBB 191850Z 23008KT 9999 BKN031 22/16 Q1012",
      "taf": "TAF EGBB 191656Z 1918/2018 20010KT 9999 FEW025"
    },
    {
      "icao": "EGGP",
      "alert": "OK",
      "vis_m": 9999,
      "fzfg": false,
      "metar_trigger": false,
      "taf_trigger": false,
      "metar": "METAR EGGP 191850Z 19003KT 140V230 9999 SCT048 20/15 Q1010",
      "taf": "TAF EGGP 191701Z 1918/2018 21012KT 9999 SCT030"
    },
    {
      "icao": "EGGW",
      "alert": "OK",
      "vis_m": 9999,
      "fzfg": false,
      "metar_trigger": false,
      "taf_trigger": false,
      "metar": "METAR EGGW 191850Z AUTO 26014KT 9999 NCD 24/15 Q1012",
      "taf": "TAF EGGW 191701Z 1918/2018 24009KT 9999 FEW030"
    },
    {
      "icao": "EGKK",
      "alert": "OK",
      "vis_m": 9999,
      "fzfg": false,
      "metar_trigger": false,
      "taf_trigger": false,
      "metar": "METAR EGKK 191850Z 23007KT CAVOK 23/17 Q1013",
      "taf": "TAF EGKK 191658Z 1918/2024 23008KT 9999 FEW045"
    },
    {
      "icao": "EGNM",
      "alert": "OK",
      "vis_m": 9999,
      "fzfg": false,
      "metar_trigger": false,
      "taf_trigger": false,
      "metar": "METAR EGNM 191850Z 21010KT 9999 FEW010 19/15 Q1010",
      "taf": ""
    },
    {
      "icao": "EGPD",
      "alert": "OK",
      "vis_m": 9999,
      "fzfg": false,
      "metar_trigger": false,
      "taf_trigger": false,
      "metar": "METAR EGPD 191850Z AUTO 20007KT 9999 //////CB 18/15 Q1005",
      "taf": "TAF EGPD 191702Z 1918/2018 19010KT 9999 SCT020"
    },
    {
      "icao": "EGPF",
      "alert": "OK",
      "vis_m": 9999,
      "fzfg": false,
      "metar_trigger": false,
      "taf_trigger": false,
      "metar": "METAR EGPF 191850Z AUTO 24008KT 9999 FEW038 17/13 Q1007",
      "taf": "TAF EGPF 191656Z 1918/2018 22005KT 9999 SCT030"
    },
    {
      "icao": "EHBK",
      "alert": "OK",
      "vis_m": 9999,
      "fzfg": false,
      "metar_trigger": false,
      "taf_trigger": false,
      "metar": "METAR EHBK 191855Z AUTO 20005KT 9999 NSC 25/18 Q1014 NOSIG",
      "taf": "TAF EHBK 191725Z 1918/2024 13007KT CAVOK"
    },
    {
      "icao": "EHEH",
      "alert": "OK",
      "vis_m": 9999,
      "fzfg": false,
      "metar_trigger": false,
      "taf_trigger": false,
      "metar": "METAR EHEH 191855Z AUTO 20007KT 160V230 9999 OVC300 31/18 Q1013 BLU NOSIG RMK TREND REMOTE BY EHWX",
      "taf": "TAF EHEH 191741Z 1918/2024 20008KT CAVOK"
    },
    {
      "icao": "EKBI",
      "alert": "OK",
      "vis_m": 9999,
      "fzfg": false,
      "metar_trigger": false,
      "taf_trigger": false,
      "metar": "METAR EKBI 191850Z AUTO 15007KT 120V180 9999 NCD 24/20 Q1015",
      "taf": "TAF EKBI 191727Z 1918/2018 16006KT 9999 SCT030"
    },
    {
      "icao": "EKCH",
      "alert": "OK",
      "vis_m": 9999,
      "fzfg": false,
      "metar_trigger": false,
      "taf_trigger": false,
      "metar": "METAR EKCH 191850Z AUTO 14007KT 9999 NCD 20/17 Q1017 NOSIG",
      "taf": "TAF EKCH 191727Z 1918/2018 16007KT CAVOK"
    },
    {
      "icao": "ENAL",
      "alert": "OK",
      "vis_m": 9999,
      "fzfg": false,
      "metar_trigger": false,
      "taf_trigger": false,
      "metar": "METAR ENAL 191850Z 21009KT 9999 -RA BKN038 17/15 Q1004",
      "taf": "TAF ENAL 191700Z 1918/2003 13007KT 9999 -RA FEW015 BKN040"
    },
    {
      "icao": "ENBR",
      "alert": "OK",
      "vis_m": 9999,
      "fzfg": false,
      "metar_trigger": false,
      "taf_trigger": false,
      "metar": "METAR ENBR 191850Z 19012KT 9999 BKN022 17/14 Q1008 NOSIG RMK WIND 1200FT 18023KT",
      "taf": "TAF ENBR 191700Z 1918/2018 17018KT 9999 BKN025"
    },
    {
      "icao": "ENGM",
      "alert": "OK",
      "vis_m": 9999,
      "fzfg": false,
      "metar_trigger": false,
      "taf_trigger": false,
      "metar": "METAR ENGM 191850Z 20013KT 9999 BKN022 18/13 Q1013 NOSIG",
      "taf": "TAF ENGM 191700Z 1918/2018 20012KT 9999 BKN025"
    },
    {
      "icao": "ENHD",
      "alert": "OK",
      "vis_m": 9999,
      "fzfg": false,
      "metar_trigger": false,
      "taf_trigger": false,
      "metar": "METAR ENHD 191850Z 17016KT CAVOK 19/15 Q1009",
      "taf": "TAF ENHD 191400Z 1915/1922 17015KT 9999 BKN030"
    },
    {
      "icao": "ENTC",
      "alert": "OK",
      "vis_m": 9999,
      "fzfg": false,
      "metar_trigger": false,
      "taf_trigger": false,
      "metar": "METAR ENTC 191850Z 02005KT 350V050 9999 SCT013 BKN021 11/07 Q1012 NOSIG RMK WIND 2600FT 23007KT",
      "taf": "TAF ENTC 191700Z 1918/2018 02006KT 9999 BKN040"
    },
    {
      "icao": "ENTO",
      "alert": "OK",
      "vis_m": 9999,
      "fzfg": false,
      "metar_trigger": false,
      "taf_trigger": false,
      "metar": "METAR ENTO 191850Z 18010KT 9999 FEW021 BKN034 18/15 Q1014 NOSIG",
      "taf": "TAF ENTO 191700Z 1918/2018 19008KT 9999 FEW010 BKN040"
    },
    {
      "icao": "ENVA",
      "alert": "OK",
      "vis_m": 9999,
      "fzfg": false,
      "metar_trigger": false,
      "taf_trigger": false,
      "metar": "METAR ENVA 191850Z 18011KT 9999 -RA NSC 21/13 Q1007 NOSIG RMK WIND 670FT 19018G29KT",
      "taf": ""
    },
    {
      "icao": "ENZV",
      "alert": "OK",
      "vis_m": 9999,
      "fzfg": false,
      "metar_trigger": false,
      "taf_trigger": false,
      "metar": "METAR ENZV 191850Z 18012KT 9999 BKN042 21/16 Q1010 NOSIG",
      "taf": "TAF ENZV 191700Z 1918/2018 17015KT 9999 SCT020"
    },
    {
      "icao": "EPGD",
      "alert": "OK",
      "vis_m": 9999,
      "fzfg": false,
      "metar_trigger": false,
      "taf_trigger": false,
      "metar": "METAR EPGD 191900Z 10006KT CAVOK 19/15 Q1020",
      "taf": "TAF EPGD 191730Z 1918/2018 VRB05KT 9999 SCT040"
    },
    {
      "icao": "EPKK",
      "alert": "OK",
      "vis_m": 9999,
      "fzfg": false,
      "metar_trigger": false,
      "taf_trigger": false,
      "metar": "METAR EPKK 191900Z VRB02KT CAVOK 25/17 Q1020",
      "taf": "TAF EPKK 191730Z 1918/2018 VRB02KT CAVOK"
    },
    {
      "icao": "EPKT",
      "alert": "OK",
      "vis_m": 9999,
      "fzfg": false,
      "metar_trigger": false,
      "taf_trigger": false,
      "metar": "METAR EPKT 191900Z 08006KT CAVOK 23/18 Q1020",
      "taf": "TAF EPKT 191730Z 1918/2018 VRB02KT CAVOK"
    },
    {
      "icao": "EPLB",
      "alert": "OK",
      "vis_m": 9999,
      "fzfg": false,
      "metar_trigger": false,
      "taf_trigger": false,
      "metar": "METAR EPLB 191900Z 05003KT 350V080 CAVOK 20/13 Q1021",
      "taf": ""
    },
    {
      "icao": "EPMO",
      "alert": "OK",
      "vis_m": 9999,
      "fzfg": false,
      "metar_trigger": false,
      "taf_trigger": false,
      "metar": "METAR EPMO 191900Z 09003KT CAVOK 22/15 Q1020",
      "taf": "TAF EPMO 191730Z 1918/2018 33005KT CAVOK"
    },
    {
      "icao": "EPPO",
      "alert": "OK",
      "vis_m": 9999,
      "fzfg": false,
      "metar_trigger": false,
      "taf_trigger": false,
      "metar": "METAR EPPO 191900Z 20010KT 9999 -SHRA SCT037CB 19/18 Q1019 RETSRA",
      "taf": ""
    },
    {
      "icao": "EPRA",
      "alert": "OK",
      "vis_m": 9999,
      "fzfg": false,
      "metar_trigger": false,
      "taf_trigger": false,
      "metar": "METAR EPRA 191900Z 06002KT CAVOK 23/12 Q1020",
      "taf": "TAF EPRA 191730Z 1918/2003 04006KT CAVOK"
    },
    {
      "icao": "EPRZ",
      "alert": "OK",
      "vis_m": 9999,
      "fzfg": false,
      "metar_trigger": false,
      "taf_trigger": false,
      "metar": "METAR EPRZ 191900Z 01003KT CAVOK 24/14 Q1020",
      "taf": "TAF EPRZ 191730Z 1918/2018 36010KT CAVOK"
    },
    {
      "icao": "EPSC",
      "alert": "OK",
      "vis_m": 9999,
      "fzfg": false,
      "metar_trigger": false,
      "taf_trigger": false,
      "metar": "METAR EPSC 191900Z 12006KT CAVOK 23/20 Q1017",
      "taf": "TAF EPSC 191730Z 1918/2018 10010KT CAVOK"
    },
    {
      "icao": "EPSY",
      "alert": "OK",
      "vis_m": 9999,
      "fzfg": false,
      "metar_trigger": false,
      "taf_trigger": false,
      "metar": "METAR EPSY 191900Z VRB02KT CAVOK 19/15 Q1021",
      "taf": "TAF EPSY 191730Z 1918/2003 VRB02KT CAVOK"
    },
    {
      "icao": "EPWA",
      "alert": "OK",
      "vis_m": 9999,
      "fzfg": false,
      "metar_trigger": false,
      "taf_trigger": false,
      "metar": "METAR EPWA 191900Z 08006KT 040V100 CAVOK 24/13 Q1020 NOSIG",
      "taf": ""
    },
    {
      "icao": "EPWR",
      "alert": "OK",
      "vis_m": 9999,
      "fzfg": false,
      "metar_trigger": false,
      "taf_trigger": false,
      "metar": "METAR EPWR 191900Z 13005KT 9999 TS FEW045CB 27/18 Q1018",
      "taf": "TAF EPWR 191730Z 1918/2018 13010KT CAVOK"
    },
    {
      "icao": "ESGG",
      "alert": "OK",
      "vis_m": 9999,
      "fzfg": false,
      "metar_trigger": false,
      "taf_trigger": false,
      "metar": "METAR ESGG 191850Z 21008KT CAVOK 22/17 Q1016",
      "taf": "TAF ESGG 191730Z 1918/2018 18010KT CAVOK"
    },
    {
      "icao": "ESKN",
      "alert": "OK",
      "vis_m": 9999,
      "fzfg": false,
      "metar_trigger": false,
      "taf_trigger": false,
      "metar": "METAR ESKN 191850Z 14006KT CAVOK 21/14 Q1016",
      "taf": "TAF ESKN 191730Z 1918/2018 18008KT CAVOK"
    },
    {
      "icao": "ESMS",
      "alert": "OK",
      "vis_m": 9999,
      "fzfg": false,
      "metar_trigger": false,
      "taf_trigger": false,
      "metar": "METAR ESMS 191850Z 15005KT 110V170 CAVOK 21/19 Q1017",
      "taf": "TAF ESMS 191727Z 1918/2018 16004KT CAVOK"
    },
    {
      "icao": "ESSA",
      "alert": "OK",
      "vis_m": 9999,
      "fzfg": false,
      "metar_trigger": false,
      "taf_trigger": false,
      "metar": "METAR ESSA 191850Z 22006KT CAVOK 20/11 Q1015 NOSIG",
      "taf": "TAF ESSA 191730Z 1918/2018 25010KT CAVOK"
    },
    {
      "icao": "EYKA",
      "alert": "OK",
      "vis_m": 9999,
      "fzfg": false,
      "metar_trigger": false,
      "taf_trigger": false,
      "metar": "METAR EYKA 191850Z 25003KT CAVOK 20/13 Q1020",
      "taf": "TAF EYKA 191700Z 1918/2018 VRB03KT 8000 FEW045"
    },
    {
      "icao": "EYPA",
      "alert": "OK",
      "vis_m": 9999,
      "fzfg": false,
      "metar_trigger": false,
      "taf_trigger": false,
      "metar": "METAR EYPA 191850Z 21003KT CAVOK 17/13 Q1020",
      "taf": "TAF EYPA 191700Z 1918/2018 VRB03KT 8000 NSC"
    },
    {
      "icao": "EYVI",
      "alert": "OK",
      "vis_m": 9999,
      "fzfg": false,
      "metar_trigger": false,
      "taf_trigger": false,
      "metar": "METAR EYVI 191850Z 27004KT CAVOK 20/11 Q1020 NOSIG",
      "taf": "TAF EYVI 191700Z 1918/2018 VRB03KT 8000 FEW045"
    },
    {
      "icao": "GCFV",
      "alert": "OK",
      "vis_m": 9999,
      "fzfg": false,
      "metar_trigger": false,
      "taf_trigger": false,
      "metar": "METAR GCFV 191830Z 01015KT 9999 FEW020 25/13 Q1016",
      "taf": "TAF GCFV 191400Z 1915/2015 06015KT 9999 FEW020 TX25/2014Z TN20/2006Z"
    },
    {
      "icao": "GCLP",
      "alert": "OK",
      "vis_m": 9999,
      "fzfg": false,
      "metar_trigger": false,
      "taf_trigger": false,
      "metar": "METAR GCLP 191830Z 02019KT 9999 FEW025 24/16 Q1016 NOSIG",
      "taf": "TAF GCLP 191400Z 1915/2015 02022KT 9999 FEW025 TX26/2014Z TN20/2006Z"
    },
    {
      "icao": "GCTS",
      "alert": "OK",
      "vis_m": 9999,
      "fzfg": false,
      "metar_trigger": false,
      "taf_trigger": false,
      "metar": "METAR GCTS 191830Z 10013KT 070V130 9999 FEW030 23/16 Q1017 NOSIG",
      "taf": "TAF GCTS 191400Z 1915/2015 09015KT 9999 SCT025 TX26/2014Z TN19/2006Z"
    },
    {
      "icao": "GMAD",
      "alert": "OK",
      "vis_m": 8000,
      "fzfg": false,
      "metar_trigger": false,
      "taf_trigger": false,
      "metar": "METAR GMAD 191830Z 24013KT 8000 NSC 23/17 Q1013 NOSIG",
      "taf": "TAF GMAD 191700Z 1918/2024 24014KT 8000 FEW020"
    },
    {
      "icao": "GMMN",
      "alert": "OK",
      "vis_m": 9999,
      "fzfg": false,
      "metar_trigger": false,
      "taf_trigger": false,
      "metar": "METAR GMMN 191830Z 28011KT 9999 FEW026 24/18 Q1014 NOSIG",
      "taf": "TAF GMMN 191700Z 1918/2024 30010KT CAVOK"
    },
    {
      "icao": "GMMX",
      "alert": "OK",
      "vis_m": 8000,
      "fzfg": false,
      "metar_trigger": false,
      "taf_trigger": false,
      "metar": "METAR GMMX 191830Z 33009KT 290V020 8000 SCT030 30/18 Q1013 NOSIG",
      "taf": "TAF GMMX 191700Z 1918/2024 24004KT 8000 SCT030"
    },
    {
      "icao": "HEGN",
      "alert": "OK",
      "vis_m": 9999,
      "fzfg": false,
      "metar_trigger": false,
      "taf_trigger": false,
      "metar": "METAR HEGN 191800Z 32013KT CAVOK 33/11 Q1007 NOSIG",
      "taf": "TAF HEGN 191700Z 1918/2024 33015KT CAVOK"
    },
    {
      "icao": "HEMA",
      "alert": "OK",
      "vis_m": 9999,
      "fzfg": false,
      "metar_trigger": false,
      "taf_trigger": false,
      "metar": "METAR HEMA 191800Z 32007KT CAVOK 29/10 Q1007 NOSIG",
      "taf": "TAF HEMA 191700Z 1918/2024 33015KT CAVOK"
    },
    {
      "icao": "HESH",
      "alert": "OK",
      "vis_m": 9999,
      "fzfg": false,
      "metar_trigger": false,
      "taf_trigger": false,
      "metar": "METAR HESH 191800Z 26002KT CAVOK 34/10 Q1006 NOSIG",
      "taf": "TAF HESH 191700Z 1918/2024 34012KT CAVOK"
    },
    {
      "icao": "HESX",
      "alert": "OK",
      "vis_m": 9999,
      "fzfg": false,
      "metar_trigger": false,
      "taf_trigger": false,
      "metar": "METAR HESX 191800Z 34007KT CAVOK 27/16 Q1011 NOSIG",
      "taf": "TAF HESX 191700Z 1918/2024 36010KT 9999 SCT020"
    },
    {
      "icao": "LATI",
      "alert": "OK",
      "vis_m": 9999,
      "fzfg": false,
      "metar_trigger": false,
      "taf_trigger": false,
      "metar": "METAR LATI 191850Z 32005KT 290V350 CAVOK 24/18 Q1016 NOSIG",
      "taf": "TAF LATI 191700Z 1918/2018 34010KT CAVOK TX35/2011Z TN17/2004Z"
    },
    {
      "icao": "LBPD",
      "alert": "OK",
      "vis_m": 9999,
      "fzfg": false,
      "metar_trigger": false,
      "taf_trigger": false,
      "metar": "METAR LBPD 191900Z AUTO 15006KT 9999 NCD 22/12 Q1020 NOSIG",
      "taf": "TAF LBPD 191700Z 1918/2018 10010KT 9999 SCT060"
    },
    {
      "icao": "LBSF",
      "alert": "OK",
      "vis_m": 9999,
      "fzfg": false,
      "metar_trigger": false,
      "taf_trigger": false,
      "metar": "METAR LBSF 191900Z AUTO 11004KT 040V160 9999 FEW014/// 19/11 Q1022 NOSIG",
      "taf": "TAF LBSF 191700Z 1918/2018 05010KT CAVOK"
    },
    {
      "icao": "LBWN",
      "alert": "OK",
      "vis_m": 9999,
      "fzfg": false,
      "metar_trigger": false,
      "taf_trigger": false,
      "metar": "METAR LBWN 191900Z AUTO 01004KT 9999 NSC 17/13 Q1019 NOSIG",
      "taf": "TAF LBWN 191700Z 1918/2018 10010KT 9999 SCT045"
    },
    {
      "icao": "LCLK",
      "alert": "OK",
      "vis_m": 9999,
      "fzfg": false,
      "metar_trigger": false,
      "taf_trigger": false,
      "metar": "METAR LCLK 191900Z 23006KT 9999 BKN039 25/21 Q1010 NOSIG",
      "taf": "TAF LCLK 191730Z 1918/2018 24007KT 9999 SCT025"
    },
    {
      "icao": "LCPH",
      "alert": "OK",
      "vis_m": 9999,
      "fzfg": false,
      "metar_trigger": false,
      "taf_trigger": false,
      "metar": "METAR LCPH 191900Z 00000KT 9999 FEW018 24/20 Q1010 NOSIG",
      "taf": "TAF LCPH 191730Z 1918/2018 02007KT 9999 FEW018"
    },
    {
      "icao": "LEAL",
      "alert": "OK",
      "vis_m": 9999,
      "fzfg": false,
      "metar_trigger": false,
      "taf_trigger": false,
      "metar": "METAR LEAL 191830Z 06007KT 020V100 CAVOK 28/22 Q1013 NOSIG",
      "taf": "TAF LEAL 191700Z 1918/2018 08012KT CAVOK TX33/2012Z TN23/2005Z"
    },
    {
      "icao": "LEBB",
      "alert": "OK",
      "vis_m": 9999,
      "fzfg": false,
      "metar_trigger": false,
      "taf_trigger": false,
      "metar": "METAR LEBB 191830Z VRB03KT 9999 -RA SCT015 BKN021 22/20 Q1017 NOSIG",
      "taf": ""
    },
    {
      "icao": "LEBL",
      "alert": "OK",
      "vis_m": 9999,
      "fzfg": false,
      "metar_trigger": false,
      "taf_trigger": false,
      "metar": "METAR LEBL 191830Z 07010KT CAVOK 26/20 Q1017 NOSIG",
      "taf": "TAF LEBL 191700Z 1918/2018 07012KT CAVOK TX30/2012Z TN23/2006Z"
    },
    {
      "icao": "LECH",
      "alert": "OK",
      "vis_m": 9999,
      "fzfg": false,
      "metar_trigger": false,
      "taf_trigger": false,
      "metar": "METAR LECH 191830Z AUTO 10005KT 070V140 CAVOK 24/20 Q1018",
      "taf": "TAF LECH 191700Z 1918/2018 09010KT CAVOK TX35/2012Z TN19/2005Z"
    },
    {
      "icao": "LEMD",
      "alert": "OK",
      "vis_m": 9999,
      "fzfg": false,
      "metar_trigger": false,
      "taf_trigger": false,
      "metar": "SPECI LEMD 191842Z 15008KT 9999 SCT110CB 34/08 Q1014 NOSIG",
      "taf": ""
    },
    {
      "icao": "LEMG",
      "alert": "OK",
      "vis_m": 9999,
      "fzfg": false,
      "metar_trigger": false,
      "taf_trigger": false,
      "metar": "METAR LEMG 191830Z 15006KT 110V170 CAVOK 26/17 Q1012 NOSIG",
      "taf": "TAF LEMG 191700Z 1918/2018 14007KT CAVOK TX31/2014Z TN22/2006Z"
    },
    {
      "icao": "LEVC",
      "alert": "OK",
      "vis_m": 9999,
      "fzfg": false,
      "metar_trigger": false,
      "taf_trigger": false,
      "metar": "METAR LEVC 191830Z 08010KT 9999 FEW025 26/21 Q1016 NOSIG",
      "taf": "TAF LEVC 191700Z 1918/2018 09010KT 9999 FEW015 TX32/2012Z TN20/2005Z"
    },
    {
      "icao": "LEXJ",
      "alert": "OK",
      "vis_m": 4000,
      "fzfg": false,
      "metar_trigger": false,
      "taf_trigger": false,
      "metar": "METAR LEXJ 191830Z 00000KT 4000 VCTS SCT007 BKN012CB 20/19 Q1016",
      "taf": "TAF LEXJ 191400Z 1915/2015 03007KT 9999 BKN016 TX25/2015Z TN20/2005Z"
    },
    {
      "icao": "LEZG",
      "alert": "OK",
      "vis_m": 9999,
      "fzfg": false,
      "metar_trigger": false,
      "taf_trigger": false,
      "metar": "METAR LEZG 191830Z 11012KT 080V150 CAVOK 33/11 Q1014 NOSIG",
      "taf": "TAF LEZG 191700Z 1918/2018 12012KT CAVOK TX39/2015Z TN22/2005Z"
    },
    {
      "icao": "LEZL",
      "alert": "OK",
      "vis_m": 9999,
      "fzfg": false,
      "metar_trigger": false,
      "taf_trigger": false,
      "metar": "METAR LEZL 191830Z 24011KT CAVOK 34/16 Q1010 NOSIG",
      "taf": "TAF LEZL 191400Z 1915/2015 VRB02KT CAVOK TX39/1915Z TN22/2006Z"
    },
    {
      "icao": "LFBD",
      "alert": "OK",
      "vis_m": 9999,
      "fzfg": false,
      "metar_trigger": false,
      "taf_trigger": false,
      "metar": "METAR LFBD 191900Z AUTO 35008KT CAVOK 29/18 Q1014 TEMPO VRB15G35KT 2000 TSRA BKN090CB",
      "taf": "TAF LFBD 191700Z 1918/2024 30010KT CAVOK TX36/2015Z TN20/2001Z"
    },
    {
      "icao": "LFLL",
      "alert": "OK",
      "vis_m": 9999,
      "fzfg": false,
      "metar_trigger": false,
      "taf_trigger": false,
      "metar": "METAR LFLL 191900Z 18006KT CAVOK 30/11 Q1018 NOSIG",
      "taf": "TAF LFLL 191700Z 1918/2024 19012KT CAVOK"
    },
    {
      "icao": "LFLS",
      "alert": "OK",
      "vis_m": 9999,
      "fzfg": false,
      "metar_trigger": false,
      "taf_trigger": false,
      "metar": "METAR LFLS 191900Z AUTO 24009KT 9999 2200 NSC 27/10 Q1019 NOSIG",
      "taf": "TAF LFLS 191400Z 1915/2015 22010KT CAVOK"
    },
    {
      "icao": "LFMN",
      "alert": "OK",
      "vis_m": 9999,
      "fzfg": false,
      "metar_trigger": false,
      "taf_trigger": false,
      "metar": "METAR LFMN 191900Z VRB02KT CAVOK 25/22 Q1018 NOSIG",
      "taf": "TAF LFMN 191400Z 1915/2021 18005KT CAVOK"
    },
    {
      "icao": "LFOB",
      "alert": "OK",
      "vis_m": 9999,
      "fzfg": false,
      "metar_trigger": false,
      "taf_trigger": false,
      "metar": "METAR LFOB 191900Z AUTO 36004KT 310V060 9999 ///TCU 22/18 Q1013 TEMPO VRB25G40KT 1200 TSRAGR BKN012 BKN020CB",
      "taf": ""
    },
    {
      "icao": "LFPO",
      "alert": "OK",
      "vis_m": 9999,
      "fzfg": false,
      "metar_trigger": false,
      "taf_trigger": false,
      "metar": "METAR LFPO 191900Z AUTO 35008KT 310V060 CAVOK 28/18 Q1014 TEMPO 3000 -TSRA FEW080CB",
      "taf": "TAF LFPO 191700Z 1918/2024 18008KT CAVOK"
    },
    {
      "icao": "LFSB",
      "alert": "OK",
      "vis_m": 9999,
      "fzfg": false,
      "metar_trigger": false,
      "taf_trigger": false,
      "metar": "METAR LFSB 191900Z AUTO 12009KT 090V150 9999 VCTS ///CB 28/15 Q1019 TEMPO 14015G25KT 4000 TSRA BECMG NSC",
      "taf": ""
    },
    {
      "icao": "LGAV",
      "alert": "OK",
      "vis_m": 9999,
      "fzfg": false,
      "metar_trigger": false,
      "taf_trigger": false,
      "metar": "METAR LGAV 191850Z 01008KT CAVOK 25/07 Q1017 NOSIG",
      "taf": "TAF LGAV 191700Z 1918/2018 02015KT 9999 FEW025"
    },
    {
      "icao": "LGTS",
      "alert": "OK",
      "vis_m": 9999,
      "fzfg": false,
      "metar_trigger": false,
      "taf_trigger": false,
      "metar": "METAR LGTS 191850Z 11004KT 9999 FEW025 24/17 Q1018 NOSIG",
      "taf": "TAF LGTS 191700Z 1918/2018 VRB03KT 9999 FEW030"
    },
    {
      "icao": "LHBP",
      "alert": "OK",
      "vis_m": 9999,
      "fzfg": false,
      "metar_trigger": false,
      "taf_trigger": false,
      "metar": "METAR LHBP 191900Z 11003KT CAVOK 27/13 Q1019 NOSIG",
      "taf": "TAF LHBP 191715Z 1918/2018 VRB04KT CAVOK"
    },
    {
      "icao": "LHDC",
      "alert": "OK",
      "vis_m": 9999,
      "fzfg": false,
      "metar_trigger": false,
      "taf_trigger": false,
      "metar": "METAR LHDC 191845Z AUTO 10003KT CAVOK 26/14 Q1020",
      "taf": "TAF LHDC 191415Z 1915/1924 VRB03KT CAVOK"
    },
    {
      "icao": "LIBD",
      "alert": "OK",
      "vis_m": 9999,
      "fzfg": false,
      "metar_trigger": false,
      "taf_trigger": false,
      "metar": "METAR LIBD 191850Z 32002KT CAVOK 25/17 Q1017",
      "taf": "TAF LIBD 191700Z 1918/2018 VRB05KT CAVOK"
    },
    {
      "icao": "LIBG",
      "alert": "OK",
      "vis_m": 9999,
      "fzfg": false,
      "metar_trigger": false,
      "taf_trigger": false,
      "metar": "METAR LIBG 191850Z AUTO 03006KT 9999 NCD 27/13 Q1017",
      "taf": "TAF LIBG 191700Z 1918/2018 VRB05KT 9999 SCT030"
    },
    {
      "icao": "LIBP",
      "alert": "OK",
      "vis_m": 9999,
      "fzfg": false,
      "metar_trigger": false,
      "taf_trigger": false,
      "metar": "METAR LIBP 191850Z AUTO 32002KT 9999 NCD 27/18 Q1018",
      "taf": "TAF LIBP 191700Z 1918/2018 VRB05KT CAVOK"
    },
    {
      "icao": "LIBR",
      "alert": "OK",
      "vis_m": 9999,
      "fzfg": false,
      "metar_trigger": false,
      "taf_trigger": false,
      "metar": "METAR LIBR 191850Z 32005KT CAVOK 24/22 Q1017",
      "taf": "TAF LIBR 191700Z 1918/2018 35012KT CAVOK"
    },
    {
      "icao": "LICA",
      "alert": "OK",
      "vis_m": 9999,
      "fzfg": false,
      "metar_trigger": false,
      "taf_trigger": false,
      "metar": "METAR LICA 191850Z AUTO 17004KT 9999 FEW015/// BKN070/// 25/23 Q1017",
      "taf": "TAF LICA 191700Z 1918/2018 26010KT 9999 SCT015"
    },
    {
      "icao": "LICC",
      "alert": "OK",
      "vis_m": 9999,
      "fzfg": false,
      "metar_trigger": false,
      "taf_trigger": false,
      "metar": "METAR LICC 191850Z 08005KT CAVOK 27/16 Q1017",
      "taf": "TAF LICC 191700Z 1918/2018 09012KT 9999 FEW040"
    },
    {
      "icao": "LICJ",
      "alert": "OK",
      "vis_m": 9999,
      "fzfg": false,
      "metar_trigger": false,
      "taf_trigger": false,
      "metar": "METAR LICJ 191850Z 07011KT CAVOK 26/22 Q1017",
      "taf": "TAF LICJ 191700Z 1918/2018 04014KT CAVOK"
    },
    {
      "icao": "LIMC",
      "alert": "OK",
      "vis_m": 9999,
      "fzfg": false,
      "metar_trigger": false,
      "taf_trigger": false,
      "metar": "METAR LIMC 191850Z 19003KT CAVOK 30/16 Q1018 NOSIG",
      "taf": "TAF LIMC 191700Z 1918/2024 VRB05KT 9999 FEW050"
    },
    {
      "icao": "LIME",
      "alert": "OK",
      "vis_m": 9999,
      "fzfg": false,
      "metar_trigger": false,
      "taf_trigger": false,
      "metar": "METAR LIME 191850Z 19004KT 160V220 CAVOK 31/18 Q1018 NOSIG",
      "taf": "TAF LIME 191700Z 1918/2018 VRB05KT 9999 FEW040"
    },
    {
      "icao": "LIMF",
      "alert": "OK",
      "vis_m": 9999,
      "fzfg": false,
      "metar_trigger": false,
      "taf_trigger": false,
      "metar": "METAR LIMF 191850Z 02003KT CAVOK 30/19 Q1018",
      "taf": "TAF LIMF 191700Z 1918/2018 VRB05KT 9999 FEW050"
    },
    {
      "icao": "LIMJ",
      "alert": "OK",
      "vis_m": 9999,
      "fzfg": false,
      "metar_trigger": false,
      "taf_trigger": false,
      "metar": "METAR LIMJ 191850Z 26004KT CAVOK 26/22 Q1017",
      "taf": "TAF LIMJ 191700Z 1918/2018 VRB05KT CAVOK"
    },
    {
      "icao": "LIPE",
      "alert": "OK",
      "vis_m": 9999,
      "fzfg": false,
      "metar_trigger": false,
      "taf_trigger": false,
      "metar": "METAR LIPE 191850Z 10009KT CAVOK 30/17 Q1017",
      "taf": "TAF LIPE 191700Z 1918/2018 VRB05KT CAVOK"
    },
    {
      "icao": "LIPH",
      "alert": "OK",
      "vis_m": 9999,
      "fzfg": false,
      "metar_trigger": false,
      "taf_trigger": false,
      "metar": "METAR LIPH 191850Z 13004KT CAVOK 29/17 Q1017",
      "taf": "TAF LIPH 191700Z 1918/2018 VRB05KT 9999 SCT045"
    },
    {
      "icao": "LIPQ",
      "alert": "OK",
      "vis_m": 9999,
      "fzfg": false,
      "metar_trigger": false,
      "taf_trigger": false,
      "metar": "METAR LIPQ 191850Z AUTO 17003KT 9999 NCD 26/22 Q1018",
      "taf": "TAF LIPQ 191700Z 1918/2018 VRB05KT CAVOK"
    },
    {
      "icao": "LIPR",
      "alert": "OK",
      "vis_m": 9999,
      "fzfg": false,
      "metar_trigger": false,
      "taf_trigger": false,
      "metar": "METAR LIPR 191850Z AUTO 11005KT 9999 NCD 27/20 Q1017",
      "taf": "TAF LIPR 191700Z 1918/2018 VRB05KT CAVOK"
    },
    {
      "icao": "LIPX",
      "alert": "OK",
      "vis_m": 9999,
      "fzfg": false,
      "metar_trigger": false,
      "taf_trigger": false,
      "metar": "METAR LIPX 191850Z 14005KT 9999 FEW070 30/21 Q1017",
      "taf": "TAF LIPX 191700Z 1918/2018 VRB05KT 9999 FEW040"
    },
    {
      "icao": "LIPY",
      "alert": "OK",
      "vis_m": 9999,
      "fzfg": false,
      "metar_trigger": false,
      "taf_trigger": false,
      "metar": "METAR LIPY 191850Z AUTO VRB02KT 9999 NCD 29/14 Q1017",
      "taf": "TAF LIPY 191700Z 1918/2018 VRB05KT CAVOK"
    },
    {
      "icao": "LIPZ",
      "alert": "OK",
      "vis_m": 9999,
      "fzfg": false,
      "metar_trigger": false,
      "taf_trigger": false,
      "metar": "METAR LIPZ 191850Z 15003KT CAVOK 27/21 Q1018 NOSIG",
      "taf": "TAF LIPZ 191700Z 1918/2024 VRB05KT CAVOK"
    },
    {
      "icao": "LIRF",
      "alert": "OK",
      "vis_m": 9999,
      "fzfg": false,
      "metar_trigger": false,
      "taf_trigger": false,
      "metar": "METAR LIRF 191850Z 25006KT CAVOK 26/20 Q1017 NOSIG",
      "taf": "TAF LIRF 191700Z 1918/2024 VRB05KT CAVOK"
    },
    {
      "icao": "LIRN",
      "alert": "OK",
      "vis_m": 9999,
      "fzfg": false,
      "metar_trigger": false,
      "taf_trigger": false,
      "metar": "METAR LIRN 191850Z 29004KT 270V360 CAVOK 28/15 Q1018 NOSIG",
      "taf": "TAF LIRN 191700Z 1918/2018 VRB05KT CAVOK"
    },
    {
      "icao": "LIRP",
      "alert": "OK",
      "vis_m": 9999,
      "fzfg": false,
      "metar_trigger": false,
      "taf_trigger": false,
      "metar": "METAR LIRP 191845Z 29006KT CAVOK 26/19 Q1018 NOSIG",
      "taf": "TAF LIRP 191700Z 1918/2018 29007KT CAVOK"
    },
    {
      "icao": "LIRZ",
      "alert": "OK",
      "vis_m": 9999,
      "fzfg": false,
      "metar_trigger": false,
      "taf_trigger": false,
      "metar": "METAR LIRZ 191850Z AUTO 03007KT 9999 NCD 30/16 Q1017",
      "taf": "TAF LIRZ 191700Z 1918/2018 VRB05KT 9999 FEW035"
    },
    {
      "icao": "LJLJ",
      "alert": "OK",
      "vis_m": 9999,
      "fzfg": false,
      "metar_trigger": false,
      "taf_trigger": false,
      "metar": "METAR LJLJ 191830Z 06008KT 9999 SCT055 27/19 Q1019 NOSIG",
      "taf": "TAF LJLJ 191700Z 1918/2018 08005KT 9999 FEW060"
    },
    {
      "icao": "LKMT",
      "alert": "OK",
      "vis_m": 9999,
      "fzfg": false,
      "metar_trigger": false,
      "taf_trigger": false,
      "metar": "METAR LKMT 191900Z 13003KT CAVOK 26/18 Q1019 NOSIG",
      "taf": "TAF LKMT 191700Z 1918/2018 VRB02KT CAVOK"
    },
    {
      "icao": "LKPR",
      "alert": "OK",
      "vis_m": 9999,
      "fzfg": false,
      "metar_trigger": false,
      "taf_trigger": false,
      "metar": "METAR LKPR 191900Z 14006KT CAVOK 27/15 Q1018 NOSIG",
      "taf": "TAF LKPR 191700Z 1918/2024 17006KT CAVOK"
    },
    {
      "icao": "LLBG",
      "alert": "OK",
      "vis_m": 9999,
      "fzfg": false,
      "metar_trigger": false,
      "taf_trigger": false,
      "metar": "METAR LLBG 191850Z VRB03KT CAVOK 24/17 Q1011 NOSIG",
      "taf": "TAF LLBG 191702Z 1918/2018 VRB03KT CAVOK TX30/2011Z TN20/2003Z"
    },
    {
      "icao": "LMML",
      "alert": "OK",
      "vis_m": 9999,
      "fzfg": false,
      "metar_trigger": false,
      "taf_trigger": false,
      "metar": "METAR LMML 191845Z 02005KT CAVOK 26/20 Q1018 NOSIG",
      "taf": "TAF LMML 191700Z 1918/2018 VRB05KT 9999 FEW015"
    },
    {
      "icao": "LOWW",
      "alert": "OK",
      "vis_m": 9999,
      "fzfg": false,
      "metar_trigger": false,
      "taf_trigger": false,
      "metar": "METAR LOWW 191850Z 14005KT CAVOK 27/16 Q1018 NOSIG",
      "taf": "TAF LOWW 191715Z 1918/2024 12005KT CAVOK TX34/2014Z TN20/2003Z"
    },
    {
      "icao": "LPFR",
      "alert": "OK",
      "vis_m": 9999,
      "fzfg": false,
      "metar_trigger": false,
      "taf_trigger": false,
      "metar": "METAR LPFR 191830Z 27010KT CAVOK 26/17 Q1012",
      "taf": "TAF LPFR 191700Z 1918/2018 25008KT CAVOK"
    },
    {
      "icao": "LPMA",
      "alert": "OK",
      "vis_m": 9999,
      "fzfg": false,
      "metar_trigger": false,
      "taf_trigger": false,
      "metar": "METAR LPMA 191830Z 07004KT 010V150 9999 SCT015 23/16 Q1017",
      "taf": "TAF LPMA 191700Z 1918/2018 VRB05KT 9999 SCT015"
    },
    {
      "icao": "LPPR",
      "alert": "OK",
      "vis_m": 9999,
      "fzfg": false,
      "metar_trigger": false,
      "taf_trigger": false,
      "metar": "METAR LPPR 191830Z 32009KT 280V350 9999 FEW009 20/17 Q1015",
      "taf": "TAF LPPR 191700Z 1918/2018 32008KT CAVOK"
    },
    {
      "icao": "LPPS",
      "alert": "OK",
      "vis_m": 9999,
      "fzfg": false,
      "metar_trigger": false,
      "taf_trigger": false,
      "metar": "METAR LPPS 191830Z 31008KT 290V350 9999 FEW014 23/17 Q1018",
      "taf": "TAF LPPS 191700Z 1918/2024 VRB05KT 9999 SCT015"
    },
    {
      "icao": "LPPT",
      "alert": "OK",
      "vis_m": 9999,
      "fzfg": false,
      "metar_trigger": false,
      "taf_trigger": false,
      "metar": "METAR LPPT 191830Z 31011KT 9999 FEW015 24/14 Q1014",
      "taf": "TAF LPPT 191700Z 1918/2024 31012KT CAVOK"
    },
    {
      "icao": "LQBK",
      "alert": "OK",
      "vis_m": 9999,
      "fzfg": false,
      "metar_trigger": false,
      "taf_trigger": false,
      "metar": "METAR LQBK 191830Z 23001KT CAVOK 26/18 Q1019 NOSIG",
      "taf": "TAF LQBK 191700Z 1918/2018 15005KT CAVOK TX34/2014Z TN18/2003Z"
    },
    {
      "icao": "LQSA",
      "alert": "OK",
      "vis_m": 9999,
      "fzfg": false,
      "metar_trigger": false,
      "taf_trigger": false,
      "metar": "METAR LQSA 191830Z VRB01KT 9999 FEW065 24/14 Q1021 NOSIG",
      "taf": "TAF LQSA 191700Z 1918/2018 VRB02KT 9999 FEW060 TX32/2014Z TN16/2003Z"
    },
    {
      "icao": "LQTZ",
      "alert": "OK",
      "vis_m": 9999,
      "fzfg": false,
      "metar_trigger": false,
      "taf_trigger": false,
      "metar": "METAR LQTZ 191830Z VRB01KT CAVOK 24/17 Q1020",
      "taf": "TAF LQTZ 191700Z 1918/2018 06005KT CAVOK TX32/2014Z TN16/2003Z"
    },
    {
      "icao": "LRBC",
      "alert": "OK",
      "vis_m": 9999,
      "fzfg": false,
      "metar_trigger": false,
      "taf_trigger": false,
      "metar": "METAR LRBC 191830Z 28003KT CAVOK 20/16 Q1020",
      "taf": "TAF LRBC 191700Z 1918/2003 VRB04KT CAVOK"
    },
    {
      "icao": "LRBS",
      "alert": "OK",
      "vis_m": 9999,
      "fzfg": false,
      "metar_trigger": false,
      "taf_trigger": false,
      "metar": "METAR LRBS 191830Z 06003KT CAVOK 23/12 Q1020 NOSIG",
      "taf": "TAF LRBS 191700Z 1918/2018 VRB04KT CAVOK"
    },
    {
      "icao": "LRBV",
      "alert": "OK",
      "vis_m": 9999,
      "fzfg": false,
      "metar_trigger": false,
      "taf_trigger": false,
      "metar": "METAR LRBV 191830Z VRB01KT 9999 FEW060 22/14 Q1022",
      "taf": "TAF LRBV 191700Z 1918/2003 VRB04KT 9999 BKN075"
    },
    {
      "icao": "LRCL",
      "alert": "OK",
      "vis_m": 9999,
      "fzfg": false,
      "metar_trigger": false,
      "taf_trigger": false,
      "metar": "METAR LRCL 191830Z 35004KT CAVOK 22/14 Q1020",
      "taf": "TAF LRCL 191700Z 1918/2003 VRB04KT CAVOK"
    },
    {
      "icao": "LRCV",
      "alert": "OK",
      "vis_m": 9999,
      "fzfg": false,
      "metar_trigger": false,
      "taf_trigger": false,
      "metar": "METAR LRCV 191830Z 16003KT CAVOK 24/14 Q1020",
      "taf": "TAF LRCV 191700Z 1918/2003 VRB04KT CAVOK"
    },
    {
      "icao": "LRIA",
      "alert": "OK",
      "vis_m": 9999,
      "fzfg": false,
      "metar_trigger": false,
      "taf_trigger": false,
      "metar": "METAR LRIA 191830Z 02003KT CAVOK 22/14 Q1019",
      "taf": "TAF LRIA 191700Z 1918/2003 VRB04KT CAVOK"
    },
    {
      "icao": "LROP",
      "alert": "OK",
      "vis_m": 9999,
      "fzfg": false,
      "metar_trigger": false,
      "taf_trigger": false,
      "metar": "METAR LROP 191830Z 10004KT CAVOK 23/12 Q1020 NOSIG",
      "taf": "TAF LROP 191700Z 1918/2018 VRB04KT CAVOK"
    },
    {
      "icao": "LRSB",
      "alert": "OK",
      "vis_m": 9999,
      "fzfg": false,
      "metar_trigger": false,
      "taf_trigger": false,
      "metar": "METAR LRSB 191830Z 25006KT 240V300 CAVOK 20/14 Q1021",
      "taf": "TAF LRSB 191700Z 1918/2018 VRB04KT CAVOK"
    },
    {
      "icao": "LRSM",
      "alert": "OK",
      "vis_m": 9999,
      "fzfg": false,
      "metar_trigger": false,
      "taf_trigger": false,
      "metar": "METAR LRSM 191830Z AUTO 11003KT 9999 NCD 24/17 Q1020",
      "taf": "TAF LRSM 191400Z 1915/1924 VRB04KT CAVOK"
    },
    {
      "icao": "LRSV",
      "alert": "OK",
      "vis_m": 9999,
      "fzfg": false,
      "metar_trigger": false,
      "taf_trigger": false,
      "metar": "METAR LRSV 191830Z 21003KT 9999 FEW048TCU 22/16 Q1021",
      "taf": "TAF LRSV 191700Z 1918/2003 VRB04KT CAVOK"
    },
    {
      "icao": "LRTM",
      "alert": "OK",
      "vis_m": 9999,
      "fzfg": false,
      "metar_trigger": false,
      "taf_trigger": false,
      "metar": "METAR LRTM 191830Z VRB02KT CAVOK 24/17 Q1020",
      "taf": "TAF LRTM 191700Z 1918/2003 VRB04KT CAVOK"
    },
    {
      "icao": "LRTR",
      "alert": "OK",
      "vis_m": 9999,
      "fzfg": false,
      "metar_trigger": false,
      "taf_trigger": false,
      "metar": "METAR LRTR 191830Z 03005KT CAVOK 23/15 Q1019",
      "taf": "TAF LRTR 191700Z 1918/2018 VRB04KT CAVOK"
    },
    {
      "icao": "LTAC",
      "alert": "OK",
      "vis_m": 9999,
      "fzfg": false,
      "metar_trigger": false,
      "taf_trigger": false,
      "metar": "METAR LTAC 191850Z 07009KT 9999 BKN040 BKN100 16/11 Q1018 NOSIG RMK RWY21C 06008KT RWY03L 06008KT RWY21R 05008KT RWY03R 04007KT RWY21L 05007KT",
      "taf": "TAF LTAC 191640Z 1918/2018 03009KT 9999 SCT040 SCT100"
    },
    {
      "icao": "LTFM",
      "alert": "OK",
      "vis_m": 9999,
      "fzfg": false,
      "metar_trigger": false,
      "taf_trigger": false,
      "metar": "METAR LTFM 191850Z 05015KT 010V070 9999 BKN013 22/18 Q1018 NOSIG RMK RWY17L 06012KT RWY34L 04012KT RWY16R 06013KT RWY36 05013KT RWY18 06013KT",
      "taf": "TAF LTFM 191640Z 1918/2024 04011KT 9999 BKN012"
    },
    {
      "icao": "LUKK",
      "alert": "OK",
      "vis_m": 9999,
      "fzfg": false,
      "metar_trigger": false,
      "taf_trigger": false,
      "metar": "METAR LUKK 191830Z 35003KT CAVOK 24/17 Q1019 NOSIG",
      "taf": "TAF LUKK 191703Z 1918/2018 VRB06KT CAVOK"
    },
    {
      "icao": "LWOH",
      "alert": "OK",
      "vis_m": 9999,
      "fzfg": false,
      "metar_trigger": false,
      "taf_trigger": false,
      "metar": "METAR LWOH 191850Z 30004KT 9999 FEW035 20/11 Q1020",
      "taf": "TAF LWOH 191730Z 1918/2018 33008KT 9999 FEW040"
    },
    {
      "icao": "LWSK",
      "alert": "OK",
      "vis_m": 9999,
      "fzfg": false,
      "metar_trigger": false,
      "taf_trigger": false,
      "metar": "METAR LWSK 191850Z 02009KT 9999 SCT050 SCT080 25/13 Q1019 NOSIG",
      "taf": "TAF LWSK 191730Z 1918/2018 03010KT CAVOK"
    },
    {
      "icao": "LYBE",
      "alert": "OK",
      "vis_m": 9999,
      "fzfg": false,
      "metar_trigger": false,
      "taf_trigger": false,
      "metar": "METAR LYBE 191830Z 34003KT CAVOK 26/16 Q1019 NOSIG",
      "taf": "TAF LYBE 191700Z 1918/2018 04005KT CAVOK TX32/2014Z TN18/2003Z"
    },
    {
      "icao": "LYNI",
      "alert": "OK",
      "vis_m": 9999,
      "fzfg": false,
      "metar_trigger": false,
      "taf_trigger": false,
      "metar": "METAR LYNI 191830Z 01004KT 9999 FEW050 24/15 Q1019 NOSIG",
      "taf": "TAF LYNI 191700Z 1918/2018 35006KT CAVOK TX32/2014Z TN15/2003Z"
    },
    {
      "icao": "LYPG",
      "alert": "OK",
      "vis_m": 9999,
      "fzfg": false,
      "metar_trigger": false,
      "taf_trigger": false,
      "metar": "METAR LYPG 191830Z VRB02KT CAVOK 29/16 Q1016 NOSIG",
      "taf": "TAF LYPG 191700Z 1918/2018 36008KT CAVOK TX34/2014Z TN22/2003Z"
    },
    {
      "icao": "LZIB",
      "alert": "OK",
      "vis_m": 9999,
      "fzfg": false,
      "metar_trigger": false,
      "taf_trigger": false,
      "metar": "METAR LZIB 191900Z 15005KT CAVOK 27/14 Q1018 NOSIG",
      "taf": "TAF LZIB 191715Z 1918/2018 12006KT CAVOK"
    },
    {
      "icao": "LZKZ",
      "alert": "OK",
      "vis_m": 9999,
      "fzfg": false,
      "metar_trigger": false,
      "taf_trigger": false,
      "metar": "METAR LZKZ 191900Z 01005KT CAVOK 24/19 Q1020 NOSIG",
      "taf": "TAF LZKZ 191715Z 1918/2018 VRB02KT CAVOK"
    },
    {
      "icao": "LZTT",
      "alert": "OK",
      "vis_m": 9999,
      "fzfg": false,
      "metar_trigger": false,
      "taf_trigger": false,
      "metar": "METAR LZTT 191900Z 34006KT 9999 FEW056 19/16 Q1022",
      "taf": "TAF LZTT 191715Z 1918/2018 06007KT 9999 SCT050"
    },
    {
      "icao": "OEJN",
      "alert": "OK",
      "vis_m": 9999,
      "fzfg": false,
      "metar_trigger": false,
      "taf_trigger": false,
      "metar": "METAR OEJN 191900Z 33010KT CAVOK 31/18 Q1005 NOSIG",
      "taf": "TAF OEJN 191700Z 1918/2024 36010KT CAVOK"
    },
    {
      "icao": "OEMA",
      "alert": "OK",
      "vis_m": 9999,
      "fzfg": false,
      "metar_trigger": false,
      "taf_trigger": false,
      "metar": "METAR OEMA 191900Z 27011KT CAVOK 39/M01 Q1010 NOSIG",
      "taf": "TAF OEMA 191700Z 1918/2024 29007KT CAVOK"
    },
    {
      "icao": "OJAI",
      "alert": "OK",
      "vis_m": 5000,
      "fzfg": false,
      "metar_trigger": false,
      "taf_trigger": false,
      "metar": "METAR OJAI 191800Z 29010KT 5000 HZ NSC 24/10 Q1014 NOSIG",
      "taf": "TAF OJAI 191655Z 1918/2024 28008KT 5000 HZ NSC"
    },
    {
      "icao": "OMAA",
      "alert": "OK",
      "vis_m": 9999,
      "fzfg": false,
      "metar_trigger": false,
      "taf_trigger": false,
      "metar": "METAR OMAA 191900Z 05007KT 020V080 CAVOK 35/16 Q1003 NOSIG",
      "taf": "TAF OMAA 191700Z 1918/2100 05006KT 8000 NSC"
    },
    {
      "icao": "OMDB",
      "alert": "OK",
      "vis_m": 9999,
      "fzfg": false,
      "metar_trigger": false,
      "taf_trigger": false,
      "metar": "METAR OMDB 191900Z 08004KT 050V120 CAVOK 39/12 Q1002 NOSIG",
      "taf": "TAF OMDB 191700Z 1918/2100 VRB02KT CAVOK"
    },
    {
      "icao": "UAAA",
      "alert": "OK",
      "vis_m": 9999,
      "fzfg": false,
      "metar_trigger": false,
      "taf_trigger": false,
      "metar": "METAR UAAA 191830Z 20003MPS 9999 SCT050CB OVC100 24/10 Q1011 NOSIG",
      "taf": "TAF UAAA 191701Z 1918/2018 26003G08MPS 9999 SCT050CB BKN100 TX29/2010Z TN21/2001Z"
    },
    {
      "icao": "UBBB",
      "alert": "OK",
      "vis_m": 9999,
      "fzfg": false,
      "metar_trigger": false,
      "taf_trigger": false,
      "metar": "METAR UBBB 191900Z 14008KT CAVOK 26/22 Q1010 NOSIG",
      "taf": "TAF UBBB 191704Z 1918/2018 16005KT CAVOK TX33/2010Z TN22/2000Z"
    },
    {
      "icao": "UDSG",
      "alert": "OK",
      "vis_m": 9999,
      "fzfg": false,
      "metar_trigger": false,
      "taf_trigger": false,
      "metar": "METAR UDSG 191830Z 34002KT 9999 SCT049CB 18/13 Q1019 NOSIG",
      "taf": "TAF UDSG 191658Z 1918/2018 06006KT 9999 SCT050"
    },
    {
      "icao": "UDYZ",
      "alert": "OK",
      "vis_m": 9999,
      "fzfg": false,
      "metar_trigger": false,
      "taf_trigger": false,
      "metar": "METAR UDYZ 191830Z 03012KT 9999 FEW043CB 27/15 Q1012 NOSIG",
      "taf": "TAF UDYZ 191700Z 1918/2018 04006KT 9999 FEW040"
    },
    {
      "icao": "UGKO",
      "alert": "OK",
      "vis_m": 9999,
      "fzfg": false,
      "metar_trigger": false,
      "taf_trigger": false,
      "metar": "METAR UGKO 191830Z 06008KT 9999 BKN042CB 20/18 Q1014 NOSIG",
      "taf": "TAF UGKO 191700Z 1918/2018 25006KT 9999 SCT023 BKN050 TX23/2011Z TN19/2002Z"
    }
  ]
}