{
  "ts_utc": "2026-04-24T16:31:00Z",
  "threshold_m": 150,
  "source": "stations_override.txt (ICAO list) + aviationweather.gov (METAR/TAF raw)",
  "station_count": 159,
  "stations": [
    {
      "icao": "BIKF",
      "alert": "OK",
      "vis_m": 9999,
      "fzfg": false,
      "metar_trigger": false,
      "taf_trigger": false,
      "metar": "METAR BIKF 241600Z 34010KT 310V010 9999 SCT015 08/04 Q1028",
      "taf": "TAF BIKF 241332Z 2415/2515 35010KT 9999 OVC020 TX09/2415Z TN04/2422Z"
    },
    {
      "icao": "BKPR",
      "alert": "OK",
      "vis_m": 9999,
      "fzfg": false,
      "metar_trigger": false,
      "taf_trigger": false,
      "metar": "METAR BKPR 241630Z 36010KT CAVOK 17/04 Q1014 NOSIG",
      "taf": "TAF BKPR 241130Z 2412/2512 34007KT 9999 SCT070"
    },
    {
      "icao": "EBCI",
      "alert": "OK",
      "vis_m": 9999,
      "fzfg": false,
      "metar_trigger": false,
      "taf_trigger": false,
      "metar": "METAR EBCI 241620Z 02009KT CAVOK 18/00 Q1022 NOSIG",
      "taf": "TAF EBCI 241120Z 2412/2518 02005KT 9999 FEW015"
    },
    {
      "icao": "EDDB",
      "alert": "OK",
      "vis_m": 9999,
      "fzfg": false,
      "metar_trigger": false,
      "taf_trigger": false,
      "metar": "METAR EDDB 241620Z AUTO 29012KT 9999 BKN040 16/07 Q1016 NOSIG",
      "taf": "TAF EDDB 241100Z 2412/2512 28010KT 9999 SCT020"
    },
    {
      "icao": "EDDH",
      "alert": "OK",
      "vis_m": 9999,
      "fzfg": false,
      "metar_trigger": false,
      "taf_trigger": false,
      "metar": "METAR EDDH 241620Z AUTO 29015KT 9999 OVC013 09/06 Q1019 NOSIG",
      "taf": "TAF EDDH 241100Z 2412/2518 30015KT 9999 BKN015"
    },
    {
      "icao": "EDDK",
      "alert": "OK",
      "vis_m": 9999,
      "fzfg": false,
      "metar_trigger": false,
      "taf_trigger": false,
      "metar": "METAR EDDK 241620Z AUTO 32006KT 270V030 CAVOK 18/03 Q1021 NOSIG",
      "taf": "TAF EDDK 241100Z 2412/2518 31008KT CAVOK"
    },
    {
      "icao": "EDDN",
      "alert": "OK",
      "vis_m": 9999,
      "fzfg": false,
      "metar_trigger": false,
      "taf_trigger": false,
      "metar": "METAR EDDN 241620Z AUTO 31010KT 270V340 CAVOK 19/01 Q1018 NOSIG",
      "taf": "TAF EDDN 241100Z 2412/2512 30008KT CAVOK"
    },
    {
      "icao": "EDDS",
      "alert": "OK",
      "vis_m": 9999,
      "fzfg": false,
      "metar_trigger": false,
      "taf_trigger": false,
      "metar": "METAR EDDS 241620Z AUTO 33010KT CAVOK 19/M06 Q1019 NOSIG",
      "taf": "TAF EDDS 241100Z 2412/2512 33005KT CAVOK"
    },
    {
      "icao": "EDFH",
      "alert": "OK",
      "vis_m": 9999,
      "fzfg": false,
      "metar_trigger": false,
      "taf_trigger": false,
      "metar": "METAR EDFH 241620Z 35008KT 310V040 CAVOK 16/M05 Q1020",
      "taf": "TAF EDFH 241100Z 2412/2512 35007KT CAVOK"
    },
    {
      "icao": "EDJA",
      "alert": "OK",
      "vis_m": 9999,
      "fzfg": false,
      "metar_trigger": false,
      "taf_trigger": false,
      "metar": "METAR EDJA 241620Z 31004KT 280V010 CAVOK 19/M00 Q1018",
      "taf": "TAF EDJA 241400Z 2415/2424 31007KT CAVOK"
    },
    {
      "icao": "EDLW",
      "alert": "OK",
      "vis_m": 9999,
      "fzfg": false,
      "metar_trigger": false,
      "taf_trigger": false,
      "metar": "METAR EDLW 241620Z 29005KT 240V340 CAVOK 17/05 Q1021",
      "taf": "TAF EDLW 241100Z 2412/2512 32005KT CAVOK"
    },
    {
      "icao": "EDNY",
      "alert": "OK",
      "vis_m": 9999,
      "fzfg": false,
      "metar_trigger": false,
      "taf_trigger": false,
      "metar": "METAR EDNY 241620Z 23007KT CAVOK 20/M01 Q1018",
      "taf": "TAF EDNY 241400Z 2415/2424 23007KT CAVOK"
    },
    {
      "icao": "EDSB",
      "alert": "OK",
      "vis_m": 9999,
      "fzfg": false,
      "metar_trigger": false,
      "taf_trigger": false,
      "metar": "METAR EDSB 241620Z 03007KT CAVOK 21/00 Q1019",
      "taf": "TAF EDSB 241100Z 2412/2512 02006KT CAVOK"
    },
    {
      "icao": "EETN",
      "alert": "OK",
      "vis_m": 9999,
      "fzfg": false,
      "metar_trigger": false,
      "taf_trigger": false,
      "metar": "METAR EETN 241620Z 29009KT CAVOK 08/01 Q1004 NOSIG",
      "taf": "TAF EETN 241130Z 2412/2512 30010KT CAVOK"
    },
    {
      "icao": "EFTU",
      "alert": "OK",
      "vis_m": 9999,
      "fzfg": false,
      "metar_trigger": false,
      "taf_trigger": false,
      "metar": "METAR EFTU 241620Z AUTO 36008KT 330V050 CAVOK 09/M04 Q1006",
      "taf": "TAF EFTU 241426Z 2415/2515 34013KT CAVOK"
    },
    {
      "icao": "EGBB",
      "alert": "OK",
      "vis_m": 9999,
      "fzfg": false,
      "metar_trigger": false,
      "taf_trigger": false,
      "metar": "METAR EGBB 241620Z 13007KT 080V150 CAVOK 18/00 Q1023",
      "taf": "TAF EGBB 241056Z 2412/2512 08007KT CAVOK"
    },
    {
      "icao": "EGGP",
      "alert": "OK",
      "vis_m": 9999,
      "fzfg": false,
      "metar_trigger": false,
      "taf_trigger": false,
      "metar": "METAR EGGP 241620Z 15004KT 120V200 CAVOK 19/00 Q1023",
      "taf": "TAF EGGP 241055Z 2412/2512 16006KT CAVOK"
    },
    {
      "icao": "EGGW",
      "alert": "OK",
      "vis_m": 9999,
      "fzfg": false,
      "metar_trigger": false,
      "taf_trigger": false,
      "metar": "METAR EGGW 241620Z AUTO 10007KT 060V130 9999 NCD 18/00 Q1023",
      "taf": "TAF EGGW 241104Z 2412/2512 10007KT CAVOK"
    },
    {
      "icao": "EGKK",
      "alert": "OK",
      "vis_m": 9999,
      "fzfg": false,
      "metar_trigger": false,
      "taf_trigger": false,
      "metar": "METAR EGKK 241620Z 06011KT CAVOK 18/M00 Q1023",
      "taf": "TAF EGKK 241053Z 2412/2518 07009KT 9999 FEW045"
    },
    {
      "icao": "EGNM",
      "alert": "OK",
      "vis_m": 9999,
      "fzfg": false,
      "metar_trigger": false,
      "taf_trigger": false,
      "metar": "METAR EGNM 241620Z 08004KT 010V110 CAVOK 18/M03 Q1023",
      "taf": "TAF EGNM 241055Z 2412/2512 11004KT CAVOK"
    },
    {
      "icao": "EGPD",
      "alert": "OK",
      "vis_m": 9999,
      "fzfg": false,
      "metar_trigger": false,
      "taf_trigger": false,
      "metar": "METAR EGPD 241620Z COR AUTO 09008KT 9999 NCD 11/06 Q1024 NOSIG",
      "taf": "TAF EGPD 241056Z 2412/2512 11010KT CAVOK"
    },
    {
      "icao": "EGPF",
      "alert": "OK",
      "vis_m": 9999,
      "fzfg": false,
      "metar_trigger": false,
      "taf_trigger": false,
      "metar": "METAR EGPF 241620Z AUTO 28004KT 230V330 9999 NCD 21/04 Q1023",
      "taf": "TAF EGPF 241058Z 2412/2512 VRB03KT CAVOK"
    },
    {
      "icao": "EHBK",
      "alert": "OK",
      "vis_m": 9999,
      "fzfg": false,
      "metar_trigger": false,
      "taf_trigger": false,
      "metar": "METAR EHBK 241625Z AUTO 02005KT 320V070 9999 NCD 18/05 Q1021 NOSIG",
      "taf": "TAF EHBK 241109Z 2412/2518 36006KT CAVOK"
    },
    {
      "icao": "EHEH",
      "alert": "OK",
      "vis_m": 9999,
      "fzfg": false,
      "metar_trigger": false,
      "taf_trigger": false,
      "metar": "METAR EHEH 241555Z AUTO 02007KT 330V050 9999 OVC350 18/06 Q1022 BLU NOSIG",
      "taf": "TAF EHEH 241141Z 2412/2518 35004KT CAVOK"
    },
    {
      "icao": "EKBI",
      "alert": "OK",
      "vis_m": 9999,
      "fzfg": false,
      "metar_trigger": false,
      "taf_trigger": false,
      "metar": "METAR EKBI 241620Z AUTO 28016KT 9999 NCD 10/05 Q1017",
      "taf": "TAF EKBI 241427Z 2415/2515 30010KT CAVOK"
    },
    {
      "icao": "EKCH",
      "alert": "OK",
      "vis_m": 9999,
      "fzfg": false,
      "metar_trigger": false,
      "taf_trigger": false,
      "metar": "METAR EKCH 241620Z AUTO 31014KT 9999 NCD 16/00 Q1014 NOSIG",
      "taf": "TAF EKCH 241427Z 2415/2515 33010KT CAVOK"
    },
    {
      "icao": "ENAL",
      "alert": "OK",
      "vis_m": 9999,
      "fzfg": false,
      "metar_trigger": false,
      "taf_trigger": false,
      "metar": "METAR ENAL 241620Z 24020KT 9999 FEW012 SCT020 BKN052 07/05 Q1017",
      "taf": "TAF ENAL 241400Z 2415/2424 24018KT 9999 SCT008 BKN020"
    },
    {
      "icao": "ENBR",
      "alert": "OK",
      "vis_m": 9999,
      "fzfg": false,
      "metar_trigger": false,
      "taf_trigger": false,
      "metar": "METAR ENBR 241620Z 32011KT 9999 SCT024 BKN037 07/03 Q1020 NOSIG RMK WIND 1200FT 32016KT",
      "taf": "TAF ENBR 241100Z 2412/2512 33012KT 9999 SCT015 BKN025"
    },
    {
      "icao": "ENGM",
      "alert": "OK",
      "vis_m": 9999,
      "fzfg": false,
      "metar_trigger": false,
      "taf_trigger": false,
      "metar": "METAR ENGM 241620Z 08005KT CAVOK 16/M01 Q1009 NOSIG",
      "taf": "TAF ENGM 241100Z 2412/2512 01008KT CAVOK"
    },
    {
      "icao": "ENHD",
      "alert": "OK",
      "vis_m": 9999,
      "fzfg": false,
      "metar_trigger": false,
      "taf_trigger": false,
      "metar": "METAR ENHD 241620Z 34018KT 9999 SCT028 BKN032 08/04 Q1020",
      "taf": "TAF ENHD 241400Z 2415/2422 34020KT 9999 BKN020"
    },
    {
      "icao": "ENTC",
      "alert": "OK",
      "vis_m": 9999,
      "fzfg": false,
      "metar_trigger": false,
      "taf_trigger": false,
      "metar": "METAR ENTC 241620Z 32008KT 9999 FEW045 00/M06 Q1004 RESN TEMPO 1000 SHSN VV008 RMK WIND 2600FT 33022KT",
      "taf": "TAF ENTC 241100Z 2412/2512 34010KT 9999 -SHSN FEW010 SCT015 BKN030"
    },
    {
      "icao": "ENTO",
      "alert": "OK",
      "vis_m": 9999,
      "fzfg": false,
      "metar_trigger": false,
      "taf_trigger": false,
      "metar": "METAR ENTO 241620Z 20011KT CAVOK 15/03 Q1011 NOSIG",
      "taf": "TAF ENTO 241100Z 2412/2512 18010KT CAVOK"
    },
    {
      "icao": "ENVA",
      "alert": "OK",
      "vis_m": 9999,
      "fzfg": false,
      "metar_trigger": false,
      "taf_trigger": false,
      "metar": "METAR ENVA 241620Z 26023KT 9999 FEW016 SCT026 BKN037 08/03 Q1010 TEMPO 27023G33KT RMK WIND 670FT 27018G29KT",
      "taf": ""
    },
    {
      "icao": "ENZV",
      "alert": "OK",
      "vis_m": 9999,
      "fzfg": false,
      "metar_trigger": false,
      "taf_trigger": false,
      "metar": "METAR ENZV 241620Z 33020KT 9999 NSC 09/02 Q1020 NOSIG",
      "taf": "TAF ENZV 241100Z 2412/2512 33020KT 9999 SCT025"
    },
    {
      "icao": "EPGD",
      "alert": "OK",
      "vis_m": 9999,
      "fzfg": false,
      "metar_trigger": false,
      "taf_trigger": false,
      "metar": "METAR EPGD 241600Z 32014KT CAVOK 14/03 Q1012",
      "taf": "TAF EPGD 241130Z 2412/2512 30012KT CAVOK"
    },
    {
      "icao": "EPKK",
      "alert": "OK",
      "vis_m": 9999,
      "fzfg": false,
      "metar_trigger": false,
      "taf_trigger": false,
      "metar": "METAR EPKK 241600Z 31007KT 280V340 9999 FEW050 SCT053 16/03 Q1014",
      "taf": "TAF EPKK 241430Z 2415/2515 28010KT CAVOK"
    },
    {
      "icao": "EPKT",
      "alert": "OK",
      "vis_m": 9999,
      "fzfg": false,
      "metar_trigger": false,
      "taf_trigger": false,
      "metar": "METAR EPKT 241600Z 28012KT 9999 FEW044 15/04 Q1014",
      "taf": "TAF EPKT 241130Z 2412/2512 30012KT CAVOK"
    },
    {
      "icao": "EPLB",
      "alert": "OK",
      "vis_m": 9999,
      "fzfg": false,
      "metar_trigger": false,
      "taf_trigger": false,
      "metar": "METAR EPLB 241600Z 29006KT CAVOK 14/02 Q1012 WS R25",
      "taf": "TAF EPLB 241130Z 2412/2512 30010KT CAVOK"
    },
    {
      "icao": "EPMO",
      "alert": "OK",
      "vis_m": 9999,
      "fzfg": false,
      "metar_trigger": false,
      "taf_trigger": false,
      "metar": "METAR EPMO 241600Z 30007KT CAVOK 16/04 Q1011",
      "taf": "TAF EPMO 241130Z 2412/2512 29008KT CAVOK"
    },
    {
      "icao": "EPPO",
      "alert": "OK",
      "vis_m": 9999,
      "fzfg": false,
      "metar_trigger": false,
      "taf_trigger": false,
      "metar": "METAR EPPO 241600Z 28015KT CAVOK 14/06 Q1015",
      "taf": "TAF EPPO 241130Z 2412/2512 27015KT 9999 SCT025"
    },
    {
      "icao": "EPRA",
      "alert": "OK",
      "vis_m": 9999,
      "fzfg": false,
      "metar_trigger": false,
      "taf_trigger": false,
      "metar": "METAR EPRA 241600Z 29010KT CAVOK 16/03 Q1012",
      "taf": "TAF EPRA 241430Z 2415/2424 31010KT CAVOK"
    },
    {
      "icao": "EPRZ",
      "alert": "OK",
      "vis_m": 9999,
      "fzfg": false,
      "metar_trigger": false,
      "taf_trigger": false,
      "metar": "METAR EPRZ 241600Z 27007KT CAVOK 15/03 Q1012",
      "taf": "TAF EPRZ 241130Z 2412/2512 30012KT CAVOK"
    },
    {
      "icao": "EPSC",
      "alert": "OK",
      "vis_m": 9999,
      "fzfg": false,
      "metar_trigger": false,
      "taf_trigger": false,
      "metar": "METAR EPSC 241600Z 30011KT 270V330 9999 FEW047 16/06 Q1014",
      "taf": "TAF EPSC 241130Z 2412/2512 28008KT CAVOK"
    },
    {
      "icao": "EPSY",
      "alert": "OK",
      "vis_m": 9999,
      "fzfg": false,
      "metar_trigger": false,
      "taf_trigger": false,
      "metar": "METAR EPSY 241600Z 33010KT CAVOK 15/01 Q1011",
      "taf": "TAF EPSY 241430Z 2415/2424 32010KT CAVOK"
    },
    {
      "icao": "EPWA",
      "alert": "OK",
      "vis_m": 9999,
      "fzfg": false,
      "metar_trigger": false,
      "taf_trigger": false,
      "metar": "METAR EPWA 241600Z 31008KT CAVOK 17/03 Q1011 NOSIG",
      "taf": "TAF EPWA 241430Z 2415/2515 31006KT CAVOK"
    },
    {
      "icao": "EPWR",
      "alert": "OK",
      "vis_m": 9999,
      "fzfg": false,
      "metar_trigger": false,
      "taf_trigger": false,
      "metar": "METAR EPWR 241600Z 28015KT 9999 FEW024 11/05 Q1016",
      "taf": "TAF EPWR 241430Z 2415/2515 29012KT 9999 SCT030"
    },
    {
      "icao": "ESGG",
      "alert": "OK",
      "vis_m": 9999,
      "fzfg": false,
      "metar_trigger": false,
      "taf_trigger": false,
      "metar": "METAR ESGG 241620Z 28011KT 250V310 CAVOK 14/M00 Q1012",
      "taf": "TAF ESGG 241430Z 2415/2515 28010KT CAVOK"
    },
    {
      "icao": "ESKN",
      "alert": "OK",
      "vis_m": 9999,
      "fzfg": false,
      "metar_trigger": false,
      "taf_trigger": false,
      "metar": "METAR ESKN 241620Z 26006KT 230V290 CAVOK 14/00 Q1009",
      "taf": "TAF ESKN 241430Z 2415/2515 26009KT CAVOK"
    },
    {
      "icao": "ESMS",
      "alert": "OK",
      "vis_m": 9999,
      "fzfg": false,
      "metar_trigger": false,
      "taf_trigger": false,
      "metar": "METAR ESMS 241620Z 31016KT CAVOK 14/01 Q1013",
      "taf": "TAF ESMS 241427Z 2415/2515 30010KT CAVOK"
    },
    {
      "icao": "ESSA",
      "alert": "OK",
      "vis_m": 9999,
      "fzfg": false,
      "metar_trigger": false,
      "taf_trigger": false,
      "metar": "METAR ESSA 241620Z 23006KT CAVOK 14/M01 Q1008 NOSIG",
      "taf": "TAF ESSA 241430Z 2415/2515 23005KT CAVOK"
    },
    {
      "icao": "EYKA",
      "alert": "OK",
      "vis_m": 9999,
      "fzfg": false,
      "metar_trigger": false,
      "taf_trigger": false,
      "metar": "METAR EYKA 241620Z 35003KT 280V070 CAVOK 13/03 Q1007",
      "taf": "TAF EYKA 241100Z 2412/2512 29010KT 9000 SCT045"
    },
    {
      "icao": "EYPA",
      "alert": "OK",
      "vis_m": 9999,
      "fzfg": false,
      "metar_trigger": false,
      "taf_trigger": false,
      "metar": "METAR EYPA 241620Z 33006KT 280V030 CAVOK 06/03 Q1010",
      "taf": "TAF EYPA 241100Z 2412/2512 33010KT 9000 NSC"
    },
    {
      "icao": "EYVI",
      "alert": "OK",
      "vis_m": 9999,
      "fzfg": false,
      "metar_trigger": false,
      "taf_trigger": false,
      "metar": "METAR EYVI 241620Z 28007KT 250V310 9999 SCT044 11/03 Q1007 NOSIG",
      "taf": "TAF EYVI 241100Z 2412/2512 29010KT 9000 BKN040"
    },
    {
      "icao": "GCFV",
      "alert": "OK",
      "vis_m": 9999,
      "fzfg": false,
      "metar_trigger": false,
      "taf_trigger": false,
      "metar": "METAR GCFV 241600Z 04015KT 9999 FEW030 22/15 Q1016",
      "taf": "TAF GCFV 241400Z 2415/2515 02013KT 9999 FEW030 TX22/2514Z TN17/2506Z"
    },
    {
      "icao": "GCLP",
      "alert": "OK",
      "vis_m": 9999,
      "fzfg": false,
      "metar_trigger": false,
      "taf_trigger": false,
      "metar": "METAR GCLP 241600Z 03023KT 9999 SCT030 22/15 Q1016 NOSIG",
      "taf": "TAF GCLP 241400Z 2415/2515 01020KT 9999 FEW030 TX22/2514Z TN16/2506Z"
    },
    {
      "icao": "GCTS",
      "alert": "OK",
      "vis_m": 9999,
      "fzfg": false,
      "metar_trigger": false,
      "taf_trigger": false,
      "metar": "METAR GCTS 241600Z 10017KT 9999 FEW030 22/13 Q1017 NOSIG",
      "taf": "TAF GCTS 241400Z 2415/2515 09015KT 9999 SCT030 TX23/2514Z TN16/2506Z"
    },
    {
      "icao": "GMAD",
      "alert": "OK",
      "vis_m": 8000,
      "fzfg": false,
      "metar_trigger": false,
      "taf_trigger": false,
      "metar": "METAR GMAD 241600Z 20010KT 170V240 8000 FEW026 27/13 Q1009 NOSIG",
      "taf": "TAF GMAD 241100Z 2412/2518 27010KT 8000 SCT020"
    },
    {
      "icao": "GMMN",
      "alert": "OK",
      "vis_m": 9999,
      "fzfg": false,
      "metar_trigger": false,
      "taf_trigger": false,
      "metar": "METAR GMMN 241600Z 35011KT 320V030 9999 BKN030 20/13 Q1015 NOSIG",
      "taf": "TAF GMMN 241100Z 2412/2518 04012KT 9999 SCT020"
    },
    {
      "icao": "GMMX",
      "alert": "OK",
      "vis_m": 8000,
      "fzfg": false,
      "metar_trigger": false,
      "taf_trigger": false,
      "metar": "METAR GMMX 241600Z 04007KT 010V120 8000 BKN020 20/12 Q1015 NOSIG",
      "taf": "TAF GMMX 241100Z 2412/2518 06006KT 8000 BKN020"
    },
    {
      "icao": "HEGN",
      "alert": "OK",
      "vis_m": 9999,
      "fzfg": false,
      "metar_trigger": false,
      "taf_trigger": false,
      "metar": "METAR HEGN 241600Z 36008KT CAVOK 28/06 Q1006 NOSIG",
      "taf": "TAF HEGN 241100Z 2412/2518 01015KT CAVOK"
    },
    {
      "icao": "HEMA",
      "alert": "OK",
      "vis_m": 9999,
      "fzfg": false,
      "metar_trigger": false,
      "taf_trigger": false,
      "metar": "METAR HEMA 241600Z 07004KT CAVOK 27/04 Q1005 NOSIG",
      "taf": "TAF HEMA 241100Z 2412/2518 03018KT CAVOK"
    },
    {
      "icao": "HESH",
      "alert": "OK",
      "vis_m": 9999,
      "fzfg": false,
      "metar_trigger": false,
      "taf_trigger": false,
      "metar": "METAR HESH 241600Z 01009KT CAVOK 29/05 Q1004 NOSIG",
      "taf": "TAF HESH 241100Z 2412/2518 01012KT CAVOK"
    },
    {
      "icao": "HESX",
      "alert": "OK",
      "vis_m": 9999,
      "fzfg": false,
      "metar_trigger": false,
      "taf_trigger": false,
      "metar": "METAR HESX 241600Z 03010KT CAVOK 24/08 Q1008 NOSIG",
      "taf": "TAF HESX 241150Z 2412/2518 07010KT SCT020 BKN090"
    },
    {
      "icao": "LATI",
      "alert": "OK",
      "vis_m": 9999,
      "fzfg": false,
      "metar_trigger": false,
      "taf_trigger": false,
      "metar": "METAR LATI 241620Z 32009KT CAVOK 18/05 Q1014 NOSIG",
      "taf": "TAF LATI 241100Z 2412/2512 34012KT CAVOK TX24/2512Z TN06/2504Z"
    },
    {
      "icao": "LBPD",
      "alert": "OK",
      "vis_m": 9999,
      "fzfg": false,
      "metar_trigger": false,
      "taf_trigger": false,
      "metar": "METAR LBPD 241600Z AUTO 13004KT 9999 NCD 20/04 Q1011 NOSIG",
      "taf": "TAF LBPD 241100Z 2412/2512 29012KT 9999 SCT070"
    },
    {
      "icao": "LBSF",
      "alert": "OK",
      "vis_m": 9999,
      "fzfg": false,
      "metar_trigger": false,
      "taf_trigger": false,
      "metar": "METAR LBSF 241600Z AUTO 30011KT 9999 NCD 18/01 Q1012 NOSIG",
      "taf": "TAF LBSF 241100Z 2412/2512 30010KT 9999 SCT060"
    },
    {
      "icao": "LBWN",
      "alert": "OK",
      "vis_m": 9999,
      "fzfg": false,
      "metar_trigger": false,
      "taf_trigger": false,
      "metar": "METAR LBWN 241600Z AUTO 27012KT 9999 NSC 19/03 Q1010 NOSIG",
      "taf": "TAF LBWN 241100Z 2412/2512 26010KT 9999 SCT045"
    },
    {
      "icao": "LCLK",
      "alert": "OK",
      "vis_m": 9999,
      "fzfg": false,
      "metar_trigger": false,
      "taf_trigger": false,
      "metar": "METAR LCLK 241600Z 22007KT 9999 FEW030 21/15 Q1011 NOSIG",
      "taf": "TAF LCLK 241130Z 2412/2512 22014KT 9999 FEW025"
    },
    {
      "icao": "LCPH",
      "alert": "OK",
      "vis_m": 9999,
      "fzfg": false,
      "metar_trigger": false,
      "taf_trigger": false,
      "metar": "METAR LCPH 241600Z 31013KT 9999 FEW030 19/15 Q1011 NOSIG",
      "taf": "TAF LCPH 241130Z 2412/2512 26010KT 9999 SCT025"
    },
    {
      "icao": "LEAL",
      "alert": "OK",
      "vis_m": 9999,
      "fzfg": false,
      "metar_trigger": false,
      "taf_trigger": false,
      "metar": "METAR LEAL 241600Z 09013KT 9999 -RA BKN065 18/12 Q1017 TEMPO RA",
      "taf": "TAF LEAL 241100Z 2412/2512 08010KT 9999 FEW030 SCT060 TX23/2412Z TN12/2506Z"
    },
    {
      "icao": "LEBB",
      "alert": "OK",
      "vis_m": 9999,
      "fzfg": false,
      "metar_trigger": false,
      "taf_trigger": false,
      "metar": "METAR LEBB 241600Z 32009KT 280V350 9999 FEW018 19/14 Q1018 NOSIG",
      "taf": "TAF LEBB 241100Z 2412/2512 31009KT 9999 FEW010 SCT050 TX24/2413Z TN14/2506Z"
    },
    {
      "icao": "LEBL",
      "alert": "OK",
      "vis_m": 9999,
      "fzfg": false,
      "metar_trigger": false,
      "taf_trigger": false,
      "metar": "METAR LEBL 241600Z 14004KT CAVOK 18/10 Q1018 NOSIG",
      "taf": "TAF LEBL 241100Z 2412/2512 13008KT CAVOK TX20/2412Z TN12/2505Z"
    },
    {
      "icao": "LECH",
      "alert": "OK",
      "vis_m": 9999,
      "fzfg": false,
      "metar_trigger": false,
      "taf_trigger": false,
      "metar": "METAR LECH 241600Z AUTO 12008KT 080V160 CAVOK 18/11 Q1018",
      "taf": "TAF LECH 241100Z 2412/2512 11008KT 9999 SCT020 TX23/2413Z TN11/2507Z"
    },
    {
      "icao": "LEMD",
      "alert": "OK",
      "vis_m": 9999,
      "fzfg": false,
      "metar_trigger": false,
      "taf_trigger": false,
      "metar": "METAR LEMD 241600Z 36003KT 9999 SCT040 22/11 Q1016 NOSIG",
      "taf": "TAF LEMD 241100Z 2412/2518 VRB04KT 9999 FEW040 TX22/2416Z TN13/2506Z"
    },
    {
      "icao": "LEMG",
      "alert": "OK",
      "vis_m": 9999,
      "fzfg": false,
      "metar_trigger": false,
      "taf_trigger": false,
      "metar": "METAR LEMG 241600Z 32003KT 290V030 9999 FEW027 SCT052 19/13 Q1016 NOSIG",
      "taf": ""
    },
    {
      "icao": "LEVC",
      "alert": "OK",
      "vis_m": 9999,
      "fzfg": false,
      "metar_trigger": false,
      "taf_trigger": false,
      "metar": "METAR LEVC 241600Z 12006KT 060V150 9999 FEW029 20/13 Q1018 NOSIG",
      "taf": "TAF LEVC 241100Z 2412/2512 08009KT 9999 SCT020 TX22/2412Z TN12/2506Z"
    },
    {
      "icao": "LEXJ",
      "alert": "OK",
      "vis_m": 9000,
      "fzfg": false,
      "metar_trigger": false,
      "taf_trigger": false,
      "metar": "METAR LEXJ 241600Z 31008KT 9000 OVC019 17/13 Q1018",
      "taf": "TAF LEXJ 241400Z 2415/2515 27009KT 9999 SCT010 TX19/2513Z TN14/2506Z"
    },
    {
      "icao": "LEZG",
      "alert": "OK",
      "vis_m": 9999,
      "fzfg": false,
      "metar_trigger": false,
      "taf_trigger": false,
      "metar": "METAR LEZG 241600Z 08004KT 010V130 CAVOK 25/09 Q1015 NOSIG",
      "taf": "TAF LEZG 241100Z 2412/2512 11009KT 9999 FEW030 TX26/2415Z TN12/2506Z"
    },
    {
      "icao": "LEZL",
      "alert": "OK",
      "vis_m": 9999,
      "fzfg": false,
      "metar_trigger": false,
      "taf_trigger": false,
      "metar": "METAR LEZL 241600Z 35002KT 9999 FEW048 25/13 Q1015 NOSIG",
      "taf": "TAF LEZL 241400Z 2415/2515 VRB03KT 9999 FEW040 TX24/2415Z TN13/2506Z"
    },
    {
      "icao": "LFBD",
      "alert": "OK",
      "vis_m": 9999,
      "fzfg": false,
      "metar_trigger": false,
      "taf_trigger": false,
      "metar": "METAR LFBD 241600Z AUTO 26004KT 190V360 CAVOK 27/10 Q1015 NOSIG",
      "taf": "TAF LFBD 241100Z 2412/2518 11010KT CAVOK TX27/2414Z TN15/2506Z"
    },
    {
      "icao": "LFLL",
      "alert": "OK",
      "vis_m": 9999,
      "fzfg": false,
      "metar_trigger": false,
      "taf_trigger": false,
      "metar": "METAR LFLL 241600Z VRB03KT CAVOK 24/03 Q1017 NOSIG",
      "taf": "TAF LFLL 241100Z 2412/2518 36006KT CAVOK"
    },
    {
      "icao": "LFLS",
      "alert": "OK",
      "vis_m": 9999,
      "fzfg": false,
      "metar_trigger": false,
      "taf_trigger": false,
      "metar": "METAR LFLS 241600Z AUTO 28005KT 240V310 CAVOK 24/05 Q1017 NOSIG",
      "taf": "TAF LFLS 241400Z 2415/2515 23005KT CAVOK"
    },
    {
      "icao": "LFMN",
      "alert": "OK",
      "vis_m": 9999,
      "fzfg": false,
      "metar_trigger": false,
      "taf_trigger": false,
      "metar": "METAR LFMN 241600Z 18004KT CAVOK 19/11 Q1017 NOSIG",
      "taf": "TAF LFMN 241400Z 2415/2521 20010KT CAVOK"
    },
    {
      "icao": "LFOB",
      "alert": "OK",
      "vis_m": 9999,
      "fzfg": false,
      "metar_trigger": false,
      "taf_trigger": false,
      "metar": "METAR LFOB 241600Z AUTO 05012KT CAVOK 20/01 Q1021 NOSIG",
      "taf": "TAF LFOB 241100Z 2412/2512 05010KT CAVOK"
    },
    {
      "icao": "LFPO",
      "alert": "OK",
      "vis_m": 9999,
      "fzfg": false,
      "metar_trigger": false,
      "taf_trigger": false,
      "metar": "METAR LFPO 241600Z 06012KT 030V100 CAVOK 22/00 Q1019 NOSIG",
      "taf": "TAF LFPO 241100Z 2412/2518 05008KT CAVOK"
    },
    {
      "icao": "LFSB",
      "alert": "OK",
      "vis_m": 9999,
      "fzfg": false,
      "metar_trigger": false,
      "taf_trigger": false,
      "metar": "METAR LFSB 241600Z AUTO 03005KT 340V060 CAVOK 23/00 Q1018 NOSIG",
      "taf": "TAF LFSB 241100Z 2412/2512 36007KT CAVOK"
    },
    {
      "icao": "LGAV",
      "alert": "OK",
      "vis_m": 9999,
      "fzfg": false,
      "metar_trigger": false,
      "taf_trigger": false,
      "metar": "METAR LGAV 241620Z 05008KT 9999 FEW030 16/05 Q1013 NOSIG",
      "taf": "TAF LGAV 241100Z 2412/2512 04012KT 9999 FEW025"
    },
    {
      "icao": "LGTS",
      "alert": "OK",
      "vis_m": 9999,
      "fzfg": false,
      "metar_trigger": false,
      "taf_trigger": false,
      "metar": "METAR LGTS 241620Z 21006KT 9999 FEW030 20/07 Q1012 NOSIG",
      "taf": "TAF LGTS 241100Z 2412/2512 VRB03KT 9999 FEW030"
    },
    {
      "icao": "LHBP",
      "alert": "OK",
      "vis_m": 9999,
      "fzfg": false,
      "metar_trigger": false,
      "taf_trigger": false,
      "metar": "METAR LHBP 241600Z 32016KT CAVOK 20/00 Q1013 NOSIG",
      "taf": "TAF LHBP 241115Z 2412/2512 31014G24KT CAVOK"
    },
    {
      "icao": "LHDC",
      "alert": "OK",
      "vis_m": 9999,
      "fzfg": false,
      "metar_trigger": false,
      "taf_trigger": false,
      "metar": "METAR LHDC 241545Z AUTO 20005KT 140V230 CAVOK 19/03 Q1012 NOSIG",
      "taf": "TAF LHDC 241415Z 2415/2424 23006KT CAVOK"
    },
    {
      "icao": "LIBD",
      "alert": "OK",
      "vis_m": 9999,
      "fzfg": false,
      "metar_trigger": false,
      "taf_trigger": false,
      "metar": "METAR LIBD 241620Z 34007KT CAVOK 18/06 Q1015",
      "taf": "TAF LIBD 241100Z 2412/2512 34010KT CAVOK"
    },
    {
      "icao": "LIBG",
      "alert": "OK",
      "vis_m": 9999,
      "fzfg": false,
      "metar_trigger": false,
      "taf_trigger": false,
      "metar": "METAR LIBG 241550Z 01011KT 330V030 CAVOK 20/04 Q1015",
      "taf": "TAF LIBG 241400Z 2415/2424 35012KT CAVOK"
    },
    {
      "icao": "LIBP",
      "alert": "OK",
      "vis_m": 9999,
      "fzfg": false,
      "metar_trigger": false,
      "taf_trigger": false,
      "metar": "METAR LIBP 241620Z AUTO 04003KT 010V070 9999 NCD 21/07 Q1016",
      "taf": "TAF LIBP 241100Z 2412/2512 05010KT CAVOK"
    },
    {
      "icao": "LIBR",
      "alert": "OK",
      "vis_m": 9999,
      "fzfg": false,
      "metar_trigger": false,
      "taf_trigger": false,
      "metar": "METAR LIBR 241620Z 33013KT CAVOK 17/13 Q1015",
      "taf": "TAF LIBR 241100Z 2412/2512 33012KT CAVOK"
    },
    {
      "icao": "LICA",
      "alert": "OK",
      "vis_m": 9999,
      "fzfg": false,
      "metar_trigger": false,
      "taf_trigger": false,
      "metar": "METAR LICA 241620Z AUTO 25009KT 9999 NCD 18/09 Q1016",
      "taf": "TAF LICA 241100Z 2412/2512 26012KT 9999 FEW040"
    },
    {
      "icao": "LICC",
      "alert": "OK",
      "vis_m": 9999,
      "fzfg": false,
      "metar_trigger": false,
      "taf_trigger": false,
      "metar": "METAR LICC 241620Z 10007KT 9999 FEW040 19/14 Q1016",
      "taf": "TAF LICC 241100Z 2412/2512 10010KT CAVOK"
    },
    {
      "icao": "LICJ",
      "alert": "OK",
      "vis_m": 9999,
      "fzfg": false,
      "metar_trigger": false,
      "taf_trigger": false,
      "metar": "METAR LICJ 241620Z 04011KT CAVOK 17/07 Q1017",
      "taf": "TAF LICJ 241100Z 2412/2512 05012KT CAVOK"
    },
    {
      "icao": "LIMC",
      "alert": "OK",
      "vis_m": 9999,
      "fzfg": false,
      "metar_trigger": false,
      "taf_trigger": false,
      "metar": "METAR LIMC 241620Z 19004KT 130V230 CAVOK 25/01 Q1014 NOSIG",
      "taf": "TAF LIMC 241100Z 2412/2518 VRB05KT CAVOK"
    },
    {
      "icao": "LIME",
      "alert": "OK",
      "vis_m": 9999,
      "fzfg": false,
      "metar_trigger": false,
      "taf_trigger": false,
      "metar": "METAR LIME 241620Z 26007KT 230V290 CAVOK 24/01 Q1014 NOSIG",
      "taf": "TAF LIME 241100Z 2412/2512 VRB05KT CAVOK"
    },
    {
      "icao": "LIMF",
      "alert": "OK",
      "vis_m": 9999,
      "fzfg": false,
      "metar_trigger": false,
      "taf_trigger": false,
      "metar": "METAR LIMF 241620Z 23006KT 200V260 CAVOK 24/00 Q1014",
      "taf": "TAF LIMF 241100Z 2412/2512 VRB04KT CAVOK"
    },
    {
      "icao": "LIMJ",
      "alert": "OK",
      "vis_m": 9999,
      "fzfg": false,
      "metar_trigger": false,
      "taf_trigger": false,
      "metar": "METAR LIMJ 241620Z 18003KT 150V210 9999 SCT015 17/14 Q1017",
      "taf": "TAF LIMJ 241100Z 2412/2512 17010KT CAVOK"
    },
    {
      "icao": "LIPE",
      "alert": "OK",
      "vis_m": 9999,
      "fzfg": false,
      "metar_trigger": false,
      "taf_trigger": false,
      "metar": "METAR LIPE 241620Z 07005KT CAVOK 24/08 Q1014",
      "taf": "TAF LIPE 241100Z 2412/2512 VRB05KT CAVOK"
    },
    {
      "icao": "LIPH",
      "alert": "OK",
      "vis_m": 9999,
      "fzfg": false,
      "metar_trigger": false,
      "taf_trigger": false,
      "metar": "METAR LIPH 241620Z 15006KT CAVOK 21/08 Q1014",
      "taf": "TAF LIPH 241100Z 2412/2512 VRB05KT CAVOK"
    },
    {
      "icao": "LIPQ",
      "alert": "OK",
      "vis_m": 9999,
      "fzfg": false,
      "metar_trigger": false,
      "taf_trigger": false,
      "metar": "METAR LIPQ 241620Z AUTO 21007KT 9999 NCD 20/M02 Q1015",
      "taf": "TAF LIPQ 241100Z 2412/2512 20010KT CAVOK"
    },
    {
      "icao": "LIPR",
      "alert": "OK",
      "vis_m": 9999,
      "fzfg": false,
      "metar_trigger": false,
      "taf_trigger": false,
      "metar": "METAR LIPR 241620Z 09007KT CAVOK 19/11 Q1015",
      "taf": "TAF LIPR 241100Z 2412/2512 09010KT CAVOK"
    },
    {
      "icao": "LIPX",
      "alert": "OK",
      "vis_m": 9999,
      "fzfg": false,
      "metar_trigger": false,
      "taf_trigger": false,
      "metar": "METAR LIPX 241620Z 26007KT CAVOK 25/00 Q1014",
      "taf": "TAF LIPX 241100Z 2412/2512 VRB05KT CAVOK"
    },
    {
      "icao": "LIPY",
      "alert": "OK",
      "vis_m": 9999,
      "fzfg": false,
      "metar_trigger": false,
      "taf_trigger": false,
      "metar": "METAR LIPY 241620Z AUTO 15003KT 120V190 9999 NCD 23/07 Q1015",
      "taf": "TAF LIPY 241100Z 2412/2512 08010KT CAVOK"
    },
    {
      "icao": "LIPZ",
      "alert": "OK",
      "vis_m": 9999,
      "fzfg": false,
      "metar_trigger": false,
      "taf_trigger": false,
      "metar": "METAR LIPZ 241620Z 15008KT CAVOK 18/11 Q1015 NOSIG",
      "taf": "TAF LIPZ 241100Z 2412/2518 15010KT CAVOK"
    },
    {
      "icao": "LIRF",
      "alert": "OK",
      "vis_m": 9999,
      "fzfg": false,
      "metar_trigger": false,
      "taf_trigger": false,
      "metar": "METAR LIRF 241620Z 28010KT 250V310 CAVOK 18/11 Q1017 NOSIG",
      "taf": "TAF LIRF 241100Z 2412/2518 26012KT CAVOK"
    },
    {
      "icao": "LIRN",
      "alert": "OK",
      "vis_m": 9999,
      "fzfg": false,
      "metar_trigger": false,
      "taf_trigger": false,
      "metar": "METAR LIRN 241620Z 29012KT CAVOK 20/05 Q1016 NOSIG",
      "taf": "TAF LIRN 241100Z 2412/2512 29012KT CAVOK"
    },
    {
      "icao": "LIRP",
      "alert": "OK",
      "vis_m": 9999,
      "fzfg": false,
      "metar_trigger": false,
      "taf_trigger": false,
      "metar": "METAR LIRP 241615Z 28010KT CAVOK 19/12 Q1017 NOSIG",
      "taf": "TAF LIRP 241100Z 2412/2512 28010KT CAVOK"
    },
    {
      "icao": "LIRZ",
      "alert": "OK",
      "vis_m": 9999,
      "fzfg": false,
      "metar_trigger": false,
      "taf_trigger": false,
      "metar": "METAR LIRZ 241620Z AUTO 27008KT 9999 NCD 22/01 Q1015",
      "taf": "TAF LIRZ 241100Z 2412/2512 VRB05KT CAVOK"
    },
    {
      "icao": "LJLJ",
      "alert": "OK",
      "vis_m": 9999,
      "fzfg": false,
      "metar_trigger": false,
      "taf_trigger": false,
      "metar": "METAR LJLJ 241600Z 23009KT 200V260 CAVOK 22/04 Q1013 NOSIG",
      "taf": "TAF LJLJ 241100Z 2412/2512 09004KT CAVOK"
    },
    {
      "icao": "LKMT",
      "alert": "OK",
      "vis_m": 9999,
      "fzfg": false,
      "metar_trigger": false,
      "taf_trigger": false,
      "metar": "METAR LKMT 241600Z 01008KT CAVOK 15/06 Q1014 NOSIG",
      "taf": "TAF LKMT 241100Z 2412/2512 01005KT CAVOK"
    },
    {
      "icao": "LKPR",
      "alert": "OK",
      "vis_m": 9999,
      "fzfg": false,
      "metar_trigger": false,
      "taf_trigger": false,
      "metar": "METAR LKPR 241600Z 34010KT CAVOK 13/04 Q1017 NOSIG",
      "taf": "TAF LKPR 241400Z 2415/2521 31011KT CAVOK"
    },
    {
      "icao": "LLBG",
      "alert": "OK",
      "vis_m": 9999,
      "fzfg": false,
      "metar_trigger": false,
      "taf_trigger": false,
      "metar": "METAR LLBG 241620Z 35009KT CAVOK 21/11 Q1009 NOSIG",
      "taf": "TAF LLBG 241103Z 2412/2512 33012KT CAVOK TX24/2412Z TN14/2504Z"
    },
    {
      "icao": "LMML",
      "alert": "OK",
      "vis_m": 9999,
      "fzfg": false,
      "metar_trigger": false,
      "taf_trigger": false,
      "metar": "METAR LMML 241615Z 02006KT 330V050 CAVOK 19/03 Q1017 NOSIG",
      "taf": "TAF LMML 241100Z 2412/2512 VRB06KT 9999 FEW025"
    },
    {
      "icao": "LOWW",
      "alert": "OK",
      "vis_m": 9999,
      "fzfg": false,
      "metar_trigger": false,
      "taf_trigger": false,
      "metar": "METAR LOWW 241620Z 28014KT CAVOK 21/02 Q1013 NOSIG",
      "taf": "TAF LOWW 241415Z 2415/2521 30011KT CAVOK TX22/2514Z TN09/2504Z"
    },
    {
      "icao": "LPFR",
      "alert": "OK",
      "vis_m": 9999,
      "fzfg": false,
      "metar_trigger": false,
      "taf_trigger": false,
      "metar": "METAR LPFR 241600Z 26011KT 9999 FEW020 20/13 Q1016",
      "taf": "TAF LPFR 241100Z 2412/2512 23013KT CAVOK"
    },
    {
      "icao": "LPMA",
      "alert": "OK",
      "vis_m": 9999,
      "fzfg": false,
      "metar_trigger": false,
      "taf_trigger": false,
      "metar": "METAR LPMA 241600Z 01011KT 9999 BKN015 19/13 Q1018",
      "taf": "TAF LPMA 241100Z 2412/2512 VRB05KT 9999 SCT015"
    },
    {
      "icao": "LPPR",
      "alert": "OK",
      "vis_m": 9999,
      "fzfg": false,
      "metar_trigger": false,
      "taf_trigger": false,
      "metar": "METAR LPPR 241600Z 32010KT 280V340 9999 FEW025TCU 17/13 Q1018",
      "taf": "TAF LPPR 241100Z 2412/2512 28007KT 9999 FEW030"
    },
    {
      "icao": "LPPS",
      "alert": "OK",
      "vis_m": 9999,
      "fzfg": false,
      "metar_trigger": false,
      "taf_trigger": false,
      "metar": "METAR LPPS 241600Z 36011KT 9999 FEW015 BKN033 19/12 Q1019",
      "taf": "TAF LPPS 241100Z 2412/2518 02010KT 9999 SCT015"
    },
    {
      "icao": "LPPT",
      "alert": "OK",
      "vis_m": 9999,
      "fzfg": false,
      "metar_trigger": false,
      "taf_trigger": false,
      "metar": "METAR LPPT 241600Z 30009KT 260V340 9999 FEW034 21/13 Q1017",
      "taf": "TAF LPPT 241100Z 2412/2518 VRB05KT 9999 FEW030"
    },
    {
      "icao": "LQBK",
      "alert": "OK",
      "vis_m": 9999,
      "fzfg": false,
      "metar_trigger": false,
      "taf_trigger": false,
      "metar": "METAR LQBK 241600Z 35008KT 320V020 CAVOK 20/M01 Q1015 NOSIG",
      "taf": "TAF LQBK 241100Z 2412/2512 36005KT CAVOK TX22/2413Z TN05/2504Z"
    },
    {
      "icao": "LQSA",
      "alert": "OK",
      "vis_m": 9999,
      "fzfg": false,
      "metar_trigger": false,
      "taf_trigger": false,
      "metar": "METAR LQSA 241600Z 31008KT 280V340 CAVOK 18/00 Q1015 NOSIG",
      "taf": "TAF LQSA 241100Z 2412/2512 35005KT CAVOK TX20/2512Z TN01/2504Z"
    },
    {
      "icao": "LQTZ",
      "alert": "OK",
      "vis_m": 9999,
      "fzfg": false,
      "metar_trigger": false,
      "taf_trigger": false,
      "metar": "METAR LQTZ 241600Z 32008KT CAVOK 19/02 Q1015",
      "taf": "TAF LQTZ 241100Z 2412/2512 27007KT CAVOK TX20/2413Z TN02/2504Z"
    },
    {
      "icao": "LRBC",
      "alert": "OK",
      "vis_m": 9999,
      "fzfg": false,
      "metar_trigger": false,
      "taf_trigger": false,
      "metar": "METAR LRBC 241600Z 01007KT 350V050 CAVOK 15/M00 Q1010",
      "taf": "TAF LRBC 241400Z 2415/2424 36010KT CAVOK"
    },
    {
      "icao": "LRBS",
      "alert": "OK",
      "vis_m": 9999,
      "fzfg": false,
      "metar_trigger": false,
      "taf_trigger": false,
      "metar": "METAR LRBS 241600Z 27009KT 240V320 CAVOK 21/03 Q1009 NOSIG",
      "taf": "TAF LRBS 241100Z 2412/2512 28010KT CAVOK"
    },
    {
      "icao": "LRBV",
      "alert": "OK",
      "vis_m": 9999,
      "fzfg": false,
      "metar_trigger": false,
      "taf_trigger": false,
      "metar": "METAR LRBV 241600Z 31009KT 280V340 9999 FEW062 15/02 Q1012",
      "taf": "TAF LRBV 241400Z 2415/2424 30014KT CAVOK"
    },
    {
      "icao": "LRCL",
      "alert": "OK",
      "vis_m": 9999,
      "fzfg": false,
      "metar_trigger": false,
      "taf_trigger": false,
      "metar": "METAR LRCL 241600Z 30010KT 270V330 9999 FEW062 15/01 Q1012",
      "taf": "TAF LRCL 241400Z 2415/2424 30012KT CAVOK"
    },
    {
      "icao": "LRCV",
      "alert": "OK",
      "vis_m": 9999,
      "fzfg": false,
      "metar_trigger": false,
      "taf_trigger": false,
      "metar": "METAR LRCV 241600Z 28016KT CAVOK 19/04 Q1010",
      "taf": "TAF LRCV 241400Z 2415/2424 28014KT CAVOK"
    },
    {
      "icao": "LRIA",
      "alert": "OK",
      "vis_m": 9999,
      "fzfg": false,
      "metar_trigger": false,
      "taf_trigger": false,
      "metar": "METAR LRIA 241600Z 33011KT CAVOK 15/M00 Q1010",
      "taf": "TAF LRIA 241400Z 2415/2424 32016KT CAVOK"
    },
    {
      "icao": "LROP",
      "alert": "OK",
      "vis_m": 9999,
      "fzfg": false,
      "metar_trigger": false,
      "taf_trigger": false,
      "metar": "METAR LROP 241600Z 26010KT CAVOK 20/02 Q1009 NOSIG",
      "taf": "TAF LROP 241100Z 2412/2512 29010KT CAVOK"
    },
    {
      "icao": "LRSB",
      "alert": "OK",
      "vis_m": 9999,
      "fzfg": false,
      "metar_trigger": false,
      "taf_trigger": false,
      "metar": "METAR LRSB 241600Z 01010KT 9999 BKN068 16/03 Q1012 NOSIG",
      "taf": "TAF LRSB 241100Z 2412/2512 33010KT CAVOK"
    },
    {
      "icao": "LRSM",
      "alert": "OK",
      "vis_m": 9999,
      "fzfg": false,
      "metar_trigger": false,
      "taf_trigger": false,
      "metar": "METAR LRSM 241600Z 35010KT CAVOK 18/03 Q1012",
      "taf": "TAF LRSM 241400Z 2415/2424 33010KT CAVOK"
    },
    {
      "icao": "LRSV",
      "alert": "OK",
      "vis_m": 9999,
      "fzfg": false,
      "metar_trigger": false,
      "taf_trigger": false,
      "metar": "METAR LRSV 241600Z 33015KT CAVOK 13/M01 Q1010",
      "taf": "TAF LRSV 241400Z 2415/2424 33020KT CAVOK"
    },
    {
      "icao": "LRTM",
      "alert": "OK",
      "vis_m": 9999,
      "fzfg": false,
      "metar_trigger": false,
      "taf_trigger": false,
      "metar": "METAR LRTM 241600Z 30010KT 270V330 CAVOK 16/02 Q1012",
      "taf": "TAF LRTM 241400Z 2415/2424 30015KT CAVOK"
    },
    {
      "icao": "LRTR",
      "alert": "OK",
      "vis_m": 9999,
      "fzfg": false,
      "metar_trigger": false,
      "taf_trigger": false,
      "metar": "METAR LRTR 241600Z 33004KT 290V030 CAVOK 19/03 Q1013",
      "taf": "TAF LRTR 241100Z 2412/2512 VRB04KT CAVOK"
    },
    {
      "icao": "LTAC",
      "alert": "OK",
      "vis_m": 9999,
      "fzfg": false,
      "metar_trigger": false,
      "taf_trigger": false,
      "metar": "METAR LTAC 241620Z 25006KT 9999 FEW040 11/02 Q1013 NOSIG RMK RWY21C 25006KT RWY03L 24006KT RWY21R 24006KT RWY03R 23006KT 200V260 RWY21L 25007KT",
      "taf": "TAF LTAC 241040Z 2412/2512 VRB02KT 9999 FEW040"
    },
    {
      "icao": "LTFM",
      "alert": "OK",
      "vis_m": 9999,
      "fzfg": false,
      "metar_trigger": false,
      "taf_trigger": false,
      "metar": "METAR LTFM 241620Z 21006KT CAVOK 17/05 Q1013 NOSIG RMK RWY17L 22007G18KT 180V240 RWY34L 23006KT RWY16R 22005KT RWY36 22006KT RWY18 24006KT 210V270",
      "taf": "TAF LTFM 241040Z 2412/2518 21012KT 9999 SCT030"
    },
    {
      "icao": "LUKK",
      "alert": "OK",
      "vis_m": 9999,
      "fzfg": false,
      "metar_trigger": false,
      "taf_trigger": false,
      "metar": "METAR LUKK 241600Z 35010KT 300V020 CAVOK 14/M04 Q1009 NOSIG",
      "taf": "TAF LUKK 241102Z 2412/2512 32014KT CAVOK"
    },
    {
      "icao": "LWOH",
      "alert": "OK",
      "vis_m": 9999,
      "fzfg": false,
      "metar_trigger": false,
      "taf_trigger": false,
      "metar": "METAR LWOH 241620Z VRB02KT 9999 FEW045 15/04 Q1013",
      "taf": "TAF LWOH 241420Z 2415/2515 15006KT CAVOK"
    },
    {
      "icao": "LWSK",
      "alert": "OK",
      "vis_m": 9999,
      "fzfg": false,
      "metar_trigger": false,
      "taf_trigger": false,
      "metar": "METAR LWSK 241620Z 36009KT CAVOK 21/04 Q1012 NOSIG",
      "taf": "TAF LWSK 241420Z 2415/2515 30006KT CAVOK"
    },
    {
      "icao": "LYBE",
      "alert": "OK",
      "vis_m": 9999,
      "fzfg": false,
      "metar_trigger": false,
      "taf_trigger": false,
      "metar": "METAR LYBE 241600Z 31009KT CAVOK 19/04 Q1014 NOSIG",
      "taf": "TAF LYBE 241100Z 2412/2512 32012KT CAVOK TX23/2512Z TN07/2504Z"
    },
    {
      "icao": "LYNI",
      "alert": "OK",
      "vis_m": 9999,
      "fzfg": false,
      "metar_trigger": false,
      "taf_trigger": false,
      "metar": "METAR LYNI 241600Z 33012KT 300V360 CAVOK 19/03 Q1013 NOSIG",
      "taf": "TAF LYNI 241100Z 2412/2512 31014KT 9999 SCT060 TX22/2512Z TN05/2504Z"
    },
    {
      "icao": "LYPG",
      "alert": "OK",
      "vis_m": 9999,
      "fzfg": false,
      "metar_trigger": false,
      "taf_trigger": false,
      "metar": "METAR LYPG 241600Z 17010KT 140V200 CAVOK 21/04 Q1013 NOSIG",
      "taf": "TAF LYPG 241100Z 2412/2512 17007KT CAVOK TX22/2413Z TN08/2504Z"
    },
    {
      "icao": "LZIB",
      "alert": "OK",
      "vis_m": 9999,
      "fzfg": false,
      "metar_trigger": false,
      "taf_trigger": false,
      "metar": "METAR LZIB 241600Z 31013KT CAVOK 21/M01 Q1013 NOSIG",
      "taf": "TAF LZIB 241115Z 2412/2512 31013KT CAVOK"
    },
    {
      "icao": "LZKZ",
      "alert": "OK",
      "vis_m": 9999,
      "fzfg": false,
      "metar_trigger": false,
      "taf_trigger": false,
      "metar": "METAR LZKZ 241600Z 03007KT CAVOK 16/02 Q1013 NOSIG",
      "taf": ""
    },
    {
      "icao": "LZTT",
      "alert": "OK",
      "vis_m": 9999,
      "fzfg": false,
      "metar_trigger": false,
      "taf_trigger": false,
      "metar": "METAR LZTT 241600Z 27017KT 9999 FEW046 13/00 Q1013 NOSIG",
      "taf": "TAF LZTT 241115Z 2412/2512 27009KT 9999 FEW050"
    },
    {
      "icao": "OEJN",
      "alert": "OK",
      "vis_m": 9999,
      "fzfg": false,
      "metar_trigger": false,
      "taf_trigger": false,
      "metar": "METAR OEJN 241600Z 26004KT 9999 FEW040 31/16 Q1005 NOSIG",
      "taf": "TAF OEJN 241100Z 2412/2518 26010KT 7000 SCT040"
    },
    {
      "icao": "OEMA",
      "alert": "OK",
      "vis_m": 9999,
      "fzfg": false,
      "metar_trigger": false,
      "taf_trigger": false,
      "metar": "METAR OEMA 241600Z 20004KT 9999 SCT045 31/10 Q1009 NOSIG",
      "taf": "TAF OEMA 241100Z 2412/2518 26015KT 7000 SCT045"
    },
    {
      "icao": "OJAI",
      "alert": "OK",
      "vis_m": 5000,
      "fzfg": false,
      "metar_trigger": false,
      "taf_trigger": false,
      "metar": "METAR OJAI 241600Z 31006KT 5000 HZ NSC 21/01 Q1010 NOSIG",
      "taf": "TAF OJAI 241055Z 2412/2518 27004KT 5000 HZ NSC"
    },
    {
      "icao": "OMAA",
      "alert": "OK",
      "vis_m": 9999,
      "fzfg": false,
      "metar_trigger": false,
      "taf_trigger": false,
      "metar": "METAR OMAA 241630Z 35009KT CAVOK 29/22 Q1008 NOSIG",
      "taf": "TAF OMAA 241100Z 2412/2518 35012KT 8000 NSC"
    },
    {
      "icao": "OMDB",
      "alert": "OK",
      "vis_m": 9999,
      "fzfg": false,
      "metar_trigger": false,
      "taf_trigger": false,
      "metar": "METAR OMDB 241630Z 32010KT CAVOK 31/18 Q1008 NOSIG",
      "taf": "TAF OMDB 241100Z 2412/2518 35012KT CAVOK"
    },
    {
      "icao": "UAAA",
      "alert": "OK",
      "vis_m": 9999,
      "fzfg": false,
      "metar_trigger": false,
      "taf_trigger": false,
      "metar": "METAR UAAA 241600Z 00000MPS 9999 SCT050 BKN100 14/12 Q1017 NOSIG",
      "taf": "TAF UAAA 241105Z 2412/2512 16003MPS 9999 FEW050CB SCT100 TX23/2509Z TN09/2501Z"
    },
    {
      "icao": "UBBB",
      "alert": "OK",
      "vis_m": 9999,
      "fzfg": false,
      "metar_trigger": false,
      "taf_trigger": false,
      "metar": "METAR UBBB 241600Z 36007KT 9999 BKN008 10/09 Q1008 NOSIG",
      "taf": "TAF UBBB 241056Z 2412/2512 04008KT 9999 SCT030 TX17/2412Z TN09/2500Z"
    },
    {
      "icao": "UDSG",
      "alert": "OK",
      "vis_m": 9999,
      "fzfg": false,
      "metar_trigger": false,
      "taf_trigger": false,
      "metar": "METAR UDSG 241600Z 01008KT 9999 SCT036CB BKN043 06/02 Q1012 NOSIG",
      "taf": "TAF UDSG 241058Z 2412/2512 27008KT 9999 BKN040"
    },
    {
      "icao": "UDYZ",
      "alert": "OK",
      "vis_m": 9999,
      "fzfg": false,
      "metar_trigger": false,
      "taf_trigger": false,
      "metar": "METAR UDYZ 241600Z 27012KT 9999 SCT///CB 18/01 Q1007 NOSIG",
      "taf": "TAF UDYZ 241100Z 2412/2512 06006KT 9999 SCT040"
    },
    {
      "icao": "UGKO",
      "alert": "OK",
      "vis_m": 9999,
      "fzfg": false,
      "metar_trigger": false,
      "taf_trigger": false,
      "metar": "METAR UGKO 241600Z VRB02KT 9999 SCT090 12/06 Q1014 NOSIG",
      "taf": "TAF UGKO 241100Z 2412/2512 26007KT 9999 BKN070 TX18/2511Z TN05/2502Z"
    }
  ]
}