{
  "ts_utc": "2026-01-28T23:35:45Z",
  "threshold_m": 150,
  "source": "stations_override.txt (ICAO list) + aviationweather.gov (METAR/TAF raw)",
  "station_count": 159,
  "stations": [
    {
      "icao": "BIKF",
      "alert": "OK",
      "vis_m": 9999,
      "fzfg": false,
      "metar_trigger": false,
      "taf_trigger": false,
      "metar": "METAR BIKF 282330Z 06016KT CAVOK 04/M04 Q0999",
      "taf": "TAF BIKF 282225Z 2900/3000 05014KT 9999 FEW025 TX05/2915Z TN02/2906Z"
    },
    {
      "icao": "BKPR",
      "alert": "OK",
      "vis_m": 9999,
      "fzfg": false,
      "metar_trigger": false,
      "taf_trigger": false,
      "metar": "METAR BKPR 282330Z 21007KT 9999 FEW060 04/03 Q0998 NOSIG",
      "taf": "TAF BKPR 281730Z 2818/2918 18008KT 9999 BKN040"
    },
    {
      "icao": "EBCI",
      "alert": "OK",
      "vis_m": 2000,
      "fzfg": false,
      "metar_trigger": false,
      "taf_trigger": false,
      "metar": "METAR EBCI 282320Z 36004KT 340V040 2000 BR BKN003 04/03 Q0997 NOSIG",
      "taf": "TAF EBCI 282301Z 2900/3006 01004KT 3000 BR BKN003"
    },
    {
      "icao": "EDDB",
      "alert": "OK",
      "vis_m": 9999,
      "fzfg": false,
      "metar_trigger": false,
      "taf_trigger": false,
      "metar": "METAR EDDB 282320Z AUTO 09009KT 060V130 9999 OVC013 M01/M03 Q1002 NOSIG",
      "taf": "TAF EDDB 282300Z 2900/2924 07010KT 9999 OVC012"
    },
    {
      "icao": "EDDH",
      "alert": "OK",
      "vis_m": 9999,
      "fzfg": false,
      "metar_trigger": false,
      "taf_trigger": false,
      "metar": "METAR EDDH 282320Z AUTO 08011KT 040V110 9999 BKN015 OVC020 01/M02 Q1002 TEMPO BKN014",
      "taf": "TAF EDDH 282300Z 2900/3006 08010KT 9999 OVC015"
    },
    {
      "icao": "EDDK",
      "alert": "OK",
      "vis_m": 2800,
      "fzfg": false,
      "metar_trigger": false,
      "taf_trigger": false,
      "metar": "METAR EDDK 282320Z AUTO 23003KT 170V300 2800 SN BR BKN003 BKN006 00/M00 Q0996 TEMPO 1400",
      "taf": "TAF EDDK 282300Z 2900/3006 11003KT 6000 OVC007"
    },
    {
      "icao": "EDDN",
      "alert": "OK",
      "vis_m": 9999,
      "fzfg": false,
      "metar_trigger": false,
      "taf_trigger": false,
      "metar": "METAR EDDN 282320Z AUTO 04002KT 9999 OVC010 01/M01 Q0994",
      "taf": "TAF EDDN 282300Z 2900/2924 VRB03KT 9999 OVC012"
    },
    {
      "icao": "EDDS",
      "alert": "OK",
      "vis_m": 6000,
      "fzfg": false,
      "metar_trigger": false,
      "taf_trigger": false,
      "metar": "METAR EDDS 282320Z AUTO 33004KT 6000 BKN004 02/01 Q0993",
      "taf": "TAF EDDS 282300Z 2900/2924 VRB03KT 6000 BKN005"
    },
    {
      "icao": "EDFH",
      "alert": "OK",
      "vis_m": 550,
      "fzfg": false,
      "metar_trigger": false,
      "taf_trigger": false,
      "metar": "METAR EDFH 282320Z 31002KT 0550 R21/0700U SN VV/// 00/00 Q0994",
      "taf": "TAF EDFH 282300Z 2900/2924 VRB03KT 3000 -SN OVC005"
    },
    {
      "icao": "EDJA",
      "alert": "OK",
      "vis_m": 4500,
      "fzfg": false,
      "metar_trigger": false,
      "taf_trigger": false,
      "metar": "METAR EDJA 282320Z AUTO 22004KT 4500 // SCT002/// OVC005/// 00/M01 Q0992",
      "taf": "TAF EDJA 281700Z 2818/2903 24005KT 6000 SCT005 BKN010"
    },
    {
      "icao": "EDLW",
      "alert": "OK",
      "vis_m": 2800,
      "fzfg": false,
      "metar_trigger": false,
      "taf_trigger": false,
      "metar": "METAR EDLW 282320Z AUTO 03006KT 2800 // SCT003/// OVC005/// M00/M01 Q0996",
      "taf": "TAF EDLW 281700Z 2818/2918 07007KT 5000 BR SCT003 BKN005"
    },
    {
      "icao": "EDNY",
      "alert": "OK",
      "vis_m": 9999,
      "fzfg": false,
      "metar_trigger": false,
      "taf_trigger": false,
      "metar": "METAR EDNY 282320Z AUTO 26005KT 9999 // OVC009/// 03/02 Q0993",
      "taf": "TAF EDNY 281700Z 2818/2903 VRB02KT 6000 BKN020"
    },
    {
      "icao": "EDSB",
      "alert": "OK",
      "vis_m": 7000,
      "fzfg": false,
      "metar_trigger": false,
      "taf_trigger": false,
      "metar": "METAR EDSB 282320Z AUTO 01005KT 7000 OVC006/// 03/02 Q0995",
      "taf": "TAF EDSB 282300Z 2900/2924 VRB03KT 6000 BKN008"
    },
    {
      "icao": "EETN",
      "alert": "OK",
      "vis_m": 9999,
      "fzfg": false,
      "metar_trigger": false,
      "taf_trigger": false,
      "metar": "METAR EETN 282320Z 08014KT 9999 -SN BKN018 M08/M10 Q1015",
      "taf": "TAF EETN 282330Z 2900/2924 09014KT 9999 BKN015"
    },
    {
      "icao": "EFTU",
      "alert": "OK",
      "vis_m": 9999,
      "fzfg": false,
      "metar_trigger": false,
      "taf_trigger": false,
      "metar": "METAR EFTU 282320Z AUTO 10006KT 070V130 9999 -SHSN OVC012 M11/M13 Q1018",
      "taf": "TAF EFTU 282034Z 2821/2921 09008KT 9999 BKN010"
    },
    {
      "icao": "EGBB",
      "alert": "OK",
      "vis_m": 5000,
      "fzfg": false,
      "metar_trigger": false,
      "taf_trigger": false,
      "metar": "METAR EGBB 282320Z 16003KT 5000 R15/0375N BR MIFG NSC M01/M01 Q0997",
      "taf": "TAF EGBB 282256Z 2900/2924 VRB04KT 9999 FEW025"
    },
    {
      "icao": "EGGP",
      "alert": "OK",
      "vis_m": 9999,
      "fzfg": false,
      "metar_trigger": false,
      "taf_trigger": false,
      "metar": "METAR EGGP 282320Z 10007KT CAVOK 03/02 Q0996",
      "taf": "TAF EGGP 282258Z 2900/2924 10006KT 9999 FEW020"
    },
    {
      "icao": "EGGW",
      "alert": "OK",
      "vis_m": 50,
      "fzfg": false,
      "metar_trigger": false,
      "taf_trigger": false,
      "metar": "METAR EGGW 282320Z AUTO 13005KT 0050 R25/0375N FG OVC001 03/03 Q0997",
      "taf": "TAF EGGW 282257Z 2900/2924 12005KT 9999 SCT030"
    },
    {
      "icao": "EGKK",
      "alert": "OK",
      "vis_m": 6000,
      "fzfg": true,
      "metar_trigger": false,
      "taf_trigger": false,
      "metar": "METAR EGKK 282320Z 09001KT 6000 2000W PRFG FEW002 M00/M00 Q0997",
      "taf": "TAF EGKK 282254Z 2900/3006 09003KT 0300 FZFG VV///"
    },
    {
      "icao": "EGNM",
      "alert": "OK",
      "vis_m": null,
      "fzfg": false,
      "metar_trigger": false,
      "taf_trigger": false,
      "metar": "",
      "taf": "TAF EGNM 281658Z 2818/2918 VRB02KT 0100 FG VV///"
    },
    {
      "icao": "EGPD",
      "alert": "OK",
      "vis_m": 6000,
      "fzfg": false,
      "metar_trigger": false,
      "taf_trigger": false,
      "metar": "METAR EGPD 282320Z AUTO 13012KT 6000 -RA BKN007 OVC024 05/04 Q1000 RERA REDZ TEMPO 4000 RADZ",
      "taf": "TAF EGPD 282254Z 2900/2924 13012KT 9999 SCT012 BKN025"
    },
    {
      "icao": "EGPF",
      "alert": "OK",
      "vis_m": 3800,
      "fzfg": false,
      "metar_trigger": false,
      "taf_trigger": false,
      "metar": "METAR EGPF 282320Z AUTO 07009KT 3800 BR OVC004 04/04 Q0997",
      "taf": "TAF EGPF 282257Z 2900/2924 09007KT 3000 BR BKN003"
    },
    {
      "icao": "EHBK",
      "alert": "OK",
      "vis_m": 3800,
      "fzfg": false,
      "metar_trigger": false,
      "taf_trigger": false,
      "metar": "METAR EHBK 282325Z AUTO 36005KT 320V040 3800 BR OVC004/// 01/00 Q0997",
      "taf": "TAF EHBK 282309Z 2900/3006 36005KT 3000 BR BKN004"
    },
    {
      "icao": "EHEH",
      "alert": "OK",
      "vis_m": null,
      "fzfg": false,
      "metar_trigger": false,
      "taf_trigger": false,
      "metar": "",
      "taf": "TAF EHEH 281735Z 2818/2924 04010KT 5000 BKN007"
    },
    {
      "icao": "EKBI",
      "alert": "OK",
      "vis_m": 9999,
      "fzfg": false,
      "metar_trigger": false,
      "taf_trigger": false,
      "metar": "METAR EKBI 282320Z AUTO 06016KT 9999 OVC019/// M02/M05 Q1007",
      "taf": "TAF EKBI 282327Z 2900/2924 08015KT 9999 BKN020"
    },
    {
      "icao": "EKCH",
      "alert": "OK",
      "vis_m": 9999,
      "fzfg": false,
      "metar_trigger": false,
      "taf_trigger": false,
      "metar": "METAR EKCH 282320Z AUTO 05013KT 9999 OVC028/// M02/M06 Q1009 NOSIG",
      "taf": "TAF EKCH 282327Z 2900/2924 05015KT 9999 BKN018"
    },
    {
      "icao": "ENAL",
      "alert": "OK",
      "vis_m": 9999,
      "fzfg": false,
      "metar_trigger": false,
      "taf_trigger": false,
      "metar": "METAR ENAL 282320Z AUTO 15011KT 9999 BKN031/// M02/M07 Q1010",
      "taf": "TAF ENAL 282300Z 2900/2909 14008KT 9999 SCT025"
    },
    {
      "icao": "ENBR",
      "alert": "OK",
      "vis_m": 9999,
      "fzfg": false,
      "metar_trigger": false,
      "taf_trigger": false,
      "metar": "METAR ENBR 282320Z 12005KT 9999 SCT028 M04/M06 Q1011 RMK WIND 1200FT 19009KT",
      "taf": "TAF ENBR 282300Z 2900/2924 10003KT 9999 FEW025"
    },
    {
      "icao": "ENGM",
      "alert": "OK",
      "vis_m": 9999,
      "fzfg": false,
      "metar_trigger": false,
      "taf_trigger": false,
      "metar": "METAR ENGM 282320Z 36004KT 9999 -SN OVC029 M10/M12 Q1016",
      "taf": "TAF ENGM 282300Z 2900/2924 02007KT 9999 -SN BKN025"
    },
    {
      "icao": "ENHD",
      "alert": "OK",
      "vis_m": 9999,
      "fzfg": false,
      "metar_trigger": false,
      "taf_trigger": false,
      "metar": "METAR ENHD 282320Z AUTO 11005KT 9999 NCD M07/M13 Q1011",
      "taf": "TAF ENHD 281400Z 2815/2823 10008KT CAVOK"
    },
    {
      "icao": "ENTC",
      "alert": "OK",
      "vis_m": 4700,
      "fzfg": false,
      "metar_trigger": false,
      "taf_trigger": false,
      "metar": "METAR ENTC 282320Z 21006KT 4700 -SN BKN007 OVC008 M06/M08 Q1018 RMK WIND 2600FT 09007KT",
      "taf": "TAF ENTC 282300Z 2900/2924 22005KT 9999 FEW008 SCT025"
    },
    {
      "icao": "ENTO",
      "alert": "OK",
      "vis_m": 9999,
      "fzfg": false,
      "metar_trigger": false,
      "taf_trigger": false,
      "metar": "METAR ENTO 282320Z AUTO 01010KT 9999 -SN OVC030/// M07/M10 Q1015 RESN",
      "taf": "TAF ENTO 282300Z 2900/2924 02008KT 9999 -SN BKN025"
    },
    {
      "icao": "ENVA",
      "alert": "OK",
      "vis_m": 9999,
      "fzfg": false,
      "metar_trigger": false,
      "taf_trigger": false,
      "metar": "METAR ENVA 282320Z 11005KT CAVOK M16/M19 Q1014 RMK WIND 670FT 10009KT",
      "taf": "TAF ENVA 282300Z 2900/2924 10008KT CAVOK"
    },
    {
      "icao": "ENZV",
      "alert": "OK",
      "vis_m": 9999,
      "fzfg": false,
      "metar_trigger": false,
      "taf_trigger": false,
      "metar": "METAR ENZV 282320Z 17003KT CAVOK M07/M13 Q1012",
      "taf": "TAF ENZV 282300Z 2900/2924 13005KT CAVOK"
    },
    {
      "icao": "EPGD",
      "alert": "OK",
      "vis_m": 9999,
      "fzfg": false,
      "metar_trigger": false,
      "taf_trigger": false,
      "metar": "METAR EPGD 282330Z 05010KT 9999 OVC007 M06/M07 Q1005",
      "taf": "TAF EPGD 282330Z 2900/2924 07008KT 9999 OVC007"
    },
    {
      "icao": "EPKK",
      "alert": "OK",
      "vis_m": 3000,
      "fzfg": false,
      "metar_trigger": false,
      "taf_trigger": false,
      "metar": "METAR EPKK 282330Z 06011KT 3000 BR OVC004 00/M01 Q0999",
      "taf": "TAF EPKK 282330Z 2900/2924 06008KT 4000 BR BKN005"
    },
    {
      "icao": "EPKT",
      "alert": "OK",
      "vis_m": 5000,
      "fzfg": false,
      "metar_trigger": false,
      "taf_trigger": false,
      "metar": "METAR EPKT 282330Z 06007KT 5000 BR OVC004 M01/M02 Q0999",
      "taf": "TAF EPKT 282330Z 2900/2924 05010KT 4000 BR BKN004"
    },
    {
      "icao": "EPLB",
      "alert": "OK",
      "vis_m": 9000,
      "fzfg": false,
      "metar_trigger": false,
      "taf_trigger": false,
      "metar": "METAR EPLB 282330Z 03004KT 9000 OVC007 M00/M01 Q1000",
      "taf": "TAF EPLB 282330Z 2900/2924 03005KT 9999 OVC010"
    },
    {
      "icao": "EPMO",
      "alert": "OK",
      "vis_m": 4000,
      "fzfg": false,
      "metar_trigger": false,
      "taf_trigger": false,
      "metar": "METAR EPMO 282330Z 02008KT 4000 BR OVC006 M02/M02 Q1002",
      "taf": "TAF EPMO 282330Z 2900/2924 02006KT 3000 BR OVC006"
    },
    {
      "icao": "EPPO",
      "alert": "OK",
      "vis_m": 6000,
      "fzfg": false,
      "metar_trigger": false,
      "taf_trigger": false,
      "metar": "METAR EPPO 282330Z 06006KT 6000 BKN007 OVC016 M02/M04 Q1002",
      "taf": "TAF EPPO 282330Z 2900/2924 07006KT 6000 OVC006"
    },
    {
      "icao": "EPRA",
      "alert": "OK",
      "vis_m": 500,
      "fzfg": true,
      "metar_trigger": false,
      "taf_trigger": false,
      "metar": "METAR EPRA 282330Z 03004KT 0500 R25/0600N FZFG OVC002 M00/M01 Q1001",
      "taf": "TAF EPRA 282330Z 2900/2909 05006KT 0600 FZFG OVC002"
    },
    {
      "icao": "EPRZ",
      "alert": "OK",
      "vis_m": 2000,
      "fzfg": false,
      "metar_trigger": false,
      "taf_trigger": false,
      "metar": "METAR EPRZ 282330Z 02007KT 2000 BR OVC003 00/M00 Q0999",
      "taf": "TAF EPRZ 282330Z 2900/2924 02006KT 4000 BR OVC005"
    },
    {
      "icao": "EPSC",
      "alert": "OK",
      "vis_m": 5000,
      "fzfg": false,
      "metar_trigger": false,
      "taf_trigger": false,
      "metar": "METAR EPSC 282330Z 05006KT 020V080 5000 BR OVC004 M01/M02 Q1004",
      "taf": "TAF EPSC 282330Z 2900/2924 05008KT 9999 BKN007"
    },
    {
      "icao": "EPSY",
      "alert": "OK",
      "vis_m": 7000,
      "fzfg": false,
      "metar_trigger": false,
      "taf_trigger": false,
      "metar": "METAR EPSY 282330Z 36010KT 7000 OVC006 M07/M08 Q1003",
      "taf": "TAF EPSY 282330Z 2900/2909 02010KT 6000 OVC006"
    },
    {
      "icao": "EPWA",
      "alert": "OK",
      "vis_m": 4000,
      "fzfg": false,
      "metar_trigger": false,
      "taf_trigger": false,
      "metar": "METAR EPWA 282330Z 01007KT 4000 BR BKN003 M00/M01 Q1002 NOSIG",
      "taf": "TAF EPWA 282330Z 2900/2924 02008KT 3500 BR BKN003"
    },
    {
      "icao": "EPWR",
      "alert": "OK",
      "vis_m": 9999,
      "fzfg": false,
      "metar_trigger": false,
      "taf_trigger": false,
      "metar": "METAR EPWR 282330Z 08010KT 050V110 9999 BKN013 M01/M03 Q1000",
      "taf": "TAF EPWR 282330Z 2900/2924 07010KT 9999 OVC013"
    },
    {
      "icao": "ESGG",
      "alert": "OK",
      "vis_m": 9999,
      "fzfg": false,
      "metar_trigger": false,
      "taf_trigger": false,
      "metar": "METAR ESGG 282320Z 03007KT 9999 FEW029 M10/M11 Q1011",
      "taf": "TAF ESGG 282330Z 2900/2924 05008KT CAVOK"
    },
    {
      "icao": "ESKN",
      "alert": "OK",
      "vis_m": 9999,
      "fzfg": false,
      "metar_trigger": false,
      "taf_trigger": false,
      "metar": "METAR ESKN 282320Z 01007KT 9999 BKN035 M06/M08 Q1015",
      "taf": "TAF ESKN 282330Z 2900/2924 02008KT 9999 BKN035"
    },
    {
      "icao": "ESMS",
      "alert": "OK",
      "vis_m": 9999,
      "fzfg": false,
      "metar_trigger": false,
      "taf_trigger": false,
      "metar": "METAR ESMS 282320Z AUTO 08016KT 9999 OVC025/// M01/M06 Q1007",
      "taf": "TAF ESMS 282327Z 2900/2924 05014KT 9999 OVC020"
    },
    {
      "icao": "ESSA",
      "alert": "OK",
      "vis_m": 9999,
      "fzfg": false,
      "metar_trigger": false,
      "taf_trigger": false,
      "metar": "METAR ESSA 282320Z 04004KT 9999 SCT014 M13/M14 Q1016 TEMPO BKN014",
      "taf": "TAF ESSA 282330Z 2900/2924 04004KT 9999 SCT012 BKN015"
    },
    {
      "icao": "EYKA",
      "alert": "OK",
      "vis_m": 9999,
      "fzfg": false,
      "metar_trigger": false,
      "taf_trigger": false,
      "metar": "METAR EYKA 282320Z AUTO 03006KT 350V070 9999 OVC010/// M08/M10 Q1005",
      "taf": "TAF EYKA 282300Z 2900/2924 03009KT 8000 OVC010"
    },
    {
      "icao": "EYPA",
      "alert": "OK",
      "vis_m": 9999,
      "fzfg": false,
      "metar_trigger": false,
      "taf_trigger": false,
      "metar": "METAR EYPA 282320Z AUTO 05007KT 9999 NCD M12/M15 Q1009",
      "taf": ""
    },
    {
      "icao": "EYVI",
      "alert": "OK",
      "vis_m": 9999,
      "fzfg": false,
      "metar_trigger": false,
      "taf_trigger": false,
      "metar": "METAR EYVI 282320Z 04010KT 9999 -SN OVC004 M08/M10 Q1003 NOSIG",
      "taf": "TAF EYVI 282300Z 2900/2924 04010KT 8000 OVC005"
    },
    {
      "icao": "GCFV",
      "alert": "OK",
      "vis_m": 9999,
      "fzfg": false,
      "metar_trigger": false,
      "taf_trigger": false,
      "metar": "METAR GCFV 282300Z 31006KT 270V010 9999 SCT025 BKN030 20/12 Q1023",
      "taf": "TAF GCFV 282000Z 2821/2921 32003KT 9999 FEW020 BKN025 TX23/2914Z TN14/2906Z"
    },
    {
      "icao": "GCLP",
      "alert": "OK",
      "vis_m": 9999,
      "fzfg": false,
      "metar_trigger": false,
      "taf_trigger": false,
      "metar": "METAR GCLP 282300Z 01006KT 9999 BKN030 18/16 Q1023 NOSIG",
      "taf": "TAF GCLP 282000Z 2821/2921 35007KT 9999 FEW020 BKN030 TX22/2914Z TN15/2906Z"
    },
    {
      "icao": "GCTS",
      "alert": "OK",
      "vis_m": 9999,
      "fzfg": false,
      "metar_trigger": false,
      "taf_trigger": false,
      "metar": "METAR GCTS 282300Z 00000KT 9999 BKN030 19/17 Q1024 NOSIG",
      "taf": "TAF GCTS 282000Z 2821/2921 14005KT 9999 BKN030 TX23/2914Z TN16/2906Z"
    },
    {
      "icao": "GMAD",
      "alert": "OK",
      "vis_m": 8000,
      "fzfg": false,
      "metar_trigger": false,
      "taf_trigger": false,
      "metar": "METAR GMAD 282330Z 20006KT 8000 SCT005 SCT013 15/15 Q1021 NOSIG",
      "taf": "TAF GMAD 282300Z 2900/3006 06008KT 8000 BKN016"
    },
    {
      "icao": "GMMN",
      "alert": "OK",
      "vis_m": 9999,
      "fzfg": false,
      "metar_trigger": false,
      "taf_trigger": false,
      "metar": "METAR GMMN 282330Z 22015KT 200V260 9999 BKN008 BKN016 15/13 Q1020 NOSIG",
      "taf": "TAF GMMN 282300Z 2900/3006 22016KT 9999 BKN008 BKN016"
    },
    {
      "icao": "GMMX",
      "alert": "OK",
      "vis_m": 9999,
      "fzfg": false,
      "metar_trigger": false,
      "taf_trigger": false,
      "metar": "METAR GMMX 282330Z 26003KT 9999 FEW080 BKN200 15/12 Q1021 NOSIG",
      "taf": "TAF GMMX 281700Z 2818/2924 28006KT 9999 SCT020 SCT090"
    },
    {
      "icao": "HEGN",
      "alert": "OK",
      "vis_m": 6000,
      "fzfg": false,
      "metar_trigger": false,
      "taf_trigger": false,
      "metar": "METAR HEGN 282300Z 29011KT 6000 NSC 15/03 Q1020 NOSIG",
      "taf": "TAF HEGN 282300Z 2900/3006 26008KT 6000 NSC"
    },
    {
      "icao": "HEMA",
      "alert": "OK",
      "vis_m": 6000,
      "fzfg": false,
      "metar_trigger": false,
      "taf_trigger": false,
      "metar": "METAR HEMA 282300Z 26007KT 6000 NSC 15/M01 Q1019 NOSIG",
      "taf": "TAF HEMA 282300Z 2900/3006 26008KT 6000 NSC"
    },
    {
      "icao": "HESH",
      "alert": "OK",
      "vis_m": 6000,
      "fzfg": false,
      "metar_trigger": false,
      "taf_trigger": false,
      "metar": "METAR HESH 282300Z 34005KT 6000 NSC 17/07 Q1019 NOSIG",
      "taf": "TAF HESH 282300Z 2900/3006 30008KT 6000 NSC"
    },
    {
      "icao": "HESX",
      "alert": "OK",
      "vis_m": 9999,
      "fzfg": false,
      "metar_trigger": false,
      "taf_trigger": false,
      "metar": "METAR HESX 282300Z 20003KT CAVOK 11/04 Q1020 NOSIG",
      "taf": "TAF HESX 282300Z 2900/3006 24009KT 9999 SCT020"
    },
    {
      "icao": "LATI",
      "alert": "OK",
      "vis_m": 9999,
      "fzfg": false,
      "metar_trigger": false,
      "taf_trigger": false,
      "metar": "METAR LATI 282320Z 18003KT CAVOK 10/06 Q1000 NOSIG",
      "taf": "TAF LATI 282300Z 2900/2924 VRB05KT 9999 SCT030 BKN050 TX12/2912Z TN08/2905Z"
    },
    {
      "icao": "LBPD",
      "alert": "OK",
      "vis_m": 9999,
      "fzfg": false,
      "metar_trigger": false,
      "taf_trigger": false,
      "metar": "METAR LBPD 282330Z AUTO VRB04KT 9999 FEW067/// 04/04 Q1001",
      "taf": "TAF LBPD 282300Z 2900/2924 VRB04KT 9999 BKN040"
    },
    {
      "icao": "LBSF",
      "alert": "OK",
      "vis_m": 9000,
      "fzfg": false,
      "metar_trigger": false,
      "taf_trigger": false,
      "metar": "METAR LBSF 282330Z AUTO 10007KT 9000 SCT049/// 02/00 Q1000 NOSIG",
      "taf": "TAF LBSF 282300Z 2900/2924 VRB04KT 5000 BR SCT015 BKN040"
    },
    {
      "icao": "LBWN",
      "alert": "OK",
      "vis_m": 9999,
      "fzfg": false,
      "metar_trigger": false,
      "taf_trigger": false,
      "metar": "METAR LBWN 282330Z AUTO 17007KT 9999 NSC 09/05 Q1001 NOSIG",
      "taf": "TAF LBWN 282300Z 2900/2924 09008KT 7000 SCT020 BKN050"
    },
    {
      "icao": "LCLK",
      "alert": "OK",
      "vis_m": 9999,
      "fzfg": false,
      "metar_trigger": false,
      "taf_trigger": false,
      "metar": "METAR LCLK 282330Z 26005KT CAVOK 11/09 Q1015 NOSIG",
      "taf": "TAF LCLK 282330Z 2900/3000 28006KT 9999 FEW030"
    },
    {
      "icao": "LCPH",
      "alert": "OK",
      "vis_m": 9999,
      "fzfg": false,
      "metar_trigger": false,
      "taf_trigger": false,
      "metar": "METAR LCPH 282330Z 00000KT 9999 FEW030 SCT050 16/10 Q1015 NOSIG",
      "taf": "TAF LCPH 282330Z 2900/3000 02008KT 9999 FEW030 SCT040"
    },
    {
      "icao": "LEAL",
      "alert": "OK",
      "vis_m": 9999,
      "fzfg": false,
      "metar_trigger": false,
      "taf_trigger": false,
      "metar": "METAR LEAL 282300Z VRB02KT CAVOK 15/05 Q1005 NOSIG",
      "taf": "TAF LEAL 282300Z 2900/2924 VRB04KT 9999 FEW040 TX22/2914Z TN11/2906Z"
    },
    {
      "icao": "LEBB",
      "alert": "OK",
      "vis_m": 9999,
      "fzfg": false,
      "metar_trigger": false,
      "taf_trigger": false,
      "metar": "METAR LEBB 282300Z AUTO VRB03KT CAVOK 11/03 Q1000",
      "taf": "TAF LEBB 282300Z 2900/2924 22009KT 9999 FEW030 TX16/2914Z TN08/2906Z"
    },
    {
      "icao": "LEBL",
      "alert": "OK",
      "vis_m": 9999,
      "fzfg": false,
      "metar_trigger": false,
      "taf_trigger": false,
      "metar": "METAR LEBL 282300Z VRB02KT 9999 FEW020 08/03 Q1001 NOSIG",
      "taf": "TAF LEBL 282300Z 2900/2924 27008KT 9999 FEW020 TX14/2912Z TN07/2906Z"
    },
    {
      "icao": "LECH",
      "alert": "OK",
      "vis_m": 9999,
      "fzfg": false,
      "metar_trigger": false,
      "taf_trigger": false,
      "metar": "METAR LECH 282300Z AUTO 26007KT 230V330 CAVOK 10/M01 Q1002",
      "taf": ""
    },
    {
      "icao": "LEMD",
      "alert": "OK",
      "vis_m": 9999,
      "fzfg": false,
      "metar_trigger": false,
      "taf_trigger": false,
      "metar": "METAR LEMD 282300Z 24011G21KT 9999 -DZ FEW025 SCT060 BKN080 09/05 Q1004 NOSIG",
      "taf": "TAF LEMD 282300Z 2900/3006 25010KT 9999 SCT050 TX14/2915Z TN05/2904Z"
    },
    {
      "icao": "LEMG",
      "alert": "OK",
      "vis_m": 9999,
      "fzfg": false,
      "metar_trigger": false,
      "taf_trigger": false,
      "metar": "METAR LEMG 282300Z 27003KT 9999 FEW025 SCT065 13/09 Q1009 NOSIG",
      "taf": "TAF LEMG 282300Z 2900/2924 29006KT 9999 FEW020 BKN025 TX19/2914Z TN13/2907Z"
    },
    {
      "icao": "LEVC",
      "alert": "OK",
      "vis_m": 9999,
      "fzfg": false,
      "metar_trigger": false,
      "taf_trigger": false,
      "metar": "METAR LEVC 282300Z 31009KT 270V340 CAVOK 11/05 Q1003 NOSIG",
      "taf": "TAF LEVC 282300Z 2900/2924 29009KT 9999 FEW030 TX21/2914Z TN09/2906Z"
    },
    {
      "icao": "LEXJ",
      "alert": "OK",
      "vis_m": 9999,
      "fzfg": false,
      "metar_trigger": false,
      "taf_trigger": false,
      "metar": "METAR LEXJ 282300Z AUTO 29005KT 230V340 9999 2900E SCT080 10/02 Q0999",
      "taf": "TAF LEXJ 282000Z 2821/2921 22009KT 9999 FEW040 TX16/2914Z TN09/2905Z"
    },
    {
      "icao": "LEZG",
      "alert": "OK",
      "vis_m": 9999,
      "fzfg": false,
      "metar_trigger": false,
      "taf_trigger": false,
      "metar": "METAR LEZG 282300Z 12003KT 030V190 CAVOK 06/04 Q1002 NOSIG",
      "taf": "TAF LEZG 282300Z 2900/2924 26010KT 9999 FEW040 TX14/2913Z TN06/2900Z"
    },
    {
      "icao": "LEZL",
      "alert": "OK",
      "vis_m": 5000,
      "fzfg": false,
      "metar_trigger": false,
      "taf_trigger": false,
      "metar": "METAR LEZL 282300Z 22012KT 190V250 5000 -DZ OVC004 16/16 Q1009 REDZ NOSIG",
      "taf": ""
    },
    {
      "icao": "LFBD",
      "alert": "OK",
      "vis_m": 9999,
      "fzfg": false,
      "metar_trigger": false,
      "taf_trigger": false,
      "metar": "METAR LFBD 282330Z AUTO 18009KT 9999 FEW025/// BKN031/// BKN048/// ///TCU 06/06 Q0998 TEMPO 4000 SHRA BKN015 FEW025CB BKN030TCU",
      "taf": "TAF LFBD 282300Z 2900/3006 18010KT CAVOK TX12/2915Z TN06/2900Z"
    },
    {
      "icao": "LFLL",
      "alert": "OK",
      "vis_m": 7000,
      "fzfg": false,
      "metar_trigger": false,
      "taf_trigger": false,
      "metar": "METAR LFLL 282330Z 20002KT 7000 -RA OVC019 05/04 Q0997 NOSIG",
      "taf": "TAF LFLL 281700Z 2818/2924 34007KT 9999 BKN020 OVC042"
    },
    {
      "icao": "LFLS",
      "alert": "OK",
      "vis_m": 9999,
      "fzfg": false,
      "metar_trigger": false,
      "taf_trigger": false,
      "metar": "METAR LFLS 282330Z AUTO VRB01KT 9999 -RADZ FEW007 OVC012 03/03 Q0997",
      "taf": "TAF LFLS 281400Z 2815/2915 VRB05KT 6000 -RA SCT012 OVC020"
    },
    {
      "icao": "LFMN",
      "alert": "OK",
      "vis_m": 9999,
      "fzfg": false,
      "metar_trigger": false,
      "taf_trigger": false,
      "metar": "METAR LFMN 282300Z 33008KT 9999 FEW016 SCT020 BKN060 08/06 Q0991 NOSIG",
      "taf": "TAF LFMN 282000Z 2821/3003 34010KT 9999 SCT060"
    },
    {
      "icao": "LFOB",
      "alert": "OK",
      "vis_m": 1500,
      "fzfg": true,
      "metar_trigger": false,
      "taf_trigger": false,
      "metar": "METAR LFOB 282330Z AUTO 28004KT 1500 0900 R30/2600D R12/0900U BCFG VV/// M01/M01 Q0998 TEMPO 0400 FZFG",
      "taf": "TAF LFOB 282300Z 2900/2924 VRB03KT 3000 BR OVC003"
    },
    {
      "icao": "LFPO",
      "alert": "OK",
      "vis_m": 3200,
      "fzfg": false,
      "metar_trigger": false,
      "taf_trigger": false,
      "metar": "METAR LFPO 282330Z AUTO 25003KT 3200 0450 R02/P2000 R25/P2000 R07/0500D R24/0650U R06/1000U BCFG FEW009 02/02 Q0998 BECMG 0800 FG VV///",
      "taf": "TAF LFPO 282300Z 2900/3006 VRB03KT 3000 BR NSC"
    },
    {
      "icao": "LFSB",
      "alert": "OK",
      "vis_m": 9999,
      "fzfg": false,
      "metar_trigger": false,
      "taf_trigger": false,
      "metar": "METAR LFSB 282330Z AUTO VRB02KT 9999 -DZ SCT011 BKN016 OVC029 03/02 Q0995 TEMPO OVC008",
      "taf": "TAF LFSB 282300Z 2900/2924 26005KT 9999 FEW010 OVC016"
    },
    {
      "icao": "LGAV",
      "alert": "OK",
      "vis_m": 9999,
      "fzfg": false,
      "metar_trigger": false,
      "taf_trigger": false,
      "metar": "METAR LGAV 282320Z 19019KT 9999 SCT015 BKN060 15/12 Q1006 NOSIG",
      "taf": "TAF LGAV 282300Z 2900/2924 22010KT 9999 FEW018 SCT070"
    },
    {
      "icao": "LGTS",
      "alert": "OK",
      "vis_m": 9999,
      "fzfg": false,
      "metar_trigger": false,
      "taf_trigger": false,
      "metar": "METAR LGTS 282320Z 24003KT 9999 FEW030 09/09 Q1002 NOSIG",
      "taf": "TAF LGTS 282300Z 2900/2924 34008KT 9999 FEW010 BKN025"
    },
    {
      "icao": "LHBP",
      "alert": "OK",
      "vis_m": 9999,
      "fzfg": false,
      "metar_trigger": false,
      "taf_trigger": false,
      "metar": "METAR LHBP 282330Z 06006G17KT 030V090 9999 OVC049 04/02 Q0995 NOSIG",
      "taf": "TAF LHBP 282315Z 2900/2924 06010KT 8000 -RA FEW005 OVC045"
    },
    {
      "icao": "LHDC",
      "alert": "OK",
      "vis_m": 9999,
      "fzfg": false,
      "metar_trigger": false,
      "taf_trigger": false,
      "metar": "METAR LHDC 282315Z AUTO 07009KT CAVOK 04/03 Q0996",
      "taf": "TAF LHDC 281415Z 2815/2824 13006KT 9999 BKN045 OVC080"
    },
    {
      "icao": "LIBD",
      "alert": "OK",
      "vis_m": 9999,
      "fzfg": false,
      "metar_trigger": false,
      "taf_trigger": false,
      "metar": "METAR LIBD 282320Z 18004KT CAVOK 08/05 Q0997",
      "taf": "TAF LIBD 282300Z 2900/2924 19006KT CAVOK"
    },
    {
      "icao": "LIBG",
      "alert": "OK",
      "vis_m": null,
      "fzfg": false,
      "metar_trigger": false,
      "taf_trigger": false,
      "metar": "",
      "taf": "TAF LIBG 281700Z 2818/2903 21012KT 9999 FEW020"
    },
    {
      "icao": "LIBP",
      "alert": "OK",
      "vis_m": 9999,
      "fzfg": false,
      "metar_trigger": false,
      "taf_trigger": false,
      "metar": "METAR LIBP 282320Z AUTO 22014KT 9999 BKN180/// 12/01 Q0993",
      "taf": "TAF LIBP 282300Z 2900/2924 23008KT 9999 SCT070"
    },
    {
      "icao": "LIBR",
      "alert": "OK",
      "vis_m": 9999,
      "fzfg": false,
      "metar_trigger": false,
      "taf_trigger": false,
      "metar": "METAR LIBR 282320Z 18007KT CAVOK 11/07 Q0998",
      "taf": "TAF LIBR 282300Z 2900/2924 17008KT CAVOK"
    },
    {
      "icao": "LICA",
      "alert": "OK",
      "vis_m": 9999,
      "fzfg": false,
      "metar_trigger": false,
      "taf_trigger": false,
      "metar": "METAR LICA 282320Z AUTO 06004KT 9999 NCD 10/08 Q0998",
      "taf": "TAF LICA 282300Z 2900/2924 27016KT 9999 SCT040"
    },
    {
      "icao": "LICC",
      "alert": "OK",
      "vis_m": 7000,
      "fzfg": false,
      "metar_trigger": false,
      "taf_trigger": false,
      "metar": "METAR LICC 282320Z 27004KT 7000 RA SCT020 BKN050 12/08 Q0999",
      "taf": "TAF LICC 282300Z 2900/2924 25016KT 9999 SCT030"
    },
    {
      "icao": "LICJ",
      "alert": "OK",
      "vis_m": 9999,
      "fzfg": false,
      "metar_trigger": false,
      "taf_trigger": false,
      "metar": "METAR LICJ 282320Z 19021KT 9999 SCT040 14/09 Q0994",
      "taf": "TAF LICJ 282300Z 2900/2924 22022G35KT 9999 SCT040"
    },
    {
      "icao": "LIMC",
      "alert": "OK",
      "vis_m": 1500,
      "fzfg": false,
      "metar_trigger": false,
      "taf_trigger": false,
      "metar": "METAR LIMC 282320Z 25004KT 1500 BCFG BKN002 05/05 Q0992 NOSIG",
      "taf": "TAF LIMC 282300Z 2900/3006 VRB05KT 6000 BKN020"
    },
    {
      "icao": "LIME",
      "alert": "OK",
      "vis_m": 2000,
      "fzfg": false,
      "metar_trigger": false,
      "taf_trigger": false,
      "metar": "METAR LIME 282320Z 27004KT 2000 -RA BR BKN003 05/05 Q0991 NOSIG",
      "taf": "TAF LIME 282300Z 2900/2924 VRB04KT 6000 SCT010 BKN025"
    },
    {
      "icao": "LIMF",
      "alert": "OK",
      "vis_m": 9999,
      "fzfg": false,
      "metar_trigger": false,
      "taf_trigger": false,
      "metar": "METAR LIMF 282320Z 26002KT 9999 FEW015 BKN120 04/03 Q0991",
      "taf": "TAF LIMF 282300Z 2900/2924 VRB04KT 7000 BKN040"
    },
    {
      "icao": "LIMJ",
      "alert": "OK",
      "vis_m": 9999,
      "fzfg": false,
      "metar_trigger": false,
      "taf_trigger": false,
      "metar": "METAR LIMJ 282320Z 05009KT 9999 SCT024 08/05 Q0991",
      "taf": "TAF LIMJ 282300Z 2900/2924 04008KT 9999 SCT040"
    },
    {
      "icao": "LIPE",
      "alert": "OK",
      "vis_m": 6000,
      "fzfg": false,
      "metar_trigger": false,
      "taf_trigger": false,
      "metar": "METAR LIPE 282320Z 29004KT 260V320 6000 BKN005 06/05 Q0992",
      "taf": "TAF LIPE 282300Z 2900/2924 VRB05KT 4000 BR BKN006"
    },
    {
      "icao": "LIPH",
      "alert": "OK",
      "vis_m": 3900,
      "fzfg": false,
      "metar_trigger": false,
      "taf_trigger": false,
      "metar": "METAR LIPH 282320Z AUTO 27003KT 3900 BR OVC004/// 07/07 Q0991",
      "taf": "TAF LIPH 282300Z 2900/2924 VRB05KT 0800 FG BKN002"
    },
    {
      "icao": "LIPQ",
      "alert": "OK",
      "vis_m": 6000,
      "fzfg": false,
      "metar_trigger": false,
      "taf_trigger": false,
      "metar": "METAR LIPQ 282320Z AUTO 20006KT 6000 -RA OVC003/// 09/09 Q0991",
      "taf": "TAF LIPQ 282300Z 2900/2924 VRB05KT 4000 BR OVC005"
    },
    {
      "icao": "LIPR",
      "alert": "OK",
      "vis_m": 250,
      "fzfg": false,
      "metar_trigger": false,
      "taf_trigger": false,
      "metar": "METAR LIPR 282320Z AUTO VRB02KT 0250 R30/0650D BCFG FEW003/// SCT100/// BKN220/// 03/03 Q0992",
      "taf": "TAF LIPR 282300Z 2900/2924 VRB05KT 2000 BR FEW005"
    },
    {
      "icao": "LIPX",
      "alert": "OK",
      "vis_m": 3000,
      "fzfg": false,
      "metar_trigger": false,
      "taf_trigger": false,
      "metar": "METAR LIPX 282320Z 20004KT 3000 BR SCT003 BKN050 05/05 Q0991",
      "taf": "TAF LIPX 282300Z 2900/2924 24006KT 6000 SCT020"
    },
    {
      "icao": "LIPY",
      "alert": "OK",
      "vis_m": 9999,
      "fzfg": false,
      "metar_trigger": false,
      "taf_trigger": false,
      "metar": "METAR LIPY 282320Z AUTO 19003KT 9999 BKN230/// 09/04 Q0993",
      "taf": "TAF LIPY 282300Z 2900/2924 VRB05KT 9999 FEW030"
    },
    {
      "icao": "LIPZ",
      "alert": "OK",
      "vis_m": 5000,
      "fzfg": false,
      "metar_trigger": false,
      "taf_trigger": false,
      "metar": "METAR LIPZ 282320Z 22009KT 5000 BR BKN007 07/07 Q0991 NOSIG",
      "taf": "TAF LIPZ 282300Z 2900/3006 24006KT 0400 FG OVC001"
    },
    {
      "icao": "LIRF",
      "alert": "OK",
      "vis_m": 9999,
      "fzfg": false,
      "metar_trigger": false,
      "taf_trigger": false,
      "metar": "METAR LIRF 282320Z 07005KT 9999 SCT040 09/06 Q0993 NOSIG",
      "taf": "TAF LIRF 282300Z 2900/3006 07007KT 9999 SCT030"
    },
    {
      "icao": "LIRN",
      "alert": "OK",
      "vis_m": 9999,
      "fzfg": false,
      "metar_trigger": false,
      "taf_trigger": false,
      "metar": "METAR LIRN 282320Z 21005KT 9999 SCT035 13/08 Q0995 NOSIG",
      "taf": "TAF LIRN 282300Z 2900/2924 17010KT 9999 SCT030"
    },
    {
      "icao": "LIRP",
      "alert": "OK",
      "vis_m": 9999,
      "fzfg": false,
      "metar_trigger": false,
      "taf_trigger": false,
      "metar": "METAR LIRP 282315Z 14004KT 9999 FEW030 08/07 Q0992 NOSIG",
      "taf": "TAF LIRP 282300Z 2900/2924 12007KT 9999 SCT020 SCT050"
    },
    {
      "icao": "LIRZ",
      "alert": "OK",
      "vis_m": 9999,
      "fzfg": false,
      "metar_trigger": false,
      "taf_trigger": false,
      "metar": "METAR LIRZ 282320Z AUTO 01002KT 9999 BKN023/// 07/06 Q0994",
      "taf": "TAF LIRZ 282300Z 2900/2924 VRB05KT 7000 BKN025"
    },
    {
      "icao": "LJLJ",
      "alert": "OK",
      "vis_m": 5000,
      "fzfg": false,
      "metar_trigger": false,
      "taf_trigger": false,
      "metar": "METAR LJLJ 282300Z 29004KT 5000 -RA BR FEW005 SCT011 OVC025 04/04 Q0991 NOSIG",
      "taf": "TAF LJLJ 282300Z 2900/3000 29005KT 7000 -RA SCT010 BKN020"
    },
    {
      "icao": "LKMT",
      "alert": "OK",
      "vis_m": 5000,
      "fzfg": false,
      "metar_trigger": false,
      "taf_trigger": false,
      "metar": "METAR LKMT 282330Z 04010KT 5000 BR OVC008 01/M00 Q0997 NOSIG",
      "taf": "TAF LKMT 282300Z 2900/2924 03009KT 4000 BR SCT004 OVC008"
    },
    {
      "icao": "LKPR",
      "alert": "OK",
      "vis_m": 6000,
      "fzfg": false,
      "metar_trigger": false,
      "taf_trigger": false,
      "metar": "METAR LKPR 282330Z 06008KT 6000 FEW008 BKN011 OVC018 M00/M01 Q0995 NOSIG",
      "taf": "TAF LKPR 282300Z 2900/3006 06009KT 7000 OVC020"
    },
    {
      "icao": "LLBG",
      "alert": "OK",
      "vis_m": 9999,
      "fzfg": false,
      "metar_trigger": false,
      "taf_trigger": false,
      "metar": "METAR LLBG 282320Z 16010KT 9999 FEW035 13/11 Q1018 TEMPO 7000 RA FEW025TCU RMK SCT060",
      "taf": "TAF LLBG 282302Z 2900/2924 15005KT 9999 SCT035"
    },
    {
      "icao": "LMML",
      "alert": "OK",
      "vis_m": 9999,
      "fzfg": false,
      "metar_trigger": false,
      "taf_trigger": false,
      "metar": "METAR LMML 282315Z 19008KT 160V220 9999 FEW012 15/12 Q1000 NOSIG",
      "taf": "TAF LMML 282300Z 2900/2924 20015KT 9999 FEW017"
    },
    {
      "icao": "LOWW",
      "alert": "OK",
      "vis_m": 8000,
      "fzfg": false,
      "metar_trigger": false,
      "taf_trigger": false,
      "metar": "METAR LOWW 282320Z 10010KT 8000 FEW005 BKN006 03/02 Q0993 TEMPO 4000 RA",
      "taf": "TAF LOWW 282315Z 2900/3006 VRB04KT 4000 -RA OVC005 TX02/2900Z TN00/3000Z"
    },
    {
      "icao": "LPFR",
      "alert": "OK",
      "vis_m": 8000,
      "fzfg": false,
      "metar_trigger": false,
      "taf_trigger": false,
      "metar": "METAR LPFR 282300Z 24018KT 8000 SCT008 BKN014 16/15 Q1011",
      "taf": "TAF LPFR 282300Z 2900/2924 25018KT 8000 SCT008 BKN015"
    },
    {
      "icao": "LPMA",
      "alert": "OK",
      "vis_m": 9999,
      "fzfg": false,
      "metar_trigger": false,
      "taf_trigger": false,
      "metar": "METAR LPMA 282300Z VRB01KT 9999 FEW015 17/14 Q1020",
      "taf": "TAF LPMA 282300Z 2900/2924 VRB05KT 9999 SCT015"
    },
    {
      "icao": "LPPR",
      "alert": "OK",
      "vis_m": 3500,
      "fzfg": false,
      "metar_trigger": false,
      "taf_trigger": false,
      "metar": "METAR LPPR 282300Z 20021G31KT 3500 -RADZ BR BKN003 FEW015CB 13/13 Q0999",
      "taf": "TAF LPPR 282300Z 2900/2924 23020G32KT 3000 RADZ BR BKN003 FEW015CB"
    },
    {
      "icao": "LPPS",
      "alert": "OK",
      "vis_m": 9999,
      "fzfg": false,
      "metar_trigger": false,
      "taf_trigger": false,
      "metar": "METAR LPPS 282300Z 28014KT 9999 FEW012 SCT030 16/15 Q1020",
      "taf": "TAF LPPS 282300Z 2900/3006 27015KT 9999 SCT012 SCT030"
    },
    {
      "icao": "LPPT",
      "alert": "OK",
      "vis_m": 7000,
      "fzfg": false,
      "metar_trigger": false,
      "taf_trigger": false,
      "metar": "METAR LPPT 282300Z 25021G31KT 7000 -DZ FEW004 BKN005 16/16 Q1006",
      "taf": "TAF LPPT 282300Z 2900/3006 23015KT 6000 -RA SCT004 BKN008"
    },
    {
      "icao": "LQBK",
      "alert": "OK",
      "vis_m": 2000,
      "fzfg": false,
      "metar_trigger": false,
      "taf_trigger": false,
      "metar": "METAR LQBK 282330Z 12002KT 2000 BR BKN047 05/05 Q0991 NOSIG",
      "taf": "TAF LQBK 282300Z 2900/2924 16005KT 9999 SCT040 TX10/2913Z TN01/2906Z"
    },
    {
      "icao": "LQSA",
      "alert": "OK",
      "vis_m": 9999,
      "fzfg": false,
      "metar_trigger": false,
      "taf_trigger": false,
      "metar": "METAR LQSA 282330Z VRB02KT 9999 SCT050 06/04 Q0994",
      "taf": "TAF LQSA 282300Z 2900/2924 VRB02KT 9999 SCT050 TX10/2914Z TN03/2905Z"
    },
    {
      "icao": "LQTZ",
      "alert": "OK",
      "vis_m": 9999,
      "fzfg": false,
      "metar_trigger": false,
      "taf_trigger": false,
      "metar": "METAR LQTZ 282330Z VRB02KT 9999 BKN060 11/04 Q0992",
      "taf": "TAF LQTZ 282300Z 2900/2924 13005KT CAVOK TX13/2913Z TN03/2905Z"
    },
    {
      "icao": "LRBC",
      "alert": "OK",
      "vis_m": 600,
      "fzfg": false,
      "metar_trigger": false,
      "taf_trigger": false,
      "metar": "METAR LRBC 282300Z 28003KT 0600 R16/0750N FG VV003 01/01 Q0999",
      "taf": "TAF LRBC 282300Z 2900/2909 VRB04KT 0500 FG VV001"
    },
    {
      "icao": "LRBS",
      "alert": "OK",
      "vis_m": 1500,
      "fzfg": false,
      "metar_trigger": false,
      "taf_trigger": false,
      "metar": "METAR LRBS 282300Z 00000KT 1500 BCFG BR BKN001 01/01 Q1000",
      "taf": "TAF LRBS 282300Z 2900/2924 VRB04KT 1500 BR SCT002"
    },
    {
      "icao": "LRBV",
      "alert": "OK",
      "vis_m": 9999,
      "fzfg": false,
      "metar_trigger": false,
      "taf_trigger": false,
      "metar": "METAR LRBV 282300Z AUTO 11006KT 9999 FEW110/// OVC140/// 02/00 Q0997",
      "taf": "TAF LRBV 282000Z 2821/2906 15006KT CAVOK"
    },
    {
      "icao": "LRCL",
      "alert": "OK",
      "vis_m": 4000,
      "fzfg": false,
      "metar_trigger": false,
      "taf_trigger": false,
      "metar": "METAR LRCL 282300Z 08006KT 4000 BR BKN059 01/00 Q0997",
      "taf": "TAF LRCL 282300Z 2900/2909 VRB04KT 3000 BR BKN050"
    },
    {
      "icao": "LRCV",
      "alert": "OK",
      "vis_m": 3500,
      "fzfg": false,
      "metar_trigger": false,
      "taf_trigger": false,
      "metar": "METAR LRCV 282300Z 04006KT 3500 -RA BR OVC049 04/04 Q0999",
      "taf": "TAF LRCV 282300Z 2900/2909 08007KT 3000 -RA BR OVC035"
    },
    {
      "icao": "LRIA",
      "alert": "OK",
      "vis_m": 150,
      "fzfg": false,
      "metar_trigger": false,
      "taf_trigger": false,
      "metar": "METAR LRIA 282300Z 11007KT 0150 R14/0500N FG VV001 03/03 Q0999",
      "taf": "TAF LRIA 282300Z 2900/2909 11007KT 0150 FG VV001"
    },
    {
      "icao": "LROP",
      "alert": "OK",
      "vis_m": 2500,
      "fzfg": false,
      "metar_trigger": false,
      "taf_trigger": false,
      "metar": "METAR LROP 282300Z 36001KT 2500 BR FEW002 01/01 Q1000 NOSIG",
      "taf": "TAF LROP 282300Z 2900/2924 VRB04KT 1500 BR SCT001"
    },
    {
      "icao": "LRSB",
      "alert": "OK",
      "vis_m": 5000,
      "fzfg": false,
      "metar_trigger": false,
      "taf_trigger": false,
      "metar": "METAR LRSB 282300Z 27004KT 5000 BR NSC 00/00 Q0996",
      "taf": "TAF LRSB 282300Z 2900/2924 VRB04KT 5000 BR NSC"
    },
    {
      "icao": "LRSM",
      "alert": "OK",
      "vis_m": 9999,
      "fzfg": false,
      "metar_trigger": false,
      "taf_trigger": false,
      "metar": "METAR LRSM 282300Z AUTO 06007KT 9999 BKN080/// 04/02 Q0997",
      "taf": "TAF LRSM 281400Z 2815/2824 11005KT 9999 BKN040"
    },
    {
      "icao": "LRSV",
      "alert": "OK",
      "vis_m": 150,
      "fzfg": true,
      "metar_trigger": false,
      "taf_trigger": false,
      "metar": "METAR LRSV 282300Z VRB01KT 0150 R34/0350N FZFG VV001 M01/M01 Q0997",
      "taf": "TAF LRSV 282300Z 2900/2909 VRB04KT 0150 FZFG VV001"
    },
    {
      "icao": "LRTM",
      "alert": "OK",
      "vis_m": 700,
      "fzfg": false,
      "metar_trigger": false,
      "taf_trigger": false,
      "metar": "METAR LRTM 282300Z AUTO 26003KT 0700 R07/1200N FG VV001 01/00 Q0998",
      "taf": "TAF LRTM 281400Z 2815/2824 VRB04KT 0300 FG BKN001 OVC005"
    },
    {
      "icao": "LRTR",
      "alert": "OK",
      "vis_m": 9999,
      "fzfg": false,
      "metar_trigger": false,
      "taf_trigger": false,
      "metar": "METAR LRTR 282300Z 13007KT 9999 -RA FEW039 06/03 Q0995",
      "taf": "TAF LRTR 282300Z 2900/2924 11008KT 9999 -RA BKN040"
    },
    {
      "icao": "LTAC",
      "alert": "OK",
      "vis_m": 6000,
      "fzfg": false,
      "metar_trigger": false,
      "taf_trigger": false,
      "metar": "METAR LTAC 282320Z 04003KT 6000 SCT040 BKN100 03/02 Q1011 NOSIG RMK RWY21C 04003KT RWY03L 05003KT RWY21R 04002KT RWY03R 04002KT RWY21L 02003KT",
      "taf": "TAF LTAC 282240Z 2900/2924 VRB02KT 9999 SCT040 BKN100"
    },
    {
      "icao": "LTFM",
      "alert": "OK",
      "vis_m": 9999,
      "fzfg": false,
      "metar_trigger": false,
      "taf_trigger": false,
      "metar": "METAR LTFM 282320Z 21018KT CAVOK 12/05 Q1005 NOSIG RMK RWY17L 21019KT RWY34L 20016KT RWY16R 20014KT RWY36 21019KT RWY18 21018KT",
      "taf": "TAF LTFM 282240Z 2900/3006 20014KT CAVOK"
    },
    {
      "icao": "LUKK",
      "alert": "OK",
      "vis_m": 500,
      "fzfg": false,
      "metar_trigger": false,
      "taf_trigger": false,
      "metar": "METAR LUKK 282330Z 18004KT 0500 0400SW R08/0500N FG VV001 03/03 Q1000 NOSIG",
      "taf": "TAF LUKK 282318Z 2900/2924 VRB05KT 0500 FG VV002"
    },
    {
      "icao": "LWOH",
      "alert": "OK",
      "vis_m": null,
      "fzfg": false,
      "metar_trigger": false,
      "taf_trigger": false,
      "metar": "",
      "taf": "TAF LWOH 282308Z 2900/2924 14010KT 9999 FEW020 OVC040"
    },
    {
      "icao": "LWSK",
      "alert": "OK",
      "vis_m": 9999,
      "fzfg": false,
      "metar_trigger": false,
      "taf_trigger": false,
      "metar": "METAR LWSK 282320Z VRB02KT 9999 FEW050 BKN080 01/01 Q1000 NOSIG",
      "taf": "TAF LWSK 282308Z 2900/2924 VRB02KT 9999 FEW050"
    },
    {
      "icao": "LYBE",
      "alert": "OK",
      "vis_m": 9999,
      "fzfg": false,
      "metar_trigger": false,
      "taf_trigger": false,
      "metar": "METAR LYBE 282330Z 14012KT 9999 -RA NSC 08/05 Q0994 NOSIG",
      "taf": "TAF LYBE 282300Z 2900/2924 15008KT CAVOK TX14/2913Z TN06/2906Z"
    },
    {
      "icao": "LYNI",
      "alert": "OK",
      "vis_m": 9999,
      "fzfg": false,
      "metar_trigger": false,
      "taf_trigger": false,
      "metar": "METAR LYNI 282330Z VRB02KT 9999 BKN070 07/04 Q0998 NOSIG",
      "taf": "TAF LYNI 282300Z 2900/2924 16005KT 9999 SCT050 TX13/2913Z TN02/2906Z"
    },
    {
      "icao": "LYPG",
      "alert": "OK",
      "vis_m": 9999,
      "fzfg": false,
      "metar_trigger": false,
      "taf_trigger": false,
      "metar": "METAR LYPG 282330Z VRB02KT 9999 FEW040 SCT083 07/07 Q0998 NOSIG",
      "taf": "TAF LYPG 282300Z 2900/2924 36005KT 9999 SCT040 BKN080 TX13/2913Z TN04/2905Z"
    },
    {
      "icao": "LZIB",
      "alert": "OK",
      "vis_m": 5000,
      "fzfg": false,
      "metar_trigger": false,
      "taf_trigger": false,
      "metar": "METAR LZIB 282330Z 05008KT 5000 -RA BR SCT004 BKN005 BKN019 03/03 Q0994 NOSIG",
      "taf": "TAF LZIB 282315Z 2900/3000 06009KT 9999 -RA SCT004 OVC010"
    },
    {
      "icao": "LZKZ",
      "alert": "OK",
      "vis_m": 8000,
      "fzfg": false,
      "metar_trigger": false,
      "taf_trigger": false,
      "metar": "METAR LZKZ 282330Z 36008KT 8000 FEW015 OVC023 01/01 Q0997 NOSIG",
      "taf": "TAF LZKZ 282315Z 2900/3000 01006KT 7000 -RA SCT013 OVC020"
    },
    {
      "icao": "LZTT",
      "alert": "OK",
      "vis_m": 4500,
      "fzfg": false,
      "metar_trigger": false,
      "taf_trigger": false,
      "metar": "METAR LZTT 282330Z 14002KT 4500 -SN OVC004 M00/M00 Q0996",
      "taf": "TAF LZTT 282315Z 2900/3000 VRB02KT 6000 -SN SCT008 BKN025"
    },
    {
      "icao": "OEJN",
      "alert": "OK",
      "vis_m": 9999,
      "fzfg": false,
      "metar_trigger": false,
      "taf_trigger": false,
      "metar": "METAR OEJN 282300Z 06006KT CAVOK 23/12 Q1016 NOSIG",
      "taf": "TAF OEJN 282300Z 2900/3006 03005KT 7000 FEW040"
    },
    {
      "icao": "OEMA",
      "alert": "OK",
      "vis_m": 9999,
      "fzfg": false,
      "metar_trigger": false,
      "taf_trigger": false,
      "metar": "METAR OEMA 282300Z VRB02KT CAVOK 17/01 Q1020 NOSIG",
      "taf": "TAF OEMA 282300Z 2900/3006 30004KT CAVOK"
    },
    {
      "icao": "OJAI",
      "alert": "OK",
      "vis_m": 4000,
      "fzfg": false,
      "metar_trigger": false,
      "taf_trigger": false,
      "metar": "METAR OJAI 282300Z 24010KT 4000 BR NSC 08/07 Q1019 NOSIG",
      "taf": "TAF OJAI 282300Z 2900/3006 24014KT 3000 BR SCT025TCU BKN030"
    },
    {
      "icao": "OMAA",
      "alert": "OK",
      "vis_m": 9999,
      "fzfg": false,
      "metar_trigger": false,
      "taf_trigger": false,
      "metar": "METAR OMAA 282300Z 10007KT 060V130 CAVOK 18/13 Q1016 NOSIG",
      "taf": "TAF OMAA 282300Z 2900/3006 10005KT 8000 NSC"
    },
    {
      "icao": "OMDB",
      "alert": "OK",
      "vis_m": 9999,
      "fzfg": false,
      "metar_trigger": false,
      "taf_trigger": false,
      "metar": "METAR OMDB 282300Z 07005KT CAVOK 20/14 Q1017 NOSIG",
      "taf": "TAF OMDB 282300Z 2900/3006 10005KT 8000 NSC"
    },
    {
      "icao": "UAAA",
      "alert": "OK",
      "vis_m": 1600,
      "fzfg": true,
      "metar_trigger": false,
      "taf_trigger": false,
      "metar": "METAR UAAA 282300Z 27003MPS 230V290 1600 R23L/P2000D BR OVC003 M02/M03 Q1028 NOSIG RMK QBB100",
      "taf": "TAF UAAA 282300Z 2900/2924 VRB01MPS 0700 FZFG VV003 TXM01/2908Z TNM05/2902Z"
    },
    {
      "icao": "UBBB",
      "alert": "OK",
      "vis_m": 9999,
      "fzfg": false,
      "metar_trigger": false,
      "taf_trigger": false,
      "metar": "METAR UBBB 282330Z 13006KT 9999 BKN014 OVC025 06/04 Q1014 NOSIG",
      "taf": "TAF UBBB 282302Z 2900/2924 14005KT 9999 SCT012 BKN025 TX09/2911Z TN04/2901Z"
    },
    {
      "icao": "UDSG",
      "alert": "OK",
      "vis_m": 3400,
      "fzfg": false,
      "metar_trigger": false,
      "taf_trigger": false,
      "metar": "METAR UDSG 282300Z 02002KT 3400 BR BKN036 M14/M16 Q1014 NOSIG",
      "taf": "TAF UDSG 282300Z 2900/2924 VRB06KT 2000 BR BKN020"
    },
    {
      "icao": "UDYZ",
      "alert": "OK",
      "vis_m": 3200,
      "fzfg": false,
      "metar_trigger": false,
      "taf_trigger": false,
      "metar": "METAR UDYZ 282300Z 26003KT 3200 BR BKN010 M04/M06 Q1016 NOSIG",
      "taf": "TAF UDYZ 282300Z 2900/2924 VRB04KT 3000 BR BKN010"
    },
    {
      "icao": "UGKO",
      "alert": "OK",
      "vis_m": 9999,
      "fzfg": false,
      "metar_trigger": false,
      "taf_trigger": false,
      "metar": "METAR UGKO 282300Z 11003KT CAVOK 06/M01 Q1011 NOSIG",
      "taf": "TAF UGKO 282300Z 2900/2924 09006KT CAVOK TX16/2911Z TN03/2905Z"
    }
  ]
}