{
  "ts_utc": "2026-03-06T07:31:11Z",
  "threshold_m": 150,
  "source": "stations_override.txt (ICAO list) + aviationweather.gov (METAR/TAF raw)",
  "station_count": 159,
  "stations": [
    {
      "icao": "BIKF",
      "alert": "OK",
      "vis_m": 9999,
      "fzfg": false,
      "metar_trigger": false,
      "taf_trigger": false,
      "metar": "METAR BIKF 060700Z 15023KT 9999 BKN041 04/M01 Q0983",
      "taf": "TAF BIKF 060415Z 0606/0706 19020G30KT 9999 BKN018 TX05/0608Z TN01/0624Z"
    },
    {
      "icao": "BKPR",
      "alert": "OK",
      "vis_m": 150,
      "fzfg": true,
      "metar_trigger": false,
      "taf_trigger": false,
      "metar": "METAR BKPR 060730Z VRB02KT 0150 R17/0325U R35/0175N FG BKN001 01/01 Q1027 BECMG 1500 BR SCT010",
      "taf": "TAF BKPR 060530Z 0606/0706 VRB05KT 0150 FZFG BKN002"
    },
    {
      "icao": "EBCI",
      "alert": "OK",
      "vis_m": 9999,
      "fzfg": false,
      "metar_trigger": false,
      "taf_trigger": false,
      "metar": "METAR EBCI 060720Z 17003KT 140V210 CAVOK 10/03 Q1020 NOSIG",
      "taf": "TAF EBCI 060500Z 0606/0712 18004KT CAVOK"
    },
    {
      "icao": "EDDB",
      "alert": "OK",
      "vis_m": 9999,
      "fzfg": false,
      "metar_trigger": false,
      "taf_trigger": false,
      "metar": "METAR EDDB 060720Z AUTO 08003KT CAVOK 02/M02 Q1025 NOSIG",
      "taf": "TAF EDDB 060500Z 0606/0706 11005KT CAVOK"
    },
    {
      "icao": "EDDH",
      "alert": "OK",
      "vis_m": 9999,
      "fzfg": false,
      "metar_trigger": false,
      "taf_trigger": false,
      "metar": "METAR EDDH 060720Z AUTO 14006KT CAVOK 05/M01 Q1022 NOSIG",
      "taf": "TAF EDDH 060500Z 0606/0712 13004KT CAVOK"
    },
    {
      "icao": "EDDK",
      "alert": "OK",
      "vis_m": 9999,
      "fzfg": false,
      "metar_trigger": false,
      "taf_trigger": false,
      "metar": "METAR EDDK 060720Z AUTO 11003KT 060V160 CAVOK 09/02 Q1021 NOSIG",
      "taf": "TAF EDDK 060500Z 0606/0712 12005KT CAVOK"
    },
    {
      "icao": "EDDN",
      "alert": "OK",
      "vis_m": 9999,
      "fzfg": false,
      "metar_trigger": false,
      "taf_trigger": false,
      "metar": "METAR EDDN 060720Z AUTO 11005KT CAVOK 04/01 Q1022 NOSIG",
      "taf": "TAF EDDN 060500Z 0606/0706 10004KT CAVOK"
    },
    {
      "icao": "EDDS",
      "alert": "OK",
      "vis_m": 5000,
      "fzfg": false,
      "metar_trigger": false,
      "taf_trigger": false,
      "metar": "METAR EDDS 060720Z AUTO VRB02KT 5000 BR NCD 03/01 Q1020 TEMPO 4000 BCFG",
      "taf": "TAF EDDS 060500Z 0606/0706 VRB03KT 4000 BR NSC"
    },
    {
      "icao": "EDFH",
      "alert": "OK",
      "vis_m": 9999,
      "fzfg": false,
      "metar_trigger": false,
      "taf_trigger": false,
      "metar": "METAR EDFH 060720Z 14010KT CAVOK 06/02 Q1020",
      "taf": "TAF EDFH 060500Z 0606/0706 13010KT CAVOK"
    },
    {
      "icao": "EDJA",
      "alert": "OK",
      "vis_m": 9999,
      "fzfg": false,
      "metar_trigger": false,
      "taf_trigger": false,
      "metar": "METAR EDJA 060720Z 00000KT CAVOK 01/00 Q1020",
      "taf": "TAF EDJA 060500Z 0606/0615 VRB03KT CAVOK"
    },
    {
      "icao": "EDLW",
      "alert": "OK",
      "vis_m": 9999,
      "fzfg": false,
      "metar_trigger": false,
      "taf_trigger": false,
      "metar": "METAR EDLW 060720Z 09004KT CAVOK 08/01 Q1021",
      "taf": "TAF EDLW 060500Z 0606/0706 14005KT CAVOK"
    },
    {
      "icao": "EDNY",
      "alert": "OK",
      "vis_m": 900,
      "fzfg": false,
      "metar_trigger": false,
      "taf_trigger": false,
      "metar": "METAR EDNY 060720Z COR 04003KT 010V070 0900 R24/1000U FG VV/// 01/01 Q1021",
      "taf": "TAF EDNY 060500Z 0606/0615 04003KT 0600 FG SCT001 BKN002"
    },
    {
      "icao": "EDSB",
      "alert": "OK",
      "vis_m": 9999,
      "fzfg": false,
      "metar_trigger": false,
      "taf_trigger": false,
      "metar": "METAR EDSB 060720Z 00000KT CAVOK 03/02 Q1021",
      "taf": "TAF EDSB 060500Z 0606/0706 VRB03KT CAVOK"
    },
    {
      "icao": "EETN",
      "alert": "OK",
      "vis_m": 9999,
      "fzfg": false,
      "metar_trigger": false,
      "taf_trigger": false,
      "metar": "METAR EETN 060720Z VRB02KT CAVOK 00/M01 Q1021 NOSIG",
      "taf": "TAF EETN 060530Z 0606/0706 20008KT CAVOK"
    },
    {
      "icao": "EFTU",
      "alert": "OK",
      "vis_m": 9999,
      "fzfg": false,
      "metar_trigger": false,
      "taf_trigger": false,
      "metar": "METAR EFTU 060720Z AUTO 22005KT 180V250 CAVOK 01/M01 Q1019",
      "taf": "TAF EFTU 060532Z 0606/0706 VRB02KT CAVOK"
    },
    {
      "icao": "EGBB",
      "alert": "OK",
      "vis_m": 2800,
      "fzfg": false,
      "metar_trigger": false,
      "taf_trigger": false,
      "metar": "METAR EGBB 060720Z 32010KT 2800 RADZ OVC006 05/04 Q1021 RERA",
      "taf": ""
    },
    {
      "icao": "EGGP",
      "alert": "OK",
      "vis_m": 9999,
      "fzfg": false,
      "metar_trigger": false,
      "taf_trigger": false,
      "metar": "METAR EGGP 060720Z 32006KT 9999 -RA BKN009 BKN013 05/04 Q1022",
      "taf": "TAF EGGP 060457Z 0606/0706 32010KT 9999 SCT016"
    },
    {
      "icao": "EGGW",
      "alert": "OK",
      "vis_m": 4200,
      "fzfg": false,
      "metar_trigger": false,
      "taf_trigger": false,
      "metar": "METAR EGGW 060720Z AUTO 32009KT 4200 HZ OVC004 07/06 Q1019",
      "taf": "TAF EGGW 060456Z 0606/0706 33006KT 9999 FEW040"
    },
    {
      "icao": "EGKK",
      "alert": "OK",
      "vis_m": 5000,
      "fzfg": false,
      "metar_trigger": false,
      "taf_trigger": false,
      "metar": "METAR EGKK 060720Z VRB03KT 5000 HZ NSC 08/08 Q1019",
      "taf": "TAF EGKK 060459Z 0606/0712 34005KT 9999 FEW045"
    },
    {
      "icao": "EGNM",
      "alert": "OK",
      "vis_m": 7000,
      "fzfg": false,
      "metar_trigger": false,
      "taf_trigger": false,
      "metar": "METAR EGNM 060720Z 36014KT 7000 -RA SCT005 BKN009 03/02 Q1021",
      "taf": "TAF EGNM 060455Z 0606/0706 02012KT 9999 SCT008"
    },
    {
      "icao": "EGPD",
      "alert": "OK",
      "vis_m": 9999,
      "fzfg": false,
      "metar_trigger": false,
      "taf_trigger": false,
      "metar": "METAR EGPD 060720Z COR AUTO VRB02KT 9999 OVC049 02/01 Q1023 NOSIG",
      "taf": "TAF EGPD 060455Z 0606/0706 30006KT 9999 FEW035"
    },
    {
      "icao": "EGPF",
      "alert": "OK",
      "vis_m": 9999,
      "fzfg": false,
      "metar_trigger": false,
      "taf_trigger": false,
      "metar": "METAR EGPF 060720Z 24002KT 9999 R23/1300D MIFG NSC M03/M03 Q1025",
      "taf": ""
    },
    {
      "icao": "EHBK",
      "alert": "OK",
      "vis_m": 9999,
      "fzfg": false,
      "metar_trigger": false,
      "taf_trigger": false,
      "metar": "METAR EHBK 060725Z AUTO 09003KT 9999 NSC 07/04 Q1020 NOSIG",
      "taf": "TAF EHBK 060457Z 0606/0712 14003KT CAVOK"
    },
    {
      "icao": "EHEH",
      "alert": "OK",
      "vis_m": 9999,
      "fzfg": false,
      "metar_trigger": false,
      "taf_trigger": false,
      "metar": "METAR EHEH 060725Z AUTO 16003KT 100V240 9999 NCD 08/04 Q1020 BLU NOSIG",
      "taf": "TAF EHEH 060503Z 0606/0712 15002KT CAVOK"
    },
    {
      "icao": "EKBI",
      "alert": "OK",
      "vis_m": 9999,
      "fzfg": false,
      "metar_trigger": false,
      "taf_trigger": false,
      "metar": "METAR EKBI 060720Z AUTO 12005KT 9999 NCD 04/M00 Q1022",
      "taf": ""
    },
    {
      "icao": "EKCH",
      "alert": "OK",
      "vis_m": 9999,
      "fzfg": false,
      "metar_trigger": false,
      "taf_trigger": false,
      "metar": "METAR EKCH 060720Z AUTO 14007KT 9999 NCD 03/01 Q1025 NOSIG",
      "taf": ""
    },
    {
      "icao": "ENAL",
      "alert": "OK",
      "vis_m": 9999,
      "fzfg": false,
      "metar_trigger": false,
      "taf_trigger": false,
      "metar": "METAR ENAL 060720Z 18004KT 140V230 9999 -RA SCT015 BKN023 04/03 Q1021",
      "taf": "TAF ENAL 060500Z 0606/0615 27008KT 9000 -RA FEW005 BKN015"
    },
    {
      "icao": "ENBR",
      "alert": "OK",
      "vis_m": 6000,
      "fzfg": false,
      "metar_trigger": false,
      "taf_trigger": false,
      "metar": "METAR ENBR 060720Z 16006KT 6000 -DZRA BKN010 05/04 Q1020 TEMPO 3000 DZRA BR BKN007 RMK WIND 1200FT 24010KT",
      "taf": "TAF ENBR 060500Z 0606/0706 20008KT 7000 -RADZ SCT007 BKN015"
    },
    {
      "icao": "ENGM",
      "alert": "OK",
      "vis_m": 200,
      "fzfg": true,
      "metar_trigger": false,
      "taf_trigger": false,
      "metar": "METAR ENGM 060720Z 21003KT 0200 0150NW R19R/0250N R01R/0250N R19L/0225N R01L/0400D FZFG VV002 M03/M04 Q1020 NOSIG",
      "taf": ""
    },
    {
      "icao": "ENHD",
      "alert": "OK",
      "vis_m": 8000,
      "fzfg": false,
      "metar_trigger": false,
      "taf_trigger": false,
      "metar": "METAR ENHD 060720Z 21003KT 8000 NSC 05/03 Q1020",
      "taf": ""
    },
    {
      "icao": "ENTC",
      "alert": "OK",
      "vis_m": 9999,
      "fzfg": false,
      "metar_trigger": false,
      "taf_trigger": false,
      "metar": "METAR ENTC 060720Z 22008KT 9999 SCT041 BKN053 04/01 Q1002 TEMPO 21018KT SHRA RMK WIND 2600FT 25031KT",
      "taf": "TAF ENTC 060500Z 0606/0706 20018KT 9999 -SHRA SCT015 BKN030"
    },
    {
      "icao": "ENTO",
      "alert": "OK",
      "vis_m": 3900,
      "fzfg": false,
      "metar_trigger": false,
      "taf_trigger": false,
      "metar": "METAR ENTO 060720Z 15001KT 3900 BR VCFG NSC M00/M00 Q1021 TEMPO 2000 BCFG BKN003",
      "taf": "TAF ENTO 060500Z 0606/0706 18005KT 8000 FEW002"
    },
    {
      "icao": "ENVA",
      "alert": "OK",
      "vis_m": 9999,
      "fzfg": false,
      "metar_trigger": false,
      "taf_trigger": false,
      "metar": "METAR ENVA 060720Z 24009KT 9999 -RA FEW009 SCT014 BKN017 05/04 Q1018 TEMPO 4000 -DZRA BKN012 RMK WIND 670FT 27015KT",
      "taf": "TAF ENVA 060500Z 0606/0706 10005KT 9999 FEW015 BKN020"
    },
    {
      "icao": "ENZV",
      "alert": "OK",
      "vis_m": 9999,
      "fzfg": false,
      "metar_trigger": false,
      "taf_trigger": false,
      "metar": "METAR ENZV 060720Z 20006KT CAVOK 07/03 Q1019 NOSIG",
      "taf": "TAF ENZV 060500Z 0606/0706 14008KT 9999 BKN025"
    },
    {
      "icao": "EPGD",
      "alert": "OK",
      "vis_m": 9999,
      "fzfg": false,
      "metar_trigger": false,
      "taf_trigger": false,
      "metar": "METAR EPGD 060700Z 27003KT 230V290 CAVOK 01/M01 Q1026",
      "taf": "TAF EPGD 060530Z 0606/0706 VRB04KT CAVOK"
    },
    {
      "icao": "EPKK",
      "alert": "OK",
      "vis_m": 9999,
      "fzfg": false,
      "metar_trigger": false,
      "taf_trigger": false,
      "metar": "METAR EPKK 060700Z VRB02KT CAVOK 00/M03 Q1027",
      "taf": "TAF EPKK 060530Z 0606/0706 07003KT 9000 NSC"
    },
    {
      "icao": "EPKT",
      "alert": "OK",
      "vis_m": 9999,
      "fzfg": false,
      "metar_trigger": false,
      "taf_trigger": false,
      "metar": "METAR EPKT 060700Z 04003KT CAVOK M01/M03 Q1026",
      "taf": "TAF EPKT 060530Z 0606/0706 08003KT 8000 NSC"
    },
    {
      "icao": "EPLB",
      "alert": "OK",
      "vis_m": 7000,
      "fzfg": false,
      "metar_trigger": false,
      "taf_trigger": false,
      "metar": "METAR EPLB 060700Z 29004KT 7000 NSC 02/00 Q1027",
      "taf": "TAF EPLB 060530Z 0606/0706 30004KT CAVOK"
    },
    {
      "icao": "EPMO",
      "alert": "OK",
      "vis_m": 5000,
      "fzfg": false,
      "metar_trigger": false,
      "taf_trigger": false,
      "metar": "METAR EPMO 060700Z 20001KT 5000 BR NSC 01/01 Q1027",
      "taf": "TAF EPMO 060530Z 0606/0706 VRB03KT 2500 BR NSC"
    },
    {
      "icao": "EPPO",
      "alert": "OK",
      "vis_m": 6000,
      "fzfg": false,
      "metar_trigger": false,
      "taf_trigger": false,
      "metar": "METAR EPPO 060700Z 11003KT 6000 NSC 01/M01 Q1027",
      "taf": "TAF EPPO 060530Z 0606/0706 10004KT 4000 BR NSC"
    },
    {
      "icao": "EPRA",
      "alert": "OK",
      "vis_m": 9999,
      "fzfg": false,
      "metar_trigger": false,
      "taf_trigger": false,
      "metar": "METAR EPRA 060700Z 27003KT CAVOK 03/M01 Q1027",
      "taf": "TAF EPRA 060530Z 0606/0615 27006KT CAVOK"
    },
    {
      "icao": "EPRZ",
      "alert": "OK",
      "vis_m": 9999,
      "fzfg": false,
      "metar_trigger": false,
      "taf_trigger": false,
      "metar": "METAR EPRZ 060700Z VRB02KT CAVOK 01/M02 Q1027",
      "taf": "TAF EPRZ 060530Z 0606/0706 23004KT 7000 NSC"
    },
    {
      "icao": "EPSC",
      "alert": "OK",
      "vis_m": 9999,
      "fzfg": false,
      "metar_trigger": false,
      "taf_trigger": false,
      "metar": "METAR EPSC 060700Z 12007KT CAVOK 01/M01 Q1026",
      "taf": "TAF EPSC 060530Z 0606/0706 12005KT CAVOK"
    },
    {
      "icao": "EPSY",
      "alert": "OK",
      "vis_m": 9999,
      "fzfg": false,
      "metar_trigger": false,
      "taf_trigger": false,
      "metar": "METAR EPSY 060700Z 20002KT CAVOK M03/M03 Q1027",
      "taf": "TAF EPSY 060530Z 0606/0615 VRB02KT CAVOK"
    },
    {
      "icao": "EPWA",
      "alert": "OK",
      "vis_m": 9999,
      "fzfg": false,
      "metar_trigger": false,
      "taf_trigger": false,
      "metar": "METAR EPWA 060700Z 00000KT 5000 BR NSC 00/00 Q1027 BECMG CAVOK",
      "taf": "TAF EPWA 060530Z 0606/0706 VRB03KT 4000 BR NSC"
    },
    {
      "icao": "EPWR",
      "alert": "OK",
      "vis_m": 9999,
      "fzfg": false,
      "metar_trigger": false,
      "taf_trigger": false,
      "metar": "METAR EPWR 060700Z 12005KT CAVOK 01/M01 Q1026",
      "taf": "TAF EPWR 060530Z 0606/0706 14006KT CAVOK"
    },
    {
      "icao": "ESGG",
      "alert": "OK",
      "vis_m": 9999,
      "fzfg": false,
      "metar_trigger": false,
      "taf_trigger": false,
      "metar": "METAR ESGG 060720Z 14008KT CAVOK 01/M01 Q1023",
      "taf": "TAF ESGG 060530Z 0606/0706 16007KT CAVOK"
    },
    {
      "icao": "ESKN",
      "alert": "OK",
      "vis_m": 9999,
      "fzfg": false,
      "metar_trigger": false,
      "taf_trigger": false,
      "metar": "METAR ESKN 060720Z 25007KT CAVOK 03/M00 Q1022",
      "taf": "TAF ESKN 060530Z 0606/0706 27004KT CAVOK"
    },
    {
      "icao": "ESMS",
      "alert": "OK",
      "vis_m": 9999,
      "fzfg": false,
      "metar_trigger": false,
      "taf_trigger": false,
      "metar": "METAR ESMS 060720Z 11003KT CAVOK 03/01 Q1024",
      "taf": ""
    },
    {
      "icao": "ESSA",
      "alert": "OK",
      "vis_m": 9999,
      "fzfg": false,
      "metar_trigger": false,
      "taf_trigger": false,
      "metar": "METAR ESSA 060720Z 24008KT CAVOK 02/M01 Q1020 NOSIG",
      "taf": "TAF ESSA 060530Z 0606/0706 24008KT CAVOK"
    },
    {
      "icao": "EYKA",
      "alert": "OK",
      "vis_m": 450,
      "fzfg": true,
      "metar_trigger": false,
      "taf_trigger": false,
      "metar": "METAR EYKA 060720Z 25003KT 210V290 0450 R26/0750D FZFG VV003 M02/M02 Q1026",
      "taf": "TAF EYKA 060500Z 0606/0706 VRB04KT 0400 FZFG VV002"
    },
    {
      "icao": "EYPA",
      "alert": "OK",
      "vis_m": 4200,
      "fzfg": false,
      "metar_trigger": false,
      "taf_trigger": false,
      "metar": "METAR EYPA 060720Z 20004KT 4200 BR OVC002 M02/M02 Q1026",
      "taf": "TAF EYPA 060500Z 0606/0706 VRB04KT 5000 BR OVC002"
    },
    {
      "icao": "EYVI",
      "alert": "OK",
      "vis_m": 1500,
      "fzfg": false,
      "metar_trigger": false,
      "taf_trigger": false,
      "metar": "METAR EYVI 060720Z 34004KT 300V010 1500 0750N BR PRFG OVC001 M02/M02 Q1025 BECMG 3000 BR",
      "taf": "TAF EYVI 060500Z 0606/0706 VRB04KT 5000 BR SCT002"
    },
    {
      "icao": "GCFV",
      "alert": "OK",
      "vis_m": 9999,
      "fzfg": false,
      "metar_trigger": false,
      "taf_trigger": false,
      "metar": "METAR GCFV 060700Z 01024KT 9999 SCT016 BKN018 17/14 Q1021",
      "taf": "TAF GCFV 060200Z 0603/0703 35020KT 9999 SCT030 TX20/0614Z TN15/0606Z"
    },
    {
      "icao": "GCLP",
      "alert": "OK",
      "vis_m": 9999,
      "fzfg": false,
      "metar_trigger": false,
      "taf_trigger": false,
      "metar": "METAR GCLP 060700Z 02021KT 9999 SCT020 BKN025 17/13 Q1022 NOSIG",
      "taf": "TAF GCLP 060200Z 0603/0703 36019KT 9999 SCT030 TX18/0614Z TN15/0606Z"
    },
    {
      "icao": "GCTS",
      "alert": "OK",
      "vis_m": 9999,
      "fzfg": false,
      "metar_trigger": false,
      "taf_trigger": false,
      "metar": "METAR GCTS 060700Z 07021KT 9999 FEW050 16/11 Q1022 NOSIG",
      "taf": "TAF GCTS 060200Z 0603/0703 05020KT 9999 SCT035 TX23/0614Z TN15/0606Z"
    },
    {
      "icao": "GMAD",
      "alert": "OK",
      "vis_m": 5000,
      "fzfg": false,
      "metar_trigger": false,
      "taf_trigger": false,
      "metar": "METAR GMAD 060700Z 07004KT 5000 SCT016 09/07 Q1018 NOSIG",
      "taf": "TAF GMAD 060500Z 0606/0712 12005KT 8000 SCT020"
    },
    {
      "icao": "GMMN",
      "alert": "OK",
      "vis_m": 8000,
      "fzfg": false,
      "metar_trigger": false,
      "taf_trigger": false,
      "metar": "METAR GMMN 060700Z 31003KT 8000 BKN016 10/09 Q1022 NOSIG",
      "taf": "TAF GMMN 060500Z 0606/0712 28004KT 9999 BKN016"
    },
    {
      "icao": "GMMX",
      "alert": "OK",
      "vis_m": 5000,
      "fzfg": false,
      "metar_trigger": false,
      "taf_trigger": false,
      "metar": "SPECI GMMX 060723Z VRB02KT 5000 BKN013 10/09 Q1021 NOSIG",
      "taf": "TAF GMMX 060500Z 0606/0712 24006KT 8000 SCT026"
    },
    {
      "icao": "HEGN",
      "alert": "OK",
      "vis_m": 9999,
      "fzfg": false,
      "metar_trigger": false,
      "taf_trigger": false,
      "metar": "METAR HEGN 060700Z 32013KT CAVOK 19/04 Q1019 NOSIG",
      "taf": "TAF HEGN 060500Z 0606/0712 32014KT CAVOK"
    },
    {
      "icao": "HEMA",
      "alert": "OK",
      "vis_m": 9999,
      "fzfg": false,
      "metar_trigger": false,
      "taf_trigger": false,
      "metar": "METAR HEMA 060700Z 31010KT CAVOK 21/08 Q1017 NOSIG",
      "taf": "TAF HEMA 060500Z 0606/0712 33006G18KT CAVOK"
    },
    {
      "icao": "HESH",
      "alert": "OK",
      "vis_m": 9999,
      "fzfg": false,
      "metar_trigger": false,
      "taf_trigger": false,
      "metar": "METAR HESH 060700Z 35011KT CAVOK 21/09 Q1018 NOSIG",
      "taf": "TAF HESH 060500Z 0606/0712 36013KT CAVOK"
    },
    {
      "icao": "HESX",
      "alert": "OK",
      "vis_m": 4000,
      "fzfg": false,
      "metar_trigger": false,
      "taf_trigger": false,
      "metar": "METAR HESX 060700Z 01006KT 4000 BR NSC 13/10 Q1021 NOSIG",
      "taf": "TAF HESX 060500Z 0606/0712 02006KT 9999 SCT025"
    },
    {
      "icao": "LATI",
      "alert": "OK",
      "vis_m": 9999,
      "fzfg": false,
      "metar_trigger": false,
      "taf_trigger": false,
      "metar": "METAR LATI 060720Z VRB01KT CAVOK 10/04 Q1024 NOSIG",
      "taf": "TAF LATI 060500Z 0606/0706 VRB03KT CAVOK TX20/0612Z TN04/0705Z"
    },
    {
      "icao": "LBPD",
      "alert": "OK",
      "vis_m": 9999,
      "fzfg": false,
      "metar_trigger": false,
      "taf_trigger": false,
      "metar": "METAR LBPD 060700Z AUTO VRB02KT 9999 NCD 11/03 Q1025 NOSIG",
      "taf": "TAF LBPD 060500Z 0606/0706 VRB03KT CAVOK"
    },
    {
      "icao": "LBSF",
      "alert": "OK",
      "vis_m": 3100,
      "fzfg": false,
      "metar_trigger": false,
      "taf_trigger": false,
      "metar": "METAR LBSF 060700Z 11003KT 030V170 3100 BR FEW002 01/00 Q1026 TEMPO 1500 BR",
      "taf": "TAF LBSF 060500Z 0606/0706 VRB03KT 3000 BR BKN010"
    },
    {
      "icao": "LBWN",
      "alert": "OK",
      "vis_m": 9999,
      "fzfg": false,
      "metar_trigger": false,
      "taf_trigger": false,
      "metar": "METAR LBWN 060700Z 27004KT 9999 BKN043 07/04 Q1025 NOSIG",
      "taf": "TAF LBWN 060500Z 0606/0706 VRB03KT 9999 BKN030"
    },
    {
      "icao": "LCLK",
      "alert": "OK",
      "vis_m": 9999,
      "fzfg": false,
      "metar_trigger": false,
      "taf_trigger": false,
      "metar": "METAR LCLK 060700Z 24009KT 9999 FEW025 18/09 Q1020 NOSIG",
      "taf": "TAF LCLK 060530Z 0606/0706 31005KT 9999 FEW025"
    },
    {
      "icao": "LCPH",
      "alert": "OK",
      "vis_m": 9999,
      "fzfg": false,
      "metar_trigger": false,
      "taf_trigger": false,
      "metar": "METAR LCPH 060700Z 09004KT 070V140 9999 FEW030 BKN036 16/10 Q1021 NOSIG",
      "taf": "TAF LCPH 060530Z 0606/0706 04007KT 9999 FEW030 SCT050"
    },
    {
      "icao": "LEAL",
      "alert": "OK",
      "vis_m": 9999,
      "fzfg": false,
      "metar_trigger": false,
      "taf_trigger": false,
      "metar": "METAR LEAL 060700Z 21004KT 170V250 CAVOK 09/09 Q1010 NOSIG",
      "taf": "TAF LEAL 060500Z 0606/0706 27007KT 9999 FEW020 TX15/0613Z TN07/0606Z"
    },
    {
      "icao": "LEBB",
      "alert": "OK",
      "vis_m": 5000,
      "fzfg": false,
      "metar_trigger": false,
      "taf_trigger": false,
      "metar": "SPECI LEBB 060719Z 30008KT 270V330 5000 -RA SCT005 BKN010 BKN028 12/11 Q1018 RERA TEMPO 3000 RA",
      "taf": "TAF LEBB 060500Z 0606/0706 31009KT 9000 SCT010 BKN020 TX11/0608Z TN09/0700Z"
    },
    {
      "icao": "LEBL",
      "alert": "OK",
      "vis_m": 1800,
      "fzfg": false,
      "metar_trigger": false,
      "taf_trigger": false,
      "metar": "METAR LEBL 060700Z 08018G28KT 1800 R24R/1200N R06L/P2000 R06R/1400D R24L/P2000 BR BKN005 FEW014TCU BKN025 14/13 Q1013 NOSIG",
      "taf": "TAF LEBL 060500Z 0606/0706 06012KT 2500 BR BKN005 BKN015 TX16/0612Z TN10/0706Z"
    },
    {
      "icao": "LECH",
      "alert": "OK",
      "vis_m": 6000,
      "fzfg": false,
      "metar_trigger": false,
      "taf_trigger": false,
      "metar": "METAR LECH 060700Z AUTO 04010KT 010V070 6000 -RA OVC005 11/11 Q1010",
      "taf": ""
    },
    {
      "icao": "LEMD",
      "alert": "OK",
      "vis_m": 9999,
      "fzfg": false,
      "metar_trigger": false,
      "taf_trigger": false,
      "metar": "METAR LEMD 060700Z 05005KT 340V130 9999 SCT040 BKN075 08/07 Q1011 NOSIG",
      "taf": "TAF LEMD 060500Z 0606/0712 04010KT 9999 FEW060 TX14/0613Z TN07/0607Z"
    },
    {
      "icao": "LEMG",
      "alert": "OK",
      "vis_m": 9999,
      "fzfg": false,
      "metar_trigger": false,
      "taf_trigger": false,
      "metar": "METAR LEMG 060700Z 28005KT 9999 FEW045 08/05 Q1013 NOSIG",
      "taf": "TAF LEMG 060500Z 0606/0706 29008KT 9999 FEW035 TX14/0614Z TN09/0607Z"
    },
    {
      "icao": "LEVC",
      "alert": "OK",
      "vis_m": 8000,
      "fzfg": false,
      "metar_trigger": false,
      "taf_trigger": false,
      "metar": "SPECI LEVC 060710Z 36005KT 320V030 8000 RA FEW040 BKN052 12/11 Q1010 NOSIG",
      "taf": "TAF LEVC 060500Z 0606/0706 30007KT 9999 BKN015 TX15/0613Z TN10/0606Z"
    },
    {
      "icao": "LEXJ",
      "alert": "OK",
      "vis_m": 4000,
      "fzfg": false,
      "metar_trigger": false,
      "taf_trigger": false,
      "metar": "SPECI LEXJ 060720Z 33010KT 290V020 4000 RA BKN008 BKN015 09/08 Q1020",
      "taf": "TAF LEXJ 060200Z 0603/0703 30009KT 9000 SCT010 BKN020 TX11/0612Z TN10/0606Z"
    },
    {
      "icao": "LEZG",
      "alert": "OK",
      "vis_m": 9999,
      "fzfg": false,
      "metar_trigger": false,
      "taf_trigger": false,
      "metar": "METAR LEZG 060700Z 29011KT 260V320 9999 BKN006 OVC030 10/10 Q1013 NOSIG",
      "taf": "TAF LEZG 060500Z 0606/0706 31009KT 9999 BKN020 TX12/0614Z TN09/0606Z"
    },
    {
      "icao": "LEZL",
      "alert": "OK",
      "vis_m": 9999,
      "fzfg": false,
      "metar_trigger": false,
      "taf_trigger": false,
      "metar": "METAR LEZL 060700Z 26010KT 9999 BKN032 10/06 Q1013 NOSIG",
      "taf": "TAF LEZL 060200Z 0603/0703 26009KT 9999 SCT020 BKN040 TX15/0615Z TN10/0607Z"
    },
    {
      "icao": "LFBD",
      "alert": "OK",
      "vis_m": 9999,
      "fzfg": false,
      "metar_trigger": false,
      "taf_trigger": false,
      "metar": "METAR LFBD 060700Z AUTO 13005KT 9999 BKN006 OVC010 12/11 Q1017 TEMPO BKN010",
      "taf": ""
    },
    {
      "icao": "LFLL",
      "alert": "OK",
      "vis_m": 9999,
      "fzfg": false,
      "metar_trigger": false,
      "taf_trigger": false,
      "metar": "METAR LFLL 060700Z 16005KT CAVOK 10/06 Q1020 NOSIG",
      "taf": "TAF LFLL 060500Z 0606/0712 17005KT CAVOK"
    },
    {
      "icao": "LFLS",
      "alert": "OK",
      "vis_m": 9999,
      "fzfg": false,
      "metar_trigger": false,
      "taf_trigger": false,
      "metar": "METAR LFLS 060700Z AUTO 08006KT CAVOK 06/05 Q1020 NOSIG",
      "taf": "TAF LFLS 060200Z 0603/0703 09006KT CAVOK"
    },
    {
      "icao": "LFMN",
      "alert": "OK",
      "vis_m": 9999,
      "fzfg": false,
      "metar_trigger": false,
      "taf_trigger": false,
      "metar": "METAR LFMN 060700Z 11018KT 9999 BKN063 BKN120 16/10 Q1020 NOSIG",
      "taf": "TAF LFMN 060200Z 0603/0709 06012KT 9999 BKN100"
    },
    {
      "icao": "LFOB",
      "alert": "OK",
      "vis_m": 7000,
      "fzfg": false,
      "metar_trigger": false,
      "taf_trigger": false,
      "metar": "METAR LFOB 060700Z AUTO 36002KT 7000 NSC 06/06 Q1019 TEMPO 4000 BR",
      "taf": "TAF LFOB 060500Z 0606/0706 VRB03KT CAVOK"
    },
    {
      "icao": "LFPO",
      "alert": "OK",
      "vis_m": 9999,
      "fzfg": false,
      "metar_trigger": false,
      "taf_trigger": false,
      "metar": "METAR LFPO 060700Z 00000KT CAVOK 10/07 Q1019 NOSIG",
      "taf": "TAF LFPO 060500Z 0606/0712 VRB03KT CAVOK"
    },
    {
      "icao": "LFSB",
      "alert": "OK",
      "vis_m": 9999,
      "fzfg": false,
      "metar_trigger": false,
      "taf_trigger": false,
      "metar": "METAR LFSB 060700Z AUTO 15002KT CAVOK 04/03 Q1021 NOSIG",
      "taf": "TAF LFSB 060500Z 0606/0706 VRB02KT CAVOK"
    },
    {
      "icao": "LGAV",
      "alert": "OK",
      "vis_m": 9999,
      "fzfg": false,
      "metar_trigger": false,
      "taf_trigger": false,
      "metar": "METAR LGAV 060720Z 05005KT 350V080 9999 FEW030 14/07 Q1025 NOSIG",
      "taf": "TAF LGAV 060500Z 0606/0706 VRB05KT 9999 SCT025 SCT070"
    },
    {
      "icao": "LGTS",
      "alert": "OK",
      "vis_m": 7000,
      "fzfg": false,
      "metar_trigger": false,
      "taf_trigger": false,
      "metar": "METAR LGTS 060720Z VRB02KT 7000 FEW020 09/07 Q1026 NOSIG",
      "taf": "TAF LGTS 060500Z 0606/0706 VRB03KT 9999 FEW025"
    },
    {
      "icao": "LHBP",
      "alert": "OK",
      "vis_m": 9999,
      "fzfg": false,
      "metar_trigger": false,
      "taf_trigger": false,
      "metar": "METAR LHBP 060700Z 36003KT CAVOK 05/M01 Q1027 NOSIG",
      "taf": "TAF LHBP 060515Z 0606/0706 34004KT CAVOK"
    },
    {
      "icao": "LHDC",
      "alert": "OK",
      "vis_m": 9999,
      "fzfg": false,
      "metar_trigger": false,
      "taf_trigger": false,
      "metar": "METAR LHDC 060645Z AUTO VRB02KT CAVOK 05/M01 Q1027 NOSIG",
      "taf": "TAF LHDC 060515Z 0606/0615 03007KT CAVOK"
    },
    {
      "icao": "LIBD",
      "alert": "OK",
      "vis_m": 5000,
      "fzfg": false,
      "metar_trigger": false,
      "taf_trigger": false,
      "metar": "METAR LIBD 060720Z VRB02KT 5000 BR SCT008 BKN015 11/11 Q1024",
      "taf": "TAF LIBD 060500Z 0606/0706 VRB05KT 6000 SCT015"
    },
    {
      "icao": "LIBG",
      "alert": "OK",
      "vis_m": 9999,
      "fzfg": false,
      "metar_trigger": false,
      "taf_trigger": false,
      "metar": "SPECI LIBG 060653Z VRB02KT CAVOK 09/09 Q1023",
      "taf": "TAF LIBG 060704Z 0608/0615 VRB06KT 9999 FEW020"
    },
    {
      "icao": "LIBP",
      "alert": "OK",
      "vis_m": 5000,
      "fzfg": false,
      "metar_trigger": false,
      "taf_trigger": false,
      "metar": "METAR LIBP 060720Z AUTO VRB01KT 5000 BR OVC035/// 11/11 Q1025",
      "taf": "TAF LIBP 060500Z 0606/0706 VRB05KT 3000 BR FEW030"
    },
    {
      "icao": "LIBR",
      "alert": "OK",
      "vis_m": 9999,
      "fzfg": false,
      "metar_trigger": false,
      "taf_trigger": false,
      "metar": "METAR LIBR 060720Z 30007KT 9999 FEW020 13/12 Q1023",
      "taf": "TAF LIBR 060500Z 0606/0706 35008KT 7000 FEW020"
    },
    {
      "icao": "LICA",
      "alert": "OK",
      "vis_m": 9999,
      "fzfg": false,
      "metar_trigger": false,
      "taf_trigger": false,
      "metar": "METAR LICA 060720Z AUTO 08011KT 9999 NCD 14/10 Q1022",
      "taf": "TAF LICA 060500Z 0606/0706 08016KT CAVOK"
    },
    {
      "icao": "LICC",
      "alert": "OK",
      "vis_m": 9999,
      "fzfg": false,
      "metar_trigger": false,
      "taf_trigger": false,
      "metar": "METAR LICC 060720Z 08012KT 9999 SCT020 BKN050 15/13 Q1022",
      "taf": "TAF LICC 060500Z 0606/0706 08012KT 9999 FEW015 BKN040"
    },
    {
      "icao": "LICJ",
      "alert": "OK",
      "vis_m": 9999,
      "fzfg": false,
      "metar_trigger": false,
      "taf_trigger": false,
      "metar": "METAR LICJ 060720Z 24006KT CAVOK 15/09 Q1018",
      "taf": "TAF LICJ 060500Z 0606/0706 VRB05KT CAVOK"
    },
    {
      "icao": "LIMC",
      "alert": "OK",
      "vis_m": 600,
      "fzfg": false,
      "metar_trigger": false,
      "taf_trigger": false,
      "metar": "METAR LIMC 060720Z 02005KT 0600 R35R/0175N R17L/0225N R35L/0225N FG NSC 06/06 Q1025 NOSIG",
      "taf": "TAF LIMC 060500Z 0606/0712 VRB05KT 3000 BR BKN020"
    },
    {
      "icao": "LIME",
      "alert": "OK",
      "vis_m": 4000,
      "fzfg": false,
      "metar_trigger": false,
      "taf_trigger": false,
      "metar": "METAR LIME 060720Z 02003KT 4000 BR NSC 06/05 Q1024 NOSIG",
      "taf": "TAF LIME 060500Z 0606/0706 VRB05KT 4000 BR BKN020"
    },
    {
      "icao": "LIMF",
      "alert": "OK",
      "vis_m": 3000,
      "fzfg": false,
      "metar_trigger": false,
      "taf_trigger": false,
      "metar": "METAR LIMF 060720Z 29002KT 3000 BR NSC 08/05 Q1024",
      "taf": "TAF LIMF 060500Z 0606/0706 VRB04KT 3000 BR BKN006"
    },
    {
      "icao": "LIMJ",
      "alert": "OK",
      "vis_m": 8000,
      "fzfg": false,
      "metar_trigger": false,
      "taf_trigger": false,
      "metar": "METAR LIMJ 060720Z 03017KT 8000 NSC 11/06 Q1022",
      "taf": ""
    },
    {
      "icao": "LIPE",
      "alert": "OK",
      "vis_m": 3000,
      "fzfg": false,
      "metar_trigger": false,
      "taf_trigger": false,
      "metar": "METAR LIPE 060720Z VRB01KT 3000 BR BKN030 10/08 Q1025",
      "taf": "TAF LIPE 060500Z 0606/0706 VRB04KT 4000 BR SCT015"
    },
    {
      "icao": "LIPH",
      "alert": "OK",
      "vis_m": 2500,
      "fzfg": false,
      "metar_trigger": false,
      "taf_trigger": false,
      "metar": "METAR LIPH 060720Z VRB01KT 2500 BR NSC 04/04 Q1025",
      "taf": "TAF LIPH 060500Z 0606/0706 VRB04KT 2000 BR FEW015"
    },
    {
      "icao": "LIPQ",
      "alert": "OK",
      "vis_m": 7000,
      "fzfg": false,
      "metar_trigger": false,
      "taf_trigger": false,
      "metar": "METAR LIPQ 060720Z AUTO VRB01KT 7000 NCD 05/05 Q1025",
      "taf": "TAF LIPQ 060500Z 0606/0706 VRB05KT 2000 BR SCT015"
    },
    {
      "icao": "LIPR",
      "alert": "OK",
      "vis_m": 7000,
      "fzfg": false,
      "metar_trigger": false,
      "taf_trigger": false,
      "metar": "METAR LIPR 060720Z VRB01KT 7000 BKN015 11/10 Q1025",
      "taf": "TAF LIPR 060500Z 0606/0706 VRB05KT 7000 BKN018"
    },
    {
      "icao": "LIPX",
      "alert": "OK",
      "vis_m": 4500,
      "fzfg": false,
      "metar_trigger": false,
      "taf_trigger": false,
      "metar": "METAR LIPX 060720Z 29002KT 4500 BR NSC 04/04 Q1025",
      "taf": "TAF LIPX 060500Z 0606/0706 VRB05KT 6000 BKN020"
    },
    {
      "icao": "LIPY",
      "alert": "OK",
      "vis_m": 6000,
      "fzfg": false,
      "metar_trigger": false,
      "taf_trigger": false,
      "metar": "METAR LIPY 060720Z AUTO VRB02KT 6000 BKN027/// 11/10 Q1025",
      "taf": ""
    },
    {
      "icao": "LIPZ",
      "alert": "OK",
      "vis_m": 500,
      "fzfg": false,
      "metar_trigger": false,
      "taf_trigger": false,
      "metar": "METAR LIPZ 060720Z 36003KT 0500 R04R/P2000N BCFG NSC 06/05 Q1025 NOSIG",
      "taf": "TAF LIPZ 060500Z 0606/0712 VRB04KT 0700 FG BKN008"
    },
    {
      "icao": "LIRF",
      "alert": "OK",
      "vis_m": 9000,
      "fzfg": false,
      "metar_trigger": false,
      "taf_trigger": false,
      "metar": "METAR LIRF 060720Z VRB02KT 9000 NSC 11/09 Q1021 NOSIG",
      "taf": "TAF LIRF 060500Z 0606/0712 07008KT CAVOK"
    },
    {
      "icao": "LIRN",
      "alert": "OK",
      "vis_m": 9000,
      "fzfg": false,
      "metar_trigger": false,
      "taf_trigger": false,
      "metar": "METAR LIRN 060720Z 02005KT 350V050 9000 NSC 13/08 Q1021 NOSIG",
      "taf": "TAF LIRN 060500Z 0606/0706 VRB05KT CAVOK"
    },
    {
      "icao": "LIRP",
      "alert": "OK",
      "vis_m": 9999,
      "fzfg": false,
      "metar_trigger": false,
      "taf_trigger": false,
      "metar": "METAR LIRP 060715Z 12011KT CAVOK 11/08 Q1022 NOSIG",
      "taf": "TAF LIRP 060500Z 0606/0706 11008KT 9999 FEW030 SCT070"
    },
    {
      "icao": "LIRZ",
      "alert": "OK",
      "vis_m": 9999,
      "fzfg": false,
      "metar_trigger": false,
      "taf_trigger": false,
      "metar": "METAR LIRZ 060720Z AUTO 11004KT 9999 NCD 08/07 Q1022",
      "taf": "TAF LIRZ 060500Z 0606/0706 35010KT CAVOK"
    },
    {
      "icao": "LJLJ",
      "alert": "OK",
      "vis_m": 9999,
      "fzfg": false,
      "metar_trigger": false,
      "taf_trigger": false,
      "metar": "METAR LJLJ 060700Z VRB01KT CAVOK 00/00 Q1025 NOSIG",
      "taf": "TAF LJLJ 060500Z 0606/0706 VRB02KT CAVOK"
    },
    {
      "icao": "LKMT",
      "alert": "OK",
      "vis_m": 9999,
      "fzfg": false,
      "metar_trigger": false,
      "taf_trigger": false,
      "metar": "METAR LKMT 060700Z 00000KT CAVOK 00/M02 Q1026 NOSIG",
      "taf": "TAF LKMT 060500Z 0606/0706 VRB02KT CAVOK"
    },
    {
      "icao": "LKPR",
      "alert": "OK",
      "vis_m": 2500,
      "fzfg": false,
      "metar_trigger": false,
      "taf_trigger": false,
      "metar": "METAR LKPR 060700Z 33003KT 280V010 2500 0800W R24/P2000N R30/P2000N BR BCFG FEW002 00/00 Q1024 TEMPO 4000 BR",
      "taf": "TAF LKPR 060500Z 0606/0712 VRB02KT 2000 BR SCT005"
    },
    {
      "icao": "LLBG",
      "alert": "OK",
      "vis_m": 9999,
      "fzfg": false,
      "metar_trigger": false,
      "taf_trigger": false,
      "metar": "METAR LLBG 060720Z VRB03KT CAVOK 15/04 Q1020 NOSIG",
      "taf": "TAF LLBG 060503Z 0606/0706 VRB03KT CAVOK TX19/0611Z TN10/0703Z"
    },
    {
      "icao": "LMML",
      "alert": "OK",
      "vis_m": 9999,
      "fzfg": false,
      "metar_trigger": false,
      "taf_trigger": false,
      "metar": "METAR LMML 060715Z 11015KT 9999 -RA FEW010 SCT015 15/14 Q1020 NOSIG",
      "taf": "TAF LMML 060500Z 0606/0706 11018KT 9999 SCT012"
    },
    {
      "icao": "LOWW",
      "alert": "OK",
      "vis_m": 9999,
      "fzfg": false,
      "metar_trigger": false,
      "taf_trigger": false,
      "metar": "METAR LOWW 060720Z 15007KT CAVOK 07/02 Q1025 NOSIG",
      "taf": "TAF LOWW 060515Z 0606/0712 13009KT CAVOK TX15/0614Z TN02/0606Z"
    },
    {
      "icao": "LPFR",
      "alert": "OK",
      "vis_m": 9999,
      "fzfg": false,
      "metar_trigger": false,
      "taf_trigger": false,
      "metar": "METAR LPFR 060700Z 31013KT 9999 SCT035 11/04 Q1016",
      "taf": "TAF LPFR 060500Z 0606/0706 32015KT 9999 SCT030"
    },
    {
      "icao": "LPMA",
      "alert": "OK",
      "vis_m": 9999,
      "fzfg": false,
      "metar_trigger": false,
      "taf_trigger": false,
      "metar": "METAR LPMA 060700Z 01018KT 9999 BKN014 14/04 Q1027",
      "taf": "TAF LPMA 060500Z 0606/0706 01015G25KT 9999 SCT015"
    },
    {
      "icao": "LPPR",
      "alert": "OK",
      "vis_m": 9999,
      "fzfg": false,
      "metar_trigger": false,
      "taf_trigger": false,
      "metar": "METAR LPPR 060700Z 35014KT 9999 FEW030 09/03 Q1021",
      "taf": "TAF LPPR 060500Z 0606/0706 35013KT 9999 SCT025"
    },
    {
      "icao": "LPPS",
      "alert": "OK",
      "vis_m": 9999,
      "fzfg": false,
      "metar_trigger": false,
      "taf_trigger": false,
      "metar": "METAR LPPS 060700Z 05010KT 020V080 9999 SCT015 BKN030 13/05 Q1028",
      "taf": "TAF LPPS 060500Z 0606/0712 04015KT 9999 FEW015 BKN030"
    },
    {
      "icao": "LPPT",
      "alert": "OK",
      "vis_m": 9999,
      "fzfg": false,
      "metar_trigger": false,
      "taf_trigger": false,
      "metar": "METAR LPPT 060700Z 33019KT 9999 FEW026 BKN038 10/06 Q1018 WS R02",
      "taf": "TAF LPPT 060500Z 0606/0712 33017KT 9999 SCT025"
    },
    {
      "icao": "LQBK",
      "alert": "OK",
      "vis_m": 9999,
      "fzfg": false,
      "metar_trigger": false,
      "taf_trigger": false,
      "metar": "METAR LQBK 060700Z 15005KT CAVOK 04/00 Q1026 NOSIG",
      "taf": "TAF LQBK 060500Z 0606/0706 03005KT CAVOK TX17/0614Z TN00/0706Z"
    },
    {
      "icao": "LQSA",
      "alert": "OK",
      "vis_m": 9999,
      "fzfg": false,
      "metar_trigger": false,
      "taf_trigger": false,
      "metar": "METAR LQSA 060700Z VRB01KT CAVOK 02/01 Q1026 NOSIG",
      "taf": "TAF LQSA 060500Z 0606/0706 VRB02KT CAVOK TX17/0612Z TNM01/0606Z"
    },
    {
      "icao": "LQTZ",
      "alert": "OK",
      "vis_m": 3500,
      "fzfg": false,
      "metar_trigger": false,
      "taf_trigger": false,
      "metar": "METAR LQTZ 060700Z VRB02KT 3500 BR NSC 00/00 Q1026",
      "taf": "TAF LQTZ 060500Z 0606/0706 04005KT CAVOK TX16/0614Z TNM02/0606Z"
    },
    {
      "icao": "LRBC",
      "alert": "OK",
      "vis_m": 9999,
      "fzfg": false,
      "metar_trigger": false,
      "taf_trigger": false,
      "metar": "METAR LRBC 060700Z 36005KT 330V060 CAVOK 07/M01 Q1025",
      "taf": "TAF LRBC 060500Z 0606/0615 VRB04KT CAVOK"
    },
    {
      "icao": "LRBS",
      "alert": "OK",
      "vis_m": 9999,
      "fzfg": false,
      "metar_trigger": false,
      "taf_trigger": false,
      "metar": "METAR LRBS 060700Z 00000KT CAVOK 08/02 Q1025 NOSIG",
      "taf": "TAF LRBS 060500Z 0606/0706 VRB04KT CAVOK"
    },
    {
      "icao": "LRBV",
      "alert": "OK",
      "vis_m": 9999,
      "fzfg": false,
      "metar_trigger": false,
      "taf_trigger": false,
      "metar": "METAR LRBV 060700Z 07004KT 040V140 CAVOK 03/M02 Q1025",
      "taf": "TAF LRBV 060500Z 0606/0615 VRB04KT CAVOK"
    },
    {
      "icao": "LRCL",
      "alert": "OK",
      "vis_m": 9999,
      "fzfg": false,
      "metar_trigger": false,
      "taf_trigger": false,
      "metar": "METAR LRCL 060700Z VRB01KT CAVOK 05/M05 Q1026",
      "taf": "TAF LRCL 060500Z 0606/0615 VRB04KT CAVOK"
    },
    {
      "icao": "LRCV",
      "alert": "OK",
      "vis_m": 9999,
      "fzfg": false,
      "metar_trigger": false,
      "taf_trigger": false,
      "metar": "METAR LRCV 060700Z 05008KT CAVOK 06/03 Q1025",
      "taf": "TAF LRCV 060500Z 0606/0615 06006KT CAVOK"
    },
    {
      "icao": "LRIA",
      "alert": "OK",
      "vis_m": 9999,
      "fzfg": false,
      "metar_trigger": false,
      "taf_trigger": false,
      "metar": "METAR LRIA 060700Z 31015KT CAVOK 05/M01 Q1025",
      "taf": "TAF LRIA 060500Z 0606/0615 32012KT CAVOK"
    },
    {
      "icao": "LROP",
      "alert": "OK",
      "vis_m": 9999,
      "fzfg": false,
      "metar_trigger": false,
      "taf_trigger": false,
      "metar": "METAR LROP 060700Z VRB02KT CAVOK 07/M02 Q1025 NOSIG",
      "taf": "TAF LROP 060500Z 0606/0706 VRB04KT CAVOK"
    },
    {
      "icao": "LRSB",
      "alert": "OK",
      "vis_m": 9999,
      "fzfg": false,
      "metar_trigger": false,
      "taf_trigger": false,
      "metar": "METAR LRSB 060700Z VRB02KT CAVOK 05/02 Q1025",
      "taf": "TAF LRSB 060500Z 0606/0706 VRB04KT CAVOK"
    },
    {
      "icao": "LRSM",
      "alert": "OK",
      "vis_m": 9999,
      "fzfg": false,
      "metar_trigger": false,
      "taf_trigger": false,
      "metar": "METAR LRSM 060700Z 24003KT 210V270 CAVOK 03/M02 Q1027",
      "taf": "TAF LRSM 060500Z 0606/0615 VRB04KT CAVOK"
    },
    {
      "icao": "LRSV",
      "alert": "OK",
      "vis_m": 9999,
      "fzfg": false,
      "metar_trigger": false,
      "taf_trigger": false,
      "metar": "METAR LRSV 060700Z 29013KT CAVOK 05/M01 Q1024",
      "taf": "TAF LRSV 060500Z 0606/0615 31014KT CAVOK"
    },
    {
      "icao": "LRTM",
      "alert": "OK",
      "vis_m": 9999,
      "fzfg": false,
      "metar_trigger": false,
      "taf_trigger": false,
      "metar": "METAR LRTM 060700Z 09004KT 070V130 CAVOK 01/M02 Q1026",
      "taf": "TAF LRTM 060500Z 0606/0615 VRB04KT CAVOK"
    },
    {
      "icao": "LRTR",
      "alert": "OK",
      "vis_m": 9999,
      "fzfg": false,
      "metar_trigger": false,
      "taf_trigger": false,
      "metar": "METAR LRTR 060700Z VRB01KT CAVOK 04/03 Q1026",
      "taf": "TAF LRTR 060500Z 0606/0706 VRB04KT CAVOK"
    },
    {
      "icao": "LTAC",
      "alert": "OK",
      "vis_m": 9999,
      "fzfg": false,
      "metar_trigger": false,
      "taf_trigger": false,
      "metar": "METAR LTAC 060720Z 23003KT 160V310 9999 SCT040 BKN100 07/M03 Q1020 NOSIG RMK RWY21C 32003KT 280V020 RWY03L VRB02KT RWY21R VRB01KT RWY03R VRB02KT RWY21L VRB02KT",
      "taf": "TAF LTAC 060440Z 0606/0706 VRB02KT 9999 SCT040 BKN100"
    },
    {
      "icao": "LTFM",
      "alert": "OK",
      "vis_m": 9999,
      "fzfg": false,
      "metar_trigger": false,
      "taf_trigger": false,
      "metar": "METAR LTFM 060720Z 34008KT 310V030 9999 FEW030 09/06 Q1024 NOSIG RMK RWY17L 35008KT RWY34L 33009KT 290V350 RWY16R 35007KT RWY36 35009KT RWY18 35009KT 300V360",
      "taf": "TAF LTFM 060440Z 0606/0712 30006KT 9999 SCT040"
    },
    {
      "icao": "LUKK",
      "alert": "OK",
      "vis_m": 9999,
      "fzfg": false,
      "metar_trigger": false,
      "taf_trigger": false,
      "metar": "METAR LUKK 060700Z 33013KT CAVOK 06/M00 Q1023 NOSIG",
      "taf": "TAF LUKK 060515Z 0606/0706 33012KT CAVOK"
    },
    {
      "icao": "LWOH",
      "alert": "OK",
      "vis_m": 9999,
      "fzfg": false,
      "metar_trigger": false,
      "taf_trigger": false,
      "metar": "METAR LWOH 060720Z 15004KT CAVOK 06/02 Q1025",
      "taf": ""
    },
    {
      "icao": "LWSK",
      "alert": "OK",
      "vis_m": 6000,
      "fzfg": false,
      "metar_trigger": false,
      "taf_trigger": false,
      "metar": "METAR LWSK 060720Z 14002KT 6000 NSC 04/03 Q1027 NOSIG",
      "taf": ""
    },
    {
      "icao": "LYBE",
      "alert": "OK",
      "vis_m": 5000,
      "fzfg": false,
      "metar_trigger": false,
      "taf_trigger": false,
      "metar": "METAR LYBE 060700Z 18003KT 140V210 5000 BR NSC 07/04 Q1026 BECMG 7000 NSW",
      "taf": "TAF LYBE 060500Z 0606/0706 05004KT 4000 BR NSC TX16/0612Z TN02/0606Z"
    },
    {
      "icao": "LYNI",
      "alert": "OK",
      "vis_m": 200,
      "fzfg": false,
      "metar_trigger": false,
      "taf_trigger": false,
      "metar": "METAR LYNI 060700Z 12003KT 080V150 0200 R29/0275N R11/0275N FG VV001 03/03 Q1027 BECMG FM0800 0800 BKN002",
      "taf": "TAF LYNI 060500Z 0606/0706 20004KT 0400 FG VV001 TX16/0614Z TN01/0606Z"
    },
    {
      "icao": "LYPG",
      "alert": "OK",
      "vis_m": 9999,
      "fzfg": false,
      "metar_trigger": false,
      "taf_trigger": false,
      "metar": "METAR LYPG 060700Z VRB02KT CAVOK 10/05 Q1025 NOSIG",
      "taf": "TAF LYPG 060500Z 0606/0706 16005KT CAVOK TX19/0613Z TN04/0705Z"
    },
    {
      "icao": "LZIB",
      "alert": "OK",
      "vis_m": 9999,
      "fzfg": false,
      "metar_trigger": false,
      "taf_trigger": false,
      "metar": "METAR LZIB 060700Z 03006KT CAVOK 05/M01 Q1026 NOSIG",
      "taf": "TAF LZIB 060515Z 0606/0706 04005KT CAVOK"
    },
    {
      "icao": "LZKZ",
      "alert": "OK",
      "vis_m": 9999,
      "fzfg": false,
      "metar_trigger": false,
      "taf_trigger": false,
      "metar": "METAR LZKZ 060700Z 36004KT 330V030 CAVOK 04/M04 Q1027 NOSIG",
      "taf": "TAF LZKZ 060515Z 0606/0706 VRB02KT CAVOK"
    },
    {
      "icao": "LZTT",
      "alert": "OK",
      "vis_m": 9999,
      "fzfg": false,
      "metar_trigger": false,
      "taf_trigger": false,
      "metar": "METAR LZTT 060700Z 00000KT CAVOK M01/M04 Q1026 NOSIG",
      "taf": "TAF LZTT 060515Z 0606/0706 27005KT CAVOK"
    },
    {
      "icao": "OEJN",
      "alert": "OK",
      "vis_m": 9999,
      "fzfg": false,
      "metar_trigger": false,
      "taf_trigger": false,
      "metar": "METAR OEJN 060700Z 30006KT CAVOK 27/14 Q1014 NOSIG",
      "taf": "TAF OEJN 060500Z 0606/0712 28014KT 9999 SCT040"
    },
    {
      "icao": "OEMA",
      "alert": "OK",
      "vis_m": 9999,
      "fzfg": false,
      "metar_trigger": false,
      "taf_trigger": false,
      "metar": "METAR OEMA 060700Z 07008KT CAVOK 23/02 Q1019 NOSIG",
      "taf": "TAF OEMA 060500Z 0606/0712 28012KT 7000 NSC"
    },
    {
      "icao": "OJAI",
      "alert": "OK",
      "vis_m": 5000,
      "fzfg": false,
      "metar_trigger": false,
      "taf_trigger": false,
      "metar": "METAR OJAI 060700Z 13008KT 5000 HZ NSC 12/M07 Q1021 NOSIG",
      "taf": "TAF OJAI 060500Z 0606/0712 07006KT 5000 HZ NSC"
    },
    {
      "icao": "OMAA",
      "alert": "OK",
      "vis_m": null,
      "fzfg": false,
      "metar_trigger": false,
      "taf_trigger": false,
      "metar": "",
      "taf": ""
    },
    {
      "icao": "OMDB",
      "alert": "OK",
      "vis_m": null,
      "fzfg": false,
      "metar_trigger": false,
      "taf_trigger": false,
      "metar": "",
      "taf": ""
    },
    {
      "icao": "UAAA",
      "alert": "OK",
      "vis_m": 9999,
      "fzfg": false,
      "metar_trigger": false,
      "taf_trigger": false,
      "metar": "METAR UAAA 060700Z 02004MPS 9999 OVC004 02/01 Q1025 NOSIG RMK QBB120",
      "taf": "TAF UAAA 060504Z 0606/0706 04003MPS 6000 BKN011CB OVC030 TX05/0609Z TNM01/0701Z"
    },
    {
      "icao": "UBBB",
      "alert": "OK",
      "vis_m": 9999,
      "fzfg": false,
      "metar_trigger": false,
      "taf_trigger": false,
      "metar": "METAR UBBB 060700Z 20010KT CAVOK 08/02 Q1016 NOSIG",
      "taf": "TAF UBBB 060501Z 0606/0706 23014KT CAVOK TX13/0610Z TN05/0701Z"
    },
    {
      "icao": "UDSG",
      "alert": "OK",
      "vis_m": 9999,
      "fzfg": false,
      "metar_trigger": false,
      "taf_trigger": false,
      "metar": "METAR UDSG 060700Z 21002KT 9999 SCT049 M07/M11 Q1018 NOSIG",
      "taf": "TAF UDSG 060500Z 0606/0706 VRB06KT 9999 SCT040"
    },
    {
      "icao": "UDYZ",
      "alert": "OK",
      "vis_m": 9999,
      "fzfg": false,
      "metar_trigger": false,
      "taf_trigger": false,
      "metar": "METAR UDYZ 060700Z VRB02KT 9999 NSC 05/M07 Q1019 NOSIG",
      "taf": "TAF UDYZ 060500Z 0606/0706 VRB06KT 9999 FEW040"
    },
    {
      "icao": "UGKO",
      "alert": "OK",
      "vis_m": 9999,
      "fzfg": false,
      "metar_trigger": false,
      "taf_trigger": false,
      "metar": "METAR UGKO 060700Z 07009KT 9999 SCT085 07/M01 Q1018 NOSIG",
      "taf": "TAF UGKO 060500Z 0606/0706 09007KT 9999 SCT030 BKN050 TX08/0609Z TN01/0703Z"
    }
  ]
}