{
  "ts_utc": "2026-04-07T06:53:10Z",
  "threshold_m": 150,
  "source": "stations_override.txt (ICAO list) + aviationweather.gov (METAR/TAF raw)",
  "station_count": 159,
  "stations": [
    {
      "icao": "BIKF",
      "alert": "OK",
      "vis_m": 5000,
      "fzfg": false,
      "metar_trigger": false,
      "taf_trigger": false,
      "metar": "METAR BIKF 070630Z 17025KT 5000 VCSH BKN010CB OVC035 06/05 Q0977",
      "taf": "TAF BIKF 070412Z 0706/0806 15027G40KT 9999 -SHRA SCT013 BKN020 TX07/0710Z TN04/0802Z"
    },
    {
      "icao": "BKPR",
      "alert": "OK",
      "vis_m": null,
      "fzfg": false,
      "metar_trigger": false,
      "taf_trigger": false,
      "metar": "",
      "taf": "TAF BKPR 070530Z 0706/0806 34007KT 9999 FEW040"
    },
    {
      "icao": "EBCI",
      "alert": "OK",
      "vis_m": 9999,
      "fzfg": false,
      "metar_trigger": false,
      "taf_trigger": false,
      "metar": "METAR EBCI 070620Z 08006KT CAVOK 07/01 Q1025 NOSIG",
      "taf": "TAF EBCI 070513Z 0706/0812 09006KT CAVOK"
    },
    {
      "icao": "EDDB",
      "alert": "OK",
      "vis_m": 9999,
      "fzfg": false,
      "metar_trigger": false,
      "taf_trigger": false,
      "metar": "METAR EDDB 070620Z AUTO 31013KT 9999 BKN013 04/01 Q1025 BECMG BKN015",
      "taf": "TAF EDDB 070500Z 0706/0806 29007KT CAVOK"
    },
    {
      "icao": "EDDH",
      "alert": "OK",
      "vis_m": 9999,
      "fzfg": false,
      "metar_trigger": false,
      "taf_trigger": false,
      "metar": "METAR EDDH 070620Z AUTO 29007KT 9999 OVC017 05/03 Q1027 NOSIG",
      "taf": "TAF EDDH 070500Z 0706/0812 29005KT CAVOK"
    },
    {
      "icao": "EDDK",
      "alert": "OK",
      "vis_m": 9999,
      "fzfg": false,
      "metar_trigger": false,
      "taf_trigger": false,
      "metar": "METAR EDDK 070620Z AUTO VRB02KT CAVOK 05/02 Q1027 NOSIG",
      "taf": "TAF EDDK 070500Z 0706/0812 09003KT CAVOK"
    },
    {
      "icao": "EDDN",
      "alert": "OK",
      "vis_m": 9999,
      "fzfg": false,
      "metar_trigger": false,
      "taf_trigger": false,
      "metar": "METAR EDDN 070620Z AUTO 11001KT CAVOK 05/01 Q1026 NOSIG",
      "taf": "TAF EDDN 070500Z 0706/0806 VRB02KT CAVOK"
    },
    {
      "icao": "EDDS",
      "alert": "OK",
      "vis_m": 9999,
      "fzfg": false,
      "metar_trigger": false,
      "taf_trigger": false,
      "metar": "METAR EDDS 070620Z AUTO VRB02KT CAVOK 06/02 Q1024 NOSIG",
      "taf": "TAF EDDS 070500Z 0706/0806 VRB03KT CAVOK"
    },
    {
      "icao": "EDFH",
      "alert": "OK",
      "vis_m": 9999,
      "fzfg": false,
      "metar_trigger": false,
      "taf_trigger": false,
      "metar": "METAR EDFH 070620Z 12007KT CAVOK 06/M01 Q1025",
      "taf": "TAF EDFH 070500Z 0706/0806 10007KT CAVOK"
    },
    {
      "icao": "EDJA",
      "alert": "OK",
      "vis_m": 9999,
      "fzfg": false,
      "metar_trigger": false,
      "taf_trigger": false,
      "metar": "METAR EDJA 070620Z VRB01KT CAVOK 04/03 Q1024",
      "taf": "TAF EDJA 070500Z 0706/0715 04004KT CAVOK"
    },
    {
      "icao": "EDLW",
      "alert": "OK",
      "vis_m": 9999,
      "fzfg": false,
      "metar_trigger": false,
      "taf_trigger": false,
      "metar": "METAR EDLW 070620Z 15003KT CAVOK 04/01 Q1027",
      "taf": "TAF EDLW 070500Z 0706/0806 16005KT CAVOK"
    },
    {
      "icao": "EDNY",
      "alert": "OK",
      "vis_m": 9999,
      "fzfg": false,
      "metar_trigger": false,
      "taf_trigger": false,
      "metar": "METAR EDNY 070620Z COR 04003KT CAVOK 08/04 Q1025",
      "taf": "TAF EDNY 070500Z 0706/0715 05004KT CAVOK"
    },
    {
      "icao": "EDSB",
      "alert": "OK",
      "vis_m": 9999,
      "fzfg": false,
      "metar_trigger": false,
      "taf_trigger": false,
      "metar": "METAR EDSB 070620Z 03005KT CAVOK 07/03 Q1025",
      "taf": "TAF EDSB 070500Z 0706/0806 02006KT CAVOK"
    },
    {
      "icao": "EETN",
      "alert": "OK",
      "vis_m": 8000,
      "fzfg": false,
      "metar_trigger": false,
      "taf_trigger": false,
      "metar": "METAR EETN 070650Z 03010KT 350V070 8000 -RADZ OVC005 03/02 Q1006 RERA NOSIG",
      "taf": "TAF EETN 070530Z 0706/0806 36012KT 9999 BKN007 OVC013"
    },
    {
      "icao": "EFTU",
      "alert": "OK",
      "vis_m": 9999,
      "fzfg": false,
      "metar_trigger": false,
      "taf_trigger": false,
      "metar": "METAR EFTU 070650Z AUTO 01007KT 330V050 9999 OVC009 04/02 Q1011",
      "taf": "TAF EFTU 070528Z 0706/0806 36012KT 9999 OVC008"
    },
    {
      "icao": "EGBB",
      "alert": "OK",
      "vis_m": 9999,
      "fzfg": false,
      "metar_trigger": false,
      "taf_trigger": false,
      "metar": "METAR EGBB 070620Z 16003KT 040V200 CAVOK 05/03 Q1023",
      "taf": "TAF EGBB 070457Z 0706/0806 15003KT CAVOK"
    },
    {
      "icao": "EGGP",
      "alert": "OK",
      "vis_m": 9999,
      "fzfg": false,
      "metar_trigger": false,
      "taf_trigger": false,
      "metar": "METAR EGGP 070620Z 11011KT CAVOK 06/01 Q1021",
      "taf": "TAF EGGP 070457Z 0706/0806 13011KT CAVOK"
    },
    {
      "icao": "EGGW",
      "alert": "OK",
      "vis_m": 9999,
      "fzfg": false,
      "metar_trigger": false,
      "taf_trigger": false,
      "metar": "METAR EGGW 070620Z AUTO 13007KT 9999 NCD 06/04 Q1023",
      "taf": "TAF EGGW 070456Z 0706/0806 12009KT 9000 NSC"
    },
    {
      "icao": "EGKK",
      "alert": "OK",
      "vis_m": 9999,
      "fzfg": false,
      "metar_trigger": false,
      "taf_trigger": false,
      "metar": "METAR EGKK 070620Z 09004KT CAVOK 04/03 Q1023",
      "taf": "TAF EGKK 070458Z 0706/0812 10007KT CAVOK"
    },
    {
      "icao": "EGNM",
      "alert": "OK",
      "vis_m": 9999,
      "fzfg": false,
      "metar_trigger": false,
      "taf_trigger": false,
      "metar": "METAR EGNM 070620Z 07003KT 040V110 CAVOK 03/01 Q1023",
      "taf": "TAF EGNM 070457Z 0706/0806 14008KT CAVOK"
    },
    {
      "icao": "EGPD",
      "alert": "OK",
      "vis_m": 8000,
      "fzfg": false,
      "metar_trigger": false,
      "taf_trigger": false,
      "metar": "METAR EGPD 070620Z COR 15005KT 110V190 8000 FEW006 06/05 Q1022 NOSIG",
      "taf": "TAF EGPD 070501Z 0706/0806 16006KT CAVOK"
    },
    {
      "icao": "EGPF",
      "alert": "OK",
      "vis_m": 9999,
      "fzfg": false,
      "metar_trigger": false,
      "taf_trigger": false,
      "metar": "METAR EGPF 070620Z AUTO VRB01KT 9999 NCD 01/00 Q1021",
      "taf": "TAF EGPF 070455Z 0706/0806 VRB03KT CAVOK"
    },
    {
      "icao": "EHBK",
      "alert": "OK",
      "vis_m": 9999,
      "fzfg": false,
      "metar_trigger": false,
      "taf_trigger": false,
      "metar": "METAR EHBK 070625Z AUTO 08005KT 040V110 9999 NSC 06/02 Q1026 NOSIG",
      "taf": "TAF EHBK 070452Z 0706/0812 07006KT CAVOK"
    },
    {
      "icao": "EHEH",
      "alert": "OK",
      "vis_m": 9999,
      "fzfg": false,
      "metar_trigger": false,
      "taf_trigger": false,
      "metar": "METAR EHEH 070625Z AUTO 06005KT 030V140 9999 NCD 06/01 Q1027 BLU NOSIG RMK TREND REMOTE BY EHWX",
      "taf": "TAF EHEH 070529Z 0706/0812 08006KT CAVOK"
    },
    {
      "icao": "EKBI",
      "alert": "OK",
      "vis_m": 9999,
      "fzfg": false,
      "metar_trigger": false,
      "taf_trigger": false,
      "metar": "METAR EKBI 070620Z AUTO 30006KT 270V330 9999 NCD 04/03 Q1027",
      "taf": "TAF EKBI 070527Z 0706/0806 32006KT CAVOK"
    },
    {
      "icao": "EKCH",
      "alert": "OK",
      "vis_m": 9999,
      "fzfg": false,
      "metar_trigger": false,
      "taf_trigger": false,
      "metar": "METAR EKCH 070620Z AUTO 33007KT 300V360 9999 NCD 06/01 Q1024 NOSIG",
      "taf": "TAF EKCH 070527Z 0706/0806 32011KT CAVOK"
    },
    {
      "icao": "ENAL",
      "alert": "OK",
      "vis_m": 9999,
      "fzfg": false,
      "metar_trigger": false,
      "taf_trigger": false,
      "metar": "METAR ENAL 070620Z 24013KT 9999 VCSH FEW038 BKN051 05/00 Q1028",
      "taf": "TAF ENAL 070500Z 0706/0715 27009KT 9999 FEW015 BKN040"
    },
    {
      "icao": "ENBR",
      "alert": "OK",
      "vis_m": 9999,
      "fzfg": false,
      "metar_trigger": false,
      "taf_trigger": false,
      "metar": "METAR ENBR 070620Z 00000KT CAVOK M00/M01 Q1028 NOSIG RMK WIND 1200FT 10005KT",
      "taf": "TAF ENBR 070500Z 0706/0806 VRB03KT CAVOK"
    },
    {
      "icao": "ENGM",
      "alert": "OK",
      "vis_m": 9999,
      "fzfg": false,
      "metar_trigger": false,
      "taf_trigger": false,
      "metar": "METAR ENGM 070620Z 00000KT CAVOK 03/M09 Q1024 NOSIG",
      "taf": "TAF ENGM 070500Z 0706/0806 02008KT CAVOK"
    },
    {
      "icao": "ENHD",
      "alert": "OK",
      "vis_m": 9999,
      "fzfg": false,
      "metar_trigger": false,
      "taf_trigger": false,
      "metar": "METAR ENHD 070620Z 09006KT CAVOK 01/M00 Q1028",
      "taf": "TAF ENHD 070500Z 0706/0715 VRB05KT 9999 FEW020"
    },
    {
      "icao": "ENTC",
      "alert": "OK",
      "vis_m": 9999,
      "fzfg": false,
      "metar_trigger": false,
      "taf_trigger": false,
      "metar": "METAR ENTC 070620Z 00000KT CAVOK 02/M02 Q1026 NOSIG RMK WIND 2600FT 08008KT",
      "taf": "TAF ENTC 070500Z 0706/0806 02007KT CAVOK"
    },
    {
      "icao": "ENTO",
      "alert": "OK",
      "vis_m": 9999,
      "fzfg": false,
      "metar_trigger": false,
      "taf_trigger": false,
      "metar": "METAR ENTO 070620Z 35006KT CAVOK 04/M06 Q1025 NOSIG",
      "taf": "TAF ENTO 070500Z 0706/0806 35005KT CAVOK"
    },
    {
      "icao": "ENVA",
      "alert": "OK",
      "vis_m": 9999,
      "fzfg": false,
      "metar_trigger": false,
      "taf_trigger": false,
      "metar": "METAR ENVA 070620Z 08004KT 010V120 9999 -RA BKN013 03/03 Q1024 TEMPO 4000 SHRA RMK WIND 670FT 19004KT",
      "taf": ""
    },
    {
      "icao": "ENZV",
      "alert": "OK",
      "vis_m": 9999,
      "fzfg": false,
      "metar_trigger": false,
      "taf_trigger": false,
      "metar": "METAR ENZV 070620Z 05002KT CAVOK 02/01 Q1028 NOSIG",
      "taf": "TAF ENZV 070500Z 0706/0806 VRB03KT 9999 FEW030"
    },
    {
      "icao": "EPGD",
      "alert": "OK",
      "vis_m": 9999,
      "fzfg": false,
      "metar_trigger": false,
      "taf_trigger": false,
      "metar": "METAR EPGD 070630Z 30016KT 9999 SCT016 05/02 Q1016",
      "taf": "TAF EPGD 070530Z 0706/0806 28017KT 9999 SCT025"
    },
    {
      "icao": "EPKK",
      "alert": "OK",
      "vis_m": 9999,
      "fzfg": false,
      "metar_trigger": false,
      "taf_trigger": false,
      "metar": "METAR EPKK 070630Z 27014KT CAVOK 06/M02 Q1021",
      "taf": "TAF EPKK 070530Z 0706/0806 26010KT CAVOK"
    },
    {
      "icao": "EPKT",
      "alert": "OK",
      "vis_m": 9999,
      "fzfg": false,
      "metar_trigger": false,
      "taf_trigger": false,
      "metar": "METAR EPKT 070630Z 29011KT 260V320 CAVOK 05/M02 Q1021",
      "taf": "TAF EPKT 070530Z 0706/0806 28010KT CAVOK"
    },
    {
      "icao": "EPLB",
      "alert": "OK",
      "vis_m": 9999,
      "fzfg": false,
      "metar_trigger": false,
      "taf_trigger": false,
      "metar": "METAR EPLB 070630Z 29018KT 9999 FEW025 07/01 Q1015",
      "taf": "TAF EPLB 070530Z 0706/0806 28015KT 9999 SCT030"
    },
    {
      "icao": "EPMO",
      "alert": "OK",
      "vis_m": 9999,
      "fzfg": false,
      "metar_trigger": false,
      "taf_trigger": false,
      "metar": "METAR EPMO 070630Z 28017KT 9999 BKN017 05/02 Q1016",
      "taf": "TAF EPMO 070530Z 0706/0806 28015KT 9999 SCT030"
    },
    {
      "icao": "EPPO",
      "alert": "OK",
      "vis_m": 9999,
      "fzfg": false,
      "metar_trigger": false,
      "taf_trigger": false,
      "metar": "METAR EPPO 070630Z 32012KT 9999 OVC018 04/00 Q1021",
      "taf": "TAF EPPO 070530Z 0706/0806 30012KT 9999 OVC016"
    },
    {
      "icao": "EPRA",
      "alert": "OK",
      "vis_m": 9999,
      "fzfg": false,
      "metar_trigger": false,
      "taf_trigger": false,
      "metar": "METAR EPRA 070630Z 30013KT 270V330 9999 FEW023 06/M00 Q1017",
      "taf": "TAF EPRA 070530Z 0706/0715 28012KT CAVOK"
    },
    {
      "icao": "EPRZ",
      "alert": "OK",
      "vis_m": 9999,
      "fzfg": false,
      "metar_trigger": false,
      "taf_trigger": false,
      "metar": "METAR EPRZ 070630Z 28014KT 9999 BKN029 06/M02 Q1019",
      "taf": "TAF EPRZ 070530Z 0706/0806 27012KT CAVOK"
    },
    {
      "icao": "EPSC",
      "alert": "OK",
      "vis_m": 9999,
      "fzfg": false,
      "metar_trigger": false,
      "taf_trigger": false,
      "metar": "METAR EPSC 070630Z 30016KT 9999 OVC015 06/02 Q1022",
      "taf": "TAF EPSC 070530Z 0706/0806 28013KT 9999 SCT020"
    },
    {
      "icao": "EPSY",
      "alert": "OK",
      "vis_m": 9999,
      "fzfg": false,
      "metar_trigger": false,
      "taf_trigger": false,
      "metar": "METAR EPSY 070630Z 29012KT 9999 SCT017 BKN023 05/02 Q1014",
      "taf": "TAF EPSY 070530Z 0706/0715 30012KT 9999 SCT040"
    },
    {
      "icao": "EPWA",
      "alert": "OK",
      "vis_m": 9999,
      "fzfg": false,
      "metar_trigger": false,
      "taf_trigger": false,
      "metar": "METAR EPWA 070630Z 28018KT 9999 BKN020 06/01 Q1016 NOSIG",
      "taf": "TAF EPWA 070530Z 0706/0806 28015KT 9999 SCT030"
    },
    {
      "icao": "EPWR",
      "alert": "OK",
      "vis_m": 9999,
      "fzfg": false,
      "metar_trigger": false,
      "taf_trigger": false,
      "metar": "METAR EPWR 070630Z 29015KT CAVOK 05/M02 Q1023",
      "taf": "TAF EPWR 070530Z 0706/0806 28011KT CAVOK"
    },
    {
      "icao": "ESGG",
      "alert": "OK",
      "vis_m": 9999,
      "fzfg": false,
      "metar_trigger": false,
      "taf_trigger": false,
      "metar": "METAR ESGG 070620Z 36009KT CAVOK 03/M05 Q1023",
      "taf": "TAF ESGG 070530Z 0706/0806 01008KT CAVOK"
    },
    {
      "icao": "ESKN",
      "alert": "OK",
      "vis_m": 9999,
      "fzfg": false,
      "metar_trigger": false,
      "taf_trigger": false,
      "metar": "METAR ESKN 070620Z 33017KT 9999 SCT032 04/M03 Q1017",
      "taf": "TAF ESKN 070530Z 0706/0806 32012KT 9999 SCT030"
    },
    {
      "icao": "ESMS",
      "alert": "OK",
      "vis_m": 9999,
      "fzfg": false,
      "metar_trigger": false,
      "taf_trigger": false,
      "metar": "METAR ESMS 070620Z 32010KT CAVOK 05/02 Q1022",
      "taf": "TAF ESMS 070527Z 0706/0806 32008KT CAVOK"
    },
    {
      "icao": "ESSA",
      "alert": "OK",
      "vis_m": 9999,
      "fzfg": false,
      "metar_trigger": false,
      "taf_trigger": false,
      "metar": "METAR ESSA 070620Z 36016KT 9999 BKN023 04/M01 Q1016 NOSIG",
      "taf": "TAF ESSA 070530Z 0706/0806 35015G28KT 9999 BKN020"
    },
    {
      "icao": "EYKA",
      "alert": "OK",
      "vis_m": 9999,
      "fzfg": false,
      "metar_trigger": false,
      "taf_trigger": false,
      "metar": "METAR EYKA 070650Z 31011KT 280V350 9999 BKN027 OVC033 05/M00 Q1006",
      "taf": "TAF EYKA 070500Z 0706/0806 29013KT 9000 BKN020"
    },
    {
      "icao": "EYPA",
      "alert": "OK",
      "vis_m": 9999,
      "fzfg": false,
      "metar_trigger": false,
      "taf_trigger": false,
      "metar": "METAR EYPA 070650Z 32009KT 270V010 9999 FEW017 OVC024 05/02 Q1011",
      "taf": "TAF EYPA 070500Z 0706/0806 33013KT 9000 BKN020"
    },
    {
      "icao": "EYVI",
      "alert": "OK",
      "vis_m": 9999,
      "fzfg": false,
      "metar_trigger": false,
      "taf_trigger": false,
      "metar": "METAR EYVI 070650Z 30012KT 9999 -RA OVC017 03/01 Q1004 NOSIG",
      "taf": "TAF EYVI 070500Z 0706/0806 29013KT 5000 -RA BKN010 OVC015"
    },
    {
      "icao": "GCFV",
      "alert": "OK",
      "vis_m": 9999,
      "fzfg": false,
      "metar_trigger": false,
      "taf_trigger": false,
      "metar": "METAR GCFV 070630Z 31005KT 9999 FEW025 17/12 Q1019",
      "taf": "TAF GCFV 070200Z 0703/0803 34005KT 9999 FEW025 TX23/0714Z TN17/0706Z"
    },
    {
      "icao": "GCLP",
      "alert": "OK",
      "vis_m": 9999,
      "fzfg": false,
      "metar_trigger": false,
      "taf_trigger": false,
      "metar": "METAR GCLP 070630Z 35004KT 9999 FEW020 16/12 Q1020 NOSIG",
      "taf": "TAF GCLP 070200Z 0703/0803 36018KT 9999 BKN025 TX23/0714Z TN17/0706Z"
    },
    {
      "icao": "GCTS",
      "alert": "OK",
      "vis_m": 9999,
      "fzfg": false,
      "metar_trigger": false,
      "taf_trigger": false,
      "metar": "METAR GCTS 070630Z 00000KT 9999 FEW020 BKN045 18/14 Q1020 NOSIG",
      "taf": "TAF GCTS 070200Z 0703/0803 14005KT 9999 BKN025 TX22/0714Z TN18/0706Z"
    },
    {
      "icao": "GMAD",
      "alert": "OK",
      "vis_m": 5000,
      "fzfg": false,
      "metar_trigger": false,
      "taf_trigger": false,
      "metar": "METAR GMAD 070630Z 06005KT 030V090 5000 FEW020 BKN080 17/16 Q1017 NOSIG",
      "taf": "TAF GMAD 070500Z 0706/0812 06010KT 8000 SCT026 BKN080"
    },
    {
      "icao": "GMMN",
      "alert": "OK",
      "vis_m": 9999,
      "fzfg": false,
      "metar_trigger": false,
      "taf_trigger": false,
      "metar": "METAR GMMN 070630Z 19005KT 9999 FEW020 SCT100 15/13 Q1018 NOSIG",
      "taf": "TAF GMMN 062300Z 0700/0806 22008KT 9999 SCT010 BKN100"
    },
    {
      "icao": "GMMX",
      "alert": "OK",
      "vis_m": 8000,
      "fzfg": false,
      "metar_trigger": false,
      "taf_trigger": false,
      "metar": "METAR GMMX 070630Z 03004KT 8000 RA SCT023 SCT080 13/10 Q1018 NOSIG",
      "taf": "TAF GMMX 062300Z 0700/0806 24006KT 8000 SCT023 BKN080"
    },
    {
      "icao": "HEGN",
      "alert": "OK",
      "vis_m": 9999,
      "fzfg": false,
      "metar_trigger": false,
      "taf_trigger": false,
      "metar": "METAR HEGN 070600Z 30011KT 9999 SCT020 23/02 Q1020 NOSIG",
      "taf": "TAF HEGN 070500Z 0706/0812 32015KT 9999 SCT025"
    },
    {
      "icao": "HEMA",
      "alert": "OK",
      "vis_m": 9999,
      "fzfg": false,
      "metar_trigger": false,
      "taf_trigger": false,
      "metar": "METAR HEMA 070600Z 32019KT CAVOK 24/04 Q1018 NOSIG",
      "taf": "TAF HEMA 070500Z 0706/0812 36015KT CAVOK"
    },
    {
      "icao": "HESH",
      "alert": "OK",
      "vis_m": 9999,
      "fzfg": false,
      "metar_trigger": false,
      "taf_trigger": false,
      "metar": "METAR HESH 070600Z 35007KT CAVOK 24/07 Q1019 NOSIG",
      "taf": "TAF HESH 070500Z 0706/0812 31012KT CAVOK"
    },
    {
      "icao": "HESX",
      "alert": "OK",
      "vis_m": 9999,
      "fzfg": false,
      "metar_trigger": false,
      "taf_trigger": false,
      "metar": "METAR HESX 070600Z 28003KT CAVOK 17/11 Q1020 NOSIG",
      "taf": "TAF HESX 070500Z 0706/0812 31013KT 9999 FEW025"
    },
    {
      "icao": "LATI",
      "alert": "OK",
      "vis_m": 9999,
      "fzfg": false,
      "metar_trigger": false,
      "taf_trigger": false,
      "metar": "METAR LATI 070650Z VRB02KT CAVOK 14/08 Q1022 NOSIG",
      "taf": "TAF LATI 070500Z 0706/0806 VRB03KT CAVOK TX23/0712Z TN10/0804Z"
    },
    {
      "icao": "LBPD",
      "alert": "OK",
      "vis_m": 9999,
      "fzfg": false,
      "metar_trigger": false,
      "taf_trigger": false,
      "metar": "METAR LBPD 070630Z AUTO 29015KT 9999 NCD 19/06 Q1019 NOSIG",
      "taf": "TAF LBPD 070500Z 0706/0806 28012KT 9999 SCT080"
    },
    {
      "icao": "LBSF",
      "alert": "OK",
      "vis_m": 9999,
      "fzfg": false,
      "metar_trigger": false,
      "taf_trigger": false,
      "metar": "METAR LBSF 070630Z 28007KT 9999 BKN050 12/06 Q1021 NOSIG",
      "taf": "TAF LBSF 070500Z 0706/0806 VRB03KT 9999 SCT080"
    },
    {
      "icao": "LBWN",
      "alert": "OK",
      "vis_m": 9999,
      "fzfg": false,
      "metar_trigger": false,
      "taf_trigger": false,
      "metar": "METAR LBWN 070630Z VRB02KT 9999 BKN045 11/02 Q1019 NOSIG",
      "taf": "TAF LBWN 070500Z 0706/0806 04010KT 9999 BKN040"
    },
    {
      "icao": "LCLK",
      "alert": "OK",
      "vis_m": 9999,
      "fzfg": false,
      "metar_trigger": false,
      "taf_trigger": false,
      "metar": "METAR LCLK 070630Z 29003KT 240V340 9999 FEW022 FEW025CB FEW030TCU 20/15 Q1018 NOSIG RMK DISTANT CB TO N",
      "taf": "TAF LCLK 070530Z 0706/0806 28005KT 9999 FEW025"
    },
    {
      "icao": "LCPH",
      "alert": "OK",
      "vis_m": 9999,
      "fzfg": false,
      "metar_trigger": false,
      "taf_trigger": false,
      "metar": "METAR LCPH 070630Z 25003KT 9999 SCT020 FEW025TCU 17/13 Q1018 NOSIG",
      "taf": "TAF LCPH 070530Z 0706/0806 02007KT 9999 FEW020 SCT035"
    },
    {
      "icao": "LEAL",
      "alert": "OK",
      "vis_m": 9999,
      "fzfg": false,
      "metar_trigger": false,
      "taf_trigger": false,
      "metar": "METAR LEAL 070630Z VRB02KT CAVOK 13/07 Q1019 NOSIG",
      "taf": "TAF LEAL 070500Z 0706/0806 33005KT CAVOK TX22/0712Z TN10/0706Z"
    },
    {
      "icao": "LEBB",
      "alert": "OK",
      "vis_m": 9999,
      "fzfg": false,
      "metar_trigger": false,
      "taf_trigger": false,
      "metar": "METAR LEBB 070630Z 16009KT 130V220 CAVOK 20/04 Q1016 NOSIG",
      "taf": "TAF LEBB 070500Z 0706/0806 13009KT CAVOK TX26/0715Z TN13/0806Z"
    },
    {
      "icao": "LEBL",
      "alert": "OK",
      "vis_m": 9999,
      "fzfg": false,
      "metar_trigger": false,
      "taf_trigger": false,
      "metar": "METAR LEBL 070630Z 33010KT 290V010 CAVOK 11/04 Q1022 NOSIG",
      "taf": "TAF LEBL 070500Z 0706/0806 VRB04KT CAVOK TX20/0712Z TN11/0805Z"
    },
    {
      "icao": "LECH",
      "alert": "OK",
      "vis_m": 9000,
      "fzfg": false,
      "metar_trigger": false,
      "taf_trigger": false,
      "metar": "METAR LECH 070630Z AUTO 00000KT 9000 NCD 08/03 Q1022",
      "taf": "TAF LECH 070500Z 0706/0806 VRB03KT CAVOK TX23/0714Z TN09/0706Z"
    },
    {
      "icao": "LEMD",
      "alert": "OK",
      "vis_m": 9999,
      "fzfg": false,
      "metar_trigger": false,
      "taf_trigger": false,
      "metar": "METAR LEMD 070630Z 34005KT CAVOK 10/05 Q1019 NOSIG",
      "taf": "TAF LEMD 070500Z 0706/0812 VRB04KT CAVOK TX22/0715Z TN09/0806Z"
    },
    {
      "icao": "LEMG",
      "alert": "OK",
      "vis_m": 9999,
      "fzfg": false,
      "metar_trigger": false,
      "taf_trigger": false,
      "metar": "METAR LEMG 070630Z 16006KT 130V200 CAVOK 16/11 Q1019 NOSIG",
      "taf": "TAF LEMG 070500Z 0706/0806 13007KT CAVOK TX22/0714Z TN13/0706Z"
    },
    {
      "icao": "LEVC",
      "alert": "OK",
      "vis_m": 9999,
      "fzfg": false,
      "metar_trigger": false,
      "taf_trigger": false,
      "metar": "METAR LEVC 070630Z 30004KT 250V320 CAVOK 09/04 Q1022 NOSIG",
      "taf": "TAF LEVC 070500Z 0706/0806 VRB03KT 9999 FEW015 TX22/0714Z TN08/0706Z"
    },
    {
      "icao": "LEXJ",
      "alert": "OK",
      "vis_m": 9999,
      "fzfg": false,
      "metar_trigger": false,
      "taf_trigger": false,
      "metar": "METAR LEXJ 070630Z 22009KT 190V260 CAVOK 21/08 Q1014",
      "taf": "TAF LEXJ 070200Z 0703/0803 18009KT CAVOK TX25/0714Z TN16/0803Z"
    },
    {
      "icao": "LEZG",
      "alert": "OK",
      "vis_m": 9999,
      "fzfg": false,
      "metar_trigger": false,
      "taf_trigger": false,
      "metar": "METAR LEZG 070630Z 08003KT CAVOK 11/03 Q1021 NOSIG",
      "taf": "TAF LEZG 070500Z 0706/0806 10010KT CAVOK TX28/0714Z TN10/0706Z"
    },
    {
      "icao": "LEZL",
      "alert": "OK",
      "vis_m": 9999,
      "fzfg": false,
      "metar_trigger": false,
      "taf_trigger": false,
      "metar": "METAR LEZL 070630Z 12003KT 080V190 CAVOK 16/12 Q1015 NOSIG",
      "taf": "TAF LEZL 070200Z 0703/0803 06005KT CAVOK TX27/0715Z TN11/0706Z"
    },
    {
      "icao": "LFBD",
      "alert": "OK",
      "vis_m": 9999,
      "fzfg": false,
      "metar_trigger": false,
      "taf_trigger": false,
      "metar": "METAR LFBD 070630Z AUTO 13008KT CAVOK 15/10 Q1017 NOSIG",
      "taf": "TAF LFBD 070500Z 0706/0812 12006KT CAVOK TX27/0715Z TN13/0706Z"
    },
    {
      "icao": "LFLL",
      "alert": "OK",
      "vis_m": 9999,
      "fzfg": false,
      "metar_trigger": false,
      "taf_trigger": false,
      "metar": "METAR LFLL 070630Z 13005KT CAVOK 12/08 Q1023 NOSIG",
      "taf": "TAF LFLL 070500Z 0706/0812 16007KT CAVOK"
    },
    {
      "icao": "LFLS",
      "alert": "OK",
      "vis_m": 9999,
      "fzfg": false,
      "metar_trigger": false,
      "taf_trigger": false,
      "metar": "METAR LFLS 070630Z AUTO 08007KT CAVOK 11/08 Q1023 NOSIG",
      "taf": "TAF LFLS 070200Z 0703/0803 09005KT CAVOK"
    },
    {
      "icao": "LFMN",
      "alert": "OK",
      "vis_m": 9999,
      "fzfg": false,
      "metar_trigger": false,
      "taf_trigger": false,
      "metar": "METAR LFMN 070630Z 32005KT 9999 FEW016 BKN020 15/11 Q1024 NOSIG",
      "taf": "TAF LFMN 070200Z 0703/0809 34008KT 9999 BKN026"
    },
    {
      "icao": "LFOB",
      "alert": "OK",
      "vis_m": 9999,
      "fzfg": false,
      "metar_trigger": false,
      "taf_trigger": false,
      "metar": "METAR LFOB 070630Z AUTO 29002KT CAVOK 04/04 Q1023 NOSIG",
      "taf": "TAF LFOB 070500Z 0706/0806 VRB03KT CAVOK"
    },
    {
      "icao": "LFPO",
      "alert": "OK",
      "vis_m": 9999,
      "fzfg": false,
      "metar_trigger": false,
      "taf_trigger": false,
      "metar": "METAR LFPO 070630Z 06005KT CAVOK 10/05 Q1022 NOSIG",
      "taf": "TAF LFPO 070500Z 0706/0812 08005KT CAVOK"
    },
    {
      "icao": "LFSB",
      "alert": "OK",
      "vis_m": 9999,
      "fzfg": false,
      "metar_trigger": false,
      "taf_trigger": false,
      "metar": "METAR LFSB 070630Z AUTO VRB01KT CAVOK 07/05 Q1024 NOSIG",
      "taf": "TAF LFSB 070500Z 0706/0806 VRB03KT CAVOK"
    },
    {
      "icao": "LGAV",
      "alert": "OK",
      "vis_m": 9999,
      "fzfg": false,
      "metar_trigger": false,
      "taf_trigger": false,
      "metar": "METAR LGAV 070620Z VRB01KT CAVOK 16/09 Q1020 NOSIG",
      "taf": "TAF LGAV 070500Z 0706/0806 VRB05KT 9999 FEW025"
    },
    {
      "icao": "LGTS",
      "alert": "OK",
      "vis_m": 9999,
      "fzfg": false,
      "metar_trigger": false,
      "taf_trigger": false,
      "metar": "METAR LGTS 070620Z VRB02KT CAVOK 14/09 Q1020 NOSIG",
      "taf": "TAF LGTS 070500Z 0706/0806 33006KT 9999 FEW025"
    },
    {
      "icao": "LHBP",
      "alert": "OK",
      "vis_m": 9999,
      "fzfg": false,
      "metar_trigger": false,
      "taf_trigger": false,
      "metar": "METAR LHBP 070630Z 30009KT CAVOK 09/M04 Q1023 NOSIG",
      "taf": "TAF LHBP 070515Z 0706/0806 31007KT CAVOK"
    },
    {
      "icao": "LHDC",
      "alert": "OK",
      "vis_m": 9999,
      "fzfg": false,
      "metar_trigger": false,
      "taf_trigger": false,
      "metar": "METAR LHDC 070615Z AUTO 23004KT 190V260 CAVOK 08/M02 Q1021 NOSIG",
      "taf": "TAF LHDC 070515Z 0706/0715 VRB03KT CAVOK"
    },
    {
      "icao": "LIBD",
      "alert": "OK",
      "vis_m": 9999,
      "fzfg": false,
      "metar_trigger": false,
      "taf_trigger": false,
      "metar": "METAR LIBD 070620Z 19002KT CAVOK 15/10 Q1022",
      "taf": "TAF LIBD 070500Z 0706/0806 VRB05KT CAVOK"
    },
    {
      "icao": "LIBG",
      "alert": "OK",
      "vis_m": 9999,
      "fzfg": false,
      "metar_trigger": false,
      "taf_trigger": false,
      "metar": "SPECI LIBG 070557Z VRB01KT CAVOK 12/12 Q1022",
      "taf": ""
    },
    {
      "icao": "LIBP",
      "alert": "OK",
      "vis_m": 9999,
      "fzfg": false,
      "metar_trigger": false,
      "taf_trigger": false,
      "metar": "METAR LIBP 070620Z AUTO 21004KT 9999 NCD 12/07 Q1022",
      "taf": "TAF LIBP 070500Z 0706/0806 VRB05KT CAVOK"
    },
    {
      "icao": "LIBR",
      "alert": "OK",
      "vis_m": 9999,
      "fzfg": false,
      "metar_trigger": false,
      "taf_trigger": false,
      "metar": "METAR LIBR 070620Z 29003KT CAVOK 15/10 Q1022",
      "taf": "TAF LIBR 070500Z 0706/0806 VRB05KT CAVOK"
    },
    {
      "icao": "LICA",
      "alert": "OK",
      "vis_m": 9999,
      "fzfg": false,
      "metar_trigger": false,
      "taf_trigger": false,
      "metar": "METAR LICA 070620Z AUTO VRB02KT 9999 BKN017/// 13/11 Q1026",
      "taf": "TAF LICA 070500Z 0706/0806 25008KT 9999 FEW020"
    },
    {
      "icao": "LICC",
      "alert": "OK",
      "vis_m": 9999,
      "fzfg": false,
      "metar_trigger": false,
      "taf_trigger": false,
      "metar": "METAR LICC 070620Z 23003KT 200V280 CAVOK 11/08 Q1025",
      "taf": "TAF LICC 070500Z 0706/0806 VRB04KT CAVOK"
    },
    {
      "icao": "LICJ",
      "alert": "OK",
      "vis_m": 9999,
      "fzfg": false,
      "metar_trigger": false,
      "taf_trigger": false,
      "metar": "METAR LICJ 070620Z 18003KT CAVOK 13/09 Q1025",
      "taf": "TAF LICJ 070500Z 0706/0806 VRB05KT CAVOK"
    },
    {
      "icao": "LIMC",
      "alert": "OK",
      "vis_m": 9999,
      "fzfg": false,
      "metar_trigger": false,
      "taf_trigger": false,
      "metar": "METAR LIMC 070620Z VRB02KT CAVOK 12/10 Q1022 NOSIG",
      "taf": "TAF LIMC 070500Z 0706/0812 VRB05KT CAVOK"
    },
    {
      "icao": "LIME",
      "alert": "OK",
      "vis_m": 9999,
      "fzfg": false,
      "metar_trigger": false,
      "taf_trigger": false,
      "metar": "METAR LIME 070620Z 02003KT CAVOK 13/08 Q1022 NOSIG",
      "taf": "TAF LIME 070500Z 0706/0806 VRB05KT CAVOK"
    },
    {
      "icao": "LIMF",
      "alert": "OK",
      "vis_m": 9999,
      "fzfg": false,
      "metar_trigger": false,
      "taf_trigger": false,
      "metar": "METAR LIMF 070620Z 25003KT 230V290 CAVOK 12/05 Q1022",
      "taf": "TAF LIMF 070500Z 0706/0806 VRB05KT CAVOK"
    },
    {
      "icao": "LIMJ",
      "alert": "OK",
      "vis_m": 9999,
      "fzfg": false,
      "metar_trigger": false,
      "taf_trigger": false,
      "metar": "METAR LIMJ 070620Z 11008KT 9999 SCT016 BKN025 15/12 Q1024",
      "taf": "TAF LIMJ 070500Z 0706/0806 VRB05KT 9999 BKN020"
    },
    {
      "icao": "LIPE",
      "alert": "OK",
      "vis_m": 9999,
      "fzfg": false,
      "metar_trigger": false,
      "taf_trigger": false,
      "metar": "METAR LIPE 070620Z 19005KT 160V250 CAVOK 15/02 Q1022",
      "taf": "TAF LIPE 070500Z 0706/0806 VRB05KT CAVOK"
    },
    {
      "icao": "LIPH",
      "alert": "OK",
      "vis_m": 9999,
      "fzfg": false,
      "metar_trigger": false,
      "taf_trigger": false,
      "metar": "METAR LIPH 070620Z 06003KT CAVOK 14/10 Q1022",
      "taf": "TAF LIPH 070500Z 0706/0806 VRB05KT 9999 FEW040"
    },
    {
      "icao": "LIPQ",
      "alert": "OK",
      "vis_m": 9999,
      "fzfg": false,
      "metar_trigger": false,
      "taf_trigger": false,
      "metar": "METAR LIPQ 070620Z AUTO 35002KT 9999 NCD 12/09 Q1022",
      "taf": "TAF LIPQ 070500Z 0706/0806 VRB05KT CAVOK"
    },
    {
      "icao": "LIPR",
      "alert": "OK",
      "vis_m": 9999,
      "fzfg": false,
      "metar_trigger": false,
      "taf_trigger": false,
      "metar": "METAR LIPR 070620Z VRB01KT CAVOK 13/08 Q1022",
      "taf": "TAF LIPR 070500Z 0706/0806 VRB05KT CAVOK"
    },
    {
      "icao": "LIPX",
      "alert": "OK",
      "vis_m": 9999,
      "fzfg": false,
      "metar_trigger": false,
      "taf_trigger": false,
      "metar": "METAR LIPX 070620Z 22004KT CAVOK 12/09 Q1022",
      "taf": "TAF LIPX 070500Z 0706/0806 VRB05KT CAVOK"
    },
    {
      "icao": "LIPY",
      "alert": "OK",
      "vis_m": 9999,
      "fzfg": false,
      "metar_trigger": false,
      "taf_trigger": false,
      "metar": "METAR LIPY 070620Z AUTO VRB02KT 9999 NCD 16/09 Q1022",
      "taf": "TAF LIPY 070500Z 0706/0806 VRB05KT CAVOK"
    },
    {
      "icao": "LIPZ",
      "alert": "OK",
      "vis_m": 6000,
      "fzfg": false,
      "metar_trigger": false,
      "taf_trigger": false,
      "metar": "METAR LIPZ 070620Z 05005KT 6000 NSC 12/10 Q1022 BECMG 7000",
      "taf": "TAF LIPZ 070500Z 0706/0812 VRB05KT 9999 FEW040"
    },
    {
      "icao": "LIRF",
      "alert": "OK",
      "vis_m": 100,
      "fzfg": false,
      "metar_trigger": false,
      "taf_trigger": false,
      "metar": "METAR LIRF 070620Z 05004KT 0100 R16L/0350N R16R/0350N R25/0300N R34R/0250N FG NSC 10/10 Q1025 BECMG 0300",
      "taf": "TAF LIRF 070500Z 0706/0812 16004KT 0300 FG NSC"
    },
    {
      "icao": "LIRN",
      "alert": "OK",
      "vis_m": 8000,
      "fzfg": false,
      "metar_trigger": false,
      "taf_trigger": false,
      "metar": "METAR LIRN 070620Z 07003KT 320V090 8000 FEW015 SCT030 14/11 Q1025 NOSIG",
      "taf": "TAF LIRN 070500Z 0706/0806 VRB04KT 8000 FEW016"
    },
    {
      "icao": "LIRP",
      "alert": "OK",
      "vis_m": 9999,
      "fzfg": false,
      "metar_trigger": false,
      "taf_trigger": false,
      "metar": "METAR LIRP 070615Z 12003KT CAVOK 09/08 Q1024 NOSIG",
      "taf": "TAF LIRP 070500Z 0706/0806 14003KT CAVOK"
    },
    {
      "icao": "LIRZ",
      "alert": "OK",
      "vis_m": 9999,
      "fzfg": false,
      "metar_trigger": false,
      "taf_trigger": false,
      "metar": "METAR LIRZ 070620Z AUTO VRB01KT 9999 NCD 09/06 Q1025",
      "taf": "TAF LIRZ 070500Z 0706/0806 VRB04KT CAVOK"
    },
    {
      "icao": "LJLJ",
      "alert": "OK",
      "vis_m": 9999,
      "fzfg": false,
      "metar_trigger": false,
      "taf_trigger": false,
      "metar": "METAR LJLJ 070630Z VRB01KT 9999 FEW048 SCT250 09/06 Q1024 NOSIG",
      "taf": "TAF LJLJ 070500Z 0706/0806 VRB02KT 9999 FEW060"
    },
    {
      "icao": "LKMT",
      "alert": "OK",
      "vis_m": 9999,
      "fzfg": false,
      "metar_trigger": false,
      "taf_trigger": false,
      "metar": "METAR LKMT 070630Z 24006KT CAVOK 05/M00 Q1023 NOSIG",
      "taf": "TAF LKMT 070500Z 0706/0806 28005KT CAVOK"
    },
    {
      "icao": "LKPR",
      "alert": "OK",
      "vis_m": 9999,
      "fzfg": false,
      "metar_trigger": false,
      "taf_trigger": false,
      "metar": "METAR LKPR 070630Z 26009KT CAVOK 06/M01 Q1025 NOSIG",
      "taf": "TAF LKPR 070500Z 0706/0812 27008KT CAVOK"
    },
    {
      "icao": "LLBG",
      "alert": "OK",
      "vis_m": 9999,
      "fzfg": false,
      "metar_trigger": false,
      "taf_trigger": false,
      "metar": "METAR LLBG 070650Z 16006KT 9999 FEW050 15/11 Q1020 BECMG 5000 TSRA FEW025CB RMK BKN080",
      "taf": "TAF LLBG 070501Z 0706/0806 16004KT 9999 SCT025 TX21/0711Z TN11/0804Z"
    },
    {
      "icao": "LMML",
      "alert": "OK",
      "vis_m": 9999,
      "fzfg": false,
      "metar_trigger": false,
      "taf_trigger": false,
      "metar": "METAR LMML 070645Z 27009KT 9999 FEW015 16/13 Q1025 NOSIG",
      "taf": "TAF LMML 070500Z 0706/0806 27011KT 9999 FEW011"
    },
    {
      "icao": "LOWW",
      "alert": "OK",
      "vis_m": 9999,
      "fzfg": false,
      "metar_trigger": false,
      "taf_trigger": false,
      "metar": "METAR LOWW 070620Z 32007KT CAVOK 09/M01 Q1025 BECMG FM0730 33017KT",
      "taf": "TAF LOWW 070515Z 0706/0812 32010KT 9999 FEW050 TX17/0715Z TN04/0805Z"
    },
    {
      "icao": "LPFR",
      "alert": "OK",
      "vis_m": 7000,
      "fzfg": false,
      "metar_trigger": false,
      "taf_trigger": false,
      "metar": "METAR LPFR 070630Z 21008KT 7000 SCT010 BKN025 17/16 Q1013",
      "taf": "TAF LPFR 070500Z 0706/0806 19012KT 9999 SCT015 BKN030"
    },
    {
      "icao": "LPMA",
      "alert": "OK",
      "vis_m": 9999,
      "fzfg": false,
      "metar_trigger": false,
      "taf_trigger": false,
      "metar": "METAR LPMA 070630Z 35017KT 320V020 9999 FEW014 14/07 Q1019",
      "taf": "TAF LPMA 070500Z 0706/0806 33018KT 9999 SCT014 SCT030"
    },
    {
      "icao": "LPPR",
      "alert": "OK",
      "vis_m": 9999,
      "fzfg": false,
      "metar_trigger": false,
      "taf_trigger": false,
      "metar": "METAR LPPR 070630Z 13007KT 090V150 9999 -RA FEW022 18/12 Q1008",
      "taf": "TAF LPPR 070500Z 0706/0806 13008KT 9999 SCT018 SCT035"
    },
    {
      "icao": "LPPS",
      "alert": "OK",
      "vis_m": 9999,
      "fzfg": false,
      "metar_trigger": false,
      "taf_trigger": false,
      "metar": "METAR LPPS 070630Z 33018KT 9999 FEW015 13/06 Q1020",
      "taf": "TAF LPPS 070500Z 0706/0812 33017KT 9999 SCT015 SCT030"
    },
    {
      "icao": "LPPT",
      "alert": "OK",
      "vis_m": 9000,
      "fzfg": false,
      "metar_trigger": false,
      "taf_trigger": false,
      "metar": "METAR LPPT 070630Z 22014KT 190V250 9000 -RA SCT008 BKN018 16/14 Q1010",
      "taf": "TAF LPPT 070500Z 0706/0812 19013KT 9999 SCT015 BKN030"
    },
    {
      "icao": "LQBK",
      "alert": "OK",
      "vis_m": 9999,
      "fzfg": false,
      "metar_trigger": false,
      "taf_trigger": false,
      "metar": "METAR LQBK 070630Z VRB02KT CAVOK 12/05 Q1024 NOSIG",
      "taf": "TAF LQBK 070500Z 0706/0806 06006KT CAVOK TX22/0713Z TN05/0805Z"
    },
    {
      "icao": "LQSA",
      "alert": "OK",
      "vis_m": 9999,
      "fzfg": false,
      "metar_trigger": false,
      "taf_trigger": false,
      "metar": "METAR LQSA 070630Z 00000KT CAVOK 08/03 Q1024 NOSIG",
      "taf": "TAF LQSA 070500Z 0706/0806 32006KT 9999 SCT050 TX21/0714Z TN05/0805Z"
    },
    {
      "icao": "LQTZ",
      "alert": "OK",
      "vis_m": 9999,
      "fzfg": false,
      "metar_trigger": false,
      "taf_trigger": false,
      "metar": "METAR LQTZ 070630Z VRB02KT CAVOK 10/08 Q1024",
      "taf": "TAF LQTZ 070500Z 0706/0806 VRB02KT 9999 SCT040 TX22/0713Z TN05/0805Z"
    },
    {
      "icao": "LRBC",
      "alert": "OK",
      "vis_m": 9999,
      "fzfg": false,
      "metar_trigger": false,
      "taf_trigger": false,
      "metar": "METAR LRBC 070630Z 29011KT CAVOK 10/M02 Q1017",
      "taf": "TAF LRBC 070500Z 0706/0715 32010KT 9999 SCT050"
    },
    {
      "icao": "LRBS",
      "alert": "OK",
      "vis_m": 9999,
      "fzfg": false,
      "metar_trigger": false,
      "taf_trigger": false,
      "metar": "METAR LRBS 070630Z 09008KT 050V110 CAVOK 10/M01 Q1020 NOSIG",
      "taf": "TAF LRBS 070500Z 0706/0806 VRB04KT CAVOK"
    },
    {
      "icao": "LRBV",
      "alert": "OK",
      "vis_m": 9999,
      "fzfg": false,
      "metar_trigger": false,
      "taf_trigger": false,
      "metar": "METAR LRBV 070630Z 29015KT 260V320 CAVOK 07/M07 Q1019",
      "taf": "TAF LRBV 070500Z 0706/0715 28012KT CAVOK"
    },
    {
      "icao": "LRCL",
      "alert": "OK",
      "vis_m": 9999,
      "fzfg": false,
      "metar_trigger": false,
      "taf_trigger": false,
      "metar": "METAR LRCL 070630Z 25007KT CAVOK 09/M04 Q1020",
      "taf": "TAF LRCL 070500Z 0706/0715 28006KT CAVOK"
    },
    {
      "icao": "LRCV",
      "alert": "OK",
      "vis_m": 9999,
      "fzfg": false,
      "metar_trigger": false,
      "taf_trigger": false,
      "metar": "METAR LRCV 070630Z 12014KT CAVOK 09/04 Q1020",
      "taf": "TAF LRCV 070500Z 0706/0715 10008KT CAVOK"
    },
    {
      "icao": "LRIA",
      "alert": "OK",
      "vis_m": 9999,
      "fzfg": false,
      "metar_trigger": false,
      "taf_trigger": false,
      "metar": "METAR LRIA 070630Z 27009KT 240V320 CAVOK 08/M01 Q1016",
      "taf": "TAF LRIA 070500Z 0706/0715 25007KT CAVOK"
    },
    {
      "icao": "LROP",
      "alert": "OK",
      "vis_m": 9999,
      "fzfg": false,
      "metar_trigger": false,
      "taf_trigger": false,
      "metar": "METAR LROP 070630Z 10006KT 060V140 CAVOK 09/M03 Q1020 NOSIG",
      "taf": "TAF LROP 070500Z 0706/0806 VRB04KT CAVOK"
    },
    {
      "icao": "LRSB",
      "alert": "OK",
      "vis_m": 9999,
      "fzfg": false,
      "metar_trigger": false,
      "taf_trigger": false,
      "metar": "METAR LRSB 070630Z 31006KT 260V340 CAVOK 09/M06 Q1020",
      "taf": "TAF LRSB 070500Z 0706/0806 25008KT CAVOK"
    },
    {
      "icao": "LRSM",
      "alert": "OK",
      "vis_m": 9999,
      "fzfg": false,
      "metar_trigger": false,
      "taf_trigger": false,
      "metar": "METAR LRSM 070630Z 31008KT CAVOK 09/M03 Q1020",
      "taf": "TAF LRSM 070500Z 0706/0715 24007KT CAVOK"
    },
    {
      "icao": "LRSV",
      "alert": "OK",
      "vis_m": 9999,
      "fzfg": false,
      "metar_trigger": false,
      "taf_trigger": false,
      "metar": "METAR LRSV 070630Z 25013KT 9999 FEW035CB 07/M02 Q1015",
      "taf": "TAF LRSV 070500Z 0706/0715 24008KT 9999 FEW035CB"
    },
    {
      "icao": "LRTM",
      "alert": "OK",
      "vis_m": 9999,
      "fzfg": false,
      "metar_trigger": false,
      "taf_trigger": false,
      "metar": "METAR LRTM 070630Z AUTO 26010KT CAVOK 09/M04 Q1020",
      "taf": "TAF LRTM 070500Z 0706/0715 25007KT CAVOK"
    },
    {
      "icao": "LRTR",
      "alert": "OK",
      "vis_m": 9999,
      "fzfg": false,
      "metar_trigger": false,
      "taf_trigger": false,
      "metar": "METAR LRTR 070630Z 32006KT 290V010 CAVOK 10/M00 Q1022 NOSIG",
      "taf": "TAF LRTR 070500Z 0706/0806 30005KT CAVOK"
    },
    {
      "icao": "LTAC",
      "alert": "OK",
      "vis_m": 9999,
      "fzfg": false,
      "metar_trigger": false,
      "taf_trigger": false,
      "metar": "METAR LTAC 070620Z 21004KT 160V250 CAVOK 10/04 Q1017 RMK RWY21C 19005KT 150V220 RWY03L VRB02KT RWY21R 20005KT 150V220 RWY03R 21004KT 150V250 RWY21L 22005KT 180V240",
      "taf": "TAF LTAC 070440Z 0706/0806 VRB02KT CAVOK"
    },
    {
      "icao": "LTFM",
      "alert": "OK",
      "vis_m": 9999,
      "fzfg": false,
      "metar_trigger": false,
      "taf_trigger": false,
      "metar": "METAR LTFM 070620Z 34010KT 9999 SCT012 BKN035 11/08 Q1018 NOSIG RMK RWY17L 31015KT RWY34L 32014KT RWY16R 31012KT RWY36 32013KT RWY18 31014KT",
      "taf": "TAF LTFM 070440Z 0706/0812 20012KT CAVOK"
    },
    {
      "icao": "LUKK",
      "alert": "OK",
      "vis_m": 9999,
      "fzfg": false,
      "metar_trigger": false,
      "taf_trigger": false,
      "metar": "METAR LUKK 070630Z 30014KT CAVOK 09/M01 Q1015 NOSIG",
      "taf": "TAF LUKK 070512Z 0706/0806 29010KT CAVOK"
    },
    {
      "icao": "LWOH",
      "alert": "OK",
      "vis_m": 9999,
      "fzfg": false,
      "metar_trigger": false,
      "taf_trigger": false,
      "metar": "METAR LWOH 070650Z VRB01KT CAVOK 11/07 Q1023",
      "taf": "TAF LWOH 070510Z 0706/0806 VRB02KT CAVOK"
    },
    {
      "icao": "LWSK",
      "alert": "OK",
      "vis_m": 9999,
      "fzfg": false,
      "metar_trigger": false,
      "taf_trigger": false,
      "metar": "METAR LWSK 070620Z 31003KT 270V360 CAVOK 12/06 Q1022 NOSIG",
      "taf": "TAF LWSK 070510Z 0706/0806 VRB02KT CAVOK"
    },
    {
      "icao": "LYBE",
      "alert": "OK",
      "vis_m": 9999,
      "fzfg": false,
      "metar_trigger": false,
      "taf_trigger": false,
      "metar": "METAR LYBE 070630Z 01003KT CAVOK 12/03 Q1024 NOSIG",
      "taf": "TAF LYBE 070500Z 0706/0806 02004KT CAVOK TX19/0713Z TN04/0805Z"
    },
    {
      "icao": "LYNI",
      "alert": "OK",
      "vis_m": 9999,
      "fzfg": false,
      "metar_trigger": false,
      "taf_trigger": false,
      "metar": "METAR LYNI 070630Z 31003KT 260V030 CAVOK 13/05 Q1023 BECMG FM0800 31013KT",
      "taf": "TAF LYNI 070500Z 0706/0806 02004KT 9999 SCT070 TX19/0713Z TN05/0805Z"
    },
    {
      "icao": "LYPG",
      "alert": "OK",
      "vis_m": 9999,
      "fzfg": false,
      "metar_trigger": false,
      "taf_trigger": false,
      "metar": "METAR LYPG 070630Z VRB01KT CAVOK 13/09 Q1023 NOSIG",
      "taf": ""
    },
    {
      "icao": "LZIB",
      "alert": "OK",
      "vis_m": 9999,
      "fzfg": false,
      "metar_trigger": false,
      "taf_trigger": false,
      "metar": "METAR LZIB 070630Z 31008KT CAVOK 10/M02 Q1024 NOSIG",
      "taf": "TAF LZIB 070515Z 0706/0806 33007KT CAVOK"
    },
    {
      "icao": "LZKZ",
      "alert": "OK",
      "vis_m": 9999,
      "fzfg": false,
      "metar_trigger": false,
      "taf_trigger": false,
      "metar": "METAR LZKZ 070630Z 18006KT CAVOK 07/M04 Q1020 NOSIG",
      "taf": "TAF LZKZ 070515Z 0706/0806 33007KT CAVOK"
    },
    {
      "icao": "LZTT",
      "alert": "OK",
      "vis_m": 9999,
      "fzfg": false,
      "metar_trigger": false,
      "taf_trigger": false,
      "metar": "METAR LZTT 070630Z 26018KT 9999 FEW056 05/M06 Q1019 NOSIG",
      "taf": "TAF LZTT 070515Z 0706/0806 25014KT 9999 FEW065"
    },
    {
      "icao": "OEJN",
      "alert": "OK",
      "vis_m": 9999,
      "fzfg": false,
      "metar_trigger": false,
      "taf_trigger": false,
      "metar": "METAR OEJN 070600Z 33015KT CAVOK 28/12 Q1014 NOSIG",
      "taf": "TAF OEJN 070500Z 0706/0812 30016KT 9999 FEW040"
    },
    {
      "icao": "OEMA",
      "alert": "OK",
      "vis_m": 9999,
      "fzfg": false,
      "metar_trigger": false,
      "taf_trigger": false,
      "metar": "METAR OEMA 070600Z 01011KT 9999 BKN045 24/M03 Q1021 NOSIG",
      "taf": "TAF OEMA 070500Z 0706/0812 06010KT 9999 SCT040"
    },
    {
      "icao": "OJAI",
      "alert": "OK",
      "vis_m": null,
      "fzfg": false,
      "metar_trigger": false,
      "taf_trigger": false,
      "metar": "",
      "taf": ""
    },
    {
      "icao": "OMAA",
      "alert": "OK",
      "vis_m": null,
      "fzfg": false,
      "metar_trigger": false,
      "taf_trigger": false,
      "metar": "",
      "taf": ""
    },
    {
      "icao": "OMDB",
      "alert": "OK",
      "vis_m": null,
      "fzfg": false,
      "metar_trigger": false,
      "taf_trigger": false,
      "metar": "",
      "taf": ""
    },
    {
      "icao": "UAAA",
      "alert": "OK",
      "vis_m": 9999,
      "fzfg": false,
      "metar_trigger": false,
      "taf_trigger": false,
      "metar": "METAR UAAA 070630Z 33003MPS 290V020 9999 SCT200 21/08 Q1003 NOSIG",
      "taf": "TAF UAAA 070502Z 0706/0806 34003G08MPS 9999 FEW050CB SCT100 TX24/0710Z TN12/0801Z"
    },
    {
      "icao": "UBBB",
      "alert": "OK",
      "vis_m": 9999,
      "fzfg": false,
      "metar_trigger": false,
      "taf_trigger": false,
      "metar": "METAR UBBB 070630Z 19010KT CAVOK 16/04 Q1016 NOSIG",
      "taf": "TAF UBBB 070500Z 0706/0806 16010KT CAVOK TX16/0710Z TN09/0801Z"
    },
    {
      "icao": "UDSG",
      "alert": "OK",
      "vis_m": 9999,
      "fzfg": false,
      "metar_trigger": false,
      "taf_trigger": false,
      "metar": "METAR UDSG 070630Z 29002KT 9999 NSC 08/M00 Q1016 NOSIG",
      "taf": "TAF UDSG 070500Z 0706/0806 22006KT 9999 SCT050"
    },
    {
      "icao": "UDYZ",
      "alert": "OK",
      "vis_m": 9999,
      "fzfg": false,
      "metar_trigger": false,
      "taf_trigger": false,
      "metar": "METAR UDYZ 070630Z 16003KT 130V210 9999 NSC 12/03 Q1015 NOSIG",
      "taf": "TAF UDYZ 070500Z 0706/0806 24006KT 9999 SCT040"
    },
    {
      "icao": "UGKO",
      "alert": "OK",
      "vis_m": 9999,
      "fzfg": false,
      "metar_trigger": false,
      "taf_trigger": false,
      "metar": "METAR UGKO 070630Z 10008KT CAVOK 15/08 Q1014 NOSIG",
      "taf": "TAF UGKO 070500Z 0706/0806 08007KT CAVOK TX20/0712Z TN07/0803Z"
    }
  ]
}