{
  "ts_utc": "2026-03-23T13:16:47Z",
  "threshold_m": 150,
  "source": "stations_override.txt (ICAO list) + aviationweather.gov (METAR/TAF raw)",
  "station_count": 159,
  "stations": [
    {
      "icao": "BIKF",
      "alert": "OK",
      "vis_m": 9999,
      "fzfg": false,
      "metar_trigger": false,
      "taf_trigger": false,
      "metar": "METAR BIKF 231300Z 06026KT 9999 VCSH DRSN FEW018 OVC035 M00/M02 Q0980",
      "taf": "TAF BIKF 231041Z 2312/2412 07018G30KT 9999 -SN SCT010 BKN020 OVC030 TX01/2315Z TNM02/2406Z"
    },
    {
      "icao": "BKPR",
      "alert": "OK",
      "vis_m": 9999,
      "fzfg": false,
      "metar_trigger": false,
      "taf_trigger": false,
      "metar": "METAR BKPR 231300Z 02005KT 330V130 9999 SCT050 14/02 Q1012 NOSIG",
      "taf": "TAF BKPR 231130Z 2312/2412 02008KT 9999 SCT040 BKN080"
    },
    {
      "icao": "EBCI",
      "alert": "OK",
      "vis_m": 9999,
      "fzfg": false,
      "metar_trigger": false,
      "taf_trigger": false,
      "metar": "METAR EBCI 231250Z VRB03KT 9999 FEW046 14/03 Q1020 NOSIG",
      "taf": "TAF EBCI 231100Z 2312/2418 34004KT 9999 FEW025"
    },
    {
      "icao": "EDDB",
      "alert": "OK",
      "vis_m": 9999,
      "fzfg": false,
      "metar_trigger": false,
      "taf_trigger": false,
      "metar": "METAR EDDB 231250Z AUTO 29006KT 240V350 CAVOK 16/01 Q1018 NOSIG",
      "taf": "TAF EDDB 231100Z 2312/2412 33005KT CAVOK"
    },
    {
      "icao": "EDDH",
      "alert": "OK",
      "vis_m": 9999,
      "fzfg": false,
      "metar_trigger": false,
      "taf_trigger": false,
      "metar": "METAR EDDH 231250Z AUTO 26010KT 230V310 CAVOK 15/01 Q1018 NOSIG",
      "taf": "TAF EDDH 231100Z 2312/2418 28006KT CAVOK"
    },
    {
      "icao": "EDDK",
      "alert": "OK",
      "vis_m": 9999,
      "fzfg": false,
      "metar_trigger": false,
      "taf_trigger": false,
      "metar": "METAR EDDK 231250Z AUTO VRB03KT CAVOK 16/00 Q1019 NOSIG",
      "taf": "TAF EDDK 231100Z 2312/2418 31006KT CAVOK"
    },
    {
      "icao": "EDDN",
      "alert": "OK",
      "vis_m": 9999,
      "fzfg": false,
      "metar_trigger": false,
      "taf_trigger": false,
      "metar": "METAR EDDN 231250Z AUTO 32005KT 260V030 CAVOK 13/00 Q1017 NOSIG",
      "taf": "TAF EDDN 231100Z 2312/2412 33005KT CAVOK"
    },
    {
      "icao": "EDDS",
      "alert": "OK",
      "vis_m": 9999,
      "fzfg": false,
      "metar_trigger": false,
      "taf_trigger": false,
      "metar": "METAR EDDS 231250Z AUTO VRB03KT CAVOK 13/M02 Q1018 NOSIG",
      "taf": "TAF EDDS 231100Z 2312/2412 VRB03KT CAVOK"
    },
    {
      "icao": "EDFH",
      "alert": "OK",
      "vis_m": 9999,
      "fzfg": false,
      "metar_trigger": false,
      "taf_trigger": false,
      "metar": "METAR EDFH 231250Z VRB04KT CAVOK 12/M01 Q1018",
      "taf": "TAF EDFH 231100Z 2312/2412 01005KT CAVOK"
    },
    {
      "icao": "EDJA",
      "alert": "OK",
      "vis_m": 9999,
      "fzfg": false,
      "metar_trigger": false,
      "taf_trigger": false,
      "metar": "METAR EDJA 231250Z VRB02KT CAVOK 10/M03 Q1017",
      "taf": "TAF EDJA 231100Z 2312/2321 32005KT CAVOK"
    },
    {
      "icao": "EDLW",
      "alert": "OK",
      "vis_m": 9999,
      "fzfg": false,
      "metar_trigger": false,
      "taf_trigger": false,
      "metar": "METAR EDLW 231250Z 10003KT 050V170 CAVOK 15/01 Q1018",
      "taf": "TAF EDLW 231100Z 2312/2412 33004KT CAVOK"
    },
    {
      "icao": "EDNY",
      "alert": "OK",
      "vis_m": 9999,
      "fzfg": false,
      "metar_trigger": false,
      "taf_trigger": false,
      "metar": "METAR EDNY 231250Z 22006KT 170V280 9999 FEW038 12/05 Q1018",
      "taf": "TAF EDNY 231100Z 2312/2321 21005KT CAVOK"
    },
    {
      "icao": "EDSB",
      "alert": "OK",
      "vis_m": 9999,
      "fzfg": false,
      "metar_trigger": false,
      "taf_trigger": false,
      "metar": "METAR EDSB 231250Z 35003KT 290V060 CAVOK 13/02 Q1019",
      "taf": "TAF EDSB 231100Z 2312/2412 VRB03KT CAVOK"
    },
    {
      "icao": "EETN",
      "alert": "OK",
      "vis_m": 9999,
      "fzfg": false,
      "metar_trigger": false,
      "taf_trigger": false,
      "metar": "METAR EETN 231250Z 23014KT 200V260 CAVOK 10/M01 Q1011 NOSIG",
      "taf": "TAF EETN 231130Z 2312/2412 25014KT CAVOK"
    },
    {
      "icao": "EFTU",
      "alert": "OK",
      "vis_m": 9999,
      "fzfg": false,
      "metar_trigger": false,
      "taf_trigger": false,
      "metar": "METAR EFTU 231250Z AUTO 24010KT 210V270 9999 FEW023 04/00 Q1008",
      "taf": "TAF EFTU 231129Z 2312/2412 23015KT 9999 FEW025 BKN030"
    },
    {
      "icao": "EGBB",
      "alert": "OK",
      "vis_m": 9999,
      "fzfg": false,
      "metar_trigger": false,
      "taf_trigger": false,
      "metar": "METAR EGBB 231250Z 20006KT 150V260 9999 SCT023 11/06 Q1020",
      "taf": "TAF EGBB 231110Z 2312/2412 22005KT 9999 SCT025"
    },
    {
      "icao": "EGGP",
      "alert": "OK",
      "vis_m": 9999,
      "fzfg": false,
      "metar_trigger": false,
      "taf_trigger": false,
      "metar": "METAR EGGP 231250Z 19003KT 130V260 CAVOK 10/03 Q1020",
      "taf": "TAF EGGP 231058Z 2312/2412 22008KT 9999 FEW030"
    },
    {
      "icao": "EGGW",
      "alert": "OK",
      "vis_m": 8000,
      "fzfg": false,
      "metar_trigger": false,
      "taf_trigger": false,
      "metar": "METAR EGGW 231250Z AUTO 23007KT 150V280 8000 BKN026 BKN031 13/06 Q1020",
      "taf": ""
    },
    {
      "icao": "EGKK",
      "alert": "OK",
      "vis_m": 9999,
      "fzfg": false,
      "metar_trigger": false,
      "taf_trigger": false,
      "metar": "METAR EGKK 231250Z 19005KT 140V250 CAVOK 14/05 Q1021",
      "taf": "TAF EGKK 231057Z 2312/2418 23005KT 9999 FEW030"
    },
    {
      "icao": "EGNM",
      "alert": "OK",
      "vis_m": 9999,
      "fzfg": false,
      "metar_trigger": false,
      "taf_trigger": false,
      "metar": "METAR EGNM 231250Z 24009KT 210V300 CAVOK 09/01 Q1019",
      "taf": "TAF EGNM 231059Z 2312/2412 21007KT 9999 FEW040"
    },
    {
      "icao": "EGPD",
      "alert": "OK",
      "vis_m": 9999,
      "fzfg": false,
      "metar_trigger": false,
      "taf_trigger": false,
      "metar": "METAR EGPD 231250Z COR AUTO 18014KT 9999 FEW036 08/02 Q1014 NOSIG",
      "taf": "TAF EGPD 231055Z 2312/2412 19012KT 9999 FEW040"
    },
    {
      "icao": "EGPF",
      "alert": "OK",
      "vis_m": 9999,
      "fzfg": false,
      "metar_trigger": false,
      "taf_trigger": false,
      "metar": "METAR EGPF 231250Z AUTO 21015KT 9999 BKN027 BKN031 OVC038 09/04 Q1015",
      "taf": "TAF EGPF 231102Z 2312/2412 21010KT 9999 FEW015 SCT030"
    },
    {
      "icao": "EHBK",
      "alert": "OK",
      "vis_m": 9999,
      "fzfg": false,
      "metar_trigger": false,
      "taf_trigger": false,
      "metar": "METAR EHBK 231255Z AUTO VRB01KT 9999 NSC 15/02 Q1019 NOSIG",
      "taf": "TAF EHBK 231112Z 2312/2418 33005KT CAVOK"
    },
    {
      "icao": "EHEH",
      "alert": "OK",
      "vis_m": 9999,
      "fzfg": false,
      "metar_trigger": false,
      "taf_trigger": false,
      "metar": "METAR EHEH 231255Z AUTO 27004KT 180V290 9999 OVC200 15/02 Q1019 BLU NOSIG RMK TREND REMOTE BY EHWX",
      "taf": "TAF EHEH 231137Z 2312/2418 36004KT CAVOK"
    },
    {
      "icao": "EKBI",
      "alert": "OK",
      "vis_m": 9999,
      "fzfg": false,
      "metar_trigger": false,
      "taf_trigger": false,
      "metar": "METAR EKBI 231250Z AUTO 32005KT 280V010 9999 NCD 10/02 Q1019",
      "taf": "TAF EKBI 231127Z 2312/2412 30005KT 9999 SCT020"
    },
    {
      "icao": "EKCH",
      "alert": "OK",
      "vis_m": 9999,
      "fzfg": false,
      "metar_trigger": false,
      "taf_trigger": false,
      "metar": "METAR EKCH 231250Z AUTO 12003KT 9999 BKN047/// 09/02 Q1017 NOSIG",
      "taf": "TAF EKCH 231127Z 2312/2412 30005KT CAVOK"
    },
    {
      "icao": "ENAL",
      "alert": "OK",
      "vis_m": 9999,
      "fzfg": false,
      "metar_trigger": false,
      "taf_trigger": false,
      "metar": "METAR ENAL 231250Z 24012G27KT 210V300 9999 -RASN FEW015 BKN033 03/M02 Q1009",
      "taf": "TAF ENAL 231100Z 2312/2321 25020KT 9999 -SHRA FEW015TCU BKN030"
    },
    {
      "icao": "ENBR",
      "alert": "OK",
      "vis_m": 9999,
      "fzfg": false,
      "metar_trigger": false,
      "taf_trigger": false,
      "metar": "METAR ENBR 231250Z 22007KT 170V250 9999 VCSH SCT035 05/M01 Q1014 NOSIG RMK WIND 1200FT 26015KT",
      "taf": "TAF ENBR 231100Z 2312/2412 25007KT 9999 FEW020TCU SCT030"
    },
    {
      "icao": "ENGM",
      "alert": "OK",
      "vis_m": 9999,
      "fzfg": false,
      "metar_trigger": false,
      "taf_trigger": false,
      "metar": "METAR ENGM 231250Z 28008KT 210V330 CAVOK 08/M09 Q1010 NOSIG",
      "taf": "TAF ENGM 231100Z 2312/2412 29012KT CAVOK"
    },
    {
      "icao": "ENHD",
      "alert": "OK",
      "vis_m": 9999,
      "fzfg": false,
      "metar_trigger": false,
      "taf_trigger": false,
      "metar": "METAR ENHD 231250Z 24009KT 9999 SCT026 06/01 Q1016",
      "taf": "TAF ENHD 231100Z 2312/2321 24010KT 9999 SCT030"
    },
    {
      "icao": "ENTC",
      "alert": "OK",
      "vis_m": 9999,
      "fzfg": false,
      "metar_trigger": false,
      "taf_trigger": false,
      "metar": "METAR ENTC 231250Z 21011KT 9999 -SHSNRA VV006 02/00 Q0980 TEMPO 4000 SHRASN BKN012 SCT020CB RMK WIND 2600FT 25016KT",
      "taf": ""
    },
    {
      "icao": "ENTO",
      "alert": "OK",
      "vis_m": 9999,
      "fzfg": false,
      "metar_trigger": false,
      "taf_trigger": false,
      "metar": "METAR ENTO 231250Z 21012KT CAVOK 07/M02 Q1013 NOSIG",
      "taf": "TAF ENTO 231100Z 2312/2412 26010KT CAVOK"
    },
    {
      "icao": "ENVA",
      "alert": "OK",
      "vis_m": 9999,
      "fzfg": false,
      "metar_trigger": false,
      "taf_trigger": false,
      "metar": "METAR ENVA 231250Z 23023KT 9999 -SHSN BKN041 04/M01 Q1007 TEMPO 26025G35KT 2500 SHSNGS BKN012CB RMK WIND 670FT 24022G33KT",
      "taf": "TAF ENVA 231100Z 2312/2412 24015KT 9999 FEW020 SCT040"
    },
    {
      "icao": "ENZV",
      "alert": "OK",
      "vis_m": 9999,
      "fzfg": false,
      "metar_trigger": false,
      "taf_trigger": false,
      "metar": "METAR ENZV 231250Z 26008KT 230V290 9999 FEW021 07/01 Q1016 NOSIG",
      "taf": "TAF ENZV 231100Z 2312/2412 28010KT 9999 SCT030"
    },
    {
      "icao": "EPGD",
      "alert": "OK",
      "vis_m": 9999,
      "fzfg": false,
      "metar_trigger": false,
      "taf_trigger": false,
      "metar": "METAR EPGD 231300Z 31005KT 270V350 9999 -SHRA SCT055TCU 13/01 Q1016",
      "taf": "TAF EPGD 231130Z 2312/2412 VRB02KT CAVOK"
    },
    {
      "icao": "EPKK",
      "alert": "OK",
      "vis_m": 9999,
      "fzfg": false,
      "metar_trigger": false,
      "taf_trigger": false,
      "metar": "METAR EPKK 231300Z 07004KT 040V130 CAVOK 13/M04 Q1016",
      "taf": "TAF EPKK 231130Z 2312/2412 VRB05KT CAVOK"
    },
    {
      "icao": "EPKT",
      "alert": "OK",
      "vis_m": 9999,
      "fzfg": false,
      "metar_trigger": false,
      "taf_trigger": false,
      "metar": "METAR EPKT 231300Z 28006KT 250V310 9999 FEW045 14/M02 Q1016",
      "taf": "TAF EPKT 231130Z 2312/2412 VRB04KT CAVOK"
    },
    {
      "icao": "EPLB",
      "alert": "OK",
      "vis_m": 9999,
      "fzfg": false,
      "metar_trigger": false,
      "taf_trigger": false,
      "metar": "METAR EPLB 231300Z 10004KT 080V150 CAVOK 14/M02 Q1017",
      "taf": "TAF EPLB 231130Z 2312/2412 VRB03KT CAVOK"
    },
    {
      "icao": "EPMO",
      "alert": "OK",
      "vis_m": 9999,
      "fzfg": false,
      "metar_trigger": false,
      "taf_trigger": false,
      "metar": "METAR EPMO 231300Z 11004KT 060V180 CAVOK 14/M03 Q1017",
      "taf": "TAF EPMO 231130Z 2312/2412 VRB04KT CAVOK"
    },
    {
      "icao": "EPPO",
      "alert": "OK",
      "vis_m": 9999,
      "fzfg": false,
      "metar_trigger": false,
      "taf_trigger": false,
      "metar": "METAR EPPO 231300Z 28005KT 260V340 CAVOK 15/M02 Q1017",
      "taf": "TAF EPPO 231130Z 2312/2412 VRB02KT CAVOK"
    },
    {
      "icao": "EPRA",
      "alert": "OK",
      "vis_m": 9999,
      "fzfg": false,
      "metar_trigger": false,
      "taf_trigger": false,
      "metar": "METAR EPRA 231300Z 10005KT 020V150 CAVOK 13/M05 Q1017",
      "taf": "TAF EPRA 231130Z 2312/2321 16008KT CAVOK"
    },
    {
      "icao": "EPRZ",
      "alert": "OK",
      "vis_m": 9999,
      "fzfg": false,
      "metar_trigger": false,
      "taf_trigger": false,
      "metar": "METAR EPRZ 231300Z VRB02KT CAVOK 13/M03 Q1016",
      "taf": "TAF EPRZ 231130Z 2312/2412 08010KT CAVOK"
    },
    {
      "icao": "EPSC",
      "alert": "OK",
      "vis_m": 9999,
      "fzfg": false,
      "metar_trigger": false,
      "taf_trigger": false,
      "metar": "METAR EPSC 231300Z 29007KT 230V310 CAVOK 15/M01 Q1017",
      "taf": "TAF EPSC 231130Z 2312/2412 VRB02KT CAVOK"
    },
    {
      "icao": "EPSY",
      "alert": "OK",
      "vis_m": 9999,
      "fzfg": false,
      "metar_trigger": false,
      "taf_trigger": false,
      "metar": "METAR EPSY 231300Z 21007KT 140V270 CAVOK 14/M05 Q1017",
      "taf": "TAF EPSY 231130Z 2312/2321 19007KT CAVOK"
    },
    {
      "icao": "EPWA",
      "alert": "OK",
      "vis_m": 9999,
      "fzfg": false,
      "metar_trigger": false,
      "taf_trigger": false,
      "metar": "METAR EPWA 231300Z VRB03KT CAVOK 15/M05 Q1017 NOSIG",
      "taf": "TAF EPWA 231130Z 2312/2412 VRB04KT CAVOK"
    },
    {
      "icao": "EPWR",
      "alert": "OK",
      "vis_m": 9999,
      "fzfg": false,
      "metar_trigger": false,
      "taf_trigger": false,
      "metar": "METAR EPWR 231300Z 26007KT 230V290 CAVOK 14/M01 Q1017",
      "taf": "TAF EPWR 231130Z 2312/2412 VRB02KT CAVOK"
    },
    {
      "icao": "ESGG",
      "alert": "OK",
      "vis_m": 9999,
      "fzfg": false,
      "metar_trigger": false,
      "taf_trigger": false,
      "metar": "METAR ESGG 231250Z 29012KT CAVOK 06/M01 Q1015",
      "taf": "TAF ESGG 231130Z 2312/2412 25010KT CAVOK"
    },
    {
      "icao": "ESKN",
      "alert": "OK",
      "vis_m": 9999,
      "fzfg": false,
      "metar_trigger": false,
      "taf_trigger": false,
      "metar": "METAR ESKN 231250Z 25013KT 230V290 9999 BKN036 09/00 Q1011",
      "taf": "TAF ESKN 231130Z 2312/2412 25012KT 9999 BKN025"
    },
    {
      "icao": "ESMS",
      "alert": "OK",
      "vis_m": 9999,
      "fzfg": false,
      "metar_trigger": false,
      "taf_trigger": false,
      "metar": "METAR ESMS 231250Z 30011KT CAVOK 11/02 Q1016",
      "taf": "TAF ESMS 231127Z 2312/2412 27005KT CAVOK"
    },
    {
      "icao": "ESSA",
      "alert": "OK",
      "vis_m": 9999,
      "fzfg": false,
      "metar_trigger": false,
      "taf_trigger": false,
      "metar": "METAR ESSA 231250Z 25017KT 9999 BKN028 07/00 Q1009 NOSIG",
      "taf": "TAF ESSA 231130Z 2312/2412 25013KT 9999 BKN018"
    },
    {
      "icao": "EYKA",
      "alert": "OK",
      "vis_m": 9999,
      "fzfg": false,
      "metar_trigger": false,
      "taf_trigger": false,
      "metar": "METAR EYKA 231250Z 23004KT 180V270 CAVOK 13/M01 Q1018",
      "taf": "TAF EYKA 231100Z 2312/2412 VRB04KT 8000 NSC"
    },
    {
      "icao": "EYPA",
      "alert": "OK",
      "vis_m": 9999,
      "fzfg": false,
      "metar_trigger": false,
      "taf_trigger": false,
      "metar": "METAR EYPA 231250Z VRB03KT CAVOK 08/01 Q1017",
      "taf": "TAF EYPA 231100Z 2312/2412 VRB04KT 8000 NSC"
    },
    {
      "icao": "EYVI",
      "alert": "OK",
      "vis_m": 9999,
      "fzfg": false,
      "metar_trigger": false,
      "taf_trigger": false,
      "metar": "METAR EYVI 231250Z VRB02KT CAVOK 12/M03 Q1017 NOSIG",
      "taf": "TAF EYVI 231102Z 2312/2412 VRB03KT 9000 NSC"
    },
    {
      "icao": "GCFV",
      "alert": "OK",
      "vis_m": 9999,
      "fzfg": false,
      "metar_trigger": false,
      "taf_trigger": false,
      "metar": "METAR GCFV 231300Z 15013KT 9999 VCSH BKN010TCU BKN014 19/17 Q1008 RESHRA",
      "taf": ""
    },
    {
      "icao": "GCLP",
      "alert": "OK",
      "vis_m": 9999,
      "fzfg": false,
      "metar_trigger": false,
      "taf_trigger": false,
      "metar": "METAR GCLP 231300Z 18019KT 9999 FEW030 22/15 Q1006 NOSIG",
      "taf": "TAF GCLP 230800Z 2309/2409 20017KT 9999 FEW025 SCT050 TX21/2314Z TN15/2406Z"
    },
    {
      "icao": "GCTS",
      "alert": "OK",
      "vis_m": 9999,
      "fzfg": false,
      "metar_trigger": false,
      "taf_trigger": false,
      "metar": "METAR GCTS 231300Z 17006KT 110V240 9999 SCT020 19/14 Q1007 NOSIG",
      "taf": "TAF GCTS 230800Z 2309/2409 20006KT 9999 SCT030 TX20/2314Z TN15/2406Z"
    },
    {
      "icao": "GMAD",
      "alert": "OK",
      "vis_m": 9999,
      "fzfg": false,
      "metar_trigger": false,
      "taf_trigger": false,
      "metar": "METAR GMAD 231300Z 28010KT 250V320 9999 SCT030TCU 25/17 Q1009 NOSIG",
      "taf": "TAF GMAD 231100Z 2312/2418 26008KT 9999 SCT020 SCT080"
    },
    {
      "icao": "GMMN",
      "alert": "OK",
      "vis_m": 9999,
      "fzfg": false,
      "metar_trigger": false,
      "taf_trigger": false,
      "metar": "METAR GMMN 231300Z VRB03KT 9999 BKN020 21/15 Q1012 NOSIG",
      "taf": "TAF GMMN 231100Z 2312/2418 36010KT 9999 BKN020"
    },
    {
      "icao": "GMMX",
      "alert": "OK",
      "vis_m": 9999,
      "fzfg": false,
      "metar_trigger": false,
      "taf_trigger": false,
      "metar": "METAR GMMX 231300Z 09005KT 020V150 9999 SCT016 22/11 Q1011 NOSIG",
      "taf": "TAF GMMX 231100Z 2312/2418 06005KT 8000 SCT016 SCT080"
    },
    {
      "icao": "HEGN",
      "alert": "OK",
      "vis_m": 9999,
      "fzfg": false,
      "metar_trigger": false,
      "taf_trigger": false,
      "metar": "METAR HEGN 231200Z 04005KT CAVOK 24/11 Q1007 NOSIG",
      "taf": ""
    },
    {
      "icao": "HEMA",
      "alert": "OK",
      "vis_m": 9999,
      "fzfg": false,
      "metar_trigger": false,
      "taf_trigger": false,
      "metar": "METAR HEMA 231200Z 08008KT 9999 FEW020 BKN200 24/16 Q1006 NOSIG",
      "taf": ""
    },
    {
      "icao": "HESH",
      "alert": "OK",
      "vis_m": 9999,
      "fzfg": false,
      "metar_trigger": false,
      "taf_trigger": false,
      "metar": "METAR HESH 231200Z 12007KT CAVOK 26/09 Q1007 NOSIG",
      "taf": ""
    },
    {
      "icao": "HESX",
      "alert": "OK",
      "vis_m": 9999,
      "fzfg": false,
      "metar_trigger": false,
      "taf_trigger": false,
      "metar": "METAR HESX 231200Z 32011KT 9999 FEW020 22/03 Q1008 NOSIG",
      "taf": ""
    },
    {
      "icao": "LATI",
      "alert": "OK",
      "vis_m": 9999,
      "fzfg": false,
      "metar_trigger": false,
      "taf_trigger": false,
      "metar": "METAR LATI 231250Z 16007KT 130V210 9999 VCTS SCT035CB BKN082 13/04 Q1012 NOSIG",
      "taf": "TAF LATI 231100Z 2312/2412 30010KT 9999 SCT060 TX21/2412Z TN07/2404Z"
    },
    {
      "icao": "LBPD",
      "alert": "OK",
      "vis_m": 9999,
      "fzfg": false,
      "metar_trigger": false,
      "taf_trigger": false,
      "metar": "METAR LBPD 231300Z AUTO 11005KT 9999 OVC051/// 11/03 Q1014 NOSIG",
      "taf": "TAF LBPD 231100Z 2312/2412 09010KT 9999 SCT030 BKN050"
    },
    {
      "icao": "LBSF",
      "alert": "OK",
      "vis_m": 9999,
      "fzfg": false,
      "metar_trigger": false,
      "taf_trigger": false,
      "metar": "METAR LBSF 231300Z 01006KT 310V070 9999 FEW028 BKN035 BKN085 09/01 Q1014 NOSIG",
      "taf": "TAF LBSF 231100Z 2312/2412 03010KT 9999 SCT025 BKN040"
    },
    {
      "icao": "LBWN",
      "alert": "OK",
      "vis_m": 9999,
      "fzfg": false,
      "metar_trigger": false,
      "taf_trigger": false,
      "metar": "METAR LBWN 231300Z 07004KT 360V120 9999 OVC016 09/06 Q1014 TEMPO RA",
      "taf": "TAF LBWN 231100Z 2312/2412 02010KT 9999 -RA SCT010 BKN015 OVC040"
    },
    {
      "icao": "LCLK",
      "alert": "OK",
      "vis_m": 9999,
      "fzfg": false,
      "metar_trigger": false,
      "taf_trigger": false,
      "metar": "METAR LCLK 231300Z 21012KT 9999 FEW020 FEW030TCU SCT060 19/12 Q1008 NOSIG",
      "taf": "TAF LCLK 231130Z 2312/2412 20013KT 9999 FEW025TCU SCT040"
    },
    {
      "icao": "LCPH",
      "alert": "OK",
      "vis_m": 9999,
      "fzfg": false,
      "metar_trigger": false,
      "taf_trigger": false,
      "metar": "METAR LCPH 231300Z 26008KT 240V300 9999 FEW025 FEW028TCU 18/11 Q1008 NOSIG",
      "taf": "TAF LCPH 231130Z 2312/2412 26010KT 9999 FEW025 FEW030TCU SCT040"
    },
    {
      "icao": "LEAL",
      "alert": "OK",
      "vis_m": 9999,
      "fzfg": false,
      "metar_trigger": false,
      "taf_trigger": false,
      "metar": "METAR LEAL 231300Z 08013KT 9999 FEW020 19/08 Q1015 NOSIG",
      "taf": "TAF LEAL 231100Z 2312/2412 10010KT 9999 FEW040 TX19/2312Z TN08/2406Z"
    },
    {
      "icao": "LEBB",
      "alert": "OK",
      "vis_m": 9000,
      "fzfg": false,
      "metar_trigger": false,
      "taf_trigger": false,
      "metar": "METAR LEBB 231300Z 31009KT 270V020 9000 FEW021 SCT031 16/09 Q1021 NOSIG",
      "taf": "TAF LEBB 231100Z 2312/2412 32009KT 9999 FEW020 SCT030 TX19/2412Z TN04/2406Z"
    },
    {
      "icao": "LEBL",
      "alert": "OK",
      "vis_m": 9999,
      "fzfg": false,
      "metar_trigger": false,
      "taf_trigger": false,
      "metar": "METAR LEBL 231300Z 10007KT 070V130 9999 SCT037 16/10 Q1017 NOSIG",
      "taf": "TAF LEBL 231100Z 2312/2412 VRB04KT 9999 FEW020 TX17/2312Z TN09/2406Z"
    },
    {
      "icao": "LECH",
      "alert": "OK",
      "vis_m": 7000,
      "fzfg": false,
      "metar_trigger": false,
      "taf_trigger": false,
      "metar": "METAR LECH 231300Z AUTO 36005KT 330V030 7000 FEW015 SCT024 BKN029 10/08 Q1018",
      "taf": "TAF LECH 231100Z 2312/2412 03010KT 9999 FEW020 TX16/2313Z TN04/2406Z"
    },
    {
      "icao": "LEMD",
      "alert": "OK",
      "vis_m": 9999,
      "fzfg": false,
      "metar_trigger": false,
      "taf_trigger": false,
      "metar": "METAR LEMD 231300Z 06008KT 360V120 CAVOK 15/M03 Q1015 NOSIG",
      "taf": "TAF LEMD 231100Z 2312/2418 04010KT CAVOK TX17/2316Z TN02/2406Z"
    },
    {
      "icao": "LEMG",
      "alert": "OK",
      "vis_m": 9999,
      "fzfg": false,
      "metar_trigger": false,
      "taf_trigger": false,
      "metar": "METAR LEMG 231300Z 15012KT 120V190 9999 FEW035 17/12 Q1013 NOSIG",
      "taf": "TAF LEMG 231100Z 2312/2412 13009KT 9999 FEW020 TX19/2313Z TN11/2406Z"
    },
    {
      "icao": "LEVC",
      "alert": "OK",
      "vis_m": 9999,
      "fzfg": false,
      "metar_trigger": false,
      "taf_trigger": false,
      "metar": "METAR LEVC 231300Z 03012KT 360V070 9999 -DZ FEW020 BKN050 13/10 Q1017 NOSIG",
      "taf": "TAF LEVC 231100Z 2312/2412 07010KT 9999 FEW020 TX19/2312Z TN06/2406Z"
    },
    {
      "icao": "LEXJ",
      "alert": "OK",
      "vis_m": 9999,
      "fzfg": false,
      "metar_trigger": false,
      "taf_trigger": false,
      "metar": "METAR LEXJ 231300Z 01003KT 290V070 9999 SCT030 13/06 Q1021",
      "taf": "TAF LEXJ 230800Z 2309/2409 31009KT 9999 SCT020 BKN040 TX16/2314Z TN04/2406Z"
    },
    {
      "icao": "LEZG",
      "alert": "OK",
      "vis_m": 9999,
      "fzfg": false,
      "metar_trigger": false,
      "taf_trigger": false,
      "metar": "METAR LEZG 231300Z 30008KT 260V010 CAVOK 17/04 Q1017 NOSIG",
      "taf": "TAF LEZG 231100Z 2312/2412 30010KT CAVOK TX18/2314Z TN05/2406Z"
    },
    {
      "icao": "LEZL",
      "alert": "OK",
      "vis_m": 9999,
      "fzfg": false,
      "metar_trigger": false,
      "taf_trigger": false,
      "metar": "METAR LEZL 231300Z 06005KT 010V090 CAVOK 22/10 Q1012 NOSIG",
      "taf": "TAF LEZL 230800Z 2309/2409 06005KT CAVOK TX25/2315Z TN12/2407Z"
    },
    {
      "icao": "LFBD",
      "alert": "OK",
      "vis_m": 9999,
      "fzfg": false,
      "metar_trigger": false,
      "taf_trigger": false,
      "metar": "METAR LFBD 231300Z AUTO 08006KT 030V130 CAVOK 17/04 Q1020 NOSIG",
      "taf": "TAF LFBD 231100Z 2312/2418 06010KT CAVOK TX19/2415Z TN04/2406Z"
    },
    {
      "icao": "LFLL",
      "alert": "OK",
      "vis_m": 9999,
      "fzfg": false,
      "metar_trigger": false,
      "taf_trigger": false,
      "metar": "METAR LFLL 231300Z 36005KT 300V060 9999 FEW023 12/05 Q1019 NOSIG",
      "taf": "TAF LFLL 231100Z 2312/2418 35010KT CAVOK"
    },
    {
      "icao": "LFLS",
      "alert": "OK",
      "vis_m": 9999,
      "fzfg": false,
      "metar_trigger": false,
      "taf_trigger": false,
      "metar": "METAR LFLS 231300Z AUTO 01004KT 340V130 9999 FEW030 SCT042 12/05 Q1018 NOSIG",
      "taf": "TAF LFLS 230800Z 2309/2409 09006KT CAVOK"
    },
    {
      "icao": "LFMN",
      "alert": "OK",
      "vis_m": 9999,
      "fzfg": false,
      "metar_trigger": false,
      "taf_trigger": false,
      "metar": "METAR LFMN 231300Z 15007KT 9999 FEW100 16/05 Q1016 NOSIG",
      "taf": "TAF LFMN 230800Z 2309/2415 34005KT CAVOK"
    },
    {
      "icao": "LFOB",
      "alert": "OK",
      "vis_m": 9999,
      "fzfg": false,
      "metar_trigger": false,
      "taf_trigger": false,
      "metar": "METAR LFOB 231300Z AUTO VRB03KT CAVOK 16/06 Q1020 NOSIG",
      "taf": "TAF LFOB 231100Z 2312/2412 02006KT CAVOK"
    },
    {
      "icao": "LFPO",
      "alert": "OK",
      "vis_m": 9999,
      "fzfg": false,
      "metar_trigger": false,
      "taf_trigger": false,
      "metar": "METAR LFPO 231300Z 05004KT 310V090 CAVOK 16/03 Q1020 NOSIG",
      "taf": "TAF LFPO 231100Z 2312/2418 03006KT CAVOK"
    },
    {
      "icao": "LFSB",
      "alert": "OK",
      "vis_m": 9999,
      "fzfg": false,
      "metar_trigger": false,
      "taf_trigger": false,
      "metar": "METAR LFSB 231300Z AUTO 36005KT CAVOK 14/02 Q1018 TEMPO FEW040TCU",
      "taf": "TAF LFSB 231100Z 2312/2412 32004KT CAVOK"
    },
    {
      "icao": "LGAV",
      "alert": "OK",
      "vis_m": 9999,
      "fzfg": false,
      "metar_trigger": false,
      "taf_trigger": false,
      "metar": "METAR LGAV 231250Z 01012KT 9999 FEW025 SCT040 14/06 Q1012 NOSIG",
      "taf": "TAF LGAV 231100Z 2312/2412 04015KT 9999 SCT030"
    },
    {
      "icao": "LGTS",
      "alert": "OK",
      "vis_m": 9999,
      "fzfg": false,
      "metar_trigger": false,
      "taf_trigger": false,
      "metar": "METAR LGTS 231250Z 27005KT 9999 SCT025 15/06 Q1012 NOSIG",
      "taf": "TAF LGTS 231100Z 2312/2412 VRB03KT 9999 SCT025"
    },
    {
      "icao": "LHBP",
      "alert": "OK",
      "vis_m": 9999,
      "fzfg": false,
      "metar_trigger": false,
      "taf_trigger": false,
      "metar": "METAR LHBP 231300Z 17006KT 120V210 9999 VCSH FEW060TCU SCT066 16/M01 Q1016 NOSIG",
      "taf": "TAF LHBP 231115Z 2312/2412 VRB04KT CAVOK"
    },
    {
      "icao": "LHDC",
      "alert": "OK",
      "vis_m": 9999,
      "fzfg": false,
      "metar_trigger": false,
      "taf_trigger": false,
      "metar": "METAR LHDC 231245Z AUTO VRB04KT CAVOK 16/02 Q1015 NOSIG",
      "taf": "TAF LHDC 231115Z 2312/2321 27006KT CAVOK"
    },
    {
      "icao": "LIBD",
      "alert": "OK",
      "vis_m": 9999,
      "fzfg": false,
      "metar_trigger": false,
      "taf_trigger": false,
      "metar": "METAR LIBD 231250Z 36010KT 320V040 9999 VCSH FEW035 14/10 Q1013",
      "taf": "TAF LIBD 231100Z 2312/2412 35010KT 9999 SCT040"
    },
    {
      "icao": "LIBG",
      "alert": "OK",
      "vis_m": 9000,
      "fzfg": false,
      "metar_trigger": false,
      "taf_trigger": false,
      "metar": "METAR LIBG 231250Z 25003KT 180V300 9000 FEW010 SCT030 11/08 Q1013 RETS",
      "taf": ""
    },
    {
      "icao": "LIBP",
      "alert": "OK",
      "vis_m": 9999,
      "fzfg": false,
      "metar_trigger": false,
      "taf_trigger": false,
      "metar": "METAR LIBP 231250Z AUTO 03006KT 340V060 9999 FEW025/// SCT069/// BKN089/// 12/06 Q1015",
      "taf": "TAF LIBP 231100Z 2312/2412 01010KT 9999 SCT060"
    },
    {
      "icao": "LIBR",
      "alert": "OK",
      "vis_m": 9999,
      "fzfg": false,
      "metar_trigger": false,
      "taf_trigger": false,
      "metar": "METAR LIBR 231250Z 04006KT 010V080 CAVOK 14/08 Q1013",
      "taf": "TAF LIBR 231100Z 2312/2412 35010KT 9999 SCT040"
    },
    {
      "icao": "LICA",
      "alert": "OK",
      "vis_m": 9999,
      "fzfg": false,
      "metar_trigger": false,
      "taf_trigger": false,
      "metar": "METAR LICA 231250Z AUTO 27011KT 9999 SCT072/// 15/10 Q1012",
      "taf": "TAF LICA 231100Z 2312/2412 VRB06KT CAVOK"
    },
    {
      "icao": "LICC",
      "alert": "OK",
      "vis_m": 9999,
      "fzfg": false,
      "metar_trigger": false,
      "taf_trigger": false,
      "metar": "METAR LICC 231250Z 08009KT 9999 VCSH FEW030 SCT080 15/12 Q1012",
      "taf": ""
    },
    {
      "icao": "LICJ",
      "alert": "OK",
      "vis_m": 9999,
      "fzfg": false,
      "metar_trigger": false,
      "taf_trigger": false,
      "metar": "METAR LICJ 231250Z 32007KT 9999 FEW030 15/08 Q1013",
      "taf": "TAF LICJ 231100Z 2312/2412 33013KT 9999 SCT030"
    },
    {
      "icao": "LIMC",
      "alert": "OK",
      "vis_m": 9999,
      "fzfg": false,
      "metar_trigger": false,
      "taf_trigger": false,
      "metar": "METAR LIMC 231250Z 22007KT 160V280 CAVOK 15/01 Q1015 NOSIG",
      "taf": "TAF LIMC 231100Z 2312/2418 VRB05KT CAVOK"
    },
    {
      "icao": "LIME",
      "alert": "OK",
      "vis_m": 9999,
      "fzfg": false,
      "metar_trigger": false,
      "taf_trigger": false,
      "metar": "METAR LIME 231250Z 22006KT 170V310 9999 FEW020 15/02 Q1015 NOSIG",
      "taf": "TAF LIME 231100Z 2312/2412 VRB05KT CAVOK"
    },
    {
      "icao": "LIMF",
      "alert": "OK",
      "vis_m": 9999,
      "fzfg": false,
      "metar_trigger": false,
      "taf_trigger": false,
      "metar": "METAR LIMF 231250Z 24003KT 180V340 CAVOK 15/M00 Q1016",
      "taf": "TAF LIMF 231100Z 2312/2412 VRB05KT CAVOK"
    },
    {
      "icao": "LIMJ",
      "alert": "OK",
      "vis_m": 9999,
      "fzfg": false,
      "metar_trigger": false,
      "taf_trigger": false,
      "metar": "METAR LIMJ 231250Z 03007KT 360V070 9999 SCT040 17/01 Q1015",
      "taf": "TAF LIMJ 231100Z 2312/2412 04010KT CAVOK"
    },
    {
      "icao": "LIPE",
      "alert": "OK",
      "vis_m": 9999,
      "fzfg": false,
      "metar_trigger": false,
      "taf_trigger": false,
      "metar": "METAR LIPE 231250Z 31005KT 260V040 9999 FEW060 15/02 Q1016",
      "taf": "TAF LIPE 231100Z 2312/2412 VRB05KT 9999 FEW050"
    },
    {
      "icao": "LIPH",
      "alert": "OK",
      "vis_m": 9999,
      "fzfg": false,
      "metar_trigger": false,
      "taf_trigger": false,
      "metar": "METAR LIPH 231250Z VRB04KT CAVOK 17/01 Q1015",
      "taf": "TAF LIPH 231100Z 2312/2412 VRB05KT 9999 SCT060"
    },
    {
      "icao": "LIPQ",
      "alert": "OK",
      "vis_m": 9999,
      "fzfg": false,
      "metar_trigger": false,
      "taf_trigger": false,
      "metar": "METAR LIPQ 231250Z AUTO 05004KT 010V090 9999 FEW071/// BKN083/// BKN110/// 16/01 Q1015",
      "taf": "TAF LIPQ 231100Z 2312/2412 03005KT 9999 FEW060"
    },
    {
      "icao": "LIPR",
      "alert": "OK",
      "vis_m": 9999,
      "fzfg": false,
      "metar_trigger": false,
      "taf_trigger": false,
      "metar": "METAR LIPR 231250Z 01009KT 330V030 CAVOK 13/08 Q1015",
      "taf": "TAF LIPR 231100Z 2312/2412 31012KT 9999 SCT050"
    },
    {
      "icao": "LIPX",
      "alert": "OK",
      "vis_m": 9999,
      "fzfg": false,
      "metar_trigger": false,
      "taf_trigger": false,
      "metar": "METAR LIPX 231250Z VRB04KT 9999 BKN080 16/00 Q1015",
      "taf": "TAF LIPX 231100Z 2312/2412 VRB05KT CAVOK"
    },
    {
      "icao": "LIPY",
      "alert": "OK",
      "vis_m": 9999,
      "fzfg": false,
      "metar_trigger": false,
      "taf_trigger": false,
      "metar": "METAR LIPY 231250Z AUTO VRB05KT 9999 FEW019/// SCT075/// 13/07 Q1015",
      "taf": "TAF LIPY 231100Z 2312/2412 31010KT 9999 SCT060"
    },
    {
      "icao": "LIPZ",
      "alert": "OK",
      "vis_m": 9999,
      "fzfg": false,
      "metar_trigger": false,
      "taf_trigger": false,
      "metar": "METAR LIPZ 231250Z 15007KT CAVOK 15/05 Q1015 NOSIG",
      "taf": "TAF LIPZ 231100Z 2312/2418 03006KT 9999 SCT060"
    },
    {
      "icao": "LIRF",
      "alert": "OK",
      "vis_m": 9999,
      "fzfg": false,
      "metar_trigger": false,
      "taf_trigger": false,
      "metar": "METAR LIRF 231250Z 28011KT 9999 SCT050 15/05 Q1013 NOSIG",
      "taf": "TAF LIRF 231100Z 2312/2418 04008KT CAVOK"
    },
    {
      "icao": "LIRN",
      "alert": "OK",
      "vis_m": 9999,
      "fzfg": false,
      "metar_trigger": false,
      "taf_trigger": false,
      "metar": "METAR LIRN 231250Z VRB05KT 9999 FEW040 15/03 Q1012 NOSIG",
      "taf": "TAF LIRN 231100Z 2312/2412 VRB05KT 9999 FEW040"
    },
    {
      "icao": "LIRP",
      "alert": "OK",
      "vis_m": 9999,
      "fzfg": false,
      "metar_trigger": false,
      "taf_trigger": false,
      "metar": "METAR LIRP 231245Z 31009KT 9999 FEW040 SCT060 15/02 Q1015 NOSIG",
      "taf": "TAF LIRP 231100Z 2312/2412 34010KT 9999 FEW040 SCT070"
    },
    {
      "icao": "LIRZ",
      "alert": "OK",
      "vis_m": 9999,
      "fzfg": false,
      "metar_trigger": false,
      "taf_trigger": false,
      "metar": "METAR LIRZ 231250Z AUTO 06012KT 9999 BKN069/// BKN082/// 12/03 Q1014",
      "taf": "TAF LIRZ 231100Z 2312/2412 04014KT 9999 FEW080"
    },
    {
      "icao": "LJLJ",
      "alert": "OK",
      "vis_m": 9999,
      "fzfg": false,
      "metar_trigger": false,
      "taf_trigger": false,
      "metar": "METAR LJLJ 231300Z 11008KT 9999 VCSH SCT055TCU BKN070 11/01 Q1016 NOSIG",
      "taf": "TAF LJLJ 231100Z 2312/2412 VRB02KT 9999 SCT055"
    },
    {
      "icao": "LKMT",
      "alert": "OK",
      "vis_m": 9999,
      "fzfg": false,
      "metar_trigger": false,
      "taf_trigger": false,
      "metar": "METAR LKMT 231300Z 06005KT 340V110 CAVOK 14/M01 Q1016 NOSIG",
      "taf": "TAF LKMT 231100Z 2312/2412 03008KT CAVOK"
    },
    {
      "icao": "LKPR",
      "alert": "OK",
      "vis_m": 9999,
      "fzfg": false,
      "metar_trigger": false,
      "taf_trigger": false,
      "metar": "METAR LKPR 231300Z 36005KT 310V070 CAVOK 13/M01 Q1017 NOSIG",
      "taf": "TAF LKPR 231100Z 2312/2418 06004KT CAVOK"
    },
    {
      "icao": "LLBG",
      "alert": "OK",
      "vis_m": 9999,
      "fzfg": false,
      "metar_trigger": false,
      "taf_trigger": false,
      "metar": "METAR LLBG 231250Z 30012KT 9999 FEW050 20/06 Q1008 NOSIG",
      "taf": "TAF LLBG 231105Z 2312/2412 28010KT 9999 FEW040 TX21/2312Z TN08/2404Z"
    },
    {
      "icao": "LMML",
      "alert": "OK",
      "vis_m": 9999,
      "fzfg": false,
      "metar_trigger": false,
      "taf_trigger": false,
      "metar": "METAR LMML 231315Z 14004KT 090V170 9999 FEW024 16/11 Q1012 NOSIG",
      "taf": "TAF LMML 231100Z 2312/2412 VRB06KT 9999 SCT020"
    },
    {
      "icao": "LOWW",
      "alert": "OK",
      "vis_m": 9999,
      "fzfg": false,
      "metar_trigger": false,
      "taf_trigger": false,
      "metar": "METAR LOWW 231250Z VRB05KT 9999 FEW050 16/01 Q1016 NOSIG",
      "taf": "TAF LOWW 231115Z 2312/2418 VRB04KT 9999 FEW050 TX16/2413Z TN05/2404Z"
    },
    {
      "icao": "LPFR",
      "alert": "OK",
      "vis_m": 9999,
      "fzfg": false,
      "metar_trigger": false,
      "taf_trigger": false,
      "metar": "METAR LPFR 231300Z 17009KT 9999 FEW020 FEW025TCU 18/15 Q1013",
      "taf": "TAF LPFR 231100Z 2312/2412 19007KT 9999 SCT020"
    },
    {
      "icao": "LPMA",
      "alert": "OK",
      "vis_m": 9999,
      "fzfg": false,
      "metar_trigger": false,
      "taf_trigger": false,
      "metar": "METAR LPMA 231300Z 04013KT 360V060 9999 SCT013 FEW018CB 18/16 Q1012",
      "taf": "TAF LPMA 231100Z 2312/2412 02015KT 9999 SCT015"
    },
    {
      "icao": "LPPR",
      "alert": "OK",
      "vis_m": 9999,
      "fzfg": false,
      "metar_trigger": false,
      "taf_trigger": false,
      "metar": "METAR LPPR 231300Z VRB03KT CAVOK 22/06 Q1014",
      "taf": "TAF LPPR 231100Z 2312/2412 08005KT CAVOK"
    },
    {
      "icao": "LPPS",
      "alert": "OK",
      "vis_m": 9999,
      "fzfg": false,
      "metar_trigger": false,
      "taf_trigger": false,
      "metar": "METAR LPPS 231300Z 07015KT 9999 BKN010 FEW016CB 17/15 Q1012",
      "taf": "TAF LPPS 231100Z 2312/2418 06015KT 9999 SCT013"
    },
    {
      "icao": "LPPT",
      "alert": "OK",
      "vis_m": 9999,
      "fzfg": false,
      "metar_trigger": false,
      "taf_trigger": false,
      "metar": "METAR LPPT 231300Z VRB03G19KT 9999 FEW040 22/11 Q1014",
      "taf": "TAF LPPT 231100Z 2312/2418 VRB02KT CAVOK"
    },
    {
      "icao": "LQBK",
      "alert": "OK",
      "vis_m": 9999,
      "fzfg": false,
      "metar_trigger": false,
      "taf_trigger": false,
      "metar": "METAR LQBK 231300Z 34007KT CAVOK 15/02 Q1014 NOSIG",
      "taf": "TAF LQBK 231100Z 2312/2412 34005KT CAVOK TX15/2313Z TN04/2406Z"
    },
    {
      "icao": "LQSA",
      "alert": "OK",
      "vis_m": 9999,
      "fzfg": false,
      "metar_trigger": false,
      "taf_trigger": false,
      "metar": "METAR LQSA 231300Z 19006KT 160V220 9999 FEW045 BKN060 10/03 Q1013 NOSIG",
      "taf": "TAF LQSA 231100Z 2312/2412 VRB02KT 9999 SCT055 TX14/2314Z TN04/2405Z"
    },
    {
      "icao": "LQTZ",
      "alert": "OK",
      "vis_m": 9999,
      "fzfg": false,
      "metar_trigger": false,
      "taf_trigger": false,
      "metar": "METAR LQTZ 231300Z 05006KT 350V090 9999 FEW040 BKN060 14/03 Q1013",
      "taf": ""
    },
    {
      "icao": "LRBC",
      "alert": "OK",
      "vis_m": 9999,
      "fzfg": false,
      "metar_trigger": false,
      "taf_trigger": false,
      "metar": "METAR LRBC 231300Z 35005KT 300V030 9999 BKN059 14/00 Q1016",
      "taf": "TAF LRBC 231100Z 2312/2321 34006KT CAVOK"
    },
    {
      "icao": "LRBS",
      "alert": "OK",
      "vis_m": 9999,
      "fzfg": false,
      "metar_trigger": false,
      "taf_trigger": false,
      "metar": "METAR LRBS 231300Z 03008KT 350V060 9999 -RA SCT047 11/04 Q1016 NOSIG",
      "taf": "TAF LRBS 231100Z 2312/2412 05013KT CAVOK"
    },
    {
      "icao": "LRBV",
      "alert": "OK",
      "vis_m": 9999,
      "fzfg": false,
      "metar_trigger": false,
      "taf_trigger": false,
      "metar": "METAR LRBV 231300Z 19006KT 150V210 9999 OVC050 10/00 Q1015",
      "taf": "TAF LRBV 231100Z 2312/2321 VRB04KT 9999 BKN060"
    },
    {
      "icao": "LRCL",
      "alert": "OK",
      "vis_m": 9999,
      "fzfg": false,
      "metar_trigger": false,
      "taf_trigger": false,
      "metar": "METAR LRCL 231300Z VRB03KT 9999 FEW060 13/M02 Q1016",
      "taf": "TAF LRCL 231100Z 2312/2321 VRB04KT CAVOK"
    },
    {
      "icao": "LRCV",
      "alert": "OK",
      "vis_m": 9999,
      "fzfg": false,
      "metar_trigger": false,
      "taf_trigger": false,
      "metar": "METAR LRCV 231300Z 08004KT 9999 -RA SCT023 OVC027 09/05 Q1017",
      "taf": "TAF LRCV 231100Z 2312/2321 06006KT 9999 BKN040"
    },
    {
      "icao": "LRIA",
      "alert": "OK",
      "vis_m": 9999,
      "fzfg": false,
      "metar_trigger": false,
      "taf_trigger": false,
      "metar": "METAR LRIA 231300Z 31003KT 250V010 CAVOK 14/M01 Q1016",
      "taf": "TAF LRIA 231100Z 2312/2321 VRB04KT CAVOK"
    },
    {
      "icao": "LROP",
      "alert": "OK",
      "vis_m": 9999,
      "fzfg": false,
      "metar_trigger": false,
      "taf_trigger": false,
      "metar": "METAR LROP 231300Z 03011KT CAVOK 11/01 Q1016 NOSIG",
      "taf": "TAF LROP 231100Z 2312/2412 06014KT CAVOK"
    },
    {
      "icao": "LRSB",
      "alert": "OK",
      "vis_m": 9999,
      "fzfg": false,
      "metar_trigger": false,
      "taf_trigger": false,
      "metar": "METAR LRSB 231300Z 12005KT 090V150 9999 -RA BKN065 10/02 Q1016 NOSIG",
      "taf": "TAF LRSB 231100Z 2312/2412 VRB04KT CAVOK"
    },
    {
      "icao": "LRSM",
      "alert": "OK",
      "vis_m": 9999,
      "fzfg": false,
      "metar_trigger": false,
      "taf_trigger": false,
      "metar": "METAR LRSM 231300Z VRB03KT CAVOK 15/M03 Q1016",
      "taf": "TAF LRSM 231100Z 2312/2321 VRB04KT CAVOK"
    },
    {
      "icao": "LRSV",
      "alert": "OK",
      "vis_m": 9999,
      "fzfg": false,
      "metar_trigger": false,
      "taf_trigger": false,
      "metar": "METAR LRSV 231300Z 06005KT 030V160 9999 FEW048 12/M00 Q1016",
      "taf": "TAF LRSV 231100Z 2312/2321 07006KT CAVOK"
    },
    {
      "icao": "LRTM",
      "alert": "OK",
      "vis_m": 9999,
      "fzfg": false,
      "metar_trigger": false,
      "taf_trigger": false,
      "metar": "METAR LRTM 231300Z 22003KT 180V300 9999 SCT037 13/M00 Q1015",
      "taf": "TAF LRTM 231100Z 2312/2321 VRB04KT CAVOK"
    },
    {
      "icao": "LRTR",
      "alert": "OK",
      "vis_m": 9999,
      "fzfg": false,
      "metar_trigger": false,
      "taf_trigger": false,
      "metar": "METAR LRTR 231300Z 36009KT 330V030 CAVOK 15/02 Q1015 NOSIG",
      "taf": "TAF LRTR 231100Z 2312/2412 VRB04KT CAVOK"
    },
    {
      "icao": "LTAC",
      "alert": "OK",
      "vis_m": 9999,
      "fzfg": false,
      "metar_trigger": false,
      "taf_trigger": false,
      "metar": "METAR LTAC 231250Z 09009KT 9999 FEW026CB BKN030 10/05 Q1008 RESHRA TEMPO -TSRA",
      "taf": "TAF LTAC 231040Z 2312/2412 VRB02KT 9999 SCT040 BKN100"
    },
    {
      "icao": "LTFM",
      "alert": "OK",
      "vis_m": 1100,
      "fzfg": false,
      "metar_trigger": false,
      "taf_trigger": false,
      "metar": "METAR LTFM 231250Z 33014KT 1100 0550S R35R/1500U R17L/P1500N R34L/0800N R36/P1500N -RA BCFG BKN002 BKN018 08/07 Q1012 NOSIG RMK RWY17L 33012KT RWY34L 32014KT RWY16R 32009KT RWY36 33015KT RWY18 34012KT",
      "taf": "TAF LTFM 231040Z 2312/2418 33012KT 2000 -RA BR BKN004 BKN020"
    },
    {
      "icao": "LUKK",
      "alert": "OK",
      "vis_m": 9999,
      "fzfg": false,
      "metar_trigger": false,
      "taf_trigger": false,
      "metar": "METAR LUKK 231300Z 07007KT 020V120 CAVOK 15/M01 Q1016 NOSIG",
      "taf": "TAF LUKK 231102Z 2312/2412 05008KT CAVOK"
    },
    {
      "icao": "LWOH",
      "alert": "OK",
      "vis_m": null,
      "fzfg": false,
      "metar_trigger": false,
      "taf_trigger": false,
      "metar": "",
      "taf": "TAF LWOH 231105Z 2312/2412 06010KT 9999 SCT040 BKN080"
    },
    {
      "icao": "LWSK",
      "alert": "OK",
      "vis_m": null,
      "fzfg": false,
      "metar_trigger": false,
      "taf_trigger": false,
      "metar": "",
      "taf": "TAF LWSK 231105Z 2312/2412 VRB02KT 9999 SCT040 BKN100"
    },
    {
      "icao": "LYBE",
      "alert": "OK",
      "vis_m": 9999,
      "fzfg": false,
      "metar_trigger": false,
      "taf_trigger": false,
      "metar": "METAR LYBE 231300Z 06009KT 010V100 CAVOK 15/02 Q1015 NOSIG",
      "taf": "TAF LYBE 231100Z 2312/2412 10008KT CAVOK TX17/2412Z TN06/2405Z"
    },
    {
      "icao": "LYNI",
      "alert": "OK",
      "vis_m": 9999,
      "fzfg": false,
      "metar_trigger": false,
      "taf_trigger": false,
      "metar": "METAR LYNI 231300Z 03010KT 330V080 9999 FEW050 15/02 Q1013 NOSIG",
      "taf": "TAF LYNI 231100Z 2312/2412 05014KT CAVOK TX15/2313Z TN04/2405Z"
    },
    {
      "icao": "LYPG",
      "alert": "OK",
      "vis_m": 9999,
      "fzfg": false,
      "metar_trigger": false,
      "taf_trigger": false,
      "metar": "METAR LYPG 231300Z VRB04KT 9999 FEW040TCU SCT050 17/03 Q1012 TEMPO SHRA",
      "taf": "TAF LYPG 231100Z 2312/2412 18006KT 9999 FEW040 BKN080 TX18/2313Z TN08/2400Z"
    },
    {
      "icao": "LZIB",
      "alert": "OK",
      "vis_m": 9999,
      "fzfg": false,
      "metar_trigger": false,
      "taf_trigger": false,
      "metar": "METAR LZIB 231300Z VRB03KT CAVOK 15/01 Q1016 NOSIG",
      "taf": "TAF LZIB 231115Z 2312/2412 11006KT CAVOK"
    },
    {
      "icao": "LZKZ",
      "alert": "OK",
      "vis_m": 9999,
      "fzfg": false,
      "metar_trigger": false,
      "taf_trigger": false,
      "metar": "METAR LZKZ 231300Z 09003KT 040V150 CAVOK 14/M02 Q1015 NOSIG",
      "taf": "TAF LZKZ 231115Z 2312/2412 15007KT CAVOK"
    },
    {
      "icao": "LZTT",
      "alert": "OK",
      "vis_m": 9999,
      "fzfg": false,
      "metar_trigger": false,
      "taf_trigger": false,
      "metar": "METAR LZTT 231300Z 17003KT 120V240 9999 BKN066 10/M03 Q1016 NOSIG",
      "taf": "TAF LZTT 231115Z 2312/2412 11007KT 9999 FEW070"
    },
    {
      "icao": "OEJN",
      "alert": "OK",
      "vis_m": 4000,
      "fzfg": false,
      "metar_trigger": false,
      "taf_trigger": false,
      "metar": "METAR OEJN 231300Z 22009KT 4000 DU NSC 31/18 Q1005 NOSIG",
      "taf": "TAF OEJN 231100Z 2312/2418 22012KT 7000 FEW040"
    },
    {
      "icao": "OEMA",
      "alert": "OK",
      "vis_m": 9999,
      "fzfg": false,
      "metar_trigger": false,
      "taf_trigger": false,
      "metar": "METAR OEMA 231300Z 21009KT 9999 FEW040 31/M05 Q1009 NOSIG",
      "taf": "TAF OEMA 231100Z 2312/2418 25015KT 7000 FEW040"
    },
    {
      "icao": "OJAI",
      "alert": "OK",
      "vis_m": 5000,
      "fzfg": false,
      "metar_trigger": false,
      "taf_trigger": false,
      "metar": "METAR OJAI 231300Z 18005KT 5000 HZ SCT030 FEW030 16/04 Q1010 NOSIG",
      "taf": "TAF OJAI 231049Z 2312/2418 25012KT 5000 HZ SCT020 BKN030"
    },
    {
      "icao": "OMAA",
      "alert": "OK",
      "vis_m": null,
      "fzfg": false,
      "metar_trigger": false,
      "taf_trigger": false,
      "metar": "",
      "taf": ""
    },
    {
      "icao": "OMDB",
      "alert": "OK",
      "vis_m": null,
      "fzfg": false,
      "metar_trigger": false,
      "taf_trigger": false,
      "metar": "",
      "taf": ""
    },
    {
      "icao": "UAAA",
      "alert": "OK",
      "vis_m": 9999,
      "fzfg": false,
      "metar_trigger": false,
      "taf_trigger": false,
      "metar": "METAR UAAA 231300Z 19004MPS 9999 BKN050CB OVC100 15/06 Q1017 TEMPO TS",
      "taf": "TAF UAAA 231103Z 2312/2412 23003G08MPS 5000 -SHRA BR BKN030CB OVC100 TX14/2409Z TN06/2401Z"
    },
    {
      "icao": "UBBB",
      "alert": "OK",
      "vis_m": 9999,
      "fzfg": false,
      "metar_trigger": false,
      "taf_trigger": false,
      "metar": "METAR UBBB 231300Z 06006KT CAVOK 14/07 Q1009 NOSIG",
      "taf": "TAF UBBB 231056Z 2312/2412 34006KT CAVOK TX16/2312Z TN08/2400Z"
    },
    {
      "icao": "UDSG",
      "alert": "OK",
      "vis_m": 9999,
      "fzfg": false,
      "metar_trigger": false,
      "taf_trigger": false,
      "metar": "METAR UDSG 231300Z 02005KT 9999 -SHRA BKN036CB 06/03 Q1013 NOSIG",
      "taf": "TAF UDSG 231058Z 2312/2412 06006KT 9999 SCT040"
    },
    {
      "icao": "UDYZ",
      "alert": "OK",
      "vis_m": 9999,
      "fzfg": false,
      "metar_trigger": false,
      "taf_trigger": false,
      "metar": "METAR UDYZ 231300Z 31008KT 250V330 9999 VCTS BKN043CB 17/01 Q1010 TEMPO -TSRA",
      "taf": "TAF UDYZ 231100Z 2312/2412 24006KT 9999 SCT040"
    },
    {
      "icao": "UGKO",
      "alert": "OK",
      "vis_m": 9999,
      "fzfg": false,
      "metar_trigger": false,
      "taf_trigger": false,
      "metar": "METAR UGKO 231300Z 27009KT 9999 SCT020 BKN042 13/09 Q1010 NOSIG",
      "taf": "TAF UGKO 231100Z 2312/2412 26007KT 9000 SCT023 BKN040 TX20/2411Z TN06/2403Z"
    }
  ]
}