{
  "ts_utc": "2026-05-15T05:36:10Z",
  "threshold_m": 150,
  "source": "stations_override.txt (ICAO list) + aviationweather.gov (METAR/TAF raw)",
  "station_count": 159,
  "stations": [
    {
      "icao": "BIKF",
      "alert": "OK",
      "vis_m": 9999,
      "fzfg": false,
      "metar_trigger": false,
      "taf_trigger": false,
      "metar": "METAR BIKF 150530Z 13018KT 9999 -DZ BKN006 OVC015 07/06 Q1009",
      "taf": "TAF BIKF 150432Z 1506/1606 13018KT 9999 -DZRA SCT008 OVC012 TX08/1514Z TN06/1506Z"
    },
    {
      "icao": "BKPR",
      "alert": "OK",
      "vis_m": 9999,
      "fzfg": false,
      "metar_trigger": false,
      "taf_trigger": false,
      "metar": "METAR BKPR 150530Z 13004KT 9999 SCT040 BKN055 12/08 Q1007 NOSIG",
      "taf": "TAF BKPR 150530Z 1506/1606 24008KT 9999 SCT040"
    },
    {
      "icao": "EBCI",
      "alert": "OK",
      "vis_m": 9999,
      "fzfg": false,
      "metar_trigger": false,
      "taf_trigger": false,
      "metar": "METAR EBCI 150520Z VRB02KT 9999 FEW035 05/04 Q1003 NOSIG",
      "taf": "TAF EBCI 150515Z 1506/1612 31003KT 9999 FEW022"
    },
    {
      "icao": "EDDB",
      "alert": "OK",
      "vis_m": 9999,
      "fzfg": false,
      "metar_trigger": false,
      "taf_trigger": false,
      "metar": "METAR EDDB 150520Z AUTO VRB01KT CAVOK 07/05 Q1000 NOSIG",
      "taf": "TAF EDDB 150500Z 1506/1606 28005KT 9999 SCT040"
    },
    {
      "icao": "EDDH",
      "alert": "OK",
      "vis_m": 9999,
      "fzfg": false,
      "metar_trigger": false,
      "taf_trigger": false,
      "metar": "METAR EDDH 150520Z AUTO VRB02KT CAVOK 06/05 Q1000 NOSIG",
      "taf": "TAF EDDH 150500Z 1506/1612 VRB03KT 9999 SCT030"
    },
    {
      "icao": "EDDK",
      "alert": "OK",
      "vis_m": 9999,
      "fzfg": false,
      "metar_trigger": false,
      "taf_trigger": false,
      "metar": "METAR EDDK 150520Z AUTO VRB01KT 9999 SCT008 SCT035 06/05 Q1002 TEMPO BKN008",
      "taf": "TAF EDDK 150500Z 1506/1612 VRB03KT 9999 SCT040"
    },
    {
      "icao": "EDDN",
      "alert": "OK",
      "vis_m": 9999,
      "fzfg": false,
      "metar_trigger": false,
      "taf_trigger": false,
      "metar": "METAR EDDN 150520Z AUTO VRB02KT CAVOK 06/04 Q1000 NOSIG",
      "taf": "TAF EDDN 150500Z 1506/1606 VRB03KT 9999 BKN030"
    },
    {
      "icao": "EDDS",
      "alert": "OK",
      "vis_m": 9999,
      "fzfg": false,
      "metar_trigger": false,
      "taf_trigger": false,
      "metar": "METAR EDDS 150520Z AUTO 28001KT 9999 VCSH FEW029 BKN043 FEW///TCU 06/04 Q1000 NOSIG",
      "taf": "TAF EDDS 150500Z 1506/1606 VRB03KT 9999 BKN035"
    },
    {
      "icao": "EDFH",
      "alert": "OK",
      "vis_m": 9000,
      "fzfg": false,
      "metar_trigger": false,
      "taf_trigger": false,
      "metar": "METAR EDFH 150520Z 33004KT 9000 -RA SCT010 OVC016 04/03 Q1000",
      "taf": "TAF EDFH 150500Z 1506/1606 32007KT 9999 BKN020"
    },
    {
      "icao": "EDJA",
      "alert": "OK",
      "vis_m": 9999,
      "fzfg": false,
      "metar_trigger": false,
      "taf_trigger": false,
      "metar": "METAR EDJA 150520Z 14002KT 9999 SCT056 05/03 Q1000",
      "taf": "TAF EDJA 150500Z 1506/1515 20005KT 9999 SCT015 BKN040"
    },
    {
      "icao": "EDLW",
      "alert": "OK",
      "vis_m": 9999,
      "fzfg": false,
      "metar_trigger": false,
      "taf_trigger": false,
      "metar": "METAR EDLW 150520Z 22004KT 9999 SCT044 05/05 Q1001",
      "taf": "TAF EDLW 150500Z 1506/1606 25005KT 9999 SCT040"
    },
    {
      "icao": "EDNY",
      "alert": "OK",
      "vis_m": 9999,
      "fzfg": false,
      "metar_trigger": false,
      "taf_trigger": false,
      "metar": "METAR EDNY 150520Z COR 00000KT 9999 FEW054 06/05 Q1001",
      "taf": "TAF EDNY 150500Z 1506/1515 VRB02KT 9999 SCT030 BKN050"
    },
    {
      "icao": "EDSB",
      "alert": "OK",
      "vis_m": 9999,
      "fzfg": false,
      "metar_trigger": false,
      "taf_trigger": false,
      "metar": "METAR EDSB 150520Z 23003KT 9999 -SHRA SCT012 BKN024 BKN030 07/07 Q1001",
      "taf": "TAF EDSB 150500Z 1506/1606 20004KT 9999 BKN030"
    },
    {
      "icao": "EETN",
      "alert": "OK",
      "vis_m": 9999,
      "fzfg": false,
      "metar_trigger": false,
      "taf_trigger": false,
      "metar": "METAR EETN 150520Z 11006KT CAVOK 12/06 Q1007 NOSIG",
      "taf": "TAF EETN 150530Z 1506/1606 13008KT CAVOK"
    },
    {
      "icao": "EFTU",
      "alert": "OK",
      "vis_m": 9999,
      "fzfg": false,
      "metar_trigger": false,
      "taf_trigger": false,
      "metar": "METAR EFTU 150520Z AUTO 14008KT CAVOK 10/06 Q1006",
      "taf": "TAF EFTU 150232Z 1503/1603 12004KT CAVOK"
    },
    {
      "icao": "EGBB",
      "alert": "OK",
      "vis_m": 9999,
      "fzfg": false,
      "metar_trigger": false,
      "taf_trigger": false,
      "metar": "METAR EGBB 150520Z 30005KT 9999 SCT046 07/04 Q1007",
      "taf": "TAF EGBB 150455Z 1506/1606 33010KT 9999 SCT040"
    },
    {
      "icao": "EGGP",
      "alert": "OK",
      "vis_m": 9999,
      "fzfg": false,
      "metar_trigger": false,
      "taf_trigger": false,
      "metar": "METAR EGGP 150520Z 36007KT 310V030 CAVOK 07/04 Q1007",
      "taf": "TAF EGGP 150454Z 1506/1606 36007KT 9999 SCT040"
    },
    {
      "icao": "EGGW",
      "alert": "OK",
      "vis_m": 9999,
      "fzfg": false,
      "metar_trigger": false,
      "taf_trigger": false,
      "metar": "METAR EGGW 150520Z AUTO 33009KT 290V350 9999 SCT040 05/04 Q1006",
      "taf": "TAF EGGW 150456Z 1506/1606 31006KT 9999 FEW030"
    },
    {
      "icao": "EGKK",
      "alert": "OK",
      "vis_m": 9999,
      "fzfg": false,
      "metar_trigger": false,
      "taf_trigger": false,
      "metar": "METAR EGKK 150520Z 32008KT 260V340 CAVOK 06/05 Q1006",
      "taf": "TAF EGKK 150502Z 1506/1612 32008KT 9999 FEW030"
    },
    {
      "icao": "EGNM",
      "alert": "OK",
      "vis_m": 9999,
      "fzfg": false,
      "metar_trigger": false,
      "taf_trigger": false,
      "metar": "METAR EGNM 150520Z 32012KT 9999 FEW040 04/00 Q1006",
      "taf": "TAF EGNM 150456Z 1506/1606 31011KT 9999 FEW035"
    },
    {
      "icao": "EGPD",
      "alert": "OK",
      "vis_m": 9999,
      "fzfg": false,
      "metar_trigger": false,
      "taf_trigger": false,
      "metar": "METAR EGPD 150520Z COR AUTO 32019KT 9999 SCT046 05/02 Q1004 NOSIG",
      "taf": "TAF EGPD 150456Z 1506/1606 33017G27KT 9999 FEW025 SCT040"
    },
    {
      "icao": "EGPF",
      "alert": "OK",
      "vis_m": 9999,
      "fzfg": false,
      "metar_trigger": false,
      "taf_trigger": false,
      "metar": "METAR EGPF 150520Z AUTO 26006KT 9999 NCD 05/01 Q1008",
      "taf": "TAF EGPF 150457Z 1506/1606 30010KT 9999 SCT030"
    },
    {
      "icao": "EHBK",
      "alert": "OK",
      "vis_m": 9999,
      "fzfg": false,
      "metar_trigger": false,
      "taf_trigger": false,
      "metar": "METAR EHBK 150525Z AUTO 23004KT 9999 NSC 06/05 Q1002 NOSIG",
      "taf": "TAF EHBK 150506Z 1506/1612 27003KT CAVOK"
    },
    {
      "icao": "EHEH",
      "alert": "OK",
      "vis_m": 9999,
      "fzfg": false,
      "metar_trigger": false,
      "taf_trigger": false,
      "metar": "METAR EHEH 150525Z AUTO 23003KT 9999 SCT056 BKN190 04/03 Q1002 BLU BECMG 27006KT NSW FEW020 SCT030",
      "taf": ""
    },
    {
      "icao": "EKBI",
      "alert": "OK",
      "vis_m": 9999,
      "fzfg": false,
      "metar_trigger": false,
      "taf_trigger": false,
      "metar": "METAR EKBI 150520Z 16008KT 130V200 9999 VCSH FEW010 FEW020CB BKN037 06/04 Q0996",
      "taf": "TAF EKBI 150527Z 1506/1606 17010KT 9999 BKN020"
    },
    {
      "icao": "EKCH",
      "alert": "OK",
      "vis_m": 9999,
      "fzfg": false,
      "metar_trigger": false,
      "taf_trigger": false,
      "metar": "METAR EKCH 150520Z AUTO 19006KT 9999 BKN067/// 09/06 Q1000 NOSIG",
      "taf": "TAF EKCH 150527Z 1506/1606 18008KT 9999 SCT025"
    },
    {
      "icao": "ENAL",
      "alert": "OK",
      "vis_m": 9999,
      "fzfg": false,
      "metar_trigger": false,
      "taf_trigger": false,
      "metar": "METAR ENAL 150520Z 14007KT 100V160 CAVOK 08/06 Q0992",
      "taf": "TAF ENAL 150500Z 1506/1515 12008KT CAVOK"
    },
    {
      "icao": "ENBR",
      "alert": "OK",
      "vis_m": 9999,
      "fzfg": false,
      "metar_trigger": false,
      "taf_trigger": false,
      "metar": "METAR ENBR 150520Z VRB02KT 9999 FEW053 06/02 Q0990 NOSIG RMK WIND 1200FT 12010KT",
      "taf": "TAF ENBR 150500Z 1506/1606 14008KT 9999 SCT050"
    },
    {
      "icao": "ENGM",
      "alert": "OK",
      "vis_m": 9999,
      "fzfg": false,
      "metar_trigger": false,
      "taf_trigger": false,
      "metar": "METAR ENGM 150520Z 14009KT 9999 BKN012 06/04 Q0997 TEMPO SCT012 BKN030",
      "taf": "TAF ENGM 150500Z 1506/1606 14010KT 9999 -SHRA SCT012 BKN035"
    },
    {
      "icao": "ENHD",
      "alert": "OK",
      "vis_m": 9999,
      "fzfg": false,
      "metar_trigger": false,
      "taf_trigger": false,
      "metar": "METAR ENHD 150520Z 10006KT CAVOK 08/01 Q0990",
      "taf": "TAF ENHD 150500Z 1506/1515 10008KT CAVOK"
    },
    {
      "icao": "ENTC",
      "alert": "OK",
      "vis_m": 9999,
      "fzfg": false,
      "metar_trigger": false,
      "taf_trigger": false,
      "metar": "METAR ENTC 150520Z 19013KT CAVOK 10/03 Q1001 NOSIG RMK WIND 2600FT 17037KT",
      "taf": "TAF ENTC 150500Z 1506/1606 19012KT CAVOK"
    },
    {
      "icao": "ENTO",
      "alert": "OK",
      "vis_m": 9999,
      "fzfg": false,
      "metar_trigger": false,
      "taf_trigger": false,
      "metar": "METAR ENTO 150520Z 13010KT 100V160 9999 BKN011TCU 08/07 Q0995 TEMPO SCT010",
      "taf": "TAF ENTO 150500Z 1506/1606 16010KT 9999 -SHRA SCT010 BKN020"
    },
    {
      "icao": "ENVA",
      "alert": "OK",
      "vis_m": 9999,
      "fzfg": false,
      "metar_trigger": false,
      "taf_trigger": false,
      "metar": "METAR ENVA 150520Z 13012KT 090V170 CAVOK 11/02 Q0997 NOSIG RMK WIND 670FT 14017KT",
      "taf": "TAF ENVA 150500Z 1506/1606 11008KT CAVOK"
    },
    {
      "icao": "ENZV",
      "alert": "OK",
      "vis_m": 9999,
      "fzfg": false,
      "metar_trigger": false,
      "taf_trigger": false,
      "metar": "METAR ENZV 150520Z 00000KT CAVOK 07/03 Q0990 BECMG 08010KT",
      "taf": "TAF ENZV 150500Z 1506/1606 10005KT CAVOK"
    },
    {
      "icao": "EPGD",
      "alert": "OK",
      "vis_m": 4700,
      "fzfg": false,
      "metar_trigger": false,
      "taf_trigger": false,
      "metar": "METAR EPGD 150530Z 03004KT 350V050 4700 -RA BR FEW005 BKN043 08/08 Q1001 RERA",
      "taf": "TAF EPGD 150530Z 1506/1606 VRB04KT 9999 SCT040"
    },
    {
      "icao": "EPKK",
      "alert": "OK",
      "vis_m": 9999,
      "fzfg": false,
      "metar_trigger": false,
      "taf_trigger": false,
      "metar": "METAR EPKK 150530Z 04004KT 9999 SCT060 10/07 Q1000",
      "taf": "TAF EPKK 150530Z 1506/1606 05005KT 9999 BKN060"
    },
    {
      "icao": "EPKT",
      "alert": "OK",
      "vis_m": 9999,
      "fzfg": false,
      "metar_trigger": false,
      "taf_trigger": false,
      "metar": "METAR EPKT 150530Z 13007KT CAVOK 12/06 Q0999",
      "taf": "TAF EPKT 150530Z 1506/1606 14006KT 9999 BKN050"
    },
    {
      "icao": "EPLB",
      "alert": "OK",
      "vis_m": 9999,
      "fzfg": false,
      "metar_trigger": false,
      "taf_trigger": false,
      "metar": "METAR EPLB 150530Z 14004KT 110V180 CAVOK 13/06 Q1003",
      "taf": "TAF EPLB 150530Z 1506/1606 11005KT CAVOK"
    },
    {
      "icao": "EPMO",
      "alert": "OK",
      "vis_m": 9999,
      "fzfg": false,
      "metar_trigger": false,
      "taf_trigger": false,
      "metar": "METAR EPMO 150530Z 11007KT 080V150 CAVOK 13/07 Q1001",
      "taf": "TAF EPMO 150530Z 1506/1606 11007KT CAVOK"
    },
    {
      "icao": "EPPO",
      "alert": "OK",
      "vis_m": 9000,
      "fzfg": false,
      "metar_trigger": false,
      "taf_trigger": false,
      "metar": "METAR EPPO 150530Z 34004KT 9000 -SHRA SCT004 BKN030CB 09/08 Q1000",
      "taf": "TAF EPPO 150530Z 1506/1606 35005KT 9000 BKN007 BKN030"
    },
    {
      "icao": "EPRA",
      "alert": "OK",
      "vis_m": 9999,
      "fzfg": false,
      "metar_trigger": false,
      "taf_trigger": false,
      "metar": "METAR EPRA 150530Z 14008KT CAVOK 12/05 Q1001",
      "taf": "TAF EPRA 150530Z 1506/1515 16012KT CAVOK"
    },
    {
      "icao": "EPRZ",
      "alert": "OK",
      "vis_m": 9999,
      "fzfg": false,
      "metar_trigger": false,
      "taf_trigger": false,
      "metar": "METAR EPRZ 150530Z 09005KT CAVOK 09/05 Q1002",
      "taf": "TAF EPRZ 150530Z 1506/1606 08008KT CAVOK"
    },
    {
      "icao": "EPSC",
      "alert": "OK",
      "vis_m": 9999,
      "fzfg": false,
      "metar_trigger": false,
      "taf_trigger": false,
      "metar": "METAR EPSC 150530Z 00000KT 9999 FEW049 07/07 Q1000",
      "taf": "TAF EPSC 150530Z 1506/1606 VRB02KT CAVOK"
    },
    {
      "icao": "EPSY",
      "alert": "OK",
      "vis_m": 9999,
      "fzfg": false,
      "metar_trigger": false,
      "taf_trigger": false,
      "metar": "METAR EPSY 150530Z 11005KT 070V160 CAVOK 12/06 Q1002",
      "taf": "TAF EPSY 150530Z 1506/1515 12010KT CAVOK"
    },
    {
      "icao": "EPWA",
      "alert": "OK",
      "vis_m": 9999,
      "fzfg": false,
      "metar_trigger": false,
      "taf_trigger": false,
      "metar": "METAR EPWA 150530Z 14009KT CAVOK 13/05 Q1001 NOSIG",
      "taf": "TAF EPWA 150530Z 1506/1606 11007KT CAVOK"
    },
    {
      "icao": "EPWR",
      "alert": "OK",
      "vis_m": 9999,
      "fzfg": false,
      "metar_trigger": false,
      "taf_trigger": false,
      "metar": "METAR EPWR 150530Z 32007KT 9999 -RA BKN005 09/09 Q0999",
      "taf": "TAF EPWR 150530Z 1506/1606 33007KT 9999 BKN007 BKN013"
    },
    {
      "icao": "ESGG",
      "alert": "OK",
      "vis_m": 9999,
      "fzfg": false,
      "metar_trigger": false,
      "taf_trigger": false,
      "metar": "METAR ESGG 150520Z 14008KT 9999 FEW004 06/05 Q0997",
      "taf": "TAF ESGG 150530Z 1506/1606 16008KT 9999 SCT006"
    },
    {
      "icao": "ESKN",
      "alert": "OK",
      "vis_m": 9999,
      "fzfg": false,
      "metar_trigger": false,
      "taf_trigger": false,
      "metar": "METAR ESKN 150520Z 14009KT 110V170 9999 BKN011 08/06 Q1002",
      "taf": "TAF ESKN 150530Z 1506/1606 13010KT 9999 SCT007"
    },
    {
      "icao": "ESMS",
      "alert": "OK",
      "vis_m": 6000,
      "fzfg": false,
      "metar_trigger": false,
      "taf_trigger": false,
      "metar": "METAR ESMS 150520Z 16004KT 6000 FEW002 08/08 Q0999",
      "taf": "TAF ESMS 150527Z 1506/1606 18006KT 9999 FEW025"
    },
    {
      "icao": "ESSA",
      "alert": "OK",
      "vis_m": 9999,
      "fzfg": false,
      "metar_trigger": false,
      "taf_trigger": false,
      "metar": "METAR ESSA 150520Z 16009KT 9999 FEW012 09/05 Q1002 TEMPO BKN012",
      "taf": "TAF ESSA 150530Z 1506/1606 15008KT CAVOK"
    },
    {
      "icao": "EYKA",
      "alert": "OK",
      "vis_m": 9999,
      "fzfg": false,
      "metar_trigger": false,
      "taf_trigger": false,
      "metar": "METAR EYKA 150520Z VRB02KT CAVOK 12/07 Q1004",
      "taf": "TAF EYKA 150500Z 1506/1606 VRB05KT 9000 NSC"
    },
    {
      "icao": "EYPA",
      "alert": "OK",
      "vis_m": 9999,
      "fzfg": false,
      "metar_trigger": false,
      "taf_trigger": false,
      "metar": "METAR EYPA 150520Z 11006KT CAVOK 11/08 Q1003",
      "taf": "TAF EYPA 150500Z 1506/1606 VRB05KT 9000 NSC"
    },
    {
      "icao": "EYVI",
      "alert": "OK",
      "vis_m": 9999,
      "fzfg": false,
      "metar_trigger": false,
      "taf_trigger": false,
      "metar": "METAR EYVI 150520Z 12003KT 080V160 CAVOK 14/07 Q1004 NOSIG",
      "taf": "TAF EYVI 150500Z 1506/1606 VRB03KT 9000 NSC"
    },
    {
      "icao": "GCFV",
      "alert": "OK",
      "vis_m": 9999,
      "fzfg": false,
      "metar_trigger": false,
      "taf_trigger": false,
      "metar": "METAR GCFV 150530Z 35013KT 9999 FEW025 SCT048 18/13 Q1016",
      "taf": "TAF GCFV 150200Z 1503/1603 33009KT 9999 SCT030 TX24/1514Z TN18/1506Z"
    },
    {
      "icao": "GCLP",
      "alert": "OK",
      "vis_m": 9999,
      "fzfg": false,
      "metar_trigger": false,
      "taf_trigger": false,
      "metar": "METAR GCLP 150530Z 35014KT 9999 SCT025 18/14 Q1017 NOSIG",
      "taf": "TAF GCLP 150200Z 1503/1603 36015KT 9999 BKN030 TX23/1514Z TN17/1506Z"
    },
    {
      "icao": "GCTS",
      "alert": "OK",
      "vis_m": 9999,
      "fzfg": false,
      "metar_trigger": false,
      "taf_trigger": false,
      "metar": "METAR GCTS 150530Z 35008KT 330V030 9999 FEW030 17/08 Q1017 NOSIG",
      "taf": "TAF GCTS 150200Z 1503/1603 34004KT 9999 FEW035 TX23/1514Z TN16/1506Z"
    },
    {
      "icao": "GMAD",
      "alert": "OK",
      "vis_m": 8000,
      "fzfg": false,
      "metar_trigger": false,
      "taf_trigger": false,
      "metar": "METAR GMAD 150530Z 00000KT 8000 NSC 12/11 Q1011 NOSIG",
      "taf": "TAF GMAD 150500Z 1506/1612 07004KT 8000 SCT026 SCT100"
    },
    {
      "icao": "GMMN",
      "alert": "OK",
      "vis_m": 9999,
      "fzfg": false,
      "metar_trigger": false,
      "taf_trigger": false,
      "metar": "METAR GMMN 150530Z 20004KT 9999 BKN020 11/09 Q1015 NOSIG",
      "taf": "TAF GMMN 150500Z 1506/1612 20005KT 9999 BKN020"
    },
    {
      "icao": "GMMX",
      "alert": "OK",
      "vis_m": 9999,
      "fzfg": false,
      "metar_trigger": false,
      "taf_trigger": false,
      "metar": "METAR GMMX 150530Z 04003KT 010V090 9999 BKN023 15/10 Q1014 NOSIG",
      "taf": "TAF GMMX 150500Z 1506/1612 06006KT 8000 SCT023 SCT100"
    },
    {
      "icao": "HEGN",
      "alert": "OK",
      "vis_m": 9999,
      "fzfg": false,
      "metar_trigger": false,
      "taf_trigger": false,
      "metar": "METAR HEGN 150500Z 31010KT 9999 SCT025 29/02 Q1007 NOSIG",
      "taf": "TAF HEGN 150500Z 1506/1612 33012G22KT 6000 NSC"
    },
    {
      "icao": "HEMA",
      "alert": "OK",
      "vis_m": 9999,
      "fzfg": false,
      "metar_trigger": false,
      "taf_trigger": false,
      "metar": "METAR HEMA 150500Z 21005KT CAVOK 28/M08 Q1007 NOSIG",
      "taf": "TAF HEMA 150500Z 1506/1612 34012G22KT 6000 NSC"
    },
    {
      "icao": "HESH",
      "alert": "OK",
      "vis_m": 9999,
      "fzfg": false,
      "metar_trigger": false,
      "taf_trigger": false,
      "metar": "METAR HESH 150500Z 33010KT CAVOK 28/10 Q1006 NOSIG",
      "taf": "TAF HESH 150500Z 1506/1612 01014KT CAVOK"
    },
    {
      "icao": "HESX",
      "alert": "OK",
      "vis_m": 9999,
      "fzfg": false,
      "metar_trigger": false,
      "taf_trigger": false,
      "metar": "METAR HESX 150500Z 34006KT CAVOK 21/09 Q1010 NOSIG",
      "taf": "TAF HESX 150500Z 1506/1612 30010KT CAVOK"
    },
    {
      "icao": "LATI",
      "alert": "OK",
      "vis_m": 9999,
      "fzfg": false,
      "metar_trigger": false,
      "taf_trigger": false,
      "metar": "METAR LATI 150520Z 12007KT 9999 FEW020TCU SCT045 15/13 Q1008 NOSIG",
      "taf": "TAF LATI 150500Z 1506/1606 17010KT 9999 SCT030 BKN080 TX24/1511Z TN14/1602Z"
    },
    {
      "icao": "LBPD",
      "alert": "OK",
      "vis_m": 9999,
      "fzfg": false,
      "metar_trigger": false,
      "taf_trigger": false,
      "metar": "METAR LBPD 150530Z AUTO 30004KT 270V330 9999 FEW250/// 12/09 Q1008 NOSIG",
      "taf": "TAF LBPD 150500Z 1506/1606 VRB04KT 9999 SCT070"
    },
    {
      "icao": "LBSF",
      "alert": "OK",
      "vis_m": 9999,
      "fzfg": false,
      "metar_trigger": false,
      "taf_trigger": false,
      "metar": "METAR LBSF 150530Z 12003KT 9999 SCT087 10/06 Q1008 NOSIG",
      "taf": "TAF LBSF 150500Z 1506/1606 10010KT 9999 SCT060"
    },
    {
      "icao": "LBWN",
      "alert": "OK",
      "vis_m": 9999,
      "fzfg": false,
      "metar_trigger": false,
      "taf_trigger": false,
      "metar": "METAR LBWN 150530Z VRB02KT CAVOK 13/10 Q1007 NOSIG",
      "taf": "TAF LBWN 150500Z 1506/1606 VRB04KT CAVOK"
    },
    {
      "icao": "LCLK",
      "alert": "OK",
      "vis_m": 9999,
      "fzfg": false,
      "metar_trigger": false,
      "taf_trigger": false,
      "metar": "METAR LCLK 150530Z 21007KT 190V250 9999 FEW025 22/16 Q1006 NOSIG",
      "taf": "TAF LCLK 150530Z 1506/1606 23009KT 9999 FEW025"
    },
    {
      "icao": "LCPH",
      "alert": "OK",
      "vis_m": 9999,
      "fzfg": false,
      "metar_trigger": false,
      "taf_trigger": false,
      "metar": "METAR LCPH 150530Z 31013KT 9999 FEW012 SCT018 21/17 Q1007 NOSIG",
      "taf": "TAF LCPH 150530Z 1506/1606 29018KT 9999 FEW012 SCT020"
    },
    {
      "icao": "LEAL",
      "alert": "OK",
      "vis_m": 9999,
      "fzfg": false,
      "metar_trigger": false,
      "taf_trigger": false,
      "metar": "METAR LEAL 150530Z 32006KT 290V010 CAVOK 18/07 Q1004 NOSIG",
      "taf": "TAF LEAL 150500Z 1506/1606 VRB03KT CAVOK TX26/1512Z TN15/1506Z"
    },
    {
      "icao": "LEBB",
      "alert": "OK",
      "vis_m": 9999,
      "fzfg": false,
      "metar_trigger": false,
      "taf_trigger": false,
      "metar": "METAR LEBB 150530Z 31005KT 280V350 9999 FEW026 BKN035 BKN066 12/07 Q1008 TEMPO 3000 RA BKN010",
      "taf": "TAF LEBB 150500Z 1506/1606 30012KT 9999 SCT025 BKN030 TX15/1513Z TN09/1524Z"
    },
    {
      "icao": "LEBL",
      "alert": "OK",
      "vis_m": 9999,
      "fzfg": false,
      "metar_trigger": false,
      "taf_trigger": false,
      "metar": "METAR LEBL 150530Z 34008G19KT 300V010 9999 FEW045 14/06 Q1002 NOSIG",
      "taf": "TAF LEBL 150500Z 1506/1606 30005KT 9999 FEW020 TX20/1512Z TN13/1605Z"
    },
    {
      "icao": "LECH",
      "alert": "OK",
      "vis_m": 9999,
      "fzfg": false,
      "metar_trigger": false,
      "taf_trigger": false,
      "metar": "METAR LECH 150530Z AUTO 02002KT CAVOK 12/09 Q1004",
      "taf": "TAF LECH 150500Z 1506/1606 VRB03KT 9999 FEW040 TX20/1514Z TN09/1506Z"
    },
    {
      "icao": "LEMD",
      "alert": "OK",
      "vis_m": 9999,
      "fzfg": false,
      "metar_trigger": false,
      "taf_trigger": false,
      "metar": "METAR LEMD 150530Z 08003KT 010V130 CAVOK 09/03 Q1007 NOSIG",
      "taf": "TAF LEMD 150500Z 1506/1612 VRB04KT 9999 SCT030 TX17/1516Z TN05/1605Z"
    },
    {
      "icao": "LEMG",
      "alert": "OK",
      "vis_m": 9999,
      "fzfg": false,
      "metar_trigger": false,
      "taf_trigger": false,
      "metar": "METAR LEMG 150530Z 10001KT CAVOK 14/07 Q1009 NOSIG",
      "taf": "TAF LEMG 150500Z 1506/1606 VRB03KT CAVOK TX27/1514Z TN17/1506Z"
    },
    {
      "icao": "LEVC",
      "alert": "OK",
      "vis_m": 9999,
      "fzfg": false,
      "metar_trigger": false,
      "taf_trigger": false,
      "metar": "METAR LEVC 150530Z VRB02KT CAVOK 14/12 Q1004 NOSIG",
      "taf": "TAF LEVC 150500Z 1506/1606 VRB03KT 9999 FEW020 TX23/1512Z TN14/1506Z"
    },
    {
      "icao": "LEXJ",
      "alert": "OK",
      "vis_m": 4900,
      "fzfg": false,
      "metar_trigger": false,
      "taf_trigger": false,
      "metar": "METAR LEXJ 150530Z 35008KT 270V060 4900 -SHRA BR SCT023TCU BKN060 11/08 Q1009",
      "taf": ""
    },
    {
      "icao": "LEZG",
      "alert": "OK",
      "vis_m": 9999,
      "fzfg": false,
      "metar_trigger": false,
      "taf_trigger": false,
      "metar": "METAR LEZG 150530Z 31015KT 9999 FEW045 11/06 Q1006 NOSIG",
      "taf": "TAF LEZG 150500Z 1506/1606 33015KT 9999 FEW020 TX18/1518Z TN10/1605Z"
    },
    {
      "icao": "LEZL",
      "alert": "OK",
      "vis_m": 9999,
      "fzfg": false,
      "metar_trigger": false,
      "taf_trigger": false,
      "metar": "METAR LEZL 150530Z VRB01KT CAVOK 13/10 Q1010 NOSIG",
      "taf": "TAF LEZL 150200Z 1503/1603 VRB03KT CAVOK TX30/1515Z TN13/1506Z"
    },
    {
      "icao": "LFBD",
      "alert": "OK",
      "vis_m": 9999,
      "fzfg": false,
      "metar_trigger": false,
      "taf_trigger": false,
      "metar": "METAR LFBD 150530Z AUTO 30004KT CAVOK 07/07 Q1006 NOSIG",
      "taf": ""
    },
    {
      "icao": "LFLL",
      "alert": "OK",
      "vis_m": 9999,
      "fzfg": false,
      "metar_trigger": false,
      "taf_trigger": false,
      "metar": "METAR LFLL 150500Z 30006KT 9999 SCT013 BKN026 BKN033 08/06 Q1001 NOSIG",
      "taf": "TAF LFLL 150500Z 1506/1612 34008KT 9999 BKN030"
    },
    {
      "icao": "LFLS",
      "alert": "OK",
      "vis_m": 9999,
      "fzfg": false,
      "metar_trigger": false,
      "taf_trigger": false,
      "metar": "METAR LFLS 150530Z AUTO 08003KT 9999 SCT026 BKN032 OVC042 06/06 Q1001 TEMPO 4000 RADZ OVC013",
      "taf": "TAF LFLS 150200Z 1503/1603 VRB03KT 8000 -RA OVC030"
    },
    {
      "icao": "LFMN",
      "alert": "OK",
      "vis_m": 9999,
      "fzfg": false,
      "metar_trigger": false,
      "taf_trigger": false,
      "metar": "METAR LFMN 150530Z 26007KT 9999 BKN110 13/05 Q0998 NOSIG",
      "taf": "TAF LFMN 150200Z 1503/1609 26015KT CAVOK"
    },
    {
      "icao": "LFOB",
      "alert": "OK",
      "vis_m": 9999,
      "fzfg": false,
      "metar_trigger": false,
      "taf_trigger": false,
      "metar": "METAR LFOB 150530Z AUTO 30005KT 9999 FEW025 04/04 Q1005 TEMPO 4000 SHRA BKN030TCU",
      "taf": "TAF LFOB 142300Z 1500/1524 32009KT 9999 BKN025"
    },
    {
      "icao": "LFPO",
      "alert": "OK",
      "vis_m": 9999,
      "fzfg": false,
      "metar_trigger": false,
      "taf_trigger": false,
      "metar": "METAR LFPO 150530Z 33005KT CAVOK 06/05 Q1004 NOSIG",
      "taf": "TAF LFPO 150500Z 1506/1612 33005KT CAVOK"
    },
    {
      "icao": "LFSB",
      "alert": "OK",
      "vis_m": 9999,
      "fzfg": false,
      "metar_trigger": false,
      "taf_trigger": false,
      "metar": "METAR LFSB 150530Z AUTO VRB03KT 9999 FEW016/// BKN033/// OVC054/// ///TCU 07/06 Q1001 TEMPO BKN008",
      "taf": ""
    },
    {
      "icao": "LGAV",
      "alert": "OK",
      "vis_m": 9999,
      "fzfg": false,
      "metar_trigger": false,
      "taf_trigger": false,
      "metar": "METAR LGAV 150520Z 11003KT 9999 FEW025 19/10 Q1008 NOSIG",
      "taf": "TAF LGAV 150500Z 1506/1606 32010KT 9999 FEW025"
    },
    {
      "icao": "LGTS",
      "alert": "OK",
      "vis_m": 9999,
      "fzfg": false,
      "metar_trigger": false,
      "taf_trigger": false,
      "metar": "METAR LGTS 150520Z 12003KT 9999 SCT020 BKN050 16/13 Q1008 NOSIG",
      "taf": "TAF LGTS 150500Z 1506/1606 VRB03KT 9999 SCT020"
    },
    {
      "icao": "LHBP",
      "alert": "OK",
      "vis_m": 9999,
      "fzfg": false,
      "metar_trigger": false,
      "taf_trigger": false,
      "metar": "METAR LHBP 150530Z 10004KT 050V140 9999 VCSH FEW040TCU BKN100 11/09 Q1001 NOSIG",
      "taf": "TAF LHBP 150515Z 1506/1606 12005KT CAVOK"
    },
    {
      "icao": "LHDC",
      "alert": "OK",
      "vis_m": 9999,
      "fzfg": false,
      "metar_trigger": false,
      "taf_trigger": false,
      "metar": "METAR LHDC 150515Z AUTO 10004KT 050V140 CAVOK 12/07 Q1003 NOSIG",
      "taf": "TAF LHDC 150515Z 1506/1515 12004KT CAVOK"
    },
    {
      "icao": "LIBD",
      "alert": "OK",
      "vis_m": 9999,
      "fzfg": false,
      "metar_trigger": false,
      "taf_trigger": false,
      "metar": "METAR LIBD 150520Z 19007KT CAVOK 16/10 Q1004",
      "taf": "TAF LIBD 150500Z 1506/1606 20013KT 9999 FEW040"
    },
    {
      "icao": "LIBG",
      "alert": "OK",
      "vis_m": null,
      "fzfg": false,
      "metar_trigger": false,
      "taf_trigger": false,
      "metar": "",
      "taf": ""
    },
    {
      "icao": "LIBP",
      "alert": "OK",
      "vis_m": 9999,
      "fzfg": false,
      "metar_trigger": false,
      "taf_trigger": false,
      "metar": "METAR LIBP 150520Z AUTO 21009KT 9999 FEW085/// 20/09 Q1001",
      "taf": "TAF LIBP 150500Z 1506/1606 22014KT 9999 SCT070"
    },
    {
      "icao": "LIBR",
      "alert": "OK",
      "vis_m": 9999,
      "fzfg": false,
      "metar_trigger": false,
      "taf_trigger": false,
      "metar": "METAR LIBR 150520Z 20008KT CAVOK 16/13 Q1006",
      "taf": "TAF LIBR 150500Z 1506/1606 22006KT 9999 FEW040"
    },
    {
      "icao": "LICA",
      "alert": "OK",
      "vis_m": 9999,
      "fzfg": false,
      "metar_trigger": false,
      "taf_trigger": false,
      "metar": "METAR LICA 150520Z AUTO 08008KT 9999 NCD 16/14 Q1008",
      "taf": "TAF LICA 150500Z 1506/1606 08014KT 9999 SCT025"
    },
    {
      "icao": "LICC",
      "alert": "OK",
      "vis_m": 9999,
      "fzfg": false,
      "metar_trigger": false,
      "taf_trigger": false,
      "metar": "METAR LICC 150520Z 22005KT 9999 BKN100 17/11 Q1008",
      "taf": "TAF LICC 150500Z 1506/1606 27008KT 9999 SCT050"
    },
    {
      "icao": "LICJ",
      "alert": "OK",
      "vis_m": 9999,
      "fzfg": false,
      "metar_trigger": false,
      "taf_trigger": false,
      "metar": "METAR LICJ 150520Z 18010KT 150V210 CAVOK 22/08 Q1004",
      "taf": "TAF LICJ 150500Z 1506/1606 20012KT 9999 FEW040"
    },
    {
      "icao": "LIMC",
      "alert": "OK",
      "vis_m": 9999,
      "fzfg": false,
      "metar_trigger": false,
      "taf_trigger": false,
      "metar": "METAR LIMC 150520Z 02006KT 9999 FEW050 BKN070 09/08 Q0999 NOSIG",
      "taf": "TAF LIMC 150500Z 1506/1612 VRB06KT 9999 FEW020"
    },
    {
      "icao": "LIME",
      "alert": "OK",
      "vis_m": 9999,
      "fzfg": false,
      "metar_trigger": false,
      "taf_trigger": false,
      "metar": "METAR LIME 150520Z 01004KT CAVOK 09/08 Q0998 NOSIG",
      "taf": "TAF LIME 150500Z 1506/1606 VRB05KT 9999 SCT020"
    },
    {
      "icao": "LIMF",
      "alert": "OK",
      "vis_m": 9999,
      "fzfg": false,
      "metar_trigger": false,
      "taf_trigger": false,
      "metar": "METAR LIMF 150520Z 36005KT 9999 -RA SCT025 BKN050 09/07 Q0999",
      "taf": "TAF LIMF 150500Z 1506/1606 VRB05KT 9999 SCT030"
    },
    {
      "icao": "LIMJ",
      "alert": "OK",
      "vis_m": 9999,
      "fzfg": false,
      "metar_trigger": false,
      "taf_trigger": false,
      "metar": "METAR LIMJ 150520Z 18011KT 9999 SCT035 16/09 Q0997",
      "taf": "TAF LIMJ 150500Z 1506/1606 04007KT 9999 SCT040"
    },
    {
      "icao": "LIPE",
      "alert": "OK",
      "vis_m": 9999,
      "fzfg": false,
      "metar_trigger": false,
      "taf_trigger": false,
      "metar": "METAR LIPE 150520Z 11005KT 9999 FEW070 11/11 Q0999",
      "taf": "TAF LIPE 150500Z 1506/1606 VRB05KT 9999 SCT060"
    },
    {
      "icao": "LIPH",
      "alert": "OK",
      "vis_m": 2500,
      "fzfg": false,
      "metar_trigger": false,
      "taf_trigger": false,
      "metar": "METAR LIPH 150520Z 07004KT 2500 BR SCT003 11/11 Q1000",
      "taf": "TAF LIPH 150500Z 1506/1606 VRB06KT 9999 SCT010 BKN045"
    },
    {
      "icao": "LIPQ",
      "alert": "OK",
      "vis_m": 9999,
      "fzfg": false,
      "metar_trigger": false,
      "taf_trigger": false,
      "metar": "METAR LIPQ 150520Z AUTO 09004KT 9999 FEW022/// BKN072/// 11/09 Q1000",
      "taf": "TAF LIPQ 150500Z 1506/1606 19012KT 9999 SCT020 BKN060"
    },
    {
      "icao": "LIPR",
      "alert": "OK",
      "vis_m": 9999,
      "fzfg": false,
      "metar_trigger": false,
      "taf_trigger": false,
      "metar": "METAR LIPR 150520Z 20004KT 160V230 9999 FEW030 SCT070 15/10 Q1000",
      "taf": "TAF LIPR 150500Z 1506/1606 20010KT 9999 SCT060"
    },
    {
      "icao": "LIPX",
      "alert": "OK",
      "vis_m": 9999,
      "fzfg": false,
      "metar_trigger": false,
      "taf_trigger": false,
      "metar": "METAR LIPX 150520Z 05004KT 9999 BKN050 09/08 Q0999",
      "taf": "TAF LIPX 150500Z 1506/1606 VRB06KT 9999 BKN020"
    },
    {
      "icao": "LIPY",
      "alert": "OK",
      "vis_m": 9999,
      "fzfg": false,
      "metar_trigger": false,
      "taf_trigger": false,
      "metar": "METAR LIPY 150520Z AUTO 20005KT 9999 FEW120/// BKN180/// 16/10 Q1000",
      "taf": "TAF LIPY 150500Z 1506/1606 VRB05KT 9999 BKN070"
    },
    {
      "icao": "LIPZ",
      "alert": "OK",
      "vis_m": 6000,
      "fzfg": false,
      "metar_trigger": false,
      "taf_trigger": false,
      "metar": "METAR LIPZ 150520Z 03007KT 6000 1500N VCFG FEW002 SCT025 11/10 Q1000 NOSIG",
      "taf": "TAF LIPZ 150500Z 1506/1612 VRB05KT 9999 SCT020 BKN060"
    },
    {
      "icao": "LIRF",
      "alert": "OK",
      "vis_m": 9999,
      "fzfg": false,
      "metar_trigger": false,
      "taf_trigger": false,
      "metar": "METAR LIRF 150520Z 23009KT 9999 FEW030 18/12 Q1002 NOSIG",
      "taf": "TAF LIRF 150500Z 1506/1612 23014KT 9999 FEW040"
    },
    {
      "icao": "LIRN",
      "alert": "OK",
      "vis_m": 7000,
      "fzfg": false,
      "metar_trigger": false,
      "taf_trigger": false,
      "metar": "METAR LIRN 150520Z 21013KT 7000 -DZ BKN030 18/14 Q1005 NOSIG",
      "taf": "TAF LIRN 150500Z 1506/1606 21012KT 9999 BKN035"
    },
    {
      "icao": "LIRP",
      "alert": "OK",
      "vis_m": 7000,
      "fzfg": false,
      "metar_trigger": false,
      "taf_trigger": false,
      "metar": "METAR LIRP 150515Z 12005KT 7000 -RA SCT030 BKN080 12/09 Q0999 NOSIG",
      "taf": "TAF LIRP 150500Z 1506/1606 23012KT 8000 -RA FEW015 SCT025 BKN050"
    },
    {
      "icao": "LIRZ",
      "alert": "OK",
      "vis_m": 9999,
      "fzfg": false,
      "metar_trigger": false,
      "taf_trigger": false,
      "metar": "METAR LIRZ 150520Z AUTO 15007KT 9999 FEW022/// BKN067/// 15/11 Q1001",
      "taf": "TAF LIRZ 150500Z 1506/1606 VRB05KT 9999 SCT030"
    },
    {
      "icao": "LJLJ",
      "alert": "OK",
      "vis_m": 9999,
      "fzfg": false,
      "metar_trigger": false,
      "taf_trigger": false,
      "metar": "METAR LJLJ 150530Z 29003KT 9999 FEW003 SCT026 BKN033 07/07 Q1001 TEMPO SHRA",
      "taf": "TAF LJLJ 150500Z 1506/1606 32004KT 9999 SCT030 BKN050"
    },
    {
      "icao": "LKMT",
      "alert": "OK",
      "vis_m": 9999,
      "fzfg": false,
      "metar_trigger": false,
      "taf_trigger": false,
      "metar": "METAR LKMT 150530Z 31003KT 9999 BKN045 10/09 Q0999 NOSIG",
      "taf": "TAF LKMT 150500Z 1506/1606 19005KT 9999 SCT018 BKN040"
    },
    {
      "icao": "LKPR",
      "alert": "OK",
      "vis_m": 9999,
      "fzfg": false,
      "metar_trigger": false,
      "taf_trigger": false,
      "metar": "METAR LKPR 150530Z 29004KT CAVOK 07/05 Q0999 NOSIG",
      "taf": "TAF LKPR 150500Z 1506/1612 27003KT 9999 SCT040"
    },
    {
      "icao": "LLBG",
      "alert": "OK",
      "vis_m": 9999,
      "fzfg": false,
      "metar_trigger": false,
      "taf_trigger": false,
      "metar": "METAR LLBG 150520Z 23006KT CAVOK 23/15 Q1009 NOSIG",
      "taf": "TAF LLBG 150503Z 1506/1606 22008KT CAVOK TX25/1511Z TN18/1604Z"
    },
    {
      "icao": "LMML",
      "alert": "OK",
      "vis_m": 9999,
      "fzfg": false,
      "metar_trigger": false,
      "taf_trigger": false,
      "metar": "METAR LMML 150515Z 16012KT CAVOK 19/16 Q1008 NOSIG",
      "taf": "TAF LMML 150500Z 1506/1606 18015KT 9999 FEW015"
    },
    {
      "icao": "LOWW",
      "alert": "OK",
      "vis_m": 9999,
      "fzfg": false,
      "metar_trigger": false,
      "taf_trigger": false,
      "metar": "METAR LOWW 150520Z 26005KT 230V300 9999 FEW032 BKN034 10/06 Q1000 NOSIG",
      "taf": "TAF LOWW 150515Z 1506/1612 VRB03KT 9999 FEW012 BKN030 TX14/1514Z TN10/1506Z"
    },
    {
      "icao": "LPFR",
      "alert": "OK",
      "vis_m": 9999,
      "fzfg": false,
      "metar_trigger": false,
      "taf_trigger": false,
      "metar": "METAR LPFR 150530Z 33007KT 290V350 9999 FEW008 14/09 Q1012",
      "taf": "TAF LPFR 150500Z 1506/1606 33008KT CAVOK"
    },
    {
      "icao": "LPMA",
      "alert": "OK",
      "vis_m": 9999,
      "fzfg": false,
      "metar_trigger": false,
      "taf_trigger": false,
      "metar": "METAR LPMA 150530Z 01013KT 340V070 9999 BKN015 16/11 Q1021",
      "taf": "TAF LPMA 150500Z 1506/1606 01013KT 9999 SCT015"
    },
    {
      "icao": "LPPR",
      "alert": "OK",
      "vis_m": 9999,
      "fzfg": false,
      "metar_trigger": false,
      "taf_trigger": false,
      "metar": "METAR LPPR 150530Z 01007KT 340V060 9999 BKN040 12/08 Q1014",
      "taf": "TAF LPPR 150500Z 1506/1606 35007KT 9999 SCT030"
    },
    {
      "icao": "LPPS",
      "alert": "OK",
      "vis_m": 9999,
      "fzfg": false,
      "metar_trigger": false,
      "taf_trigger": false,
      "metar": "METAR LPPS 150530Z 01014KT 9999 FEW015 15/10 Q1021",
      "taf": "TAF LPPS 150500Z 1506/1612 36015KT 9999 SCT015"
    },
    {
      "icao": "LPPT",
      "alert": "OK",
      "vis_m": 9999,
      "fzfg": false,
      "metar_trigger": false,
      "taf_trigger": false,
      "metar": "METAR LPPT 150530Z 34007KT 290V030 9999 SCT022 13/09 Q1013",
      "taf": "TAF LPPT 150500Z 1506/1612 34013KT 9999 SCT030"
    },
    {
      "icao": "LQBK",
      "alert": "OK",
      "vis_m": 9999,
      "fzfg": false,
      "metar_trigger": false,
      "taf_trigger": false,
      "metar": "METAR LQBK 150530Z 07004KT 030V110 CAVOK 14/08 Q1002 NOSIG",
      "taf": "TAF LQBK 150500Z 1506/1606 16006KT CAVOK TX19/1513Z TN11/1604Z"
    },
    {
      "icao": "LQSA",
      "alert": "OK",
      "vis_m": 9999,
      "fzfg": false,
      "metar_trigger": false,
      "taf_trigger": false,
      "metar": "METAR LQSA 150530Z VRB01KT 9999 BKN055 10/08 Q1004 RERA NOSIG",
      "taf": "TAF LQSA 150500Z 1506/1606 VRB02KT 9999 BKN050 TX20/1513Z TN10/1605Z"
    },
    {
      "icao": "LQTZ",
      "alert": "OK",
      "vis_m": 9999,
      "fzfg": false,
      "metar_trigger": false,
      "taf_trigger": false,
      "metar": "METAR LQTZ 150530Z 10004KT 080V160 CAVOK 11/10 Q1003",
      "taf": "TAF LQTZ 150500Z 1506/1606 12006KT CAVOK TX22/1513Z TN09/1603Z"
    },
    {
      "icao": "LRBC",
      "alert": "OK",
      "vis_m": 9999,
      "fzfg": false,
      "metar_trigger": false,
      "taf_trigger": false,
      "metar": "METAR LRBC 150530Z VRB01KT CAVOK 12/08 Q1006",
      "taf": "TAF LRBC 150500Z 1506/1515 VRB04KT CAVOK"
    },
    {
      "icao": "LRBS",
      "alert": "OK",
      "vis_m": 9999,
      "fzfg": false,
      "metar_trigger": false,
      "taf_trigger": false,
      "metar": "METAR LRBS 150530Z VRB01KT CAVOK 14/08 Q1007 NOSIG",
      "taf": "TAF LRBS 150500Z 1506/1606 VRB04KT CAVOK"
    },
    {
      "icao": "LRBV",
      "alert": "OK",
      "vis_m": 9999,
      "fzfg": false,
      "metar_trigger": false,
      "taf_trigger": false,
      "metar": "METAR LRBV 150530Z VRB03KT CAVOK 08/05 Q1006",
      "taf": "TAF LRBV 150500Z 1506/1515 VRB04KT CAVOK"
    },
    {
      "icao": "LRCL",
      "alert": "OK",
      "vis_m": 9999,
      "fzfg": false,
      "metar_trigger": false,
      "taf_trigger": false,
      "metar": "METAR LRCL 150530Z AUTO VRB01KT 9999 NCD 08/06 Q1005",
      "taf": "TAF LRCL 150500Z 1506/1515 VRB04KT CAVOK"
    },
    {
      "icao": "LRCV",
      "alert": "OK",
      "vis_m": 9999,
      "fzfg": false,
      "metar_trigger": false,
      "taf_trigger": false,
      "metar": "METAR LRCV 150530Z 07006KT CAVOK 12/09 Q1006",
      "taf": "TAF LRCV 150500Z 1506/1515 07005KT CAVOK"
    },
    {
      "icao": "LRIA",
      "alert": "OK",
      "vis_m": 9999,
      "fzfg": false,
      "metar_trigger": false,
      "taf_trigger": false,
      "metar": "METAR LRIA 150530Z 12004KT CAVOK 12/05 Q1006",
      "taf": "TAF LRIA 150500Z 1506/1515 VRB04KT CAVOK"
    },
    {
      "icao": "LROP",
      "alert": "OK",
      "vis_m": 9999,
      "fzfg": false,
      "metar_trigger": false,
      "taf_trigger": false,
      "metar": "METAR LROP 150530Z VRB01KT CAVOK 14/10 Q1007 NOSIG",
      "taf": "TAF LROP 150500Z 1506/1606 VRB04KT CAVOK"
    },
    {
      "icao": "LRSB",
      "alert": "OK",
      "vis_m": 9999,
      "fzfg": false,
      "metar_trigger": false,
      "taf_trigger": false,
      "metar": "METAR LRSB 150530Z VRB02KT CAVOK 11/07 Q1005 NOSIG",
      "taf": "TAF LRSB 150500Z 1506/1606 VRB04KT CAVOK"
    },
    {
      "icao": "LRSM",
      "alert": "OK",
      "vis_m": 9999,
      "fzfg": false,
      "metar_trigger": false,
      "taf_trigger": false,
      "metar": "METAR LRSM 150530Z 15004KT 100V200 CAVOK 16/06 Q1004",
      "taf": "TAF LRSM 150500Z 1506/1515 12006KT CAVOK"
    },
    {
      "icao": "LRSV",
      "alert": "OK",
      "vis_m": 9999,
      "fzfg": false,
      "metar_trigger": false,
      "taf_trigger": false,
      "metar": "METAR LRSV 150530Z 22004KT CAVOK 11/07 Q1005",
      "taf": "TAF LRSV 150500Z 1506/1515 19006KT CAVOK"
    },
    {
      "icao": "LRTM",
      "alert": "OK",
      "vis_m": 9999,
      "fzfg": false,
      "metar_trigger": false,
      "taf_trigger": false,
      "metar": "METAR LRTM 150530Z 06006KT CAVOK 09/07 Q1006",
      "taf": "TAF LRTM 150500Z 1506/1515 07006KT CAVOK"
    },
    {
      "icao": "LRTR",
      "alert": "OK",
      "vis_m": 9999,
      "fzfg": false,
      "metar_trigger": false,
      "taf_trigger": false,
      "metar": "METAR LRTR 150530Z 11008KT 9999 FEW050CB 13/09 Q1004",
      "taf": "TAF LRTR 150500Z 1506/1606 12009KT 9999 FEW050CB"
    },
    {
      "icao": "LTAC",
      "alert": "OK",
      "vis_m": 9999,
      "fzfg": false,
      "metar_trigger": false,
      "taf_trigger": false,
      "metar": "METAR LTAC 150520Z 31004KT 270V330 9999 SCT035 BKN080 10/07 Q1007 NOSIG RMK RWY21C 31006KT 240V330 RWY03L 28003KT 250V310 RWY21R 30005KT 250V320 RWY03R 27006KT RWY21L 00000KT",
      "taf": "TAF LTAC 150440Z 1506/1606 VRB02KT 9999 SCT040 SCT100"
    },
    {
      "icao": "LTFM",
      "alert": "OK",
      "vis_m": 9999,
      "fzfg": false,
      "metar_trigger": false,
      "taf_trigger": false,
      "metar": "METAR LTFM 150520Z 16003KT 120V230 CAVOK 14/09 Q1008 NOSIG RMK RWY17L 12003KT 080V140 RWY34L 16003KT RWY16R VRB03KT RWY36 VRB04KT RWY18 VRB03KT",
      "taf": "TAF LTFM 150440Z 1506/1612 VRB02KT CAVOK"
    },
    {
      "icao": "LUKK",
      "alert": "OK",
      "vis_m": 9999,
      "fzfg": false,
      "metar_trigger": false,
      "taf_trigger": false,
      "metar": "METAR LUKK 150530Z 00000KT CAVOK 12/06 Q1006 NOSIG",
      "taf": "TAF LUKK 150509Z 1506/1606 VRB06KT CAVOK"
    },
    {
      "icao": "LWOH",
      "alert": "OK",
      "vis_m": 9999,
      "fzfg": false,
      "metar_trigger": false,
      "taf_trigger": false,
      "metar": "METAR LWOH 150520Z VRB02KT 9999 FEW020 BKN040 11/09 Q1009",
      "taf": "TAF LWOH 150510Z 1506/1606 16008KT 9999 SCT030"
    },
    {
      "icao": "LWSK",
      "alert": "OK",
      "vis_m": 9999,
      "fzfg": false,
      "metar_trigger": false,
      "taf_trigger": false,
      "metar": "METAR LWSK 150520Z VRB01KT 9999 FEW068 14/08 Q1007 NOSIG",
      "taf": "TAF LWSK 150510Z 1506/1606 VRB02KT 9999 FEW080"
    },
    {
      "icao": "LYBE",
      "alert": "OK",
      "vis_m": 9999,
      "fzfg": false,
      "metar_trigger": false,
      "taf_trigger": false,
      "metar": "METAR LYBE 150530Z 14005KT CAVOK 16/07 Q1004 NOSIG",
      "taf": "TAF LYBE 150500Z 1506/1606 19008KT CAVOK TX23/1513Z TN14/1604Z"
    },
    {
      "icao": "LYNI",
      "alert": "OK",
      "vis_m": 9999,
      "fzfg": false,
      "metar_trigger": false,
      "taf_trigger": false,
      "metar": "METAR LYNI 150530Z VRB02KT CAVOK 14/08 Q1006 NOSIG",
      "taf": "TAF LYNI 150500Z 1506/1606 19010KT 9999 SCT080 TX26/1513Z TN10/1604Z"
    },
    {
      "icao": "LYPG",
      "alert": "OK",
      "vis_m": 9999,
      "fzfg": false,
      "metar_trigger": false,
      "taf_trigger": false,
      "metar": "METAR LYPG 150530Z 00000KT 9999 FEW007 FEW025TCU BKN034 14/14 Q1007 NOSIG",
      "taf": "TAF LYPG 150500Z 1506/1606 16008KT 9999 BKN040 TX22/1513Z TN14/1604Z"
    },
    {
      "icao": "LZIB",
      "alert": "OK",
      "vis_m": 9999,
      "fzfg": false,
      "metar_trigger": false,
      "taf_trigger": false,
      "metar": "METAR LZIB 150530Z 17006KT 9999 FEW005 SCT010 BKN017 11/09 Q1000 NOSIG",
      "taf": "TAF LZIB 150515Z 1506/1606 21005KT 9999 BKN040"
    },
    {
      "icao": "LZKZ",
      "alert": "OK",
      "vis_m": 9999,
      "fzfg": false,
      "metar_trigger": false,
      "taf_trigger": false,
      "metar": "METAR LZKZ 150530Z 36006KT CAVOK 11/05 Q1003 NOSIG",
      "taf": "TAF LZKZ 150515Z 1506/1606 VRB02KT CAVOK"
    },
    {
      "icao": "LZTT",
      "alert": "OK",
      "vis_m": 9999,
      "fzfg": false,
      "metar_trigger": false,
      "taf_trigger": false,
      "metar": "METAR LZTT 150530Z VRB02KT 9999 FEW046 BKN063 08/05 Q1002 NOSIG",
      "taf": "TAF LZTT 150515Z 1506/1606 VRB02KT 9999 FEW050"
    },
    {
      "icao": "OEJN",
      "alert": "OK",
      "vis_m": 9999,
      "fzfg": false,
      "metar_trigger": false,
      "taf_trigger": false,
      "metar": "METAR OEJN 150500Z 33004KT CAVOK 29/22 Q1005 NOSIG",
      "taf": "TAF OEJN 150500Z 1506/1612 34012KT CAVOK"
    },
    {
      "icao": "OEMA",
      "alert": "OK",
      "vis_m": 9999,
      "fzfg": false,
      "metar_trigger": false,
      "taf_trigger": false,
      "metar": "METAR OEMA 150500Z 03007KT CAVOK 31/M04 Q1012 NOSIG",
      "taf": "TAF OEMA 150500Z 1506/1612 32010KT 7000 NSC"
    },
    {
      "icao": "OJAI",
      "alert": "OK",
      "vis_m": 4000,
      "fzfg": false,
      "metar_trigger": false,
      "taf_trigger": false,
      "metar": "METAR OJAI 150500Z 16003KT 4000 HZ NSC 20/01 Q1011 NOSIG",
      "taf": "TAF OJAI 150500Z 1506/1612 28011KT 4000 HZ NSC"
    },
    {
      "icao": "OMAA",
      "alert": "OK",
      "vis_m": 9999,
      "fzfg": false,
      "metar_trigger": false,
      "taf_trigger": false,
      "metar": "METAR OMAA 150530Z 28015KT CAVOK 33/18 Q1004 NOSIG",
      "taf": "TAF OMAA 150500Z 1506/1612 31015KT 8000 NSC"
    },
    {
      "icao": "OMDB",
      "alert": "OK",
      "vis_m": 7000,
      "fzfg": false,
      "metar_trigger": false,
      "taf_trigger": false,
      "metar": "METAR OMDB 150530Z 19007KT 150V230 7000 NSC 33/19 Q1003 BECMG 28013KT",
      "taf": "TAF OMDB 150500Z 1506/1612 27014KT 8000 NSC"
    },
    {
      "icao": "UAAA",
      "alert": "OK",
      "vis_m": 9999,
      "fzfg": false,
      "metar_trigger": false,
      "taf_trigger": false,
      "metar": "METAR UAAA 150500Z 02002MPS 250V060 9999 NSC 16/02 Q1018 NOSIG",
      "taf": "TAF UAAA 150503Z 1506/1606 04002G07MPS 9999 FEW050CB SCT100 TX22/1506Z TN06/1601Z"
    },
    {
      "icao": "UBBB",
      "alert": "OK",
      "vis_m": 9999,
      "fzfg": false,
      "metar_trigger": false,
      "taf_trigger": false,
      "metar": "METAR UBBB 150530Z 18010KT 9999 FEW013 21/16 Q1002 NOSIG",
      "taf": "TAF UBBB 150505Z 1506/1606 15010KT 9999 FEW020 TX25/1510Z TN15/1600Z"
    },
    {
      "icao": "UDSG",
      "alert": "OK",
      "vis_m": 7000,
      "fzfg": false,
      "metar_trigger": false,
      "taf_trigger": false,
      "metar": "METAR UDSG 150500Z 01004KT 270V070 7000 -SHRA BKN033CB 08/07 Q1010 NOSIG",
      "taf": "TAF UDSG 150458Z 1506/1606 24008KT 9999 BKN040"
    },
    {
      "icao": "UDYZ",
      "alert": "OK",
      "vis_m": 8000,
      "fzfg": false,
      "metar_trigger": false,
      "taf_trigger": false,
      "metar": "METAR UDYZ 150500Z 28012KT 250V320 8000 -SHRA OVC043CB 15/12 Q1007 NOSIG",
      "taf": "TAF UDYZ 150500Z 1506/1606 24006KT 6000 BKN040"
    },
    {
      "icao": "UGKO",
      "alert": "OK",
      "vis_m": 9999,
      "fzfg": false,
      "metar_trigger": false,
      "taf_trigger": false,
      "metar": "METAR UGKO 150530Z 26013KT 9999 SCT010 OVC019 16/15 Q1002 NOSIG",
      "taf": "TAF UGKO 150500Z 1506/1606 26010KT 9999 BKN050 TX18/1506Z TN12/1602Z"
    }
  ]
}