{
  "ts_utc": "2026-01-11T21:20:18Z",
  "threshold_m": 150,
  "source": "stations_override.txt (ICAO list) + aviationweather.gov (METAR/TAF raw)",
  "station_count": 159,
  "stations": [
    {
      "icao": "BIKF",
      "alert": "OK",
      "vis_m": 9999,
      "fzfg": false,
      "metar_trigger": false,
      "taf_trigger": false,
      "metar": "METAR BIKF 112100Z 03017KT CAVOK M01/M06 Q0993",
      "taf": "TAF BIKF 111955Z 1121/1221 02022KT 9999 FEW030 TX00/1203Z TNM03/1218Z"
    },
    {
      "icao": "BKPR",
      "alert": "OK",
      "vis_m": 9999,
      "fzfg": false,
      "metar_trigger": false,
      "taf_trigger": false,
      "metar": "METAR BKPR 112100Z 32005KT 9999 BKN055 M06/M09 Q1019 NOSIG",
      "taf": ""
    },
    {
      "icao": "EBCI",
      "alert": "OK",
      "vis_m": 9999,
      "fzfg": false,
      "metar_trigger": false,
      "taf_trigger": false,
      "metar": "METAR EBCI 112050Z 17015KT 9999 FEW014 01/M02 Q1016 NOSIG",
      "taf": "TAF EBCI 111700Z 1118/1224 17012KT 9999 BKN014"
    },
    {
      "icao": "EDDB",
      "alert": "OK",
      "vis_m": 9999,
      "fzfg": false,
      "metar_trigger": false,
      "taf_trigger": false,
      "metar": "METAR EDDB 112050Z AUTO 24006KT CAVOK M10/M11 Q1023 NOSIG",
      "taf": "TAF EDDB 111700Z 1118/1218 28009KT CAVOK"
    },
    {
      "icao": "EDDH",
      "alert": "OK",
      "vis_m": 9999,
      "fzfg": false,
      "metar_trigger": false,
      "taf_trigger": false,
      "metar": "METAR EDDH 112050Z AUTO 11004KT CAVOK M08/M09 Q1021 NOSIG",
      "taf": "TAF EDDH 111700Z 1118/1224 VRB03KT 6000 NSC"
    },
    {
      "icao": "EDDK",
      "alert": "OK",
      "vis_m": 9999,
      "fzfg": false,
      "metar_trigger": false,
      "taf_trigger": false,
      "metar": "METAR EDDK 112050Z AUTO 13009KT 100V160 9999 OVC019 M00/M03 Q1021 NOSIG",
      "taf": "TAF EDDK 111700Z 1118/1224 14009KT 9999 BKN020"
    },
    {
      "icao": "EDDN",
      "alert": "OK",
      "vis_m": 9999,
      "fzfg": false,
      "metar_trigger": false,
      "taf_trigger": false,
      "metar": "METAR EDDN 112050Z AUTO VRB02KT 9999 OVC014 M06/M08 Q1024 NOSIG",
      "taf": ""
    },
    {
      "icao": "EDDS",
      "alert": "OK",
      "vis_m": 9999,
      "fzfg": false,
      "metar_trigger": false,
      "taf_trigger": false,
      "metar": "METAR EDDS 112050Z AUTO VRB02KT CAVOK M03/M05 Q1022 NOSIG",
      "taf": "TAF EDDS 111700Z 1118/1218 18004KT 9999 BKN020"
    },
    {
      "icao": "EDFH",
      "alert": "OK",
      "vis_m": 8000,
      "fzfg": false,
      "metar_trigger": false,
      "taf_trigger": false,
      "metar": "METAR EDFH 112050Z 18009KT 8000 BKN004 M03/M04 Q1020",
      "taf": "TAF EDFH 111700Z 1118/1218 16008KT 8000 BKN005"
    },
    {
      "icao": "EDJA",
      "alert": "OK",
      "vis_m": 9999,
      "fzfg": false,
      "metar_trigger": false,
      "taf_trigger": false,
      "metar": "METAR EDJA 112050Z 15003KT CAVOK M09/M10 Q1022",
      "taf": "TAF EDJA 111700Z 1118/1203 19004KT CAVOK"
    },
    {
      "icao": "EDLW",
      "alert": "OK",
      "vis_m": 9999,
      "fzfg": false,
      "metar_trigger": false,
      "taf_trigger": false,
      "metar": "METAR EDLW 112050Z 16009KT CAVOK M01/M04 Q1019",
      "taf": "TAF EDLW 111700Z 1118/1218 17008KT 9999 FEW015"
    },
    {
      "icao": "EDNY",
      "alert": "OK",
      "vis_m": 9999,
      "fzfg": false,
      "metar_trigger": false,
      "taf_trigger": false,
      "metar": "METAR EDNY 112050Z AUTO 05005KT 9999 // FEW240/// M03/M04 Q1023",
      "taf": "TAF EDNY 111700Z 1118/1203 06003KT 9999 BKN020"
    },
    {
      "icao": "EDSB",
      "alert": "OK",
      "vis_m": 6000,
      "fzfg": false,
      "metar_trigger": false,
      "taf_trigger": false,
      "metar": "METAR EDSB 112050Z 07003KT 6000 BCFG SCT025 M02/M02 Q1023",
      "taf": "TAF EDSB 111700Z 1118/1218 08004KT 9999 BKN025"
    },
    {
      "icao": "EETN",
      "alert": "OK",
      "vis_m": 4500,
      "fzfg": false,
      "metar_trigger": false,
      "taf_trigger": false,
      "metar": "METAR EETN 112050Z 08007KT 4500 SN SCT018 BKN030 OVC043 M05/M06 Q1013 TEMPO 2000",
      "taf": "TAF EETN 111730Z 1118/1218 03012KT 5000 SN SCT015 OVC020"
    },
    {
      "icao": "EFTU",
      "alert": "OK",
      "vis_m": 9999,
      "fzfg": false,
      "metar_trigger": false,
      "taf_trigger": false,
      "metar": "METAR EFTU 112050Z AUTO 04007KT 9999 -SHSN SCT036 M07/M09 Q1017",
      "taf": "TAF EFTU 112032Z 1121/1221 03007KT 9999 -SN SCT025"
    },
    {
      "icao": "EGBB",
      "alert": "OK",
      "vis_m": 2100,
      "fzfg": false,
      "metar_trigger": false,
      "taf_trigger": false,
      "metar": "METAR EGBB 112050Z 17014KT 2100 RA OVC006 10/08 Q0997 REDZ",
      "taf": "TAF EGBB 111703Z 1118/1218 17015KT 9999 -RA BKN010"
    },
    {
      "icao": "EGGP",
      "alert": "OK",
      "vis_m": 9999,
      "fzfg": false,
      "metar_trigger": false,
      "taf_trigger": false,
      "metar": "METAR EGGP 112050Z 19009KT 9999 -RA FEW010 SCT024 BKN038 09/08 Q0993 RERA",
      "taf": ""
    },
    {
      "icao": "EGGW",
      "alert": "OK",
      "vis_m": 4700,
      "fzfg": false,
      "metar_trigger": false,
      "taf_trigger": false,
      "metar": "METAR EGGW 112050Z AUTO 18012KT 150V210 4700 -RA OVC003 07/07 Q1002 RERA",
      "taf": ""
    },
    {
      "icao": "EGKK",
      "alert": "OK",
      "vis_m": 6000,
      "fzfg": false,
      "metar_trigger": false,
      "taf_trigger": false,
      "metar": "METAR EGKK 112050Z 18015G27KT 6000 -RADZ BKN006 08/08 Q1005",
      "taf": "TAF EGKK 111657Z 1118/1224 16013KT 9999 BKN010"
    },
    {
      "icao": "EGNM",
      "alert": "OK",
      "vis_m": 9000,
      "fzfg": false,
      "metar_trigger": false,
      "taf_trigger": false,
      "metar": "METAR EGNM 112050Z 16016G27KT 9000 -RADZ OVC007 07/07 Q0993",
      "taf": "TAF EGNM 111657Z 1118/1218 15015G28KT 9999 BKN006"
    },
    {
      "icao": "EGPD",
      "alert": "OK",
      "vis_m": 9000,
      "fzfg": false,
      "metar_trigger": false,
      "taf_trigger": false,
      "metar": "METAR EGPD 112050Z COR AUTO 16025G35KT 9000 OVC006 06/05 Q0985 NOSIG",
      "taf": "TAF EGPD 111703Z 1118/1218 16020G32KT 9999 BKN010"
    },
    {
      "icao": "EGPF",
      "alert": "OK",
      "vis_m": 7000,
      "fzfg": false,
      "metar_trigger": false,
      "taf_trigger": false,
      "metar": "METAR EGPF 112050Z AUTO 16020KT 7000 -RA SCT026/// BKN032/// BKN038/// //////TCU 10/08 Q0981",
      "taf": "TAF EGPF 111702Z 1118/1218 15015G25KT 9999 FEW015 SCT030"
    },
    {
      "icao": "EHBK",
      "alert": "OK",
      "vis_m": 9999,
      "fzfg": false,
      "metar_trigger": false,
      "taf_trigger": false,
      "metar": "METAR EHBK 112055Z AUTO 18011KT 9999 NSC 00/M03 Q1018 NOSIG",
      "taf": "TAF EHBK 111712Z 1118/1224 18008KT 9999 BKN016"
    },
    {
      "icao": "EHEH",
      "alert": "OK",
      "vis_m": 9999,
      "fzfg": false,
      "metar_trigger": false,
      "taf_trigger": false,
      "metar": "METAR EHEH 112055Z AUTO 16012KT 140V200 9999 OVC086 01/M02 Q1017 BLU NOSIG RMK TREND REMOTE BY EHWX",
      "taf": "TAF EHEH 111730Z 1118/1224 17010KT 9999 BKN012"
    },
    {
      "icao": "EKBI",
      "alert": "OK",
      "vis_m": 9999,
      "fzfg": false,
      "metar_trigger": false,
      "taf_trigger": false,
      "metar": "METAR EKBI 112050Z AUTO 13006KT 9999 BKN130/// M05/M06 Q1020",
      "taf": "TAF EKBI 112027Z 1121/1221 12008KT CAVOK"
    },
    {
      "icao": "EKCH",
      "alert": "OK",
      "vis_m": 9999,
      "fzfg": false,
      "metar_trigger": false,
      "taf_trigger": false,
      "metar": "METAR EKCH 112050Z AUTO 28004KT 250V350 9999 NCD M07/M10 Q1022 NOSIG",
      "taf": "TAF EKCH 112027Z 1121/1221 33010KT CAVOK"
    },
    {
      "icao": "ENAL",
      "alert": "OK",
      "vis_m": 9999,
      "fzfg": false,
      "metar_trigger": false,
      "taf_trigger": false,
      "metar": "METAR ENAL 112050Z 15007KT CAVOK 04/M09 Q1005",
      "taf": "TAF ENAL 112000Z 1121/1206 12015KT CAVOK"
    },
    {
      "icao": "ENBR",
      "alert": "OK",
      "vis_m": 9999,
      "fzfg": false,
      "metar_trigger": false,
      "taf_trigger": false,
      "metar": "METAR ENBR 112050Z 14023G35KT 9999 SQ SCT035 SCT049 03/M10 Q1007 RMK WIND 1200FT 14044G57KT",
      "taf": "TAF ENBR 111700Z 1118/1218 13022KT 9999 SCT045"
    },
    {
      "icao": "ENGM",
      "alert": "OK",
      "vis_m": 9999,
      "fzfg": false,
      "metar_trigger": false,
      "taf_trigger": false,
      "metar": "METAR ENGM 112050Z 33003KT 9999 BKN003 M18/M21 Q1021 NOSIG",
      "taf": ""
    },
    {
      "icao": "ENHD",
      "alert": "OK",
      "vis_m": 9999,
      "fzfg": false,
      "metar_trigger": false,
      "taf_trigger": false,
      "metar": "METAR ENHD 112050Z 14025G38KT 9999 BKN045 02/M07 Q1007 RESN",
      "taf": "TAF ENHD 111400Z 1115/1123 14025KT 9999 BKN040"
    },
    {
      "icao": "ENTC",
      "alert": "OK",
      "vis_m": 9999,
      "fzfg": false,
      "metar_trigger": false,
      "taf_trigger": false,
      "metar": "METAR ENTC 112050Z 15002KT CAVOK M09/M11 Q1020 NOSIG RMK WIND 2600FT 17020KT",
      "taf": "TAF ENTC 111700Z 1118/1218 20005KT CAVOK"
    },
    {
      "icao": "ENTO",
      "alert": "OK",
      "vis_m": 9999,
      "fzfg": false,
      "metar_trigger": false,
      "taf_trigger": false,
      "metar": "METAR ENTO 112050Z 36007KT 9999 OVC004 M13/M15 Q1021 NOSIG",
      "taf": ""
    },
    {
      "icao": "ENVA",
      "alert": "OK",
      "vis_m": 9999,
      "fzfg": false,
      "metar_trigger": false,
      "taf_trigger": false,
      "metar": "METAR ENVA 112050Z 07010KT CAVOK M01/M13 Q1015 RMK WIND 670FT 12018G28KT",
      "taf": "TAF ENVA 111700Z 1118/1218 10008KT CAVOK"
    },
    {
      "icao": "ENZV",
      "alert": "OK",
      "vis_m": 9999,
      "fzfg": false,
      "metar_trigger": false,
      "taf_trigger": false,
      "metar": "METAR ENZV 112050Z 14028G40KT CAVOK 01/M08 Q1009 NOSIG",
      "taf": "TAF ENZV 111700Z 1118/1218 14022G35KT 9999 SCT045"
    },
    {
      "icao": "EPGD",
      "alert": "OK",
      "vis_m": 1400,
      "fzfg": false,
      "metar_trigger": false,
      "taf_trigger": false,
      "metar": "METAR EPGD 112100Z 32006KT 290V010 1400 R29/P2000N SHSN FEW010 SCT020CB M02/M04 Q1012 RESHSN",
      "taf": "TAF EPGD 111730Z 1118/1218 33012KT 9999 SCT015"
    },
    {
      "icao": "EPKK",
      "alert": "OK",
      "vis_m": 6000,
      "fzfg": false,
      "metar_trigger": false,
      "taf_trigger": false,
      "metar": "METAR EPKK 112100Z 28018KT 6000 -SN DRSN BKN015 M05/M08 Q1015",
      "taf": "TAF EPKK 112030Z 1121/1221 27015KT 6000 -SN BKN020"
    },
    {
      "icao": "EPKT",
      "alert": "OK",
      "vis_m": 3000,
      "fzfg": false,
      "metar_trigger": false,
      "taf_trigger": false,
      "metar": "METAR EPKT 112100Z 28014KT 3000 SN DRSN FEW008 BKN013 M06/M07 Q1015",
      "taf": ""
    },
    {
      "icao": "EPLB",
      "alert": "OK",
      "vis_m": 8000,
      "fzfg": false,
      "metar_trigger": false,
      "taf_trigger": false,
      "metar": "METAR EPLB 112100Z 27004KT 8000 -SN FEW010 OVC043 M05/M06 Q1009",
      "taf": "TAF EPLB 111730Z 1118/1218 30008KT 8000 -SN BKN020"
    },
    {
      "icao": "EPMO",
      "alert": "OK",
      "vis_m": 9999,
      "fzfg": false,
      "metar_trigger": false,
      "taf_trigger": false,
      "metar": "METAR EPMO 112100Z 31007KT 9999 -SN SCT030 BKN040 M04/M04 Q1011",
      "taf": "TAF EPMO 111730Z 1118/1218 30006KT 7000 -SN SCT009 BKN015"
    },
    {
      "icao": "EPPO",
      "alert": "OK",
      "vis_m": 9999,
      "fzfg": false,
      "metar_trigger": false,
      "taf_trigger": false,
      "metar": "METAR EPPO 112100Z 29011KT 9999 BKN039 M03/M07 Q1017",
      "taf": "TAF EPPO 111730Z 1118/1218 30012KT 9999 BKN020"
    },
    {
      "icao": "EPRA",
      "alert": "OK",
      "vis_m": 8000,
      "fzfg": false,
      "metar_trigger": false,
      "taf_trigger": false,
      "metar": "METAR EPRA 112100Z 31013KT 270V330 8000 -SN BKN009 OVC014 M02/M04 Q1009",
      "taf": "TAF EPRA 112030Z 1121/1206 28010KT 7000 -SN BKN016 OVC027"
    },
    {
      "icao": "EPRZ",
      "alert": "OK",
      "vis_m": 7000,
      "fzfg": false,
      "metar_trigger": false,
      "taf_trigger": false,
      "metar": "METAR EPRZ 112100Z 27018KT 7000 -SN FEW003 OVC017 M04/M05 Q1011",
      "taf": "TAF EPRZ 111730Z 1118/1218 28012KT 3000 -SN BR BKN014"
    },
    {
      "icao": "EPSC",
      "alert": "OK",
      "vis_m": 9999,
      "fzfg": false,
      "metar_trigger": false,
      "taf_trigger": false,
      "metar": "METAR EPSC 112100Z 28008KT CAVOK M08/M09 Q1019",
      "taf": "TAF EPSC 111730Z 1118/1218 28010KT CAVOK"
    },
    {
      "icao": "EPSY",
      "alert": "OK",
      "vis_m": 9999,
      "fzfg": false,
      "metar_trigger": false,
      "taf_trigger": false,
      "metar": "METAR EPSY 112100Z 34008KT 9999 -SN BKN013 BKN020 M05/M07 Q1010",
      "taf": "TAF EPSY 112030Z 1121/1206 35005KT 9999 BKN014"
    },
    {
      "icao": "EPWA",
      "alert": "OK",
      "vis_m": 9999,
      "fzfg": false,
      "metar_trigger": false,
      "taf_trigger": false,
      "metar": "METAR EPWA 112100Z 30008KT 9999 -SN FEW007 BKN047 M03/M04 Q1010 NOSIG",
      "taf": "TAF EPWA 112030Z 1121/1221 31008KT 9999 -SN SCT012 BKN016"
    },
    {
      "icao": "EPWR",
      "alert": "OK",
      "vis_m": 9999,
      "fzfg": false,
      "metar_trigger": false,
      "taf_trigger": false,
      "metar": "METAR EPWR 112100Z 29018KT 9999 DRSN BKN037 M05/M08 Q1019",
      "taf": "TAF EPWR 112030Z 1121/1221 28018KT 9999 BKN040"
    },
    {
      "icao": "ESGG",
      "alert": "OK",
      "vis_m": 9999,
      "fzfg": false,
      "metar_trigger": false,
      "taf_trigger": false,
      "metar": "METAR ESGG 112050Z 09003KT CAVOK M13/M14 Q1020",
      "taf": "TAF ESGG 112030Z 1121/1221 VRB02KT CAVOK"
    },
    {
      "icao": "ESKN",
      "alert": "OK",
      "vis_m": 9999,
      "fzfg": false,
      "metar_trigger": false,
      "taf_trigger": false,
      "metar": "METAR ESKN 112050Z 32008KT 9999 OVC030 M08/M10 Q1018",
      "taf": "TAF ESKN 112030Z 1121/1221 33012KT 9999 BKN025"
    },
    {
      "icao": "ESMS",
      "alert": "OK",
      "vis_m": 9999,
      "fzfg": false,
      "metar_trigger": false,
      "taf_trigger": false,
      "metar": "METAR ESMS 112050Z VRB03KT CAVOK M12/M14 Q1020",
      "taf": "TAF ESMS 112027Z 1121/1221 VRB04KT CAVOK"
    },
    {
      "icao": "ESSA",
      "alert": "OK",
      "vis_m": 9999,
      "fzfg": false,
      "metar_trigger": false,
      "taf_trigger": false,
      "metar": "METAR ESSA 112050Z 32008KT 9999 BKN019 M05/M07 Q1017 NOSIG",
      "taf": "TAF ESSA 112030Z 1121/1221 32012KT 9999 -SN BKN017"
    },
    {
      "icao": "EYKA",
      "alert": "OK",
      "vis_m": 9000,
      "fzfg": false,
      "metar_trigger": false,
      "taf_trigger": false,
      "metar": "METAR EYKA 112050Z 35004KT 310V010 9000 -SN NSC M10/M12 Q1010",
      "taf": "TAF EYKA 111706Z 1118/1218 VRB04KT 5000 BR SCT010 BKN015"
    },
    {
      "icao": "EYPA",
      "alert": "OK",
      "vis_m": 9999,
      "fzfg": false,
      "metar_trigger": false,
      "taf_trigger": false,
      "metar": "METAR EYPA 112050Z 02003KT CAVOK M07/M09 Q1012",
      "taf": "TAF EYPA 111704Z 1118/1218 VRB05KT 5000 BR SCT015"
    },
    {
      "icao": "EYVI",
      "alert": "OK",
      "vis_m": 6000,
      "fzfg": false,
      "metar_trigger": false,
      "taf_trigger": false,
      "metar": "METAR EYVI 112050Z 32003KT 6000 -SN BKN027 BKN039 M14/M16 Q1008 TEMPO 3000 SN",
      "taf": "TAF EYVI 111707Z 1118/1218 VRB04KT 5000 BR SCT010 BKN015"
    },
    {
      "icao": "GCFV",
      "alert": "OK",
      "vis_m": 9999,
      "fzfg": false,
      "metar_trigger": false,
      "taf_trigger": false,
      "metar": "METAR GCFV 112100Z 04009KT 9999 SCT020 17/13 Q1024",
      "taf": "TAF GCFV 112000Z 1121/1221 03006KT 9999 FEW020 TX21/1214Z TN14/1206Z"
    },
    {
      "icao": "GCLP",
      "alert": "OK",
      "vis_m": 9999,
      "fzfg": false,
      "metar_trigger": false,
      "taf_trigger": false,
      "metar": "METAR GCLP 112100Z 34006KT 9999 SCT027 17/12 Q1024 NOSIG",
      "taf": "TAF GCLP 112000Z 1121/1221 33007KT 9999 SCT025 TX21/1214Z TN15/1206Z"
    },
    {
      "icao": "GCTS",
      "alert": "OK",
      "vis_m": 9999,
      "fzfg": false,
      "metar_trigger": false,
      "taf_trigger": false,
      "metar": "METAR GCTS 112100Z 05009KT 9999 FEW035 17/12 Q1024 NOSIG",
      "taf": "TAF GCTS 112000Z 1121/1221 03008KT 9999 FEW030 TX23/1214Z TN16/1206Z"
    },
    {
      "icao": "GMAD",
      "alert": "OK",
      "vis_m": 9999,
      "fzfg": false,
      "metar_trigger": false,
      "taf_trigger": false,
      "metar": "METAR GMAD 112100Z 15006KT CAVOK 11/09 Q1024 NOSIG",
      "taf": "TAF GMAD 111700Z 1118/1224 20008KT CAVOK"
    },
    {
      "icao": "GMMN",
      "alert": "OK",
      "vis_m": 9999,
      "fzfg": false,
      "metar_trigger": false,
      "taf_trigger": false,
      "metar": "METAR GMMN 112100Z 05006KT CAVOK 11/08 Q1025 NOSIG",
      "taf": "TAF GMMN 111700Z 1118/1224 04008KT CAVOK"
    },
    {
      "icao": "GMMX",
      "alert": "OK",
      "vis_m": 9999,
      "fzfg": false,
      "metar_trigger": false,
      "taf_trigger": false,
      "metar": "METAR GMMX 112100Z VRB02KT CAVOK 11/08 Q1025 NOSIG",
      "taf": "TAF GMMX 111700Z 1118/1224 06006KT CAVOK"
    },
    {
      "icao": "HEGN",
      "alert": "OK",
      "vis_m": 9999,
      "fzfg": false,
      "metar_trigger": false,
      "taf_trigger": false,
      "metar": "METAR HEGN 112000Z 28002KT CAVOK 18/10 Q1016 NOSIG",
      "taf": "TAF HEGN 111700Z 1118/1224 03008KT CAVOK"
    },
    {
      "icao": "HEMA",
      "alert": "OK",
      "vis_m": 9999,
      "fzfg": false,
      "metar_trigger": false,
      "taf_trigger": false,
      "metar": "METAR HEMA 112000Z 27005KT CAVOK 17/13 Q1016 NOSIG",
      "taf": "TAF HEMA 111700Z 1118/1224 32008G20KT CAVOK"
    },
    {
      "icao": "HESH",
      "alert": "OK",
      "vis_m": 9999,
      "fzfg": false,
      "metar_trigger": false,
      "taf_trigger": false,
      "metar": "METAR HESH 112000Z 00000KT CAVOK 18/09 Q1016 NOSIG",
      "taf": "TAF HESH 111700Z 1118/1224 01011KT CAVOK"
    },
    {
      "icao": "HESX",
      "alert": "OK",
      "vis_m": 9999,
      "fzfg": false,
      "metar_trigger": false,
      "taf_trigger": false,
      "metar": "METAR HESX 112000Z 21005KT CAVOK 14/05 Q1017 NOSIG",
      "taf": "TAF HESX 111700Z 1118/1224 26008KT CAVOK"
    },
    {
      "icao": "LATI",
      "alert": "OK",
      "vis_m": null,
      "fzfg": false,
      "metar_trigger": false,
      "taf_trigger": false,
      "metar": "",
      "taf": ""
    },
    {
      "icao": "LBPD",
      "alert": "OK",
      "vis_m": 9999,
      "fzfg": false,
      "metar_trigger": false,
      "taf_trigger": false,
      "metar": "METAR LBPD 112100Z AUTO 28021KT 9999 OVC080/// M01/M09 Q1016",
      "taf": "TAF LBPD 111700Z 1118/1218 28020KT 9999 SCT030 BKN050"
    },
    {
      "icao": "LBSF",
      "alert": "OK",
      "vis_m": 9999,
      "fzfg": false,
      "metar_trigger": false,
      "taf_trigger": false,
      "metar": "METAR LBSF 112100Z AUTO 28008KT 9999 FEW052/// M07/M10 Q1017 NOSIG",
      "taf": "TAF LBSF 111700Z 1118/1218 28014KT 9999 BKN025 OVC045"
    },
    {
      "icao": "LBWN",
      "alert": "OK",
      "vis_m": 9999,
      "fzfg": false,
      "metar_trigger": false,
      "taf_trigger": false,
      "metar": "METAR LBWN 112100Z AUTO 29009KT 9999 -SHSN NSC M02/M04 Q1016 NOSIG",
      "taf": "TAF LBWN 111700Z 1118/1218 31010KT 9999 SCT020 OVC040"
    },
    {
      "icao": "LCLK",
      "alert": "OK",
      "vis_m": 9999,
      "fzfg": false,
      "metar_trigger": false,
      "taf_trigger": false,
      "metar": "METAR LCLK 112100Z 23017G27KT 9999 FEW025 FEW030TCU SCT040 18/12 Q1010 BECMG 2000 +SHRA",
      "taf": "TAF LCLK 111730Z 1118/1218 22023KT 9999 -SHRA FEW025TCU FEW030CB SCT040"
    },
    {
      "icao": "LCPH",
      "alert": "OK",
      "vis_m": 7000,
      "fzfg": false,
      "metar_trigger": false,
      "taf_trigger": false,
      "metar": "METAR LCPH 112100Z 26013KT 7000 -SHRA FEW014 FEW025TCU BKN050 14/11 Q1011 RERA TEMPO 5000 SHRA",
      "taf": "TAF LCPH 111730Z 1118/1218 26021KT 9999 -SHRA FEW025TCU FEW030CB SCT040"
    },
    {
      "icao": "LEAL",
      "alert": "OK",
      "vis_m": 9999,
      "fzfg": false,
      "metar_trigger": false,
      "taf_trigger": false,
      "metar": "METAR LEAL 112100Z VRB02KT CAVOK 09/06 Q1025 NOSIG",
      "taf": "TAF LEAL 111700Z 1118/1218 28008KT CAVOK TX16/1213Z TN07/1206Z"
    },
    {
      "icao": "LEBB",
      "alert": "OK",
      "vis_m": 9999,
      "fzfg": false,
      "metar_trigger": false,
      "taf_trigger": false,
      "metar": "METAR LEBB 112100Z 17005KT 110V260 CAVOK 15/08 Q1018 NOSIG",
      "taf": "TAF LEBB 111700Z 1118/1218 18008KT 9999 SCT060 TX15/1214Z TN12/1207Z"
    },
    {
      "icao": "LEBL",
      "alert": "OK",
      "vis_m": 9999,
      "fzfg": false,
      "metar_trigger": false,
      "taf_trigger": false,
      "metar": "METAR LEBL 112100Z 33003KT 290V020 CAVOK 07/04 Q1024 NOSIG",
      "taf": "TAF LEBL 111700Z 1118/1218 VRB04KT 9999 FEW020 TX15/1213Z TN05/1206Z"
    },
    {
      "icao": "LECH",
      "alert": "OK",
      "vis_m": 9000,
      "fzfg": false,
      "metar_trigger": false,
      "taf_trigger": false,
      "metar": "METAR LECH 112100Z AUTO 23003KT 150V280 9000 NCD 06/02 Q1024",
      "taf": ""
    },
    {
      "icao": "LEMD",
      "alert": "OK",
      "vis_m": 9999,
      "fzfg": false,
      "metar_trigger": false,
      "taf_trigger": false,
      "metar": "METAR LEMD 112100Z VRB02KT CAVOK 04/02 Q1025 NOSIG",
      "taf": "TAF LEMD 111700Z 1118/1224 VRB03KT CAVOK TX08/1215Z TN02/1200Z"
    },
    {
      "icao": "LEMG",
      "alert": "OK",
      "vis_m": 9999,
      "fzfg": false,
      "metar_trigger": false,
      "taf_trigger": false,
      "metar": "METAR LEMG 112100Z 29004KT CAVOK 08/06 Q1026 NOSIG",
      "taf": "TAF LEMG 111700Z 1118/1218 27006KT CAVOK TX17/1214Z TN07/1207Z"
    },
    {
      "icao": "LEVC",
      "alert": "OK",
      "vis_m": 9999,
      "fzfg": false,
      "metar_trigger": false,
      "taf_trigger": false,
      "metar": "METAR LEVC 112100Z 27005KT CAVOK 07/05 Q1024 NOSIG",
      "taf": "TAF LEVC 111700Z 1118/1218 26008KT CAVOK TX19/1214Z TN05/1206Z"
    },
    {
      "icao": "LEXJ",
      "alert": "OK",
      "vis_m": 9999,
      "fzfg": false,
      "metar_trigger": false,
      "taf_trigger": false,
      "metar": "METAR LEXJ 112100Z 22013G23KT 160V260 CAVOK 16/06 Q1017",
      "taf": "TAF LEXJ 112000Z 1121/1221 22009KT 9999 SCT060 TX15/1213Z TN12/1208Z"
    },
    {
      "icao": "LEZG",
      "alert": "OK",
      "vis_m": 9999,
      "fzfg": false,
      "metar_trigger": false,
      "taf_trigger": false,
      "metar": "METAR LEZG 112100Z 10003KT 070V150 9999 FEW080 08/05 Q1023 NOSIG",
      "taf": "TAF LEZG 111700Z 1118/1218 24009KT 9999 FEW050 TX14/1215Z TN04/1206Z"
    },
    {
      "icao": "LEZL",
      "alert": "OK",
      "vis_m": 9999,
      "fzfg": false,
      "metar_trigger": false,
      "taf_trigger": false,
      "metar": "METAR LEZL 112100Z 12003KT 080V160 CAVOK 09/08 Q1026 NOSIG",
      "taf": "TAF LEZL 112000Z 1121/1221 06004KT CAVOK TX16/1215Z TN05/1207Z"
    },
    {
      "icao": "LFBD",
      "alert": "OK",
      "vis_m": 9999,
      "fzfg": false,
      "metar_trigger": false,
      "taf_trigger": false,
      "metar": "METAR LFBD 112100Z AUTO 14006KT 9999 FEW005 SCT096 OVC110 06/06 Q1019",
      "taf": ""
    },
    {
      "icao": "LFLL",
      "alert": "OK",
      "vis_m": 9999,
      "fzfg": false,
      "metar_trigger": false,
      "taf_trigger": false,
      "metar": "METAR LFLL 112100Z 14005KT CAVOK 01/M01 Q1023 NOSIG",
      "taf": ""
    },
    {
      "icao": "LFLS",
      "alert": "OK",
      "vis_m": 9999,
      "fzfg": false,
      "metar_trigger": false,
      "taf_trigger": false,
      "metar": "METAR LFLS 112100Z AUTO 14004KT CAVOK M02/M03 Q1023",
      "taf": "TAF LFLS 111400Z 1115/1215 09005KT CAVOK"
    },
    {
      "icao": "LFMN",
      "alert": "OK",
      "vis_m": 9999,
      "fzfg": false,
      "metar_trigger": false,
      "taf_trigger": false,
      "metar": "METAR LFMN 112100Z 34007KT CAVOK 07/M03 Q1023 NOSIG",
      "taf": "TAF LFMN 112000Z 1121/1303 33012KT CAVOK"
    },
    {
      "icao": "LFOB",
      "alert": "OK",
      "vis_m": 9999,
      "fzfg": false,
      "metar_trigger": false,
      "taf_trigger": false,
      "metar": "METAR LFOB 112100Z AUTO 16013KT 9999 BKN023/// BKN028/// OVC034/// ///TCU 04/M00 Q1014 BECMG 18015G25KT 4000 RA BKN009 OVC014",
      "taf": ""
    },
    {
      "icao": "LFPO",
      "alert": "OK",
      "vis_m": 9999,
      "fzfg": false,
      "metar_trigger": false,
      "taf_trigger": false,
      "metar": "METAR LFPO 112100Z AUTO 18012KT 9999 SCT035 BKN066 OVC100 04/M02 Q1016",
      "taf": ""
    },
    {
      "icao": "LFSB",
      "alert": "OK",
      "vis_m": 9999,
      "fzfg": false,
      "metar_trigger": false,
      "taf_trigger": false,
      "metar": "METAR LFSB 112100Z AUTO 13008KT CAVOK M00/M02 Q1023 NOSIG",
      "taf": "TAF LFSB 111700Z 1118/1218 VRB03KT 9999 OVC025"
    },
    {
      "icao": "LGAV",
      "alert": "OK",
      "vis_m": 9999,
      "fzfg": false,
      "metar_trigger": false,
      "taf_trigger": false,
      "metar": "METAR LGAV 112050Z 01006KT 330V030 9999 FEW020 BKN035 09/01 Q1011 NOSIG",
      "taf": "TAF LGAV 111700Z 1118/1218 VRB05KT 9999 FEW018 SCT025"
    },
    {
      "icao": "LGTS",
      "alert": "OK",
      "vis_m": 9999,
      "fzfg": false,
      "metar_trigger": false,
      "taf_trigger": false,
      "metar": "METAR LGTS 112050Z 34020G30KT 9999 FEW015 SCT025 02/M07 Q1015 NOSIG",
      "taf": "TAF LGTS 111700Z 1118/1218 34015G30KT 9999 FEW025"
    },
    {
      "icao": "LHBP",
      "alert": "OK",
      "vis_m": 9999,
      "fzfg": false,
      "metar_trigger": false,
      "taf_trigger": false,
      "metar": "METAR LHBP 112100Z 31021KT 9999 DRSN NSC M05/M10 Q1018 NOSIG",
      "taf": "TAF LHBP 111715Z 1118/1218 30020G30KT 9999 DRSN NSC"
    },
    {
      "icao": "LHDC",
      "alert": "OK",
      "vis_m": 8000,
      "fzfg": false,
      "metar_trigger": false,
      "taf_trigger": false,
      "metar": "METAR LHDC 112015Z AUTO 16006KT 8000 NSC M09/M11 Q1017 NOSIG",
      "taf": "TAF LHDC 111715Z 1118/1203 20008KT CAVOK"
    },
    {
      "icao": "LIBD",
      "alert": "OK",
      "vis_m": 9999,
      "fzfg": false,
      "metar_trigger": false,
      "taf_trigger": false,
      "metar": "METAR LIBD 112050Z 32015KT 290V350 9999 SCT045 06/M05 Q1020",
      "taf": "TAF LIBD 111700Z 1118/1218 34015KT 9999 FEW040"
    },
    {
      "icao": "LIBG",
      "alert": "OK",
      "vis_m": null,
      "fzfg": false,
      "metar_trigger": false,
      "taf_trigger": false,
      "metar": "",
      "taf": "TAF LIBG 111700Z 1118/1203 33015KT 9999 FEW040"
    },
    {
      "icao": "LIBP",
      "alert": "OK",
      "vis_m": 8000,
      "fzfg": false,
      "metar_trigger": false,
      "taf_trigger": false,
      "metar": "METAR LIBP 112050Z AUTO 21003KT 8000 NCD 01/01 Q1025",
      "taf": "TAF LIBP 111700Z 1118/1218 22006KT 9999 SCT040"
    },
    {
      "icao": "LIBR",
      "alert": "OK",
      "vis_m": 9999,
      "fzfg": false,
      "metar_trigger": false,
      "taf_trigger": false,
      "metar": "METAR LIBR 112050Z 35020G31KT 320V020 9999 FEW040 07/M01 Q1017",
      "taf": "TAF LIBR 111700Z 1118/1218 35020G35KT 9999 SCT040"
    },
    {
      "icao": "LICA",
      "alert": "OK",
      "vis_m": 9999,
      "fzfg": false,
      "metar_trigger": false,
      "taf_trigger": false,
      "metar": "METAR LICA 112050Z AUTO 03007KT 350V070 9999 NCD 07/M02 Q1019",
      "taf": "TAF LICA 111700Z 1118/1218 VRB05KT CAVOK"
    },
    {
      "icao": "LICC",
      "alert": "OK",
      "vis_m": 9999,
      "fzfg": false,
      "metar_trigger": false,
      "taf_trigger": false,
      "metar": "METAR LICC 112050Z 26010KT 9999 SCT070 08/04 Q1019",
      "taf": "TAF LICC 111700Z 1118/1218 VRB05KT 9999 FEW040"
    },
    {
      "icao": "LICJ",
      "alert": "OK",
      "vis_m": 9999,
      "fzfg": false,
      "metar_trigger": false,
      "taf_trigger": false,
      "metar": "METAR LICJ 112050Z 04016KT 9999 SCT055 11/06 Q1021",
      "taf": "TAF LICJ 111700Z 1118/1218 34010KT 9999 FEW030"
    },
    {
      "icao": "LIMC",
      "alert": "OK",
      "vis_m": 9999,
      "fzfg": false,
      "metar_trigger": false,
      "taf_trigger": false,
      "metar": "METAR LIMC 112050Z 02006KT CAVOK M01/M07 Q1022 NOSIG",
      "taf": "TAF LIMC 111700Z 1118/1224 VRB05KT CAVOK"
    },
    {
      "icao": "LIME",
      "alert": "OK",
      "vis_m": 9999,
      "fzfg": false,
      "metar_trigger": false,
      "taf_trigger": false,
      "metar": "METAR LIME 112050Z VRB01KT CAVOK 00/M08 Q1022 NOSIG",
      "taf": "TAF LIME 111700Z 1118/1218 VRB05KT CAVOK"
    },
    {
      "icao": "LIMF",
      "alert": "OK",
      "vis_m": 9999,
      "fzfg": false,
      "metar_trigger": false,
      "taf_trigger": false,
      "metar": "METAR LIMF 112050Z VRB05KT CAVOK 02/M08 Q1022",
      "taf": "TAF LIMF 111700Z 1118/1218 VRB05KT CAVOK"
    },
    {
      "icao": "LIMJ",
      "alert": "OK",
      "vis_m": 9999,
      "fzfg": false,
      "metar_trigger": false,
      "taf_trigger": false,
      "metar": "METAR LIMJ 112050Z 04007KT CAVOK 08/M10 Q1022",
      "taf": "TAF LIMJ 111700Z 1118/1218 VRB05KT CAVOK"
    },
    {
      "icao": "LIPE",
      "alert": "OK",
      "vis_m": 9999,
      "fzfg": false,
      "metar_trigger": false,
      "taf_trigger": false,
      "metar": "METAR LIPE 112050Z 19007KT CAVOK 02/M05 Q1023",
      "taf": "TAF LIPE 111700Z 1118/1218 VRB05KT CAVOK"
    },
    {
      "icao": "LIPH",
      "alert": "OK",
      "vis_m": 9999,
      "fzfg": false,
      "metar_trigger": false,
      "taf_trigger": false,
      "metar": "METAR LIPH 112050Z 04003KT CAVOK 01/M02 Q1023",
      "taf": "TAF LIPH 111700Z 1118/1218 VRB05KT 9999 FEW030"
    },
    {
      "icao": "LIPQ",
      "alert": "OK",
      "vis_m": 9999,
      "fzfg": false,
      "metar_trigger": false,
      "taf_trigger": false,
      "metar": "METAR LIPQ 112050Z AUTO VRB01KT 9999 FEW040/// M00/M05 Q1023",
      "taf": "TAF LIPQ 111700Z 1118/1218 VRB05KT 9999 SCT040"
    },
    {
      "icao": "LIPR",
      "alert": "OK",
      "vis_m": 9999,
      "fzfg": false,
      "metar_trigger": false,
      "taf_trigger": false,
      "metar": "METAR LIPR 112050Z 16004KT CAVOK 01/M01 Q1023",
      "taf": "TAF LIPR 111700Z 1118/1218 21006KT CAVOK"
    },
    {
      "icao": "LIPX",
      "alert": "OK",
      "vis_m": 9999,
      "fzfg": false,
      "metar_trigger": false,
      "taf_trigger": false,
      "metar": "METAR LIPX 112050Z 29003KT CAVOK M01/M02 Q1022",
      "taf": "TAF LIPX 111700Z 1118/1218 VRB05KT CAVOK"
    },
    {
      "icao": "LIPY",
      "alert": "OK",
      "vis_m": 9999,
      "fzfg": false,
      "metar_trigger": false,
      "taf_trigger": false,
      "metar": "METAR LIPY 112050Z AUTO 17004KT 9999 NCD 01/M01 Q1024",
      "taf": "TAF LIPY 111700Z 1118/1218 21006KT 9999 FEW040"
    },
    {
      "icao": "LIPZ",
      "alert": "OK",
      "vis_m": 9999,
      "fzfg": false,
      "metar_trigger": false,
      "taf_trigger": false,
      "metar": "METAR LIPZ 112050Z 07006KT CAVOK 01/M02 Q1023 NOSIG",
      "taf": "TAF LIPZ 111700Z 1118/1224 VRB05KT 9999 FEW030"
    },
    {
      "icao": "LIRF",
      "alert": "OK",
      "vis_m": 9999,
      "fzfg": false,
      "metar_trigger": false,
      "taf_trigger": false,
      "metar": "METAR LIRF 112050Z 34006KT CAVOK 04/M02 Q1022 NOSIG",
      "taf": "TAF LIRF 111700Z 1118/1224 02010KT CAVOK"
    },
    {
      "icao": "LIRN",
      "alert": "OK",
      "vis_m": 9999,
      "fzfg": false,
      "metar_trigger": false,
      "taf_trigger": false,
      "metar": "METAR LIRN 112050Z 03006KT CAVOK 04/M02 Q1021 NOSIG",
      "taf": "TAF LIRN 111700Z 1118/1218 05010KT CAVOK"
    },
    {
      "icao": "LIRP",
      "alert": "OK",
      "vis_m": 9999,
      "fzfg": false,
      "metar_trigger": false,
      "taf_trigger": false,
      "metar": "METAR LIRP 112045Z 12007KT CAVOK 00/M01 Q1023 NOSIG",
      "taf": "TAF LIRP 111700Z 1118/1218 12005KT CAVOK"
    },
    {
      "icao": "LIRZ",
      "alert": "OK",
      "vis_m": 9999,
      "fzfg": false,
      "metar_trigger": false,
      "taf_trigger": false,
      "metar": "METAR LIRZ 112050Z AUTO 35005KT 9999 NCD 01/M01 Q1023",
      "taf": "TAF LIRZ 111700Z 1118/1218 VRB05KT 9999 FEW050"
    },
    {
      "icao": "LJLJ",
      "alert": "OK",
      "vis_m": 9999,
      "fzfg": false,
      "metar_trigger": false,
      "taf_trigger": false,
      "metar": "METAR LJLJ 112100Z VRB01KT 9999 MIFG NSC M12/M14 Q1022 NOSIG",
      "taf": "TAF LJLJ 111700Z 1118/1218 29003KT CAVOK"
    },
    {
      "icao": "LKMT",
      "alert": "OK",
      "vis_m": 9999,
      "fzfg": false,
      "metar_trigger": false,
      "taf_trigger": false,
      "metar": "METAR LKMT 112100Z 21010KT 9999 -SN SCT015 BKN039 M06/M09 Q1018 NOSIG",
      "taf": "TAF LKMT 111700Z 1118/1218 22008KT 9999 BKN025"
    },
    {
      "icao": "LKPR",
      "alert": "OK",
      "vis_m": 9999,
      "fzfg": false,
      "metar_trigger": false,
      "taf_trigger": false,
      "metar": "METAR LKPR 112100Z 22010KT CAVOK M10/M13 Q1022 NOSIG",
      "taf": "TAF LKPR 112000Z 1121/1303 25010KT CAVOK"
    },
    {
      "icao": "LLBG",
      "alert": "OK",
      "vis_m": 9999,
      "fzfg": false,
      "metar_trigger": false,
      "taf_trigger": false,
      "metar": "METAR LLBG 112050Z VRB03KT CAVOK 13/10 Q1016 NOSIG",
      "taf": "TAF LLBG 111703Z 1118/1218 14005KT CAVOK"
    },
    {
      "icao": "LMML",
      "alert": "OK",
      "vis_m": 9999,
      "fzfg": false,
      "metar_trigger": false,
      "taf_trigger": false,
      "metar": "METAR LMML 112115Z COR 30012KT 9999 FEW020 10/06 Q1021 RESHRA NOSIG",
      "taf": ""
    },
    {
      "icao": "LOWW",
      "alert": "OK",
      "vis_m": 9999,
      "fzfg": false,
      "metar_trigger": false,
      "taf_trigger": false,
      "metar": "METAR LOWW 112050Z 30013KT CAVOK M04/M12 Q1022 NOSIG",
      "taf": "TAF LOWW 112015Z 1121/1303 30010KT CAVOK TXM03/1303Z TNM08/1207Z"
    },
    {
      "icao": "LPFR",
      "alert": "OK",
      "vis_m": 9999,
      "fzfg": false,
      "metar_trigger": false,
      "taf_trigger": false,
      "metar": "METAR LPFR 112100Z 01005KT CAVOK 11/09 Q1026",
      "taf": "TAF LPFR 111700Z 1118/1218 VRB02KT 9999 FEW025"
    },
    {
      "icao": "LPMA",
      "alert": "OK",
      "vis_m": 9999,
      "fzfg": false,
      "metar_trigger": false,
      "taf_trigger": false,
      "metar": "METAR LPMA 112100Z 01003KT 9999 -SHRA BKN015 15/13 Q1026",
      "taf": "TAF LPMA 111700Z 1118/1218 VRB05KT 9999 SCT015"
    },
    {
      "icao": "LPPR",
      "alert": "OK",
      "vis_m": 7000,
      "fzfg": false,
      "metar_trigger": false,
      "taf_trigger": false,
      "metar": "METAR LPPR 112100Z 18014KT 7000 -DZRA BKN006 BKN012 13/13 Q1022",
      "taf": "TAF LPPR 111700Z 1118/1218 18013KT 9999 SCT006 BKN012"
    },
    {
      "icao": "LPPS",
      "alert": "OK",
      "vis_m": 9999,
      "fzfg": false,
      "metar_trigger": false,
      "taf_trigger": false,
      "metar": "METAR LPPS 112100Z 30002KT 9999 VCSH FEW010 BKN030 15/13 Q1026",
      "taf": "TAF LPPS 111700Z 1118/1224 17005KT 9999 SCT015 SCT030"
    },
    {
      "icao": "LPPT",
      "alert": "OK",
      "vis_m": 9999,
      "fzfg": false,
      "metar_trigger": false,
      "taf_trigger": false,
      "metar": "METAR LPPT 112100Z 20012KT 9999 -DZ BKN006 13/13 Q1025",
      "taf": "TAF LPPT 111700Z 1118/1224 21008KT 9999 SCT008 BKN015"
    },
    {
      "icao": "LQBK",
      "alert": "OK",
      "vis_m": 9999,
      "fzfg": false,
      "metar_trigger": false,
      "taf_trigger": false,
      "metar": "METAR LQBK 112100Z VRB02KT CAVOK M11/M11 Q1023 NOSIG",
      "taf": "TAF LQBK 111700Z 1118/1218 16005KT CAVOK TX00/1212Z TNM12/1206Z"
    },
    {
      "icao": "LQSA",
      "alert": "OK",
      "vis_m": 9999,
      "fzfg": false,
      "metar_trigger": false,
      "taf_trigger": false,
      "metar": "METAR LQSA 112100Z 32003KT 9999 FEW050 M07/M08 Q1020 NOSIG",
      "taf": "TAF LQSA 111700Z 1118/1218 29005KT 9999 SCT045 TXM03/1214Z TNM13/1206Z"
    },
    {
      "icao": "LQTZ",
      "alert": "OK",
      "vis_m": 9999,
      "fzfg": false,
      "metar_trigger": false,
      "taf_trigger": false,
      "metar": "METAR LQTZ 112100Z 31004KT 280V360 CAVOK M05/M06 Q1022",
      "taf": "TAF LQTZ 111700Z 1118/1218 30005KT 9999 SCT045 TXM01/1213Z TNM13/1206Z"
    },
    {
      "icao": "LRBC",
      "alert": "OK",
      "vis_m": 9999,
      "fzfg": false,
      "metar_trigger": false,
      "taf_trigger": false,
      "metar": "METAR LRBC 112100Z 27012KT CAVOK M03/M12 Q1013",
      "taf": "TAF LRBC 112000Z 1121/1206 28006KT CAVOK"
    },
    {
      "icao": "LRBS",
      "alert": "OK",
      "vis_m": 6000,
      "fzfg": false,
      "metar_trigger": false,
      "taf_trigger": false,
      "metar": "METAR LRBS 112100Z 27003KT 220V340 6000 NSC M06/M07 Q1017 NOSIG",
      "taf": "TAF LRBS 111700Z 1118/1218 VRB04KT 5000 BR SCT025"
    },
    {
      "icao": "LRBV",
      "alert": "OK",
      "vis_m": 9999,
      "fzfg": false,
      "metar_trigger": false,
      "taf_trigger": false,
      "metar": "METAR LRBV 112100Z 29007KT 260V320 9999 OVC060 M06/M10 Q1014",
      "taf": "TAF LRBV 112000Z 1121/1206 28006KT 9999 BKN050"
    },
    {
      "icao": "LRCL",
      "alert": "OK",
      "vis_m": 8000,
      "fzfg": false,
      "metar_trigger": false,
      "taf_trigger": false,
      "metar": "METAR LRCL 112100Z VRB01KT 8000 FEW065 M08/M10 Q1016",
      "taf": "TAF LRCL 112000Z 1121/1206 VRB04KT 9999 BKN055"
    },
    {
      "icao": "LRCV",
      "alert": "OK",
      "vis_m": 9999,
      "fzfg": false,
      "metar_trigger": false,
      "taf_trigger": false,
      "metar": "METAR LRCV 112100Z 28009KT CAVOK M06/M09 Q1017",
      "taf": "TAF LRCV 112000Z 1121/1206 28010KT CAVOK"
    },
    {
      "icao": "LRIA",
      "alert": "OK",
      "vis_m": 9999,
      "fzfg": false,
      "metar_trigger": false,
      "taf_trigger": false,
      "metar": "METAR LRIA 112100Z COR 26005KT 220V290 9999 FEW042 M04/M11 Q1012",
      "taf": "TAF LRIA 112000Z 1121/1206 VRB04KT CAVOK"
    },
    {
      "icao": "LROP",
      "alert": "OK",
      "vis_m": 4000,
      "fzfg": false,
      "metar_trigger": false,
      "taf_trigger": false,
      "metar": "METAR LROP 112100Z 28007KT 4000 BR NSC M08/M09 Q1016 NOSIG",
      "taf": "TAF LROP 111700Z 1118/1218 VRB04KT 3000 BR SCT025"
    },
    {
      "icao": "LRSB",
      "alert": "OK",
      "vis_m": 9999,
      "fzfg": false,
      "metar_trigger": false,
      "taf_trigger": false,
      "metar": "METAR LRSB 112100Z 33003KT 290V360 9999 BKN063 M07/M10 Q1015",
      "taf": "TAF LRSB 111700Z 1118/1218 31006KT 9999 BKN045"
    },
    {
      "icao": "LRSM",
      "alert": "OK",
      "vis_m": 6000,
      "fzfg": false,
      "metar_trigger": false,
      "taf_trigger": false,
      "metar": "METAR LRSM 112100Z AUTO VRB02KT 6000 -SN FEW023/// SCT040/// BKN055/// M07/M09 Q1017",
      "taf": "TAF LRSM 111400Z 1115/1124 27014KT 9999 BKN040"
    },
    {
      "icao": "LRSV",
      "alert": "OK",
      "vis_m": 9999,
      "fzfg": false,
      "metar_trigger": false,
      "taf_trigger": false,
      "metar": "METAR LRSV 112100Z 27010KT CAVOK M06/M13 Q1009",
      "taf": "TAF LRSV 112000Z 1121/1206 27008KT CAVOK"
    },
    {
      "icao": "LRTM",
      "alert": "OK",
      "vis_m": 9999,
      "fzfg": false,
      "metar_trigger": false,
      "taf_trigger": false,
      "metar": "METAR LRTM 112100Z AUTO 24006KT 9999 SCT050/// OVC080/// M06/M09 Q1016 RESN",
      "taf": "TAF LRTM 111400Z 1115/1124 VRB04KT 9999 OVC045"
    },
    {
      "icao": "LRTR",
      "alert": "OK",
      "vis_m": 9999,
      "fzfg": false,
      "metar_trigger": false,
      "taf_trigger": false,
      "metar": "METAR LRTR 112100Z 29004KT 9999 SCT036 M07/M09 Q1019",
      "taf": "TAF LRTR 111700Z 1118/1218 24006KT 9999 BKN030"
    },
    {
      "icao": "LTAC",
      "alert": "OK",
      "vis_m": 4600,
      "fzfg": false,
      "metar_trigger": false,
      "taf_trigger": false,
      "metar": "METAR LTAC 112050Z VRB02KT 4600 -RASN BR FEW010 BKN025 BKN080 01/00 Q1005 NOSIG RMK RWY21C 00000KT RWY03L 36002KT RWY21R 00000KT RWY03R VRB02KT RWY21L 12003KT",
      "taf": "TAF LTAC 111640Z 1118/1218 VRB02KT 6000 SCT035 BKN090"
    },
    {
      "icao": "LTFM",
      "alert": "OK",
      "vis_m": 9999,
      "fzfg": false,
      "metar_trigger": false,
      "taf_trigger": false,
      "metar": "METAR LTFM 112050Z 03020KT 9999 -SHRASN BKN012 BKN020 04/M01 Q1012 NOSIG RMK RWY17L 02021KT RWY34L 01020KT RWY16R 01022KT RWY36 02021KT RWY18 03019KT",
      "taf": "TAF LTFM 111640Z 1118/1224 02020G30KT 9999 -SHRA BKN012 BKN020"
    },
    {
      "icao": "LUKK",
      "alert": "OK",
      "vis_m": 9999,
      "fzfg": false,
      "metar_trigger": false,
      "taf_trigger": false,
      "metar": "METAR LUKK 112100Z 31004KT 280V340 CAVOK M07/M11 Q1012 NOSIG",
      "taf": "TAF LUKK 111716Z 1118/1218 26008KT CAVOK"
    },
    {
      "icao": "LWOH",
      "alert": "OK",
      "vis_m": 9999,
      "fzfg": false,
      "metar_trigger": false,
      "taf_trigger": false,
      "metar": "METAR LWOH 111950Z 33012KT 300V360 9999 BKN035 M04/M08 Q1014",
      "taf": "TAF LWOH 112010Z 1121/1221 34012KT 9999 FEW040"
    },
    {
      "icao": "LWSK",
      "alert": "OK",
      "vis_m": null,
      "fzfg": false,
      "metar_trigger": false,
      "taf_trigger": false,
      "metar": "",
      "taf": "TAF LWSK 112010Z 1121/1221 01010KT 9999 SCT050"
    },
    {
      "icao": "LYBE",
      "alert": "OK",
      "vis_m": 9999,
      "fzfg": false,
      "metar_trigger": false,
      "taf_trigger": false,
      "metar": "METAR LYBE 112100Z 28008KT 9999 BKN040 M04/M07 Q1022 NOSIG",
      "taf": "TAF LYBE 111700Z 1118/1218 27010KT 9999 SCT035 TXM01/1212Z TNM10/1206Z"
    },
    {
      "icao": "LYNI",
      "alert": "OK",
      "vis_m": 9999,
      "fzfg": false,
      "metar_trigger": false,
      "taf_trigger": false,
      "metar": "METAR LYNI 112100Z 00000KT 9999 -SN SCT015 BKN030 M04/M05 Q1021 NOSIG",
      "taf": "TAF LYNI 111700Z 1118/1218 30005KT 9999 SCT015 BKN025 TXM02/1212Z TNM07/1206Z"
    },
    {
      "icao": "LYPG",
      "alert": "OK",
      "vis_m": 9999,
      "fzfg": false,
      "metar_trigger": false,
      "taf_trigger": false,
      "metar": "METAR LYPG 112100Z 36023G38KT CAVOK 01/M15 Q1020 NOSIG",
      "taf": "TAF LYPG 111700Z 1118/1218 36015G25KT CAVOK TX05/1212Z TNM02/1205Z"
    },
    {
      "icao": "LZIB",
      "alert": "OK",
      "vis_m": 9999,
      "fzfg": false,
      "metar_trigger": false,
      "taf_trigger": false,
      "metar": "METAR LZIB 112100Z 30011KT CAVOK M04/M12 Q1021 NOSIG",
      "taf": "TAF LZIB 111715Z 1118/1218 29014KT CAVOK"
    },
    {
      "icao": "LZKZ",
      "alert": "OK",
      "vis_m": 8000,
      "fzfg": false,
      "metar_trigger": false,
      "taf_trigger": false,
      "metar": "METAR LZKZ 112100Z 10002KT 8000 NSC M07/M09 Q1015 NOSIG",
      "taf": "TAF LZKZ 111715Z 1118/1218 VRB02KT 9999 FEW045"
    },
    {
      "icao": "LZTT",
      "alert": "OK",
      "vis_m": 9999,
      "fzfg": false,
      "metar_trigger": false,
      "taf_trigger": false,
      "metar": "METAR LZTT 112100Z 26014KT 9999 -SN DRSN OVC033 M07/M10 Q1011",
      "taf": "TAF LZTT 111715Z 1118/1218 25015KT 9999 -SN DRSN FEW013 OVC040"
    },
    {
      "icao": "OEJN",
      "alert": "OK",
      "vis_m": 9999,
      "fzfg": false,
      "metar_trigger": false,
      "taf_trigger": false,
      "metar": "METAR OEJN 112100Z 03003KT CAVOK 25/17 Q1015 NOSIG",
      "taf": "TAF OEJN 111700Z 1118/1224 36005KT CAVOK"
    },
    {
      "icao": "OEMA",
      "alert": "OK",
      "vis_m": 9999,
      "fzfg": false,
      "metar_trigger": false,
      "taf_trigger": false,
      "metar": "METAR OEMA 112100Z 34004KT CAVOK 17/01 Q1019 NOSIG",
      "taf": "TAF OEMA 111700Z 1118/1224 09008KT CAVOK"
    },
    {
      "icao": "OJAI",
      "alert": "OK",
      "vis_m": 5000,
      "fzfg": false,
      "metar_trigger": false,
      "taf_trigger": false,
      "metar": "METAR OJAI 112100Z 29003KT 5000 HZ NSC 07/04 Q1017 NOSIG",
      "taf": "TAF OJAI 111700Z 1118/1224 24014KT 5000 HZ NSC"
    },
    {
      "icao": "OMAA",
      "alert": "OK",
      "vis_m": 8000,
      "fzfg": false,
      "metar_trigger": false,
      "taf_trigger": false,
      "metar": "METAR OMAA 112100Z 35003KT 8000 NSC 18/14 Q1021 NOSIG",
      "taf": "TAF OMAA 111700Z 1118/1300 32005KT 8000 NSC"
    },
    {
      "icao": "OMDB",
      "alert": "OK",
      "vis_m": 9999,
      "fzfg": false,
      "metar_trigger": false,
      "taf_trigger": false,
      "metar": "METAR OMDB 112100Z 17004KT CAVOK 21/13 Q1021 NOSIG",
      "taf": "TAF OMDB 111700Z 1118/1300 14005KT 8000 NSC"
    },
    {
      "icao": "UAAA",
      "alert": "OK",
      "vis_m": 2500,
      "fzfg": false,
      "metar_trigger": false,
      "taf_trigger": false,
      "metar": "METAR UAAA 112100Z 15003MPS 2500 BR FU FEW100 BKN200 M01/M05 Q1021 NOSIG",
      "taf": "TAF UAAA 111707Z 1118/1218 22003MPS 1400 BR FU SCT030 BKN100 TX07/1209Z TNM03/1201Z"
    },
    {
      "icao": "UBBB",
      "alert": "OK",
      "vis_m": 9999,
      "fzfg": false,
      "metar_trigger": false,
      "taf_trigger": false,
      "metar": "METAR UBBB 112100Z 20022G36KT CAVOK 09/02 Q1010 NOSIG",
      "taf": "TAF UBBB 111704Z 1118/1218 19024G34KT CAVOK TX14/1209Z TN07/1200Z"
    },
    {
      "icao": "UDSG",
      "alert": "OK",
      "vis_m": 9999,
      "fzfg": false,
      "metar_trigger": false,
      "taf_trigger": false,
      "metar": "METAR UDSG 112100Z 31003KT 9999 BKN049 M04/M06 Q1018 NOSIG",
      "taf": "TAF UDSG 111658Z 1118/1218 VRB04KT 9999 BKN040"
    },
    {
      "icao": "UDYZ",
      "alert": "OK",
      "vis_m": 1500,
      "fzfg": false,
      "metar_trigger": false,
      "taf_trigger": false,
      "metar": "METAR UDYZ 112100Z VRB01KT 1500 1200W R08/P2000N BR FEW046 M02/M03 Q1019 NOSIG",
      "taf": "TAF UDYZ 111700Z 1118/1218 VRB06KT 2000 BR SCT040"
    },
    {
      "icao": "UGKO",
      "alert": "OK",
      "vis_m": 9999,
      "fzfg": false,
      "metar_trigger": false,
      "taf_trigger": false,
      "metar": "METAR UGKO 112100Z 09019KT CAVOK 12/M02 Q1008 NOSIG",
      "taf": "TAF UGKO 111700Z 1118/1218 08010KT CAVOK TX14/1212Z TN09/1202Z"
    }
  ]
}