{
  "ts_utc": "2026-07-04T09:31:43Z",
  "threshold_m": 150,
  "source": "stations_override.txt (ICAO list) + aviationweather.gov (METAR/TAF raw)",
  "station_count": 159,
  "stations": [
    {
      "icao": "BIKF",
      "alert": "OK",
      "vis_m": 9999,
      "fzfg": false,
      "metar_trigger": false,
      "taf_trigger": false,
      "metar": "METAR BIKF 040900Z 32011KT 9999 BKN020 10/05 Q1013",
      "taf": "TAF BIKF 040756Z 0409/0509 33012KT 9999 FEW025 TX12/0415Z TN05/0503Z"
    },
    {
      "icao": "BKPR",
      "alert": "OK",
      "vis_m": 9999,
      "fzfg": false,
      "metar_trigger": false,
      "taf_trigger": false,
      "metar": "METAR BKPR 040930Z 33007KT 9999 BKN050 23/11 Q1021 NOSIG",
      "taf": "TAF BKPR 040530Z 0406/0506 01014KT 9999 FEW050"
    },
    {
      "icao": "EBCI",
      "alert": "OK",
      "vis_m": 9999,
      "fzfg": false,
      "metar_trigger": false,
      "taf_trigger": false,
      "metar": "METAR EBCI 040920Z 25013KT 220V280 CAVOK 23/09 Q1027 NOSIG",
      "taf": "TAF EBCI 040500Z 0406/0512 22007KT CAVOK"
    },
    {
      "icao": "EDDB",
      "alert": "OK",
      "vis_m": 9999,
      "fzfg": false,
      "metar_trigger": false,
      "taf_trigger": false,
      "metar": "METAR EDDB 040920Z AUTO 29015KT 250V320 9999 SCT032 BKN042 18/10 Q1022 TEMPO 29015G25KT",
      "taf": "TAF EDDB 040500Z 0406/0506 26008KT 9999 FEW030"
    },
    {
      "icao": "EDDH",
      "alert": "OK",
      "vis_m": 9999,
      "fzfg": false,
      "metar_trigger": false,
      "taf_trigger": false,
      "metar": "METAR EDDH 040920Z AUTO 24009KT 210V270 9999 -SHRA BKN013 BKN045 FEW///TCU 15/13 Q1022 TEMPO BKN009",
      "taf": "TAF EDDH 040500Z 0406/0512 26007KT 9999 BKN030"
    },
    {
      "icao": "EDDK",
      "alert": "OK",
      "vis_m": 9999,
      "fzfg": false,
      "metar_trigger": false,
      "taf_trigger": false,
      "metar": "METAR EDDK 040920Z AUTO 24007KT 200V290 CAVOK 23/10 Q1026 BECMG 24012KT",
      "taf": "TAF EDDK 040500Z 0406/0512 VRB03KT CAVOK"
    },
    {
      "icao": "EDDN",
      "alert": "OK",
      "vis_m": 9999,
      "fzfg": false,
      "metar_trigger": false,
      "taf_trigger": false,
      "metar": "METAR EDDN 040920Z AUTO 30011KT 260V340 CAVOK 22/08 Q1026 NOSIG",
      "taf": "TAF EDDN 040500Z 0406/0506 10005KT CAVOK"
    },
    {
      "icao": "EDDS",
      "alert": "OK",
      "vis_m": 9999,
      "fzfg": false,
      "metar_trigger": false,
      "taf_trigger": false,
      "metar": "METAR EDDS 040920Z AUTO VRB04KT CAVOK 24/06 Q1027 NOSIG",
      "taf": "TAF EDDS 040500Z 0406/0506 VRB03KT CAVOK"
    },
    {
      "icao": "EDFH",
      "alert": "OK",
      "vis_m": 9999,
      "fzfg": false,
      "metar_trigger": false,
      "taf_trigger": false,
      "metar": "METAR EDFH 040920Z 26006KT 190V320 CAVOK 20/08 Q1028",
      "taf": "TAF EDFH 040500Z 0406/0506 28004KT CAVOK"
    },
    {
      "icao": "EDJA",
      "alert": "OK",
      "vis_m": 9999,
      "fzfg": false,
      "metar_trigger": false,
      "taf_trigger": false,
      "metar": "METAR EDJA 040920Z 30009KT 260V330 CAVOK 22/06 Q1027",
      "taf": "TAF EDJA 040800Z 0409/0418 28008KT CAVOK"
    },
    {
      "icao": "EDLW",
      "alert": "OK",
      "vis_m": 9999,
      "fzfg": false,
      "metar_trigger": false,
      "taf_trigger": false,
      "metar": "METAR EDLW 040920Z COR 23014KT CAVOK 22/11 Q1024",
      "taf": "TAF EDLW 040500Z 0406/0506 23007KT CAVOK"
    },
    {
      "icao": "EDNY",
      "alert": "OK",
      "vis_m": 9999,
      "fzfg": false,
      "metar_trigger": false,
      "taf_trigger": false,
      "metar": "METAR EDNY 040920Z 21006KT CAVOK 23/09 Q1027",
      "taf": "TAF EDNY 040800Z 0409/0418 VRB03KT CAVOK"
    },
    {
      "icao": "EDSB",
      "alert": "OK",
      "vis_m": 9999,
      "fzfg": false,
      "metar_trigger": false,
      "taf_trigger": false,
      "metar": "METAR EDSB 040920Z 29003KT 210V340 CAVOK 23/11 Q1027",
      "taf": "TAF EDSB 040500Z 0406/0506 33003KT CAVOK"
    },
    {
      "icao": "EETN",
      "alert": "OK",
      "vis_m": 9999,
      "fzfg": false,
      "metar_trigger": false,
      "taf_trigger": false,
      "metar": "METAR EETN 040920Z 34005KT 9999 SCT016 FEW025CB 18/14 Q1003 NOSIG",
      "taf": "TAF EETN 040530Z 0406/0506 VRB02KT 9999 FEW030CB SCT040"
    },
    {
      "icao": "EFTU",
      "alert": "OK",
      "vis_m": 9999,
      "fzfg": false,
      "metar_trigger": false,
      "taf_trigger": false,
      "metar": "METAR EFTU 040920Z AUTO 35006KT 300V030 9999 -SHRA VCTS FEW027 //////CB 17/16 Q1004",
      "taf": "TAF EFTU 040829Z 0409/0509 35005KT 9999 FEW025"
    },
    {
      "icao": "EGBB",
      "alert": "OK",
      "vis_m": 9999,
      "fzfg": false,
      "metar_trigger": false,
      "taf_trigger": false,
      "metar": "METAR EGBB 040920Z 24008KT 210V280 9999 BKN030 20/14 Q1026",
      "taf": "TAF EGBB 040458Z 0406/0506 21005KT CAVOK"
    },
    {
      "icao": "EGGP",
      "alert": "OK",
      "vis_m": 9999,
      "fzfg": false,
      "metar_trigger": false,
      "taf_trigger": false,
      "metar": "METAR EGGP 040920Z 28018KT 9999 FEW024 SCT030 OVC045 20/14 Q1025",
      "taf": "TAF EGGP 040503Z 0406/0506 27010KT 9999 FEW025"
    },
    {
      "icao": "EGGW",
      "alert": "OK",
      "vis_m": 9999,
      "fzfg": false,
      "metar_trigger": false,
      "taf_trigger": false,
      "metar": "METAR EGGW 040920Z AUTO 26012KT 230V290 9999 FEW020 SCT024 OVC029 19/14 Q1026",
      "taf": ""
    },
    {
      "icao": "EGKK",
      "alert": "OK",
      "vis_m": 9999,
      "fzfg": false,
      "metar_trigger": false,
      "taf_trigger": false,
      "metar": "METAR EGKK 040920Z 26008KT 230V290 9999 SCT020 22/15 Q1027",
      "taf": "TAF EGKK 040453Z 0406/0512 26007KT 9999 FEW030"
    },
    {
      "icao": "EGNM",
      "alert": "OK",
      "vis_m": 9999,
      "fzfg": false,
      "metar_trigger": false,
      "taf_trigger": false,
      "metar": "METAR EGNM 040920Z 27012KT 9999 -RA BKN009 16/15 Q1023",
      "taf": ""
    },
    {
      "icao": "EGPD",
      "alert": "OK",
      "vis_m": 9999,
      "fzfg": false,
      "metar_trigger": false,
      "taf_trigger": false,
      "metar": "METAR EGPD 040920Z AUTO 24004KT 9999 -RA FEW034 OVC045 15/12 Q1016",
      "taf": "TAF EGPD 040457Z 0406/0506 VRB03KT 9999 FEW040"
    },
    {
      "icao": "EGPF",
      "alert": "OK",
      "vis_m": 9000,
      "fzfg": false,
      "metar_trigger": false,
      "taf_trigger": false,
      "metar": "METAR EGPF 040920Z AUTO 23015KT 9000 -RA BKN014 OVC037 15/14 Q1019",
      "taf": "TAF EGPF 040454Z 0406/0506 25009KT 9999 SCT012"
    },
    {
      "icao": "EHBK",
      "alert": "OK",
      "vis_m": 9999,
      "fzfg": false,
      "metar_trigger": false,
      "taf_trigger": false,
      "metar": "METAR EHBK 040925Z AUTO 24011KT 200V280 9999 NCD 22/10 Q1026 NOSIG",
      "taf": "TAF EHBK 040458Z 0406/0512 21006KT CAVOK"
    },
    {
      "icao": "EHEH",
      "alert": "OK",
      "vis_m": 9999,
      "fzfg": false,
      "metar_trigger": false,
      "taf_trigger": false,
      "metar": "METAR EHEH 040925Z AUTO 25009KT 200V310 9999 NCD 23/12 Q1025 BLU NOSIG RMK TREND REMOTE BY EHWX",
      "taf": ""
    },
    {
      "icao": "EKBI",
      "alert": "OK",
      "vis_m": 9999,
      "fzfg": false,
      "metar_trigger": false,
      "taf_trigger": false,
      "metar": "METAR EKBI 040920Z AUTO 27011KT 9999 BKN025/// 18/12 Q1019",
      "taf": "TAF EKBI 040827Z 0409/0509 28014KT 9999 SCT022"
    },
    {
      "icao": "EKCH",
      "alert": "OK",
      "vis_m": 9999,
      "fzfg": false,
      "metar_trigger": false,
      "taf_trigger": false,
      "metar": "METAR EKCH 040920Z AUTO 28013KT 260V320 9999 BKN025/// 17/10 Q1018 NOSIG",
      "taf": "TAF EKCH 040827Z 0409/0509 29014KT 9999 BKN025"
    },
    {
      "icao": "ENAL",
      "alert": "OK",
      "vis_m": 9999,
      "fzfg": false,
      "metar_trigger": false,
      "taf_trigger": false,
      "metar": "METAR ENAL 040920Z 20009KT 9999 -RA FEW025 SCT031 BKN037 13/10 Q1012",
      "taf": "TAF ENAL 040800Z 0409/0418 21012KT 9999 FEW008 BKN020"
    },
    {
      "icao": "ENBR",
      "alert": "OK",
      "vis_m": 9999,
      "fzfg": false,
      "metar_trigger": false,
      "taf_trigger": false,
      "metar": "METAR ENBR 040920Z 17010KT 9999 SCT015 BKN050 14/11 Q1016 NOSIG RMK WIND 1200FT 16008KT",
      "taf": "TAF ENBR 040500Z 0406/0506 19008KT 9999 SCT015 BKN025"
    },
    {
      "icao": "ENGM",
      "alert": "OK",
      "vis_m": 9999,
      "fzfg": false,
      "metar_trigger": false,
      "taf_trigger": false,
      "metar": "METAR ENGM 040920Z VRB04KT 9999 FEW045 18/07 Q1013 NOSIG",
      "taf": "TAF ENGM 040500Z 0406/0506 20005KT CAVOK"
    },
    {
      "icao": "ENHD",
      "alert": "OK",
      "vis_m": 9999,
      "fzfg": false,
      "metar_trigger": false,
      "taf_trigger": false,
      "metar": "METAR ENHD 040920Z 21008KT 9999 SCT045 16/08 Q1017",
      "taf": "TAF ENHD 040800Z 0409/0418 22008KT 9999 FEW030 SCT045"
    },
    {
      "icao": "ENTC",
      "alert": "OK",
      "vis_m": 9999,
      "fzfg": false,
      "metar_trigger": false,
      "taf_trigger": false,
      "metar": "METAR ENTC 040920Z VRB02KT 9999 -RA FEW006 SCT008 BKN011 11/09 Q1011 TEMPO BKN016 RMK WIND 2600FT 26004KT",
      "taf": ""
    },
    {
      "icao": "ENTO",
      "alert": "OK",
      "vis_m": 9999,
      "fzfg": false,
      "metar_trigger": false,
      "taf_trigger": false,
      "metar": "METAR ENTO 040920Z 12003KT 070V180 CAVOK 20/09 Q1014 NOSIG",
      "taf": "TAF ENTO 040500Z 0406/0506 32006KT CAVOK"
    },
    {
      "icao": "ENVA",
      "alert": "OK",
      "vis_m": 9999,
      "fzfg": false,
      "metar_trigger": false,
      "taf_trigger": false,
      "metar": "METAR ENVA 040920Z VRB02KT 9999 SCT034 BKN049 16/09 Q1013 NOSIG RMK WIND 670FT 30004KT",
      "taf": "TAF ENVA 040500Z 0406/0506 10005KT 9999 BKN030"
    },
    {
      "icao": "ENZV",
      "alert": "OK",
      "vis_m": 9999,
      "fzfg": false,
      "metar_trigger": false,
      "taf_trigger": false,
      "metar": "METAR ENZV 040920Z COR VRB02KT 9999 SCT043 17/09 Q1017",
      "taf": "TAF ENZV 032300Z 0400/0424 32008KT 9999 FEW015 BKN040"
    },
    {
      "icao": "EPGD",
      "alert": "OK",
      "vis_m": 9999,
      "fzfg": false,
      "metar_trigger": false,
      "taf_trigger": false,
      "metar": "METAR EPGD 040900Z 28020KT 9999 BKN012 15/12 Q1015",
      "taf": "TAF EPGD 040530Z 0406/0506 27015KT 9999 BKN015"
    },
    {
      "icao": "EPKK",
      "alert": "OK",
      "vis_m": 9999,
      "fzfg": false,
      "metar_trigger": false,
      "taf_trigger": false,
      "metar": "METAR EPKK 040900Z 30016KT 9999 SCT043 19/08 Q1020",
      "taf": "TAF EPKK 040830Z 0409/0509 27016KT 9999 SCT040"
    },
    {
      "icao": "EPKT",
      "alert": "OK",
      "vis_m": 9999,
      "fzfg": false,
      "metar_trigger": false,
      "taf_trigger": false,
      "metar": "METAR EPKT 040900Z 30012KT 270V340 9999 BKN035 17/08 Q1021",
      "taf": "TAF EPKT 040530Z 0406/0506 29013KT 9999 BKN035"
    },
    {
      "icao": "EPLB",
      "alert": "OK",
      "vis_m": 9999,
      "fzfg": false,
      "metar_trigger": false,
      "taf_trigger": false,
      "metar": "METAR EPLB 040900Z 29011KT 9999 FEW037 SCT046 19/09 Q1017",
      "taf": "TAF EPLB 040530Z 0406/0506 27012KT CAVOK"
    },
    {
      "icao": "EPMO",
      "alert": "OK",
      "vis_m": 9999,
      "fzfg": false,
      "metar_trigger": false,
      "taf_trigger": false,
      "metar": "METAR EPMO 040900Z 27014KT 9999 BKN027 17/10 Q1017",
      "taf": "TAF EPMO 040530Z 0406/0506 28015KT 9999 BKN030"
    },
    {
      "icao": "EPPO",
      "alert": "OK",
      "vis_m": 9999,
      "fzfg": false,
      "metar_trigger": false,
      "taf_trigger": false,
      "metar": "METAR EPPO 040900Z 29014KT 9999 BKN029 16/09 Q1020",
      "taf": "TAF EPPO 040530Z 0406/0506 28012KT 9999 SCT030"
    },
    {
      "icao": "EPRA",
      "alert": "OK",
      "vis_m": 9999,
      "fzfg": false,
      "metar_trigger": false,
      "taf_trigger": false,
      "metar": "METAR EPRA 040900Z 31011KT 270V340 9999 BKN034 17/09 Q1018",
      "taf": "TAF EPRA 040830Z 0409/0418 28010KT 9999 BKN040"
    },
    {
      "icao": "EPRZ",
      "alert": "OK",
      "vis_m": 9999,
      "fzfg": false,
      "metar_trigger": false,
      "taf_trigger": false,
      "metar": "METAR EPRZ 040900Z 30015KT 9999 FEW048 18/06 Q1019",
      "taf": "TAF EPRZ 040530Z 0406/0506 29015KT CAVOK"
    },
    {
      "icao": "EPSC",
      "alert": "OK",
      "vis_m": 9999,
      "fzfg": false,
      "metar_trigger": false,
      "taf_trigger": false,
      "metar": "METAR EPSC 040900Z 29014KT 220V310 9999 SCT033 18/08 Q1019",
      "taf": "TAF EPSC 040530Z 0406/0506 29012KT 9999 BKN035"
    },
    {
      "icao": "EPSY",
      "alert": "OK",
      "vis_m": 9999,
      "fzfg": false,
      "metar_trigger": false,
      "taf_trigger": false,
      "metar": "METAR EPSY 040900Z 27009KT 220V340 9999 BKN013CB 15/12 Q1015",
      "taf": "TAF EPSY 040830Z 0409/0418 27012KT 9999 BKN020"
    },
    {
      "icao": "EPWA",
      "alert": "OK",
      "vis_m": 9999,
      "fzfg": false,
      "metar_trigger": false,
      "taf_trigger": false,
      "metar": "METAR EPWA 040900Z 27015KT 9999 BKN028 16/10 Q1017 NOSIG",
      "taf": "TAF EPWA 040830Z 0409/0509 28015KT 9999 BKN035"
    },
    {
      "icao": "EPWR",
      "alert": "OK",
      "vis_m": 9999,
      "fzfg": false,
      "metar_trigger": false,
      "taf_trigger": false,
      "metar": "METAR EPWR 040900Z 29016KT 9999 BKN036 18/09 Q1022",
      "taf": "TAF EPWR 040830Z 0409/0509 29018KT 9999 BKN036"
    },
    {
      "icao": "ESGG",
      "alert": "OK",
      "vis_m": 9999,
      "fzfg": false,
      "metar_trigger": false,
      "taf_trigger": false,
      "metar": "METAR ESGG 040920Z 26009KT CAVOK 19/11 Q1014",
      "taf": "TAF ESGG 040830Z 0409/0509 27008KT CAVOK"
    },
    {
      "icao": "ESKN",
      "alert": "OK",
      "vis_m": 9999,
      "fzfg": false,
      "metar_trigger": false,
      "taf_trigger": false,
      "metar": "METAR ESKN 040920Z 29012KT 9999 SCT031 19/13 Q1010",
      "taf": "TAF ESKN 040830Z 0409/0509 31011KT 9999 SCT030"
    },
    {
      "icao": "ESMS",
      "alert": "OK",
      "vis_m": 9999,
      "fzfg": false,
      "metar_trigger": false,
      "taf_trigger": false,
      "metar": "METAR ESMS 040920Z 30015KT 9999 OVC024 17/11 Q1017",
      "taf": "TAF ESMS 040827Z 0409/0509 30015KT 9999 BKN022"
    },
    {
      "icao": "ESSA",
      "alert": "OK",
      "vis_m": 9999,
      "fzfg": false,
      "metar_trigger": false,
      "taf_trigger": false,
      "metar": "METAR ESSA 040920Z 36009KT 320V030 9999 BKN026 16/10 Q1009 NOSIG",
      "taf": "TAF ESSA 040830Z 0409/0509 34012KT 9999 SCT030"
    },
    {
      "icao": "EYKA",
      "alert": "OK",
      "vis_m": 9999,
      "fzfg": false,
      "metar_trigger": false,
      "taf_trigger": false,
      "metar": "METAR EYKA 040920Z 27015KT 250V310 9999 BKN015CB OVC021 18/15 Q1007",
      "taf": "TAF EYKA 040502Z 0406/0506 23010KT 8000 BKN010"
    },
    {
      "icao": "EYPA",
      "alert": "OK",
      "vis_m": 9999,
      "fzfg": false,
      "metar_trigger": false,
      "taf_trigger": false,
      "metar": "METAR EYPA 040920Z 31007KT 260V350 9999 BKN017CB BKN022 18/15 Q1009",
      "taf": "TAF EYPA 040500Z 0406/0506 30010KT 9000 SCT015 BKN030"
    },
    {
      "icao": "EYVI",
      "alert": "OK",
      "vis_m": 9999,
      "fzfg": false,
      "metar_trigger": false,
      "taf_trigger": false,
      "metar": "METAR EYVI 040920Z 24013KT 9999 SCT009 BKN013CB BKN020 17/14 Q1008 TEMPO 5000 SHRA BKN015CB",
      "taf": "TAF EYVI 040500Z 0406/0506 25012KT 9000 BKN010"
    },
    {
      "icao": "GCFV",
      "alert": "OK",
      "vis_m": 9999,
      "fzfg": false,
      "metar_trigger": false,
      "taf_trigger": false,
      "metar": "METAR GCFV 040900Z 12005KT 9999 FEW015 23/18 Q1017",
      "taf": "TAF GCFV 040800Z 0409/0509 07008KT 9999 FEW015 TX28/0414Z TN22/0506Z"
    },
    {
      "icao": "GCLP",
      "alert": "OK",
      "vis_m": 9999,
      "fzfg": false,
      "metar_trigger": false,
      "taf_trigger": false,
      "metar": "METAR GCLP 040900Z 11004KT 070V160 CAVOK 23/18 Q1017 NOSIG",
      "taf": "TAF GCLP 040800Z 0409/0509 03014KT 9999 FEW015 TX27/0414Z TN21/0506Z"
    },
    {
      "icao": "GCTS",
      "alert": "OK",
      "vis_m": 9999,
      "fzfg": false,
      "metar_trigger": false,
      "taf_trigger": false,
      "metar": "METAR GCTS 040900Z 30008KT 240V350 9999 FEW025 24/16 Q1017 NOSIG",
      "taf": "TAF GCTS 040800Z 0409/0509 25008KT 9999 FEW025 TX28/0414Z TN22/0506Z"
    },
    {
      "icao": "GMAD",
      "alert": "OK",
      "vis_m": 6000,
      "fzfg": false,
      "metar_trigger": false,
      "taf_trigger": false,
      "metar": "METAR GMAD 040900Z 24007KT 6000 OVC006 22/20 Q1016 NOSIG",
      "taf": "TAF GMAD 040500Z 0406/0512 24004KT 1200 BR OVC004"
    },
    {
      "icao": "GMMN",
      "alert": "OK",
      "vis_m": 9999,
      "fzfg": false,
      "metar_trigger": false,
      "taf_trigger": false,
      "metar": "METAR GMMN 040900Z VRB02KT CAVOK 34/17 Q1017 NOSIG",
      "taf": "TAF GMMN 040500Z 0406/0512 14006KT CAVOK"
    },
    {
      "icao": "GMMX",
      "alert": "OK",
      "vis_m": 8000,
      "fzfg": false,
      "metar_trigger": false,
      "taf_trigger": false,
      "metar": "METAR GMMX 040900Z VRB03KT 8000 NSC 37/14 Q1018 NOSIG",
      "taf": "TAF GMMX 040500Z 0406/0512 26006KT 8000 NSC"
    },
    {
      "icao": "HEGN",
      "alert": "OK",
      "vis_m": 9999,
      "fzfg": false,
      "metar_trigger": false,
      "taf_trigger": false,
      "metar": "METAR HEGN 040900Z 36013KT CAVOK 34/16 Q1008 NOSIG",
      "taf": "TAF HEGN 040500Z 0406/0512 32015KT CAVOK"
    },
    {
      "icao": "HEMA",
      "alert": "OK",
      "vis_m": 9999,
      "fzfg": false,
      "metar_trigger": false,
      "taf_trigger": false,
      "metar": "METAR HEMA 040900Z 35021KT CAVOK 34/18 Q1008 NOSIG",
      "taf": "TAF HEMA 040500Z 0406/0512 33010G20KT CAVOK"
    },
    {
      "icao": "HESH",
      "alert": "OK",
      "vis_m": 9999,
      "fzfg": false,
      "metar_trigger": false,
      "taf_trigger": false,
      "metar": "METAR HESH 040900Z 01013KT CAVOK 35/13 Q1007 NOSIG",
      "taf": "TAF HESH 040500Z 0406/0512 36015KT CAVOK"
    },
    {
      "icao": "HESX",
      "alert": "OK",
      "vis_m": 9999,
      "fzfg": false,
      "metar_trigger": false,
      "taf_trigger": false,
      "metar": "METAR HESX 040900Z 30008KT CAVOK 32/18 Q1010 NOSIG",
      "taf": "TAF HESX 040500Z 0406/0512 34010KT CAVOK"
    },
    {
      "icao": "LATI",
      "alert": "OK",
      "vis_m": 9999,
      "fzfg": false,
      "metar_trigger": false,
      "taf_trigger": false,
      "metar": "METAR LATI 040920Z 28005KT 210V350 CAVOK 32/14 Q1014 NOSIG",
      "taf": "TAF LATI 040500Z 0406/0506 VRB03KT CAVOK TX35/0412Z TN17/0504Z"
    },
    {
      "icao": "LBPD",
      "alert": "OK",
      "vis_m": 9999,
      "fzfg": false,
      "metar_trigger": false,
      "taf_trigger": false,
      "metar": "METAR LBPD 040930Z AUTO 30010KT 250V340 9999 BKN100/// 29/14 Q1014 NOSIG",
      "taf": "TAF LBPD 040500Z 0406/0506 29014KT 9999 SCT050"
    },
    {
      "icao": "LBSF",
      "alert": "OK",
      "vis_m": 9999,
      "fzfg": false,
      "metar_trigger": false,
      "taf_trigger": false,
      "metar": "METAR LBSF 040930Z 29012KT 9999 FEW050 SCT062 25/13 Q1018 NOSIG",
      "taf": "TAF LBSF 040500Z 0406/0506 30012KT 9999 SCT050"
    },
    {
      "icao": "LBWN",
      "alert": "OK",
      "vis_m": 9999,
      "fzfg": false,
      "metar_trigger": false,
      "taf_trigger": false,
      "metar": "METAR LBWN 040930Z 34005KT 270V050 9999 SCT024 22/17 Q1014 NOSIG",
      "taf": "TAF LBWN 040500Z 0406/0506 35012KT 9999 SCT045"
    },
    {
      "icao": "LCLK",
      "alert": "OK",
      "vis_m": 9999,
      "fzfg": false,
      "metar_trigger": false,
      "taf_trigger": false,
      "metar": "METAR LCLK 040930Z 16008KT 110V200 9999 FEW030 29/25 Q1006 NOSIG",
      "taf": "TAF LCLK 040530Z 0406/0506 09005KT 9999 FEW010"
    },
    {
      "icao": "LCPH",
      "alert": "OK",
      "vis_m": 9999,
      "fzfg": false,
      "metar_trigger": false,
      "taf_trigger": false,
      "metar": "METAR LCPH 040930Z 16007KT 120V180 9999 FEW020 28/23 Q1006 NOSIG",
      "taf": "TAF LCPH 040530Z 0406/0506 02006KT 9999 FEW015"
    },
    {
      "icao": "LEAL",
      "alert": "OK",
      "vis_m": 9999,
      "fzfg": false,
      "metar_trigger": false,
      "taf_trigger": false,
      "metar": "METAR LEAL 040900Z 19005KT 130V260 CAVOK 31/15 Q1024 NOSIG",
      "taf": "TAF LEAL 040500Z 0406/0506 VRB03KT CAVOK TX32/0412Z TN22/0406Z"
    },
    {
      "icao": "LEBB",
      "alert": "OK",
      "vis_m": 9999,
      "fzfg": false,
      "metar_trigger": false,
      "taf_trigger": false,
      "metar": "METAR LEBB 040900Z VRB01KT 9999 BKN028 BKN033 25/19 Q1028 NOSIG",
      "taf": "TAF LEBB 040500Z 0406/0506 VRB03KT 9999 FEW015 SCT025 TX29/0412Z TN16/0505Z"
    },
    {
      "icao": "LEBL",
      "alert": "OK",
      "vis_m": 9999,
      "fzfg": false,
      "metar_trigger": false,
      "taf_trigger": false,
      "metar": "METAR LEBL 040900Z 13007KT 100V160 CAVOK 29/18 Q1023 NOSIG",
      "taf": "TAF LEBL 040500Z 0406/0506 33006KT CAVOK TX31/0413Z TN23/0406Z"
    },
    {
      "icao": "LECH",
      "alert": "OK",
      "vis_m": 9999,
      "fzfg": false,
      "metar_trigger": false,
      "taf_trigger": false,
      "metar": "METAR LECH 040900Z AUTO 29004KT CAVOK 29/11 Q1025",
      "taf": "TAF LECH 040500Z 0406/0506 VRB04KT CAVOK TX33/0412Z TN18/0406Z"
    },
    {
      "icao": "LEMD",
      "alert": "OK",
      "vis_m": 9999,
      "fzfg": false,
      "metar_trigger": false,
      "taf_trigger": false,
      "metar": "METAR LEMD 040900Z 11002KT CAVOK 29/10 Q1025 NOSIG",
      "taf": "TAF LEMD 040500Z 0406/0512 VRB04KT CAVOK TX39/0416Z TN22/0505Z"
    },
    {
      "icao": "LEMG",
      "alert": "OK",
      "vis_m": 9999,
      "fzfg": false,
      "metar_trigger": false,
      "taf_trigger": false,
      "metar": "METAR LEMG 040900Z 11006KT 070V170 CAVOK 29/15 Q1023 NOSIG",
      "taf": "TAF LEMG 040500Z 0406/0506 29005KT CAVOK TX31/0414Z TN22/0505Z"
    },
    {
      "icao": "LEVC",
      "alert": "OK",
      "vis_m": 9999,
      "fzfg": false,
      "metar_trigger": false,
      "taf_trigger": false,
      "metar": "METAR LEVC 040900Z 09004KT 020V160 CAVOK 30/14 Q1023 NOSIG",
      "taf": "TAF LEVC 040500Z 0406/0506 30005KT CAVOK TX33/0412Z TN23/0406Z"
    },
    {
      "icao": "LEXJ",
      "alert": "OK",
      "vis_m": 9999,
      "fzfg": false,
      "metar_trigger": false,
      "taf_trigger": false,
      "metar": "METAR LEXJ 040900Z 05006KT 330V140 9999 FEW030 23/19 Q1028",
      "taf": "TAF LEXJ 040800Z 0409/0509 VRB03KT 9999 FEW045 TX28/0413Z TN18/0505Z"
    },
    {
      "icao": "LEZG",
      "alert": "OK",
      "vis_m": 9999,
      "fzfg": false,
      "metar_trigger": false,
      "taf_trigger": false,
      "metar": "METAR LEZG 040900Z 30010KT 260V340 CAVOK 26/15 Q1026 NOSIG",
      "taf": "TAF LEZG 040500Z 0406/0506 30015KT CAVOK TX36/0414Z TN20/0406Z"
    },
    {
      "icao": "LEZL",
      "alert": "OK",
      "vis_m": 9999,
      "fzfg": false,
      "metar_trigger": false,
      "taf_trigger": false,
      "metar": "METAR LEZL 040900Z 08014KT 050V120 CAVOK 34/11 Q1020 NOSIG",
      "taf": "TAF LEZL 040800Z 0409/0509 09010KT CAVOK TX42/0415Z TN23/0505Z"
    },
    {
      "icao": "LFBD",
      "alert": "OK",
      "vis_m": 9999,
      "fzfg": false,
      "metar_trigger": false,
      "taf_trigger": false,
      "metar": "METAR LFBD 040900Z AUTO 05006KT 010V090 CAVOK 29/12 Q1028 NOSIG",
      "taf": "TAF LFBD 040500Z 0406/0512 VRB03KT CAVOK TX36/0512Z TN18/0406Z"
    },
    {
      "icao": "LFLL",
      "alert": "OK",
      "vis_m": 9999,
      "fzfg": false,
      "metar_trigger": false,
      "taf_trigger": false,
      "metar": "METAR LFLL 040900Z 35015KT CAVOK 26/06 Q1026 NOSIG",
      "taf": "TAF LFLL 040500Z 0406/0512 35005KT CAVOK"
    },
    {
      "icao": "LFLS",
      "alert": "OK",
      "vis_m": 9999,
      "fzfg": false,
      "metar_trigger": false,
      "taf_trigger": false,
      "metar": "METAR LFLS 040900Z AUTO 35011KT 310V020 CAVOK 26/09 Q1026 NOSIG",
      "taf": "TAF LFLS 040800Z 0409/0509 36015KT CAVOK"
    },
    {
      "icao": "LFMN",
      "alert": "OK",
      "vis_m": 9999,
      "fzfg": false,
      "metar_trigger": false,
      "taf_trigger": false,
      "metar": "METAR LFMN 040900Z 10006KT CAVOK 28/22 Q1020 NOSIG",
      "taf": "TAF LFMN 040800Z 0409/0515 09007KT CAVOK"
    },
    {
      "icao": "LFOB",
      "alert": "OK",
      "vis_m": 9999,
      "fzfg": false,
      "metar_trigger": false,
      "taf_trigger": false,
      "metar": "METAR LFOB 040900Z AUTO 28009KT 240V310 CAVOK 23/08 Q1028 NOSIG",
      "taf": "TAF LFOB 040500Z 0406/0506 28007KT CAVOK"
    },
    {
      "icao": "LFPO",
      "alert": "OK",
      "vis_m": 9999,
      "fzfg": false,
      "metar_trigger": false,
      "taf_trigger": false,
      "metar": "METAR LFPO 040900Z VRB04KT CAVOK 24/07 Q1029 NOSIG",
      "taf": "TAF LFPO 040500Z 0406/0512 33005KT CAVOK"
    },
    {
      "icao": "LFSB",
      "alert": "OK",
      "vis_m": 9999,
      "fzfg": false,
      "metar_trigger": false,
      "taf_trigger": false,
      "metar": "METAR LFSB 040900Z AUTO 32005KT 240V010 CAVOK 25/09 Q1027 NOSIG",
      "taf": "TAF LFSB 040500Z 0406/0506 VRB02KT CAVOK"
    },
    {
      "icao": "LGAV",
      "alert": "OK",
      "vis_m": 9999,
      "fzfg": false,
      "metar_trigger": false,
      "taf_trigger": false,
      "metar": "METAR LGAV 040920Z 06015KT 9999 FEW030 31/17 Q1012 NOSIG",
      "taf": "TAF LGAV 040500Z 0406/0506 02012KT 9999 FEW025"
    },
    {
      "icao": "LGTS",
      "alert": "OK",
      "vis_m": 9999,
      "fzfg": false,
      "metar_trigger": false,
      "taf_trigger": false,
      "metar": "METAR LGTS 040920Z 29013KT 9999 FEW025 31/16 Q1013 NOSIG",
      "taf": "TAF LGTS 040500Z 0406/0506 33015KT 9999 FEW030"
    },
    {
      "icao": "LHBP",
      "alert": "OK",
      "vis_m": 9999,
      "fzfg": false,
      "metar_trigger": false,
      "taf_trigger": false,
      "metar": "METAR LHBP 040900Z 35013KT 310V010 CAVOK 24/07 Q1021 NOSIG",
      "taf": "TAF LHBP 040515Z 0406/0506 32008KT CAVOK"
    },
    {
      "icao": "LHDC",
      "alert": "OK",
      "vis_m": 9999,
      "fzfg": false,
      "metar_trigger": false,
      "taf_trigger": false,
      "metar": "METAR LHDC 040845Z AUTO 31010KT 260V010 CAVOK 24/06 Q1019 NOSIG",
      "taf": "TAF LHDC 040815Z 0409/0418 33008KT CAVOK"
    },
    {
      "icao": "LIBD",
      "alert": "OK",
      "vis_m": 9999,
      "fzfg": false,
      "metar_trigger": false,
      "taf_trigger": false,
      "metar": "METAR LIBD 040920Z 01009KT 340V050 CAVOK 29/15 Q1018",
      "taf": "TAF LIBD 040500Z 0406/0506 31010KT CAVOK"
    },
    {
      "icao": "LIBG",
      "alert": "OK",
      "vis_m": 9999,
      "fzfg": false,
      "metar_trigger": false,
      "taf_trigger": false,
      "metar": "METAR LIBG 040920Z AUTO 02012KT 350V050 9999 SCT056/// 31/16 Q1016",
      "taf": "TAF LIBG 040500Z 0406/0506 33005KT CAVOK"
    },
    {
      "icao": "LIBP",
      "alert": "OK",
      "vis_m": 9999,
      "fzfg": false,
      "metar_trigger": false,
      "taf_trigger": false,
      "metar": "METAR LIBP 040920Z AUTO 03009KT 330V070 9999 NCD 29/16 Q1021",
      "taf": "TAF LIBP 040500Z 0406/0506 29008KT CAVOK"
    },
    {
      "icao": "LIBR",
      "alert": "OK",
      "vis_m": 9999,
      "fzfg": false,
      "metar_trigger": false,
      "taf_trigger": false,
      "metar": "METAR LIBR 040920Z 03015KT CAVOK 29/18 Q1016",
      "taf": "TAF LIBR 040500Z 0406/0506 03015KT CAVOK"
    },
    {
      "icao": "LICA",
      "alert": "OK",
      "vis_m": 9999,
      "fzfg": false,
      "metar_trigger": false,
      "taf_trigger": false,
      "metar": "METAR LICA 040920Z AUTO 24010KT 220V280 9999 FEW020/// 29/23 Q1016",
      "taf": "TAF LICA 040500Z 0406/0506 VRB05KT 9999 FEW030"
    },
    {
      "icao": "LICC",
      "alert": "OK",
      "vis_m": 9999,
      "fzfg": false,
      "metar_trigger": false,
      "taf_trigger": false,
      "metar": "METAR LICC 040920Z 09010KT CAVOK 31/24 Q1015",
      "taf": "TAF LICC 040500Z 0406/0506 VRB05KT 9999 FEW040"
    },
    {
      "icao": "LICJ",
      "alert": "OK",
      "vis_m": 9999,
      "fzfg": false,
      "metar_trigger": false,
      "taf_trigger": false,
      "metar": "METAR LICJ 040920Z 33006KT 9999 FEW020 29/24 Q1018",
      "taf": "TAF LICJ 040500Z 0406/0506 VRB05KT 9999 FEW030"
    },
    {
      "icao": "LIMC",
      "alert": "OK",
      "vis_m": 9999,
      "fzfg": false,
      "metar_trigger": false,
      "taf_trigger": false,
      "metar": "METAR LIMC 040920Z VRB05KT CAVOK 30/12 Q1022 NOSIG",
      "taf": "TAF LIMC 040500Z 0406/0512 VRB05KT 9999 FEW070"
    },
    {
      "icao": "LIME",
      "alert": "OK",
      "vis_m": 9999,
      "fzfg": false,
      "metar_trigger": false,
      "taf_trigger": false,
      "metar": "METAR LIME 040920Z 12006KT 070V190 CAVOK 28/15 Q1022 NOSIG",
      "taf": "TAF LIME 040500Z 0406/0506 VRB05KT 9999 FEW070"
    },
    {
      "icao": "LIMF",
      "alert": "OK",
      "vis_m": 9999,
      "fzfg": false,
      "metar_trigger": false,
      "taf_trigger": false,
      "metar": "METAR LIMF 040920Z 06007KT 030V110 CAVOK 29/11 Q1022",
      "taf": "TAF LIMF 040500Z 0406/0506 VRB05KT 9999 FEW090"
    },
    {
      "icao": "LIMJ",
      "alert": "OK",
      "vis_m": 9999,
      "fzfg": false,
      "metar_trigger": false,
      "taf_trigger": false,
      "metar": "METAR LIMJ 040920Z 17002KT CAVOK 28/20 Q1020",
      "taf": "TAF LIMJ 040500Z 0406/0506 VRB05KT CAVOK"
    },
    {
      "icao": "LIPE",
      "alert": "OK",
      "vis_m": 9999,
      "fzfg": false,
      "metar_trigger": false,
      "taf_trigger": false,
      "metar": "METAR LIPE 040920Z 10009KT 060V120 CAVOK 29/16 Q1021",
      "taf": "TAF LIPE 040500Z 0406/0506 VRB05KT CAVOK"
    },
    {
      "icao": "LIPH",
      "alert": "OK",
      "vis_m": 9999,
      "fzfg": false,
      "metar_trigger": false,
      "taf_trigger": false,
      "metar": "METAR LIPH 040920Z 13005KT 070V230 CAVOK 28/17 Q1021",
      "taf": "TAF LIPH 040500Z 0406/0506 04010KT CAVOK"
    },
    {
      "icao": "LIPQ",
      "alert": "OK",
      "vis_m": 9999,
      "fzfg": false,
      "metar_trigger": false,
      "taf_trigger": false,
      "metar": "METAR LIPQ 040920Z AUTO 27004KT 190V330 9999 NCD 29/12 Q1021",
      "taf": "TAF LIPQ 040500Z 0406/0506 VRB05KT CAVOK"
    },
    {
      "icao": "LIPR",
      "alert": "OK",
      "vis_m": 9999,
      "fzfg": false,
      "metar_trigger": false,
      "taf_trigger": false,
      "metar": "METAR LIPR 040920Z 09010KT CAVOK 28/20 Q1021",
      "taf": "TAF LIPR 040500Z 0406/0506 VRB05KT CAVOK"
    },
    {
      "icao": "LIPX",
      "alert": "OK",
      "vis_m": 9999,
      "fzfg": false,
      "metar_trigger": false,
      "taf_trigger": false,
      "metar": "METAR LIPX 040920Z 11007KT 070V150 9999 FEW075 29/17 Q1021",
      "taf": "TAF LIPX 040500Z 0406/0506 09010KT 9999 FEW080"
    },
    {
      "icao": "LIPY",
      "alert": "OK",
      "vis_m": 9999,
      "fzfg": false,
      "metar_trigger": false,
      "taf_trigger": false,
      "metar": "METAR LIPY 040920Z AUTO 07009KT 040V100 9999 FEW097/// 29/16 Q1021",
      "taf": "TAF LIPY 040500Z 0406/0506 VRB05KT CAVOK"
    },
    {
      "icao": "LIPZ",
      "alert": "OK",
      "vis_m": 9999,
      "fzfg": false,
      "metar_trigger": false,
      "taf_trigger": false,
      "metar": "METAR LIPZ 040920Z 16004KT 120V200 9999 FEW070 28/19 Q1021 NOSIG",
      "taf": "TAF LIPZ 040500Z 0406/0512 04010KT CAVOK"
    },
    {
      "icao": "LIRF",
      "alert": "OK",
      "vis_m": 9999,
      "fzfg": false,
      "metar_trigger": false,
      "taf_trigger": false,
      "metar": "METAR LIRF 040920Z 22007KT 190V290 CAVOK 32/15 Q1018 NOSIG",
      "taf": "TAF LIRF 040500Z 0406/0512 04010KT CAVOK"
    },
    {
      "icao": "LIRN",
      "alert": "OK",
      "vis_m": 9999,
      "fzfg": false,
      "metar_trigger": false,
      "taf_trigger": false,
      "metar": "METAR LIRN 040920Z 04012KT 010V080 CAVOK 31/13 Q1018 NOSIG",
      "taf": "TAF LIRN 040500Z 0406/0506 VRB05KT 9999 FEW030"
    },
    {
      "icao": "LIRP",
      "alert": "OK",
      "vis_m": 9999,
      "fzfg": false,
      "metar_trigger": false,
      "taf_trigger": false,
      "metar": "METAR LIRP 040915Z 12004KT CAVOK 29/13 Q1020 NOSIG",
      "taf": "TAF LIRP 040500Z 0406/0506 VRB03KT CAVOK"
    },
    {
      "icao": "LIRZ",
      "alert": "OK",
      "vis_m": null,
      "fzfg": false,
      "metar_trigger": false,
      "taf_trigger": false,
      "metar": "",
      "taf": "TAF LIRZ 040500Z 0406/0506 VRB05KT CAVOK"
    },
    {
      "icao": "LJLJ",
      "alert": "OK",
      "vis_m": 9999,
      "fzfg": false,
      "metar_trigger": false,
      "taf_trigger": false,
      "metar": "METAR LJLJ 040900Z 06005KT 030V190 9999 FEW060 23/10 Q1024 NOSIG",
      "taf": "TAF LJLJ 040500Z 0406/0506 12004KT CAVOK"
    },
    {
      "icao": "LKMT",
      "alert": "OK",
      "vis_m": 9999,
      "fzfg": false,
      "metar_trigger": false,
      "taf_trigger": false,
      "metar": "METAR LKMT 040900Z VRB04KT 9999 BKN047 20/08 Q1022 NOSIG",
      "taf": "TAF LKMT 040500Z 0406/0506 26005KT CAVOK"
    },
    {
      "icao": "LKPR",
      "alert": "OK",
      "vis_m": 9999,
      "fzfg": false,
      "metar_trigger": false,
      "taf_trigger": false,
      "metar": "METAR LKPR 040900Z 31009KT 250V340 9999 SCT040 19/09 Q1024 NOSIG",
      "taf": "TAF LKPR 040800Z 0409/0515 30010KT CAVOK"
    },
    {
      "icao": "LLBG",
      "alert": "OK",
      "vis_m": 9999,
      "fzfg": false,
      "metar_trigger": false,
      "taf_trigger": false,
      "metar": "METAR LLBG 040920Z 25012KT 9999 SCT033 30/20 Q1008 NOSIG",
      "taf": "TAF LLBG 040505Z 0406/0506 VRB04KT 9999 SCT025 TX30/0412Z TN24/0504Z"
    },
    {
      "icao": "LMML",
      "alert": "OK",
      "vis_m": null,
      "fzfg": false,
      "metar_trigger": false,
      "taf_trigger": false,
      "metar": "",
      "taf": "TAF LMML 040500Z 0406/0506 32009KT 9999 FEW040"
    },
    {
      "icao": "LOWW",
      "alert": "OK",
      "vis_m": 9999,
      "fzfg": false,
      "metar_trigger": false,
      "taf_trigger": false,
      "metar": "METAR LOWW 040920Z 32013KT 9999 FEW050 24/08 Q1023 NOSIG",
      "taf": "TAF LOWW 040815Z 0409/0515 32012KT CAVOK TX27/0414Z TN16/0503Z"
    },
    {
      "icao": "LPFR",
      "alert": "OK",
      "vis_m": 9999,
      "fzfg": false,
      "metar_trigger": false,
      "taf_trigger": false,
      "metar": "METAR LPFR 040900Z 10012KT CAVOK 31/13 Q1019",
      "taf": "TAF LPFR 040500Z 0406/0506 04007KT CAVOK"
    },
    {
      "icao": "LPMA",
      "alert": "OK",
      "vis_m": 9999,
      "fzfg": false,
      "metar_trigger": false,
      "taf_trigger": false,
      "metar": "METAR LPMA 040900Z 05005KT 010V080 9999 BKN011 22/19 Q1017",
      "taf": "TAF LPMA 040500Z 0406/0506 VRB05KT 9999 BKN012"
    },
    {
      "icao": "LPPR",
      "alert": "OK",
      "vis_m": 9999,
      "fzfg": false,
      "metar_trigger": false,
      "taf_trigger": false,
      "metar": "METAR LPPR 040900Z 09008KT 060V120 CAVOK 33/08 Q1020",
      "taf": "TAF LPPR 040500Z 0406/0506 09005KT CAVOK"
    },
    {
      "icao": "LPPS",
      "alert": "OK",
      "vis_m": 9999,
      "fzfg": false,
      "metar_trigger": false,
      "taf_trigger": false,
      "metar": "METAR LPPS 040900Z VRB02KT 9999 SCT007 SCT012 23/20 Q1017",
      "taf": "TAF LPPS 040500Z 0406/0512 VRB05KT 9999 BKN006"
    },
    {
      "icao": "LPPT",
      "alert": "OK",
      "vis_m": 9999,
      "fzfg": false,
      "metar_trigger": false,
      "taf_trigger": false,
      "metar": "METAR LPPT 040900Z 07005KT 040V150 CAVOK 30/17 Q1020 NOSIG",
      "taf": "TAF LPPT 040500Z 0406/0512 31008KT CAVOK"
    },
    {
      "icao": "LQBK",
      "alert": "OK",
      "vis_m": 9999,
      "fzfg": false,
      "metar_trigger": false,
      "taf_trigger": false,
      "metar": "METAR LQBK 040900Z VRB04KT CAVOK 25/07 Q1023 NOSIG",
      "taf": "TAF LQBK 040500Z 0406/0506 16005KT CAVOK TX28/0413Z TN12/0503Z"
    },
    {
      "icao": "LQSA",
      "alert": "OK",
      "vis_m": 9999,
      "fzfg": false,
      "metar_trigger": false,
      "taf_trigger": false,
      "metar": "METAR LQSA 040900Z 01008KT 330V070 CAVOK 23/07 Q1023 NOSIG",
      "taf": "TAF LQSA 040500Z 0406/0506 33005KT CAVOK TX26/0413Z TN14/0503Z"
    },
    {
      "icao": "LQTZ",
      "alert": "OK",
      "vis_m": 9999,
      "fzfg": false,
      "metar_trigger": false,
      "taf_trigger": false,
      "metar": "METAR LQTZ 040900Z 25006KT 230V310 CAVOK 23/10 Q1023",
      "taf": "TAF LQTZ 040500Z 0406/0506 27005KT CAVOK TX27/0413Z TN11/0503Z"
    },
    {
      "icao": "LRBC",
      "alert": "OK",
      "vis_m": 9999,
      "fzfg": false,
      "metar_trigger": false,
      "taf_trigger": false,
      "metar": "METAR LRBC 040900Z 36011KT 330V030 9999 FEW062 23/09 Q1016",
      "taf": "TAF LRBC 040800Z 0409/0418 35016KT 9999 SCT060"
    },
    {
      "icao": "LRBS",
      "alert": "OK",
      "vis_m": 9999,
      "fzfg": false,
      "metar_trigger": false,
      "taf_trigger": false,
      "metar": "METAR LRBS 040900Z VRB03KT 9999 FEW021 23/18 Q1016 NOSIG",
      "taf": "TAF LRBS 040500Z 0406/0506 VRB04KT CAVOK"
    },
    {
      "icao": "LRBV",
      "alert": "OK",
      "vis_m": 9999,
      "fzfg": false,
      "metar_trigger": false,
      "taf_trigger": false,
      "metar": "METAR LRBV 040900Z 30014KT 260V350 9999 FEW026 20/13 Q1018",
      "taf": "TAF LRBV 040800Z 0409/0418 30016KT CAVOK"
    },
    {
      "icao": "LRCL",
      "alert": "OK",
      "vis_m": 9999,
      "fzfg": false,
      "metar_trigger": false,
      "taf_trigger": false,
      "metar": "METAR LRCL 040900Z 30011KT 260V340 9999 FEW045 22/06 Q1019",
      "taf": "TAF LRCL 040800Z 0409/0418 33012KT CAVOK"
    },
    {
      "icao": "LRCV",
      "alert": "OK",
      "vis_m": 9999,
      "fzfg": false,
      "metar_trigger": false,
      "taf_trigger": false,
      "metar": "METAR LRCV 040900Z 20007KT 9999 SCT025 BKN030 24/18 Q1016",
      "taf": "TAF LRCV 040800Z 0409/0418 17008KT CAVOK"
    },
    {
      "icao": "LRIA",
      "alert": "OK",
      "vis_m": 9999,
      "fzfg": false,
      "metar_trigger": false,
      "taf_trigger": false,
      "metar": "METAR LRIA 040900Z 33019KT CAVOK 22/06 Q1016",
      "taf": "TAF LRIA 040800Z 0409/0418 32015KT CAVOK"
    },
    {
      "icao": "LROP",
      "alert": "OK",
      "vis_m": 9999,
      "fzfg": false,
      "metar_trigger": false,
      "taf_trigger": false,
      "metar": "METAR LROP 040900Z 28005KT 230V010 CAVOK 24/18 Q1016 NOSIG",
      "taf": "TAF LROP 040500Z 0406/0506 VRB04KT CAVOK"
    },
    {
      "icao": "LRSB",
      "alert": "OK",
      "vis_m": 9999,
      "fzfg": false,
      "metar_trigger": false,
      "taf_trigger": false,
      "metar": "METAR LRSB 040900Z VRB03KT 9999 FEW040 22/11 Q1019 NOSIG",
      "taf": "TAF LRSB 040500Z 0406/0506 VRB04KT CAVOK"
    },
    {
      "icao": "LRSM",
      "alert": "OK",
      "vis_m": 9999,
      "fzfg": false,
      "metar_trigger": false,
      "taf_trigger": false,
      "metar": "METAR LRSM 040900Z AUTO 33009KT 290V360 9999 FEW060/// 23/09 Q1019",
      "taf": "TAF LRSM 040800Z 0409/0418 34012KT CAVOK"
    },
    {
      "icao": "LRSV",
      "alert": "OK",
      "vis_m": 9999,
      "fzfg": false,
      "metar_trigger": false,
      "taf_trigger": false,
      "metar": "METAR LRSV 040900Z 32010KT 280V360 9999 BKN048 20/08 Q1017",
      "taf": "TAF LRSV 040800Z 0409/0418 30012KT 9999 SCT045"
    },
    {
      "icao": "LRTM",
      "alert": "OK",
      "vis_m": 9999,
      "fzfg": false,
      "metar_trigger": false,
      "taf_trigger": false,
      "metar": "METAR LRTM 040900Z 30010KT 260V360 9999 SCT025 22/13 Q1018",
      "taf": "TAF LRTM 040800Z 0409/0418 29012KT CAVOK"
    },
    {
      "icao": "LRTR",
      "alert": "OK",
      "vis_m": 9999,
      "fzfg": false,
      "metar_trigger": false,
      "taf_trigger": false,
      "metar": "METAR LRTR 040900Z 34013KT 290V010 CAVOK 25/06 Q1020",
      "taf": "TAF LRTR 040500Z 0406/0506 34010KT CAVOK"
    },
    {
      "icao": "LTAC",
      "alert": "OK",
      "vis_m": 9999,
      "fzfg": false,
      "metar_trigger": false,
      "taf_trigger": false,
      "metar": "METAR LTAC 040920Z 32008KT 9999 SCT040 27/08 Q1012 NOSIG",
      "taf": "TAF LTAC 040440Z 0406/0506 VRB02KT CAVOK"
    },
    {
      "icao": "LTFM",
      "alert": "OK",
      "vis_m": 9999,
      "fzfg": false,
      "metar_trigger": false,
      "taf_trigger": false,
      "metar": "METAR LTFM 040920Z 34015KT 9999 -SHRA SCT013 FEW018CB BKN025 22/20 Q1013 NOSIG",
      "taf": "TAF LTFM 040440Z 0406/0512 34015KT 9999 -SHRA SCT022 BKN080"
    },
    {
      "icao": "LUKK",
      "alert": "OK",
      "vis_m": 9999,
      "fzfg": false,
      "metar_trigger": false,
      "taf_trigger": false,
      "metar": "METAR LUKK 040900Z 34016KT 290V010 CAVOK 24/08 Q1014 TEMPO 34018G30KT",
      "taf": "TAF LUKK 040503Z 0406/0506 33014KT CAVOK"
    },
    {
      "icao": "LWOH",
      "alert": "OK",
      "vis_m": 9999,
      "fzfg": false,
      "metar_trigger": false,
      "taf_trigger": false,
      "metar": "METAR LWOH 040920Z 33010KT 280V010 9999 FEW040 26/13 Q1019",
      "taf": "TAF LWOH 040815Z 0409/0509 35012KT 9999 FEW050"
    },
    {
      "icao": "LWSK",
      "alert": "OK",
      "vis_m": 9999,
      "fzfg": false,
      "metar_trigger": false,
      "taf_trigger": false,
      "metar": "METAR LWSK 040920Z 32015G25KT 260V360 9999 FEW065 27/12 Q1018 NOSIG",
      "taf": "TAF LWSK 040815Z 0409/0509 02008KT CAVOK"
    },
    {
      "icao": "LYBE",
      "alert": "OK",
      "vis_m": 9999,
      "fzfg": false,
      "metar_trigger": false,
      "taf_trigger": false,
      "metar": "METAR LYBE 040900Z 33008KT 280V010 CAVOK 24/09 Q1022 NOSIG",
      "taf": "TAF LYBE 040500Z 0406/0506 32011KT CAVOK TX27/0413Z TN13/0503Z"
    },
    {
      "icao": "LYNI",
      "alert": "OK",
      "vis_m": 9999,
      "fzfg": false,
      "metar_trigger": false,
      "taf_trigger": false,
      "metar": "METAR LYNI 040900Z 32016KT 290V350 9999 FEW033 25/10 Q1020 NOSIG",
      "taf": "TAF LYNI 040500Z 0406/0506 32018KT CAVOK TX26/0413Z TN11/0503Z"
    },
    {
      "icao": "LYPG",
      "alert": "OK",
      "vis_m": 9999,
      "fzfg": false,
      "metar_trigger": false,
      "taf_trigger": false,
      "metar": "METAR LYPG 040900Z 35022G33KT CAVOK 30/06 Q1017 NOSIG",
      "taf": "TAF LYPG 040500Z 0406/0506 36015KT CAVOK TX33/0413Z TN25/0503Z"
    },
    {
      "icao": "LZIB",
      "alert": "OK",
      "vis_m": 9999,
      "fzfg": false,
      "metar_trigger": false,
      "taf_trigger": false,
      "metar": "METAR LZIB 040930Z 30014KT CAVOK 24/08 Q1022 NOSIG",
      "taf": "TAF LZIB 040515Z 0406/0506 33012KT CAVOK"
    },
    {
      "icao": "LZKZ",
      "alert": "OK",
      "vis_m": 9999,
      "fzfg": false,
      "metar_trigger": false,
      "taf_trigger": false,
      "metar": "METAR LZKZ 040930Z VRB03KT CAVOK 24/06 Q1019 BECMG 01010KT",
      "taf": "TAF LZKZ 040515Z 0406/0506 02004KT CAVOK"
    },
    {
      "icao": "LZTT",
      "alert": "OK",
      "vis_m": 9999,
      "fzfg": false,
      "metar_trigger": false,
      "taf_trigger": false,
      "metar": "METAR LZTT 040930Z 26016KT 9999 FEW046 19/05 Q1020 NOSIG",
      "taf": "TAF LZTT 040515Z 0406/0506 27007KT 9999 FEW060"
    },
    {
      "icao": "OEJN",
      "alert": "OK",
      "vis_m": 9999,
      "fzfg": false,
      "metar_trigger": false,
      "taf_trigger": false,
      "metar": "METAR OEJN 040900Z 27009KT CAVOK 36/24 Q1005 NOSIG",
      "taf": "TAF OEJN 040500Z 0406/0512 33014KT CAVOK"
    },
    {
      "icao": "OEMA",
      "alert": "OK",
      "vis_m": 9999,
      "fzfg": false,
      "metar_trigger": false,
      "taf_trigger": false,
      "metar": "METAR OEMA 040900Z 30012KT CAVOK 44/M03 Q1009 NOSIG",
      "taf": "TAF OEMA 040500Z 0406/0512 30012KT CAVOK"
    },
    {
      "icao": "OJAI",
      "alert": "OK",
      "vis_m": 4000,
      "fzfg": false,
      "metar_trigger": false,
      "taf_trigger": false,
      "metar": "METAR OJAI 040900Z 28015KT 4000 BLDU NSC 27/15 Q1012 NOSIG",
      "taf": "TAF OJAI 040508Z 0406/0512 28010KT 4000 DU NSC"
    },
    {
      "icao": "OMAA",
      "alert": "OK",
      "vis_m": 9999,
      "fzfg": false,
      "metar_trigger": false,
      "taf_trigger": false,
      "metar": "METAR OMAA 040930Z 31008KT CAVOK 39/25 Q0999 NOSIG",
      "taf": "TAF OMAA 040500Z 0406/0512 VRB02KT 8000 NSC"
    },
    {
      "icao": "OMDB",
      "alert": "OK",
      "vis_m": 8000,
      "fzfg": false,
      "metar_trigger": false,
      "taf_trigger": false,
      "metar": "METAR OMDB 040930Z 33012KT 8000 NSC 39/28 Q0998 NOSIG",
      "taf": "TAF OMDB 040500Z 0406/0512 03005KT 8000 NSC"
    },
    {
      "icao": "UAAA",
      "alert": "OK",
      "vis_m": 9999,
      "fzfg": false,
      "metar_trigger": false,
      "taf_trigger": false,
      "metar": "METAR UAAA 040900Z 24006MPS 9999 BKN050CB OVC100 25/16 Q1008 NOSIG",
      "taf": "TAF UAAA 040504Z 0406/0506 17003G08MPS 9999 SCT050CB BKN100 TX26/0410Z TN14/0501Z"
    },
    {
      "icao": "UBBB",
      "alert": "OK",
      "vis_m": 9999,
      "fzfg": false,
      "metar_trigger": false,
      "taf_trigger": false,
      "metar": "METAR UBBB 040930Z 18008KT 9999 FEW060CB 28/16 Q1006 NOSIG",
      "taf": "TAF UBBB 040504Z 0406/0506 15008KT 9999 SCT040 TX31/0410Z TN21/0501Z"
    },
    {
      "icao": "UDSG",
      "alert": "OK",
      "vis_m": 9999,
      "fzfg": false,
      "metar_trigger": false,
      "taf_trigger": false,
      "metar": "METAR UDSG 040900Z 26002KT 9999 SCT049CB 24/12 Q1013 NOSIG",
      "taf": "TAF UDSG 040500Z 0406/0506 35006KT 9999 SCT040"
    },
    {
      "icao": "UDYZ",
      "alert": "OK",
      "vis_m": 9999,
      "fzfg": false,
      "metar_trigger": false,
      "taf_trigger": false,
      "metar": "METAR UDYZ 040900Z VRB03KT 9999 VCTS SCT043CB 28/12 Q1008 NOSIG",
      "taf": "TAF UDYZ 040500Z 0406/0506 24006KT 9999 SCT040"
    },
    {
      "icao": "UGKO",
      "alert": "OK",
      "vis_m": 9999,
      "fzfg": false,
      "metar_trigger": false,
      "taf_trigger": false,
      "metar": "METAR UGKO 040900Z 24006KT 180V300 9999 SCT026CB BKN050 27/20 Q1007 NOSIG",
      "taf": "TAF UGKO 040500Z 0406/0506 26007KT 9999 SCT020 BKN055 TX28/0412Z TN19/0502Z"
    }
  ]
}