{
  "ts_utc": "2026-04-05T06:44:58Z",
  "threshold_m": 150,
  "source": "stations_override.txt (ICAO list) + aviationweather.gov (METAR/TAF raw)",
  "station_count": 159,
  "stations": [
    {
      "icao": "BIKF",
      "alert": "OK",
      "vis_m": 9999,
      "fzfg": false,
      "metar_trigger": false,
      "taf_trigger": false,
      "metar": "METAR BIKF 050630Z 05006KT CAVOK M03/M06 Q0999",
      "taf": "TAF BIKF 050409Z 0506/0606 03010KT 9999 FEW030 TX02/0513Z TNM03/0506Z"
    },
    {
      "icao": "BKPR",
      "alert": "OK",
      "vis_m": 9999,
      "fzfg": false,
      "metar_trigger": false,
      "taf_trigger": false,
      "metar": "METAR BKPR 050630Z 07002KT CAVOK 06/03 Q1024 NOSIG",
      "taf": "TAF BKPR 050530Z 0506/0606 VRB03KT 9999 FEW040"
    },
    {
      "icao": "EBCI",
      "alert": "OK",
      "vis_m": 9999,
      "fzfg": false,
      "metar_trigger": false,
      "taf_trigger": false,
      "metar": "METAR EBCI 050620Z 22014KT 9999 BKN025 11/07 Q1015 TEMPO BKN012",
      "taf": "TAF EBCI 050515Z 0506/0612 24015KT 9999 FEW018 SCT035"
    },
    {
      "icao": "EDDB",
      "alert": "OK",
      "vis_m": 9999,
      "fzfg": false,
      "metar_trigger": false,
      "taf_trigger": false,
      "metar": "METAR EDDB 050620Z AUTO 20010KT CAVOK 12/09 Q1012 BECMG 25015G25KT",
      "taf": "TAF EDDB 050500Z 0506/0606 19011KT CAVOK"
    },
    {
      "icao": "EDDH",
      "alert": "OK",
      "vis_m": 9999,
      "fzfg": false,
      "metar_trigger": false,
      "taf_trigger": false,
      "metar": "METAR EDDH 050620Z AUTO 22016KT 9999 -RA BKN039 BKN047 13/07 Q1005 TEMPO 25020G35KT SHRA SCT030CB",
      "taf": "TAF EDDH 050500Z 0506/0612 21015G30KT CAVOK"
    },
    {
      "icao": "EDDK",
      "alert": "OK",
      "vis_m": 9999,
      "fzfg": false,
      "metar_trigger": false,
      "taf_trigger": false,
      "metar": "METAR EDDK 050620Z AUTO 24008KT 9999 BKN042 14/08 Q1014 BECMG 23015G25KT",
      "taf": "TAF EDDK 050500Z 0506/0612 21012KT CAVOK"
    },
    {
      "icao": "EDDN",
      "alert": "OK",
      "vis_m": 9999,
      "fzfg": false,
      "metar_trigger": false,
      "taf_trigger": false,
      "metar": "METAR EDDN 050620Z AUTO 14007KT CAVOK 10/07 Q1018 NOSIG",
      "taf": "TAF EDDN 050500Z 0506/0606 13007KT CAVOK"
    },
    {
      "icao": "EDDS",
      "alert": "OK",
      "vis_m": 9999,
      "fzfg": false,
      "metar_trigger": false,
      "taf_trigger": false,
      "metar": "METAR EDDS 050620Z AUTO 23006KT 170V310 CAVOK 13/07 Q1018 NOSIG",
      "taf": "TAF EDDS 050500Z 0506/0606 20004KT 9999 SCT040"
    },
    {
      "icao": "EDFH",
      "alert": "OK",
      "vis_m": 9999,
      "fzfg": false,
      "metar_trigger": false,
      "taf_trigger": false,
      "metar": "METAR EDFH 050620Z 22011G22KT 200V260 CAVOK 12/06 Q1015",
      "taf": "TAF EDFH 050500Z 0506/0606 23015G25KT 9999 SCT020"
    },
    {
      "icao": "EDJA",
      "alert": "OK",
      "vis_m": 9999,
      "fzfg": false,
      "metar_trigger": false,
      "taf_trigger": false,
      "metar": "METAR EDJA 050620Z 22010KT CAVOK 08/04 Q1021",
      "taf": "TAF EDJA 050500Z 0506/0515 21008KT CAVOK"
    },
    {
      "icao": "EDLW",
      "alert": "OK",
      "vis_m": 9999,
      "fzfg": false,
      "metar_trigger": false,
      "taf_trigger": false,
      "metar": "METAR EDLW 050620Z 23017KT 9999 BKN042 14/07 Q1011",
      "taf": "TAF EDLW 050500Z 0506/0606 24015G25KT 9999 SCT040"
    },
    {
      "icao": "EDNY",
      "alert": "OK",
      "vis_m": 9999,
      "fzfg": false,
      "metar_trigger": false,
      "taf_trigger": false,
      "metar": "METAR EDNY 050620Z 00000KT CAVOK 06/05 Q1022",
      "taf": "TAF EDNY 050500Z 0506/0515 VRB03KT CAVOK"
    },
    {
      "icao": "EDSB",
      "alert": "OK",
      "vis_m": 9999,
      "fzfg": false,
      "metar_trigger": false,
      "taf_trigger": false,
      "metar": "METAR EDSB 050620Z 21008KT CAVOK 11/09 Q1018",
      "taf": "TAF EDSB 050500Z 0506/0606 21009KT 9999 FEW040"
    },
    {
      "icao": "EETN",
      "alert": "OK",
      "vis_m": 9000,
      "fzfg": false,
      "metar_trigger": false,
      "taf_trigger": false,
      "metar": "METAR EETN 050620Z 27006KT 9000 2200W BR OVC003 03/02 Q1004 TEMPO 1500 BCFG",
      "taf": ""
    },
    {
      "icao": "EFTU",
      "alert": "OK",
      "vis_m": 9999,
      "fzfg": false,
      "metar_trigger": false,
      "taf_trigger": false,
      "metar": "METAR EFTU 050620Z AUTO 27006KT 9999 OVC002 03/02 Q1003",
      "taf": "TAF EFTU 050528Z 0506/0606 29003KT 6000 OVC001"
    },
    {
      "icao": "EGBB",
      "alert": "OK",
      "vis_m": 9999,
      "fzfg": false,
      "metar_trigger": false,
      "taf_trigger": false,
      "metar": "METAR EGBB 050620Z 21006KT 170V250 9999 VCSH SCT041 06/02 Q1010",
      "taf": "TAF EGBB 050453Z 0506/0606 23005KT 9999 SCT040"
    },
    {
      "icao": "EGGP",
      "alert": "OK",
      "vis_m": 9999,
      "fzfg": false,
      "metar_trigger": false,
      "taf_trigger": false,
      "metar": "METAR EGGP 050620Z 29008KT 9999 -RA SCT020 BKN027 05/01 Q1009",
      "taf": "TAF EGGP 050459Z 0506/0606 25008KT 9999 SCT025"
    },
    {
      "icao": "EGGW",
      "alert": "OK",
      "vis_m": 9999,
      "fzfg": false,
      "metar_trigger": false,
      "taf_trigger": false,
      "metar": "METAR EGGW 050620Z AUTO 22011KT 9999 NCD 06/02 Q1011",
      "taf": "TAF EGGW 050455Z 0506/0606 24015KT 9999 FEW035"
    },
    {
      "icao": "EGKK",
      "alert": "OK",
      "vis_m": 9999,
      "fzfg": false,
      "metar_trigger": false,
      "taf_trigger": false,
      "metar": "METAR EGKK 050620Z 22006KT 9999 FEW027 08/04 Q1013",
      "taf": "TAF EGKK 050504Z 0506/0612 25012KT 9999 SCT030"
    },
    {
      "icao": "EGNM",
      "alert": "OK",
      "vis_m": 9999,
      "fzfg": false,
      "metar_trigger": false,
      "taf_trigger": false,
      "metar": "METAR EGNM 050620Z 25012KT 9999 -SHRA FEW027 SCT036 05/01 Q1006",
      "taf": "TAF EGNM 050457Z 0506/0606 26018G28KT 9999 SCT022"
    },
    {
      "icao": "EGPD",
      "alert": "OK",
      "vis_m": 9999,
      "fzfg": false,
      "metar_trigger": false,
      "taf_trigger": false,
      "metar": "METAR EGPD 050620Z COR AUTO 28021KT 9999 FEW033 04/M01 Q0995 NOSIG",
      "taf": "TAF EGPD 050453Z 0506/0606 28022G40KT 9999 SCT020"
    },
    {
      "icao": "EGPF",
      "alert": "OK",
      "vis_m": 9999,
      "fzfg": false,
      "metar_trigger": false,
      "taf_trigger": false,
      "metar": "METAR EGPF 050620Z AUTO 21007KT 9999 BKN027/// //////TCU 04/02 Q1003",
      "taf": "TAF EGPF 050502Z 0506/0606 27012KT 9999 SCT030"
    },
    {
      "icao": "EHBK",
      "alert": "OK",
      "vis_m": 9999,
      "fzfg": false,
      "metar_trigger": false,
      "taf_trigger": false,
      "metar": "METAR EHBK 050625Z AUTO 23016KT 190V260 9999 SCT026 OVC030 12/07 Q1013 NOSIG",
      "taf": "TAF EHBK 050519Z 0506/0612 23015G25KT 9999 BKN035"
    },
    {
      "icao": "EHEH",
      "alert": "OK",
      "vis_m": 9999,
      "fzfg": false,
      "metar_trigger": false,
      "taf_trigger": false,
      "metar": "METAR EHEH 050625Z AUTO 25008KT 220V320 9999 FEW012 SCT019 BKN024 11/09 Q1012 REDZ WHT TEMPO 24014G28KT SCT018 BKN022",
      "taf": "TAF EHEH 050511Z 0506/0612 24014G28KT 9999 SCT030"
    },
    {
      "icao": "EKBI",
      "alert": "OK",
      "vis_m": 9999,
      "fzfg": false,
      "metar_trigger": false,
      "taf_trigger": false,
      "metar": "METAR EKBI 050620Z AUTO 22023G37KT 9999 BKN018/// 10/06 Q0997",
      "taf": "TAF EKBI 050527Z 0506/0606 24020G42KT 9999 BKN030"
    },
    {
      "icao": "EKCH",
      "alert": "OK",
      "vis_m": 9999,
      "fzfg": false,
      "metar_trigger": false,
      "taf_trigger": false,
      "metar": "METAR EKCH 050620Z AUTO 18019KT 9999 FEW110/// 07/05 Q1002 NOSIG",
      "taf": "TAF EKCH 050527Z 0506/0606 16018KT 9999 BKN030"
    },
    {
      "icao": "ENAL",
      "alert": "OK",
      "vis_m": 9999,
      "fzfg": false,
      "metar_trigger": false,
      "taf_trigger": false,
      "metar": "METAR ENAL 050620Z 12016KT 9999 -RA FEW034 SCT045 BKN058 03/M02 Q0985",
      "taf": "TAF ENAL 050500Z 0506/0515 06012KT 9999 -RA FEW030 BKN045"
    },
    {
      "icao": "ENBR",
      "alert": "OK",
      "vis_m": 9999,
      "fzfg": false,
      "metar_trigger": false,
      "taf_trigger": false,
      "metar": "METAR ENBR 050620Z 11010KT 9999 -RA FEW010 BKN014 03/02 Q0979 TEMPO 14015G28KT 4000 RASN BKN009 RMK WIND 1200FT 12024KT",
      "taf": "TAF ENBR 050500Z 0506/0606 13012KT 9999 -RA FEW010 BKN020"
    },
    {
      "icao": "ENGM",
      "alert": "OK",
      "vis_m": 1400,
      "fzfg": false,
      "metar_trigger": false,
      "taf_trigger": false,
      "metar": "METAR ENGM 050620Z 09006KT 070V140 1400 1200NE R19R/P2000N R01R/1700D R19L/1700D R01L/2000D -SHSN SCT007 OVC011 00/M01 Q0992 TEMPO BKN006",
      "taf": "TAF ENGM 050500Z 0506/0606 14005KT 9999 -SNRA FEW008 BKN015"
    },
    {
      "icao": "ENHD",
      "alert": "OK",
      "vis_m": 9000,
      "fzfg": false,
      "metar_trigger": false,
      "taf_trigger": false,
      "metar": "METAR ENHD 050620Z 15017KT 9000 -RA SCT009 BKN012 07/05 Q0977 RERA",
      "taf": "TAF ENHD 050500Z 0506/0515 12022KT 9999 -RA FEW007 BKN012"
    },
    {
      "icao": "ENTC",
      "alert": "OK",
      "vis_m": 9999,
      "fzfg": false,
      "metar_trigger": false,
      "taf_trigger": false,
      "metar": "METAR ENTC 050620Z AUTO 11002KT 9999 NCD M01/M03 Q0996 RMK WIND 2600FT 16009KT",
      "taf": "TAF ENTC 050500Z 0506/0606 17005KT 9999 FEW015 SCT020 BKN045"
    },
    {
      "icao": "ENTO",
      "alert": "OK",
      "vis_m": 5000,
      "fzfg": false,
      "metar_trigger": false,
      "taf_trigger": false,
      "metar": "METAR ENTO 050620Z 14014KT 110V170 5000 RA OVC003 04/04 Q0988 TEMPO 15020G30KT BKN005",
      "taf": "TAF ENTO 050500Z 0506/0606 18018KT 9999 -RA BKN008"
    },
    {
      "icao": "ENVA",
      "alert": "OK",
      "vis_m": 9999,
      "fzfg": false,
      "metar_trigger": false,
      "taf_trigger": false,
      "metar": "METAR ENVA 050620Z 09010KT 060V130 CAVOK 03/M07 Q0992 NOSIG RMK WIND 670FT 12014KT",
      "taf": "TAF ENVA 050500Z 0506/0606 11007KT CAVOK"
    },
    {
      "icao": "ENZV",
      "alert": "OK",
      "vis_m": 8000,
      "fzfg": false,
      "metar_trigger": false,
      "taf_trigger": false,
      "metar": "METAR ENZV 050620Z 16025G39KT 8000 RA FEW006 BKN014 BKN026 07/05 Q0978 TEMPO SHRA BKN008 SCT018CB",
      "taf": "TAF ENZV 050500Z 0506/0606 18020G30KT 9999 -RA FEW015 BKN025"
    },
    {
      "icao": "EPGD",
      "alert": "OK",
      "vis_m": 9999,
      "fzfg": false,
      "metar_trigger": false,
      "taf_trigger": false,
      "metar": "METAR EPGD 050630Z 19009KT 9999 FEW044 07/M01 Q1012",
      "taf": "TAF EPGD 050530Z 0506/0606 22010KT CAVOK"
    },
    {
      "icao": "EPKK",
      "alert": "OK",
      "vis_m": 9999,
      "fzfg": false,
      "metar_trigger": false,
      "taf_trigger": false,
      "metar": "METAR EPKK 050630Z VRB02KT CAVOK 09/06 Q1021",
      "taf": "TAF EPKK 050530Z 0506/0606 VRB02KT CAVOK"
    },
    {
      "icao": "EPKT",
      "alert": "OK",
      "vis_m": 9999,
      "fzfg": false,
      "metar_trigger": false,
      "taf_trigger": false,
      "metar": "METAR EPKT 050630Z 21010KT CAVOK 09/06 Q1020",
      "taf": "TAF EPKT 050530Z 0506/0606 VRB02KT CAVOK"
    },
    {
      "icao": "EPLB",
      "alert": "OK",
      "vis_m": 9999,
      "fzfg": false,
      "metar_trigger": false,
      "taf_trigger": false,
      "metar": "METAR EPLB 050630Z 25007KT CAVOK 09/02 Q1020",
      "taf": "TAF EPLB 050530Z 0506/0606 25008KT CAVOK"
    },
    {
      "icao": "EPMO",
      "alert": "OK",
      "vis_m": 9999,
      "fzfg": false,
      "metar_trigger": false,
      "taf_trigger": false,
      "metar": "METAR EPMO 050630Z 18006KT CAVOK 06/M00 Q1018",
      "taf": "TAF EPMO 050530Z 0506/0606 22010KT CAVOK"
    },
    {
      "icao": "EPPO",
      "alert": "OK",
      "vis_m": 9999,
      "fzfg": false,
      "metar_trigger": false,
      "taf_trigger": false,
      "metar": "METAR EPPO 050630Z 19008KT CAVOK 10/04 Q1015",
      "taf": "TAF EPPO 050530Z 0506/0606 18005KT CAVOK"
    },
    {
      "icao": "EPRA",
      "alert": "OK",
      "vis_m": 9999,
      "fzfg": false,
      "metar_trigger": false,
      "taf_trigger": false,
      "metar": "METAR EPRA 050630Z 23007KT CAVOK 09/00 Q1019",
      "taf": "TAF EPRA 050530Z 0506/0515 22010KT CAVOK"
    },
    {
      "icao": "EPRZ",
      "alert": "OK",
      "vis_m": 9999,
      "fzfg": false,
      "metar_trigger": false,
      "taf_trigger": false,
      "metar": "METAR EPRZ 050630Z 23008KT CAVOK 10/07 Q1021",
      "taf": "TAF EPRZ 050530Z 0506/0606 22003KT CAVOK"
    },
    {
      "icao": "EPSC",
      "alert": "OK",
      "vis_m": 9999,
      "fzfg": false,
      "metar_trigger": false,
      "taf_trigger": false,
      "metar": "METAR EPSC 050630Z 16014KT CAVOK 09/04 Q1010",
      "taf": "TAF EPSC 050530Z 0506/0606 16012KT 9999 BKN040"
    },
    {
      "icao": "EPSY",
      "alert": "OK",
      "vis_m": 9999,
      "fzfg": false,
      "metar_trigger": false,
      "taf_trigger": false,
      "metar": "METAR EPSY 050630Z 21007KT CAVOK 06/M01 Q1016",
      "taf": "TAF EPSY 050530Z 0506/0515 22006KT CAVOK"
    },
    {
      "icao": "EPWA",
      "alert": "OK",
      "vis_m": 9999,
      "fzfg": false,
      "metar_trigger": false,
      "taf_trigger": false,
      "metar": "METAR EPWA 050630Z 19004KT 160V220 CAVOK 09/M01 Q1018 NOSIG",
      "taf": "TAF EPWA 050530Z 0506/0606 VRB03KT CAVOK"
    },
    {
      "icao": "EPWR",
      "alert": "OK",
      "vis_m": 9999,
      "fzfg": false,
      "metar_trigger": false,
      "taf_trigger": false,
      "metar": "METAR EPWR 050630Z 19008KT CAVOK 12/07 Q1017",
      "taf": "TAF EPWR 050530Z 0506/0606 14004KT CAVOK"
    },
    {
      "icao": "ESGG",
      "alert": "OK",
      "vis_m": 9999,
      "fzfg": false,
      "metar_trigger": false,
      "taf_trigger": false,
      "metar": "METAR ESGG 050620Z 16017KT 9999 BKN008 06/05 Q0995",
      "taf": "TAF ESGG 050530Z 0506/0606 17015G30KT 9999 -RA BKN015"
    },
    {
      "icao": "ESKN",
      "alert": "OK",
      "vis_m": 9999,
      "fzfg": false,
      "metar_trigger": false,
      "taf_trigger": false,
      "metar": "METAR ESKN 050620Z 14007KT CAVOK 02/00 Q1003",
      "taf": "TAF ESKN 050530Z 0506/0606 18005KT CAVOK"
    },
    {
      "icao": "ESMS",
      "alert": "OK",
      "vis_m": 9999,
      "fzfg": false,
      "metar_trigger": false,
      "taf_trigger": false,
      "metar": "METAR ESMS 050620Z 19018KT 9999 BKN051 08/05 Q1003",
      "taf": "TAF ESMS 050527Z 0506/0606 16015KT 9999 BKN030"
    },
    {
      "icao": "ESSA",
      "alert": "OK",
      "vis_m": 9999,
      "fzfg": false,
      "metar_trigger": false,
      "taf_trigger": false,
      "metar": "METAR ESSA 050620Z 19007KT CAVOK 02/M00 Q1003 NOSIG",
      "taf": "TAF ESSA 050530Z 0506/0606 22005KT CAVOK"
    },
    {
      "icao": "EYKA",
      "alert": "OK",
      "vis_m": 9999,
      "fzfg": false,
      "metar_trigger": false,
      "taf_trigger": false,
      "metar": "METAR EYKA 050620Z 27014KT CAVOK 05/01 Q1013",
      "taf": "TAF EYKA 050500Z 0506/0606 25014KT 9000 NSC"
    },
    {
      "icao": "EYPA",
      "alert": "OK",
      "vis_m": 9999,
      "fzfg": false,
      "metar_trigger": false,
      "taf_trigger": false,
      "metar": "METAR EYPA 050620Z 23005KT 180V280 CAVOK 05/02 Q1012",
      "taf": "TAF EYPA 050500Z 0506/0606 VRB05KT 9000 NSC"
    },
    {
      "icao": "EYVI",
      "alert": "OK",
      "vis_m": 9999,
      "fzfg": false,
      "metar_trigger": false,
      "taf_trigger": false,
      "metar": "METAR EYVI 050620Z 27012KT 9999 SCT017 04/00 Q1013 NOSIG",
      "taf": "TAF EYVI 050500Z 0506/0606 25012KT 9000 SCT045"
    },
    {
      "icao": "GCFV",
      "alert": "OK",
      "vis_m": 9999,
      "fzfg": false,
      "metar_trigger": false,
      "taf_trigger": false,
      "metar": "METAR GCFV 050630Z 35005KT 300V010 9999 FEW010 17/15 Q1016",
      "taf": "TAF GCFV 050200Z 0503/0603 04005KT 9999 FEW015 TX23/0514Z TN17/0506Z"
    },
    {
      "icao": "GCLP",
      "alert": "OK",
      "vis_m": 9999,
      "fzfg": false,
      "metar_trigger": false,
      "taf_trigger": false,
      "metar": "METAR GCLP 050630Z 01010KT CAVOK 17/15 Q1015 NOSIG",
      "taf": "TAF GCLP 050200Z 0503/0603 36011KT 9999 FEW040 TX24/0514Z TN17/0506Z"
    },
    {
      "icao": "GCTS",
      "alert": "OK",
      "vis_m": 9999,
      "fzfg": false,
      "metar_trigger": false,
      "taf_trigger": false,
      "metar": "METAR GCTS 050630Z VRB03KT 9999 FEW100 16/14 Q1015 NOSIG",
      "taf": "TAF GCTS 050200Z 0503/0603 02005KT 9999 FEW100 TX24/0514Z TN16/0506Z"
    },
    {
      "icao": "GMAD",
      "alert": "OK",
      "vis_m": 8000,
      "fzfg": false,
      "metar_trigger": false,
      "taf_trigger": false,
      "metar": "METAR GMAD 050630Z 14003KT 070V180 8000 NSC 13/M11 Q1015 NOSIG",
      "taf": "TAF GMAD 050500Z 0506/0612 06005KT 8000 NSC"
    },
    {
      "icao": "GMMN",
      "alert": "OK",
      "vis_m": 8000,
      "fzfg": false,
      "metar_trigger": false,
      "taf_trigger": false,
      "metar": "METAR GMMN 050630Z 16005KT 8000 NSC 09/06 Q1017 NOSIG",
      "taf": "TAF GMMN 050500Z 0506/0612 16006KT CAVOK"
    },
    {
      "icao": "GMMX",
      "alert": "OK",
      "vis_m": 9999,
      "fzfg": false,
      "metar_trigger": false,
      "taf_trigger": false,
      "metar": "METAR GMMX 050630Z 07007KT 9999 FEW100 13/08 Q1017 NOSIG",
      "taf": "TAF GMMX 050500Z 0506/0612 08006KT 8000 NSC"
    },
    {
      "icao": "HEGN",
      "alert": "OK",
      "vis_m": 9999,
      "fzfg": false,
      "metar_trigger": false,
      "taf_trigger": false,
      "metar": "METAR HEGN 050600Z 30017KT CAVOK 23/02 Q1018 NOSIG",
      "taf": "TAF HEGN 050500Z 0506/0612 32016KT CAVOK"
    },
    {
      "icao": "HEMA",
      "alert": "OK",
      "vis_m": 1700,
      "fzfg": false,
      "metar_trigger": false,
      "taf_trigger": false,
      "metar": "METAR HEMA 050600Z 34032KT 1700 SA NSC 23/M01 Q1016 NOSIG",
      "taf": "TAF HEMA 050500Z 0506/0612 33017KT CAVOK"
    },
    {
      "icao": "HESH",
      "alert": "OK",
      "vis_m": 9999,
      "fzfg": false,
      "metar_trigger": false,
      "taf_trigger": false,
      "metar": "METAR HESH 050600Z 35018KT CAVOK 23/M00 Q1018 NOSIG",
      "taf": "TAF HESH 050500Z 0506/0612 35014KT CAVOK"
    },
    {
      "icao": "HESX",
      "alert": "OK",
      "vis_m": 9999,
      "fzfg": false,
      "metar_trigger": false,
      "taf_trigger": false,
      "metar": "METAR HESX 050600Z 16003KT CAVOK 19/01 Q1018 NOSIG",
      "taf": "TAF HESX 050500Z 0506/0612 VRB04KT CAVOK"
    },
    {
      "icao": "LATI",
      "alert": "OK",
      "vis_m": 9999,
      "fzfg": false,
      "metar_trigger": false,
      "taf_trigger": false,
      "metar": "METAR LATI 050620Z VRB01KT CAVOK 12/05 Q1021 NOSIG",
      "taf": "TAF LATI 050500Z 0506/0606 VRB04KT CAVOK TX23/0512Z TN05/0604Z"
    },
    {
      "icao": "LBPD",
      "alert": "OK",
      "vis_m": 9999,
      "fzfg": false,
      "metar_trigger": false,
      "taf_trigger": false,
      "metar": "METAR LBPD 050630Z AUTO 34003KT 290V040 9999 NCD 13/07 Q1022 NOSIG",
      "taf": "TAF LBPD 050500Z 0506/0606 VRB04KT 9999 BKN050"
    },
    {
      "icao": "LBSF",
      "alert": "OK",
      "vis_m": 4000,
      "fzfg": false,
      "metar_trigger": false,
      "taf_trigger": false,
      "metar": "METAR LBSF 050630Z 00000KT 4000 BR FEW003 SCT062 07/06 Q1024 TEMPO 2000 BR SCT003",
      "taf": "TAF LBSF 050500Z 0506/0606 VRB04KT 9999 SCT060"
    },
    {
      "icao": "LBWN",
      "alert": "OK",
      "vis_m": 9999,
      "fzfg": false,
      "metar_trigger": false,
      "taf_trigger": false,
      "metar": "METAR LBWN 050630Z 30004KT 250V020 CAVOK 15/08 Q1020 NOSIG",
      "taf": "TAF LBWN 050500Z 0506/0606 VRB04KT 9999 SCT045"
    },
    {
      "icao": "LCLK",
      "alert": "OK",
      "vis_m": 9999,
      "fzfg": false,
      "metar_trigger": false,
      "taf_trigger": false,
      "metar": "METAR LCLK 050630Z 15004KT 070V230 9999 FEW025CB 18/12 Q1016 NOSIG RMK CB TO S",
      "taf": "TAF LCLK 050530Z 0506/0606 26007KT 9999 FEW025 SCT040"
    },
    {
      "icao": "LCPH",
      "alert": "OK",
      "vis_m": 9999,
      "fzfg": false,
      "metar_trigger": false,
      "taf_trigger": false,
      "metar": "METAR LCPH 050630Z 11004KT 070V160 9999 TS FEW018 FEW025TCU FEW030CB BKN055 16/13 Q1016 TEMPO 5000 TSRA SCT030CB",
      "taf": "TAF LCPH 050530Z 0506/0606 03007KT 9999 FEW025 SCT050"
    },
    {
      "icao": "LEAL",
      "alert": "OK",
      "vis_m": 9999,
      "fzfg": false,
      "metar_trigger": false,
      "taf_trigger": false,
      "metar": "METAR LEAL 050630Z VRB01KT CAVOK 11/08 Q1024 NOSIG",
      "taf": "TAF LEAL 050500Z 0506/0606 VRB04KT CAVOK TX21/0512Z TN09/0506Z"
    },
    {
      "icao": "LEBB",
      "alert": "OK",
      "vis_m": 9999,
      "fzfg": false,
      "metar_trigger": false,
      "taf_trigger": false,
      "metar": "METAR LEBB 050630Z 07003KT 020V100 CAVOK 10/09 Q1024 NOSIG",
      "taf": "TAF LEBB 050500Z 0506/0606 32009KT 9999 SCT010 TX19/0514Z TN09/0603Z"
    },
    {
      "icao": "LEBL",
      "alert": "OK",
      "vis_m": 9999,
      "fzfg": false,
      "metar_trigger": false,
      "taf_trigger": false,
      "metar": "METAR LEBL 050630Z 32006G19KT 9999 SCT004 12/07 Q1024 NOSIG",
      "taf": "TAF LEBL 050500Z 0506/0606 34006KT 9999 FEW020 TX20/0512Z TN10/0506Z"
    },
    {
      "icao": "LECH",
      "alert": "OK",
      "vis_m": 9000,
      "fzfg": false,
      "metar_trigger": false,
      "taf_trigger": false,
      "metar": "METAR LECH 050630Z AUTO 18001KT 9000 NCD 11/05 Q1024",
      "taf": "TAF LECH 050500Z 0506/0606 VRB04KT CAVOK TX23/0513Z TN09/0506Z"
    },
    {
      "icao": "LEMD",
      "alert": "OK",
      "vis_m": 9999,
      "fzfg": false,
      "metar_trigger": false,
      "taf_trigger": false,
      "metar": "METAR LEMD 050630Z 36002KT CAVOK 07/05 Q1024 NOSIG",
      "taf": "TAF LEMD 050500Z 0506/0612 VRB04KT CAVOK TX26/0516Z TN08/0506Z"
    },
    {
      "icao": "LEMG",
      "alert": "OK",
      "vis_m": 9999,
      "fzfg": false,
      "metar_trigger": false,
      "taf_trigger": false,
      "metar": "METAR LEMG 050630Z 29005KT CAVOK 08/02 Q1023 NOSIG",
      "taf": "TAF LEMG 050500Z 0506/0606 29006KT CAVOK TX22/0514Z TN11/0507Z"
    },
    {
      "icao": "LEVC",
      "alert": "OK",
      "vis_m": 9999,
      "fzfg": false,
      "metar_trigger": false,
      "taf_trigger": false,
      "metar": "METAR LEVC 050630Z VRB02KT CAVOK 10/06 Q1024 NOSIG",
      "taf": "TAF LEVC 050500Z 0506/0606 VRB05KT CAVOK TX25/0514Z TN10/0506Z"
    },
    {
      "icao": "LEXJ",
      "alert": "OK",
      "vis_m": 9000,
      "fzfg": false,
      "metar_trigger": false,
      "taf_trigger": false,
      "metar": "METAR LEXJ 050630Z 00000KT 9000 BKN015 11/10 Q1023",
      "taf": "TAF LEXJ 050200Z 0503/0603 27007KT 8000 SCT010 TX15/0513Z TN10/0603Z"
    },
    {
      "icao": "LEZG",
      "alert": "OK",
      "vis_m": 9999,
      "fzfg": false,
      "metar_trigger": false,
      "taf_trigger": false,
      "metar": "METAR LEZG 050630Z 07003KT CAVOK 11/06 Q1024 NOSIG",
      "taf": "TAF LEZG 050500Z 0506/0606 VRB04KT CAVOK TX29/0514Z TN10/0506Z"
    },
    {
      "icao": "LEZL",
      "alert": "OK",
      "vis_m": 9999,
      "fzfg": false,
      "metar_trigger": false,
      "taf_trigger": false,
      "metar": "METAR LEZL 050630Z 05010KT CAVOK 14/02 Q1021 NOSIG",
      "taf": "TAF LEZL 050200Z 0503/0603 08008KT CAVOK TX29/0515Z TN10/0507Z"
    },
    {
      "icao": "LFBD",
      "alert": "OK",
      "vis_m": 6000,
      "fzfg": false,
      "metar_trigger": false,
      "taf_trigger": false,
      "metar": "METAR LFBD 050630Z AUTO VRB02KT 6000 BKN004 OVC009 11/10 Q1023 BECMG NSC",
      "taf": "TAF LFBD 050500Z 0506/0612 VRB03KT 0400 FG VV/// TX26/0612Z TN08/0506Z"
    },
    {
      "icao": "LFLL",
      "alert": "OK",
      "vis_m": 9999,
      "fzfg": false,
      "metar_trigger": false,
      "taf_trigger": false,
      "metar": "METAR LFLL 050630Z 13004KT CAVOK 11/07 Q1023 NOSIG",
      "taf": "TAF LFLL 050500Z 0506/0612 16008KT CAVOK"
    },
    {
      "icao": "LFLS",
      "alert": "OK",
      "vis_m": 9999,
      "fzfg": false,
      "metar_trigger": false,
      "taf_trigger": false,
      "metar": "METAR LFLS 050630Z AUTO 09008KT CAVOK 09/07 Q1024 NOSIG",
      "taf": "TAF LFLS 050200Z 0503/0603 08008KT CAVOK"
    },
    {
      "icao": "LFMN",
      "alert": "OK",
      "vis_m": 9999,
      "fzfg": false,
      "metar_trigger": false,
      "taf_trigger": false,
      "metar": "METAR LFMN 050630Z 33005KT 310V010 CAVOK 13/05 Q1024 NOSIG",
      "taf": "TAF LFMN 050200Z 0503/0609 VRB05KT CAVOK"
    },
    {
      "icao": "LFOB",
      "alert": "OK",
      "vis_m": 9999,
      "fzfg": false,
      "metar_trigger": false,
      "taf_trigger": false,
      "metar": "METAR LFOB 050630Z AUTO 29015KT 250V310 9999 OVC019 10/08 Q1018 TEMPO 4000 -RA BKN014",
      "taf": "TAF LFOB 050500Z 0506/0606 26012KT 9999 BKN020"
    },
    {
      "icao": "LFPO",
      "alert": "OK",
      "vis_m": 9999,
      "fzfg": false,
      "metar_trigger": false,
      "taf_trigger": false,
      "metar": "METAR LFPO 050630Z 23010KT 9999 BKN027 11/07 Q1019 NOSIG",
      "taf": "TAF LFPO 050500Z 0506/0612 25012KT 9999 BKN030"
    },
    {
      "icao": "LFSB",
      "alert": "OK",
      "vis_m": 9999,
      "fzfg": false,
      "metar_trigger": false,
      "taf_trigger": false,
      "metar": "METAR LFSB 050630Z AUTO 18005KT CAVOK 10/08 Q1021 NOSIG",
      "taf": "TAF LFSB 050500Z 0506/0606 19006KT CAVOK"
    },
    {
      "icao": "LGAV",
      "alert": "OK",
      "vis_m": 9999,
      "fzfg": false,
      "metar_trigger": false,
      "taf_trigger": false,
      "metar": "METAR LGAV 050620Z 03011KT 9999 SCT020 BKN070 14/10 Q1020 NOSIG",
      "taf": "TAF LGAV 050500Z 0506/0606 02010KT 9999 FEW018 SCT025 BKN070"
    },
    {
      "icao": "LGTS",
      "alert": "OK",
      "vis_m": 9999,
      "fzfg": false,
      "metar_trigger": false,
      "taf_trigger": false,
      "metar": "METAR LGTS 050620Z VRB02KT 9999 FEW025 11/11 Q1022 NOSIG",
      "taf": "TAF LGTS 050500Z 0506/0606 33012KT 9999 FEW025"
    },
    {
      "icao": "LHBP",
      "alert": "OK",
      "vis_m": 9999,
      "fzfg": false,
      "metar_trigger": false,
      "taf_trigger": false,
      "metar": "METAR LHBP 050630Z 31005KT 280V340 CAVOK 12/08 Q1023 NOSIG",
      "taf": "TAF LHBP 050515Z 0506/0606 VRB03KT CAVOK"
    },
    {
      "icao": "LHDC",
      "alert": "OK",
      "vis_m": 9999,
      "fzfg": false,
      "metar_trigger": false,
      "taf_trigger": false,
      "metar": "METAR LHDC 050615Z AUTO VRB03KT CAVOK 10/07 Q1022 NOSIG",
      "taf": "TAF LHDC 050515Z 0506/0515 VRB02KT CAVOK"
    },
    {
      "icao": "LIBD",
      "alert": "OK",
      "vis_m": 9999,
      "fzfg": false,
      "metar_trigger": false,
      "taf_trigger": false,
      "metar": "METAR LIBD 050620Z 25005KT CAVOK 13/05 Q1023",
      "taf": "TAF LIBD 050500Z 0506/0606 26010KT CAVOK"
    },
    {
      "icao": "LIBG",
      "alert": "OK",
      "vis_m": 9999,
      "fzfg": false,
      "metar_trigger": false,
      "taf_trigger": false,
      "metar": "SPECI LIBG 050557Z 34006KT CAVOK 14/08 Q1022",
      "taf": "TAF LIBG 050607Z 0507/0515 VRB05KT CAVOK"
    },
    {
      "icao": "LIBP",
      "alert": "OK",
      "vis_m": 9999,
      "fzfg": false,
      "metar_trigger": false,
      "taf_trigger": false,
      "metar": "METAR LIBP 050620Z AUTO 24004KT 9999 NCD 10/05 Q1024",
      "taf": "TAF LIBP 050500Z 0506/0606 26006KT CAVOK"
    },
    {
      "icao": "LIBR",
      "alert": "OK",
      "vis_m": 9999,
      "fzfg": false,
      "metar_trigger": false,
      "taf_trigger": false,
      "metar": "METAR LIBR 050620Z 32016KT CAVOK 13/09 Q1022",
      "taf": "TAF LIBR 050500Z 0506/0606 33016KT CAVOK"
    },
    {
      "icao": "LICA",
      "alert": "OK",
      "vis_m": 9999,
      "fzfg": false,
      "metar_trigger": false,
      "taf_trigger": false,
      "metar": "METAR LICA 050620Z AUTO VRB01KT 9999 BKN019/// 13/11 Q1023",
      "taf": "TAF LICA 050500Z 0506/0606 VRB05KT 9999 SCT020"
    },
    {
      "icao": "LICC",
      "alert": "OK",
      "vis_m": 9999,
      "fzfg": false,
      "metar_trigger": false,
      "taf_trigger": false,
      "metar": "METAR LICC 050620Z 25005KT CAVOK 10/08 Q1023",
      "taf": "TAF LICC 050500Z 0506/0606 26007KT CAVOK"
    },
    {
      "icao": "LICJ",
      "alert": "OK",
      "vis_m": 9999,
      "fzfg": false,
      "metar_trigger": false,
      "taf_trigger": false,
      "metar": "METAR LICJ 050620Z 18004KT CAVOK 12/07 Q1024",
      "taf": "TAF LICJ 050500Z 0506/0606 VRB05KT CAVOK"
    },
    {
      "icao": "LIMC",
      "alert": "OK",
      "vis_m": 9999,
      "fzfg": false,
      "metar_trigger": false,
      "taf_trigger": false,
      "metar": "METAR LIMC 050620Z VRB01KT CAVOK 08/05 Q1024 NOSIG",
      "taf": "TAF LIMC 050500Z 0506/0612 VRB05KT CAVOK"
    },
    {
      "icao": "LIME",
      "alert": "OK",
      "vis_m": 9999,
      "fzfg": false,
      "metar_trigger": false,
      "taf_trigger": false,
      "metar": "METAR LIME 050620Z 01006KT CAVOK 11/05 Q1023 NOSIG",
      "taf": "TAF LIME 050500Z 0506/0606 VRB05KT CAVOK"
    },
    {
      "icao": "LIMF",
      "alert": "OK",
      "vis_m": 9999,
      "fzfg": false,
      "metar_trigger": false,
      "taf_trigger": false,
      "metar": "METAR LIMF 050620Z 31002KT CAVOK 11/02 Q1024",
      "taf": "TAF LIMF 050500Z 0506/0606 VRB05KT CAVOK"
    },
    {
      "icao": "LIMJ",
      "alert": "OK",
      "vis_m": 9999,
      "fzfg": false,
      "metar_trigger": false,
      "taf_trigger": false,
      "metar": "METAR LIMJ 050620Z VRB02KT CAVOK 12/04 Q1024",
      "taf": "TAF LIMJ 050500Z 0506/0606 VRB06KT CAVOK"
    },
    {
      "icao": "LIPE",
      "alert": "OK",
      "vis_m": 9999,
      "fzfg": false,
      "metar_trigger": false,
      "taf_trigger": false,
      "metar": "METAR LIPE 050620Z 19004KT CAVOK 11/M02 Q1023",
      "taf": "TAF LIPE 050500Z 0506/0606 VRB05KT CAVOK"
    },
    {
      "icao": "LIPH",
      "alert": "OK",
      "vis_m": 9999,
      "fzfg": false,
      "metar_trigger": false,
      "taf_trigger": false,
      "metar": "METAR LIPH 050620Z VRB02KT CAVOK 10/06 Q1024",
      "taf": "TAF LIPH 050500Z 0506/0606 VRB05KT CAVOK"
    },
    {
      "icao": "LIPQ",
      "alert": "OK",
      "vis_m": 9999,
      "fzfg": false,
      "metar_trigger": false,
      "taf_trigger": false,
      "metar": "METAR LIPQ 050620Z AUTO VRB02KT 9999 NCD 10/06 Q1024",
      "taf": "TAF LIPQ 050500Z 0506/0606 VRB05KT CAVOK"
    },
    {
      "icao": "LIPR",
      "alert": "OK",
      "vis_m": 9999,
      "fzfg": false,
      "metar_trigger": false,
      "taf_trigger": false,
      "metar": "METAR LIPR 050620Z VRB02KT CAVOK 09/05 Q1023",
      "taf": "TAF LIPR 050500Z 0506/0606 VRB05KT CAVOK"
    },
    {
      "icao": "LIPX",
      "alert": "OK",
      "vis_m": 9999,
      "fzfg": false,
      "metar_trigger": false,
      "taf_trigger": false,
      "metar": "METAR LIPX 050620Z 03002KT CAVOK 11/05 Q1024",
      "taf": "TAF LIPX 050500Z 0506/0606 VRB05KT CAVOK"
    },
    {
      "icao": "LIPY",
      "alert": "OK",
      "vis_m": 9999,
      "fzfg": false,
      "metar_trigger": false,
      "taf_trigger": false,
      "metar": "METAR LIPY 050620Z AUTO 21003KT 9999 NCD 11/06 Q1024",
      "taf": "TAF LIPY 050500Z 0506/0606 VRB05KT CAVOK"
    },
    {
      "icao": "LIPZ",
      "alert": "OK",
      "vis_m": 9999,
      "fzfg": false,
      "metar_trigger": false,
      "taf_trigger": false,
      "metar": "METAR LIPZ 050620Z 36004KT CAVOK 11/06 Q1024 NOSIG",
      "taf": "TAF LIPZ 050500Z 0506/0612 VRB05KT CAVOK"
    },
    {
      "icao": "LIRF",
      "alert": "OK",
      "vis_m": 9999,
      "fzfg": false,
      "metar_trigger": false,
      "taf_trigger": false,
      "metar": "METAR LIRF 050620Z 06003KT CAVOK 10/06 Q1024 NOSIG",
      "taf": "TAF LIRF 050500Z 0506/0612 07006KT CAVOK"
    },
    {
      "icao": "LIRN",
      "alert": "OK",
      "vis_m": 9999,
      "fzfg": false,
      "metar_trigger": false,
      "taf_trigger": false,
      "metar": "METAR LIRN 050620Z 35004KT 230V020 CAVOK 13/01 Q1023 NOSIG",
      "taf": "TAF LIRN 050500Z 0506/0606 03006KT CAVOK"
    },
    {
      "icao": "LIRP",
      "alert": "OK",
      "vis_m": 9999,
      "fzfg": false,
      "metar_trigger": false,
      "taf_trigger": false,
      "metar": "METAR LIRP 050615Z 11003KT CAVOK 07/06 Q1024 NOSIG",
      "taf": "TAF LIRP 050500Z 0506/0606 12005KT CAVOK"
    },
    {
      "icao": "LIRZ",
      "alert": "OK",
      "vis_m": 9999,
      "fzfg": false,
      "metar_trigger": false,
      "taf_trigger": false,
      "metar": "METAR LIRZ 050620Z AUTO VRB01KT 9999 NCD 08/04 Q1025",
      "taf": "TAF LIRZ 050500Z 0506/0606 VRB05KT CAVOK"
    },
    {
      "icao": "LJLJ",
      "alert": "OK",
      "vis_m": 9999,
      "fzfg": false,
      "metar_trigger": false,
      "taf_trigger": false,
      "metar": "METAR LJLJ 050630Z 00000KT CAVOK 07/04 Q1024 NOSIG",
      "taf": "TAF LJLJ 050500Z 0506/0606 30004KT 9999 FEW075"
    },
    {
      "icao": "LKMT",
      "alert": "OK",
      "vis_m": 9999,
      "fzfg": false,
      "metar_trigger": false,
      "taf_trigger": false,
      "metar": "METAR LKMT 050630Z 25008KT CAVOK 08/07 Q1021 NOSIG",
      "taf": "TAF LKMT 050500Z 0506/0606 23006KT CAVOK"
    },
    {
      "icao": "LKPR",
      "alert": "OK",
      "vis_m": 9999,
      "fzfg": false,
      "metar_trigger": false,
      "taf_trigger": false,
      "metar": "METAR LKPR 050630Z 20009KT CAVOK 11/08 Q1018 NOSIG",
      "taf": "TAF LKPR 050500Z 0506/0612 22008KT CAVOK"
    },
    {
      "icao": "LLBG",
      "alert": "OK",
      "vis_m": 9000,
      "fzfg": false,
      "metar_trigger": false,
      "taf_trigger": false,
      "metar": "METAR LLBG 050620Z 20007KT 9000 FEW030 18/12 Q1018 NOSIG",
      "taf": "TAF LLBG 050502Z 0506/0606 19008KT 6000 SCT030 TX20/0512Z TN10/0604Z"
    },
    {
      "icao": "LMML",
      "alert": "OK",
      "vis_m": 9999,
      "fzfg": false,
      "metar_trigger": false,
      "taf_trigger": false,
      "metar": "METAR LMML 050615Z 32004KT 9999 FEW020 14/12 Q1022 NOSIG",
      "taf": "TAF LMML 050500Z 0506/0606 33009KT 9999 FEW030"
    },
    {
      "icao": "LOWW",
      "alert": "OK",
      "vis_m": 9999,
      "fzfg": false,
      "metar_trigger": false,
      "taf_trigger": false,
      "metar": "METAR LOWW 050620Z 17006KT CAVOK 11/07 Q1022 NOSIG",
      "taf": "TAF LOWW 050515Z 0506/0612 17007KT CAVOK TX23/0514Z TN10/0506Z"
    },
    {
      "icao": "LPFR",
      "alert": "OK",
      "vis_m": 9999,
      "fzfg": false,
      "metar_trigger": false,
      "taf_trigger": false,
      "metar": "METAR LPFR 050630Z 06006KT 040V100 CAVOK 15/02 Q1020",
      "taf": "TAF LPFR 050500Z 0506/0606 03007KT CAVOK"
    },
    {
      "icao": "LPMA",
      "alert": "OK",
      "vis_m": 9999,
      "fzfg": false,
      "metar_trigger": false,
      "taf_trigger": false,
      "metar": "METAR LPMA 050630Z 35015KT 290V020 9999 FEW015 SCT070 17/09 Q1015",
      "taf": "TAF LPMA 050500Z 0506/0606 36012KT 9999 SCT015"
    },
    {
      "icao": "LPPR",
      "alert": "OK",
      "vis_m": 7000,
      "fzfg": false,
      "metar_trigger": false,
      "taf_trigger": false,
      "metar": "METAR LPPR 050630Z VRB02KT 7000 NSC 07/06 Q1022",
      "taf": "TAF LPPR 050500Z 0506/0606 VRB02KT CAVOK"
    },
    {
      "icao": "LPPS",
      "alert": "OK",
      "vis_m": 9999,
      "fzfg": false,
      "metar_trigger": false,
      "taf_trigger": false,
      "metar": "METAR LPPS 050630Z 02009KT 9999 SCT012 16/13 Q1017",
      "taf": "TAF LPPS 050500Z 0506/0612 03010KT 9999 SCT012"
    },
    {
      "icao": "LPPT",
      "alert": "OK",
      "vis_m": 9999,
      "fzfg": false,
      "metar_trigger": false,
      "taf_trigger": false,
      "metar": "METAR LPPT 050630Z VRB02KT CAVOK 12/07 Q1020",
      "taf": "TAF LPPT 050500Z 0506/0612 VRB02KT CAVOK"
    },
    {
      "icao": "LQBK",
      "alert": "OK",
      "vis_m": 9999,
      "fzfg": false,
      "metar_trigger": false,
      "taf_trigger": false,
      "metar": "METAR LQBK 050630Z 14005KT CAVOK 11/04 Q1024 NOSIG",
      "taf": "TAF LQBK 050500Z 0506/0606 16005KT CAVOK TX21/0513Z TN04/0605Z"
    },
    {
      "icao": "LQSA",
      "alert": "OK",
      "vis_m": 9999,
      "fzfg": false,
      "metar_trigger": false,
      "taf_trigger": false,
      "metar": "METAR LQSA 050630Z VRB02KT 9999 FEW050 07/02 Q1025 NOSIG",
      "taf": "TAF LQSA 050500Z 0506/0606 VRB02KT CAVOK TX19/0513Z TN04/0605Z"
    },
    {
      "icao": "LQTZ",
      "alert": "OK",
      "vis_m": 9999,
      "fzfg": false,
      "metar_trigger": false,
      "taf_trigger": false,
      "metar": "METAR LQTZ 050630Z VRB01KT 9999 FEW073 10/04 Q1025",
      "taf": "TAF LQTZ 050500Z 0506/0606 VRB02KT 9999 SCT060 TX18/0513Z TN03/0605Z"
    },
    {
      "icao": "LRBC",
      "alert": "OK",
      "vis_m": 9999,
      "fzfg": false,
      "metar_trigger": false,
      "taf_trigger": false,
      "metar": "METAR LRBC 050630Z VRB01KT CAVOK 11/05 Q1022",
      "taf": "TAF LRBC 050500Z 0506/0515 VRB04KT CAVOK"
    },
    {
      "icao": "LRBS",
      "alert": "OK",
      "vis_m": 9999,
      "fzfg": false,
      "metar_trigger": false,
      "taf_trigger": false,
      "metar": "METAR LRBS 050630Z VRB01KT CAVOK 12/08 Q1021 NOSIG",
      "taf": "TAF LRBS 050500Z 0506/0606 VRB04KT CAVOK"
    },
    {
      "icao": "LRBV",
      "alert": "OK",
      "vis_m": 9999,
      "fzfg": false,
      "metar_trigger": false,
      "taf_trigger": false,
      "metar": "METAR LRBV 050630Z VRB02KT CAVOK 07/03 Q1022",
      "taf": "TAF LRBV 050500Z 0506/0515 VRB04KT CAVOK"
    },
    {
      "icao": "LRCL",
      "alert": "OK",
      "vis_m": 9999,
      "fzfg": false,
      "metar_trigger": false,
      "taf_trigger": false,
      "metar": "METAR LRCL 050630Z VRB01KT CAVOK 10/03 Q1022",
      "taf": "TAF LRCL 050500Z 0506/0515 VRB04KT CAVOK"
    },
    {
      "icao": "LRCV",
      "alert": "OK",
      "vis_m": 9999,
      "fzfg": false,
      "metar_trigger": false,
      "taf_trigger": false,
      "metar": "METAR LRCV 050630Z VRB02KT CAVOK 13/06 Q1022",
      "taf": "TAF LRCV 050500Z 0506/0515 VRB04KT CAVOK"
    },
    {
      "icao": "LRIA",
      "alert": "OK",
      "vis_m": 9999,
      "fzfg": false,
      "metar_trigger": false,
      "taf_trigger": false,
      "metar": "METAR LRIA 050630Z 31009KT 270V340 CAVOK 13/06 Q1021",
      "taf": "TAF LRIA 050500Z 0506/0515 30009KT CAVOK"
    },
    {
      "icao": "LROP",
      "alert": "OK",
      "vis_m": 9999,
      "fzfg": false,
      "metar_trigger": false,
      "taf_trigger": false,
      "metar": "METAR LROP 050630Z 00000KT CAVOK 13/04 Q1021 NOSIG",
      "taf": "TAF LROP 050500Z 0506/0606 VRB04KT CAVOK"
    },
    {
      "icao": "LRSB",
      "alert": "OK",
      "vis_m": 9999,
      "fzfg": false,
      "metar_trigger": false,
      "taf_trigger": false,
      "metar": "METAR LRSB 050630Z VRB02KT CAVOK 10/04 Q1022",
      "taf": "TAF LRSB 050500Z 0506/0606 VRB04KT CAVOK"
    },
    {
      "icao": "LRSM",
      "alert": "OK",
      "vis_m": 9999,
      "fzfg": false,
      "metar_trigger": false,
      "taf_trigger": false,
      "metar": "METAR LRSM 050630Z AUTO 21003KT 180V260 9999 NCD 11/05 Q1022",
      "taf": ""
    },
    {
      "icao": "LRSV",
      "alert": "OK",
      "vis_m": 9999,
      "fzfg": false,
      "metar_trigger": false,
      "taf_trigger": false,
      "metar": "METAR LRSV 050630Z 30007KT 270V330 CAVOK 10/05 Q1021",
      "taf": "TAF LRSV 050500Z 0506/0515 31008KT CAVOK"
    },
    {
      "icao": "LRTM",
      "alert": "OK",
      "vis_m": 9999,
      "fzfg": false,
      "metar_trigger": false,
      "taf_trigger": false,
      "metar": "METAR LRTM 050630Z 07005KT CAVOK 07/03 Q1022",
      "taf": "TAF LRTM 050500Z 0506/0515 VRB04KT CAVOK"
    },
    {
      "icao": "LRTR",
      "alert": "OK",
      "vis_m": 9000,
      "fzfg": false,
      "metar_trigger": false,
      "taf_trigger": false,
      "metar": "METAR LRTR 050630Z 10004KT 9000 NSC 08/06 Q1023",
      "taf": "TAF LRTR 050500Z 0506/0606 VRB04KT CAVOK"
    },
    {
      "icao": "LTAC",
      "alert": "OK",
      "vis_m": 9999,
      "fzfg": false,
      "metar_trigger": false,
      "taf_trigger": false,
      "metar": "METAR LTAC 050620Z 04004KT 360V060 9999 SCT040 BKN080 10/04 Q1017 NOSIG RMK RWY21C 04005KT RWY03L 03004KT 360V070 RWY21R 03005KT 350V060 RWY03R VRB01KT RWY21L 04005KT 340V080",
      "taf": "TAF LTAC 050440Z 0506/0606 VRB02KT 9999 SCT040 SCT100"
    },
    {
      "icao": "LTFM",
      "alert": "OK",
      "vis_m": 9999,
      "fzfg": false,
      "metar_trigger": false,
      "taf_trigger": false,
      "metar": "METAR LTFM 050620Z 01008KT CAVOK 12/09 Q1021 NOSIG RMK RWY17L 35005KT 310V020 RWY34L 34007KT RWY16R 33004KT RWY36 36008KT 320V020 RWY18 34007G17KT 290V020",
      "taf": "TAF LTFM 050440Z 0506/0612 33007KT 3200 BR SCT012"
    },
    {
      "icao": "LUKK",
      "alert": "OK",
      "vis_m": 9999,
      "fzfg": false,
      "metar_trigger": false,
      "taf_trigger": false,
      "metar": "METAR LUKK 050630Z 35013KT CAVOK 14/05 Q1020 NOSIG",
      "taf": "TAF LUKK 050516Z 0506/0606 33012KT CAVOK"
    },
    {
      "icao": "LWOH",
      "alert": "OK",
      "vis_m": 9999,
      "fzfg": false,
      "metar_trigger": false,
      "taf_trigger": false,
      "metar": "METAR LWOH 050620Z 31007KT 270V330 9999 SCT040 10/03 Q1023",
      "taf": "TAF LWOH 050510Z 0506/0606 34006KT 9999 SCT040"
    },
    {
      "icao": "LWSK",
      "alert": "OK",
      "vis_m": 9999,
      "fzfg": false,
      "metar_trigger": false,
      "taf_trigger": false,
      "metar": "METAR LWSK 050620Z 01005KT 9999 FEW085 13/06 Q1024 NOSIG",
      "taf": "TAF LWSK 050510Z 0506/0606 02008KT 9999 SCT080"
    },
    {
      "icao": "LYBE",
      "alert": "OK",
      "vis_m": 9999,
      "fzfg": false,
      "metar_trigger": false,
      "taf_trigger": false,
      "metar": "METAR LYBE 050630Z 26007KT CAVOK 11/07 Q1024 NOSIG",
      "taf": "TAF LYBE 050500Z 0506/0606 26007KT 9999 SCT030 TX19/0514Z TN07/0605Z"
    },
    {
      "icao": "LYNI",
      "alert": "OK",
      "vis_m": 9999,
      "fzfg": false,
      "metar_trigger": false,
      "taf_trigger": false,
      "metar": "METAR LYNI 050630Z VRB01KT CAVOK 08/05 Q1024 NOSIG",
      "taf": "TAF LYNI 050500Z 0506/0606 30007KT 9999 SCT035 TX17/0513Z TN04/0605Z"
    },
    {
      "icao": "LYPG",
      "alert": "OK",
      "vis_m": 9999,
      "fzfg": false,
      "metar_trigger": false,
      "taf_trigger": false,
      "metar": "METAR LYPG 050630Z VRB01KT CAVOK 17/03 Q1023 NOSIG",
      "taf": "TAF LYPG 050500Z 0506/0606 33006KT CAVOK TX23/0512Z TN08/0604Z"
    },
    {
      "icao": "LZIB",
      "alert": "OK",
      "vis_m": 9999,
      "fzfg": false,
      "metar_trigger": false,
      "taf_trigger": false,
      "metar": "METAR LZIB 050630Z 22003KT 9999 FEW039 12/09 Q1022 NOSIG",
      "taf": "TAF LZIB 050515Z 0506/0606 20006KT CAVOK"
    },
    {
      "icao": "LZKZ",
      "alert": "OK",
      "vis_m": 9999,
      "fzfg": false,
      "metar_trigger": false,
      "taf_trigger": false,
      "metar": "METAR LZKZ 050630Z VRB01KT CAVOK 10/05 Q1022 NOSIG",
      "taf": "TAF LZKZ 050515Z 0506/0606 VRB02KT CAVOK"
    },
    {
      "icao": "LZTT",
      "alert": "OK",
      "vis_m": 9999,
      "fzfg": false,
      "metar_trigger": false,
      "taf_trigger": false,
      "metar": "METAR LZTT 050630Z 26012KT CAVOK 08/05 Q1020 NOSIG",
      "taf": "TAF LZTT 050515Z 0506/0606 27009KT 9999 FEW040"
    },
    {
      "icao": "OEJN",
      "alert": "OK",
      "vis_m": 9999,
      "fzfg": false,
      "metar_trigger": false,
      "taf_trigger": false,
      "metar": "METAR OEJN 050600Z 34014KT CAVOK 28/13 Q1012 NOSIG",
      "taf": "TAF OEJN 050500Z 0506/0612 34018KT 7000 NSC"
    },
    {
      "icao": "OEMA",
      "alert": "OK",
      "vis_m": 5000,
      "fzfg": false,
      "metar_trigger": false,
      "taf_trigger": false,
      "metar": "METAR OEMA 050600Z 33006KT 5000 DU NSC 26/07 Q1016 NOSIG",
      "taf": "TAF OEMA 050500Z 0506/0612 28012KT 7000 SCT040"
    },
    {
      "icao": "OJAI",
      "alert": "OK",
      "vis_m": 4000,
      "fzfg": false,
      "metar_trigger": false,
      "taf_trigger": false,
      "metar": "METAR OJAI 050600Z 00000KT 4000 HZ NSC 11/06 Q1019 NOSIG",
      "taf": "TAF OJAI 050500Z 0506/0612 25010KT 4000 DU FEW030"
    },
    {
      "icao": "OMAA",
      "alert": "OK",
      "vis_m": null,
      "fzfg": false,
      "metar_trigger": false,
      "taf_trigger": false,
      "metar": "",
      "taf": ""
    },
    {
      "icao": "OMDB",
      "alert": "OK",
      "vis_m": null,
      "fzfg": false,
      "metar_trigger": false,
      "taf_trigger": false,
      "metar": "",
      "taf": ""
    },
    {
      "icao": "UAAA",
      "alert": "OK",
      "vis_m": 9999,
      "fzfg": false,
      "metar_trigger": false,
      "taf_trigger": false,
      "metar": "METAR UAAA 050630Z 05002MPS 010V080 9999 SCT050 BKN100 20/08 Q1009 NOSIG",
      "taf": "TAF UAAA 050503Z 0506/0606 01003G08MPS 9999 SCT050CB BKN100 TX22/0509Z TN13/0601Z"
    },
    {
      "icao": "UBBB",
      "alert": "OK",
      "vis_m": 7000,
      "fzfg": false,
      "metar_trigger": false,
      "taf_trigger": false,
      "metar": "METAR UBBB 050630Z 30018G28KT 7000 -SHRA BKN004 BKN031CB OVC031 11/10 Q1004 NOSIG",
      "taf": "TAF UBBB 050506Z 0506/0606 31020G30KT 6000 SCT010 SCT030CB BKN030 TX13/0510Z TN09/0601Z"
    },
    {
      "icao": "UDSG",
      "alert": "OK",
      "vis_m": 9999,
      "fzfg": false,
      "metar_trigger": false,
      "taf_trigger": false,
      "metar": "METAR UDSG 050630Z 08004KT 020V140 9999 SCT043CB 08/M01 Q1013 NOSIG",
      "taf": "TAF UDSG 050458Z 0506/0606 33006KT 9999 SCT040"
    },
    {
      "icao": "UDYZ",
      "alert": "OK",
      "vis_m": 9999,
      "fzfg": false,
      "metar_trigger": false,
      "taf_trigger": false,
      "metar": "METAR UDYZ 050630Z VRB01KT 9999 FEW046 13/02 Q1010 NOSIG",
      "taf": "TAF UDYZ 050500Z 0506/0606 14006KT 9999 FEW040"
    },
    {
      "icao": "UGKO",
      "alert": "OK",
      "vis_m": 9999,
      "fzfg": false,
      "metar_trigger": false,
      "taf_trigger": false,
      "metar": "METAR UGKO 050630Z 30005KT 270V330 9999 SCT005 BKN010CB OVC022 11/10 Q1015 NOSIG",
      "taf": "TAF UGKO 050500Z 0506/0606 25007KT 9000 SCT020 OVC050 TX13/0510Z TN09/0603Z"
    }
  ]
}