{
  "ts_utc": "2026-01-30T16:01:48Z",
  "threshold_m": 150,
  "source": "stations_override.txt (ICAO list) + aviationweather.gov (METAR/TAF raw)",
  "station_count": 159,
  "stations": [
    {
      "icao": "BIKF",
      "alert": "OK",
      "vis_m": 9999,
      "fzfg": false,
      "metar_trigger": false,
      "taf_trigger": false,
      "metar": "METAR BIKF 301530Z 31003KT CAVOK 03/01 Q0999",
      "taf": "TAF BIKF 301332Z 3015/3115 02008KT 9999 FEW040 TX03/3015Z TNM02/3023Z"
    },
    {
      "icao": "BKPR",
      "alert": "OK",
      "vis_m": 9999,
      "fzfg": false,
      "metar_trigger": false,
      "taf_trigger": false,
      "metar": "METAR BKPR 301600Z 01003KT 9999 -RA SCT015 BKN025 07/06 Q1000 NOSIG",
      "taf": "TAF BKPR 301130Z 3012/3112 01007KT 9999 SCT015 BKN030"
    },
    {
      "icao": "EBCI",
      "alert": "OK",
      "vis_m": 9999,
      "fzfg": false,
      "metar_trigger": false,
      "taf_trigger": false,
      "metar": "METAR EBCI 301550Z 16007KT 9999 BKN008 05/03 Q0995 BECMG BKN015",
      "taf": "TAF EBCI 301108Z 3012/3118 17007KT 9999 BKN012"
    },
    {
      "icao": "EDDB",
      "alert": "OK",
      "vis_m": 7000,
      "fzfg": false,
      "metar_trigger": false,
      "taf_trigger": false,
      "metar": "METAR EDDB 301550Z AUTO 10008KT 070V130 7000 -SN OVC010 M01/M03 Q1006 TEMPO 2500 -SN",
      "taf": "TAF EDDB 301100Z 3012/3112 09010KT 5000 -SN OVC010"
    },
    {
      "icao": "EDDH",
      "alert": "OK",
      "vis_m": 9999,
      "fzfg": false,
      "metar_trigger": false,
      "taf_trigger": false,
      "metar": "METAR EDDH 301550Z AUTO 11011KT 080V140 9999 OVC012 M02/M04 Q1004 NOSIG",
      "taf": "TAF EDDH 301100Z 3012/3118 10012KT 9000 OVC012"
    },
    {
      "icao": "EDDK",
      "alert": "OK",
      "vis_m": 9999,
      "fzfg": false,
      "metar_trigger": false,
      "taf_trigger": false,
      "metar": "METAR EDDK 301550Z AUTO 12011KT 090V150 9999 BKN013 BKN021 BKN028 03/00 Q0998 BECMG BKN015",
      "taf": "TAF EDDK 301100Z 3012/3118 12009KT 9999 OVC013"
    },
    {
      "icao": "EDDN",
      "alert": "OK",
      "vis_m": 9999,
      "fzfg": false,
      "metar_trigger": false,
      "taf_trigger": false,
      "metar": "METAR EDDN 301550Z AUTO 14010KT 9999 OVC010 01/M01 Q1001 NOSIG",
      "taf": "TAF EDDN 301100Z 3012/3112 13005KT 8000 BKN005 BKN030"
    },
    {
      "icao": "EDDS",
      "alert": "OK",
      "vis_m": 9999,
      "fzfg": false,
      "metar_trigger": false,
      "taf_trigger": false,
      "metar": "METAR EDDS 301550Z AUTO 12002KT 9999 SCT018 OVC023 04/02 Q0998 NOSIG",
      "taf": "TAF EDDS 301100Z 3012/3112 VRB03KT 9000 BKN020"
    },
    {
      "icao": "EDFH",
      "alert": "OK",
      "vis_m": 200,
      "fzfg": true,
      "metar_trigger": false,
      "taf_trigger": false,
      "metar": "METAR EDFH 301550Z COR 13012KT 0200 R21/0450N -SN FG VV/// 00/00 Q0996",
      "taf": "TAF EDFH 301100Z 3012/3112 14014KT 0600 FZFG VV003"
    },
    {
      "icao": "EDJA",
      "alert": "OK",
      "vis_m": 9999,
      "fzfg": false,
      "metar_trigger": false,
      "taf_trigger": false,
      "metar": "METAR EDJA 301550Z 20004KT 9999 BKN028 OVC032 02/M01 Q0999",
      "taf": "TAF EDJA 301400Z 3015/3024 19003KT CAVOK"
    },
    {
      "icao": "EDLW",
      "alert": "OK",
      "vis_m": 9999,
      "fzfg": false,
      "metar_trigger": false,
      "taf_trigger": false,
      "metar": "METAR EDLW 301550Z 08005KT CAVOK 04/00 Q0997",
      "taf": "TAF EDLW 301100Z 3012/3112 11007KT CAVOK"
    },
    {
      "icao": "EDNY",
      "alert": "OK",
      "vis_m": 5000,
      "fzfg": false,
      "metar_trigger": false,
      "taf_trigger": false,
      "metar": "METAR EDNY 301550Z VRB01KT 5000 -RASN BKN010 BKN020 OVC023 01/00 Q1001",
      "taf": "TAF EDNY 301400Z 3015/3024 VRB03KT 9000 BKN006"
    },
    {
      "icao": "EDSB",
      "alert": "OK",
      "vis_m": 7000,
      "fzfg": false,
      "metar_trigger": false,
      "taf_trigger": false,
      "metar": "METAR EDSB 301550Z 07005KT 7000 FEW017 BKN025 OVC031 02/02 Q0999",
      "taf": "TAF EDSB 301100Z 3012/3112 VRB03KT 6000 BKN008 OVC020"
    },
    {
      "icao": "EETN",
      "alert": "OK",
      "vis_m": 9999,
      "fzfg": false,
      "metar_trigger": false,
      "taf_trigger": false,
      "metar": "METAR EETN 301550Z 09002KT CAVOK M16/M17 Q1027 NOSIG",
      "taf": "TAF EETN 301130Z 3012/3112 12003KT 9999 SCT004"
    },
    {
      "icao": "EFTU",
      "alert": "OK",
      "vis_m": 9999,
      "fzfg": false,
      "metar_trigger": false,
      "taf_trigger": false,
      "metar": "METAR EFTU 301550Z AUTO 08002KT CAVOK M15/M17 Q1027",
      "taf": "TAF EFTU 301435Z 3015/3115 07005KT CAVOK"
    },
    {
      "icao": "EGBB",
      "alert": "OK",
      "vis_m": 9999,
      "fzfg": false,
      "metar_trigger": false,
      "taf_trigger": false,
      "metar": "METAR EGBB 301550Z 11009KT 9999 BKN018 09/06 Q0985",
      "taf": ""
    },
    {
      "icao": "EGGP",
      "alert": "OK",
      "vis_m": 9999,
      "fzfg": false,
      "metar_trigger": false,
      "taf_trigger": false,
      "metar": "METAR EGGP 301550Z 11013KT 9999 SCT006 BKN014 07/05 Q0984",
      "taf": ""
    },
    {
      "icao": "EGGW",
      "alert": "OK",
      "vis_m": 9999,
      "fzfg": false,
      "metar_trigger": false,
      "taf_trigger": false,
      "metar": "METAR EGGW 301550Z AUTO 14010KT 9999 SCT024 BKN030 08/06 Q0986",
      "taf": "TAF EGGW 301105Z 3012/3112 15008KT 3000 -RA BR BKN002"
    },
    {
      "icao": "EGKK",
      "alert": "OK",
      "vis_m": 9999,
      "fzfg": false,
      "metar_trigger": false,
      "taf_trigger": false,
      "metar": "METAR EGKK 301550Z 14008KT 9999 BKN014 09/08 Q0987",
      "taf": "TAF EGKK 301054Z 3012/3118 19008KT 9999 SCT015"
    },
    {
      "icao": "EGNM",
      "alert": "OK",
      "vis_m": 200,
      "fzfg": false,
      "metar_trigger": false,
      "taf_trigger": false,
      "metar": "METAR EGNM 301550Z 10010KT 0200 R14/0325N -DZ FG VV/// 04/04 Q0987",
      "taf": "TAF EGNM 301100Z 3012/3112 10009KT 6000 BKN004"
    },
    {
      "icao": "EGPD",
      "alert": "OK",
      "vis_m": 7000,
      "fzfg": false,
      "metar_trigger": false,
      "taf_trigger": false,
      "metar": "METAR EGPD 301550Z COR 14016KT 7000 -RADZ BKN009 04/02 Q0994 TEMPO RA",
      "taf": ""
    },
    {
      "icao": "EGPF",
      "alert": "OK",
      "vis_m": 9999,
      "fzfg": false,
      "metar_trigger": false,
      "taf_trigger": false,
      "metar": "METAR EGPF 301550Z AUTO 09015KT 9999 OVC023 06/01 Q0988",
      "taf": ""
    },
    {
      "icao": "EHBK",
      "alert": "OK",
      "vis_m": 9999,
      "fzfg": false,
      "metar_trigger": false,
      "taf_trigger": false,
      "metar": "METAR EHBK 301555Z AUTO 16008KT 130V190 9999 OVC018/// 06/03 Q0996 TEMPO 7000 -RADZ",
      "taf": "TAF EHBK 301117Z 3012/3118 12005KT CAVOK"
    },
    {
      "icao": "EHEH",
      "alert": "OK",
      "vis_m": null,
      "fzfg": false,
      "metar_trigger": false,
      "taf_trigger": false,
      "metar": "",
      "taf": "TAF EHEH 301153Z 3012/3118 12007KT 9000 SCT008"
    },
    {
      "icao": "EKBI",
      "alert": "OK",
      "vis_m": 9999,
      "fzfg": false,
      "metar_trigger": false,
      "taf_trigger": false,
      "metar": "METAR EKBI 301550Z AUTO 10016KT 9999 -SN OVC011/// M00/M02 Q1006 REFZDZ",
      "taf": ""
    },
    {
      "icao": "EKCH",
      "alert": "OK",
      "vis_m": 9999,
      "fzfg": false,
      "metar_trigger": false,
      "taf_trigger": false,
      "metar": "METAR EKCH 301550Z 09018KT 9999 -SN OVC014 M00/M03 Q1011 TEMPO BKN015",
      "taf": "TAF EKCH 301427Z 3015/3115 09018KT 9999 -SN OVC015"
    },
    {
      "icao": "ENAL",
      "alert": "OK",
      "vis_m": 9999,
      "fzfg": false,
      "metar_trigger": false,
      "taf_trigger": false,
      "metar": "METAR ENAL 301550Z 13014KT 9999 FEW040 M01/M12 Q1011",
      "taf": "TAF ENAL 301400Z 3015/3024 14008KT 9999 FEW045"
    },
    {
      "icao": "ENBR",
      "alert": "OK",
      "vis_m": 9999,
      "fzfg": false,
      "metar_trigger": false,
      "taf_trigger": false,
      "metar": "METAR ENBR 301550Z VRB01KT CAVOK M04/M10 Q1010 NOSIG RMK WIND 1200FT 10005KT",
      "taf": "TAF ENBR 301100Z 3012/3112 08004KT CAVOK"
    },
    {
      "icao": "ENGM",
      "alert": "OK",
      "vis_m": 9999,
      "fzfg": false,
      "metar_trigger": false,
      "taf_trigger": false,
      "metar": "METAR ENGM 301550Z 02006KT 9999 -SN OVC032 M07/M09 Q1018 NOSIG",
      "taf": "TAF ENGM 301100Z 3012/3112 02008KT 9999 -SN BKN030"
    },
    {
      "icao": "ENHD",
      "alert": "OK",
      "vis_m": 9999,
      "fzfg": false,
      "metar_trigger": false,
      "taf_trigger": false,
      "metar": "METAR ENHD 301550Z 09013KT CAVOK M02/M13 Q1010",
      "taf": "TAF ENHD 301400Z 3015/3023 10015KT CAVOK"
    },
    {
      "icao": "ENTC",
      "alert": "OK",
      "vis_m": 9999,
      "fzfg": false,
      "metar_trigger": false,
      "taf_trigger": false,
      "metar": "METAR ENTC 301550Z 19014KT CAVOK M06/M11 Q1021 NOSIG RMK WIND 2600FT 18034KT",
      "taf": "TAF ENTC 301100Z 3012/3112 18008KT CAVOK"
    },
    {
      "icao": "ENTO",
      "alert": "OK",
      "vis_m": 9999,
      "fzfg": false,
      "metar_trigger": false,
      "taf_trigger": false,
      "metar": "METAR ENTO 301520Z 07006KT 030V110 9999 OVC034 M04/M09 Q1017 NOSIG",
      "taf": "TAF ENTO 301100Z 3012/3112 02010KT 9999 -SN FEW012 BKN030"
    },
    {
      "icao": "ENVA",
      "alert": "OK",
      "vis_m": 9999,
      "fzfg": false,
      "metar_trigger": false,
      "taf_trigger": false,
      "metar": "METAR ENVA 301550Z 12010KT 030V170 CAVOK M05/M14 Q1015 NOSIG RMK WIND 670FT 16029KT",
      "taf": "TAF ENVA 301100Z 3012/3112 13009KT CAVOK"
    },
    {
      "icao": "ENZV",
      "alert": "OK",
      "vis_m": 9999,
      "fzfg": false,
      "metar_trigger": false,
      "taf_trigger": false,
      "metar": "METAR ENZV 301550Z 10009KT 9999 BKN046 M02/M12 Q1009 NOSIG",
      "taf": ""
    },
    {
      "icao": "EPGD",
      "alert": "OK",
      "vis_m": 9999,
      "fzfg": false,
      "metar_trigger": false,
      "taf_trigger": false,
      "metar": "METAR EPGD 301530Z 10007KT 9999 BKN009 M09/M11 Q1013",
      "taf": "TAF EPGD 301130Z 3012/3112 07012KT 9999 OVC004"
    },
    {
      "icao": "EPKK",
      "alert": "OK",
      "vis_m": 4200,
      "fzfg": false,
      "metar_trigger": false,
      "taf_trigger": false,
      "metar": "METAR EPKK 301530Z 07012KT 4200 -FZDZ BR OVC006 M01/M02 Q1005",
      "taf": "TAF EPKK 301430Z 3015/3115 06012KT 5000 BR BKN007"
    },
    {
      "icao": "EPKT",
      "alert": "OK",
      "vis_m": 9999,
      "fzfg": false,
      "metar_trigger": false,
      "taf_trigger": false,
      "metar": "METAR EPKT 301530Z 07011KT 9999 OVC010 M01/M03 Q1004",
      "taf": "TAF EPKT 301130Z 3012/3112 07010KT 9999 OVC010"
    },
    {
      "icao": "EPLB",
      "alert": "OK",
      "vis_m": 9000,
      "fzfg": false,
      "metar_trigger": false,
      "taf_trigger": false,
      "metar": "METAR EPLB 301530Z 06012KT 9000 BKN009 OVC011 M06/M07 Q1010",
      "taf": ""
    },
    {
      "icao": "EPMO",
      "alert": "OK",
      "vis_m": 9999,
      "fzfg": false,
      "metar_trigger": false,
      "taf_trigger": false,
      "metar": "METAR EPMO 301530Z 07015KT 9999 SCT015 M07/M09 Q1011",
      "taf": ""
    },
    {
      "icao": "EPPO",
      "alert": "OK",
      "vis_m": 7000,
      "fzfg": false,
      "metar_trigger": false,
      "taf_trigger": false,
      "metar": "METAR EPPO 301530Z 07011KT 7000 BKN011 OVC034 M04/M06 Q1008",
      "taf": "TAF EPPO 301130Z 3012/3112 08010KT 6000 BKN009"
    },
    {
      "icao": "EPRA",
      "alert": "OK",
      "vis_m": 9999,
      "fzfg": false,
      "metar_trigger": false,
      "taf_trigger": false,
      "metar": "METAR EPRA 301530Z 07012KT 9999 OVC010 M05/M07 Q1009",
      "taf": "TAF EPRA 301430Z 3015/3024 08010KT 8000 OVC011"
    },
    {
      "icao": "EPRZ",
      "alert": "OK",
      "vis_m": 8000,
      "fzfg": false,
      "metar_trigger": false,
      "taf_trigger": false,
      "metar": "METAR EPRZ 301530Z 05013KT 8000 OVC005 M02/M03 Q1006",
      "taf": "TAF EPRZ 301130Z 3012/3112 06012KT 9999 BKN010"
    },
    {
      "icao": "EPSC",
      "alert": "OK",
      "vis_m": 8000,
      "fzfg": false,
      "metar_trigger": false,
      "taf_trigger": false,
      "metar": "METAR EPSC 301530Z 07008KT 8000 BKN007 M04/M05 Q1009",
      "taf": "TAF EPSC 301130Z 3012/3112 08012KT 9999 SCT008 OVC025"
    },
    {
      "icao": "EPSY",
      "alert": "OK",
      "vis_m": 9999,
      "fzfg": false,
      "metar_trigger": false,
      "taf_trigger": false,
      "metar": "METAR EPSY 301530Z 06006KT 030V090 9999 FEW047 M11/M14 Q1014",
      "taf": "TAF EPSY 301430Z 3015/3024 07006KT CAVOK"
    },
    {
      "icao": "EPWA",
      "alert": "OK",
      "vis_m": 9999,
      "fzfg": false,
      "metar_trigger": false,
      "taf_trigger": false,
      "metar": "METAR EPWA 301530Z 06011KT 9999 BKN013 M05/M08 Q1011 NOSIG",
      "taf": "TAF EPWA 301430Z 3015/3115 07011KT 9999 OVC013"
    },
    {
      "icao": "EPWR",
      "alert": "OK",
      "vis_m": 8000,
      "fzfg": false,
      "metar_trigger": false,
      "taf_trigger": false,
      "metar": "METAR EPWR 301530Z 08011KT 8000 BKN014 OVC023 M00/M03 Q1006",
      "taf": "TAF EPWR 301430Z 3015/3115 08010KT 9999 OVC013"
    },
    {
      "icao": "ESGG",
      "alert": "OK",
      "vis_m": 9999,
      "fzfg": false,
      "metar_trigger": false,
      "taf_trigger": false,
      "metar": "METAR ESGG 301550Z 09010KT 9999 BKN033 M04/M11 Q1014",
      "taf": "TAF ESGG 301430Z 3015/3115 10011KT 9999 BKN030"
    },
    {
      "icao": "ESKN",
      "alert": "OK",
      "vis_m": 9999,
      "fzfg": false,
      "metar_trigger": false,
      "taf_trigger": false,
      "metar": "METAR ESKN 301550Z 10012KT 9999 BKN033 M03/M09 Q1021",
      "taf": "TAF ESKN 301430Z 3015/3115 12010KT 9999 BKN035"
    },
    {
      "icao": "ESMS",
      "alert": "OK",
      "vis_m": 7000,
      "fzfg": false,
      "metar_trigger": false,
      "taf_trigger": false,
      "metar": "METAR ESMS 301550Z 09017KT 7000 BKN010 M01/M03 Q1010",
      "taf": "TAF ESMS 301427Z 3015/3115 09018KT 9999 -SN OVC018"
    },
    {
      "icao": "ESSA",
      "alert": "OK",
      "vis_m": 9999,
      "fzfg": false,
      "metar_trigger": false,
      "taf_trigger": false,
      "metar": "METAR ESSA 301550Z 10005KT 9999 SCT033 M05/M11 Q1023 NOSIG",
      "taf": "TAF ESSA 301430Z 3015/3115 12009KT 9999 BKN035"
    },
    {
      "icao": "EYKA",
      "alert": "OK",
      "vis_m": 9999,
      "fzfg": false,
      "metar_trigger": false,
      "taf_trigger": false,
      "metar": "METAR EYKA 301550Z 03005KT 350V080 CAVOK M12/M15 Q1020",
      "taf": "TAF EYKA 301100Z 3012/3112 07007KT 8000 NSC"
    },
    {
      "icao": "EYPA",
      "alert": "OK",
      "vis_m": 9999,
      "fzfg": false,
      "metar_trigger": false,
      "taf_trigger": false,
      "metar": "METAR EYPA 301550Z 07008KT CAVOK M12/M17 Q1020",
      "taf": "TAF EYPA 301100Z 3012/3112 09009KT 8000 NSC"
    },
    {
      "icao": "EYVI",
      "alert": "OK",
      "vis_m": 9999,
      "fzfg": false,
      "metar_trigger": false,
      "taf_trigger": false,
      "metar": "METAR EYVI 301550Z 05010KT CAVOK M13/M16 Q1018 NOSIG",
      "taf": "TAF EYVI 301100Z 3012/3112 06010KT 9000 NSC"
    },
    {
      "icao": "GCFV",
      "alert": "OK",
      "vis_m": 9999,
      "fzfg": false,
      "metar_trigger": false,
      "taf_trigger": false,
      "metar": "METAR GCFV 301530Z 35016KT 9999 SCT025 22/14 Q1024",
      "taf": "TAF GCFV 301400Z 3015/3115 01014KT 9999 FEW025 TX23/3114Z TN18/3106Z"
    },
    {
      "icao": "GCLP",
      "alert": "OK",
      "vis_m": 9999,
      "fzfg": false,
      "metar_trigger": false,
      "taf_trigger": false,
      "metar": "METAR GCLP 301530Z 36020KT 9999 FEW025 22/15 Q1023 NOSIG",
      "taf": "TAF GCLP 301400Z 3015/3115 01020KT 9999 FEW025 TX22/3114Z TN17/3106Z"
    },
    {
      "icao": "GCTS",
      "alert": "OK",
      "vis_m": 9999,
      "fzfg": false,
      "metar_trigger": false,
      "taf_trigger": false,
      "metar": "METAR GCTS 301530Z 20006KT 160V250 9999 BKN025 21/15 Q1024 NOSIG",
      "taf": ""
    },
    {
      "icao": "GMAD",
      "alert": "OK",
      "vis_m": 8000,
      "fzfg": false,
      "metar_trigger": false,
      "taf_trigger": false,
      "metar": "METAR GMAD 301530Z 21007KT 180V240 8000 BKN026 20/16 Q1021 NOSIG",
      "taf": "TAF GMAD 301100Z 3012/3118 22003KT 8000 SCT010 BKN020"
    },
    {
      "icao": "GMMN",
      "alert": "OK",
      "vis_m": 8000,
      "fzfg": false,
      "metar_trigger": false,
      "taf_trigger": false,
      "metar": "SPECI GMMN 301551Z 26013KT 230V300 8000 BKN016 18/16 Q1021 BECMG RA",
      "taf": "TAF GMMN 301100Z 3012/3118 24012KT 9999 BKN011"
    },
    {
      "icao": "GMMX",
      "alert": "OK",
      "vis_m": 9999,
      "fzfg": false,
      "metar_trigger": false,
      "taf_trigger": false,
      "metar": "METAR GMMX 301530Z 30005KT 250V360 9999 BKN020 18/15 Q1023 NOSIG",
      "taf": "TAF GMMX 301100Z 3012/3118 36006KT 8000 SCT020 SCT080"
    },
    {
      "icao": "HEGN",
      "alert": "OK",
      "vis_m": 9999,
      "fzfg": false,
      "metar_trigger": false,
      "taf_trigger": false,
      "metar": "METAR HEGN 301500Z 13006KT CAVOK 22/11 Q1014 NOSIG",
      "taf": "TAF HEGN 301100Z 3012/3118 08008KT CAVOK"
    },
    {
      "icao": "HEMA",
      "alert": "OK",
      "vis_m": 9999,
      "fzfg": false,
      "metar_trigger": false,
      "taf_trigger": false,
      "metar": "METAR HEMA 301500Z 12005KT CAVOK 22/10 Q1014 NOSIG",
      "taf": "TAF HEMA 301100Z 3012/3118 07008KT CAVOK"
    },
    {
      "icao": "HESH",
      "alert": "OK",
      "vis_m": 9999,
      "fzfg": false,
      "metar_trigger": false,
      "taf_trigger": false,
      "metar": "METAR HESH 301500Z 15011KT CAVOK 23/07 Q1013 NOSIG",
      "taf": "TAF HESH 301100Z 3012/3118 05008KT CAVOK"
    },
    {
      "icao": "HESX",
      "alert": "OK",
      "vis_m": 9999,
      "fzfg": false,
      "metar_trigger": false,
      "taf_trigger": false,
      "metar": "METAR HESX 301500Z 27012KT CAVOK 23/01 Q1011 NOSIG",
      "taf": "TAF HESX 301100Z 3012/3118 20012KT 9999 SCT025"
    },
    {
      "icao": "LATI",
      "alert": "OK",
      "vis_m": 9999,
      "fzfg": false,
      "metar_trigger": false,
      "taf_trigger": false,
      "metar": "METAR LATI 301550Z 14004KT 9999 FEW057 SCT080 11/05 Q1001 NOSIG",
      "taf": ""
    },
    {
      "icao": "LBPD",
      "alert": "OK",
      "vis_m": 9999,
      "fzfg": false,
      "metar_trigger": false,
      "taf_trigger": false,
      "metar": "METAR LBPD 301530Z AUTO 29007KT 9999 BKN071/// OVC080/// 11/05 Q0999 NOSIG",
      "taf": "TAF LBPD 301100Z 3012/3112 27012KT 9999 SCT030 BKN050"
    },
    {
      "icao": "LBSF",
      "alert": "OK",
      "vis_m": 9999,
      "fzfg": false,
      "metar_trigger": false,
      "taf_trigger": false,
      "metar": "METAR LBSF 301530Z 28007KT 9999 FEW028 BKN067 BKN080 06/03 Q1001 NOSIG",
      "taf": "TAF LBSF 301100Z 3012/3112 28010KT 9999 FEW012 SCT030 BKN050"
    },
    {
      "icao": "LBWN",
      "alert": "OK",
      "vis_m": 9999,
      "fzfg": false,
      "metar_trigger": false,
      "taf_trigger": false,
      "metar": "METAR LBWN 301530Z 28013KT 9999 -RA BKN014 OVC025 04/03 Q1000 NOSIG",
      "taf": "TAF LBWN 301100Z 3012/3112 34012KT 9999 -RA SCT018 OVC025"
    },
    {
      "icao": "LCLK",
      "alert": "OK",
      "vis_m": 9999,
      "fzfg": false,
      "metar_trigger": false,
      "taf_trigger": false,
      "metar": "METAR LCLK 301530Z 21012KT 9999 FEW040 17/13 Q1007 NOSIG",
      "taf": "TAF LCLK 301130Z 3012/3112 24020KT 8000 FEW030"
    },
    {
      "icao": "LCPH",
      "alert": "OK",
      "vis_m": 9999,
      "fzfg": false,
      "metar_trigger": false,
      "taf_trigger": false,
      "metar": "METAR LCPH 301530Z 31016KT 250V320 9999 FEW025 SCT050 17/12 Q1008 NOSIG",
      "taf": "TAF LCPH 301130Z 3012/3112 26018KT 9999 FEW020 SCT030"
    },
    {
      "icao": "LEAL",
      "alert": "OK",
      "vis_m": 9999,
      "fzfg": false,
      "metar_trigger": false,
      "taf_trigger": false,
      "metar": "METAR LEAL 301530Z 19006KT 150V280 CAVOK 19/05 Q1007 NOSIG",
      "taf": "TAF LEAL 301100Z 3012/3112 27009KT CAVOK TX20/3014Z TN11/3106Z"
    },
    {
      "icao": "LEBB",
      "alert": "OK",
      "vis_m": 9999,
      "fzfg": false,
      "metar_trigger": false,
      "taf_trigger": false,
      "metar": "METAR LEBB 301530Z VRB05G15KT 9999 FEW045 14/07 Q0999 NOSIG",
      "taf": "TAF LEBB 301100Z 3012/3112 22009KT 9999 FEW040 TX14/3013Z TN05/3101Z"
    },
    {
      "icao": "LEBL",
      "alert": "OK",
      "vis_m": 9999,
      "fzfg": false,
      "metar_trigger": false,
      "taf_trigger": false,
      "metar": "METAR LEBL 301530Z 23014KT 9999 FEW030 SCT055 16/09 Q1003 NOSIG",
      "taf": ""
    },
    {
      "icao": "LECH",
      "alert": "OK",
      "vis_m": 9000,
      "fzfg": false,
      "metar_trigger": false,
      "taf_trigger": false,
      "metar": "METAR LECH 301530Z AUTO 18007KT 140V200 9000 NCD 14/04 Q1003",
      "taf": ""
    },
    {
      "icao": "LEMD",
      "alert": "OK",
      "vis_m": 9999,
      "fzfg": false,
      "metar_trigger": false,
      "taf_trigger": false,
      "metar": "METAR LEMD 301530Z 21012KT 160V250 9999 BKN030 BKN055 10/04 Q1005 TEMPO RA",
      "taf": "TAF LEMD 301100Z 3012/3118 22010KT 9999 SCT020 TX11/3015Z TN04/3106Z"
    },
    {
      "icao": "LEMG",
      "alert": "OK",
      "vis_m": 9999,
      "fzfg": false,
      "metar_trigger": false,
      "taf_trigger": false,
      "metar": "METAR LEMG 301530Z 18005KT 140V210 9999 SCT075 19/11 Q1012 NOSIG",
      "taf": "TAF LEMG 301100Z 3012/3112 29010KT 9999 BKN050 TX21/3015Z TN12/3106Z"
    },
    {
      "icao": "LEVC",
      "alert": "OK",
      "vis_m": 9999,
      "fzfg": false,
      "metar_trigger": false,
      "taf_trigger": false,
      "metar": "METAR LEVC 301530Z 27015KT 220V320 9999 FEW058 16/04 Q1006 NOSIG",
      "taf": "TAF LEVC 301100Z 3012/3112 26010KT CAVOK TX18/3014Z TN10/3106Z"
    },
    {
      "icao": "LEXJ",
      "alert": "OK",
      "vis_m": 6000,
      "fzfg": false,
      "metar_trigger": false,
      "taf_trigger": false,
      "metar": "METAR LEXJ 301530Z COR 32015KT 290V020 6000 -RA SCT042 BKN057 OVC077 11/07 Q0999",
      "taf": ""
    },
    {
      "icao": "LEZG",
      "alert": "OK",
      "vis_m": 9999,
      "fzfg": false,
      "metar_trigger": false,
      "taf_trigger": false,
      "metar": "METAR LEZG 301530Z 24014KT 9999 FEW060 13/04 Q1003 NOSIG",
      "taf": "TAF LEZG 301100Z 3012/3112 25012KT CAVOK TX15/3013Z TN06/3106Z"
    },
    {
      "icao": "LEZL",
      "alert": "OK",
      "vis_m": 9999,
      "fzfg": false,
      "metar_trigger": false,
      "taf_trigger": false,
      "metar": "METAR LEZL 301530Z 23013KT 9999 BKN015 BKN020 18/15 Q1012 NOSIG",
      "taf": "TAF LEZL 301400Z 3015/3115 23010KT 9999 BKN020 TX18/3015Z TN10/3107Z"
    },
    {
      "icao": "LFBD",
      "alert": "OK",
      "vis_m": 9999,
      "fzfg": false,
      "metar_trigger": false,
      "taf_trigger": false,
      "metar": "METAR LFBD 301530Z AUTO 20009KT 9999 -RA FEW043 BKN052 OVC066 12/08 Q0997 TEMPO 21015G30KT 3000 SHRA BKN015TCU SCT020CB",
      "taf": "TAF LFBD 301100Z 3012/3118 21010KT 9999 BKN030 TX13/3013Z TN06/3106Z"
    },
    {
      "icao": "LFLL",
      "alert": "OK",
      "vis_m": 9999,
      "fzfg": false,
      "metar_trigger": false,
      "taf_trigger": false,
      "metar": "METAR LFLL 301530Z 13007KT CAVOK 10/05 Q1000 NOSIG",
      "taf": "TAF LFLL 301100Z 3012/3118 16008KT 9999 BKN045"
    },
    {
      "icao": "LFLS",
      "alert": "OK",
      "vis_m": 9999,
      "fzfg": false,
      "metar_trigger": false,
      "taf_trigger": false,
      "metar": "METAR LFLS 301530Z AUTO 08011KT CAVOK 08/05 Q1001 NOSIG",
      "taf": "TAF LFLS 301400Z 3015/3115 09008KT 9999 SCT040"
    },
    {
      "icao": "LFMN",
      "alert": "OK",
      "vis_m": 9999,
      "fzfg": false,
      "metar_trigger": false,
      "taf_trigger": false,
      "metar": "METAR LFMN 301530Z 13004KT 9999 SCT056 13/07 Q1000 NOSIG",
      "taf": "TAF LFMN 301400Z 3015/3121 14005KT 9999 FEW025 BKN050"
    },
    {
      "icao": "LFOB",
      "alert": "OK",
      "vis_m": 9999,
      "fzfg": false,
      "metar_trigger": false,
      "taf_trigger": false,
      "metar": "METAR LFOB 301530Z AUTO 16011KT 9999 FEW020 BKN062 BKN120 10/07 Q0992 TEMPO 4500 RA BKN014 OVC040",
      "taf": "TAF LFOB 301100Z 3012/3112 18008KT 9999 BKN020"
    },
    {
      "icao": "LFPO",
      "alert": "OK",
      "vis_m": 9999,
      "fzfg": false,
      "metar_trigger": false,
      "taf_trigger": false,
      "metar": "METAR LFPO 301530Z 18009KT 9999 FEW026 OVC056 11/07 Q0993 NOSIG",
      "taf": "TAF LFPO 301100Z 3012/3118 19010KT 9999 SCT012"
    },
    {
      "icao": "LFSB",
      "alert": "OK",
      "vis_m": 9999,
      "fzfg": false,
      "metar_trigger": false,
      "taf_trigger": false,
      "metar": "METAR LFSB 301530Z AUTO 13006KT 9999 BKN028 OVC036 05/04 Q1000 NOSIG",
      "taf": "TAF LFSB 301100Z 3012/3112 13007KT 8000 BKN030"
    },
    {
      "icao": "LGAV",
      "alert": "OK",
      "vis_m": 9999,
      "fzfg": false,
      "metar_trigger": false,
      "taf_trigger": false,
      "metar": "METAR LGAV 301550Z 18005KT 140V210 9999 FEW025 14/07 Q1002 NOSIG",
      "taf": "TAF LGAV 301100Z 3012/3112 25012KT 9999 SCT020"
    },
    {
      "icao": "LGTS",
      "alert": "OK",
      "vis_m": 9999,
      "fzfg": false,
      "metar_trigger": false,
      "taf_trigger": false,
      "metar": "METAR LGTS 301550Z VRB03KT 9999 FEW025 13/07 Q1000 NOSIG",
      "taf": "TAF LGTS 301100Z 3012/3112 34008KT 9999 FEW025"
    },
    {
      "icao": "LHBP",
      "alert": "OK",
      "vis_m": 5000,
      "fzfg": false,
      "metar_trigger": false,
      "taf_trigger": false,
      "metar": "METAR LHBP 301530Z 33003KT 5000 -RA BR SCT004 OVC012 04/04 Q1002 TEMPO BKN004",
      "taf": "TAF LHBP 301115Z 3012/3112 33005KT 5000 -RADZ BR SCT002 OVC020"
    },
    {
      "icao": "LHDC",
      "alert": "OK",
      "vis_m": 4300,
      "fzfg": false,
      "metar_trigger": false,
      "taf_trigger": false,
      "metar": "METAR LHDC 301515Z AUTO 04007KT 4300 -DZ BR OVC004 03/03 Q1001 BECMG 1200 DZ BR",
      "taf": "TAF LHDC 301415Z 3015/3024 03008KT 7000 -DZ OVC012"
    },
    {
      "icao": "LIBD",
      "alert": "OK",
      "vis_m": 9999,
      "fzfg": false,
      "metar_trigger": false,
      "taf_trigger": false,
      "metar": "METAR LIBD 301550Z 06003KT CAVOK 12/07 Q1001",
      "taf": "TAF LIBD 301100Z 3012/3112 02010KT CAVOK"
    },
    {
      "icao": "LIBG",
      "alert": "OK",
      "vis_m": 9999,
      "fzfg": false,
      "metar_trigger": false,
      "taf_trigger": false,
      "metar": "METAR LIBG 301450Z VRB02KT CAVOK 14/05 Q1000",
      "taf": "TAF LIBG 301400Z 3015/3024 VRB05KT CAVOK"
    },
    {
      "icao": "LIBP",
      "alert": "OK",
      "vis_m": 9999,
      "fzfg": false,
      "metar_trigger": false,
      "taf_trigger": false,
      "metar": "METAR LIBP 301550Z AUTO 04003KT 9999 BKN066/// 11/08 Q1001",
      "taf": "TAF LIBP 301100Z 3012/3112 VRB05KT CAVOK"
    },
    {
      "icao": "LIBR",
      "alert": "OK",
      "vis_m": 9999,
      "fzfg": false,
      "metar_trigger": false,
      "taf_trigger": false,
      "metar": "METAR LIBR 301550Z 05004KT 9999 FEW045 12/07 Q1001",
      "taf": "TAF LIBR 301100Z 3012/3112 VRB05KT CAVOK"
    },
    {
      "icao": "LICA",
      "alert": "OK",
      "vis_m": 9999,
      "fzfg": false,
      "metar_trigger": false,
      "taf_trigger": false,
      "metar": "METAR LICA 301550Z AUTO 18003KT 9999 OVC042/// 11/10 Q1001",
      "taf": "TAF LICA 301100Z 3012/3112 26010KT 8000 SCT015"
    },
    {
      "icao": "LICC",
      "alert": "OK",
      "vis_m": 9999,
      "fzfg": false,
      "metar_trigger": false,
      "taf_trigger": false,
      "metar": "METAR LICC 301550Z 26013KT 9999 FEW040 BKN100 17/13 Q1001",
      "taf": "TAF LICC 301100Z 3012/3112 27012KT 9999 SCT020"
    },
    {
      "icao": "LICJ",
      "alert": "OK",
      "vis_m": 9999,
      "fzfg": false,
      "metar_trigger": false,
      "taf_trigger": false,
      "metar": "METAR LICJ 301550Z 26017KT 9999 SCT020 15/10 Q1003",
      "taf": "TAF LICJ 301100Z 3012/3112 27016G26KT 9999 FEW025"
    },
    {
      "icao": "LIMC",
      "alert": "OK",
      "vis_m": 9999,
      "fzfg": false,
      "metar_trigger": false,
      "taf_trigger": false,
      "metar": "METAR LIMC 301550Z 21008KT 9999 FEW020 07/05 Q1001 NOSIG",
      "taf": "TAF LIMC 301100Z 3012/3118 VRB05KT 8000 BKN020"
    },
    {
      "icao": "LIME",
      "alert": "OK",
      "vis_m": 4000,
      "fzfg": false,
      "metar_trigger": false,
      "taf_trigger": false,
      "metar": "METAR LIME 301550Z 23006KT 4000 BR SCT025 07/05 Q1000 NOSIG",
      "taf": "TAF LIME 301100Z 3012/3112 VRB04KT 8000 SCT015"
    },
    {
      "icao": "LIMF",
      "alert": "OK",
      "vis_m": 5000,
      "fzfg": false,
      "metar_trigger": false,
      "taf_trigger": false,
      "metar": "METAR LIMF 301550Z VRB01KT 5000 BR FEW140 07/03 Q1001",
      "taf": "TAF LIMF 301100Z 3012/3112 VRB04KT 4000 BR BKN004"
    },
    {
      "icao": "LIMJ",
      "alert": "OK",
      "vis_m": 9999,
      "fzfg": false,
      "metar_trigger": false,
      "taf_trigger": false,
      "metar": "METAR LIMJ 301550Z 06009KT 9999 -RA SCT018 BKN038 10/04 Q1000",
      "taf": "TAF LIMJ 301100Z 3012/3112 04012KT 9999 SCT030"
    },
    {
      "icao": "LIPE",
      "alert": "OK",
      "vis_m": 6000,
      "fzfg": false,
      "metar_trigger": false,
      "taf_trigger": false,
      "metar": "METAR LIPE 301550Z VRB01KT 6000 BKN014 08/05 Q1001",
      "taf": "TAF LIPE 301100Z 3012/3112 VRB04KT 6000 BKN010"
    },
    {
      "icao": "LIPH",
      "alert": "OK",
      "vis_m": 9999,
      "fzfg": false,
      "metar_trigger": false,
      "taf_trigger": false,
      "metar": "METAR LIPH 301550Z 21004KT 9999 FEW015 08/06 Q1001",
      "taf": "TAF LIPH 301100Z 3012/3112 VRB04KT 6000 BKN010"
    },
    {
      "icao": "LIPQ",
      "alert": "OK",
      "vis_m": 9999,
      "fzfg": false,
      "metar_trigger": false,
      "taf_trigger": false,
      "metar": "METAR LIPQ 301550Z AUTO 26004KT 9999 NCD 09/06 Q1001",
      "taf": "TAF LIPQ 301100Z 3012/3112 VRB04KT 9999 SCT040"
    },
    {
      "icao": "LIPR",
      "alert": "OK",
      "vis_m": 1800,
      "fzfg": false,
      "metar_trigger": false,
      "taf_trigger": false,
      "metar": "METAR LIPR 301550Z 31005KT 1800 BR BKN002 04/04 Q1002",
      "taf": "TAF LIPR 301100Z 3012/3112 VRB05KT 0300 FG OVC001"
    },
    {
      "icao": "LIPX",
      "alert": "OK",
      "vis_m": 200,
      "fzfg": false,
      "metar_trigger": false,
      "taf_trigger": false,
      "metar": "METAR LIPX 301550Z VRB02KT 0200 R04/1000D FG OVC001 05/05 Q1001",
      "taf": "TAF LIPX 301100Z 3012/3112 VRB05KT 0300 FG OVC003"
    },
    {
      "icao": "LIPY",
      "alert": "OK",
      "vis_m": 9999,
      "fzfg": false,
      "metar_trigger": false,
      "taf_trigger": false,
      "metar": "METAR LIPY 301550Z AUTO 33007KT 9999 OVC007/// 07/06 Q1002",
      "taf": ""
    },
    {
      "icao": "LIPZ",
      "alert": "OK",
      "vis_m": 5000,
      "fzfg": false,
      "metar_trigger": false,
      "taf_trigger": false,
      "metar": "METAR LIPZ 301550Z 22005KT 5000 BR FEW015 07/06 Q1001 NOSIG",
      "taf": "TAF LIPZ 301100Z 3012/3118 VRB04KT 3000 BR BKN010"
    },
    {
      "icao": "LIRF",
      "alert": "OK",
      "vis_m": 9999,
      "fzfg": false,
      "metar_trigger": false,
      "taf_trigger": false,
      "metar": "METAR LIRF 301550Z 19004KT 9999 FEW025 13/09 Q1000 NOSIG",
      "taf": "TAF LIRF 301100Z 3012/3118 09007KT 9999 FEW020"
    },
    {
      "icao": "LIRN",
      "alert": "OK",
      "vis_m": 8000,
      "fzfg": false,
      "metar_trigger": false,
      "taf_trigger": false,
      "metar": "METAR LIRN 301550Z 05005KT 8000 FEW030 SCT040 11/10 Q1001 NOSIG",
      "taf": "TAF LIRN 301100Z 3012/3112 VRB06KT 8000 FEW020"
    },
    {
      "icao": "LIRP",
      "alert": "OK",
      "vis_m": 9999,
      "fzfg": false,
      "metar_trigger": false,
      "taf_trigger": false,
      "metar": "METAR LIRP 301545Z 12006KT 9999 -RA FEW020 BKN035 10/09 Q1000 TEMPO 7000 RA",
      "taf": "TAF LIRP 301100Z 3012/3112 09008KT 9999 FEW015 SCT030"
    },
    {
      "icao": "LIRZ",
      "alert": "OK",
      "vis_m": 9999,
      "fzfg": false,
      "metar_trigger": false,
      "taf_trigger": false,
      "metar": "METAR LIRZ 301550Z AUTO 03003KT 9999 FEW061/// SCT087/// BKN160/// 11/06 Q1000",
      "taf": "TAF LIRZ 301100Z 3012/3112 VRB03KT 8000 FEW050"
    },
    {
      "icao": "LJLJ",
      "alert": "OK",
      "vis_m": 9999,
      "fzfg": false,
      "metar_trigger": false,
      "taf_trigger": false,
      "metar": "METAR LJLJ 301530Z 33003KT 9999 FEW013 SCT018 04/03 Q1000 NOSIG",
      "taf": "TAF LJLJ 301100Z 3012/3112 VRB02KT 9999 BKN020 BKN045"
    },
    {
      "icao": "LKMT",
      "alert": "OK",
      "vis_m": 9000,
      "fzfg": false,
      "metar_trigger": false,
      "taf_trigger": false,
      "metar": "METAR LKMT 301530Z 03007KT 9000 OVC010 00/M01 Q1003 NOSIG",
      "taf": "TAF LKMT 301100Z 3012/3112 02010KT 9999 BKN012 OVC022"
    },
    {
      "icao": "LKPR",
      "alert": "OK",
      "vis_m": 400,
      "fzfg": true,
      "metar_trigger": false,
      "taf_trigger": false,
      "metar": "METAR LKPR 301530Z 04004KT 360V070 0400 R24/0600N R30/0400N FZFG VV002 M01/M01 Q1002 NOSIG",
      "taf": "TAF LKPR 301400Z 3015/3121 05003KT 0400 FZFG VV002"
    },
    {
      "icao": "LLBG",
      "alert": "OK",
      "vis_m": 7000,
      "fzfg": false,
      "metar_trigger": false,
      "taf_trigger": false,
      "metar": "METAR LLBG 301550Z 28005KT 7000 NSC 18/10 Q1012 NOSIG",
      "taf": "TAF LLBG 301103Z 3012/3112 23014KT 8000 NSC"
    },
    {
      "icao": "LMML",
      "alert": "OK",
      "vis_m": 9999,
      "fzfg": false,
      "metar_trigger": false,
      "taf_trigger": false,
      "metar": "METAR LMML 301545Z 29020G30KT 9999 FEW019 16/12 Q1005 NOSIG",
      "taf": "TAF LMML 301100Z 3012/3112 28020G30KT 9999 FEW015"
    },
    {
      "icao": "LOWW",
      "alert": "OK",
      "vis_m": 9999,
      "fzfg": false,
      "metar_trigger": false,
      "taf_trigger": false,
      "metar": "METAR LOWW 301550Z 36005KT 9999 FEW010 BKN013 01/M01 Q1003 NOSIG",
      "taf": "TAF LOWW 301415Z 3015/3121 35007KT 8000 FEW010 BKN015 TX02/3015Z TNM00/3120Z"
    },
    {
      "icao": "LPFR",
      "alert": "OK",
      "vis_m": 9000,
      "fzfg": false,
      "metar_trigger": false,
      "taf_trigger": false,
      "metar": "METAR LPFR 301530Z 25017KT 9000 SCT003 16/15 Q1014",
      "taf": "TAF LPFR 301100Z 3012/3112 23010KT 9999 SCT012"
    },
    {
      "icao": "LPMA",
      "alert": "OK",
      "vis_m": 9999,
      "fzfg": false,
      "metar_trigger": false,
      "taf_trigger": false,
      "metar": "METAR LPMA 301530Z 04004KT 360V100 9999 FEW015 21/15 Q1022",
      "taf": "TAF LPMA 301100Z 3012/3112 VRB05KT 9999 SCT015"
    },
    {
      "icao": "LPPR",
      "alert": "OK",
      "vis_m": 9999,
      "fzfg": false,
      "metar_trigger": false,
      "taf_trigger": false,
      "metar": "METAR LPPR 301530Z 27009G21KT 220V340 9999 SCT020 BKN035 15/10 Q1005",
      "taf": "TAF LPPR 301100Z 3012/3112 21017KT 9999 SCT025"
    },
    {
      "icao": "LPPS",
      "alert": "OK",
      "vis_m": 7000,
      "fzfg": false,
      "metar_trigger": false,
      "taf_trigger": false,
      "metar": "METAR LPPS 301530Z 28014KT 7000 -DZ SCT008 BKN030 19/17 Q1023",
      "taf": "TAF LPPS 301100Z 3012/3118 27013KT 9999 SCT013 BKN030"
    },
    {
      "icao": "LPPT",
      "alert": "OK",
      "vis_m": 9999,
      "fzfg": false,
      "metar_trigger": false,
      "taf_trigger": false,
      "metar": "METAR LPPT 301530Z 26019G29KT 230V290 9999 FEW016 SCT020 16/12 Q1011 WS R20",
      "taf": "TAF LPPT 301100Z 3012/3118 25015KT 9999 FEW008 SCT012"
    },
    {
      "icao": "LQBK",
      "alert": "OK",
      "vis_m": 9999,
      "fzfg": false,
      "metar_trigger": false,
      "taf_trigger": false,
      "metar": "METAR LQBK 301530Z 04001KT CAVOK 07/02 Q1002 NOSIG",
      "taf": "TAF LQBK 301100Z 3012/3112 33005KT CAVOK TX08/3013Z TN02/3105Z"
    },
    {
      "icao": "LQSA",
      "alert": "OK",
      "vis_m": 9999,
      "fzfg": false,
      "metar_trigger": false,
      "taf_trigger": false,
      "metar": "METAR LQSA 301530Z VRB03KT 9999 BKN045 07/04 Q1000 NOSIG",
      "taf": "TAF LQSA 301100Z 3012/3112 VRB02KT 9999 SCT012 BKN030 TX07/3013Z TN01/3106Z"
    },
    {
      "icao": "LQTZ",
      "alert": "OK",
      "vis_m": 9999,
      "fzfg": false,
      "metar_trigger": false,
      "taf_trigger": false,
      "metar": "METAR LQTZ 301530Z 32003KT 9999 FEW030 BKN045 07/03 Q1001",
      "taf": "TAF LQTZ 301100Z 3012/3112 28005KT 9999 SCT015 BKN035 TX08/3013Z TN02/3105Z"
    },
    {
      "icao": "LRBC",
      "alert": "OK",
      "vis_m": 9999,
      "fzfg": false,
      "metar_trigger": false,
      "taf_trigger": false,
      "metar": "METAR LRBC 301530Z 36016KT 9999 OVC009 01/M01 Q1003",
      "taf": "TAF LRBC 301400Z 3015/3024 35014KT 9999 BKN010 OVC015"
    },
    {
      "icao": "LRBS",
      "alert": "OK",
      "vis_m": 9999,
      "fzfg": false,
      "metar_trigger": false,
      "taf_trigger": false,
      "metar": "METAR LRBS 301530Z 24004KT 9999 OVC013 06/04 Q1001 NOSIG",
      "taf": "TAF LRBS 301100Z 3012/3112 25008KT 9999 BKN010"
    },
    {
      "icao": "LRBV",
      "alert": "OK",
      "vis_m": 9999,
      "fzfg": false,
      "metar_trigger": false,
      "taf_trigger": false,
      "metar": "METAR LRBV 301530Z 05006KT 9999 SCT030 OVC036 04/M00 Q1000",
      "taf": "TAF LRBV 301400Z 3015/3024 08006KT 9999 SCT025 BKN030"
    },
    {
      "icao": "LRCL",
      "alert": "OK",
      "vis_m": 8000,
      "fzfg": false,
      "metar_trigger": false,
      "taf_trigger": false,
      "metar": "METAR LRCL 301530Z VRB02KT 8000 -DZ FEW012 OVC018 04/03 Q1001",
      "taf": "TAF LRCL 301400Z 3015/3024 VRB04KT 9999 OVC015"
    },
    {
      "icao": "LRCV",
      "alert": "OK",
      "vis_m": 9999,
      "fzfg": false,
      "metar_trigger": false,
      "taf_trigger": false,
      "metar": "METAR LRCV 301530Z 31003KT CAVOK 06/04 Q1001",
      "taf": "TAF LRCV 301400Z 3015/3024 VRB04KT 9999 SCT010 OVC015"
    },
    {
      "icao": "LRIA",
      "alert": "OK",
      "vis_m": 9999,
      "fzfg": false,
      "metar_trigger": false,
      "taf_trigger": false,
      "metar": "METAR LRIA 301530Z 34011KT 9999 OVC008 M01/M02 Q1004",
      "taf": "TAF LRIA 301400Z 3015/3024 33011KT 9999 OVC005"
    },
    {
      "icao": "LROP",
      "alert": "OK",
      "vis_m": 9999,
      "fzfg": false,
      "metar_trigger": false,
      "taf_trigger": false,
      "metar": "METAR LROP 301530Z 23005KT 9999 OVC012 06/04 Q1001 NOSIG",
      "taf": "TAF LROP 301100Z 3012/3112 25008KT 9999 OVC010"
    },
    {
      "icao": "LRSB",
      "alert": "OK",
      "vis_m": 9999,
      "fzfg": false,
      "metar_trigger": false,
      "taf_trigger": false,
      "metar": "METAR LRSB 301530Z 14003KT 9999 -DZ SCT010 OVC033 04/03 Q1000",
      "taf": "TAF LRSB 301100Z 3012/3112 VRB04KT 9999 OVC010"
    },
    {
      "icao": "LRSM",
      "alert": "OK",
      "vis_m": 8000,
      "fzfg": false,
      "metar_trigger": false,
      "taf_trigger": false,
      "metar": "METAR LRSM 301530Z VRB02KT 8000 -RA OVC025 06/04 Q1001",
      "taf": "TAF LRSM 301400Z 3015/3024 VRB04KT 9999 OVC025"
    },
    {
      "icao": "LRSV",
      "alert": "OK",
      "vis_m": 7000,
      "fzfg": false,
      "metar_trigger": false,
      "taf_trigger": false,
      "metar": "METAR LRSV 301530Z 36009KT 7000 -SN BKN004 M02/M03 Q1003",
      "taf": "TAF LRSV 301400Z 3015/3024 36012KT 9999 BKN005 OVC010"
    },
    {
      "icao": "LRTM",
      "alert": "OK",
      "vis_m": 400,
      "fzfg": false,
      "metar_trigger": false,
      "taf_trigger": false,
      "metar": "METAR LRTM 301530Z VRB02KT 0400 R07/0800D -RA FG SCT002 BKN009 OVC021 03/02 Q1001",
      "taf": ""
    },
    {
      "icao": "LRTR",
      "alert": "OK",
      "vis_m": 4500,
      "fzfg": false,
      "metar_trigger": false,
      "taf_trigger": false,
      "metar": "METAR LRTR 301530Z 29005KT 4500 BR BKN004 OVC006 03/03 Q1002 TEMPO 3000 BR",
      "taf": "TAF LRTR 301100Z 3012/3112 23006KT 3000 -DZ BR OVC005"
    },
    {
      "icao": "LTAC",
      "alert": "OK",
      "vis_m": 9999,
      "fzfg": false,
      "metar_trigger": false,
      "taf_trigger": false,
      "metar": "METAR LTAC 301550Z 18004KT 9999 FEW019 BKN033 07/05 Q1001 NOSIG RMK RWY21C 15004KT RWY03L 15004KT RWY21R 15004KT 120V180 RWY03R 19006KT RWY21L 14004KT 100V170",
      "taf": ""
    },
    {
      "icao": "LTFM",
      "alert": "OK",
      "vis_m": 8000,
      "fzfg": false,
      "metar_trigger": false,
      "taf_trigger": false,
      "metar": "METAR LTFM 301550Z 35009KT 8000 -SHRA BKN005 BKN025 06/05 Q1001 NOSIG RMK RWY17L 33009KT RWY34L 33008KT RWY16R 33004KT 290V350 RWY36 34010KT RWY18 34009KT",
      "taf": "TAF LTFM 301040Z 3012/3118 32014KT 9999 -SHRA BKN009 BKN025"
    },
    {
      "icao": "LUKK",
      "alert": "OK",
      "vis_m": 9999,
      "fzfg": false,
      "metar_trigger": false,
      "taf_trigger": false,
      "metar": "METAR LUKK 301530Z 01016KT 9999 -SN OVC014 M01/M03 Q1001 TEMPO 4000 SN BKN005",
      "taf": "TAF LUKK 301117Z 3012/3112 35014KT 9999 OVC007"
    },
    {
      "icao": "LWOH",
      "alert": "OK",
      "vis_m": 9999,
      "fzfg": false,
      "metar_trigger": false,
      "taf_trigger": false,
      "metar": "METAR LWOH 301550Z 16010KT 9999 FEW015 BKN035 07/04 Q1001",
      "taf": "TAF LWOH 301415Z 3015/3115 16010KT 9999 FEW015 SCT040"
    },
    {
      "icao": "LWSK",
      "alert": "OK",
      "vis_m": 9999,
      "fzfg": false,
      "metar_trigger": false,
      "taf_trigger": false,
      "metar": "METAR LWSK 301550Z 03004KT 360V060 9999 FEW040 09/05 Q1000 NOSIG",
      "taf": "TAF LWSK 301415Z 3015/3115 03006KT 9999 FEW030 SCT080"
    },
    {
      "icao": "LYBE",
      "alert": "OK",
      "vis_m": 9999,
      "fzfg": false,
      "metar_trigger": false,
      "taf_trigger": false,
      "metar": "METAR LYBE 301530Z 29005KT 9999 BKN012 OVC027 06/04 Q1002 NOSIG",
      "taf": "TAF LYBE 301100Z 3012/3112 28010KT 9999 BKN010 BKN025 TX07/3013Z TN03/3106Z"
    },
    {
      "icao": "LYNI",
      "alert": "OK",
      "vis_m": 9999,
      "fzfg": false,
      "metar_trigger": false,
      "taf_trigger": false,
      "metar": "METAR LYNI 301530Z 00000KT 9999 FEW015 BKN033 07/05 Q1002 NOSIG",
      "taf": "TAF LYNI 301100Z 3012/3112 33008KT 9999 SCT015 BKN030 TX08/3013Z TN04/3106Z"
    },
    {
      "icao": "LYPG",
      "alert": "OK",
      "vis_m": 9999,
      "fzfg": false,
      "metar_trigger": false,
      "taf_trigger": false,
      "metar": "METAR LYPG 301530Z 19002KT 9999 FEW008 SCT050 BKN080 10/08 Q1001 NOSIG",
      "taf": "TAF LYPG 301100Z 3012/3112 VRB02KT 9999 FEW010 BKN033 OVC070 TX12/3112Z TN05/3106Z"
    },
    {
      "icao": "LZIB",
      "alert": "OK",
      "vis_m": 9000,
      "fzfg": false,
      "metar_trigger": false,
      "taf_trigger": false,
      "metar": "METAR LZIB 301530Z 29005KT 9000 FEW008 02/M00 Q1002 NOSIG",
      "taf": "TAF LZIB 301115Z 3012/3112 30005KT 9999 FEW010 SCT040"
    },
    {
      "icao": "LZKZ",
      "alert": "OK",
      "vis_m": 9999,
      "fzfg": false,
      "metar_trigger": false,
      "taf_trigger": false,
      "metar": "METAR LZKZ 301530Z 36012KT 9999 BKN026 03/M01 Q1002 NOSIG",
      "taf": "TAF LZKZ 301115Z 3012/3112 03013KT 9999 FEW020 BKN040"
    },
    {
      "icao": "LZTT",
      "alert": "OK",
      "vis_m": 3000,
      "fzfg": false,
      "metar_trigger": false,
      "taf_trigger": false,
      "metar": "METAR LZTT 301530Z 05008KT 3000 BR BKN002 OVC003 M02/M02 Q1001 TEMPO 1400 -SN",
      "taf": "TAF LZTT 301115Z 3012/3112 06009KT 8000 SCT002 OVC004"
    },
    {
      "icao": "OEJN",
      "alert": "OK",
      "vis_m": 9999,
      "fzfg": false,
      "metar_trigger": false,
      "taf_trigger": false,
      "metar": "METAR OEJN 301500Z 30009KT CAVOK 26/16 Q1012 NOSIG",
      "taf": "TAF OEJN 301100Z 3012/3118 30010KT CAVOK"
    },
    {
      "icao": "OEMA",
      "alert": "OK",
      "vis_m": 9999,
      "fzfg": false,
      "metar_trigger": false,
      "taf_trigger": false,
      "metar": "METAR OEMA 301500Z 31006KT CAVOK 28/00 Q1015 NOSIG",
      "taf": "TAF OEMA 301100Z 3012/3118 25010KT 7000 NSC"
    },
    {
      "icao": "OJAI",
      "alert": "OK",
      "vis_m": 5000,
      "fzfg": false,
      "metar_trigger": false,
      "taf_trigger": false,
      "metar": "METAR OJAI 301500Z 24010KT 5000 HZ NSC 16/03 Q1013 NOSIG",
      "taf": "TAF OJAI 301113Z 3012/3118 23006KT 5000 HZ NSC"
    },
    {
      "icao": "OMAA",
      "alert": "OK",
      "vis_m": 9999,
      "fzfg": false,
      "metar_trigger": false,
      "taf_trigger": false,
      "metar": "METAR OMAA 301530Z 28007KT CAVOK 20/12 Q1017 NOSIG",
      "taf": "TAF OMAA 301100Z 3012/3118 30012KT 8000 FEW045"
    },
    {
      "icao": "OMDB",
      "alert": "OK",
      "vis_m": 9999,
      "fzfg": false,
      "metar_trigger": false,
      "taf_trigger": false,
      "metar": "METAR OMDB 301530Z 27008KT 9999 FEW030 21/13 Q1017 NOSIG",
      "taf": "TAF OMDB 301100Z 3012/3118 27013KT 8000 FEW040"
    },
    {
      "icao": "UAAA",
      "alert": "OK",
      "vis_m": 250,
      "fzfg": true,
      "metar_trigger": false,
      "taf_trigger": false,
      "metar": "METAR UAAA 301530Z 28002MPS 240V310 0250 R23L/0800N FZFG VV002 M04/M05 Q1019 NOSIG RMK QBB070",
      "taf": ""
    },
    {
      "icao": "UBBB",
      "alert": "OK",
      "vis_m": 9999,
      "fzfg": false,
      "metar_trigger": false,
      "taf_trigger": false,
      "metar": "METAR UBBB 301530Z 17017KT CAVOK 07/05 Q1009 NOSIG",
      "taf": "TAF UBBB 301054Z 3012/3112 17018KT 5000 BR BKN007 TX09/3012Z TN04/3101Z"
    },
    {
      "icao": "UDSG",
      "alert": "OK",
      "vis_m": 3700,
      "fzfg": false,
      "metar_trigger": false,
      "taf_trigger": false,
      "metar": "METAR UDSG 301530Z 00000KT 3700 BR BKN016 M08/M08 Q1014 NOSIG",
      "taf": "TAF UDSG 301058Z 3012/3112 VRB06KT 2000 BR OVC020"
    },
    {
      "icao": "UDYZ",
      "alert": "OK",
      "vis_m": 2500,
      "fzfg": false,
      "metar_trigger": false,
      "taf_trigger": false,
      "metar": "METAR UDYZ 301530Z 22002KT 2500 BR BKN014 M02/M04 Q1017 NOSIG",
      "taf": "TAF UDYZ 301100Z 3012/3112 VRB04KT 3000 BR BKN020"
    },
    {
      "icao": "UGKO",
      "alert": "OK",
      "vis_m": 9999,
      "fzfg": false,
      "metar_trigger": false,
      "taf_trigger": false,
      "metar": "METAR UGKO 301530Z 09015KT CAVOK 14/M03 Q1004 NOSIG",
      "taf": "TAF UGKO 301100Z 3012/3112 09010KT CAVOK TX17/3012Z TN07/3103Z"
    }
  ]
}