{
  "ts_utc": "2026-01-13T11:36:34Z",
  "threshold_m": 150,
  "source": "stations_override.txt (ICAO list) + aviationweather.gov (METAR/TAF raw)",
  "station_count": 159,
  "stations": [
    {
      "icao": "BIKF",
      "alert": "OK",
      "vis_m": 9999,
      "fzfg": false,
      "metar_trigger": false,
      "taf_trigger": false,
      "metar": "METAR BIKF 131100Z 34013KT 9999 FEW046 M03/M11 Q0999",
      "taf": "TAF BIKF 131046Z 1312/1412 34013KT 9999 FEW045 TXM01/1313Z TNM04/1404Z"
    },
    {
      "icao": "BKPR",
      "alert": "OK",
      "vis_m": 9999,
      "fzfg": false,
      "metar_trigger": false,
      "taf_trigger": false,
      "metar": "METAR BKPR 131130Z 12002KT 9999 BKN050 02/M06 Q1022 NOSIG",
      "taf": "TAF BKPR 131130Z 1312/1412 VRB03KT 9999 BKN060"
    },
    {
      "icao": "EBCI",
      "alert": "OK",
      "vis_m": 9999,
      "fzfg": false,
      "metar_trigger": false,
      "taf_trigger": false,
      "metar": "METAR EBCI 131120Z 19009KT 9999 FEW049 09/06 Q1009 NOSIG",
      "taf": "TAF EBCI 131100Z 1312/1418 19010KT 9999 SCT020"
    },
    {
      "icao": "EDDB",
      "alert": "OK",
      "vis_m": 800,
      "fzfg": false,
      "metar_trigger": false,
      "taf_trigger": false,
      "metar": "METAR EDDB 131120Z AUTO 17004KT 150V210 0800 0450 R24R/1100U R24L/0700N FG OVC001 02/02 Q1014 TEMPO 0600 BKN002",
      "taf": "TAF EDDB 131100Z 1312/1412 17005KT 0800 FG BKN002"
    },
    {
      "icao": "EDDH",
      "alert": "OK",
      "vis_m": 500,
      "fzfg": false,
      "metar_trigger": false,
      "taf_trigger": false,
      "metar": "METAR EDDH 131120Z AUTO 14003KT 0500 0200 R23/2000N R15/0700N FG OVC002 04/04 Q1010 TEMPO 0200 -DZ OVC001",
      "taf": "TAF EDDH 131100Z 1312/1418 16004KT 0300 FG OVC001"
    },
    {
      "icao": "EDDK",
      "alert": "OK",
      "vis_m": 9999,
      "fzfg": false,
      "metar_trigger": false,
      "taf_trigger": false,
      "metar": "METAR EDDK 131120Z AUTO 13007KT 100V160 9999 BKN040 10/08 Q1011 NOSIG",
      "taf": "TAF EDDK 131100Z 1312/1418 15007KT 9999 BKN025"
    },
    {
      "icao": "EDDN",
      "alert": "OK",
      "vis_m": 9999,
      "fzfg": false,
      "metar_trigger": false,
      "taf_trigger": false,
      "metar": "METAR EDDN 131120Z AUTO 14005KT 9999 FEW003 BKN008 OVC012 06/06 Q1016 BECMG BKN010",
      "taf": "TAF EDDN 131100Z 1312/1412 14005KT 9000 SCT010 BKN015"
    },
    {
      "icao": "EDDS",
      "alert": "OK",
      "vis_m": 9999,
      "fzfg": false,
      "metar_trigger": false,
      "taf_trigger": false,
      "metar": "METAR EDDS 131120Z AUTO 19003KT 150V230 9999 SCT047 09/05 Q1014 NOSIG",
      "taf": "TAF EDDS 131100Z 1312/1412 17004KT 9999 FEW040"
    },
    {
      "icao": "EDFH",
      "alert": "OK",
      "vis_m": 9999,
      "fzfg": false,
      "metar_trigger": false,
      "taf_trigger": false,
      "metar": "METAR EDFH 131120Z 14008KT CAVOK 06/05 Q1012",
      "taf": "TAF EDFH 131100Z 1312/1412 18008KT 9999 SCT020 BKN045"
    },
    {
      "icao": "EDJA",
      "alert": "OK",
      "vis_m": 9999,
      "fzfg": false,
      "metar_trigger": false,
      "taf_trigger": false,
      "metar": "METAR EDJA 131120Z COR VRB02KT CAVOK 08/03 Q1016",
      "taf": "TAF EDJA 131100Z 1312/1321 22008KT CAVOK"
    },
    {
      "icao": "EDLW",
      "alert": "OK",
      "vis_m": 9999,
      "fzfg": false,
      "metar_trigger": false,
      "taf_trigger": false,
      "metar": "METAR EDLW 131120Z 18010KT 9999 OVC020 09/07 Q1010",
      "taf": "TAF EDLW 131100Z 1312/1412 20011KT 9999 BKN020"
    },
    {
      "icao": "EDNY",
      "alert": "OK",
      "vis_m": 9999,
      "fzfg": false,
      "metar_trigger": false,
      "taf_trigger": false,
      "metar": "METAR EDNY 131120Z VRB01KT CAVOK 05/04 Q1017",
      "taf": "TAF EDNY 131100Z 1312/1321 VRB02KT 4000 BR SCT010"
    },
    {
      "icao": "EDSB",
      "alert": "OK",
      "vis_m": 9999,
      "fzfg": false,
      "metar_trigger": false,
      "taf_trigger": false,
      "metar": "METAR EDSB 131120Z 20004KT 170V230 CAVOK 10/06 Q1015",
      "taf": "TAF EDSB 131100Z 1312/1412 21004KT CAVOK"
    },
    {
      "icao": "EETN",
      "alert": "OK",
      "vis_m": 9999,
      "fzfg": false,
      "metar_trigger": false,
      "taf_trigger": false,
      "metar": "METAR EETN 131120Z 11006KT 9999 SCT015 M11/M14 Q1021 NOSIG",
      "taf": "TAF EETN 131130Z 1312/1412 11007KT 9999 FEW009 BKN014"
    },
    {
      "icao": "EFTU",
      "alert": "OK",
      "vis_m": 9999,
      "fzfg": false,
      "metar_trigger": false,
      "taf_trigger": false,
      "metar": "METAR EFTU 131120Z AUTO 12007KT 9999 OVC012 M05/M07 Q1020",
      "taf": "TAF EFTU 130833Z 1309/1409 10007KT 9999 -SHSN OVC009"
    },
    {
      "icao": "EGBB",
      "alert": "OK",
      "vis_m": 9999,
      "fzfg": false,
      "metar_trigger": false,
      "taf_trigger": false,
      "metar": "METAR EGBB 131120Z 19007KT 9999 VCSH SCT009 BKN044 10/08 Q1001",
      "taf": "TAF EGBB 131055Z 1312/1412 17010KT 9999 BKN007"
    },
    {
      "icao": "EGGP",
      "alert": "OK",
      "vis_m": 9999,
      "fzfg": false,
      "metar_trigger": false,
      "taf_trigger": false,
      "metar": "METAR EGGP 131120Z 27011KT 9999 -RA FEW010 OVC039 06/05 Q1002",
      "taf": "TAF EGGP 131057Z 1312/1412 28010KT 9999 SCT030"
    },
    {
      "icao": "EGGW",
      "alert": "OK",
      "vis_m": 9999,
      "fzfg": false,
      "metar_trigger": false,
      "taf_trigger": false,
      "metar": "METAR EGGW 131120Z AUTO 19005KT 160V230 9999 -RA BKN004/// //////TCU 09/09 Q1003",
      "taf": "TAF EGGW 131110Z 1312/1412 20007KT 9999 BKN006"
    },
    {
      "icao": "EGKK",
      "alert": "OK",
      "vis_m": 4100,
      "fzfg": false,
      "metar_trigger": false,
      "taf_trigger": false,
      "metar": "METAR EGKK 131120Z 21014KT 4100 -RA BKN007 11/10 Q1004 RERA",
      "taf": ""
    },
    {
      "icao": "EGNM",
      "alert": "OK",
      "vis_m": 9999,
      "fzfg": false,
      "metar_trigger": false,
      "taf_trigger": false,
      "metar": "METAR EGNM 131120Z 25012KT 9999 4000E -RA SCT012 BKN018 07/06 Q0999",
      "taf": "TAF EGNM 131057Z 1312/1412 20007KT 9999 SCT025"
    },
    {
      "icao": "EGPD",
      "alert": "OK",
      "vis_m": 7000,
      "fzfg": false,
      "metar_trigger": false,
      "taf_trigger": false,
      "metar": "METAR EGPD 131120Z AUTO 03002KT 7000 -RA BKN030/// OVC038/// //////TCU 02/01 Q0996 TEMPO 4000 RA",
      "taf": "TAF EGPD 131055Z 1312/1412 30005KT 9999 FEW005 SCT025"
    },
    {
      "icao": "EGPF",
      "alert": "OK",
      "vis_m": 9999,
      "fzfg": false,
      "metar_trigger": false,
      "taf_trigger": false,
      "metar": "METAR EGPF 131120Z AUTO 20009KT 9999 -RA FEW043 SCT049 05/03 Q0999",
      "taf": "TAF EGPF 131057Z 1312/1412 25009KT 9999 FEW015 SCT025"
    },
    {
      "icao": "EHBK",
      "alert": "OK",
      "vis_m": 9999,
      "fzfg": false,
      "metar_trigger": false,
      "taf_trigger": false,
      "metar": "METAR EHBK 131125Z AUTO 20013KT 170V230 9999 SCT023/// 10/07 Q1010 NOSIG",
      "taf": "TAF EHBK 131124Z 1312/1418 20013KT 9999 BKN018"
    },
    {
      "icao": "EHEH",
      "alert": "OK",
      "vis_m": 9999,
      "fzfg": false,
      "metar_trigger": false,
      "taf_trigger": false,
      "metar": "METAR EHEH 131125Z AUTO 18008KT 9999 BKN017 OVC021 10/08 Q1009 WHT TEMPO 3500 RADZ FEW003 SCT004 BKN007 RMK TREND REMOTE BY EHWX",
      "taf": ""
    },
    {
      "icao": "EKBI",
      "alert": "OK",
      "vis_m": 350,
      "fzfg": false,
      "metar_trigger": false,
      "taf_trigger": false,
      "metar": "METAR EKBI 131120Z AUTO 18006KT 0350 R09/0600N R27/0500N FG OVC002/// 04/04 Q1007",
      "taf": "TAF EKBI 131127Z 1312/1412 15007KT 0200 -RA FG VV002"
    },
    {
      "icao": "EKCH",
      "alert": "OK",
      "vis_m": 2100,
      "fzfg": false,
      "metar_trigger": false,
      "taf_trigger": false,
      "metar": "METAR EKCH 131120Z 14011KT 2100 -DZ BR OVC003 02/01 Q1011 TEMPO 3000 BKN006",
      "taf": "TAF EKCH 131127Z 1312/1412 15012KT 6000 -RA OVC005"
    },
    {
      "icao": "ENAL",
      "alert": "OK",
      "vis_m": 9999,
      "fzfg": false,
      "metar_trigger": false,
      "taf_trigger": false,
      "metar": "METAR ENAL 131120Z 12013KT 9999 -RA SCT042 BKN051 05/M02 Q1000",
      "taf": "TAF ENAL 131100Z 1312/1321 14012KT 9999 FEW025 BKN040"
    },
    {
      "icao": "ENBR",
      "alert": "OK",
      "vis_m": 9999,
      "fzfg": false,
      "metar_trigger": false,
      "taf_trigger": false,
      "metar": "METAR ENBR 131120Z 13014KT 9999 -RASN SCT007 BKN014 02/00 Q1000 TEMPO 4000 SNRA RMK WIND 1200FT 13028KT",
      "taf": "TAF ENBR 131100Z 1312/1412 13015KT 9999 -RA BKN035"
    },
    {
      "icao": "ENGM",
      "alert": "OK",
      "vis_m": 9999,
      "fzfg": false,
      "metar_trigger": false,
      "taf_trigger": false,
      "metar": "METAR ENGM 131120Z 02004KT 9999 -SN OVC010 M05/M06 Q1011 TEMPO 4000 -SN SCT012 BKN020",
      "taf": "TAF ENGM 131100Z 1312/1412 02008KT 9999 -SN BKN009"
    },
    {
      "icao": "ENHD",
      "alert": "OK",
      "vis_m": 9999,
      "fzfg": false,
      "metar_trigger": false,
      "taf_trigger": false,
      "metar": "METAR ENHD 131120Z 11024KT 9999 FEW020 BKN035 03/M00 Q1001",
      "taf": "TAF ENHD 131100Z 1312/1321 11022KT 9999 BKN025"
    },
    {
      "icao": "ENTC",
      "alert": "OK",
      "vis_m": 9999,
      "fzfg": false,
      "metar_trigger": false,
      "taf_trigger": false,
      "metar": "METAR ENTC 131120Z 18011KT CAVOK M04/M12 Q1010 NOSIG RMK WIND 2600FT 17026KT",
      "taf": "TAF ENTC 131100Z 1312/1412 19010KT CAVOK"
    },
    {
      "icao": "ENTO",
      "alert": "OK",
      "vis_m": 600,
      "fzfg": false,
      "metar_trigger": false,
      "taf_trigger": false,
      "metar": "METAR ENTO 131120Z 06003KT 020V090 0600 R18/1200D R36/1100N SN VV004 M02/M02 Q1010 TEMPO 3000 -SN BKN006",
      "taf": "TAF ENTO 131100Z 1312/1412 36010KT 5000 -SN BKN012"
    },
    {
      "icao": "ENVA",
      "alert": "OK",
      "vis_m": 9999,
      "fzfg": false,
      "metar_trigger": false,
      "taf_trigger": false,
      "metar": "METAR ENVA 131120Z 10008KT 070V150 CAVOK 00/M08 Q1005 TEMPO 15018G30KT RMK WIND 670FT 15013KT",
      "taf": "TAF ENVA 131100Z 1312/1412 11009KT CAVOK"
    },
    {
      "icao": "ENZV",
      "alert": "OK",
      "vis_m": 9999,
      "fzfg": false,
      "metar_trigger": false,
      "taf_trigger": false,
      "metar": "METAR ENZV 131120Z 12017KT 9999 SCT040 04/M02 Q1001 TEMPO 15020G30KT",
      "taf": "TAF ENZV 131100Z 1312/1412 13015KT 9999 SCT040"
    },
    {
      "icao": "EPGD",
      "alert": "OK",
      "vis_m": 9999,
      "fzfg": false,
      "metar_trigger": false,
      "taf_trigger": false,
      "metar": "METAR EPGD 131130Z 16007KT 9999 FEW048 M04/M06 Q1016",
      "taf": "TAF EPGD 131130Z 1312/1412 17010KT 9999 BKN030"
    },
    {
      "icao": "EPKK",
      "alert": "OK",
      "vis_m": 3400,
      "fzfg": false,
      "metar_trigger": false,
      "taf_trigger": false,
      "metar": "METAR EPKK 131130Z VRB02KT 3400 -SN BR BKN016 OVC020 M05/M06 Q1015 RESN",
      "taf": "TAF EPKK 131130Z 1312/1412 06006KT 2500 SN BR BKN013"
    },
    {
      "icao": "EPKT",
      "alert": "OK",
      "vis_m": 6000,
      "fzfg": false,
      "metar_trigger": false,
      "taf_trigger": false,
      "metar": "METAR EPKT 131130Z VRB01KT 6000 OVC006 M02/M04 Q1014",
      "taf": "TAF EPKT 131121Z 1312/1412 VRB02KT 6000 BKN008 BKN013"
    },
    {
      "icao": "EPLB",
      "alert": "OK",
      "vis_m": 9000,
      "fzfg": false,
      "metar_trigger": false,
      "taf_trigger": false,
      "metar": "METAR EPLB 131130Z 10002KT 9000 NSC M07/M08 Q1016",
      "taf": "TAF EPLB 131130Z 1312/1412 VRB04KT 7000 NSC"
    },
    {
      "icao": "EPMO",
      "alert": "OK",
      "vis_m": 4200,
      "fzfg": false,
      "metar_trigger": false,
      "taf_trigger": false,
      "metar": "METAR EPMO 131130Z 08005KT 4200 BR NSC M05/M05 Q1016",
      "taf": "TAF EPMO 131130Z 1312/1412 12007KT 3500 BR NSC"
    },
    {
      "icao": "EPPO",
      "alert": "OK",
      "vis_m": 7000,
      "fzfg": false,
      "metar_trigger": false,
      "taf_trigger": false,
      "metar": "METAR EPPO 131130Z 19003KT 7000 FEW010 BKN042 M03/M06 Q1015",
      "taf": "TAF EPPO 131130Z 1312/1412 13005KT 6000 BKN017"
    },
    {
      "icao": "EPRA",
      "alert": "OK",
      "vis_m": 9999,
      "fzfg": false,
      "metar_trigger": false,
      "taf_trigger": false,
      "metar": "METAR EPRA 131130Z 13006KT 9999 SCT040 M07/M10 Q1016",
      "taf": "TAF EPRA 131130Z 1312/1321 13006KT 9999 BKN040"
    },
    {
      "icao": "EPRZ",
      "alert": "OK",
      "vis_m": 2000,
      "fzfg": false,
      "metar_trigger": false,
      "taf_trigger": false,
      "metar": "METAR EPRZ 131130Z 20009KT 2000 SN BR OVC020 M06/M08 Q1016",
      "taf": "TAF EPRZ 131130Z 1312/1412 20008KT 1600 SN BR BKN016"
    },
    {
      "icao": "EPSC",
      "alert": "OK",
      "vis_m": 2200,
      "fzfg": false,
      "metar_trigger": false,
      "taf_trigger": false,
      "metar": "METAR EPSC 131130Z 13010KT 2200 -FZRA BR OVC003 M02/M02 Q1013",
      "taf": "TAF EPSC 131130Z 1312/1412 14010KT 3000 BR OVC003"
    },
    {
      "icao": "EPSY",
      "alert": "OK",
      "vis_m": 2800,
      "fzfg": false,
      "metar_trigger": false,
      "taf_trigger": false,
      "metar": "METAR EPSY 131130Z VRB02KT 2800 BR NSC M06/M07 Q1017",
      "taf": "TAF EPSY 131130Z 1312/1321 VRB02KT 3000 BR NSC"
    },
    {
      "icao": "EPWA",
      "alert": "OK",
      "vis_m": 8000,
      "fzfg": false,
      "metar_trigger": false,
      "taf_trigger": false,
      "metar": "METAR EPWA 131130Z 12007KT 8000 NSC M04/M07 Q1016 NOSIG",
      "taf": "TAF EPWA 131130Z 1312/1412 12008KT 7000 NSC"
    },
    {
      "icao": "EPWR",
      "alert": "OK",
      "vis_m": 3200,
      "fzfg": false,
      "metar_trigger": false,
      "taf_trigger": false,
      "metar": "METAR EPWR 131130Z 23002KT 3200 BR OVC003 M01/M01 Q1015",
      "taf": "TAF EPWR 131130Z 1312/1412 VRB02KT 4000 BR FEW003 BKN007"
    },
    {
      "icao": "ESGG",
      "alert": "OK",
      "vis_m": 1300,
      "fzfg": false,
      "metar_trigger": false,
      "taf_trigger": false,
      "metar": "METAR ESGG 131120Z 13010KT 1300 R03/P2000N R21/P2000N SN SCT005 OVC013 M02/M02 Q1009",
      "taf": "TAF ESGG 131101Z 1312/1412 12009KT 5000 -SN BKN008"
    },
    {
      "icao": "ESKN",
      "alert": "OK",
      "vis_m": 9999,
      "fzfg": false,
      "metar_trigger": false,
      "taf_trigger": false,
      "metar": "METAR ESKN 131120Z 12005KT 9999 SCT006 BKN013 M00/M00 Q1015",
      "taf": "TAF ESKN 131130Z 1312/1412 11007KT 8000 -SN SCT007 BKN018"
    },
    {
      "icao": "ESMS",
      "alert": "OK",
      "vis_m": 1800,
      "fzfg": false,
      "metar_trigger": false,
      "taf_trigger": false,
      "metar": "METAR ESMS 131120Z 14008KT 1800 -DZ OVC002 01/01 Q1010",
      "taf": "TAF ESMS 131127Z 1312/1412 13010KT 5000 -RA BR OVC006"
    },
    {
      "icao": "ESSA",
      "alert": "OK",
      "vis_m": 9999,
      "fzfg": false,
      "metar_trigger": false,
      "taf_trigger": false,
      "metar": "METAR ESSA 131120Z 07005KT 9999 OVC040 M03/M04 Q1017 NOSIG",
      "taf": "TAF ESSA 131130Z 1312/1412 09006KT 9999 BKN030"
    },
    {
      "icao": "EYKA",
      "alert": "OK",
      "vis_m": 5000,
      "fzfg": false,
      "metar_trigger": false,
      "taf_trigger": false,
      "metar": "METAR EYKA 131120Z VRB01KT 5000 -SN BR SCT029 M11/M12 Q1018",
      "taf": "TAF EYKA 131100Z 1312/1412 VRB04KT 5000 BR SCT010 BKN015"
    },
    {
      "icao": "EYPA",
      "alert": "OK",
      "vis_m": 9999,
      "fzfg": false,
      "metar_trigger": false,
      "taf_trigger": false,
      "metar": "METAR EYPA 131120Z 12006KT 080V140 CAVOK M11/M13 Q1019",
      "taf": "TAF EYPA 131100Z 1312/1412 VRB04KT 5000 BR FEW005"
    },
    {
      "icao": "EYVI",
      "alert": "OK",
      "vis_m": 6000,
      "fzfg": false,
      "metar_trigger": false,
      "taf_trigger": false,
      "metar": "METAR EYVI 131120Z 00000KT 6000 -SN NSC M10/M12 Q1017 NOSIG",
      "taf": "TAF EYVI 131100Z 1312/1412 VRB04KT 5000 BR SCT005 BKN020"
    },
    {
      "icao": "GCFV",
      "alert": "OK",
      "vis_m": 9999,
      "fzfg": false,
      "metar_trigger": false,
      "taf_trigger": false,
      "metar": "METAR GCFV 131130Z 28008G19KT 240V320 9999 FEW015 SCT025 20/14 Q1019",
      "taf": "TAF GCFV 130800Z 1309/1409 27005KT 9999 FEW020 SCT030 TX20/1314Z TN14/1406Z"
    },
    {
      "icao": "GCLP",
      "alert": "OK",
      "vis_m": 9999,
      "fzfg": false,
      "metar_trigger": false,
      "taf_trigger": false,
      "metar": "METAR GCLP 131130Z 14005KT 9999 FEW025 20/13 Q1020 NOSIG",
      "taf": "TAF GCLP 130800Z 1309/1409 28005KT 9999 FEW020 SCT030 TX21/1314Z TN15/1406Z"
    },
    {
      "icao": "GCTS",
      "alert": "OK",
      "vis_m": 9999,
      "fzfg": false,
      "metar_trigger": false,
      "taf_trigger": false,
      "metar": "METAR GCTS 131130Z 11008KT 080V140 9999 FEW070 20/12 Q1020 NOSIG",
      "taf": "TAF GCTS 130800Z 1309/1409 02005KT 9999 FEW030 TX23/1314Z TN14/1406Z"
    },
    {
      "icao": "GMAD",
      "alert": "OK",
      "vis_m": 9999,
      "fzfg": false,
      "metar_trigger": false,
      "taf_trigger": false,
      "metar": "METAR GMAD 131130Z 04010KT CAVOK 20/08 Q1018 NOSIG",
      "taf": "TAF GMAD 131100Z 1312/1418 24014KT 8000 SCT016 BKN080"
    },
    {
      "icao": "GMMN",
      "alert": "OK",
      "vis_m": 9999,
      "fzfg": false,
      "metar_trigger": false,
      "taf_trigger": false,
      "metar": "METAR GMMN 131130Z 22009KT 9999 SCT016 BKN200 17/11 Q1018 NOSIG",
      "taf": "TAF GMMN 131100Z 1312/1418 22010KT 9999 SCT016 BKN100"
    },
    {
      "icao": "GMMX",
      "alert": "OK",
      "vis_m": 9999,
      "fzfg": false,
      "metar_trigger": false,
      "taf_trigger": false,
      "metar": "METAR GMMX 131130Z 08005KT CAVOK 18/05 Q1017 NOSIG",
      "taf": "TAF GMMX 131100Z 1312/1418 12006KT 8000 NSC"
    },
    {
      "icao": "HEGN",
      "alert": "OK",
      "vis_m": 9999,
      "fzfg": false,
      "metar_trigger": false,
      "taf_trigger": false,
      "metar": "METAR HEGN 131100Z 31016KT CAVOK 20/M03 Q1020 NOSIG",
      "taf": "TAF HEGN 131100Z 1312/1418 33015G25KT 6000 FEW025"
    },
    {
      "icao": "HEMA",
      "alert": "OK",
      "vis_m": 9999,
      "fzfg": false,
      "metar_trigger": false,
      "taf_trigger": false,
      "metar": "METAR HEMA 131100Z 34010KT CAVOK 20/03 Q1021 NOSIG",
      "taf": "TAF HEMA 131100Z 1312/1418 32010G20KT 9999 FEW025"
    },
    {
      "icao": "HESH",
      "alert": "OK",
      "vis_m": 9999,
      "fzfg": false,
      "metar_trigger": false,
      "taf_trigger": false,
      "metar": "METAR HESH 131100Z 09007KT CAVOK 21/03 Q1019 NOSIG",
      "taf": "TAF HESH 131100Z 1312/1418 01010G20KT 9999 FEW025"
    },
    {
      "icao": "HESX",
      "alert": "OK",
      "vis_m": 9999,
      "fzfg": false,
      "metar_trigger": false,
      "taf_trigger": false,
      "metar": "METAR HESX 131100Z 27013KT 9999 FEW020 SCT100 15/05 Q1021 NOSIG",
      "taf": "TAF HESX 131100Z 1312/1418 26013G25KT 6000 SCT020 BKN100"
    },
    {
      "icao": "LATI",
      "alert": "OK",
      "vis_m": 9999,
      "fzfg": false,
      "metar_trigger": false,
      "taf_trigger": false,
      "metar": "METAR LATI 131120Z 14006KT 9999 SCT038 BKN070 09/M00 Q1026 NOSIG",
      "taf": "TAF LATI 131100Z 1312/1412 VRB05KT 9999 SCT040 BKN070 TX10/1312Z TN03/1405Z"
    },
    {
      "icao": "LBPD",
      "alert": "OK",
      "vis_m": 9999,
      "fzfg": false,
      "metar_trigger": false,
      "taf_trigger": false,
      "metar": "METAR LBPD 131130Z AUTO 06003KT 340V120 9999 FEW037/// SCT048/// OVC100/// 03/M10 Q1022 NOSIG",
      "taf": "TAF LBPD 131100Z 1312/1412 VRB03KT 9999 SCT050 BKN070"
    },
    {
      "icao": "LBSF",
      "alert": "OK",
      "vis_m": 9999,
      "fzfg": false,
      "metar_trigger": false,
      "taf_trigger": false,
      "metar": "METAR LBSF 131130Z VRB01KT 9999 SCT043 BKN055 OVC070 M01/M09 Q1021 NOSIG",
      "taf": "TAF LBSF 131100Z 1312/1412 VRB03KT 9999 SCT050 BKN070"
    },
    {
      "icao": "LBWN",
      "alert": "OK",
      "vis_m": 9999,
      "fzfg": false,
      "metar_trigger": false,
      "taf_trigger": false,
      "metar": "METAR LBWN 131130Z 23006KT 210V270 CAVOK 01/M09 Q1022 NOSIG",
      "taf": "TAF LBWN 131100Z 1312/1412 VRB04KT 9999 SCT050"
    },
    {
      "icao": "LCLK",
      "alert": "OK",
      "vis_m": 9999,
      "fzfg": false,
      "metar_trigger": false,
      "taf_trigger": false,
      "metar": "METAR LCLK 131130Z 34005KT 300V010 9999 VCSH FEW020 SCT050 12/09 Q1009 TEMPO 5000 SHRA",
      "taf": "TAF LCLK 131130Z 1312/1412 30018KT 9999 FEW020CB SCT040"
    },
    {
      "icao": "LCPH",
      "alert": "OK",
      "vis_m": 7000,
      "fzfg": false,
      "metar_trigger": false,
      "taf_trigger": false,
      "metar": "METAR LCPH 131130Z AUTO 36007KT 7000 BKN033 OVC040 11/08 Q1011 TEMPO 5000 SHRA",
      "taf": "TAF LCPH 131130Z 1312/1412 30023G33KT 9999 FEW025CB SCT040"
    },
    {
      "icao": "LEAL",
      "alert": "OK",
      "vis_m": 2500,
      "fzfg": false,
      "metar_trigger": false,
      "taf_trigger": false,
      "metar": "METAR LEAL 131130Z 21005KT 170V250 2500 1000SE BR SCT001 BKN003 12/10 Q1018 NOSIG",
      "taf": "TAF LEAL 131100Z 1312/1412 VRB04KT 9999 FEW010 TX16/1313Z TN06/1406Z"
    },
    {
      "icao": "LEBB",
      "alert": "OK",
      "vis_m": 9999,
      "fzfg": false,
      "metar_trigger": false,
      "taf_trigger": false,
      "metar": "METAR LEBB 131130Z 13017G27KT 100V190 CAVOK 17/04 Q1009 NOSIG",
      "taf": "TAF LEBB 131100Z 1312/1412 15009KT CAVOK TX16/1316Z TN09/1408Z"
    },
    {
      "icao": "LEBL",
      "alert": "OK",
      "vis_m": 9999,
      "fzfg": false,
      "metar_trigger": false,
      "taf_trigger": false,
      "metar": "METAR LEBL 131130Z 25004KT 220V300 9999 FEW019 15/11 Q1017 NOSIG",
      "taf": "TAF LEBL 131100Z 1312/1412 23008KT 9999 SCT020 TX16/1312Z TN07/1406Z"
    },
    {
      "icao": "LECH",
      "alert": "OK",
      "vis_m": 9999,
      "fzfg": false,
      "metar_trigger": false,
      "taf_trigger": false,
      "metar": "METAR LECH 131130Z AUTO VRB01KT CAVOK 13/08 Q1017",
      "taf": ""
    },
    {
      "icao": "LEMD",
      "alert": "OK",
      "vis_m": 9999,
      "fzfg": false,
      "metar_trigger": false,
      "taf_trigger": false,
      "metar": "METAR LEMD 131130Z VRB02KT 9999 FEW050 07/06 Q1015 NOSIG",
      "taf": "TAF LEMD 131100Z 1312/1418 VRB03KT 9999 SCT030 TX12/1314Z TN00/1407Z"
    },
    {
      "icao": "LEMG",
      "alert": "OK",
      "vis_m": 8000,
      "fzfg": false,
      "metar_trigger": false,
      "taf_trigger": false,
      "metar": "METAR LEMG 131130Z 29003KT 260V330 8000 3000NW BCFG FEW001 12/09 Q1018 NOSIG",
      "taf": "TAF LEMG 131100Z 1312/1412 13009KT 9999 FEW020 TX16/1314Z TN10/1407Z"
    },
    {
      "icao": "LEVC",
      "alert": "OK",
      "vis_m": 9999,
      "fzfg": false,
      "metar_trigger": false,
      "taf_trigger": false,
      "metar": "METAR LEVC 131130Z VRB02KT CAVOK 13/09 Q1017 NOSIG",
      "taf": "TAF LEVC 131100Z 1312/1412 VRB04KT CAVOK TX16/1314Z TN04/1406Z"
    },
    {
      "icao": "LEXJ",
      "alert": "OK",
      "vis_m": 9999,
      "fzfg": false,
      "metar_trigger": false,
      "taf_trigger": false,
      "metar": "METAR LEXJ 131130Z 20020G35KT 160V260 9999 FEW070 16/04 Q1007",
      "taf": ""
    },
    {
      "icao": "LEZG",
      "alert": "OK",
      "vis_m": 4000,
      "fzfg": false,
      "metar_trigger": false,
      "taf_trigger": false,
      "metar": "METAR LEZG 131130Z 07005KT 040V100 4000 BR OVC003 08/08 Q1016 NOSIG",
      "taf": "TAF LEZG 131100Z 1312/1412 10008KT CAVOK TX13/1315Z TN05/1407Z"
    },
    {
      "icao": "LEZL",
      "alert": "OK",
      "vis_m": 9999,
      "fzfg": false,
      "metar_trigger": false,
      "taf_trigger": false,
      "metar": "METAR LEZL 131130Z 18011KT 150V220 9999 SCT030 15/11 Q1015 NOSIG",
      "taf": ""
    },
    {
      "icao": "LFBD",
      "alert": "OK",
      "vis_m": 9999,
      "fzfg": false,
      "metar_trigger": false,
      "taf_trigger": false,
      "metar": "METAR LFBD 131130Z AUTO 14010KT CAVOK 10/08 Q1010 NOSIG",
      "taf": ""
    },
    {
      "icao": "LFLL",
      "alert": "OK",
      "vis_m": 9999,
      "fzfg": false,
      "metar_trigger": false,
      "taf_trigger": false,
      "metar": "METAR LFLL 131130Z 18016KT 9999 SCT040 BKN260 14/07 Q1015 NOSIG",
      "taf": "TAF LFLL 131100Z 1312/1418 17015KT 9999 FEW035"
    },
    {
      "icao": "LFLS",
      "alert": "OK",
      "vis_m": 9999,
      "fzfg": false,
      "metar_trigger": false,
      "taf_trigger": false,
      "metar": "METAR LFLS 131130Z AUTO VRB06KT 9999 R09/1000U SCT050 14/07 Q1016 NOSIG",
      "taf": "TAF LFLS 130800Z 1309/1409 VRB03KT 9999 SCT046"
    },
    {
      "icao": "LFMN",
      "alert": "OK",
      "vis_m": 9999,
      "fzfg": false,
      "metar_trigger": false,
      "taf_trigger": false,
      "metar": "METAR LFMN 131130Z 25011KT 9999 FEW040 BKN260 15/09 Q1021 NOSIG",
      "taf": "TAF LFMN 130800Z 1309/1415 34010KT 9999 FEW020 SCT030 BKN040"
    },
    {
      "icao": "LFOB",
      "alert": "OK",
      "vis_m": 9999,
      "fzfg": false,
      "metar_trigger": false,
      "taf_trigger": false,
      "metar": "METAR LFOB 131130Z AUTO 17008KT CAVOK 12/06 Q1009 NOSIG",
      "taf": ""
    },
    {
      "icao": "LFPO",
      "alert": "OK",
      "vis_m": 9999,
      "fzfg": false,
      "metar_trigger": false,
      "taf_trigger": false,
      "metar": "METAR LFPO 131100Z 17007KT 140V200 CAVOK 11/04 Q1010 NOSIG",
      "taf": "TAF LFPO 131100Z 1312/1418 19008KT CAVOK"
    },
    {
      "icao": "LFSB",
      "alert": "OK",
      "vis_m": 9999,
      "fzfg": false,
      "metar_trigger": false,
      "taf_trigger": false,
      "metar": "METAR LFSB 131130Z AUTO 17004KT 120V210 CAVOK 09/03 Q1015 NOSIG",
      "taf": "TAF LFSB 130500Z 1306/1406 18004KT CAVOK"
    },
    {
      "icao": "LGAV",
      "alert": "OK",
      "vis_m": 9999,
      "fzfg": false,
      "metar_trigger": false,
      "taf_trigger": false,
      "metar": "METAR LGAV 131120Z 18004KT 100V240 9999 FEW025 11/M12 Q1024 NOSIG",
      "taf": "TAF LGAV 131100Z 1312/1412 VRB05KT 9999 FEW025"
    },
    {
      "icao": "LGTS",
      "alert": "OK",
      "vis_m": 9999,
      "fzfg": false,
      "metar_trigger": false,
      "taf_trigger": false,
      "metar": "METAR LGTS 131120Z VRB03KT 9999 FEW030 06/M08 Q1024 NOSIG",
      "taf": "TAF LGTS 131100Z 1312/1412 VRB03KT 9999 FEW025"
    },
    {
      "icao": "LHBP",
      "alert": "OK",
      "vis_m": 8000,
      "fzfg": false,
      "metar_trigger": false,
      "taf_trigger": false,
      "metar": "METAR LHBP 131130Z 03004KT 340V070 8000 FEW009 OVC022 M06/M08 Q1018 NOSIG",
      "taf": "TAF LHBP 131115Z 1312/1412 04006KT 7000 SCT025 OVC040"
    },
    {
      "icao": "LHDC",
      "alert": "OK",
      "vis_m": 1600,
      "fzfg": false,
      "metar_trigger": false,
      "taf_trigger": false,
      "metar": "METAR LHDC 131115Z AUTO 08006KT 1600 R04/1400U -SN BR OVC013 M05/M06 Q1018 RESN NOSIG",
      "taf": "TAF LHDC 131115Z 1312/1321 08008KT 4000 -SN BR OVC025"
    },
    {
      "icao": "LIBD",
      "alert": "OK",
      "vis_m": 9999,
      "fzfg": false,
      "metar_trigger": false,
      "taf_trigger": false,
      "metar": "METAR LIBD 131120Z 35004KT 320V030 9999 FEW040 14/05 Q1024",
      "taf": "TAF LIBD 131100Z 1312/1412 23007KT CAVOK"
    },
    {
      "icao": "LIBG",
      "alert": "OK",
      "vis_m": 9999,
      "fzfg": false,
      "metar_trigger": false,
      "taf_trigger": false,
      "metar": "METAR LIBG 131050Z 21004KT 170V260 CAVOK 12/03 Q1026",
      "taf": "TAF LIBG 131100Z 1312/1321 25010KT 9999 FEW040"
    },
    {
      "icao": "LIBP",
      "alert": "OK",
      "vis_m": 9999,
      "fzfg": false,
      "metar_trigger": false,
      "taf_trigger": false,
      "metar": "METAR LIBP 131120Z AUTO 04007KT 010V070 9999 FEW230/// 13/05 Q1023",
      "taf": "TAF LIBP 131100Z 1312/1412 VRB06KT CAVOK"
    },
    {
      "icao": "LIBR",
      "alert": "OK",
      "vis_m": 9999,
      "fzfg": false,
      "metar_trigger": false,
      "taf_trigger": false,
      "metar": "METAR LIBR 131120Z 27004KT 220V290 CAVOK 12/02 Q1025",
      "taf": "TAF LIBR 131100Z 1312/1412 22008KT CAVOK"
    },
    {
      "icao": "LICA",
      "alert": "OK",
      "vis_m": 9999,
      "fzfg": false,
      "metar_trigger": false,
      "taf_trigger": false,
      "metar": "METAR LICA 131120Z AUTO 23011KT 9999 FEW033/// 13/07 Q1027",
      "taf": "TAF LICA 131100Z 1312/1412 26010KT 9999 SCT030"
    },
    {
      "icao": "LICC",
      "alert": "OK",
      "vis_m": 9999,
      "fzfg": false,
      "metar_trigger": false,
      "taf_trigger": false,
      "metar": "METAR LICC 131120Z 26009KT 230V290 CAVOK 15/10 Q1027",
      "taf": "TAF LICC 131100Z 1312/1412 26010KT CAVOK"
    },
    {
      "icao": "LICJ",
      "alert": "OK",
      "vis_m": 9999,
      "fzfg": false,
      "metar_trigger": false,
      "taf_trigger": false,
      "metar": "METAR LICJ 131120Z 19009KT 140V220 9999 FEW035 15/07 Q1026",
      "taf": "TAF LICJ 131100Z 1312/1412 18010KT 9999 FEW030"
    },
    {
      "icao": "LIMC",
      "alert": "OK",
      "vis_m": 9999,
      "fzfg": false,
      "metar_trigger": false,
      "taf_trigger": false,
      "metar": "METAR LIMC 131120Z 24003KT 200V270 9999 BKN039 07/M02 Q1022 NOSIG",
      "taf": "TAF LIMC 131100Z 1312/1418 VRB05KT 9999 BKN040"
    },
    {
      "icao": "LIME",
      "alert": "OK",
      "vis_m": 9000,
      "fzfg": false,
      "metar_trigger": false,
      "taf_trigger": false,
      "metar": "METAR LIME 131120Z VRB01KT 9000 BKN045 05/M01 Q1022 NOSIG",
      "taf": "TAF LIME 131100Z 1312/1412 VRB04KT 9999 SCT035"
    },
    {
      "icao": "LIMF",
      "alert": "OK",
      "vis_m": 9999,
      "fzfg": false,
      "metar_trigger": false,
      "taf_trigger": false,
      "metar": "METAR LIMF 131120Z AUTO VRB02KT 9999 FEW039/// 07/M04 Q1022",
      "taf": "TAF LIMF 131100Z 1312/1412 VRB03KT CAVOK"
    },
    {
      "icao": "LIMJ",
      "alert": "OK",
      "vis_m": 8000,
      "fzfg": false,
      "metar_trigger": false,
      "taf_trigger": false,
      "metar": "METAR LIMJ 131120Z 17003KT 100V240 8000 -RA SCT018 BKN030 13/11 Q1022",
      "taf": "TAF LIMJ 131100Z 1312/1412 VRB05KT 9999 BKN020"
    },
    {
      "icao": "LIPE",
      "alert": "OK",
      "vis_m": 9000,
      "fzfg": false,
      "metar_trigger": false,
      "taf_trigger": false,
      "metar": "METAR LIPE 131120Z VRB02KT 9000 SCT060 06/M00 Q1022",
      "taf": "TAF LIPE 131100Z 1312/1412 VRB04KT 9999 SCT040"
    },
    {
      "icao": "LIPH",
      "alert": "OK",
      "vis_m": 9999,
      "fzfg": false,
      "metar_trigger": false,
      "taf_trigger": false,
      "metar": "METAR LIPH 131120Z 03003KT 360V060 CAVOK 06/M00 Q1023",
      "taf": "TAF LIPH 131100Z 1312/1412 VRB04KT 9999 SCT040"
    },
    {
      "icao": "LIPQ",
      "alert": "OK",
      "vis_m": 9999,
      "fzfg": false,
      "metar_trigger": false,
      "taf_trigger": false,
      "metar": "METAR LIPQ 131120Z AUTO 33003KT 9999 NCD 07/02 Q1022",
      "taf": "TAF LIPQ 131100Z 1312/1412 VRB04KT 9999 SCT040"
    },
    {
      "icao": "LIPR",
      "alert": "OK",
      "vis_m": 9999,
      "fzfg": false,
      "metar_trigger": false,
      "taf_trigger": false,
      "metar": "METAR LIPR 131120Z 03004KT CAVOK 07/04 Q1022",
      "taf": "TAF LIPR 131100Z 1312/1412 VRB05KT 9999 FEW040"
    },
    {
      "icao": "LIPX",
      "alert": "OK",
      "vis_m": 9999,
      "fzfg": false,
      "metar_trigger": false,
      "taf_trigger": false,
      "metar": "METAR LIPX 131120Z VRB01KT 9999 BKN040 05/M02 Q1023",
      "taf": "TAF LIPX 131100Z 1312/1412 VRB04KT 9999 BKN040"
    },
    {
      "icao": "LIPY",
      "alert": "OK",
      "vis_m": 9999,
      "fzfg": false,
      "metar_trigger": false,
      "taf_trigger": false,
      "metar": "METAR LIPY 131120Z AUTO 07005KT 9999 NCD 15/06 Q1022",
      "taf": "TAF LIPY 131100Z 1312/1412 19007KT 9999 FEW050"
    },
    {
      "icao": "LIPZ",
      "alert": "OK",
      "vis_m": 9999,
      "fzfg": false,
      "metar_trigger": false,
      "taf_trigger": false,
      "metar": "METAR LIPZ 131120Z 04003KT 360V070 9999 BKN040 05/M00 Q1023 NOSIG",
      "taf": "TAF LIPZ 131100Z 1312/1418 VRB05KT 9999 SCT040"
    },
    {
      "icao": "LIRF",
      "alert": "OK",
      "vis_m": 9999,
      "fzfg": false,
      "metar_trigger": false,
      "taf_trigger": false,
      "metar": "METAR LIRF 131120Z 15007KT 130V200 9999 SCT045 15/09 Q1025 NOSIG",
      "taf": "TAF LIRF 131100Z 1312/1418 16010KT 9999 SCT030"
    },
    {
      "icao": "LIRN",
      "alert": "OK",
      "vis_m": 9999,
      "fzfg": false,
      "metar_trigger": false,
      "taf_trigger": false,
      "metar": "METAR LIRN 131120Z 18006KT 130V230 9999 SCT030 14/07 Q1026 NOSIG",
      "taf": "TAF LIRN 131100Z 1312/1412 VRB05KT 9999 BKN030"
    },
    {
      "icao": "LIRP",
      "alert": "OK",
      "vis_m": 9999,
      "fzfg": false,
      "metar_trigger": false,
      "taf_trigger": false,
      "metar": "METAR LIRP 131115Z 15003KT 9999 SCT035 BKN060 11/10 Q1023 NOSIG",
      "taf": "TAF LIRP 131100Z 1312/1412 VRB03KT 9999 SCT030 BKN060"
    },
    {
      "icao": "LIRZ",
      "alert": "OK",
      "vis_m": 9999,
      "fzfg": false,
      "metar_trigger": false,
      "taf_trigger": false,
      "metar": "METAR LIRZ 131120Z AUTO VRB01KT 9999 OVC052/// 11/07 Q1024",
      "taf": "TAF LIRZ 131100Z 1312/1412 VRB04KT 9999 SCT040"
    },
    {
      "icao": "LJLJ",
      "alert": "OK",
      "vis_m": 9999,
      "fzfg": false,
      "metar_trigger": false,
      "taf_trigger": false,
      "metar": "METAR LJLJ 131130Z 30004KT 9999 FEW027 BKN210 02/M01 Q1020 NOSIG",
      "taf": "TAF LJLJ 131100Z 1312/1412 30007KT 9999 SCT025"
    },
    {
      "icao": "LKMT",
      "alert": "OK",
      "vis_m": 9999,
      "fzfg": false,
      "metar_trigger": false,
      "taf_trigger": false,
      "metar": "METAR LKMT 131130Z 22013KT 9999 -SN OVC018 M01/M03 Q1015 NOSIG",
      "taf": "TAF LKMT 131100Z 1312/1412 23010KT 9999 BKN012 OVC025"
    },
    {
      "icao": "LKPR",
      "alert": "OK",
      "vis_m": 9999,
      "fzfg": false,
      "metar_trigger": false,
      "taf_trigger": false,
      "metar": "METAR LKPR 131130Z 20007KT 9999 FEW013 BKN018 03/02 Q1015 NOSIG",
      "taf": "TAF LKPR 131100Z 1312/1418 24006KT 7000 SCT008 BKN017"
    },
    {
      "icao": "LLBG",
      "alert": "OK",
      "vis_m": 9999,
      "fzfg": false,
      "metar_trigger": false,
      "taf_trigger": false,
      "metar": "METAR LLBG 131120Z 28022G38KT 9999 BKN045 16/05 Q1015 TEMPO 27025G35KT 3000 TSRA FEW020CB",
      "taf": "TAF LLBG 131110Z 1312/1412 27018G28KT 9999 SCT040"
    },
    {
      "icao": "LMML",
      "alert": "OK",
      "vis_m": 9999,
      "fzfg": false,
      "metar_trigger": false,
      "taf_trigger": false,
      "metar": "METAR LMML 131115Z 21006KT 160V280 9999 FEW033 16/08 Q1028 NOSIG",
      "taf": "TAF LMML 131100Z 1312/1412 24008KT 9999 SCT028"
    },
    {
      "icao": "LOWW",
      "alert": "OK",
      "vis_m": 5000,
      "fzfg": false,
      "metar_trigger": false,
      "taf_trigger": false,
      "metar": "METAR LOWW 131120Z VRB01KT 5000 BR FEW003 BKN024 M01/M02 Q1017 TEMPO 4000 BR",
      "taf": "TAF LOWW 131115Z 1312/1418 12005KT 6000 FEW020 BKN040 TX01/1314Z TNM02/1417Z"
    },
    {
      "icao": "LPFR",
      "alert": "OK",
      "vis_m": 9999,
      "fzfg": false,
      "metar_trigger": false,
      "taf_trigger": false,
      "metar": "METAR LPFR 131130Z 23016KT 9999 VCSH FEW012 FEW018CB SCT025 15/11 Q1013",
      "taf": "TAF LPFR 131100Z 1312/1412 21017KT 9999 SCT020"
    },
    {
      "icao": "LPMA",
      "alert": "OK",
      "vis_m": 9999,
      "fzfg": false,
      "metar_trigger": false,
      "taf_trigger": false,
      "metar": "METAR LPMA 131130Z 34007KT 290V030 9999 SCT015 FEW018CB 17/08 Q1020",
      "taf": "TAF LPMA 131100Z 1312/1412 34010KT 9999 SCT015"
    },
    {
      "icao": "LPPR",
      "alert": "OK",
      "vis_m": 6000,
      "fzfg": false,
      "metar_trigger": false,
      "taf_trigger": false,
      "metar": "METAR LPPR 131130Z 17015KT 6000 SHRA SCT008 BKN012 FEW020CB 13/11 Q1007",
      "taf": "TAF LPPR 131100Z 1312/1412 18012KT 9999 SCT015 BKN030"
    },
    {
      "icao": "LPPS",
      "alert": "OK",
      "vis_m": 9999,
      "fzfg": false,
      "metar_trigger": false,
      "taf_trigger": false,
      "metar": "METAR LPPS 131130Z 34016KT 9999 FEW015 FEW018CB 17/10 Q1019",
      "taf": "TAF LPPS 131100Z 1312/1418 34015KT 9999 SCT015"
    },
    {
      "icao": "LPPT",
      "alert": "OK",
      "vis_m": 9999,
      "fzfg": false,
      "metar_trigger": false,
      "taf_trigger": false,
      "metar": "METAR LPPT 131130Z 25004KT 220V290 9999 3000NE -SHRA FEW008 SCT020 FEW025CB 12/11 Q1010 RESHRA",
      "taf": "TAF LPPT 131100Z 1312/1418 25010KT 9999 SCT020 BKN045"
    },
    {
      "icao": "LQBK",
      "alert": "OK",
      "vis_m": 9999,
      "fzfg": false,
      "metar_trigger": false,
      "taf_trigger": false,
      "metar": "METAR LQBK 131130Z 22005KT 170V260 CAVOK 12/02 Q1018 NOSIG",
      "taf": "TAF LQBK 131100Z 1312/1412 15007KT CAVOK TX14/1313Z TN00/1406Z"
    },
    {
      "icao": "LQSA",
      "alert": "OK",
      "vis_m": 8000,
      "fzfg": false,
      "metar_trigger": false,
      "taf_trigger": false,
      "metar": "METAR LQSA 131130Z VRB03KT 8000 NSC 02/M03 Q1020 NOSIG",
      "taf": "TAF LQSA 131100Z 1312/1412 VRB02KT 8000 NSC TX04/1314Z TNM03/1406Z"
    },
    {
      "icao": "LQTZ",
      "alert": "OK",
      "vis_m": 9999,
      "fzfg": false,
      "metar_trigger": false,
      "taf_trigger": false,
      "metar": "METAR LQTZ 131130Z VRB01KT CAVOK 05/M03 Q1018",
      "taf": "TAF LQTZ 131100Z 1312/1412 VRB02KT CAVOK TX04/1313Z TNM02/1405Z"
    },
    {
      "icao": "LRBC",
      "alert": "OK",
      "vis_m": 9999,
      "fzfg": false,
      "metar_trigger": false,
      "taf_trigger": false,
      "metar": "METAR LRBC 131130Z 15012KT CAVOK 00/M07 Q1018",
      "taf": "TAF LRBC 131100Z 1312/1321 15010KT CAVOK"
    },
    {
      "icao": "LRBS",
      "alert": "OK",
      "vis_m": 9999,
      "fzfg": false,
      "metar_trigger": false,
      "taf_trigger": false,
      "metar": "METAR LRBS 131130Z 24005KT CAVOK M03/M09 Q1022 NOSIG",
      "taf": "TAF LRBS 131100Z 1312/1412 25006KT CAVOK"
    },
    {
      "icao": "LRBV",
      "alert": "OK",
      "vis_m": 9999,
      "fzfg": false,
      "metar_trigger": false,
      "taf_trigger": false,
      "metar": "METAR LRBV 131130Z VRB03KT 9999 FEW007 SCT085 M06/M10 Q1017",
      "taf": "TAF LRBV 131100Z 1312/1321 VRB04KT 9999 SCT010 BKN045"
    },
    {
      "icao": "LRCL",
      "alert": "OK",
      "vis_m": 2500,
      "fzfg": false,
      "metar_trigger": false,
      "taf_trigger": false,
      "metar": "METAR LRCL 131130Z 07007KT 2500 -SN BR SCT019 OVC032 M09/M11 Q1019",
      "taf": "TAF LRCL 131100Z 1312/1321 08006KT 5000 -SN BR SCT010 BKN045"
    },
    {
      "icao": "LRCV",
      "alert": "OK",
      "vis_m": 6000,
      "fzfg": false,
      "metar_trigger": false,
      "taf_trigger": false,
      "metar": "METAR LRCV 131130Z 06003KT 020V090 6000 -SN SCT028 BKN032 M05/M07 Q1021",
      "taf": "TAF LRCV 131100Z 1312/1321 VRB04KT 5000 -SN BR BKN035"
    },
    {
      "icao": "LRIA",
      "alert": "OK",
      "vis_m": 9999,
      "fzfg": false,
      "metar_trigger": false,
      "taf_trigger": false,
      "metar": "METAR LRIA 131130Z 12010KT CAVOK M03/M06 Q1018",
      "taf": "TAF LRIA 131100Z 1312/1321 11008KT CAVOK"
    },
    {
      "icao": "LROP",
      "alert": "OK",
      "vis_m": 9999,
      "fzfg": false,
      "metar_trigger": false,
      "taf_trigger": false,
      "metar": "METAR LROP 131130Z 25006KT CAVOK M04/M09 Q1021 NOSIG",
      "taf": "TAF LROP 131100Z 1312/1412 25006KT CAVOK"
    },
    {
      "icao": "LRSB",
      "alert": "OK",
      "vis_m": 7000,
      "fzfg": false,
      "metar_trigger": false,
      "taf_trigger": false,
      "metar": "METAR LRSB 131130Z 00000KT 7000 -SN SCT021 OVC033 M06/M09 Q1017",
      "taf": "TAF LRSB 131100Z 1312/1412 VRB04KT 9999 -SN OVC035"
    },
    {
      "icao": "LRSM",
      "alert": "OK",
      "vis_m": 500,
      "fzfg": false,
      "metar_trigger": false,
      "taf_trigger": false,
      "metar": "METAR LRSM 131130Z 09006KT 0500 R19/1100N +SN VV005 M06/M07 Q1019",
      "taf": "TAF LRSM 131100Z 1312/1321 11007KT 1000 SN BKN005 OVC015"
    },
    {
      "icao": "LRSV",
      "alert": "OK",
      "vis_m": 9999,
      "fzfg": false,
      "metar_trigger": false,
      "taf_trigger": false,
      "metar": "METAR LRSV 131130Z 14004KT CAVOK M04/M09 Q1015",
      "taf": "TAF LRSV 131100Z 1312/1321 VRB04KT CAVOK"
    },
    {
      "icao": "LRTM",
      "alert": "OK",
      "vis_m": 6000,
      "fzfg": false,
      "metar_trigger": false,
      "taf_trigger": false,
      "metar": "METAR LRTM 131130Z 07003KT 6000 SCT012 SCT049 M09/M11 Q1019",
      "taf": "TAF LRTM 131100Z 1312/1321 VRB02KT 5000 BR BKN010"
    },
    {
      "icao": "LRTR",
      "alert": "OK",
      "vis_m": 2000,
      "fzfg": false,
      "metar_trigger": false,
      "taf_trigger": false,
      "metar": "METAR LRTR 131130Z 10009KT 2000 SN BR BKN005 OVC030 M04/M04 Q1018 TEMPO 1500 SN BR",
      "taf": "TAF LRTR 131100Z 1312/1412 11010KT 3000 SN BKN005 OVC030"
    },
    {
      "icao": "LTAC",
      "alert": "OK",
      "vis_m": 9999,
      "fzfg": false,
      "metar_trigger": false,
      "taf_trigger": false,
      "metar": "METAR LTAC 131120Z 32009KT 9999 SCT035 BKN090 M00/M06 Q1015 NOSIG RMK RWY21C 31006KT RWY03L 31008KT 270V340 RWY21R 31006KT RWY03R 30007KT 260V320 RWY21L 35007KT 300V050",
      "taf": "TAF LTAC 131040Z 1312/1412 VRB02KT 9999 SCT035 BKN100"
    },
    {
      "icao": "LTFM",
      "alert": "OK",
      "vis_m": 9999,
      "fzfg": false,
      "metar_trigger": false,
      "taf_trigger": false,
      "metar": "METAR LTFM 131120Z 32004KT 260V050 9999 SCT035 03/M05 Q1024 NOSIG RMK RWY17L 35006KT 310V010 RWY34L 27005KT 180V320 RWY16R 29004KT 200V360 RWY36 32005KT 220V020 RWY18 35007KT",
      "taf": "TAF LTFM 131040Z 1312/1418 30010KT 9999 BKN028"
    },
    {
      "icao": "LUKK",
      "alert": "OK",
      "vis_m": 9999,
      "fzfg": false,
      "metar_trigger": false,
      "taf_trigger": false,
      "metar": "METAR LUKK 131130Z 17009KT CAVOK M04/M09 Q1019 NOSIG",
      "taf": "TAF LUKK 131115Z 1312/1412 VRB05KT CAVOK"
    },
    {
      "icao": "LWOH",
      "alert": "OK",
      "vis_m": 9999,
      "fzfg": false,
      "metar_trigger": false,
      "taf_trigger": false,
      "metar": "METAR LWOH 131120Z 16005KT 130V200 9999 SCT033 04/M01 Q1023",
      "taf": "TAF LWOH 131115Z 1312/1412 16005KT 9999 FEW035"
    },
    {
      "icao": "LWSK",
      "alert": "OK",
      "vis_m": 9999,
      "fzfg": false,
      "metar_trigger": false,
      "taf_trigger": false,
      "metar": "METAR LWSK 131120Z VRB01KT 9999 FEW050 02/M07 Q1024 NOSIG",
      "taf": "TAF LWSK 131115Z 1312/1412 VRB02KT 9999 FEW060"
    },
    {
      "icao": "LYBE",
      "alert": "OK",
      "vis_m": 9999,
      "fzfg": false,
      "metar_trigger": false,
      "taf_trigger": false,
      "metar": "METAR LYBE 131130Z COR 19005KT CAVOK 05/M02 Q1017 TEMPO TL1200 4000 RA",
      "taf": "TAF LYBE 131100Z 1312/1412 VRB02KT 9999 SCT040 TX05/1412Z TN00/1405Z"
    },
    {
      "icao": "LYNI",
      "alert": "OK",
      "vis_m": 9999,
      "fzfg": false,
      "metar_trigger": false,
      "taf_trigger": false,
      "metar": "METAR LYNI 131130Z VRB02KT 9999 SCT050 BKN080 M00/M05 Q1022 NOSIG",
      "taf": "TAF LYNI 131100Z 1312/1412 24004KT 9999 SCT043 BKN070 TX03/1412Z TNM01/1315Z"
    },
    {
      "icao": "LYPG",
      "alert": "OK",
      "vis_m": 9999,
      "fzfg": false,
      "metar_trigger": false,
      "taf_trigger": false,
      "metar": "METAR LYPG 131130Z 01002KT 9999 FEW033 BKN040 BKN070 04/M05 Q1027 NOSIG",
      "taf": "TAF LYPG 131100Z 1312/1412 16006KT 9999 FEW027 BKN040 BKN080 TX09/1412Z TN01/1406Z"
    },
    {
      "icao": "LZIB",
      "alert": "OK",
      "vis_m": 8000,
      "fzfg": false,
      "metar_trigger": false,
      "taf_trigger": false,
      "metar": "METAR LZIB 131130Z 07004KT 8000 FEW005 BKN006 OVC012 M02/M03 Q1017 BECMG SCT007 OVC014",
      "taf": "TAF LZIB 131115Z 1312/1412 08004KT 8000 SCT007 OVC014"
    },
    {
      "icao": "LZKZ",
      "alert": "OK",
      "vis_m": 5000,
      "fzfg": false,
      "metar_trigger": false,
      "taf_trigger": false,
      "metar": "METAR LZKZ 131130Z VRB01KT 5000 -SN NSC M07/M09 Q1018 RESN NOSIG",
      "taf": "TAF LZKZ 131115Z 1312/1412 VRB02KT 6000 -SN OVC017"
    },
    {
      "icao": "LZTT",
      "alert": "OK",
      "vis_m": 9000,
      "fzfg": false,
      "metar_trigger": false,
      "taf_trigger": false,
      "metar": "METAR LZTT 131130Z VRB02KT 9000 BKN010 OVC020 M07/M11 Q1012 NOSIG",
      "taf": "TAF LZTT 131115Z 1312/1412 VRB02KT 6000 -SN SCT012 BKN020"
    },
    {
      "icao": "OEJN",
      "alert": "OK",
      "vis_m": 9999,
      "fzfg": false,
      "metar_trigger": false,
      "taf_trigger": false,
      "metar": "METAR OEJN 131100Z 27008KT 9999 SCT040 29/16 Q1015 NOSIG",
      "taf": "TAF OEJN 131100Z 1312/1418 35010KT 7000 SCT040"
    },
    {
      "icao": "OEMA",
      "alert": "OK",
      "vis_m": 9999,
      "fzfg": false,
      "metar_trigger": false,
      "taf_trigger": false,
      "metar": "METAR OEMA 131100Z 27007KT CAVOK 26/09 Q1017 NOSIG",
      "taf": "TAF OEMA 131100Z 1312/1418 33010KT 7000 FEW040"
    },
    {
      "icao": "OJAI",
      "alert": "OK",
      "vis_m": 2000,
      "fzfg": false,
      "metar_trigger": false,
      "taf_trigger": false,
      "metar": "METAR OJAI 131100Z 23020KT 2000 -RA SCT025 BKN030 07/05 Q1013 NOSIG",
      "taf": "TAF OJAI 131051Z 1312/1418 24020KT 1500 RA BR FEW025TCU SCT035"
    },
    {
      "icao": "OMAA",
      "alert": "OK",
      "vis_m": 9999,
      "fzfg": false,
      "metar_trigger": false,
      "taf_trigger": false,
      "metar": "METAR OMAA 131100Z 31008KT 280V340 CAVOK 25/07 Q1019 NOSIG",
      "taf": "TAF OMAA 131100Z 1312/1418 34010KT 8000 NSC"
    },
    {
      "icao": "OMDB",
      "alert": "OK",
      "vis_m": 9999,
      "fzfg": false,
      "metar_trigger": false,
      "taf_trigger": false,
      "metar": "METAR OMDB 131130Z 31010KT 210V350 CAVOK 24/12 Q1019 NOSIG",
      "taf": "TAF OMDB 131100Z 1312/1418 32010KT 8000 NSC"
    },
    {
      "icao": "UAAA",
      "alert": "OK",
      "vis_m": 100,
      "fzfg": true,
      "metar_trigger": false,
      "taf_trigger": false,
      "metar": "METAR UAAA 131100Z VRB01MPS 0100 R23L/0175N FG VV002 01/00 Q1024 NOSIG RMK QBB060",
      "taf": "TAF UAAA 131104Z 1312/1412 26003MPS 0600 FZFG VV003 TX03/1409Z TNM04/1403Z"
    },
    {
      "icao": "UBBB",
      "alert": "OK",
      "vis_m": 9999,
      "fzfg": false,
      "metar_trigger": false,
      "taf_trigger": false,
      "metar": "METAR UBBB 131130Z 02012KT 9999 BKN020 08/04 Q1009 NOSIG",
      "taf": "TAF UBBB 131057Z 1312/1412 35014KT 9999 BKN020 TX08/1312Z TN03/1401Z"
    },
    {
      "icao": "UDSG",
      "alert": "OK",
      "vis_m": 9999,
      "fzfg": false,
      "metar_trigger": false,
      "taf_trigger": false,
      "metar": "METAR UDSG 131100Z 30003KT 9999 BKN046 03/M03 Q1004 NOSIG",
      "taf": "TAF UDSG 131100Z 1312/1412 VRB06KT 5000 BR BKN030"
    },
    {
      "icao": "UDYZ",
      "alert": "OK",
      "vis_m": 9999,
      "fzfg": false,
      "metar_trigger": false,
      "taf_trigger": false,
      "metar": "METAR UDYZ 131100Z 26004KT 9999 FEW046 08/01 Q1003 NOSIG",
      "taf": "TAF UDYZ 131100Z 1312/1412 23006KT 9999 SCT040"
    },
    {
      "icao": "UGKO",
      "alert": "OK",
      "vis_m": 9999,
      "fzfg": false,
      "metar_trigger": false,
      "taf_trigger": false,
      "metar": "METAR UGKO 131130Z 24013KT 9999 -RA FEW015 SCT017 BKN052 04/03 Q1014 NOSIG",
      "taf": "TAF UGKO 131100Z 1312/1412 25007KT 9999 OVC045 TX06/1411Z TN01/1403Z"
    }
  ]
}