{
  "ts_utc": "2026-05-12T10:25:02Z",
  "threshold_m": 150,
  "source": "stations_override.txt (ICAO list) + aviationweather.gov (METAR/TAF raw)",
  "station_count": 159,
  "stations": [
    {
      "icao": "BIKF",
      "alert": "OK",
      "vis_m": 9999,
      "fzfg": false,
      "metar_trigger": false,
      "taf_trigger": false,
      "metar": "METAR BIKF 121000Z 34024KT 9999 FEW015 SCT030 07/02 Q1004",
      "taf": "TAF BIKF 120740Z 1209/1309 35012KT 9999 FEW026 TX09/1215Z TN02/1302Z"
    },
    {
      "icao": "BKPR",
      "alert": "OK",
      "vis_m": 9999,
      "fzfg": false,
      "metar_trigger": false,
      "taf_trigger": false,
      "metar": "METAR BKPR 120900Z 23021KT CAVOK 20/09 Q1008 NOSIG",
      "taf": "TAF BKPR 120530Z 1206/1306 23015KT 9999 SCT050"
    },
    {
      "icao": "EBCI",
      "alert": "OK",
      "vis_m": 9999,
      "fzfg": false,
      "metar_trigger": false,
      "taf_trigger": false,
      "metar": "METAR EBCI 120950Z 28007KT 240V320 9999 FEW028 BKN040 09/02 Q1016 NOSIG",
      "taf": "TAF EBCI 120510Z 1206/1312 29007KT 9999 FEW025 SCT035"
    },
    {
      "icao": "EDDB",
      "alert": "OK",
      "vis_m": 9999,
      "fzfg": false,
      "metar_trigger": false,
      "taf_trigger": false,
      "metar": "METAR EDDB 121020Z AUTO 24009KT 210V280 9999 SCT029 SCT035 09/02 Q1005 NOSIG",
      "taf": "TAF EDDB 120500Z 1206/1306 27007KT CAVOK"
    },
    {
      "icao": "EDDH",
      "alert": "OK",
      "vis_m": 9999,
      "fzfg": false,
      "metar_trigger": false,
      "taf_trigger": false,
      "metar": "METAR EDDH 121020Z AUTO 25005KT 220V290 CAVOK 09/07 Q1006 TEMPO 31010KT",
      "taf": "TAF EDDH 120500Z 1206/1312 31007KT 9999 BKN030"
    },
    {
      "icao": "EDDK",
      "alert": "OK",
      "vis_m": 9999,
      "fzfg": false,
      "metar_trigger": false,
      "taf_trigger": false,
      "metar": "METAR EDDK 121020Z AUTO 27011KT 240V300 9999 -SHRA SCT031 SCT039 FEW///TCU 09/03 Q1014 TEMPO 28015G25KT SHRA",
      "taf": "TAF EDDK 120500Z 1206/1312 29013KT 9999 SCT030"
    },
    {
      "icao": "EDDN",
      "alert": "OK",
      "vis_m": 9999,
      "fzfg": false,
      "metar_trigger": false,
      "taf_trigger": false,
      "metar": "METAR EDDN 121020Z AUTO 27014KT 9999 BKN036 07/M00 Q1012 TEMPO 29015G25KT",
      "taf": "TAF EDDN 120500Z 1206/1306 28012KT 9999 SCT020"
    },
    {
      "icao": "EDDS",
      "alert": "OK",
      "vis_m": 9999,
      "fzfg": false,
      "metar_trigger": false,
      "taf_trigger": false,
      "metar": "METAR EDDS 121020Z AUTO 27015KT 220V310 9999 SCT042 09/M00 Q1014 NOSIG",
      "taf": "TAF EDDS 120500Z 1206/1306 27008KT 9999 BKN020"
    },
    {
      "icao": "EDFH",
      "alert": "OK",
      "vis_m": 9999,
      "fzfg": false,
      "metar_trigger": false,
      "taf_trigger": false,
      "metar": "METAR EDFH 120950Z 27013KT 240V300 9999 FEW017 SCT041 06/00 Q1013",
      "taf": "TAF EDFH 120500Z 1206/1306 29012KT 9999 BKN015"
    },
    {
      "icao": "EDJA",
      "alert": "OK",
      "vis_m": 9999,
      "fzfg": false,
      "metar_trigger": false,
      "taf_trigger": false,
      "metar": "METAR EDJA 120950Z 28013KT 240V310 9999 FEW042 SCT050 BKN059 06/M02 Q1014",
      "taf": "TAF EDJA 120800Z 1209/1218 27010KT 9999 SCT020"
    },
    {
      "icao": "EDLW",
      "alert": "OK",
      "vis_m": 9999,
      "fzfg": false,
      "metar_trigger": false,
      "taf_trigger": false,
      "metar": "METAR EDLW 120950Z 27011KT 230V330 9999 SCT032 BKN041 09/02 Q1012",
      "taf": "TAF EDLW 120500Z 1206/1306 28011KT 9999 BKN030"
    },
    {
      "icao": "EDNY",
      "alert": "OK",
      "vis_m": 9999,
      "fzfg": false,
      "metar_trigger": false,
      "taf_trigger": false,
      "metar": "METAR EDNY 120950Z 27007KT 220V340 9999 SCT043 BKN059 09/M00 Q1015",
      "taf": "TAF EDNY 120800Z 1209/1218 28009KT 9999 SCT015"
    },
    {
      "icao": "EDSB",
      "alert": "OK",
      "vis_m": 9999,
      "fzfg": false,
      "metar_trigger": false,
      "taf_trigger": false,
      "metar": "METAR EDSB 120950Z 23008KT 190V270 9999 VCSH SCT037TCU BKN048 09/02 Q1016",
      "taf": "TAF EDSB 120500Z 1206/1306 25006KT 9999 SCT030"
    },
    {
      "icao": "EETN",
      "alert": "OK",
      "vis_m": 9999,
      "fzfg": false,
      "metar_trigger": false,
      "taf_trigger": false,
      "metar": "METAR EETN 121020Z 14012KT CAVOK 17/06 Q1000 NOSIG",
      "taf": "TAF EETN 120530Z 1206/1306 14014KT 9999 SCT045"
    },
    {
      "icao": "EFTU",
      "alert": "OK",
      "vis_m": 9999,
      "fzfg": false,
      "metar_trigger": false,
      "taf_trigger": false,
      "metar": "METAR EFTU 121020Z AUTO 14009KT 9999 OVC017 10/07 Q0999",
      "taf": "TAF EFTU 120835Z 1209/1309 13007KT 9999 FEW025 SCT045"
    },
    {
      "icao": "EGBB",
      "alert": "OK",
      "vis_m": 9999,
      "fzfg": false,
      "metar_trigger": false,
      "taf_trigger": false,
      "metar": "METAR EGBB 121020Z 28008KT 220V310 9999 BKN036 13/04 Q1014",
      "taf": "TAF EGBB 120455Z 1206/1306 VRB04KT 9999 SCT045"
    },
    {
      "icao": "EGGP",
      "alert": "OK",
      "vis_m": 5000,
      "fzfg": false,
      "metar_trigger": false,
      "taf_trigger": false,
      "metar": "METAR EGGP 120950Z 26018KT 5000 -RA BKN008 OVC011 09/07 Q1013",
      "taf": ""
    },
    {
      "icao": "EGGW",
      "alert": "OK",
      "vis_m": 9999,
      "fzfg": false,
      "metar_trigger": false,
      "taf_trigger": false,
      "metar": "METAR EGGW 121020Z AUTO 26014KT 240V300 9999 NCD 13/03 Q1014",
      "taf": "TAF EGGW 120501Z 1206/1306 VRB02KT CAVOK"
    },
    {
      "icao": "EGKK",
      "alert": "OK",
      "vis_m": 9999,
      "fzfg": false,
      "metar_trigger": false,
      "taf_trigger": false,
      "metar": "METAR EGKK 121020Z 29011KT 9999 FEW043 14/02 Q1015",
      "taf": "TAF EGKK 120503Z 1206/1312 VRB03KT 9999 FEW045"
    },
    {
      "icao": "EGNM",
      "alert": "OK",
      "vis_m": 9999,
      "fzfg": false,
      "metar_trigger": false,
      "taf_trigger": false,
      "metar": "METAR EGNM 120950Z 26015KT 220V290 9999 SCT015 SCT030 10/06 Q1011",
      "taf": "TAF EGNM 120459Z 1206/1306 25012KT 9999 SCT045"
    },
    {
      "icao": "EGPD",
      "alert": "OK",
      "vis_m": 9999,
      "fzfg": false,
      "metar_trigger": false,
      "taf_trigger": false,
      "metar": "METAR EGPD 120950Z COR 31016KT 9999 FEW027 BKN031 10/04 Q1006 NOSIG",
      "taf": "TAF EGPD 120501Z 1206/1306 23007KT 9999 SCT035"
    },
    {
      "icao": "EGPF",
      "alert": "OK",
      "vis_m": 9999,
      "fzfg": false,
      "metar_trigger": false,
      "taf_trigger": false,
      "metar": "METAR EGPF 121020Z AUTO 29015KT 9999 FEW037 11/04 Q1010",
      "taf": "TAF EGPF 120457Z 1206/1306 27010KT 9999 SCT024"
    },
    {
      "icao": "EHBK",
      "alert": "OK",
      "vis_m": 9999,
      "fzfg": false,
      "metar_trigger": false,
      "taf_trigger": false,
      "metar": "METAR EHBK 120955Z AUTO 25007KT 170V330 9999 NSC 10/03 Q1014 TEMPO -SHRA FEW020TCU",
      "taf": "TAF EHBK 120504Z 1206/1312 26008KT 9999 BKN040"
    },
    {
      "icao": "EHEH",
      "alert": "OK",
      "vis_m": 9999,
      "fzfg": false,
      "metar_trigger": false,
      "taf_trigger": false,
      "metar": "METAR EHEH 120955Z AUTO 29005KT 220V350 9999 FEW037 SCT045 BKN050 10/02 Q1014 BLU NOSIG RMK TREND REMOTE BY EHWX",
      "taf": "TAF EHEH 120506Z 1206/1312 27006KT 9999 SCT028"
    },
    {
      "icao": "EKBI",
      "alert": "OK",
      "vis_m": 9999,
      "fzfg": false,
      "metar_trigger": false,
      "taf_trigger": false,
      "metar": "METAR EKBI 121020Z AUTO 30011KT 9999 SCT043/// BKN063/// 12/02 Q1004",
      "taf": "TAF EKBI 120827Z 1209/1309 31010KT 9999 FEW040"
    },
    {
      "icao": "EKCH",
      "alert": "OK",
      "vis_m": 9999,
      "fzfg": false,
      "metar_trigger": false,
      "taf_trigger": false,
      "metar": "METAR EKCH 121020Z AUTO 32009KT 290V360 9999 OVC026/// 11/05 Q1002 NOSIG",
      "taf": "TAF EKCH 120827Z 1209/1309 33012KT 9999 BKN025"
    },
    {
      "icao": "ENAL",
      "alert": "OK",
      "vis_m": 9999,
      "fzfg": false,
      "metar_trigger": false,
      "taf_trigger": false,
      "metar": "METAR ENAL 120950Z 03006KT 360V060 CAVOK 09/01 Q1003",
      "taf": "TAF ENAL 120500Z 1206/1215 14008KT 9999 SCT030"
    },
    {
      "icao": "ENBR",
      "alert": "OK",
      "vis_m": 9999,
      "fzfg": false,
      "metar_trigger": false,
      "taf_trigger": false,
      "metar": "METAR ENBR 120950Z 17007KT 130V200 9999 SCT015 08/01 Q1004 NOSIG RMK WIND 1200FT 17005KT",
      "taf": "TAF ENBR 120500Z 1206/1306 VRB04KT CAVOK"
    },
    {
      "icao": "ENGM",
      "alert": "OK",
      "vis_m": 9999,
      "fzfg": false,
      "metar_trigger": false,
      "taf_trigger": false,
      "metar": "METAR ENGM 120950Z VRB04KT 9999 FEW049 12/M01 Q1002 NOSIG",
      "taf": ""
    },
    {
      "icao": "ENHD",
      "alert": "OK",
      "vis_m": 9999,
      "fzfg": false,
      "metar_trigger": false,
      "taf_trigger": false,
      "metar": "METAR ENHD 120920Z 23005KT 9999 SCT022 09/02 Q1005",
      "taf": "TAF ENHD 120800Z 1209/1218 24008KT 9999 SCT020"
    },
    {
      "icao": "ENTC",
      "alert": "OK",
      "vis_m": 9999,
      "fzfg": false,
      "metar_trigger": false,
      "taf_trigger": false,
      "metar": "METAR ENTC 120950Z 24004KT 9999 SCT065 07/03 Q1000 NOSIG RMK WIND 2600FT 17007KT",
      "taf": "TAF ENTC 120500Z 1206/1306 02005KT 9999 -RA FEW040 BKN060"
    },
    {
      "icao": "ENTO",
      "alert": "OK",
      "vis_m": 9999,
      "fzfg": false,
      "metar_trigger": false,
      "taf_trigger": false,
      "metar": "METAR ENTO 120950Z 02006KT 340V080 9999 SCT038 12/02 Q1003 NOSIG",
      "taf": ""
    },
    {
      "icao": "ENVA",
      "alert": "OK",
      "vis_m": 9999,
      "fzfg": false,
      "metar_trigger": false,
      "taf_trigger": false,
      "metar": "METAR ENVA 120950Z 24009KT CAVOK 09/00 Q1003 NOSIG RMK WIND 670FT 32005KT",
      "taf": "TAF ENVA 120500Z 1206/1306 11007KT CAVOK"
    },
    {
      "icao": "ENZV",
      "alert": "OK",
      "vis_m": 9999,
      "fzfg": false,
      "metar_trigger": false,
      "taf_trigger": false,
      "metar": "METAR ENZV 120950Z 29010KT 250V310 9999 SCT024 09/03 Q1005 NOSIG",
      "taf": "TAF ENZV 120500Z 1206/1306 VRB04KT 9999 SCT020"
    },
    {
      "icao": "EPGD",
      "alert": "OK",
      "vis_m": 9999,
      "fzfg": false,
      "metar_trigger": false,
      "taf_trigger": false,
      "metar": "METAR EPGD 121000Z 27016KT 9999 FEW017 BKN021 10/05 Q1001",
      "taf": "TAF EPGD 120530Z 1206/1306 28017KT 9999 BKN020"
    },
    {
      "icao": "EPKK",
      "alert": "OK",
      "vis_m": 9999,
      "fzfg": false,
      "metar_trigger": false,
      "taf_trigger": false,
      "metar": "METAR EPKK 121000Z 28014KT 9999 -RA SCT012 BKN017 09/06 Q1005",
      "taf": "TAF EPKK 120830Z 1209/1309 28010KT 9999 SCT015 BKN025"
    },
    {
      "icao": "EPKT",
      "alert": "OK",
      "vis_m": 9999,
      "fzfg": false,
      "metar_trigger": false,
      "taf_trigger": false,
      "metar": "METAR EPKT 121000Z 30010KT 280V340 9999 SCT011 BKN032 09/06 Q1005",
      "taf": ""
    },
    {
      "icao": "EPLB",
      "alert": "OK",
      "vis_m": 9999,
      "fzfg": false,
      "metar_trigger": false,
      "taf_trigger": false,
      "metar": "METAR EPLB 121000Z 30013KT 9999 SCT013 BKN016 13/09 Q0999",
      "taf": "TAF EPLB 120530Z 1206/1306 17005KT 9999 BKN030"
    },
    {
      "icao": "EPMO",
      "alert": "OK",
      "vis_m": 5000,
      "fzfg": false,
      "metar_trigger": false,
      "taf_trigger": false,
      "metar": "METAR EPMO 121000Z 29012KT 5000 RA BR BKN014 BKN019 09/08 Q1002",
      "taf": ""
    },
    {
      "icao": "EPPO",
      "alert": "OK",
      "vis_m": 9999,
      "fzfg": false,
      "metar_trigger": false,
      "taf_trigger": false,
      "metar": "METAR EPPO 121000Z 28012KT 9999 BKN035 11/02 Q1004",
      "taf": "TAF EPPO 120530Z 1206/1306 28011KT CAVOK"
    },
    {
      "icao": "EPRA",
      "alert": "OK",
      "vis_m": 9000,
      "fzfg": false,
      "metar_trigger": false,
      "taf_trigger": false,
      "metar": "METAR EPRA 121000Z 30012KT 270V330 9000 -RA BKN009 OVC014 09/07 Q1002",
      "taf": "TAF EPRA 120830Z 1209/1218 30012KT 8000 -RA BKN008 OVC014"
    },
    {
      "icao": "EPRZ",
      "alert": "OK",
      "vis_m": 5000,
      "fzfg": false,
      "metar_trigger": false,
      "taf_trigger": false,
      "metar": "METAR EPRZ 121000Z 28017KT 5000 -SHRA BKN003 BKN011CB 10/10 Q1001",
      "taf": ""
    },
    {
      "icao": "EPSC",
      "alert": "OK",
      "vis_m": 9999,
      "fzfg": false,
      "metar_trigger": false,
      "taf_trigger": false,
      "metar": "METAR EPSC 121000Z 22011KT 180V260 9999 BKN039 11/01 Q1004",
      "taf": "TAF EPSC 120530Z 1206/1306 26010KT 9999 FEW040"
    },
    {
      "icao": "EPSY",
      "alert": "OK",
      "vis_m": 9999,
      "fzfg": false,
      "metar_trigger": false,
      "taf_trigger": false,
      "metar": "METAR EPSY 121000Z 32009KT 280V360 9999 SCT002 BKN005 09/07 Q1000",
      "taf": ""
    },
    {
      "icao": "EPWA",
      "alert": "OK",
      "vis_m": 9999,
      "fzfg": false,
      "metar_trigger": false,
      "taf_trigger": false,
      "metar": "METAR EPWA 121000Z 29012KT 9999 SHRA SCT008 BKN016CB 09/08 Q1001 TEMPO 4000 SHRA",
      "taf": ""
    },
    {
      "icao": "EPWR",
      "alert": "OK",
      "vis_m": 9999,
      "fzfg": false,
      "metar_trigger": false,
      "taf_trigger": false,
      "metar": "METAR EPWR 121000Z 28012KT 9999 FEW033 SCT047 11/04 Q1006",
      "taf": "TAF EPWR 120830Z 1209/1309 28014KT 9999 SCT030"
    },
    {
      "icao": "ESGG",
      "alert": "OK",
      "vis_m": 9999,
      "fzfg": false,
      "metar_trigger": false,
      "taf_trigger": false,
      "metar": "METAR ESGG 120950Z 01012KT 9999 SCT021 BKN027 OVC037 09/03 Q1002",
      "taf": "TAF ESGG 120830Z 1209/1309 36010KT 9999 BKN018"
    },
    {
      "icao": "ESKN",
      "alert": "OK",
      "vis_m": 6000,
      "fzfg": false,
      "metar_trigger": false,
      "taf_trigger": false,
      "metar": "METAR ESKN 120950Z 34009KT 310V020 6000 DZ BKN005 06/06 Q0997",
      "taf": "TAF ESKN 120830Z 1209/1309 36010KT 8000 -DZ BKN006"
    },
    {
      "icao": "ESMS",
      "alert": "OK",
      "vis_m": 9999,
      "fzfg": false,
      "metar_trigger": false,
      "taf_trigger": false,
      "metar": "METAR ESMS 120950Z 30013KT 9999 BKN023 09/05 Q1001",
      "taf": "TAF ESMS 120827Z 1209/1309 32012KT 9999 BKN020"
    },
    {
      "icao": "ESSA",
      "alert": "OK",
      "vis_m": 9999,
      "fzfg": false,
      "metar_trigger": false,
      "taf_trigger": false,
      "metar": "METAR ESSA 120950Z 01015KT 9999 -RA BKN006 06/05 Q0998 TEMPO BKN004",
      "taf": "TAF ESSA 120830Z 1209/1309 01015KT 9999 -RA BKN008"
    },
    {
      "icao": "EYKA",
      "alert": "OK",
      "vis_m": 9999,
      "fzfg": false,
      "metar_trigger": false,
      "taf_trigger": false,
      "metar": "METAR EYKA 121020Z 14007KT 110V180 9999 FEW016 BKN027 OVC032 13/09 Q0999",
      "taf": "TAF EYKA 120503Z 1206/1306 12010KT 9000 BKN045"
    },
    {
      "icao": "EYPA",
      "alert": "OK",
      "vis_m": 9999,
      "fzfg": false,
      "metar_trigger": false,
      "taf_trigger": false,
      "metar": "METAR EYPA 121020Z 23005KT 140V300 9999 OVC015 08/07 Q0999",
      "taf": "TAF EYPA 120503Z 1206/1306 VRB03KT 5000 BR OVC005"
    },
    {
      "icao": "EYVI",
      "alert": "OK",
      "vis_m": 9999,
      "fzfg": false,
      "metar_trigger": false,
      "taf_trigger": false,
      "metar": "METAR EYVI 121020Z 16006KT 9999 -SHRA SCT046CB 15/11 Q0999 NOSIG",
      "taf": "TAF EYVI 120505Z 1206/1306 14010KT 9000 SCT045"
    },
    {
      "icao": "GCFV",
      "alert": "OK",
      "vis_m": 9999,
      "fzfg": false,
      "metar_trigger": false,
      "taf_trigger": false,
      "metar": "METAR GCFV 121000Z 06012KT CAVOK 22/15 Q1022",
      "taf": "TAF GCFV 120800Z 1209/1309 07008KT 9999 SCT035 TX24/1214Z TN17/1306Z"
    },
    {
      "icao": "GCLP",
      "alert": "OK",
      "vis_m": 9999,
      "fzfg": false,
      "metar_trigger": false,
      "taf_trigger": false,
      "metar": "METAR GCLP 121000Z 03018KT 9999 FEW025 22/13 Q1021 NOSIG",
      "taf": "TAF GCLP 120800Z 1209/1309 35007KT 9999 SCT035 TX23/1214Z TN16/1306Z"
    },
    {
      "icao": "GCTS",
      "alert": "OK",
      "vis_m": 9999,
      "fzfg": false,
      "metar_trigger": false,
      "taf_trigger": false,
      "metar": "METAR GCTS 121000Z 14007KT 100V200 9999 FEW038 22/12 Q1022 NOSIG",
      "taf": "TAF GCTS 120800Z 1209/1309 08013KT 9999 FEW040 TX25/1214Z TN16/1306Z"
    },
    {
      "icao": "GMAD",
      "alert": "OK",
      "vis_m": 9999,
      "fzfg": false,
      "metar_trigger": false,
      "taf_trigger": false,
      "metar": "METAR GMAD 121000Z 17003KT CAVOK 22/12 Q1020 NOSIG",
      "taf": "TAF GMAD 120500Z 1206/1312 14003KT CAVOK"
    },
    {
      "icao": "GMMN",
      "alert": "OK",
      "vis_m": 9999,
      "fzfg": false,
      "metar_trigger": false,
      "taf_trigger": false,
      "metar": "METAR GMMN 121000Z VRB03KT 9999 SCT030 21/13 Q1022 NOSIG",
      "taf": "TAF GMMN 120500Z 1206/1312 16005KT 9999 SCT020"
    },
    {
      "icao": "GMMX",
      "alert": "OK",
      "vis_m": 9999,
      "fzfg": false,
      "metar_trigger": false,
      "taf_trigger": false,
      "metar": "METAR GMMX 121000Z 09005KT 030V180 9999 FEW026 BKN200 20/10 Q1022 NOSIG",
      "taf": "TAF GMMX 120600Z 1206/1312 24006KT 8000 NSC"
    },
    {
      "icao": "HEGN",
      "alert": "OK",
      "vis_m": 9999,
      "fzfg": false,
      "metar_trigger": false,
      "taf_trigger": false,
      "metar": "METAR HEGN 120900Z 34011KT CAVOK 33/04 Q1012 NOSIG",
      "taf": "TAF HEGN 120500Z 1206/1312 35015KT CAVOK"
    },
    {
      "icao": "HEMA",
      "alert": "OK",
      "vis_m": 9999,
      "fzfg": false,
      "metar_trigger": false,
      "taf_trigger": false,
      "metar": "METAR HEMA 120900Z 35021KT CAVOK 35/05 Q1011 NOSIG",
      "taf": "TAF HEMA 120500Z 1206/1312 36012G22KT CAVOK"
    },
    {
      "icao": "HESH",
      "alert": "OK",
      "vis_m": 9999,
      "fzfg": false,
      "metar_trigger": false,
      "taf_trigger": false,
      "metar": "METAR HESH 120900Z 36014KT CAVOK 33/11 Q1012 NOSIG",
      "taf": "TAF HESH 120500Z 1206/1312 01014KT CAVOK"
    },
    {
      "icao": "HESX",
      "alert": "OK",
      "vis_m": 9999,
      "fzfg": false,
      "metar_trigger": false,
      "taf_trigger": false,
      "metar": "METAR HESX 120900Z 17008KT CAVOK 36/04 Q1013 NOSIG",
      "taf": "TAF HESX 120500Z 1206/1312 22010KT CAVOK"
    },
    {
      "icao": "LATI",
      "alert": "OK",
      "vis_m": 9999,
      "fzfg": false,
      "metar_trigger": false,
      "taf_trigger": false,
      "metar": "METAR LATI 121020Z 23017G28KT 210V280 9999 SCT090 25/08 Q1009 NOSIG",
      "taf": "TAF LATI 120500Z 1206/1306 VRB05KT CAVOK TX26/1212Z TN14/1304Z"
    },
    {
      "icao": "LBPD",
      "alert": "OK",
      "vis_m": 9999,
      "fzfg": false,
      "metar_trigger": false,
      "taf_trigger": false,
      "metar": "METAR LBPD 121000Z AUTO 34007KT 290V010 9999 NCD 26/10 Q1004 NOSIG",
      "taf": "TAF LBPD 120500Z 1206/1306 29010KT 9999 SCT060"
    },
    {
      "icao": "LBSF",
      "alert": "OK",
      "vis_m": 9999,
      "fzfg": false,
      "metar_trigger": false,
      "taf_trigger": false,
      "metar": "METAR LBSF 121000Z 24014G27KT 200V280 9999 FEW065 BKN085 23/05 Q1005 WS ALL RWY NOSIG",
      "taf": "TAF LBSF 120500Z 1206/1306 VRB04KT 9999 SCT060"
    },
    {
      "icao": "LBWN",
      "alert": "OK",
      "vis_m": 9999,
      "fzfg": false,
      "metar_trigger": false,
      "taf_trigger": false,
      "metar": "METAR LBWN 121000Z 23007KT 200V280 9999 SCT025 26/15 Q1003 NOSIG",
      "taf": "TAF LBWN 120500Z 1206/1306 VRB04KT 9999 SCT040"
    },
    {
      "icao": "LCLK",
      "alert": "OK",
      "vis_m": 9999,
      "fzfg": false,
      "metar_trigger": false,
      "taf_trigger": false,
      "metar": "METAR LCLK 121000Z 19018KT 9999 FEW016 26/17 Q1011 NOSIG",
      "taf": "TAF LCLK 120530Z 1206/1306 28006KT 9999 FEW025"
    },
    {
      "icao": "LCPH",
      "alert": "OK",
      "vis_m": 9999,
      "fzfg": false,
      "metar_trigger": false,
      "taf_trigger": false,
      "metar": "METAR LCPH 121000Z 15014KT CAVOK 24/17 Q1011 NOSIG",
      "taf": "TAF LCPH 120530Z 1206/1306 06006KT 9999 FEW020"
    },
    {
      "icao": "LEAL",
      "alert": "OK",
      "vis_m": 9999,
      "fzfg": false,
      "metar_trigger": false,
      "taf_trigger": false,
      "metar": "METAR LEAL 121000Z 20008KT 150V240 9999 BKN045 24/11 Q1015 NOSIG",
      "taf": "TAF LEAL 120500Z 1206/1306 24009KT 9999 FEW015 TX26/1212Z TN14/1206Z"
    },
    {
      "icao": "LEBB",
      "alert": "OK",
      "vis_m": 9999,
      "fzfg": false,
      "metar_trigger": false,
      "taf_trigger": false,
      "metar": "METAR LEBB 121000Z 26004KT 190V300 9999 BKN015 BKN034 16/14 Q1018 NOSIG",
      "taf": "TAF LEBB 120500Z 1206/1306 VRB03KT 9999 FEW010 SCT025 TX16/1212Z TN10/1305Z"
    },
    {
      "icao": "LEBL",
      "alert": "OK",
      "vis_m": 9999,
      "fzfg": false,
      "metar_trigger": false,
      "taf_trigger": false,
      "metar": "METAR LEBL 121000Z 10009KT 070V130 CAVOK 21/15 Q1014 NOSIG",
      "taf": "TAF LEBL 120500Z 1206/1306 34008KT 9999 FEW030 TX21/1212Z TN14/1305Z"
    },
    {
      "icao": "LECH",
      "alert": "OK",
      "vis_m": 9000,
      "fzfg": false,
      "metar_trigger": false,
      "taf_trigger": false,
      "metar": "METAR LECH 121000Z AUTO 23007KT 210V280 9000 NCD 21/07 Q1015",
      "taf": "TAF LECH 120500Z 1206/1306 VRB04KT CAVOK TX22/1214Z TN10/1206Z"
    },
    {
      "icao": "LEMD",
      "alert": "OK",
      "vis_m": 9999,
      "fzfg": false,
      "metar_trigger": false,
      "taf_trigger": false,
      "metar": "METAR LEMD 121000Z 18008KT 9999 VCTS SCT050 FEW060CB BKN065 15/10 Q1017 TEMPO 4000 TSRA",
      "taf": ""
    },
    {
      "icao": "LEMG",
      "alert": "OK",
      "vis_m": 9999,
      "fzfg": false,
      "metar_trigger": false,
      "taf_trigger": false,
      "metar": "METAR LEMG 121000Z 31005G17KT 240V030 9999 SCT050 21/09 Q1020 NOSIG",
      "taf": "TAF LEMG 120500Z 1206/1306 29010KT 9999 FEW045 TX25/1214Z TN15/1306Z"
    },
    {
      "icao": "LEVC",
      "alert": "OK",
      "vis_m": 9999,
      "fzfg": false,
      "metar_trigger": false,
      "taf_trigger": false,
      "metar": "METAR LEVC 121000Z 33006KT 270V040 CAVOK 25/07 Q1014 NOSIG",
      "taf": "TAF LEVC 120500Z 1206/1306 30005KT CAVOK TX26/1212Z TN12/1206Z"
    },
    {
      "icao": "LEXJ",
      "alert": "OK",
      "vis_m": 9999,
      "fzfg": false,
      "metar_trigger": false,
      "taf_trigger": false,
      "metar": "METAR LEXJ 121000Z 05004KT 9999 SCT027 BKN036 16/12 Q1018",
      "taf": "TAF LEXJ 120800Z 1209/1309 05009KT 9999 FEW025 BKN035 TX17/1215Z TN12/1305Z"
    },
    {
      "icao": "LEZG",
      "alert": "OK",
      "vis_m": 9999,
      "fzfg": false,
      "metar_trigger": false,
      "taf_trigger": false,
      "metar": "METAR LEZG 121000Z 30009KT 270V340 9999 SCT085 18/12 Q1016 NOSIG",
      "taf": "TAF LEZG 120500Z 1206/1306 24006KT 9999 FEW050 TX22/1218Z TN11/1207Z"
    },
    {
      "icao": "LEZL",
      "alert": "OK",
      "vis_m": 9999,
      "fzfg": false,
      "metar_trigger": false,
      "taf_trigger": false,
      "metar": "METAR LEZL 121000Z 27009KT 210V310 9999 BKN030 20/11 Q1020 NOSIG",
      "taf": "TAF LEZL 120800Z 1209/1309 VRB03KT 9999 FEW040 TX24/1215Z TN11/1306Z"
    },
    {
      "icao": "LFBD",
      "alert": "OK",
      "vis_m": 9999,
      "fzfg": false,
      "metar_trigger": false,
      "taf_trigger": false,
      "metar": "METAR LFBD 121000Z AUTO VRB04KT 9999 BKN042 BKN049 BKN056 17/06 Q1018 NOSIG",
      "taf": "TAF LFBD 120500Z 1206/1312 VRB03KT CAVOK TX20/1214Z TN11/1206Z"
    },
    {
      "icao": "LFLL",
      "alert": "OK",
      "vis_m": 9999,
      "fzfg": false,
      "metar_trigger": false,
      "taf_trigger": false,
      "metar": "METAR LFLL 121000Z 01007KT 330V040 9999 SCT025 13/07 Q1017 NOSIG",
      "taf": "TAF LFLL 120500Z 1206/1312 VRB02KT 9999 FEW009 BKN060"
    },
    {
      "icao": "LFLS",
      "alert": "OK",
      "vis_m": 9999,
      "fzfg": false,
      "metar_trigger": false,
      "taf_trigger": false,
      "metar": "METAR LFLS 121000Z AUTO 33007KT 290V010 9999 FEW034 BKN074 12/07 Q1016 TEMPO FEW020TCU",
      "taf": "TAF LFLS 120800Z 1209/1309 36007KT 9999 BKN030"
    },
    {
      "icao": "LFMN",
      "alert": "OK",
      "vis_m": 9999,
      "fzfg": false,
      "metar_trigger": false,
      "taf_trigger": false,
      "metar": "METAR LFMN 121000Z 24018KT CAVOK 25/08 Q1003 BECMG 08015KT",
      "taf": "TAF LFMN 120800Z 1209/1315 26015KT CAVOK"
    },
    {
      "icao": "LFOB",
      "alert": "OK",
      "vis_m": 9999,
      "fzfg": false,
      "metar_trigger": false,
      "taf_trigger": false,
      "metar": "METAR LFOB 121000Z AUTO 23006KT 190V270 9999 SCT043 BKN052 12/05 Q1017 NOSIG",
      "taf": "TAF LFOB 120500Z 1206/1306 29003KT CAVOK"
    },
    {
      "icao": "LFPO",
      "alert": "OK",
      "vis_m": 9999,
      "fzfg": false,
      "metar_trigger": false,
      "taf_trigger": false,
      "metar": "METAR LFPO 121000Z VRB03KT 9999 SCT046 13/03 Q1018 NOSIG",
      "taf": "TAF LFPO 120500Z 1206/1312 26004KT CAVOK"
    },
    {
      "icao": "LFSB",
      "alert": "OK",
      "vis_m": 9999,
      "fzfg": false,
      "metar_trigger": false,
      "taf_trigger": false,
      "metar": "METAR LFSB 121000Z AUTO 29009KT 250V330 9999 FEW039 SCT052 11/02 Q1016 NOSIG",
      "taf": ""
    },
    {
      "icao": "LGAV",
      "alert": "OK",
      "vis_m": 9999,
      "fzfg": false,
      "metar_trigger": false,
      "taf_trigger": false,
      "metar": "METAR LGAV 120950Z 11007KT 060V140 CAVOK 28/10 Q1010 NOSIG",
      "taf": "TAF LGAV 120500Z 1206/1306 04010KT 9999 FEW025"
    },
    {
      "icao": "LGTS",
      "alert": "OK",
      "vis_m": 9999,
      "fzfg": false,
      "metar_trigger": false,
      "taf_trigger": false,
      "metar": "METAR LGTS 120950Z 30005KT 9999 FEW020 25/12 Q1006 NOSIG",
      "taf": "TAF LGTS 120500Z 1206/1306 VRB03KT 9999 FEW030"
    },
    {
      "icao": "LHBP",
      "alert": "OK",
      "vis_m": 9999,
      "fzfg": false,
      "metar_trigger": false,
      "taf_trigger": false,
      "metar": "METAR LHBP 121000Z 32023KT 9999 SCT040 BKN100 16/06 Q1003 NOSIG",
      "taf": "TAF LHBP 120515Z 1206/1306 26008KT 9999 SCT040 SCT100"
    },
    {
      "icao": "LHDC",
      "alert": "OK",
      "vis_m": 9999,
      "fzfg": false,
      "metar_trigger": false,
      "taf_trigger": false,
      "metar": "METAR LHDC 120945Z AUTO 24008KT 210V280 9999 FEW013 BKN060 BKN088 16/12 Q1001 NOSIG",
      "taf": "TAF LHDC 120815Z 1209/1218 27012KT 9999 SCT030 BKN060"
    },
    {
      "icao": "LIBD",
      "alert": "OK",
      "vis_m": 9999,
      "fzfg": false,
      "metar_trigger": false,
      "taf_trigger": false,
      "metar": "METAR LIBD 121020Z 27013G23KT 240V300 CAVOK 27/06 Q1007",
      "taf": "TAF LIBD 120500Z 1206/1306 21011KT CAVOK"
    },
    {
      "icao": "LIBG",
      "alert": "OK",
      "vis_m": 9999,
      "fzfg": false,
      "metar_trigger": false,
      "taf_trigger": false,
      "metar": "METAR LIBG 120950Z 25011KT CAVOK 25/11 Q1008",
      "taf": "TAF LIBG 120800Z 1209/1218 24012KT CAVOK"
    },
    {
      "icao": "LIBP",
      "alert": "OK",
      "vis_m": 9999,
      "fzfg": false,
      "metar_trigger": false,
      "taf_trigger": false,
      "metar": "METAR LIBP 121020Z AUTO 26016G26KT 220V300 9999 NCD 27/06 Q1004",
      "taf": "TAF LIBP 120500Z 1206/1306 24015KT CAVOK"
    },
    {
      "icao": "LIBR",
      "alert": "OK",
      "vis_m": 9999,
      "fzfg": false,
      "metar_trigger": false,
      "taf_trigger": false,
      "metar": "METAR LIBR 121020Z 25011KT 220V280 CAVOK 27/10 Q1007",
      "taf": "TAF LIBR 120500Z 1206/1306 22015KT CAVOK"
    },
    {
      "icao": "LICA",
      "alert": "OK",
      "vis_m": 9999,
      "fzfg": false,
      "metar_trigger": false,
      "taf_trigger": false,
      "metar": "METAR LICA 121020Z AUTO 27015KT 9999 BKN025/// 22/16 Q1013",
      "taf": "TAF LICA 120500Z 1206/1306 VRB05KT 9999 FEW080"
    },
    {
      "icao": "LICC",
      "alert": "OK",
      "vis_m": 9999,
      "fzfg": false,
      "metar_trigger": false,
      "taf_trigger": false,
      "metar": "METAR LICC 121020Z 07013KT CAVOK 27/20 Q1011 WS R08",
      "taf": "TAF LICC 120500Z 1206/1306 25010KT CAVOK"
    },
    {
      "icao": "LICJ",
      "alert": "OK",
      "vis_m": 9999,
      "fzfg": false,
      "metar_trigger": false,
      "taf_trigger": false,
      "metar": "METAR LICJ 121020Z 26012KT CAVOK 20/15 Q1014",
      "taf": "TAF LICJ 120500Z 1206/1306 19012KT CAVOK"
    },
    {
      "icao": "LIMC",
      "alert": "OK",
      "vis_m": 9999,
      "fzfg": false,
      "metar_trigger": false,
      "taf_trigger": false,
      "metar": "METAR LIMC 120950Z 04018KT CAVOK 19/M03 Q1006 NOSIG",
      "taf": "TAF LIMC 120500Z 1206/1312 02008KT 9999 FEW040"
    },
    {
      "icao": "LIME",
      "alert": "OK",
      "vis_m": 9999,
      "fzfg": false,
      "metar_trigger": false,
      "taf_trigger": false,
      "metar": "METAR LIME 120950Z 32014KT 290V350 9999 FEW020 20/M05 Q1004 NOSIG",
      "taf": "TAF LIME 120500Z 1206/1306 VRB05KT 9999 SCT040"
    },
    {
      "icao": "LIMF",
      "alert": "OK",
      "vis_m": 9999,
      "fzfg": false,
      "metar_trigger": false,
      "taf_trigger": false,
      "metar": "METAR LIMF 120950Z 07007KT 030V110 CAVOK 20/08 Q1005",
      "taf": "TAF LIMF 120500Z 1206/1306 VRB05KT CAVOK"
    },
    {
      "icao": "LIMJ",
      "alert": "OK",
      "vis_m": 9999,
      "fzfg": false,
      "metar_trigger": false,
      "taf_trigger": false,
      "metar": "METAR LIMJ 120950Z 23007KT CAVOK 19/15 Q1004",
      "taf": "TAF LIMJ 120500Z 1206/1306 VRB06KT 9999 SCT020"
    },
    {
      "icao": "LIPE",
      "alert": "OK",
      "vis_m": 9999,
      "fzfg": false,
      "metar_trigger": false,
      "taf_trigger": false,
      "metar": "METAR LIPE 120950Z 29013G24KT 260V330 9999 VCTS FEW030CB SCT070 21/11 Q1003 RETS",
      "taf": ""
    },
    {
      "icao": "LIPH",
      "alert": "OK",
      "vis_m": 9999,
      "fzfg": false,
      "metar_trigger": false,
      "taf_trigger": false,
      "metar": "METAR LIPH 121020Z 12009KT 080V140 9999 FEW030 17/13 Q1003",
      "taf": ""
    },
    {
      "icao": "LIPQ",
      "alert": "OK",
      "vis_m": 9999,
      "fzfg": false,
      "metar_trigger": false,
      "taf_trigger": false,
      "metar": "METAR LIPQ 121020Z AUTO 06008KT 020V110 9999 BKN120/// 12/06 Q1004",
      "taf": "TAF LIPQ 120500Z 1206/1306 VRB05KT 9999 SCT030"
    },
    {
      "icao": "LIPR",
      "alert": "OK",
      "vis_m": 9999,
      "fzfg": false,
      "metar_trigger": false,
      "taf_trigger": false,
      "metar": "METAR LIPR 121020Z 25023G35KT 9999 FEW060 23/09 Q1002",
      "taf": "TAF LIPR 120500Z 1206/1306 23015KT 9999 FEW030"
    },
    {
      "icao": "LIPX",
      "alert": "OK",
      "vis_m": 9999,
      "fzfg": false,
      "metar_trigger": false,
      "taf_trigger": false,
      "metar": "METAR LIPX 121020Z 26013KT 9999 FEW060 20/08 Q1003",
      "taf": "TAF LIPX 120500Z 1206/1306 VRB05KT 9999 SCT040"
    },
    {
      "icao": "LIPY",
      "alert": "OK",
      "vis_m": 9999,
      "fzfg": false,
      "metar_trigger": false,
      "taf_trigger": false,
      "metar": "METAR LIPY 121020Z AUTO 24021KT 210V270 9999 FEW061/// BKN110/// 23/10 Q1004",
      "taf": "TAF LIPY 120500Z 1206/1306 24018G32KT 9999 FEW070"
    },
    {
      "icao": "LIPZ",
      "alert": "OK",
      "vis_m": 9999,
      "fzfg": false,
      "metar_trigger": false,
      "taf_trigger": false,
      "metar": "METAR LIPZ 120950Z 08010KT 9999 FEW030 16/12 Q1004 NOSIG",
      "taf": ""
    },
    {
      "icao": "LIRF",
      "alert": "OK",
      "vis_m": 9999,
      "fzfg": false,
      "metar_trigger": false,
      "taf_trigger": false,
      "metar": "METAR LIRF 120950Z 23016KT 9999 SCT020 21/16 Q1009 NOSIG",
      "taf": "TAF LIRF 120500Z 1206/1312 24013KT 9999 SCT030"
    },
    {
      "icao": "LIRN",
      "alert": "OK",
      "vis_m": 9999,
      "fzfg": false,
      "metar_trigger": false,
      "taf_trigger": false,
      "metar": "METAR LIRN 120950Z 25010KT 200V290 9999 SCT040 21/11 Q1011 NOSIG",
      "taf": "TAF LIRN 120500Z 1206/1306 19010KT 9999 FEW010 SCT030"
    },
    {
      "icao": "LIRP",
      "alert": "OK",
      "vis_m": 9999,
      "fzfg": false,
      "metar_trigger": false,
      "taf_trigger": false,
      "metar": "METAR LIRP 120945Z 26022KT 9999 SCT030 20/12 Q1006 WS R21 TEMPO 24017G30KT",
      "taf": "TAF LIRP 120500Z 1206/1306 24017KT 9999 SCT025"
    },
    {
      "icao": "LIRZ",
      "alert": "OK",
      "vis_m": 9999,
      "fzfg": false,
      "metar_trigger": false,
      "taf_trigger": false,
      "metar": "METAR LIRZ 121020Z AUTO 21016KT 9999 BKN046/// 20/12 Q1006",
      "taf": "TAF LIRZ 120500Z 1206/1306 21013KT 9999 SCT030 BKN040"
    },
    {
      "icao": "LJLJ",
      "alert": "OK",
      "vis_m": 8000,
      "fzfg": false,
      "metar_trigger": false,
      "taf_trigger": false,
      "metar": "METAR LJLJ 121000Z 30012KT 8000 -SHRA FEW002 SCT013 SCT023TCU BKN043 07/04 Q1007 NOSIG",
      "taf": ""
    },
    {
      "icao": "LKMT",
      "alert": "OK",
      "vis_m": 9999,
      "fzfg": false,
      "metar_trigger": false,
      "taf_trigger": false,
      "metar": "METAR LKMT 121000Z 32005KT 240V010 9999 SCT030 11/04 Q1006 NOSIG",
      "taf": "TAF LKMT 120500Z 1206/1306 36008KT 9999 -RA BKN030"
    },
    {
      "icao": "LKPR",
      "alert": "OK",
      "vis_m": 9999,
      "fzfg": false,
      "metar_trigger": false,
      "taf_trigger": false,
      "metar": "METAR LKPR 121000Z 25017KT 9999 BKN044 09/00 Q1007 NOSIG",
      "taf": "TAF LKPR 120800Z 1209/1315 28012KT 9999 BKN030"
    },
    {
      "icao": "LLBG",
      "alert": "OK",
      "vis_m": 9999,
      "fzfg": false,
      "metar_trigger": false,
      "taf_trigger": false,
      "metar": "METAR LLBG 121020Z 29007KT 250V330 CAVOK 33/09 Q1011 NOSIG",
      "taf": "TAF LLBG 120502Z 1206/1306 VRB04KT CAVOK TX34/1212Z TN16/1304Z"
    },
    {
      "icao": "LMML",
      "alert": "OK",
      "vis_m": 9999,
      "fzfg": false,
      "metar_trigger": false,
      "taf_trigger": false,
      "metar": "METAR LMML 121015Z 31008KT CAVOK 26/17 Q1014 NOSIG",
      "taf": "TAF LMML 120500Z 1206/1306 25010KT CAVOK"
    },
    {
      "icao": "LOWW",
      "alert": "OK",
      "vis_m": 9999,
      "fzfg": false,
      "metar_trigger": false,
      "taf_trigger": false,
      "metar": "METAR LOWW 120950Z 30019KT 9999 FEW020 BKN044 11/05 Q1008 NOSIG",
      "taf": "TAF LOWW 120815Z 1209/1315 31013KT 9999 FEW030 SCT050 TX16/1314Z TN06/1303Z"
    },
    {
      "icao": "LPFR",
      "alert": "OK",
      "vis_m": 9999,
      "fzfg": false,
      "metar_trigger": false,
      "taf_trigger": false,
      "metar": "METAR LPFR 121000Z 18006KT 150V250 9999 FEW020 FEW025TCU 19/13 Q1020",
      "taf": "TAF LPFR 120500Z 1206/1306 VRB02KT 9999 SCT025"
    },
    {
      "icao": "LPMA",
      "alert": "OK",
      "vis_m": 9999,
      "fzfg": false,
      "metar_trigger": false,
      "taf_trigger": false,
      "metar": "METAR LPMA 121000Z 11005KT 9999 SCT015 19/13 Q1022",
      "taf": "TAF LPMA 120500Z 1206/1306 32007KT 9999 SCT015"
    },
    {
      "icao": "LPPR",
      "alert": "OK",
      "vis_m": 9999,
      "fzfg": false,
      "metar_trigger": false,
      "taf_trigger": false,
      "metar": "METAR LPPR 121000Z 21008KT 170V250 9999 SCT015 FEW020CB 18/11 Q1018",
      "taf": "TAF LPPR 120500Z 1206/1306 15005KT 9999 SCT030"
    },
    {
      "icao": "LPPS",
      "alert": "OK",
      "vis_m": 9999,
      "fzfg": false,
      "metar_trigger": false,
      "taf_trigger": false,
      "metar": "METAR LPPS 121000Z 31009KT 9999 SCT015 18/12 Q1022",
      "taf": "TAF LPPS 120500Z 1206/1312 28008KT 9999 SCT015"
    },
    {
      "icao": "LPPT",
      "alert": "OK",
      "vis_m": 9999,
      "fzfg": false,
      "metar_trigger": false,
      "taf_trigger": false,
      "metar": "METAR LPPT 121000Z 20010KT 9999 FEW014 BKN018 FEW025CB 17/14 Q1019",
      "taf": "TAF LPPT 120500Z 1206/1312 22007KT 9999 SCT025"
    },
    {
      "icao": "LQBK",
      "alert": "OK",
      "vis_m": 9999,
      "fzfg": false,
      "metar_trigger": false,
      "taf_trigger": false,
      "metar": "METAR LQBK 121000Z 02006KT 350V050 9999 FEW020 FEW035TCU SCT040 18/10 Q1003 RERA NOSIG",
      "taf": "TAF LQBK 120500Z 1206/1306 24010KT 9999 SCT040 TX21/1210Z TN03/1304Z"
    },
    {
      "icao": "LQSA",
      "alert": "OK",
      "vis_m": 9999,
      "fzfg": false,
      "metar_trigger": false,
      "taf_trigger": false,
      "metar": "METAR LQSA 121000Z 31011KT 280V360 9999 BKN055 19/07 Q1005 NOSIG",
      "taf": "TAF LQSA 120500Z 1206/1306 15005KT 9999 BKN050 TX21/1213Z TN03/1304Z"
    },
    {
      "icao": "LQTZ",
      "alert": "OK",
      "vis_m": 9999,
      "fzfg": false,
      "metar_trigger": false,
      "taf_trigger": false,
      "metar": "METAR LQTZ 121000Z 20005KT 150V260 9999 -RA FEW040 SCT070 12/11 Q1005 RETS",
      "taf": "TAF LQTZ 120500Z 1206/1306 27007KT 9999 SCT050 TX22/1212Z TN01/1304Z"
    },
    {
      "icao": "LRBC",
      "alert": "OK",
      "vis_m": 9999,
      "fzfg": false,
      "metar_trigger": false,
      "taf_trigger": false,
      "metar": "METAR LRBC 121000Z 15011KT 9999 VCSH FEW035CB SCT040 23/15 Q1000",
      "taf": "TAF LRBC 120800Z 1209/1218 16012KT CAVOK"
    },
    {
      "icao": "LRBS",
      "alert": "OK",
      "vis_m": 9999,
      "fzfg": false,
      "metar_trigger": false,
      "taf_trigger": false,
      "metar": "METAR LRBS 121000Z 27015KT 240V300 9999 VCTS BKN037 SCT045CB 23/13 Q1003 TEMPO VRB20G30KT 3000 TSRA BKN010 SCT035CB",
      "taf": "TAF LRBS 120500Z 1206/1306 27012KT CAVOK"
    },
    {
      "icao": "LRBV",
      "alert": "OK",
      "vis_m": 9999,
      "fzfg": false,
      "metar_trigger": false,
      "taf_trigger": false,
      "metar": "METAR LRBV 121000Z 20004KT 160V240 9999 VCSH FEW010 FEW045CB BKN064 13/11 Q1004",
      "taf": "TAF LRBV 120800Z 1209/1218 30010KT 9999 BKN060"
    },
    {
      "icao": "LRCL",
      "alert": "OK",
      "vis_m": 9999,
      "fzfg": false,
      "metar_trigger": false,
      "taf_trigger": false,
      "metar": "METAR LRCL 121000Z 00000KT 9999 FEW037CB BKN040 BKN070 19/10 Q1002",
      "taf": "TAF LRCL 120800Z 1209/1218 VRB04KT 9999 SCT045CB"
    },
    {
      "icao": "LRCV",
      "alert": "OK",
      "vis_m": 9999,
      "fzfg": false,
      "metar_trigger": false,
      "taf_trigger": false,
      "metar": "METAR LRCV 121000Z 32009KT CAVOK 19/12 Q1005",
      "taf": "TAF LRCV 120800Z 1209/1218 32015KT 9999 SCT010 SCT045CB"
    },
    {
      "icao": "LRIA",
      "alert": "OK",
      "vis_m": 9999,
      "fzfg": false,
      "metar_trigger": false,
      "taf_trigger": false,
      "metar": "METAR LRIA 121000Z 10013KT 080V140 CAVOK 20/14 Q1001",
      "taf": "TAF LRIA 120800Z 1209/1218 11010KT CAVOK"
    },
    {
      "icao": "LROP",
      "alert": "OK",
      "vis_m": 9999,
      "fzfg": false,
      "metar_trigger": false,
      "taf_trigger": false,
      "metar": "METAR LROP 121000Z 26017KT 9999 SCT037 SCT040CB 24/15 Q1003 TEMPO VRB20G30KT 3000 TSRA BKN010 SCT035CB",
      "taf": "TAF LROP 120500Z 1206/1306 27012KT CAVOK"
    },
    {
      "icao": "LRSB",
      "alert": "OK",
      "vis_m": 9999,
      "fzfg": false,
      "metar_trigger": false,
      "taf_trigger": false,
      "metar": "METAR LRSB 121000Z VRB04KT 9999 FEW052 SCT085 18/11 Q1003",
      "taf": "TAF LRSB 120500Z 1206/1306 VRB04KT 9999 SCT035CB BKN060"
    },
    {
      "icao": "LRSM",
      "alert": "OK",
      "vis_m": 9999,
      "fzfg": false,
      "metar_trigger": false,
      "taf_trigger": false,
      "metar": "METAR LRSM 121000Z 22012KT 200V260 9999 FEW030CB 18/12 Q1001",
      "taf": "TAF LRSM 120800Z 1209/1218 22012KT 9999 SCT035"
    },
    {
      "icao": "LRSV",
      "alert": "OK",
      "vis_m": 9999,
      "fzfg": false,
      "metar_trigger": false,
      "taf_trigger": false,
      "metar": "METAR LRSV 121000Z 13008KT 9999 -TSRA SCT040CB 14/12 Q1000",
      "taf": ""
    },
    {
      "icao": "LRTM",
      "alert": "OK",
      "vis_m": 9999,
      "fzfg": false,
      "metar_trigger": false,
      "taf_trigger": false,
      "metar": "METAR LRTM 121000Z 20010KT 170V230 9999 SCT025 FEW030CB 19/15 Q1003",
      "taf": "TAF LRTM 120800Z 1209/1218 21010KT 9999 SCT015 SCT040CB"
    },
    {
      "icao": "LRTR",
      "alert": "OK",
      "vis_m": 9999,
      "fzfg": false,
      "metar_trigger": false,
      "taf_trigger": false,
      "metar": "METAR LRTR 121000Z 27015KT 9999 FEW011 BKN016 SCT035CB 16/15 Q1003",
      "taf": "TAF LRTR 120500Z 1206/1306 24012KT 9999 SCT040CB"
    },
    {
      "icao": "LTAC",
      "alert": "OK",
      "vis_m": 9999,
      "fzfg": false,
      "metar_trigger": false,
      "taf_trigger": false,
      "metar": "METAR LTAC 120950Z 25011KT 9999 FEW025CB BKN030 21/09 Q1011 TEMPO -TSRA",
      "taf": "TAF LTAC 120440Z 1206/1306 VRB02KT 9999 SCT040 SCT100"
    },
    {
      "icao": "LTFM",
      "alert": "OK",
      "vis_m": 9999,
      "fzfg": false,
      "metar_trigger": false,
      "taf_trigger": false,
      "metar": "METAR LTFM 120950Z 22020KT CAVOK 26/13 Q1005 NOSIG RMK RWY17L 23016KT RWY34L 21016KT RWY16R 23016KT RWY36 22018KT RWY18 23020KT",
      "taf": "TAF LTFM 120440Z 1206/1312 20010KT CAVOK"
    },
    {
      "icao": "LUKK",
      "alert": "OK",
      "vis_m": 9999,
      "fzfg": false,
      "metar_trigger": false,
      "taf_trigger": false,
      "metar": "METAR LUKK 121000Z 14010KT 9999 OVC004 15/14 Q1003 BECMG BKN030",
      "taf": "TAF LUKK 120512Z 1206/1306 17010KT 9999 BKN012"
    },
    {
      "icao": "LWOH",
      "alert": "OK",
      "vis_m": 9999,
      "fzfg": false,
      "metar_trigger": false,
      "taf_trigger": false,
      "metar": "METAR LWOH 121020Z 22010KT 160V270 9999 SCT040 21/10 Q1009",
      "taf": "TAF LWOH 120840Z 1209/1309 16010KT 9999 SCT040"
    },
    {
      "icao": "LWSK",
      "alert": "OK",
      "vis_m": 9999,
      "fzfg": false,
      "metar_trigger": false,
      "taf_trigger": false,
      "metar": "METAR LWSK 120950Z 06004KT 010V110 9999 SCT060 25/09 Q1006 NOSIG",
      "taf": "TAF LWSK 120840Z 1209/1309 16008KT 9999 SCT050"
    },
    {
      "icao": "LYBE",
      "alert": "OK",
      "vis_m": 9999,
      "fzfg": false,
      "metar_trigger": false,
      "taf_trigger": false,
      "metar": "METAR LYBE 121000Z 32012KT 9999 SCT033 18/11 Q1005 NOSIG",
      "taf": "TAF LYBE 120500Z 1206/1306 23012KT 9999 SCT045 TX22/1213Z TN06/1304Z"
    },
    {
      "icao": "LYNI",
      "alert": "OK",
      "vis_m": 9999,
      "fzfg": false,
      "metar_trigger": false,
      "taf_trigger": false,
      "metar": "METAR LYNI 121000Z 05008KT 020V080 9999 SCT040TCU SCT050 21/07 Q1004 RETS TEMPO 32015G30KT 4000 TSRA SCT037CB SCT050",
      "taf": "TAF LYNI 120500Z 1206/1306 18008KT 9999 SCT040 TX26/1214Z TN06/1304Z"
    },
    {
      "icao": "LYPG",
      "alert": "OK",
      "vis_m": 9999,
      "fzfg": false,
      "metar_trigger": false,
      "taf_trigger": false,
      "metar": "METAR LYPG 121000Z 15012KT 110V190 9999 SCT030 24/13 Q1008 NOSIG",
      "taf": "TAF LYPG 120500Z 1206/1306 16007KT 9999 FEW030 SCT040 TX23/1213Z TN14/1304Z"
    },
    {
      "icao": "LZIB",
      "alert": "OK",
      "vis_m": 9999,
      "fzfg": false,
      "metar_trigger": false,
      "taf_trigger": false,
      "metar": "METAR LZIB 121000Z 32017G28KT 9999 FEW031 BKN039 13/03 Q1007 NOSIG",
      "taf": "TAF LZIB 120515Z 1206/1306 30012KT 9999 FEW020 SCT040"
    },
    {
      "icao": "LZKZ",
      "alert": "OK",
      "vis_m": 9999,
      "fzfg": false,
      "metar_trigger": false,
      "taf_trigger": false,
      "metar": "METAR LZKZ 121000Z 36014KT 9999 -RA SCT043 12/09 Q1001 NOSIG",
      "taf": "TAF LZKZ 120515Z 1206/1306 19009KT 9999 FEW010 BKN045"
    },
    {
      "icao": "LZTT",
      "alert": "OK",
      "vis_m": 9999,
      "fzfg": false,
      "metar_trigger": false,
      "taf_trigger": false,
      "metar": "METAR LZTT 121000Z 23007KT 150V270 9999 -SHRA FEW009 SCT018 BKN053 10/08 Q1001 NOSIG",
      "taf": "TAF LZTT 120515Z 1206/1306 26010KT 9999 SCT010 BKN035"
    },
    {
      "icao": "OEJN",
      "alert": "OK",
      "vis_m": 9999,
      "fzfg": false,
      "metar_trigger": false,
      "taf_trigger": false,
      "metar": "METAR OEJN 121000Z 27010KT CAVOK 33/18 Q1008 NOSIG",
      "taf": "TAF OEJN 120500Z 1206/1312 29010KT CAVOK"
    },
    {
      "icao": "OEMA",
      "alert": "OK",
      "vis_m": 9999,
      "fzfg": false,
      "metar_trigger": false,
      "taf_trigger": false,
      "metar": "METAR OEMA 121000Z 29005KT 9999 FEW040 41/M03 Q1013 NOSIG",
      "taf": "TAF OEMA 120500Z 1206/1312 29010KT CAVOK"
    },
    {
      "icao": "OJAI",
      "alert": "OK",
      "vis_m": 5000,
      "fzfg": false,
      "metar_trigger": false,
      "taf_trigger": false,
      "metar": "METAR OJAI 121000Z 27008KT 5000 HZ NSC 30/05 Q1016 NOSIG",
      "taf": "TAF OJAI 120450Z 1206/1312 29012KT 5000 HZ NSC"
    },
    {
      "icao": "OMAA",
      "alert": "OK",
      "vis_m": 9999,
      "fzfg": false,
      "metar_trigger": false,
      "taf_trigger": false,
      "metar": "METAR OMAA 121000Z 30011KT CAVOK 36/16 Q1004 NOSIG",
      "taf": "TAF OMAA 120500Z 1206/1312 20006KT 8000 NSC"
    },
    {
      "icao": "OMDB",
      "alert": "OK",
      "vis_m": 9999,
      "fzfg": false,
      "metar_trigger": false,
      "taf_trigger": false,
      "metar": "METAR OMDB 121000Z 33012KT 310V010 CAVOK 33/25 Q1004 NOSIG",
      "taf": "TAF OMDB 120500Z 1206/1312 22005KT 8000 NSC"
    },
    {
      "icao": "UAAA",
      "alert": "OK",
      "vis_m": 9999,
      "fzfg": false,
      "metar_trigger": false,
      "taf_trigger": false,
      "metar": "METAR UAAA 121000Z 21002MPS 9999 SCT040CB BKN100 17/07 Q1024 NOSIG",
      "taf": "TAF UAAA 120500Z 1206/1306 24003G08MPS 9999 SCT050CB BKN100 TX16/1206Z TN07/1302Z"
    },
    {
      "icao": "UBBB",
      "alert": "OK",
      "vis_m": 9999,
      "fzfg": false,
      "metar_trigger": false,
      "taf_trigger": false,
      "metar": "METAR UBBB 121000Z 19014KT CAVOK 26/09 Q1010 NOSIG",
      "taf": "TAF UBBB 120512Z 1206/1306 16010KT 9999 FEW030 TX26/1210Z TN15/1301Z"
    },
    {
      "icao": "UDSG",
      "alert": "OK",
      "vis_m": 9999,
      "fzfg": false,
      "metar_trigger": false,
      "taf_trigger": false,
      "metar": "METAR UDSG 121000Z 27001KT 9999 VCTS SCT040CB 16/09 Q1017 TEMPO -TSRA",
      "taf": "TAF UDSG 120500Z 1206/1306 22006KT 9999 BKN040"
    },
    {
      "icao": "UDYZ",
      "alert": "OK",
      "vis_m": 9999,
      "fzfg": false,
      "metar_trigger": false,
      "taf_trigger": false,
      "metar": "METAR UDYZ 121000Z 17007KT 9999 BKN043CB 21/11 Q1014 NOSIG",
      "taf": "TAF UDYZ 120500Z 1206/1306 18006KT 9999 BKN030"
    },
    {
      "icao": "UGKO",
      "alert": "OK",
      "vis_m": 9999,
      "fzfg": false,
      "metar_trigger": false,
      "taf_trigger": false,
      "metar": "METAR UGKO 121000Z AUTO 24005KT 150V280 CAVOK 27/12 Q1008 NOSIG",
      "taf": "TAF UGKO 120500Z 1206/1306 08007KT CAVOK TX26/1211Z TN16/1302Z"
    }
  ]
}