{
  "ts_utc": "2026-01-29T02:06:36Z",
  "threshold_m": 150,
  "source": "stations_override.txt (ICAO list) + aviationweather.gov (METAR/TAF raw)",
  "station_count": 159,
  "stations": [
    {
      "icao": "BIKF",
      "alert": "OK",
      "vis_m": 9999,
      "fzfg": false,
      "metar_trigger": false,
      "taf_trigger": false,
      "metar": "METAR BIKF 290200Z 06016KT CAVOK 04/M04 Q0999",
      "taf": "TAF BIKF 290101Z 2903/3003 05014KT 9999 FEW025 TX05/2915Z TN02/2906Z"
    },
    {
      "icao": "BKPR",
      "alert": "OK",
      "vis_m": 9999,
      "fzfg": false,
      "metar_trigger": false,
      "taf_trigger": false,
      "metar": "METAR BKPR 290200Z 15009KT 9999 SCT050 05/03 Q0998 NOSIG",
      "taf": "TAF BKPR 282345Z 2900/2924 20008KT BKN040"
    },
    {
      "icao": "EBCI",
      "alert": "OK",
      "vis_m": 900,
      "fzfg": false,
      "metar_trigger": false,
      "taf_trigger": false,
      "metar": "METAR EBCI 290150Z 35004KT 0900 R24/1800U -DZ FG OVC001 02/02 Q0997 NOSIG",
      "taf": "TAF EBCI 282301Z 2900/3006 01004KT 3000 BR BKN003"
    },
    {
      "icao": "EDDB",
      "alert": "OK",
      "vis_m": 8000,
      "fzfg": false,
      "metar_trigger": false,
      "taf_trigger": false,
      "metar": "METAR EDDB 290150Z AUTO 06009KT 8000 OVC013 M01/M02 Q1002 NOSIG",
      "taf": "TAF EDDB 282300Z 2900/2924 07010KT 9999 OVC012"
    },
    {
      "icao": "EDDH",
      "alert": "OK",
      "vis_m": 9999,
      "fzfg": false,
      "metar_trigger": false,
      "taf_trigger": false,
      "metar": "METAR EDDH 290150Z AUTO 09008KT 9999 OVC017 01/M02 Q1003 TEMPO BKN014",
      "taf": "TAF EDDH 282300Z 2900/3006 08010KT 9999 OVC015"
    },
    {
      "icao": "EDDK",
      "alert": "OK",
      "vis_m": 4100,
      "fzfg": false,
      "metar_trigger": false,
      "taf_trigger": false,
      "metar": "METAR EDDK 290150Z AUTO 16004KT 120V200 4100 -SN BR OVC003 00/M00 Q0997 NOSIG",
      "taf": "TAF EDDK 282300Z 2900/3006 11003KT 6000 OVC007"
    },
    {
      "icao": "EDDN",
      "alert": "OK",
      "vis_m": 9999,
      "fzfg": false,
      "metar_trigger": false,
      "taf_trigger": false,
      "metar": "METAR EDDN 290150Z AUTO 36003KT 9999 OVC016 01/M01 Q0994",
      "taf": "TAF EDDN 282300Z 2900/2924 VRB03KT 9999 OVC012"
    },
    {
      "icao": "EDDS",
      "alert": "OK",
      "vis_m": 5000,
      "fzfg": false,
      "metar_trigger": false,
      "taf_trigger": false,
      "metar": "METAR EDDS 290150Z AUTO 28005KT 5000 BR OVC004 01/01 Q0994",
      "taf": "TAF EDDS 282300Z 2900/2924 VRB03KT 6000 BKN005"
    },
    {
      "icao": "EDFH",
      "alert": "OK",
      "vis_m": 400,
      "fzfg": false,
      "metar_trigger": false,
      "taf_trigger": false,
      "metar": "METAR EDFH 290150Z VRB02KT 0400 R21/0450N -SN FG VV/// 00/M00 Q0995",
      "taf": "TAF EDFH 282300Z 2900/2924 VRB03KT 3000 -SN OVC005"
    },
    {
      "icao": "EDJA",
      "alert": "OK",
      "vis_m": 800,
      "fzfg": false,
      "metar_trigger": false,
      "taf_trigger": false,
      "metar": "METAR EDJA 290150Z AUTO 23003KT 0800 0700 R06/0900U // SCT002/// OVC004/// 00/M00 Q0993",
      "taf": "TAF EDJA 281700Z 2818/2903 24005KT 6000 SCT005 BKN010"
    },
    {
      "icao": "EDLW",
      "alert": "OK",
      "vis_m": 4400,
      "fzfg": false,
      "metar_trigger": false,
      "taf_trigger": false,
      "metar": "METAR EDLW 290150Z AUTO 03007KT 4400 // OVC004/// M00/M01 Q0997",
      "taf": "TAF EDLW 281700Z 2818/2918 07007KT 5000 BR SCT003 BKN005"
    },
    {
      "icao": "EDNY",
      "alert": "OK",
      "vis_m": 9999,
      "fzfg": false,
      "metar_trigger": false,
      "taf_trigger": false,
      "metar": "METAR EDNY 290150Z AUTO 26009KT 9999 // OVC011/// 03/01 Q0994",
      "taf": "TAF EDNY 281700Z 2818/2903 VRB02KT 6000 BKN020"
    },
    {
      "icao": "EDSB",
      "alert": "OK",
      "vis_m": 6000,
      "fzfg": false,
      "metar_trigger": false,
      "taf_trigger": false,
      "metar": "METAR EDSB 290150Z AUTO 32003KT 280V350 6000 OVC004/// 03/02 Q0996",
      "taf": "TAF EDSB 282300Z 2900/2924 VRB03KT 6000 BKN008"
    },
    {
      "icao": "EETN",
      "alert": "OK",
      "vis_m": 9999,
      "fzfg": false,
      "metar_trigger": false,
      "taf_trigger": false,
      "metar": "METAR EETN 290150Z 09014KT 9999 BKN015 M09/M12 Q1017",
      "taf": "TAF EETN 282330Z 2900/2924 09014KT 9999 BKN015"
    },
    {
      "icao": "EFTU",
      "alert": "OK",
      "vis_m": 9999,
      "fzfg": false,
      "metar_trigger": false,
      "taf_trigger": false,
      "metar": "METAR EFTU 290150Z AUTO 09008KT 9999 -SHSN OVC012 M11/M14 Q1018",
      "taf": "TAF EFTU 282328Z 2900/2924 09008KT 9999 BKN010"
    },
    {
      "icao": "EGBB",
      "alert": "OK",
      "vis_m": 2000,
      "fzfg": false,
      "metar_trigger": false,
      "taf_trigger": false,
      "metar": "METAR EGBB 290150Z 13004KT 2000 BR BKN006 M02/M02 Q0997",
      "taf": "TAF EGBB 282256Z 2900/2924 VRB04KT 9999 FEW025"
    },
    {
      "icao": "EGGP",
      "alert": "OK",
      "vis_m": 9999,
      "fzfg": false,
      "metar_trigger": false,
      "taf_trigger": false,
      "metar": "METAR EGGP 290150Z AUTO 11008KT 9999 OVC039/// 04/02 Q0996",
      "taf": "TAF EGGP 282258Z 2900/2924 10006KT 9999 FEW020"
    },
    {
      "icao": "EGGW",
      "alert": "OK",
      "vis_m": 100,
      "fzfg": false,
      "metar_trigger": false,
      "taf_trigger": false,
      "metar": "METAR EGGW 290150Z AUTO 12003KT 0100 FG OVC001 01/01 Q0997",
      "taf": "TAF EGGW 282257Z 2900/2924 12005KT 9999 SCT030"
    },
    {
      "icao": "EGKK",
      "alert": "OK",
      "vis_m": 300,
      "fzfg": true,
      "metar_trigger": false,
      "taf_trigger": false,
      "metar": "METAR EGKK 290150Z 07003KT 0300 R26L/0700D FZFG BKN001 M00/M00 Q0998",
      "taf": "TAF EGKK 282254Z 2900/3006 09003KT 0300 FZFG VV///"
    },
    {
      "icao": "EGNM",
      "alert": "OK",
      "vis_m": null,
      "fzfg": false,
      "metar_trigger": false,
      "taf_trigger": false,
      "metar": "",
      "taf": "TAF EGNM 281658Z 2818/2918 VRB02KT 0100 FG VV///"
    },
    {
      "icao": "EGPD",
      "alert": "OK",
      "vis_m": 5000,
      "fzfg": false,
      "metar_trigger": false,
      "taf_trigger": false,
      "metar": "METAR EGPD 290150Z AUTO 13010KT 5000 -DZ BKN013 BKN020 OVC028 05/04 Q1000 RERA REDZ TEMPO 4000 DZ BKN008",
      "taf": "TAF EGPD 282254Z 2900/2924 13012KT 9999 SCT012 BKN025"
    },
    {
      "icao": "EGPF",
      "alert": "OK",
      "vis_m": 1800,
      "fzfg": false,
      "metar_trigger": false,
      "taf_trigger": false,
      "metar": "METAR EGPF 290150Z AUTO 08003KT 1800 BR NCD 02/02 Q0997",
      "taf": "TAF EGPF 282257Z 2900/2924 09007KT 3000 BR BKN003"
    },
    {
      "icao": "EHBK",
      "alert": "OK",
      "vis_m": 2200,
      "fzfg": false,
      "metar_trigger": false,
      "taf_trigger": false,
      "metar": "METAR EHBK 290155Z AUTO 35004KT 320V030 2200 -FZRA -SN FEW002/// BKN003/// BKN004/// 00/M00 Q0997",
      "taf": "TAF EHBK 282309Z 2900/3006 36005KT 3000 BR BKN004"
    },
    {
      "icao": "EHEH",
      "alert": "OK",
      "vis_m": null,
      "fzfg": false,
      "metar_trigger": false,
      "taf_trigger": false,
      "metar": "",
      "taf": "TAF EHEH 282326Z 2900/3006 03006KT 7000 BKN008 OVC012"
    },
    {
      "icao": "EKBI",
      "alert": "OK",
      "vis_m": 9999,
      "fzfg": false,
      "metar_trigger": false,
      "taf_trigger": false,
      "metar": "METAR EKBI 290150Z AUTO 07014KT 9999 OVC018/// M02/M05 Q1007",
      "taf": "TAF EKBI 282327Z 2900/2924 08015KT 9999 BKN020"
    },
    {
      "icao": "EKCH",
      "alert": "OK",
      "vis_m": 9999,
      "fzfg": false,
      "metar_trigger": false,
      "taf_trigger": false,
      "metar": "METAR EKCH 290150Z AUTO 05014KT 9999 OVC028/// M01/M06 Q1008 NOSIG",
      "taf": "TAF EKCH 282327Z 2900/2924 05015KT 9999 BKN018"
    },
    {
      "icao": "ENAL",
      "alert": "OK",
      "vis_m": 9999,
      "fzfg": false,
      "metar_trigger": false,
      "taf_trigger": false,
      "metar": "METAR ENAL 290150Z AUTO 15009KT 9999 OVC033/// M02/M07 Q1011",
      "taf": "TAF ENAL 282300Z 2900/2909 14008KT 9999 SCT025"
    },
    {
      "icao": "ENBR",
      "alert": "OK",
      "vis_m": 9999,
      "fzfg": false,
      "metar_trigger": false,
      "taf_trigger": false,
      "metar": "METAR ENBR 290150Z 11004KT 9999 BKN034 M03/M06 Q1011 RMK WIND 1200FT 18008KT",
      "taf": "TAF ENBR 282300Z 2900/2924 10003KT 9999 FEW025"
    },
    {
      "icao": "ENGM",
      "alert": "OK",
      "vis_m": 9999,
      "fzfg": false,
      "metar_trigger": false,
      "taf_trigger": false,
      "metar": "METAR ENGM 290150Z 02007KT 9999 OVC032 M10/M12 Q1016",
      "taf": "TAF ENGM 282300Z 2900/2924 02007KT 9999 -SN BKN025"
    },
    {
      "icao": "ENHD",
      "alert": "OK",
      "vis_m": 9999,
      "fzfg": false,
      "metar_trigger": false,
      "taf_trigger": false,
      "metar": "METAR ENHD 290150Z AUTO 10009KT 9999 NCD M05/M14 Q1012",
      "taf": ""
    },
    {
      "icao": "ENTC",
      "alert": "OK",
      "vis_m": 9999,
      "fzfg": false,
      "metar_trigger": false,
      "taf_trigger": false,
      "metar": "METAR ENTC 290150Z 23005KT 9999 BKN007 M07/M08 Q1019 RMK WIND 2600FT 07008KT",
      "taf": "TAF ENTC 282300Z 2900/2924 22005KT 9999 FEW008 SCT025"
    },
    {
      "icao": "ENTO",
      "alert": "OK",
      "vis_m": 9999,
      "fzfg": false,
      "metar_trigger": false,
      "taf_trigger": false,
      "metar": "METAR ENTO 290150Z AUTO 01010KT 9999 -SN OVC016/// M08/M11 Q1016",
      "taf": "TAF ENTO 282300Z 2900/2924 02008KT 9999 -SN BKN025"
    },
    {
      "icao": "ENVA",
      "alert": "OK",
      "vis_m": 9999,
      "fzfg": false,
      "metar_trigger": false,
      "taf_trigger": false,
      "metar": "METAR ENVA 290150Z AUTO 08004KT 9999 NCD M15/M19 Q1015 RMK WIND 670FT 11003KT",
      "taf": "TAF ENVA 282300Z 2900/2924 10008KT CAVOK"
    },
    {
      "icao": "ENZV",
      "alert": "OK",
      "vis_m": 9999,
      "fzfg": false,
      "metar_trigger": false,
      "taf_trigger": false,
      "metar": "METAR ENZV 290150Z AUTO 00000KT 9999 NCD M07/M13 Q1012",
      "taf": "TAF ENZV 282300Z 2900/2924 13005KT CAVOK"
    },
    {
      "icao": "EPGD",
      "alert": "OK",
      "vis_m": 9999,
      "fzfg": false,
      "metar_trigger": false,
      "taf_trigger": false,
      "metar": "METAR EPGD 290200Z 05008KT 020V080 9999 OVC007 M06/M08 Q1006",
      "taf": "TAF EPGD 282330Z 2900/2924 07008KT 9999 OVC007"
    },
    {
      "icao": "EPKK",
      "alert": "OK",
      "vis_m": 1700,
      "fzfg": false,
      "metar_trigger": false,
      "taf_trigger": false,
      "metar": "METAR EPKK 290200Z 07010KT 1700 BR OVC003 M00/M01 Q0999",
      "taf": "TAF EPKK 282330Z 2900/2924 06008KT 4000 BR BKN005"
    },
    {
      "icao": "EPKT",
      "alert": "OK",
      "vis_m": 6000,
      "fzfg": false,
      "metar_trigger": false,
      "taf_trigger": false,
      "metar": "METAR EPKT 290200Z 05012KT 6000 OVC005 M01/M02 Q0999",
      "taf": "TAF EPKT 282330Z 2900/2924 05010KT 4000 BR BKN004"
    },
    {
      "icao": "EPLB",
      "alert": "OK",
      "vis_m": 9999,
      "fzfg": false,
      "metar_trigger": false,
      "taf_trigger": false,
      "metar": "METAR EPLB 290200Z 06004KT 9999 OVC011 M00/M01 Q1001",
      "taf": "TAF EPLB 282330Z 2900/2924 03005KT 9999 OVC010"
    },
    {
      "icao": "EPMO",
      "alert": "OK",
      "vis_m": 4500,
      "fzfg": false,
      "metar_trigger": false,
      "taf_trigger": false,
      "metar": "METAR EPMO 290200Z 02008KT 4500 BR BKN007 M03/M04 Q1003",
      "taf": "TAF EPMO 282330Z 2900/2924 02006KT 3000 BR OVC006"
    },
    {
      "icao": "EPPO",
      "alert": "OK",
      "vis_m": 6000,
      "fzfg": false,
      "metar_trigger": false,
      "taf_trigger": false,
      "metar": "METAR EPPO 290200Z 07006KT 6000 OVC007 M02/M04 Q1003",
      "taf": "TAF EPPO 282330Z 2900/2924 07006KT 6000 OVC006"
    },
    {
      "icao": "EPRA",
      "alert": "OK",
      "vis_m": 800,
      "fzfg": true,
      "metar_trigger": false,
      "taf_trigger": false,
      "metar": "METAR EPRA 290200Z 07006KT 0800 R25/1200U FZFG OVC002 M00/M01 Q1001",
      "taf": "TAF EPRA 282330Z 2900/2909 05006KT 0600 FZFG OVC002"
    },
    {
      "icao": "EPRZ",
      "alert": "OK",
      "vis_m": 5000,
      "fzfg": false,
      "metar_trigger": false,
      "taf_trigger": false,
      "metar": "METAR EPRZ 290200Z 04006KT 5000 BR OVC003 M00/M01 Q1000",
      "taf": "TAF EPRZ 282330Z 2900/2924 02006KT 4000 BR OVC005"
    },
    {
      "icao": "EPSC",
      "alert": "OK",
      "vis_m": 7000,
      "fzfg": false,
      "metar_trigger": false,
      "taf_trigger": false,
      "metar": "METAR EPSC 290200Z 06007KT 7000 OVC005 M02/M02 Q1004",
      "taf": "TAF EPSC 282330Z 2900/2924 05008KT 9999 BKN007"
    },
    {
      "icao": "EPSY",
      "alert": "OK",
      "vis_m": 8000,
      "fzfg": false,
      "metar_trigger": false,
      "taf_trigger": false,
      "metar": "METAR EPSY 290200Z 02009KT 8000 OVC006 M08/M09 Q1004",
      "taf": "TAF EPSY 282330Z 2900/2909 02010KT 6000 OVC006"
    },
    {
      "icao": "EPWA",
      "alert": "OK",
      "vis_m": 7000,
      "fzfg": false,
      "metar_trigger": false,
      "taf_trigger": false,
      "metar": "METAR EPWA 290200Z 02006KT 340V060 7000 BKN005 BKN026 M01/M02 Q1002 NOSIG",
      "taf": "TAF EPWA 282330Z 2900/2924 02008KT 3500 BR BKN003"
    },
    {
      "icao": "EPWR",
      "alert": "OK",
      "vis_m": 9999,
      "fzfg": false,
      "metar_trigger": false,
      "taf_trigger": false,
      "metar": "METAR EPWR 290200Z 06008KT 040V100 9999 OVC012 M01/M03 Q1000",
      "taf": "TAF EPWR 282330Z 2900/2924 07010KT 9999 OVC013"
    },
    {
      "icao": "ESGG",
      "alert": "OK",
      "vis_m": 9999,
      "fzfg": false,
      "metar_trigger": false,
      "taf_trigger": false,
      "metar": "METAR ESGG 290150Z 03006KT 9999 OVC028 M06/M08 Q1011",
      "taf": "TAF ESGG 282330Z 2900/2924 05008KT CAVOK"
    },
    {
      "icao": "ESKN",
      "alert": "OK",
      "vis_m": 9999,
      "fzfg": false,
      "metar_trigger": false,
      "taf_trigger": false,
      "metar": "METAR ESKN 290150Z 01007KT 340V040 9999 BKN035 M06/M09 Q1015",
      "taf": "TAF ESKN 282330Z 2900/2924 02008KT 9999 BKN035"
    },
    {
      "icao": "ESMS",
      "alert": "OK",
      "vis_m": 9999,
      "fzfg": false,
      "metar_trigger": false,
      "taf_trigger": false,
      "metar": "METAR ESMS 290150Z 08018KT 9999 OVC024 M01/M07 Q1007",
      "taf": "TAF ESMS 282327Z 2900/2924 05014KT 9999 OVC020"
    },
    {
      "icao": "ESSA",
      "alert": "OK",
      "vis_m": 9999,
      "fzfg": false,
      "metar_trigger": false,
      "taf_trigger": false,
      "metar": "METAR ESSA 290150Z 04007KT 9999 OVC014 M09/M10 Q1016 TEMPO BKN015",
      "taf": "TAF ESSA 282330Z 2900/2924 04004KT 9999 SCT012 BKN015"
    },
    {
      "icao": "EYKA",
      "alert": "OK",
      "vis_m": 9999,
      "fzfg": false,
      "metar_trigger": false,
      "taf_trigger": false,
      "metar": "METAR EYKA 290150Z 04007KT 360V060 9999 -SN OVC016 M09/M11 Q1006",
      "taf": "TAF EYKA 282300Z 2900/2924 03009KT 8000 OVC010"
    },
    {
      "icao": "EYPA",
      "alert": "OK",
      "vis_m": 9999,
      "fzfg": false,
      "metar_trigger": false,
      "taf_trigger": false,
      "metar": "METAR EYPA 290150Z 04008KT 9999 -SN SCT013 M12/M15 Q1010",
      "taf": ""
    },
    {
      "icao": "EYVI",
      "alert": "OK",
      "vis_m": 7000,
      "fzfg": false,
      "metar_trigger": false,
      "taf_trigger": false,
      "metar": "METAR EYVI 290150Z 03009KT 7000 OVC004 M09/M10 Q1004 NOSIG",
      "taf": "TAF EYVI 282300Z 2900/2924 04010KT 8000 OVC005"
    },
    {
      "icao": "GCFV",
      "alert": "OK",
      "vis_m": 9999,
      "fzfg": false,
      "metar_trigger": false,
      "taf_trigger": false,
      "metar": "METAR GCFV 290200Z AUTO 33006KT 9999 OVC030 19/14 Q1022",
      "taf": "TAF GCFV 282000Z 2821/2921 32003KT 9999 FEW020 BKN025 TX23/2914Z TN14/2906Z"
    },
    {
      "icao": "GCLP",
      "alert": "OK",
      "vis_m": 9999,
      "fzfg": false,
      "metar_trigger": false,
      "taf_trigger": false,
      "metar": "METAR GCLP 290200Z 35004KT 9999 BKN030 18/13 Q1023 NOSIG",
      "taf": "TAF GCLP 282000Z 2821/2921 35007KT 9999 FEW020 BKN030 TX22/2914Z TN15/2906Z"
    },
    {
      "icao": "GCTS",
      "alert": "OK",
      "vis_m": 9999,
      "fzfg": false,
      "metar_trigger": false,
      "taf_trigger": false,
      "metar": "METAR GCTS 290200Z 28005KT 9999 BKN025 19/17 Q1023 NOSIG",
      "taf": "TAF GCTS 282000Z 2821/2921 14005KT 9999 BKN030 TX23/2914Z TN16/2906Z"
    },
    {
      "icao": "GMAD",
      "alert": "OK",
      "vis_m": 6000,
      "fzfg": false,
      "metar_trigger": false,
      "taf_trigger": false,
      "metar": "METAR GMAD 290200Z 19007KT 6000 BKN006 15/15 Q1020 NOSIG",
      "taf": "TAF GMAD 282300Z 2900/3006 06008KT 8000 BKN016"
    },
    {
      "icao": "GMMN",
      "alert": "OK",
      "vis_m": 9999,
      "fzfg": false,
      "metar_trigger": false,
      "taf_trigger": false,
      "metar": "METAR GMMN 290200Z 22014KT 180V240 9999 BKN008 BKN016 15/13 Q1019 NOSIG",
      "taf": "TAF GMMN 282300Z 2900/3006 22016KT 9999 BKN008 BKN016"
    },
    {
      "icao": "GMMX",
      "alert": "OK",
      "vis_m": 9999,
      "fzfg": false,
      "metar_trigger": false,
      "taf_trigger": false,
      "metar": "METAR GMMX 290200Z 26003KT 9999 FEW080 BKN200 14/12 Q1021 NOSIG",
      "taf": "TAF GMMX 281700Z 2818/2924 28006KT 9999 SCT020 SCT090"
    },
    {
      "icao": "HEGN",
      "alert": "OK",
      "vis_m": 6000,
      "fzfg": false,
      "metar_trigger": false,
      "taf_trigger": false,
      "metar": "METAR HEGN 290100Z 30011KT 6000 NSC 14/04 Q1020 NOSIG",
      "taf": "TAF HEGN 282300Z 2900/3006 26008KT 6000 NSC"
    },
    {
      "icao": "HEMA",
      "alert": "OK",
      "vis_m": 6000,
      "fzfg": false,
      "metar_trigger": false,
      "taf_trigger": false,
      "metar": "METAR HEMA 290100Z 25006KT 6000 NSC 13/M01 Q1018 NOSIG",
      "taf": "TAF HEMA 282300Z 2900/3006 26008KT 6000 NSC"
    },
    {
      "icao": "HESH",
      "alert": "OK",
      "vis_m": 9999,
      "fzfg": false,
      "metar_trigger": false,
      "taf_trigger": false,
      "metar": "METAR HESH 290100Z 34005KT CAVOK 17/07 Q1020 NOSIG",
      "taf": "TAF HESH 282300Z 2900/3006 30008KT 6000 NSC"
    },
    {
      "icao": "HESX",
      "alert": "OK",
      "vis_m": 9999,
      "fzfg": false,
      "metar_trigger": false,
      "taf_trigger": false,
      "metar": "METAR HESX 290100Z 21006KT CAVOK 10/02 Q1019 NOSIG",
      "taf": "TAF HESX 282300Z 2900/3006 24009KT 9999 SCT020"
    },
    {
      "icao": "LATI",
      "alert": "OK",
      "vis_m": 9999,
      "fzfg": false,
      "metar_trigger": false,
      "taf_trigger": false,
      "metar": "METAR LATI 290150Z VRB02KT 9999 SCT088 09/06 Q0998 NOSIG",
      "taf": "TAF LATI 282300Z 2900/2924 VRB05KT 9999 SCT030 BKN050 TX12/2912Z TN08/2905Z"
    },
    {
      "icao": "LBPD",
      "alert": "OK",
      "vis_m": 9999,
      "fzfg": false,
      "metar_trigger": false,
      "taf_trigger": false,
      "metar": "METAR LBPD 290200Z AUTO 19004KT 9999 NCD 02/02 Q1000",
      "taf": "TAF LBPD 282300Z 2900/2924 VRB04KT 9999 BKN040"
    },
    {
      "icao": "LBSF",
      "alert": "OK",
      "vis_m": 9999,
      "fzfg": false,
      "metar_trigger": false,
      "taf_trigger": false,
      "metar": "METAR LBSF 290200Z AUTO 06007KT 360V110 9999 BKN057/// 02/00 Q0999 NOSIG",
      "taf": ""
    },
    {
      "icao": "LBWN",
      "alert": "OK",
      "vis_m": 9999,
      "fzfg": false,
      "metar_trigger": false,
      "taf_trigger": false,
      "metar": "METAR LBWN 290200Z AUTO VRB04KT 9999 -RA NSC 08/06 Q1000 NOSIG",
      "taf": "TAF LBWN 282300Z 2900/2924 09008KT 7000 SCT020 BKN050"
    },
    {
      "icao": "LCLK",
      "alert": "OK",
      "vis_m": 9999,
      "fzfg": false,
      "metar_trigger": false,
      "taf_trigger": false,
      "metar": "METAR LCLK 290200Z 32004KT 270V340 CAVOK 11/09 Q1015 NOSIG",
      "taf": "TAF LCLK 282330Z 2900/3000 28006KT 9999 FEW030"
    },
    {
      "icao": "LCPH",
      "alert": "OK",
      "vis_m": 9999,
      "fzfg": false,
      "metar_trigger": false,
      "taf_trigger": false,
      "metar": "METAR LCPH 290200Z AUTO 26010KT 250V320 9999 SCT030 16/11 Q1016 NOSIG",
      "taf": "TAF LCPH 282330Z 2900/3000 02008KT 9999 FEW030 SCT040"
    },
    {
      "icao": "LEAL",
      "alert": "OK",
      "vis_m": 9999,
      "fzfg": false,
      "metar_trigger": false,
      "taf_trigger": false,
      "metar": "METAR LEAL 290200Z 22007KT 190V280 CAVOK 15/05 Q1005 NOSIG",
      "taf": "TAF LEAL 282300Z 2900/2924 VRB04KT 9999 FEW040 TX22/2914Z TN11/2906Z"
    },
    {
      "icao": "LEBB",
      "alert": "OK",
      "vis_m": 9999,
      "fzfg": false,
      "metar_trigger": false,
      "taf_trigger": false,
      "metar": "METAR LEBB 290200Z AUTO 16007KT 120V200 CAVOK 11/04 Q0998",
      "taf": "TAF LEBB 282300Z 2900/2924 22009KT 9999 FEW030 TX16/2914Z TN08/2906Z"
    },
    {
      "icao": "LEBL",
      "alert": "OK",
      "vis_m": 9999,
      "fzfg": false,
      "metar_trigger": false,
      "taf_trigger": false,
      "metar": "METAR LEBL 290200Z 33008KT 9999 FEW020 08/04 Q1002 NOSIG",
      "taf": "TAF LEBL 282300Z 2900/2924 27008KT 9999 FEW020 TX14/2912Z TN07/2906Z"
    },
    {
      "icao": "LECH",
      "alert": "OK",
      "vis_m": 9000,
      "fzfg": false,
      "metar_trigger": false,
      "taf_trigger": false,
      "metar": "METAR LECH 290200Z AUTO 29011KT 250V320 9000 NSC 11/02 Q1003",
      "taf": ""
    },
    {
      "icao": "LEMD",
      "alert": "OK",
      "vis_m": 5000,
      "fzfg": false,
      "metar_trigger": false,
      "taf_trigger": false,
      "metar": "METAR LEMD 290200Z 13005KT 5000 -DZ BR SCT002 BKN008 BKN014 06/06 Q1003 REDZ NOSIG",
      "taf": "TAF LEMD 282300Z 2900/3006 25010KT 9999 SCT050 TX14/2915Z TN05/2904Z"
    },
    {
      "icao": "LEMG",
      "alert": "OK",
      "vis_m": 9999,
      "fzfg": false,
      "metar_trigger": false,
      "taf_trigger": false,
      "metar": "METAR LEMG 290200Z 32003KT 9999 FEW030 SCT060 BKN070 13/11 Q1009 NOSIG",
      "taf": "TAF LEMG 282300Z 2900/2924 29006KT 9999 FEW020 BKN025 TX19/2914Z TN13/2907Z"
    },
    {
      "icao": "LEVC",
      "alert": "OK",
      "vis_m": 9999,
      "fzfg": false,
      "metar_trigger": false,
      "taf_trigger": false,
      "metar": "METAR LEVC 290200Z 28017G30KT 240V310 CAVOK 14/04 Q1004 NOSIG",
      "taf": "TAF LEVC 282300Z 2900/2924 29009KT 9999 FEW030 TX21/2914Z TN09/2906Z"
    },
    {
      "icao": "LEXJ",
      "alert": "OK",
      "vis_m": 9999,
      "fzfg": false,
      "metar_trigger": false,
      "taf_trigger": false,
      "metar": "METAR LEXJ 290200Z AUTO 20012KT 150V250 9999 2900E OVC085 12/02 Q0996",
      "taf": ""
    },
    {
      "icao": "LEZG",
      "alert": "OK",
      "vis_m": 9999,
      "fzfg": false,
      "metar_trigger": false,
      "taf_trigger": false,
      "metar": "METAR LEZG 290200Z 21008KT 9999 SCT050 SCT075 08/05 Q1002 NOSIG",
      "taf": "TAF LEZG 282300Z 2900/2924 26010KT 9999 FEW040 TX14/2913Z TN06/2900Z"
    },
    {
      "icao": "LEZL",
      "alert": "OK",
      "vis_m": 9000,
      "fzfg": false,
      "metar_trigger": false,
      "taf_trigger": false,
      "metar": "METAR LEZL 290200Z AUTO 24017KT 210V270 9000 OVC011 17/17 Q1010",
      "taf": ""
    },
    {
      "icao": "LFBD",
      "alert": "OK",
      "vis_m": 9999,
      "fzfg": false,
      "metar_trigger": false,
      "taf_trigger": false,
      "metar": "METAR LFBD 290200Z AUTO 18005KT CAVOK 06/05 Q0998 TEMPO 4000 SHRA BKN015 FEW025CB BKN030TCU",
      "taf": "TAF LFBD 282300Z 2900/3006 18010KT CAVOK TX12/2915Z TN06/2900Z"
    },
    {
      "icao": "LFLL",
      "alert": "OK",
      "vis_m": 9999,
      "fzfg": false,
      "metar_trigger": false,
      "taf_trigger": false,
      "metar": "METAR LFLL 290200Z 21004KT 9999 -RA BKN027 BKN056 05/04 Q0999 NOSIG",
      "taf": "TAF LFLL 282300Z 2900/3006 VRB02KT 9999 BKN020"
    },
    {
      "icao": "LFLS",
      "alert": "OK",
      "vis_m": 5000,
      "fzfg": false,
      "metar_trigger": false,
      "taf_trigger": false,
      "metar": "METAR LFLS 290200Z AUTO 18002KT 5000 -DZ BR BKN007 OVC011 03/03 Q0998",
      "taf": ""
    },
    {
      "icao": "LFMN",
      "alert": "OK",
      "vis_m": 9999,
      "fzfg": false,
      "metar_trigger": false,
      "taf_trigger": false,
      "metar": "METAR LFMN 290200Z 32010KT 9999 FEW060 06/05 Q0992 NOSIG",
      "taf": ""
    },
    {
      "icao": "LFOB",
      "alert": "OK",
      "vis_m": 400,
      "fzfg": true,
      "metar_trigger": false,
      "taf_trigger": false,
      "metar": "METAR LFOB 290200Z AUTO 28002KT 0400 0300 R30/0350D R12/0650U FZFG VV/// M01/M01 Q0998 NOSIG",
      "taf": "TAF LFOB 282300Z 2900/2924 VRB03KT 3000 BR OVC003"
    },
    {
      "icao": "LFPO",
      "alert": "OK",
      "vis_m": 4000,
      "fzfg": false,
      "metar_trigger": false,
      "taf_trigger": false,
      "metar": "METAR LFPO 290200Z AUTO 25005KT 4000 BR FEW008 01/01 Q0998 TEMPO 0300 BECMG VV///",
      "taf": "TAF LFPO 282300Z 2900/3006 VRB03KT 3000 BR NSC"
    },
    {
      "icao": "LFSB",
      "alert": "OK",
      "vis_m": 9999,
      "fzfg": false,
      "metar_trigger": false,
      "taf_trigger": false,
      "metar": "METAR LFSB 290200Z AUTO 06003KT 9999 -RA BKN009 OVC013 02/02 Q0996 NOSIG",
      "taf": "TAF LFSB 282300Z 2900/2924 26005KT 9999 FEW010 OVC016"
    },
    {
      "icao": "LGAV",
      "alert": "OK",
      "vis_m": 9999,
      "fzfg": false,
      "metar_trigger": false,
      "taf_trigger": false,
      "metar": "METAR LGAV 290150Z 20020KT 9999 SCT018 SCT060 16/12 Q1004 NOSIG",
      "taf": "TAF LGAV 282300Z 2900/2924 22010KT 9999 FEW018 SCT070"
    },
    {
      "icao": "LGTS",
      "alert": "OK",
      "vis_m": 9999,
      "fzfg": false,
      "metar_trigger": false,
      "taf_trigger": false,
      "metar": "METAR LGTS 290150Z VRB02KT 9999 FEW010 09/09 Q1001 NOSIG",
      "taf": "TAF LGTS 282300Z 2900/2924 34008KT 9999 FEW010 BKN025"
    },
    {
      "icao": "LHBP",
      "alert": "OK",
      "vis_m": 9999,
      "fzfg": false,
      "metar_trigger": false,
      "taf_trigger": false,
      "metar": "METAR LHBP 290200Z 06007KT 9999 OVC049 04/02 Q0995 NOSIG",
      "taf": "TAF LHBP 282315Z 2900/2924 06010KT 8000 -RA FEW005 OVC045"
    },
    {
      "icao": "LHDC",
      "alert": "OK",
      "vis_m": 9999,
      "fzfg": false,
      "metar_trigger": false,
      "taf_trigger": false,
      "metar": "METAR LHDC 290145Z AUTO 06007KT CAVOK 04/03 Q0996",
      "taf": "TAF LHDC 281415Z 2815/2824 13006KT 9999 BKN045 OVC080"
    },
    {
      "icao": "LIBD",
      "alert": "OK",
      "vis_m": 9999,
      "fzfg": false,
      "metar_trigger": false,
      "taf_trigger": false,
      "metar": "METAR LIBD 290150Z 20008KT CAVOK 10/06 Q0995",
      "taf": "TAF LIBD 282300Z 2900/2924 19006KT CAVOK"
    },
    {
      "icao": "LIBG",
      "alert": "OK",
      "vis_m": null,
      "fzfg": false,
      "metar_trigger": false,
      "taf_trigger": false,
      "metar": "",
      "taf": "TAF LIBG 281700Z 2818/2903 21012KT 9999 FEW020"
    },
    {
      "icao": "LIBP",
      "alert": "OK",
      "vis_m": 9999,
      "fzfg": false,
      "metar_trigger": false,
      "taf_trigger": false,
      "metar": "METAR LIBP 290150Z AUTO 26005KT 230V290 9999 FEW093/// OVC150/// 11/02 Q0993",
      "taf": "TAF LIBP 282300Z 2900/2924 23008KT 9999 SCT070"
    },
    {
      "icao": "LIBR",
      "alert": "OK",
      "vis_m": 9999,
      "fzfg": false,
      "metar_trigger": false,
      "taf_trigger": false,
      "metar": "METAR LIBR 290150Z 22005KT CAVOK 11/08 Q0996",
      "taf": "TAF LIBR 282300Z 2900/2924 17008KT CAVOK"
    },
    {
      "icao": "LICA",
      "alert": "OK",
      "vis_m": 9999,
      "fzfg": false,
      "metar_trigger": false,
      "taf_trigger": false,
      "metar": "METAR LICA 290150Z AUTO 06007KT 9999 -RA OVC054/// 11/10 Q0995",
      "taf": "TAF LICA 282300Z 2900/2924 27016KT 9999 SCT040"
    },
    {
      "icao": "LICC",
      "alert": "OK",
      "vis_m": 9999,
      "fzfg": false,
      "metar_trigger": false,
      "taf_trigger": false,
      "metar": "METAR LICC 290150Z 21007KT 9999 FEW020 BKN070 11/08 Q0996",
      "taf": "TAF LICC 282300Z 2900/2924 25016KT 9999 SCT030"
    },
    {
      "icao": "LICJ",
      "alert": "OK",
      "vis_m": 9999,
      "fzfg": false,
      "metar_trigger": false,
      "taf_trigger": false,
      "metar": "METAR LICJ 290150Z 22023KT 9999 SCT030 SCT070 15/10 Q0992",
      "taf": "TAF LICJ 282300Z 2900/2924 22022G35KT 9999 SCT040"
    },
    {
      "icao": "LIMC",
      "alert": "OK",
      "vis_m": 2000,
      "fzfg": false,
      "metar_trigger": false,
      "taf_trigger": false,
      "metar": "METAR LIMC 290150Z 02002KT 2000 R35R/P2000N R17L/0750D R35L/P2000N BCFG BKN010 05/05 Q0992 NOSIG",
      "taf": "TAF LIMC 282300Z 2900/3006 VRB05KT 6000 BKN020"
    },
    {
      "icao": "LIME",
      "alert": "OK",
      "vis_m": 3000,
      "fzfg": false,
      "metar_trigger": false,
      "taf_trigger": false,
      "metar": "METAR LIME 290120Z 22004KT 3000 BR BKN004 05/05 Q0992 NOSIG",
      "taf": "TAF LIME 282300Z 2900/2924 VRB04KT 6000 SCT010 BKN025"
    },
    {
      "icao": "LIMF",
      "alert": "OK",
      "vis_m": 8000,
      "fzfg": false,
      "metar_trigger": false,
      "taf_trigger": false,
      "metar": "METAR LIMF 290150Z 21003KT 8000 OVC120 04/03 Q0992",
      "taf": "TAF LIMF 282300Z 2900/2924 VRB04KT 7000 BKN040"
    },
    {
      "icao": "LIMJ",
      "alert": "OK",
      "vis_m": 9999,
      "fzfg": false,
      "metar_trigger": false,
      "taf_trigger": false,
      "metar": "METAR LIMJ 290150Z VRB02KT 9999 FEW020 BKN028 08/05 Q0992",
      "taf": "TAF LIMJ 282300Z 2900/2924 04008KT 9999 SCT040"
    },
    {
      "icao": "LIPE",
      "alert": "OK",
      "vis_m": 9999,
      "fzfg": false,
      "metar_trigger": false,
      "taf_trigger": false,
      "metar": "METAR LIPE 290150Z 20002KT CAVOK 03/03 Q0993",
      "taf": "TAF LIPE 282300Z 2900/2924 VRB05KT 4000 BR BKN006"
    },
    {
      "icao": "LIPH",
      "alert": "OK",
      "vis_m": 400,
      "fzfg": false,
      "metar_trigger": false,
      "taf_trigger": false,
      "metar": "METAR LIPH 290150Z AUTO 23006KT 0400 0300W R07/0900N FG VV002 06/06 Q0992",
      "taf": "TAF LIPH 282300Z 2900/2924 VRB05KT 0800 FG BKN002"
    },
    {
      "icao": "LIPQ",
      "alert": "OK",
      "vis_m": 9000,
      "fzfg": false,
      "metar_trigger": false,
      "taf_trigger": false,
      "metar": "METAR LIPQ 290150Z AUTO 17003KT 9000 OVC008/// 09/08 Q0992",
      "taf": "TAF LIPQ 282300Z 2900/2924 VRB05KT 4000 BR OVC005"
    },
    {
      "icao": "LIPR",
      "alert": "OK",
      "vis_m": 50,
      "fzfg": false,
      "metar_trigger": false,
      "taf_trigger": false,
      "metar": "METAR LIPR 290150Z AUTO 32005KT 0050 R30/0375N FG VV002 05/05 Q0993",
      "taf": "TAF LIPR 282300Z 2900/2924 VRB05KT 2000 BR FEW005"
    },
    {
      "icao": "LIPX",
      "alert": "OK",
      "vis_m": 200,
      "fzfg": false,
      "metar_trigger": false,
      "taf_trigger": false,
      "metar": "METAR LIPX 290150Z 23005KT 0200 R04/1300N FG VV002 05/05 Q0992",
      "taf": "TAF LIPX 282300Z 2900/2924 24006KT 6000 SCT020"
    },
    {
      "icao": "LIPY",
      "alert": "OK",
      "vis_m": 9999,
      "fzfg": false,
      "metar_trigger": false,
      "taf_trigger": false,
      "metar": "METAR LIPY 290150Z AUTO 17003KT 140V230 9999 BKN180/// 07/04 Q0993",
      "taf": "TAF LIPY 282300Z 2900/2924 VRB05KT 9999 FEW030"
    },
    {
      "icao": "LIPZ",
      "alert": "OK",
      "vis_m": 200,
      "fzfg": false,
      "metar_trigger": false,
      "taf_trigger": false,
      "metar": "METAR LIPZ 290150Z 24006KT 0200 R04R/0800N FG VV002 05/05 Q0992 NOSIG",
      "taf": "TAF LIPZ 282300Z 2900/3006 24006KT 0400 FG OVC001"
    },
    {
      "icao": "LIRF",
      "alert": "OK",
      "vis_m": 9999,
      "fzfg": false,
      "metar_trigger": false,
      "taf_trigger": false,
      "metar": "METAR LIRF 290150Z 04005KT CAVOK 09/08 Q0993 NOSIG",
      "taf": "TAF LIRF 282300Z 2900/3006 07007KT 9999 SCT030"
    },
    {
      "icao": "LIRN",
      "alert": "OK",
      "vis_m": 8000,
      "fzfg": false,
      "metar_trigger": false,
      "taf_trigger": false,
      "metar": "METAR LIRN 290150Z 27003KT 240V310 8000 SCT050 10/08 Q0994 NOSIG",
      "taf": "TAF LIRN 282300Z 2900/2924 17010KT 9999 SCT030"
    },
    {
      "icao": "LIRP",
      "alert": "OK",
      "vis_m": 9999,
      "fzfg": false,
      "metar_trigger": false,
      "taf_trigger": false,
      "metar": "METAR LIRP 290145Z 11007KT 9999 SCT040 07/06 Q0992 NOSIG",
      "taf": "TAF LIRP 282300Z 2900/2924 12007KT 9999 SCT020 SCT050"
    },
    {
      "icao": "LIRZ",
      "alert": "OK",
      "vis_m": 9999,
      "fzfg": false,
      "metar_trigger": false,
      "taf_trigger": false,
      "metar": "METAR LIRZ 290150Z AUTO 35003KT 320V060 9999 FEW028/// BKN054/// 06/06 Q0993",
      "taf": "TAF LIRZ 282300Z 2900/2924 VRB05KT 7000 BKN025"
    },
    {
      "icao": "LJLJ",
      "alert": "OK",
      "vis_m": 7000,
      "fzfg": false,
      "metar_trigger": false,
      "taf_trigger": false,
      "metar": "METAR LJLJ 290200Z 29004KT 7000 -RA FEW005 BKN011 OVC025 04/04 Q0992 NOSIG",
      "taf": "TAF LJLJ 282300Z 2900/3000 29005KT 7000 -RA SCT010 BKN020"
    },
    {
      "icao": "LKMT",
      "alert": "OK",
      "vis_m": 3500,
      "fzfg": false,
      "metar_trigger": false,
      "taf_trigger": false,
      "metar": "METAR LKMT 290200Z 03009KT 3500 -SN BR OVC006 00/M00 Q0997 NOSIG",
      "taf": "TAF LKMT 282300Z 2900/2924 03009KT 4000 BR SCT004 OVC008"
    },
    {
      "icao": "LKPR",
      "alert": "OK",
      "vis_m": 7000,
      "fzfg": false,
      "metar_trigger": false,
      "taf_trigger": false,
      "metar": "METAR LKPR 290200Z 05006KT 7000 SCT010 OVC020 M00/M01 Q0995 NOSIG",
      "taf": "TAF LKPR 282300Z 2900/3006 06009KT 7000 OVC020"
    },
    {
      "icao": "LLBG",
      "alert": "OK",
      "vis_m": 9999,
      "fzfg": false,
      "metar_trigger": false,
      "taf_trigger": false,
      "metar": "METAR LLBG 290150Z 17007KT 9999 FEW035 13/11 Q1018 TEMPO 7000 RA FEW025TCU RMK SCT070",
      "taf": "TAF LLBG 282302Z 2900/2924 15005KT 9999 SCT035"
    },
    {
      "icao": "LMML",
      "alert": "OK",
      "vis_m": 9999,
      "fzfg": false,
      "metar_trigger": false,
      "taf_trigger": false,
      "metar": "METAR LMML 290145Z 24013KT CAVOK 15/09 Q0999 NOSIG",
      "taf": "TAF LMML 282300Z 2900/2924 20015KT 9999 FEW017"
    },
    {
      "icao": "LOWW",
      "alert": "OK",
      "vis_m": 8000,
      "fzfg": false,
      "metar_trigger": false,
      "taf_trigger": false,
      "metar": "METAR LOWW 290150Z 11008KT 8000 -RA FEW004 BKN006 03/02 Q0994 TEMPO 4000 -RA BR",
      "taf": "TAF LOWW 282315Z 2900/3006 VRB04KT 4000 -RA OVC005 TX02/2900Z TN00/3000Z"
    },
    {
      "icao": "LPFR",
      "alert": "OK",
      "vis_m": 6000,
      "fzfg": false,
      "metar_trigger": false,
      "taf_trigger": false,
      "metar": "METAR LPFR 290200Z 25017KT 6000 -DZRA BKN006 16/15 Q1011",
      "taf": "TAF LPFR 282300Z 2900/2924 25018KT 8000 SCT008 BKN015"
    },
    {
      "icao": "LPMA",
      "alert": "OK",
      "vis_m": 9999,
      "fzfg": false,
      "metar_trigger": false,
      "taf_trigger": false,
      "metar": "METAR LPMA 290200Z VRB02KT CAVOK 16/13 Q1020",
      "taf": "TAF LPMA 282300Z 2900/2924 VRB05KT 9999 SCT015"
    },
    {
      "icao": "LPPR",
      "alert": "OK",
      "vis_m": 5000,
      "fzfg": false,
      "metar_trigger": false,
      "taf_trigger": false,
      "metar": "METAR LPPR 290200Z 23013KT 5000 -RADZ BR SCT003 OVC005 15/14 Q1000",
      "taf": "TAF LPPR 282300Z 2900/2924 23020G32KT 3000 RADZ BR BKN003 FEW015CB"
    },
    {
      "icao": "LPPS",
      "alert": "OK",
      "vis_m": 9999,
      "fzfg": false,
      "metar_trigger": false,
      "taf_trigger": false,
      "metar": "METAR LPPS 290200Z 28013KT 9999 FEW014 SCT030 18/15 Q1020",
      "taf": "TAF LPPS 282300Z 2900/3006 27015KT 9999 SCT012 SCT030"
    },
    {
      "icao": "LPPT",
      "alert": "OK",
      "vis_m": 8000,
      "fzfg": false,
      "metar_trigger": false,
      "taf_trigger": false,
      "metar": "METAR LPPT 290200Z 24015KT 8000 -DZ SCT004 BKN006 16/16 Q1008",
      "taf": "TAF LPPT 282300Z 2900/3006 23015KT 6000 -RA SCT004 BKN008"
    },
    {
      "icao": "LQBK",
      "alert": "OK",
      "vis_m": 600,
      "fzfg": false,
      "metar_trigger": false,
      "taf_trigger": false,
      "metar": "METAR LQBK 290200Z 19003KT 0600 R16/0800N FG NSC 05/05 Q0992 NOSIG",
      "taf": "TAF LQBK 282300Z 2900/2924 16005KT 9999 SCT040 TX10/2913Z TN01/2906Z"
    },
    {
      "icao": "LQSA",
      "alert": "OK",
      "vis_m": 9999,
      "fzfg": false,
      "metar_trigger": false,
      "taf_trigger": false,
      "metar": "METAR LQSA 290200Z VRB01KT 9999 SCT060 03/03 Q0994",
      "taf": "TAF LQSA 282300Z 2900/2924 VRB02KT 9999 SCT050 TX10/2914Z TN03/2905Z"
    },
    {
      "icao": "LQTZ",
      "alert": "OK",
      "vis_m": 9999,
      "fzfg": false,
      "metar_trigger": false,
      "taf_trigger": false,
      "metar": "METAR LQTZ 290200Z VRB01KT 9999 BKN060 10/03 Q0993",
      "taf": "TAF LQTZ 282300Z 2900/2924 13005KT CAVOK TX13/2913Z TN03/2905Z"
    },
    {
      "icao": "LRBC",
      "alert": "OK",
      "vis_m": 500,
      "fzfg": false,
      "metar_trigger": false,
      "taf_trigger": false,
      "metar": "METAR LRBC 290200Z VRB01KT 0500 R16/0650N FG VV002 01/01 Q0998",
      "taf": "TAF LRBC 282300Z 2900/2909 VRB04KT 0500 FG VV001"
    },
    {
      "icao": "LRBS",
      "alert": "OK",
      "vis_m": 7000,
      "fzfg": false,
      "metar_trigger": false,
      "taf_trigger": false,
      "metar": "METAR LRBS 290200Z 23003KT 7000 NSC 02/02 Q0999 NOSIG",
      "taf": "TAF LRBS 282300Z 2900/2924 VRB04KT 1500 BR SCT002"
    },
    {
      "icao": "LRBV",
      "alert": "OK",
      "vis_m": 9999,
      "fzfg": false,
      "metar_trigger": false,
      "taf_trigger": false,
      "metar": "METAR LRBV 290200Z AUTO 15001KT 9999 BKN098/// OVC130/// 04/M00 Q0996",
      "taf": "TAF LRBV 282000Z 2821/2906 15006KT CAVOK"
    },
    {
      "icao": "LRCL",
      "alert": "OK",
      "vis_m": 4000,
      "fzfg": false,
      "metar_trigger": false,
      "taf_trigger": false,
      "metar": "METAR LRCL 290200Z 00000KT 4000 BR FEW063 01/00 Q0996",
      "taf": "TAF LRCL 282300Z 2900/2909 VRB04KT 3000 BR BKN050"
    },
    {
      "icao": "LRCV",
      "alert": "OK",
      "vis_m": 6000,
      "fzfg": false,
      "metar_trigger": false,
      "taf_trigger": false,
      "metar": "METAR LRCV 290200Z 05005KT 6000 -RA OVC049 04/04 Q0999",
      "taf": "TAF LRCV 282300Z 2900/2909 08007KT 3000 -RA BR OVC035"
    },
    {
      "icao": "LRIA",
      "alert": "OK",
      "vis_m": 150,
      "fzfg": false,
      "metar_trigger": false,
      "taf_trigger": false,
      "metar": "METAR LRIA 290200Z 10005KT 0150 R14/0400N FG VV001 03/02 Q0999",
      "taf": "TAF LRIA 282300Z 2900/2909 11007KT 0150 FG VV001"
    },
    {
      "icao": "LROP",
      "alert": "OK",
      "vis_m": 6000,
      "fzfg": false,
      "metar_trigger": false,
      "taf_trigger": false,
      "metar": "METAR LROP 290200Z 29004KT 230V360 6000 NSC 02/02 Q0999 NOSIG",
      "taf": "TAF LROP 282300Z 2900/2924 VRB04KT 1500 BR SCT001"
    },
    {
      "icao": "LRSB",
      "alert": "OK",
      "vis_m": 8000,
      "fzfg": false,
      "metar_trigger": false,
      "taf_trigger": false,
      "metar": "METAR LRSB 290200Z 27002KT 8000 SCT060 BKN075 01/01 Q0996",
      "taf": "TAF LRSB 282300Z 2900/2924 VRB04KT 5000 BR NSC"
    },
    {
      "icao": "LRSM",
      "alert": "OK",
      "vis_m": 9999,
      "fzfg": false,
      "metar_trigger": false,
      "taf_trigger": false,
      "metar": "METAR LRSM 290200Z AUTO 05007KT 9999 BKN060/// OVC085/// 04/02 Q0996",
      "taf": ""
    },
    {
      "icao": "LRSV",
      "alert": "OK",
      "vis_m": 300,
      "fzfg": true,
      "metar_trigger": false,
      "taf_trigger": false,
      "metar": "METAR LRSV 290200Z 02004KT 0300 R34/0550N FZFG VV001 M01/M01 Q0997",
      "taf": "TAF LRSV 282300Z 2900/2909 VRB04KT 0150 FZFG VV001"
    },
    {
      "icao": "LRTM",
      "alert": "OK",
      "vis_m": 1100,
      "fzfg": false,
      "metar_trigger": false,
      "taf_trigger": false,
      "metar": "METAR LRTM 290200Z AUTO 05003KT 010V080 1100 R07/1400U BR BKN001/// 00/00 Q0997",
      "taf": ""
    },
    {
      "icao": "LRTR",
      "alert": "OK",
      "vis_m": 9999,
      "fzfg": false,
      "metar_trigger": false,
      "taf_trigger": false,
      "metar": "METAR LRTR 290200Z 10010KT 9999 -RA SCT035 BKN043 06/06 Q0995",
      "taf": "TAF LRTR 282300Z 2900/2924 11008KT 9999 -RA BKN040"
    },
    {
      "icao": "LTAC",
      "alert": "OK",
      "vis_m": 4900,
      "fzfg": false,
      "metar_trigger": false,
      "taf_trigger": false,
      "metar": "METAR LTAC 290150Z VRB01KT 4900 BR SCT040 02/01 Q1011 BECMG 2000 RMK RWY21C VRB02KT RWY03L 00000KT RWY21R 00000KT RWY03R VRB01KT RWY21L 15002KT",
      "taf": ""
    },
    {
      "icao": "LTFM",
      "alert": "OK",
      "vis_m": 9999,
      "fzfg": false,
      "metar_trigger": false,
      "taf_trigger": false,
      "metar": "METAR LTFM 290150Z 19014KT CAVOK 12/05 Q1004 NOSIG RMK RWY17L 19017KT RWY34L 18016KT RWY16R 19015KT RWY36 19014KT RWY18 20016KT",
      "taf": "TAF LTFM 282240Z 2900/3006 20014KT CAVOK"
    },
    {
      "icao": "LUKK",
      "alert": "OK",
      "vis_m": 450,
      "fzfg": false,
      "metar_trigger": false,
      "taf_trigger": false,
      "metar": "METAR LUKK 290200Z 14002KT 0450 0350SW R08/0400N FG VV001 03/03 Q0999 TEMPO 0200 FG",
      "taf": "TAF LUKK 282318Z 2900/2924 VRB05KT 0500 FG VV002"
    },
    {
      "icao": "LWOH",
      "alert": "OK",
      "vis_m": null,
      "fzfg": false,
      "metar_trigger": false,
      "taf_trigger": false,
      "metar": "",
      "taf": "TAF LWOH 282308Z 2900/2924 14010KT 9999 FEW020 OVC040"
    },
    {
      "icao": "LWSK",
      "alert": "OK",
      "vis_m": 9999,
      "fzfg": false,
      "metar_trigger": false,
      "taf_trigger": false,
      "metar": "METAR LWSK 290150Z VRB02KT 9999 FEW050 BKN070 02/01 Q1000 NOSIG",
      "taf": "TAF LWSK 282308Z 2900/2924 VRB02KT 9999 FEW050"
    },
    {
      "icao": "LYBE",
      "alert": "OK",
      "vis_m": 9999,
      "fzfg": false,
      "metar_trigger": false,
      "taf_trigger": false,
      "metar": "METAR LYBE 290200Z 24004KT 180V290 9999 -RA NSC 08/05 Q0994 NOSIG",
      "taf": "TAF LYBE 282300Z 2900/2924 15008KT CAVOK TX14/2913Z TN06/2906Z"
    },
    {
      "icao": "LYNI",
      "alert": "OK",
      "vis_m": 9999,
      "fzfg": false,
      "metar_trigger": false,
      "taf_trigger": false,
      "metar": "METAR LYNI 290200Z VRB02KT 9999 SCT060 07/03 Q0998 NOSIG",
      "taf": "TAF LYNI 282300Z 2900/2924 16005KT 9999 SCT050 TX13/2913Z TN02/2906Z"
    },
    {
      "icao": "LYPG",
      "alert": "OK",
      "vis_m": 9999,
      "fzfg": false,
      "metar_trigger": false,
      "taf_trigger": false,
      "metar": "METAR LYPG 290200Z 30003KT 260V320 9999 FEW050 07/07 Q0998 NOSIG",
      "taf": "TAF LYPG 282300Z 2900/2924 36005KT 9999 SCT040 BKN080 TX13/2913Z TN04/2905Z"
    },
    {
      "icao": "LZIB",
      "alert": "OK",
      "vis_m": 4600,
      "fzfg": false,
      "metar_trigger": false,
      "taf_trigger": false,
      "metar": "METAR LZIB 290200Z 04006KT 4600 -RA BR SCT003 OVC004 03/03 Q0995 NOSIG",
      "taf": "TAF LZIB 282315Z 2900/3000 06009KT 9999 -RA SCT004 OVC010"
    },
    {
      "icao": "LZKZ",
      "alert": "OK",
      "vis_m": 7000,
      "fzfg": false,
      "metar_trigger": false,
      "taf_trigger": false,
      "metar": "METAR LZKZ 290200Z 36007KT 7000 -RA FEW010 OVC027 02/01 Q0997 NOSIG",
      "taf": "TAF LZKZ 282315Z 2900/3000 01006KT 7000 -RA SCT013 OVC020"
    },
    {
      "icao": "LZTT",
      "alert": "OK",
      "vis_m": 4500,
      "fzfg": false,
      "metar_trigger": false,
      "taf_trigger": false,
      "metar": "METAR LZTT 290200Z 09002KT 4500 -SN OVC005 M01/M01 Q0995",
      "taf": "TAF LZTT 282315Z 2900/3000 VRB02KT 6000 -SN SCT008 BKN025"
    },
    {
      "icao": "OEJN",
      "alert": "OK",
      "vis_m": 9999,
      "fzfg": false,
      "metar_trigger": false,
      "taf_trigger": false,
      "metar": "METAR OEJN 290200Z 06006KT CAVOK 21/10 Q1015 NOSIG",
      "taf": "TAF OEJN 282300Z 2900/3006 03005KT 7000 FEW040"
    },
    {
      "icao": "OEMA",
      "alert": "OK",
      "vis_m": 9999,
      "fzfg": false,
      "metar_trigger": false,
      "taf_trigger": false,
      "metar": "METAR OEMA 290200Z 35003KT CAVOK 14/M01 Q1020 NOSIG",
      "taf": "TAF OEMA 282300Z 2900/3006 30004KT CAVOK"
    },
    {
      "icao": "OJAI",
      "alert": "OK",
      "vis_m": 4000,
      "fzfg": false,
      "metar_trigger": false,
      "taf_trigger": false,
      "metar": "METAR OJAI 290100Z 26008KT 4000 BR NSC 08/06 Q1020 NOSIG",
      "taf": "TAF OJAI 282300Z 2900/3006 24014KT 3000 BR SCT025TCU BKN030"
    },
    {
      "icao": "OMAA",
      "alert": "OK",
      "vis_m": 9999,
      "fzfg": false,
      "metar_trigger": false,
      "taf_trigger": false,
      "metar": "METAR OMAA 290200Z 22002KT CAVOK 17/12 Q1017 NOSIG",
      "taf": "TAF OMAA 282300Z 2900/3006 10005KT 8000 NSC"
    },
    {
      "icao": "OMDB",
      "alert": "OK",
      "vis_m": 9999,
      "fzfg": false,
      "metar_trigger": false,
      "taf_trigger": false,
      "metar": "METAR OMDB 290200Z VRB05KT CAVOK 19/14 Q1017 NOSIG",
      "taf": "TAF OMDB 282300Z 2900/3006 10005KT 8000 NSC"
    },
    {
      "icao": "UAAA",
      "alert": "OK",
      "vis_m": 1800,
      "fzfg": true,
      "metar_trigger": false,
      "taf_trigger": false,
      "metar": "METAR UAAA 290200Z VRB01MPS 1800 R23L/P2000D BR OVC004 M03/M03 Q1029 NOSIG RMK QBB120",
      "taf": "TAF UAAA 282300Z 2900/2924 VRB01MPS 0700 FZFG VV003 TXM01/2908Z TNM05/2902Z"
    },
    {
      "icao": "UBBB",
      "alert": "OK",
      "vis_m": 9999,
      "fzfg": false,
      "metar_trigger": false,
      "taf_trigger": false,
      "metar": "METAR UBBB 290200Z 16008KT 9999 OVC011 06/04 Q1013 NOSIG",
      "taf": "TAF UBBB 282302Z 2900/2924 14005KT 9999 SCT012 BKN025 TX09/2911Z TN04/2901Z"
    },
    {
      "icao": "UDSG",
      "alert": "OK",
      "vis_m": 4300,
      "fzfg": false,
      "metar_trigger": false,
      "taf_trigger": false,
      "metar": "METAR UDSG 290200Z 03005KT 4300 BR SCT040 M18/M20 Q1014 NOSIG",
      "taf": "TAF UDSG 282300Z 2900/2924 VRB06KT 2000 BR BKN020"
    },
    {
      "icao": "UDYZ",
      "alert": "OK",
      "vis_m": 2400,
      "fzfg": false,
      "metar_trigger": false,
      "taf_trigger": false,
      "metar": "METAR UDYZ 290200Z 25004KT 2400 R08/P2000N -SN BR BKN011 M05/M06 Q1016 NOSIG",
      "taf": "TAF UDYZ 282300Z 2900/2924 VRB04KT 3000 BR BKN010"
    },
    {
      "icao": "UGKO",
      "alert": "OK",
      "vis_m": 9999,
      "fzfg": false,
      "metar_trigger": false,
      "taf_trigger": false,
      "metar": "METAR UGKO 290200Z 08006KT CAVOK 04/M02 Q1011 NOSIG",
      "taf": "TAF UGKO 282300Z 2900/2924 09006KT CAVOK TX16/2911Z TN03/2905Z"
    }
  ]
}