{
  "ts_utc": "2026-03-30T16:16:07Z",
  "threshold_m": 150,
  "source": "stations_override.txt (ICAO list) + aviationweather.gov (METAR/TAF raw)",
  "station_count": 159,
  "stations": [
    {
      "icao": "BIKF",
      "alert": "OK",
      "vis_m": 9999,
      "fzfg": false,
      "metar_trigger": false,
      "taf_trigger": false,
      "metar": "METAR BIKF 301600Z 22017KT 9999 FEW015 BKN045 OVC110 04/M04 Q1005",
      "taf": "TAF BIKF 301339Z 3015/3115 24017KT 9999 -SHRASN SCT015 BKN025 TX04/3015Z TN00/3100Z"
    },
    {
      "icao": "BKPR",
      "alert": "OK",
      "vis_m": 9999,
      "fzfg": false,
      "metar_trigger": false,
      "taf_trigger": false,
      "metar": "METAR BKPR 301600Z 01012KT 9999 FEW050 BKN085 08/04 Q1009 NOSIG",
      "taf": "TAF BKPR 301130Z 3012/3112 03008KT 9999 SCT025 BKN040"
    },
    {
      "icao": "EBCI",
      "alert": "OK",
      "vis_m": 9999,
      "fzfg": false,
      "metar_trigger": false,
      "taf_trigger": false,
      "metar": "METAR EBCI 301550Z 32006KT 280V010 9999 FEW025 BKN035 07/03 Q1021 TEMPO 30015G28KT 3500 SHRAGS",
      "taf": "TAF EBCI 301120Z 3012/3118 29013KT 9999 SCT020TCU"
    },
    {
      "icao": "EDDB",
      "alert": "OK",
      "vis_m": 9999,
      "fzfg": false,
      "metar_trigger": false,
      "taf_trigger": false,
      "metar": "METAR EDDB 301550Z AUTO 32004KT 300V010 9999 FEW045 06/04 Q1012 NOSIG",
      "taf": "TAF EDDB 301100Z 3012/3112 27013KT 9999 BKN015"
    },
    {
      "icao": "EDDH",
      "alert": "OK",
      "vis_m": 9999,
      "fzfg": false,
      "metar_trigger": false,
      "taf_trigger": false,
      "metar": "METAR EDDH 301550Z AUTO 30015KT 9999 -SHRA FEW023 SCT038 BKN044 FEW///TCU 07/03 Q1013 TEMPO 31015G25KT SHRAGS BKN020CB",
      "taf": ""
    },
    {
      "icao": "EDDK",
      "alert": "OK",
      "vis_m": 9999,
      "fzfg": false,
      "metar_trigger": false,
      "taf_trigger": false,
      "metar": "METAR EDDK 301550Z AUTO 33003KT 280V020 9999 FEW027 06/03 Q1018 RESHRA TEMPO 30025G35KT SHRA",
      "taf": "TAF EDDK 301100Z 3012/3118 30015G25KT 9999 BKN035"
    },
    {
      "icao": "EDDN",
      "alert": "OK",
      "vis_m": 9999,
      "fzfg": false,
      "metar_trigger": false,
      "taf_trigger": false,
      "metar": "METAR EDDN 301550Z AUTO 02010G20KT 350V080 9999 +TSRA SCT030 BKN048 BKN///CB 05/01 Q1015 BECMG NSW",
      "taf": "TAF EDDN 301100Z 3012/3112 26015G25KT 9999 BKN015 BKN020"
    },
    {
      "icao": "EDDS",
      "alert": "OK",
      "vis_m": 9999,
      "fzfg": false,
      "metar_trigger": false,
      "taf_trigger": false,
      "metar": "METAR EDDS 301550Z AUTO VRB03KT 9999 FEW018 06/02 Q1016 TEMPO 4000 SHRAGS",
      "taf": ""
    },
    {
      "icao": "EDFH",
      "alert": "OK",
      "vis_m": 9999,
      "fzfg": false,
      "metar_trigger": false,
      "taf_trigger": false,
      "metar": "METAR EDFH 301550Z 31010KT 9999 FEW009 SCT029CB 05/M00 Q1017",
      "taf": "TAF EDFH 301100Z 3012/3112 31015KT 9999 SCT010"
    },
    {
      "icao": "EDJA",
      "alert": "OK",
      "vis_m": 9999,
      "fzfg": false,
      "metar_trigger": false,
      "taf_trigger": false,
      "metar": "METAR EDJA 301550Z 22006KT 9999 FEW004 02/01 Q1016",
      "taf": "TAF EDJA 301400Z 3015/3024 26012KT 9999 BKN015"
    },
    {
      "icao": "EDLW",
      "alert": "OK",
      "vis_m": 9999,
      "fzfg": false,
      "metar_trigger": false,
      "taf_trigger": false,
      "metar": "METAR EDLW 301550Z COR 33007KT 270V030 9999 VCSH SCT030CB BKN037 05/02 Q1017",
      "taf": "TAF EDLW 301100Z 3012/3112 29010KT 9999 BKN030"
    },
    {
      "icao": "EDNY",
      "alert": "OK",
      "vis_m": 9999,
      "fzfg": false,
      "metar_trigger": false,
      "taf_trigger": false,
      "metar": "METAR EDNY 301550Z 03006KT 350V070 9999 FEW011 SCT014 03/02 Q1017",
      "taf": "TAF EDNY 301400Z 3015/3024 25012KT 9999 BKN020"
    },
    {
      "icao": "EDSB",
      "alert": "OK",
      "vis_m": 9999,
      "fzfg": false,
      "metar_trigger": false,
      "taf_trigger": false,
      "metar": "METAR EDSB 301550Z 13005KT 9999 -TSRA FEW043CB SCT049 08/05 Q1017",
      "taf": "TAF EDSB 301100Z 3012/3112 30012KT 9999 SCT025"
    },
    {
      "icao": "EETN",
      "alert": "OK",
      "vis_m": 8000,
      "fzfg": false,
      "metar_trigger": false,
      "taf_trigger": false,
      "metar": "METAR EETN 301550Z 04005KT 010V070 8000 3800E BR SCT001 BKN004 00/M01 Q1012 TEMPO 2000 BR BKN002",
      "taf": ""
    },
    {
      "icao": "EFTU",
      "alert": "OK",
      "vis_m": 9999,
      "fzfg": false,
      "metar_trigger": false,
      "taf_trigger": false,
      "metar": "METAR EFTU 301550Z AUTO 16007KT 120V180 9999 OVC010 02/M00 Q1011",
      "taf": "TAF EFTU 301432Z 3015/3115 19008KT 9999 OVC009"
    },
    {
      "icao": "EGBB",
      "alert": "OK",
      "vis_m": 9999,
      "fzfg": false,
      "metar_trigger": false,
      "taf_trigger": false,
      "metar": "METAR EGBB 301550Z 32022G32KT 9999 BKN043 11/00 Q1026",
      "taf": "TAF EGBB 301049Z 3012/3112 29012KT 9999 SCT040"
    },
    {
      "icao": "EGGP",
      "alert": "OK",
      "vis_m": 9999,
      "fzfg": false,
      "metar_trigger": false,
      "taf_trigger": false,
      "metar": "METAR EGGP 301550Z 29014KT 9999 FEW029 SCT036 09/03 Q1027",
      "taf": "TAF EGGP 301100Z 3012/3112 30018G30KT 9999 SCT025"
    },
    {
      "icao": "EGGW",
      "alert": "OK",
      "vis_m": 9999,
      "fzfg": false,
      "metar_trigger": false,
      "taf_trigger": false,
      "metar": "METAR EGGW 301550Z AUTO 32019G29KT 9999 NCD 11/01 Q1025",
      "taf": "TAF EGGW 301058Z 3012/3112 30014KT 9999 SCT032"
    },
    {
      "icao": "EGKK",
      "alert": "OK",
      "vis_m": 9999,
      "fzfg": false,
      "metar_trigger": false,
      "taf_trigger": false,
      "metar": "METAR EGKK 301550Z 33017KT 9999 FEW049 12/00 Q1025",
      "taf": "TAF EGKK 301057Z 3012/3118 30010KT 9999 SCT030"
    },
    {
      "icao": "EGNM",
      "alert": "OK",
      "vis_m": 9999,
      "fzfg": false,
      "metar_trigger": false,
      "taf_trigger": false,
      "metar": "METAR EGNM 301550Z 28017G28KT 9999 SCT024 SCT031 09/03 Q1023",
      "taf": "TAF EGNM 301100Z 3012/3112 29017G29KT 9999 SCT025"
    },
    {
      "icao": "EGPD",
      "alert": "OK",
      "vis_m": 9999,
      "fzfg": false,
      "metar_trigger": false,
      "taf_trigger": false,
      "metar": "METAR EGPD 301550Z COR AUTO 30018KT 9999 BKN045 10/M01 Q1018 NOSIG",
      "taf": "TAF EGPD 301057Z 3012/3112 29013KT 9999 FEW040"
    },
    {
      "icao": "EGPF",
      "alert": "OK",
      "vis_m": 9999,
      "fzfg": false,
      "metar_trigger": false,
      "taf_trigger": false,
      "metar": "METAR EGPF 301550Z AUTO 27010KT 240V310 9999 BKN037 BKN044 09/03 Q1023",
      "taf": "TAF EGPF 301055Z 3012/3112 28012KT 9999 SCT035"
    },
    {
      "icao": "EHBK",
      "alert": "OK",
      "vis_m": 9999,
      "fzfg": false,
      "metar_trigger": false,
      "taf_trigger": false,
      "metar": "METAR EHBK 301555Z AUTO 33010KT 280V010 9999 NSC 08/03 Q1019 TEMPO 6000 SHRAGS FEW020CB",
      "taf": "TAF EHBK 301101Z 3012/3118 31012KT 9999 SCT030"
    },
    {
      "icao": "EHEH",
      "alert": "OK",
      "vis_m": 9999,
      "fzfg": false,
      "metar_trigger": false,
      "taf_trigger": false,
      "metar": "METAR EHEH 301555Z AUTO 31007KT 260V020 9999 FEW018CB SCT067 BKN073 07/03 Q1020 REDZ BLU TEMPO 4500 SHRA FEW012 SCT020CB",
      "taf": ""
    },
    {
      "icao": "EKBI",
      "alert": "OK",
      "vis_m": 9999,
      "fzfg": false,
      "metar_trigger": false,
      "taf_trigger": false,
      "metar": "METAR EKBI 301550Z AUTO 28020KT 9999 OVC020/// 07/04 Q1011",
      "taf": "TAF EKBI 301427Z 3015/3115 28015KT 9999 BKN020"
    },
    {
      "icao": "EKCH",
      "alert": "OK",
      "vis_m": 9999,
      "fzfg": false,
      "metar_trigger": false,
      "taf_trigger": false,
      "metar": "METAR EKCH 301550Z 28013KT 9999 FEW023CB SCT049 08/01 Q1009 NOSIG",
      "taf": "TAF EKCH 301427Z 3015/3115 28012KT 9999 SCT020"
    },
    {
      "icao": "ENAL",
      "alert": "OK",
      "vis_m": 9999,
      "fzfg": false,
      "metar_trigger": false,
      "taf_trigger": false,
      "metar": "METAR ENAL 301550Z 20014KT 9999 -DZRA FEW015 SCT033 BKN047 06/02 Q0997",
      "taf": "TAF ENAL 301400Z 3015/3024 20015KT 9999 -SHRA FEW015 BKN025"
    },
    {
      "icao": "ENBR",
      "alert": "OK",
      "vis_m": 9999,
      "fzfg": false,
      "metar_trigger": false,
      "taf_trigger": false,
      "metar": "METAR ENBR 301550Z 29008KT 220V350 9999 VCSH SCT015 BKN025 05/03 Q1003 TEMPO 33018G28KT 4000 SHRAGS BKN008 SCT018CB RMK WIND 1200FT 29017KT",
      "taf": ""
    },
    {
      "icao": "ENGM",
      "alert": "OK",
      "vis_m": 9999,
      "fzfg": false,
      "metar_trigger": false,
      "taf_trigger": false,
      "metar": "METAR ENGM 301550Z 20007KT 180V240 9999 FEW021 07/01 Q1001 NOSIG",
      "taf": ""
    },
    {
      "icao": "ENHD",
      "alert": "OK",
      "vis_m": 9999,
      "fzfg": false,
      "metar_trigger": false,
      "taf_trigger": false,
      "metar": "METAR ENHD 301550Z 26018KT 9999 FEW020 SCT025 BKN030 07/04 Q1006",
      "taf": "TAF ENHD 301400Z 3015/3022 26012KT 9999 -SHRA FEW015TCU SCT025"
    },
    {
      "icao": "ENTC",
      "alert": "OK",
      "vis_m": 9999,
      "fzfg": false,
      "metar_trigger": false,
      "taf_trigger": false,
      "metar": "METAR ENTC 301550Z 18010KT CAVOK 04/M04 Q1000 NOSIG RMK WIND 2600FT 18016KT",
      "taf": "TAF ENTC 301100Z 3012/3112 20008KT CAVOK"
    },
    {
      "icao": "ENTO",
      "alert": "OK",
      "vis_m": 9999,
      "fzfg": false,
      "metar_trigger": false,
      "taf_trigger": false,
      "metar": "METAR ENTO 301550Z 20010KT CAVOK 10/00 Q1002 NOSIG",
      "taf": "TAF ENTO 301100Z 3012/3112 20008KT 9999 SCT030"
    },
    {
      "icao": "ENVA",
      "alert": "OK",
      "vis_m": 9999,
      "fzfg": false,
      "metar_trigger": false,
      "taf_trigger": false,
      "metar": "METAR ENVA 301550Z 17005KT 140V210 CAVOK 11/M04 Q0998 NOSIG RMK WIND 670FT 18008KT",
      "taf": "TAF ENVA 301100Z 3012/3112 12008KT CAVOK"
    },
    {
      "icao": "ENZV",
      "alert": "OK",
      "vis_m": 9999,
      "fzfg": false,
      "metar_trigger": false,
      "taf_trigger": false,
      "metar": "METAR ENZV 301550Z 26012KT 9999 VCSH FEW029 BKN040 08/05 Q1007 NOSIG",
      "taf": "TAF ENZV 301100Z 3012/3112 27012KT 9999 -SHRA FEW015 BKN025"
    },
    {
      "icao": "EPGD",
      "alert": "OK",
      "vis_m": 9999,
      "fzfg": false,
      "metar_trigger": false,
      "taf_trigger": false,
      "metar": "METAR EPGD 301600Z 25010KT 9999 SCT047 08/M01 Q1010",
      "taf": "TAF EPGD 301130Z 3012/3112 19010KT 9999 BKN035"
    },
    {
      "icao": "EPKK",
      "alert": "OK",
      "vis_m": 9999,
      "fzfg": false,
      "metar_trigger": false,
      "taf_trigger": false,
      "metar": "METAR EPKK 301600Z 22006KT 190V250 9999 -RA FEW017 BKN036 05/02 Q1011",
      "taf": "TAF EPKK 301430Z 3015/3115 22006KT 9999 FEW021 BKN040"
    },
    {
      "icao": "EPKT",
      "alert": "OK",
      "vis_m": 9999,
      "fzfg": false,
      "metar_trigger": false,
      "taf_trigger": false,
      "metar": "METAR EPKT 301600Z 13007KT 9999 FEW029 06/01 Q1010",
      "taf": "TAF EPKT 301130Z 3012/3112 27007KT 9999 FEW045"
    },
    {
      "icao": "EPLB",
      "alert": "OK",
      "vis_m": 9999,
      "fzfg": false,
      "metar_trigger": false,
      "taf_trigger": false,
      "metar": "METAR EPLB 301600Z 32009KT CAVOK 10/02 Q1009",
      "taf": "TAF EPLB 301130Z 3012/3112 32012KT CAVOK"
    },
    {
      "icao": "EPMO",
      "alert": "OK",
      "vis_m": 9999,
      "fzfg": false,
      "metar_trigger": false,
      "taf_trigger": false,
      "metar": "METAR EPMO 301600Z 30004KT CAVOK 10/M01 Q1010",
      "taf": "TAF EPMO 301130Z 3012/3112 VRB05KT CAVOK"
    },
    {
      "icao": "EPPO",
      "alert": "OK",
      "vis_m": 9999,
      "fzfg": false,
      "metar_trigger": false,
      "taf_trigger": false,
      "metar": "METAR EPPO 301600Z 25006KT 9999 SCT023 OVC046 07/01 Q1011",
      "taf": "TAF EPPO 301130Z 3012/3112 20010KT 9999 OVC040"
    },
    {
      "icao": "EPRA",
      "alert": "OK",
      "vis_m": 9999,
      "fzfg": false,
      "metar_trigger": false,
      "taf_trigger": false,
      "metar": "METAR EPRA 301600Z 23003KT 9999 SCT048 07/04 Q1010",
      "taf": "TAF EPRA 301430Z 3015/3024 23004KT 9999 BKN040"
    },
    {
      "icao": "EPRZ",
      "alert": "OK",
      "vis_m": 9999,
      "fzfg": false,
      "metar_trigger": false,
      "taf_trigger": false,
      "metar": "METAR EPRZ 301600Z 28011KT CAVOK 08/03 Q1009",
      "taf": "TAF EPRZ 301130Z 3012/3112 29008KT 9999 SCT030"
    },
    {
      "icao": "EPSC",
      "alert": "OK",
      "vis_m": 9999,
      "fzfg": false,
      "metar_trigger": false,
      "taf_trigger": false,
      "metar": "METAR EPSC 301600Z 28005KT 9999 FEW041 07/02 Q1011",
      "taf": "TAF EPSC 301130Z 3012/3112 20008KT 9999 BKN030"
    },
    {
      "icao": "EPSY",
      "alert": "OK",
      "vis_m": 9999,
      "fzfg": false,
      "metar_trigger": false,
      "taf_trigger": false,
      "metar": "METAR EPSY 301600Z 29004KT CAVOK 10/M02 Q1010",
      "taf": "TAF EPSY 301430Z 3015/3024 20008KT CAVOK"
    },
    {
      "icao": "EPWA",
      "alert": "OK",
      "vis_m": 9999,
      "fzfg": false,
      "metar_trigger": false,
      "taf_trigger": false,
      "metar": "METAR EPWA 301600Z 25004KT CAVOK 10/00 Q1010 NOSIG",
      "taf": "TAF EPWA 301430Z 3015/3115 VRB03KT CAVOK"
    },
    {
      "icao": "EPWR",
      "alert": "OK",
      "vis_m": 9999,
      "fzfg": false,
      "metar_trigger": false,
      "taf_trigger": false,
      "metar": "METAR EPWR 301600Z 29008KT 9999 SCT043 08/01 Q1011",
      "taf": "TAF EPWR 301430Z 3015/3115 29010KT 9999 FEW030 BKN040"
    },
    {
      "icao": "ESGG",
      "alert": "OK",
      "vis_m": 9999,
      "fzfg": false,
      "metar_trigger": false,
      "taf_trigger": false,
      "metar": "METAR ESGG 301550Z 24009KT 9999 SCT022 06/02 Q1005",
      "taf": "TAF ESGG 301430Z 3015/3115 23008KT 9999 SCT025"
    },
    {
      "icao": "ESKN",
      "alert": "OK",
      "vis_m": 9999,
      "fzfg": false,
      "metar_trigger": false,
      "taf_trigger": false,
      "metar": "METAR ESKN 301550Z 15011KT 9999 -RA BKN007 BKN048 04/03 Q1006",
      "taf": ""
    },
    {
      "icao": "ESMS",
      "alert": "OK",
      "vis_m": 9999,
      "fzfg": false,
      "metar_trigger": false,
      "taf_trigger": false,
      "metar": "METAR ESMS 301550Z 27010KT 9999 FEW042 08/01 Q1008",
      "taf": "TAF ESMS 301427Z 3015/3115 29010KT 9999 BKN015"
    },
    {
      "icao": "ESSA",
      "alert": "OK",
      "vis_m": 9999,
      "fzfg": false,
      "metar_trigger": false,
      "taf_trigger": false,
      "metar": "METAR ESSA 301550Z 16015KT 9999 -DZ BKN020 05/01 Q1006 NOSIG",
      "taf": "TAF ESSA 301430Z 3015/3115 18014KT 9999 BKN025"
    },
    {
      "icao": "EYKA",
      "alert": "OK",
      "vis_m": 9999,
      "fzfg": false,
      "metar_trigger": false,
      "taf_trigger": false,
      "metar": "METAR EYKA 301550Z 33004KT 290V020 CAVOK 12/02 Q1009",
      "taf": "TAF EYKA 301100Z 3012/3112 VRB05KT 9000 NSC"
    },
    {
      "icao": "EYPA",
      "alert": "OK",
      "vis_m": 9999,
      "fzfg": false,
      "metar_trigger": false,
      "taf_trigger": false,
      "metar": "METAR EYPA 301550Z VRB02KT CAVOK 08/00 Q1011",
      "taf": "TAF EYPA 301100Z 3012/3112 VRB05KT 9000 SCT035"
    },
    {
      "icao": "EYVI",
      "alert": "OK",
      "vis_m": 9999,
      "fzfg": false,
      "metar_trigger": false,
      "taf_trigger": false,
      "metar": "METAR EYVI 301550Z 05007KT CAVOK 12/04 Q1008 NOSIG",
      "taf": "TAF EYVI 301100Z 3012/3112 VRB05KT 9000 SCT045"
    },
    {
      "icao": "GCFV",
      "alert": "OK",
      "vis_m": 9999,
      "fzfg": false,
      "metar_trigger": false,
      "taf_trigger": false,
      "metar": "METAR GCFV 301600Z 02023KT 9999 FEW030 20/10 Q1016",
      "taf": ""
    },
    {
      "icao": "GCLP",
      "alert": "OK",
      "vis_m": 9999,
      "fzfg": false,
      "metar_trigger": false,
      "taf_trigger": false,
      "metar": "METAR GCLP 301600Z 01021G31KT 340V040 9999 SCT030 20/12 Q1017 NOSIG",
      "taf": "TAF GCLP 301400Z 3015/3115 02025KT 9999 FEW025 TX24/3114Z TN17/3106Z"
    },
    {
      "icao": "GCTS",
      "alert": "OK",
      "vis_m": 9999,
      "fzfg": false,
      "metar_trigger": false,
      "taf_trigger": false,
      "metar": "METAR GCTS 301600Z 07032KT CAVOK 21/09 Q1016 NOSIG",
      "taf": "TAF GCTS 301400Z 3015/3115 07025KT CAVOK TX26/3114Z TN16/3106Z"
    },
    {
      "icao": "GMAD",
      "alert": "OK",
      "vis_m": 6000,
      "fzfg": false,
      "metar_trigger": false,
      "taf_trigger": false,
      "metar": "METAR GMAD 301600Z 25011KT 6000 NSC 24/13 Q1013 NOSIG",
      "taf": "TAF GMAD 301100Z 3012/3118 24005KT 6000 SCT020"
    },
    {
      "icao": "GMMN",
      "alert": "OK",
      "vis_m": 9999,
      "fzfg": false,
      "metar_trigger": false,
      "taf_trigger": false,
      "metar": "METAR GMMN 301600Z 04017KT 360V070 CAVOK 21/07 Q1019 NOSIG",
      "taf": "TAF GMMN 301100Z 3012/3118 04018KT CAVOK"
    },
    {
      "icao": "GMMX",
      "alert": "OK",
      "vis_m": 9999,
      "fzfg": false,
      "metar_trigger": false,
      "taf_trigger": false,
      "metar": "METAR GMMX 301600Z 07009KT 030V110 9999 FEW030 23/05 Q1016 NOSIG",
      "taf": "TAF GMMX 301100Z 3012/3118 04008KT CAVOK"
    },
    {
      "icao": "HEGN",
      "alert": "OK",
      "vis_m": 9999,
      "fzfg": false,
      "metar_trigger": false,
      "taf_trigger": false,
      "metar": "METAR HEGN 301500Z 36010KT 9999 SCT020 BKN025 24/06 Q1009 NOSIG",
      "taf": "TAF HEGN 301100Z 3012/3118 34015G25KT 9999 SCT025"
    },
    {
      "icao": "HEMA",
      "alert": "OK",
      "vis_m": 6000,
      "fzfg": false,
      "metar_trigger": false,
      "taf_trigger": false,
      "metar": "METAR HEMA 301500Z 36011KT 6000 NSC 23/15 Q1010 NOSIG",
      "taf": "TAF HEMA 301100Z 3012/3118 33015G25KT 9999 SCT025"
    },
    {
      "icao": "HESH",
      "alert": "OK",
      "vis_m": 9999,
      "fzfg": false,
      "metar_trigger": false,
      "taf_trigger": false,
      "metar": "METAR HESH 301500Z 03006KT CAVOK 24/12 Q1009 NOSIG",
      "taf": "TAF HESH 301100Z 3012/3118 01008KT 9999 SCT025"
    },
    {
      "icao": "HESX",
      "alert": "OK",
      "vis_m": 9999,
      "fzfg": false,
      "metar_trigger": false,
      "taf_trigger": false,
      "metar": "METAR HESX 301500Z 29010KT 9999 FEW020 21/05 Q1011 NOSIG",
      "taf": "TAF HESX 301100Z 3012/3118 30010KT 9999 SCT020"
    },
    {
      "icao": "LATI",
      "alert": "OK",
      "vis_m": 9999,
      "fzfg": false,
      "metar_trigger": false,
      "taf_trigger": false,
      "metar": "METAR LATI 301550Z 27007KT 230V300 9999 FEW038 SCT060 15/05 Q1009 NOSIG",
      "taf": "TAF LATI 301100Z 3012/3112 32010KT 9999 FEW050 BKN090 TX18/3012Z TN06/3104Z"
    },
    {
      "icao": "LBPD",
      "alert": "OK",
      "vis_m": 9999,
      "fzfg": false,
      "metar_trigger": false,
      "taf_trigger": false,
      "metar": "METAR LBPD 301600Z AUTO 00000KT 9999 SCT054/// BKN080/// OVC110/// 13/08 Q1006 NOSIG",
      "taf": "TAF LBPD 301100Z 3012/3112 28014KT 9999 BKN060"
    },
    {
      "icao": "LBSF",
      "alert": "OK",
      "vis_m": 9999,
      "fzfg": false,
      "metar_trigger": false,
      "taf_trigger": false,
      "metar": "METAR LBSF 301600Z AUTO 28013KT 9999 FEW019/// OVC071/// 06/02 Q1009 NOSIG",
      "taf": "TAF LBSF 301100Z 3012/3112 28014KT 9999 SCT025 OVC050"
    },
    {
      "icao": "LBWN",
      "alert": "OK",
      "vis_m": 9999,
      "fzfg": false,
      "metar_trigger": false,
      "taf_trigger": false,
      "metar": "METAR LBWN 301600Z AUTO 27010KT 9999 NSC 12/09 Q1005 NOSIG",
      "taf": "TAF LBWN 301100Z 3012/3112 34015KT 9999 SCT020 BKN040"
    },
    {
      "icao": "LCLK",
      "alert": "OK",
      "vis_m": 9999,
      "fzfg": false,
      "metar_trigger": false,
      "taf_trigger": false,
      "metar": "METAR LCLK 301600Z 30010KT 9999 FEW025 17/09 Q1008 NOSIG",
      "taf": "TAF LCLK 301130Z 3012/3112 22021KT 9999 FEW030"
    },
    {
      "icao": "LCPH",
      "alert": "OK",
      "vis_m": 9999,
      "fzfg": false,
      "metar_trigger": false,
      "taf_trigger": false,
      "metar": "METAR LCPH 301600Z 31016KT 9999 FEW030TCU SCT034 16/09 Q1009 NOSIG",
      "taf": "TAF LCPH 301130Z 3012/3112 29018KT 9999 FEW025 SCT035"
    },
    {
      "icao": "LEAL",
      "alert": "OK",
      "vis_m": 9999,
      "fzfg": false,
      "metar_trigger": false,
      "taf_trigger": false,
      "metar": "METAR LEAL 301600Z 10006KT 070V160 CAVOK 16/02 Q1024 NOSIG",
      "taf": ""
    },
    {
      "icao": "LEBB",
      "alert": "OK",
      "vis_m": 9999,
      "fzfg": false,
      "metar_trigger": false,
      "taf_trigger": false,
      "metar": "METAR LEBB 301600Z 31014KT 9999 BKN020 13/10 Q1032 NOSIG",
      "taf": "TAF LEBB 301100Z 3012/3112 33009KT 6000 BKN020 TX12/3019Z TN10/3012Z"
    },
    {
      "icao": "LEBL",
      "alert": "OK",
      "vis_m": 9999,
      "fzfg": false,
      "metar_trigger": false,
      "taf_trigger": false,
      "metar": "METAR LEBL 301530Z 23015KT CAVOK 18/08 Q1018 NOSIG",
      "taf": "TAF LEBL 301100Z 3012/3112 22010KT CAVOK TX21/3012Z TN09/3106Z"
    },
    {
      "icao": "LECH",
      "alert": "OK",
      "vis_m": 9999,
      "fzfg": false,
      "metar_trigger": false,
      "taf_trigger": false,
      "metar": "METAR LECH 301600Z AUTO 34006G16KT 250V060 CAVOK 19/03 Q1021",
      "taf": "TAF LECH 301100Z 3012/3112 33012KT CAVOK TX20/3013Z TN11/3105Z"
    },
    {
      "icao": "LEMD",
      "alert": "OK",
      "vis_m": 9999,
      "fzfg": false,
      "metar_trigger": false,
      "taf_trigger": false,
      "metar": "METAR LEMD 301600Z 35012KT 310V030 9999 FEW060 18/03 Q1026 NOSIG",
      "taf": "TAF LEMD 301100Z 3012/3118 01010KT CAVOK TX19/3016Z TN07/3106Z"
    },
    {
      "icao": "LEMG",
      "alert": "OK",
      "vis_m": 9999,
      "fzfg": false,
      "metar_trigger": false,
      "taf_trigger": false,
      "metar": "METAR LEMG 301600Z 16009KT 100V200 CAVOK 17/M01 Q1025 NOSIG",
      "taf": "TAF LEMG 301100Z 3012/3112 13010KT CAVOK TX19/3013Z TN10/3107Z"
    },
    {
      "icao": "LEVC",
      "alert": "OK",
      "vis_m": 9999,
      "fzfg": false,
      "metar_trigger": false,
      "taf_trigger": false,
      "metar": "METAR LEVC 301600Z 13011KT CAVOK 18/01 Q1022 NOSIG",
      "taf": "TAF LEVC 301100Z 3012/3112 VRB04KT CAVOK TX21/3012Z TN11/3105Z"
    },
    {
      "icao": "LEXJ",
      "alert": "OK",
      "vis_m": 9999,
      "fzfg": false,
      "metar_trigger": false,
      "taf_trigger": false,
      "metar": "METAR LEXJ 301600Z 31016KT 280V340 9999 OVC022 13/08 Q1033",
      "taf": "TAF LEXJ 301400Z 3015/3115 32009KT 9999 BKN025 TX13/3021Z TN11/3106Z"
    },
    {
      "icao": "LEZG",
      "alert": "OK",
      "vis_m": 9999,
      "fzfg": false,
      "metar_trigger": false,
      "taf_trigger": false,
      "metar": "METAR LEZG 301600Z 31035G45KT 9999 FEW035 15/05 Q1024 NOSIG",
      "taf": "TAF LEZG 301100Z 3012/3112 32025KT 9999 FEW045 TX16/3014Z TN09/3105Z"
    },
    {
      "icao": "LEZL",
      "alert": "OK",
      "vis_m": 9999,
      "fzfg": false,
      "metar_trigger": false,
      "taf_trigger": false,
      "metar": "METAR LEZL 301600Z 04004KT 330V120 CAVOK 21/M02 Q1025 NOSIG",
      "taf": "TAF LEZL 301400Z 3015/3115 06010KT CAVOK TX29/3115Z TN10/3107Z"
    },
    {
      "icao": "LFBD",
      "alert": "OK",
      "vis_m": 9999,
      "fzfg": false,
      "metar_trigger": false,
      "taf_trigger": false,
      "metar": "METAR LFBD 301600Z AUTO 32015KT 9999 FEW020 BKN032 14/10 Q1026 NOSIG",
      "taf": "TAF LFBD 301100Z 3012/3118 30010KT 9999 BKN015 TX15/3014Z TN05/3105Z"
    },
    {
      "icao": "LFLL",
      "alert": "OK",
      "vis_m": 9999,
      "fzfg": false,
      "metar_trigger": false,
      "taf_trigger": false,
      "metar": "METAR LFLL 301600Z 12007KT 9999 FEW023 SCT050 BKN083 09/05 Q1020 NOSIG",
      "taf": "TAF LFLL 301100Z 3012/3118 34010KT 9999 BKN030"
    },
    {
      "icao": "LFLS",
      "alert": "OK",
      "vis_m": 9999,
      "fzfg": false,
      "metar_trigger": false,
      "taf_trigger": false,
      "metar": "METAR LFLS 301600Z AUTO 07004KT 030V110 CAVOK 08/03 Q1020 TEMPO 4000 SHRA SCT015TCU BKN020",
      "taf": "TAF LFLS 301400Z 3015/3115 VRB05KT 9999 BKN030"
    },
    {
      "icao": "LFMN",
      "alert": "OK",
      "vis_m": 9999,
      "fzfg": false,
      "metar_trigger": false,
      "taf_trigger": false,
      "metar": "METAR LFMN 301600Z 09015KT 9999 FEW083 16/08 Q1006 NOSIG",
      "taf": "TAF LFMN 301400Z 3015/3121 10015KT CAVOK"
    },
    {
      "icao": "LFOB",
      "alert": "OK",
      "vis_m": 9999,
      "fzfg": false,
      "metar_trigger": false,
      "taf_trigger": false,
      "metar": "METAR LFOB 301600Z AUTO 31018KT 9999 SCT039 BKN049 BKN070 11/04 Q1023 TEMPO 4000 -SHRA BKN020TCU BECMG 32015G28KT",
      "taf": "TAF LFOB 301100Z 3012/3112 32015G28KT 9999 BKN035"
    },
    {
      "icao": "LFPO",
      "alert": "OK",
      "vis_m": 9999,
      "fzfg": false,
      "metar_trigger": false,
      "taf_trigger": false,
      "metar": "METAR LFPO 301600Z 33016KT 290V360 CAVOK 12/01 Q1023 NOSIG",
      "taf": "TAF LFPO 301100Z 3012/3118 32015KT CAVOK"
    },
    {
      "icao": "LFSB",
      "alert": "OK",
      "vis_m": 9999,
      "fzfg": false,
      "metar_trigger": false,
      "taf_trigger": false,
      "metar": "METAR LFSB 301600Z AUTO 26008KT 9999 ///TCU 08/04 Q1019 TEMPO 28015G25KT 4000 SHRA FEW020CB BKN030",
      "taf": "TAF LFSB 301100Z 3012/3112 26012KT 9999 FEW020 BKN035"
    },
    {
      "icao": "LGAV",
      "alert": "OK",
      "vis_m": 9999,
      "fzfg": false,
      "metar_trigger": false,
      "taf_trigger": false,
      "metar": "METAR LGAV 301550Z 21011KT 9999 FEW025 16/09 Q1008 NOSIG",
      "taf": "TAF LGAV 301100Z 3012/3112 21010KT 9999 FEW020"
    },
    {
      "icao": "LGTS",
      "alert": "OK",
      "vis_m": 9999,
      "fzfg": false,
      "metar_trigger": false,
      "taf_trigger": false,
      "metar": "METAR LGTS 301550Z 24005KT 9999 FEW020 17/09 Q1006 NOSIG",
      "taf": "TAF LGTS 301100Z 3012/3112 VRB03KT 9999 FEW025"
    },
    {
      "icao": "LHBP",
      "alert": "OK",
      "vis_m": 9999,
      "fzfg": false,
      "metar_trigger": false,
      "taf_trigger": false,
      "metar": "METAR LHBP 301600Z 33010KT 9999 -RA FEW045 OVC058 05/03 Q1010 NOSIG",
      "taf": "TAF LHBP 301115Z 3012/3112 32013KT 9999 -RA OVC040"
    },
    {
      "icao": "LHDC",
      "alert": "OK",
      "vis_m": 9999,
      "fzfg": false,
      "metar_trigger": false,
      "taf_trigger": false,
      "metar": "METAR LHDC 301545Z AUTO 34005KT 9999 -RA OVC039 09/06 Q1007 NOSIG",
      "taf": "TAF LHDC 301415Z 3015/3024 33007KT CAVOK"
    },
    {
      "icao": "LIBD",
      "alert": "OK",
      "vis_m": 9999,
      "fzfg": false,
      "metar_trigger": false,
      "taf_trigger": false,
      "metar": "METAR LIBD 301550Z 03004KT 350V070 CAVOK 13/08 Q1009",
      "taf": "TAF LIBD 301100Z 3012/3112 34012KT 9999 SCT030"
    },
    {
      "icao": "LIBG",
      "alert": "OK",
      "vis_m": 9999,
      "fzfg": false,
      "metar_trigger": false,
      "taf_trigger": false,
      "metar": "METAR LIBG 301550Z 06007KT 350V090 9999 FEW030 15/07 Q1009",
      "taf": "TAF LIBG 301400Z 3015/3024 34010KT 9999 SCT030"
    },
    {
      "icao": "LIBP",
      "alert": "OK",
      "vis_m": 7000,
      "fzfg": false,
      "metar_trigger": false,
      "taf_trigger": false,
      "metar": "METAR LIBP 301550Z AUTO 32004KT 7000 RA OVC041/// 10/09 Q1011",
      "taf": "TAF LIBP 301100Z 3012/3112 06010KT 9999 SCT030"
    },
    {
      "icao": "LIBR",
      "alert": "OK",
      "vis_m": 9999,
      "fzfg": false,
      "metar_trigger": false,
      "taf_trigger": false,
      "metar": "METAR LIBR 301550Z 33010KT CAVOK 14/07 Q1009",
      "taf": "TAF LIBR 301100Z 3012/3112 33016KT 9999 BKN030"
    },
    {
      "icao": "LICA",
      "alert": "OK",
      "vis_m": 9999,
      "fzfg": false,
      "metar_trigger": false,
      "taf_trigger": false,
      "metar": "METAR LICA 301550Z AUTO 25010KT 9999 NCD 15/09 Q1011",
      "taf": "TAF LICA 301100Z 3012/3112 27012KT 9999 SCT030"
    },
    {
      "icao": "LICC",
      "alert": "OK",
      "vis_m": 4000,
      "fzfg": false,
      "metar_trigger": false,
      "taf_trigger": false,
      "metar": "METAR LICC 301550Z 26009KT 4000 -RA SCT035 BKN080 14/09 Q1011",
      "taf": "TAF LICC 301100Z 3012/3112 09010KT 9999 SCT040"
    },
    {
      "icao": "LICJ",
      "alert": "OK",
      "vis_m": 9999,
      "fzfg": false,
      "metar_trigger": false,
      "taf_trigger": false,
      "metar": "METAR LICJ 301550Z 30007KT 9999 FEW020 15/10 Q1012",
      "taf": "TAF LICJ 301100Z 3012/3112 29012KT 9999 FEW040"
    },
    {
      "icao": "LIMC",
      "alert": "OK",
      "vis_m": 9999,
      "fzfg": false,
      "metar_trigger": false,
      "taf_trigger": false,
      "metar": "METAR LIMC 301550Z 03011KT 330V070 CAVOK 17/M10 Q1010 NOSIG",
      "taf": "TAF LIMC 301100Z 3012/3118 01015KT CAVOK"
    },
    {
      "icao": "LIME",
      "alert": "OK",
      "vis_m": 9999,
      "fzfg": false,
      "metar_trigger": false,
      "taf_trigger": false,
      "metar": "METAR LIME 301550Z 35014KT 310V010 9999 FEW045 17/M14 Q1008 NOSIG",
      "taf": "TAF LIME 301100Z 3012/3112 35013KT CAVOK"
    },
    {
      "icao": "LIMF",
      "alert": "OK",
      "vis_m": 9999,
      "fzfg": false,
      "metar_trigger": false,
      "taf_trigger": false,
      "metar": "METAR LIMF 301550Z 30016KT CAVOK 17/M10 Q1010",
      "taf": "TAF LIMF 301100Z 3012/3112 VRB05KT CAVOK"
    },
    {
      "icao": "LIMJ",
      "alert": "OK",
      "vis_m": 9999,
      "fzfg": false,
      "metar_trigger": false,
      "taf_trigger": false,
      "metar": "METAR LIMJ 301550Z 13003KT 9999 FEW040 15/07 Q1009",
      "taf": "TAF LIMJ 301100Z 3012/3112 20010KT CAVOK"
    },
    {
      "icao": "LIPE",
      "alert": "OK",
      "vis_m": 9999,
      "fzfg": false,
      "metar_trigger": false,
      "taf_trigger": false,
      "metar": "METAR LIPE 301550Z 03011KT 360V060 CAVOK 15/01 Q1008",
      "taf": "TAF LIPE 301100Z 3012/3112 VRB05KT CAVOK"
    },
    {
      "icao": "LIPH",
      "alert": "OK",
      "vis_m": 9999,
      "fzfg": false,
      "metar_trigger": false,
      "taf_trigger": false,
      "metar": "METAR LIPH 301550Z 11009KT 9999 FEW020 13/06 Q1010",
      "taf": "TAF LIPH 301100Z 3012/3112 VRB05KT 9999 SCT040"
    },
    {
      "icao": "LIPQ",
      "alert": "OK",
      "vis_m": 9999,
      "fzfg": false,
      "metar_trigger": false,
      "taf_trigger": false,
      "metar": "METAR LIPQ 301550Z AUTO 17006KT 9999 FEW150/// 12/03 Q1010",
      "taf": ""
    },
    {
      "icao": "LIPR",
      "alert": "OK",
      "vis_m": 9999,
      "fzfg": false,
      "metar_trigger": false,
      "taf_trigger": false,
      "metar": "METAR LIPR 301550Z 11010KT 9999 SCT050 12/08 Q1009",
      "taf": "TAF LIPR 301100Z 3012/3112 11012KT 9999 BKN070"
    },
    {
      "icao": "LIPX",
      "alert": "OK",
      "vis_m": 9999,
      "fzfg": false,
      "metar_trigger": false,
      "taf_trigger": false,
      "metar": "METAR LIPX 301550Z 09008KT 070V140 9999 FEW080 14/03 Q1009",
      "taf": "TAF LIPX 301100Z 3012/3112 VRB05KT CAVOK"
    },
    {
      "icao": "LIPY",
      "alert": "OK",
      "vis_m": 9999,
      "fzfg": false,
      "metar_trigger": false,
      "taf_trigger": false,
      "metar": "METAR LIPY 301550Z AUTO 11007KT 9999 OVC091/// 13/06 Q1009",
      "taf": "TAF LIPY 301100Z 3012/3112 09010KT 9999 SCT040"
    },
    {
      "icao": "LIPZ",
      "alert": "OK",
      "vis_m": 9999,
      "fzfg": false,
      "metar_trigger": false,
      "taf_trigger": false,
      "metar": "METAR LIPZ 301550Z 12011KT CAVOK 12/07 Q1010 NOSIG",
      "taf": "TAF LIPZ 301100Z 3012/3118 12010KT 9999 SCT040"
    },
    {
      "icao": "LIRF",
      "alert": "OK",
      "vis_m": 9999,
      "fzfg": false,
      "metar_trigger": false,
      "taf_trigger": false,
      "metar": "METAR LIRF 301550Z 25006KT CAVOK 13/06 Q1009 NOSIG",
      "taf": "TAF LIRF 301100Z 3012/3118 26010KT 9999 FEW040"
    },
    {
      "icao": "LIRN",
      "alert": "OK",
      "vis_m": 9999,
      "fzfg": false,
      "metar_trigger": false,
      "taf_trigger": false,
      "metar": "METAR LIRN 301550Z 25009KT 220V280 9999 SCT050 14/07 Q1010 NOSIG",
      "taf": "TAF LIRN 301100Z 3012/3112 24010KT 9999 SCT050"
    },
    {
      "icao": "LIRP",
      "alert": "OK",
      "vis_m": 9999,
      "fzfg": false,
      "metar_trigger": false,
      "taf_trigger": false,
      "metar": "METAR LIRP 301545Z 27012KT CAVOK 16/04 Q1009 NOSIG",
      "taf": "TAF LIRP 301100Z 3012/3112 27010KT 9999 BKN080"
    },
    {
      "icao": "LIRZ",
      "alert": "OK",
      "vis_m": 9999,
      "fzfg": false,
      "metar_trigger": false,
      "taf_trigger": false,
      "metar": "METAR LIRZ 301550Z AUTO 26006KT 9999 FEW067/// 15/02 Q1008",
      "taf": "TAF LIRZ 301100Z 3012/3112 VRB05KT 9999 SCT040"
    },
    {
      "icao": "LJLJ",
      "alert": "OK",
      "vis_m": 9999,
      "fzfg": false,
      "metar_trigger": false,
      "taf_trigger": false,
      "metar": "METAR LJLJ 301600Z 13005KT 9999 FEW033 BKN130 09/02 Q1010 NOSIG",
      "taf": "TAF LJLJ 301100Z 3012/3112 VRB02KT 9999 BKN045"
    },
    {
      "icao": "LKMT",
      "alert": "OK",
      "vis_m": 9999,
      "fzfg": false,
      "metar_trigger": false,
      "taf_trigger": false,
      "metar": "METAR LKMT 301600Z 28007KT CAVOK 09/M00 Q1010 NOSIG",
      "taf": "TAF LKMT 301100Z 3012/3112 23009KT 9999 SCT040"
    },
    {
      "icao": "LKPR",
      "alert": "OK",
      "vis_m": 9999,
      "fzfg": false,
      "metar_trigger": false,
      "taf_trigger": false,
      "metar": "METAR LKPR 301600Z 31012KT 9999 SCT020 05/00 Q1011 NOSIG",
      "taf": "TAF LKPR 301400Z 3015/3121 30012KT 9999 BKN030"
    },
    {
      "icao": "LLBG",
      "alert": "OK",
      "vis_m": 9999,
      "fzfg": false,
      "metar_trigger": false,
      "taf_trigger": false,
      "metar": "METAR LLBG 301550Z 27011KT 9999 FEW027 SCT045 17/10 Q1011 NOSIG",
      "taf": "TAF LLBG 301102Z 3012/3112 26014KT 9999 SCT035 TX19/3012Z TN12/3103Z"
    },
    {
      "icao": "LMML",
      "alert": "OK",
      "vis_m": 9999,
      "fzfg": false,
      "metar_trigger": false,
      "taf_trigger": false,
      "metar": "METAR LMML 301545Z 27007KT 250V310 9999 FEW029 17/09 Q1013 NOSIG",
      "taf": "TAF LMML 301100Z 3012/3112 25007KT 9999 FEW025"
    },
    {
      "icao": "LOWW",
      "alert": "OK",
      "vis_m": 9999,
      "fzfg": false,
      "metar_trigger": false,
      "taf_trigger": false,
      "metar": "METAR LOWW 301550Z 30012KT 9999 FEW034 SCT038 BKN042 08/01 Q1011 NOSIG",
      "taf": "TAF LOWW 301415Z 3015/3121 31015KT CAVOK TX08/3015Z TN04/3106Z"
    },
    {
      "icao": "LPFR",
      "alert": "OK",
      "vis_m": 9999,
      "fzfg": false,
      "metar_trigger": false,
      "taf_trigger": false,
      "metar": "METAR LPFR 301600Z 11012KT CAVOK 17/03 Q1025",
      "taf": "TAF LPFR 301100Z 3012/3112 12012KT CAVOK"
    },
    {
      "icao": "LPMA",
      "alert": "OK",
      "vis_m": 9999,
      "fzfg": false,
      "metar_trigger": false,
      "taf_trigger": false,
      "metar": "METAR LPMA 301600Z 01020G30KT 340V050 9999 SCT015 18/11 Q1024",
      "taf": ""
    },
    {
      "icao": "LPPR",
      "alert": "OK",
      "vis_m": 9999,
      "fzfg": false,
      "metar_trigger": false,
      "taf_trigger": false,
      "metar": "METAR LPPR 301600Z 32011KT CAVOK 18/09 Q1029",
      "taf": "TAF LPPR 301100Z 3012/3112 32008KT CAVOK"
    },
    {
      "icao": "LPPS",
      "alert": "OK",
      "vis_m": 9999,
      "fzfg": false,
      "metar_trigger": false,
      "taf_trigger": false,
      "metar": "METAR LPPS 301600Z 06017G28KT 030V090 9999 FEW015 18/11 Q1024",
      "taf": "TAF LPPS 301100Z 3012/3118 05018KT 9999 SCT015"
    },
    {
      "icao": "LPPT",
      "alert": "OK",
      "vis_m": 9999,
      "fzfg": false,
      "metar_trigger": false,
      "taf_trigger": false,
      "metar": "METAR LPPT 301600Z 07009KT CAVOK 21/01 Q1027",
      "taf": "TAF LPPT 301100Z 3012/3118 05013KT CAVOK"
    },
    {
      "icao": "LQBK",
      "alert": "OK",
      "vis_m": 9999,
      "fzfg": false,
      "metar_trigger": false,
      "taf_trigger": false,
      "metar": "METAR LQBK 301600Z VRB02KT 9999 RA BKN015 OVC020 05/01 Q1013 NOSIG",
      "taf": "TAF LQBK 301100Z 3012/3112 20005KT 8000 -RA SCT015 OVC030 TX06/3112Z TN04/3104Z"
    },
    {
      "icao": "LQSA",
      "alert": "OK",
      "vis_m": 9999,
      "fzfg": false,
      "metar_trigger": false,
      "taf_trigger": false,
      "metar": "METAR LQSA 301600Z 31005KT 280V340 9999 FEW023 BKN040 06/01 Q1010 NOSIG",
      "taf": "TAF LQSA 301100Z 3012/3112 32005KT 9999 SCT020 BKN040 TX05/3013Z TN00/3105Z"
    },
    {
      "icao": "LQTZ",
      "alert": "OK",
      "vis_m": 9999,
      "fzfg": false,
      "metar_trigger": false,
      "taf_trigger": false,
      "metar": "METAR LQTZ 301600Z 31004KT 9999 FEW007 BKN010 OVC017 04/03 Q1013",
      "taf": "TAF LQTZ 301100Z 3012/3112 28005KT 9999 -RA SCT012 BKN025 TX06/3112Z TN00/3105Z"
    },
    {
      "icao": "LRBC",
      "alert": "OK",
      "vis_m": 9999,
      "fzfg": false,
      "metar_trigger": false,
      "taf_trigger": false,
      "metar": "METAR LRBC 301600Z 35010KT 9999 -RA BKN025 OVC040 11/07 Q1005",
      "taf": "TAF LRBC 301400Z 3015/3024 34016KT 9999 BKN025 BKN060"
    },
    {
      "icao": "LRBS",
      "alert": "OK",
      "vis_m": 6000,
      "fzfg": false,
      "metar_trigger": false,
      "taf_trigger": false,
      "metar": "METAR LRBS 301600Z 25004KT 6000 -RA SCT024 BKN030 OVC048 11/11 Q1005 TEMPO 3000 RA BKN015 OVC035",
      "taf": ""
    },
    {
      "icao": "LRBV",
      "alert": "OK",
      "vis_m": 9999,
      "fzfg": false,
      "metar_trigger": false,
      "taf_trigger": false,
      "metar": "METAR LRBV 301600Z 27004KT 9999 -RA FEW014 SCT039 BKN052 09/07 Q1005",
      "taf": "TAF LRBV 301400Z 3015/3024 30010KT 9999 BKN015 OVC030"
    },
    {
      "icao": "LRCL",
      "alert": "OK",
      "vis_m": 9999,
      "fzfg": false,
      "metar_trigger": false,
      "taf_trigger": false,
      "metar": "METAR LRCL 301600Z 30005KT 260V340 CAVOK 12/06 Q1005",
      "taf": "TAF LRCL 301400Z 3015/3024 29008KT 9999 SCT040"
    },
    {
      "icao": "LRCV",
      "alert": "OK",
      "vis_m": 9999,
      "fzfg": false,
      "metar_trigger": false,
      "taf_trigger": false,
      "metar": "METAR LRCV 301600Z 25013KT 9999 SCT048 10/06 Q1006",
      "taf": "TAF LRCV 301400Z 3015/3024 25014KT 9999 SCT015 BKN045"
    },
    {
      "icao": "LRIA",
      "alert": "OK",
      "vis_m": 7000,
      "fzfg": false,
      "metar_trigger": false,
      "taf_trigger": false,
      "metar": "METAR LRIA 301600Z 29010KT 7000 -RA OVC047 10/09 Q1004",
      "taf": "TAF LRIA 301400Z 3015/3024 33010KT 9999 BKN020 BKN045"
    },
    {
      "icao": "LROP",
      "alert": "OK",
      "vis_m": 8000,
      "fzfg": false,
      "metar_trigger": false,
      "taf_trigger": false,
      "metar": "METAR LROP 301600Z 25007KT 8000 RA OVC043 11/11 Q1005 TEMPO 5000 RA BKN015 OVC035",
      "taf": ""
    },
    {
      "icao": "LRSB",
      "alert": "OK",
      "vis_m": 9999,
      "fzfg": false,
      "metar_trigger": false,
      "taf_trigger": false,
      "metar": "METAR LRSB 301600Z 32008KT 9999 FEW015 OVC050 10/07 Q1005",
      "taf": "TAF LRSB 301100Z 3012/3112 30010KT 9999 SCT010 OVC025"
    },
    {
      "icao": "LRSM",
      "alert": "OK",
      "vis_m": 9999,
      "fzfg": false,
      "metar_trigger": false,
      "taf_trigger": false,
      "metar": "METAR LRSM 301600Z 28008KT 9999 -RA SCT043 11/06 Q1006",
      "taf": "TAF LRSM 301400Z 3015/3024 29008KT 9999 SCT035"
    },
    {
      "icao": "LRSV",
      "alert": "OK",
      "vis_m": 9999,
      "fzfg": false,
      "metar_trigger": false,
      "taf_trigger": false,
      "metar": "METAR LRSV 301600Z 31011KT 9999 BKN035 09/05 Q1004",
      "taf": "TAF LRSV 301400Z 3015/3024 32014KT 9999 SCT020 BKN035"
    },
    {
      "icao": "LRTM",
      "alert": "OK",
      "vis_m": 9999,
      "fzfg": false,
      "metar_trigger": false,
      "taf_trigger": false,
      "metar": "METAR LRTM 301600Z 22008KT 9999 FEW020 SCT026 FEW045CB 12/08 Q1005",
      "taf": "TAF LRTM 301400Z 3015/3024 22010KT 9999 SCT015 BKN045"
    },
    {
      "icao": "LRTR",
      "alert": "OK",
      "vis_m": 2000,
      "fzfg": false,
      "metar_trigger": false,
      "taf_trigger": false,
      "metar": "METAR LRTR 301600Z 27009KT 2000 -RADZ BR FEW002 BKN004 OVC011 07/07 Q1009",
      "taf": "TAF LRTR 301100Z 3012/3112 27007KT 5000 -RADZ BR BKN005 OVC010"
    },
    {
      "icao": "LTAC",
      "alert": "OK",
      "vis_m": 9999,
      "fzfg": false,
      "metar_trigger": false,
      "taf_trigger": false,
      "metar": "METAR LTAC 301550Z 24008KT 9999 SCT025 BKN100 07/03 Q1005 NOSIG RMK RWY21C 23009KT RWY03L 24007KT RWY21R 23009KT RWY03R 23009KT RWY21L 23010KT",
      "taf": "TAF LTAC 301040Z 3012/3112 24012KT 9999 SCT040 BKN100"
    },
    {
      "icao": "LTFM",
      "alert": "OK",
      "vis_m": 9999,
      "fzfg": false,
      "metar_trigger": false,
      "taf_trigger": false,
      "metar": "METAR LTFM 301550Z 21008KT 9999 SCT016 BKN028 10/09 Q1007 RERA NOSIG RMK RWY17L 20008KT 140V210 RWY34L 22006KT RWY16R 22007KT RWY36 22008KT RWY18 22010KT",
      "taf": "TAF LTFM 301040Z 3012/3118 31015G25KT 9999 -RA BKN007 BKN018"
    },
    {
      "icao": "LUKK",
      "alert": "OK",
      "vis_m": 9999,
      "fzfg": false,
      "metar_trigger": false,
      "taf_trigger": false,
      "metar": "METAR LUKK 301600Z 33006KT 9999 SCT035 OVC047 13/07 Q1002 NOSIG",
      "taf": "TAF LUKK 301102Z 3012/3112 34012KT 9999 SCT040"
    },
    {
      "icao": "LWOH",
      "alert": "OK",
      "vis_m": 9999,
      "fzfg": false,
      "metar_trigger": false,
      "taf_trigger": false,
      "metar": "METAR LWOH 301550Z 21009KT 170V240 9999 FEW040 SCT090 13/03 Q1007",
      "taf": "TAF LWOH 301420Z 3015/3115 14010KT 9999 FEW045 SCT090"
    },
    {
      "icao": "LWSK",
      "alert": "OK",
      "vis_m": 9999,
      "fzfg": false,
      "metar_trigger": false,
      "taf_trigger": false,
      "metar": "METAR LWSK 301550Z 02015KT 9999 FEW070 10/04 Q1008 NOSIG",
      "taf": "TAF LWSK 301420Z 3015/3115 02012KT 9999 BKN075"
    },
    {
      "icao": "LYBE",
      "alert": "OK",
      "vis_m": 9999,
      "fzfg": false,
      "metar_trigger": false,
      "taf_trigger": false,
      "metar": "METAR LYBE 301600Z 28015KT 9999 -RA BKN015 05/04 Q1012 NOSIG",
      "taf": "TAF LYBE 301100Z 3012/3112 28014KT 8000 BKN008 BKN027 TX09/3112Z TN03/3105Z"
    },
    {
      "icao": "LYNI",
      "alert": "OK",
      "vis_m": 9999,
      "fzfg": false,
      "metar_trigger": false,
      "taf_trigger": false,
      "metar": "METAR LYNI 301600Z 34008KT 9999 SCT015 OVC027 06/05 Q1011 NOSIG",
      "taf": "TAF LYNI 301100Z 3012/3112 32011KT 9999 SCT012 BKN020 TX10/3112Z TN04/3106Z"
    },
    {
      "icao": "LYPG",
      "alert": "OK",
      "vis_m": 9999,
      "fzfg": false,
      "metar_trigger": false,
      "taf_trigger": false,
      "metar": "METAR LYPG 301600Z 21008KT 9999 FEW050 16/03 Q1007 NOSIG",
      "taf": "TAF LYPG 301100Z 3012/3112 16007KT 9999 FEW050 TX18/3013Z TN07/3102Z"
    },
    {
      "icao": "LZIB",
      "alert": "OK",
      "vis_m": 9999,
      "fzfg": false,
      "metar_trigger": false,
      "taf_trigger": false,
      "metar": "METAR LZIB 301600Z 30007KT 9999 FEW047 08/01 Q1011 NOSIG",
      "taf": "TAF LZIB 301115Z 3012/3112 30007KT 9999 SCT040"
    },
    {
      "icao": "LZKZ",
      "alert": "OK",
      "vis_m": 9999,
      "fzfg": false,
      "metar_trigger": false,
      "taf_trigger": false,
      "metar": "METAR LZKZ 301600Z 36012KT 9999 -RA SCT049 06/04 Q1008 NOSIG",
      "taf": ""
    },
    {
      "icao": "LZTT",
      "alert": "OK",
      "vis_m": 7000,
      "fzfg": false,
      "metar_trigger": false,
      "taf_trigger": false,
      "metar": "METAR LZTT 301600Z VRB02KT 7000 -SN SCT003 OVC011 01/01 Q1009 TEMPO 1400 SN BR",
      "taf": "TAF LZTT 301115Z 3012/3112 VRB02KT 7000 BKN016"
    },
    {
      "icao": "OEJN",
      "alert": "OK",
      "vis_m": 9999,
      "fzfg": false,
      "metar_trigger": false,
      "taf_trigger": false,
      "metar": "METAR OEJN 301600Z 32011KT CAVOK 29/15 Q1008 NOSIG",
      "taf": "TAF OEJN 301100Z 3012/3118 28012KT CAVOK"
    },
    {
      "icao": "OEMA",
      "alert": "OK",
      "vis_m": 9999,
      "fzfg": false,
      "metar_trigger": false,
      "taf_trigger": false,
      "metar": "METAR OEMA 301600Z 25008KT 9999 FEW040 SCT100 30/03 Q1011 NOSIG",
      "taf": "TAF OEMA 301100Z 3012/3118 29013KT 9999 SCT040"
    },
    {
      "icao": "OJAI",
      "alert": "OK",
      "vis_m": 5000,
      "fzfg": false,
      "metar_trigger": false,
      "taf_trigger": false,
      "metar": "METAR OJAI 301600Z 28011KT 5000 HZ BKN030 12/08 Q1012 NOSIG",
      "taf": "TAF OJAI 301100Z 3012/3118 25010KT 5000 HZ FEW030"
    },
    {
      "icao": "OMAA",
      "alert": "OK",
      "vis_m": null,
      "fzfg": false,
      "metar_trigger": false,
      "taf_trigger": false,
      "metar": "",
      "taf": ""
    },
    {
      "icao": "OMDB",
      "alert": "OK",
      "vis_m": null,
      "fzfg": false,
      "metar_trigger": false,
      "taf_trigger": false,
      "metar": "",
      "taf": ""
    },
    {
      "icao": "UAAA",
      "alert": "OK",
      "vis_m": 9999,
      "fzfg": false,
      "metar_trigger": false,
      "taf_trigger": false,
      "metar": "METAR UAAA 301600Z 22003MPS 9999 SCT200 15/M01 Q1007 NOSIG",
      "taf": "TAF UAAA 301104Z 3012/3112 20003MPS 9999 FEW100 TX23/3110Z TN04/3101Z"
    },
    {
      "icao": "UBBB",
      "alert": "OK",
      "vis_m": 1500,
      "fzfg": false,
      "metar_trigger": false,
      "taf_trigger": false,
      "metar": "METAR UBBB 301600Z 32006KT 1500 R35/P2000 BR BKN001 11/10 Q0999 NOSIG",
      "taf": ""
    },
    {
      "icao": "UDSG",
      "alert": "OK",
      "vis_m": 9999,
      "fzfg": false,
      "metar_trigger": false,
      "taf_trigger": false,
      "metar": "METAR UDSG 301600Z 29006KT 9999 SCT036CB OVC043 04/00 Q1004 NOSIG",
      "taf": "TAF UDSG 301100Z 3012/3112 22006KT 9999 SCT040"
    },
    {
      "icao": "UDYZ",
      "alert": "OK",
      "vis_m": 9999,
      "fzfg": false,
      "metar_trigger": false,
      "taf_trigger": false,
      "metar": "METAR UDYZ 301600Z 25007KT 9999 SCT043CB 10/02 Q1002 NOSIG",
      "taf": "TAF UDYZ 301100Z 3012/3112 24006KT 9999 SCT040"
    },
    {
      "icao": "UGKO",
      "alert": "OK",
      "vis_m": 9999,
      "fzfg": false,
      "metar_trigger": false,
      "taf_trigger": false,
      "metar": "METAR UGKO 301600Z 25007KT 9999 -RA SCT028 OVC045 10/09 Q1004 NOSIG",
      "taf": "TAF UGKO 301100Z 3012/3112 26010KT 9999 SCT023 BKN050 TX17/3111Z TN07/3103Z"
    }
  ]
}