{
  "ts_utc": "2026-05-30T12:51:30Z",
  "threshold_m": 150,
  "source": "stations_override.txt (ICAO list) + aviationweather.gov (METAR/TAF raw)",
  "station_count": 159,
  "stations": [
    {
      "icao": "BIKF",
      "alert": "OK",
      "vis_m": 9999,
      "fzfg": false,
      "metar_trigger": false,
      "taf_trigger": false,
      "metar": "METAR BIKF 301230Z 03010KT 9999 -RA BKN048 OVC070 08/04 Q1008",
      "taf": "TAF BIKF 301100Z 3012/3112 04008KT 9999 FEW018 BKN040 TX12/3112Z TN07/3012Z"
    },
    {
      "icao": "BKPR",
      "alert": "OK",
      "vis_m": 9999,
      "fzfg": false,
      "metar_trigger": false,
      "taf_trigger": false,
      "metar": "METAR BKPR 301230Z 27007KT 220V300 CAVOK 24/06 Q1018 NOSIG",
      "taf": "TAF BKPR 301130Z 3012/3112 33008KT CAVOK"
    },
    {
      "icao": "EBCI",
      "alert": "OK",
      "vis_m": 9999,
      "fzfg": false,
      "metar_trigger": false,
      "taf_trigger": false,
      "metar": "METAR EBCI 301220Z 16010KT 120V180 9999 FEW040 27/16 Q1020 NOSIG",
      "taf": "TAF EBCI 301115Z 3012/3118 VRB04KT 9999 FEW040CB"
    },
    {
      "icao": "EDDB",
      "alert": "OK",
      "vis_m": 9999,
      "fzfg": false,
      "metar_trigger": false,
      "taf_trigger": false,
      "metar": "METAR EDDB 301220Z AUTO 31013KT 270V350 9999 BKN045 22/11 Q1018 NOSIG",
      "taf": "TAF EDDB 301100Z 3012/3112 30012KT CAVOK"
    },
    {
      "icao": "EDDH",
      "alert": "OK",
      "vis_m": 9999,
      "fzfg": false,
      "metar_trigger": false,
      "taf_trigger": false,
      "metar": "METAR EDDH 301220Z AUTO 29016KT 260V320 9999 SCT039 21/12 Q1019 NOSIG",
      "taf": "TAF EDDH 301100Z 3012/3118 29012KT 9999 SCT020 BKN030"
    },
    {
      "icao": "EDDK",
      "alert": "OK",
      "vis_m": 9999,
      "fzfg": false,
      "metar_trigger": false,
      "taf_trigger": false,
      "metar": "METAR EDDK 301220Z AUTO 22009KT 190V260 CAVOK 25/16 Q1020 NOSIG",
      "taf": ""
    },
    {
      "icao": "EDDN",
      "alert": "OK",
      "vis_m": 9999,
      "fzfg": false,
      "metar_trigger": false,
      "taf_trigger": false,
      "metar": "METAR EDDN 301220Z AUTO 30016KT CAVOK 28/13 Q1019 TEMPO 30015G25KT",
      "taf": ""
    },
    {
      "icao": "EDDS",
      "alert": "OK",
      "vis_m": 9999,
      "fzfg": false,
      "metar_trigger": false,
      "taf_trigger": false,
      "metar": "METAR EDDS 301220Z AUTO 02006KT 330V060 CAVOK 29/12 Q1020 NOSIG",
      "taf": "TAF EDDS 301100Z 3012/3112 34005KT CAVOK"
    },
    {
      "icao": "EDFH",
      "alert": "OK",
      "vis_m": 9999,
      "fzfg": false,
      "metar_trigger": false,
      "taf_trigger": false,
      "metar": "METAR EDFH 301220Z 27006KT 240V310 CAVOK 18/15 Q1022",
      "taf": "TAF EDFH 301100Z 3012/3112 30005KT 9999 SCT045"
    },
    {
      "icao": "EDJA",
      "alert": "OK",
      "vis_m": 9999,
      "fzfg": false,
      "metar_trigger": false,
      "taf_trigger": false,
      "metar": "METAR EDJA 301220Z VRB03KT CAVOK 28/08 Q1021",
      "taf": "TAF EDJA 301100Z 3012/3021 32006KT CAVOK"
    },
    {
      "icao": "EDLW",
      "alert": "OK",
      "vis_m": 9999,
      "fzfg": false,
      "metar_trigger": false,
      "taf_trigger": false,
      "metar": "METAR EDLW 301220Z COR VRB03KT CAVOK 23/11 Q1020",
      "taf": "TAF EDLW 301100Z 3012/3112 VRB02KT CAVOK"
    },
    {
      "icao": "EDNY",
      "alert": "OK",
      "vis_m": 9999,
      "fzfg": false,
      "metar_trigger": false,
      "taf_trigger": false,
      "metar": "METAR EDNY 301220Z COR 20006KT CAVOK 27/11 Q1020",
      "taf": "TAF EDNY 301100Z 3012/3021 24005KT CAVOK"
    },
    {
      "icao": "EDSB",
      "alert": "OK",
      "vis_m": 9999,
      "fzfg": false,
      "metar_trigger": false,
      "taf_trigger": false,
      "metar": "METAR EDSB 301220Z VRB04KT CAVOK 29/12 Q1020",
      "taf": "TAF EDSB 301100Z 3012/3112 34005KT CAVOK"
    },
    {
      "icao": "EETN",
      "alert": "OK",
      "vis_m": 9999,
      "fzfg": false,
      "metar_trigger": false,
      "taf_trigger": false,
      "metar": "METAR EETN 301220Z 32008KT CAVOK 17/02 Q1010 NOSIG",
      "taf": "TAF EETN 301130Z 3012/3112 31010KT CAVOK"
    },
    {
      "icao": "EFTU",
      "alert": "OK",
      "vis_m": 9999,
      "fzfg": false,
      "metar_trigger": false,
      "taf_trigger": false,
      "metar": "METAR EFTU 301220Z AUTO 32007KT 270V030 CAVOK 21/01 Q1010",
      "taf": "TAF EFTU 301125Z 3012/3112 30007KT CAVOK"
    },
    {
      "icao": "EGBB",
      "alert": "OK",
      "vis_m": 9999,
      "fzfg": false,
      "metar_trigger": false,
      "taf_trigger": false,
      "metar": "METAR EGBB 301220Z VRB04KT CAVOK 22/08 Q1020",
      "taf": "TAF EGBB 301055Z 3012/3112 20006KT CAVOK"
    },
    {
      "icao": "EGGP",
      "alert": "OK",
      "vis_m": 9999,
      "fzfg": false,
      "metar_trigger": false,
      "taf_trigger": false,
      "metar": "METAR EGGP 301220Z VRB05KT CAVOK 21/08 Q1019",
      "taf": "TAF EGGP 301055Z 3012/3112 VRB03KT CAVOK"
    },
    {
      "icao": "EGGW",
      "alert": "OK",
      "vis_m": 9999,
      "fzfg": false,
      "metar_trigger": false,
      "taf_trigger": false,
      "metar": "METAR EGGW 301220Z AUTO 22005KT 160V270 9999 NCD 26/10 Q1019",
      "taf": "TAF EGGW 301059Z 3012/3112 15006KT CAVOK"
    },
    {
      "icao": "EGKK",
      "alert": "OK",
      "vis_m": 9999,
      "fzfg": false,
      "metar_trigger": false,
      "taf_trigger": false,
      "metar": "METAR EGKK 301220Z 27004KT 160V340 CAVOK 27/11 Q1018",
      "taf": "TAF EGKK 301055Z 3012/3118 25007KT CAVOK"
    },
    {
      "icao": "EGNM",
      "alert": "OK",
      "vis_m": 9999,
      "fzfg": false,
      "metar_trigger": false,
      "taf_trigger": false,
      "metar": "METAR EGNM 301220Z 16006KT 090V220 9999 FEW045 21/09 Q1019",
      "taf": "TAF EGNM 301056Z 3012/3112 23006KT CAVOK"
    },
    {
      "icao": "EGPD",
      "alert": "OK",
      "vis_m": 9999,
      "fzfg": false,
      "metar_trigger": false,
      "taf_trigger": false,
      "metar": "METAR EGPD 301220Z COR AUTO 15011KT 9999 NCD 20/08 Q1017 NOSIG",
      "taf": "TAF EGPD 301055Z 3012/3112 14010KT 9999 FEW035"
    },
    {
      "icao": "EGPF",
      "alert": "OK",
      "vis_m": 9999,
      "fzfg": false,
      "metar_trigger": false,
      "taf_trigger": false,
      "metar": "METAR EGPF 301220Z AUTO 26004KT 200V300 9999 -RA BKN030 18/12 Q1018",
      "taf": "TAF EGPF 301052Z 3012/3112 20006KT 9999 BKN040"
    },
    {
      "icao": "EHBK",
      "alert": "OK",
      "vis_m": 9999,
      "fzfg": false,
      "metar_trigger": false,
      "taf_trigger": false,
      "metar": "METAR EHBK 301225Z AUTO VRB03KT 9999 NSC 23/17 Q1020 NOSIG",
      "taf": "TAF EHBK 301114Z 3012/3118 05005KT 9999 FEW025"
    },
    {
      "icao": "EHEH",
      "alert": "OK",
      "vis_m": 9999,
      "fzfg": false,
      "metar_trigger": false,
      "taf_trigger": false,
      "metar": "METAR EHEH 301225Z AUTO 04003KT 330V110 9999 FEW400 26/10 Q1019 BLU NOSIG RMK TREND REMOTE BY EHWX",
      "taf": "TAF EHEH 301114Z 3012/3118 VRB03KT CAVOK"
    },
    {
      "icao": "EKBI",
      "alert": "OK",
      "vis_m": 9999,
      "fzfg": false,
      "metar_trigger": false,
      "taf_trigger": false,
      "metar": "METAR EKBI 301220Z AUTO 29016KT 9999 OVC027/// 17/11 Q1017",
      "taf": "TAF EKBI 301127Z 3012/3112 29015KT 9999 BKN030"
    },
    {
      "icao": "EKCH",
      "alert": "OK",
      "vis_m": 9999,
      "fzfg": false,
      "metar_trigger": false,
      "taf_trigger": false,
      "metar": "METAR EKCH 301220Z AUTO 28014KT 9999 OVC039/// 19/10 Q1015 NOSIG",
      "taf": "TAF EKCH 301127Z 3012/3112 30012KT 9999 BKN040"
    },
    {
      "icao": "ENAL",
      "alert": "OK",
      "vis_m": 9999,
      "fzfg": false,
      "metar_trigger": false,
      "taf_trigger": false,
      "metar": "METAR ENAL 301220Z 31007KT 280V350 9999 SCT004 BKN011 12/10 Q1014",
      "taf": ""
    },
    {
      "icao": "ENBR",
      "alert": "OK",
      "vis_m": 9999,
      "fzfg": false,
      "metar_trigger": false,
      "taf_trigger": false,
      "metar": "METAR ENBR 301220Z 23004KT 190V260 9999 FEW003 BKN006 12/10 Q1015 TEMPO BKN004 RMK WIND 1200FT 27008KT",
      "taf": ""
    },
    {
      "icao": "ENGM",
      "alert": "OK",
      "vis_m": 9999,
      "fzfg": false,
      "metar_trigger": false,
      "taf_trigger": false,
      "metar": "METAR ENGM 301220Z VRB05KT 9999 FEW041 20/09 Q1010 BECMG 34010KT",
      "taf": "TAF ENGM 301100Z 3012/3112 17005KT 9999 SCT030"
    },
    {
      "icao": "ENHD",
      "alert": "OK",
      "vis_m": 9999,
      "fzfg": false,
      "metar_trigger": false,
      "taf_trigger": false,
      "metar": "METAR ENHD 301220Z 29008KT 9999 SCT001 BKN003 12/11 Q1016",
      "taf": "TAF ENHD 301100Z 3012/3021 28008KT 0500 FG VV001"
    },
    {
      "icao": "ENTC",
      "alert": "OK",
      "vis_m": 9999,
      "fzfg": false,
      "metar_trigger": false,
      "taf_trigger": false,
      "metar": "METAR ENTC 301220Z 28013KT 9999 SCT052 08/01 Q1018 NOSIG RMK WIND 2600FT 27010KT",
      "taf": "TAF ENTC 301100Z 3012/3112 26009KT 9999 SCT040"
    },
    {
      "icao": "ENTO",
      "alert": "OK",
      "vis_m": 9999,
      "fzfg": false,
      "metar_trigger": false,
      "taf_trigger": false,
      "metar": "METAR ENTO 301220Z 16007KT CAVOK 19/11 Q1010 NOSIG",
      "taf": ""
    },
    {
      "icao": "ENVA",
      "alert": "OK",
      "vis_m": 9999,
      "fzfg": false,
      "metar_trigger": false,
      "taf_trigger": false,
      "metar": "METAR ENVA 301220Z 23004KT 9999 FEW008 SCT019 BKN024 13/11 Q1014 NOSIG RMK WIND 670FT 30007KT",
      "taf": "TAF ENVA 301100Z 3012/3112 27008KT 9999 SCT010 BKN020"
    },
    {
      "icao": "ENZV",
      "alert": "OK",
      "vis_m": 6000,
      "fzfg": false,
      "metar_trigger": false,
      "taf_trigger": false,
      "metar": "METAR ENZV 301220Z 30009KT 6000 VV003 12/11 Q1016 TEMPO 4000 BR",
      "taf": "TAF ENZV 301100Z 3012/3112 30008KT 6000 BKN004"
    },
    {
      "icao": "EPGD",
      "alert": "OK",
      "vis_m": 9999,
      "fzfg": false,
      "metar_trigger": false,
      "taf_trigger": false,
      "metar": "METAR EPGD 301230Z 30022KT 9999 FEW032 19/09 Q1013",
      "taf": "TAF EPGD 301130Z 3012/3112 31015KT 9999 FEW025"
    },
    {
      "icao": "EPKK",
      "alert": "OK",
      "vis_m": 9999,
      "fzfg": false,
      "metar_trigger": false,
      "taf_trigger": false,
      "metar": "METAR EPKK 301230Z 26013KT 9999 BKN012 17/14 Q1015",
      "taf": "TAF EPKK 301130Z 3012/3112 27010KT 9999 BKN040"
    },
    {
      "icao": "EPKT",
      "alert": "OK",
      "vis_m": 9999,
      "fzfg": false,
      "metar_trigger": false,
      "taf_trigger": false,
      "metar": "METAR EPKT 301230Z 27008KT 9999 FEW011 BKN014 18/14 Q1015",
      "taf": "TAF EPKT 301130Z 3012/3112 27010KT 9999 BKN030"
    },
    {
      "icao": "EPLB",
      "alert": "OK",
      "vis_m": 9999,
      "fzfg": false,
      "metar_trigger": false,
      "taf_trigger": false,
      "metar": "METAR EPLB 301230Z 29011KT CAVOK 24/08 Q1010",
      "taf": "TAF EPLB 301130Z 3012/3112 30010KT CAVOK"
    },
    {
      "icao": "EPMO",
      "alert": "OK",
      "vis_m": 9999,
      "fzfg": false,
      "metar_trigger": false,
      "taf_trigger": false,
      "metar": "METAR EPMO 301230Z 28012KT 250V310 9999 SCT029 22/14 Q1011",
      "taf": "TAF EPMO 301130Z 3012/3112 29012KT 9999 BKN045"
    },
    {
      "icao": "EPPO",
      "alert": "OK",
      "vis_m": 9999,
      "fzfg": false,
      "metar_trigger": false,
      "taf_trigger": false,
      "metar": "METAR EPPO 301230Z 33013KT CAVOK 23/12 Q1014",
      "taf": "TAF EPPO 301130Z 3012/3112 31010KT 9999 SCT042"
    },
    {
      "icao": "EPRA",
      "alert": "OK",
      "vis_m": 9999,
      "fzfg": false,
      "metar_trigger": false,
      "taf_trigger": false,
      "metar": "METAR EPRA 301230Z 29011KT 270V330 9999 -SHRA BKN037CB 18/13 Q1012",
      "taf": "TAF EPRA 301130Z 3012/3021 29012KT 9999 SCT040"
    },
    {
      "icao": "EPRZ",
      "alert": "OK",
      "vis_m": 9999,
      "fzfg": false,
      "metar_trigger": false,
      "taf_trigger": false,
      "metar": "METAR EPRZ 301230Z 27016KT CAVOK 20/10 Q1013",
      "taf": "TAF EPRZ 301130Z 3012/3112 27015KT CAVOK"
    },
    {
      "icao": "EPSC",
      "alert": "OK",
      "vis_m": 9999,
      "fzfg": false,
      "metar_trigger": false,
      "taf_trigger": false,
      "metar": "METAR EPSC 301230Z 28009KT 9999 FEW031 BKN036 18/11 Q1016",
      "taf": "TAF EPSC 301130Z 3012/3112 30013KT 9999 SCT035"
    },
    {
      "icao": "EPSY",
      "alert": "OK",
      "vis_m": 9999,
      "fzfg": false,
      "metar_trigger": false,
      "taf_trigger": false,
      "metar": "METAR EPSY 301230Z 33006KT 270V060 CAVOK 20/09 Q1011",
      "taf": "TAF EPSY 301130Z 3012/3021 30008KT CAVOK"
    },
    {
      "icao": "EPWA",
      "alert": "OK",
      "vis_m": 9999,
      "fzfg": false,
      "metar_trigger": false,
      "taf_trigger": false,
      "metar": "METAR EPWA 301230Z 28014KT 9999 SCT040 20/13 Q1012 NOSIG",
      "taf": "TAF EPWA 301130Z 3012/3112 30012KT 9999 BKN045"
    },
    {
      "icao": "EPWR",
      "alert": "OK",
      "vis_m": 9999,
      "fzfg": false,
      "metar_trigger": false,
      "taf_trigger": false,
      "metar": "METAR EPWR 301230Z 28015KT 9999 FEW045CB 25/13 Q1014",
      "taf": ""
    },
    {
      "icao": "ESGG",
      "alert": "OK",
      "vis_m": 9999,
      "fzfg": false,
      "metar_trigger": false,
      "taf_trigger": false,
      "metar": "METAR ESGG 301220Z 26010KT 230V290 9999 SCT012 BKN019 15/11 Q1012",
      "taf": ""
    },
    {
      "icao": "ESKN",
      "alert": "OK",
      "vis_m": 9999,
      "fzfg": false,
      "metar_trigger": false,
      "taf_trigger": false,
      "metar": "METAR ESKN 301220Z 14010KT 9999 BKN049 17/08 Q1010",
      "taf": "TAF ESKN 301130Z 3012/3112 16010KT CAVOK"
    },
    {
      "icao": "ESMS",
      "alert": "OK",
      "vis_m": 9999,
      "fzfg": false,
      "metar_trigger": false,
      "taf_trigger": false,
      "metar": "METAR ESMS 301220Z 29017KT 9999 SCT028 BKN046 20/13 Q1014",
      "taf": "TAF ESMS 301127Z 3012/3112 29012KT 9999 BKN040"
    },
    {
      "icao": "ESSA",
      "alert": "OK",
      "vis_m": 9999,
      "fzfg": false,
      "metar_trigger": false,
      "taf_trigger": false,
      "metar": "METAR ESSA 301220Z 20011KT 170V230 CAVOK 20/04 Q1010 NOSIG",
      "taf": "TAF ESSA 301130Z 3012/3112 20010KT CAVOK"
    },
    {
      "icao": "EYKA",
      "alert": "OK",
      "vis_m": 9999,
      "fzfg": false,
      "metar_trigger": false,
      "taf_trigger": false,
      "metar": "METAR EYKA 301220Z VRB05KT CAVOK 18/06 Q1011",
      "taf": "TAF EYKA 301100Z 3012/3112 VRB03KT 9000 NSC"
    },
    {
      "icao": "EYPA",
      "alert": "OK",
      "vis_m": 9999,
      "fzfg": false,
      "metar_trigger": false,
      "taf_trigger": false,
      "metar": "METAR EYPA 301220Z VRB03KT CAVOK 16/03 Q1012",
      "taf": "TAF EYPA 301100Z 3012/3112 VRB03KT 9000 NSC"
    },
    {
      "icao": "EYVI",
      "alert": "OK",
      "vis_m": 9999,
      "fzfg": false,
      "metar_trigger": false,
      "taf_trigger": false,
      "metar": "METAR EYVI 301220Z 32009KT 290V350 9999 BKN049 16/05 Q1010 NOSIG",
      "taf": "TAF EYVI 301118Z 3012/3112 33010KT 9000 NSC"
    },
    {
      "icao": "GCFV",
      "alert": "OK",
      "vis_m": 9999,
      "fzfg": false,
      "metar_trigger": false,
      "taf_trigger": false,
      "metar": "METAR GCFV 301230Z 04017KT 9999 SCT032 24/16 Q1021",
      "taf": "TAF GCFV 300800Z 3009/3109 03016KT 9999 FEW025 TX24/3014Z TN18/3106Z"
    },
    {
      "icao": "GCLP",
      "alert": "OK",
      "vis_m": 9999,
      "fzfg": false,
      "metar_trigger": false,
      "taf_trigger": false,
      "metar": "METAR GCLP 301230Z 02026KT 9999 FEW025 24/15 Q1022 NOSIG",
      "taf": "TAF GCLP 300800Z 3009/3109 02026KT 9999 SCT030 TX25/3014Z TN19/3106Z"
    },
    {
      "icao": "GCTS",
      "alert": "OK",
      "vis_m": 9999,
      "fzfg": false,
      "metar_trigger": false,
      "taf_trigger": false,
      "metar": "METAR GCTS 301230Z 09021KT 9999 FEW030 24/14 Q1022 NOSIG",
      "taf": "TAF GCTS 300800Z 3009/3109 09024KT 9999 SCT030 TX25/3014Z TN18/3106Z"
    },
    {
      "icao": "GMAD",
      "alert": "OK",
      "vis_m": 8000,
      "fzfg": false,
      "metar_trigger": false,
      "taf_trigger": false,
      "metar": "METAR GMAD 301230Z 25013KT 8000 SCT016 27/17 Q1017 NOSIG",
      "taf": "TAF GMAD 301100Z 3012/3118 27012KT CAVOK"
    },
    {
      "icao": "GMMN",
      "alert": "OK",
      "vis_m": 9999,
      "fzfg": false,
      "metar_trigger": false,
      "taf_trigger": false,
      "metar": "METAR GMMN 301230Z 33008KT 270V030 CAVOK 27/19 Q1019 NOSIG",
      "taf": "TAF GMMN 301100Z 3012/3118 36004KT CAVOK"
    },
    {
      "icao": "GMMX",
      "alert": "OK",
      "vis_m": 9999,
      "fzfg": false,
      "metar_trigger": false,
      "taf_trigger": false,
      "metar": "METAR GMMX 301230Z VRB04KT CAVOK 30/17 Q1018 NOSIG",
      "taf": "TAF GMMX 301100Z 3012/3118 24006KT 8000 NSC"
    },
    {
      "icao": "HEGN",
      "alert": "OK",
      "vis_m": 9999,
      "fzfg": false,
      "metar_trigger": false,
      "taf_trigger": false,
      "metar": "METAR HEGN 301200Z 01013KT CAVOK 32/10 Q1010 NOSIG",
      "taf": "TAF HEGN 301100Z 3012/3118 02014KT CAVOK"
    },
    {
      "icao": "HEMA",
      "alert": "OK",
      "vis_m": 9999,
      "fzfg": false,
      "metar_trigger": false,
      "taf_trigger": false,
      "metar": "METAR HEMA 301200Z 36019KT CAVOK 32/09 Q1012 NOSIG",
      "taf": "TAF HEMA 301100Z 3012/3118 36020KT CAVOK"
    },
    {
      "icao": "HESH",
      "alert": "OK",
      "vis_m": 9999,
      "fzfg": false,
      "metar_trigger": false,
      "taf_trigger": false,
      "metar": "METAR HESH 301200Z 01012KT CAVOK 34/11 Q1010 NOSIG",
      "taf": "TAF HESH 301100Z 3012/3118 03013KT CAVOK"
    },
    {
      "icao": "HESX",
      "alert": "OK",
      "vis_m": 9999,
      "fzfg": false,
      "metar_trigger": false,
      "taf_trigger": false,
      "metar": "METAR HESX 301200Z 34005KT CAVOK 31/09 Q1014 NOSIG",
      "taf": "TAF HESX 301100Z 3012/3118 31008KT CAVOK"
    },
    {
      "icao": "LATI",
      "alert": "OK",
      "vis_m": 9999,
      "fzfg": false,
      "metar_trigger": false,
      "taf_trigger": false,
      "metar": "METAR LATI 301250Z 24009KT 190V260 9999 FEW040 28/13 Q1017 NOSIG",
      "taf": "TAF LATI 301100Z 3012/3112 25012KT CAVOK TX30/3012Z TN14/3104Z"
    },
    {
      "icao": "LBPD",
      "alert": "OK",
      "vis_m": 9999,
      "fzfg": false,
      "metar_trigger": false,
      "taf_trigger": false,
      "metar": "METAR LBPD 301230Z AUTO 29017G27KT 9999 NCD 27/06 Q1013 NOSIG",
      "taf": "TAF LBPD 301100Z 3012/3112 28014KT 9999 SCT070"
    },
    {
      "icao": "LBSF",
      "alert": "OK",
      "vis_m": 9999,
      "fzfg": false,
      "metar_trigger": false,
      "taf_trigger": false,
      "metar": "METAR LBSF 301230Z 30014KT 270V340 CAVOK 24/05 Q1016 NOSIG",
      "taf": "TAF LBSF 301100Z 3012/3112 30012KT 9999 SCT070"
    },
    {
      "icao": "LBWN",
      "alert": "OK",
      "vis_m": 9999,
      "fzfg": false,
      "metar_trigger": false,
      "taf_trigger": false,
      "metar": "METAR LBWN 301230Z 27021G32KT CAVOK 24/06 Q1010 NOSIG",
      "taf": "TAF LBWN 301100Z 3012/3112 32014KT 9999 SCT045"
    },
    {
      "icao": "LCLK",
      "alert": "OK",
      "vis_m": 9999,
      "fzfg": false,
      "metar_trigger": false,
      "taf_trigger": false,
      "metar": "METAR LCLK 301230Z 18011KT 9999 FEW030 26/20 Q1012 NOSIG",
      "taf": "TAF LCLK 301130Z 3012/3112 20009KT 9999 FEW030"
    },
    {
      "icao": "LCPH",
      "alert": "OK",
      "vis_m": 9999,
      "fzfg": false,
      "metar_trigger": false,
      "taf_trigger": false,
      "metar": "METAR LCPH 301230Z 17012KT 9999 FEW030TCU 24/20 Q1012 NOSIG",
      "taf": "TAF LCPH 301130Z 3012/3112 16012KT 9999 FEW009"
    },
    {
      "icao": "LEAL",
      "alert": "OK",
      "vis_m": 9999,
      "fzfg": false,
      "metar_trigger": false,
      "taf_trigger": false,
      "metar": "METAR LEAL 301230Z 17009KT 120V210 CAVOK 31/09 Q1019 NOSIG",
      "taf": "TAF LEAL 301100Z 3012/3112 15009KT CAVOK TX31/3012Z TN19/3106Z"
    },
    {
      "icao": "LEBB",
      "alert": "OK",
      "vis_m": 9999,
      "fzfg": false,
      "metar_trigger": false,
      "taf_trigger": false,
      "metar": "METAR LEBB 301230Z 32008KT 280V350 9999 BKN019 BKN026 20/16 Q1023 NOSIG",
      "taf": "TAF LEBB 301100Z 3012/3112 32009KT 9000 BKN016 TX22/3013Z TN15/3105Z"
    },
    {
      "icao": "LEBL",
      "alert": "OK",
      "vis_m": 9000,
      "fzfg": false,
      "metar_trigger": false,
      "taf_trigger": false,
      "metar": "METAR LEBL 301230Z 11007KT 070V150 9000 FEW015 26/20 Q1020 NOSIG",
      "taf": "TAF LEBL 301100Z 3012/3112 12009KT 9999 FEW010 TX26/3012Z TN20/3105Z"
    },
    {
      "icao": "LECH",
      "alert": "OK",
      "vis_m": 9999,
      "fzfg": false,
      "metar_trigger": false,
      "taf_trigger": false,
      "metar": "METAR LECH 301230Z AUTO 11011KT 080V140 CAVOK 25/17 Q1020",
      "taf": "TAF LECH 301100Z 3012/3112 10010KT CAVOK TX32/3013Z TN16/3106Z"
    },
    {
      "icao": "LEMD",
      "alert": "OK",
      "vis_m": 9999,
      "fzfg": false,
      "metar_trigger": false,
      "taf_trigger": false,
      "metar": "METAR LEMD 301230Z 21003KT 150V310 CAVOK 34/07 Q1020 NOSIG",
      "taf": "TAF LEMD 301100Z 3012/3118 VRB04KT CAVOK TX36/3016Z TN17/3105Z"
    },
    {
      "icao": "LEMG",
      "alert": "OK",
      "vis_m": 9999,
      "fzfg": false,
      "metar_trigger": false,
      "taf_trigger": false,
      "metar": "METAR LEMG 301230Z 14010KT 110V180 CAVOK 27/11 Q1019 NOSIG",
      "taf": "TAF LEMG 301100Z 3012/3112 14011KT CAVOK TX27/3014Z TN17/3106Z"
    },
    {
      "icao": "LEVC",
      "alert": "OK",
      "vis_m": 9999,
      "fzfg": false,
      "metar_trigger": false,
      "taf_trigger": false,
      "metar": "METAR LEVC 301230Z 09011KT 060V120 CAVOK 28/16 Q1018 NOSIG",
      "taf": "TAF LEVC 301100Z 3012/3112 09012KT CAVOK TX31/3012Z TN19/3106Z"
    },
    {
      "icao": "LEXJ",
      "alert": "OK",
      "vis_m": 9999,
      "fzfg": false,
      "metar_trigger": false,
      "taf_trigger": false,
      "metar": "METAR LEXJ 301230Z 30010KT 270V010 9999 BKN021 OVC026 19/15 Q1023",
      "taf": "TAF LEXJ 300800Z 3009/3109 29009KT 9999 BKN018 TX21/3014Z TN15/3105Z"
    },
    {
      "icao": "LEZG",
      "alert": "OK",
      "vis_m": 9999,
      "fzfg": false,
      "metar_trigger": false,
      "taf_trigger": false,
      "metar": "METAR LEZG 301230Z 04004KT 330V110 CAVOK 32/09 Q1018 NOSIG",
      "taf": "TAF LEZG 301100Z 3012/3112 VRB04KT CAVOK TX36/3014Z TN17/3106Z"
    },
    {
      "icao": "LEZL",
      "alert": "OK",
      "vis_m": 9999,
      "fzfg": false,
      "metar_trigger": false,
      "taf_trigger": false,
      "metar": "METAR LEZL 301230Z 27003KT CAVOK 35/13 Q1018 NOSIG",
      "taf": "TAF LEZL 300800Z 3009/3109 VRB02KT CAVOK TX39/3015Z TN19/3106Z"
    },
    {
      "icao": "LFBD",
      "alert": "OK",
      "vis_m": 9999,
      "fzfg": false,
      "metar_trigger": false,
      "taf_trigger": false,
      "metar": "METAR LFBD 301230Z AUTO 26007KT 9999 OVC015 21/17 Q1022 NOSIG",
      "taf": ""
    },
    {
      "icao": "LFLL",
      "alert": "OK",
      "vis_m": 9999,
      "fzfg": false,
      "metar_trigger": false,
      "taf_trigger": false,
      "metar": "METAR LFLL 301230Z VRB02KT CAVOK 31/14 Q1019 NOSIG",
      "taf": "TAF LFLL 301100Z 3012/3118 VRB05KT CAVOK"
    },
    {
      "icao": "LFLS",
      "alert": "OK",
      "vis_m": 9999,
      "fzfg": false,
      "metar_trigger": false,
      "taf_trigger": false,
      "metar": "METAR LFLS 301230Z AUTO 22003KT 160V320 CAVOK 29/15 Q1020 NOSIG",
      "taf": "TAF LFLS 300800Z 3009/3109 18005KT CAVOK"
    },
    {
      "icao": "LFMN",
      "alert": "OK",
      "vis_m": 9999,
      "fzfg": false,
      "metar_trigger": false,
      "taf_trigger": false,
      "metar": "METAR LFMN 301230Z 10006KT CAVOK 26/19 Q1019 NOSIG",
      "taf": "TAF LFMN 300800Z 3009/3115 16007KT CAVOK"
    },
    {
      "icao": "LFOB",
      "alert": "OK",
      "vis_m": 9999,
      "fzfg": false,
      "metar_trigger": false,
      "taf_trigger": false,
      "metar": "METAR LFOB 301230Z AUTO 24005KT 170V310 CAVOK 31/19 Q1018 NOSIG",
      "taf": "TAF LFOB 301100Z 3012/3112 VRB03KT CAVOK"
    },
    {
      "icao": "LFPO",
      "alert": "OK",
      "vis_m": 9999,
      "fzfg": false,
      "metar_trigger": false,
      "taf_trigger": false,
      "metar": "METAR LFPO 301230Z VRB03KT CAVOK 33/14 Q1018 NOSIG",
      "taf": "TAF LFPO 301100Z 3012/3118 VRB03KT CAVOK"
    },
    {
      "icao": "LFSB",
      "alert": "OK",
      "vis_m": 9999,
      "fzfg": false,
      "metar_trigger": false,
      "taf_trigger": false,
      "metar": "METAR LFSB 301230Z AUTO 04004KT 340V120 CAVOK 31/07 Q1020 NOSIG",
      "taf": "TAF LFSB 301103Z 3012/3112 10006KT CAVOK"
    },
    {
      "icao": "LGAV",
      "alert": "OK",
      "vis_m": 9999,
      "fzfg": false,
      "metar_trigger": false,
      "taf_trigger": false,
      "metar": "METAR LGAV 301220Z 11009KT 080V160 9999 FEW025 26/06 Q1017 NOSIG",
      "taf": "TAF LGAV 301100Z 3012/3112 13008KT 9999 FEW025"
    },
    {
      "icao": "LGTS",
      "alert": "OK",
      "vis_m": 9999,
      "fzfg": false,
      "metar_trigger": false,
      "taf_trigger": false,
      "metar": "METAR LGTS 301220Z 27006KT 9999 FEW030 27/09 Q1015 NOSIG",
      "taf": "TAF LGTS 301100Z 3012/3112 VRB03KT 9999 FEW025"
    },
    {
      "icao": "LHBP",
      "alert": "OK",
      "vis_m": 9999,
      "fzfg": false,
      "metar_trigger": false,
      "taf_trigger": false,
      "metar": "METAR LHBP 301230Z 32009KT 300V360 9999 -RA NSC 24/09 Q1016 NOSIG",
      "taf": "TAF LHBP 301115Z 3012/3112 33012KT CAVOK"
    },
    {
      "icao": "LHDC",
      "alert": "OK",
      "vis_m": 9999,
      "fzfg": false,
      "metar_trigger": false,
      "taf_trigger": false,
      "metar": "METAR LHDC 301215Z AUTO 29008KT 250V340 CAVOK 23/03 Q1014 NOSIG",
      "taf": "TAF LHDC 301115Z 3012/3021 32009KT CAVOK"
    },
    {
      "icao": "LIBD",
      "alert": "OK",
      "vis_m": 9999,
      "fzfg": false,
      "metar_trigger": false,
      "taf_trigger": false,
      "metar": "METAR LIBD 301220Z 02009KT 350V050 CAVOK 24/17 Q1018",
      "taf": "TAF LIBD 301100Z 3012/3112 01012KT CAVOK"
    },
    {
      "icao": "LIBG",
      "alert": "OK",
      "vis_m": 9999,
      "fzfg": false,
      "metar_trigger": false,
      "taf_trigger": false,
      "metar": "METAR LIBG 301220Z 01007KT CAVOK 30/06 Q1017",
      "taf": "TAF LIBG 301100Z 3012/3112 01011KT CAVOK"
    },
    {
      "icao": "LIBP",
      "alert": "OK",
      "vis_m": 9999,
      "fzfg": false,
      "metar_trigger": false,
      "taf_trigger": false,
      "metar": "METAR LIBP 301220Z AUTO 04006KT 010V090 9999 NCD 27/12 Q1019",
      "taf": "TAF LIBP 301100Z 3012/3112 05012KT CAVOK"
    },
    {
      "icao": "LIBR",
      "alert": "OK",
      "vis_m": 9999,
      "fzfg": false,
      "metar_trigger": false,
      "taf_trigger": false,
      "metar": "METAR LIBR 301220Z 34011KT 310V010 CAVOK 23/19 Q1017",
      "taf": "TAF LIBR 301100Z 3012/3112 33014KT CAVOK"
    },
    {
      "icao": "LICA",
      "alert": "OK",
      "vis_m": 9999,
      "fzfg": false,
      "metar_trigger": false,
      "taf_trigger": false,
      "metar": "METAR LICA 301220Z AUTO 26010KT 230V290 9999 NCD 25/19 Q1018",
      "taf": "TAF LICA 301100Z 3012/3112 26010KT 9999 SCT020"
    },
    {
      "icao": "LICC",
      "alert": "OK",
      "vis_m": 9999,
      "fzfg": false,
      "metar_trigger": false,
      "taf_trigger": false,
      "metar": "METAR LICC 301220Z 12013KT 9999 FEW070 28/18 Q1017",
      "taf": "TAF LICC 301100Z 3012/3112 22006KT 9999 FEW040"
    },
    {
      "icao": "LICJ",
      "alert": "OK",
      "vis_m": 9999,
      "fzfg": false,
      "metar_trigger": false,
      "taf_trigger": false,
      "metar": "METAR LICJ 301220Z 03013KT CAVOK 25/20 Q1018",
      "taf": "TAF LICJ 301100Z 3012/3112 02012KT CAVOK"
    },
    {
      "icao": "LIMC",
      "alert": "OK",
      "vis_m": 9999,
      "fzfg": false,
      "metar_trigger": false,
      "taf_trigger": false,
      "metar": "METAR LIMC 301220Z 22006KT 190V270 CAVOK 29/15 Q1019 NOSIG",
      "taf": "TAF LIMC 301100Z 3012/3118 VRB04KT 9999 FEW055"
    },
    {
      "icao": "LIME",
      "alert": "OK",
      "vis_m": 9999,
      "fzfg": false,
      "metar_trigger": false,
      "taf_trigger": false,
      "metar": "METAR LIME 301220Z 23005KT 170V280 CAVOK 28/15 Q1019 NOSIG",
      "taf": "TAF LIME 301100Z 3012/3112 VRB05KT 9999 FEW050"
    },
    {
      "icao": "LIMF",
      "alert": "OK",
      "vis_m": 9999,
      "fzfg": false,
      "metar_trigger": false,
      "taf_trigger": false,
      "metar": "METAR LIMF 301220Z 17004KT 110V250 CAVOK 29/16 Q1019",
      "taf": "TAF LIMF 301100Z 3012/3112 VRB05KT 9999 FEW050"
    },
    {
      "icao": "LIMJ",
      "alert": "OK",
      "vis_m": 9999,
      "fzfg": false,
      "metar_trigger": false,
      "taf_trigger": false,
      "metar": "METAR LIMJ 301220Z 21003KT CAVOK 24/20 Q1019",
      "taf": "TAF LIMJ 301100Z 3012/3112 VRB05KT CAVOK"
    },
    {
      "icao": "LIPE",
      "alert": "OK",
      "vis_m": 9999,
      "fzfg": false,
      "metar_trigger": false,
      "taf_trigger": false,
      "metar": "METAR LIPE 301220Z VRB04KT 9999 FEW050 30/17 Q1018",
      "taf": "TAF LIPE 301100Z 3012/3112 VRB05KT CAVOK"
    },
    {
      "icao": "LIPH",
      "alert": "OK",
      "vis_m": 9999,
      "fzfg": false,
      "metar_trigger": false,
      "taf_trigger": false,
      "metar": "METAR LIPH 301220Z 27005KT 220V310 CAVOK 29/14 Q1018",
      "taf": "TAF LIPH 301100Z 3012/3112 22006KT CAVOK"
    },
    {
      "icao": "LIPQ",
      "alert": "OK",
      "vis_m": 9999,
      "fzfg": false,
      "metar_trigger": false,
      "taf_trigger": false,
      "metar": "METAR LIPQ 301220Z AUTO 22005KT 150V270 9999 NCD 29/18 Q1018",
      "taf": "TAF LIPQ 301100Z 3012/3112 21010KT CAVOK"
    },
    {
      "icao": "LIPR",
      "alert": "OK",
      "vis_m": 9999,
      "fzfg": false,
      "metar_trigger": false,
      "taf_trigger": false,
      "metar": "METAR LIPR 301220Z 09007KT 060V120 CAVOK 27/12 Q1019",
      "taf": "TAF LIPR 301100Z 3012/3112 08010KT CAVOK"
    },
    {
      "icao": "LIPX",
      "alert": "OK",
      "vis_m": 9999,
      "fzfg": false,
      "metar_trigger": false,
      "taf_trigger": false,
      "metar": "METAR LIPX 301220Z VRB03KT CAVOK 29/14 Q1018",
      "taf": "TAF LIPX 301100Z 3012/3112 VRB04KT 9999 FEW035"
    },
    {
      "icao": "LIPY",
      "alert": "OK",
      "vis_m": 9999,
      "fzfg": false,
      "metar_trigger": false,
      "taf_trigger": false,
      "metar": "METAR LIPY 301220Z AUTO 03008KT 9999 NCD 26/13 Q1019",
      "taf": "TAF LIPY 301100Z 3012/3112 04010KT CAVOK"
    },
    {
      "icao": "LIPZ",
      "alert": "OK",
      "vis_m": 9999,
      "fzfg": false,
      "metar_trigger": false,
      "taf_trigger": false,
      "metar": "METAR LIPZ 301220Z 20009KT CAVOK 28/17 Q1018 NOSIG",
      "taf": "TAF LIPZ 301100Z 3012/3118 18010KT CAVOK"
    },
    {
      "icao": "LIRF",
      "alert": "OK",
      "vis_m": 9999,
      "fzfg": false,
      "metar_trigger": false,
      "taf_trigger": false,
      "metar": "METAR LIRF 301220Z 20011KT CAVOK 27/15 Q1018 NOSIG",
      "taf": "TAF LIRF 301100Z 3012/3118 23010KT CAVOK"
    },
    {
      "icao": "LIRN",
      "alert": "OK",
      "vis_m": 9999,
      "fzfg": false,
      "metar_trigger": false,
      "taf_trigger": false,
      "metar": "METAR LIRN 301220Z 21011KT 180V240 CAVOK 28/10 Q1018 NOSIG",
      "taf": "TAF LIRN 301100Z 3012/3112 04005KT CAVOK"
    },
    {
      "icao": "LIRP",
      "alert": "OK",
      "vis_m": 9999,
      "fzfg": false,
      "metar_trigger": false,
      "taf_trigger": false,
      "metar": "METAR LIRP 301215Z 28009KT 9999 FEW030 29/17 Q1019 NOSIG",
      "taf": "TAF LIRP 301100Z 3012/3112 30008KT 9999 SCT030"
    },
    {
      "icao": "LIRZ",
      "alert": "OK",
      "vis_m": 9999,
      "fzfg": false,
      "metar_trigger": false,
      "taf_trigger": false,
      "metar": "METAR LIRZ 301220Z AUTO 03007KT 340V080 9999 NCD 30/10 Q1018",
      "taf": "TAF LIRZ 301100Z 3012/3112 VRB05KT 9999 FEW040"
    },
    {
      "icao": "LJLJ",
      "alert": "OK",
      "vis_m": 9999,
      "fzfg": false,
      "metar_trigger": false,
      "taf_trigger": false,
      "metar": "METAR LJLJ 301230Z 12004KT 040V190 9999 FEW060 SCT130 28/11 Q1018 NOSIG",
      "taf": "TAF LJLJ 301100Z 3012/3112 11005KT CAVOK"
    },
    {
      "icao": "LKMT",
      "alert": "OK",
      "vis_m": 9999,
      "fzfg": false,
      "metar_trigger": false,
      "taf_trigger": false,
      "metar": "METAR LKMT 301230Z 23012KT 9999 FEW027 20/14 Q1016 NOSIG",
      "taf": "TAF LKMT 301100Z 3012/3112 22006KT CAVOK"
    },
    {
      "icao": "LKPR",
      "alert": "OK",
      "vis_m": 9999,
      "fzfg": false,
      "metar_trigger": false,
      "taf_trigger": false,
      "metar": "METAR LKPR 301230Z 31018KT 9999 SCT047 25/12 Q1017 NOSIG",
      "taf": "TAF LKPR 301100Z 3012/3118 26007KT CAVOK"
    },
    {
      "icao": "LLBG",
      "alert": "OK",
      "vis_m": 9999,
      "fzfg": false,
      "metar_trigger": false,
      "taf_trigger": false,
      "metar": "METAR LLBG 301220Z 27010KT 9999 FEW030 27/13 Q1013 NOSIG",
      "taf": "TAF LLBG 301106Z 3012/3112 29010KT 9999 FEW035 TX28/3012Z TN19/3103Z"
    },
    {
      "icao": "LMML",
      "alert": "OK",
      "vis_m": 9999,
      "fzfg": false,
      "metar_trigger": false,
      "taf_trigger": false,
      "metar": "METAR LMML 301245Z 09009KT 040V130 9999 FEW030 27/16 Q1018 NOSIG",
      "taf": "TAF LMML 301100Z 3012/3112 VRB07KT CAVOK"
    },
    {
      "icao": "LOWW",
      "alert": "OK",
      "vis_m": 9999,
      "fzfg": false,
      "metar_trigger": false,
      "taf_trigger": false,
      "metar": "METAR LOWW 301220Z 33012KT 9999 FEW050 29/10 Q1016 TEMPO FM1300 29025G35KT 3000 +TSRA",
      "taf": "TAF LOWW 301115Z 3012/3118 32010KT 9999 FEW050 TX28/3013Z TN16/3103Z"
    },
    {
      "icao": "LPFR",
      "alert": "OK",
      "vis_m": 9999,
      "fzfg": false,
      "metar_trigger": false,
      "taf_trigger": false,
      "metar": "METAR LPFR 301230Z 23007KT CAVOK 25/15 Q1020",
      "taf": "TAF LPFR 301100Z 3012/3112 23008KT CAVOK"
    },
    {
      "icao": "LPMA",
      "alert": "OK",
      "vis_m": 9999,
      "fzfg": false,
      "metar_trigger": false,
      "taf_trigger": false,
      "metar": "METAR LPMA 301230Z 01010KT 300V070 9999 FEW015 21/13 Q1025",
      "taf": "TAF LPMA 301100Z 3012/3112 01012KT 9999 SCT015"
    },
    {
      "icao": "LPPR",
      "alert": "OK",
      "vis_m": 9999,
      "fzfg": false,
      "metar_trigger": false,
      "taf_trigger": false,
      "metar": "METAR LPPR 301230Z 31007KT 9999 SCT012 BKN019 20/17 Q1023",
      "taf": "TAF LPPR 301100Z 3012/3112 32008KT 9999 BKN008"
    },
    {
      "icao": "LPPS",
      "alert": "OK",
      "vis_m": 9999,
      "fzfg": false,
      "metar_trigger": false,
      "taf_trigger": false,
      "metar": "METAR LPPS 301230Z 02013KT 340V050 9999 SCT015 SCT030 20/13 Q1026",
      "taf": "TAF LPPS 301100Z 3012/3118 01013KT 9999 SCT015"
    },
    {
      "icao": "LPPT",
      "alert": "OK",
      "vis_m": 9999,
      "fzfg": false,
      "metar_trigger": false,
      "taf_trigger": false,
      "metar": "METAR LPPT 301230Z 32011KT 280V350 9999 FEW020 25/14 Q1022",
      "taf": "TAF LPPT 301100Z 3012/3118 33013KT CAVOK"
    },
    {
      "icao": "LQBK",
      "alert": "OK",
      "vis_m": 9999,
      "fzfg": false,
      "metar_trigger": false,
      "taf_trigger": false,
      "metar": "METAR LQBK 301230Z VRB06KT CAVOK 28/06 Q1017 NOSIG",
      "taf": "TAF LQBK 301100Z 3012/3112 33005KT CAVOK TX28/3014Z TN14/3104Z"
    },
    {
      "icao": "LQSA",
      "alert": "OK",
      "vis_m": 9999,
      "fzfg": false,
      "metar_trigger": false,
      "taf_trigger": false,
      "metar": "METAR LQSA 301230Z 30010KT 270V330 CAVOK 25/06 Q1019 NOSIG",
      "taf": "TAF LQSA 301100Z 3012/3112 29005KT CAVOK TX26/3014Z TN12/3104Z"
    },
    {
      "icao": "LQTZ",
      "alert": "OK",
      "vis_m": 9999,
      "fzfg": false,
      "metar_trigger": false,
      "taf_trigger": false,
      "metar": "METAR LQTZ 301230Z 31006KT 190V350 CAVOK 26/05 Q1018",
      "taf": "TAF LQTZ 301100Z 3012/3112 29007KT CAVOK TX27/3014Z TN10/3103Z"
    },
    {
      "icao": "LRBC",
      "alert": "OK",
      "vis_m": 9999,
      "fzfg": false,
      "metar_trigger": false,
      "taf_trigger": false,
      "metar": "METAR LRBC 301230Z 34020KT 9999 SCT058 20/07 Q1011",
      "taf": "TAF LRBC 301100Z 3012/3021 30012KT 9999 SCT040"
    },
    {
      "icao": "LRBS",
      "alert": "OK",
      "vis_m": 9999,
      "fzfg": false,
      "metar_trigger": false,
      "taf_trigger": false,
      "metar": "METAR LRBS 301230Z 09011KT CAVOK 19/10 Q1012 NOSIG",
      "taf": "TAF LRBS 301100Z 3012/3112 06012KT CAVOK"
    },
    {
      "icao": "LRBV",
      "alert": "OK",
      "vis_m": 9999,
      "fzfg": false,
      "metar_trigger": false,
      "taf_trigger": false,
      "metar": "METAR LRBV 301230Z 33012KT 300V360 9999 SCT075 20/04 Q1013",
      "taf": "TAF LRBV 301100Z 3012/3021 30012KT CAVOK"
    },
    {
      "icao": "LRCL",
      "alert": "OK",
      "vis_m": 9999,
      "fzfg": false,
      "metar_trigger": false,
      "taf_trigger": false,
      "metar": "METAR LRCL 301230Z 30014G24KT 260V330 CAVOK 23/04 Q1013",
      "taf": "TAF LRCL 301100Z 3012/3021 31015KT CAVOK"
    },
    {
      "icao": "LRCV",
      "alert": "OK",
      "vis_m": 9999,
      "fzfg": false,
      "metar_trigger": false,
      "taf_trigger": false,
      "metar": "METAR LRCV 301230Z 28021KT CAVOK 25/09 Q1012",
      "taf": "TAF LRCV 301100Z 3012/3021 28014KT CAVOK"
    },
    {
      "icao": "LRIA",
      "alert": "OK",
      "vis_m": 9999,
      "fzfg": false,
      "metar_trigger": false,
      "taf_trigger": false,
      "metar": "METAR LRIA 301230Z 35014KT 9999 SCT045 18/07 Q1011",
      "taf": "TAF LRIA 301100Z 3012/3021 VRB04KT CAVOK"
    },
    {
      "icao": "LROP",
      "alert": "OK",
      "vis_m": 9999,
      "fzfg": false,
      "metar_trigger": false,
      "taf_trigger": false,
      "metar": "METAR LROP 301230Z 11010KT CAVOK 20/08 Q1012 NOSIG",
      "taf": "TAF LROP 301100Z 3012/3112 06012KT CAVOK"
    },
    {
      "icao": "LRSB",
      "alert": "OK",
      "vis_m": 9999,
      "fzfg": false,
      "metar_trigger": false,
      "taf_trigger": false,
      "metar": "METAR LRSB 301230Z 29014KT 9999 FEW065 SCT080 23/07 Q1013",
      "taf": "TAF LRSB 301100Z 3012/3112 30018KT CAVOK"
    },
    {
      "icao": "LRSM",
      "alert": "OK",
      "vis_m": 9999,
      "fzfg": false,
      "metar_trigger": false,
      "taf_trigger": false,
      "metar": "METAR LRSM 301230Z 32014KT CAVOK 26/05 Q1013",
      "taf": "TAF LRSM 301100Z 3012/3021 32014KT CAVOK"
    },
    {
      "icao": "LRSV",
      "alert": "OK",
      "vis_m": 9999,
      "fzfg": false,
      "metar_trigger": false,
      "taf_trigger": false,
      "metar": "METAR LRSV 301230Z 32018KT CAVOK 18/06 Q1011",
      "taf": "TAF LRSV 301100Z 3012/3021 32016KT CAVOK"
    },
    {
      "icao": "LRTM",
      "alert": "OK",
      "vis_m": 9999,
      "fzfg": false,
      "metar_trigger": false,
      "taf_trigger": false,
      "metar": "METAR LRTM 301230Z 30017KT 250V340 9999 SCT036 24/08 Q1012",
      "taf": "TAF LRTM 301100Z 3012/3021 30015KT CAVOK"
    },
    {
      "icao": "LRTR",
      "alert": "OK",
      "vis_m": 9999,
      "fzfg": false,
      "metar_trigger": false,
      "taf_trigger": false,
      "metar": "METAR LRTR 301230Z 31010KT 270V340 CAVOK 26/07 Q1014 NOSIG",
      "taf": "TAF LRTR 301100Z 3012/3112 30012KT CAVOK"
    },
    {
      "icao": "LTAC",
      "alert": "OK",
      "vis_m": 9999,
      "fzfg": false,
      "metar_trigger": false,
      "taf_trigger": false,
      "metar": "METAR LTAC 301220Z 24008KT 190V290 9999 SCT040 17/04 Q1016 NOSIG RMK RWY21C 30010KT 230V320 RWY03L 22007KT 170V270 RWY21R 27007KT 200V340 RWY03R 23007KT 170V270 RWY21L 24009KT 190V300",
      "taf": "TAF LTAC 301040Z 3012/3112 25012KT 9999 SCT040"
    },
    {
      "icao": "LTFM",
      "alert": "OK",
      "vis_m": 9999,
      "fzfg": false,
      "metar_trigger": false,
      "taf_trigger": false,
      "metar": "METAR LTFM 301220Z 22020KT CAVOK 24/06 Q1014 NOSIG RMK RWY17L 23018G28KT RWY34L 22015KT RWY16R 22016KT RWY36 22016KT RWY18 23019KT",
      "taf": "TAF LTFM 301040Z 3012/3118 22017G27KT CAVOK"
    },
    {
      "icao": "LUKK",
      "alert": "OK",
      "vis_m": 9999,
      "fzfg": false,
      "metar_trigger": false,
      "taf_trigger": false,
      "metar": "METAR LUKK 301230Z 33010KT 9999 FEW047CB 16/09 Q1010 TEMPO 35016G26KT SCT040CB",
      "taf": "TAF LUKK 301117Z 3012/3112 30012KT 9999 SCT040"
    },
    {
      "icao": "LWOH",
      "alert": "OK",
      "vis_m": 9999,
      "fzfg": false,
      "metar_trigger": false,
      "taf_trigger": false,
      "metar": "METAR LWOH 301250Z 15008KT 130V190 9999 FEW035 23/13 Q1018",
      "taf": "TAF LWOH 301135Z 3012/3112 16006KT CAVOK"
    },
    {
      "icao": "LWSK",
      "alert": "OK",
      "vis_m": 9999,
      "fzfg": false,
      "metar_trigger": false,
      "taf_trigger": false,
      "metar": "METAR LWSK 301250Z VRB03KT CAVOK 27/09 Q1016 NOSIG",
      "taf": "TAF LWSK 301135Z 3012/3112 VRB03KT CAVOK"
    },
    {
      "icao": "LYBE",
      "alert": "OK",
      "vis_m": 9999,
      "fzfg": false,
      "metar_trigger": false,
      "taf_trigger": false,
      "metar": "METAR LYBE 301230Z 28016KT CAVOK 27/08 Q1016 NOSIG",
      "taf": "TAF LYBE 301100Z 3012/3112 32014KT CAVOK TX30/3012Z TN15/3104Z"
    },
    {
      "icao": "LYNI",
      "alert": "OK",
      "vis_m": 9999,
      "fzfg": false,
      "metar_trigger": false,
      "taf_trigger": false,
      "metar": "METAR LYNI 301230Z 32012KT 290V350 CAVOK 25/07 Q1016 NOSIG",
      "taf": "TAF LYNI 301100Z 3012/3112 34014KT CAVOK TX27/3012Z TN12/3104Z"
    },
    {
      "icao": "LYPG",
      "alert": "OK",
      "vis_m": 9999,
      "fzfg": false,
      "metar_trigger": false,
      "taf_trigger": false,
      "metar": "METAR LYPG 301230Z 16007KT 120V200 CAVOK 28/06 Q1016 NOSIG",
      "taf": "TAF LYPG 301100Z 3012/3112 16005KT CAVOK TX30/3014Z TN17/3103Z"
    },
    {
      "icao": "LZIB",
      "alert": "OK",
      "vis_m": 9999,
      "fzfg": false,
      "metar_trigger": false,
      "taf_trigger": false,
      "metar": "METAR LZIB 301230Z 04006KT 350V120 CAVOK 27/08 Q1016 TEMPO SHRA FEW040CB",
      "taf": "TAF LZIB 301115Z 3012/3112 31010KT 9999 SCT043"
    },
    {
      "icao": "LZKZ",
      "alert": "OK",
      "vis_m": 9999,
      "fzfg": false,
      "metar_trigger": false,
      "taf_trigger": false,
      "metar": "METAR LZKZ 301230Z 34009KT 310V010 CAVOK 20/10 Q1015 TEMPO SHRA FEW040TCU",
      "taf": "TAF LZKZ 301115Z 3012/3112 35013KT CAVOK"
    },
    {
      "icao": "LZTT",
      "alert": "OK",
      "vis_m": 9999,
      "fzfg": false,
      "metar_trigger": false,
      "taf_trigger": false,
      "metar": "METAR LZTT 301230Z 31006KT 9999 -SHRA FEW010 BKN030 15/13 Q1016 TEMPO SHRA FEW040CB",
      "taf": "TAF LZTT 301115Z 3012/3112 29013KT 9999 BKN060"
    },
    {
      "icao": "OEJN",
      "alert": "OK",
      "vis_m": 9999,
      "fzfg": false,
      "metar_trigger": false,
      "taf_trigger": false,
      "metar": "METAR OEJN 301200Z 32016KT CAVOK 36/16 Q1006 NOSIG",
      "taf": "TAF OEJN 301100Z 3012/3118 33015KT CAVOK"
    },
    {
      "icao": "OEMA",
      "alert": "OK",
      "vis_m": 9999,
      "fzfg": false,
      "metar_trigger": false,
      "taf_trigger": false,
      "metar": "METAR OEMA 301200Z 26006KT CAVOK 42/M04 Q1009 NOSIG",
      "taf": "TAF OEMA 301100Z 3012/3118 27012KT CAVOK"
    },
    {
      "icao": "OJAI",
      "alert": "OK",
      "vis_m": 5000,
      "fzfg": false,
      "metar_trigger": false,
      "taf_trigger": false,
      "metar": "METAR OJAI 301200Z 30010KT 5000 DU NSC 27/06 Q1016 NOSIG",
      "taf": "TAF OJAI 301100Z 3012/3118 29010KT 5000 HZ FEW035"
    },
    {
      "icao": "OMAA",
      "alert": "OK",
      "vis_m": 9999,
      "fzfg": false,
      "metar_trigger": false,
      "taf_trigger": false,
      "metar": "METAR OMAA 301230Z 31010KT 280V340 CAVOK 39/15 Q1002 NOSIG",
      "taf": "TAF OMAA 301100Z 3012/3118 31013KT 8000 NSC"
    },
    {
      "icao": "OMDB",
      "alert": "OK",
      "vis_m": 9999,
      "fzfg": false,
      "metar_trigger": false,
      "taf_trigger": false,
      "metar": "METAR OMDB 301230Z 29009KT 250V350 CAVOK 39/13 Q1001 NOSIG",
      "taf": "TAF OMDB 301100Z 3012/3118 27012KT CAVOK"
    },
    {
      "icao": "UAAA",
      "alert": "OK",
      "vis_m": 9999,
      "fzfg": false,
      "metar_trigger": false,
      "taf_trigger": false,
      "metar": "METAR UAAA 301230Z 22005MPS 9999 BKN050CB OVC100 27/14 Q1010 TEMPO TS",
      "taf": "TAF UAAA 301102Z 3012/3112 20003MPS 9999 SCT050CB BKN100 TX31/3110Z TN17/3101Z"
    },
    {
      "icao": "UBBB",
      "alert": "OK",
      "vis_m": 9999,
      "fzfg": false,
      "metar_trigger": false,
      "taf_trigger": false,
      "metar": "METAR UBBB 301230Z 35016KT 9999 BKN018 18/12 Q1011 NOSIG",
      "taf": "TAF UBBB 301054Z 3012/3112 33014KT 9999 BKN030 TX18/3012Z TN13/3100Z"
    },
    {
      "icao": "UDSG",
      "alert": "OK",
      "vis_m": 9999,
      "fzfg": false,
      "metar_trigger": false,
      "taf_trigger": false,
      "metar": "METAR UDSG 301230Z 27008KT 9999 SCT049CB 15/01 Q1014 NOSIG",
      "taf": "TAF UDSG 301058Z 3012/3112 36006KT 9999 SCT040"
    },
    {
      "icao": "UDYZ",
      "alert": "OK",
      "vis_m": 9999,
      "fzfg": false,
      "metar_trigger": false,
      "taf_trigger": false,
      "metar": "METAR UDYZ 301230Z 17006KT 130V230 9999 FEW043CB 22/04 Q1010 NOSIG",
      "taf": "TAF UDYZ 301100Z 3012/3112 22006KT 9999 SCT040"
    },
    {
      "icao": "UGKO",
      "alert": "OK",
      "vis_m": 9999,
      "fzfg": false,
      "metar_trigger": false,
      "taf_trigger": false,
      "metar": "METAR UGKO 301230Z VRB02KT 9999 BKN025CB 16/10 Q1018 NOSIG",
      "taf": "TAF UGKO 301100Z 3012/3112 09007KT 9999 SCT033 BKN070 TX19/3111Z TN10/3102Z"
    }
  ]
}