{
  "ts_utc": "2026-07-15T22:33:32Z",
  "threshold_m": 150,
  "source": "stations_override.txt (ICAO list) + aviationweather.gov (METAR/TAF raw)",
  "station_count": 159,
  "stations": [
    {
      "icao": "BIKF",
      "alert": "OK",
      "vis_m": 9999,
      "fzfg": false,
      "metar_trigger": false,
      "taf_trigger": false,
      "metar": "METAR BIKF 152200Z 27016KT 9999 BKN006 OVC015 10/09 Q1022",
      "taf": "TAF BIKF 151938Z 1521/1621 25016KT 9999 SCT010 BKN020 TX11/1615Z TN09/1606Z"
    },
    {
      "icao": "BKPR",
      "alert": "OK",
      "vis_m": 9999,
      "fzfg": false,
      "metar_trigger": false,
      "taf_trigger": false,
      "metar": "METAR BKPR 152230Z 10004KT CAVOK 18/17 Q1021 NOSIG",
      "taf": "TAF BKPR 151730Z 1518/1618 33005KT 9999 SCT050"
    },
    {
      "icao": "EBCI",
      "alert": "OK",
      "vis_m": 9999,
      "fzfg": false,
      "metar_trigger": false,
      "taf_trigger": false,
      "metar": "METAR EBCI 152220Z 04009KT CAVOK 22/10 Q1020 NOSIG",
      "taf": "TAF EBCI 151720Z 1518/1624 04009KT CAVOK"
    },
    {
      "icao": "EDDB",
      "alert": "OK",
      "vis_m": 9999,
      "fzfg": false,
      "metar_trigger": false,
      "taf_trigger": false,
      "metar": "METAR EDDB 152220Z AUTO 06005KT CAVOK 17/12 Q1021 NOSIG",
      "taf": "TAF EDDB 151700Z 1518/1618 04006KT CAVOK"
    },
    {
      "icao": "EDDH",
      "alert": "OK",
      "vis_m": 9999,
      "fzfg": false,
      "metar_trigger": false,
      "taf_trigger": false,
      "metar": "METAR EDDH 152220Z AUTO 06008KT CAVOK 19/15 Q1022 NOSIG",
      "taf": "TAF EDDH 151700Z 1518/1624 05009KT CAVOK"
    },
    {
      "icao": "EDDK",
      "alert": "OK",
      "vis_m": 9999,
      "fzfg": false,
      "metar_trigger": false,
      "taf_trigger": false,
      "metar": "METAR EDDK 152220Z AUTO 07006KT CAVOK 21/11 Q1019 NOSIG",
      "taf": "TAF EDDK 151700Z 1518/1624 05008KT CAVOK"
    },
    {
      "icao": "EDDN",
      "alert": "OK",
      "vis_m": 9999,
      "fzfg": false,
      "metar_trigger": false,
      "taf_trigger": false,
      "metar": "METAR EDDN 152220Z AUTO VRB02KT CAVOK 20/15 Q1019",
      "taf": "TAF EDDN 151700Z 1518/1618 04006KT CAVOK"
    },
    {
      "icao": "EDDS",
      "alert": "OK",
      "vis_m": 9999,
      "fzfg": false,
      "metar_trigger": false,
      "taf_trigger": false,
      "metar": "METAR EDDS 152220Z AUTO 07001KT CAVOK 18/17 Q1019",
      "taf": "TAF EDDS 151700Z 1518/1618 04005KT CAVOK"
    },
    {
      "icao": "EDFH",
      "alert": "OK",
      "vis_m": 9999,
      "fzfg": false,
      "metar_trigger": false,
      "taf_trigger": false,
      "metar": "METAR EDFH 152220Z 08005KT 030V120 CAVOK 20/10 Q1020",
      "taf": "TAF EDFH 151700Z 1518/1618 07006KT CAVOK"
    },
    {
      "icao": "EDJA",
      "alert": "OK",
      "vis_m": 9999,
      "fzfg": false,
      "metar_trigger": false,
      "taf_trigger": false,
      "metar": "METAR EDJA 152220Z AUTO 00000KT 9999 // OVC170/// 15/15 Q1020",
      "taf": "TAF EDJA 151700Z 1518/1603 VRB03KT CAVOK"
    },
    {
      "icao": "EDLW",
      "alert": "OK",
      "vis_m": 9999,
      "fzfg": false,
      "metar_trigger": false,
      "taf_trigger": false,
      "metar": "METAR EDLW 152220Z AUTO 04003KT 9999 // NCD 18/10 Q1020",
      "taf": "TAF EDLW 151700Z 1518/1618 07009KT CAVOK"
    },
    {
      "icao": "EDNY",
      "alert": "OK",
      "vis_m": 9999,
      "fzfg": false,
      "metar_trigger": false,
      "taf_trigger": false,
      "metar": "METAR EDNY 152220Z AUTO VRB03KT 9999 // FEW049/// OVC098/// 18/17 Q1020",
      "taf": "TAF EDNY 151700Z 1518/1603 05003KT 9999 BKN050"
    },
    {
      "icao": "EDSB",
      "alert": "OK",
      "vis_m": 9999,
      "fzfg": false,
      "metar_trigger": false,
      "taf_trigger": false,
      "metar": "METAR EDSB 152220Z AUTO 20003KT 9999 // NCD 20/16 Q1017",
      "taf": "TAF EDSB 151700Z 1518/1618 02008KT CAVOK"
    },
    {
      "icao": "EETN",
      "alert": "OK",
      "vis_m": 9999,
      "fzfg": false,
      "metar_trigger": false,
      "taf_trigger": false,
      "metar": "METAR EETN 152220Z 32005KT CAVOK 20/15 Q1019",
      "taf": "TAF EETN 151730Z 1518/1618 32010KT CAVOK"
    },
    {
      "icao": "EFTU",
      "alert": "OK",
      "vis_m": 9999,
      "fzfg": false,
      "metar_trigger": false,
      "taf_trigger": false,
      "metar": "METAR EFTU 152220Z AUTO VRB02KT CAVOK 14/11 Q1021",
      "taf": "TAF EFTU 152026Z 1521/1621 32005KT CAVOK"
    },
    {
      "icao": "EGBB",
      "alert": "OK",
      "vis_m": 9999,
      "fzfg": false,
      "metar_trigger": false,
      "taf_trigger": false,
      "metar": "METAR EGBB 152220Z 07007KT 030V110 CAVOK 18/13 Q1025",
      "taf": "TAF EGBB 151701Z 1518/1618 06009KT CAVOK"
    },
    {
      "icao": "EGGP",
      "alert": "OK",
      "vis_m": 9999,
      "fzfg": false,
      "metar_trigger": false,
      "taf_trigger": false,
      "metar": "METAR EGGP 152220Z 10008KT CAVOK 19/11 Q1025",
      "taf": "TAF EGGP 151706Z 1518/1618 08007KT CAVOK"
    },
    {
      "icao": "EGGW",
      "alert": "OK",
      "vis_m": 9999,
      "fzfg": false,
      "metar_trigger": false,
      "taf_trigger": false,
      "metar": "METAR EGGW 152220Z AUTO 03008KT 9999 NCD 16/13 Q1024",
      "taf": ""
    },
    {
      "icao": "EGKK",
      "alert": "OK",
      "vis_m": 9999,
      "fzfg": false,
      "metar_trigger": false,
      "taf_trigger": false,
      "metar": "METAR EGKK 152220Z 04006KT CAVOK 19/14 Q1022",
      "taf": "TAF EGKK 151659Z 1518/1624 05014KT 9999 FEW040"
    },
    {
      "icao": "EGNM",
      "alert": "OK",
      "vis_m": 9999,
      "fzfg": false,
      "metar_trigger": false,
      "taf_trigger": false,
      "metar": "METAR EGNM 152220Z 03005KT CAVOK 13/11 Q1027",
      "taf": "TAF EGNM 151702Z 1518/1618 05006KT 9999 SCT015"
    },
    {
      "icao": "EGPD",
      "alert": "OK",
      "vis_m": 9999,
      "fzfg": false,
      "metar_trigger": false,
      "taf_trigger": false,
      "metar": "METAR EGPD 152220Z AUTO 17005KT 9999 OVC007 12/11 Q1028",
      "taf": ""
    },
    {
      "icao": "EGPF",
      "alert": "OK",
      "vis_m": 9999,
      "fzfg": false,
      "metar_trigger": false,
      "taf_trigger": false,
      "metar": "METAR EGPF 152220Z AUTO 06006KT 9999 NCD 14/11 Q1027",
      "taf": "TAF EGPF 151654Z 1518/1618 07006KT CAVOK"
    },
    {
      "icao": "EHBK",
      "alert": "OK",
      "vis_m": 9999,
      "fzfg": false,
      "metar_trigger": false,
      "taf_trigger": false,
      "metar": "METAR EHBK 152225Z AUTO 04007KT 9999 NSC 21/10 Q1019",
      "taf": "TAF EHBK 151655Z 1518/1624 04008KT CAVOK"
    },
    {
      "icao": "EHEH",
      "alert": "OK",
      "vis_m": 9999,
      "fzfg": false,
      "metar_trigger": false,
      "taf_trigger": false,
      "metar": "METAR EHEH 152225Z AUTO 03007KT 9999 ////// 22/12 Q1020 BLU",
      "taf": "TAF EHEH 151640Z 1518/1624 05009KT CAVOK"
    },
    {
      "icao": "EKBI",
      "alert": "OK",
      "vis_m": 9999,
      "fzfg": false,
      "metar_trigger": false,
      "taf_trigger": false,
      "metar": "METAR EKBI 152220Z AUTO 05001KT 9999 NCD 16/12 Q1024",
      "taf": "TAF EKBI 152027Z 1521/1621 12004KT CAVOK"
    },
    {
      "icao": "EKCH",
      "alert": "OK",
      "vis_m": 9999,
      "fzfg": false,
      "metar_trigger": false,
      "taf_trigger": false,
      "metar": "METAR EKCH 152220Z AUTO 23002KT 9999 NCD 19/12 Q1023 NOSIG",
      "taf": "TAF EKCH 152027Z 1521/1621 19006KT CAVOK"
    },
    {
      "icao": "ENAL",
      "alert": "OK",
      "vis_m": 9999,
      "fzfg": false,
      "metar_trigger": false,
      "taf_trigger": false,
      "metar": "METAR ENAL 152220Z AUTO 06008KT 9999 NCD 12/11 Q1026",
      "taf": "TAF ENAL 152000Z 1521/1606 04010KT 9999 FEW010"
    },
    {
      "icao": "ENBR",
      "alert": "OK",
      "vis_m": 9999,
      "fzfg": false,
      "metar_trigger": false,
      "taf_trigger": false,
      "metar": "METAR ENBR 152220Z 34006KT CAVOK 12/11 Q1025 RMK WIND 1200FT 36002KT",
      "taf": "TAF ENBR 151700Z 1518/1618 32005KT CAVOK"
    },
    {
      "icao": "ENGM",
      "alert": "OK",
      "vis_m": 9999,
      "fzfg": false,
      "metar_trigger": false,
      "taf_trigger": false,
      "metar": "METAR ENGM 152220Z 34005KT 320V020 CAVOK 22/13 Q1023",
      "taf": "TAF ENGM 151700Z 1518/1618 18010KT CAVOK"
    },
    {
      "icao": "ENHD",
      "alert": "OK",
      "vis_m": 9000,
      "fzfg": false,
      "metar_trigger": false,
      "taf_trigger": false,
      "metar": "METAR ENHD 152220Z 36007KT 9000 NSC 12/11 Q1025",
      "taf": ""
    },
    {
      "icao": "ENTC",
      "alert": "OK",
      "vis_m": 9999,
      "fzfg": false,
      "metar_trigger": false,
      "taf_trigger": false,
      "metar": "METAR ENTC 152220Z 24009KT 9999 FEW010 BKN020 11/10 Q1020 RMK WIND 2600FT 22012KT",
      "taf": ""
    },
    {
      "icao": "ENTO",
      "alert": "OK",
      "vis_m": 9999,
      "fzfg": false,
      "metar_trigger": false,
      "taf_trigger": false,
      "metar": "METAR ENTO 152220Z 27004KT CAVOK 23/09 Q1023",
      "taf": "TAF ENTO 151700Z 1518/1618 27008KT CAVOK"
    },
    {
      "icao": "ENVA",
      "alert": "OK",
      "vis_m": 9999,
      "fzfg": false,
      "metar_trigger": false,
      "taf_trigger": false,
      "metar": "METAR ENVA 152220Z 13004KT CAVOK 13/11 Q1026 RMK WIND 670FT 28002KT",
      "taf": "TAF ENVA 151700Z 1518/1618 25007KT CAVOK"
    },
    {
      "icao": "ENZV",
      "alert": "OK",
      "vis_m": 9999,
      "fzfg": false,
      "metar_trigger": false,
      "taf_trigger": false,
      "metar": "METAR ENZV 152220Z 28003KT CAVOK 13/12 Q1025",
      "taf": "TAF ENZV 151700Z 1518/1618 29005KT CAVOK"
    },
    {
      "icao": "EPGD",
      "alert": "OK",
      "vis_m": 9999,
      "fzfg": false,
      "metar_trigger": false,
      "taf_trigger": false,
      "metar": "METAR EPGD 152230Z 33002KT CAVOK 12/11 Q1023",
      "taf": "TAF EPGD 151730Z 1518/1618 02010KT CAVOK"
    },
    {
      "icao": "EPKK",
      "alert": "OK",
      "vis_m": 9999,
      "fzfg": false,
      "metar_trigger": false,
      "taf_trigger": false,
      "metar": "METAR EPKK 152230Z VRB01KT 9999 MIFG FEW030 18/17 Q1021",
      "taf": "TAF EPKK 152030Z 1521/1621 VRB02KT CAVOK"
    },
    {
      "icao": "EPKT",
      "alert": "OK",
      "vis_m": 800,
      "fzfg": false,
      "metar_trigger": false,
      "taf_trigger": false,
      "metar": "METAR EPKT 152230Z VRB01KT 0800 R26/1500D FG NSC 15/15 Q1021",
      "taf": ""
    },
    {
      "icao": "EPLB",
      "alert": "OK",
      "vis_m": 9999,
      "fzfg": false,
      "metar_trigger": false,
      "taf_trigger": false,
      "metar": "METAR EPLB 152230Z VRB01KT CAVOK 17/16 Q1020",
      "taf": "TAF EPLB 151730Z 1518/1618 VRB05KT CAVOK"
    },
    {
      "icao": "EPMO",
      "alert": "OK",
      "vis_m": 9999,
      "fzfg": false,
      "metar_trigger": false,
      "taf_trigger": false,
      "metar": "METAR EPMO 152230Z 01005KT CAVOK 18/16 Q1021",
      "taf": "TAF EPMO 151730Z 1518/1618 04008KT CAVOK"
    },
    {
      "icao": "EPPO",
      "alert": "OK",
      "vis_m": 9999,
      "fzfg": false,
      "metar_trigger": false,
      "taf_trigger": false,
      "metar": "METAR EPPO 152230Z 31003KT 9999 FEW064CB 18/16 Q1022",
      "taf": "TAF EPPO 151730Z 1518/1618 VRB02KT CAVOK"
    },
    {
      "icao": "EPRA",
      "alert": "OK",
      "vis_m": 9999,
      "fzfg": false,
      "metar_trigger": false,
      "taf_trigger": false,
      "metar": "METAR EPRA 152230Z VRB01KT CAVOK 19/17 Q1020",
      "taf": "TAF EPRA 152030Z 1521/1606 VRB02KT CAVOK"
    },
    {
      "icao": "EPRZ",
      "alert": "OK",
      "vis_m": 9999,
      "fzfg": false,
      "metar_trigger": false,
      "taf_trigger": false,
      "metar": "METAR EPRZ 152230Z VRB01KT CAVOK 17/17 Q1020",
      "taf": "TAF EPRZ 151730Z 1518/1618 24005KT 9999 BKN035"
    },
    {
      "icao": "EPSC",
      "alert": "OK",
      "vis_m": 9999,
      "fzfg": false,
      "metar_trigger": false,
      "taf_trigger": false,
      "metar": "METAR EPSC 152230Z 02005KT CAVOK 17/14 Q1022",
      "taf": "TAF EPSC 151730Z 1518/1618 02010KT 9999 SCT045"
    },
    {
      "icao": "EPSY",
      "alert": "OK",
      "vis_m": 9999,
      "fzfg": false,
      "metar_trigger": false,
      "taf_trigger": false,
      "metar": "METAR EPSY 152230Z 01004KT CAVOK 15/13 Q1022",
      "taf": "TAF EPSY 152030Z 1521/1606 02008KT CAVOK"
    },
    {
      "icao": "EPWA",
      "alert": "OK",
      "vis_m": 9999,
      "fzfg": false,
      "metar_trigger": false,
      "taf_trigger": false,
      "metar": "METAR EPWA 152230Z 03007KT 010V090 CAVOK 22/15 Q1020 NOSIG",
      "taf": "TAF EPWA 152030Z 1521/1621 04008KT CAVOK"
    },
    {
      "icao": "EPWR",
      "alert": "OK",
      "vis_m": 400,
      "fzfg": false,
      "metar_trigger": false,
      "taf_trigger": false,
      "metar": "METAR EPWR 152230Z 33003KT 0400 R29/1000D FG OVC001 17/17 Q1021",
      "taf": ""
    },
    {
      "icao": "ESGG",
      "alert": "OK",
      "vis_m": 9999,
      "fzfg": false,
      "metar_trigger": false,
      "taf_trigger": false,
      "metar": "METAR ESGG 152220Z 03007KT CAVOK 21/13 Q1023",
      "taf": "TAF ESGG 152030Z 1521/1621 34010KT CAVOK"
    },
    {
      "icao": "ESKN",
      "alert": "OK",
      "vis_m": 9999,
      "fzfg": false,
      "metar_trigger": false,
      "taf_trigger": false,
      "metar": "METAR ESKN 152220Z 23001KT CAVOK 20/13 Q1022",
      "taf": "TAF ESKN 152030Z 1521/1621 VRB03KT CAVOK"
    },
    {
      "icao": "ESMS",
      "alert": "OK",
      "vis_m": 9999,
      "fzfg": false,
      "metar_trigger": false,
      "taf_trigger": false,
      "metar": "METAR ESMS 152220Z 09004KT CAVOK 15/15 Q1023",
      "taf": "TAF ESMS 152027Z 1521/1621 VRB03KT CAVOK"
    },
    {
      "icao": "ESSA",
      "alert": "OK",
      "vis_m": 9999,
      "fzfg": false,
      "metar_trigger": false,
      "taf_trigger": false,
      "metar": "METAR ESSA 152220Z 20003KT CAVOK 19/12 Q1021 NOSIG",
      "taf": "TAF ESSA 152030Z 1521/1621 VRB03KT CAVOK"
    },
    {
      "icao": "EYKA",
      "alert": "OK",
      "vis_m": 9999,
      "fzfg": false,
      "metar_trigger": false,
      "taf_trigger": false,
      "metar": "METAR EYKA 152220Z 31002KT CAVOK 15/13 Q1020",
      "taf": "TAF EYKA 151700Z 1518/1618 VRB03KT 9000 NSC"
    },
    {
      "icao": "EYPA",
      "alert": "OK",
      "vis_m": 9999,
      "fzfg": false,
      "metar_trigger": false,
      "taf_trigger": false,
      "metar": "METAR EYPA 152220Z 01001KT CAVOK 15/14 Q1022",
      "taf": "TAF EYPA 151700Z 1518/1618 VRB03KT 9000 NSC"
    },
    {
      "icao": "EYVI",
      "alert": "OK",
      "vis_m": 9999,
      "fzfg": false,
      "metar_trigger": false,
      "taf_trigger": false,
      "metar": "METAR EYVI 152220Z 34004KT CAVOK 17/13 Q1020 NOSIG",
      "taf": "TAF EYVI 151700Z 1518/1618 VRB03KT 9000 NSC"
    },
    {
      "icao": "GCFV",
      "alert": "OK",
      "vis_m": 9999,
      "fzfg": false,
      "metar_trigger": false,
      "taf_trigger": false,
      "metar": "METAR GCFV 152200Z 02009KT 9999 FEW020 24/21 Q1018",
      "taf": "TAF GCFV 152000Z 1521/1621 01006KT 9999 FEW020 TX29/1614Z TN22/1606Z"
    },
    {
      "icao": "GCLP",
      "alert": "OK",
      "vis_m": 9999,
      "fzfg": false,
      "metar_trigger": false,
      "taf_trigger": false,
      "metar": "METAR GCLP 152200Z 02016KT 9999 FEW020 25/19 Q1018 NOSIG",
      "taf": "TAF GCLP 152000Z 1521/1621 01020KT 9999 FEW020 TX29/1614Z TN23/1606Z"
    },
    {
      "icao": "GCTS",
      "alert": "OK",
      "vis_m": 9999,
      "fzfg": false,
      "metar_trigger": false,
      "taf_trigger": false,
      "metar": "METAR GCTS 152200Z 05012KT 020V080 9999 FEW020 24/20 Q1018 NOSIG",
      "taf": "TAF GCTS 152000Z 1521/1621 06010KT CAVOK TX32/1614Z TN21/1606Z"
    },
    {
      "icao": "GMAD",
      "alert": "OK",
      "vis_m": 9999,
      "fzfg": false,
      "metar_trigger": false,
      "taf_trigger": false,
      "metar": "METAR GMAD 152200Z 00000KT CAVOK 22/19 Q1015 NOSIG",
      "taf": "TAF GMAD 151700Z 1518/1624 20008KT 8000 NSC"
    },
    {
      "icao": "GMMN",
      "alert": "OK",
      "vis_m": 9999,
      "fzfg": false,
      "metar_trigger": false,
      "taf_trigger": false,
      "metar": "METAR GMMN 152200Z 03005KT 360V070 CAVOK 22/18 Q1020 NOSIG",
      "taf": "TAF GMMN 151700Z 1518/1624 36013KT CAVOK"
    },
    {
      "icao": "GMMX",
      "alert": "OK",
      "vis_m": 8000,
      "fzfg": false,
      "metar_trigger": false,
      "taf_trigger": false,
      "metar": "METAR GMMX 152200Z 03006KT 360V060 8000 SCT023 30/16 Q1019 NOSIG",
      "taf": "TAF GMMX 151700Z 1518/1624 06006KT 8000 SCT033 SCT100"
    },
    {
      "icao": "HEGN",
      "alert": "OK",
      "vis_m": 9999,
      "fzfg": false,
      "metar_trigger": false,
      "taf_trigger": false,
      "metar": "METAR HEGN 152200Z 30008KT CAVOK 31/04 Q1007 NOSIG",
      "taf": ""
    },
    {
      "icao": "HEMA",
      "alert": "OK",
      "vis_m": 9999,
      "fzfg": false,
      "metar_trigger": false,
      "taf_trigger": false,
      "metar": "METAR HEMA 152200Z 26007KT CAVOK 29/08 Q1006 NOSIG",
      "taf": ""
    },
    {
      "icao": "HESH",
      "alert": "OK",
      "vis_m": 9999,
      "fzfg": false,
      "metar_trigger": false,
      "taf_trigger": false,
      "metar": "METAR HESH 152200Z 36004KT CAVOK 31/08 Q1005 NOSIG",
      "taf": ""
    },
    {
      "icao": "HESX",
      "alert": "OK",
      "vis_m": 9999,
      "fzfg": false,
      "metar_trigger": false,
      "taf_trigger": false,
      "metar": "METAR HESX 152200Z 33007KT CAVOK 23/19 Q1010 NOSIG",
      "taf": ""
    },
    {
      "icao": "LATI",
      "alert": "OK",
      "vis_m": 9999,
      "fzfg": false,
      "metar_trigger": false,
      "taf_trigger": false,
      "metar": "METAR LATI 152220Z VRB02KT CAVOK 22/17 Q1017 NOSIG",
      "taf": "TAF LATI 151700Z 1518/1618 VRB03KT CAVOK TX37/1613Z TN19/1604Z"
    },
    {
      "icao": "LBPD",
      "alert": "OK",
      "vis_m": 9999,
      "fzfg": false,
      "metar_trigger": false,
      "taf_trigger": false,
      "metar": "METAR LBPD 152230Z AUTO 12008KT 9999 FEW100/// 25/14 Q1017",
      "taf": "TAF LBPD 151700Z 1518/1618 09010KT CAVOK"
    },
    {
      "icao": "LBSF",
      "alert": "OK",
      "vis_m": 9999,
      "fzfg": false,
      "metar_trigger": false,
      "taf_trigger": false,
      "metar": "METAR LBSF 152230Z AUTO 13003KT 110V180 9999 BKN076/// BKN087/// 20/16 Q1020 NOSIG",
      "taf": "TAF LBSF 151700Z 1518/1618 06010KT 9999 SCT060"
    },
    {
      "icao": "LBWN",
      "alert": "OK",
      "vis_m": 9999,
      "fzfg": false,
      "metar_trigger": false,
      "taf_trigger": false,
      "metar": "METAR LBWN 152230Z AUTO 00000KT 9999 NCD 19/18 Q1016 NOSIG",
      "taf": "TAF LBWN 151700Z 1518/1618 VRB03KT 9999 SCT045"
    },
    {
      "icao": "LCLK",
      "alert": "OK",
      "vis_m": 9999,
      "fzfg": false,
      "metar_trigger": false,
      "taf_trigger": false,
      "metar": "METAR LCLK 152230Z 03006KT CAVOK 25/23 Q1007 NOSIG",
      "taf": "TAF LCLK 151730Z 1518/1618 20010KT CAVOK"
    },
    {
      "icao": "LCPH",
      "alert": "OK",
      "vis_m": 9999,
      "fzfg": false,
      "metar_trigger": false,
      "taf_trigger": false,
      "metar": "METAR LCPH 152230Z 02005KT CAVOK 24/19 Q1007 NOSIG",
      "taf": "TAF LCPH 151730Z 1518/1618 34008KT CAVOK"
    },
    {
      "icao": "LEAL",
      "alert": "OK",
      "vis_m": 9999,
      "fzfg": false,
      "metar_trigger": false,
      "taf_trigger": false,
      "metar": "METAR LEAL 152200Z VRB01KT CAVOK 28/26 Q1016 NOSIG",
      "taf": "TAF LEAL 151700Z 1518/1618 18012KT CAVOK TX36/1615Z TN25/1605Z"
    },
    {
      "icao": "LEBB",
      "alert": "OK",
      "vis_m": 9999,
      "fzfg": false,
      "metar_trigger": false,
      "taf_trigger": false,
      "metar": "METAR LEBB 152200Z 32002KT 9999 SCT026 BKN049 24/21 Q1020 NOSIG",
      "taf": "TAF LEBB 151700Z 1518/1618 32007KT 9999 SCT020 TX27/1615Z TN19/1606Z"
    },
    {
      "icao": "LEBL",
      "alert": "OK",
      "vis_m": 9999,
      "fzfg": false,
      "metar_trigger": false,
      "taf_trigger": false,
      "metar": "METAR LEBL 152200Z 23009KT 200V260 9999 FEW050 28/25 Q1016 NOSIG",
      "taf": "TAF LEBL 151700Z 1518/1618 23010KT 9999 FEW020 TX32/1612Z TN26/1606Z"
    },
    {
      "icao": "LECH",
      "alert": "OK",
      "vis_m": 9999,
      "fzfg": false,
      "metar_trigger": false,
      "taf_trigger": false,
      "metar": "METAR LECH 152200Z AUTO 31004KT CAVOK 26/17 Q1017",
      "taf": "TAF LECH 151700Z 1518/1618 VRB04KT CAVOK TX34/1615Z TN25/1605Z"
    },
    {
      "icao": "LEMD",
      "alert": "OK",
      "vis_m": 9999,
      "fzfg": false,
      "metar_trigger": false,
      "taf_trigger": false,
      "metar": "METAR LEMD 152200Z VRB02KT CAVOK 29/08 Q1018 NOSIG",
      "taf": ""
    },
    {
      "icao": "LEMG",
      "alert": "OK",
      "vis_m": 9999,
      "fzfg": false,
      "metar_trigger": false,
      "taf_trigger": false,
      "metar": "METAR LEMG 152200Z 13003KT CAVOK 22/18 Q1016 NOSIG",
      "taf": "TAF LEMG 151700Z 1518/1618 08010KT CAVOK TX38/1614Z TN22/1605Z"
    },
    {
      "icao": "LEVC",
      "alert": "OK",
      "vis_m": 9999,
      "fzfg": false,
      "metar_trigger": false,
      "taf_trigger": false,
      "metar": "METAR LEVC 152200Z 05004KT 010V100 CAVOK 28/24 Q1015 NOSIG",
      "taf": "TAF LEVC 151700Z 1518/1618 12010KT CAVOK TX35/1615Z TN25/1605Z"
    },
    {
      "icao": "LEXJ",
      "alert": "OK",
      "vis_m": 8000,
      "fzfg": false,
      "metar_trigger": false,
      "taf_trigger": false,
      "metar": "METAR LEXJ 152200Z AUTO VRB02KT 8000 FEW020 BKN034 BKN041 23/20 Q1020",
      "taf": "TAF LEXJ 152000Z 1521/1621 24005KT 9999 SCT016 BKN020 TX26/1613Z TN20/1604Z"
    },
    {
      "icao": "LEZG",
      "alert": "OK",
      "vis_m": 9999,
      "fzfg": false,
      "metar_trigger": false,
      "taf_trigger": false,
      "metar": "METAR LEZG 152200Z VRB02KT CAVOK 34/08 Q1015 NOSIG",
      "taf": "TAF LEZG 151700Z 1518/1618 25012KT CAVOK TX39/1615Z TN22/1605Z"
    },
    {
      "icao": "LEZL",
      "alert": "OK",
      "vis_m": 9999,
      "fzfg": false,
      "metar_trigger": false,
      "taf_trigger": false,
      "metar": "METAR LEZL 152200Z 20007KT 150V230 CAVOK 27/15 Q1016 NOSIG",
      "taf": "TAF LEZL 152000Z 1521/1621 22009KT CAVOK TX38/1615Z TN21/1605Z"
    },
    {
      "icao": "LFBD",
      "alert": "OK",
      "vis_m": 9999,
      "fzfg": false,
      "metar_trigger": false,
      "taf_trigger": false,
      "metar": "METAR LFBD 152230Z AUTO 24005KT CAVOK 23/20 Q1018 NOSIG",
      "taf": "TAF LFBD 151700Z 1518/1624 30010KT CAVOK TX33/1612Z TN21/1605Z"
    },
    {
      "icao": "LFLL",
      "alert": "OK",
      "vis_m": 9999,
      "fzfg": false,
      "metar_trigger": false,
      "taf_trigger": false,
      "metar": "METAR LFLL 152230Z 13006KT CAVOK 23/20 Q1018 RETSRA NOSIG",
      "taf": ""
    },
    {
      "icao": "LFLS",
      "alert": "OK",
      "vis_m": 9999,
      "fzfg": false,
      "metar_trigger": false,
      "taf_trigger": false,
      "metar": "METAR LFLS 152230Z AUTO 08007KT CAVOK 20/16 Q1019",
      "taf": "TAF LFLS 151400Z 1515/1615 VRB05KT CAVOK"
    },
    {
      "icao": "LFMN",
      "alert": "OK",
      "vis_m": 9999,
      "fzfg": false,
      "metar_trigger": false,
      "taf_trigger": false,
      "metar": "METAR LFMN 152230Z 14004KT 9999 SCT022 27/23 Q1017 NOSIG",
      "taf": "TAF LFMN 152000Z 1521/1703 VRB02KT 9999 BKN015"
    },
    {
      "icao": "LFOB",
      "alert": "OK",
      "vis_m": 9999,
      "fzfg": false,
      "metar_trigger": false,
      "taf_trigger": false,
      "metar": "METAR LFOB 152230Z AUTO 01009KT CAVOK 22/13 Q1019 NOSIG",
      "taf": "TAF LFOB 151700Z 1518/1618 04010KT CAVOK"
    },
    {
      "icao": "LFPO",
      "alert": "OK",
      "vis_m": 9999,
      "fzfg": false,
      "metar_trigger": false,
      "taf_trigger": false,
      "metar": "METAR LFPO 152230Z AUTO 04010KT CAVOK 27/11 Q1018 NOSIG",
      "taf": ""
    },
    {
      "icao": "LFSB",
      "alert": "OK",
      "vis_m": 9999,
      "fzfg": false,
      "metar_trigger": false,
      "taf_trigger": false,
      "metar": "METAR LFSB 152230Z AUTO 00000KT 9999 ///TCU 21/19 Q1019 TEMPO SHRA FEW070CB",
      "taf": "TAF LFSB 151700Z 1518/1618 VRB04KT 9999 FEW050 SCT150"
    },
    {
      "icao": "LGAV",
      "alert": "OK",
      "vis_m": 9999,
      "fzfg": false,
      "metar_trigger": false,
      "taf_trigger": false,
      "metar": "METAR LGAV 152220Z 35006KT CAVOK 27/10 Q1016 NOSIG",
      "taf": "TAF LGAV 151700Z 1518/1618 02016KT 9999 FEW025"
    },
    {
      "icao": "LGTS",
      "alert": "OK",
      "vis_m": 9999,
      "fzfg": false,
      "metar_trigger": false,
      "taf_trigger": false,
      "metar": "METAR LGTS 152220Z VRB02KT 9999 FEW025 25/18 Q1016 NOSIG",
      "taf": "TAF LGTS 151700Z 1518/1618 VRB03KT 9999 FEW030"
    },
    {
      "icao": "LHBP",
      "alert": "OK",
      "vis_m": 9999,
      "fzfg": false,
      "metar_trigger": false,
      "taf_trigger": false,
      "metar": "METAR LHBP 152230Z 34003KT CAVOK 21/17 Q1018 NOSIG",
      "taf": "TAF LHBP 151715Z 1518/1618 07005KT CAVOK"
    },
    {
      "icao": "LHDC",
      "alert": "OK",
      "vis_m": 9999,
      "fzfg": false,
      "metar_trigger": false,
      "taf_trigger": false,
      "metar": "METAR LHDC 152215Z AUTO 03005KT 350V050 CAVOK 22/17 Q1018",
      "taf": "TAF LHDC 151715Z 1518/1603 05007KT CAVOK"
    },
    {
      "icao": "LIBD",
      "alert": "OK",
      "vis_m": 9999,
      "fzfg": false,
      "metar_trigger": false,
      "taf_trigger": false,
      "metar": "METAR LIBD 152220Z VRB01KT CAVOK 25/18 Q1017",
      "taf": "TAF LIBD 151700Z 1518/1618 VRB05KT CAVOK"
    },
    {
      "icao": "LIBG",
      "alert": "OK",
      "vis_m": 9999,
      "fzfg": false,
      "metar_trigger": false,
      "taf_trigger": false,
      "metar": "METAR LIBG 152220Z AUTO VRB02KT 9999 NCD 25/16 Q1017",
      "taf": "TAF LIBG 151700Z 1518/1618 VRB05KT CAVOK"
    },
    {
      "icao": "LIBP",
      "alert": "OK",
      "vis_m": 9999,
      "fzfg": false,
      "metar_trigger": false,
      "taf_trigger": false,
      "metar": "METAR LIBP 152220Z AUTO VRB02KT 9999 NCD 26/22 Q1018",
      "taf": "TAF LIBP 151700Z 1518/1618 VRB06KT CAVOK"
    },
    {
      "icao": "LIBR",
      "alert": "OK",
      "vis_m": 9999,
      "fzfg": false,
      "metar_trigger": false,
      "taf_trigger": false,
      "metar": "METAR LIBR 152220Z 32003KT CAVOK 26/24 Q1017",
      "taf": "TAF LIBR 151700Z 1518/1618 VRB05KT CAVOK"
    },
    {
      "icao": "LICA",
      "alert": "OK",
      "vis_m": 9999,
      "fzfg": false,
      "metar_trigger": false,
      "taf_trigger": false,
      "metar": "METAR LICA 152220Z AUTO 07004KT 9999 NCD 23/21 Q1018",
      "taf": "TAF LICA 151700Z 1518/1618 24010KT CAVOK"
    },
    {
      "icao": "LICC",
      "alert": "OK",
      "vis_m": 9999,
      "fzfg": false,
      "metar_trigger": false,
      "taf_trigger": false,
      "metar": "METAR LICC 152220Z 25006KT CAVOK 25/15 Q1016",
      "taf": "TAF LICC 151700Z 1518/1618 VRB05KT CAVOK"
    },
    {
      "icao": "LICJ",
      "alert": "OK",
      "vis_m": 9999,
      "fzfg": false,
      "metar_trigger": false,
      "taf_trigger": false,
      "metar": "METAR LICJ 152220Z 18004KT CAVOK 27/25 Q1017",
      "taf": "TAF LICJ 151700Z 1518/1618 VRB05KT CAVOK"
    },
    {
      "icao": "LIMC",
      "alert": "OK",
      "vis_m": 9999,
      "fzfg": false,
      "metar_trigger": false,
      "taf_trigger": false,
      "metar": "METAR LIMC 152220Z 36008KT CAVOK 22/19 Q1018 NOSIG",
      "taf": "TAF LIMC 151700Z 1518/1624 VRB06KT 9999 SCT050"
    },
    {
      "icao": "LIME",
      "alert": "OK",
      "vis_m": 9999,
      "fzfg": false,
      "metar_trigger": false,
      "taf_trigger": false,
      "metar": "METAR LIME 152220Z 01005KT 9999 SCT080 23/19 Q1018 NOSIG",
      "taf": "TAF LIME 151700Z 1518/1618 VRB06KT 9999 SCT050"
    },
    {
      "icao": "LIMF",
      "alert": "OK",
      "vis_m": 9999,
      "fzfg": false,
      "metar_trigger": false,
      "taf_trigger": false,
      "metar": "METAR LIMF 152220Z 32004KT CAVOK 23/19 Q1019",
      "taf": "TAF LIMF 151700Z 1518/1618 VRB06KT 9999 SCT040"
    },
    {
      "icao": "LIMJ",
      "alert": "OK",
      "vis_m": 9999,
      "fzfg": false,
      "metar_trigger": false,
      "taf_trigger": false,
      "metar": "METAR LIMJ 152220Z 05006KT 9999 FEW025 25/22 Q1017",
      "taf": "TAF LIMJ 151700Z 1518/1618 VRB05KT 9999 SCT030"
    },
    {
      "icao": "LIPE",
      "alert": "OK",
      "vis_m": 9999,
      "fzfg": false,
      "metar_trigger": false,
      "taf_trigger": false,
      "metar": "METAR LIPE 152220Z AUTO 35004KT 310V040 9999 NCD 22/21 Q1016",
      "taf": "TAF LIPE 151700Z 1518/1618 VRB06KT 9999 SCT050"
    },
    {
      "icao": "LIPH",
      "alert": "OK",
      "vis_m": 9999,
      "fzfg": false,
      "metar_trigger": false,
      "taf_trigger": false,
      "metar": "METAR LIPH 152220Z AUTO 33004KT 9999 SCT070/// BKN240/// 24/20 Q1016",
      "taf": "TAF LIPH 151700Z 1518/1618 VRB04KT 9999 FEW040"
    },
    {
      "icao": "LIPQ",
      "alert": "OK",
      "vis_m": 9999,
      "fzfg": false,
      "metar_trigger": false,
      "taf_trigger": false,
      "metar": "METAR LIPQ 152220Z AUTO 36006KT 330V030 9999 NCD 25/21 Q1016",
      "taf": "TAF LIPQ 151700Z 1518/1618 VRB05KT 9999 SCT060"
    },
    {
      "icao": "LIPR",
      "alert": "OK",
      "vis_m": 9999,
      "fzfg": false,
      "metar_trigger": false,
      "taf_trigger": false,
      "metar": "METAR LIPR 152220Z AUTO 19008KT 9999 BKN190/// 23/19 Q1014",
      "taf": ""
    },
    {
      "icao": "LIPX",
      "alert": "OK",
      "vis_m": 9999,
      "fzfg": false,
      "metar_trigger": false,
      "taf_trigger": false,
      "metar": "METAR LIPX 152220Z 28004KT CAVOK 23/20 Q1016",
      "taf": "TAF LIPX 151700Z 1518/1618 VRB06KT 9999 SCT040"
    },
    {
      "icao": "LIPY",
      "alert": "OK",
      "vis_m": 9999,
      "fzfg": false,
      "metar_trigger": false,
      "taf_trigger": false,
      "metar": "METAR LIPY 152220Z AUTO 19009KT 150V220 9999 TS FEW034/// SCT098/// BKN170/// 22/20 Q1018 RERA",
      "taf": ""
    },
    {
      "icao": "LIPZ",
      "alert": "OK",
      "vis_m": 9999,
      "fzfg": false,
      "metar_trigger": false,
      "taf_trigger": false,
      "metar": "METAR LIPZ 152220Z 04005KT CAVOK 23/19 Q1016 NOSIG",
      "taf": "TAF LIPZ 151700Z 1518/1624 VRB06KT 9999 SCT055"
    },
    {
      "icao": "LIRF",
      "alert": "OK",
      "vis_m": 9999,
      "fzfg": false,
      "metar_trigger": false,
      "taf_trigger": false,
      "metar": "METAR LIRF 152220Z VRB02KT 9999 SCT010 26/25 Q1018 NOSIG",
      "taf": "TAF LIRF 151700Z 1518/1624 VRB05KT CAVOK"
    },
    {
      "icao": "LIRN",
      "alert": "OK",
      "vis_m": 9999,
      "fzfg": false,
      "metar_trigger": false,
      "taf_trigger": false,
      "metar": "METAR LIRN 152220Z VRB02KT CAVOK 28/22 Q1018 NOSIG",
      "taf": "TAF LIRN 151700Z 1518/1618 VRB05KT CAVOK"
    },
    {
      "icao": "LIRP",
      "alert": "OK",
      "vis_m": 9999,
      "fzfg": false,
      "metar_trigger": false,
      "taf_trigger": false,
      "metar": "METAR LIRP 152215Z VRB02KT CAVOK 25/23 Q1016 NOSIG",
      "taf": "TAF LIRP 151700Z 1518/1618 30010KT 9999 SCT025"
    },
    {
      "icao": "LIRZ",
      "alert": "OK",
      "vis_m": 9999,
      "fzfg": false,
      "metar_trigger": false,
      "taf_trigger": false,
      "metar": "METAR LIRZ 152220Z AUTO 03010KT 9999 FEW055/// 29/19 Q1018 RETS",
      "taf": "TAF LIRZ 151700Z 1518/1618 22010KT CAVOK"
    },
    {
      "icao": "LJLJ",
      "alert": "OK",
      "vis_m": 9999,
      "fzfg": false,
      "metar_trigger": false,
      "taf_trigger": false,
      "metar": "METAR LJLJ 152200Z 28006KT 9999 FEW047 SCT065 BKN120 20/19 Q1019 NOSIG",
      "taf": "TAF LJLJ 151700Z 1518/1618 12005KT 9999 FEW070"
    },
    {
      "icao": "LKMT",
      "alert": "OK",
      "vis_m": 9999,
      "fzfg": false,
      "metar_trigger": false,
      "taf_trigger": false,
      "metar": "METAR LKMT 152230Z VRB02KT CAVOK 17/17 Q1021 NOSIG",
      "taf": "TAF LKMT 151700Z 1518/1618 02006KT 9999 SCT027"
    },
    {
      "icao": "LKPR",
      "alert": "OK",
      "vis_m": 9999,
      "fzfg": false,
      "metar_trigger": false,
      "taf_trigger": false,
      "metar": "METAR LKPR 152230Z 04005KT 010V080 9999 FEW040CB 18/14 Q1020 TEMPO 5000 SHRA",
      "taf": "TAF LKPR 152000Z 1521/1703 02006KT CAVOK"
    },
    {
      "icao": "LLBG",
      "alert": "OK",
      "vis_m": 9999,
      "fzfg": false,
      "metar_trigger": false,
      "taf_trigger": false,
      "metar": "METAR LLBG 152220Z 27005KT 9999 SCT017 26/23 Q1009 NOSIG",
      "taf": "TAF LLBG 151705Z 1518/1618 32005KT 9999 FEW020 TX33/1612Z TN24/1603Z"
    },
    {
      "icao": "LMML",
      "alert": "OK",
      "vis_m": 9999,
      "fzfg": false,
      "metar_trigger": false,
      "taf_trigger": false,
      "metar": "METAR LMML 152215Z 23003KT 210V270 9999 FEW009 26/24 Q1017 NOSIG",
      "taf": ""
    },
    {
      "icao": "LOWW",
      "alert": "OK",
      "vis_m": 9999,
      "fzfg": false,
      "metar_trigger": false,
      "taf_trigger": false,
      "metar": "METAR LOWW 152220Z 33003KT CAVOK 23/17 Q1018 NOSIG",
      "taf": "TAF LOWW 152015Z 1521/1703 16005KT 9999 FEW050 TX30/1615Z TN19/1603Z"
    },
    {
      "icao": "LPFR",
      "alert": "OK",
      "vis_m": 9999,
      "fzfg": false,
      "metar_trigger": false,
      "taf_trigger": false,
      "metar": "METAR LPFR 152200Z 31011KT CAVOK 25/16 Q1017",
      "taf": "TAF LPFR 151700Z 1518/1618 25015KT CAVOK"
    },
    {
      "icao": "LPMA",
      "alert": "OK",
      "vis_m": 9999,
      "fzfg": false,
      "metar_trigger": false,
      "taf_trigger": false,
      "metar": "METAR LPMA 152200Z /////KT 9999 FEW015 23/20 Q1021",
      "taf": "TAF LPMA 151700Z 1518/1618 VRB05KT 9999 SCT015 BKN030"
    },
    {
      "icao": "LPPR",
      "alert": "OK",
      "vis_m": 9999,
      "fzfg": false,
      "metar_trigger": false,
      "taf_trigger": false,
      "metar": "METAR LPPR 152200Z 34003KT 9999 FEW011 19/18 Q1020",
      "taf": "TAF LPPR 151700Z 1518/1618 VRB02KT 9999 SCT015"
    },
    {
      "icao": "LPPS",
      "alert": "OK",
      "vis_m": 9999,
      "fzfg": false,
      "metar_trigger": false,
      "taf_trigger": false,
      "metar": "METAR LPPS 152200Z 29003KT 9999 FEW015 23/19 Q1021",
      "taf": "TAF LPPS 151700Z 1518/1624 15008KT 9999 SCT015"
    },
    {
      "icao": "LPPT",
      "alert": "OK",
      "vis_m": 9999,
      "fzfg": false,
      "metar_trigger": false,
      "taf_trigger": false,
      "metar": "METAR LPPT 152200Z 30009KT 9999 FEW018 21/18 Q1019 NOSIG",
      "taf": "TAF LPPT 151700Z 1518/1624 31010KT 9999 FEW030"
    },
    {
      "icao": "LQBK",
      "alert": "OK",
      "vis_m": 9999,
      "fzfg": false,
      "metar_trigger": false,
      "taf_trigger": false,
      "metar": "METAR LQBK 152200Z 02003KT CAVOK 23/18 Q1017 NOSIG",
      "taf": "TAF LQBK 151700Z 1518/1618 14005KT CAVOK TX32/1614Z TN17/1603Z"
    },
    {
      "icao": "LQSA",
      "alert": "OK",
      "vis_m": 9999,
      "fzfg": false,
      "metar_trigger": false,
      "taf_trigger": false,
      "metar": "METAR LQSA 152200Z 11002KT CAVOK 22/18 Q1020",
      "taf": "TAF LQSA 151700Z 1518/1618 VRB02KT CAVOK TX30/1612Z TN17/1604Z"
    },
    {
      "icao": "LQTZ",
      "alert": "OK",
      "vis_m": 9999,
      "fzfg": false,
      "metar_trigger": false,
      "taf_trigger": false,
      "metar": "METAR LQTZ 152200Z 00000KT CAVOK 20/20 Q1018",
      "taf": "TAF LQTZ 151700Z 1518/1618 20005KT CAVOK TX32/1614Z TN16/1603Z"
    },
    {
      "icao": "LRBC",
      "alert": "OK",
      "vis_m": 9999,
      "fzfg": false,
      "metar_trigger": false,
      "taf_trigger": false,
      "metar": "METAR LRBC 152200Z 01003KT CAVOK 22/18 Q1018",
      "taf": "TAF LRBC 152000Z 1521/1606 VRB04KT CAVOK"
    },
    {
      "icao": "LRBS",
      "alert": "OK",
      "vis_m": 9999,
      "fzfg": false,
      "metar_trigger": false,
      "taf_trigger": false,
      "metar": "METAR LRBS 152200Z 02004KT CAVOK 24/18 Q1017 NOSIG",
      "taf": "TAF LRBS 151700Z 1518/1618 VRB04KT 9999 SCT045"
    },
    {
      "icao": "LRBV",
      "alert": "OK",
      "vis_m": 9999,
      "fzfg": false,
      "metar_trigger": false,
      "taf_trigger": false,
      "metar": "METAR LRBV 152200Z AUTO 22004KT 9999 FEW100/// OVC130/// 19/16 Q1020",
      "taf": "TAF LRBV 151700Z 1518/1603 VRB04KT CAVOK"
    },
    {
      "icao": "LRCL",
      "alert": "OK",
      "vis_m": 9999,
      "fzfg": false,
      "metar_trigger": false,
      "taf_trigger": false,
      "metar": "METAR LRCL 152200Z 24003KT CAVOK 19/17 Q1019",
      "taf": "TAF LRCL 152000Z 1521/1606 VRB04KT 9999 SCT055"
    },
    {
      "icao": "LRCV",
      "alert": "OK",
      "vis_m": 9999,
      "fzfg": false,
      "metar_trigger": false,
      "taf_trigger": false,
      "metar": "METAR LRCV 152200Z 04004KT CAVOK 21/18 Q1018",
      "taf": "TAF LRCV 152000Z 1521/1606 07008KT CAVOK"
    },
    {
      "icao": "LRIA",
      "alert": "OK",
      "vis_m": 9999,
      "fzfg": false,
      "metar_trigger": false,
      "taf_trigger": false,
      "metar": "METAR LRIA 152200Z 24003KT 180V270 CAVOK 22/16 Q1018",
      "taf": "TAF LRIA 152000Z 1521/1606 VRB04KT CAVOK"
    },
    {
      "icao": "LROP",
      "alert": "OK",
      "vis_m": 9999,
      "fzfg": false,
      "metar_trigger": false,
      "taf_trigger": false,
      "metar": "METAR LROP 152200Z 05003KT CAVOK 24/20 Q1017 NOSIG",
      "taf": "TAF LROP 151700Z 1518/1618 VRB04KT 9999 SCT045"
    },
    {
      "icao": "LRSB",
      "alert": "OK",
      "vis_m": 9999,
      "fzfg": false,
      "metar_trigger": false,
      "taf_trigger": false,
      "metar": "METAR LRSB 152200Z 29005KT CAVOK 17/16 Q1020",
      "taf": "TAF LRSB 151700Z 1518/1618 VRB04KT 9999 SCT045"
    },
    {
      "icao": "LRSM",
      "alert": "OK",
      "vis_m": 9999,
      "fzfg": false,
      "metar_trigger": false,
      "taf_trigger": false,
      "metar": "METAR LRSM 152200Z AUTO 00000KT 9999 SCT095/// BKN110/// 22/17 Q1018",
      "taf": "TAF LRSM 151400Z 1515/1524 35010KT CAVOK"
    },
    {
      "icao": "LRSV",
      "alert": "OK",
      "vis_m": 9999,
      "fzfg": false,
      "metar_trigger": false,
      "taf_trigger": false,
      "metar": "METAR LRSV 152200Z 30007KT CAVOK 22/15 Q1019",
      "taf": "TAF LRSV 152000Z 1521/1606 32008KT CAVOK"
    },
    {
      "icao": "LRTM",
      "alert": "OK",
      "vis_m": 9999,
      "fzfg": false,
      "metar_trigger": false,
      "taf_trigger": false,
      "metar": "METAR LRTM 152200Z 25004KT CAVOK 20/18 Q1019",
      "taf": "TAF LRTM 152000Z 1521/1606 VRB04KT CAVOK"
    },
    {
      "icao": "LRTR",
      "alert": "OK",
      "vis_m": 9999,
      "fzfg": false,
      "metar_trigger": false,
      "taf_trigger": false,
      "metar": "METAR LRTR 152200Z 36006KT CAVOK 20/16 Q1017",
      "taf": "TAF LRTR 151700Z 1518/1618 VRB04KT CAVOK"
    },
    {
      "icao": "LTAC",
      "alert": "OK",
      "vis_m": 9999,
      "fzfg": false,
      "metar_trigger": false,
      "taf_trigger": false,
      "metar": "METAR LTAC 152220Z 04011KT CAVOK 19/11 Q1018 NOSIG RMK RWY21C 04010KT RWY03L 03011KT RWY21R 02010KT RWY03R 02011KT RWY21L 02010KT",
      "taf": "TAF LTAC 151640Z 1518/1618 VRB02KT CAVOK"
    },
    {
      "icao": "LTFM",
      "alert": "OK",
      "vis_m": 9999,
      "fzfg": false,
      "metar_trigger": false,
      "taf_trigger": false,
      "metar": "METAR LTFM 152220Z 16003KT 100V220 9999 FEW014 23/17 Q1017 NOSIG RMK RWY17L 31002KT RWY34L 25003KT 200V300 RWY16R 33002KT RWY36 VRB03KT RWY18 17003KT",
      "taf": "TAF LTFM 151640Z 1518/1624 04012KT CAVOK"
    },
    {
      "icao": "LUKK",
      "alert": "OK",
      "vis_m": 9999,
      "fzfg": false,
      "metar_trigger": false,
      "taf_trigger": false,
      "metar": "METAR LUKK 152200Z VRB03KT CAVOK 21/18 Q1017 NOSIG",
      "taf": "TAF LUKK 151717Z 1518/1618 34006KT CAVOK"
    },
    {
      "icao": "LWOH",
      "alert": "OK",
      "vis_m": null,
      "fzfg": false,
      "metar_trigger": false,
      "taf_trigger": false,
      "metar": "",
      "taf": "TAF LWOH 152025Z 1521/1621 34005KT CAVOK"
    },
    {
      "icao": "LWSK",
      "alert": "OK",
      "vis_m": 9999,
      "fzfg": false,
      "metar_trigger": false,
      "taf_trigger": false,
      "metar": "METAR LWSK 152220Z 11003KT 040V170 CAVOK 22/17 Q1018 NOSIG",
      "taf": "TAF LWSK 152025Z 1521/1621 VRB02KT CAVOK"
    },
    {
      "icao": "LYBE",
      "alert": "OK",
      "vis_m": 9999,
      "fzfg": false,
      "metar_trigger": false,
      "taf_trigger": false,
      "metar": "METAR LYBE 152200Z 35004KT 250V030 CAVOK 25/18 Q1017 NOSIG",
      "taf": "TAF LYBE 151700Z 1518/1618 03005KT CAVOK TX34/1614Z TN20/1603Z"
    },
    {
      "icao": "LYNI",
      "alert": "OK",
      "vis_m": 9999,
      "fzfg": false,
      "metar_trigger": false,
      "taf_trigger": false,
      "metar": "METAR LYNI 152200Z VRB01KT CAVOK 24/17 Q1018 NOSIG",
      "taf": "TAF LYNI 151700Z 1518/1618 32006KT CAVOK TX35/1614Z TN18/1603Z"
    },
    {
      "icao": "LYPG",
      "alert": "OK",
      "vis_m": 9999,
      "fzfg": false,
      "metar_trigger": false,
      "taf_trigger": false,
      "metar": "METAR LYPG 152200Z 35006KT CAVOK 28/18 Q1017 NOSIG",
      "taf": "TAF LYPG 151700Z 1518/1618 36006KT CAVOK TX36/1613Z TN23/1603Z"
    },
    {
      "icao": "LZIB",
      "alert": "OK",
      "vis_m": 9999,
      "fzfg": false,
      "metar_trigger": false,
      "taf_trigger": false,
      "metar": "METAR LZIB 152230Z 04005KT CAVOK 22/17 Q1018 NOSIG",
      "taf": "TAF LZIB 151715Z 1518/1618 08004KT CAVOK"
    },
    {
      "icao": "LZKZ",
      "alert": "OK",
      "vis_m": 9999,
      "fzfg": false,
      "metar_trigger": false,
      "taf_trigger": false,
      "metar": "METAR LZKZ 152230Z 00000KT CAVOK 18/17 Q1020 NOSIG",
      "taf": "TAF LZKZ 151715Z 1518/1618 02007KT CAVOK"
    },
    {
      "icao": "LZTT",
      "alert": "OK",
      "vis_m": 9999,
      "fzfg": false,
      "metar_trigger": false,
      "taf_trigger": false,
      "metar": "METAR LZTT 152230Z VRB02KT 9999 SCT036 15/15 Q1022",
      "taf": "TAF LZTT 151715Z 1518/1618 27004KT 9999 FEW020"
    },
    {
      "icao": "OEJN",
      "alert": "OK",
      "vis_m": 9999,
      "fzfg": false,
      "metar_trigger": false,
      "taf_trigger": false,
      "metar": "METAR OEJN 152200Z 25004KT CAVOK 32/20 Q1004 NOSIG",
      "taf": "TAF OEJN 151700Z 1518/1624 35007KT CAVOK"
    },
    {
      "icao": "OEMA",
      "alert": "OK",
      "vis_m": 9999,
      "fzfg": false,
      "metar_trigger": false,
      "taf_trigger": false,
      "metar": "METAR OEMA 152200Z 31011KT 9999 SCT040 39/00 Q1010 NOSIG",
      "taf": "TAF OEMA 151700Z 1518/1624 34010KT CAVOK"
    },
    {
      "icao": "OJAI",
      "alert": "OK",
      "vis_m": 5000,
      "fzfg": false,
      "metar_trigger": false,
      "taf_trigger": false,
      "metar": "METAR OJAI 152200Z 28006KT 5000 HZ NSC 21/12 Q1013 NOSIG",
      "taf": "TAF OJAI 151700Z 1518/1624 27008KT 5000 HZ NSC"
    },
    {
      "icao": "OMAA",
      "alert": "OK",
      "vis_m": 9999,
      "fzfg": false,
      "metar_trigger": false,
      "taf_trigger": false,
      "metar": "METAR OMAA 152230Z 36004KT 320V040 CAVOK 34/22 Q0996 NOSIG",
      "taf": "TAF OMAA 151700Z 1518/1700 36010KT 8000 NSC"
    },
    {
      "icao": "OMDB",
      "alert": "OK",
      "vis_m": 9999,
      "fzfg": false,
      "metar_trigger": false,
      "taf_trigger": false,
      "metar": "METAR OMDB 152230Z 07006KT CAVOK 35/20 Q0997 NOSIG",
      "taf": "TAF OMDB 151700Z 1518/1700 09012KT 8000 NSC"
    },
    {
      "icao": "UAAA",
      "alert": "OK",
      "vis_m": 9999,
      "fzfg": false,
      "metar_trigger": false,
      "taf_trigger": false,
      "metar": "METAR UAAA 152200Z 15004MPS 9999 FEW100 25/06 Q1008 NOSIG",
      "taf": "TAF UAAA 151701Z 1518/1618 17002MPS 9999 FEW050CB SCT100 TX38/1610Z TN20/1601Z"
    },
    {
      "icao": "UBBB",
      "alert": "OK",
      "vis_m": 9999,
      "fzfg": false,
      "metar_trigger": false,
      "taf_trigger": false,
      "metar": "METAR UBBB 152230Z 32018G28KT 9999 FEW060CB 26/21 Q1009 NOSIG",
      "taf": "TAF UBBB 151656Z 1518/1618 33022G32KT 9999 SCT015 TX29/1610Z TN23/1601Z"
    },
    {
      "icao": "UDSG",
      "alert": "OK",
      "vis_m": 9999,
      "fzfg": false,
      "metar_trigger": false,
      "taf_trigger": false,
      "metar": "METAR UDSG 152200Z 34005KT 9999 FEW049CB 17/13 Q1018 NOSIG",
      "taf": "TAF UDSG 151700Z 1518/1618 05006KT 9999 FEW050"
    },
    {
      "icao": "UDYZ",
      "alert": "OK",
      "vis_m": 9999,
      "fzfg": false,
      "metar_trigger": false,
      "taf_trigger": false,
      "metar": "METAR UDYZ 152200Z 22008KT 9999 NSC 24/14 Q1011 NOSIG",
      "taf": "TAF UDYZ 151700Z 1518/1618 02006KT 9999 FEW040"
    },
    {
      "icao": "UGKO",
      "alert": "OK",
      "vis_m": 9999,
      "fzfg": false,
      "metar_trigger": false,
      "taf_trigger": false,
      "metar": "METAR UGKO 152200Z VRB02KT 9999 FEW025 20/19 Q1014 NOSIG",
      "taf": "TAF UGKO 151700Z 1518/1618 26006KT 9999 SCT030 BKN070 TX28/1612Z TN19/1602Z"
    }
  ]
}