{
  "ts_utc": "2026-02-22T04:59:46Z",
  "threshold_m": 150,
  "source": "stations_override.txt (ICAO list) + aviationweather.gov (METAR/TAF raw)",
  "station_count": 159,
  "stations": [
    {
      "icao": "BIKF",
      "alert": "OK",
      "vis_m": 9999,
      "fzfg": false,
      "metar_trigger": false,
      "taf_trigger": false,
      "metar": "METAR BIKF 220430Z 07022KT 9999 BKN039 03/M05 Q0993",
      "taf": "TAF BIKF 220446Z 2206/2306 09020G30KT 9999 BKN035 TX03/2215Z TN02/2206Z"
    },
    {
      "icao": "BKPR",
      "alert": "OK",
      "vis_m": null,
      "fzfg": false,
      "metar_trigger": false,
      "taf_trigger": false,
      "metar": "",
      "taf": "TAF BKPR 212330Z 2200/2224 01008KT 9999 SCT012 BKN030"
    },
    {
      "icao": "EBCI",
      "alert": "OK",
      "vis_m": 4000,
      "fzfg": false,
      "metar_trigger": false,
      "taf_trigger": false,
      "metar": "METAR EBCI 220450Z 24011KT 4000 -DZRA FEW003 OVC005 11/11 Q1020 TEMPO 9999 -RADZ BKN004",
      "taf": "TAF EBCI 212310Z 2200/2306 23014KT 6000 -RA SCT003 BKN006"
    },
    {
      "icao": "EDDB",
      "alert": "OK",
      "vis_m": 9999,
      "fzfg": false,
      "metar_trigger": false,
      "taf_trigger": false,
      "metar": "METAR EDDB 220450Z AUTO 21005KT 9999 BKN020 BKN028 BKN045 06/06 Q1015 NOSIG",
      "taf": ""
    },
    {
      "icao": "EDDH",
      "alert": "OK",
      "vis_m": 4600,
      "fzfg": false,
      "metar_trigger": false,
      "taf_trigger": false,
      "metar": "METAR EDDH 220450Z AUTO 21008KT 4600 -RA BR BKN005 08/08 Q1011 RESHRA NOSIG",
      "taf": "TAF EDDH 212300Z 2200/2306 22005KT 9999 OVC007"
    },
    {
      "icao": "EDDK",
      "alert": "OK",
      "vis_m": 6000,
      "fzfg": false,
      "metar_trigger": false,
      "taf_trigger": false,
      "metar": "METAR EDDK 220450Z AUTO 22006KT 6000 -SHRA FEW006 BKN014 OVC019 SCT///TCU 11/10 Q1018 RESHRA TEMPO BKN012",
      "taf": "TAF EDDK 212300Z 2200/2306 18007KT 9999 SCT015 BKN025"
    },
    {
      "icao": "EDDN",
      "alert": "OK",
      "vis_m": 9999,
      "fzfg": false,
      "metar_trigger": false,
      "taf_trigger": false,
      "metar": "METAR EDDN 220450Z AUTO 24006KT 190V270 9999 -SHRA OVC016 OVC031 FEW///TCU 08/06 Q1021",
      "taf": "TAF EDDN 212300Z 2200/2224 24009KT 9999 SCT010 BKN020"
    },
    {
      "icao": "EDDS",
      "alert": "OK",
      "vis_m": 9999,
      "fzfg": false,
      "metar_trigger": false,
      "taf_trigger": false,
      "metar": "METAR EDDS 220450Z AUTO 22008KT 180V270 9999 SHRA BKN038 FEW///CB 08/05 Q1022",
      "taf": "TAF EDDS 212300Z 2200/2224 21007KT 9999 BKN045"
    },
    {
      "icao": "EDFH",
      "alert": "OK",
      "vis_m": 4000,
      "fzfg": false,
      "metar_trigger": false,
      "taf_trigger": false,
      "metar": "METAR EDFH 220450Z 26014KT 4000 -RA BR OVC001 09/09 Q1020",
      "taf": "TAF EDFH 212300Z 2200/2224 25015G25KT 9999 OVC005"
    },
    {
      "icao": "EDJA",
      "alert": "OK",
      "vis_m": 9999,
      "fzfg": false,
      "metar_trigger": false,
      "taf_trigger": false,
      "metar": "METAR EDJA 220450Z 23011KT 9999 -RA BKN053 05/02 Q1024",
      "taf": "TAF EDJA 220200Z 2203/2212 22015G25KT 9999 BKN045"
    },
    {
      "icao": "EDLW",
      "alert": "OK",
      "vis_m": 9999,
      "fzfg": false,
      "metar_trigger": false,
      "taf_trigger": false,
      "metar": "METAR EDLW 220450Z 23013KT 9999 -RA OVC007 11/10 Q1016",
      "taf": "TAF EDLW 220420Z 2205/2224 23013KT 8000 BKN007"
    },
    {
      "icao": "EDNY",
      "alert": "OK",
      "vis_m": 9999,
      "fzfg": false,
      "metar_trigger": false,
      "taf_trigger": false,
      "metar": "METAR EDNY 220450Z 16007KT 9999 SCT059 05/03 Q1026",
      "taf": "TAF EDNY 220200Z 2203/2212 16005KT 9999 BKN050"
    },
    {
      "icao": "EDSB",
      "alert": "OK",
      "vis_m": 6000,
      "fzfg": false,
      "metar_trigger": false,
      "taf_trigger": false,
      "metar": "METAR EDSB 220450Z 20014KT 6000 RA SCT019 OVC023 09/08 Q1024",
      "taf": "TAF EDSB 212300Z 2200/2224 21013KT 9999 OVC030"
    },
    {
      "icao": "EETN",
      "alert": "OK",
      "vis_m": 5000,
      "fzfg": false,
      "metar_trigger": false,
      "taf_trigger": false,
      "metar": "METAR EETN 220450Z 26013KT 5000 SN OVC007 M03/M03 Q0996 TEMPO 3000",
      "taf": "TAF EETN 212330Z 2200/2224 19012KT 5000 SN SCT010 BKN020"
    },
    {
      "icao": "EFTU",
      "alert": "OK",
      "vis_m": 9999,
      "fzfg": false,
      "metar_trigger": false,
      "taf_trigger": false,
      "metar": "METAR EFTU 220450Z AUTO 33010KT 300V360 9999 -SHSN OVC008 M04/M05 Q1000",
      "taf": "TAF EFTU 220230Z 2203/2303 31012KT 9999 BKN009"
    },
    {
      "icao": "EGBB",
      "alert": "OK",
      "vis_m": 9999,
      "fzfg": false,
      "metar_trigger": false,
      "taf_trigger": false,
      "metar": "METAR EGBB 220450Z 22007KT 190V260 9999 OVC007 11/10 Q1013",
      "taf": "TAF EGBB 212255Z 2200/2224 22010KT 9999 SCT020"
    },
    {
      "icao": "EGGP",
      "alert": "OK",
      "vis_m": 9999,
      "fzfg": false,
      "metar_trigger": false,
      "taf_trigger": false,
      "metar": "METAR EGGP 220450Z 23009KT 9999 FEW045 10/08 Q1011",
      "taf": "TAF EGGP 212255Z 2200/2224 23010KT 9999 FEW020 SCT030"
    },
    {
      "icao": "EGGW",
      "alert": "OK",
      "vis_m": 9999,
      "fzfg": false,
      "metar_trigger": false,
      "taf_trigger": false,
      "metar": "METAR EGGW 220450Z AUTO 22011KT 9999 OVC012 11/10 Q1014",
      "taf": ""
    },
    {
      "icao": "EGKK",
      "alert": "OK",
      "vis_m": 9999,
      "fzfg": false,
      "metar_trigger": false,
      "taf_trigger": false,
      "metar": "METAR EGKK 220450Z 22013G23KT 9999 BKN006 11/11 Q1017",
      "taf": "TAF EGKK 212257Z 2200/2306 23010KT 9999 BKN007"
    },
    {
      "icao": "EGNM",
      "alert": "OK",
      "vis_m": 9999,
      "fzfg": false,
      "metar_trigger": false,
      "taf_trigger": false,
      "metar": "METAR EGNM 220450Z 25016G27KT 9999 -RA FEW012 BKN016 10/09 Q1008",
      "taf": "TAF EGNM 212300Z 2200/2224 23010KT 9999 BKN010"
    },
    {
      "icao": "EGPD",
      "alert": "OK",
      "vis_m": 9999,
      "fzfg": false,
      "metar_trigger": false,
      "taf_trigger": false,
      "metar": "METAR EGPD 220450Z COR AUTO 25006KT 9999 NCD 05/04 Q1002 NOSIG",
      "taf": ""
    },
    {
      "icao": "EGPF",
      "alert": "OK",
      "vis_m": 9999,
      "fzfg": false,
      "metar_trigger": false,
      "taf_trigger": false,
      "metar": "METAR EGPF 220450Z AUTO 23011KT 9999 NCD 08/06 Q1005",
      "taf": ""
    },
    {
      "icao": "EHBK",
      "alert": "OK",
      "vis_m": 9999,
      "fzfg": false,
      "metar_trigger": false,
      "taf_trigger": false,
      "metar": "METAR EHBK 220455Z AUTO 23013KT 210V270 9999 FEW005 BKN006 OVC008 11/11 Q1018 REDZ TEMPO 4000 RADZ",
      "taf": "TAF EHBK 212310Z 2200/2306 24012KT 7000 -RADZ BKN006"
    },
    {
      "icao": "EHEH",
      "alert": "OK",
      "vis_m": 9999,
      "fzfg": false,
      "metar_trigger": false,
      "taf_trigger": false,
      "metar": "METAR EHEH 220425Z AUTO 23012G22KT 210V290 9999 SCT006 BKN008 OVC009 12/11 Q1017 GRN",
      "taf": "TAF EHEH 220005Z 2200/2306 23012G22KT 8000 -RADZ BKN006 BKN008 OVC012"
    },
    {
      "icao": "EKBI",
      "alert": "OK",
      "vis_m": 6000,
      "fzfg": false,
      "metar_trigger": false,
      "taf_trigger": false,
      "metar": "METAR EKBI 220450Z AUTO 10006KT 6000 -RA OVC003/// 02/02 Q1009",
      "taf": ""
    },
    {
      "icao": "EKCH",
      "alert": "OK",
      "vis_m": 9999,
      "fzfg": false,
      "metar_trigger": false,
      "taf_trigger": false,
      "metar": "METAR EKCH 220450Z AUTO 22001KT 9999 OVC065/// 00/M00 Q1013 NOSIG",
      "taf": "TAF EKCH 220227Z 2203/2303 30004KT CAVOK"
    },
    {
      "icao": "ENAL",
      "alert": "OK",
      "vis_m": 9999,
      "fzfg": false,
      "metar_trigger": false,
      "taf_trigger": false,
      "metar": "METAR ENAL 220450Z AUTO 13012KT 9999 NCD 01/M01 Q1007",
      "taf": "TAF ENAL 220200Z 2203/2212 13008KT 9999 FEW010 BKN020"
    },
    {
      "icao": "ENBR",
      "alert": "OK",
      "vis_m": 9999,
      "fzfg": false,
      "metar_trigger": false,
      "taf_trigger": false,
      "metar": "METAR ENBR 220450Z 00000KT CAVOK M00/M04 Q1006 RMK WIND 1200FT 13011KT",
      "taf": "TAF ENBR 212300Z 2200/2224 VRB03KT 9999 FEW025 BKN060"
    },
    {
      "icao": "ENGM",
      "alert": "OK",
      "vis_m": 9999,
      "fzfg": false,
      "metar_trigger": false,
      "taf_trigger": false,
      "metar": "METAR ENGM 220450Z VRB02KT CAVOK M12/M13 Q1010 NOSIG",
      "taf": "TAF ENGM 212300Z 2200/2224 VRB03KT CAVOK"
    },
    {
      "icao": "ENHD",
      "alert": "OK",
      "vis_m": 9999,
      "fzfg": false,
      "metar_trigger": false,
      "taf_trigger": false,
      "metar": "METAR ENHD 220450Z AUTO 11010KT 9999 NCD 02/M02 Q1005",
      "taf": "TAF ENHD 220200Z 2203/2212 11008KT 9999 FEW012 BKN025"
    },
    {
      "icao": "ENTC",
      "alert": "OK",
      "vis_m": 9999,
      "fzfg": false,
      "metar_trigger": false,
      "taf_trigger": false,
      "metar": "METAR ENTC 220450Z 21005KT 180V240 9999 -SN SCT010 BKN020 M03/M04 Q0999 RMK WIND 2600FT 01010KT",
      "taf": ""
    },
    {
      "icao": "ENTO",
      "alert": "OK",
      "vis_m": 9999,
      "fzfg": false,
      "metar_trigger": false,
      "taf_trigger": false,
      "metar": "METAR ENTO 220450Z AUTO 35002KT 9999 NCD M05/M05 Q1010",
      "taf": "TAF ENTO 212300Z 2200/2224 VRB03KT CAVOK"
    },
    {
      "icao": "ENVA",
      "alert": "OK",
      "vis_m": 9999,
      "fzfg": false,
      "metar_trigger": false,
      "taf_trigger": false,
      "metar": "METAR ENVA 220450Z 22004KT 170V250 9999 SCT014 BKN019 M02/M03 Q1008 RMK WIND 670FT 24006KT",
      "taf": "TAF ENVA 212300Z 2200/2224 26008KT 9999 FEW010 BKN020"
    },
    {
      "icao": "ENZV",
      "alert": "OK",
      "vis_m": 9999,
      "fzfg": false,
      "metar_trigger": false,
      "taf_trigger": false,
      "metar": "METAR ENZV 220450Z 13006KT CAVOK 02/M04 Q1006",
      "taf": "TAF ENZV 212300Z 2200/2224 15008KT 9999 SCT040"
    },
    {
      "icao": "EPGD",
      "alert": "OK",
      "vis_m": 9999,
      "fzfg": false,
      "metar_trigger": false,
      "taf_trigger": false,
      "metar": "METAR EPGD 220430Z 28016KT 9999 BKN011 02/M01 Q1012",
      "taf": ""
    },
    {
      "icao": "EPKK",
      "alert": "OK",
      "vis_m": 9999,
      "fzfg": false,
      "metar_trigger": false,
      "taf_trigger": false,
      "metar": "METAR EPKK 220430Z 24003KT 9999 FEW030 BKN054 03/01 Q1019",
      "taf": "TAF EPKK 220230Z 2203/2303 23005KT 9999 BKN030"
    },
    {
      "icao": "EPKT",
      "alert": "OK",
      "vis_m": 7000,
      "fzfg": false,
      "metar_trigger": false,
      "taf_trigger": false,
      "metar": "METAR EPKT 220430Z 23006KT 7000 FEW046 02/01 Q1018",
      "taf": "TAF EPKT 212330Z 2200/2224 23008KT 9000 BKN020"
    },
    {
      "icao": "EPLB",
      "alert": "OK",
      "vis_m": 9999,
      "fzfg": false,
      "metar_trigger": false,
      "taf_trigger": false,
      "metar": "METAR EPLB 220430Z 23011KT 9999 FEW011 SCT021 BKN041 02/01 Q1017",
      "taf": "TAF EPLB 212330Z 2200/2224 22010KT 7000 -RA BKN020"
    },
    {
      "icao": "EPMO",
      "alert": "OK",
      "vis_m": 7000,
      "fzfg": false,
      "metar_trigger": false,
      "taf_trigger": false,
      "metar": "METAR EPMO 220430Z 23011KT 7000 BKN007 03/03 Q1015",
      "taf": "TAF EPMO 212330Z 2200/2224 22006KT 5000 -RA BR OVC010"
    },
    {
      "icao": "EPPO",
      "alert": "OK",
      "vis_m": 9999,
      "fzfg": false,
      "metar_trigger": false,
      "taf_trigger": false,
      "metar": "METAR EPPO 220430Z 25008KT 9999 OVC014 05/04 Q1016",
      "taf": ""
    },
    {
      "icao": "EPRA",
      "alert": "OK",
      "vis_m": 9999,
      "fzfg": false,
      "metar_trigger": false,
      "taf_trigger": false,
      "metar": "METAR EPRA 220430Z 24008KT 9999 FEW017 BKN045 03/02 Q1017",
      "taf": "TAF EPRA 220230Z 2203/2212 24010KT 9999 BKN030"
    },
    {
      "icao": "EPRZ",
      "alert": "OK",
      "vis_m": 7000,
      "fzfg": false,
      "metar_trigger": false,
      "taf_trigger": false,
      "metar": "METAR EPRZ 220430Z 22007KT 7000 -RA SCT002 BKN024 02/01 Q1019",
      "taf": "TAF EPRZ 212330Z 2200/2224 22006KT 9999 OVC020"
    },
    {
      "icao": "EPSC",
      "alert": "OK",
      "vis_m": 700,
      "fzfg": false,
      "metar_trigger": false,
      "taf_trigger": false,
      "metar": "METAR EPSC 220430Z 09003KT 0700 R31/1900U -RA FG BKN001 OVC003 03/03 Q1014",
      "taf": ""
    },
    {
      "icao": "EPSY",
      "alert": "OK",
      "vis_m": 9999,
      "fzfg": false,
      "metar_trigger": false,
      "taf_trigger": false,
      "metar": "METAR EPSY 220430Z 25007KT 220V290 9999 BKN017 02/01 Q1012",
      "taf": "TAF EPSY 220230Z 2203/2212 25008KT 8000 BKN020"
    },
    {
      "icao": "EPWA",
      "alert": "OK",
      "vis_m": 9999,
      "fzfg": false,
      "metar_trigger": false,
      "taf_trigger": false,
      "metar": "METAR EPWA 220430Z 24008KT 9999 BKN009 BKN014 04/03 Q1015 NOSIG",
      "taf": ""
    },
    {
      "icao": "EPWR",
      "alert": "OK",
      "vis_m": 9999,
      "fzfg": false,
      "metar_trigger": false,
      "taf_trigger": false,
      "metar": "METAR EPWR 220430Z 22007KT 9999 FEW023 05/02 Q1017",
      "taf": "TAF EPWR 220230Z 2203/2303 25010KT 9999 SCT040"
    },
    {
      "icao": "ESGG",
      "alert": "OK",
      "vis_m": 9999,
      "fzfg": true,
      "metar_trigger": false,
      "taf_trigger": false,
      "metar": "METAR ESGG 220450Z 09005KT CAVOK M05/M06 Q1010",
      "taf": "TAF ESGG 220230Z 2203/2303 11005KT 0200 FZFG NSC"
    },
    {
      "icao": "ESKN",
      "alert": "OK",
      "vis_m": 9999,
      "fzfg": false,
      "metar_trigger": false,
      "taf_trigger": false,
      "metar": "METAR ESKN 220450Z 29006KT 270V330 CAVOK M05/M06 Q1008",
      "taf": "TAF ESKN 220230Z 2203/2303 29007KT CAVOK"
    },
    {
      "icao": "ESMS",
      "alert": "OK",
      "vis_m": 9999,
      "fzfg": false,
      "metar_trigger": false,
      "taf_trigger": false,
      "metar": "METAR ESMS 220450Z 19001KT CAVOK M01/M01 Q1012",
      "taf": ""
    },
    {
      "icao": "ESSA",
      "alert": "OK",
      "vis_m": 9999,
      "fzfg": false,
      "metar_trigger": false,
      "taf_trigger": false,
      "metar": "METAR ESSA 220450Z 26007KT CAVOK M07/M08 Q1006 NOSIG",
      "taf": "TAF ESSA 220230Z 2203/2303 28007KT CAVOK"
    },
    {
      "icao": "EYKA",
      "alert": "OK",
      "vis_m": 9999,
      "fzfg": false,
      "metar_trigger": false,
      "taf_trigger": false,
      "metar": "METAR EYKA 220450Z 26018KT 9999 -RA BKN012 BKN020 02/00 Q1008",
      "taf": "TAF EYKA 212307Z 2200/2224 21010KT 3000 BR OVC005"
    },
    {
      "icao": "EYPA",
      "alert": "OK",
      "vis_m": 9999,
      "fzfg": false,
      "metar_trigger": false,
      "taf_trigger": false,
      "metar": "METAR EYPA 220450Z 31006KT 280V350 9999 SCT009 BKN014 BKN025 01/M00 Q1008",
      "taf": "TAF EYPA 212324Z 2200/2224 25010KT 5000 DZ BR OVC002"
    },
    {
      "icao": "EYVI",
      "alert": "OK",
      "vis_m": 2100,
      "fzfg": false,
      "metar_trigger": false,
      "taf_trigger": false,
      "metar": "METAR EYVI 220450Z 21013KT 2100 -FZDZ BR BKN002 00/M00 Q1008 NOSIG",
      "taf": ""
    },
    {
      "icao": "GCFV",
      "alert": "OK",
      "vis_m": 9999,
      "fzfg": false,
      "metar_trigger": false,
      "taf_trigger": false,
      "metar": "METAR GCFV 220430Z AUTO 34006KT CAVOK 16/12 Q1021",
      "taf": "TAF GCFV 220200Z 2203/2303 36010KT 8000 SCT007 TX25/2214Z TN18/2206Z"
    },
    {
      "icao": "GCLP",
      "alert": "OK",
      "vis_m": 9999,
      "fzfg": false,
      "metar_trigger": false,
      "taf_trigger": false,
      "metar": "METAR GCLP 220430Z 01014KT 9999 FEW020 17/15 Q1021 NOSIG",
      "taf": "TAF GCLP 220200Z 2203/2303 01015KT 9999 FEW015 TX26/2214Z TN18/2206Z"
    },
    {
      "icao": "GCTS",
      "alert": "OK",
      "vis_m": 9999,
      "fzfg": false,
      "metar_trigger": false,
      "taf_trigger": false,
      "metar": "METAR GCTS 220430Z 05007KT 340V110 CAVOK 17/13 Q1021 NOSIG",
      "taf": "TAF GCTS 220200Z 2203/2303 04010KT CAVOK TX28/2214Z TN18/2206Z"
    },
    {
      "icao": "GMAD",
      "alert": "OK",
      "vis_m": 9999,
      "fzfg": false,
      "metar_trigger": false,
      "taf_trigger": false,
      "metar": "METAR GMAD 220430Z 07010KT CAVOK 13/05 Q1022 NOSIG",
      "taf": "TAF GMAD 212300Z 2200/2306 12004KT CAVOK"
    },
    {
      "icao": "GMMN",
      "alert": "OK",
      "vis_m": 8000,
      "fzfg": false,
      "metar_trigger": false,
      "taf_trigger": false,
      "metar": "METAR GMMN 220430Z 10006KT 8000 NSC 07/06 Q1024 NOSIG",
      "taf": "TAF GMMN 212300Z 2200/2306 17004KT 4000 BR NSC"
    },
    {
      "icao": "GMMX",
      "alert": "OK",
      "vis_m": 9999,
      "fzfg": false,
      "metar_trigger": false,
      "taf_trigger": false,
      "metar": "METAR GMMX 220430Z 09003KT CAVOK 09/05 Q1024 NOSIG",
      "taf": "TAF GMMX 212300Z 2200/2306 06006KT 8000 NSC"
    },
    {
      "icao": "HEGN",
      "alert": "OK",
      "vis_m": 9999,
      "fzfg": false,
      "metar_trigger": false,
      "taf_trigger": false,
      "metar": "METAR HEGN 220400Z 29014KT CAVOK 15/09 Q1014 NOSIG",
      "taf": ""
    },
    {
      "icao": "HEMA",
      "alert": "OK",
      "vis_m": 9999,
      "fzfg": false,
      "metar_trigger": false,
      "taf_trigger": false,
      "metar": "METAR HEMA 220400Z 33016KT CAVOK 19/10 Q1012 NOSIG",
      "taf": ""
    },
    {
      "icao": "HESH",
      "alert": "OK",
      "vis_m": 9999,
      "fzfg": false,
      "metar_trigger": false,
      "taf_trigger": false,
      "metar": "METAR HESH 220400Z 33012KT CAVOK 18/11 Q1012 NOSIG",
      "taf": ""
    },
    {
      "icao": "HESX",
      "alert": "OK",
      "vis_m": 9999,
      "fzfg": false,
      "metar_trigger": false,
      "taf_trigger": false,
      "metar": "METAR HESX 220400Z 30004KT CAVOK 08/05 Q1016 NOSIG",
      "taf": ""
    },
    {
      "icao": "LATI",
      "alert": "OK",
      "vis_m": 9999,
      "fzfg": false,
      "metar_trigger": false,
      "taf_trigger": false,
      "metar": "METAR LATI 220450Z 03005KT 350V060 9999 FEW092 BKN130 08/M02 Q1019 NOSIG",
      "taf": "TAF LATI 212300Z 2200/2224 VRB03KT CAVOK TX16/2212Z TN02/2205Z"
    },
    {
      "icao": "LBPD",
      "alert": "OK",
      "vis_m": 9999,
      "fzfg": false,
      "metar_trigger": false,
      "taf_trigger": false,
      "metar": "METAR LBPD 220430Z AUTO 29012KT 9999 BKN030/// OVC036/// 02/M01 Q1020 NOSIG",
      "taf": "TAF LBPD 212300Z 2200/2224 27016KT 9999 SCT020 OVC030"
    },
    {
      "icao": "LBSF",
      "alert": "OK",
      "vis_m": 9999,
      "fzfg": false,
      "metar_trigger": false,
      "taf_trigger": false,
      "metar": "METAR LBSF 220430Z 34003KT 280V020 9999 OVC042 M02/M04 Q1021 TEMPO 5000 -SN",
      "taf": "TAF LBSF 212300Z 2200/2224 30010KT 9999 SCT020 BKN035"
    },
    {
      "icao": "LBWN",
      "alert": "OK",
      "vis_m": 9999,
      "fzfg": false,
      "metar_trigger": false,
      "taf_trigger": false,
      "metar": "METAR LBWN 220430Z AUTO 27018KT 9999 -SHSN OVC013/// M01/M02 Q1020 TEMPO 5000 -SN",
      "taf": "TAF LBWN 212300Z 2200/2224 32012KT 9999 OVC008"
    },
    {
      "icao": "LCLK",
      "alert": "OK",
      "vis_m": 9999,
      "fzfg": false,
      "metar_trigger": false,
      "taf_trigger": false,
      "metar": "METAR LCLK 220430Z VRB02KT CAVOK 11/10 Q1013 NOSIG",
      "taf": "TAF LCLK 212330Z 2200/2300 29007KT 9999 FEW025"
    },
    {
      "icao": "LCPH",
      "alert": "OK",
      "vis_m": 9999,
      "fzfg": false,
      "metar_trigger": false,
      "taf_trigger": false,
      "metar": "METAR LCPH 220430Z 03005KT 010V080 9999 FEW017 10/08 Q1013 NOSIG",
      "taf": "TAF LCPH 212330Z 2200/2300 01007KT 9999 SCT025"
    },
    {
      "icao": "LEAL",
      "alert": "OK",
      "vis_m": 9999,
      "fzfg": false,
      "metar_trigger": false,
      "taf_trigger": false,
      "metar": "METAR LEAL 220430Z 26005KT CAVOK 06/04 Q1029 NOSIG",
      "taf": "TAF LEAL 212300Z 2200/2224 30004KT CAVOK TX20/2213Z TN07/2206Z"
    },
    {
      "icao": "LEBB",
      "alert": "OK",
      "vis_m": 9999,
      "fzfg": false,
      "metar_trigger": false,
      "taf_trigger": false,
      "metar": "METAR LEBB 220430Z 08005KT 9999 FEW025 05/05 Q1028 NOSIG",
      "taf": "TAF LEBB 212300Z 2200/2224 10005KT CAVOK TX17/2212Z TN05/2207Z"
    },
    {
      "icao": "LEBL",
      "alert": "OK",
      "vis_m": 9999,
      "fzfg": false,
      "metar_trigger": false,
      "taf_trigger": false,
      "metar": "METAR LEBL 220430Z 31010KT CAVOK 09/04 Q1027 NOSIG",
      "taf": "TAF LEBL 212300Z 2200/2224 33007KT CAVOK TX19/2213Z TN06/2207Z"
    },
    {
      "icao": "LECH",
      "alert": "OK",
      "vis_m": 9999,
      "fzfg": false,
      "metar_trigger": false,
      "taf_trigger": false,
      "metar": "METAR LECH 220430Z AUTO VRB01KT CAVOK 05/03 Q1028",
      "taf": ""
    },
    {
      "icao": "LEMD",
      "alert": "OK",
      "vis_m": 9999,
      "fzfg": false,
      "metar_trigger": false,
      "taf_trigger": false,
      "metar": "METAR LEMD 220430Z 35002KT CAVOK 02/02 Q1030 NOSIG",
      "taf": "TAF LEMD 212300Z 2200/2306 VRB04KT CAVOK TX20/2216Z TN01/2207Z"
    },
    {
      "icao": "LEMG",
      "alert": "OK",
      "vis_m": 9999,
      "fzfg": false,
      "metar_trigger": false,
      "taf_trigger": false,
      "metar": "METAR LEMG 220430Z 29008KT CAVOK 05/04 Q1029 NOSIG",
      "taf": "TAF LEMG 212300Z 2200/2224 29006KT CAVOK TX19/2214Z TN10/2207Z"
    },
    {
      "icao": "LEVC",
      "alert": "OK",
      "vis_m": 9999,
      "fzfg": false,
      "metar_trigger": false,
      "taf_trigger": false,
      "metar": "METAR LEVC 220430Z VRB02KT CAVOK 06/03 Q1028 NOSIG",
      "taf": "TAF LEVC 212300Z 2200/2224 30004KT CAVOK TX21/2214Z TN06/2206Z"
    },
    {
      "icao": "LEXJ",
      "alert": "OK",
      "vis_m": 9999,
      "fzfg": false,
      "metar_trigger": false,
      "taf_trigger": false,
      "metar": "METAR LEXJ 220430Z VRB02KT CAVOK 05/04 Q1029",
      "taf": "TAF LEXJ 220200Z 2203/2303 22005KT CAVOK TX15/2213Z TN05/2207Z"
    },
    {
      "icao": "LEZG",
      "alert": "OK",
      "vis_m": 9999,
      "fzfg": false,
      "metar_trigger": false,
      "taf_trigger": false,
      "metar": "METAR LEZG 220430Z 29003KT CAVOK 04/03 Q1029 NOSIG",
      "taf": "TAF LEZG 212300Z 2200/2224 32006KT CAVOK TX19/2214Z TN03/2206Z"
    },
    {
      "icao": "LEZL",
      "alert": "OK",
      "vis_m": 9999,
      "fzfg": false,
      "metar_trigger": false,
      "taf_trigger": false,
      "metar": "METAR LEZL 220430Z 06006KT 030V100 CAVOK 10/06 Q1027 NOSIG",
      "taf": "TAF LEZL 220200Z 2203/2303 05007KT CAVOK TX22/2215Z TN08/2207Z"
    },
    {
      "icao": "LFBD",
      "alert": "OK",
      "vis_m": 8000,
      "fzfg": false,
      "metar_trigger": false,
      "taf_trigger": false,
      "metar": "METAR LFBD 220430Z AUTO 13005KT 8000 1400 R23/P2300 R05/1700D R29/P2300 NSC 06/05 Q1029 TEMPO 0400 FG VV///",
      "taf": "TAF LFBD 212300Z 2200/2306 VRB03KT 6000 NSC TX16/2214Z TN04/2207Z"
    },
    {
      "icao": "LFLL",
      "alert": "OK",
      "vis_m": 9999,
      "fzfg": false,
      "metar_trigger": false,
      "taf_trigger": false,
      "metar": "METAR LFLL 220430Z 14007KT 9999 FEW033 BKN220 05/04 Q1029 NOSIG",
      "taf": ""
    },
    {
      "icao": "LFLS",
      "alert": "OK",
      "vis_m": 9999,
      "fzfg": false,
      "metar_trigger": false,
      "taf_trigger": false,
      "metar": "METAR LFLS 220430Z AUTO 08007KT CAVOK 01/M00 Q1028 TEMPO 4000 MIFG VV///",
      "taf": "TAF LFLS 220200Z 2203/2303 09005KT CAVOK"
    },
    {
      "icao": "LFMN",
      "alert": "OK",
      "vis_m": 9999,
      "fzfg": false,
      "metar_trigger": false,
      "taf_trigger": false,
      "metar": "METAR LFMN 220430Z 33009KT CAVOK 09/03 Q1024 NOSIG",
      "taf": "TAF LFMN 220200Z 2203/2309 34010KT CAVOK"
    },
    {
      "icao": "LFOB",
      "alert": "OK",
      "vis_m": 9999,
      "fzfg": false,
      "metar_trigger": false,
      "taf_trigger": false,
      "metar": "METAR LFOB 220430Z AUTO 23010KT 9999 BKN010 BKN015 BKN030 12/11 Q1022 TEMPO 3000 DZRA OVC004",
      "taf": "TAF LFOB 212300Z 2200/2224 24012KT 9999 OVC010"
    },
    {
      "icao": "LFPO",
      "alert": "OK",
      "vis_m": 9999,
      "fzfg": false,
      "metar_trigger": false,
      "taf_trigger": false,
      "metar": "METAR LFPO 220430Z 24009KT 9999 BKN008 12/10 Q1024 NOSIG",
      "taf": "TAF LFPO 212300Z 2200/2306 23012KT 9999 BKN013"
    },
    {
      "icao": "LFSB",
      "alert": "OK",
      "vis_m": 9999,
      "fzfg": false,
      "metar_trigger": false,
      "taf_trigger": false,
      "metar": "METAR LFSB 220430Z AUTO 15005KT 130V200 9999 BKN049 BKN072 OVC150 08/05 Q1026 NOSIG",
      "taf": "TAF LFSB 212300Z 2200/2224 23008KT 9999 FEW040 BKN060"
    },
    {
      "icao": "LGAV",
      "alert": "OK",
      "vis_m": 9999,
      "fzfg": false,
      "metar_trigger": false,
      "taf_trigger": false,
      "metar": "METAR LGAV 220450Z VRB02KT 9999 FEW020 SCT035 BKN060 10/05 Q1016 NOSIG",
      "taf": "TAF LGAV 212300Z 2200/2224 01010KT 9999 FEW025 SCT070"
    },
    {
      "icao": "LGTS",
      "alert": "OK",
      "vis_m": 9999,
      "fzfg": false,
      "metar_trigger": false,
      "taf_trigger": false,
      "metar": "METAR LGTS 220450Z 33014KT 9999 FEW025 06/M01 Q1020 NOSIG",
      "taf": "TAF LGTS 212300Z 2200/2224 34013KT 9999 FEW030"
    },
    {
      "icao": "LHBP",
      "alert": "OK",
      "vis_m": 3200,
      "fzfg": false,
      "metar_trigger": false,
      "taf_trigger": false,
      "metar": "METAR LHBP 220430Z 11002KT 3200 BCFG BR NSC M04/M04 Q1024 TEMPO 1400 PRFG",
      "taf": "TAF LHBP 212315Z 2200/2224 VRB03KT 5000 BR NSC"
    },
    {
      "icao": "LHDC",
      "alert": "OK",
      "vis_m": 4000,
      "fzfg": false,
      "metar_trigger": false,
      "taf_trigger": false,
      "metar": "METAR LHDC 220415Z AUTO 15004KT 4000 BR OVC007 02/02 Q1024",
      "taf": ""
    },
    {
      "icao": "LIBD",
      "alert": "OK",
      "vis_m": 9999,
      "fzfg": false,
      "metar_trigger": false,
      "taf_trigger": false,
      "metar": "METAR LIBD 220450Z 33006KT 290V360 9999 FEW040 11/05 Q1022",
      "taf": "TAF LIBD 212300Z 2200/2224 28013KT 9999 SCT030"
    },
    {
      "icao": "LIBG",
      "alert": "OK",
      "vis_m": null,
      "fzfg": false,
      "metar_trigger": false,
      "taf_trigger": false,
      "metar": "",
      "taf": "TAF LIBG 211700Z 2118/2203 34015KT 9999 SCT040"
    },
    {
      "icao": "LIBP",
      "alert": "OK",
      "vis_m": 9999,
      "fzfg": false,
      "metar_trigger": false,
      "taf_trigger": false,
      "metar": "METAR LIBP 220450Z AUTO 23005KT 9999 NCD 01/01 Q1026",
      "taf": "TAF LIBP 212300Z 2200/2224 24006KT 9999 SCT030"
    },
    {
      "icao": "LIBR",
      "alert": "OK",
      "vis_m": 9999,
      "fzfg": false,
      "metar_trigger": false,
      "taf_trigger": false,
      "metar": "METAR LIBR 220450Z 01012KT CAVOK 12/05 Q1020",
      "taf": "TAF LIBR 212300Z 2200/2224 34016KT 9999 SCT020"
    },
    {
      "icao": "LICA",
      "alert": "OK",
      "vis_m": 9999,
      "fzfg": false,
      "metar_trigger": false,
      "taf_trigger": false,
      "metar": "METAR LICA 220450Z AUTO VRB02KT 9999 NCD 05/04 Q1022",
      "taf": "TAF LICA 212300Z 2200/2224 28010KT 9999 FEW020"
    },
    {
      "icao": "LICC",
      "alert": "OK",
      "vis_m": 9999,
      "fzfg": false,
      "metar_trigger": false,
      "taf_trigger": false,
      "metar": "METAR LICC 220450Z 27003KT 230V290 CAVOK 06/03 Q1022",
      "taf": "TAF LICC 212300Z 2200/2224 24006KT 9999 BKN050"
    },
    {
      "icao": "LICJ",
      "alert": "OK",
      "vis_m": 9999,
      "fzfg": false,
      "metar_trigger": false,
      "taf_trigger": false,
      "metar": "METAR LICJ 220450Z AUTO 03005KT 010V090 9999 FEW025/// 13/07 Q1024",
      "taf": "TAF LICJ 212300Z 2200/2224 33014KT 9999 FEW030"
    },
    {
      "icao": "LIMC",
      "alert": "OK",
      "vis_m": 9999,
      "fzfg": false,
      "metar_trigger": false,
      "taf_trigger": false,
      "metar": "METAR LIMC 220450Z 36006KT 9999 R35R/P2000N R17L/0450N R35L/P2000N BCFG NSC 01/01 Q1025 NOSIG",
      "taf": "TAF LIMC 212300Z 2200/2306 VRB05KT CAVOK"
    },
    {
      "icao": "LIME",
      "alert": "OK",
      "vis_m": 9999,
      "fzfg": false,
      "metar_trigger": false,
      "taf_trigger": false,
      "metar": "METAR LIME 220450Z 03005KT CAVOK 04/02 Q1025 NOSIG",
      "taf": "TAF LIME 212300Z 2200/2224 VRB05KT CAVOK"
    },
    {
      "icao": "LIMF",
      "alert": "OK",
      "vis_m": 9999,
      "fzfg": false,
      "metar_trigger": false,
      "taf_trigger": false,
      "metar": "METAR LIMF 220450Z 02003KT CAVOK 05/03 Q1025",
      "taf": "TAF LIMF 212300Z 2200/2224 VRB05KT CAVOK"
    },
    {
      "icao": "LIMJ",
      "alert": "OK",
      "vis_m": 9999,
      "fzfg": false,
      "metar_trigger": false,
      "taf_trigger": false,
      "metar": "METAR LIMJ 220450Z 01003KT CAVOK 08/04 Q1025",
      "taf": "TAF LIMJ 212300Z 2200/2224 02006KT CAVOK"
    },
    {
      "icao": "LIPE",
      "alert": "OK",
      "vis_m": 9999,
      "fzfg": false,
      "metar_trigger": false,
      "taf_trigger": false,
      "metar": "METAR LIPE 220450Z 20005KT CAVOK 04/02 Q1025",
      "taf": "TAF LIPE 212300Z 2200/2224 VRB05KT CAVOK"
    },
    {
      "icao": "LIPH",
      "alert": "OK",
      "vis_m": 300,
      "fzfg": false,
      "metar_trigger": false,
      "taf_trigger": false,
      "metar": "METAR LIPH 220450Z AUTO VRB01KT 0300 0250W R07/1400D FG FEW008/// 02/02 Q1026",
      "taf": "TAF LIPH 212300Z 2200/2224 VRB05KT 3000 BR FEW040"
    },
    {
      "icao": "LIPQ",
      "alert": "OK",
      "vis_m": 8000,
      "fzfg": false,
      "metar_trigger": false,
      "taf_trigger": false,
      "metar": "METAR LIPQ 220450Z AUTO 31003KT 8000 NCD 00/M00 Q1025",
      "taf": "TAF LIPQ 212300Z 2200/2224 VRB06KT 9999 FEW030"
    },
    {
      "icao": "LIPR",
      "alert": "OK",
      "vis_m": 9999,
      "fzfg": false,
      "metar_trigger": false,
      "taf_trigger": false,
      "metar": "METAR LIPR 220450Z AUTO 25003KT 9999 NCD 01/00 Q1026",
      "taf": "TAF LIPR 212300Z 2200/2224 VRB06KT CAVOK"
    },
    {
      "icao": "LIPX",
      "alert": "OK",
      "vis_m": 9999,
      "fzfg": false,
      "metar_trigger": false,
      "taf_trigger": false,
      "metar": "METAR LIPX 220450Z 01003KT CAVOK 02/01 Q1025",
      "taf": "TAF LIPX 212300Z 2200/2224 VRB05KT CAVOK"
    },
    {
      "icao": "LIPY",
      "alert": "OK",
      "vis_m": 9999,
      "fzfg": false,
      "metar_trigger": false,
      "taf_trigger": false,
      "metar": "METAR LIPY 220450Z AUTO 18004KT 9999 NCD 02/01 Q1026",
      "taf": "TAF LIPY 212300Z 2200/2224 VRB05KT CAVOK"
    },
    {
      "icao": "LIPZ",
      "alert": "OK",
      "vis_m": 2500,
      "fzfg": false,
      "metar_trigger": false,
      "taf_trigger": false,
      "metar": "METAR LIPZ 220450Z VRB02KT 2500 BCFG NSC 03/03 Q1026 BECMG 1200 BCFG",
      "taf": "TAF LIPZ 212300Z 2200/2306 VRB05KT CAVOK"
    },
    {
      "icao": "LIRF",
      "alert": "OK",
      "vis_m": 9999,
      "fzfg": false,
      "metar_trigger": false,
      "taf_trigger": false,
      "metar": "METAR LIRF 220450Z 08004KT CAVOK 04/03 Q1024 NOSIG",
      "taf": "TAF LIRF 212300Z 2200/2306 01006KT CAVOK"
    },
    {
      "icao": "LIRN",
      "alert": "OK",
      "vis_m": 9999,
      "fzfg": false,
      "metar_trigger": false,
      "taf_trigger": false,
      "metar": "METAR LIRN 220450Z 34008KT CAVOK 08/02 Q1024 NOSIG",
      "taf": "TAF LIRN 212300Z 2200/2224 VRB05KT 9999 FEW040"
    },
    {
      "icao": "LIRP",
      "alert": "OK",
      "vis_m": 9999,
      "fzfg": false,
      "metar_trigger": false,
      "taf_trigger": false,
      "metar": "METAR LIRP 220445Z 12004KT CAVOK 05/05 Q1025 NOSIG",
      "taf": "TAF LIRP 212300Z 2200/2224 VRB03KT CAVOK"
    },
    {
      "icao": "LIRZ",
      "alert": "OK",
      "vis_m": 9999,
      "fzfg": false,
      "metar_trigger": false,
      "taf_trigger": false,
      "metar": "METAR LIRZ 220450Z AUTO 03005KT 9999 NCD 01/00 Q1025",
      "taf": "TAF LIRZ 212300Z 2200/2224 VRB05KT 9999 FEW030"
    },
    {
      "icao": "LJLJ",
      "alert": "OK",
      "vis_m": 5000,
      "fzfg": false,
      "metar_trigger": false,
      "taf_trigger": false,
      "metar": "METAR LJLJ 220430Z 00000KT 5000 BR FEW002 SCT005 BKN080 M02/M02 Q1025 NOSIG",
      "taf": "TAF LJLJ 212300Z 2200/2300 VRB02KT 9999 FEW065"
    },
    {
      "icao": "LKMT",
      "alert": "OK",
      "vis_m": 7000,
      "fzfg": false,
      "metar_trigger": false,
      "taf_trigger": false,
      "metar": "METAR LKMT 220430Z 22013KT 7000 NSC 02/01 Q1021 NOSIG",
      "taf": "TAF LKMT 212300Z 2200/2224 23012KT 8000 BKN040"
    },
    {
      "icao": "LKPR",
      "alert": "OK",
      "vis_m": 9999,
      "fzfg": false,
      "metar_trigger": false,
      "taf_trigger": false,
      "metar": "METAR LKPR 220430Z 20010KT 9999 FEW023 BKN035 06/04 Q1019 NOSIG",
      "taf": "TAF LKPR 220200Z 2203/2309 23011KT 9999 SCT030"
    },
    {
      "icao": "LLBG",
      "alert": "OK",
      "vis_m": 9999,
      "fzfg": false,
      "metar_trigger": false,
      "taf_trigger": false,
      "metar": "METAR LLBG 220450Z 19004KT 9999 FEW025 12/09 Q1015 NOSIG",
      "taf": "TAF LLBG 212304Z 2200/2224 15005KT 9999 SCT030"
    },
    {
      "icao": "LMML",
      "alert": "OK",
      "vis_m": 9999,
      "fzfg": false,
      "metar_trigger": false,
      "taf_trigger": false,
      "metar": "METAR LMML 220445Z 31007KT 270V350 9999 FEW020 11/08 Q1022 NOSIG",
      "taf": "TAF LMML 212300Z 2200/2224 33015KT 9999 FEW018"
    },
    {
      "icao": "LOWW",
      "alert": "OK",
      "vis_m": 7000,
      "fzfg": false,
      "metar_trigger": false,
      "taf_trigger": false,
      "metar": "METAR LOWW 220450Z 22003KT 180V260 7000 -RA FEW013 SCT028 BKN030 03/02 Q1023 RERA NOSIG",
      "taf": "TAF LOWW 220215Z 2203/2309 19005KT 9999 BKN040 TX11/2309Z TN04/2203Z"
    },
    {
      "icao": "LPFR",
      "alert": "OK",
      "vis_m": 9999,
      "fzfg": false,
      "metar_trigger": false,
      "taf_trigger": false,
      "metar": "METAR LPFR 220430Z 03008KT CAVOK 12/07 Q1026",
      "taf": "TAF LPFR 212300Z 2200/2224 05005KT CAVOK"
    },
    {
      "icao": "LPMA",
      "alert": "OK",
      "vis_m": 9999,
      "fzfg": false,
      "metar_trigger": false,
      "taf_trigger": false,
      "metar": "METAR LPMA 220430Z 01009KT 9999 SCT016 16/10 Q1024",
      "taf": "TAF LPMA 212300Z 2200/2224 02010KT 9999 SCT015"
    },
    {
      "icao": "LPPR",
      "alert": "OK",
      "vis_m": 9999,
      "fzfg": false,
      "metar_trigger": false,
      "taf_trigger": false,
      "metar": "METAR LPPR 220430Z 10003KT 020V190 CAVOK 08/07 Q1028",
      "taf": "TAF LPPR 212300Z 2200/2224 VRB02KT CAVOK"
    },
    {
      "icao": "LPPS",
      "alert": "OK",
      "vis_m": 9999,
      "fzfg": false,
      "metar_trigger": false,
      "taf_trigger": false,
      "metar": "METAR LPPS 220430Z 07007KT 9999 BKN015 16/11 Q1024",
      "taf": "TAF LPPS 212300Z 2200/2306 06008KT 9999 SCT015 SCT030"
    },
    {
      "icao": "LPPT",
      "alert": "OK",
      "vis_m": 9999,
      "fzfg": false,
      "metar_trigger": false,
      "taf_trigger": false,
      "metar": "METAR LPPT 220430Z 05003KT CAVOK 09/07 Q1027",
      "taf": "TAF LPPT 212300Z 2200/2306 01007KT CAVOK"
    },
    {
      "icao": "LQBK",
      "alert": "OK",
      "vis_m": 9999,
      "fzfg": false,
      "metar_trigger": false,
      "taf_trigger": false,
      "metar": "METAR LQBK 220430Z VRB01KT CAVOK M02/M02 Q1026 NOSIG",
      "taf": "TAF LQBK 212300Z 2200/2224 VRB03KT CAVOK TX12/2213Z TNM03/2206Z"
    },
    {
      "icao": "LQSA",
      "alert": "OK",
      "vis_m": 6000,
      "fzfg": false,
      "metar_trigger": false,
      "taf_trigger": false,
      "metar": "METAR LQSA 220430Z VRB02KT 6000 BKN008 01/01 Q1025 NOSIG",
      "taf": "TAF LQSA 212300Z 2200/2224 33005KT 9999 BKN030 TX09/2214Z TNM01/2204Z"
    },
    {
      "icao": "LQTZ",
      "alert": "OK",
      "vis_m": 4000,
      "fzfg": false,
      "metar_trigger": false,
      "taf_trigger": false,
      "metar": "METAR LQTZ 220430Z 31001KT 4000 2000W BR FEW001 OVC030 01/01 Q1026",
      "taf": "TAF LQTZ 212300Z 2200/2224 VRB02KT 9999 BKN030 TX11/2213Z TNM01/2206Z"
    },
    {
      "icao": "LRBC",
      "alert": "OK",
      "vis_m": 9999,
      "fzfg": false,
      "metar_trigger": false,
      "taf_trigger": false,
      "metar": "METAR LRBC 220430Z 00000KT 9999 OVC025 M04/M04 Q1022",
      "taf": "TAF LRBC 220200Z 2203/2212 08005KT 9999 BKN040"
    },
    {
      "icao": "LRBS",
      "alert": "OK",
      "vis_m": 9999,
      "fzfg": false,
      "metar_trigger": false,
      "taf_trigger": false,
      "metar": "METAR LRBS 220430Z 24008KT 9999 SCT008 M02/M03 Q1023 NOSIG",
      "taf": "TAF LRBS 212300Z 2200/2224 06010KT 3000 -SN BR BKN015 OVC030"
    },
    {
      "icao": "LRBV",
      "alert": "OK",
      "vis_m": 9999,
      "fzfg": false,
      "metar_trigger": false,
      "taf_trigger": false,
      "metar": "METAR LRBV 220430Z AUTO 31004KT 280V340 9999 BKN009/// OVC028/// M01/M02 Q1022",
      "taf": "TAF LRBV 220200Z 2203/2212 24008KT 9999 BKN015 BKN030"
    },
    {
      "icao": "LRCL",
      "alert": "OK",
      "vis_m": 9999,
      "fzfg": false,
      "metar_trigger": false,
      "taf_trigger": false,
      "metar": "METAR LRCL 220430Z 00000KT 9999 BKN023 OVC033 01/M01 Q1023",
      "taf": "TAF LRCL 220200Z 2203/2212 VRB04KT 9999 BKN015 OVC030"
    },
    {
      "icao": "LRCV",
      "alert": "OK",
      "vis_m": 8000,
      "fzfg": false,
      "metar_trigger": false,
      "taf_trigger": false,
      "metar": "METAR LRCV 220430Z 24006KT 8000 FEW049 M03/M03 Q1023",
      "taf": "TAF LRCV 220200Z 2203/2212 VRB04KT 9999 BKN040"
    },
    {
      "icao": "LRIA",
      "alert": "OK",
      "vis_m": 9999,
      "fzfg": false,
      "metar_trigger": false,
      "taf_trigger": false,
      "metar": "METAR LRIA 220430Z 07002KT 9999 FEW016 OVC039 M02/M04 Q1022",
      "taf": "TAF LRIA 220200Z 2203/2212 11005KT 9999 BKN040"
    },
    {
      "icao": "LROP",
      "alert": "OK",
      "vis_m": 8000,
      "fzfg": false,
      "metar_trigger": false,
      "taf_trigger": false,
      "metar": "METAR LROP 220430Z 25009KT 8000 NSC M02/M02 Q1022 NOSIG",
      "taf": "TAF LROP 212300Z 2200/2224 06010KT 3000 -SN BR BKN015 OVC030"
    },
    {
      "icao": "LRSB",
      "alert": "OK",
      "vis_m": 700,
      "fzfg": true,
      "metar_trigger": false,
      "taf_trigger": false,
      "metar": "METAR LRSB 220430Z COR 36002KT 0700 R27/P2000 FZFG FEW003 SCT010 BKN029 M01/M01 Q1022",
      "taf": ""
    },
    {
      "icao": "LRSM",
      "alert": "OK",
      "vis_m": 5000,
      "fzfg": false,
      "metar_trigger": false,
      "taf_trigger": false,
      "metar": "METAR LRSM 220430Z AUTO 20003KT 5000 BR BKN055/// BKN090/// 01/00 Q1024",
      "taf": "TAF LRSM 220200Z 2203/2212 VRB04KT 5000 BR BKN010 BKN025"
    },
    {
      "icao": "LRSV",
      "alert": "OK",
      "vis_m": 9999,
      "fzfg": false,
      "metar_trigger": false,
      "taf_trigger": false,
      "metar": "METAR LRSV 220430Z 27003KT 230V300 9999 BKN035 M00/M01 Q1020",
      "taf": "TAF LRSV 220200Z 2203/2212 22005KT 9999 BKN015 BKN040"
    },
    {
      "icao": "LRTM",
      "alert": "OK",
      "vis_m": 6000,
      "fzfg": false,
      "metar_trigger": false,
      "taf_trigger": false,
      "metar": "METAR LRTM 220430Z AUTO 23004KT 6000 -FZDZ SCT008/// OVC010/// 00/M00 Q1023",
      "taf": "TAF LRTM 220200Z 2203/2212 25006KT 5000 BR BKN015 BKN030"
    },
    {
      "icao": "LRTR",
      "alert": "OK",
      "vis_m": 5000,
      "fzfg": false,
      "metar_trigger": false,
      "taf_trigger": false,
      "metar": "METAR LRTR 220430Z 21003KT 160V250 5000 BR BKN005 OVC012 03/03 Q1025",
      "taf": "TAF LRTR 212300Z 2200/2224 VRB04KT 3000 BR BKN005 OVC010"
    },
    {
      "icao": "LTAC",
      "alert": "OK",
      "vis_m": 9999,
      "fzfg": false,
      "metar_trigger": false,
      "taf_trigger": false,
      "metar": "METAR LTAC 220450Z 36004KT 320V020 9999 FEW013 BKN025 BKN080 04/02 Q1010 NOSIG RMK RWY21C 35004KT RWY03L 34003KT RWY21R 34003KT RWY03R 32003KT 280V340 RWY21L 36004KT",
      "taf": "TAF LTAC 212240Z 2200/2224 VRB02KT 9999 SCT040 BKN100"
    },
    {
      "icao": "LTFM",
      "alert": "OK",
      "vis_m": 4800,
      "fzfg": false,
      "metar_trigger": false,
      "taf_trigger": false,
      "metar": "METAR LTFM 220450Z COR 01028KT 4800 1600SW -SHRASN BR BKN004 BKN020 04/03 Q1017 NOSIG RMK RWY17L 36022KT RWY34L 35026KT RWY16R 36023KT RWY36 36027KT RWY18 01026KT",
      "taf": "TAF LTFM 212240Z 2200/2306 01018KT 7000 -SHRA BKN006 BKN020"
    },
    {
      "icao": "LUKK",
      "alert": "OK",
      "vis_m": 9999,
      "fzfg": false,
      "metar_trigger": false,
      "taf_trigger": false,
      "metar": "METAR LUKK 220430Z VRB03KT CAVOK M04/M06 Q1021 NOSIG",
      "taf": "TAF LUKK 212319Z 2200/2224 35008KT CAVOK"
    },
    {
      "icao": "LWOH",
      "alert": "OK",
      "vis_m": null,
      "fzfg": false,
      "metar_trigger": false,
      "taf_trigger": false,
      "metar": "",
      "taf": "TAF LWOH 220210Z 2203/2303 36012KT 9999 BKN050"
    },
    {
      "icao": "LWSK",
      "alert": "OK",
      "vis_m": 9999,
      "fzfg": false,
      "metar_trigger": false,
      "taf_trigger": false,
      "metar": "METAR LWSK 220450Z 01005KT 9999 SCT024 BKN033 02/M02 Q1023 NOSIG",
      "taf": "TAF LWSK 220210Z 2203/2303 01010KT 9999 BKN030"
    },
    {
      "icao": "LYBE",
      "alert": "OK",
      "vis_m": 7000,
      "fzfg": false,
      "metar_trigger": false,
      "taf_trigger": false,
      "metar": "METAR LYBE 220430Z 23006KT 7000 FEW007 BKN027 02/01 Q1026 NOSIG",
      "taf": "TAF LYBE 212300Z 2200/2224 28008KT 9999 BKN014 BKN027 TX09/2213Z TN00/2204Z"
    },
    {
      "icao": "LYNI",
      "alert": "OK",
      "vis_m": 8000,
      "fzfg": false,
      "metar_trigger": false,
      "taf_trigger": false,
      "metar": "METAR LYNI 220430Z 30006KT 270V350 8000 -SN BKN009 OVC070 01/01 Q1024 NOSIG",
      "taf": "TAF LYNI 212300Z 2200/2224 35006KT 8000 SCT014 BKN040 TX05/2212Z TN00/2205Z"
    },
    {
      "icao": "LYPG",
      "alert": "OK",
      "vis_m": 9999,
      "fzfg": false,
      "metar_trigger": false,
      "taf_trigger": false,
      "metar": "METAR LYPG 220430Z 35010G20KT 9999 FEW070 09/M01 Q1021 NOSIG",
      "taf": "TAF LYPG 212300Z 2200/2224 34012KT CAVOK TX16/2213Z TN07/2205Z"
    },
    {
      "icao": "LZIB",
      "alert": "OK",
      "vis_m": 400,
      "fzfg": true,
      "metar_trigger": false,
      "taf_trigger": false,
      "metar": "METAR LZIB 220430Z VRB01KT 0400 R31/1600U R22/0400N FZFG BKN001 M03/M03 Q1024 TEMPO 0700 FZFG BKN002",
      "taf": ""
    },
    {
      "icao": "LZKZ",
      "alert": "OK",
      "vis_m": 9999,
      "fzfg": false,
      "metar_trigger": false,
      "taf_trigger": false,
      "metar": "METAR LZKZ 220430Z 09001KT 9999 OVC007 M02/M03 Q1023 NOSIG",
      "taf": "TAF LZKZ 212315Z 2200/2300 VRB02KT 9999 BKN035"
    },
    {
      "icao": "LZTT",
      "alert": "OK",
      "vis_m": 9999,
      "fzfg": false,
      "metar_trigger": false,
      "taf_trigger": false,
      "metar": "METAR LZTT 220430Z 24005KT 170V290 9999 FEW053 M02/M04 Q1019",
      "taf": ""
    },
    {
      "icao": "OEJN",
      "alert": "OK",
      "vis_m": 9999,
      "fzfg": false,
      "metar_trigger": false,
      "taf_trigger": false,
      "metar": "METAR OEJN 220400Z 00000KT CAVOK 24/17 Q1009 NOSIG",
      "taf": "TAF OEJN 212300Z 2200/2306 VRB03KT 7000 NSC"
    },
    {
      "icao": "OEMA",
      "alert": "OK",
      "vis_m": 9999,
      "fzfg": false,
      "metar_trigger": false,
      "taf_trigger": false,
      "metar": "METAR OEMA 220400Z 00000KT CAVOK 18/M08 Q1016 NOSIG",
      "taf": "TAF OEMA 212300Z 2200/2306 11005KT 7000 NSC"
    },
    {
      "icao": "OJAI",
      "alert": "OK",
      "vis_m": 2000,
      "fzfg": false,
      "metar_trigger": false,
      "taf_trigger": false,
      "metar": "METAR OJAI 220400Z 06003KT 2000 BR SCT035 05/05 Q1016 NOSIG",
      "taf": "TAF OJAI 212219Z 2200/2306 29012KT 5000 HZ FEW030"
    },
    {
      "icao": "OMAA",
      "alert": "OK",
      "vis_m": 5000,
      "fzfg": false,
      "metar_trigger": false,
      "taf_trigger": false,
      "metar": "METAR OMAA 220430Z 18004KT 5000 HZ FEW015 19/16 Q1013 WS ALL RWY NOSIG",
      "taf": "TAF OMAA 212300Z 2200/2306 VRB02KT 8000 NSC"
    },
    {
      "icao": "OMDB",
      "alert": "OK",
      "vis_m": 5000,
      "fzfg": false,
      "metar_trigger": false,
      "taf_trigger": false,
      "metar": "METAR OMDB 220430Z 16004KT 5000 HZ NSC 20/15 Q1012 NOSIG",
      "taf": ""
    },
    {
      "icao": "UAAA",
      "alert": "OK",
      "vis_m": 9999,
      "fzfg": false,
      "metar_trigger": false,
      "taf_trigger": false,
      "metar": "METAR UAAA 220430Z VRB01MPS 9999 FEW100 BKN200 00/M02 Q1020 NOSIG",
      "taf": ""
    },
    {
      "icao": "UBBB",
      "alert": "OK",
      "vis_m": 9999,
      "fzfg": false,
      "metar_trigger": false,
      "taf_trigger": false,
      "metar": "METAR UBBB 220430Z 33014KT 9999 FEW009 BKN030 07/05 Q1020 NOSIG",
      "taf": "TAF UBBB 212302Z 2200/2224 32018G28KT 9999 SCT012 BKN025 TX08/2210Z TN04/2201Z"
    },
    {
      "icao": "UDSG",
      "alert": "OK",
      "vis_m": 7000,
      "fzfg": false,
      "metar_trigger": false,
      "taf_trigger": false,
      "metar": "METAR UDSG 220430Z 36002KT 7000 FEW049 M05/M05 Q1018 NOSIG",
      "taf": "TAF UDSG 212300Z 2200/2224 VRB06KT 9999 FEW040"
    },
    {
      "icao": "UDYZ",
      "alert": "OK",
      "vis_m": 4600,
      "fzfg": false,
      "metar_trigger": false,
      "taf_trigger": false,
      "metar": "METAR UDYZ 220430Z 14002KT 4600 BR NSC M01/M04 Q1018 NOSIG",
      "taf": "TAF UDYZ 212300Z 2200/2224 VRB04KT 6000 FEW040"
    },
    {
      "icao": "UGKO",
      "alert": "OK",
      "vis_m": 9999,
      "fzfg": false,
      "metar_trigger": false,
      "taf_trigger": false,
      "metar": "METAR UGKO 220430Z 08019G31KT CAVOK 12/M01 Q1011 NOSIG",
      "taf": "TAF UGKO 212300Z 2200/2224 08017KT CAVOK TX18/2212Z TN07/2200Z"
    }
  ]
}