{
  "ts_utc": "2026-02-12T09:26:46Z",
  "threshold_m": 150,
  "source": "stations_override.txt (ICAO list) + aviationweather.gov (METAR/TAF raw)",
  "station_count": 159,
  "stations": [
    {
      "icao": "BIKF",
      "alert": "OK",
      "vis_m": 9999,
      "fzfg": false,
      "metar_trigger": false,
      "taf_trigger": false,
      "metar": "METAR BIKF 120900Z 03011KT 010V070 CAVOK M05/M11 Q1006",
      "taf": "TAF BIKF 120741Z 1209/1309 02017KT CAVOK TXM03/1215Z TNM06/1309Z"
    },
    {
      "icao": "BKPR",
      "alert": "OK",
      "vis_m": null,
      "fzfg": false,
      "metar_trigger": false,
      "taf_trigger": false,
      "metar": "",
      "taf": "TAF BKPR 120530Z 1206/1306 18010KT 9999 SCT020 BKN050"
    },
    {
      "icao": "EBCI",
      "alert": "OK",
      "vis_m": 9000,
      "fzfg": false,
      "metar_trigger": false,
      "taf_trigger": false,
      "metar": "METAR EBCI 120920Z 27009KT 240V300 9000 SCT006 BKN009 08/06 Q0981 TEMPO 4000 -RA",
      "taf": "TAF EBCI 120510Z 1206/1312 27009KT 7000 -RA SCT007 BKN012"
    },
    {
      "icao": "EDDB",
      "alert": "OK",
      "vis_m": 9999,
      "fzfg": false,
      "metar_trigger": false,
      "taf_trigger": false,
      "metar": "METAR EDDB 120920Z AUTO 18006KT 9999 BKN029 BKN034 07/07 Q0979 BECMG 5000 BR",
      "taf": "TAF EDDB 120500Z 1206/1306 16004KT 0400 FG VV002"
    },
    {
      "icao": "EDDH",
      "alert": "OK",
      "vis_m": 3800,
      "fzfg": false,
      "metar_trigger": false,
      "taf_trigger": false,
      "metar": "METAR EDDH 120920Z AUTO 07008KT 3800 -SHRA BR OVC003 FEW///TCU 02/02 Q0978 TEMPO 5000",
      "taf": ""
    },
    {
      "icao": "EDDK",
      "alert": "OK",
      "vis_m": 5000,
      "fzfg": false,
      "metar_trigger": false,
      "taf_trigger": false,
      "metar": "METAR EDDK 120920Z AUTO 25007KT 210V320 5000 -SHRA BR FEW004 BKN017 OVC022 FEW///TCU 10/09 Q0975 RESHRA TEMPO 4000 RA BKN006",
      "taf": ""
    },
    {
      "icao": "EDDN",
      "alert": "OK",
      "vis_m": 9999,
      "fzfg": false,
      "metar_trigger": false,
      "taf_trigger": false,
      "metar": "METAR EDDN 120920Z AUTO 18007KT 9999 BKN032 07/05 Q0980 BECMG 21005KT",
      "taf": "TAF EDDN 120500Z 1206/1306 14009KT 9999 FEW014 BKN020"
    },
    {
      "icao": "EDDS",
      "alert": "OK",
      "vis_m": 9999,
      "fzfg": false,
      "metar_trigger": false,
      "taf_trigger": false,
      "metar": "METAR EDDS 120920Z AUTO 22006KT 170V280 9999 BKN036 08/06 Q0979 NOSIG",
      "taf": "TAF EDDS 120500Z 1206/1306 18006KT 9999 BKN030"
    },
    {
      "icao": "EDFH",
      "alert": "OK",
      "vis_m": 9999,
      "fzfg": false,
      "metar_trigger": false,
      "taf_trigger": false,
      "metar": "METAR EDFH 120920Z 22011KT 9999 -RA SCT005 BKN014 OVC026 07/06 Q0976",
      "taf": "TAF EDFH 120500Z 1206/1306 20012KT 9999 BKN015"
    },
    {
      "icao": "EDJA",
      "alert": "OK",
      "vis_m": 9999,
      "fzfg": false,
      "metar_trigger": false,
      "taf_trigger": false,
      "metar": "METAR EDJA 120920Z 23011KT 200V260 CAVOK 08/04 Q0981",
      "taf": "TAF EDJA 120800Z 1209/1218 20007KT 9999 SCT035"
    },
    {
      "icao": "EDLW",
      "alert": "OK",
      "vis_m": 6000,
      "fzfg": false,
      "metar_trigger": false,
      "taf_trigger": false,
      "metar": "METAR EDLW 120920Z 26003KT 210V310 6000 -DZ SCT004 OVC006 09/08 Q0974",
      "taf": "TAF EDLW 120500Z 1206/1306 12006KT 9999 BKN020"
    },
    {
      "icao": "EDNY",
      "alert": "OK",
      "vis_m": 9999,
      "fzfg": false,
      "metar_trigger": false,
      "taf_trigger": false,
      "metar": "METAR EDNY 120920Z VRB02KT 9999 FEW004 BKN060 06/06 Q0982",
      "taf": "TAF EDNY 120800Z 1209/1218 VRB03KT 9999 BKN035"
    },
    {
      "icao": "EDSB",
      "alert": "OK",
      "vis_m": 9999,
      "fzfg": false,
      "metar_trigger": false,
      "taf_trigger": false,
      "metar": "METAR EDSB 120920Z 19018KT 9999 -RA SCT040 OVC046 10/07 Q0979",
      "taf": "TAF EDSB 120500Z 1206/1306 21012KT 9999 BKN035"
    },
    {
      "icao": "EETN",
      "alert": "OK",
      "vis_m": 9999,
      "fzfg": false,
      "metar_trigger": false,
      "taf_trigger": false,
      "metar": "METAR EETN 120920Z 08007KT CAVOK M08/M11 Q0992 NOSIG",
      "taf": "TAF EETN 120530Z 1206/1306 09008KT 9999 BKN045"
    },
    {
      "icao": "EFTU",
      "alert": "OK",
      "vis_m": 9999,
      "fzfg": false,
      "metar_trigger": false,
      "taf_trigger": false,
      "metar": "METAR EFTU 120920Z AUTO 06005KT 030V090 9999 OVC007 M11/M13 Q0994",
      "taf": "TAF EFTU 120829Z 1209/1309 05006KT 9999 BKN009"
    },
    {
      "icao": "EGBB",
      "alert": "OK",
      "vis_m": 9000,
      "fzfg": false,
      "metar_trigger": false,
      "taf_trigger": false,
      "metar": "METAR EGBB 120920Z 30002KT 9000 SCT007 BKN014 08/06 Q0982",
      "taf": "TAF EGBB 120502Z 1206/1306 28006KT 9999 FEW020"
    },
    {
      "icao": "EGGP",
      "alert": "OK",
      "vis_m": 9999,
      "fzfg": false,
      "metar_trigger": false,
      "taf_trigger": false,
      "metar": "METAR EGGP 120850Z 04008KT 9999 SCT014 OVC037 05/03 Q0983",
      "taf": ""
    },
    {
      "icao": "EGGW",
      "alert": "OK",
      "vis_m": 9999,
      "fzfg": false,
      "metar_trigger": false,
      "taf_trigger": false,
      "metar": "METAR EGGW 120920Z AUTO 27010KT 9999 FEW017 BKN024 07/06 Q0981",
      "taf": "TAF EGGW 120453Z 1206/1306 27004KT 9999 SCT020"
    },
    {
      "icao": "EGKK",
      "alert": "OK",
      "vis_m": 9000,
      "fzfg": false,
      "metar_trigger": false,
      "taf_trigger": false,
      "metar": "METAR EGKK 120920Z 24005KT 9000 BKN009 08/07 Q0983",
      "taf": "TAF EGKK 120455Z 1206/1312 VRB03KT 9999 SCT030"
    },
    {
      "icao": "EGNM",
      "alert": "OK",
      "vis_m": 9999,
      "fzfg": false,
      "metar_trigger": false,
      "taf_trigger": false,
      "metar": "METAR EGNM 120920Z 01009KT 9999 BKN005 03/03 Q0983",
      "taf": ""
    },
    {
      "icao": "EGPD",
      "alert": "OK",
      "vis_m": 9999,
      "fzfg": false,
      "metar_trigger": false,
      "taf_trigger": false,
      "metar": "METAR EGPD 120920Z COR AUTO 01006KT 9999 OVC042 02/M01 Q0990 NOSIG",
      "taf": ""
    },
    {
      "icao": "EGPF",
      "alert": "OK",
      "vis_m": 9999,
      "fzfg": false,
      "metar_trigger": false,
      "taf_trigger": false,
      "metar": "METAR EGPF 120920Z AUTO 06012KT 9999 BKN019 03/01 Q0988",
      "taf": "TAF EGPF 120458Z 1206/1306 07013KT 9999 BKN025"
    },
    {
      "icao": "EHBK",
      "alert": "OK",
      "vis_m": 9999,
      "fzfg": false,
      "metar_trigger": false,
      "taf_trigger": false,
      "metar": "METAR EHBK 120855Z AUTO 31011KT 260V350 9999 FEW004 BKN005 OVC007 08/08 Q0977 BECMG 4000 BR BKN004",
      "taf": "TAF EHBK 120505Z 1206/1312 21008KT 6000 -RADZ BKN018"
    },
    {
      "icao": "EHEH",
      "alert": "OK",
      "vis_m": 9999,
      "fzfg": false,
      "metar_trigger": false,
      "taf_trigger": false,
      "metar": "SPECI EHEH 120902Z AUTO 30007KT 260V360 9999 FEW008 BKN034 OVC042 08/07 Q0978 BLU TEMPO 3500 -RADZ SCT003 BKN005 RMK TREND REMOTE BY EHWX",
      "taf": ""
    },
    {
      "icao": "EKBI",
      "alert": "OK",
      "vis_m": 1700,
      "fzfg": false,
      "metar_trigger": false,
      "taf_trigger": false,
      "metar": "METAR EKBI 120920Z 06016KT 1700 -SN DRSN OVC009 M01/M02 Q0984",
      "taf": "TAF EKBI 120827Z 1209/1309 06015KT 4000 -SN DRSN OVC008"
    },
    {
      "icao": "EKCH",
      "alert": "OK",
      "vis_m": 9999,
      "fzfg": false,
      "metar_trigger": false,
      "taf_trigger": false,
      "metar": "METAR EKCH 120920Z 07016KT 9999 BKN009 01/M01 Q0985 TEMPO BKN011",
      "taf": "TAF EKCH 120827Z 1209/1309 06016KT 9000 BKN008"
    },
    {
      "icao": "ENAL",
      "alert": "OK",
      "vis_m": 9999,
      "fzfg": false,
      "metar_trigger": false,
      "taf_trigger": false,
      "metar": "METAR ENAL 120920Z 19006KT 9999 VCSH FEW010 SCT035 M01/M04 Q0991",
      "taf": "TAF ENAL 120800Z 1209/1218 17008KT 9999 FEW020 BKN040"
    },
    {
      "icao": "ENBR",
      "alert": "OK",
      "vis_m": 9999,
      "fzfg": false,
      "metar_trigger": false,
      "taf_trigger": false,
      "metar": "METAR ENBR 120920Z VRB02KT 9999 BKN034 M03/M10 Q0992 NOSIG RMK WIND 1200FT 13003KT",
      "taf": "TAF ENBR 120500Z 1206/1306 VRB03KT 9999 FEW020 BKN040"
    },
    {
      "icao": "ENGM",
      "alert": "OK",
      "vis_m": 9999,
      "fzfg": false,
      "metar_trigger": false,
      "taf_trigger": false,
      "metar": "METAR ENGM 120920Z 02008KT 9999 VCSH FEW027 BKN034 M09/M14 Q0994 NOSIG",
      "taf": "TAF ENGM 120500Z 1206/1306 01006KT 9999 BKN040"
    },
    {
      "icao": "ENHD",
      "alert": "OK",
      "vis_m": 9999,
      "fzfg": false,
      "metar_trigger": false,
      "taf_trigger": false,
      "metar": "METAR ENHD 120920Z 10007KT 060V120 CAVOK M01/M10 Q0992",
      "taf": "TAF ENHD 120800Z 1209/1218 11006KT 9999 FEW025 BKN040"
    },
    {
      "icao": "ENTC",
      "alert": "OK",
      "vis_m": 9999,
      "fzfg": false,
      "metar_trigger": false,
      "taf_trigger": false,
      "metar": "METAR ENTC 120920Z 22011KT 9999 FEW020 SCT027 BKN038 M08/M11 Q0994 TEMPO 4000 -SHSN VV012 RMK WIND 2600FT 23006KT",
      "taf": "TAF ENTC 120500Z 1206/1306 21008KT 9999 SCT050"
    },
    {
      "icao": "ENTO",
      "alert": "OK",
      "vis_m": 9999,
      "fzfg": false,
      "metar_trigger": false,
      "taf_trigger": false,
      "metar": "METAR ENTO 120920Z 02009KT CAVOK M08/M13 Q0994 NOSIG",
      "taf": "TAF ENTO 120500Z 1206/1306 04008KT 9999 FEW015 BKN040"
    },
    {
      "icao": "ENVA",
      "alert": "OK",
      "vis_m": 9999,
      "fzfg": false,
      "metar_trigger": false,
      "taf_trigger": false,
      "metar": "METAR ENVA 120920Z 06006KT 030V090 CAVOK M09/M16 Q0994 NOSIG RMK WIND 670FT 14016KT",
      "taf": "TAF ENVA 120500Z 1206/1306 12008KT CAVOK"
    },
    {
      "icao": "ENZV",
      "alert": "OK",
      "vis_m": 9999,
      "fzfg": false,
      "metar_trigger": false,
      "taf_trigger": false,
      "metar": "METAR ENZV 120920Z 12004KT CAVOK M03/M09 Q0992 NOSIG",
      "taf": "TAF ENZV 120500Z 1206/1306 10005KT 9999 FEW020 BKN040"
    },
    {
      "icao": "EPGD",
      "alert": "OK",
      "vis_m": 2500,
      "fzfg": false,
      "metar_trigger": false,
      "taf_trigger": false,
      "metar": "METAR EPGD 120900Z 06006KT 030V090 2500 -SNRA BR OVC001 M00/M00 Q0984",
      "taf": "TAF EPGD 120530Z 1206/1306 07008KT 0800 FG OVC002"
    },
    {
      "icao": "EPKK",
      "alert": "OK",
      "vis_m": 9999,
      "fzfg": false,
      "metar_trigger": false,
      "taf_trigger": false,
      "metar": "METAR EPKK 120900Z 22006KT 9999 BKN047 09/05 Q0984",
      "taf": "TAF EPKK 120830Z 1209/1309 24004KT CAVOK"
    },
    {
      "icao": "EPKT",
      "alert": "OK",
      "vis_m": 9999,
      "fzfg": false,
      "metar_trigger": false,
      "taf_trigger": false,
      "metar": "METAR EPKT 120900Z 22012KT 9999 FEW008 BKN013 08/06 Q0984",
      "taf": "TAF EPKT 120530Z 1206/1306 22012KT 9999 OVC025"
    },
    {
      "icao": "EPLB",
      "alert": "OK",
      "vis_m": 9999,
      "fzfg": false,
      "metar_trigger": false,
      "taf_trigger": false,
      "metar": "METAR EPLB 120900Z 22007KT 9999 OVC018 04/03 Q0985",
      "taf": ""
    },
    {
      "icao": "EPMO",
      "alert": "OK",
      "vis_m": 800,
      "fzfg": false,
      "metar_trigger": false,
      "taf_trigger": false,
      "metar": "METAR EPMO 120900Z VRB01KT 0800 R08/0450D FG OVC001 02/02 Q0984",
      "taf": "TAF EPMO 120530Z 1206/1306 09003KT 2000 BR OVC005"
    },
    {
      "icao": "EPPO",
      "alert": "OK",
      "vis_m": 1400,
      "fzfg": false,
      "metar_trigger": false,
      "taf_trigger": false,
      "metar": "METAR EPPO 120900Z 13005KT 1400 R28/1600U -DZ BR OVC001 04/03 Q0981",
      "taf": ""
    },
    {
      "icao": "EPRA",
      "alert": "OK",
      "vis_m": 8000,
      "fzfg": false,
      "metar_trigger": false,
      "taf_trigger": false,
      "metar": "METAR EPRA 120900Z 20007KT 8000 OVC009 04/03 Q0984",
      "taf": "TAF EPRA 120830Z 1209/1218 19008KT 8000 OVC012"
    },
    {
      "icao": "EPRZ",
      "alert": "OK",
      "vis_m": 9999,
      "fzfg": false,
      "metar_trigger": false,
      "taf_trigger": false,
      "metar": "METAR EPRZ 120900Z 20013KT 9999 BKN033 07/04 Q0986",
      "taf": "TAF EPRZ 120530Z 1206/1306 20012KT 9999 BKN035"
    },
    {
      "icao": "EPSC",
      "alert": "OK",
      "vis_m": 1600,
      "fzfg": false,
      "metar_trigger": false,
      "taf_trigger": false,
      "metar": "METAR EPSC 120900Z 07006KT 030V100 1600 -RA BR OVC003 02/02 Q0981",
      "taf": "TAF EPSC 120530Z 1206/1306 07007KT 2300 -RA BR OVC002"
    },
    {
      "icao": "EPSY",
      "alert": "OK",
      "vis_m": 3100,
      "fzfg": false,
      "metar_trigger": false,
      "taf_trigger": false,
      "metar": "METAR EPSY 120900Z 16004KT 130V190 3100 BR SCT003 BKN025 02/01 Q0983",
      "taf": "TAF EPSY 120830Z 1209/1218 VRB02KT 2000 BR BKN020"
    },
    {
      "icao": "EPWA",
      "alert": "OK",
      "vis_m": 1800,
      "fzfg": false,
      "metar_trigger": false,
      "taf_trigger": false,
      "metar": "METAR EPWA 120900Z 17003KT 1800 BR OVC002 03/03 Q0984 TEMPO 1400 BR",
      "taf": "TAF EPWA 120830Z 1209/1309 16005KT 2200 BR OVC002"
    },
    {
      "icao": "EPWR",
      "alert": "OK",
      "vis_m": 9999,
      "fzfg": false,
      "metar_trigger": false,
      "taf_trigger": false,
      "metar": "METAR EPWR 120900Z 18006KT 9999 BKN040 09/06 Q0982",
      "taf": "TAF EPWR 120830Z 1209/1309 17005KT 9999 FEW030 BKN040"
    },
    {
      "icao": "ESGG",
      "alert": "OK",
      "vis_m": 9999,
      "fzfg": false,
      "metar_trigger": false,
      "taf_trigger": false,
      "metar": "METAR ESGG 120920Z 04012KT 9999 BKN024 OVC037 M05/M07 Q0989",
      "taf": "TAF ESGG 120830Z 1209/1309 04011KT 9999 BKN016"
    },
    {
      "icao": "ESKN",
      "alert": "OK",
      "vis_m": 9999,
      "fzfg": false,
      "metar_trigger": false,
      "taf_trigger": false,
      "metar": "METAR ESKN 120920Z 34006KT 310V010 9999 BKN048 M06/M09 Q0992",
      "taf": "TAF ESKN 120830Z 1209/1309 02005KT 9999 -SN BKN040"
    },
    {
      "icao": "ESMS",
      "alert": "OK",
      "vis_m": 8000,
      "fzfg": false,
      "metar_trigger": false,
      "taf_trigger": false,
      "metar": "METAR ESMS 120920Z 07017KT 8000 OVC007 00/M00 Q0984",
      "taf": "TAF ESMS 120827Z 1209/1309 06016KT 8000 BKN006"
    },
    {
      "icao": "ESSA",
      "alert": "OK",
      "vis_m": 9999,
      "fzfg": false,
      "metar_trigger": false,
      "taf_trigger": false,
      "metar": "METAR ESSA 120920Z 02008KT CAVOK M07/M09 Q0993 NOSIG",
      "taf": "TAF ESSA 120830Z 1209/1309 03010KT 9999 SCT025"
    },
    {
      "icao": "EYKA",
      "alert": "OK",
      "vis_m": 3000,
      "fzfg": false,
      "metar_trigger": false,
      "taf_trigger": false,
      "metar": "METAR EYKA 120920Z 07002KT 3000 -SNRA BR OVC003 00/00 Q0986",
      "taf": "TAF EYKA 120500Z 1206/1306 VRB04KT 3000 SNRA BR OVC005"
    },
    {
      "icao": "EYPA",
      "alert": "OK",
      "vis_m": 5000,
      "fzfg": false,
      "metar_trigger": false,
      "taf_trigger": false,
      "metar": "METAR EYPA 120920Z 07010KT 5000 BR OVC005 M05/M06 Q0987",
      "taf": ""
    },
    {
      "icao": "EYVI",
      "alert": "OK",
      "vis_m": 4900,
      "fzfg": false,
      "metar_trigger": false,
      "taf_trigger": false,
      "metar": "METAR EYVI 120920Z 14005KT 4900 -SNRA BR OVC003 00/M01 Q0986 TEMPO 3000 SN BR",
      "taf": "TAF EYVI 120500Z 1206/1306 VRB04KT 5000 SN BR BKN005"
    },
    {
      "icao": "GCFV",
      "alert": "OK",
      "vis_m": 9999,
      "fzfg": false,
      "metar_trigger": false,
      "taf_trigger": false,
      "metar": "METAR GCFV 120900Z 02009KT 350V060 9999 OVC011 18/15 Q1025",
      "taf": "TAF GCFV 120800Z 1209/1309 05009KT 9999 FEW015 TX22/1214Z TN16/1306Z"
    },
    {
      "icao": "GCLP",
      "alert": "OK",
      "vis_m": 9999,
      "fzfg": false,
      "metar_trigger": false,
      "taf_trigger": false,
      "metar": "METAR GCLP 120900Z 03014KT 9999 FEW013 BKN017 18/15 Q1025 NOSIG",
      "taf": "TAF GCLP 120800Z 1209/1309 03011KT 9999 SCT020 TX23/1214Z TN17/1306Z"
    },
    {
      "icao": "GCTS",
      "alert": "OK",
      "vis_m": 9999,
      "fzfg": false,
      "metar_trigger": false,
      "taf_trigger": false,
      "metar": "METAR GCTS 120900Z 03006KT 320V070 9999 FEW015 18/14 Q1024 NOSIG",
      "taf": "TAF GCTS 120800Z 1209/1309 09010KT 9999 FEW020 TX25/1214Z TN16/1306Z"
    },
    {
      "icao": "GMAD",
      "alert": "OK",
      "vis_m": 3000,
      "fzfg": false,
      "metar_trigger": false,
      "taf_trigger": false,
      "metar": "SPECI GMAD 120910Z 05003KT 020V110 3000 R27/0900N BR OVC003 15/15 Q1022 BECMG 5000 SCT010 BKN016",
      "taf": "TAF GMAD 120500Z 1206/1312 07004KT 3000 BR OVC004"
    },
    {
      "icao": "GMMN",
      "alert": "OK",
      "vis_m": 9999,
      "fzfg": false,
      "metar_trigger": false,
      "taf_trigger": false,
      "metar": "METAR GMMN 120900Z 19005KT 160V220 9999 SCT016 13/12 Q1025 NOSIG",
      "taf": "TAF GMMN 120500Z 1206/1312 18007KT 8000 SCT016"
    },
    {
      "icao": "GMMX",
      "alert": "OK",
      "vis_m": 4000,
      "fzfg": false,
      "metar_trigger": false,
      "taf_trigger": false,
      "metar": "METAR GMMX 120900Z 10005KT 050V150 4000 BR OVC006 15/14 Q1024 BECMG 5000 NSW",
      "taf": "TAF GMMX 120500Z 1206/1312 06006KT 0800 FG OVC004"
    },
    {
      "icao": "HEGN",
      "alert": "OK",
      "vis_m": 9999,
      "fzfg": false,
      "metar_trigger": false,
      "taf_trigger": false,
      "metar": "METAR HEGN 120900Z 33008KT CAVOK 24/01 Q1017 NOSIG",
      "taf": "TAF HEGN 120500Z 1206/1312 25008KT 6000 NSC"
    },
    {
      "icao": "HEMA",
      "alert": "OK",
      "vis_m": 9999,
      "fzfg": false,
      "metar_trigger": false,
      "taf_trigger": false,
      "metar": "METAR HEMA 120900Z 01010KT CAVOK 23/10 Q1017 NOSIG",
      "taf": "TAF HEMA 120500Z 1206/1312 26008KT CAVOK"
    },
    {
      "icao": "HESH",
      "alert": "OK",
      "vis_m": 9999,
      "fzfg": false,
      "metar_trigger": false,
      "taf_trigger": false,
      "metar": "METAR HESH 120900Z 06008KT CAVOK 25/08 Q1017 NOSIG",
      "taf": "TAF HESH 120500Z 1206/1312 29008KT 6000 NSC"
    },
    {
      "icao": "HESX",
      "alert": "OK",
      "vis_m": 9999,
      "fzfg": false,
      "metar_trigger": false,
      "taf_trigger": false,
      "metar": "METAR HESX 120900Z 20012KT CAVOK 22/01 Q1015 NOSIG",
      "taf": "TAF HESX 120500Z 1206/1312 20010KT 7000 NSC"
    },
    {
      "icao": "LATI",
      "alert": "OK",
      "vis_m": 9999,
      "fzfg": false,
      "metar_trigger": false,
      "taf_trigger": false,
      "metar": "METAR LATI 120920Z 14010KT 9999 SCT036 BKN070 13/07 Q0995 NOSIG",
      "taf": "TAF LATI 120500Z 1206/1306 VRB05KT 9999 SCT035 BKN070 TX15/1212Z TN09/1304Z"
    },
    {
      "icao": "LBPD",
      "alert": "OK",
      "vis_m": 9999,
      "fzfg": false,
      "metar_trigger": false,
      "taf_trigger": false,
      "metar": "METAR LBPD 120900Z AUTO 29005KT 9999 BKN019/// OVC031/// 04/03 Q0996 NOSIG",
      "taf": "TAF LBPD 120500Z 1206/1306 VRB04KT 9999 BKN010"
    },
    {
      "icao": "LBSF",
      "alert": "OK",
      "vis_m": 9999,
      "fzfg": false,
      "metar_trigger": false,
      "taf_trigger": false,
      "metar": "METAR LBSF 120900Z 00000KT 9999 FEW088 03/M00 Q0994 NOSIG",
      "taf": "TAF LBSF 120500Z 1206/1306 VRB04KT 9999 BKN070"
    },
    {
      "icao": "LBWN",
      "alert": "OK",
      "vis_m": 7000,
      "fzfg": false,
      "metar_trigger": false,
      "taf_trigger": false,
      "metar": "METAR LBWN 120900Z 10006KT 080V140 7000 FEW049 10/07 Q0996 NOSIG",
      "taf": "TAF LBWN 120500Z 1206/1306 09008KT 9999 SCT020 BKN050"
    },
    {
      "icao": "LCLK",
      "alert": "OK",
      "vis_m": 9999,
      "fzfg": false,
      "metar_trigger": false,
      "taf_trigger": false,
      "metar": "METAR LCLK 120900Z 18012KT 9999 FEW020 SCT060 19/16 Q1010 NOSIG",
      "taf": "TAF LCLK 120530Z 1206/1306 23010KT 9999 FEW030"
    },
    {
      "icao": "LCPH",
      "alert": "OK",
      "vis_m": 9999,
      "fzfg": false,
      "metar_trigger": false,
      "taf_trigger": false,
      "metar": "METAR LCPH 120900Z 15010KT 9999 FEW030 BKN065 19/15 Q1010 NOSIG",
      "taf": "TAF LCPH 120530Z 1206/1306 23009KT 9999 FEW025 SCT035"
    },
    {
      "icao": "LEAL",
      "alert": "OK",
      "vis_m": 9999,
      "fzfg": false,
      "metar_trigger": false,
      "taf_trigger": false,
      "metar": "METAR LEAL 120900Z 28028G40KT CAVOK 19/03 Q1013 NOSIG",
      "taf": "TAF LEAL 120500Z 1206/1306 27015KT 9999 FEW030 TX23/1213Z TN12/1206Z"
    },
    {
      "icao": "LEBB",
      "alert": "OK",
      "vis_m": 9999,
      "fzfg": false,
      "metar_trigger": false,
      "taf_trigger": false,
      "metar": "METAR LEBB 120900Z 29019KT 240V310 9999 FEW054 14/05 Q1010 NOSIG",
      "taf": ""
    },
    {
      "icao": "LEBL",
      "alert": "OK",
      "vis_m": 9999,
      "fzfg": false,
      "metar_trigger": false,
      "taf_trigger": false,
      "metar": "METAR LEBL 120900Z 29030G45KT 9999 FEW020 16/01 Q1000 NOSIG",
      "taf": ""
    },
    {
      "icao": "LECH",
      "alert": "OK",
      "vis_m": 9999,
      "fzfg": false,
      "metar_trigger": false,
      "taf_trigger": false,
      "metar": "METAR LECH 120900Z AUTO 29019G31KT 240V350 CAVOK 15/M03 Q1010",
      "taf": ""
    },
    {
      "icao": "LEMD",
      "alert": "OK",
      "vis_m": 9999,
      "fzfg": false,
      "metar_trigger": false,
      "taf_trigger": false,
      "metar": "METAR LEMD 120900Z 28015KT 250V310 9999 FEW030 10/02 Q1015 NOSIG",
      "taf": ""
    },
    {
      "icao": "LEMG",
      "alert": "OK",
      "vis_m": 9999,
      "fzfg": false,
      "metar_trigger": false,
      "taf_trigger": false,
      "metar": "METAR LEMG 120900Z 32014G24KT 9999 FEW030 SCT042 18/11 Q1020 NOSIG",
      "taf": "TAF LEMG 120500Z 1206/1306 VRB03KT 9999 SCT050 TX23/1214Z TN11/1207Z"
    },
    {
      "icao": "LEVC",
      "alert": "OK",
      "vis_m": 9999,
      "fzfg": false,
      "metar_trigger": false,
      "taf_trigger": false,
      "metar": "METAR LEVC 120900Z 28017KT 9999 FEW047 16/05 Q1013 NOSIG",
      "taf": "TAF LEVC 120500Z 1206/1306 27015KT 9999 FEW045 TX21/1214Z TN15/1206Z"
    },
    {
      "icao": "LEXJ",
      "alert": "OK",
      "vis_m": 9999,
      "fzfg": false,
      "metar_trigger": false,
      "taf_trigger": false,
      "metar": "METAR LEXJ 120900Z 28014KT 250V320 9999 FEW060 14/05 Q1010",
      "taf": "TAF LEXJ 120800Z 1209/1309 28015KT 9999 FEW060 TX17/1213Z TN09/1309Z"
    },
    {
      "icao": "LEZG",
      "alert": "OK",
      "vis_m": 9999,
      "fzfg": false,
      "metar_trigger": false,
      "taf_trigger": false,
      "metar": "METAR LEZG 120900Z 31013KT CAVOK 12/04 Q1010 NOSIG",
      "taf": "TAF LEZG 120500Z 1206/1306 27015KT 9999 FEW050 TX17/1212Z TN10/1206Z"
    },
    {
      "icao": "LEZL",
      "alert": "OK",
      "vis_m": 9999,
      "fzfg": false,
      "metar_trigger": false,
      "taf_trigger": false,
      "metar": "METAR LEZL 120900Z 21004KT 180V240 CAVOK 15/14 Q1022 NOSIG",
      "taf": "TAF LEZL 120800Z 1209/1309 27010KT 9999 FEW030 TX20/1215Z TN12/1307Z"
    },
    {
      "icao": "LFBD",
      "alert": "OK",
      "vis_m": 9999,
      "fzfg": false,
      "metar_trigger": false,
      "taf_trigger": false,
      "metar": "METAR LFBD 120900Z AUTO 29023KT 9999 FEW033 SCT040 BKN046 12/07 Q1003 TEMPO 27020G45KT 1400 TSRA BKN014 BKN025CB",
      "taf": ""
    },
    {
      "icao": "LFLL",
      "alert": "OK",
      "vis_m": 9999,
      "fzfg": false,
      "metar_trigger": false,
      "taf_trigger": false,
      "metar": "METAR LFLL 120900Z 29014KT 270V340 9999 -SHRA FEW026TCU BKN033 10/07 Q0993 TEMPO 29015G25KT 4000 SHRA BKN035TCU",
      "taf": "TAF LFLL 120500Z 1206/1312 27012KT 9999 BKN040"
    },
    {
      "icao": "LFLS",
      "alert": "OK",
      "vis_m": 9999,
      "fzfg": false,
      "metar_trigger": false,
      "taf_trigger": false,
      "metar": "METAR LFLS 120900Z AUTO 25010KT 220V290 9999 BKN033 BKN040 OVC050 10/06 Q0993 TEMPO 4000 SHRA BKN030TCU",
      "taf": "TAF LFLS 120800Z 1209/1309 20012KT 9999 BKN040"
    },
    {
      "icao": "LFMN",
      "alert": "OK",
      "vis_m": 9999,
      "fzfg": false,
      "metar_trigger": false,
      "taf_trigger": false,
      "metar": "METAR LFMN 120900Z 25009KT 220V290 9999 FEW066 BKN230 14/06 Q0985 TEMPO VRB03KT",
      "taf": "TAF LFMN 120800Z 1209/1315 26012KT CAVOK"
    },
    {
      "icao": "LFOB",
      "alert": "OK",
      "vis_m": 9999,
      "fzfg": false,
      "metar_trigger": false,
      "taf_trigger": false,
      "metar": "METAR LFOB 120900Z AUTO 26009KT 9999 BKN014/// BKN027/// BKN037/// //////TCU 09/08 Q0984 TEMPO 28020G35KT 3000 SHRA BKN009",
      "taf": "TAF LFOB 120500Z 1206/1306 28015G25KT 9999 BKN020"
    },
    {
      "icao": "LFPO",
      "alert": "OK",
      "vis_m": 9999,
      "fzfg": false,
      "metar_trigger": false,
      "taf_trigger": false,
      "metar": "METAR LFPO 120900Z 25014KT 9999 -RA BKN015 10/08 Q0986 TEMPO 4500 -SHRA 20015G35KT",
      "taf": ""
    },
    {
      "icao": "LFSB",
      "alert": "OK",
      "vis_m": 9999,
      "fzfg": false,
      "metar_trigger": false,
      "taf_trigger": false,
      "metar": "METAR LFSB 120900Z AUTO 23016G30KT 9999 -RA SCT040/// SCT047/// BKN062/// //////TCU 10/06 Q0981 TEMPO SHRA",
      "taf": "TAF LFSB 120500Z 1206/1306 22010KT 9999 OVC045"
    },
    {
      "icao": "LGAV",
      "alert": "OK",
      "vis_m": 9999,
      "fzfg": false,
      "metar_trigger": false,
      "taf_trigger": false,
      "metar": "METAR LGAV 120920Z 24011KT 9999 FEW025 17/09 Q0996 NOSIG",
      "taf": "TAF LGAV 120500Z 1206/1306 21015KT 9999 SCT025 SCT070"
    },
    {
      "icao": "LGTS",
      "alert": "OK",
      "vis_m": 9999,
      "fzfg": false,
      "metar_trigger": false,
      "taf_trigger": false,
      "metar": "METAR LGTS 120920Z 32003KT 9999 FEW020 12/10 Q0994 NOSIG",
      "taf": "TAF LGTS 120500Z 1206/1306 34013KT 9999 FEW010 BKN030"
    },
    {
      "icao": "LHBP",
      "alert": "OK",
      "vis_m": 9999,
      "fzfg": false,
      "metar_trigger": false,
      "taf_trigger": false,
      "metar": "METAR LHBP 120900Z 17004KT 9999 FEW036 BKN051 09/06 Q0988 NOSIG",
      "taf": "TAF LHBP 120515Z 1206/1306 14005KT 9999 BKN030 BKN080"
    },
    {
      "icao": "LHDC",
      "alert": "OK",
      "vis_m": 9999,
      "fzfg": false,
      "metar_trigger": false,
      "taf_trigger": false,
      "metar": "METAR LHDC 120845Z AUTO 19010KT 160V230 9999 -SHRA BKN045 09/06 Q0990 NOSIG",
      "taf": "TAF LHDC 120815Z 1209/1218 18009KT 9999 SCT045"
    },
    {
      "icao": "LIBD",
      "alert": "OK",
      "vis_m": 9000,
      "fzfg": false,
      "metar_trigger": false,
      "taf_trigger": false,
      "metar": "METAR LIBD 120920Z 20008KT 9000 -DZ SCT040 13/09 Q0991",
      "taf": "TAF LIBD 120500Z 1206/1306 21006KT 9999 FEW040"
    },
    {
      "icao": "LIBG",
      "alert": "OK",
      "vis_m": 9999,
      "fzfg": false,
      "metar_trigger": false,
      "taf_trigger": false,
      "metar": "METAR LIBG 120850Z VRB02KT CAVOK 12/12 Q0993",
      "taf": "TAF LIBG 120800Z 1209/1218 VRB04KT CAVOK"
    },
    {
      "icao": "LIBP",
      "alert": "OK",
      "vis_m": 8000,
      "fzfg": false,
      "metar_trigger": false,
      "taf_trigger": false,
      "metar": "METAR LIBP 120920Z AUTO VRB01KT 8000 RA OVC067/// 11/10 Q0988",
      "taf": "TAF LIBP 120500Z 1206/1306 24008KT 9999 FEW060"
    },
    {
      "icao": "LIBR",
      "alert": "OK",
      "vis_m": 9999,
      "fzfg": false,
      "metar_trigger": false,
      "taf_trigger": false,
      "metar": "METAR LIBR 120920Z 19005KT CAVOK 13/10 Q0992",
      "taf": "TAF LIBR 120500Z 1206/1306 23006KT 9999 SCT030"
    },
    {
      "icao": "LICA",
      "alert": "OK",
      "vis_m": 9999,
      "fzfg": false,
      "metar_trigger": false,
      "taf_trigger": false,
      "metar": "METAR LICA 120920Z AUTO 25009KT 9999 -RA OVC032/// 15/13 Q0995",
      "taf": "TAF LICA 120500Z 1206/1306 26016KT 9999 BKN020"
    },
    {
      "icao": "LICC",
      "alert": "OK",
      "vis_m": 9000,
      "fzfg": false,
      "metar_trigger": false,
      "taf_trigger": false,
      "metar": "METAR LICC 120920Z 27012KT 9000 FEW020 BKN040 15/12 Q0996",
      "taf": "TAF LICC 120500Z 1206/1306 26016KT 9999 SCT030"
    },
    {
      "icao": "LICJ",
      "alert": "OK",
      "vis_m": 9999,
      "fzfg": false,
      "metar_trigger": false,
      "taf_trigger": false,
      "metar": "METAR LICJ 120920Z 25025KT 9999 -RA BKN025 17/13 Q0996",
      "taf": "TAF LICJ 120500Z 1206/1306 22018KT 9999 SCT020"
    },
    {
      "icao": "LIMC",
      "alert": "OK",
      "vis_m": 4000,
      "fzfg": false,
      "metar_trigger": false,
      "taf_trigger": false,
      "metar": "METAR LIMC 120920Z 01004KT 4000 BR OVC006 08/07 Q0988 NOSIG",
      "taf": "TAF LIMC 120500Z 1206/1312 VRB04KT 8000 SCT030"
    },
    {
      "icao": "LIME",
      "alert": "OK",
      "vis_m": 2500,
      "fzfg": false,
      "metar_trigger": false,
      "taf_trigger": false,
      "metar": "METAR LIME 120920Z 30003KT 290V350 2500 BR SCT004 BKN008 08/08 Q0987 NOSIG",
      "taf": ""
    },
    {
      "icao": "LIMF",
      "alert": "OK",
      "vis_m": 4000,
      "fzfg": false,
      "metar_trigger": false,
      "taf_trigger": false,
      "metar": "METAR LIMF 120920Z VRB02KT 4000 BR SCT045 08/05 Q0988",
      "taf": "TAF LIMF 120500Z 1206/1306 VRB05KT 9999 SCT020"
    },
    {
      "icao": "LIMJ",
      "alert": "OK",
      "vis_m": 9999,
      "fzfg": false,
      "metar_trigger": false,
      "taf_trigger": false,
      "metar": "METAR LIMJ 120920Z 03010KT 350V050 9999 FEW040 13/07 Q0985",
      "taf": "TAF LIMJ 120500Z 1206/1306 03010KT 9999 SCT016"
    },
    {
      "icao": "LIPE",
      "alert": "OK",
      "vis_m": 4000,
      "fzfg": false,
      "metar_trigger": false,
      "taf_trigger": false,
      "metar": "METAR LIPE 120920Z 26003KT 220V320 4000 -RA BR BKN003 08/08 Q0985",
      "taf": "TAF LIPE 120500Z 1206/1306 VRB05KT 0300 FG BKN001"
    },
    {
      "icao": "LIPH",
      "alert": "OK",
      "vis_m": 1500,
      "fzfg": false,
      "metar_trigger": false,
      "taf_trigger": false,
      "metar": "METAR LIPH 120920Z 01006KT 1500 -DZ BR BKN005 BKN020 08/08 Q0986",
      "taf": "TAF LIPH 120500Z 1206/1306 04006KT 3000 BR BKN050"
    },
    {
      "icao": "LIPQ",
      "alert": "OK",
      "vis_m": 7000,
      "fzfg": false,
      "metar_trigger": false,
      "taf_trigger": false,
      "metar": "METAR LIPQ 120920Z AUTO 02005KT 7000 -RA OVC011/// 10/09 Q0987",
      "taf": "TAF LIPQ 120500Z 1206/1306 VRB04KT 2000 BCFG BKN002"
    },
    {
      "icao": "LIPR",
      "alert": "OK",
      "vis_m": 9999,
      "fzfg": false,
      "metar_trigger": false,
      "taf_trigger": false,
      "metar": "METAR LIPR 120920Z 15005KT 9999 BKN050 13/08 Q0985",
      "taf": "TAF LIPR 120500Z 1206/1306 16006KT 8000 BKN050"
    },
    {
      "icao": "LIPX",
      "alert": "OK",
      "vis_m": 9999,
      "fzfg": false,
      "metar_trigger": false,
      "taf_trigger": false,
      "metar": "METAR LIPX 120920Z VRB02KT 9999 BKN025 BKN070 09/07 Q0986",
      "taf": "TAF LIPX 120500Z 1206/1306 07006KT 1500 BR BKN010"
    },
    {
      "icao": "LIPY",
      "alert": "OK",
      "vis_m": 9999,
      "fzfg": false,
      "metar_trigger": false,
      "taf_trigger": false,
      "metar": "METAR LIPY 120920Z AUTO 15005KT 110V180 9999 -RA OVC059/// 11/10 Q0987",
      "taf": "TAF LIPY 120500Z 1206/1306 16006KT 7000 BKN050"
    },
    {
      "icao": "LIPZ",
      "alert": "OK",
      "vis_m": 2500,
      "fzfg": false,
      "metar_trigger": false,
      "taf_trigger": false,
      "metar": "METAR LIPZ 120920Z 03009KT 2500 -RA BR OVC002 09/08 Q0986 NOSIG",
      "taf": "TAF LIPZ 120500Z 1206/1312 06006KT 6000 SCT050"
    },
    {
      "icao": "LIRF",
      "alert": "OK",
      "vis_m": 8000,
      "fzfg": false,
      "metar_trigger": false,
      "taf_trigger": false,
      "metar": "METAR LIRF 120920Z 27005KT 230V290 8000 -RA FEW008 SCT035 12/11 Q0988 NOSIG",
      "taf": "TAF LIRF 120500Z 1206/1312 16008KT 9999 FEW020"
    },
    {
      "icao": "LIRN",
      "alert": "OK",
      "vis_m": 5000,
      "fzfg": false,
      "metar_trigger": false,
      "taf_trigger": false,
      "metar": "METAR LIRN 120920Z 20012KT 5000 -DZ BR FEW020 BKN050 13/12 Q0989 NOSIG",
      "taf": "TAF LIRN 120500Z 1206/1306 25012KT 9999 SCT020"
    },
    {
      "icao": "LIRP",
      "alert": "OK",
      "vis_m": 9999,
      "fzfg": false,
      "metar_trigger": false,
      "taf_trigger": false,
      "metar": "METAR LIRP 120915Z 25015KT 9999 SCT020 SCT040 14/11 Q0983 NOSIG",
      "taf": "TAF LIRP 120500Z 1206/1306 10005KT 9999 SCT030 BKN040"
    },
    {
      "icao": "LIRZ",
      "alert": "OK",
      "vis_m": 9999,
      "fzfg": false,
      "metar_trigger": false,
      "taf_trigger": false,
      "metar": "METAR LIRZ 120920Z AUTO 15007KT 9999 -RA FEW021/// BKN050/// 10/09 Q0987",
      "taf": "TAF LIRZ 120500Z 1206/1306 19008KT 9999 BKN030"
    },
    {
      "icao": "LJLJ",
      "alert": "OK",
      "vis_m": 6000,
      "fzfg": false,
      "metar_trigger": false,
      "taf_trigger": false,
      "metar": "METAR LJLJ 120900Z 23001KT 6000 BKN003 BKN033 07/06 Q0987 NOSIG",
      "taf": "TAF LJLJ 120500Z 1206/1306 VRB02KT 0300 FG VV002"
    },
    {
      "icao": "LKMT",
      "alert": "OK",
      "vis_m": 9999,
      "fzfg": false,
      "metar_trigger": false,
      "taf_trigger": false,
      "metar": "METAR LKMT 120900Z 21013KT 9999 FEW017 10/06 Q0984 NOSIG",
      "taf": "TAF LKMT 120500Z 1206/1306 22010KT 9999 BKN022"
    },
    {
      "icao": "LKPR",
      "alert": "OK",
      "vis_m": 9999,
      "fzfg": false,
      "metar_trigger": false,
      "taf_trigger": false,
      "metar": "METAR LKPR 120900Z 17006KT 130V190 9999 FEW048 07/04 Q0981 NOSIG",
      "taf": "TAF LKPR 120800Z 1209/1315 19010KT 9999 SCT030"
    },
    {
      "icao": "LLBG",
      "alert": "OK",
      "vis_m": 9999,
      "fzfg": false,
      "metar_trigger": false,
      "taf_trigger": false,
      "metar": "METAR LLBG 120920Z 22013KT CAVOK 23/06 Q1015 NOSIG",
      "taf": "TAF LLBG 120504Z 1206/1306 16007KT CAVOK"
    },
    {
      "icao": "LMML",
      "alert": "OK",
      "vis_m": 9999,
      "fzfg": false,
      "metar_trigger": false,
      "taf_trigger": false,
      "metar": "METAR LMML 120915Z 26019KT 9999 BKN049 17/14 Q1002 NOSIG",
      "taf": "TAF LMML 120500Z 1206/1306 25015KT 9999 FEW020"
    },
    {
      "icao": "LOWW",
      "alert": "OK",
      "vis_m": 9999,
      "fzfg": false,
      "metar_trigger": false,
      "taf_trigger": false,
      "metar": "METAR LOWW 120920Z 13009KT 9999 FEW003 BKN004 06/05 Q0984 TEMPO BKN005",
      "taf": "TAF LOWW 120815Z 1209/1315 14010KT 9999 FEW005 TX11/1312Z TN05/1209Z"
    },
    {
      "icao": "LPFR",
      "alert": "OK",
      "vis_m": 6000,
      "fzfg": false,
      "metar_trigger": false,
      "taf_trigger": false,
      "metar": "METAR LPFR 120900Z 28007KT 6000 SCT004 SCT014 15/14 Q1023",
      "taf": "TAF LPFR 120500Z 1206/1306 28007KT 9999 SCT025"
    },
    {
      "icao": "LPMA",
      "alert": "OK",
      "vis_m": 9999,
      "fzfg": false,
      "metar_trigger": false,
      "taf_trigger": false,
      "metar": "METAR LPMA 120900Z 34006KT 260V070 9999 SCT015 BKN030 16/10 Q1026",
      "taf": "TAF LPMA 120500Z 1206/1306 22008KT 9999 SCT015"
    },
    {
      "icao": "LPPR",
      "alert": "OK",
      "vis_m": 5000,
      "fzfg": false,
      "metar_trigger": false,
      "taf_trigger": false,
      "metar": "METAR LPPR 120900Z 23004KT 190V270 5000 BR SCT020 13/11 Q1018",
      "taf": "TAF LPPR 120500Z 1206/1306 26005KT 9999 SCT015 SCT035"
    },
    {
      "icao": "LPPS",
      "alert": "OK",
      "vis_m": 9999,
      "fzfg": false,
      "metar_trigger": false,
      "taf_trigger": false,
      "metar": "METAR LPPS 120900Z 25004KT 9999 FEW014 BKN030 16/12 Q1026",
      "taf": "TAF LPPS 120500Z 1206/1312 VRB05KT 9999 SCT015"
    },
    {
      "icao": "LPPT",
      "alert": "OK",
      "vis_m": 9999,
      "fzfg": false,
      "metar_trigger": false,
      "taf_trigger": false,
      "metar": "METAR LPPT 120900Z 27006KT 230V300 9999 FEW012 14/12 Q1021",
      "taf": "TAF LPPT 120500Z 1206/1312 25008KT 9999 SCT025"
    },
    {
      "icao": "LQBK",
      "alert": "OK",
      "vis_m": 9999,
      "fzfg": false,
      "metar_trigger": false,
      "taf_trigger": false,
      "metar": "METAR LQBK 120900Z 12003KT 090V150 CAVOK 12/07 Q0988 NOSIG",
      "taf": "TAF LQBK 120500Z 1206/1306 15005KT 9999 SCT045 TX13/1213Z TN03/1206Z"
    },
    {
      "icao": "LQSA",
      "alert": "OK",
      "vis_m": 9999,
      "fzfg": false,
      "metar_trigger": false,
      "taf_trigger": false,
      "metar": "METAR LQSA 120900Z VRB02KT 9999 FEW055 09/04 Q0990 NOSIG",
      "taf": "TAF LQSA 120500Z 1206/1306 11005KT 9999 SCT050 TX13/1213Z TN02/1206Z"
    },
    {
      "icao": "LQTZ",
      "alert": "OK",
      "vis_m": 9999,
      "fzfg": false,
      "metar_trigger": false,
      "taf_trigger": false,
      "metar": "METAR LQTZ 120900Z VRB01KT CAVOK 13/06 Q0989",
      "taf": "TAF LQTZ 120500Z 1206/1306 31005KT 9999 SCT060 TX17/1213Z TN00/1206Z"
    },
    {
      "icao": "LRBC",
      "alert": "WARNING",
      "vis_m": 100,
      "fzfg": true,
      "metar_trigger": false,
      "taf_trigger": true,
      "metar": "METAR LRBC 120900Z 17011KT 0100 R16/0400N FG VV002 00/00 Q0994",
      "taf": "TAF LRBC 120800Z 1209/1218 17010KT 0100 FZFG VV002"
    },
    {
      "icao": "LRBS",
      "alert": "OK",
      "vis_m": 9999,
      "fzfg": false,
      "metar_trigger": false,
      "taf_trigger": false,
      "metar": "METAR LRBS 120900Z VRB02KT CAVOK 05/01 Q0995 NOSIG",
      "taf": "TAF LRBS 120500Z 1206/1306 VRB04KT 3000 BR NSC"
    },
    {
      "icao": "LRBV",
      "alert": "OK",
      "vis_m": 9999,
      "fzfg": false,
      "metar_trigger": false,
      "taf_trigger": false,
      "metar": "METAR LRBV 120900Z VRB02KT CAVOK 03/M00 Q0992",
      "taf": "TAF LRBV 120800Z 1209/1218 VRB04KT CAVOK"
    },
    {
      "icao": "LRCL",
      "alert": "OK",
      "vis_m": 9999,
      "fzfg": false,
      "metar_trigger": false,
      "taf_trigger": false,
      "metar": "METAR LRCL 120900Z 11008KT CAVOK 10/03 Q0991",
      "taf": "TAF LRCL 120800Z 1209/1218 VRB04KT CAVOK"
    },
    {
      "icao": "LRCV",
      "alert": "OK",
      "vis_m": 400,
      "fzfg": true,
      "metar_trigger": false,
      "taf_trigger": false,
      "metar": "METAR LRCV 120900Z VRB02KT 0400 R26/0450U FZFG VV002 M00/M00 Q0995",
      "taf": "TAF LRCV 120800Z 1209/1218 VRB04KT 0350 FZFG VV002"
    },
    {
      "icao": "LRIA",
      "alert": "OK",
      "vis_m": 8000,
      "fzfg": false,
      "metar_trigger": false,
      "taf_trigger": false,
      "metar": "METAR LRIA 120900Z 11014KT 8000 SCT001 03/03 Q0993",
      "taf": "TAF LRIA 120800Z 1209/1218 10010KT 5000 BR NSC"
    },
    {
      "icao": "LROP",
      "alert": "OK",
      "vis_m": 9999,
      "fzfg": false,
      "metar_trigger": false,
      "taf_trigger": false,
      "metar": "METAR LROP 120900Z 28004KT 240V350 CAVOK 05/00 Q0995 NOSIG",
      "taf": "TAF LROP 120500Z 1206/1306 VRB04KT 3000 BR NSC"
    },
    {
      "icao": "LRSB",
      "alert": "OK",
      "vis_m": 9999,
      "fzfg": false,
      "metar_trigger": false,
      "taf_trigger": false,
      "metar": "METAR LRSB 120900Z 10008KT CAVOK 08/03 Q0991 NOSIG",
      "taf": "TAF LRSB 120500Z 1206/1306 VRB04KT CAVOK"
    },
    {
      "icao": "LRSM",
      "alert": "OK",
      "vis_m": 9999,
      "fzfg": false,
      "metar_trigger": false,
      "taf_trigger": false,
      "metar": "METAR LRSM 120900Z 16006KT 9999 -RA SCT040 09/05 Q0991",
      "taf": "TAF LRSM 120800Z 1209/1218 15006KT 9999 BKN040"
    },
    {
      "icao": "LRSV",
      "alert": "OK",
      "vis_m": 9999,
      "fzfg": false,
      "metar_trigger": false,
      "taf_trigger": false,
      "metar": "METAR LRSV 120900Z 23006KT CAVOK 05/01 Q0991",
      "taf": "TAF LRSV 120800Z 1209/1218 21006KT CAVOK"
    },
    {
      "icao": "LRTM",
      "alert": "OK",
      "vis_m": 9999,
      "fzfg": false,
      "metar_trigger": false,
      "taf_trigger": false,
      "metar": "METAR LRTM 120900Z 05005KT 020V080 9999 FEW043 08/02 Q0992",
      "taf": "TAF LRTM 120800Z 1209/1218 VRB04KT 9999 SCT035"
    },
    {
      "icao": "LRTR",
      "alert": "OK",
      "vis_m": 9999,
      "fzfg": false,
      "metar_trigger": false,
      "taf_trigger": false,
      "metar": "METAR LRTR 120900Z 15007KT 130V190 CAVOK 11/06 Q0991",
      "taf": "TAF LRTR 120500Z 1206/1306 08006KT CAVOK"
    },
    {
      "icao": "LTAC",
      "alert": "OK",
      "vis_m": 9999,
      "fzfg": false,
      "metar_trigger": false,
      "taf_trigger": false,
      "metar": "METAR LTAC 120920Z 22011KT 180V240 9999 -SHRA BKN021 BKN080 05/03 Q1005 NOSIG",
      "taf": "TAF LTAC 120440Z 1206/1306 VRB02KT 9999 SCT040 BKN100"
    },
    {
      "icao": "LTFM",
      "alert": "OK",
      "vis_m": 9999,
      "fzfg": false,
      "metar_trigger": false,
      "taf_trigger": false,
      "metar": "METAR LTFM 120920Z 14009KT 9999 SCT035 BKN090 11/07 Q0995 RESHRA NOSIG",
      "taf": "TAF LTFM 120440Z 1206/1312 15012KT 9999 -SHRA BKN035 BKN080"
    },
    {
      "icao": "LUKK",
      "alert": "OK",
      "vis_m": 9999,
      "fzfg": false,
      "metar_trigger": false,
      "taf_trigger": false,
      "metar": "METAR LUKK 120900Z 18007KT 150V210 9999 BKN008 04/03 Q0995 NOSIG",
      "taf": "TAF LUKK 120510Z 1206/1306 17009KT 9999 OVC008"
    },
    {
      "icao": "LWOH",
      "alert": "OK",
      "vis_m": 9999,
      "fzfg": false,
      "metar_trigger": false,
      "taf_trigger": false,
      "metar": "METAR LWOH 120920Z 15004KT 110V180 9999 SCT010 BKN020 08/05 Q0994",
      "taf": "TAF LWOH 120800Z 1209/1309 17010KT 9999 SCT020 BKN040"
    },
    {
      "icao": "LWSK",
      "alert": "OK",
      "vis_m": 9999,
      "fzfg": false,
      "metar_trigger": false,
      "taf_trigger": false,
      "metar": "METAR LWSK 120920Z 13004KT 110V170 9999 FEW004 SCT023 09/07 Q0994 NOSIG",
      "taf": "TAF LWSK 120800Z 1209/1309 VRB03KT 9999 SCT025 SCT050"
    },
    {
      "icao": "LYBE",
      "alert": "OK",
      "vis_m": 9999,
      "fzfg": false,
      "metar_trigger": false,
      "taf_trigger": false,
      "metar": "METAR LYBE 120900Z 17009KT 140V200 CAVOK 13/05 Q0990 NOSIG",
      "taf": "TAF LYBE 120500Z 1206/1306 12010KT CAVOK TX17/1213Z TN04/1306Z"
    },
    {
      "icao": "LYNI",
      "alert": "OK",
      "vis_m": 9999,
      "fzfg": false,
      "metar_trigger": false,
      "taf_trigger": false,
      "metar": "METAR LYNI 120900Z 11008KT 9999 SCT033 09/03 Q0993 NOSIG",
      "taf": "TAF LYNI 120500Z 1206/1306 12010KT 9999 SCT060 TX15/1212Z TN04/1206Z"
    },
    {
      "icao": "LYPG",
      "alert": "OK",
      "vis_m": 8000,
      "fzfg": false,
      "metar_trigger": false,
      "taf_trigger": false,
      "metar": "METAR LYPG 120900Z VRB02KT 8000 -DZ FEW003 SCT020 BKN050 10/10 Q0994 NOSIG",
      "taf": ""
    },
    {
      "icao": "LZIB",
      "alert": "OK",
      "vis_m": 550,
      "fzfg": false,
      "metar_trigger": false,
      "taf_trigger": false,
      "metar": "METAR LZIB 120900Z 07009KT 0550 R31/0900N R22/1000U FG OVC002 04/04 Q0985 BECMG 2500 BR BKN006",
      "taf": "TAF LZIB 120515Z 1206/1306 03003KT 0800 FG BKN003"
    },
    {
      "icao": "LZKZ",
      "alert": "OK",
      "vis_m": 200,
      "fzfg": false,
      "metar_trigger": false,
      "taf_trigger": false,
      "metar": "METAR LZKZ 120900Z 19003KT 0200 R01/0650U FG OVC002 04/04 Q0989 TEMPO 0400 FG",
      "taf": ""
    },
    {
      "icao": "LZTT",
      "alert": "OK",
      "vis_m": 9999,
      "fzfg": false,
      "metar_trigger": false,
      "taf_trigger": false,
      "metar": "METAR LZTT 120900Z 23007KT 9999 FEW020 BKN026 07/03 Q0986 NOSIG",
      "taf": "TAF LZTT 120515Z 1206/1306 24011KT 9999 BKN030"
    },
    {
      "icao": "OEJN",
      "alert": "OK",
      "vis_m": 9999,
      "fzfg": false,
      "metar_trigger": false,
      "taf_trigger": false,
      "metar": "METAR OEJN 120900Z 30005KT CAVOK 29/18 Q1014 NOSIG",
      "taf": "TAF OEJN 120500Z 1206/1312 30010KT 9999 FEW040"
    },
    {
      "icao": "OEMA",
      "alert": "OK",
      "vis_m": 9999,
      "fzfg": false,
      "metar_trigger": false,
      "taf_trigger": false,
      "metar": "METAR OEMA 120900Z VRB03KT CAVOK 27/06 Q1018 NOSIG",
      "taf": "TAF OEMA 120500Z 1206/1312 VRB03KT CAVOK"
    },
    {
      "icao": "OJAI",
      "alert": "OK",
      "vis_m": 4000,
      "fzfg": false,
      "metar_trigger": false,
      "taf_trigger": false,
      "metar": "METAR OJAI 120900Z 24010KT 4000 HZ NSC 16/03 Q1018 NOSIG",
      "taf": "TAF OJAI 120500Z 1206/1312 25012KT 5000 HZ FEW035"
    },
    {
      "icao": "OMAA",
      "alert": "OK",
      "vis_m": 9999,
      "fzfg": false,
      "metar_trigger": false,
      "taf_trigger": false,
      "metar": "METAR OMAA 120900Z 17008KT 130V230 CAVOK 30/11 Q1017 NOSIG",
      "taf": "TAF OMAA 120500Z 1206/1312 17010KT 8000 NSC"
    },
    {
      "icao": "OMDB",
      "alert": "OK",
      "vis_m": 9999,
      "fzfg": false,
      "metar_trigger": false,
      "taf_trigger": false,
      "metar": "METAR OMDB 120900Z 19007KT 130V240 CAVOK 31/10 Q1017 BECMG 33010KT",
      "taf": "TAF OMDB 120500Z 1206/1312 16008KT 8000 NSC"
    },
    {
      "icao": "UAAA",
      "alert": "OK",
      "vis_m": 4900,
      "fzfg": false,
      "metar_trigger": false,
      "taf_trigger": false,
      "metar": "SPECI UAAA 120914Z 35003MPS 330V030 4900 BR OVC004 M01/M02 Q1020 NOSIG RMK QBB120",
      "taf": "TAF UAAA 120507Z 1206/1306 35003MPS 6000 BKN011CB OVC020 TX00/1209Z TNM05/1303Z"
    },
    {
      "icao": "UBBB",
      "alert": "OK",
      "vis_m": 9999,
      "fzfg": false,
      "metar_trigger": false,
      "taf_trigger": false,
      "metar": "METAR UBBB 120900Z 27004KT CAVOK 07/03 Q1014 NOSIG",
      "taf": "TAF UBBB 120504Z 1206/1306 16010KT 9999 SCT025 TX08/1210Z TN01/1301Z"
    },
    {
      "icao": "UDSG",
      "alert": "OK",
      "vis_m": 1400,
      "fzfg": false,
      "metar_trigger": false,
      "taf_trigger": false,
      "metar": "METAR UDSG 120900Z 23002KT 1400 R02/1400D SN BR OVC005 M00/M00 Q1014 NOSIG",
      "taf": "TAF UDSG 120458Z 1206/1306 VRB06KT 3000 BR OVC020"
    },
    {
      "icao": "UDYZ",
      "alert": "OK",
      "vis_m": 4400,
      "fzfg": false,
      "metar_trigger": false,
      "taf_trigger": false,
      "metar": "METAR UDYZ 120900Z COR 20002KT 4400 -RA BR SCT010 OVC030 03/02 Q1015 NOSIG",
      "taf": "TAF UDYZ 120500Z 1206/1306 VRB06KT 2300 BR OVC020"
    },
    {
      "icao": "UGKO",
      "alert": "OK",
      "vis_m": 9999,
      "fzfg": false,
      "metar_trigger": false,
      "taf_trigger": false,
      "metar": "METAR UGKO 120900Z 11017KT 9999 BKN093 13/03 Q1009 NOSIG",
      "taf": "TAF UGKO 120500Z 1206/1306 08015KT CAVOK TX17/1211Z TN09/1206Z"
    }
  ]
}