{
  "ts_utc": "2026-04-02T21:57:30Z",
  "threshold_m": 150,
  "source": "stations_override.txt (ICAO list) + aviationweather.gov (METAR/TAF raw)",
  "station_count": 159,
  "stations": [
    {
      "icao": "BIKF",
      "alert": "OK",
      "vis_m": 9999,
      "fzfg": false,
      "metar_trigger": false,
      "taf_trigger": false,
      "metar": "METAR BIKF 022130Z 11005KT 9999 VCSH FEW015TCU BKN027 BKN042 M02/M03 Q0993",
      "taf": "TAF BIKF 021958Z 0221/0321 13012KT 9999 FEW015 BKN030 TX02/0316Z TNM05/0223Z"
    },
    {
      "icao": "BKPR",
      "alert": "OK",
      "vis_m": null,
      "fzfg": false,
      "metar_trigger": false,
      "taf_trigger": false,
      "metar": "",
      "taf": "TAF BKPR 021730Z 0218/0318 36009KT 9999 SCT012 BKN030"
    },
    {
      "icao": "EBCI",
      "alert": "OK",
      "vis_m": 9999,
      "fzfg": false,
      "metar_trigger": false,
      "taf_trigger": false,
      "metar": "METAR EBCI 022150Z VRB02KT 9999 BKN034 05/03 Q1019 NOSIG",
      "taf": "TAF EBCI 021702Z 0218/0324 33008KT 9999 BKN030"
    },
    {
      "icao": "EDDB",
      "alert": "OK",
      "vis_m": 9999,
      "fzfg": false,
      "metar_trigger": false,
      "taf_trigger": false,
      "metar": "METAR EDDB 022150Z AUTO 22007KT CAVOK 07/02 Q1014 NOSIG",
      "taf": "TAF EDDB 021700Z 0218/0318 30005KT CAVOK"
    },
    {
      "icao": "EDDH",
      "alert": "OK",
      "vis_m": 9999,
      "fzfg": false,
      "metar_trigger": false,
      "taf_trigger": false,
      "metar": "METAR EDDH 022150Z AUTO 29006KT CAVOK 04/01 Q1016 NOSIG",
      "taf": "TAF EDDH 021700Z 0218/0324 30007KT 9999 BKN012"
    },
    {
      "icao": "EDDK",
      "alert": "OK",
      "vis_m": 9999,
      "fzfg": false,
      "metar_trigger": false,
      "taf_trigger": false,
      "metar": "METAR EDDK 022150Z AUTO 32004KT 9999 FEW027 OVC042 06/05 Q1018 NOSIG",
      "taf": "TAF EDDK 021700Z 0218/0324 29007KT 9999 SCT015 BKN030"
    },
    {
      "icao": "EDDN",
      "alert": "OK",
      "vis_m": 9999,
      "fzfg": false,
      "metar_trigger": false,
      "taf_trigger": false,
      "metar": "METAR EDDN 022150Z AUTO 10003KT CAVOK 03/M02 Q1016",
      "taf": "TAF EDDN 021700Z 0218/0318 29005KT CAVOK"
    },
    {
      "icao": "EDDS",
      "alert": "OK",
      "vis_m": 9999,
      "fzfg": false,
      "metar_trigger": false,
      "taf_trigger": false,
      "metar": "METAR EDDS 022150Z AUTO VRB02KT CAVOK 03/M02 Q1016",
      "taf": "TAF EDDS 021700Z 0218/0318 30005KT CAVOK"
    },
    {
      "icao": "EDFH",
      "alert": "OK",
      "vis_m": 9999,
      "fzfg": false,
      "metar_trigger": false,
      "taf_trigger": false,
      "metar": "METAR EDFH 022150Z 33005KT 300V020 9999 SCT012 OVC014 07/04 Q1017",
      "taf": "TAF EDFH 021700Z 0218/0318 29006KT 9999 BKN035"
    },
    {
      "icao": "EDJA",
      "alert": "OK",
      "vis_m": 9999,
      "fzfg": false,
      "metar_trigger": false,
      "taf_trigger": false,
      "metar": "METAR EDJA 022150Z AUTO 19004KT 9999 // FEW099/// 02/M01 Q1017",
      "taf": "TAF EDJA 021700Z 0218/0303 19003KT 9999 FEW040"
    },
    {
      "icao": "EDLW",
      "alert": "OK",
      "vis_m": 9999,
      "fzfg": false,
      "metar_trigger": false,
      "taf_trigger": false,
      "metar": "METAR EDLW 022150Z AUTO 28003KT 240V320 9999 // FEW014/// SCT025/// OVC030/// 06/04 Q1018",
      "taf": "TAF EDLW 021700Z 0218/0318 30006KT 9999 SCT020 BKN030"
    },
    {
      "icao": "EDNY",
      "alert": "OK",
      "vis_m": 9999,
      "fzfg": false,
      "metar_trigger": false,
      "taf_trigger": false,
      "metar": "METAR EDNY 022150Z AUTO 00000KT 9999 // BKN065/// 03/01 Q1018",
      "taf": "TAF EDNY 021700Z 0218/0303 VRB02KT 9999 FEW050"
    },
    {
      "icao": "EDSB",
      "alert": "OK",
      "vis_m": 9999,
      "fzfg": false,
      "metar_trigger": false,
      "taf_trigger": false,
      "metar": "METAR EDSB 022150Z AUTO 18005KT 160V220 9999 // BKN098/// 06/01 Q1017",
      "taf": "TAF EDSB 021700Z 0218/0318 VRB03KT CAVOK"
    },
    {
      "icao": "EETN",
      "alert": "OK",
      "vis_m": 9999,
      "fzfg": false,
      "metar_trigger": false,
      "taf_trigger": false,
      "metar": "METAR EETN 022150Z 23006KT 9999 SCT043 04/03 Q1009 TEMPO BKN008",
      "taf": "TAF EETN 021730Z 0218/0318 20008KT 9999 BKN020"
    },
    {
      "icao": "EFTU",
      "alert": "OK",
      "vis_m": 9999,
      "fzfg": false,
      "metar_trigger": false,
      "taf_trigger": false,
      "metar": "METAR EFTU 022150Z AUTO 29004KT 260V320 9999 OVC004 02/02 Q1008",
      "taf": "TAF EFTU 022028Z 0221/0321 30005KT CAVOK"
    },
    {
      "icao": "EGBB",
      "alert": "OK",
      "vis_m": 9999,
      "fzfg": false,
      "metar_trigger": false,
      "taf_trigger": false,
      "metar": "METAR EGBB 022150Z 24006KT 200V280 CAVOK 08/01 Q1016",
      "taf": "TAF EGBB 021659Z 0218/0318 19008KT 9999 FEW040"
    },
    {
      "icao": "EGGP",
      "alert": "OK",
      "vis_m": 9999,
      "fzfg": false,
      "metar_trigger": false,
      "taf_trigger": false,
      "metar": "METAR EGGP 022150Z 18008KT 160V220 9999 -RA BKN036 OVC048 06/04 Q1014",
      "taf": "TAF EGGP 021656Z 0218/0318 27009KT 9999 SCT040"
    },
    {
      "icao": "EGGW",
      "alert": "OK",
      "vis_m": 9999,
      "fzfg": false,
      "metar_trigger": false,
      "taf_trigger": false,
      "metar": "METAR EGGW 022150Z AUTO 20006KT 160V240 9999 NCD 08/03 Q1017",
      "taf": "TAF EGGW 021655Z 0218/0318 23003KT 9999 SCT030"
    },
    {
      "icao": "EGKK",
      "alert": "OK",
      "vis_m": 9999,
      "fzfg": false,
      "metar_trigger": false,
      "taf_trigger": false,
      "metar": "METAR EGKK 022150Z 21006KT CAVOK 07/05 Q1019",
      "taf": "TAF EGKK 021707Z 0218/0324 35006KT 9999 SCT035"
    },
    {
      "icao": "EGNM",
      "alert": "OK",
      "vis_m": 9999,
      "fzfg": false,
      "metar_trigger": false,
      "taf_trigger": false,
      "metar": "METAR EGNM 022150Z 22008KT 9999 -RA FEW014 BKN024 05/03 Q1013",
      "taf": "TAF EGNM 021700Z 0218/0318 22009KT 9999 FEW015 SCT030"
    },
    {
      "icao": "EGPD",
      "alert": "OK",
      "vis_m": 9999,
      "fzfg": false,
      "metar_trigger": false,
      "taf_trigger": false,
      "metar": "METAR EGPD 022150Z AUTO 18012KT 9999 -RA BKN032 OVC038 06/02 Q1008 TEMPO RA",
      "taf": "TAF EGPD 021654Z 0218/0318 16012KT 9999 FEW040"
    },
    {
      "icao": "EGPF",
      "alert": "OK",
      "vis_m": 9999,
      "fzfg": false,
      "metar_trigger": false,
      "taf_trigger": false,
      "metar": "METAR EGPF 022150Z AUTO 12006KT 9999 -RA BKN016/// BKN021/// BKN044/// //////TCU 05/04 Q1007",
      "taf": "TAF EGPF 021655Z 0218/0318 19014KT 9999 FEW040"
    },
    {
      "icao": "EHBK",
      "alert": "OK",
      "vis_m": 9999,
      "fzfg": false,
      "metar_trigger": false,
      "taf_trigger": false,
      "metar": "METAR EHBK 022125Z AUTO 32004KT 290V360 9999 OVC038 06/03 Q1019",
      "taf": "TAF EHBK 021703Z 0218/0324 32005KT 9999 BKN030"
    },
    {
      "icao": "EHEH",
      "alert": "OK",
      "vis_m": 9999,
      "fzfg": false,
      "metar_trigger": false,
      "taf_trigger": false,
      "metar": "METAR EHEH 022125Z AUTO 29003KT 260V350 9999 OVC036 07/02 Q1019 BLU",
      "taf": "TAF EHEH 021730Z 0218/0324 31006KT 9999 BKN028"
    },
    {
      "icao": "EKBI",
      "alert": "OK",
      "vis_m": 9999,
      "fzfg": false,
      "metar_trigger": false,
      "taf_trigger": false,
      "metar": "METAR EKBI 022150Z AUTO 27012KT 9999 OVC033/// 03/M01 Q1013",
      "taf": "TAF EKBI 022027Z 0221/0321 27010KT 9999 BKN025"
    },
    {
      "icao": "EKCH",
      "alert": "OK",
      "vis_m": 9999,
      "fzfg": false,
      "metar_trigger": false,
      "taf_trigger": false,
      "metar": "METAR EKCH 022150Z AUTO 30008KT 9999 FEW022/// FEW031/// 05/M00 Q1012 NOSIG",
      "taf": "TAF EKCH 022027Z 0221/0321 27012KT 9999 BKN020"
    },
    {
      "icao": "ENAL",
      "alert": "OK",
      "vis_m": 9999,
      "fzfg": false,
      "metar_trigger": false,
      "taf_trigger": false,
      "metar": "METAR ENAL 022150Z 06010KT 9999 FEW012 02/00 Q1012",
      "taf": "TAF ENAL 022000Z 0221/0306 05008KT 9999 FEW015"
    },
    {
      "icao": "ENBR",
      "alert": "OK",
      "vis_m": 9999,
      "fzfg": false,
      "metar_trigger": false,
      "taf_trigger": false,
      "metar": "METAR ENBR 022150Z 03001KT CAVOK M00/M04 Q1009 RMK WIND 1200FT 11009KT",
      "taf": "TAF ENBR 021700Z 0218/0318 34007KT 9999 FEW040"
    },
    {
      "icao": "ENGM",
      "alert": "OK",
      "vis_m": 9000,
      "fzfg": false,
      "metar_trigger": false,
      "taf_trigger": false,
      "metar": "METAR ENGM 022150Z 01009KT 9000 2900E -SN FEW006 BKN029 00/M01 Q1010",
      "taf": "TAF ENGM 021700Z 0218/0318 01012KT 9999 -SNRA FEW010 BKN025"
    },
    {
      "icao": "ENHD",
      "alert": "OK",
      "vis_m": 9999,
      "fzfg": false,
      "metar_trigger": false,
      "taf_trigger": false,
      "metar": "METAR ENHD 022150Z AUTO 15003KT 9999 NCD M01/M03 Q1010",
      "taf": "TAF ENHD 021400Z 0215/0222 34025KT 9999 FEW040"
    },
    {
      "icao": "ENTC",
      "alert": "OK",
      "vis_m": 9999,
      "fzfg": false,
      "metar_trigger": false,
      "taf_trigger": false,
      "metar": "METAR ENTC 022150Z VRB01KT 9999 BKN045 02/M01 Q1004 RMK WIND 2600FT 35021KT",
      "taf": "TAF ENTC 021700Z 0218/0318 25008KT 9999 -SHRASN SCT010 BKN025"
    },
    {
      "icao": "ENTO",
      "alert": "OK",
      "vis_m": 6000,
      "fzfg": false,
      "metar_trigger": false,
      "taf_trigger": false,
      "metar": "METAR ENTO 022150Z 36013KT 6000 -SHSN SCT002 00/00 Q1008",
      "taf": "TAF ENTO 021700Z 0218/0318 01014KT 9999 -RASN BKN016"
    },
    {
      "icao": "ENVA",
      "alert": "OK",
      "vis_m": 9999,
      "fzfg": false,
      "metar_trigger": false,
      "taf_trigger": false,
      "metar": "METAR ENVA 022150Z 07004KT 030V090 9999 BKN051 M01/M02 Q1014 RMK WIND 670FT 26003KT",
      "taf": "TAF ENVA 021700Z 0218/0318 10005KT 9999 FEW050"
    },
    {
      "icao": "ENZV",
      "alert": "OK",
      "vis_m": 9999,
      "fzfg": false,
      "metar_trigger": false,
      "taf_trigger": false,
      "metar": "METAR ENZV 022150Z VRB01KT 9999 FEW042 04/00 Q1010",
      "taf": "TAF ENZV 021700Z 0218/0318 33017KT 9999 SCT040"
    },
    {
      "icao": "EPGD",
      "alert": "OK",
      "vis_m": 9999,
      "fzfg": false,
      "metar_trigger": false,
      "taf_trigger": false,
      "metar": "METAR EPGD 022130Z 27002KT CAVOK 01/M01 Q1012",
      "taf": "TAF EPGD 021730Z 0218/0318 VRB05KT CAVOK"
    },
    {
      "icao": "EPKK",
      "alert": "OK",
      "vis_m": 9999,
      "fzfg": false,
      "metar_trigger": false,
      "taf_trigger": false,
      "metar": "METAR EPKK 022130Z 22002KT 9999 OVC043 08/01 Q1012",
      "taf": "TAF EPKK 022030Z 0221/0321 26004KT 9999 BKN045"
    },
    {
      "icao": "EPKT",
      "alert": "OK",
      "vis_m": 9999,
      "fzfg": false,
      "metar_trigger": false,
      "taf_trigger": false,
      "metar": "METAR EPKT 022130Z 28001KT CAVOK 04/M01 Q1012",
      "taf": "TAF EPKT 021730Z 0218/0318 02004KT CAVOK"
    },
    {
      "icao": "EPLB",
      "alert": "OK",
      "vis_m": 9999,
      "fzfg": false,
      "metar_trigger": false,
      "taf_trigger": false,
      "metar": "METAR EPLB 022130Z 34007KT CAVOK 09/01 Q1010",
      "taf": "TAF EPLB 021730Z 0218/0318 02005KT CAVOK"
    },
    {
      "icao": "EPMO",
      "alert": "OK",
      "vis_m": 9999,
      "fzfg": false,
      "metar_trigger": false,
      "taf_trigger": false,
      "metar": "METAR EPMO 022130Z 31007KT CAVOK 05/M05 Q1012",
      "taf": "TAF EPMO 021730Z 0218/0318 03005KT CAVOK"
    },
    {
      "icao": "EPPO",
      "alert": "OK",
      "vis_m": 9999,
      "fzfg": false,
      "metar_trigger": false,
      "taf_trigger": false,
      "metar": "METAR EPPO 022130Z 29002KT CAVOK 04/M01 Q1013",
      "taf": "TAF EPPO 021730Z 0218/0318 VRB02KT CAVOK"
    },
    {
      "icao": "EPRA",
      "alert": "OK",
      "vis_m": 9999,
      "fzfg": false,
      "metar_trigger": false,
      "taf_trigger": false,
      "metar": "METAR EPRA 022130Z 32003KT CAVOK 09/M03 Q1011",
      "taf": "TAF EPRA 022030Z 0221/0306 34005KT CAVOK"
    },
    {
      "icao": "EPRZ",
      "alert": "OK",
      "vis_m": 9999,
      "fzfg": false,
      "metar_trigger": false,
      "taf_trigger": false,
      "metar": "METAR EPRZ 022130Z 33004KT 300V010 CAVOK 09/03 Q1010",
      "taf": "TAF EPRZ 021730Z 0218/0318 35006KT CAVOK"
    },
    {
      "icao": "EPSC",
      "alert": "OK",
      "vis_m": 9999,
      "fzfg": false,
      "metar_trigger": false,
      "taf_trigger": false,
      "metar": "METAR EPSC 022130Z 13004KT CAVOK 05/01 Q1013",
      "taf": "TAF EPSC 021730Z 0218/0318 24006KT CAVOK"
    },
    {
      "icao": "EPSY",
      "alert": "OK",
      "vis_m": 9999,
      "fzfg": false,
      "metar_trigger": false,
      "taf_trigger": false,
      "metar": "METAR EPSY 022130Z 36002KT CAVOK 02/M04 Q1012",
      "taf": "TAF EPSY 022030Z 0221/0306 36005KT CAVOK"
    },
    {
      "icao": "EPWA",
      "alert": "OK",
      "vis_m": 9999,
      "fzfg": false,
      "metar_trigger": false,
      "taf_trigger": false,
      "metar": "METAR EPWA 022130Z 30005KT CAVOK 07/M05 Q1011 NOSIG",
      "taf": "TAF EPWA 022030Z 0221/0321 34004KT CAVOK"
    },
    {
      "icao": "EPWR",
      "alert": "OK",
      "vis_m": 9999,
      "fzfg": false,
      "metar_trigger": false,
      "taf_trigger": false,
      "metar": "METAR EPWR 022130Z 27003KT CAVOK 02/M02 Q1013",
      "taf": "TAF EPWR 022030Z 0221/0321 VRB02KT CAVOK"
    },
    {
      "icao": "ESGG",
      "alert": "OK",
      "vis_m": 9999,
      "fzfg": false,
      "metar_trigger": false,
      "taf_trigger": false,
      "metar": "METAR ESGG 022150Z 18006KT 9999 SCT023 00/M01 Q1008",
      "taf": "TAF ESGG 022030Z 0221/0321 24006KT 9999 BKN025"
    },
    {
      "icao": "ESKN",
      "alert": "OK",
      "vis_m": 9999,
      "fzfg": false,
      "metar_trigger": false,
      "taf_trigger": false,
      "metar": "METAR ESKN 022150Z VRB02KT 9999 BKN028 07/06 Q1008",
      "taf": ""
    },
    {
      "icao": "ESMS",
      "alert": "OK",
      "vis_m": 9999,
      "fzfg": false,
      "metar_trigger": false,
      "taf_trigger": false,
      "metar": "METAR ESMS 022150Z 31008KT 9999 SCT018 OVC025 06/04 Q1011",
      "taf": "TAF ESMS 022027Z 0221/0321 21005KT 9999 BKN025"
    },
    {
      "icao": "ESSA",
      "alert": "OK",
      "vis_m": 9000,
      "fzfg": false,
      "metar_trigger": false,
      "taf_trigger": false,
      "metar": "METAR ESSA 022150Z 03009KT 9000 -RA BKN005 02/01 Q1009 NOSIG",
      "taf": "TAF ESSA 022030Z 0221/0321 02007KT 9999 BKN008"
    },
    {
      "icao": "EYKA",
      "alert": "OK",
      "vis_m": 9999,
      "fzfg": false,
      "metar_trigger": false,
      "taf_trigger": false,
      "metar": "METAR EYKA 022150Z 31004KT CAVOK 05/M04 Q1011",
      "taf": "TAF EYKA 021700Z 0218/0318 VRB03KT 7000 NSC"
    },
    {
      "icao": "EYPA",
      "alert": "OK",
      "vis_m": 9999,
      "fzfg": false,
      "metar_trigger": false,
      "taf_trigger": false,
      "metar": "METAR EYPA 022150Z 13001KT CAVOK M02/M03 Q1012",
      "taf": ""
    },
    {
      "icao": "EYVI",
      "alert": "OK",
      "vis_m": 9999,
      "fzfg": false,
      "metar_trigger": false,
      "taf_trigger": false,
      "metar": "METAR EYVI 022150Z 34001KT CAVOK 01/M04 Q1011 NOSIG",
      "taf": "TAF EYVI 021700Z 0218/0318 VRB03KT 7000 NSC"
    },
    {
      "icao": "GCFV",
      "alert": "OK",
      "vis_m": 9999,
      "fzfg": false,
      "metar_trigger": false,
      "taf_trigger": false,
      "metar": "METAR GCFV 022130Z 35011KT CAVOK 18/12 Q1019",
      "taf": "TAF GCFV 022000Z 0221/0321 34009KT CAVOK TX24/0314Z TN16/0306Z"
    },
    {
      "icao": "GCLP",
      "alert": "OK",
      "vis_m": 9999,
      "fzfg": false,
      "metar_trigger": false,
      "taf_trigger": false,
      "metar": "METAR GCLP 022130Z 36013KT CAVOK 19/06 Q1019 NOSIG",
      "taf": "TAF GCLP 022000Z 0221/0321 36012KT 9999 FEW020 TX23/0314Z TN16/0306Z"
    },
    {
      "icao": "GCTS",
      "alert": "OK",
      "vis_m": 9999,
      "fzfg": false,
      "metar_trigger": false,
      "taf_trigger": false,
      "metar": "METAR GCTS 022130Z 08007KT CAVOK 19/11 Q1020 NOSIG",
      "taf": "TAF GCTS 022000Z 0221/0321 07015KT CAVOK TX24/0314Z TN16/0306Z"
    },
    {
      "icao": "GMAD",
      "alert": "OK",
      "vis_m": 9999,
      "fzfg": false,
      "metar_trigger": false,
      "taf_trigger": false,
      "metar": "METAR GMAD 022130Z 00000KT CAVOK 16/14 Q1015 NOSIG",
      "taf": ""
    },
    {
      "icao": "GMMN",
      "alert": "OK",
      "vis_m": 6000,
      "fzfg": false,
      "metar_trigger": false,
      "taf_trigger": false,
      "metar": "METAR GMMN 022130Z 02006KT 6000 FEW004 14/11 Q1020 NOSIG",
      "taf": "TAF GMMN 021700Z 0218/0324 36010KT CAVOK"
    },
    {
      "icao": "GMMX",
      "alert": "OK",
      "vis_m": 9999,
      "fzfg": false,
      "metar_trigger": false,
      "taf_trigger": false,
      "metar": "METAR GMMX 022130Z 06006KT 030V110 CAVOK 18/08 Q1018 NOSIG",
      "taf": "TAF GMMX 021700Z 0218/0324 09006KT CAVOK"
    },
    {
      "icao": "HEGN",
      "alert": "OK",
      "vis_m": 2500,
      "fzfg": false,
      "metar_trigger": false,
      "taf_trigger": false,
      "metar": "METAR HEGN 022100Z 35013KT 2500 SA NSC 24/17 Q1012 NOSIG",
      "taf": "TAF HEGN 021700Z 0218/0324 34008G20KT 6000 BKN020"
    },
    {
      "icao": "HEMA",
      "alert": "OK",
      "vis_m": 9999,
      "fzfg": false,
      "metar_trigger": false,
      "taf_trigger": false,
      "metar": "METAR HEMA 022100Z 13005KT CAVOK 26/15 Q1011 NOSIG",
      "taf": "TAF HEMA 021700Z 0218/0324 34008G22KT 6000 BKN020"
    },
    {
      "icao": "HESH",
      "alert": "OK",
      "vis_m": 9999,
      "fzfg": false,
      "metar_trigger": false,
      "taf_trigger": false,
      "metar": "METAR HESH 022100Z 08003KT CAVOK 24/20 Q1011 NOSIG",
      "taf": "TAF HESH 021700Z 0218/0324 35006G18KT 6000 BKN020"
    },
    {
      "icao": "HESX",
      "alert": "OK",
      "vis_m": 9999,
      "fzfg": false,
      "metar_trigger": false,
      "taf_trigger": false,
      "metar": "METAR HESX 022100Z 09006KT CAVOK 14/04 Q1015 NOSIG",
      "taf": "TAF HESX 021700Z 0218/0324 30008KT 6000 NSC"
    },
    {
      "icao": "LATI",
      "alert": "OK",
      "vis_m": 9999,
      "fzfg": false,
      "metar_trigger": false,
      "taf_trigger": false,
      "metar": "METAR LATI 022150Z 00000KT 9999 SCT096 BKN120 10/06 Q0998 NOSIG",
      "taf": "TAF LATI 021700Z 0218/0318 VRB05KT 9999 RA SCT030 OVC060 TX17/0312Z TN06/0304Z"
    },
    {
      "icao": "LBPD",
      "alert": "OK",
      "vis_m": 9999,
      "fzfg": false,
      "metar_trigger": false,
      "taf_trigger": false,
      "metar": "METAR LBPD 022130Z AUTO 13004KT 9999 FEW062/// OVC130/// 08/08 Q0999",
      "taf": "TAF LBPD 021700Z 0218/0318 VRB04KT 9999 BKN015 OVC025"
    },
    {
      "icao": "LBSF",
      "alert": "OK",
      "vis_m": 9999,
      "fzfg": false,
      "metar_trigger": false,
      "taf_trigger": false,
      "metar": "METAR LBSF 022130Z AUTO 28005KT 9999 -RA SCT026/// BKN037/// OVC046/// 07/05 Q0999 NOSIG",
      "taf": "TAF LBSF 021700Z 0218/0318 01010KT 9999 SCT015 BKN020 OVC035"
    },
    {
      "icao": "LBWN",
      "alert": "OK",
      "vis_m": 4000,
      "fzfg": false,
      "metar_trigger": false,
      "taf_trigger": false,
      "metar": "METAR LBWN 022130Z AUTO VRB02KT 4000 -SHRA BR OVC002/// 09/09 Q1002 TEMPO 0800 BCFG OVC002",
      "taf": "TAF LBWN 021700Z 0218/0318 09010KT 8000 SCT004 BKN007 OVC015"
    },
    {
      "icao": "LCLK",
      "alert": "OK",
      "vis_m": 9999,
      "fzfg": false,
      "metar_trigger": false,
      "taf_trigger": false,
      "metar": "METAR LCLK 022130Z 23013KT 9999 BKN060 16/12 Q1011 NOSIG",
      "taf": "TAF LCLK 021730Z 0218/0318 25007KT 8000 SCT022 SCT050"
    },
    {
      "icao": "LCPH",
      "alert": "OK",
      "vis_m": 9999,
      "fzfg": false,
      "metar_trigger": false,
      "taf_trigger": false,
      "metar": "METAR LCPH 022130Z AUTO 28008KT 250V320 9999 OVC031 16/10 Q1012 BECMG 5000 DU",
      "taf": "TAF LCPH 021730Z 0218/0318 35007KT 8000 FEW020 BKN050"
    },
    {
      "icao": "LEAL",
      "alert": "OK",
      "vis_m": 9999,
      "fzfg": false,
      "metar_trigger": false,
      "taf_trigger": false,
      "metar": "METAR LEAL 022130Z 36005KT 320V070 CAVOK 14/10 Q1017 NOSIG",
      "taf": "TAF LEAL 021700Z 0218/0318 17009KT CAVOK TX19/0312Z TN09/0305Z"
    },
    {
      "icao": "LEBB",
      "alert": "OK",
      "vis_m": 9999,
      "fzfg": false,
      "metar_trigger": false,
      "taf_trigger": false,
      "metar": "METAR LEBB 022130Z 31007KT 280V340 9999 FEW025 BKN038 12/08 Q1026 NOSIG",
      "taf": "TAF LEBB 021700Z 0218/0318 32009KT 9999 SCT015 BKN030 TX16/0312Z TN07/0306Z"
    },
    {
      "icao": "LEBL",
      "alert": "OK",
      "vis_m": 9999,
      "fzfg": false,
      "metar_trigger": false,
      "taf_trigger": false,
      "metar": "METAR LEBL 022130Z 02003KT 9999 FEW025 13/10 Q1015 NOSIG",
      "taf": "TAF LEBL 021700Z 0218/0318 06010KT 9999 FEW020 SCT030 TX20/0312Z TN11/0306Z"
    },
    {
      "icao": "LECH",
      "alert": "OK",
      "vis_m": 9999,
      "fzfg": false,
      "metar_trigger": false,
      "taf_trigger": false,
      "metar": "METAR LECH 022130Z AUTO 28011KT 230V350 CAVOK 13/00 Q1017",
      "taf": ""
    },
    {
      "icao": "LEMD",
      "alert": "OK",
      "vis_m": 9999,
      "fzfg": false,
      "metar_trigger": false,
      "taf_trigger": false,
      "metar": "METAR LEMD 022130Z 02009KT 310V080 CAVOK 11/M01 Q1021 NOSIG",
      "taf": "TAF LEMD 021700Z 0218/0324 01016KT CAVOK TX22/0315Z TN03/0306Z"
    },
    {
      "icao": "LEMG",
      "alert": "OK",
      "vis_m": 9999,
      "fzfg": false,
      "metar_trigger": false,
      "taf_trigger": false,
      "metar": "METAR LEMG 022130Z VRB02KT CAVOK 14/13 Q1017 NOSIG",
      "taf": "TAF LEMG 021700Z 0218/0318 30010KT CAVOK TX23/0314Z TN09/0305Z"
    },
    {
      "icao": "LEVC",
      "alert": "OK",
      "vis_m": 9999,
      "fzfg": false,
      "metar_trigger": false,
      "taf_trigger": false,
      "metar": "METAR LEVC 022130Z 33016KT CAVOK 16/00 Q1018 NOSIG",
      "taf": ""
    },
    {
      "icao": "LEXJ",
      "alert": "OK",
      "vis_m": 9999,
      "fzfg": false,
      "metar_trigger": false,
      "taf_trigger": false,
      "metar": "METAR LEXJ 022130Z AUTO 30007KT 9999 BKN024 OVC039 12/08 Q1027",
      "taf": "TAF LEXJ 022000Z 0221/0321 30009KT 9999 SCT015 BKN025 TX16/0314Z TN10/0306Z"
    },
    {
      "icao": "LEZG",
      "alert": "OK",
      "vis_m": 9999,
      "fzfg": false,
      "metar_trigger": false,
      "taf_trigger": false,
      "metar": "METAR LEZG 022130Z 28019KT 9999 SCT040 11/05 Q1021 NOSIG",
      "taf": "TAF LEZG 021700Z 0218/0318 31015KT 9999 SCT045 TX20/0314Z TN09/0305Z"
    },
    {
      "icao": "LEZL",
      "alert": "OK",
      "vis_m": 9999,
      "fzfg": false,
      "metar_trigger": false,
      "taf_trigger": false,
      "metar": "METAR LEZL 022130Z 15003KT 050V190 CAVOK 15/07 Q1018 NOSIG",
      "taf": "TAF LEZL 022000Z 0221/0321 04008KT CAVOK TX26/0315Z TN10/0307Z"
    },
    {
      "icao": "LFBD",
      "alert": "OK",
      "vis_m": 9999,
      "fzfg": false,
      "metar_trigger": false,
      "taf_trigger": false,
      "metar": "METAR LFBD 022130Z AUTO 26006KT CAVOK 09/07 Q1023 NOSIG",
      "taf": "TAF LFBD 021700Z 0218/0324 30010KT 9999 BKN030 TX18/0314Z TN07/0305Z"
    },
    {
      "icao": "LFLL",
      "alert": "OK",
      "vis_m": 9999,
      "fzfg": false,
      "metar_trigger": false,
      "taf_trigger": false,
      "metar": "METAR LFLL 022130Z 35013KT CAVOK 09/M00 Q1018 NOSIG",
      "taf": "TAF LFLL 021700Z 0218/0324 35020KT CAVOK"
    },
    {
      "icao": "LFLS",
      "alert": "OK",
      "vis_m": 9999,
      "fzfg": false,
      "metar_trigger": false,
      "taf_trigger": false,
      "metar": "METAR LFLS 022130Z AUTO 34009KT CAVOK 08/M00 Q1016",
      "taf": "TAF LFLS 021400Z 0215/0315 36017G27KT 9999 BKN045"
    },
    {
      "icao": "LFMN",
      "alert": "OK",
      "vis_m": 9999,
      "fzfg": false,
      "metar_trigger": false,
      "taf_trigger": false,
      "metar": "METAR LFMN 022130Z 33008KT CAVOK 12/02 Q1008 NOSIG",
      "taf": "TAF LFMN 022000Z 0221/0403 33010KT CAVOK"
    },
    {
      "icao": "LFOB",
      "alert": "OK",
      "vis_m": 9999,
      "fzfg": false,
      "metar_trigger": false,
      "taf_trigger": false,
      "metar": "METAR LFOB 022130Z AUTO 29005KT CAVOK 02/01 Q1021 NOSIG",
      "taf": "TAF LFOB 021700Z 0218/0318 35010KT 9999 BKN035"
    },
    {
      "icao": "LFPO",
      "alert": "OK",
      "vis_m": 9999,
      "fzfg": false,
      "metar_trigger": false,
      "taf_trigger": false,
      "metar": "METAR LFPO 022130Z 33005KT 9999 SCT025 09/05 Q1020 NOSIG",
      "taf": "TAF LFPO 021700Z 0218/0324 33007KT 9999 BKN030"
    },
    {
      "icao": "LFSB",
      "alert": "OK",
      "vis_m": 9999,
      "fzfg": false,
      "metar_trigger": false,
      "taf_trigger": false,
      "metar": "METAR LFSB 022130Z AUTO VRB02KT CAVOK 04/00 Q1017 NOSIG",
      "taf": "TAF LFSB 021700Z 0218/0318 33005KT 9999 FEW050"
    },
    {
      "icao": "LGAV",
      "alert": "OK",
      "vis_m": 9999,
      "fzfg": false,
      "metar_trigger": false,
      "taf_trigger": false,
      "metar": "METAR LGAV 022150Z 18007KT 9999 FEW020 SCT060 14/09 Q1000 NOSIG",
      "taf": "TAF LGAV 021700Z 0218/0318 22012KT 9999 SCT025"
    },
    {
      "icao": "LGTS",
      "alert": "OK",
      "vis_m": 9999,
      "fzfg": false,
      "metar_trigger": false,
      "taf_trigger": false,
      "metar": "METAR LGTS 022150Z VRB02KT 9999 FEW015 SCT040 10/10 Q0999 NOSIG",
      "taf": "TAF LGTS 021700Z 0218/0318 33005KT 9999 FEW008 SCT030"
    },
    {
      "icao": "LHBP",
      "alert": "OK",
      "vis_m": 9999,
      "fzfg": false,
      "metar_trigger": false,
      "taf_trigger": false,
      "metar": "METAR LHBP 022130Z 35009KT CAVOK 11/04 Q1007 NOSIG",
      "taf": "TAF LHBP 021715Z 0218/0318 04009KT CAVOK"
    },
    {
      "icao": "LHDC",
      "alert": "OK",
      "vis_m": 9999,
      "fzfg": false,
      "metar_trigger": false,
      "taf_trigger": false,
      "metar": "METAR LHDC 022115Z AUTO 03014KT CAVOK 12/06 Q1005",
      "taf": "TAF LHDC 021715Z 0218/0303 03011KT CAVOK"
    },
    {
      "icao": "LIBD",
      "alert": "OK",
      "vis_m": 9999,
      "fzfg": false,
      "metar_trigger": false,
      "taf_trigger": false,
      "metar": "METAR LIBD 022150Z 28006KT 9999 -RA BKN030 10/10 Q1000",
      "taf": "TAF LIBD 021700Z 0218/0318 30012KT 7000 BKN030"
    },
    {
      "icao": "LIBG",
      "alert": "OK",
      "vis_m": null,
      "fzfg": false,
      "metar_trigger": false,
      "taf_trigger": false,
      "metar": "",
      "taf": "TAF LIBG 021400Z 0215/0224 04012KT 7000 RA BKN030"
    },
    {
      "icao": "LIBP",
      "alert": "OK",
      "vis_m": 9999,
      "fzfg": false,
      "metar_trigger": false,
      "taf_trigger": false,
      "metar": "METAR LIBP 022150Z AUTO 22005KT 9999 OVC031/// 10/08 Q1005",
      "taf": "TAF LIBP 021700Z 0218/0318 32015KT 7000 RA OVC030"
    },
    {
      "icao": "LIBR",
      "alert": "OK",
      "vis_m": 6000,
      "fzfg": false,
      "metar_trigger": false,
      "taf_trigger": false,
      "metar": "METAR LIBR 022150Z 04011KT 6000 -RA SCT010 12/11 Q0998",
      "taf": "TAF LIBR 021700Z 0218/0318 04012KT 6000 OVC030"
    },
    {
      "icao": "LICA",
      "alert": "OK",
      "vis_m": 9999,
      "fzfg": false,
      "metar_trigger": false,
      "taf_trigger": false,
      "metar": "METAR LICA 022150Z AUTO 16003KT 110V190 9999 OVC072/// 12/10 Q0998",
      "taf": "TAF LICA 021700Z 0218/0318 29012KT 9999 BKN030"
    },
    {
      "icao": "LICC",
      "alert": "OK",
      "vis_m": 9999,
      "fzfg": false,
      "metar_trigger": false,
      "taf_trigger": false,
      "metar": "METAR LICC 022150Z 26006KT 210V290 9999 SCT100 12/10 Q0999",
      "taf": "TAF LICC 021700Z 0218/0318 28013KT 9999 BKN025"
    },
    {
      "icao": "LICJ",
      "alert": "OK",
      "vis_m": 9999,
      "fzfg": false,
      "metar_trigger": false,
      "taf_trigger": false,
      "metar": "METAR LICJ 022150Z 30015KT 9999 SCT025 14/11 Q1002",
      "taf": "TAF LICJ 021700Z 0218/0318 34013KT 8000 BKN025"
    },
    {
      "icao": "LIMC",
      "alert": "OK",
      "vis_m": 9999,
      "fzfg": false,
      "metar_trigger": false,
      "taf_trigger": false,
      "metar": "METAR LIMC 022150Z 36005KT 310V040 CAVOK 14/M06 Q1009 NOSIG",
      "taf": "TAF LIMC 021700Z 0218/0324 VRB05KT CAVOK"
    },
    {
      "icao": "LIME",
      "alert": "OK",
      "vis_m": 9999,
      "fzfg": false,
      "metar_trigger": false,
      "taf_trigger": false,
      "metar": "METAR LIME 022150Z 01006KT CAVOK 09/01 Q1009 NOSIG",
      "taf": "TAF LIME 021700Z 0218/0318 VRB05KT CAVOK"
    },
    {
      "icao": "LIMF",
      "alert": "OK",
      "vis_m": 9999,
      "fzfg": false,
      "metar_trigger": false,
      "taf_trigger": false,
      "metar": "METAR LIMF 022150Z VRB01KT CAVOK 11/M02 Q1009",
      "taf": "TAF LIMF 021700Z 0218/0318 VRB05KT CAVOK"
    },
    {
      "icao": "LIMJ",
      "alert": "OK",
      "vis_m": 9999,
      "fzfg": false,
      "metar_trigger": false,
      "taf_trigger": false,
      "metar": "METAR LIMJ 022150Z 07009KT CAVOK 15/00 Q1008",
      "taf": "TAF LIMJ 021700Z 0218/0318 01012KT CAVOK"
    },
    {
      "icao": "LIPE",
      "alert": "OK",
      "vis_m": 9999,
      "fzfg": false,
      "metar_trigger": false,
      "taf_trigger": false,
      "metar": "METAR LIPE 022150Z VRB02KT CAVOK 10/M03 Q1009",
      "taf": "TAF LIPE 021700Z 0218/0318 VRB05KT 9999 SCT060"
    },
    {
      "icao": "LIPH",
      "alert": "OK",
      "vis_m": 9999,
      "fzfg": false,
      "metar_trigger": false,
      "taf_trigger": false,
      "metar": "METAR LIPH 022150Z AUTO VRB03KT 9999 OVC170/// 11/05 Q1008",
      "taf": "TAF LIPH 021700Z 0218/0318 VRB05KT 9999 FEW060"
    },
    {
      "icao": "LIPQ",
      "alert": "OK",
      "vis_m": 9999,
      "fzfg": false,
      "metar_trigger": false,
      "taf_trigger": false,
      "metar": "METAR LIPQ 022150Z AUTO 06003KT 9999 OVC210/// 14/M00 Q1008",
      "taf": "TAF LIPQ 021700Z 0218/0318 08015KT 9999 FEW060"
    },
    {
      "icao": "LIPR",
      "alert": "OK",
      "vis_m": 9999,
      "fzfg": false,
      "metar_trigger": false,
      "taf_trigger": false,
      "metar": "METAR LIPR 022150Z 31007KT 9999 SCT060 10/05 Q1007",
      "taf": "TAF LIPR 021700Z 0218/0318 VRB05KT 9999 SCT050"
    },
    {
      "icao": "LIPX",
      "alert": "OK",
      "vis_m": 9999,
      "fzfg": false,
      "metar_trigger": false,
      "taf_trigger": false,
      "metar": "METAR LIPX 022150Z 31007KT CAVOK 12/00 Q1008",
      "taf": "TAF LIPX 021700Z 0218/0318 VRB05KT CAVOK"
    },
    {
      "icao": "LIPY",
      "alert": "OK",
      "vis_m": 9999,
      "fzfg": false,
      "metar_trigger": false,
      "taf_trigger": false,
      "metar": "METAR LIPY 022150Z AUTO 03008KT 9999 OVC140/// 12/08 Q1006",
      "taf": "TAF LIPY 021700Z 0218/0318 VRB05KT 9999 BKN060"
    },
    {
      "icao": "LIPZ",
      "alert": "OK",
      "vis_m": 9999,
      "fzfg": false,
      "metar_trigger": false,
      "taf_trigger": false,
      "metar": "METAR LIPZ 022150Z 19003KT CAVOK 12/06 Q1008 NOSIG",
      "taf": "TAF LIPZ 021700Z 0218/0324 VRB05KT CAVOK"
    },
    {
      "icao": "LIRF",
      "alert": "OK",
      "vis_m": 9999,
      "fzfg": false,
      "metar_trigger": false,
      "taf_trigger": false,
      "metar": "METAR LIRF 022150Z 01015KT CAVOK 12/05 Q1003 NOSIG",
      "taf": "TAF LIRF 021700Z 0218/0324 02016KT CAVOK"
    },
    {
      "icao": "LIRN",
      "alert": "OK",
      "vis_m": 9999,
      "fzfg": false,
      "metar_trigger": false,
      "taf_trigger": false,
      "metar": "METAR LIRN 022150Z 03009KT CAVOK 11/05 Q1001 NOSIG",
      "taf": "TAF LIRN 021700Z 0218/0318 03012KT 9999 BKN050"
    },
    {
      "icao": "LIRP",
      "alert": "OK",
      "vis_m": 9999,
      "fzfg": false,
      "metar_trigger": false,
      "taf_trigger": false,
      "metar": "METAR LIRP 022145Z 14006KT CAVOK 10/07 Q1007 NOSIG",
      "taf": "TAF LIRP 021700Z 0218/0318 25005KT CAVOK"
    },
    {
      "icao": "LIRZ",
      "alert": "OK",
      "vis_m": 9999,
      "fzfg": false,
      "metar_trigger": false,
      "taf_trigger": false,
      "metar": "METAR LIRZ 022150Z AUTO 02006KT 9999 BKN048/// BKN150/// 10/05 Q1005",
      "taf": "TAF LIRZ 021700Z 0218/0318 02012KT 9999 BKN030"
    },
    {
      "icao": "LJLJ",
      "alert": "OK",
      "vis_m": 9999,
      "fzfg": false,
      "metar_trigger": false,
      "taf_trigger": false,
      "metar": "METAR LJLJ 022130Z 32005KT 9999 FEW055 BKN200 05/02 Q1009 NOSIG",
      "taf": "TAF LJLJ 021700Z 0218/0318 32006KT 9999 FEW055"
    },
    {
      "icao": "LKMT",
      "alert": "OK",
      "vis_m": 9999,
      "fzfg": false,
      "metar_trigger": false,
      "taf_trigger": false,
      "metar": "METAR LKMT 022130Z VRB01KT CAVOK 08/00 Q1012 NOSIG",
      "taf": "TAF LKMT 021700Z 0218/0318 03008KT CAVOK"
    },
    {
      "icao": "LKPR",
      "alert": "OK",
      "vis_m": 9999,
      "fzfg": false,
      "metar_trigger": false,
      "taf_trigger": false,
      "metar": "METAR LKPR 022130Z 32003KT CAVOK 04/M03 Q1014 NOSIG",
      "taf": "TAF LKPR 022000Z 0221/0403 32005KT CAVOK"
    },
    {
      "icao": "LLBG",
      "alert": "OK",
      "vis_m": 8000,
      "fzfg": false,
      "metar_trigger": false,
      "taf_trigger": false,
      "metar": "METAR LLBG 022150Z 27005KT 8000 BKN016 18/17 Q1014 NOSIG",
      "taf": ""
    },
    {
      "icao": "LMML",
      "alert": "OK",
      "vis_m": 9999,
      "fzfg": false,
      "metar_trigger": false,
      "taf_trigger": false,
      "metar": "METAR LMML 022145Z 27023KT 9999 -SHRA SCT016TCU 12/10 Q1003 TEMPO 8000 SHRA",
      "taf": "TAF LMML 021700Z 0218/0318 28020G30KT 9999 FEW020 SCT045"
    },
    {
      "icao": "LOWW",
      "alert": "OK",
      "vis_m": 9999,
      "fzfg": false,
      "metar_trigger": false,
      "taf_trigger": false,
      "metar": "METAR LOWW 022150Z 30016KT 9999 FEW050 08/02 Q1012 NOSIG",
      "taf": "TAF LOWW 022015Z 0221/0403 30015G25KT CAVOK TX15/0313Z TN05/0304Z"
    },
    {
      "icao": "LPFR",
      "alert": "OK",
      "vis_m": 9999,
      "fzfg": false,
      "metar_trigger": false,
      "taf_trigger": false,
      "metar": "METAR LPFR 022130Z 29007KT CAVOK 19/12 Q1019",
      "taf": "TAF LPFR 021700Z 0218/0318 25007KT CAVOK"
    },
    {
      "icao": "LPMA",
      "alert": "OK",
      "vis_m": 9999,
      "fzfg": false,
      "metar_trigger": false,
      "taf_trigger": false,
      "metar": "METAR LPMA 022130Z 36016KT 9999 FEW016 19/05 Q1022",
      "taf": "TAF LPMA 021700Z 0218/0318 01015KT 9999 SCT015"
    },
    {
      "icao": "LPPR",
      "alert": "OK",
      "vis_m": 9999,
      "fzfg": false,
      "metar_trigger": false,
      "taf_trigger": false,
      "metar": "METAR LPPR 022130Z VRB01KT CAVOK 13/10 Q1022",
      "taf": "TAF LPPR 021700Z 0218/0318 34012KT CAVOK"
    },
    {
      "icao": "LPPS",
      "alert": "OK",
      "vis_m": 9999,
      "fzfg": false,
      "metar_trigger": false,
      "taf_trigger": false,
      "metar": "METAR LPPS 022130Z 05007KT 360V090 9999 FEW012 15/12 Q1023",
      "taf": "TAF LPPS 021700Z 0218/0324 03013KT 9999 SCT013"
    },
    {
      "icao": "LPPT",
      "alert": "OK",
      "vis_m": 9999,
      "fzfg": false,
      "metar_trigger": false,
      "taf_trigger": false,
      "metar": "METAR LPPT 022130Z 30011KT CAVOK 13/09 Q1022",
      "taf": "TAF LPPT 021700Z 0218/0324 34013KT CAVOK"
    },
    {
      "icao": "LQBK",
      "alert": "OK",
      "vis_m": 9999,
      "fzfg": false,
      "metar_trigger": false,
      "taf_trigger": false,
      "metar": "METAR LQBK 022130Z COR 30013KT 9999 -RA BKN043 10/03 Q1005 NOSIG",
      "taf": "TAF LQBK 021700Z 0218/0318 29007KT 9999 SCT030 BKN045 TX12/0313Z TN06/0305Z"
    },
    {
      "icao": "LQSA",
      "alert": "OK",
      "vis_m": 4000,
      "fzfg": false,
      "metar_trigger": false,
      "taf_trigger": false,
      "metar": "METAR LQSA 022130Z VRB02KT 4000 -DZ BR SCT010 BKN025 05/05 Q1003 NOSIG",
      "taf": "TAF LQSA 021700Z 0218/0318 30008KT 9999 -RA SCT018 BKN030 TX07/0313Z TN04/0305Z"
    },
    {
      "icao": "LQTZ",
      "alert": "OK",
      "vis_m": 750,
      "fzfg": false,
      "metar_trigger": false,
      "taf_trigger": false,
      "metar": "METAR LQTZ 022130Z VRB01KT 0750 R09/0550D -RA FG BKN004 OVC010 03/03 Q1004",
      "taf": "TAF LQTZ 021700Z 0218/0318 29005KT 3000 RA BR BKN012 OVC020 TX06/0313Z TN03/0305Z"
    },
    {
      "icao": "LRBC",
      "alert": "OK",
      "vis_m": 5000,
      "fzfg": false,
      "metar_trigger": false,
      "taf_trigger": false,
      "metar": "METAR LRBC 022130Z 14006KT 5000 DZ BR OVC013 09/08 Q1004 RERA",
      "taf": "TAF LRBC 022000Z 0221/0306 VRB04KT 5000 -RA BR BKN015 OVC025"
    },
    {
      "icao": "LRBS",
      "alert": "OK",
      "vis_m": 5000,
      "fzfg": false,
      "metar_trigger": false,
      "taf_trigger": false,
      "metar": "METAR LRBS 022130Z 06012KT 030V090 5000 -DZ BR BKN005 OVC015 09/08 Q1003 NOSIG",
      "taf": "TAF LRBS 021700Z 0218/0318 06014KT 3000 -DZ BR OVC005"
    },
    {
      "icao": "LRBV",
      "alert": "OK",
      "vis_m": 7000,
      "fzfg": false,
      "metar_trigger": false,
      "taf_trigger": false,
      "metar": "METAR LRBV 022130Z AUTO 33003KT 7000 OVC036/// 07/06 Q1003 RERA",
      "taf": "TAF LRBV 021700Z 0218/0303 08010KT 5000 -RA BR SCT020 BKN035"
    },
    {
      "icao": "LRCL",
      "alert": "OK",
      "vis_m": 9999,
      "fzfg": false,
      "metar_trigger": false,
      "taf_trigger": false,
      "metar": "METAR LRCL 022130Z 29003KT 250V320 9999 BKN051 10/06 Q1004",
      "taf": "TAF LRCL 022000Z 0221/0306 VRB04KT 9999 BKN045"
    },
    {
      "icao": "LRCV",
      "alert": "OK",
      "vis_m": 5000,
      "fzfg": false,
      "metar_trigger": false,
      "taf_trigger": false,
      "metar": "METAR LRCV 022130Z 08015KT 5000 -DZRA OVC007 09/08 Q1001",
      "taf": "TAF LRCV 022000Z 0221/0306 07014KT 5000 -RA BR BKN005 OVC015"
    },
    {
      "icao": "LRIA",
      "alert": "OK",
      "vis_m": 6000,
      "fzfg": false,
      "metar_trigger": false,
      "taf_trigger": false,
      "metar": "METAR LRIA 022130Z 22002KT 6000 -RA FEW007 SCT024 BKN028 10/09 Q1004",
      "taf": "TAF LRIA 022000Z 0221/0306 VRB04KT 7000 BKN015 OVC025"
    },
    {
      "icao": "LROP",
      "alert": "OK",
      "vis_m": 8000,
      "fzfg": false,
      "metar_trigger": false,
      "taf_trigger": false,
      "metar": "METAR LROP 022130Z 07014KT 8000 OVC006 09/09 Q1003 TEMPO 3000 -DZ BR",
      "taf": "TAF LROP 021700Z 0218/0318 06014KT 3000 -DZ BR OVC005"
    },
    {
      "icao": "LRSB",
      "alert": "OK",
      "vis_m": 9999,
      "fzfg": false,
      "metar_trigger": false,
      "taf_trigger": false,
      "metar": "METAR LRSB 022130Z 29004KT 9999 -RA SCT013 BKN050 08/07 Q1003",
      "taf": "TAF LRSB 021700Z 0218/0318 VRB04KT 5000 -RA BR SCT015 BKN030"
    },
    {
      "icao": "LRSM",
      "alert": "OK",
      "vis_m": null,
      "fzfg": false,
      "metar_trigger": false,
      "taf_trigger": false,
      "metar": "",
      "taf": "TAF LRSM 021400Z 0215/0224 06015KT CAVOK"
    },
    {
      "icao": "LRSV",
      "alert": "OK",
      "vis_m": 7000,
      "fzfg": false,
      "metar_trigger": false,
      "taf_trigger": false,
      "metar": "METAR LRSV 022130Z 32012KT 7000 BKN045 09/08 Q1004",
      "taf": "TAF LRSV 022000Z 0221/0306 32012KT 6000 -RA BKN020 OVC025"
    },
    {
      "icao": "LRTM",
      "alert": "OK",
      "vis_m": 6000,
      "fzfg": false,
      "metar_trigger": false,
      "taf_trigger": false,
      "metar": "METAR LRTM 022130Z 24004KT 6000 -RA BKN047 09/08 Q1003",
      "taf": "TAF LRTM 022000Z 0221/0306 VRB04KT 9999 BKN045"
    },
    {
      "icao": "LRTR",
      "alert": "OK",
      "vis_m": 7000,
      "fzfg": false,
      "metar_trigger": false,
      "taf_trigger": false,
      "metar": "METAR LRTR 022130Z 04003KT 010V070 7000 -RA OVC040 10/10 Q1004",
      "taf": ""
    },
    {
      "icao": "LTAC",
      "alert": "OK",
      "vis_m": 9999,
      "fzfg": false,
      "metar_trigger": false,
      "taf_trigger": false,
      "metar": "METAR LTAC 022150Z 24010KT 9999 SCT040 SCT100 11/04 Q1005 NOSIG",
      "taf": "TAF LTAC 021640Z 0218/0318 VRB02KT 9999 SCT040 SCT100"
    },
    {
      "icao": "LTFM",
      "alert": "OK",
      "vis_m": 2000,
      "fzfg": false,
      "metar_trigger": false,
      "taf_trigger": false,
      "metar": "METAR LTFM 022150Z 19004KT 2000 0650N R35R/1500U R17L/0650U R34L/P1500U R36/P1500N BCFG BKN003 BKN035 09/08 Q1002 BECMG 7000 NSW SCT010 BKN035",
      "taf": ""
    },
    {
      "icao": "LUKK",
      "alert": "OK",
      "vis_m": 9999,
      "fzfg": false,
      "metar_trigger": false,
      "taf_trigger": false,
      "metar": "METAR LUKK 022130Z 24006KT 210V270 9999 FEW046 11/09 Q1004 NOSIG",
      "taf": "TAF LUKK 021703Z 0218/0318 VRB04KT 9999 BKN020"
    },
    {
      "icao": "LWOH",
      "alert": "OK",
      "vis_m": null,
      "fzfg": false,
      "metar_trigger": false,
      "taf_trigger": false,
      "metar": "",
      "taf": "TAF LWOH 022030Z 0221/0321 34008KT 9999 SCT020 OVC035"
    },
    {
      "icao": "LWSK",
      "alert": "OK",
      "vis_m": 9999,
      "fzfg": false,
      "metar_trigger": false,
      "taf_trigger": false,
      "metar": "METAR LWSK 022152Z COR 27003KT 230V350 9999 FEW026 BKN036 08/05 Q1001 NOSIG",
      "taf": "TAF LWSK 022030Z 0221/0321 VRB02KT 9999 OVC035"
    },
    {
      "icao": "LYBE",
      "alert": "OK",
      "vis_m": 3000,
      "fzfg": false,
      "metar_trigger": false,
      "taf_trigger": false,
      "metar": "METAR LYBE 022130Z 27004KT 3000 -RA BR FEW006 BKN026 08/07 Q1004 NOSIG",
      "taf": "TAF LYBE 021700Z 0218/0318 22008KT 7000 SCT015 BKN030 TX10/0313Z TN06/0306Z"
    },
    {
      "icao": "LYNI",
      "alert": "OK",
      "vis_m": 9999,
      "fzfg": false,
      "metar_trigger": false,
      "taf_trigger": false,
      "metar": "METAR LYNI 022130Z 33008KT 9999 FEW015 SCT025 BKN037 08/08 Q1001 NOSIG",
      "taf": "TAF LYNI 021700Z 0218/0318 33013KT 9999 SCT010 BKN027 TX11/0313Z TN06/0305Z"
    },
    {
      "icao": "LYPG",
      "alert": "OK",
      "vis_m": 9999,
      "fzfg": false,
      "metar_trigger": false,
      "taf_trigger": false,
      "metar": "METAR LYPG 022130Z 03008KT 9999 FEW040 12/01 Q0999 NOSIG",
      "taf": "TAF LYPG 021700Z 0218/0318 36014KT 9999 SCT040 OVC080 TX18/0313Z TN07/0304Z"
    },
    {
      "icao": "LZIB",
      "alert": "OK",
      "vis_m": 9999,
      "fzfg": false,
      "metar_trigger": false,
      "taf_trigger": false,
      "metar": "METAR LZIB 022130Z 28010KT CAVOK 09/03 Q1011 NOSIG",
      "taf": "TAF LZIB 021715Z 0218/0318 32013KT CAVOK"
    },
    {
      "icao": "LZKZ",
      "alert": "OK",
      "vis_m": 9999,
      "fzfg": false,
      "metar_trigger": false,
      "taf_trigger": false,
      "metar": "METAR LZKZ 022130Z 36019KT CAVOK 11/04 Q1008 NOSIG",
      "taf": "TAF LZKZ 021715Z 0218/0318 01017KT CAVOK"
    },
    {
      "icao": "LZTT",
      "alert": "OK",
      "vis_m": 9999,
      "fzfg": false,
      "metar_trigger": false,
      "taf_trigger": false,
      "metar": "METAR LZTT 022130Z 27005KT 250V310 9999 BKN040 04/03 Q1010",
      "taf": "TAF LZTT 021715Z 0218/0318 12006KT 9999 FEW015 BKN030 BKN060"
    },
    {
      "icao": "OEJN",
      "alert": "OK",
      "vis_m": 9999,
      "fzfg": false,
      "metar_trigger": false,
      "taf_trigger": false,
      "metar": "METAR OEJN 022100Z 00000KT CAVOK 29/17 Q1008 NOSIG",
      "taf": "TAF OEJN 021700Z 0218/0324 VRB03KT 7000 NSC"
    },
    {
      "icao": "OEMA",
      "alert": "OK",
      "vis_m": 9999,
      "fzfg": false,
      "metar_trigger": false,
      "taf_trigger": false,
      "metar": "METAR OEMA 022100Z 29010KT CAVOK 33/04 Q1014 NOSIG",
      "taf": "TAF OEMA 021700Z 0218/0324 VRB03KT 9999 SCT045"
    },
    {
      "icao": "OJAI",
      "alert": "OK",
      "vis_m": 1200,
      "fzfg": false,
      "metar_trigger": false,
      "taf_trigger": false,
      "metar": "METAR OJAI 022100Z 27008KT 1200 BR FEW010 BKN025 16/16 Q1014 NOSIG",
      "taf": ""
    },
    {
      "icao": "OMAA",
      "alert": "OK",
      "vis_m": null,
      "fzfg": false,
      "metar_trigger": false,
      "taf_trigger": false,
      "metar": "",
      "taf": ""
    },
    {
      "icao": "OMDB",
      "alert": "OK",
      "vis_m": null,
      "fzfg": false,
      "metar_trigger": false,
      "taf_trigger": false,
      "metar": "",
      "taf": ""
    },
    {
      "icao": "UAAA",
      "alert": "OK",
      "vis_m": 9999,
      "fzfg": false,
      "metar_trigger": false,
      "taf_trigger": false,
      "metar": "METAR UAAA 022130Z 16002MPS 9999 SCT200 10/04 Q1013 NOSIG",
      "taf": "TAF UAAA 021703Z 0218/0318 17002MPS 9999 SCT100 TX26/0310Z TN09/0301Z"
    },
    {
      "icao": "UBBB",
      "alert": "OK",
      "vis_m": 9999,
      "fzfg": false,
      "metar_trigger": false,
      "taf_trigger": false,
      "metar": "METAR UBBB 022130Z 16008KT CAVOK 12/11 Q1008 NOSIG",
      "taf": "TAF UBBB 021700Z 0218/0318 15008KT 9999 SCT030 TX17/0310Z TN08/0301Z"
    },
    {
      "icao": "UDSG",
      "alert": "OK",
      "vis_m": 8000,
      "fzfg": false,
      "metar_trigger": false,
      "taf_trigger": false,
      "metar": "METAR UDSG 022130Z 28003KT 8000 -SHRA BKN016CB OVC033 04/04 Q1014 NOSIG",
      "taf": "TAF UDSG 021700Z 0218/0318 21006KT 9999 BKN040"
    },
    {
      "icao": "UDYZ",
      "alert": "OK",
      "vis_m": 9999,
      "fzfg": false,
      "metar_trigger": false,
      "taf_trigger": false,
      "metar": "METAR UDYZ 022130Z VRB01KT 9999 BKN043CB 10/08 Q1013 NOSIG",
      "taf": "TAF UDYZ 021700Z 0218/0318 06004KT 9999 SCT040"
    },
    {
      "icao": "UGKO",
      "alert": "OK",
      "vis_m": 9999,
      "fzfg": false,
      "metar_trigger": false,
      "taf_trigger": false,
      "metar": "METAR UGKO 022130Z 09013KT CAVOK 19/06 Q1004 NOSIG",
      "taf": "TAF UGKO 021700Z 0218/0318 08010KT CAVOK TX25/0311Z TN13/0303Z"
    }
  ]
}