{
  "ts_utc": "2026-05-01T15:13:51Z",
  "threshold_m": 150,
  "source": "stations_override.txt (ICAO list) + aviationweather.gov (METAR/TAF raw)",
  "station_count": 159,
  "stations": [
    {
      "icao": "BIKF",
      "alert": "OK",
      "vis_m": 9999,
      "fzfg": false,
      "metar_trigger": false,
      "taf_trigger": false,
      "metar": "METAR BIKF 011500Z 31013KT 9999 BKN036 04/M05 Q1018",
      "taf": "TAF BIKF 011330Z 0115/0215 32015KT 9999 SCT030 TX06/0215Z TNM01/0204Z"
    },
    {
      "icao": "BKPR",
      "alert": "OK",
      "vis_m": 9999,
      "fzfg": false,
      "metar_trigger": false,
      "taf_trigger": false,
      "metar": "METAR BKPR 011500Z 01012KT 9999 BKN055 10/M01 Q1023 NOSIG",
      "taf": "TAF BKPR 011130Z 0112/0212 01010KT 9999 SCT050"
    },
    {
      "icao": "EBCI",
      "alert": "OK",
      "vis_m": 9999,
      "fzfg": false,
      "metar_trigger": false,
      "taf_trigger": false,
      "metar": "METAR EBCI 011450Z 15004KT 090V230 CAVOK 24/M02 Q1021 NOSIG",
      "taf": "TAF EBCI 011110Z 0112/0218 15006KT CAVOK"
    },
    {
      "icao": "EDDB",
      "alert": "OK",
      "vis_m": 9999,
      "fzfg": false,
      "metar_trigger": false,
      "taf_trigger": false,
      "metar": "METAR EDDB 011450Z AUTO 21004KT 120V280 CAVOK 23/05 Q1026 NOSIG",
      "taf": "TAF EDDB 011100Z 0112/0212 33004KT CAVOK"
    },
    {
      "icao": "EDDH",
      "alert": "OK",
      "vis_m": 9999,
      "fzfg": false,
      "metar_trigger": false,
      "taf_trigger": false,
      "metar": "METAR EDDH 011450Z AUTO VRB07KT CAVOK 23/05 Q1026 NOSIG",
      "taf": "TAF EDDH 011100Z 0112/0218 14007KT CAVOK"
    },
    {
      "icao": "EDDK",
      "alert": "OK",
      "vis_m": 9999,
      "fzfg": false,
      "metar_trigger": false,
      "taf_trigger": false,
      "metar": "METAR EDDK 011450Z AUTO 13013KT 090V170 CAVOK 23/02 Q1023 NOSIG",
      "taf": "TAF EDDK 011100Z 0112/0218 13013KT CAVOK"
    },
    {
      "icao": "EDDN",
      "alert": "OK",
      "vis_m": 9999,
      "fzfg": false,
      "metar_trigger": false,
      "taf_trigger": false,
      "metar": "METAR EDDN 011450Z AUTO VRB04KT CAVOK 22/03 Q1025 NOSIG",
      "taf": "TAF EDDN 011100Z 0112/0212 11009KT CAVOK"
    },
    {
      "icao": "EDDS",
      "alert": "OK",
      "vis_m": 9999,
      "fzfg": false,
      "metar_trigger": false,
      "taf_trigger": false,
      "metar": "METAR EDDS 011450Z AUTO 07010KT CAVOK 23/01 Q1023 NOSIG",
      "taf": "TAF EDDS 011100Z 0112/0212 12008KT CAVOK"
    },
    {
      "icao": "EDFH",
      "alert": "OK",
      "vis_m": 9999,
      "fzfg": false,
      "metar_trigger": false,
      "taf_trigger": false,
      "metar": "METAR EDFH 011450Z 13011KT 080V210 CAVOK 19/M01 Q1024",
      "taf": "TAF EDFH 011100Z 0112/0212 13013KT CAVOK"
    },
    {
      "icao": "EDJA",
      "alert": "OK",
      "vis_m": 9999,
      "fzfg": false,
      "metar_trigger": false,
      "taf_trigger": false,
      "metar": "METAR EDJA 011450Z 05010KT 020V080 CAVOK 20/00 Q1024",
      "taf": "TAF EDJA 011400Z 0115/0124 07010KT CAVOK"
    },
    {
      "icao": "EDLW",
      "alert": "OK",
      "vis_m": 9999,
      "fzfg": false,
      "metar_trigger": false,
      "taf_trigger": false,
      "metar": "METAR EDLW 011450Z 13009KT 090V170 CAVOK 23/03 Q1023",
      "taf": "TAF EDLW 011100Z 0112/0212 13011KT CAVOK"
    },
    {
      "icao": "EDNY",
      "alert": "OK",
      "vis_m": 9999,
      "fzfg": false,
      "metar_trigger": false,
      "taf_trigger": false,
      "metar": "METAR EDNY 011450Z 21006KT CAVOK 22/03 Q1023",
      "taf": "TAF EDNY 011400Z 0115/0124 21006KT CAVOK"
    },
    {
      "icao": "EDSB",
      "alert": "OK",
      "vis_m": 9999,
      "fzfg": false,
      "metar_trigger": false,
      "taf_trigger": false,
      "metar": "METAR EDSB 011450Z 36007KT 330V030 CAVOK 24/00 Q1022",
      "taf": "TAF EDSB 011100Z 0112/0212 VRB03KT CAVOK"
    },
    {
      "icao": "EETN",
      "alert": "OK",
      "vis_m": 9999,
      "fzfg": false,
      "metar_trigger": false,
      "taf_trigger": false,
      "metar": "METAR EETN 011450Z 27015KT CAVOK 16/04 Q1018 NOSIG",
      "taf": "TAF EETN 011130Z 0112/0212 29012KT CAVOK"
    },
    {
      "icao": "EFTU",
      "alert": "OK",
      "vis_m": 9999,
      "fzfg": false,
      "metar_trigger": false,
      "taf_trigger": false,
      "metar": "METAR EFTU 011450Z AUTO 23011KT 200V270 CAVOK 18/01 Q1017",
      "taf": "TAF EFTU 011427Z 0115/0215 25010KT CAVOK"
    },
    {
      "icao": "EGBB",
      "alert": "OK",
      "vis_m": 9999,
      "fzfg": false,
      "metar_trigger": false,
      "taf_trigger": false,
      "metar": "METAR EGBB 011450Z 18007KT 140V250 CAVOK 22/10 Q1018",
      "taf": "TAF EGBB 011056Z 0112/0212 18010KT 9999 FEW040"
    },
    {
      "icao": "EGGP",
      "alert": "OK",
      "vis_m": 9999,
      "fzfg": false,
      "metar_trigger": false,
      "taf_trigger": false,
      "metar": "METAR EGGP 011450Z 29008KT 9999 FEW037 SCT040 15/09 Q1019",
      "taf": "TAF EGGP 011057Z 0112/0212 17006KT CAVOK"
    },
    {
      "icao": "EGGW",
      "alert": "OK",
      "vis_m": 9999,
      "fzfg": false,
      "metar_trigger": false,
      "taf_trigger": false,
      "metar": "METAR EGGW 011450Z AUTO 17008KT 130V210 9999 NCD 23/08 Q1018",
      "taf": "TAF EGGW 011053Z 0112/0212 16008KT CAVOK"
    },
    {
      "icao": "EGKK",
      "alert": "OK",
      "vis_m": 9999,
      "fzfg": false,
      "metar_trigger": false,
      "taf_trigger": false,
      "metar": "METAR EGKK 011450Z 20010KT 170V240 9999 FEW024 21/14 Q1020",
      "taf": "TAF EGKK 011054Z 0112/0218 14005KT CAVOK"
    },
    {
      "icao": "EGNM",
      "alert": "OK",
      "vis_m": 9999,
      "fzfg": false,
      "metar_trigger": false,
      "taf_trigger": false,
      "metar": "METAR EGNM 011450Z VRB05KT CAVOK 21/09 Q1017",
      "taf": "TAF EGNM 011057Z 0112/0212 15008KT 9999 SCT045"
    },
    {
      "icao": "EGPD",
      "alert": "OK",
      "vis_m": 9999,
      "fzfg": false,
      "metar_trigger": false,
      "taf_trigger": false,
      "metar": "METAR EGPD 011450Z COR AUTO 18013KT 9999 NCD 20/07 Q1016 NOSIG",
      "taf": "TAF EGPD 011100Z 0112/0212 15006KT CAVOK"
    },
    {
      "icao": "EGPF",
      "alert": "OK",
      "vis_m": 9999,
      "fzfg": false,
      "metar_trigger": false,
      "taf_trigger": false,
      "metar": "METAR EGPF 011450Z AUTO 08003KT 040V120 9999 OVC040 17/09 Q1017",
      "taf": "TAF EGPF 011055Z 0112/0212 20005KT 9999 BKN045"
    },
    {
      "icao": "EHBK",
      "alert": "OK",
      "vis_m": 9999,
      "fzfg": false,
      "metar_trigger": false,
      "taf_trigger": false,
      "metar": "METAR EHBK 011455Z AUTO 15008KT 120V190 9999 NCD 24/01 Q1021 NOSIG",
      "taf": "TAF EHBK 011112Z 0112/0218 13010KT CAVOK"
    },
    {
      "icao": "EHEH",
      "alert": "OK",
      "vis_m": 9999,
      "fzfg": false,
      "metar_trigger": false,
      "taf_trigger": false,
      "metar": "METAR EHEH 011455Z AUTO 14007KT 060V200 9999 NCD 25/01 Q1021 BLU NOSIG",
      "taf": "TAF EHEH 011143Z 0112/0218 13012G22KT CAVOK"
    },
    {
      "icao": "EKBI",
      "alert": "OK",
      "vis_m": 9999,
      "fzfg": false,
      "metar_trigger": false,
      "taf_trigger": false,
      "metar": "METAR EKBI 011450Z AUTO 20007KT 140V230 9999 NCD 21/04 Q1026",
      "taf": "TAF EKBI 011427Z 0115/0215 21010KT CAVOK"
    },
    {
      "icao": "EKCH",
      "alert": "OK",
      "vis_m": 9999,
      "fzfg": false,
      "metar_trigger": false,
      "taf_trigger": false,
      "metar": "METAR EKCH 011450Z AUTO 09005KT 9999 NCD 18/04 Q1027 NOSIG",
      "taf": "TAF EKCH 011427Z 0115/0215 VRB04KT CAVOK"
    },
    {
      "icao": "ENAL",
      "alert": "OK",
      "vis_m": 9999,
      "fzfg": false,
      "metar_trigger": false,
      "taf_trigger": false,
      "metar": "METAR ENAL 011450Z 24018KT CAVOK 14/03 Q1015",
      "taf": "TAF ENAL 011400Z 0115/0124 22018KT CAVOK"
    },
    {
      "icao": "ENBR",
      "alert": "OK",
      "vis_m": 9999,
      "fzfg": false,
      "metar_trigger": false,
      "taf_trigger": false,
      "metar": "METAR ENBR 011450Z 17017KT CAVOK 14/04 Q1020 NOSIG RMK WIND 1200FT 19024KT",
      "taf": "TAF ENBR 011100Z 0112/0212 16018KT CAVOK"
    },
    {
      "icao": "ENGM",
      "alert": "OK",
      "vis_m": 9999,
      "fzfg": false,
      "metar_trigger": false,
      "taf_trigger": false,
      "metar": "METAR ENGM 011450Z 21015KT CAVOK 21/02 Q1018 NOSIG",
      "taf": "TAF ENGM 011100Z 0112/0212 22012KT CAVOK"
    },
    {
      "icao": "ENHD",
      "alert": "OK",
      "vis_m": 9999,
      "fzfg": false,
      "metar_trigger": false,
      "taf_trigger": false,
      "metar": "METAR ENHD 011450Z 20016KT CAVOK 14/06 Q1021",
      "taf": "TAF ENHD 011400Z 0115/0122 17015KT CAVOK"
    },
    {
      "icao": "ENTC",
      "alert": "OK",
      "vis_m": 9999,
      "fzfg": false,
      "metar_trigger": false,
      "taf_trigger": false,
      "metar": "METAR ENTC 011450Z 19011KT 9999 FEW032 SCT046 06/03 Q1005 NOSIG RMK WIND 2600FT 26026KT",
      "taf": ""
    },
    {
      "icao": "ENTO",
      "alert": "OK",
      "vis_m": 9999,
      "fzfg": false,
      "metar_trigger": false,
      "taf_trigger": false,
      "metar": "METAR ENTO 011450Z 22021KT CAVOK 19/04 Q1021 NOSIG",
      "taf": "TAF ENTO 011100Z 0112/0212 20012KT CAVOK"
    },
    {
      "icao": "ENVA",
      "alert": "OK",
      "vis_m": 9999,
      "fzfg": false,
      "metar_trigger": false,
      "taf_trigger": false,
      "metar": "METAR ENVA 011450Z 23011KT CAVOK 14/06 Q1014 NOSIG RMK WIND 670FT 28011KT",
      "taf": "TAF ENVA 011100Z 0112/0212 26010KT CAVOK"
    },
    {
      "icao": "ENZV",
      "alert": "OK",
      "vis_m": 9999,
      "fzfg": false,
      "metar_trigger": false,
      "taf_trigger": false,
      "metar": "METAR ENZV 011450Z 18017KT CAVOK 16/05 Q1021 NOSIG",
      "taf": "TAF ENZV 011100Z 0112/0212 18018KT CAVOK"
    },
    {
      "icao": "EPGD",
      "alert": "OK",
      "vis_m": 9999,
      "fzfg": false,
      "metar_trigger": false,
      "taf_trigger": false,
      "metar": "METAR EPGD 011500Z 12005KT CAVOK 19/05 Q1025",
      "taf": "TAF EPGD 011130Z 0112/0212 06010KT CAVOK"
    },
    {
      "icao": "EPKK",
      "alert": "OK",
      "vis_m": 9999,
      "fzfg": false,
      "metar_trigger": false,
      "taf_trigger": false,
      "metar": "METAR EPKK 011500Z 34009KT 320V030 9999 BKN065 19/03 Q1024",
      "taf": "TAF EPKK 011430Z 0115/0215 02006KT 9999 BKN060"
    },
    {
      "icao": "EPKT",
      "alert": "OK",
      "vis_m": 9999,
      "fzfg": false,
      "metar_trigger": false,
      "taf_trigger": false,
      "metar": "METAR EPKT 011500Z 01009KT 330V050 CAVOK 19/04 Q1024",
      "taf": "TAF EPKT 011130Z 0112/0212 32012KT CAVOK"
    },
    {
      "icao": "EPLB",
      "alert": "OK",
      "vis_m": 9999,
      "fzfg": false,
      "metar_trigger": false,
      "taf_trigger": false,
      "metar": "METAR EPLB 011500Z 05007KT CAVOK 16/04 Q1024",
      "taf": "TAF EPLB 011130Z 0112/0212 35010KT 9999 SCT046"
    },
    {
      "icao": "EPMO",
      "alert": "OK",
      "vis_m": 9999,
      "fzfg": false,
      "metar_trigger": false,
      "taf_trigger": false,
      "metar": "METAR EPMO 011500Z 35010KT 320V020 CAVOK 20/03 Q1024",
      "taf": "TAF EPMO 011130Z 0112/0212 36010KT 9999 SCT048"
    },
    {
      "icao": "EPPO",
      "alert": "OK",
      "vis_m": 9999,
      "fzfg": false,
      "metar_trigger": false,
      "taf_trigger": false,
      "metar": "METAR EPPO 011500Z 01004KT 310V110 CAVOK 24/01 Q1025",
      "taf": "TAF EPPO 011130Z 0112/0212 32006KT CAVOK"
    },
    {
      "icao": "EPRA",
      "alert": "OK",
      "vis_m": 9999,
      "fzfg": false,
      "metar_trigger": false,
      "taf_trigger": false,
      "metar": "METAR EPRA 011500Z 36011KT CAVOK 19/01 Q1023",
      "taf": "TAF EPRA 011430Z 0115/0124 01010KT CAVOK"
    },
    {
      "icao": "EPRZ",
      "alert": "OK",
      "vis_m": 9999,
      "fzfg": false,
      "metar_trigger": false,
      "taf_trigger": false,
      "metar": "METAR EPRZ 011500Z 34008KT CAVOK 17/01 Q1024",
      "taf": "TAF EPRZ 011130Z 0112/0212 31011KT CAVOK"
    },
    {
      "icao": "EPSC",
      "alert": "OK",
      "vis_m": 9999,
      "fzfg": false,
      "metar_trigger": false,
      "taf_trigger": false,
      "metar": "METAR EPSC 011500Z 28010KT 250V310 CAVOK 22/02 Q1026",
      "taf": ""
    },
    {
      "icao": "EPSY",
      "alert": "OK",
      "vis_m": 9999,
      "fzfg": false,
      "metar_trigger": false,
      "taf_trigger": false,
      "metar": "METAR EPSY 011500Z 36010KT 330V030 CAVOK 20/05 Q1024",
      "taf": "TAF EPSY 011430Z 0115/0124 01010KT CAVOK"
    },
    {
      "icao": "EPWA",
      "alert": "OK",
      "vis_m": 9999,
      "fzfg": false,
      "metar_trigger": false,
      "taf_trigger": false,
      "metar": "METAR EPWA 011500Z 01010KT 330V040 CAVOK 20/03 Q1024 NOSIG",
      "taf": "TAF EPWA 011430Z 0115/0215 35010KT CAVOK"
    },
    {
      "icao": "EPWR",
      "alert": "OK",
      "vis_m": 9999,
      "fzfg": false,
      "metar_trigger": false,
      "taf_trigger": false,
      "metar": "METAR EPWR 011500Z 36009KT CAVOK 22/02 Q1025",
      "taf": "TAF EPWR 011430Z 0115/0215 33010KT CAVOK"
    },
    {
      "icao": "ESGG",
      "alert": "OK",
      "vis_m": 9999,
      "fzfg": false,
      "metar_trigger": false,
      "taf_trigger": false,
      "metar": "METAR ESGG 011450Z 27010KT CAVOK 18/01 Q1025",
      "taf": "TAF ESGG 011430Z 0115/0215 27012KT CAVOK"
    },
    {
      "icao": "ESKN",
      "alert": "OK",
      "vis_m": 9999,
      "fzfg": false,
      "metar_trigger": false,
      "taf_trigger": false,
      "metar": "METAR ESKN 011450Z 27016KT CAVOK 25/M00 Q1019",
      "taf": "TAF ESKN 011430Z 0115/0215 28015KT CAVOK"
    },
    {
      "icao": "ESMS",
      "alert": "OK",
      "vis_m": 9999,
      "fzfg": false,
      "metar_trigger": false,
      "taf_trigger": false,
      "metar": "METAR ESMS 011450Z 31012KT CAVOK 20/02 Q1026",
      "taf": "TAF ESMS 011427Z 0115/0215 31010KT CAVOK"
    },
    {
      "icao": "ESSA",
      "alert": "OK",
      "vis_m": 9999,
      "fzfg": false,
      "metar_trigger": false,
      "taf_trigger": false,
      "metar": "METAR ESSA 011450Z 25016KT CAVOK 23/02 Q1017 NOSIG",
      "taf": "TAF ESSA 011430Z 0115/0215 24015KT CAVOK"
    },
    {
      "icao": "EYKA",
      "alert": "OK",
      "vis_m": 9999,
      "fzfg": false,
      "metar_trigger": false,
      "taf_trigger": false,
      "metar": "METAR EYKA 011450Z 31006KT 270V350 CAVOK 17/05 Q1023",
      "taf": "TAF EYKA 011100Z 0112/0212 30006KT 9000 FEW040"
    },
    {
      "icao": "EYPA",
      "alert": "OK",
      "vis_m": 9999,
      "fzfg": false,
      "metar_trigger": false,
      "taf_trigger": false,
      "metar": "METAR EYPA 011450Z 22005KT 180V290 CAVOK 12/04 Q1024",
      "taf": "TAF EYPA 011100Z 0112/0212 23005KT 9000 NSC"
    },
    {
      "icao": "EYVI",
      "alert": "OK",
      "vis_m": 9999,
      "fzfg": false,
      "metar_trigger": false,
      "taf_trigger": false,
      "metar": "METAR EYVI 011450Z 29006KT 240V330 CAVOK 16/04 Q1023 NOSIG",
      "taf": "TAF EYVI 011100Z 0112/0212 VRB05KT 9000 SCT040"
    },
    {
      "icao": "GCFV",
      "alert": "OK",
      "vis_m": 9999,
      "fzfg": false,
      "metar_trigger": false,
      "taf_trigger": false,
      "metar": "METAR GCFV 011500Z 06008KT CAVOK 21/14 Q1019",
      "taf": "TAF GCFV 011400Z 0115/0215 05008KT 9999 FEW025 TX22/0214Z TN16/0206Z"
    },
    {
      "icao": "GCLP",
      "alert": "OK",
      "vis_m": 9999,
      "fzfg": false,
      "metar_trigger": false,
      "taf_trigger": false,
      "metar": "METAR GCLP 011500Z 09006KT 070V130 9999 FEW025 22/14 Q1019 NOSIG",
      "taf": "TAF GCLP 011400Z 0115/0215 08005KT 9999 FEW025 TX23/0214Z TN16/0206Z"
    },
    {
      "icao": "GCTS",
      "alert": "OK",
      "vis_m": 9999,
      "fzfg": false,
      "metar_trigger": false,
      "taf_trigger": false,
      "metar": "METAR GCTS 011500Z 21008KT 170V250 9999 FEW030 22/15 Q1019 NOSIG",
      "taf": "TAF GCTS 011400Z 0115/0215 22010KT 9999 SCT030 TX24/0214Z TN17/0206Z"
    },
    {
      "icao": "GMAD",
      "alert": "OK",
      "vis_m": 9999,
      "fzfg": false,
      "metar_trigger": false,
      "taf_trigger": false,
      "metar": "METAR GMAD 011500Z 26015KT 230V290 CAVOK 25/14 Q1015 NOSIG",
      "taf": "TAF GMAD 011100Z 0112/0218 27010KT 8000 SCT030"
    },
    {
      "icao": "GMMN",
      "alert": "OK",
      "vis_m": 9999,
      "fzfg": false,
      "metar_trigger": false,
      "taf_trigger": false,
      "metar": "METAR GMMN 011500Z 36014KT 330V030 CAVOK 22/14 Q1017 NOSIG",
      "taf": "TAF GMMN 011100Z 0112/0218 36012KT CAVOK"
    },
    {
      "icao": "GMMX",
      "alert": "OK",
      "vis_m": 9999,
      "fzfg": false,
      "metar_trigger": false,
      "taf_trigger": false,
      "metar": "METAR GMMX 011500Z VRB03KT 9999 FEW026 SCT200 29/14 Q1016 NOSIG",
      "taf": "TAF GMMX 011100Z 0112/0218 34006KT 8000 SCT026"
    },
    {
      "icao": "HEGN",
      "alert": "OK",
      "vis_m": 9999,
      "fzfg": false,
      "metar_trigger": false,
      "taf_trigger": false,
      "metar": "METAR HEGN 011400Z 02015KT CAVOK 29/07 Q1008 NOSIG",
      "taf": "TAF HEGN 011100Z 0112/0218 36013KT CAVOK"
    },
    {
      "icao": "HEMA",
      "alert": "OK",
      "vis_m": 9999,
      "fzfg": false,
      "metar_trigger": false,
      "taf_trigger": false,
      "metar": "METAR HEMA 011400Z 01008KT CAVOK 27/09 Q1010 NOSIG",
      "taf": "TAF HEMA 011100Z 0112/0218 35014KT CAVOK"
    },
    {
      "icao": "HESH",
      "alert": "OK",
      "vis_m": 9999,
      "fzfg": false,
      "metar_trigger": false,
      "taf_trigger": false,
      "metar": "METAR HESH 011400Z 06006KT CAVOK 31/08 Q1009 NOSIG",
      "taf": "TAF HESH 011100Z 0112/0218 02015KT CAVOK"
    },
    {
      "icao": "HESX",
      "alert": "OK",
      "vis_m": 9999,
      "fzfg": false,
      "metar_trigger": false,
      "taf_trigger": false,
      "metar": "METAR HESX 011400Z 36006KT CAVOK 27/07 Q1012 NOSIG",
      "taf": "TAF HESX 011100Z 0112/0218 31008KT CAVOK"
    },
    {
      "icao": "LATI",
      "alert": "OK",
      "vis_m": 9999,
      "fzfg": false,
      "metar_trigger": false,
      "taf_trigger": false,
      "metar": "METAR LATI 011450Z 03014KT CAVOK 19/M00 Q1017 NOSIG",
      "taf": "TAF LATI 011100Z 0112/0212 03012KT CAVOK TX22/0212Z TN04/0204Z"
    },
    {
      "icao": "LBPD",
      "alert": "OK",
      "vis_m": 9999,
      "fzfg": false,
      "metar_trigger": false,
      "taf_trigger": false,
      "metar": "METAR LBPD 011500Z AUTO 26005KT 9999 BKN063/// OVC074/// 10/03 Q1024 NOSIG",
      "taf": "TAF LBPD 011100Z 0112/0212 VRB03KT 9999 SCT030 OVC060"
    },
    {
      "icao": "LBSF",
      "alert": "OK",
      "vis_m": 9999,
      "fzfg": false,
      "metar_trigger": false,
      "taf_trigger": false,
      "metar": "METAR LBSF 011500Z AUTO 03009KT 9999 BKN072/// 08/M01 Q1023 NOSIG",
      "taf": "TAF LBSF 011100Z 0112/0212 05012KT 9999 SCT020 BKN045"
    },
    {
      "icao": "LBWN",
      "alert": "OK",
      "vis_m": 9999,
      "fzfg": false,
      "metar_trigger": false,
      "taf_trigger": false,
      "metar": "METAR LBWN 011500Z VRB04KT 9999 SCT033 BKN045 10/05 Q1023 NOSIG",
      "taf": "TAF LBWN 011100Z 0112/0212 03012KT 9999 SCT030 BKN045"
    },
    {
      "icao": "LCLK",
      "alert": "OK",
      "vis_m": 9999,
      "fzfg": false,
      "metar_trigger": false,
      "taf_trigger": false,
      "metar": "METAR LCLK 011500Z 21014KT 9999 FEW020 23/16 Q1010 NOSIG",
      "taf": "TAF LCLK 011130Z 0112/0212 21016KT 9999 FEW020"
    },
    {
      "icao": "LCPH",
      "alert": "OK",
      "vis_m": 9999,
      "fzfg": false,
      "metar_trigger": false,
      "taf_trigger": false,
      "metar": "METAR LCPH 011500Z 31012KT 250V320 9999 FEW025 21/16 Q1011 NOSIG",
      "taf": "TAF LCPH 011130Z 0112/0212 28014KT 9999 FEW020"
    },
    {
      "icao": "LEAL",
      "alert": "OK",
      "vis_m": 9999,
      "fzfg": false,
      "metar_trigger": false,
      "taf_trigger": false,
      "metar": "METAR LEAL 011500Z 11011KT 9999 FEW015 SCT030 22/16 Q1020 NOSIG",
      "taf": "TAF LEAL 011100Z 0112/0212 VRB04KT 9999 SCT025 SCT060 TX23/0113Z TN16/0206Z"
    },
    {
      "icao": "LEBB",
      "alert": "OK",
      "vis_m": 9999,
      "fzfg": false,
      "metar_trigger": false,
      "taf_trigger": false,
      "metar": "METAR LEBB 011500Z 11010KT 070V150 9999 FEW060 27/16 Q1016 NOSIG",
      "taf": ""
    },
    {
      "icao": "LEBL",
      "alert": "OK",
      "vis_m": 9000,
      "fzfg": false,
      "metar_trigger": false,
      "taf_trigger": false,
      "metar": "METAR LEBL 011500Z 08015KT 9000 FEW030 20/14 Q1022 NOSIG",
      "taf": "TAF LEBL 011100Z 0112/0212 07018KT 9999 FEW015 TX22/0112Z TN16/0206Z"
    },
    {
      "icao": "LECH",
      "alert": "OK",
      "vis_m": 9000,
      "fzfg": false,
      "metar_trigger": false,
      "taf_trigger": false,
      "metar": "METAR LECH 011500Z AUTO 01006KT 340V050 9000 FEW015 BKN026 16/14 Q1022",
      "taf": "TAF LECH 011100Z 0112/0212 05007KT 9999 SCT020 SCT050 TX21/0112Z TN12/0206Z"
    },
    {
      "icao": "LEMD",
      "alert": "OK",
      "vis_m": 9999,
      "fzfg": false,
      "metar_trigger": false,
      "taf_trigger": false,
      "metar": "METAR LEMD 011500Z 16004KT 9999 SCT075 25/07 Q1018 NOSIG",
      "taf": ""
    },
    {
      "icao": "LEMG",
      "alert": "OK",
      "vis_m": 9999,
      "fzfg": false,
      "metar_trigger": false,
      "taf_trigger": false,
      "metar": "METAR LEMG 011500Z 12010KT 080V150 9999 FEW012 20/15 Q1019 NOSIG",
      "taf": "TAF LEMG 011100Z 0112/0212 13010KT CAVOK TX23/0114Z TN14/0206Z"
    },
    {
      "icao": "LEVC",
      "alert": "OK",
      "vis_m": 9999,
      "fzfg": false,
      "metar_trigger": false,
      "taf_trigger": false,
      "metar": "METAR LEVC 011500Z 08008KT 9999 SCT023 BKN031 20/15 Q1021 NOSIG",
      "taf": "TAF LEVC 011100Z 0112/0212 07008KT 9999 SCT020 SCT030 TX21/0113Z TN16/0206Z"
    },
    {
      "icao": "LEXJ",
      "alert": "OK",
      "vis_m": 9999,
      "fzfg": false,
      "metar_trigger": false,
      "taf_trigger": false,
      "metar": "METAR LEXJ 011500Z 05006KT 350V140 9999 FEW024 19/16 Q1017",
      "taf": "TAF LEXJ 011400Z 0115/0215 VRB03KT 9999 SCT020 TX18/0213Z TN15/0206Z"
    },
    {
      "icao": "LEZG",
      "alert": "OK",
      "vis_m": 9999,
      "fzfg": false,
      "metar_trigger": false,
      "taf_trigger": false,
      "metar": "METAR LEZG 011500Z 11012KT 080V150 9999 SCT045 FEW050CB BKN055 24/13 Q1019 NOSIG",
      "taf": "TAF LEZG 011100Z 0112/0212 12010KT 9999 FEW030 SCT060 TX23/0114Z TN14/0206Z"
    },
    {
      "icao": "LEZL",
      "alert": "OK",
      "vis_m": 9999,
      "fzfg": false,
      "metar_trigger": false,
      "taf_trigger": false,
      "metar": "METAR LEZL 011500Z 25007KT CAVOK 27/10 Q1017 NOSIG",
      "taf": "TAF LEZL 011400Z 0115/0215 22010KT CAVOK TX28/0115Z TN13/0206Z"
    },
    {
      "icao": "LFBD",
      "alert": "OK",
      "vis_m": 9999,
      "fzfg": false,
      "metar_trigger": false,
      "taf_trigger": false,
      "metar": "METAR LFBD 011500Z AUTO 15009KT 110V170 9999 SCT040 SCT110 24/14 Q1019 NOSIG",
      "taf": "TAF LFBD 011100Z 0112/0218 11010KT 9999 SCT035 TX24/0114Z TN14/0205Z"
    },
    {
      "icao": "LFLL",
      "alert": "OK",
      "vis_m": 9999,
      "fzfg": false,
      "metar_trigger": false,
      "taf_trigger": false,
      "metar": "METAR LFLL 011500Z 22006KT 180V250 CAVOK 24/10 Q1021 NOSIG",
      "taf": "TAF LFLL 011100Z 0112/0218 19010KT CAVOK"
    },
    {
      "icao": "LFLS",
      "alert": "OK",
      "vis_m": 9999,
      "fzfg": false,
      "metar_trigger": false,
      "taf_trigger": false,
      "metar": "METAR LFLS 011500Z AUTO 23011KT 210V280 9999 SCT050 22/11 Q1022 TEMPO FEW055TCU",
      "taf": "TAF LFLS 011400Z 0115/0215 22005KT CAVOK"
    },
    {
      "icao": "LFMN",
      "alert": "OK",
      "vis_m": 9999,
      "fzfg": false,
      "metar_trigger": false,
      "taf_trigger": false,
      "metar": "METAR LFMN 011500Z 16004KT CAVOK 19/09 Q1024 NOSIG",
      "taf": "TAF LFMN 011400Z 0115/0221 17004KT CAVOK"
    },
    {
      "icao": "LFOB",
      "alert": "OK",
      "vis_m": 9999,
      "fzfg": false,
      "metar_trigger": false,
      "taf_trigger": false,
      "metar": "METAR LFOB 011500Z AUTO 17004KT 090V220 CAVOK 24/13 Q1020 TEMPO VRB15G30KT 2000 -TSRA BKN014 BKN025CB BKN035",
      "taf": "TAF LFOB 011100Z 0112/0212 VRB04KT CAVOK"
    },
    {
      "icao": "LFPO",
      "alert": "OK",
      "vis_m": 9999,
      "fzfg": false,
      "metar_trigger": false,
      "taf_trigger": false,
      "metar": "METAR LFPO 011500Z 19003KT 130V250 9999 VCTS FEW050CB SCT050 BKN110 25/13 Q1020 TEMPO -TSRA SCT040CB",
      "taf": "TAF LFPO 011100Z 0112/0218 21004KT CAVOK"
    },
    {
      "icao": "LFSB",
      "alert": "OK",
      "vis_m": 9999,
      "fzfg": false,
      "metar_trigger": false,
      "taf_trigger": false,
      "metar": "METAR LFSB 011500Z AUTO 36003KT 260V070 CAVOK 25/05 Q1022 NOSIG",
      "taf": "TAF LFSB 011100Z 0112/0212 07005KT CAVOK"
    },
    {
      "icao": "LGAV",
      "alert": "OK",
      "vis_m": 9999,
      "fzfg": false,
      "metar_trigger": false,
      "taf_trigger": false,
      "metar": "METAR LGAV 011450Z 02018KT 9999 -RA BKN025 BKN060 12/07 Q1018 NOSIG",
      "taf": "TAF LGAV 011100Z 0112/0212 02017KT 9999 SCT020 BKN060"
    },
    {
      "icao": "LGTS",
      "alert": "OK",
      "vis_m": 9999,
      "fzfg": false,
      "metar_trigger": false,
      "taf_trigger": false,
      "metar": "METAR LGTS 011450Z 12004KT 9999 -RA SCT020 BKN040 11/10 Q1022 RERA NOSIG",
      "taf": "TAF LGTS 011100Z 0112/0212 VRB03KT 9999 BKN035"
    },
    {
      "icao": "LHBP",
      "alert": "OK",
      "vis_m": 9999,
      "fzfg": false,
      "metar_trigger": false,
      "taf_trigger": false,
      "metar": "METAR LHBP 011500Z 36005KT 320V060 CAVOK 18/M02 Q1024 NOSIG",
      "taf": "TAF LHBP 011115Z 0112/0212 02007KT CAVOK"
    },
    {
      "icao": "LHDC",
      "alert": "OK",
      "vis_m": 9999,
      "fzfg": false,
      "metar_trigger": false,
      "taf_trigger": false,
      "metar": "METAR LHDC 011445Z AUTO 01011KT 320V040 CAVOK 17/M02 Q1024 NOSIG",
      "taf": "TAF LHDC 011415Z 0115/0124 36009KT CAVOK"
    },
    {
      "icao": "LIBD",
      "alert": "OK",
      "vis_m": 9999,
      "fzfg": false,
      "metar_trigger": false,
      "taf_trigger": false,
      "metar": "METAR LIBD 011450Z 35011KT 290V020 CAVOK 16/02 Q1021",
      "taf": "TAF LIBD 011100Z 0112/0212 36016KT 9999 SCT030"
    },
    {
      "icao": "LIBG",
      "alert": "OK",
      "vis_m": 9999,
      "fzfg": false,
      "metar_trigger": false,
      "taf_trigger": false,
      "metar": "METAR LIBG 011450Z 36016KT 340V040 CAVOK 17/00 Q1019",
      "taf": "TAF LIBG 011400Z 0115/0124 03015KT CAVOK"
    },
    {
      "icao": "LIBP",
      "alert": "OK",
      "vis_m": 9999,
      "fzfg": false,
      "metar_trigger": false,
      "taf_trigger": false,
      "metar": "METAR LIBP 011450Z AUTO 35008KT 310V040 9999 NCD 17/M01 Q1024",
      "taf": "TAF LIBP 011100Z 0112/0212 36014KT 9999 FEW050"
    },
    {
      "icao": "LIBR",
      "alert": "OK",
      "vis_m": 9999,
      "fzfg": false,
      "metar_trigger": false,
      "taf_trigger": false,
      "metar": "METAR LIBR 011450Z 36016KT CAVOK 16/04 Q1019",
      "taf": "TAF LIBR 011100Z 0112/0212 02016G28KT CAVOK"
    },
    {
      "icao": "LICA",
      "alert": "OK",
      "vis_m": 9999,
      "fzfg": false,
      "metar_trigger": false,
      "taf_trigger": false,
      "metar": "METAR LICA 011450Z AUTO 23012KT 9999 BKN075/// 19/07 Q1017",
      "taf": "TAF LICA 011100Z 0112/0212 28015KT CAVOK"
    },
    {
      "icao": "LICC",
      "alert": "OK",
      "vis_m": 9999,
      "fzfg": false,
      "metar_trigger": false,
      "taf_trigger": false,
      "metar": "METAR LICC 011450Z 10009KT 070V140 9999 FEW025 BKN035 18/13 Q1018",
      "taf": "TAF LICC 011100Z 0112/0212 10012KT 9999 BKN030"
    },
    {
      "icao": "LICJ",
      "alert": "OK",
      "vis_m": 9999,
      "fzfg": false,
      "metar_trigger": false,
      "taf_trigger": false,
      "metar": "METAR LICJ 011450Z 06015KT 9999 FEW020 20/11 Q1018",
      "taf": "TAF LICJ 011100Z 0112/0212 06016KT 9999 FEW020"
    },
    {
      "icao": "LIMC",
      "alert": "OK",
      "vis_m": 9999,
      "fzfg": false,
      "metar_trigger": false,
      "taf_trigger": false,
      "metar": "METAR LIMC 011450Z VRB03KT CAVOK 21/02 Q1026 NOSIG",
      "taf": "TAF LIMC 011100Z 0112/0218 VRB05KT 9999 SCT050"
    },
    {
      "icao": "LIME",
      "alert": "OK",
      "vis_m": 9999,
      "fzfg": false,
      "metar_trigger": false,
      "taf_trigger": false,
      "metar": "METAR LIME 011450Z 20005KT 140V250 CAVOK 20/02 Q1026 NOSIG",
      "taf": "TAF LIME 011100Z 0112/0212 VRB05KT CAVOK"
    },
    {
      "icao": "LIMF",
      "alert": "OK",
      "vis_m": 9999,
      "fzfg": false,
      "metar_trigger": false,
      "taf_trigger": false,
      "metar": "METAR LIMF 011450Z 17004KT 110V210 CAVOK 19/05 Q1026",
      "taf": "TAF LIMF 011100Z 0112/0212 VRB05KT 9999 SCT040"
    },
    {
      "icao": "LIMJ",
      "alert": "OK",
      "vis_m": 9999,
      "fzfg": false,
      "metar_trigger": false,
      "taf_trigger": false,
      "metar": "METAR LIMJ 011450Z 35012KT 320V030 CAVOK 24/03 Q1023",
      "taf": "TAF LIMJ 011100Z 0112/0212 04012KT CAVOK"
    },
    {
      "icao": "LIPE",
      "alert": "OK",
      "vis_m": 9999,
      "fzfg": false,
      "metar_trigger": false,
      "taf_trigger": false,
      "metar": "METAR LIPE 011450Z 08006KT 040V110 CAVOK 20/01 Q1025",
      "taf": "TAF LIPE 011100Z 0112/0212 08010KT CAVOK"
    },
    {
      "icao": "LIPH",
      "alert": "OK",
      "vis_m": 9999,
      "fzfg": false,
      "metar_trigger": false,
      "taf_trigger": false,
      "metar": "METAR LIPH 011450Z 25007KT 200V310 CAVOK 21/M00 Q1025",
      "taf": "TAF LIPH 011100Z 0112/0212 VRB06KT CAVOK"
    },
    {
      "icao": "LIPQ",
      "alert": "OK",
      "vis_m": 9999,
      "fzfg": false,
      "metar_trigger": false,
      "taf_trigger": false,
      "metar": "METAR LIPQ 011450Z AUTO 26007KT 210V290 9999 NCD 22/00 Q1024",
      "taf": "TAF LIPQ 011100Z 0112/0212 VRB05KT CAVOK"
    },
    {
      "icao": "LIPR",
      "alert": "OK",
      "vis_m": 9999,
      "fzfg": false,
      "metar_trigger": false,
      "taf_trigger": false,
      "metar": "METAR LIPR 011450Z 04006KT 360V080 CAVOK 16/02 Q1026",
      "taf": "TAF LIPR 011100Z 0112/0212 06012KT CAVOK"
    },
    {
      "icao": "LIPX",
      "alert": "OK",
      "vis_m": 9999,
      "fzfg": false,
      "metar_trigger": false,
      "taf_trigger": false,
      "metar": "METAR LIPX 011450Z VRB03KT CAVOK 21/M01 Q1025",
      "taf": "TAF LIPX 011100Z 0112/0212 10008KT CAVOK"
    },
    {
      "icao": "LIPY",
      "alert": "OK",
      "vis_m": 9999,
      "fzfg": false,
      "metar_trigger": false,
      "taf_trigger": false,
      "metar": "METAR LIPY 011450Z AUTO 35007KT 320V020 9999 NCD 17/02 Q1025",
      "taf": "TAF LIPY 011100Z 0112/0212 05011KT CAVOK"
    },
    {
      "icao": "LIPZ",
      "alert": "OK",
      "vis_m": 9999,
      "fzfg": false,
      "metar_trigger": false,
      "taf_trigger": false,
      "metar": "METAR LIPZ 011450Z 21008KT CAVOK 19/02 Q1025 NOSIG",
      "taf": "TAF LIPZ 011100Z 0112/0218 15010KT CAVOK"
    },
    {
      "icao": "LIRF",
      "alert": "OK",
      "vis_m": 9999,
      "fzfg": false,
      "metar_trigger": false,
      "taf_trigger": false,
      "metar": "METAR LIRF 011450Z 04009KT 350V070 9999 FEW025 23/M01 Q1019 NOSIG",
      "taf": "TAF LIRF 011100Z 0112/0218 02010KT CAVOK"
    },
    {
      "icao": "LIRN",
      "alert": "OK",
      "vis_m": 9999,
      "fzfg": false,
      "metar_trigger": false,
      "taf_trigger": false,
      "metar": "METAR LIRN 011450Z 05015KT CAVOK 19/M02 Q1020 NOSIG",
      "taf": "TAF LIRN 011100Z 0112/0212 03020G32KT CAVOK"
    },
    {
      "icao": "LIRP",
      "alert": "OK",
      "vis_m": 9999,
      "fzfg": false,
      "metar_trigger": false,
      "taf_trigger": false,
      "metar": "METAR LIRP 011445Z 30009KT CAVOK 22/05 Q1023 NOSIG",
      "taf": "TAF LIRP 011100Z 0112/0212 09012KT CAVOK"
    },
    {
      "icao": "LIRZ",
      "alert": "OK",
      "vis_m": 9999,
      "fzfg": false,
      "metar_trigger": false,
      "taf_trigger": false,
      "metar": "METAR LIRZ 011450Z AUTO 03013KT 9999 NCD 17/01 Q1023",
      "taf": "TAF LIRZ 011100Z 0112/0212 04017KT 9999 FEW060"
    },
    {
      "icao": "LJLJ",
      "alert": "OK",
      "vis_m": 9999,
      "fzfg": false,
      "metar_trigger": false,
      "taf_trigger": false,
      "metar": "METAR LJLJ 011500Z VRB04KT 9999 FEW070 19/01 Q1024 NOSIG",
      "taf": "TAF LJLJ 011100Z 0112/0212 12005KT 9999 FEW060"
    },
    {
      "icao": "LKMT",
      "alert": "OK",
      "vis_m": 9999,
      "fzfg": false,
      "metar_trigger": false,
      "taf_trigger": false,
      "metar": "METAR LKMT 011500Z 34010KT 310V020 CAVOK 20/05 Q1025 NOSIG",
      "taf": "TAF LKMT 011100Z 0112/0212 01006KT CAVOK"
    },
    {
      "icao": "LKPR",
      "alert": "OK",
      "vis_m": 9999,
      "fzfg": false,
      "metar_trigger": false,
      "taf_trigger": false,
      "metar": "METAR LKPR 011500Z 32006KT 280V360 CAVOK 20/03 Q1026 NOSIG",
      "taf": "TAF LKPR 011400Z 0115/0221 VRB02KT CAVOK"
    },
    {
      "icao": "LLBG",
      "alert": "OK",
      "vis_m": 9999,
      "fzfg": false,
      "metar_trigger": false,
      "taf_trigger": false,
      "metar": "METAR LLBG 011450Z 32006KT 280V360 CAVOK 22/09 Q1011 NOSIG",
      "taf": "TAF LLBG 011104Z 0112/0212 30012KT CAVOK TX23/0112Z TN12/0203Z"
    },
    {
      "icao": "LMML",
      "alert": "OK",
      "vis_m": 9999,
      "fzfg": false,
      "metar_trigger": false,
      "taf_trigger": false,
      "metar": "METAR LMML 011445Z 08014KT 040V110 9999 FEW024 BKN044 19/12 Q1017 NOSIG",
      "taf": ""
    },
    {
      "icao": "LOWW",
      "alert": "OK",
      "vis_m": 9999,
      "fzfg": false,
      "metar_trigger": false,
      "taf_trigger": false,
      "metar": "METAR LOWW 011450Z 33008KT 300V360 CAVOK 20/04 Q1025 NOSIG",
      "taf": "TAF LOWW 011415Z 0115/0221 35010KT CAVOK TX24/0214Z TN07/0204Z"
    },
    {
      "icao": "LPFR",
      "alert": "OK",
      "vis_m": 9999,
      "fzfg": false,
      "metar_trigger": false,
      "taf_trigger": false,
      "metar": "METAR LPFR 011500Z 25011KT CAVOK 20/13 Q1018",
      "taf": "TAF LPFR 011100Z 0112/0212 23010KT CAVOK"
    },
    {
      "icao": "LPMA",
      "alert": "OK",
      "vis_m": 9999,
      "fzfg": false,
      "metar_trigger": false,
      "taf_trigger": false,
      "metar": "METAR LPMA 011500Z 04010KT 360V080 9999 SCT013 20/13 Q1018",
      "taf": ""
    },
    {
      "icao": "LPPR",
      "alert": "OK",
      "vis_m": 9999,
      "fzfg": false,
      "metar_trigger": false,
      "taf_trigger": false,
      "metar": "METAR LPPR 011500Z 30006KT 250V320 9999 FEW035 19/11 Q1018",
      "taf": "TAF LPPR 011100Z 0112/0212 26007KT 9999 FEW020 SCT035"
    },
    {
      "icao": "LPPS",
      "alert": "OK",
      "vis_m": 9999,
      "fzfg": false,
      "metar_trigger": false,
      "taf_trigger": false,
      "metar": "METAR LPPS 011500Z 29008KT 240V320 9999 FEW015 20/06 Q1019",
      "taf": "TAF LPPS 011100Z 0112/0218 28007KT 9999 SCT015"
    },
    {
      "icao": "LPPT",
      "alert": "OK",
      "vis_m": 9999,
      "fzfg": false,
      "metar_trigger": false,
      "taf_trigger": false,
      "metar": "METAR LPPT 011500Z 21007KT 170V260 9999 FEW048 21/09 Q1018",
      "taf": "TAF LPPT 011100Z 0112/0218 VRB02KT 9999 FEW035"
    },
    {
      "icao": "LQBK",
      "alert": "OK",
      "vis_m": 9999,
      "fzfg": false,
      "metar_trigger": false,
      "taf_trigger": false,
      "metar": "METAR LQBK 011500Z 32007KT 270V010 9999 FEW047 18/M01 Q1025 NOSIG",
      "taf": "TAF LQBK 011100Z 0112/0212 VRB03KT CAVOK TX17/0114Z TN02/0200Z"
    },
    {
      "icao": "LQSA",
      "alert": "OK",
      "vis_m": 9999,
      "fzfg": false,
      "metar_trigger": false,
      "taf_trigger": false,
      "metar": "METAR LQSA 011500Z 03009KT 350V100 9999 FEW065 13/M04 Q1023 NOSIG",
      "taf": "TAF LQSA 011100Z 0112/0212 31005KT CAVOK TX15/0114Z TN01/0204Z"
    },
    {
      "icao": "LQTZ",
      "alert": "OK",
      "vis_m": 9999,
      "fzfg": false,
      "metar_trigger": false,
      "taf_trigger": false,
      "metar": "METAR LQTZ 011500Z 06009KT 340V110 CAVOK 16/M03 Q1024",
      "taf": "TAF LQTZ 011100Z 0112/0212 VRB02KT CAVOK TX16/0113Z TNM00/0202Z"
    },
    {
      "icao": "LRBC",
      "alert": "OK",
      "vis_m": 9999,
      "fzfg": false,
      "metar_trigger": false,
      "taf_trigger": false,
      "metar": "METAR LRBC 011500Z 02006KT 350V050 CAVOK 12/M03 Q1024",
      "taf": "TAF LRBC 011400Z 0115/0124 36009KT 9999 SCT065"
    },
    {
      "icao": "LRBS",
      "alert": "OK",
      "vis_m": 9999,
      "fzfg": false,
      "metar_trigger": false,
      "taf_trigger": false,
      "metar": "METAR LRBS 011500Z 02004KT 330V060 CAVOK 13/M01 Q1024 NOSIG",
      "taf": "TAF LRBS 011100Z 0112/0212 VRB04KT CAVOK"
    },
    {
      "icao": "LRBV",
      "alert": "OK",
      "vis_m": 9999,
      "fzfg": false,
      "metar_trigger": false,
      "taf_trigger": false,
      "metar": "METAR LRBV 011500Z 29008KT 260V320 9999 BKN078 10/M04 Q1022",
      "taf": "TAF LRBV 011400Z 0115/0124 VRB04KT 9999 SCT050"
    },
    {
      "icao": "LRCL",
      "alert": "OK",
      "vis_m": 9999,
      "fzfg": false,
      "metar_trigger": false,
      "taf_trigger": false,
      "metar": "METAR LRCL 011500Z 31006KT 260V020 CAVOK 14/M04 Q1023",
      "taf": "TAF LRCL 011400Z 0115/0124 VRB04KT CAVOK"
    },
    {
      "icao": "LRCV",
      "alert": "OK",
      "vis_m": 9999,
      "fzfg": false,
      "metar_trigger": false,
      "taf_trigger": false,
      "metar": "METAR LRCV 011500Z 23007KT 200V260 9999 FEW047 12/03 Q1024",
      "taf": "TAF LRCV 011400Z 0115/0124 VRB04KT 9999 SCT040"
    },
    {
      "icao": "LRIA",
      "alert": "OK",
      "vis_m": 9999,
      "fzfg": false,
      "metar_trigger": false,
      "taf_trigger": false,
      "metar": "METAR LRIA 011500Z 33007KT 280V010 CAVOK 12/M05 Q1023",
      "taf": "TAF LRIA 011400Z 0115/0124 34007KT CAVOK"
    },
    {
      "icao": "LROP",
      "alert": "OK",
      "vis_m": 9999,
      "fzfg": false,
      "metar_trigger": false,
      "taf_trigger": false,
      "metar": "METAR LROP 011500Z VRB02KT CAVOK 12/M02 Q1024 NOSIG",
      "taf": "TAF LROP 011100Z 0112/0212 VRB04KT CAVOK"
    },
    {
      "icao": "LRSB",
      "alert": "OK",
      "vis_m": 9999,
      "fzfg": false,
      "metar_trigger": false,
      "taf_trigger": false,
      "metar": "METAR LRSB 011500Z 33007KT 9999 FEW070 13/M05 Q1023 NOSIG",
      "taf": "TAF LRSB 011100Z 0112/0212 VRB04KT CAVOK"
    },
    {
      "icao": "LRSM",
      "alert": "OK",
      "vis_m": 9999,
      "fzfg": false,
      "metar_trigger": false,
      "taf_trigger": false,
      "metar": "METAR LRSM 011500Z 02008KT CAVOK 16/M03 Q1024",
      "taf": "TAF LRSM 011400Z 0115/0124 34012KT CAVOK"
    },
    {
      "icao": "LRSV",
      "alert": "OK",
      "vis_m": 9999,
      "fzfg": false,
      "metar_trigger": false,
      "taf_trigger": false,
      "metar": "METAR LRSV 011500Z 31013KT CAVOK 11/M03 Q1023",
      "taf": "TAF LRSV 011400Z 0115/0124 34008KT CAVOK"
    },
    {
      "icao": "LRTM",
      "alert": "OK",
      "vis_m": 9999,
      "fzfg": false,
      "metar_trigger": false,
      "taf_trigger": false,
      "metar": "METAR LRTM 011500Z 30005KT 260V340 CAVOK 15/M04 Q1023",
      "taf": "TAF LRTM 011400Z 0115/0124 VRB04KT CAVOK"
    },
    {
      "icao": "LRTR",
      "alert": "OK",
      "vis_m": 9999,
      "fzfg": false,
      "metar_trigger": false,
      "taf_trigger": false,
      "metar": "METAR LRTR 011500Z 36006KT 310V070 CAVOK 16/M04 Q1023 NOSIG",
      "taf": "TAF LRTR 011100Z 0112/0212 01008KT CAVOK"
    },
    {
      "icao": "LTAC",
      "alert": "OK",
      "vis_m": 9999,
      "fzfg": false,
      "metar_trigger": false,
      "taf_trigger": false,
      "metar": "METAR LTAC 011450Z 30008KT 9999 -SHRA FEW030CB BKN035 BKN080 07/05 Q1013 NOSIG RMK RWY21C 27008KT RWY03L 29007KT RWY21R 26007KT RWY03R 28008KT RWY21L 27008KT",
      "taf": "TAF LTAC 011040Z 0112/0212 VRB02KT 9999 SCT035 BKN090"
    },
    {
      "icao": "LTFM",
      "alert": "OK",
      "vis_m": 9999,
      "fzfg": false,
      "metar_trigger": false,
      "taf_trigger": false,
      "metar": "METAR LTFM 011450Z 05020KT 9999 FEW014 BKN025 BKN090 11/03 Q1021 NOSIG RMK RWY17L 04016KT RWY34L 04017KT RWY16R 05018KT RWY36 04018KT RWY18 06015KT",
      "taf": "TAF LTFM 011040Z 0112/0218 03022G32KT 9999 -SHRA SCT014 BKN025"
    },
    {
      "icao": "LUKK",
      "alert": "OK",
      "vis_m": 9999,
      "fzfg": false,
      "metar_trigger": false,
      "taf_trigger": false,
      "metar": "METAR LUKK 011500Z 03006KT 340V060 CAVOK 12/M05 Q1023 NOSIG",
      "taf": "TAF LUKK 011101Z 0112/0212 01010KT 9999 SCT045"
    },
    {
      "icao": "LWOH",
      "alert": "OK",
      "vis_m": 9999,
      "fzfg": false,
      "metar_trigger": false,
      "taf_trigger": false,
      "metar": "METAR LWOH 011450Z 01011KT 320V050 9999 BKN050 10/M01 Q1020",
      "taf": "TAF LWOH 011425Z 0115/0215 02012KT 9999 SCT050 BKN100"
    },
    {
      "icao": "LWSK",
      "alert": "OK",
      "vis_m": 9999,
      "fzfg": false,
      "metar_trigger": false,
      "taf_trigger": false,
      "metar": "METAR LWSK 011450Z 36008KT 310V020 9999 BKN080 13/M01 Q1022 NOSIG",
      "taf": "TAF LWSK 011425Z 0115/0215 36012KT 9999 SCT060 BKN100"
    },
    {
      "icao": "LYBE",
      "alert": "OK",
      "vis_m": 9999,
      "fzfg": false,
      "metar_trigger": false,
      "taf_trigger": false,
      "metar": "METAR LYBE 011500Z 34005KT 280V040 CAVOK 16/M02 Q1024 NOSIG",
      "taf": "TAF LYBE 011100Z 0112/0212 01008KT 9999 SCT045 TX17/0113Z TN03/0204Z"
    },
    {
      "icao": "LYNI",
      "alert": "OK",
      "vis_m": 9999,
      "fzfg": false,
      "metar_trigger": false,
      "taf_trigger": false,
      "metar": "METAR LYNI 011500Z 06008KT 360V100 9999 FEW047 SCT083 14/M04 Q1023 NOSIG",
      "taf": "TAF LYNI 011100Z 0112/0212 34006KT 9999 SCT050 TX16/0212Z TN02/0204Z"
    },
    {
      "icao": "LYPG",
      "alert": "OK",
      "vis_m": 9999,
      "fzfg": false,
      "metar_trigger": false,
      "taf_trigger": false,
      "metar": "METAR LYPG 011500Z 01014KT 330V040 9999 SCT090 20/M05 Q1019 TEMPO 02025KT",
      "taf": "TAF LYPG 011100Z 0112/0212 36012KT CAVOK TX20/0113Z TN11/0204Z"
    },
    {
      "icao": "LZIB",
      "alert": "OK",
      "vis_m": 9999,
      "fzfg": false,
      "metar_trigger": false,
      "taf_trigger": false,
      "metar": "METAR LZIB 011500Z 33010KT CAVOK 19/03 Q1025 NOSIG",
      "taf": "TAF LZIB 011115Z 0112/0212 36004KT CAVOK"
    },
    {
      "icao": "LZKZ",
      "alert": "OK",
      "vis_m": 9999,
      "fzfg": false,
      "metar_trigger": false,
      "taf_trigger": false,
      "metar": "METAR LZKZ 011500Z 01008KT 340V050 CAVOK 16/01 Q1024 NOSIG",
      "taf": "TAF LZKZ 011115Z 0112/0212 04007KT CAVOK"
    },
    {
      "icao": "LZTT",
      "alert": "OK",
      "vis_m": 9999,
      "fzfg": false,
      "metar_trigger": false,
      "taf_trigger": false,
      "metar": "METAR LZTT 011500Z 20005KT 160V250 9999 BKN060 14/01 Q1024 NOSIG",
      "taf": "TAF LZTT 011115Z 0112/0212 VRB04KT 9999 FEW045 BKN063"
    },
    {
      "icao": "OEJN",
      "alert": "OK",
      "vis_m": 9999,
      "fzfg": false,
      "metar_trigger": false,
      "taf_trigger": false,
      "metar": "METAR OEJN 011500Z 33012KT CAVOK 34/03 Q1008 NOSIG",
      "taf": ""
    },
    {
      "icao": "OEMA",
      "alert": "OK",
      "vis_m": 9999,
      "fzfg": false,
      "metar_trigger": false,
      "taf_trigger": false,
      "metar": "METAR OEMA 011500Z 28013KT CAVOK 34/M05 Q1010 NOSIG",
      "taf": ""
    },
    {
      "icao": "OJAI",
      "alert": "OK",
      "vis_m": 5000,
      "fzfg": false,
      "metar_trigger": false,
      "taf_trigger": false,
      "metar": "METAR OJAI 011500Z 29013KT 5000 HZ NSC 23/07 Q1013 NOSIG",
      "taf": "TAF OJAI 011053Z 0112/0218 30012KT 5000 HZ NSC"
    },
    {
      "icao": "OMAA",
      "alert": "OK",
      "vis_m": 9999,
      "fzfg": false,
      "metar_trigger": false,
      "taf_trigger": false,
      "metar": "METAR OMAA 011500Z 33008KT CAVOK 33/19 Q1006 NOSIG",
      "taf": "TAF OMAA 011100Z 0112/0218 34010KT CAVOK"
    },
    {
      "icao": "OMDB",
      "alert": "OK",
      "vis_m": 9999,
      "fzfg": false,
      "metar_trigger": false,
      "taf_trigger": false,
      "metar": "METAR OMDB 011500Z 26006KT CAVOK 34/13 Q1006 NOSIG",
      "taf": "TAF OMDB 011100Z 0112/0218 30010KT CAVOK"
    },
    {
      "icao": "UAAA",
      "alert": "OK",
      "vis_m": 5000,
      "fzfg": false,
      "metar_trigger": false,
      "taf_trigger": false,
      "metar": "METAR UAAA 011500Z 14002MPS 5000 FU SCT100 BKN200 20/09 Q1013 NOSIG",
      "taf": ""
    },
    {
      "icao": "UBBB",
      "alert": "OK",
      "vis_m": 9999,
      "fzfg": false,
      "metar_trigger": false,
      "taf_trigger": false,
      "metar": "METAR UBBB 011500Z 16020KT CAVOK 14/11 Q1014 NOSIG",
      "taf": "TAF UBBB 011052Z 0112/0212 16020KT 9999 SCT025 TX17/0112Z TN11/0201Z"
    },
    {
      "icao": "UDSG",
      "alert": "OK",
      "vis_m": 9999,
      "fzfg": false,
      "metar_trigger": false,
      "taf_trigger": false,
      "metar": "METAR UDSG 011500Z 17017KT 9999 VCTS SCT043CB 16/04 Q1014 NOSIG",
      "taf": "TAF UDSG 011100Z 0112/0212 21006KT 9999 SCT040"
    },
    {
      "icao": "UDYZ",
      "alert": "OK",
      "vis_m": 9999,
      "fzfg": false,
      "metar_trigger": false,
      "taf_trigger": false,
      "metar": "METAR UDYZ 011500Z 15010KT 9999 VCTS SCT043CB 21/05 Q1011 NOSIG",
      "taf": ""
    },
    {
      "icao": "UGKO",
      "alert": "OK",
      "vis_m": 9999,
      "fzfg": false,
      "metar_trigger": false,
      "taf_trigger": false,
      "metar": "METAR UGKO 011500Z 32005KT 280V020 9999 SCT020 BKN056 14/10 Q1012 NOSIG",
      "taf": "TAF UGKO 011100Z 0112/0212 09012KT CAVOK TX25/0112Z TN10/0202Z"
    }
  ]
}