{
  "ts_utc": "2026-01-22T21:56:16Z",
  "threshold_m": 150,
  "source": "stations_override.txt (ICAO list) + aviationweather.gov (METAR/TAF raw)",
  "station_count": 159,
  "stations": [
    {
      "icao": "BIKF",
      "alert": "OK",
      "vis_m": 9999,
      "fzfg": false,
      "metar_trigger": false,
      "taf_trigger": false,
      "metar": "METAR BIKF 222130Z 13034G47KT 9999 BKN017 08/05 Q0988",
      "taf": "TAF BIKF 221959Z 2221/2321 10028G45KT 9999 BKN025 TX08/2221Z TN02/2321Z"
    },
    {
      "icao": "BKPR",
      "alert": "OK",
      "vis_m": 7000,
      "fzfg": false,
      "metar_trigger": false,
      "taf_trigger": false,
      "metar": "METAR BKPR 222130Z 22003KT 7000 NSC M01/M01 Q1003 NOSIG",
      "taf": "TAF BKPR 221730Z 2218/2318 VRB03KT 9999 BKN040"
    },
    {
      "icao": "EBCI",
      "alert": "OK",
      "vis_m": 9999,
      "fzfg": false,
      "metar_trigger": false,
      "taf_trigger": false,
      "metar": "METAR EBCI 222150Z 17008KT 9999 SCT025 BKN040 07/05 Q0993 NOSIG",
      "taf": "TAF EBCI 221720Z 2218/2324 16007KT 9999 BKN030"
    },
    {
      "icao": "EDDB",
      "alert": "OK",
      "vis_m": 4900,
      "fzfg": false,
      "metar_trigger": false,
      "taf_trigger": false,
      "metar": "METAR EDDB 222150Z AUTO 09005KT 4900 BR NSC M06/M08 Q1003 TEMPO 5000 BR",
      "taf": "TAF EDDB 221700Z 2218/2318 08006KT CAVOK"
    },
    {
      "icao": "EDDH",
      "alert": "OK",
      "vis_m": 8000,
      "fzfg": false,
      "metar_trigger": false,
      "taf_trigger": false,
      "metar": "METAR EDDH 222150Z AUTO 09009KT 8000 NCD M04/M06 Q1002 NOSIG",
      "taf": "TAF EDDH 221700Z 2218/2324 09010KT CAVOK"
    },
    {
      "icao": "EDDK",
      "alert": "OK",
      "vis_m": 9999,
      "fzfg": false,
      "metar_trigger": false,
      "taf_trigger": false,
      "metar": "METAR EDDK 222150Z AUTO 11008KT 070V140 9999 -SHRA BKN041 OVC048 FEW///TCU 02/M00 Q0997 NOSIG",
      "taf": "TAF EDDK 221700Z 2218/2324 12009KT 9999 BKN030"
    },
    {
      "icao": "EDDN",
      "alert": "OK",
      "vis_m": 7000,
      "fzfg": false,
      "metar_trigger": false,
      "taf_trigger": false,
      "metar": "METAR EDDN 222150Z AUTO 11009KT 7000 OVC010 M07/M10 Q1001",
      "taf": "TAF EDDN 221700Z 2218/2318 13007KT 9999 OVC012"
    },
    {
      "icao": "EDDS",
      "alert": "OK",
      "vis_m": 6000,
      "fzfg": false,
      "metar_trigger": false,
      "taf_trigger": false,
      "metar": "METAR EDDS 222150Z AUTO 09003KT 6000 NSC M01/M04 Q0997",
      "taf": "TAF EDDS 221700Z 2218/2318 VRB03KT CAVOK"
    },
    {
      "icao": "EDFH",
      "alert": "OK",
      "vis_m": 6000,
      "fzfg": false,
      "metar_trigger": false,
      "taf_trigger": false,
      "metar": "METAR EDFH 222120Z 14016KT 6000 FEW026 BKN035 M02/M03 Q0996",
      "taf": "TAF EDFH 221700Z 2218/2318 14014KT 9999 BKN014"
    },
    {
      "icao": "EDJA",
      "alert": "OK",
      "vis_m": 400,
      "fzfg": true,
      "metar_trigger": false,
      "taf_trigger": false,
      "metar": "METAR EDJA 222120Z VRB02KT 0400 R06/0450N FZFG VV/// M04/M05 Q0998",
      "taf": "TAF EDJA 221700Z 2218/2303 VRB03KT 0300 FZFG VV001"
    },
    {
      "icao": "EDLW",
      "alert": "OK",
      "vis_m": 9999,
      "fzfg": false,
      "metar_trigger": false,
      "taf_trigger": false,
      "metar": "METAR EDLW 222120Z AUTO 15007KT 9999 // SCT024/// SCT030/// BKN034/// 04/M00 Q0996",
      "taf": "TAF EDLW 221700Z 2218/2318 11006KT 9999 SCT040"
    },
    {
      "icao": "EDNY",
      "alert": "OK",
      "vis_m": 2800,
      "fzfg": false,
      "metar_trigger": false,
      "taf_trigger": false,
      "metar": "METAR EDNY 222120Z AUTO 06003KT 2800 // OVC002/// M01/M01 Q0999",
      "taf": "TAF EDNY 221700Z 2218/2303 VRB03KT 5000 BR OVC005"
    },
    {
      "icao": "EDSB",
      "alert": "OK",
      "vis_m": 2900,
      "fzfg": false,
      "metar_trigger": false,
      "taf_trigger": false,
      "metar": "METAR EDSB 222120Z 05003KT 030V090 2900 BR BKN002 OVC044 M01/M01 Q0999",
      "taf": "TAF EDSB 221700Z 2218/2318 VRB02KT 3000 BR OVC005"
    },
    {
      "icao": "EETN",
      "alert": "OK",
      "vis_m": 9999,
      "fzfg": false,
      "metar_trigger": false,
      "taf_trigger": false,
      "metar": "METAR EETN 222150Z 07007KT 9999 OVC015 M08/M10 Q1024 TEMPO OVC012",
      "taf": "TAF EETN 221730Z 2218/2318 09010KT 9999 BKN012 OVC020"
    },
    {
      "icao": "EFTU",
      "alert": "OK",
      "vis_m": 9999,
      "fzfg": false,
      "metar_trigger": false,
      "taf_trigger": false,
      "metar": "METAR EFTU 222150Z AUTO 08008KT 9999 OVC021 M07/M09 Q1024",
      "taf": "TAF EFTU 222036Z 2221/2321 08007KT 9999 BKN020"
    },
    {
      "icao": "EGBB",
      "alert": "OK",
      "vis_m": 9999,
      "fzfg": false,
      "metar_trigger": false,
      "taf_trigger": false,
      "metar": "METAR EGBB 222150Z 13010KT 9999 -RA BKN007 08/07 Q0983",
      "taf": "TAF EGBB 221655Z 2218/2318 12012KT 9999 BKN010"
    },
    {
      "icao": "EGGP",
      "alert": "OK",
      "vis_m": 9999,
      "fzfg": false,
      "metar_trigger": false,
      "taf_trigger": false,
      "metar": "METAR EGGP 222150Z 08012KT 9999 -RA BKN024 OVC033 06/04 Q0983",
      "taf": "TAF EGGP 221656Z 2218/2318 12012KT 9999 BKN016"
    },
    {
      "icao": "EGGW",
      "alert": "OK",
      "vis_m": 9999,
      "fzfg": false,
      "metar_trigger": false,
      "taf_trigger": false,
      "metar": "METAR EGGW 222150Z AUTO 17012KT 9999 -RA BKN011/// //////TCU 07/06 Q0984",
      "taf": "TAF EGGW 221657Z 2218/2318 12010KT 9999 SCT020"
    },
    {
      "icao": "EGKK",
      "alert": "OK",
      "vis_m": 9999,
      "fzfg": false,
      "metar_trigger": false,
      "taf_trigger": false,
      "metar": "METAR EGKK 222150Z 20008KT 150V230 9999 FEW015 BKN028 08/07 Q0987",
      "taf": "TAF EGKK 221654Z 2218/2324 13008KT 9999 SCT015"
    },
    {
      "icao": "EGNM",
      "alert": "OK",
      "vis_m": 900,
      "fzfg": false,
      "metar_trigger": false,
      "taf_trigger": false,
      "metar": "METAR EGNM 222150Z 08017G28KT 0900 R14/P1500N -RA FG OVC002 04/04 Q0985",
      "taf": "TAF EGNM 221657Z 2218/2318 12012KT 6000 BKN008"
    },
    {
      "icao": "EGPD",
      "alert": "OK",
      "vis_m": 8000,
      "fzfg": false,
      "metar_trigger": false,
      "taf_trigger": false,
      "metar": "METAR EGPD 222150Z COR AUTO 11020G30KT 8000 OVC015 04/01 Q0996 TEMPO BKN012",
      "taf": "TAF EGPD 221656Z 2218/2318 13019G33KT 9999 BKN016"
    },
    {
      "icao": "EGPF",
      "alert": "OK",
      "vis_m": 8000,
      "fzfg": false,
      "metar_trigger": false,
      "taf_trigger": false,
      "metar": "METAR EGPF 222150Z AUTO 08018KT 8000 -RA BKN017/// OVC023/// //////TCU 05/03 Q0988",
      "taf": "TAF EGPF 221700Z 2218/2318 08011KT 9999 FEW012 BKN025"
    },
    {
      "icao": "EHBK",
      "alert": "OK",
      "vis_m": 9999,
      "fzfg": false,
      "metar_trigger": false,
      "taf_trigger": false,
      "metar": "METAR EHBK 222125Z AUTO 15008KT 9999 BKN040/// OVC045/// 07/03 Q0994 NOSIG",
      "taf": "TAF EHBK 221719Z 2218/2324 16005KT 9999 BKN045"
    },
    {
      "icao": "EHEH",
      "alert": "OK",
      "vis_m": 9999,
      "fzfg": false,
      "metar_trigger": false,
      "taf_trigger": false,
      "metar": "METAR EHEH 222125Z AUTO 12005KT 9999 OVC043 06/02 Q0994 BLU NOSIG RMK TREND REMOTE BY EHWX",
      "taf": "TAF EHEH 221716Z 2218/2324 11005KT 9999 SCT030"
    },
    {
      "icao": "EKBI",
      "alert": "OK",
      "vis_m": 9999,
      "fzfg": false,
      "metar_trigger": false,
      "taf_trigger": false,
      "metar": "METAR EKBI 222150Z AUTO 08017KT 9999 OVC016/// M00/M03 Q1005",
      "taf": "TAF EKBI 222027Z 2221/2321 09018G32KT 9999 OVC020"
    },
    {
      "icao": "EKCH",
      "alert": "OK",
      "vis_m": 9999,
      "fzfg": false,
      "metar_trigger": false,
      "taf_trigger": false,
      "metar": "METAR EKCH 222150Z AUTO 09020KT 9999 BKN019/// 01/M03 Q1008 NOSIG",
      "taf": "TAF EKCH 222027Z 2221/2321 09020G30KT 9999 BKN020"
    },
    {
      "icao": "ENAL",
      "alert": "OK",
      "vis_m": 9999,
      "fzfg": false,
      "metar_trigger": false,
      "taf_trigger": false,
      "metar": "METAR ENAL 222120Z 12011KT CAVOK 03/M10 Q1011",
      "taf": "TAF ENAL 222000Z 2221/2306 12012KT CAVOK"
    },
    {
      "icao": "ENBR",
      "alert": "OK",
      "vis_m": 9999,
      "fzfg": false,
      "metar_trigger": false,
      "taf_trigger": false,
      "metar": "METAR ENBR 222120Z 07004KT CAVOK M02/M10 Q1010 RMK WIND 1200FT 09005KT",
      "taf": "TAF ENBR 221700Z 2218/2318 07005KT CAVOK"
    },
    {
      "icao": "ENGM",
      "alert": "OK",
      "vis_m": 9999,
      "fzfg": false,
      "metar_trigger": false,
      "taf_trigger": false,
      "metar": "METAR ENGM 222120Z 05006KT 9999 -SN BKN036 M05/M08 Q1020 NOSIG",
      "taf": ""
    },
    {
      "icao": "ENHD",
      "alert": "OK",
      "vis_m": 9999,
      "fzfg": false,
      "metar_trigger": false,
      "taf_trigger": false,
      "metar": "METAR ENHD 222120Z AUTO 07003KT 020V110 9999 NCD M00/M10 Q1010",
      "taf": "TAF ENHD 221400Z 2215/2223 10012KT CAVOK"
    },
    {
      "icao": "ENTC",
      "alert": "OK",
      "vis_m": 9999,
      "fzfg": false,
      "metar_trigger": false,
      "taf_trigger": false,
      "metar": "METAR ENTC 222120Z 11001KT CAVOK M10/M11 Q1023 NOSIG RMK WIND 2600FT 05003KT",
      "taf": "TAF ENTC 221700Z 2218/2318 VRB02KT 9999 FEW005"
    },
    {
      "icao": "ENTO",
      "alert": "OK",
      "vis_m": 9999,
      "fzfg": false,
      "metar_trigger": false,
      "taf_trigger": false,
      "metar": "METAR ENTO 222120Z 04011KT 9999 -SHSN SCT023 OVC029 M03/M06 Q1018 RESN NOSIG",
      "taf": "TAF ENTO 221700Z 2218/2318 04012KT 9999 BKN020"
    },
    {
      "icao": "ENVA",
      "alert": "OK",
      "vis_m": 9999,
      "fzfg": false,
      "metar_trigger": false,
      "taf_trigger": false,
      "metar": "METAR ENVA 222120Z 08008KT CAVOK M04/M10 Q1021 RMK WIND 670FT 13007KT",
      "taf": "TAF ENVA 221700Z 2218/2318 11010KT CAVOK"
    },
    {
      "icao": "ENZV",
      "alert": "OK",
      "vis_m": 9999,
      "fzfg": false,
      "metar_trigger": false,
      "taf_trigger": false,
      "metar": "METAR ENZV 222120Z 10018G29KT CAVOK M00/M09 Q1010",
      "taf": ""
    },
    {
      "icao": "EPGD",
      "alert": "OK",
      "vis_m": 5000,
      "fzfg": false,
      "metar_trigger": false,
      "taf_trigger": false,
      "metar": "METAR EPGD 222130Z 13009KT 5000 BR NSC M13/M15 Q1010",
      "taf": "TAF EPGD 221730Z 2218/2318 09010KT 6000 NSC"
    },
    {
      "icao": "EPKK",
      "alert": "OK",
      "vis_m": 5000,
      "fzfg": false,
      "metar_trigger": false,
      "taf_trigger": false,
      "metar": "METAR EPKK 222130Z 06012KT 5000 BR FEW046 BKN059 M05/M09 Q1004",
      "taf": "TAF EPKK 222030Z 2221/2321 07004KT 6000 BKN040"
    },
    {
      "icao": "EPKT",
      "alert": "OK",
      "vis_m": 6000,
      "fzfg": false,
      "metar_trigger": false,
      "taf_trigger": false,
      "metar": "METAR EPKT 222130Z 06006KT 6000 BKN043 M01/M06 Q1003",
      "taf": "TAF EPKT 221730Z 2218/2318 09004KT 7000 NSC"
    },
    {
      "icao": "EPLB",
      "alert": "OK",
      "vis_m": 4000,
      "fzfg": false,
      "metar_trigger": false,
      "taf_trigger": false,
      "metar": "METAR EPLB 222130Z 07009KT 4000 BR OVC004 M09/M10 Q1008",
      "taf": ""
    },
    {
      "icao": "EPMO",
      "alert": "OK",
      "vis_m": 4200,
      "fzfg": false,
      "metar_trigger": false,
      "taf_trigger": false,
      "metar": "METAR EPMO 222130Z 06014KT 4200 -SN BR OVC005 M11/M11 Q1009",
      "taf": "TAF EPMO 221730Z 2218/2318 08012KT 6000 NSC"
    },
    {
      "icao": "EPPO",
      "alert": "OK",
      "vis_m": 7000,
      "fzfg": false,
      "metar_trigger": false,
      "taf_trigger": false,
      "metar": "METAR EPPO 222130Z 09010KT 7000 NSC M06/M11 Q1005",
      "taf": "TAF EPPO 221730Z 2218/2318 09007KT CAVOK"
    },
    {
      "icao": "EPRA",
      "alert": "OK",
      "vis_m": 5000,
      "fzfg": false,
      "metar_trigger": false,
      "taf_trigger": false,
      "metar": "METAR EPRA 222130Z 08008KT 5000 BR OVC003 M10/M12 Q1008",
      "taf": "TAF EPRA 222030Z 2221/2306 06008KT 5000 BR OVC004"
    },
    {
      "icao": "EPRZ",
      "alert": "OK",
      "vis_m": 7000,
      "fzfg": false,
      "metar_trigger": false,
      "taf_trigger": false,
      "metar": "METAR EPRZ 222130Z 07010KT 7000 OVC020 M09/M11 Q1005",
      "taf": "TAF EPRZ 221730Z 2218/2318 09009KT 5000 BR NSC"
    },
    {
      "icao": "EPSC",
      "alert": "OK",
      "vis_m": 8000,
      "fzfg": false,
      "metar_trigger": false,
      "taf_trigger": false,
      "metar": "METAR EPSC 222130Z 09008KT 8000 NSC M05/M10 Q1005",
      "taf": "TAF EPSC 221730Z 2218/2318 04004KT 5000 BR NSC"
    },
    {
      "icao": "EPSY",
      "alert": "OK",
      "vis_m": 6000,
      "fzfg": false,
      "metar_trigger": false,
      "taf_trigger": false,
      "metar": "METAR EPSY 222130Z 07005KT 020V110 6000 -SN BKN007 OVC010 M13/M15 Q1012",
      "taf": "TAF EPSY 222030Z 2221/2306 09008KT 6000 BKN010"
    },
    {
      "icao": "EPWA",
      "alert": "OK",
      "vis_m": 5000,
      "fzfg": false,
      "metar_trigger": false,
      "taf_trigger": false,
      "metar": "METAR EPWA 222130Z 08009KT 5000 BR OVC005 M10/M11 Q1009 TEMPO 4000",
      "taf": "TAF EPWA 222030Z 2221/2321 08010KT 6000 OVC005"
    },
    {
      "icao": "EPWR",
      "alert": "OK",
      "vis_m": 8000,
      "fzfg": false,
      "metar_trigger": false,
      "taf_trigger": false,
      "metar": "METAR EPWR 222130Z 09006KT 8000 NSC M02/M06 Q1003",
      "taf": "TAF EPWR 222030Z 2221/2321 10005KT 8000 NSC"
    },
    {
      "icao": "ESGG",
      "alert": "OK",
      "vis_m": 9999,
      "fzfg": false,
      "metar_trigger": false,
      "taf_trigger": false,
      "metar": "METAR ESGG 222150Z 08013KT 9999 BKN025 M01/M06 Q1012",
      "taf": "TAF ESGG 222030Z 2221/2321 08012G22KT 9999 OVC020"
    },
    {
      "icao": "ESKN",
      "alert": "OK",
      "vis_m": 9999,
      "fzfg": false,
      "metar_trigger": false,
      "taf_trigger": false,
      "metar": "METAR ESKN 222150Z 06011KT 9999 OVC014 M02/M05 Q1019",
      "taf": "TAF ESKN 222030Z 2221/2321 09014KT 9999 -SN SCT009 OVC016"
    },
    {
      "icao": "ESMS",
      "alert": "OK",
      "vis_m": 9999,
      "fzfg": false,
      "metar_trigger": false,
      "taf_trigger": false,
      "metar": "METAR ESMS 222150Z 08019KT 9999 OVC015 00/M03 Q1007",
      "taf": "TAF ESMS 222027Z 2221/2321 09018G32KT 9000 BKN020"
    },
    {
      "icao": "ESSA",
      "alert": "OK",
      "vis_m": 9999,
      "fzfg": false,
      "metar_trigger": false,
      "taf_trigger": false,
      "metar": "METAR ESSA 222150Z 08014KT 9999 BKN018 M03/M07 Q1021 NOSIG",
      "taf": "TAF ESSA 222030Z 2221/2321 08012KT 9999 OVC018"
    },
    {
      "icao": "EYKA",
      "alert": "OK",
      "vis_m": 9999,
      "fzfg": false,
      "metar_trigger": false,
      "taf_trigger": false,
      "metar": "METAR EYKA 222150Z 11010KT 9999 -SN OVC018 M07/M11 Q1017",
      "taf": "TAF EYKA 221700Z 2218/2318 10012KT 9000 BKN015"
    },
    {
      "icao": "EYPA",
      "alert": "OK",
      "vis_m": 9999,
      "fzfg": false,
      "metar_trigger": false,
      "taf_trigger": false,
      "metar": "METAR EYPA 222150Z 11013KT 9999 OVC017 M04/M08 Q1016",
      "taf": "TAF EYPA 221700Z 2218/2318 10012KT 9000 OVC015"
    },
    {
      "icao": "EYVI",
      "alert": "OK",
      "vis_m": 9999,
      "fzfg": false,
      "metar_trigger": false,
      "taf_trigger": false,
      "metar": "METAR EYVI 222150Z 10007KT 070V140 9999 -SN OVC016 M10/M13 Q1016 NOSIG",
      "taf": "TAF EYVI 221700Z 2218/2318 10012KT 9000 BKN010"
    },
    {
      "icao": "GCFV",
      "alert": "OK",
      "vis_m": 9999,
      "fzfg": false,
      "metar_trigger": false,
      "taf_trigger": false,
      "metar": "METAR GCFV 222130Z 35004KT 310V020 9999 FEW017 SCT035 18/15 Q1019",
      "taf": "TAF GCFV 222000Z 2221/2321 30005KT 9999 SCT025 TX22/2314Z TN16/2306Z"
    },
    {
      "icao": "GCLP",
      "alert": "OK",
      "vis_m": 9999,
      "fzfg": false,
      "metar_trigger": false,
      "taf_trigger": false,
      "metar": "METAR GCLP 222130Z 30004KT 230V360 9999 FEW022 18/14 Q1020 NOSIG",
      "taf": "TAF GCLP 222000Z 2221/2321 35008KT 9999 BKN020 TX23/2314Z TN15/2306Z"
    },
    {
      "icao": "GCTS",
      "alert": "OK",
      "vis_m": 9999,
      "fzfg": false,
      "metar_trigger": false,
      "taf_trigger": false,
      "metar": "METAR GCTS 222130Z 04005KT 9999 BKN018 18/13 Q1020 NOSIG",
      "taf": ""
    },
    {
      "icao": "GMAD",
      "alert": "OK",
      "vis_m": 8000,
      "fzfg": false,
      "metar_trigger": false,
      "taf_trigger": false,
      "metar": "METAR GMAD 222130Z 00000KT 8000 SCT006 BKN016 13/13 Q1017 NOSIG",
      "taf": "TAF GMAD 221700Z 2218/2324 24008KT 8000 SCT008 BKN016"
    },
    {
      "icao": "GMMN",
      "alert": "OK",
      "vis_m": 9999,
      "fzfg": false,
      "metar_trigger": false,
      "taf_trigger": false,
      "metar": "METAR GMMN 222130Z 21008KT 9999 FEW016 BKN030 12/11 Q1016 NOSIG",
      "taf": "TAF GMMN 221700Z 2218/2324 27010KT 8000 BKN020"
    },
    {
      "icao": "GMMX",
      "alert": "OK",
      "vis_m": 9999,
      "fzfg": false,
      "metar_trigger": false,
      "taf_trigger": false,
      "metar": "METAR GMMX 222130Z 23004KT 9999 BKN026 13/11 Q1017 NOSIG",
      "taf": "TAF GMMX 221700Z 2218/2324 24014KT 8000 SCT020 SCT080"
    },
    {
      "icao": "HEGN",
      "alert": "OK",
      "vis_m": 9999,
      "fzfg": false,
      "metar_trigger": false,
      "taf_trigger": false,
      "metar": "METAR HEGN 222100Z 00000KT CAVOK 20/16 Q1012 NOSIG",
      "taf": "TAF HEGN 221700Z 2218/2324 12012KT CAVOK"
    },
    {
      "icao": "HEMA",
      "alert": "OK",
      "vis_m": 9999,
      "fzfg": false,
      "metar_trigger": false,
      "taf_trigger": false,
      "metar": "METAR HEMA 222100Z 22005KT CAVOK 20/16 Q1012 NOSIG",
      "taf": "TAF HEMA 221700Z 2218/2324 15012KT CAVOK"
    },
    {
      "icao": "HESH",
      "alert": "OK",
      "vis_m": 9999,
      "fzfg": false,
      "metar_trigger": false,
      "taf_trigger": false,
      "metar": "METAR HESH 222100Z 36004KT CAVOK 21/13 Q1012 NOSIG",
      "taf": "TAF HESH 221700Z 2218/2324 35012KT CAVOK"
    },
    {
      "icao": "HESX",
      "alert": "OK",
      "vis_m": 9999,
      "fzfg": false,
      "metar_trigger": false,
      "taf_trigger": false,
      "metar": "METAR HESX 222100Z 27006KT CAVOK 14/06 Q1011 NOSIG",
      "taf": "TAF HESX 222100Z 2221/2324 22008KT 6000 SCT025 OVC070"
    },
    {
      "icao": "LATI",
      "alert": "OK",
      "vis_m": 6000,
      "fzfg": false,
      "metar_trigger": false,
      "taf_trigger": false,
      "metar": "METAR LATI 222150Z 11002KT 6000 FEW035 BKN065 08/07 Q1002 NOSIG",
      "taf": "TAF LATI 221700Z 2218/2318 VRB05KT 9999 SCT040 BKN070 TX14/2312Z TN05/2305Z"
    },
    {
      "icao": "LBPD",
      "alert": "OK",
      "vis_m": 9999,
      "fzfg": false,
      "metar_trigger": false,
      "taf_trigger": false,
      "metar": "METAR LBPD 222130Z AUTO 18002KT 9999 OVC016/// M00/M00 Q1004",
      "taf": "TAF LBPD 221700Z 2218/2318 VRB03KT 3000 BR SCT050"
    },
    {
      "icao": "LBSF",
      "alert": "OK",
      "vis_m": 7000,
      "fzfg": false,
      "metar_trigger": false,
      "taf_trigger": false,
      "metar": "METAR LBSF 222130Z AUTO 00000KT 7000 OVC017/// 01/M00 Q1003 TEMPO 4000 BR",
      "taf": "TAF LBSF 221700Z 2218/2318 VRB03KT 6000 SCT010 BKN015 OVC020"
    },
    {
      "icao": "LBWN",
      "alert": "OK",
      "vis_m": 6000,
      "fzfg": false,
      "metar_trigger": false,
      "taf_trigger": false,
      "metar": "METAR LBWN 222130Z AUTO 24003KT 220V300 6000 FEW030/// BKN040/// 03/03 Q1004 NOSIG",
      "taf": "TAF LBWN 221700Z 2218/2318 VRB04KT 8000 SCT015 BKN040"
    },
    {
      "icao": "LCLK",
      "alert": "OK",
      "vis_m": 8000,
      "fzfg": false,
      "metar_trigger": false,
      "taf_trigger": false,
      "metar": "METAR LCLK 222130Z 07023KT 8000 -RA SCT008 BKN020 BKN031 13/12 Q1010 NOSIG",
      "taf": "TAF LCLK 221730Z 2218/2318 04015KT 9999 SCT020"
    },
    {
      "icao": "LCPH",
      "alert": "OK",
      "vis_m": 9999,
      "fzfg": false,
      "metar_trigger": false,
      "taf_trigger": false,
      "metar": "METAR LCPH 222130Z 14012KT 090V180 9999 SCT030 BKN045 15/11 Q1009 NOSIG",
      "taf": "TAF LCPH 221730Z 2218/2318 13015KT 9999 SCT020"
    },
    {
      "icao": "LEAL",
      "alert": "OK",
      "vis_m": 9999,
      "fzfg": false,
      "metar_trigger": false,
      "taf_trigger": false,
      "metar": "METAR LEAL 222130Z 27008KT CAVOK 13/04 Q1005 NOSIG",
      "taf": ""
    },
    {
      "icao": "LEBB",
      "alert": "OK",
      "vis_m": 9999,
      "fzfg": false,
      "metar_trigger": false,
      "taf_trigger": false,
      "metar": "METAR LEBB 222130Z 17013G26KT 110V230 CAVOK 14/03 Q0992 NOSIG",
      "taf": "TAF LEBB 221700Z 2218/2318 20009KT 9999 FEW040 TX12/2218Z TN08/2307Z"
    },
    {
      "icao": "LEBL",
      "alert": "OK",
      "vis_m": 9999,
      "fzfg": false,
      "metar_trigger": false,
      "taf_trigger": false,
      "metar": "METAR LEBL 222130Z 33004KT 9999 FEW040 08/05 Q1001 NOSIG",
      "taf": "TAF LEBL 221700Z 2218/2318 34006KT 9999 FEW030 TX15/2313Z TN05/2303Z"
    },
    {
      "icao": "LECH",
      "alert": "OK",
      "vis_m": 9999,
      "fzfg": false,
      "metar_trigger": false,
      "taf_trigger": false,
      "metar": "METAR LECH 222130Z AUTO 19004KT CAVOK 08/M00 Q1002",
      "taf": ""
    },
    {
      "icao": "LEMD",
      "alert": "OK",
      "vis_m": 9999,
      "fzfg": false,
      "metar_trigger": false,
      "taf_trigger": false,
      "metar": "METAR LEMD 222130Z 17007KT 130V200 9999 -RA FEW015TCU BKN022 04/04 Q1003 NOSIG",
      "taf": ""
    },
    {
      "icao": "LEMG",
      "alert": "OK",
      "vis_m": 9999,
      "fzfg": false,
      "metar_trigger": false,
      "taf_trigger": false,
      "metar": "METAR LEMG 222130Z 24001KT 9999 -RA FEW030 BKN075 11/09 Q1009 NOSIG",
      "taf": "TAF LEMG 221700Z 2218/2318 VRB03KT 9999 SCT040 TX17/2314Z TN10/2307Z"
    },
    {
      "icao": "LEVC",
      "alert": "OK",
      "vis_m": 9999,
      "fzfg": false,
      "metar_trigger": false,
      "taf_trigger": false,
      "metar": "METAR LEVC 222130Z 23013KT 190V260 CAVOK 11/03 Q1004 NOSIG",
      "taf": "TAF LEVC 221700Z 2218/2318 27010KT 9999 SCT040 TX16/2313Z TN07/2305Z"
    },
    {
      "icao": "LEXJ",
      "alert": "OK",
      "vis_m": 9999,
      "fzfg": false,
      "metar_trigger": false,
      "taf_trigger": false,
      "metar": "METAR LEXJ 222130Z 20030G44KT 160V230 CAVOK 12/03 Q0989",
      "taf": "TAF LEXJ 222000Z 2221/2321 24009KT 9999 SCT040 TX14/2312Z TN08/2306Z"
    },
    {
      "icao": "LEZG",
      "alert": "OK",
      "vis_m": 9999,
      "fzfg": false,
      "metar_trigger": false,
      "taf_trigger": false,
      "metar": "METAR LEZG 222130Z 22003KT 090V260 CAVOK 08/02 Q1000 NOSIG",
      "taf": "TAF LEZG 221700Z 2218/2318 28008KT 9999 FEW040 TX13/2315Z TN05/2306Z"
    },
    {
      "icao": "LEZL",
      "alert": "OK",
      "vis_m": 8000,
      "fzfg": false,
      "metar_trigger": false,
      "taf_trigger": false,
      "metar": "METAR LEZL 222130Z 22014G24KT 8000 -RA BKN010 OVC015 14/13 Q1007 NOSIG",
      "taf": "TAF LEZL 222000Z 2221/2321 22012KT 9999 BKN025 TX15/2315Z TN08/2307Z"
    },
    {
      "icao": "LFBD",
      "alert": "OK",
      "vis_m": 9999,
      "fzfg": false,
      "metar_trigger": false,
      "taf_trigger": false,
      "metar": "METAR LFBD 222130Z AUTO 15010KT CAVOK 07/06 Q0993 NOSIG",
      "taf": "TAF LFBD 221700Z 2218/2324 19005KT CAVOK TX10/2314Z TN06/2223Z"
    },
    {
      "icao": "LFLL",
      "alert": "OK",
      "vis_m": 9999,
      "fzfg": false,
      "metar_trigger": false,
      "taf_trigger": false,
      "metar": "METAR LFLL 222130Z 15006KT CAVOK 06/04 Q0998 NOSIG",
      "taf": "TAF LFLL 221700Z 2218/2324 16005KT CAVOK"
    },
    {
      "icao": "LFLS",
      "alert": "OK",
      "vis_m": 4900,
      "fzfg": false,
      "metar_trigger": false,
      "taf_trigger": false,
      "metar": "METAR LFLS 222130Z AUTO 05006KT 4900 0800 R09/P2400 R27/1400D BCFG FEW004 BKN140 BKN220 02/02 Q0998",
      "taf": "TAF LFLS 221400Z 2215/2315 09004KT CAVOK"
    },
    {
      "icao": "LFMN",
      "alert": "OK",
      "vis_m": 9999,
      "fzfg": false,
      "metar_trigger": false,
      "taf_trigger": false,
      "metar": "METAR LFMN 222130Z 33006KT 9999 OVC046 08/06 Q1000 NOSIG",
      "taf": "TAF LFMN 222000Z 2221/2403 34010KT 9999 BKN050"
    },
    {
      "icao": "LFOB",
      "alert": "OK",
      "vis_m": 9999,
      "fzfg": false,
      "metar_trigger": false,
      "taf_trigger": false,
      "metar": "METAR LFOB 222130Z AUTO 14005KT 9999 FEW031 SCT140 05/04 Q0991 BECMG BKN007 OVC012",
      "taf": "TAF LFOB 221700Z 2218/2318 15010KT 9999 SCT025"
    },
    {
      "icao": "LFPO",
      "alert": "OK",
      "vis_m": 9999,
      "fzfg": false,
      "metar_trigger": false,
      "taf_trigger": false,
      "metar": "METAR LFPO 222130Z 19005KT CAVOK 07/06 Q0992 NOSIG",
      "taf": ""
    },
    {
      "icao": "LFSB",
      "alert": "OK",
      "vis_m": 9999,
      "fzfg": false,
      "metar_trigger": false,
      "taf_trigger": false,
      "metar": "METAR LFSB 222130Z AUTO 17005KT 9999 BKN045 OVC074 02/M00 Q0998 NOSIG",
      "taf": "TAF LFSB 221700Z 2218/2318 16005KT CAVOK"
    },
    {
      "icao": "LGAV",
      "alert": "OK",
      "vis_m": 9999,
      "fzfg": false,
      "metar_trigger": false,
      "taf_trigger": false,
      "metar": "METAR LGAV 222150Z VRB03KT 9999 SCT020 SCT040 11/09 Q1003 NOSIG",
      "taf": "TAF LGAV 221700Z 2218/2318 20010KT 9999 FEW015 SCT025 BKN070"
    },
    {
      "icao": "LGTS",
      "alert": "OK",
      "vis_m": 8000,
      "fzfg": false,
      "metar_trigger": false,
      "taf_trigger": false,
      "metar": "METAR LGTS 222120Z VRB03KT 8000 SCT010 SCT025 07/07 Q1004 NOSIG",
      "taf": "TAF LGTS 221700Z 2218/2318 VRB03KT 8000 FEW010 BKN030"
    },
    {
      "icao": "LHBP",
      "alert": "OK",
      "vis_m": 7000,
      "fzfg": false,
      "metar_trigger": false,
      "taf_trigger": false,
      "metar": "METAR LHBP 222130Z 35003KT 7000 -SN SCT031 BKN060 OVC090 M00/M02 Q1004 NOSIG",
      "taf": ""
    },
    {
      "icao": "LHDC",
      "alert": "OK",
      "vis_m": 6000,
      "fzfg": false,
      "metar_trigger": false,
      "taf_trigger": false,
      "metar": "METAR LHDC 222115Z AUTO 06003KT 6000 OVC047 00/M03 Q1004",
      "taf": "TAF LHDC 221415Z 2215/2224 03006KT 8000 OVC045"
    },
    {
      "icao": "LIBD",
      "alert": "OK",
      "vis_m": 9999,
      "fzfg": false,
      "metar_trigger": false,
      "taf_trigger": false,
      "metar": "METAR LIBD 222120Z VRB02KT 9999 FEW030 SCT040 10/09 Q1001",
      "taf": "TAF LIBD 221700Z 2218/2318 VRB05KT 9999 SCT030"
    },
    {
      "icao": "LIBG",
      "alert": "OK",
      "vis_m": null,
      "fzfg": false,
      "metar_trigger": false,
      "taf_trigger": false,
      "metar": "",
      "taf": "TAF LIBG 221700Z 2218/2303 VRB05KT 9999 SCT020"
    },
    {
      "icao": "LIBP",
      "alert": "OK",
      "vis_m": 8000,
      "fzfg": false,
      "metar_trigger": false,
      "taf_trigger": false,
      "metar": "METAR LIBP 222150Z AUTO VRB01KT 8000 OVC026/// 09/08 Q1002",
      "taf": "TAF LIBP 221700Z 2218/2318 VRB05KT 9999 BKN020"
    },
    {
      "icao": "LIBR",
      "alert": "OK",
      "vis_m": 9999,
      "fzfg": false,
      "metar_trigger": false,
      "taf_trigger": false,
      "metar": "METAR LIBR 222120Z 25005KT 9999 SCT025 09/08 Q1001",
      "taf": "TAF LIBR 221700Z 2218/2318 VRB05KT 9999 FEW020"
    },
    {
      "icao": "LICA",
      "alert": "OK",
      "vis_m": 9999,
      "fzfg": false,
      "metar_trigger": false,
      "taf_trigger": false,
      "metar": "METAR LICA 222150Z AUTO VRB02KT 9999 BKN023/// 11/10 Q1002",
      "taf": "TAF LICA 221700Z 2218/2318 VRB05KT 9999 BKN020"
    },
    {
      "icao": "LICC",
      "alert": "OK",
      "vis_m": 9999,
      "fzfg": false,
      "metar_trigger": false,
      "taf_trigger": false,
      "metar": "METAR LICC 222120Z 25007KT 9999 FEW050 08/06 Q1002",
      "taf": "TAF LICC 221700Z 2218/2318 26008KT 7000 SCT030"
    },
    {
      "icao": "LICJ",
      "alert": "OK",
      "vis_m": 9999,
      "fzfg": false,
      "metar_trigger": false,
      "taf_trigger": false,
      "metar": "METAR LICJ 222120Z 20004KT CAVOK 12/07 Q1001",
      "taf": "TAF LICJ 221700Z 2218/2318 16008KT 9999 FEW030"
    },
    {
      "icao": "LIMC",
      "alert": "CRITICAL",
      "vis_m": 100,
      "fzfg": true,
      "metar_trigger": true,
      "taf_trigger": false,
      "metar": "METAR LIMC 222150Z VRB01KT 0100 R35R/0450N R17L/0650U R35L/0450N FZFG VV001 M00/M00 Q1001 NOSIG",
      "taf": ""
    },
    {
      "icao": "LIME",
      "alert": "OK",
      "vis_m": 7000,
      "fzfg": false,
      "metar_trigger": false,
      "taf_trigger": false,
      "metar": "METAR LIME 222150Z VRB01KT 7000 1500S VCFG NSC M01/M01 Q1001 NOSIG",
      "taf": ""
    },
    {
      "icao": "LIMF",
      "alert": "OK",
      "vis_m": 800,
      "fzfg": false,
      "metar_trigger": false,
      "taf_trigger": false,
      "metar": "METAR LIMF 222150Z 34003KT 0800 R36/1800U FG SCT140 01/M01 Q1001",
      "taf": "TAF LIMF 221700Z 2218/2318 VRB04KT 4000 BR NSC"
    },
    {
      "icao": "LIMJ",
      "alert": "OK",
      "vis_m": 9999,
      "fzfg": false,
      "metar_trigger": false,
      "taf_trigger": false,
      "metar": "METAR LIMJ 222150Z 05015KT 9999 BKN055 08/M00 Q1000",
      "taf": "TAF LIMJ 221700Z 2218/2318 03014KT 9999 FEW040"
    },
    {
      "icao": "LIPE",
      "alert": "OK",
      "vis_m": 7000,
      "fzfg": false,
      "metar_trigger": false,
      "taf_trigger": false,
      "metar": "METAR LIPE 222120Z 22004KT 7000 NSC 02/00 Q1002",
      "taf": "TAF LIPE 221700Z 2218/2318 VRB05KT 7000 BKN030"
    },
    {
      "icao": "LIPH",
      "alert": "OK",
      "vis_m": 9999,
      "fzfg": false,
      "metar_trigger": false,
      "taf_trigger": false,
      "metar": "METAR LIPH 222120Z 01002KT 9999 BKN050 03/M03 Q1001",
      "taf": "TAF LIPH 221700Z 2218/2318 VRB05KT 9999 SCT060"
    },
    {
      "icao": "LIPQ",
      "alert": "OK",
      "vis_m": 9999,
      "fzfg": false,
      "metar_trigger": false,
      "taf_trigger": false,
      "metar": "METAR LIPQ 222120Z AUTO VRB01KT 9999 FEW052/// M00/M03 Q1002",
      "taf": "TAF LIPQ 221700Z 2218/2318 VRB05KT 9999 BKN050"
    },
    {
      "icao": "LIPR",
      "alert": "OK",
      "vis_m": 7000,
      "fzfg": false,
      "metar_trigger": false,
      "taf_trigger": false,
      "metar": "METAR LIPR 222120Z VRB01KT 7000 BKN019 05/03 Q1002",
      "taf": "TAF LIPR 221700Z 2218/2318 VRB05KT 9999 BKN020"
    },
    {
      "icao": "LIPX",
      "alert": "OK",
      "vis_m": 9999,
      "fzfg": false,
      "metar_trigger": false,
      "taf_trigger": false,
      "metar": "METAR LIPX 222120Z 21003KT 9999 4000SW NSC M01/M01 Q1002",
      "taf": "TAF LIPX 221700Z 2218/2318 VRB04KT 6000 SCT050"
    },
    {
      "icao": "LIPY",
      "alert": "OK",
      "vis_m": 9999,
      "fzfg": false,
      "metar_trigger": false,
      "taf_trigger": false,
      "metar": "METAR LIPY 222150Z AUTO 22002KT 9999 OVC021/// 06/03 Q1002",
      "taf": "TAF LIPY 221700Z 2218/2318 28006KT 9999 SCT030"
    },
    {
      "icao": "LIPZ",
      "alert": "OK",
      "vis_m": 9999,
      "fzfg": false,
      "metar_trigger": false,
      "taf_trigger": false,
      "metar": "METAR LIPZ 222120Z VRB01KT 9999 BKN045 04/01 Q1002 NOSIG",
      "taf": "TAF LIPZ 221700Z 2218/2324 VRB05KT 9999 SCT050"
    },
    {
      "icao": "LIRF",
      "alert": "OK",
      "vis_m": 9999,
      "fzfg": false,
      "metar_trigger": false,
      "taf_trigger": false,
      "metar": "METAR LIRF 222150Z 08007KT CAVOK 05/04 Q1001 NOSIG",
      "taf": "TAF LIRF 221700Z 2218/2324 VRB05KT 9999 FEW040"
    },
    {
      "icao": "LIRN",
      "alert": "OK",
      "vis_m": 9999,
      "fzfg": false,
      "metar_trigger": false,
      "taf_trigger": false,
      "metar": "METAR LIRN 222150Z VRB02KT 9999 SCT040 10/07 Q1001 NOSIG",
      "taf": "TAF LIRN 221700Z 2218/2318 VRB05KT 9999 SCT050"
    },
    {
      "icao": "LIRP",
      "alert": "OK",
      "vis_m": 9999,
      "fzfg": false,
      "metar_trigger": false,
      "taf_trigger": false,
      "metar": "METAR LIRP 222145Z 12003KT 9999 SCT080 05/05 Q1000 NOSIG",
      "taf": "TAF LIRP 221700Z 2218/2318 VRB03KT CAVOK"
    },
    {
      "icao": "LIRZ",
      "alert": "OK",
      "vis_m": 9999,
      "fzfg": false,
      "metar_trigger": false,
      "taf_trigger": false,
      "metar": "METAR LIRZ 222150Z AUTO 01003KT 9999 OVC045/// 06/05 Q1001",
      "taf": "TAF LIRZ 221700Z 2218/2318 VRB05KT 9999 BKN045"
    },
    {
      "icao": "LJLJ",
      "alert": "OK",
      "vis_m": 9999,
      "fzfg": false,
      "metar_trigger": false,
      "taf_trigger": false,
      "metar": "METAR LJLJ 222130Z VRB01KT 9999 SCT045 M06/M07 Q1002 NOSIG",
      "taf": "TAF LJLJ 221700Z 2218/2318 12003KT 9999 FEW050"
    },
    {
      "icao": "LKMT",
      "alert": "OK",
      "vis_m": 9000,
      "fzfg": false,
      "metar_trigger": false,
      "taf_trigger": false,
      "metar": "METAR LKMT 222130Z 23003KT 180V250 9000 OVC048 M02/M04 Q1003 NOSIG",
      "taf": "TAF LKMT 221700Z 2218/2318 VRB02KT 9999 SCT025 OVC035"
    },
    {
      "icao": "LKPR",
      "alert": "OK",
      "vis_m": 9000,
      "fzfg": false,
      "metar_trigger": false,
      "taf_trigger": false,
      "metar": "METAR LKPR 222130Z 16005KT 9000 OVC014 M06/M09 Q1001 NOSIG",
      "taf": "TAF LKPR 222000Z 2221/2403 14005KT 9999 BKN017"
    },
    {
      "icao": "LLBG",
      "alert": "OK",
      "vis_m": 9999,
      "fzfg": false,
      "metar_trigger": false,
      "taf_trigger": false,
      "metar": "METAR LLBG 222150Z 03004KT 340V090 9999 -RA FEW050 18/09 Q1009 NOSIG RMK BKN100",
      "taf": "TAF LLBG 221706Z 2218/2318 13010KT CAVOK"
    },
    {
      "icao": "LMML",
      "alert": "OK",
      "vis_m": 9999,
      "fzfg": false,
      "metar_trigger": false,
      "taf_trigger": false,
      "metar": "METAR LMML 222145Z 23012KT 200V260 9999 FEW020TCU BKN030 13/11 Q1002 RESHRA NOSIG",
      "taf": "TAF LMML 221700Z 2218/2318 24015KT 9999 FEW025"
    },
    {
      "icao": "LOWW",
      "alert": "OK",
      "vis_m": 6000,
      "fzfg": false,
      "metar_trigger": false,
      "taf_trigger": false,
      "metar": "METAR LOWW 222120Z 13005KT 6000 BKN010 M04/M06 Q1003 TEMPO 4500 BR BECMG BKN009",
      "taf": "TAF LOWW 222015Z 2221/2403 13005KT 6000 OVC010 TXM00/2323Z TNM06/2303Z"
    },
    {
      "icao": "LPFR",
      "alert": "OK",
      "vis_m": 9000,
      "fzfg": false,
      "metar_trigger": false,
      "taf_trigger": false,
      "metar": "METAR LPFR 222130Z 24019KT 9000 BKN007 BKN012 15/15 Q1007",
      "taf": ""
    },
    {
      "icao": "LPMA",
      "alert": "OK",
      "vis_m": 9999,
      "fzfg": false,
      "metar_trigger": false,
      "taf_trigger": false,
      "metar": "METAR LPMA 222130Z 27006KT 9999 FEW015 17/12 Q1017",
      "taf": "TAF LPMA 221700Z 2218/2318 VRB05KT 9999 SCT015"
    },
    {
      "icao": "LPPR",
      "alert": "OK",
      "vis_m": 9000,
      "fzfg": false,
      "metar_trigger": false,
      "taf_trigger": false,
      "metar": "METAR LPPR 222130Z 29014G25KT 250V320 9000 FEW017 BKN038 13/07 Q0999",
      "taf": "TAF LPPR 221700Z 2218/2318 17018KT 2000 RADZ BR SCT002 BKN004"
    },
    {
      "icao": "LPPS",
      "alert": "OK",
      "vis_m": 9999,
      "fzfg": false,
      "metar_trigger": false,
      "taf_trigger": false,
      "metar": "METAR LPPS 222130Z 28016KT 9999 FEW014 18/15 Q1017",
      "taf": "TAF LPPS 221700Z 2218/2324 30015KT 9999 SCT015 SCT030"
    },
    {
      "icao": "LPPT",
      "alert": "OK",
      "vis_m": 9000,
      "fzfg": false,
      "metar_trigger": false,
      "taf_trigger": false,
      "metar": "METAR LPPT 222130Z 26015KT 9000 -RA FEW010 BKN014 15/14 Q1003",
      "taf": "TAF LPPT 221700Z 2218/2324 22015KT 5000 -RADZ BR SCT006 BKN012"
    },
    {
      "icao": "LQBK",
      "alert": "OK",
      "vis_m": 7000,
      "fzfg": false,
      "metar_trigger": false,
      "taf_trigger": false,
      "metar": "METAR LQBK 222130Z 34001KT 7000 -FZRA BKN045 M01/M02 Q1004 BECMG NSW",
      "taf": "TAF LQBK 221700Z 2218/2318 VRB02KT 7000 SCT045 TX03/2313Z TNM02/2224Z"
    },
    {
      "icao": "LQSA",
      "alert": "OK",
      "vis_m": 2000,
      "fzfg": false,
      "metar_trigger": false,
      "taf_trigger": false,
      "metar": "METAR LQSA 222130Z 14001KT 2000 BR SCT045 M01/M01 Q1002 NOSIG",
      "taf": "TAF LQSA 221700Z 2218/2318 VRB02KT 4000 BR FEW010 SCT045 TX04/2314Z TNM02/2305Z"
    },
    {
      "icao": "LQTZ",
      "alert": "OK",
      "vis_m": 1600,
      "fzfg": false,
      "metar_trigger": false,
      "taf_trigger": false,
      "metar": "METAR LQTZ 222130Z 00000KT 1600 R09/1200U BR BKN058 M01/M01 Q1002",
      "taf": "TAF LQTZ 221700Z 2218/2318 VRB02KT 6000 FEW005 BKN040 TX05/2313Z TNM03/2303Z"
    },
    {
      "icao": "LRBC",
      "alert": "OK",
      "vis_m": 6000,
      "fzfg": false,
      "metar_trigger": false,
      "taf_trigger": false,
      "metar": "METAR LRBC 222130Z 16009KT 6000 -RA OVC004 02/01 Q1006",
      "taf": "TAF LRBC 222000Z 2221/2306 16006KT 1500 -RA BR BKN005 OVC020"
    },
    {
      "icao": "LRBS",
      "alert": "OK",
      "vis_m": 800,
      "fzfg": false,
      "metar_trigger": false,
      "taf_trigger": false,
      "metar": "METAR LRBS 222130Z 22004KT 0800 R07/1700N -RA FG OVC001 01/00 Q1005 NOSIG",
      "taf": "TAF LRBS 221700Z 2218/2318 VRB04KT 0800 FG OVC002"
    },
    {
      "icao": "LRBV",
      "alert": "OK",
      "vis_m": 5000,
      "fzfg": false,
      "metar_trigger": false,
      "taf_trigger": false,
      "metar": "METAR LRBV 222130Z AUTO 22002KT 5000 BR VV004 00/00 Q1002 REUP",
      "taf": ""
    },
    {
      "icao": "LRCL",
      "alert": "OK",
      "vis_m": 1500,
      "fzfg": false,
      "metar_trigger": false,
      "taf_trigger": false,
      "metar": "METAR LRCL 222130Z 00000KT 1500 -SN BR OVC019 M01/M02 Q1004",
      "taf": "TAF LRCL 222000Z 2221/2306 VRB04KT 3000 -SN BR BKN010 OVC030"
    },
    {
      "icao": "LRCV",
      "alert": "OK",
      "vis_m": 250,
      "fzfg": true,
      "metar_trigger": false,
      "taf_trigger": false,
      "metar": "METAR LRCV 222130Z 22003KT 0250 R26/0275N FG VV001 00/00 Q1005",
      "taf": "TAF LRCV 222000Z 2221/2306 VRB04KT 0350 FZFG VV002"
    },
    {
      "icao": "LRIA",
      "alert": "OK",
      "vis_m": 9999,
      "fzfg": false,
      "metar_trigger": false,
      "taf_trigger": false,
      "metar": "METAR LRIA 222130Z 11012KT 9999 -RA BKN008 OVC013 01/M01 Q1007",
      "taf": "TAF LRIA 222000Z 2221/2306 11010KT 9999 BKN010 OVC020"
    },
    {
      "icao": "LROP",
      "alert": "OK",
      "vis_m": 600,
      "fzfg": false,
      "metar_trigger": false,
      "taf_trigger": false,
      "metar": "METAR LROP 222130Z 00000KT 0600 R08R/0750N R08L/0750N -RA FG OVC001 01/01 Q1005 NOSIG",
      "taf": "TAF LROP 221700Z 2218/2318 VRB04KT 0800 FG OVC002"
    },
    {
      "icao": "LRSB",
      "alert": "OK",
      "vis_m": 8000,
      "fzfg": false,
      "metar_trigger": false,
      "taf_trigger": false,
      "metar": "METAR LRSB 222130Z 30002KT 8000 SCT022 BKN038 M01/M03 Q1003",
      "taf": "TAF LRSB 221700Z 2218/2318 VRB04KT 9999 BKN070"
    },
    {
      "icao": "LRSM",
      "alert": "OK",
      "vis_m": 6000,
      "fzfg": false,
      "metar_trigger": false,
      "taf_trigger": false,
      "metar": "METAR LRSM 222130Z AUTO 00000KT 6000 SCT037/// BKN085/// M00/M03 Q1004",
      "taf": "TAF LRSM 221400Z 2215/2224 VRB04KT CAVOK"
    },
    {
      "icao": "LRSV",
      "alert": "OK",
      "vis_m": 200,
      "fzfg": true,
      "metar_trigger": false,
      "taf_trigger": false,
      "metar": "METAR LRSV 222130Z 09006KT 0200 R34/0550N -SN FZFG VV002 M00/M00 Q1004",
      "taf": "TAF LRSV 222000Z 2221/2306 12006KT 0200 -SN FG BKN001 OVC005"
    },
    {
      "icao": "LRTM",
      "alert": "OK",
      "vis_m": 2000,
      "fzfg": false,
      "metar_trigger": false,
      "taf_trigger": false,
      "metar": "METAR LRTM 222130Z AUTO 25003KT 2000 -SN BR FEW009/// BKN026/// BKN032/// M02/M03 Q1004",
      "taf": "TAF LRTM 221400Z 2215/2224 VRB04KT 3000 -SN BR BKN040"
    },
    {
      "icao": "LRTR",
      "alert": "OK",
      "vis_m": 5000,
      "fzfg": false,
      "metar_trigger": false,
      "taf_trigger": false,
      "metar": "METAR LRTR 222130Z 10003KT 5000 BR BKN042 00/M01 Q1004 NOSIG",
      "taf": "TAF LRTR 221700Z 2218/2318 VRB04KT 9999 OVC045"
    },
    {
      "icao": "LTAC",
      "alert": "OK",
      "vis_m": 4800,
      "fzfg": false,
      "metar_trigger": false,
      "taf_trigger": false,
      "metar": "METAR LTAC 222120Z 02005KT 4800 BR FEW013 BKN025 BKN080 M01/M01 Q1008 RESN BECMG 6000 RMK RWY21C 01002KT RWY03L 01004KT RWY21R 35003KT RWY03R 33003KT 300V010 RWY21L 02002KT",
      "taf": "TAF LTAC 221640Z 2218/2318 VRB02KT 9999 SCT035 BKN090"
    },
    {
      "icao": "LTFM",
      "alert": "OK",
      "vis_m": 9999,
      "fzfg": false,
      "metar_trigger": false,
      "taf_trigger": false,
      "metar": "METAR LTFM 222120Z 20009KT 9999 -SHRA SCT040 BKN100 09/07 Q1003 NOSIG RMK RWY17L 20010KT RWY34L 20009KT RWY16R 21008KT RWY36 20009KT RWY18 21013KT",
      "taf": "TAF LTFM 221640Z 2218/2324 20010KT 9999 SCT040 BKN100"
    },
    {
      "icao": "LUKK",
      "alert": "OK",
      "vis_m": 9999,
      "fzfg": false,
      "metar_trigger": false,
      "taf_trigger": false,
      "metar": "METAR LUKK 222130Z 09009KT 9999 OVC006 M01/M02 Q1008 TEMPO OVC005",
      "taf": "TAF LUKK 221721Z 2218/2318 09008KT 9999 BKN008 OVC015"
    },
    {
      "icao": "LWOH",
      "alert": "OK",
      "vis_m": null,
      "fzfg": false,
      "metar_trigger": false,
      "taf_trigger": false,
      "metar": "",
      "taf": "TAF LWOH 222035Z 2221/2321 VRB02KT 9999 BKN040"
    },
    {
      "icao": "LWSK",
      "alert": "OK",
      "vis_m": 4000,
      "fzfg": false,
      "metar_trigger": false,
      "taf_trigger": false,
      "metar": "METAR LWSK 222150Z 00000KT 4000 BR BKN034 00/M00 Q1005 NOSIG",
      "taf": "TAF LWSK 222035Z 2221/2321 VRB02KT 4000 BR BKN030"
    },
    {
      "icao": "LYBE",
      "alert": "OK",
      "vis_m": 4000,
      "fzfg": false,
      "metar_trigger": false,
      "taf_trigger": false,
      "metar": "METAR LYBE 222130Z 30001KT 4000 BR NSC M02/M03 Q1004 TEMPO 2500",
      "taf": ""
    },
    {
      "icao": "LYNI",
      "alert": "OK",
      "vis_m": 9999,
      "fzfg": false,
      "metar_trigger": false,
      "taf_trigger": false,
      "metar": "METAR LYNI 222130Z 10002KT CAVOK 01/M01 Q1003 NOSIG",
      "taf": "TAF LYNI 221700Z 2218/2318 09007KT 9999 SCT050 BKN090 TX10/2313Z TNM01/2305Z"
    },
    {
      "icao": "LYPG",
      "alert": "OK",
      "vis_m": 9000,
      "fzfg": false,
      "metar_trigger": false,
      "taf_trigger": false,
      "metar": "METAR LYPG 222130Z 00000KT 9000 FEW014 BKN034 OVC070 07/06 Q1002 NOSIG",
      "taf": "TAF LYPG 221700Z 2218/2318 16006KT 9999 FEW013 BKN040 OVC080 TX12/2313Z TN05/2305Z"
    },
    {
      "icao": "LZIB",
      "alert": "OK",
      "vis_m": 4200,
      "fzfg": false,
      "metar_trigger": false,
      "taf_trigger": false,
      "metar": "METAR LZIB 222130Z 03003KT 4200 BR FEW007 BKN020 M04/M05 Q1004 TEMPO BKN008",
      "taf": ""
    },
    {
      "icao": "LZKZ",
      "alert": "OK",
      "vis_m": 4500,
      "fzfg": false,
      "metar_trigger": false,
      "taf_trigger": false,
      "metar": "METAR LZKZ 222130Z 00000KT 4500 -SN BR FEW018 M01/M02 Q1004 NOSIG",
      "taf": "TAF LZKZ 221715Z 2218/2318 VRB02KT 9999 SCT045"
    },
    {
      "icao": "LZTT",
      "alert": "OK",
      "vis_m": 3500,
      "fzfg": false,
      "metar_trigger": false,
      "taf_trigger": false,
      "metar": "METAR LZTT 222130Z 05002KT 3500 -SN BR OVC013 M02/M03 Q1001",
      "taf": "TAF LZTT 221715Z 2218/2318 VRB02KT 6000 SCT009 BKN030"
    },
    {
      "icao": "OEJN",
      "alert": "OK",
      "vis_m": 9999,
      "fzfg": false,
      "metar_trigger": false,
      "taf_trigger": false,
      "metar": "METAR OEJN 222100Z 12004KT CAVOK 26/20 Q1012 NOSIG",
      "taf": "TAF OEJN 221700Z 2218/2324 13004KT 7000 FEW030"
    },
    {
      "icao": "OEMA",
      "alert": "OK",
      "vis_m": 9999,
      "fzfg": false,
      "metar_trigger": false,
      "taf_trigger": false,
      "metar": "METAR OEMA 222100Z 10010KT CAVOK 19/M04 Q1020 NOSIG",
      "taf": "TAF OEMA 221700Z 2218/2324 09014KT 7000 NSC"
    },
    {
      "icao": "OJAI",
      "alert": "OK",
      "vis_m": 3000,
      "fzfg": false,
      "metar_trigger": false,
      "taf_trigger": false,
      "metar": "METAR OJAI 222100Z 08005KT 3000 HZ NSC 11/M04 Q1013 NOSIG",
      "taf": "TAF OJAI 221700Z 2218/2324 18012KT 3000 HZ SCT035"
    },
    {
      "icao": "OMAA",
      "alert": "OK",
      "vis_m": 9999,
      "fzfg": false,
      "metar_trigger": false,
      "taf_trigger": false,
      "metar": "METAR OMAA 222130Z 05004KT CAVOK 15/02 Q1021 NOSIG",
      "taf": "TAF OMAA 221700Z 2218/2400 04006KT 8000 NSC"
    },
    {
      "icao": "OMDB",
      "alert": "OK",
      "vis_m": 9999,
      "fzfg": false,
      "metar_trigger": false,
      "taf_trigger": false,
      "metar": "METAR OMDB 222130Z 07007KT CAVOK 15/01 Q1022 NOSIG",
      "taf": "TAF OMDB 221700Z 2218/2400 06006KT 8000 NSC"
    },
    {
      "icao": "UAAA",
      "alert": "OK",
      "vis_m": 5000,
      "fzfg": false,
      "metar_trigger": false,
      "taf_trigger": false,
      "metar": "METAR UAAA 222130Z 21004MPS 5000 -SHSN BR BKN034CB OVC100 M02/M05 Q1020 NOSIG",
      "taf": "TAF UAAA 221701Z 2218/2318 32003MPS 3100 -SHSN BR BKN011CB OVC050 TXM04/2308Z TNM10/2302Z"
    },
    {
      "icao": "UBBB",
      "alert": "OK",
      "vis_m": 9999,
      "fzfg": false,
      "metar_trigger": false,
      "taf_trigger": false,
      "metar": "METAR UBBB 222130Z 30004KT CAVOK 03/M00 Q1014 NOSIG",
      "taf": "TAF UBBB 221702Z 2218/2318 16006KT CAVOK TX07/2310Z TNM01/2300Z"
    },
    {
      "icao": "UDSG",
      "alert": "OK",
      "vis_m": 9000,
      "fzfg": false,
      "metar_trigger": false,
      "taf_trigger": false,
      "metar": "METAR UDSG 222130Z 33001KT 9000 SCT046 M12/M14 Q1016 NOSIG",
      "taf": "TAF UDSG 221658Z 2218/2318 VRB06KT 9999 BKN040"
    },
    {
      "icao": "UDYZ",
      "alert": "OK",
      "vis_m": 7000,
      "fzfg": false,
      "metar_trigger": false,
      "taf_trigger": false,
      "metar": "METAR UDYZ 222130Z VRB01KT 7000 FEW046 M05/M09 Q1020 NOSIG",
      "taf": "TAF UDYZ 221700Z 2218/2318 VRB04KT 9999 FEW040"
    },
    {
      "icao": "UGKO",
      "alert": "OK",
      "vis_m": 9999,
      "fzfg": false,
      "metar_trigger": false,
      "taf_trigger": false,
      "metar": "METAR UGKO 222130Z 10014KT 9999 SCT087 07/M06 Q1010 NOSIG",
      "taf": "TAF UGKO 221700Z 2218/2318 08017KT CAVOK TX09/2311Z TN05/2303Z"
    }
  ]
}