{
  "ts_utc": "2026-02-28T15:53:49Z",
  "threshold_m": 150,
  "source": "stations_override.txt (ICAO list) + aviationweather.gov (METAR/TAF raw)",
  "station_count": 159,
  "stations": [
    {
      "icao": "BIKF",
      "alert": "OK",
      "vis_m": 9999,
      "fzfg": false,
      "metar_trigger": false,
      "taf_trigger": false,
      "metar": "METAR BIKF 281530Z 14007KT 9999 -RASN SCT025 BKN047 00/M01 Q1002",
      "taf": "TAF BIKF 281350Z 2815/0115 16008KT 9999 FEW020 BKN040 TX01/2815Z TNM02/0109Z"
    },
    {
      "icao": "BKPR",
      "alert": "OK",
      "vis_m": null,
      "fzfg": false,
      "metar_trigger": false,
      "taf_trigger": false,
      "metar": "",
      "taf": "TAF BKPR 281130Z 2812/0112 17008KT CAVOK"
    },
    {
      "icao": "EBCI",
      "alert": "OK",
      "vis_m": 9999,
      "fzfg": false,
      "metar_trigger": false,
      "taf_trigger": false,
      "metar": "METAR EBCI 281520Z 25012KT 9999 SCT020 09/06 Q1020 TEMPO 21022G35KT",
      "taf": "TAF EBCI 281110Z 2812/0118 20014KT 9999 SCT018 BKN025"
    },
    {
      "icao": "EDDB",
      "alert": "OK",
      "vis_m": 9999,
      "fzfg": false,
      "metar_trigger": false,
      "taf_trigger": false,
      "metar": "METAR EDDB 281520Z AUTO 21008KT CAVOK 18/07 Q1017 NOSIG",
      "taf": "TAF EDDB 281100Z 2812/0112 22009KT CAVOK"
    },
    {
      "icao": "EDDH",
      "alert": "OK",
      "vis_m": 9999,
      "fzfg": false,
      "metar_trigger": false,
      "taf_trigger": false,
      "metar": "METAR EDDH 281520Z AUTO 22015KT CAVOK 14/05 Q1014 NOSIG",
      "taf": "TAF EDDH 281100Z 2812/0118 22011KT 9999 SCT030"
    },
    {
      "icao": "EDDK",
      "alert": "OK",
      "vis_m": 9999,
      "fzfg": false,
      "metar_trigger": false,
      "taf_trigger": false,
      "metar": "METAR EDDK 281520Z AUTO 23016KT 9999 SCT049 12/03 Q1020 TEMPO 23020G35KT",
      "taf": "TAF EDDK 281100Z 2812/0118 23015G25KT 9999 BKN040"
    },
    {
      "icao": "EDDN",
      "alert": "OK",
      "vis_m": 9999,
      "fzfg": false,
      "metar_trigger": false,
      "taf_trigger": false,
      "metar": "METAR EDDN 281520Z AUTO 28007KT 9999 SCT042 14/06 Q1021 NOSIG",
      "taf": "TAF EDDN 281100Z 2812/0112 26008KT CAVOK"
    },
    {
      "icao": "EDDS",
      "alert": "OK",
      "vis_m": 9999,
      "fzfg": false,
      "metar_trigger": false,
      "taf_trigger": false,
      "metar": "METAR EDDS 281520Z AUTO 25009KT 220V280 9999 BKN034 13/06 Q1022 NOSIG",
      "taf": "TAF EDDS 281100Z 2812/0112 24007KT 9999 FEW040"
    },
    {
      "icao": "EDFH",
      "alert": "OK",
      "vis_m": 9999,
      "fzfg": false,
      "metar_trigger": false,
      "taf_trigger": false,
      "metar": "METAR EDFH 281520Z 24014G24KT 200V270 9999 FEW026 SCT033 BKN044 09/02 Q1021",
      "taf": "TAF EDFH 281100Z 2812/0112 24015KT 9999 SCT025 BKN030"
    },
    {
      "icao": "EDJA",
      "alert": "OK",
      "vis_m": 9999,
      "fzfg": false,
      "metar_trigger": false,
      "taf_trigger": false,
      "metar": "METAR EDJA 281520Z 26010KT 9999 FEW031 12/06 Q1022",
      "taf": "TAF EDJA 281400Z 2815/2824 23010KT 9999 SCT035"
    },
    {
      "icao": "EDLW",
      "alert": "OK",
      "vis_m": 9999,
      "fzfg": false,
      "metar_trigger": false,
      "taf_trigger": false,
      "metar": "METAR EDLW 281520Z 23023G34KT CAVOK 12/02 Q1017",
      "taf": "TAF EDLW 281100Z 2812/0112 22015G25KT 9999 BKN035"
    },
    {
      "icao": "EDNY",
      "alert": "OK",
      "vis_m": 9999,
      "fzfg": false,
      "metar_trigger": false,
      "taf_trigger": false,
      "metar": "METAR EDNY 281520Z 25009KT 9999 BKN058 13/06 Q1023",
      "taf": "TAF EDNY 281400Z 2815/2824 26007KT 9999 SCT035"
    },
    {
      "icao": "EDSB",
      "alert": "OK",
      "vis_m": 9999,
      "fzfg": false,
      "metar_trigger": false,
      "taf_trigger": false,
      "metar": "METAR EDSB 281520Z 20008KT CAVOK 12/05 Q1023",
      "taf": "TAF EDSB 281100Z 2812/0112 23010KT 9999 FEW040"
    },
    {
      "icao": "EETN",
      "alert": "OK",
      "vis_m": 9999,
      "fzfg": false,
      "metar_trigger": false,
      "taf_trigger": false,
      "metar": "METAR EETN 281550Z 24004KT 9999 OVC006 02/02 Q1016 TEMPO OVC004",
      "taf": "TAF EETN 281130Z 2812/0112 25008KT 4000 BR BKN003 OVC006"
    },
    {
      "icao": "EFTU",
      "alert": "OK",
      "vis_m": 9999,
      "fzfg": false,
      "metar_trigger": false,
      "taf_trigger": false,
      "metar": "METAR EFTU 281550Z AUTO 24004KT 210V280 9999 OVC002 01/01 Q1015",
      "taf": "TAF EFTU 281431Z 2815/0115 25005KT 9999 OVC003"
    },
    {
      "icao": "EGBB",
      "alert": "OK",
      "vis_m": 9999,
      "fzfg": false,
      "metar_trigger": false,
      "taf_trigger": false,
      "metar": "METAR EGBB 281520Z 27008KT 230V300 9999 SCT043 09/M01 Q1017",
      "taf": "TAF EGBB 281054Z 2812/0112 30010KT 9999 SCT025"
    },
    {
      "icao": "EGGP",
      "alert": "OK",
      "vis_m": 9999,
      "fzfg": false,
      "metar_trigger": false,
      "taf_trigger": false,
      "metar": "METAR EGGP 281520Z 27009KT 9999 SCT022 08/M01 Q1017",
      "taf": "TAF EGGP 281057Z 2812/0112 28013KT 9999 SCT020"
    },
    {
      "icao": "EGGW",
      "alert": "OK",
      "vis_m": 9999,
      "fzfg": false,
      "metar_trigger": false,
      "taf_trigger": false,
      "metar": "METAR EGGW 281520Z AUTO 28010KT 9999 NCD 08/03 Q1018",
      "taf": "TAF EGGW 281102Z 2812/0112 29012KT 9999 FEW012 SCT030"
    },
    {
      "icao": "EGKK",
      "alert": "OK",
      "vis_m": 9999,
      "fzfg": false,
      "metar_trigger": false,
      "taf_trigger": false,
      "metar": "METAR EGKK 281520Z 25011KT 9999 FEW048 10/01 Q1019",
      "taf": "TAF EGKK 281054Z 2812/0118 28015KT 9999 FEW018 SCT025"
    },
    {
      "icao": "EGNM",
      "alert": "OK",
      "vis_m": 9999,
      "fzfg": false,
      "metar_trigger": false,
      "taf_trigger": false,
      "metar": "METAR EGNM 281520Z 25008KT 9999 -SHRA FEW030 SCT045 05/03 Q1015",
      "taf": "TAF EGNM 281057Z 2812/0112 34006KT 9999 SCT016"
    },
    {
      "icao": "EGPD",
      "alert": "OK",
      "vis_m": 9999,
      "fzfg": false,
      "metar_trigger": false,
      "taf_trigger": false,
      "metar": "METAR EGPD 281520Z COR AUTO 15010KT 9999 NCD 06/M02 Q1013 NOSIG",
      "taf": ""
    },
    {
      "icao": "EGPF",
      "alert": "OK",
      "vis_m": 9999,
      "fzfg": false,
      "metar_trigger": false,
      "taf_trigger": false,
      "metar": "METAR EGPF 281520Z AUTO 21010KT 9999 SCT044 07/M01 Q1014",
      "taf": ""
    },
    {
      "icao": "EHBK",
      "alert": "OK",
      "vis_m": 9999,
      "fzfg": false,
      "metar_trigger": false,
      "taf_trigger": false,
      "metar": "METAR EHBK 281525Z AUTO 23019KT 9999 SCT032/// OVC037/// 09/06 Q1019 TEMPO 23020G30KT",
      "taf": "TAF EHBK 281101Z 2812/0118 22022G34KT 9999 BKN035"
    },
    {
      "icao": "EHEH",
      "alert": "OK",
      "vis_m": 9999,
      "fzfg": false,
      "metar_trigger": false,
      "taf_trigger": false,
      "metar": "METAR EHEH 281525Z AUTO 24016KT 200V280 9999 -DZ FEW013 SCT016 BKN021 09/07 Q1017 REDZ WHT TEMPO 22020G30KT FEW013 SCT015 BKN018CB RMK TREND REMOTE BY EHWX",
      "taf": ""
    },
    {
      "icao": "EKBI",
      "alert": "OK",
      "vis_m": 7000,
      "fzfg": false,
      "metar_trigger": false,
      "taf_trigger": false,
      "metar": "METAR EKBI 281520Z AUTO 20008KT 7000 OVC005/// 09/08 Q1012",
      "taf": "TAF EKBI 281427Z 2815/0115 20010KT 8000 -DZRA BKN004"
    },
    {
      "icao": "EKCH",
      "alert": "OK",
      "vis_m": 2000,
      "fzfg": false,
      "metar_trigger": false,
      "taf_trigger": false,
      "metar": "METAR EKCH 281520Z 21006KT 2000 R22L/1000N R04L/P1500N R12/P1500N BCFG SCT002 BKN050 07/07 Q1014 BECMG 6000",
      "taf": ""
    },
    {
      "icao": "ENAL",
      "alert": "OK",
      "vis_m": 9999,
      "fzfg": false,
      "metar_trigger": false,
      "taf_trigger": false,
      "metar": "METAR ENAL 281520Z 20008KT 9999 FEW041 06/M01 Q1013",
      "taf": "TAF ENAL 281400Z 2815/2824 20010KT 9999 FEW035"
    },
    {
      "icao": "ENBR",
      "alert": "OK",
      "vis_m": 9999,
      "fzfg": false,
      "metar_trigger": false,
      "taf_trigger": false,
      "metar": "METAR ENBR 281520Z 34009KT CAVOK 06/M03 Q1012 NOSIG RMK WIND 1200FT 36010KT",
      "taf": "TAF ENBR 281100Z 2812/0112 35008KT CAVOK"
    },
    {
      "icao": "ENGM",
      "alert": "OK",
      "vis_m": 9999,
      "fzfg": true,
      "metar_trigger": false,
      "taf_trigger": false,
      "metar": "METAR ENGM 281520Z VRB02KT 9999 FEW001 M00/M02 Q1013 NOSIG",
      "taf": "TAF ENGM 281100Z 2812/0112 03005KT 0300 FZFG VV002"
    },
    {
      "icao": "ENHD",
      "alert": "OK",
      "vis_m": 9999,
      "fzfg": false,
      "metar_trigger": false,
      "taf_trigger": false,
      "metar": "METAR ENHD 281520Z 01008KT CAVOK 05/M01 Q1011",
      "taf": "TAF ENHD 281400Z 2815/2823 35010KT CAVOK"
    },
    {
      "icao": "ENTC",
      "alert": "OK",
      "vis_m": 9999,
      "fzfg": false,
      "metar_trigger": false,
      "taf_trigger": false,
      "metar": "METAR ENTC 281520Z 18013KT CAVOK 02/M04 Q1002 TEMPO 4000 -SHSNRA VV014 RMK WIND 2600FT 18027KT",
      "taf": ""
    },
    {
      "icao": "ENTO",
      "alert": "WARNING",
      "vis_m": 9999,
      "fzfg": true,
      "metar_trigger": false,
      "taf_trigger": true,
      "metar": "METAR ENTO 281520Z 03007KT 9999 BKN046 01/M00 Q1013 NOSIG",
      "taf": "TAF ENTO 280500Z 2806/0106 02005KT 0100 FZFG VV001"
    },
    {
      "icao": "ENVA",
      "alert": "OK",
      "vis_m": 9999,
      "fzfg": false,
      "metar_trigger": false,
      "taf_trigger": false,
      "metar": "METAR ENVA 281520Z 24005KT CAVOK 06/M02 Q1014 RMK WIND 670FT 24011KT",
      "taf": "TAF ENVA 281100Z 2812/0112 VRB04KT 9999 SCT050"
    },
    {
      "icao": "ENZV",
      "alert": "OK",
      "vis_m": 9999,
      "fzfg": false,
      "metar_trigger": false,
      "taf_trigger": false,
      "metar": "METAR ENZV 281520Z 13005KT 9999 BKN049 04/00 Q1011 NOSIG",
      "taf": "TAF ENZV 281100Z 2812/0112 36007KT 9999 -RA FEW015 BKN040"
    },
    {
      "icao": "EPGD",
      "alert": "OK",
      "vis_m": 9999,
      "fzfg": false,
      "metar_trigger": false,
      "taf_trigger": false,
      "metar": "METAR EPGD 281530Z 20007KT CAVOK 13/06 Q1017",
      "taf": "TAF EPGD 281130Z 2812/0112 14008KT CAVOK"
    },
    {
      "icao": "EPKK",
      "alert": "OK",
      "vis_m": 9999,
      "fzfg": false,
      "metar_trigger": false,
      "taf_trigger": false,
      "metar": "METAR EPKK 281530Z 22003KT CAVOK 16/02 Q1021",
      "taf": "TAF EPKK 281430Z 2815/0115 VRB02KT CAVOK"
    },
    {
      "icao": "EPKT",
      "alert": "OK",
      "vis_m": 9999,
      "fzfg": false,
      "metar_trigger": false,
      "taf_trigger": false,
      "metar": "METAR EPKT 281530Z 21009KT CAVOK 14/03 Q1021",
      "taf": "TAF EPKT 281130Z 2812/0112 20012KT CAVOK"
    },
    {
      "icao": "EPLB",
      "alert": "OK",
      "vis_m": 9999,
      "fzfg": false,
      "metar_trigger": false,
      "taf_trigger": false,
      "metar": "METAR EPLB 281530Z 16005KT CAVOK 11/03 Q1023",
      "taf": "TAF EPLB 281130Z 2812/0112 18008KT CAVOK"
    },
    {
      "icao": "EPMO",
      "alert": "OK",
      "vis_m": 9999,
      "fzfg": false,
      "metar_trigger": false,
      "taf_trigger": false,
      "metar": "METAR EPMO 281530Z 18006KT CAVOK 15/05 Q1020",
      "taf": "TAF EPMO 281130Z 2812/0112 18008KT CAVOK"
    },
    {
      "icao": "EPPO",
      "alert": "OK",
      "vis_m": 9999,
      "fzfg": false,
      "metar_trigger": false,
      "taf_trigger": false,
      "metar": "METAR EPPO 281530Z 18007KT CAVOK 17/06 Q1018",
      "taf": "TAF EPPO 281130Z 2812/0112 20008KT CAVOK"
    },
    {
      "icao": "EPRA",
      "alert": "OK",
      "vis_m": 9999,
      "fzfg": false,
      "metar_trigger": false,
      "taf_trigger": false,
      "metar": "METAR EPRA 281530Z 15009KT CAVOK 13/05 Q1021",
      "taf": "TAF EPRA 281430Z 2815/2824 17008KT CAVOK"
    },
    {
      "icao": "EPRZ",
      "alert": "OK",
      "vis_m": 9999,
      "fzfg": false,
      "metar_trigger": false,
      "taf_trigger": false,
      "metar": "METAR EPRZ 281530Z 17007KT CAVOK 13/M00 Q1023",
      "taf": "TAF EPRZ 281130Z 2812/0112 19008KT CAVOK"
    },
    {
      "icao": "EPSC",
      "alert": "OK",
      "vis_m": 9999,
      "fzfg": false,
      "metar_trigger": false,
      "taf_trigger": false,
      "metar": "METAR EPSC 281530Z 15007KT CAVOK 16/08 Q1016",
      "taf": "TAF EPSC 281130Z 2812/0112 14006KT CAVOK"
    },
    {
      "icao": "EPSY",
      "alert": "OK",
      "vis_m": 9999,
      "fzfg": false,
      "metar_trigger": false,
      "taf_trigger": false,
      "metar": "METAR EPSY 281530Z 19007KT CAVOK 10/05 Q1020",
      "taf": "TAF EPSY 281430Z 2815/2824 19008KT CAVOK"
    },
    {
      "icao": "EPWA",
      "alert": "OK",
      "vis_m": 9999,
      "fzfg": false,
      "metar_trigger": false,
      "taf_trigger": false,
      "metar": "METAR EPWA 281530Z 17003KT CAVOK 15/04 Q1020 NOSIG",
      "taf": "TAF EPWA 281430Z 2815/0115 18007KT CAVOK"
    },
    {
      "icao": "EPWR",
      "alert": "OK",
      "vis_m": 9999,
      "fzfg": false,
      "metar_trigger": false,
      "taf_trigger": false,
      "metar": "METAR EPWR 281530Z 17006KT CAVOK 16/06 Q1019",
      "taf": "TAF EPWR 281430Z 2815/0115 16008KT CAVOK"
    },
    {
      "icao": "ESGG",
      "alert": "OK",
      "vis_m": 3800,
      "fzfg": false,
      "metar_trigger": false,
      "taf_trigger": false,
      "metar": "METAR ESGG 281520Z 16004KT 3800 BR -RA VV002 07/07 Q1011",
      "taf": "TAF ESGG 281430Z 2815/0115 13004KT 4000 -RADZ OVC002"
    },
    {
      "icao": "ESKN",
      "alert": "OK",
      "vis_m": 9999,
      "fzfg": false,
      "metar_trigger": false,
      "taf_trigger": false,
      "metar": "METAR ESKN 281520Z 13007KT 9999 BKN011 05/04 Q1014",
      "taf": "TAF ESKN 281430Z 2815/0115 VRB02KT 9999 BKN007"
    },
    {
      "icao": "ESMS",
      "alert": "OK",
      "vis_m": 2700,
      "fzfg": false,
      "metar_trigger": false,
      "taf_trigger": false,
      "metar": "METAR ESMS 281520Z 23007KT 2700 OVC002 09/09 Q1014",
      "taf": "TAF ESMS 281427Z 2815/0115 22005KT 2000 -RADZ OVC002"
    },
    {
      "icao": "ESSA",
      "alert": "OK",
      "vis_m": 7000,
      "fzfg": false,
      "metar_trigger": false,
      "taf_trigger": false,
      "metar": "METAR ESSA 281520Z VRB03KT 7000 OVC003 01/01 Q1015 NOSIG",
      "taf": "TAF ESSA 281130Z 2812/0112 26007KT 9999 BKN005"
    },
    {
      "icao": "EYKA",
      "alert": "OK",
      "vis_m": 9999,
      "fzfg": false,
      "metar_trigger": false,
      "taf_trigger": false,
      "metar": "METAR EYKA 281550Z 20004KT 150V230 CAVOK 09/02 Q1019",
      "taf": "TAF EYKA 281100Z 2812/0112 VRB05KT 8000 NSC"
    },
    {
      "icao": "EYPA",
      "alert": "OK",
      "vis_m": 9999,
      "fzfg": false,
      "metar_trigger": false,
      "taf_trigger": false,
      "metar": "METAR EYPA 281550Z 21005KT CAVOK 06/04 Q1017",
      "taf": "TAF EYPA 281100Z 2812/0112 VRB04KT 6000 NSC"
    },
    {
      "icao": "EYVI",
      "alert": "OK",
      "vis_m": 9999,
      "fzfg": false,
      "metar_trigger": false,
      "taf_trigger": false,
      "metar": "METAR EYVI 281550Z 16008KT CAVOK 06/01 Q1019 NOSIG",
      "taf": "TAF EYVI 281100Z 2812/0112 VRB05KT 8000 NSC"
    },
    {
      "icao": "GCFV",
      "alert": "OK",
      "vis_m": 9999,
      "fzfg": false,
      "metar_trigger": false,
      "taf_trigger": false,
      "metar": "METAR GCFV 281530Z 01019KT 340V040 9999 SCT030 21/11 Q1018",
      "taf": "TAF GCFV 281400Z 2815/0115 02022KT 9999 FEW025 TX22/0114Z TN15/0106Z"
    },
    {
      "icao": "GCLP",
      "alert": "OK",
      "vis_m": 9999,
      "fzfg": false,
      "metar_trigger": false,
      "taf_trigger": false,
      "metar": "METAR GCLP 281530Z 01023G33KT 340V040 9999 BKN035 20/13 Q1020 NOSIG",
      "taf": "TAF GCLP 281400Z 2815/0115 01025KT 9999 SCT025 TX21/0114Z TN16/0106Z"
    },
    {
      "icao": "GCTS",
      "alert": "OK",
      "vis_m": 9999,
      "fzfg": false,
      "metar_trigger": false,
      "taf_trigger": false,
      "metar": "METAR GCTS 281530Z 07026KT 9999 FEW030 23/12 Q1019 WS R07 NOSIG",
      "taf": "TAF GCTS 281400Z 2815/0115 08025KT 9999 FEW035 TX23/0114Z TN17/0106Z"
    },
    {
      "icao": "GMAD",
      "alert": "OK",
      "vis_m": 6000,
      "fzfg": false,
      "metar_trigger": false,
      "taf_trigger": false,
      "metar": "METAR GMAD 281530Z 23006KT 6000 NSC 22/13 Q1011 NOSIG",
      "taf": "TAF GMAD 281100Z 2812/0118 09004KT 6000 NSC"
    },
    {
      "icao": "GMMN",
      "alert": "OK",
      "vis_m": 9999,
      "fzfg": false,
      "metar_trigger": false,
      "taf_trigger": false,
      "metar": "METAR GMMN 281530Z 01011KT 340V050 9999 BKN025 18/13 Q1019 NOSIG",
      "taf": "TAF GMMN 281100Z 2812/0118 05006KT 9999 BKN014"
    },
    {
      "icao": "GMMX",
      "alert": "OK",
      "vis_m": 8000,
      "fzfg": false,
      "metar_trigger": false,
      "taf_trigger": false,
      "metar": "METAR GMMX 281530Z 11004KT 050V150 8000 OVC020 16/11 Q1018 NOSIG",
      "taf": "TAF GMMX 281100Z 2812/0118 04006KT 8000 FEW013 SCT023"
    },
    {
      "icao": "HEGN",
      "alert": "OK",
      "vis_m": 9999,
      "fzfg": false,
      "metar_trigger": false,
      "taf_trigger": false,
      "metar": "METAR HEGN 281500Z 35016KT CAVOK 19/03 Q1014 NOSIG",
      "taf": "TAF HEGN 281106Z 2812/0118 34018G28KT CAVOK"
    },
    {
      "icao": "HEMA",
      "alert": "OK",
      "vis_m": 9999,
      "fzfg": false,
      "metar_trigger": false,
      "taf_trigger": false,
      "metar": "METAR HEMA 281500Z 36014KT CAVOK 19/06 Q1013 NOSIG",
      "taf": "TAF HEMA 281105Z 2812/0118 36018KT CAVOK"
    },
    {
      "icao": "HESH",
      "alert": "OK",
      "vis_m": 9999,
      "fzfg": false,
      "metar_trigger": false,
      "taf_trigger": false,
      "metar": "METAR HESH 281500Z 04006KT CAVOK 21/05 Q1013 NOSIG",
      "taf": "TAF HESH 281106Z 2812/0118 03015KT CAVOK"
    },
    {
      "icao": "HESX",
      "alert": "OK",
      "vis_m": 9999,
      "fzfg": false,
      "metar_trigger": false,
      "taf_trigger": false,
      "metar": "METAR HESX 281500Z 02011KT 9999 SCT025 16/01 Q1017 NOSIG",
      "taf": "TAF HESX 281105Z 2812/0118 02010KT 9999 SCT020"
    },
    {
      "icao": "LATI",
      "alert": "OK",
      "vis_m": 9999,
      "fzfg": false,
      "metar_trigger": false,
      "taf_trigger": false,
      "metar": "METAR LATI 281550Z 33007KT 9999 SCT037 14/10 Q1024 NOSIG",
      "taf": "TAF LATI 281100Z 2812/0112 VRB05KT CAVOK TX19/0112Z TN05/0104Z"
    },
    {
      "icao": "LBPD",
      "alert": "OK",
      "vis_m": 9000,
      "fzfg": false,
      "metar_trigger": false,
      "taf_trigger": false,
      "metar": "METAR LBPD 281530Z AUTO 00000KT 9000 NCD 05/01 Q1028 NOSIG",
      "taf": "TAF LBPD 281100Z 2812/0112 08010KT 9999 OVC009"
    },
    {
      "icao": "LBSF",
      "alert": "OK",
      "vis_m": 9999,
      "fzfg": false,
      "metar_trigger": false,
      "taf_trigger": false,
      "metar": "METAR LBSF 281530Z 12012KT CAVOK 10/M05 Q1025 NOSIG",
      "taf": "TAF LBSF 281100Z 2812/0112 10010KT CAVOK"
    },
    {
      "icao": "LBWN",
      "alert": "OK",
      "vis_m": 9999,
      "fzfg": false,
      "metar_trigger": false,
      "taf_trigger": false,
      "metar": "METAR LBWN 281530Z 13010KT 9999 FEW028 03/M00 Q1030 NOSIG",
      "taf": "TAF LBWN 281100Z 2812/0112 VRB03KT 9999 BKN020"
    },
    {
      "icao": "LCLK",
      "alert": "OK",
      "vis_m": 9999,
      "fzfg": false,
      "metar_trigger": false,
      "taf_trigger": false,
      "metar": "METAR LCLK 281530Z 05009KT 020V080 9999 FEW030 BKN060 14/07 Q1019 NOSIG",
      "taf": "TAF LCLK 281130Z 2812/0112 04010KT 9999 FEW030 SCT060"
    },
    {
      "icao": "LCPH",
      "alert": "OK",
      "vis_m": 9999,
      "fzfg": false,
      "metar_trigger": false,
      "taf_trigger": false,
      "metar": "METAR LCPH 281530Z 30006KT 250V320 9999 FEW025 BKN060 15/03 Q1018 NOSIG",
      "taf": "TAF LCPH 281130Z 2812/0112 29010KT 9999 FEW040 SCT060"
    },
    {
      "icao": "LEAL",
      "alert": "OK",
      "vis_m": 9999,
      "fzfg": false,
      "metar_trigger": false,
      "taf_trigger": false,
      "metar": "METAR LEAL 281530Z 10008KT 070V140 9999 FEW030 18/10 Q1022 NOSIG",
      "taf": "TAF LEAL 281100Z 2812/0112 VRB04KT 9999 FEW020 TX19/2812Z TN07/0107Z"
    },
    {
      "icao": "LEBB",
      "alert": "OK",
      "vis_m": 9999,
      "fzfg": false,
      "metar_trigger": false,
      "taf_trigger": false,
      "metar": "METAR LEBB 281530Z 31005KT 280V340 9999 FEW029 SCT036 BKN048 13/07 Q1027 NOSIG",
      "taf": "TAF LEBB 281100Z 2812/0112 31009KT 9999 FEW025 SCT035 TX17/0112Z TN02/0106Z"
    },
    {
      "icao": "LEBL",
      "alert": "OK",
      "vis_m": 9999,
      "fzfg": false,
      "metar_trigger": false,
      "taf_trigger": false,
      "metar": "METAR LEBL 281530Z 07008KT 040V100 9999 FEW016 BKN047 14/10 Q1024 NOSIG",
      "taf": "TAF LEBL 281100Z 2812/0112 09010KT 9999 FEW020 OVC030 TX14/2813Z TN10/0106Z"
    },
    {
      "icao": "LECH",
      "alert": "OK",
      "vis_m": 9999,
      "fzfg": false,
      "metar_trigger": false,
      "taf_trigger": false,
      "metar": "METAR LECH 281530Z AUTO 08007KT 040V120 9999 SCT031 OVC038 13/07 Q1024",
      "taf": ""
    },
    {
      "icao": "LEMD",
      "alert": "OK",
      "vis_m": 9999,
      "fzfg": false,
      "metar_trigger": false,
      "taf_trigger": false,
      "metar": "METAR LEMD 281530Z VRB01KT 9999 FEW057 17/05 Q1021 NOSIG",
      "taf": "TAF LEMD 281100Z 2812/0118 02006KT 9999 FEW040 TX18/2815Z TN02/0107Z"
    },
    {
      "icao": "LEMG",
      "alert": "OK",
      "vis_m": 9000,
      "fzfg": false,
      "metar_trigger": false,
      "taf_trigger": false,
      "metar": "METAR LEMG 281530Z 12006KT 090V150 9000 SCT025 OVC035 14/09 Q1022 NOSIG",
      "taf": "TAF LEMG 281100Z 2812/0112 13010KT 9999 SCT025 TX19/2814Z TN13/0106Z"
    },
    {
      "icao": "LEVC",
      "alert": "OK",
      "vis_m": 9999,
      "fzfg": false,
      "metar_trigger": false,
      "taf_trigger": false,
      "metar": "METAR LEVC 281530Z 07006KT 030V110 9999 FEW020 BKN035 14/09 Q1024 NOSIG",
      "taf": "TAF LEVC 281100Z 2812/0112 07007KT 9999 BKN020 TX17/2812Z TN06/0107Z"
    },
    {
      "icao": "LEXJ",
      "alert": "OK",
      "vis_m": 9999,
      "fzfg": false,
      "metar_trigger": false,
      "taf_trigger": false,
      "metar": "METAR LEXJ 281530Z 01006KT 330V040 9999 FEW035 12/04 Q1028",
      "taf": "TAF LEXJ 281400Z 2815/0115 22007KT 9999 FEW030 TX20/0114Z TN05/0105Z"
    },
    {
      "icao": "LEZG",
      "alert": "OK",
      "vis_m": 9999,
      "fzfg": false,
      "metar_trigger": false,
      "taf_trigger": false,
      "metar": "METAR LEZG 281530Z 31009KT 9999 SCT030 BKN070 14/05 Q1024 NOSIG",
      "taf": "TAF LEZG 281100Z 2812/0112 32010KT CAVOK TX18/2815Z TN03/0106Z"
    },
    {
      "icao": "LEZL",
      "alert": "OK",
      "vis_m": 9999,
      "fzfg": false,
      "metar_trigger": false,
      "taf_trigger": false,
      "metar": "METAR LEZL 281530Z 16002KT CAVOK 22/10 Q1020 NOSIG",
      "taf": "TAF LEZL 281400Z 2815/0115 VRB02KT CAVOK TX22/2815Z TN09/0107Z"
    },
    {
      "icao": "LFBD",
      "alert": "OK",
      "vis_m": 9999,
      "fzfg": false,
      "metar_trigger": false,
      "taf_trigger": false,
      "metar": "METAR LFBD 281530Z AUTO 27010KT 9999 FEW042 SCT050 14/05 Q1026 TEMPO 4000 -SHRA BKN030TCU",
      "taf": "TAF LFBD 281100Z 2812/0118 26005KT CAVOK TX17/0114Z TN02/0106Z"
    },
    {
      "icao": "LFLL",
      "alert": "OK",
      "vis_m": 9999,
      "fzfg": false,
      "metar_trigger": false,
      "taf_trigger": false,
      "metar": "METAR LFLL 281530Z 03007KT 9999 -RA SCT035 OVC048 09/07 Q1026 NOSIG",
      "taf": "TAF LFLL 281100Z 2812/0118 36004KT 9999 BKN045"
    },
    {
      "icao": "LFLS",
      "alert": "OK",
      "vis_m": 9999,
      "fzfg": false,
      "metar_trigger": false,
      "taf_trigger": false,
      "metar": "METAR LFLS 281530Z AUTO 36003KT 310V110 9999 FEW019 OVC026 09/06 Q1025 NOSIG",
      "taf": "TAF LFLS 281400Z 2815/0115 VRB03KT 9999 BKN030"
    },
    {
      "icao": "LFMN",
      "alert": "OK",
      "vis_m": 9999,
      "fzfg": false,
      "metar_trigger": false,
      "taf_trigger": false,
      "metar": "METAR LFMN 281530Z 14005KT 9999 FEW020 SCT230 15/10 Q1023 NOSIG",
      "taf": "TAF LFMN 281400Z 2815/0121 14005KT 9999 FEW040"
    },
    {
      "icao": "LFOB",
      "alert": "OK",
      "vis_m": 9999,
      "fzfg": false,
      "metar_trigger": false,
      "taf_trigger": false,
      "metar": "METAR LFOB 281530Z AUTO 25013KT 9999 FEW043 BKN050 BKN060 11/04 Q1022 TEMPO 3000 SHRA BKN020TCU BECMG 22003KT",
      "taf": "TAF LFOB 281100Z 2812/0112 20013KT 9999 SCT017 BKN020 BKN030"
    },
    {
      "icao": "LFPO",
      "alert": "OK",
      "vis_m": 9999,
      "fzfg": false,
      "metar_trigger": false,
      "taf_trigger": false,
      "metar": "METAR LFPO 281530Z 26008KT 220V290 CAVOK 14/03 Q1023 NOSIG",
      "taf": "TAF LFPO 281100Z 2812/0118 24012KT 9999 BKN030"
    },
    {
      "icao": "LFSB",
      "alert": "OK",
      "vis_m": 9999,
      "fzfg": false,
      "metar_trigger": false,
      "taf_trigger": false,
      "metar": "METAR LFSB 281530Z AUTO 26004KT 230V290 9999 OVC056 10/05 Q1025 TEMPO FEW025TCU",
      "taf": "TAF LFSB 281100Z 2812/0112 27010KT 9999 BKN030 OVC055"
    },
    {
      "icao": "LGAV",
      "alert": "OK",
      "vis_m": 9999,
      "fzfg": false,
      "metar_trigger": false,
      "taf_trigger": false,
      "metar": "METAR LGAV 281520Z 02015KT 9999 SCT035 11/03 Q1025 NOSIG",
      "taf": "TAF LGAV 281100Z 2812/0112 01015KT 9999 SCT020"
    },
    {
      "icao": "LGTS",
      "alert": "OK",
      "vis_m": 9999,
      "fzfg": false,
      "metar_trigger": false,
      "taf_trigger": false,
      "metar": "METAR LGTS 281520Z 21006KT 9999 FEW025 13/06 Q1027 NOSIG",
      "taf": "TAF LGTS 281100Z 2812/0112 12006KT 9999 SCT030"
    },
    {
      "icao": "LHBP",
      "alert": "OK",
      "vis_m": 9999,
      "fzfg": false,
      "metar_trigger": false,
      "taf_trigger": false,
      "metar": "METAR LHBP 281530Z 17008KT CAVOK 13/M01 Q1025 NOSIG",
      "taf": "TAF LHBP 281115Z 2812/0112 15009KT CAVOK"
    },
    {
      "icao": "LHDC",
      "alert": "OK",
      "vis_m": 9999,
      "fzfg": false,
      "metar_trigger": false,
      "taf_trigger": false,
      "metar": "METAR LHDC 281515Z AUTO VRB01KT CAVOK 12/02 Q1026 NOSIG",
      "taf": "TAF LHDC 281415Z 2815/2824 VRB03KT CAVOK"
    },
    {
      "icao": "LIBD",
      "alert": "OK",
      "vis_m": 9999,
      "fzfg": false,
      "metar_trigger": false,
      "taf_trigger": false,
      "metar": "METAR LIBD 281520Z 06003KT 340V090 9999 SCT015 13/11 Q1024",
      "taf": "TAF LIBD 281100Z 2812/0112 VRB05KT 7000 BKN020"
    },
    {
      "icao": "LIBG",
      "alert": "OK",
      "vis_m": 9999,
      "fzfg": false,
      "metar_trigger": false,
      "taf_trigger": false,
      "metar": "METAR LIBG 281450Z 18004KT 9999 SCT030 16/10 Q1023",
      "taf": "TAF LIBG 281400Z 2815/2824 20008KT 9999 SCT020"
    },
    {
      "icao": "LIBP",
      "alert": "OK",
      "vis_m": 5000,
      "fzfg": false,
      "metar_trigger": false,
      "taf_trigger": false,
      "metar": "METAR LIBP 281520Z 06004KT 5000 BR OVC020 13/11 Q1024",
      "taf": "TAF LIBP 281100Z 2812/0112 VRB05KT 6000 NSC"
    },
    {
      "icao": "LIBR",
      "alert": "OK",
      "vis_m": 9999,
      "fzfg": false,
      "metar_trigger": false,
      "taf_trigger": false,
      "metar": "METAR LIBR 281520Z 06006KT CAVOK 14/11 Q1024",
      "taf": "TAF LIBR 281100Z 2812/0112 03006KT 9999 BKN020"
    },
    {
      "icao": "LICA",
      "alert": "OK",
      "vis_m": 9999,
      "fzfg": false,
      "metar_trigger": false,
      "taf_trigger": false,
      "metar": "METAR LICA 281520Z 26006KT 220V280 CAVOK 15/11 Q1024",
      "taf": "TAF LICA 281100Z 2812/0112 27010KT 9999 SCT020"
    },
    {
      "icao": "LICC",
      "alert": "OK",
      "vis_m": 9999,
      "fzfg": false,
      "metar_trigger": false,
      "taf_trigger": false,
      "metar": "METAR LICC 281520Z 09008KT CAVOK 16/14 Q1023",
      "taf": "TAF LICC 281100Z 2812/0112 08010KT 6000 SCT030"
    },
    {
      "icao": "LICJ",
      "alert": "OK",
      "vis_m": 9999,
      "fzfg": false,
      "metar_trigger": false,
      "taf_trigger": false,
      "metar": "METAR LICJ 281520Z 07011KT CAVOK 16/11 Q1023",
      "taf": "TAF LICJ 281100Z 2812/0112 04010KT 9999 SCT015"
    },
    {
      "icao": "LIMC",
      "alert": "OK",
      "vis_m": 9999,
      "fzfg": false,
      "metar_trigger": false,
      "taf_trigger": false,
      "metar": "METAR LIMC 281520Z 27006KT 230V290 9999 SCT055 15/08 Q1023 NOSIG",
      "taf": "TAF LIMC 281100Z 2812/0118 VRB04KT 4000 BR BKN030"
    },
    {
      "icao": "LIME",
      "alert": "OK",
      "vis_m": 9999,
      "fzfg": false,
      "metar_trigger": false,
      "taf_trigger": false,
      "metar": "METAR LIME 281520Z 23007KT 9999 BKN040 15/07 Q1023 NOSIG",
      "taf": "TAF LIME 281100Z 2812/0112 VRB05KT 6000 BKN030"
    },
    {
      "icao": "LIMF",
      "alert": "OK",
      "vis_m": 6000,
      "fzfg": false,
      "metar_trigger": false,
      "taf_trigger": false,
      "metar": "METAR LIMF 281520Z VRB01KT 6000 BKN060 13/07 Q1023",
      "taf": "TAF LIMF 281100Z 2812/0112 VRB04KT 6000 BKN030"
    },
    {
      "icao": "LIMJ",
      "alert": "OK",
      "vis_m": 9999,
      "fzfg": false,
      "metar_trigger": false,
      "taf_trigger": false,
      "metar": "METAR LIMJ 281520Z VRB02KT 9999 FEW020 SCT030 BKN060 14/09 Q1024",
      "taf": "TAF LIMJ 281100Z 2812/0112 VRB05KT 9999 SCT020 BKN030"
    },
    {
      "icao": "LIPE",
      "alert": "OK",
      "vis_m": 8000,
      "fzfg": false,
      "metar_trigger": false,
      "taf_trigger": false,
      "metar": "METAR LIPE 281520Z 08005KT 8000 FEW035 16/08 Q1023",
      "taf": "TAF LIPE 281100Z 2812/0112 VRB04KT 9999 BKN030"
    },
    {
      "icao": "LIPH",
      "alert": "OK",
      "vis_m": 1000,
      "fzfg": false,
      "metar_trigger": false,
      "taf_trigger": false,
      "metar": "METAR LIPH 281520Z 17003KT 090V230 1000 R07/P2000N BR BKN004 10/10 Q1024",
      "taf": "TAF LIPH 281100Z 2812/0112 VRB04KT 0200 FG BKN003"
    },
    {
      "icao": "LIPQ",
      "alert": "OK",
      "vis_m": 400,
      "fzfg": false,
      "metar_trigger": false,
      "taf_trigger": false,
      "metar": "METAR LIPQ 281520Z 17004KT 0400 R09/1400D FG OVC001 10/09 Q1024",
      "taf": ""
    },
    {
      "icao": "LIPR",
      "alert": "OK",
      "vis_m": 4000,
      "fzfg": false,
      "metar_trigger": false,
      "taf_trigger": false,
      "metar": "METAR LIPR 281520Z 11006KT 070V140 4000 BR FEW006 BKN009 12/10 Q1024",
      "taf": "TAF LIPR 281100Z 2812/0112 VRB04KT 7000 SCT050"
    },
    {
      "icao": "LIPX",
      "alert": "OK",
      "vis_m": 9999,
      "fzfg": false,
      "metar_trigger": false,
      "taf_trigger": false,
      "metar": "METAR LIPX 281520Z 11004KT 9999 SCT040 16/09 Q1023",
      "taf": "TAF LIPX 281100Z 2812/0112 VRB05KT 5000 BR BKN030"
    },
    {
      "icao": "LIPY",
      "alert": "OK",
      "vis_m": 5000,
      "fzfg": false,
      "metar_trigger": false,
      "taf_trigger": false,
      "metar": "METAR LIPY 281520Z 05005KT 020V100 5000 BR NSC 14/11 Q1024",
      "taf": "TAF LIPY 281100Z 2812/0112 VRB04KT 6000 SCT030"
    },
    {
      "icao": "LIPZ",
      "alert": "OK",
      "vis_m": 400,
      "fzfg": false,
      "metar_trigger": false,
      "taf_trigger": false,
      "metar": "METAR LIPZ 281520Z VRB02KT 0400 R04R/0900D FG VV001 08/08 Q1024 NOSIG",
      "taf": "TAF LIPZ 281100Z 2812/0118 VRB04KT 0400 FG OVC001"
    },
    {
      "icao": "LIRF",
      "alert": "OK",
      "vis_m": 9999,
      "fzfg": false,
      "metar_trigger": false,
      "taf_trigger": false,
      "metar": "METAR LIRF 281520Z 26006KT CAVOK 15/06 Q1023 NOSIG",
      "taf": "TAF LIRF 281100Z 2812/0118 26010KT 9999 SCT035"
    },
    {
      "icao": "LIRN",
      "alert": "OK",
      "vis_m": 9999,
      "fzfg": false,
      "metar_trigger": false,
      "taf_trigger": false,
      "metar": "METAR LIRN 281520Z 20004KT 160V240 CAVOK 16/08 Q1023 NOSIG",
      "taf": "TAF LIRN 281100Z 2812/0112 VRB05KT 7000 BKN030"
    },
    {
      "icao": "LIRP",
      "alert": "OK",
      "vis_m": 9999,
      "fzfg": false,
      "metar_trigger": false,
      "taf_trigger": false,
      "metar": "METAR LIRP 281515Z VRB02KT 9999 FEW040 15/06 Q1024 NOSIG",
      "taf": "TAF LIRP 281100Z 2812/0112 10004KT 9999 SCT040"
    },
    {
      "icao": "LIRZ",
      "alert": "OK",
      "vis_m": 9999,
      "fzfg": false,
      "metar_trigger": false,
      "taf_trigger": false,
      "metar": "METAR LIRZ 281520Z 23005KT 200V270 CAVOK 16/06 Q1023",
      "taf": "TAF LIRZ 281100Z 2812/0112 VRB05KT 9999 BKN030"
    },
    {
      "icao": "LJLJ",
      "alert": "OK",
      "vis_m": 9999,
      "fzfg": false,
      "metar_trigger": false,
      "taf_trigger": false,
      "metar": "METAR LJLJ 281530Z 25006KT 220V280 9999 FEW050 16/04 Q1021 NOSIG",
      "taf": "TAF LJLJ 281100Z 2812/0112 VRB02KT CAVOK"
    },
    {
      "icao": "LKMT",
      "alert": "OK",
      "vis_m": 9999,
      "fzfg": false,
      "metar_trigger": false,
      "taf_trigger": false,
      "metar": "METAR LKMT 281530Z 22013KT CAVOK 14/04 Q1021 NOSIG",
      "taf": "TAF LKMT 281100Z 2812/0112 25013KT CAVOK"
    },
    {
      "icao": "LKPR",
      "alert": "OK",
      "vis_m": 9000,
      "fzfg": false,
      "metar_trigger": false,
      "taf_trigger": false,
      "metar": "METAR LKPR 281530Z 36003KT 330V030 9000 NSC 10/06 Q1020 NOSIG",
      "taf": "TAF LKPR 281400Z 2815/0121 33003KT CAVOK"
    },
    {
      "icao": "LLBG",
      "alert": "OK",
      "vis_m": 9999,
      "fzfg": false,
      "metar_trigger": false,
      "taf_trigger": false,
      "metar": "METAR LLBG 281520Z 33009KT CAVOK 15/04 Q1018 NOSIG RMK FEW055",
      "taf": "TAF LLBG 281106Z 2812/0112 32008KT CAVOK TX16/2812Z TN06/0104Z"
    },
    {
      "icao": "LMML",
      "alert": "OK",
      "vis_m": 9999,
      "fzfg": false,
      "metar_trigger": false,
      "taf_trigger": false,
      "metar": "METAR LMML 281545Z 21006KT 170V230 9999 FEW015 16/12 Q1023 NOSIG",
      "taf": "TAF LMML 281100Z 2812/0112 VRB07KT 9999 FEW017"
    },
    {
      "icao": "LOWW",
      "alert": "OK",
      "vis_m": 9999,
      "fzfg": false,
      "metar_trigger": false,
      "taf_trigger": false,
      "metar": "METAR LOWW 281520Z 14012KT CAVOK 14/04 Q1022 NOSIG",
      "taf": "TAF LOWW 281415Z 2815/0121 13012KT CAVOK TX13/2815Z TN02/0105Z"
    },
    {
      "icao": "LPFR",
      "alert": "OK",
      "vis_m": 9999,
      "fzfg": false,
      "metar_trigger": false,
      "taf_trigger": false,
      "metar": "METAR LPFR 281530Z 17007KT CAVOK 18/07 Q1020",
      "taf": "TAF LPFR 281100Z 2812/0112 36008KT CAVOK"
    },
    {
      "icao": "LPMA",
      "alert": "OK",
      "vis_m": 9999,
      "fzfg": false,
      "metar_trigger": false,
      "taf_trigger": false,
      "metar": "METAR LPMA 281530Z 02019G29KT 340V060 9999 BKN015 16/09 Q1026",
      "taf": "TAF LPMA 281100Z 2812/0112 01015KT 9999 SCT015"
    },
    {
      "icao": "LPPR",
      "alert": "OK",
      "vis_m": 9999,
      "fzfg": false,
      "metar_trigger": false,
      "taf_trigger": false,
      "metar": "METAR LPPR 281530Z 33012KT CAVOK 14/08 Q1025",
      "taf": "TAF LPPR 281100Z 2812/0112 33013KT CAVOK"
    },
    {
      "icao": "LPPS",
      "alert": "OK",
      "vis_m": 9999,
      "fzfg": false,
      "metar_trigger": false,
      "taf_trigger": false,
      "metar": "METAR LPPS 281530Z 02014KT 9999 SCT015 BKN030 15/09 Q1026",
      "taf": "TAF LPPS 281100Z 2812/0118 02015KT 9999 FEW015 BKN030"
    },
    {
      "icao": "LPPT",
      "alert": "OK",
      "vis_m": 9999,
      "fzfg": false,
      "metar_trigger": false,
      "taf_trigger": false,
      "metar": "METAR LPPT 281530Z 34016KT CAVOK 15/03 Q1023",
      "taf": "TAF LPPT 281100Z 2812/0118 34015KT CAVOK"
    },
    {
      "icao": "LQBK",
      "alert": "OK",
      "vis_m": 9999,
      "fzfg": false,
      "metar_trigger": false,
      "taf_trigger": false,
      "metar": "METAR LQBK 281530Z 06006KT CAVOK 18/04 Q1022 NOSIG",
      "taf": "TAF LQBK 281100Z 2812/0112 34005KT CAVOK TX18/2814Z TN00/0106Z"
    },
    {
      "icao": "LQSA",
      "alert": "OK",
      "vis_m": 9999,
      "fzfg": false,
      "metar_trigger": false,
      "taf_trigger": false,
      "metar": "METAR LQSA 281530Z 21003KT CAVOK 18/02 Q1021 NOSIG",
      "taf": "TAF LQSA 281100Z 2812/0112 VRB02KT CAVOK TX18/2814Z TNM01/0105Z"
    },
    {
      "icao": "LQTZ",
      "alert": "OK",
      "vis_m": 9999,
      "fzfg": false,
      "metar_trigger": false,
      "taf_trigger": false,
      "metar": "METAR LQTZ 281530Z 12007KT CAVOK 16/03 Q1022",
      "taf": "TAF LQTZ 281100Z 2812/0112 10007KT CAVOK TX17/2814Z TNM01/0105Z"
    },
    {
      "icao": "LRBC",
      "alert": "OK",
      "vis_m": 4000,
      "fzfg": false,
      "metar_trigger": false,
      "taf_trigger": false,
      "metar": "METAR LRBC 281530Z 16011KT 4000 BR OVC004 M01/M01 Q1029",
      "taf": "TAF LRBC 281400Z 2815/2824 16010KT 5000 BR BKN005"
    },
    {
      "icao": "LRBS",
      "alert": "OK",
      "vis_m": 4000,
      "fzfg": false,
      "metar_trigger": false,
      "taf_trigger": false,
      "metar": "METAR LRBS 281530Z VRB02KT 4000 BR BKN010 00/M02 Q1030 NOSIG",
      "taf": ""
    },
    {
      "icao": "LRBV",
      "alert": "OK",
      "vis_m": 9999,
      "fzfg": false,
      "metar_trigger": false,
      "taf_trigger": false,
      "metar": "METAR LRBV 281530Z 00000KT CAVOK 10/M06 Q1025",
      "taf": "TAF LRBV 281400Z 2815/2824 VRB04KT CAVOK"
    },
    {
      "icao": "LRCL",
      "alert": "OK",
      "vis_m": 9999,
      "fzfg": false,
      "metar_trigger": false,
      "taf_trigger": false,
      "metar": "METAR LRCL 281530Z 11003KT CAVOK 10/M03 Q1025",
      "taf": "TAF LRCL 281400Z 2815/2824 VRB04KT CAVOK"
    },
    {
      "icao": "LRCV",
      "alert": "OK",
      "vis_m": 2000,
      "fzfg": false,
      "metar_trigger": false,
      "taf_trigger": false,
      "metar": "METAR LRCV 281530Z VRB01KT 2000 BR OVC002 00/00 Q1030",
      "taf": "TAF LRCV 281400Z 2815/2824 VRB04KT 3000 BR OVC005"
    },
    {
      "icao": "LRIA",
      "alert": "OK",
      "vis_m": 9999,
      "fzfg": false,
      "metar_trigger": false,
      "taf_trigger": false,
      "metar": "METAR LRIA 281530Z 10011KT CAVOK 02/M01 Q1029",
      "taf": "TAF LRIA 281400Z 2815/2824 09008KT CAVOK"
    },
    {
      "icao": "LROP",
      "alert": "OK",
      "vis_m": 4500,
      "fzfg": false,
      "metar_trigger": false,
      "taf_trigger": false,
      "metar": "METAR LROP 281530Z 33003KT 4500 BR BKN005 OVC006 M01/M01 Q1030 NOSIG",
      "taf": ""
    },
    {
      "icao": "LRSB",
      "alert": "OK",
      "vis_m": 9999,
      "fzfg": false,
      "metar_trigger": false,
      "taf_trigger": false,
      "metar": "METAR LRSB 281530Z 28002KT CAVOK 11/M01 Q1025 NOSIG",
      "taf": "TAF LRSB 281100Z 2812/0112 VRB04KT CAVOK"
    },
    {
      "icao": "LRSM",
      "alert": "OK",
      "vis_m": 9999,
      "fzfg": false,
      "metar_trigger": false,
      "taf_trigger": false,
      "metar": "METAR LRSM 281530Z AUTO 02001KT 9999 NCD 11/01 Q1026",
      "taf": ""
    },
    {
      "icao": "LRSV",
      "alert": "CRITICAL",
      "vis_m": 100,
      "fzfg": true,
      "metar_trigger": true,
      "taf_trigger": false,
      "metar": "METAR LRSV 281530Z 09006KT 0100 R34/0300N FZFG VV001 M02/M02 Q1026",
      "taf": "TAF LRSV 281400Z 2815/2824 09007KT 0200 FZFG VV001"
    },
    {
      "icao": "LRTM",
      "alert": "OK",
      "vis_m": 9999,
      "fzfg": false,
      "metar_trigger": false,
      "taf_trigger": false,
      "metar": "METAR LRTM 281530Z 00000KT CAVOK 11/M03 Q1026",
      "taf": "TAF LRTM 281400Z 2815/2824 VRB04KT CAVOK"
    },
    {
      "icao": "LRTR",
      "alert": "OK",
      "vis_m": 9999,
      "fzfg": false,
      "metar_trigger": false,
      "taf_trigger": false,
      "metar": "METAR LRTR 281530Z 12004KT CAVOK 13/01 Q1025",
      "taf": "TAF LRTR 281100Z 2812/0112 VRB04KT CAVOK"
    },
    {
      "icao": "LTAC",
      "alert": "OK",
      "vis_m": 9999,
      "fzfg": false,
      "metar_trigger": false,
      "taf_trigger": false,
      "metar": "METAR LTAC 281520Z 02012KT 9999 SCT040 04/M05 Q1020 NOSIG RMK RWY21C 35008KT RWY03L 01010KT RWY21R 35009KT RWY03R 01012KT RWY21L 36009KT",
      "taf": "TAF LTAC 281040Z 2812/0112 01008KT 9999 SCT040"
    },
    {
      "icao": "LTFM",
      "alert": "OK",
      "vis_m": 9999,
      "fzfg": false,
      "metar_trigger": false,
      "taf_trigger": false,
      "metar": "METAR LTFM 281520Z 04014KT 9999 SCT016 BKN025 06/00 Q1029 NOSIG RMK RWY17L 04012KT RWY34L 04013KT RWY16R 03013KT RWY36 03014KT RWY18 04012KT",
      "taf": "TAF LTFM 281040Z 2812/0118 01015G25KT 9999 SCT016 BKN025"
    },
    {
      "icao": "LUKK",
      "alert": "OK",
      "vis_m": 9999,
      "fzfg": false,
      "metar_trigger": false,
      "taf_trigger": false,
      "metar": "METAR LUKK 281530Z 11004KT CAVOK 03/M02 Q1030 NOSIG",
      "taf": "TAF LUKK 281116Z 2812/0112 VRB05KT CAVOK"
    },
    {
      "icao": "LWOH",
      "alert": "OK",
      "vis_m": 9999,
      "fzfg": false,
      "metar_trigger": false,
      "taf_trigger": false,
      "metar": "METAR LWOH 281550Z VRB01KT 9999 FEW040 12/03 Q1023",
      "taf": "TAF LWOH 281450Z 2815/0115 16006KT 9999 FEW040"
    },
    {
      "icao": "LWSK",
      "alert": "OK",
      "vis_m": 9999,
      "fzfg": false,
      "metar_trigger": false,
      "taf_trigger": false,
      "metar": "METAR LWSK 281550Z 33002KT CAVOK 13/05 Q1025 NOSIG",
      "taf": "TAF LWSK 281450Z 2815/0115 VRB02KT CAVOK"
    },
    {
      "icao": "LYBE",
      "alert": "OK",
      "vis_m": 9999,
      "fzfg": false,
      "metar_trigger": false,
      "taf_trigger": false,
      "metar": "METAR LYBE 281530Z 08010KT CAVOK 13/01 Q1024 NOSIG",
      "taf": "TAF LYBE 281100Z 2812/0112 13010KT CAVOK TX15/0112Z TN01/0106Z"
    },
    {
      "icao": "LYNI",
      "alert": "OK",
      "vis_m": 9999,
      "fzfg": false,
      "metar_trigger": false,
      "taf_trigger": false,
      "metar": "METAR LYNI 281530Z 06008KT CAVOK 12/00 Q1024 NOSIG",
      "taf": "TAF LYNI 281100Z 2812/0112 07007KT CAVOK TX16/0112Z TNM02/0105Z"
    },
    {
      "icao": "LYPG",
      "alert": "OK",
      "vis_m": 9999,
      "fzfg": false,
      "metar_trigger": false,
      "taf_trigger": false,
      "metar": "METAR LYPG 281530Z 15005KT 130V190 CAVOK 16/07 Q1023 NOSIG",
      "taf": "TAF LYPG 281100Z 2812/0112 17005KT CAVOK TX18/2813Z TN02/0105Z"
    },
    {
      "icao": "LZIB",
      "alert": "OK",
      "vis_m": 9999,
      "fzfg": false,
      "metar_trigger": false,
      "taf_trigger": false,
      "metar": "METAR LZIB 281530Z 10009KT CAVOK 14/01 Q1022 NOSIG",
      "taf": "TAF LZIB 281115Z 2812/0112 14010KT CAVOK"
    },
    {
      "icao": "LZKZ",
      "alert": "OK",
      "vis_m": 9999,
      "fzfg": false,
      "metar_trigger": false,
      "taf_trigger": false,
      "metar": "METAR LZKZ 281530Z 19007KT CAVOK 11/01 Q1025 NOSIG",
      "taf": "TAF LZKZ 281115Z 2812/0112 19008KT CAVOK"
    },
    {
      "icao": "LZTT",
      "alert": "OK",
      "vis_m": 9999,
      "fzfg": false,
      "metar_trigger": false,
      "taf_trigger": false,
      "metar": "METAR LZTT 281530Z 12004KT CAVOK 10/02 Q1023 NOSIG",
      "taf": "TAF LZTT 281115Z 2812/0112 28005KT CAVOK"
    },
    {
      "icao": "OEJN",
      "alert": "OK",
      "vis_m": 9999,
      "fzfg": false,
      "metar_trigger": false,
      "taf_trigger": false,
      "metar": "METAR OEJN 281500Z 32015KT CAVOK 25/12 Q1010 NOSIG",
      "taf": "TAF OEJN 281100Z 2812/0118 33014KT 9999 FEW040"
    },
    {
      "icao": "OEMA",
      "alert": "OK",
      "vis_m": 9999,
      "fzfg": false,
      "metar_trigger": false,
      "taf_trigger": false,
      "metar": "METAR OEMA 281500Z 19010KT CAVOK 26/M06 Q1010 NOSIG",
      "taf": "TAF OEMA 281100Z 2812/0118 26012KT 9999 FEW040"
    },
    {
      "icao": "OJAI",
      "alert": "OK",
      "vis_m": 5000,
      "fzfg": false,
      "metar_trigger": false,
      "taf_trigger": false,
      "metar": "METAR OJAI 281500Z 30010KT 5000 HZ SCT030 10/M03 Q1017 NOSIG",
      "taf": "TAF OJAI 281058Z 2812/0118 31012KT 5000 HZ SCT035"
    },
    {
      "icao": "OMAA",
      "alert": "OK",
      "vis_m": 9999,
      "fzfg": false,
      "metar_trigger": false,
      "taf_trigger": false,
      "metar": "METAR OMAA 281530Z 35005KT CAVOK 26/12 Q1009 NOSIG",
      "taf": "TAF OMAA 281100Z 2812/0118 34010KT 8000 NSC"
    },
    {
      "icao": "OMDB",
      "alert": "OK",
      "vis_m": 9999,
      "fzfg": false,
      "metar_trigger": false,
      "taf_trigger": false,
      "metar": "METAR OMDB 281530Z 31004KT CAVOK 25/16 Q1010 NOSIG",
      "taf": "TAF OMDB 281100Z 2812/0118 32010KT 8000 NSC"
    },
    {
      "icao": "UAAA",
      "alert": "OK",
      "vis_m": 9999,
      "fzfg": false,
      "metar_trigger": false,
      "taf_trigger": false,
      "metar": "METAR UAAA 281530Z 00000MPS 9999 BKN043 M09/M13 Q1025 NOSIG",
      "taf": "TAF UAAA 281103Z 2812/0112 04003MPS 3100 BR FU BKN011 OVC030 TXM05/0108Z TNM15/0102Z"
    },
    {
      "icao": "UBBB",
      "alert": "OK",
      "vis_m": 9999,
      "fzfg": false,
      "metar_trigger": false,
      "taf_trigger": false,
      "metar": "METAR UBBB 281530Z 32018KT 9999 FEW016 BKN026 04/01 Q1020 NOSIG",
      "taf": "TAF UBBB 281054Z 2812/0112 35018G28KT 9999 SCT012 BKN020 TX05/2812Z TN03/0102Z"
    },
    {
      "icao": "UDSG",
      "alert": "OK",
      "vis_m": 9000,
      "fzfg": false,
      "metar_trigger": false,
      "taf_trigger": false,
      "metar": "METAR UDSG 281530Z 09005KT 9000 -SN OVC030 M02/M04 Q1015 NOSIG",
      "taf": "TAF UDSG 280458Z 2806/0106 18006KT 3000 BR BKN030"
    },
    {
      "icao": "UDYZ",
      "alert": "OK",
      "vis_m": 9999,
      "fzfg": false,
      "metar_trigger": false,
      "taf_trigger": false,
      "metar": "METAR UDYZ 281530Z 25002KT 9999 BKN033CB 03/M01 Q1015 NOSIG",
      "taf": "TAF UDYZ 281100Z 2812/0112 02006KT 6000 BKN030"
    },
    {
      "icao": "UGKO",
      "alert": "OK",
      "vis_m": 9999,
      "fzfg": false,
      "metar_trigger": false,
      "taf_trigger": false,
      "metar": "METAR UGKO 281530Z 25012KT 9999 -RA BKN020 OVC055 05/03 Q1020 NOSIG",
      "taf": "TAF UGKO 281100Z 2812/0112 26007KT 9999 SCT020 OVC030 TX07/0112Z TN04/0102Z"
    }
  ]
}