{
  "ts_utc": "2026-04-03T18:05:00Z",
  "threshold_m": 150,
  "source": "stations_override.txt (ICAO list) + aviationweather.gov (METAR/TAF raw)",
  "station_count": 159,
  "stations": [
    {
      "icao": "BIKF",
      "alert": "OK",
      "vis_m": 3000,
      "fzfg": false,
      "metar_trigger": false,
      "taf_trigger": false,
      "metar": "METAR BIKF 031800Z 09014KT 3000 -SHRASN SCT006CB BKN031 BKN080 M00/M01 Q0992",
      "taf": "TAF BIKF 031632Z 0318/0418 11012KT 9999 FEW015CB BKN030 TX01/0415Z TNM02/0406Z"
    },
    {
      "icao": "BKPR",
      "alert": "OK",
      "vis_m": 9999,
      "fzfg": false,
      "metar_trigger": false,
      "taf_trigger": false,
      "metar": "METAR BKPR 031800Z 35008KT 9999 SCT025 BKN040 09/06 Q1009 NOSIG",
      "taf": "TAF BKPR 031730Z 0318/0418 36008KT 9999 SCT012 BKN030"
    },
    {
      "icao": "EBCI",
      "alert": "OK",
      "vis_m": 9999,
      "fzfg": false,
      "metar_trigger": false,
      "taf_trigger": false,
      "metar": "METAR EBCI 031750Z 21014KT 9999 SCT009 BKN010 10/07 Q1015 TEMPO 22015G25KT 4500 -DZ BKN007",
      "taf": "TAF EBCI 031704Z 0318/0424 22017KT 8000 -RA SCT007 BKN012"
    },
    {
      "icao": "EDDB",
      "alert": "OK",
      "vis_m": 9999,
      "fzfg": false,
      "metar_trigger": false,
      "taf_trigger": false,
      "metar": "METAR EDDB 031750Z AUTO 24005KT CAVOK 08/01 Q1014 NOSIG",
      "taf": "TAF EDDB 031700Z 0318/0418 19008KT 9999 SCT030"
    },
    {
      "icao": "EDDH",
      "alert": "OK",
      "vis_m": 9999,
      "fzfg": false,
      "metar_trigger": false,
      "taf_trigger": false,
      "metar": "METAR EDDH 031750Z AUTO 19012KT 9999 SCT046 10/02 Q1010 NOSIG",
      "taf": "TAF EDDH 031700Z 0318/0424 21012KT 9999 SCT035"
    },
    {
      "icao": "EDDK",
      "alert": "OK",
      "vis_m": 9999,
      "fzfg": false,
      "metar_trigger": false,
      "taf_trigger": false,
      "metar": "METAR EDDK 031750Z AUTO 22012KT 9999 BKN040 13/05 Q1015 NOSIG",
      "taf": "TAF EDDK 031700Z 0318/0424 21008KT 9999 SCT030"
    },
    {
      "icao": "EDDN",
      "alert": "OK",
      "vis_m": 9999,
      "fzfg": false,
      "metar_trigger": false,
      "taf_trigger": false,
      "metar": "METAR EDDN 031750Z AUTO 26008KT CAVOK 11/02 Q1017 NOSIG",
      "taf": "TAF EDDN 031700Z 0318/0418 25008KT 9999 FEW045"
    },
    {
      "icao": "EDDS",
      "alert": "OK",
      "vis_m": 9999,
      "fzfg": false,
      "metar_trigger": false,
      "taf_trigger": false,
      "metar": "METAR EDDS 031750Z AUTO 24005KT 200V300 CAVOK 12/01 Q1017 NOSIG",
      "taf": "TAF EDDS 031700Z 0318/0418 22006KT 9999 SCT040"
    },
    {
      "icao": "EDFH",
      "alert": "OK",
      "vis_m": 9999,
      "fzfg": false,
      "metar_trigger": false,
      "taf_trigger": false,
      "metar": "METAR EDFH 031750Z 24010KT 200V260 9999 SCT034 09/02 Q1016",
      "taf": "TAF EDFH 031700Z 0318/0418 25012KT 9999 BKN015"
    },
    {
      "icao": "EDJA",
      "alert": "OK",
      "vis_m": 9999,
      "fzfg": false,
      "metar_trigger": false,
      "taf_trigger": false,
      "metar": "METAR EDJA 031750Z 23009KT 9999 FEW059 09/01 Q1018",
      "taf": "TAF EDJA 031700Z 0318/0403 22010KT 9999 FEW055"
    },
    {
      "icao": "EDLW",
      "alert": "OK",
      "vis_m": 9999,
      "fzfg": false,
      "metar_trigger": false,
      "taf_trigger": false,
      "metar": "METAR EDLW 031750Z 21012KT 9999 OVC039 12/03 Q1012",
      "taf": "TAF EDLW 031700Z 0318/0418 21012KT 9999 BKN030"
    },
    {
      "icao": "EDNY",
      "alert": "OK",
      "vis_m": 9999,
      "fzfg": false,
      "metar_trigger": false,
      "taf_trigger": false,
      "metar": "METAR EDNY 031750Z 20004KT CAVOK 11/02 Q1019",
      "taf": "TAF EDNY 031700Z 0318/0403 VRB03KT CAVOK"
    },
    {
      "icao": "EDSB",
      "alert": "OK",
      "vis_m": 9999,
      "fzfg": false,
      "metar_trigger": false,
      "taf_trigger": false,
      "metar": "METAR EDSB 031750Z 25003KT 220V290 CAVOK 13/03 Q1018",
      "taf": "TAF EDSB 031700Z 0318/0418 22010KT 9999 SCT040"
    },
    {
      "icao": "EETN",
      "alert": "OK",
      "vis_m": 6000,
      "fzfg": false,
      "metar_trigger": false,
      "taf_trigger": false,
      "metar": "METAR EETN 031750Z VRB01KT 6000 -RA SCT004 OVC025 04/03 Q1006 TEMPO 3000 BR BKN004",
      "taf": "TAF EETN 031730Z 0318/0418 VRB02KT 8000 BKN004"
    },
    {
      "icao": "EFTU",
      "alert": "OK",
      "vis_m": 9999,
      "fzfg": false,
      "metar_trigger": false,
      "taf_trigger": false,
      "metar": "METAR EFTU 031750Z AUTO VRB02KT CAVOK 05/M02 Q1005",
      "taf": "TAF EFTU 031723Z 0318/0418 04004KT CAVOK"
    },
    {
      "icao": "EGBB",
      "alert": "OK",
      "vis_m": 9999,
      "fzfg": false,
      "metar_trigger": false,
      "taf_trigger": false,
      "metar": "METAR EGBB 031750Z 27010KT 230V290 9999 BKN037 14/06 Q1008",
      "taf": "TAF EGBB 031700Z 0318/0418 23015G25KT 9999 SCT030"
    },
    {
      "icao": "EGGP",
      "alert": "OK",
      "vis_m": 9999,
      "fzfg": false,
      "metar_trigger": false,
      "taf_trigger": false,
      "metar": "METAR EGGP 031750Z 28018KT 250V310 9999 -RA BKN040 10/05 Q1008",
      "taf": "TAF EGGP 031704Z 0318/0418 26015G25KT 9999 SCT030"
    },
    {
      "icao": "EGGW",
      "alert": "OK",
      "vis_m": 9999,
      "fzfg": false,
      "metar_trigger": false,
      "taf_trigger": false,
      "metar": "METAR EGGW 031750Z AUTO 25022G33KT 9999 BKN021 13/09 Q1008",
      "taf": "TAF EGGW 031655Z 0318/0418 24018G29KT 9999 BKN025"
    },
    {
      "icao": "EGKK",
      "alert": "OK",
      "vis_m": 9999,
      "fzfg": false,
      "metar_trigger": false,
      "taf_trigger": false,
      "metar": "METAR EGKK 031750Z 22013KT 9999 VCSH BKN013 13/11 Q1011",
      "taf": "TAF EGKK 031656Z 0318/0424 20010KT 9999 FEW020 BKN030"
    },
    {
      "icao": "EGNM",
      "alert": "OK",
      "vis_m": 9999,
      "fzfg": false,
      "metar_trigger": false,
      "taf_trigger": false,
      "metar": "METAR EGNM 031750Z 27021G31KT 9999 FEW020 09/04 Q1004",
      "taf": "TAF EGNM 031704Z 0318/0418 25019G35KT 9999 FEW018 SCT025"
    },
    {
      "icao": "EGPD",
      "alert": "OK",
      "vis_m": 9999,
      "fzfg": false,
      "metar_trigger": false,
      "taf_trigger": false,
      "metar": "METAR EGPD 031750Z COR AUTO 27010KT 9999 SCT032 06/02 Q0998 NOSIG",
      "taf": "TAF EGPD 031657Z 0318/0418 27009KT 9999 SCT020"
    },
    {
      "icao": "EGPF",
      "alert": "OK",
      "vis_m": 9999,
      "fzfg": false,
      "metar_trigger": false,
      "taf_trigger": false,
      "metar": "METAR EGPF 031750Z AUTO 28009KT 9999 -RA FEW018/// BKN033/// //////CB 03/02 Q1004 RERA",
      "taf": "TAF EGPF 031658Z 0318/0418 28013KT 9999 SCT025"
    },
    {
      "icao": "EHBK",
      "alert": "OK",
      "vis_m": 9999,
      "fzfg": false,
      "metar_trigger": false,
      "taf_trigger": false,
      "metar": "METAR EHBK 031755Z AUTO 23018KT 200V270 9999 -RA FEW015 BKN021 OVC025 11/06 Q1014 NOSIG",
      "taf": "TAF EHBK 031709Z 0318/0424 22015KT 9999 BKN012"
    },
    {
      "icao": "EHEH",
      "alert": "OK",
      "vis_m": 9999,
      "fzfg": false,
      "metar_trigger": false,
      "taf_trigger": false,
      "metar": "METAR EHEH 031755Z AUTO 22019KT 9999 FEW015 OVC019 12/08 Q1012 WHT BECMG BKN015",
      "taf": "TAF EHEH 031102Z 0312/0418 21010G22KT CAVOK"
    },
    {
      "icao": "EKBI",
      "alert": "OK",
      "vis_m": 9999,
      "fzfg": false,
      "metar_trigger": false,
      "taf_trigger": false,
      "metar": "METAR EKBI 031750Z AUTO 16010KT 9999 -RA OVC008/// 05/04 Q1006",
      "taf": "TAF EKBI 031727Z 0318/0418 22012KT 9999 BKN030"
    },
    {
      "icao": "EKCH",
      "alert": "OK",
      "vis_m": 9999,
      "fzfg": false,
      "metar_trigger": false,
      "taf_trigger": false,
      "metar": "METAR EKCH 031750Z AUTO 20005KT 9999 FEW100/// BKN130/// 06/01 Q1010 NOSIG",
      "taf": "TAF EKCH 031727Z 0318/0418 26015KT 9999 BKN030"
    },
    {
      "icao": "ENAL",
      "alert": "OK",
      "vis_m": 9999,
      "fzfg": false,
      "metar_trigger": false,
      "taf_trigger": false,
      "metar": "METAR ENAL 031750Z 14008KT 9999 BKN052 06/M03 Q0994",
      "taf": "TAF ENAL 031700Z 0318/0403 12009KT 9999 BKN050"
    },
    {
      "icao": "ENBR",
      "alert": "OK",
      "vis_m": 9999,
      "fzfg": false,
      "metar_trigger": false,
      "taf_trigger": false,
      "metar": "METAR ENBR 031750Z 13010KT 9999 -RA SCT008 BKN010 03/01 Q0996 TEMPO 4000 RA BR SCT003 BKN008 RMK WIND 1200FT 14025KT",
      "taf": "TAF ENBR 031700Z 0318/0418 14009KT 9000 -RA FEW003 BKN012"
    },
    {
      "icao": "ENGM",
      "alert": "OK",
      "vis_m": 9999,
      "fzfg": false,
      "metar_trigger": false,
      "taf_trigger": false,
      "metar": "METAR ENGM 031750Z 14006KT 120V180 9999 -SHRA FEW010 BKN012 02/00 Q1004 NOSIG",
      "taf": ""
    },
    {
      "icao": "ENHD",
      "alert": "OK",
      "vis_m": 7000,
      "fzfg": false,
      "metar_trigger": false,
      "taf_trigger": false,
      "metar": "METAR ENHD 031750Z 12017KT 7000 RA SCT009 BKN019 03/01 Q0995",
      "taf": "TAF ENHD 031400Z 0315/0322 14020G32KT 9999 -RA SCT010 BKN018"
    },
    {
      "icao": "ENTC",
      "alert": "OK",
      "vis_m": 9999,
      "fzfg": false,
      "metar_trigger": false,
      "taf_trigger": false,
      "metar": "METAR ENTC 031750Z 29012KT 9999 VCSH BKN042 01/M03 Q1008 NOSIG RMK WIND 2600FT 32010KT",
      "taf": "TAF ENTC 031700Z 0318/0418 26009KT 9999 FEW025 BKN045"
    },
    {
      "icao": "ENTO",
      "alert": "OK",
      "vis_m": 9999,
      "fzfg": false,
      "metar_trigger": false,
      "taf_trigger": false,
      "metar": "METAR ENTO 031750Z 17009KT 9999 -DZ SCT015 BKN022 02/M00 Q1004 BECMG BKN008",
      "taf": "TAF ENTO 031700Z 0318/0418 17014KT 9999 -RASN BKN006"
    },
    {
      "icao": "ENVA",
      "alert": "OK",
      "vis_m": 9999,
      "fzfg": false,
      "metar_trigger": false,
      "taf_trigger": false,
      "metar": "METAR ENVA 031750Z 12012KT 090V150 CAVOK 06/M05 Q1000 NOSIG RMK WIND 670FT 14020KT",
      "taf": "TAF ENVA 031700Z 0318/0418 12008KT CAVOK"
    },
    {
      "icao": "ENZV",
      "alert": "OK",
      "vis_m": 9999,
      "fzfg": false,
      "metar_trigger": false,
      "taf_trigger": false,
      "metar": "METAR ENZV 031750Z 14017G27KT 9999 -RA FEW020 SCT029 BKN038 04/02 Q0995 TEMPO RA BKN014",
      "taf": "TAF ENZV 031700Z 0318/0418 15020KT 9999 -RA SCT010 BKN018"
    },
    {
      "icao": "EPGD",
      "alert": "OK",
      "vis_m": 9999,
      "fzfg": false,
      "metar_trigger": false,
      "taf_trigger": false,
      "metar": "METAR EPGD 031800Z 27015KT 9999 BKN026 04/M02 Q1013",
      "taf": "TAF EPGD 031730Z 0318/0418 26012KT 9999 BKN030"
    },
    {
      "icao": "EPKK",
      "alert": "OK",
      "vis_m": 9999,
      "fzfg": false,
      "metar_trigger": false,
      "taf_trigger": false,
      "metar": "METAR EPKK 031800Z 32008KT CAVOK 11/M00 Q1014",
      "taf": "TAF EPKK 031730Z 0318/0418 31005KT CAVOK"
    },
    {
      "icao": "EPKT",
      "alert": "OK",
      "vis_m": 9999,
      "fzfg": false,
      "metar_trigger": false,
      "taf_trigger": false,
      "metar": "METAR EPKT 031800Z 31005KT CAVOK 07/01 Q1015",
      "taf": ""
    },
    {
      "icao": "EPLB",
      "alert": "OK",
      "vis_m": 9999,
      "fzfg": false,
      "metar_trigger": false,
      "taf_trigger": false,
      "metar": "METAR EPLB 031800Z 29004KT CAVOK 08/00 Q1013",
      "taf": "TAF EPLB 031730Z 0318/0418 28010KT CAVOK"
    },
    {
      "icao": "EPMO",
      "alert": "OK",
      "vis_m": 9999,
      "fzfg": false,
      "metar_trigger": false,
      "taf_trigger": false,
      "metar": "METAR EPMO 031800Z 27007KT CAVOK 06/M00 Q1013",
      "taf": "TAF EPMO 031730Z 0318/0418 28012KT CAVOK"
    },
    {
      "icao": "EPPO",
      "alert": "OK",
      "vis_m": 9999,
      "fzfg": false,
      "metar_trigger": false,
      "taf_trigger": false,
      "metar": "METAR EPPO 031800Z 25006KT CAVOK 07/M02 Q1014",
      "taf": "TAF EPPO 031730Z 0318/0418 27010KT CAVOK"
    },
    {
      "icao": "EPRA",
      "alert": "OK",
      "vis_m": 9999,
      "fzfg": false,
      "metar_trigger": false,
      "taf_trigger": false,
      "metar": "METAR EPRA 031800Z 31006KT CAVOK 11/00 Q1013",
      "taf": "TAF EPRA 031730Z 0318/0403 29006KT CAVOK"
    },
    {
      "icao": "EPRZ",
      "alert": "OK",
      "vis_m": 9999,
      "fzfg": false,
      "metar_trigger": false,
      "taf_trigger": false,
      "metar": "METAR EPRZ 031800Z 33005KT CAVOK 10/01 Q1013",
      "taf": "TAF EPRZ 031730Z 0318/0418 34012KT CAVOK"
    },
    {
      "icao": "EPSC",
      "alert": "OK",
      "vis_m": 9999,
      "fzfg": false,
      "metar_trigger": false,
      "taf_trigger": false,
      "metar": "METAR EPSC 031800Z 15003KT CAVOK 06/M01 Q1013",
      "taf": "TAF EPSC 031730Z 0318/0418 21006KT CAVOK"
    },
    {
      "icao": "EPSY",
      "alert": "OK",
      "vis_m": 9999,
      "fzfg": false,
      "metar_trigger": false,
      "taf_trigger": false,
      "metar": "METAR EPSY 031800Z 02008KT 9999 FEW041 03/01 Q1012",
      "taf": "TAF EPSY 031730Z 0318/0403 33006KT 9999 BKN035"
    },
    {
      "icao": "EPWA",
      "alert": "OK",
      "vis_m": 9999,
      "fzfg": false,
      "metar_trigger": false,
      "taf_trigger": false,
      "metar": "METAR EPWA 031800Z 28007KT CAVOK 09/01 Q1013 NOSIG",
      "taf": "TAF EPWA 031730Z 0318/0418 28010KT CAVOK"
    },
    {
      "icao": "EPWR",
      "alert": "OK",
      "vis_m": 9999,
      "fzfg": false,
      "metar_trigger": false,
      "taf_trigger": false,
      "metar": "METAR EPWR 031800Z 28008KT CAVOK 08/02 Q1015",
      "taf": "TAF EPWR 031730Z 0318/0418 30013KT CAVOK"
    },
    {
      "icao": "ESGG",
      "alert": "OK",
      "vis_m": 9999,
      "fzfg": false,
      "metar_trigger": false,
      "taf_trigger": false,
      "metar": "METAR ESGG 031750Z 17005KT 9999 BKN032 03/00 Q1007",
      "taf": ""
    },
    {
      "icao": "ESKN",
      "alert": "OK",
      "vis_m": 2000,
      "fzfg": false,
      "metar_trigger": false,
      "taf_trigger": false,
      "metar": "METAR ESKN 031750Z 20004KT 160V230 2000 -DZ BR OVC002 03/03 Q1007",
      "taf": "TAF ESKN 031730Z 0318/0418 16004KT 2000 -RA BKN002"
    },
    {
      "icao": "ESMS",
      "alert": "OK",
      "vis_m": 9999,
      "fzfg": false,
      "metar_trigger": false,
      "taf_trigger": false,
      "metar": "METAR ESMS 031750Z 20007KT CAVOK 04/01 Q1010",
      "taf": "TAF ESMS 031727Z 0318/0418 27015KT 9999 BKN025"
    },
    {
      "icao": "ESSA",
      "alert": "OK",
      "vis_m": 9999,
      "fzfg": false,
      "metar_trigger": false,
      "taf_trigger": false,
      "metar": "METAR ESSA 031750Z 19003KT 9999 BKN031 03/01 Q1007 NOSIG",
      "taf": "TAF ESSA 031730Z 0318/0418 VRB02KT 9999 BKN020"
    },
    {
      "icao": "EYKA",
      "alert": "OK",
      "vis_m": 9999,
      "fzfg": false,
      "metar_trigger": false,
      "taf_trigger": false,
      "metar": "METAR EYKA 031750Z 30009KT 280V340 CAVOK 06/01 Q1011",
      "taf": "TAF EYKA 031723Z 0318/0418 24008KT 9000 BKN030"
    },
    {
      "icao": "EYPA",
      "alert": "OK",
      "vis_m": 9999,
      "fzfg": false,
      "metar_trigger": false,
      "taf_trigger": false,
      "metar": "METAR EYPA 031750Z 24006KT 190V340 9999 FEW013 BKN028 OVC033 03/02 Q1010",
      "taf": "TAF EYPA 031700Z 0318/0418 24008KT 9000 OVC015"
    },
    {
      "icao": "EYVI",
      "alert": "OK",
      "vis_m": 9999,
      "fzfg": false,
      "metar_trigger": false,
      "taf_trigger": false,
      "metar": "METAR EYVI 031750Z 18003KT CAVOK 05/M01 Q1009 BECMG 30012KT",
      "taf": "TAF EYVI 031725Z 0318/0418 28010KT 9000 SCT040"
    },
    {
      "icao": "GCFV",
      "alert": "OK",
      "vis_m": 9999,
      "fzfg": false,
      "metar_trigger": false,
      "taf_trigger": false,
      "metar": "METAR GCFV 031730Z 03015KT CAVOK 20/15 Q1016",
      "taf": "TAF GCFV 031400Z 0315/0415 03011KT CAVOK TX24/0414Z TN16/0406Z"
    },
    {
      "icao": "GCLP",
      "alert": "OK",
      "vis_m": 9999,
      "fzfg": false,
      "metar_trigger": false,
      "taf_trigger": false,
      "metar": "METAR GCLP 031730Z 03014KT 9999 FEW035 20/15 Q1017 NOSIG",
      "taf": "TAF GCLP 031400Z 0315/0415 02018KT 9999 FEW035 TX23/0414Z TN16/0406Z"
    },
    {
      "icao": "GCTS",
      "alert": "OK",
      "vis_m": 9999,
      "fzfg": false,
      "metar_trigger": false,
      "taf_trigger": false,
      "metar": "METAR GCTS 031730Z 12007KT 080V150 9999 FEW025 20/15 Q1018 NOSIG",
      "taf": "TAF GCTS 031400Z 0315/0415 20009KT CAVOK TX25/0414Z TN18/0406Z"
    },
    {
      "icao": "GMAD",
      "alert": "OK",
      "vis_m": 8000,
      "fzfg": false,
      "metar_trigger": false,
      "taf_trigger": false,
      "metar": "METAR GMAD 031800Z 24009KT 8000 NSC 22/14 Q1013 NOSIG",
      "taf": "TAF GMAD 031700Z 0318/0424 23011KT 8000 NSC"
    },
    {
      "icao": "GMMN",
      "alert": "OK",
      "vis_m": 9999,
      "fzfg": false,
      "metar_trigger": false,
      "taf_trigger": false,
      "metar": "METAR GMMN 031800Z 02012KT 350V050 CAVOK 19/10 Q1018 NOSIG",
      "taf": "TAF GMMN 031700Z 0318/0424 02012KT CAVOK"
    },
    {
      "icao": "GMMX",
      "alert": "OK",
      "vis_m": 9999,
      "fzfg": false,
      "metar_trigger": false,
      "taf_trigger": false,
      "metar": "METAR GMMX 031800Z 04005KT 350V080 9999 FEW023 27/01 Q1016 NOSIG",
      "taf": "TAF GMMX 031700Z 0318/0424 06006KT 8000 NSC"
    },
    {
      "icao": "HEGN",
      "alert": "OK",
      "vis_m": 9999,
      "fzfg": false,
      "metar_trigger": false,
      "taf_trigger": false,
      "metar": "METAR HEGN 031700Z 34013KT 9999 BKN025 25/M03 Q1012 NOSIG",
      "taf": "TAF HEGN 031700Z 0318/0424 30010G22KT 9999 SCT020"
    },
    {
      "icao": "HEMA",
      "alert": "OK",
      "vis_m": 4000,
      "fzfg": false,
      "metar_trigger": false,
      "taf_trigger": false,
      "metar": "METAR HEMA 031700Z 33020KT 4000 SA NSC 23/12 Q1013 NOSIG",
      "taf": "TAF HEMA 031700Z 0318/0424 31010G22KT 6000 SCT020"
    },
    {
      "icao": "HESH",
      "alert": "OK",
      "vis_m": 6000,
      "fzfg": false,
      "metar_trigger": false,
      "taf_trigger": false,
      "metar": "METAR HESH 031700Z 34014KT 6000 NSC 24/09 Q1012 NOSIG",
      "taf": "TAF HESH 031700Z 0318/0424 34008G18KT 9999 SCT020"
    },
    {
      "icao": "HESX",
      "alert": "OK",
      "vis_m": 9999,
      "fzfg": false,
      "metar_trigger": false,
      "taf_trigger": false,
      "metar": "METAR HESX 031700Z 24008KT CAVOK 22/03 Q1014 NOSIG",
      "taf": "TAF HESX 031700Z 0318/0424 27008KT CAVOK"
    },
    {
      "icao": "LATI",
      "alert": "OK",
      "vis_m": 9999,
      "fzfg": false,
      "metar_trigger": false,
      "taf_trigger": false,
      "metar": "METAR LATI 031750Z 32011KT 9999 SCT090 14/09 Q1007 NOSIG",
      "taf": "TAF LATI 031700Z 0318/0418 VRB05KT 9999 SCT090 TX23/0412Z TN07/0404Z"
    },
    {
      "icao": "LBPD",
      "alert": "OK",
      "vis_m": 9999,
      "fzfg": false,
      "metar_trigger": false,
      "taf_trigger": false,
      "metar": "METAR LBPD 031800Z AUTO 28004KT 9999 FEW056/// BKN100/// OVC220/// 11/09 Q1007 NOSIG",
      "taf": "TAF LBPD 031700Z 0318/0418 VRB03KT 9999 BKN040"
    },
    {
      "icao": "LBSF",
      "alert": "OK",
      "vis_m": 9999,
      "fzfg": false,
      "metar_trigger": false,
      "taf_trigger": false,
      "metar": "METAR LBSF 031800Z AUTO 21004KT 180V260 9999 OVC043/// 10/06 Q1008 NOSIG",
      "taf": "TAF LBSF 031700Z 0318/0418 VRB04KT 9999 SCT015 BKN035"
    },
    {
      "icao": "LBWN",
      "alert": "OK",
      "vis_m": 6000,
      "fzfg": false,
      "metar_trigger": false,
      "taf_trigger": false,
      "metar": "METAR LBWN 031800Z AUTO VRB02KT 6000 OVC004/// 09/09 Q1008 TEMPO 5000 BR BKN004",
      "taf": "TAF LBWN 031700Z 0318/0418 VRB03KT 5000 BR SCT002 BKN006 OVC015"
    },
    {
      "icao": "LCLK",
      "alert": "OK",
      "vis_m": 3500,
      "fzfg": false,
      "metar_trigger": false,
      "taf_trigger": false,
      "metar": "METAR LCLK 031800Z 24009KT 3500 DU NSC 17/14 Q1013 BECMG 5000 DU",
      "taf": "TAF LCLK 031730Z 0318/0418 27008KT 7000 FEW025 SCT040"
    },
    {
      "icao": "LCPH",
      "alert": "OK",
      "vis_m": 3500,
      "fzfg": false,
      "metar_trigger": false,
      "taf_trigger": false,
      "metar": "METAR LCPH 031800Z 27007KT 250V320 3500 DU NSC 17/14 Q1014 BECMG 5000 DU",
      "taf": "TAF LCPH 031730Z 0318/0418 30006KT 7000 FEW030"
    },
    {
      "icao": "LEAL",
      "alert": "OK",
      "vis_m": 9999,
      "fzfg": false,
      "metar_trigger": false,
      "taf_trigger": false,
      "metar": "METAR LEAL 031730Z 11003KT 060V170 CAVOK 17/07 Q1022 NOSIG",
      "taf": "TAF LEAL 031700Z 0318/0418 11010KT CAVOK TX20/0412Z TN08/0405Z"
    },
    {
      "icao": "LEBB",
      "alert": "OK",
      "vis_m": 9999,
      "fzfg": false,
      "metar_trigger": false,
      "taf_trigger": false,
      "metar": "METAR LEBB 031730Z 28006KT 9999 FEW035 15/11 Q1026 NOSIG",
      "taf": "TAF LEBB 031700Z 0318/0418 12006KT CAVOK TX27/0415Z TN06/0405Z"
    },
    {
      "icao": "LEBL",
      "alert": "OK",
      "vis_m": 9999,
      "fzfg": false,
      "metar_trigger": false,
      "taf_trigger": false,
      "metar": "METAR LEBL 031730Z 16009KT 130V190 9999 FEW050 16/11 Q1020 NOSIG",
      "taf": "TAF LEBL 031700Z 0318/0418 20009KT 9999 FEW020 TX19/0412Z TN09/0406Z"
    },
    {
      "icao": "LECH",
      "alert": "OK",
      "vis_m": 9999,
      "fzfg": false,
      "metar_trigger": false,
      "taf_trigger": false,
      "metar": "METAR LECH 031730Z AUTO 22007KT CAVOK 17/02 Q1021",
      "taf": "TAF LECH 031700Z 0318/0418 VRB04KT CAVOK TX23/0413Z TN09/0406Z"
    },
    {
      "icao": "LEMD",
      "alert": "OK",
      "vis_m": 9999,
      "fzfg": false,
      "metar_trigger": false,
      "taf_trigger": false,
      "metar": "METAR LEMD 031730Z 01008KT 340V040 CAVOK 20/01 Q1022 NOSIG",
      "taf": "TAF LEMD 031700Z 0318/0424 36008KT CAVOK TX23/0416Z TN05/0406Z"
    },
    {
      "icao": "LEMG",
      "alert": "OK",
      "vis_m": 9999,
      "fzfg": false,
      "metar_trigger": false,
      "taf_trigger": false,
      "metar": "METAR LEMG 031730Z 12007KT 080V150 CAVOK 17/10 Q1022 NOSIG",
      "taf": "TAF LEMG 031700Z 0318/0418 13010KT 9999 FEW020 TX21/0414Z TN11/0407Z"
    },
    {
      "icao": "LEVC",
      "alert": "OK",
      "vis_m": 9999,
      "fzfg": false,
      "metar_trigger": false,
      "taf_trigger": false,
      "metar": "METAR LEVC 031730Z 11010KT CAVOK 17/03 Q1020 NOSIG",
      "taf": "TAF LEVC 031700Z 0318/0418 13010KT CAVOK TX25/0414Z TN08/0405Z"
    },
    {
      "icao": "LEXJ",
      "alert": "OK",
      "vis_m": 9999,
      "fzfg": false,
      "metar_trigger": false,
      "taf_trigger": false,
      "metar": "METAR LEXJ 031730Z 07004KT 010V130 CAVOK 13/09 Q1026",
      "taf": "TAF LEXJ 031400Z 0315/0415 06006KT 9999 FEW040 TX26/0412Z TN09/0405Z"
    },
    {
      "icao": "LEZG",
      "alert": "OK",
      "vis_m": 9999,
      "fzfg": false,
      "metar_trigger": false,
      "taf_trigger": false,
      "metar": "METAR LEZG 031730Z 31019KT 9999 FEW035 18/02 Q1021 NOSIG",
      "taf": "TAF LEZG 031700Z 0318/0418 30015KT 9999 FEW050 TX26/0414Z TN09/0406Z"
    },
    {
      "icao": "LEZL",
      "alert": "OK",
      "vis_m": 9999,
      "fzfg": false,
      "metar_trigger": false,
      "taf_trigger": false,
      "metar": "METAR LEZL 031730Z 05005KT 020V080 CAVOK 26/02 Q1019 NOSIG",
      "taf": "TAF LEZL 031400Z 0315/0415 06010KT CAVOK TX28/0415Z TN09/0407Z"
    },
    {
      "icao": "LFBD",
      "alert": "OK",
      "vis_m": 9999,
      "fzfg": false,
      "metar_trigger": false,
      "taf_trigger": false,
      "metar": "METAR LFBD 031800Z AUTO 25007KT 9999 FEW020 BKN140 12/09 Q1026 NOSIG",
      "taf": "TAF LFBD 031700Z 0318/0424 23010KT 9999 BKN030 TX23/0415Z TN08/0403Z"
    },
    {
      "icao": "LFLL",
      "alert": "OK",
      "vis_m": 9999,
      "fzfg": false,
      "metar_trigger": false,
      "taf_trigger": false,
      "metar": "METAR LFLL 031800Z 01006KT CAVOK 14/00 Q1022 NOSIG",
      "taf": "TAF LFLL 031700Z 0318/0424 36006KT CAVOK"
    },
    {
      "icao": "LFLS",
      "alert": "OK",
      "vis_m": 9999,
      "fzfg": false,
      "metar_trigger": false,
      "taf_trigger": false,
      "metar": "METAR LFLS 031800Z AUTO 34010KT CAVOK 12/01 Q1021 BECMG 09005KT",
      "taf": "TAF LFLS 031400Z 0315/0415 34010KT 9999 FEW050"
    },
    {
      "icao": "LFMN",
      "alert": "OK",
      "vis_m": 9999,
      "fzfg": false,
      "metar_trigger": false,
      "taf_trigger": false,
      "metar": "METAR LFMN 031800Z 11002KT CAVOK 16/10 Q1015 NOSIG",
      "taf": "TAF LFMN 031400Z 0315/0421 20010KT CAVOK"
    },
    {
      "icao": "LFOB",
      "alert": "OK",
      "vis_m": 9999,
      "fzfg": false,
      "metar_trigger": false,
      "taf_trigger": false,
      "metar": "METAR LFOB 031800Z AUTO 22009KT 9999 OVC006 11/10 Q1017 TEMPO 3000 RADZ OVC003",
      "taf": "TAF LFOB 031700Z 0318/0418 25012KT 9999 OVC012"
    },
    {
      "icao": "LFPO",
      "alert": "OK",
      "vis_m": 9999,
      "fzfg": false,
      "metar_trigger": false,
      "taf_trigger": false,
      "metar": "METAR LFPO 031800Z AUTO 22009KT 190V250 9999 OVC007 11/10 Q1019 NOSIG",
      "taf": "TAF LFPO 031700Z 0318/0424 23012KT 8000 BKN012"
    },
    {
      "icao": "LFSB",
      "alert": "OK",
      "vis_m": 9999,
      "fzfg": false,
      "metar_trigger": false,
      "taf_trigger": false,
      "metar": "METAR LFSB 031800Z AUTO 26006KT CAVOK 13/03 Q1020 NOSIG",
      "taf": "TAF LFSB 031713Z 0318/0418 24005KT 9999 FEW050 BKN100"
    },
    {
      "icao": "LGAV",
      "alert": "OK",
      "vis_m": 9999,
      "fzfg": false,
      "metar_trigger": false,
      "taf_trigger": false,
      "metar": "METAR LGAV 031750Z VRB02KT 9999 FEW018 SCT030 13/09 Q1006 NOSIG",
      "taf": "TAF LGAV 031700Z 0318/0418 VRB05KT 9999 FEW018 SCT035"
    },
    {
      "icao": "LGTS",
      "alert": "OK",
      "vis_m": 9999,
      "fzfg": false,
      "metar_trigger": false,
      "taf_trigger": false,
      "metar": "METAR LGTS 031750Z VRB02KT 9999 FEW015TCU SCT025 14/10 Q1006 NOSIG",
      "taf": "TAF LGTS 031700Z 0318/0418 33005KT 9999 SCT030"
    },
    {
      "icao": "LHBP",
      "alert": "OK",
      "vis_m": 9999,
      "fzfg": false,
      "metar_trigger": false,
      "taf_trigger": false,
      "metar": "METAR LHBP 031800Z 31011KT CAVOK 13/M02 Q1013 NOSIG",
      "taf": "TAF LHBP 031715Z 0318/0418 34011KT CAVOK"
    },
    {
      "icao": "LHDC",
      "alert": "OK",
      "vis_m": 9999,
      "fzfg": false,
      "metar_trigger": false,
      "taf_trigger": false,
      "metar": "METAR LHDC 031745Z AUTO 36011KT CAVOK 15/00 Q1011 NOSIG",
      "taf": "TAF LHDC 031415Z 0315/0324 01013KT CAVOK"
    },
    {
      "icao": "LIBD",
      "alert": "OK",
      "vis_m": 9999,
      "fzfg": false,
      "metar_trigger": false,
      "taf_trigger": false,
      "metar": "METAR LIBD 031750Z 31008KT 280V340 CAVOK 13/10 Q1009",
      "taf": "TAF LIBD 031700Z 0318/0418 28012KT 9999 SCT030"
    },
    {
      "icao": "LIBG",
      "alert": "OK",
      "vis_m": 9999,
      "fzfg": false,
      "metar_trigger": false,
      "taf_trigger": false,
      "metar": "METAR LIBG 031650Z 34010KT CAVOK 15/06 Q1007",
      "taf": "TAF LIBG 031400Z 0315/0324 33016KT 9999 SCT030"
    },
    {
      "icao": "LIBP",
      "alert": "OK",
      "vis_m": 9999,
      "fzfg": false,
      "metar_trigger": false,
      "taf_trigger": false,
      "metar": "METAR LIBP 031750Z AUTO 24005KT 9999 OVC100/// 12/09 Q1014",
      "taf": "TAF LIBP 031700Z 0318/0418 26006KT 9999 SCT050"
    },
    {
      "icao": "LIBR",
      "alert": "OK",
      "vis_m": 9999,
      "fzfg": false,
      "metar_trigger": false,
      "taf_trigger": false,
      "metar": "METAR LIBR 031750Z 31011KT CAVOK 14/11 Q1008",
      "taf": "TAF LIBR 031700Z 0318/0418 33013KT 9999 BKN035"
    },
    {
      "icao": "LICA",
      "alert": "OK",
      "vis_m": 9999,
      "fzfg": false,
      "metar_trigger": false,
      "taf_trigger": false,
      "metar": "METAR LICA 031750Z AUTO 19004KT 9999 -DZRA OVC051/// 13/11 Q1010",
      "taf": "TAF LICA 031700Z 0318/0418 26010KT 9999 FEW030 SCT060"
    },
    {
      "icao": "LICC",
      "alert": "OK",
      "vis_m": 9999,
      "fzfg": false,
      "metar_trigger": false,
      "taf_trigger": false,
      "metar": "METAR LICC 031750Z 21001KT 9999 SCT040 SCT080 14/11 Q1009",
      "taf": "TAF LICC 031700Z 0318/0418 VRB06KT 9999 SCT040"
    },
    {
      "icao": "LICJ",
      "alert": "OK",
      "vis_m": 9999,
      "fzfg": false,
      "metar_trigger": false,
      "taf_trigger": false,
      "metar": "METAR LICJ 031750Z 32008KT CAVOK 15/10 Q1011",
      "taf": "TAF LICJ 031700Z 0318/0418 32007KT 9999 FEW020 SCT050"
    },
    {
      "icao": "LIMC",
      "alert": "OK",
      "vis_m": 9999,
      "fzfg": false,
      "metar_trigger": false,
      "taf_trigger": false,
      "metar": "METAR LIMC 031750Z 23008KT CAVOK 19/M02 Q1013 NOSIG",
      "taf": "TAF LIMC 031700Z 0318/0424 25010KT CAVOK"
    },
    {
      "icao": "LIME",
      "alert": "OK",
      "vis_m": 9999,
      "fzfg": false,
      "metar_trigger": false,
      "taf_trigger": false,
      "metar": "METAR LIME 031750Z 17003KT 150V210 CAVOK 18/M02 Q1013 NOSIG",
      "taf": "TAF LIME 031700Z 0318/0418 VRB05KT CAVOK"
    },
    {
      "icao": "LIMF",
      "alert": "OK",
      "vis_m": 9999,
      "fzfg": false,
      "metar_trigger": false,
      "taf_trigger": false,
      "metar": "METAR LIMF 031750Z 21004KT CAVOK 19/M02 Q1013",
      "taf": "TAF LIMF 031700Z 0318/0418 VRB05KT CAVOK"
    },
    {
      "icao": "LIMJ",
      "alert": "OK",
      "vis_m": 9999,
      "fzfg": false,
      "metar_trigger": false,
      "taf_trigger": false,
      "metar": "METAR LIMJ 031750Z 29007KT CAVOK 17/05 Q1013",
      "taf": "TAF LIMJ 031700Z 0318/0418 25010KT CAVOK"
    },
    {
      "icao": "LIPE",
      "alert": "OK",
      "vis_m": 9999,
      "fzfg": false,
      "metar_trigger": false,
      "taf_trigger": false,
      "metar": "METAR LIPE 031750Z 10005KT CAVOK 15/02 Q1013",
      "taf": "TAF LIPE 031700Z 0318/0418 VRB05KT 9999 SCT060"
    },
    {
      "icao": "LIPH",
      "alert": "OK",
      "vis_m": 9999,
      "fzfg": false,
      "metar_trigger": false,
      "taf_trigger": false,
      "metar": "METAR LIPH 031750Z 18003KT CAVOK 17/00 Q1013",
      "taf": "TAF LIPH 031700Z 0318/0418 VRB05KT 9999 FEW060"
    },
    {
      "icao": "LIPQ",
      "alert": "OK",
      "vis_m": 9999,
      "fzfg": false,
      "metar_trigger": false,
      "taf_trigger": false,
      "metar": "METAR LIPQ 031750Z AUTO 28004KT 9999 NCD 16/02 Q1013",
      "taf": "TAF LIPQ 031700Z 0318/0418 VRB05KT 9999 FEW060"
    },
    {
      "icao": "LIPR",
      "alert": "OK",
      "vis_m": 9999,
      "fzfg": false,
      "metar_trigger": false,
      "taf_trigger": false,
      "metar": "METAR LIPR 031750Z VRB01KT CAVOK 14/02 Q1014",
      "taf": "TAF LIPR 031700Z 0318/0418 VRB05KT 9999 FEW060"
    },
    {
      "icao": "LIPX",
      "alert": "OK",
      "vis_m": 9999,
      "fzfg": false,
      "metar_trigger": false,
      "taf_trigger": false,
      "metar": "METAR LIPX 031750Z 23006KT CAVOK 17/01 Q1013",
      "taf": "TAF LIPX 031700Z 0318/0418 VRB05KT CAVOK"
    },
    {
      "icao": "LIPY",
      "alert": "OK",
      "vis_m": 9999,
      "fzfg": false,
      "metar_trigger": false,
      "taf_trigger": false,
      "metar": "METAR LIPY 031750Z AUTO VRB01KT 9999 -RA NCD 13/03 Q1014",
      "taf": "TAF LIPY 031700Z 0318/0418 34010KT 9999 SCT060"
    },
    {
      "icao": "LIPZ",
      "alert": "OK",
      "vis_m": 9999,
      "fzfg": false,
      "metar_trigger": false,
      "taf_trigger": false,
      "metar": "METAR LIPZ 031750Z 19004KT CAVOK 15/07 Q1013 NOSIG",
      "taf": "TAF LIPZ 031700Z 0318/0424 VRB05KT CAVOK"
    },
    {
      "icao": "LIRF",
      "alert": "OK",
      "vis_m": 9999,
      "fzfg": false,
      "metar_trigger": false,
      "taf_trigger": false,
      "metar": "METAR LIRF 031750Z 36008KT CAVOK 16/05 Q1011 NOSIG",
      "taf": "TAF LIRF 031700Z 0318/0424 02012KT CAVOK"
    },
    {
      "icao": "LIRN",
      "alert": "OK",
      "vis_m": 9999,
      "fzfg": false,
      "metar_trigger": false,
      "taf_trigger": false,
      "metar": "METAR LIRN 031750Z AUTO 04006KT 360V060 9999 FEW120/// BKN140/// 13/06 Q1011",
      "taf": "TAF LIRN 031700Z 0318/0418 03008KT 9999 FEW080"
    },
    {
      "icao": "LIRP",
      "alert": "OK",
      "vis_m": 9999,
      "fzfg": false,
      "metar_trigger": false,
      "taf_trigger": false,
      "metar": "METAR LIRP 031745Z 30005KT CAVOK 17/03 Q1013 NOSIG",
      "taf": "TAF LIRP 031700Z 0318/0418 29009KT 9999 FEW090"
    },
    {
      "icao": "LIRZ",
      "alert": "OK",
      "vis_m": 9999,
      "fzfg": false,
      "metar_trigger": false,
      "taf_trigger": false,
      "metar": "METAR LIRZ 031750Z AUTO 05008KT 9999 NCD 13/01 Q1013",
      "taf": "TAF LIRZ 031700Z 0318/0418 05010KT CAVOK"
    },
    {
      "icao": "LJLJ",
      "alert": "OK",
      "vis_m": 9999,
      "fzfg": false,
      "metar_trigger": false,
      "taf_trigger": false,
      "metar": "METAR LJLJ 031730Z 13005KT 110V200 9999 FEW080 14/M02 Q1014 NOSIG",
      "taf": "TAF LJLJ 031700Z 0318/0418 34004KT 9999 FEW080"
    },
    {
      "icao": "LKMT",
      "alert": "OK",
      "vis_m": 9999,
      "fzfg": false,
      "metar_trigger": false,
      "taf_trigger": false,
      "metar": "METAR LKMT 031800Z 01006KT CAVOK 09/02 Q1015 NOSIG",
      "taf": "TAF LKMT 031700Z 0318/0418 02005KT CAVOK"
    },
    {
      "icao": "LKPR",
      "alert": "OK",
      "vis_m": 9999,
      "fzfg": false,
      "metar_trigger": false,
      "taf_trigger": false,
      "metar": "METAR LKPR 031800Z 25008KT CAVOK 09/01 Q1015 NOSIG",
      "taf": "TAF LKPR 031700Z 0318/0424 26010KT CAVOK"
    },
    {
      "icao": "LLBG",
      "alert": "OK",
      "vis_m": 5000,
      "fzfg": false,
      "metar_trigger": false,
      "taf_trigger": false,
      "metar": "METAR LLBG 031750Z VRB03KT 5000 DU NSC 17/08 Q1016 NOSIG",
      "taf": "TAF LLBG 031703Z 0318/0418 VRB04KT 5000 DU NSC TX23/0412Z TN13/0404Z"
    },
    {
      "icao": "LMML",
      "alert": "OK",
      "vis_m": 9999,
      "fzfg": false,
      "metar_trigger": false,
      "taf_trigger": false,
      "metar": "METAR LMML 031745Z 27013KT 9999 FEW017 13/10 Q1011 NOSIG",
      "taf": "TAF LMML 031700Z 0318/0418 28015KT 9999 FEW020"
    },
    {
      "icao": "LOWW",
      "alert": "OK",
      "vis_m": 9999,
      "fzfg": false,
      "metar_trigger": false,
      "taf_trigger": false,
      "metar": "METAR LOWW 031750Z 30009KT CAVOK 13/00 Q1016 NOSIG",
      "taf": "TAF LOWW 031715Z 0318/0424 29006KT CAVOK TX14/0415Z TN06/0402Z"
    },
    {
      "icao": "LPFR",
      "alert": "OK",
      "vis_m": 9999,
      "fzfg": false,
      "metar_trigger": false,
      "taf_trigger": false,
      "metar": "METAR LPFR 031730Z 27010KT CAVOK 20/09 Q1021",
      "taf": "TAF LPFR 031700Z 0318/0418 29007KT CAVOK"
    },
    {
      "icao": "LPMA",
      "alert": "OK",
      "vis_m": 9999,
      "fzfg": false,
      "metar_trigger": false,
      "taf_trigger": false,
      "metar": "METAR LPMA 031730Z 02017KT 9999 FEW016 18/12 Q1020",
      "taf": "TAF LPMA 031700Z 0318/0418 03015KT 9999 SCT015"
    },
    {
      "icao": "LPPR",
      "alert": "OK",
      "vis_m": 9999,
      "fzfg": false,
      "metar_trigger": false,
      "taf_trigger": false,
      "metar": "METAR LPPR 031730Z 31006KT 280V340 CAVOK 17/11 Q1022",
      "taf": "TAF LPPR 031700Z 0318/0418 31008KT CAVOK"
    },
    {
      "icao": "LPPS",
      "alert": "OK",
      "vis_m": 9999,
      "fzfg": false,
      "metar_trigger": false,
      "taf_trigger": false,
      "metar": "METAR LPPS 031730Z 06013KT 9999 FEW015 17/12 Q1021",
      "taf": "TAF LPPS 031700Z 0318/0424 06012KT 9999 SCT013"
    },
    {
      "icao": "LPPT",
      "alert": "OK",
      "vis_m": 9999,
      "fzfg": false,
      "metar_trigger": false,
      "taf_trigger": false,
      "metar": "METAR LPPT 031730Z 33009KT 290V350 CAVOK 23/12 Q1022",
      "taf": "TAF LPPT 031700Z 0318/0424 31012KT CAVOK"
    },
    {
      "icao": "LQBK",
      "alert": "OK",
      "vis_m": 9999,
      "fzfg": false,
      "metar_trigger": false,
      "taf_trigger": false,
      "metar": "METAR LQBK 031800Z 30007KT CAVOK 12/M02 Q1014 NOSIG",
      "taf": "TAF LQBK 031700Z 0318/0418 30007KT CAVOK TX17/0413Z TN04/0405Z"
    },
    {
      "icao": "LQSA",
      "alert": "OK",
      "vis_m": 9999,
      "fzfg": false,
      "metar_trigger": false,
      "taf_trigger": false,
      "metar": "METAR LQSA 031800Z 13004KT 9999 FEW035 OVC050 06/05 Q1014 NOSIG",
      "taf": "TAF LQSA 031700Z 0318/0418 VRB02KT 9999 FEW030 BKN045 TX15/0414Z TN03/0404Z"
    },
    {
      "icao": "LQTZ",
      "alert": "OK",
      "vis_m": 5000,
      "fzfg": false,
      "metar_trigger": false,
      "taf_trigger": false,
      "metar": "METAR LQTZ 031800Z 00000KT 5000 BR OVC055 05/05 Q1013",
      "taf": "TAF LQTZ 031700Z 0318/0418 29005KT 9999 SCT040 TX14/0413Z TN02/0405Z"
    },
    {
      "icao": "LRBC",
      "alert": "OK",
      "vis_m": 9999,
      "fzfg": false,
      "metar_trigger": false,
      "taf_trigger": false,
      "metar": "METAR LRBC 031730Z 35004KT 9999 BKN029 BKN058 11/08 Q1009",
      "taf": "TAF LRBC 031700Z 0318/0403 33008KT 9999 BKN020 BKN030"
    },
    {
      "icao": "LRBS",
      "alert": "OK",
      "vis_m": 9999,
      "fzfg": false,
      "metar_trigger": false,
      "taf_trigger": false,
      "metar": "METAR LRBS 031730Z VRB01KT 9999 FEW045CB 13/09 Q1007 NOSIG",
      "taf": "TAF LRBS 031700Z 0318/0418 VRB04KT 9999 FEW050CB"
    },
    {
      "icao": "LRBV",
      "alert": "OK",
      "vis_m": 9999,
      "fzfg": false,
      "metar_trigger": false,
      "taf_trigger": false,
      "metar": "METAR LRBV 031730Z 15008KT 9999 -SHRA FEW012 SCT028CB BKN035 09/07 Q1008",
      "taf": "TAF LRBV 031700Z 0318/0403 VRB04KT 9999 BKN040"
    },
    {
      "icao": "LRCL",
      "alert": "OK",
      "vis_m": 9999,
      "fzfg": false,
      "metar_trigger": false,
      "taf_trigger": false,
      "metar": "METAR LRCL 031730Z 27004KT 9999 OVC053 10/09 Q1010",
      "taf": "TAF LRCL 031700Z 0318/0403 VRB04KT 9999 BKN055"
    },
    {
      "icao": "LRCV",
      "alert": "OK",
      "vis_m": 9999,
      "fzfg": false,
      "metar_trigger": false,
      "taf_trigger": false,
      "metar": "METAR LRCV 031730Z 33004KT 9999 VCSH SCT022 SCT040CB 10/08 Q1008",
      "taf": "TAF LRCV 031700Z 0318/0403 VRB04KT 9999 FEW040CB"
    },
    {
      "icao": "LRIA",
      "alert": "OK",
      "vis_m": 9999,
      "fzfg": false,
      "metar_trigger": false,
      "taf_trigger": false,
      "metar": "METAR LRIA 031730Z 28004KT 240V310 9999 BKN023 12/10 Q1008",
      "taf": "TAF LRIA 031700Z 0318/0403 31008KT 9999 SCT015 BKN025"
    },
    {
      "icao": "LROP",
      "alert": "OK",
      "vis_m": 9999,
      "fzfg": false,
      "metar_trigger": false,
      "taf_trigger": false,
      "metar": "METAR LROP 031730Z 05003KT 9999 FEW050CB 12/08 Q1007 NOSIG",
      "taf": "TAF LROP 031700Z 0318/0418 VRB04KT 9999 FEW050CB"
    },
    {
      "icao": "LRSB",
      "alert": "OK",
      "vis_m": 9999,
      "fzfg": false,
      "metar_trigger": false,
      "taf_trigger": false,
      "metar": "METAR LRSB 031730Z 32004KT 9999 FEW008 BKN016 BKN041 10/10 Q1009",
      "taf": "TAF LRSB 031700Z 0318/0418 VRB04KT 9999 BKN015 BKN040"
    },
    {
      "icao": "LRSM",
      "alert": "OK",
      "vis_m": 9999,
      "fzfg": false,
      "metar_trigger": false,
      "taf_trigger": false,
      "metar": "METAR LRSM 031730Z AUTO 27003KT 230V300 9999 -SHRA BKN065/// 13/08 Q1010",
      "taf": "TAF LRSM 031400Z 0315/0324 VRB04KT CAVOK"
    },
    {
      "icao": "LRSV",
      "alert": "OK",
      "vis_m": 9999,
      "fzfg": false,
      "metar_trigger": false,
      "taf_trigger": false,
      "metar": "METAR LRSV 031730Z 27006KT 9999 -RA BKN038 10/08 Q1009",
      "taf": "TAF LRSV 031700Z 0318/0403 28006KT 9999 SCT015 BKN035"
    },
    {
      "icao": "LRTM",
      "alert": "OK",
      "vis_m": 9999,
      "fzfg": false,
      "metar_trigger": false,
      "taf_trigger": false,
      "metar": "METAR LRTM 031730Z VRB02KT 9999 BKN042 12/09 Q1009",
      "taf": "TAF LRTM 031700Z 0318/0403 VRB04KT 8000 -RA BKN045"
    },
    {
      "icao": "LRTR",
      "alert": "OK",
      "vis_m": 9999,
      "fzfg": false,
      "metar_trigger": false,
      "taf_trigger": false,
      "metar": "METAR LRTR 031730Z 10005KT 9999 -RA NSC 12/12 Q1010",
      "taf": "TAF LRTR 031700Z 0318/0418 09008KT 9999 FEW045"
    },
    {
      "icao": "LTAC",
      "alert": "OK",
      "vis_m": 9999,
      "fzfg": false,
      "metar_trigger": false,
      "taf_trigger": false,
      "metar": "METAR LTAC 031750Z 22006KT 9999 SCT035 BKN080 08/05 Q1009 NOSIG RMK RWY21C 18006KT RWY03L 22005KT 190V250 RWY21R 18006KT RWY03R 20008KT RWY21L VRB02KT",
      "taf": "TAF LTAC 031640Z 0318/0418 24012KT 9999 SCT040 SCT100"
    },
    {
      "icao": "LTFM",
      "alert": "OK",
      "vis_m": 9999,
      "fzfg": false,
      "metar_trigger": false,
      "taf_trigger": false,
      "metar": "METAR LTFM 031750Z 22008KT 9999 SCT035 BKN100 13/09 Q1007 NOSIG RMK RWY17L 22010KT RWY34L 21006KT RWY16R 22005KT RWY36 23008KT 190V250 RWY18 23011KT",
      "taf": "TAF LTFM 031640Z 0318/0424 21012KT 9999 SCT035 BKN100"
    },
    {
      "icao": "LUKK",
      "alert": "OK",
      "vis_m": 9999,
      "fzfg": false,
      "metar_trigger": false,
      "taf_trigger": false,
      "metar": "METAR LUKK 031800Z 29005KT 9999 FEW025 13/12 Q1007 TEMPO SCT045CB",
      "taf": "TAF LUKK 031713Z 0318/0418 29006KT 9999 SCT030"
    },
    {
      "icao": "LWOH",
      "alert": "OK",
      "vis_m": 9999,
      "fzfg": false,
      "metar_trigger": false,
      "taf_trigger": false,
      "metar": "METAR LWOH 031720Z 36008KT 320V050 9999 BKN050 10/04 Q1007",
      "taf": "TAF LWOH 031715Z 0318/0418 15005KT 9999 FEW040 BKN050"
    },
    {
      "icao": "LWSK",
      "alert": "OK",
      "vis_m": 9999,
      "fzfg": false,
      "metar_trigger": false,
      "taf_trigger": false,
      "metar": "METAR LWSK 031750Z VRB02KT 9999 SCT033 BKN080 12/07 Q1008 NOSIG",
      "taf": "TAF LWSK 031715Z 0318/0418 32005KT 9999 SCT035 BKN080"
    },
    {
      "icao": "LYBE",
      "alert": "OK",
      "vis_m": 6000,
      "fzfg": false,
      "metar_trigger": false,
      "taf_trigger": false,
      "metar": "METAR LYBE 031800Z 17006KT 130V200 6000 NSC 10/09 Q1011 NOSIG",
      "taf": "TAF LYBE 031700Z 0318/0418 28008KT 8000 BKN045 TX18/0413Z TN06/0406Z"
    },
    {
      "icao": "LYNI",
      "alert": "OK",
      "vis_m": 9999,
      "fzfg": false,
      "metar_trigger": false,
      "taf_trigger": false,
      "metar": "METAR LYNI 031800Z 32010KT 9999 FEW010 SCT040 BKN080 10/09 Q1009 NOSIG",
      "taf": "TAF LYNI 031700Z 0318/0418 32010KT 9999 SCT012 BKN040 TX14/0413Z TN07/0405Z"
    },
    {
      "icao": "LYPG",
      "alert": "OK",
      "vis_m": 9999,
      "fzfg": false,
      "metar_trigger": false,
      "taf_trigger": false,
      "metar": "METAR LYPG 031800Z 36017KT 330V030 9999 SCT050 16/02 Q1008 NOSIG",
      "taf": "TAF LYPG 031700Z 0318/0418 36018KT 9999 SCT050 TX21/0413Z TN10/0405Z"
    },
    {
      "icao": "LZIB",
      "alert": "OK",
      "vis_m": 9999,
      "fzfg": false,
      "metar_trigger": false,
      "taf_trigger": false,
      "metar": "METAR LZIB 031800Z 34005KT CAVOK 13/M00 Q1015 NOSIG",
      "taf": "TAF LZIB 031715Z 0318/0418 33014KT CAVOK"
    },
    {
      "icao": "LZKZ",
      "alert": "OK",
      "vis_m": 9999,
      "fzfg": false,
      "metar_trigger": false,
      "taf_trigger": false,
      "metar": "METAR LZKZ 031800Z 01011KT CAVOK 11/M03 Q1013 NOSIG",
      "taf": "TAF LZKZ 031715Z 0318/0418 01014KT CAVOK"
    },
    {
      "icao": "LZTT",
      "alert": "OK",
      "vis_m": 9999,
      "fzfg": false,
      "metar_trigger": false,
      "taf_trigger": false,
      "metar": "METAR LZTT 031800Z 21005KT CAVOK 05/M01 Q1013 NOSIG",
      "taf": "TAF LZTT 031715Z 0318/0418 24005KT CAVOK"
    },
    {
      "icao": "OEJN",
      "alert": "OK",
      "vis_m": 9999,
      "fzfg": false,
      "metar_trigger": false,
      "taf_trigger": false,
      "metar": "METAR OEJN 031800Z 32004KT CAVOK 31/17 Q1009 NOSIG",
      "taf": "TAF OEJN 031700Z 0318/0424 36006KT 7000 NSC"
    },
    {
      "icao": "OEMA",
      "alert": "OK",
      "vis_m": 9999,
      "fzfg": false,
      "metar_trigger": false,
      "taf_trigger": false,
      "metar": "METAR OEMA 031800Z 34003KT 9999 FEW045 34/04 Q1013 NOSIG",
      "taf": "TAF OEMA 031700Z 0318/0424 35006KT 9999 SCT045"
    },
    {
      "icao": "OJAI",
      "alert": "OK",
      "vis_m": 1000,
      "fzfg": false,
      "metar_trigger": false,
      "taf_trigger": false,
      "metar": "METAR OJAI 031700Z 28005KT 1000 DU BKN025 12/06 Q1017 NOSIG",
      "taf": "TAF OJAI 031700Z 0318/0424 28010KT 0800 DU NSC"
    },
    {
      "icao": "OMAA",
      "alert": "OK",
      "vis_m": null,
      "fzfg": false,
      "metar_trigger": false,
      "taf_trigger": false,
      "metar": "",
      "taf": ""
    },
    {
      "icao": "OMDB",
      "alert": "OK",
      "vis_m": null,
      "fzfg": false,
      "metar_trigger": false,
      "taf_trigger": false,
      "metar": "",
      "taf": ""
    },
    {
      "icao": "UAAA",
      "alert": "OK",
      "vis_m": 9999,
      "fzfg": false,
      "metar_trigger": false,
      "taf_trigger": false,
      "metar": "METAR UAAA 031730Z 22003MPS 9999 SCT200 16/04 Q1005 NOSIG",
      "taf": "TAF UAAA 031700Z 0318/0418 21003MPS 9999 SCT100 TX26/0410Z TN10/0401Z"
    },
    {
      "icao": "UBBB",
      "alert": "OK",
      "vis_m": 9999,
      "fzfg": false,
      "metar_trigger": false,
      "taf_trigger": false,
      "metar": "METAR UBBB 031800Z 18012KT CAVOK 14/12 Q1003 NOSIG",
      "taf": "TAF UBBB 031713Z 0318/0418 15012KT 9999 SCT010 TX14/0409Z TN10/0401Z"
    },
    {
      "icao": "UDSG",
      "alert": "OK",
      "vis_m": 9999,
      "fzfg": false,
      "metar_trigger": false,
      "taf_trigger": false,
      "metar": "METAR UDSG 031730Z 20006KT 9999 FEW049 08/02 Q1010 NOSIG",
      "taf": "TAF UDSG 031700Z 0318/0418 21006KT 9999 SCT040"
    },
    {
      "icao": "UDYZ",
      "alert": "OK",
      "vis_m": 9999,
      "fzfg": false,
      "metar_trigger": false,
      "taf_trigger": false,
      "metar": "METAR UDYZ 031730Z 32004KT 9999 SCT043CB 14/05 Q1007 NOSIG",
      "taf": "TAF UDYZ 031700Z 0318/0418 30006KT 9999 SCT040"
    },
    {
      "icao": "UGKO",
      "alert": "OK",
      "vis_m": 9999,
      "fzfg": false,
      "metar_trigger": false,
      "taf_trigger": false,
      "metar": "METAR UGKO 031730Z 26020G30KT 9999 -SHRA SCT024CB BKN031 14/10 Q1007 NOSIG",
      "taf": "TAF UGKO 031700Z 0318/0418 25010KT 9999 BKN050 TX15/0411Z TN11/0403Z"
    }
  ]
}