{
  "ts_utc": "2026-06-29T06:39:02Z",
  "threshold_m": 150,
  "source": "stations_override.txt (ICAO list) + aviationweather.gov (METAR/TAF raw)",
  "station_count": 159,
  "stations": [
    {
      "icao": "BIKF",
      "alert": "OK",
      "vis_m": 9999,
      "fzfg": false,
      "metar_trigger": false,
      "taf_trigger": false,
      "metar": "METAR BIKF 290630Z 25010KT 9999 SCT012 BKN030 BKN060 10/08 Q0995",
      "taf": "TAF BIKF 290457Z 2906/3006 25008KT 9999 FEW030 BKN040 TX11/2915Z TN08/2906Z"
    },
    {
      "icao": "BKPR",
      "alert": "OK",
      "vis_m": 9999,
      "fzfg": false,
      "metar_trigger": false,
      "taf_trigger": false,
      "metar": "METAR BKPR 290630Z VRB02KT CAVOK 23/16 Q1022 NOSIG",
      "taf": "TAF BKPR 290530Z 2906/3006 07008KT CAVOK"
    },
    {
      "icao": "EBCI",
      "alert": "OK",
      "vis_m": 9999,
      "fzfg": false,
      "metar_trigger": false,
      "taf_trigger": false,
      "metar": "METAR EBCI 290620Z 27004KT 220V300 CAVOK 16/14 Q1025 NOSIG",
      "taf": "TAF EBCI 290510Z 2900/3006 33007KT CAVOK"
    },
    {
      "icao": "EDDB",
      "alert": "OK",
      "vis_m": 9999,
      "fzfg": false,
      "metar_trigger": false,
      "taf_trigger": false,
      "metar": "METAR EDDB 290620Z COR AUTO 03003KT 350V080 CAVOK 23/19 Q1019 NOSIG",
      "taf": "TAF EDDB 290500Z 2906/3006 14005KT 9999 SCT040"
    },
    {
      "icao": "EDDH",
      "alert": "OK",
      "vis_m": 9999,
      "fzfg": false,
      "metar_trigger": false,
      "taf_trigger": false,
      "metar": "METAR EDDH 290620Z AUTO 29005KT 260V320 9999 -RA BKN042 21/18 Q1022 TEMPO SHRA BKN040CB",
      "taf": "TAF EDDH 290500Z 2906/3012 29004KT 9999 BKN035"
    },
    {
      "icao": "EDDK",
      "alert": "OK",
      "vis_m": 9999,
      "fzfg": false,
      "metar_trigger": false,
      "taf_trigger": false,
      "metar": "METAR EDDK 290620Z AUTO 33005KT 9999 FEW022 22/18 Q1023 NOSIG",
      "taf": "TAF EDDK 290500Z 2906/3012 33007KT CAVOK"
    },
    {
      "icao": "EDDN",
      "alert": "OK",
      "vis_m": 9999,
      "fzfg": false,
      "metar_trigger": false,
      "taf_trigger": false,
      "metar": "METAR EDDN 290620Z AUTO 35005KT CAVOK 23/18 Q1022 NOSIG",
      "taf": "TAF EDDN 290500Z 2906/3006 VRB03KT CAVOK"
    },
    {
      "icao": "EDDS",
      "alert": "OK",
      "vis_m": 9999,
      "fzfg": false,
      "metar_trigger": false,
      "taf_trigger": false,
      "metar": "METAR EDDS 290620Z AUTO 32009KT 280V360 9999 SHRA FEW027 SCT///TCU 21/17 Q1023 RETS BECMG NSW",
      "taf": "TAF EDDS 290500Z 2906/3006 28004KT CAVOK"
    },
    {
      "icao": "EDFH",
      "alert": "OK",
      "vis_m": 8000,
      "fzfg": false,
      "metar_trigger": false,
      "taf_trigger": false,
      "metar": "METAR EDFH 290620Z 02007KT 340V060 8000 FEW005 BKN007 OVC021 18/18 Q1025",
      "taf": ""
    },
    {
      "icao": "EDJA",
      "alert": "OK",
      "vis_m": 9999,
      "fzfg": false,
      "metar_trigger": false,
      "taf_trigger": false,
      "metar": "METAR EDJA 290620Z 24010KT CAVOK 23/15 Q1024",
      "taf": ""
    },
    {
      "icao": "EDLW",
      "alert": "OK",
      "vis_m": 9999,
      "fzfg": false,
      "metar_trigger": false,
      "taf_trigger": false,
      "metar": "METAR EDLW 290620Z VRB02KT CAVOK 21/15 Q1023",
      "taf": "TAF EDLW 290500Z 2906/3006 VRB02KT CAVOK"
    },
    {
      "icao": "EDNY",
      "alert": "OK",
      "vis_m": 9999,
      "fzfg": false,
      "metar_trigger": false,
      "taf_trigger": false,
      "metar": "METAR EDNY 290620Z 25007KT 9999 SCT034 BKN053 24/17 Q1024",
      "taf": "TAF EDNY 290500Z 2906/2915 23005KT CAVOK"
    },
    {
      "icao": "EDSB",
      "alert": "OK",
      "vis_m": 9999,
      "fzfg": false,
      "metar_trigger": false,
      "taf_trigger": false,
      "metar": "METAR EDSB 290620Z 32003KT 260V010 CAVOK 21/20 Q1022",
      "taf": "TAF EDSB 290500Z 2906/3006 20005KT CAVOK"
    },
    {
      "icao": "EETN",
      "alert": "OK",
      "vis_m": 2300,
      "fzfg": false,
      "metar_trigger": false,
      "taf_trigger": false,
      "metar": "METAR EETN 290620Z 34004KT 300V010 2300 1200W R26/P2000N BR OVC002 17/16 Q1014 TEMPO 0700 FG",
      "taf": "TAF EETN 290530Z 2906/3006 33005KT 8000 BKN005"
    },
    {
      "icao": "EFTU",
      "alert": "OK",
      "vis_m": 9999,
      "fzfg": false,
      "metar_trigger": false,
      "taf_trigger": false,
      "metar": "METAR EFTU 290620Z AUTO VRB03KT CAVOK 19/15 Q1014",
      "taf": "TAF EFTU 290527Z 2906/3006 01004KT 9999 FEW005"
    },
    {
      "icao": "EGBB",
      "alert": "OK",
      "vis_m": 9999,
      "fzfg": false,
      "metar_trigger": false,
      "taf_trigger": false,
      "metar": "METAR EGBB 290620Z 26008KT CAVOK 15/10 Q1025",
      "taf": ""
    },
    {
      "icao": "EGGP",
      "alert": "OK",
      "vis_m": 9999,
      "fzfg": false,
      "metar_trigger": false,
      "taf_trigger": false,
      "metar": "METAR EGGP 290620Z 23005KT 9999 BKN048 15/10 Q1024",
      "taf": "TAF EGGP 290459Z 2906/3006 23005KT 9999 FEW030"
    },
    {
      "icao": "EGGW",
      "alert": "OK",
      "vis_m": 9999,
      "fzfg": false,
      "metar_trigger": false,
      "taf_trigger": false,
      "metar": "METAR EGGW 290620Z AUTO 25008KT 9999 NCD 15/10 Q1026",
      "taf": "TAF EGGW 290458Z 2906/3006 25007KT 9999 FEW045"
    },
    {
      "icao": "EGKK",
      "alert": "OK",
      "vis_m": 9999,
      "fzfg": false,
      "metar_trigger": false,
      "taf_trigger": false,
      "metar": "METAR EGKK 290620Z 23006KT CAVOK 15/11 Q1027",
      "taf": "TAF EGKK 290458Z 2906/3012 VRB03KT 9999 SCT030"
    },
    {
      "icao": "EGNM",
      "alert": "OK",
      "vis_m": 9999,
      "fzfg": false,
      "metar_trigger": false,
      "taf_trigger": false,
      "metar": "METAR EGNM 290620Z 24011KT 9999 FEW042 14/10 Q1023",
      "taf": "TAF EGNM 290457Z 2906/3006 25010KT 9999 FEW030"
    },
    {
      "icao": "EGPD",
      "alert": "OK",
      "vis_m": 9999,
      "fzfg": false,
      "metar_trigger": false,
      "taf_trigger": false,
      "metar": "METAR EGPD 290620Z AUTO 19008KT 9999 SCT040 14/08 Q1017",
      "taf": "TAF EGPD 290453Z 2906/3006 22009KT 9999 SCT045"
    },
    {
      "icao": "EGPF",
      "alert": "OK",
      "vis_m": 9999,
      "fzfg": false,
      "metar_trigger": false,
      "taf_trigger": false,
      "metar": "METAR EGPF 290620Z AUTO 22016KT 9999 BKN031 BKN041 13/10 Q1020",
      "taf": "TAF EGPF 290502Z 2906/3006 23010KT 9999 BKN025"
    },
    {
      "icao": "EHBK",
      "alert": "OK",
      "vis_m": 9999,
      "fzfg": false,
      "metar_trigger": false,
      "taf_trigger": false,
      "metar": "METAR EHBK 290625Z AUTO 26006KT 210V310 9999 NSC 19/14 Q1024 NOSIG",
      "taf": "TAF EHBK 290508Z 2906/3012 27005KT CAVOK"
    },
    {
      "icao": "EHEH",
      "alert": "OK",
      "vis_m": 9999,
      "fzfg": false,
      "metar_trigger": false,
      "taf_trigger": false,
      "metar": "METAR EHEH 290625Z AUTO 25005KT 210V300 9999 BKN130 OVC290 18/14 Q1024 BLU NOSIG RMK TREND REMOTE BY EHWX",
      "taf": "TAF EHEH 290515Z 2906/3012 25006KT CAVOK"
    },
    {
      "icao": "EKBI",
      "alert": "OK",
      "vis_m": 9999,
      "fzfg": false,
      "metar_trigger": false,
      "taf_trigger": false,
      "metar": "METAR EKBI 290620Z AUTO 24007KT 9999 BKN008/// 19/17 Q1021",
      "taf": "TAF EKBI 290527Z 2906/3006 28008KT 9999 BKN006"
    },
    {
      "icao": "EKCH",
      "alert": "OK",
      "vis_m": 9999,
      "fzfg": false,
      "metar_trigger": false,
      "taf_trigger": false,
      "metar": "METAR EKCH 290620Z AUTO 26007KT 240V300 9999 NCD 22/17 Q1020 NOSIG",
      "taf": "TAF EKCH 290527Z 2906/3006 30012KT 9999 FEW020"
    },
    {
      "icao": "ENAL",
      "alert": "OK",
      "vis_m": 9999,
      "fzfg": false,
      "metar_trigger": false,
      "taf_trigger": false,
      "metar": "METAR ENAL 290620Z 21010KT 170V240 9999 BKN063 16/12 Q1012",
      "taf": "TAF ENAL 290500Z 2906/2915 26008KT 9999 SCT005 BKN020"
    },
    {
      "icao": "ENBR",
      "alert": "OK",
      "vis_m": 9999,
      "fzfg": false,
      "metar_trigger": false,
      "taf_trigger": false,
      "metar": "METAR ENBR 290620Z 16009KT 9999 VCSH BKN015 14/12 Q1015 TEMPO BKN012 RMK WIND 1200FT 16013KT",
      "taf": "TAF ENBR 290500Z 2906/3006 17012KT 9999 FEW012 SCT050"
    },
    {
      "icao": "ENGM",
      "alert": "OK",
      "vis_m": 9999,
      "fzfg": false,
      "metar_trigger": false,
      "taf_trigger": false,
      "metar": "METAR ENGM 290620Z 20010KT 9999 SCT012 BKN021 19/16 Q1012 NOSIG",
      "taf": "TAF ENGM 290500Z 2906/3006 VRB03KT 9999 BKN014"
    },
    {
      "icao": "ENHD",
      "alert": "OK",
      "vis_m": 9999,
      "fzfg": false,
      "metar_trigger": false,
      "taf_trigger": false,
      "metar": "METAR ENHD 290620Z 21014KT 9999 FEW025 16/12 Q1016",
      "taf": "TAF ENHD 290500Z 2906/2915 21012KT CAVOK"
    },
    {
      "icao": "ENTC",
      "alert": "OK",
      "vis_m": 9999,
      "fzfg": false,
      "metar_trigger": false,
      "taf_trigger": false,
      "metar": "METAR ENTC 290620Z 02006KT CAVOK 12/07 Q1011 NOSIG RMK WIND 2600FT 17010KT",
      "taf": "TAF ENTC 290500Z 2906/3006 02008KT 9999 FEW040 BKN080"
    },
    {
      "icao": "ENTO",
      "alert": "OK",
      "vis_m": 9999,
      "fzfg": false,
      "metar_trigger": false,
      "taf_trigger": false,
      "metar": "METAR ENTO 290620Z 24007KT 220V280 CAVOK 22/13 Q1014 NOSIG",
      "taf": "TAF ENTO 290500Z 2906/3006 18008KT CAVOK"
    },
    {
      "icao": "ENVA",
      "alert": "OK",
      "vis_m": 9999,
      "fzfg": false,
      "metar_trigger": false,
      "taf_trigger": false,
      "metar": "METAR ENVA 290620Z 30004KT 9999 -DZRA VV019 16/15 Q1012 TEMPO 3000 SHRA BR BKN008 RMK WIND 670FT 29004KT",
      "taf": "TAF ENVA 290500Z 2906/3006 25005KT 9999 SCT015 BKN030"
    },
    {
      "icao": "ENZV",
      "alert": "OK",
      "vis_m": 9999,
      "fzfg": false,
      "metar_trigger": false,
      "taf_trigger": false,
      "metar": "METAR ENZV 290620Z 23009KT CAVOK 17/12 Q1017 NOSIG",
      "taf": "TAF ENZV 290500Z 2906/3006 20012KT 9999 FEW050"
    },
    {
      "icao": "EPGD",
      "alert": "OK",
      "vis_m": 9999,
      "fzfg": false,
      "metar_trigger": false,
      "taf_trigger": false,
      "metar": "METAR EPGD 290630Z 30010KT CAVOK 25/19 Q1019",
      "taf": "TAF EPGD 290530Z 2906/3006 31012KT CAVOK"
    },
    {
      "icao": "EPKK",
      "alert": "OK",
      "vis_m": 9999,
      "fzfg": false,
      "metar_trigger": false,
      "taf_trigger": false,
      "metar": "METAR EPKK 290630Z 24003KT 210V270 CAVOK 28/19 Q1019",
      "taf": "TAF EPKK 290530Z 2906/3006 24004KT CAVOK"
    },
    {
      "icao": "EPKT",
      "alert": "OK",
      "vis_m": 9999,
      "fzfg": false,
      "metar_trigger": false,
      "taf_trigger": false,
      "metar": "METAR EPKT 290630Z 21009KT CAVOK 29/17 Q1019",
      "taf": "TAF EPKT 290530Z 2906/3006 25006KT CAVOK"
    },
    {
      "icao": "EPLB",
      "alert": "OK",
      "vis_m": 9999,
      "fzfg": false,
      "metar_trigger": false,
      "taf_trigger": false,
      "metar": "METAR EPLB 290630Z 27009KT CAVOK 32/18 Q1017",
      "taf": "TAF EPLB 290530Z 2906/3006 27008KT CAVOK"
    },
    {
      "icao": "EPMO",
      "alert": "OK",
      "vis_m": 9999,
      "fzfg": false,
      "metar_trigger": false,
      "taf_trigger": false,
      "metar": "METAR EPMO 290630Z 33007KT 290V360 CAVOK 30/19 Q1017",
      "taf": "TAF EPMO 290530Z 2906/3006 30008KT CAVOK"
    },
    {
      "icao": "EPPO",
      "alert": "OK",
      "vis_m": 9999,
      "fzfg": false,
      "metar_trigger": false,
      "taf_trigger": false,
      "metar": "METAR EPPO 290630Z 29009KT CAVOK 25/19 Q1020",
      "taf": "TAF EPPO 290530Z 2906/3006 35006KT CAVOK"
    },
    {
      "icao": "EPRA",
      "alert": "OK",
      "vis_m": 9999,
      "fzfg": false,
      "metar_trigger": false,
      "taf_trigger": false,
      "metar": "METAR EPRA 290630Z 27004KT 210V310 CAVOK 33/17 Q1017",
      "taf": "TAF EPRA 290530Z 2906/2915 29008KT CAVOK"
    },
    {
      "icao": "EPRZ",
      "alert": "OK",
      "vis_m": 9999,
      "fzfg": false,
      "metar_trigger": false,
      "taf_trigger": false,
      "metar": "METAR EPRZ 290630Z 23007KT CAVOK 30/19 Q1018",
      "taf": "TAF EPRZ 290530Z 2906/3006 23006KT CAVOK"
    },
    {
      "icao": "EPSC",
      "alert": "OK",
      "vis_m": 9999,
      "fzfg": false,
      "metar_trigger": false,
      "taf_trigger": false,
      "metar": "METAR EPSC 290630Z VRB05KT CAVOK 26/19 Q1020",
      "taf": "TAF EPSC 290530Z 2906/3006 34010KT CAVOK"
    },
    {
      "icao": "EPSY",
      "alert": "OK",
      "vis_m": 9999,
      "fzfg": false,
      "metar_trigger": false,
      "taf_trigger": false,
      "metar": "METAR EPSY 290630Z 34009KT 290V020 CAVOK 26/19 Q1018",
      "taf": "TAF EPSY 290530Z 2906/2915 33010KT CAVOK"
    },
    {
      "icao": "EPWA",
      "alert": "OK",
      "vis_m": 9999,
      "fzfg": false,
      "metar_trigger": false,
      "taf_trigger": false,
      "metar": "METAR EPWA 290630Z 30009KT CAVOK 30/19 Q1017 NOSIG",
      "taf": "TAF EPWA 290530Z 2906/3006 27005KT CAVOK"
    },
    {
      "icao": "EPWR",
      "alert": "OK",
      "vis_m": 9999,
      "fzfg": false,
      "metar_trigger": false,
      "taf_trigger": false,
      "metar": "METAR EPWR 290630Z 31015KT CAVOK 26/19 Q1019",
      "taf": "TAF EPWR 290530Z 2906/3006 29010KT CAVOK"
    },
    {
      "icao": "ESGG",
      "alert": "OK",
      "vis_m": 9999,
      "fzfg": false,
      "metar_trigger": false,
      "taf_trigger": false,
      "metar": "METAR ESGG 290620Z 24008KT 210V270 9999 SCT008 BKN014 19/17 Q1018",
      "taf": ""
    },
    {
      "icao": "ESKN",
      "alert": "OK",
      "vis_m": 9999,
      "fzfg": false,
      "metar_trigger": false,
      "taf_trigger": false,
      "metar": "METAR ESKN 290620Z 26006KT CAVOK 23/18 Q1015",
      "taf": "TAF ESKN 290530Z 2906/3006 27007KT CAVOK"
    },
    {
      "icao": "ESMS",
      "alert": "OK",
      "vis_m": 9999,
      "fzfg": false,
      "metar_trigger": false,
      "taf_trigger": false,
      "metar": "METAR ESMS 290620Z 29010KT CAVOK 23/18 Q1019",
      "taf": "TAF ESMS 290527Z 2906/3006 31010KT 9999 FEW020"
    },
    {
      "icao": "ESSA",
      "alert": "OK",
      "vis_m": 9999,
      "fzfg": false,
      "metar_trigger": false,
      "taf_trigger": false,
      "metar": "METAR ESSA 290620Z 25004KT 220V280 CAVOK 21/17 Q1014 NOSIG",
      "taf": "TAF ESSA 290530Z 2906/3006 22006KT CAVOK"
    },
    {
      "icao": "EYKA",
      "alert": "OK",
      "vis_m": 9999,
      "fzfg": false,
      "metar_trigger": false,
      "taf_trigger": false,
      "metar": "METAR EYKA 290620Z 16003KT 140V210 CAVOK 24/20 Q1014",
      "taf": "TAF EYKA 290500Z 2906/3006 VRB03KT 9000 NSC"
    },
    {
      "icao": "EYPA",
      "alert": "OK",
      "vis_m": 9999,
      "fzfg": false,
      "metar_trigger": false,
      "taf_trigger": false,
      "metar": "METAR EYPA 290620Z 29004KT 220V340 9999 FEW007 25/22 Q1015",
      "taf": "TAF EYPA 290500Z 2906/3006 VRB03KT 9000 NSC"
    },
    {
      "icao": "EYVI",
      "alert": "OK",
      "vis_m": 9999,
      "fzfg": false,
      "metar_trigger": false,
      "taf_trigger": false,
      "metar": "METAR EYVI 290620Z 14005KT 090V180 CAVOK 26/18 Q1015 NOSIG",
      "taf": "TAF EYVI 290511Z 2906/3006 VRB03KT 9000 NSC"
    },
    {
      "icao": "GCFV",
      "alert": "OK",
      "vis_m": 9999,
      "fzfg": false,
      "metar_trigger": false,
      "taf_trigger": false,
      "metar": "METAR GCFV 290630Z 01014KT 9999 FEW022 22/17 Q1017",
      "taf": "TAF GCFV 290200Z 2903/3003 02015KT 9999 FEW015 TX27/2914Z TN22/2906Z"
    },
    {
      "icao": "GCLP",
      "alert": "OK",
      "vis_m": 9999,
      "fzfg": false,
      "metar_trigger": false,
      "taf_trigger": false,
      "metar": "METAR GCLP 290630Z 36025G35KT 9999 FEW020 22/17 Q1017 NOSIG",
      "taf": "TAF GCLP 290200Z 2903/3003 36023KT 9999 SCT020 TX30/2914Z TN22/2906Z"
    },
    {
      "icao": "GCTS",
      "alert": "OK",
      "vis_m": 9999,
      "fzfg": false,
      "metar_trigger": false,
      "taf_trigger": false,
      "metar": "METAR GCTS 290630Z 03006KT 010V080 CAVOK 21/15 Q1017 NOSIG",
      "taf": "TAF GCTS 290200Z 2903/3003 04007KT 9999 FEW020 TX32/2914Z TN22/2906Z"
    },
    {
      "icao": "GMAD",
      "alert": "OK",
      "vis_m": 8000,
      "fzfg": false,
      "metar_trigger": false,
      "taf_trigger": false,
      "metar": "METAR GMAD 290630Z 27006KT 8000 NSC 21/18 Q1014 NOSIG",
      "taf": "TAF GMAD 282300Z 2900/3006 18004KT 8000 FEW016 SCT100"
    },
    {
      "icao": "GMMN",
      "alert": "OK",
      "vis_m": 9999,
      "fzfg": false,
      "metar_trigger": false,
      "taf_trigger": false,
      "metar": "METAR GMMN 290630Z 03006KT CAVOK 20/18 Q1020 NOSIG",
      "taf": ""
    },
    {
      "icao": "GMMX",
      "alert": "OK",
      "vis_m": 9999,
      "fzfg": false,
      "metar_trigger": false,
      "taf_trigger": false,
      "metar": "METAR GMMX 290630Z VRB01KT CAVOK 24/17 Q1018 NOSIG",
      "taf": "TAF GMMX 290500Z 2906/3012 06006KT CAVOK TEMOI 2914/2920 32015KT 8000 SCT040 SCT120"
    },
    {
      "icao": "HEGN",
      "alert": "OK",
      "vis_m": 9999,
      "fzfg": false,
      "metar_trigger": false,
      "taf_trigger": false,
      "metar": "METAR HEGN 290600Z 35008KT CAVOK 32/12 Q1008 NOSIG",
      "taf": "TAF HEGN 290500Z 2906/3012 34013KT CAVOK"
    },
    {
      "icao": "HEMA",
      "alert": "OK",
      "vis_m": 9999,
      "fzfg": false,
      "metar_trigger": false,
      "taf_trigger": false,
      "metar": "METAR HEMA 290600Z 33018KT CAVOK 35/09 Q1007 NOSIG",
      "taf": "TAF HEMA 290500Z 2906/3012 33008G20KT CAVOK"
    },
    {
      "icao": "HESH",
      "alert": "OK",
      "vis_m": 9999,
      "fzfg": false,
      "metar_trigger": false,
      "taf_trigger": false,
      "metar": "METAR HESH 290600Z 35015KT CAVOK 33/16 Q1007 NOSIG",
      "taf": "TAF HESH 290500Z 2906/3012 36012KT CAVOK"
    },
    {
      "icao": "HESX",
      "alert": "OK",
      "vis_m": 9999,
      "fzfg": false,
      "metar_trigger": false,
      "taf_trigger": false,
      "metar": "METAR HESX 290600Z 33003KT CAVOK 26/19 Q1011 NOSIG",
      "taf": "TAF HESX 290500Z 2906/3012 33006KT CAVOK"
    },
    {
      "icao": "LATI",
      "alert": "OK",
      "vis_m": 9999,
      "fzfg": false,
      "metar_trigger": false,
      "taf_trigger": false,
      "metar": "METAR LATI 290620Z VRB03KT CAVOK 29/17 Q1016 NOSIG",
      "taf": "TAF LATI 290500Z 2906/3006 VRB03KT CAVOK TX37/2912Z TN22/3004Z"
    },
    {
      "icao": "LBPD",
      "alert": "OK",
      "vis_m": 9999,
      "fzfg": false,
      "metar_trigger": false,
      "taf_trigger": false,
      "metar": "METAR LBPD 290630Z AUTO 28007KT 9999 NCD 26/14 Q1020 NOSIG",
      "taf": "TAF LBPD 290500Z 2906/3006 VRB04KT CAVOK"
    },
    {
      "icao": "LBSF",
      "alert": "OK",
      "vis_m": 9999,
      "fzfg": false,
      "metar_trigger": false,
      "taf_trigger": false,
      "metar": "METAR LBSF 290630Z 11003KT 060V160 CAVOK 23/14 Q1022 NOSIG",
      "taf": "TAF LBSF 290500Z 2906/3006 VRB04KT CAVOK"
    },
    {
      "icao": "LBWN",
      "alert": "OK",
      "vis_m": 9999,
      "fzfg": false,
      "metar_trigger": false,
      "taf_trigger": false,
      "metar": "METAR LBWN 290630Z 24004KT CAVOK 28/17 Q1017 NOSIG",
      "taf": "TAF LBWN 290500Z 2906/3006 VRB03KT CAVOK"
    },
    {
      "icao": "LCLK",
      "alert": "OK",
      "vis_m": 9999,
      "fzfg": false,
      "metar_trigger": false,
      "taf_trigger": false,
      "metar": "METAR LCLK 290630Z 18007KT CAVOK 31/20 Q1009 NOSIG",
      "taf": "TAF LCLK 290530Z 2906/3006 16006KT 9999 FEW030"
    },
    {
      "icao": "LCPH",
      "alert": "OK",
      "vis_m": 9999,
      "fzfg": false,
      "metar_trigger": false,
      "taf_trigger": false,
      "metar": "METAR LCPH 290630Z VRB03KT CAVOK 28/20 Q1009 NOSIG",
      "taf": "TAF LCPH 290530Z 2906/3006 04006KT 9999 FEW025"
    },
    {
      "icao": "LEAL",
      "alert": "OK",
      "vis_m": 9999,
      "fzfg": false,
      "metar_trigger": false,
      "taf_trigger": false,
      "metar": "METAR LEAL 290630Z 33003KT 290V020 9999 FEW020 28/20 Q1019 NOSIG",
      "taf": "TAF LEAL 290500Z 2906/3006 VRB04KT 9999 FEW015 TX32/2912Z TN24/2906Z"
    },
    {
      "icao": "LEBB",
      "alert": "OK",
      "vis_m": 9999,
      "fzfg": false,
      "metar_trigger": false,
      "taf_trigger": false,
      "metar": "METAR LEBB 290630Z 26003KT 210V320 9999 SCT006 BKN010 OVC028 20/19 Q1027 TEMPO 3000 DZ BKN010",
      "taf": "TAF LEBB 290500Z 2906/3006 02007KT 9999 SCT020 BKN040 TX24/2915Z TN16/3002Z"
    },
    {
      "icao": "LEBL",
      "alert": "OK",
      "vis_m": 9999,
      "fzfg": false,
      "metar_trigger": false,
      "taf_trigger": false,
      "metar": "METAR LEBL 290630Z 34009G23KT 260V020 9999 FEW020 27/18 Q1020 NOSIG",
      "taf": ""
    },
    {
      "icao": "LECH",
      "alert": "OK",
      "vis_m": 9999,
      "fzfg": false,
      "metar_trigger": false,
      "taf_trigger": false,
      "metar": "METAR LECH 290630Z AUTO 18004KT 150V210 CAVOK 24/13 Q1022",
      "taf": "TAF LECH 290500Z 2906/3006 36008KT CAVOK TX34/2912Z TN19/2906Z"
    },
    {
      "icao": "LEMD",
      "alert": "OK",
      "vis_m": 9999,
      "fzfg": false,
      "metar_trigger": false,
      "taf_trigger": false,
      "metar": "METAR LEMD 290630Z 01004KT 340V060 CAVOK 21/12 Q1024 NOSIG",
      "taf": "TAF LEMD 290500Z 2906/3012 04006KT CAVOK TX34/2916Z TN19/3005Z"
    },
    {
      "icao": "LEMG",
      "alert": "OK",
      "vis_m": 9999,
      "fzfg": false,
      "metar_trigger": false,
      "taf_trigger": false,
      "metar": "METAR LEMG 290630Z 11007KT 070V140 9999 FEW015 24/20 Q1019 NOSIG",
      "taf": "TAF LEMG 290500Z 2906/3006 29004KT CAVOK TX31/2912Z TN23/3005Z"
    },
    {
      "icao": "LEVC",
      "alert": "OK",
      "vis_m": 9999,
      "fzfg": false,
      "metar_trigger": false,
      "taf_trigger": false,
      "metar": "METAR LEVC 290630Z 31006KT 280V340 CAVOK 25/14 Q1020 NOSIG",
      "taf": "TAF LEVC 290500Z 2906/3006 31005KT CAVOK TX33/2912Z TN23/2906Z"
    },
    {
      "icao": "LEXJ",
      "alert": "OK",
      "vis_m": 2500,
      "fzfg": false,
      "metar_trigger": false,
      "taf_trigger": false,
      "metar": "METAR LEXJ 290630Z 23004KT 200V260 2500 DZ BR OVC006 18/18 Q1027",
      "taf": "TAF LEXJ 290200Z 2903/3003 05009KT 9999 BKN020 TX23/2914Z TN17/3003Z"
    },
    {
      "icao": "LEZG",
      "alert": "OK",
      "vis_m": 9999,
      "fzfg": false,
      "metar_trigger": false,
      "taf_trigger": false,
      "metar": "METAR LEZG 290630Z 30019KT CAVOK 22/17 Q1023 NOSIG",
      "taf": "TAF LEZG 290500Z 2906/3006 29015KT CAVOK TX34/2915Z TN20/2906Z"
    },
    {
      "icao": "LEZL",
      "alert": "OK",
      "vis_m": 9999,
      "fzfg": false,
      "metar_trigger": false,
      "taf_trigger": false,
      "metar": "METAR LEZL 290630Z 18001KT CAVOK 24/17 Q1019 NOSIG",
      "taf": "TAF LEZL 290200Z 2903/3003 VRB02KT CAVOK TX40/2915Z TN22/2905Z"
    },
    {
      "icao": "LFBD",
      "alert": "OK",
      "vis_m": 9999,
      "fzfg": false,
      "metar_trigger": false,
      "taf_trigger": false,
      "metar": "METAR LFBD 290630Z AUTO 34008KT CAVOK 21/17 Q1026 NOSIG",
      "taf": "TAF LFBD 290500Z 2906/3012 33010KT CAVOK TX30/2914Z TN19/3004Z"
    },
    {
      "icao": "LFLL",
      "alert": "OK",
      "vis_m": 9999,
      "fzfg": false,
      "metar_trigger": false,
      "taf_trigger": false,
      "metar": "METAR LFLL 290630Z 32009KT CAVOK 23/18 Q1023 NOSIG",
      "taf": "TAF LFLL 290500Z 2906/3012 34010KT CAVOK"
    },
    {
      "icao": "LFLS",
      "alert": "OK",
      "vis_m": 9999,
      "fzfg": false,
      "metar_trigger": false,
      "taf_trigger": false,
      "metar": "METAR LFLS 290630Z AUTO 34008KT 290V360 CAVOK 23/16 Q1023 NOSIG",
      "taf": "TAF LFLS 290200Z 2903/3003 09005KT CAVOK"
    },
    {
      "icao": "LFMN",
      "alert": "OK",
      "vis_m": 9999,
      "fzfg": false,
      "metar_trigger": false,
      "taf_trigger": false,
      "metar": "METAR LFMN 290630Z 32003KT 270V350 CAVOK 30/15 Q1017 NOSIG",
      "taf": "TAF LFMN 290200Z 2903/3009 33010KT CAVOK"
    },
    {
      "icao": "LFOB",
      "alert": "OK",
      "vis_m": 9999,
      "fzfg": false,
      "metar_trigger": false,
      "taf_trigger": false,
      "metar": "METAR LFOB 290630Z AUTO 30008KT CAVOK 17/14 Q1026 NOSIG",
      "taf": "TAF LFOB 290500Z 2906/3006 34006KT CAVOK"
    },
    {
      "icao": "LFPO",
      "alert": "OK",
      "vis_m": 9999,
      "fzfg": false,
      "metar_trigger": false,
      "taf_trigger": false,
      "metar": "METAR LFPO 290630Z 34008KT 300V010 9999 SCT046 SCT063 BKN260 19/11 Q1026 NOSIG",
      "taf": "TAF LFPO 290500Z 2906/3012 34008KT 9999 BKN040"
    },
    {
      "icao": "LFSB",
      "alert": "OK",
      "vis_m": 9999,
      "fzfg": false,
      "metar_trigger": false,
      "taf_trigger": false,
      "metar": "METAR LFSB 290630Z AUTO 25004KT 200V280 CAVOK 21/19 Q1024 NOSIG",
      "taf": "TAF LFSB 290500Z 2906/3006 34005KT 9999 FEW050 SCT075"
    },
    {
      "icao": "LGAV",
      "alert": "OK",
      "vis_m": 9999,
      "fzfg": false,
      "metar_trigger": false,
      "taf_trigger": false,
      "metar": "METAR LGAV 290620Z 04013KT CAVOK 28/12 Q1015 NOSIG",
      "taf": "TAF LGAV 290500Z 2906/3006 02016KT 9999 FEW025"
    },
    {
      "icao": "LGTS",
      "alert": "OK",
      "vis_m": 9999,
      "fzfg": false,
      "metar_trigger": false,
      "taf_trigger": false,
      "metar": "METAR LGTS 290620Z COR 26005KT CAVOK 26/20 Q1018 NOSIG",
      "taf": "TAF LGTS 290500Z 2906/3006 VRB03KT CAVOK"
    },
    {
      "icao": "LHBP",
      "alert": "OK",
      "vis_m": 9999,
      "fzfg": false,
      "metar_trigger": false,
      "taf_trigger": false,
      "metar": "METAR LHBP 290630Z 17003KT 080V220 CAVOK 31/18 Q1019 NOSIG",
      "taf": "TAF LHBP 290515Z 2906/3006 18007KT CAVOK"
    },
    {
      "icao": "LHDC",
      "alert": "OK",
      "vis_m": 9999,
      "fzfg": false,
      "metar_trigger": false,
      "taf_trigger": false,
      "metar": "METAR LHDC 290615Z AUTO 20006KT 160V240 CAVOK 30/19 Q1019 NOSIG",
      "taf": "TAF LHDC 290515Z 2906/2915 20005KT CAVOK"
    },
    {
      "icao": "LIBD",
      "alert": "OK",
      "vis_m": 9999,
      "fzfg": false,
      "metar_trigger": false,
      "taf_trigger": false,
      "metar": "METAR LIBD 290620Z 29006KT 270V330 CAVOK 31/15 Q1016",
      "taf": "TAF LIBD 290500Z 2906/3006 VRB05KT CAVOK"
    },
    {
      "icao": "LIBG",
      "alert": "OK",
      "vis_m": 9999,
      "fzfg": false,
      "metar_trigger": false,
      "taf_trigger": false,
      "metar": "METAR LIBG 290620Z AUTO VRB03KT 9999 NCD 32/14 Q1016",
      "taf": "TAF LIBG 290500Z 2906/3006 VRB05KT CAVOK"
    },
    {
      "icao": "LIBP",
      "alert": "OK",
      "vis_m": 9999,
      "fzfg": false,
      "metar_trigger": false,
      "taf_trigger": false,
      "metar": "METAR LIBP 290620Z AUTO 25003KT 210V290 9999 NCD 28/17 Q1016",
      "taf": "TAF LIBP 290500Z 2906/3006 VRB05KT CAVOK"
    },
    {
      "icao": "LIBR",
      "alert": "OK",
      "vis_m": 9999,
      "fzfg": false,
      "metar_trigger": false,
      "taf_trigger": false,
      "metar": "METAR LIBR 290620Z 32012KT CAVOK 28/23 Q1015",
      "taf": "TAF LIBR 290500Z 2906/3006 VRB05KT CAVOK"
    },
    {
      "icao": "LICA",
      "alert": "OK",
      "vis_m": 9999,
      "fzfg": false,
      "metar_trigger": false,
      "taf_trigger": false,
      "metar": "METAR LICA 290620Z AUTO VRB02KT 9999 FEW014/// 28/24 Q1016",
      "taf": "TAF LICA 290500Z 2906/3006 VRB05KT 9999 BKN014"
    },
    {
      "icao": "LICC",
      "alert": "OK",
      "vis_m": 9999,
      "fzfg": false,
      "metar_trigger": false,
      "taf_trigger": false,
      "metar": "METAR LICC 290620Z 24004KT CAVOK 29/21 Q1015",
      "taf": "TAF LICC 290500Z 2906/3006 VRB05KT CAVOK"
    },
    {
      "icao": "LICJ",
      "alert": "OK",
      "vis_m": 9999,
      "fzfg": false,
      "metar_trigger": false,
      "taf_trigger": false,
      "metar": "METAR LICJ 290620Z AUTO 04004KT 9999 FEW110/// 28/25 Q1016",
      "taf": "TAF LICJ 290500Z 2906/3006 VRB05KT 9999 FEW030"
    },
    {
      "icao": "LIMC",
      "alert": "OK",
      "vis_m": 9999,
      "fzfg": false,
      "metar_trigger": false,
      "taf_trigger": false,
      "metar": "METAR LIMC 290620Z 01005KT CAVOK 26/16 Q1018 NOSIG",
      "taf": "TAF LIMC 290500Z 2906/3012 01010KT CAVOK"
    },
    {
      "icao": "LIME",
      "alert": "OK",
      "vis_m": 9999,
      "fzfg": false,
      "metar_trigger": false,
      "taf_trigger": false,
      "metar": "METAR LIME 290620Z 33005KT 310V050 9999 SCT100 25/19 Q1018 NOSIG",
      "taf": "TAF LIME 290500Z 2906/3006 VRB05KT CAVOK"
    },
    {
      "icao": "LIMF",
      "alert": "OK",
      "vis_m": 9999,
      "fzfg": false,
      "metar_trigger": false,
      "taf_trigger": false,
      "metar": "METAR LIMF 290620Z VRB02KT CAVOK 27/18 Q1019",
      "taf": "TAF LIMF 290500Z 2906/3006 VRB05KT 9999 SCT030"
    },
    {
      "icao": "LIMJ",
      "alert": "OK",
      "vis_m": 9999,
      "fzfg": false,
      "metar_trigger": false,
      "taf_trigger": false,
      "metar": "METAR LIMJ 290620Z 08009KT CAVOK 29/16 Q1016",
      "taf": "TAF LIMJ 290500Z 2906/3006 VRB05KT CAVOK"
    },
    {
      "icao": "LIPE",
      "alert": "OK",
      "vis_m": 9999,
      "fzfg": false,
      "metar_trigger": false,
      "taf_trigger": false,
      "metar": "METAR LIPE 290620Z 27006KT CAVOK 30/18 Q1017",
      "taf": "TAF LIPE 290500Z 2906/3006 VRB05KT 9999 SCT030"
    },
    {
      "icao": "LIPH",
      "alert": "OK",
      "vis_m": 9999,
      "fzfg": false,
      "metar_trigger": false,
      "taf_trigger": false,
      "metar": "METAR LIPH 290620Z 04003KT 010V080 CAVOK 31/20 Q1016",
      "taf": "TAF LIPH 290500Z 2906/3006 VRB05KT 9999 SCT030"
    },
    {
      "icao": "LIPQ",
      "alert": "OK",
      "vis_m": 9999,
      "fzfg": false,
      "metar_trigger": false,
      "taf_trigger": false,
      "metar": "METAR LIPQ 290620Z AUTO 36004KT 9999 NCD 30/21 Q1016",
      "taf": "TAF LIPQ 290500Z 2906/3006 VRB05KT CAVOK"
    },
    {
      "icao": "LIPR",
      "alert": "OK",
      "vis_m": 9999,
      "fzfg": false,
      "metar_trigger": false,
      "taf_trigger": false,
      "metar": "METAR LIPR 290620Z 31008KT CAVOK 29/20 Q1016",
      "taf": "TAF LIPR 290500Z 2906/3006 VRB05KT CAVOK"
    },
    {
      "icao": "LIPX",
      "alert": "OK",
      "vis_m": 9999,
      "fzfg": false,
      "metar_trigger": false,
      "taf_trigger": false,
      "metar": "METAR LIPX 290620Z 06003KT 040V110 CAVOK 29/17 Q1017",
      "taf": "TAF LIPX 290500Z 2906/3006 VRB05KT CAVOK"
    },
    {
      "icao": "LIPY",
      "alert": "OK",
      "vis_m": 9999,
      "fzfg": false,
      "metar_trigger": false,
      "taf_trigger": false,
      "metar": "METAR LIPY 290620Z AUTO VRB02KT 9999 NCD 29/21 Q1017",
      "taf": "TAF LIPY 290500Z 2906/3006 VRB05KT CAVOK"
    },
    {
      "icao": "LIPZ",
      "alert": "OK",
      "vis_m": 9999,
      "fzfg": false,
      "metar_trigger": false,
      "taf_trigger": false,
      "metar": "METAR LIPZ 290620Z 03005KT 360V070 CAVOK 30/21 Q1016 NOSIG",
      "taf": "TAF LIPZ 290500Z 2906/3012 VRB05KT 9999 FEW030"
    },
    {
      "icao": "LIRF",
      "alert": "OK",
      "vis_m": 9999,
      "fzfg": false,
      "metar_trigger": false,
      "taf_trigger": false,
      "metar": "METAR LIRF 290620Z VRB02KT CAVOK 29/19 Q1016 NOSIG",
      "taf": "TAF LIRF 290500Z 2906/3012 VRB05KT 9999 FEW040"
    },
    {
      "icao": "LIRN",
      "alert": "OK",
      "vis_m": 9999,
      "fzfg": false,
      "metar_trigger": false,
      "taf_trigger": false,
      "metar": "METAR LIRN 290620Z 36004KT 330V040 9999 FEW040 29/18 Q1017 NOSIG",
      "taf": "TAF LIRN 290500Z 2906/3006 VRB05KT 9999 FEW080"
    },
    {
      "icao": "LIRP",
      "alert": "OK",
      "vis_m": 9999,
      "fzfg": false,
      "metar_trigger": false,
      "taf_trigger": false,
      "metar": "METAR LIRP 290615Z 11005KT 9999 FEW020 26/22 Q1017 NOSIG",
      "taf": "TAF LIRP 290500Z 2906/3006 VRB03KT CAVOK"
    },
    {
      "icao": "LIRZ",
      "alert": "OK",
      "vis_m": 9999,
      "fzfg": false,
      "metar_trigger": false,
      "taf_trigger": false,
      "metar": "METAR LIRZ 290620Z AUTO 36003KT 330V030 9999 NCD 27/18 Q1018",
      "taf": "TAF LIRZ 290500Z 2906/3006 VRB05KT CAVOK"
    },
    {
      "icao": "LJLJ",
      "alert": "OK",
      "vis_m": 9999,
      "fzfg": false,
      "metar_trigger": false,
      "taf_trigger": false,
      "metar": "METAR LJLJ 290630Z 32006KT 310V010 9999 FEW075 26/20 Q1020 NOSIG",
      "taf": "TAF LJLJ 290500Z 2906/3006 VRB02KT 9999 FEW060"
    },
    {
      "icao": "LKMT",
      "alert": "OK",
      "vis_m": 9999,
      "fzfg": false,
      "metar_trigger": false,
      "taf_trigger": false,
      "metar": "METAR LKMT 290630Z 23004KT 200V260 CAVOK 28/18 Q1019 NOSIG",
      "taf": "TAF LKMT 290500Z 2906/3006 23005KT CAVOK"
    },
    {
      "icao": "LKPR",
      "alert": "OK",
      "vis_m": 9999,
      "fzfg": false,
      "metar_trigger": false,
      "taf_trigger": false,
      "metar": "METAR LKPR 290630Z 01011KT 9999 FEW039TCU 27/19 Q1020 NOSIG",
      "taf": "TAF LKPR 290500Z 2906/3012 34010KT CAVOK"
    },
    {
      "icao": "LLBG",
      "alert": "OK",
      "vis_m": 9999,
      "fzfg": false,
      "metar_trigger": false,
      "taf_trigger": false,
      "metar": "METAR LLBG 290620Z VRB02KT 9999 FEW020 29/20 Q1010 NOSIG",
      "taf": "TAF LLBG 290508Z 2906/3006 VRB04KT 9999 SCT017 TX33/2911Z TN23/3003Z"
    },
    {
      "icao": "LMML",
      "alert": "OK",
      "vis_m": 9999,
      "fzfg": false,
      "metar_trigger": false,
      "taf_trigger": false,
      "metar": "METAR LMML 290615Z 33007KT CAVOK 29/22 Q1016 NOSIG",
      "taf": "TAF LMML 290500Z 2906/3006 34006KT CAVOK"
    },
    {
      "icao": "LOWW",
      "alert": "OK",
      "vis_m": 9999,
      "fzfg": false,
      "metar_trigger": false,
      "taf_trigger": false,
      "metar": "METAR LOWW 290620Z VRB02KT CAVOK 29/18 Q1019 NOSIG",
      "taf": "TAF LOWW 290515Z 2906/3012 18005KT CAVOK TX36/2913Z TN22/3005Z"
    },
    {
      "icao": "LPFR",
      "alert": "OK",
      "vis_m": 9999,
      "fzfg": false,
      "metar_trigger": false,
      "taf_trigger": false,
      "metar": "METAR LPFR 290630Z 34004KT 280V010 CAVOK 21/14 Q1019",
      "taf": "TAF LPFR 290500Z 2906/3006 VRB02KT CAVOK"
    },
    {
      "icao": "LPMA",
      "alert": "OK",
      "vis_m": 9999,
      "fzfg": false,
      "metar_trigger": false,
      "taf_trigger": false,
      "metar": "METAR LPMA 290630Z 02015G27KT 350V050 9999 SCT015 21/17 Q1023",
      "taf": "TAF LPMA 290500Z 2906/3006 02015KT 9999 SCT015"
    },
    {
      "icao": "LPPR",
      "alert": "OK",
      "vis_m": 9999,
      "fzfg": false,
      "metar_trigger": false,
      "taf_trigger": false,
      "metar": "METAR LPPR 290630Z 35003KT 300V010 CAVOK 17/14 Q1022",
      "taf": "TAF LPPR 290500Z 2906/3006 VRB02KT CAVOK"
    },
    {
      "icao": "LPPS",
      "alert": "OK",
      "vis_m": 9999,
      "fzfg": false,
      "metar_trigger": false,
      "taf_trigger": false,
      "metar": "METAR LPPS 290630Z 05008KT 010V090 9999 FEW015 SCT030 21/17 Q1024",
      "taf": "TAF LPPS 290500Z 2906/3012 03012KT 9999 SCT015"
    },
    {
      "icao": "LPPT",
      "alert": "OK",
      "vis_m": 9999,
      "fzfg": false,
      "metar_trigger": false,
      "taf_trigger": false,
      "metar": "METAR LPPT 290630Z 33010KT 9999 FEW012 18/15 Q1021",
      "taf": "TAF LPPT 290500Z 2906/3012 35015KT CAVOK"
    },
    {
      "icao": "LQBK",
      "alert": "OK",
      "vis_m": 9999,
      "fzfg": false,
      "metar_trigger": false,
      "taf_trigger": false,
      "metar": "METAR LQBK 290630Z VRB02KT CAVOK 26/19 Q1018 NOSIG",
      "taf": "TAF LQBK 290500Z 2906/3006 06005KT CAVOK TX37/2913Z TN19/3003Z"
    },
    {
      "icao": "LQSA",
      "alert": "OK",
      "vis_m": 9999,
      "fzfg": false,
      "metar_trigger": false,
      "taf_trigger": false,
      "metar": "METAR LQSA 290630Z VRB02KT CAVOK 23/17 Q1021 NOSIG",
      "taf": "TAF LQSA 290500Z 2906/3006 VRB02KT CAVOK TX36/2913Z TN18/3003Z"
    },
    {
      "icao": "LQTZ",
      "alert": "OK",
      "vis_m": 9999,
      "fzfg": false,
      "metar_trigger": false,
      "taf_trigger": false,
      "metar": "METAR LQTZ 290630Z VRB02KT CAVOK 27/19 Q1019",
      "taf": "TAF LQTZ 290500Z 2906/3006 05007KT CAVOK TX38/2914Z TN18/3003Z"
    },
    {
      "icao": "LRBC",
      "alert": "OK",
      "vis_m": 9999,
      "fzfg": false,
      "metar_trigger": false,
      "taf_trigger": false,
      "metar": "METAR LRBC 290630Z VRB01KT CAVOK 28/20 Q1019",
      "taf": "TAF LRBC 290500Z 2906/2915 VRB04KT CAVOK"
    },
    {
      "icao": "LRBS",
      "alert": "OK",
      "vis_m": 9999,
      "fzfg": false,
      "metar_trigger": false,
      "taf_trigger": false,
      "metar": "METAR LRBS 290630Z 06004KT 360V100 CAVOK 29/20 Q1018 NOSIG",
      "taf": "TAF LRBS 290500Z 2906/3006 VRB04KT CAVOK"
    },
    {
      "icao": "LRBV",
      "alert": "OK",
      "vis_m": 9999,
      "fzfg": false,
      "metar_trigger": false,
      "taf_trigger": false,
      "metar": "METAR LRBV 290630Z 14001KT CAVOK 24/17 Q1022",
      "taf": "TAF LRBV 290500Z 2906/2915 VRB04KT CAVOK"
    },
    {
      "icao": "LRCL",
      "alert": "OK",
      "vis_m": 9999,
      "fzfg": false,
      "metar_trigger": false,
      "taf_trigger": false,
      "metar": "METAR LRCL 290630Z VRB01KT CAVOK 28/17 Q1020",
      "taf": "TAF LRCL 290500Z 2906/2915 VRB04KT CAVOK"
    },
    {
      "icao": "LRCV",
      "alert": "OK",
      "vis_m": 9999,
      "fzfg": false,
      "metar_trigger": false,
      "taf_trigger": false,
      "metar": "METAR LRCV 290630Z 28004KT CAVOK 28/21 Q1019",
      "taf": "TAF LRCV 290500Z 2906/2915 VRB04KT CAVOK"
    },
    {
      "icao": "LRIA",
      "alert": "OK",
      "vis_m": 9999,
      "fzfg": false,
      "metar_trigger": false,
      "taf_trigger": false,
      "metar": "METAR LRIA 290630Z 25003KT 190V340 CAVOK 28/18 Q1018",
      "taf": "TAF LRIA 290500Z 2906/2915 VRB04KT CAVOK"
    },
    {
      "icao": "LROP",
      "alert": "OK",
      "vis_m": 9999,
      "fzfg": false,
      "metar_trigger": false,
      "taf_trigger": false,
      "metar": "METAR LROP 290630Z 06005KT 030V100 CAVOK 30/20 Q1018 NOSIG",
      "taf": "TAF LROP 290500Z 2906/3006 VRB04KT CAVOK"
    },
    {
      "icao": "LRSB",
      "alert": "OK",
      "vis_m": 9999,
      "fzfg": false,
      "metar_trigger": false,
      "taf_trigger": false,
      "metar": "METAR LRSB 290630Z VRB02KT CAVOK 28/18 Q1021",
      "taf": "TAF LRSB 290500Z 2906/3006 VRB04KT CAVOK"
    },
    {
      "icao": "LRSM",
      "alert": "OK",
      "vis_m": 9999,
      "fzfg": false,
      "metar_trigger": false,
      "taf_trigger": false,
      "metar": "METAR LRSM 290630Z VRB01KT CAVOK 32/19 Q1019",
      "taf": "TAF LRSM 290500Z 2906/2915 VRB04KT CAVOK"
    },
    {
      "icao": "LRSV",
      "alert": "OK",
      "vis_m": 9999,
      "fzfg": false,
      "metar_trigger": false,
      "taf_trigger": false,
      "metar": "METAR LRSV 290630Z 33006KT 290V360 CAVOK 30/18 Q1020",
      "taf": "TAF LRSV 290500Z 2906/2915 30005KT CAVOK"
    },
    {
      "icao": "LRTM",
      "alert": "OK",
      "vis_m": 9999,
      "fzfg": false,
      "metar_trigger": false,
      "taf_trigger": false,
      "metar": "METAR LRTM 290630Z 21002KT CAVOK 26/21 Q1021",
      "taf": "TAF LRTM 290500Z 2906/2915 VRB04KT CAVOK"
    },
    {
      "icao": "LRTR",
      "alert": "OK",
      "vis_m": 9999,
      "fzfg": false,
      "metar_trigger": false,
      "taf_trigger": false,
      "metar": "METAR LRTR 290630Z 12005KT 070V160 CAVOK 29/21 Q1019",
      "taf": "TAF LRTR 290500Z 2906/3006 10008KT CAVOK"
    },
    {
      "icao": "LTAC",
      "alert": "OK",
      "vis_m": 9999,
      "fzfg": false,
      "metar_trigger": false,
      "taf_trigger": false,
      "metar": "METAR LTAC 290620Z 05010KT CAVOK 22/10 Q1021 NOSIG RMK RWY21C 06010KT RWY03L 05010KT RWY21R 05010KT 360V070 RWY03R 08007KT 030V110 RWY21L 04009KT 360V090",
      "taf": "TAF LTAC 290440Z 2906/3006 04009KT CAVOK"
    },
    {
      "icao": "LTFM",
      "alert": "OK",
      "vis_m": 9999,
      "fzfg": false,
      "metar_trigger": false,
      "taf_trigger": false,
      "metar": "METAR LTFM 290620Z 05008KT CAVOK 26/16 Q1018 NOSIG RMK RWY17L 02008KT RWY34L 01008KT RWY16R 01008KT RWY36 03009KT 350V070 RWY18 04008KT 010V070",
      "taf": "TAF LTFM 290440Z 2906/3012 03008KT CAVOK"
    },
    {
      "icao": "LUKK",
      "alert": "OK",
      "vis_m": 9999,
      "fzfg": false,
      "metar_trigger": false,
      "taf_trigger": false,
      "metar": "METAR LUKK 290630Z VRB03KT CAVOK 29/20 Q1018 NOSIG",
      "taf": "TAF LUKK 290506Z 2906/3006 VRB06KT CAVOK"
    },
    {
      "icao": "LWOH",
      "alert": "OK",
      "vis_m": 9999,
      "fzfg": false,
      "metar_trigger": false,
      "taf_trigger": false,
      "metar": "METAR LWOH 290620Z 33006KT 300V360 CAVOK 25/16 Q1022",
      "taf": "TAF LWOH 290520Z 2906/3006 15010KT CAVOK"
    },
    {
      "icao": "LWSK",
      "alert": "OK",
      "vis_m": 9999,
      "fzfg": false,
      "metar_trigger": false,
      "taf_trigger": false,
      "metar": "METAR LWSK 290620Z VRB01KT CAVOK 27/15 Q1020 NOSIG",
      "taf": "TAF LWSK 290520Z 2906/3006 VRB03KT CAVOK"
    },
    {
      "icao": "LYBE",
      "alert": "OK",
      "vis_m": 9999,
      "fzfg": false,
      "metar_trigger": false,
      "taf_trigger": false,
      "metar": "METAR LYBE 290630Z 11004KT 060V140 CAVOK 30/17 Q1019 NOSIG",
      "taf": "TAF LYBE 290500Z 2906/3006 13005KT CAVOK TX38/2913Z TN23/3003Z"
    },
    {
      "icao": "LYNI",
      "alert": "OK",
      "vis_m": 9999,
      "fzfg": false,
      "metar_trigger": false,
      "taf_trigger": false,
      "metar": "METAR LYNI 290630Z VRB02KT CAVOK 25/15 Q1020 NOSIG",
      "taf": "TAF LYNI 290500Z 2906/3006 09005KT CAVOK TX37/2914Z TN20/3003Z"
    },
    {
      "icao": "LYPG",
      "alert": "OK",
      "vis_m": 9999,
      "fzfg": false,
      "metar_trigger": false,
      "taf_trigger": false,
      "metar": "METAR LYPG 290630Z 34006KT 300V360 CAVOK 32/15 Q1016 NOSIG",
      "taf": "TAF LYPG 290500Z 2906/3006 18008KT CAVOK TX38/2913Z TN26/3003Z"
    },
    {
      "icao": "LZIB",
      "alert": "OK",
      "vis_m": 9999,
      "fzfg": false,
      "metar_trigger": false,
      "taf_trigger": false,
      "metar": "METAR LZIB 290630Z VRB03KT CAVOK 29/18 Q1018 NOSIG",
      "taf": "TAF LZIB 290515Z 2906/3006 VRB04KT CAVOK"
    },
    {
      "icao": "LZKZ",
      "alert": "OK",
      "vis_m": 9999,
      "fzfg": false,
      "metar_trigger": false,
      "taf_trigger": false,
      "metar": "METAR LZKZ 290630Z 04006KT CAVOK 29/17 Q1019 NOSIG",
      "taf": "TAF LZKZ 290515Z 2906/3006 VRB04KT CAVOK"
    },
    {
      "icao": "LZTT",
      "alert": "OK",
      "vis_m": 9999,
      "fzfg": false,
      "metar_trigger": false,
      "taf_trigger": false,
      "metar": "METAR LZTT 290630Z VRB02KT 9999 FEW033 27/17 Q1023 NOSIG",
      "taf": "TAF LZTT 290515Z 2906/3006 07005KT 9999 SCT056"
    },
    {
      "icao": "OEJN",
      "alert": "OK",
      "vis_m": 9999,
      "fzfg": false,
      "metar_trigger": false,
      "taf_trigger": false,
      "metar": "METAR OEJN 290600Z 36011KT CAVOK 34/20 Q1005 NOSIG",
      "taf": "TAF OEJN 290500Z 2906/3012 34018KT 9999 FEW040"
    },
    {
      "icao": "OEMA",
      "alert": "OK",
      "vis_m": 9999,
      "fzfg": false,
      "metar_trigger": false,
      "taf_trigger": false,
      "metar": "METAR OEMA 290600Z 35003KT CAVOK 35/M01 Q1011 NOSIG",
      "taf": "TAF OEMA 290500Z 2906/3012 28010KT CAVOK"
    },
    {
      "icao": "OJAI",
      "alert": "OK",
      "vis_m": 5000,
      "fzfg": false,
      "metar_trigger": false,
      "taf_trigger": false,
      "metar": "METAR OJAI 290600Z 22004KT 5000 HZ NSC 26/11 Q1014 NOSIG",
      "taf": "TAF OJAI 290500Z 2906/3012 29008KT 5000 HZ NSC"
    },
    {
      "icao": "OMAA",
      "alert": "OK",
      "vis_m": 9999,
      "fzfg": false,
      "metar_trigger": false,
      "taf_trigger": false,
      "metar": "METAR OMAA 290630Z 11005KT 070V180 CAVOK 37/21 Q0999 BECMG 31014KT",
      "taf": "TAF OMAA 290500Z 2906/3012 17005KT 8000 NSC"
    },
    {
      "icao": "OMDB",
      "alert": "OK",
      "vis_m": 9999,
      "fzfg": false,
      "metar_trigger": false,
      "taf_trigger": false,
      "metar": "METAR OMDB 290630Z 34006KT 250V060 CAVOK 39/20 Q0999 NOSIG",
      "taf": "TAF OMDB 290500Z 2906/3012 20005KT 8000 NSC"
    },
    {
      "icao": "UAAA",
      "alert": "OK",
      "vis_m": 9999,
      "fzfg": false,
      "metar_trigger": false,
      "taf_trigger": false,
      "metar": "METAR UAAA 290630Z 02004MPS 320V050 9999 FEW050 SCT200 35/15 Q1008 NOSIG",
      "taf": "TAF UAAA 290503Z 2906/3006 34003MPS 9999 SCT050CB BKN100 TX36/2910Z TN20/3001Z"
    },
    {
      "icao": "UBBB",
      "alert": "OK",
      "vis_m": 9999,
      "fzfg": false,
      "metar_trigger": false,
      "taf_trigger": false,
      "metar": "METAR UBBB 290630Z 35022KT 9999 BKN027 24/17 Q1014 NOSIG",
      "taf": "TAF UBBB 290510Z 2906/3006 33018G28KT 9999 BKN020 TX26/2910Z TN20/3001Z"
    },
    {
      "icao": "UDSG",
      "alert": "OK",
      "vis_m": 9999,
      "fzfg": false,
      "metar_trigger": false,
      "taf_trigger": false,
      "metar": "METAR UDSG 290630Z 27005KT 210V300 9999 NSC 17/06 Q1021 NOSIG",
      "taf": "TAF UDSG 290500Z 2906/3006 36006KT 9999 FEW050"
    },
    {
      "icao": "UDYZ",
      "alert": "OK",
      "vis_m": 9999,
      "fzfg": false,
      "metar_trigger": false,
      "taf_trigger": false,
      "metar": "METAR UDYZ 290630Z VRB01KT 9999 NSC 21/05 Q1017 NOSIG",
      "taf": "TAF UDYZ 290500Z 2906/3006 18006KT 9999 FEW040"
    },
    {
      "icao": "UGKO",
      "alert": "OK",
      "vis_m": 9999,
      "fzfg": false,
      "metar_trigger": false,
      "taf_trigger": false,
      "metar": "METAR UGKO 290630Z VRB02KT 9999 BKN042 18/16 Q1018 NOSIG",
      "taf": "TAF UGKO 290500Z 2906/3006 25007KT CAVOK TX25/2911Z TN16/3002Z"
    }
  ]
}