{
  "ts_utc": "2026-04-02T09:44:22Z",
  "threshold_m": 150,
  "source": "stations_override.txt (ICAO list) + aviationweather.gov (METAR/TAF raw)",
  "station_count": 159,
  "stations": [
    {
      "icao": "BIKF",
      "alert": "OK",
      "vis_m": 9999,
      "fzfg": false,
      "metar_trigger": false,
      "taf_trigger": false,
      "metar": "METAR BIKF 020930Z 30008KT 9999 BKN013 OVC030 01/M01 Q0996",
      "taf": "TAF BIKF 020733Z 0209/0309 19010KT 1500 -SN BR BKN004 OVC007 TX02/0215Z TNM03/0306Z"
    },
    {
      "icao": "BKPR",
      "alert": "OK",
      "vis_m": 9999,
      "fzfg": false,
      "metar_trigger": false,
      "taf_trigger": false,
      "metar": "METAR BKPR 020930Z COR 01020KT 9999 SCT015 BKN025 07/06 Q0998 NOSIG",
      "taf": "TAF BKPR 020530Z 0206/0306 01018KT 9999 SCT015 BKN030"
    },
    {
      "icao": "EBCI",
      "alert": "OK",
      "vis_m": 6000,
      "fzfg": false,
      "metar_trigger": false,
      "taf_trigger": false,
      "metar": "METAR EBCI 020920Z 23007KT 6000 SCT005 BKN045 09/06 Q1018 TEMPO 3500 -RADZ BR BKN004",
      "taf": "TAF EBCI 020503Z 0206/0312 26005KT 8000 SCT007 BKN025 BKN040"
    },
    {
      "icao": "EDDB",
      "alert": "OK",
      "vis_m": 9999,
      "fzfg": true,
      "metar_trigger": false,
      "taf_trigger": false,
      "metar": "METAR EDDB 020920Z AUTO 20007KT 170V240 CAVOK 09/03 Q1017 NOSIG",
      "taf": "TAF EDDB 020500Z 0206/0306 23004KT 0300 FZFG BKN001"
    },
    {
      "icao": "EDDH",
      "alert": "OK",
      "vis_m": 9999,
      "fzfg": false,
      "metar_trigger": false,
      "taf_trigger": false,
      "metar": "METAR EDDH 020920Z AUTO 23010KT 9999 SCT043 11/01 Q1015 NOSIG",
      "taf": "TAF EDDH 020500Z 0206/0312 18004KT CAVOK"
    },
    {
      "icao": "EDDK",
      "alert": "OK",
      "vis_m": 9999,
      "fzfg": false,
      "metar_trigger": false,
      "taf_trigger": false,
      "metar": "METAR EDDK 020920Z AUTO VRB02KT CAVOK 10/03 Q1017 NOSIG",
      "taf": "TAF EDDK 020500Z 0206/0312 12004KT CAVOK"
    },
    {
      "icao": "EDDN",
      "alert": "OK",
      "vis_m": 9999,
      "fzfg": false,
      "metar_trigger": false,
      "taf_trigger": false,
      "metar": "METAR EDDN 020920Z AUTO 29005KT 260V330 CAVOK 07/01 Q1017 NOSIG",
      "taf": "TAF EDDN 020500Z 0206/0306 VRB02KT CAVOK"
    },
    {
      "icao": "EDDS",
      "alert": "OK",
      "vis_m": 9999,
      "fzfg": false,
      "metar_trigger": false,
      "taf_trigger": false,
      "metar": "METAR EDDS 020920Z AUTO VRB03KT CAVOK 07/01 Q1016 NOSIG",
      "taf": "TAF EDDS 020500Z 0206/0306 VRB01KT CAVOK"
    },
    {
      "icao": "EDFH",
      "alert": "OK",
      "vis_m": 9999,
      "fzfg": false,
      "metar_trigger": false,
      "taf_trigger": false,
      "metar": "METAR EDFH 020920Z 27008KT 230V300 CAVOK 07/M01 Q1017",
      "taf": "TAF EDFH 020500Z 0206/0306 17004KT CAVOK"
    },
    {
      "icao": "EDJA",
      "alert": "OK",
      "vis_m": 9999,
      "fzfg": false,
      "metar_trigger": false,
      "taf_trigger": false,
      "metar": "METAR EDJA 020920Z 02004KT 340V050 CAVOK 05/01 Q1015",
      "taf": "TAF EDJA 020800Z 0209/0218 05005KT 9999 FEW030"
    },
    {
      "icao": "EDLW",
      "alert": "OK",
      "vis_m": 9999,
      "fzfg": false,
      "metar_trigger": false,
      "taf_trigger": false,
      "metar": "METAR EDLW 020920Z 21008KT 9999 SCT022 10/05 Q1016",
      "taf": "TAF EDLW 020500Z 0206/0306 18008KT CAVOK"
    },
    {
      "icao": "EDNY",
      "alert": "OK",
      "vis_m": 9999,
      "fzfg": false,
      "metar_trigger": false,
      "taf_trigger": false,
      "metar": "METAR EDNY 020920Z 18003KT 130V280 CAVOK 06/01 Q1016",
      "taf": "TAF EDNY 020800Z 0209/0218 04006KT CAVOK"
    },
    {
      "icao": "EDSB",
      "alert": "OK",
      "vis_m": 9999,
      "fzfg": false,
      "metar_trigger": false,
      "taf_trigger": false,
      "metar": "METAR EDSB 020920Z 35005KT 310V040 CAVOK 08/01 Q1018",
      "taf": "TAF EDSB 020500Z 0206/0306 VRB02KT CAVOK"
    },
    {
      "icao": "EETN",
      "alert": "OK",
      "vis_m": 9999,
      "fzfg": false,
      "metar_trigger": false,
      "taf_trigger": false,
      "metar": "METAR EETN 020920Z 21009KT CAVOK 08/02 Q1013 NOSIG",
      "taf": "TAF EETN 020530Z 0206/0306 19010KT 9999 SCT003"
    },
    {
      "icao": "EFTU",
      "alert": "OK",
      "vis_m": 9999,
      "fzfg": false,
      "metar_trigger": false,
      "taf_trigger": false,
      "metar": "METAR EFTU 020920Z AUTO 22008KT 180V260 9999 SCT012 OVC042 08/04 Q1010",
      "taf": "TAF EFTU 020838Z 0209/0309 22005KT 9999 BKN011"
    },
    {
      "icao": "EGBB",
      "alert": "OK",
      "vis_m": 9999,
      "fzfg": false,
      "metar_trigger": false,
      "taf_trigger": false,
      "metar": "METAR EGBB 020920Z 03005KT 360V070 9999 SCT022 BKN029 07/03 Q1022",
      "taf": "TAF EGBB 020457Z 0206/0306 33010KT 9999 SCT025"
    },
    {
      "icao": "EGGP",
      "alert": "OK",
      "vis_m": 9999,
      "fzfg": false,
      "metar_trigger": false,
      "taf_trigger": false,
      "metar": "METAR EGGP 020920Z 12004KT 060V170 9999 SCT023 08/02 Q1022",
      "taf": "TAF EGGP 020504Z 0206/0306 VRB03KT 9999 FEW015 SCT030"
    },
    {
      "icao": "EGGW",
      "alert": "OK",
      "vis_m": 9999,
      "fzfg": false,
      "metar_trigger": false,
      "taf_trigger": false,
      "metar": "METAR EGGW 020920Z AUTO 01010KT 9999 OVC019 05/02 Q1022",
      "taf": "TAF EGGW 020458Z 0206/0306 33008KT 9999 SCT025"
    },
    {
      "icao": "EGKK",
      "alert": "OK",
      "vis_m": 9999,
      "fzfg": false,
      "metar_trigger": false,
      "taf_trigger": false,
      "metar": "METAR EGKK 020920Z 01011KT 320V040 9999 SCT026 07/02 Q1022",
      "taf": "TAF EGKK 020455Z 0206/0312 34009KT 9999 FEW030"
    },
    {
      "icao": "EGNM",
      "alert": "OK",
      "vis_m": 9999,
      "fzfg": false,
      "metar_trigger": false,
      "taf_trigger": false,
      "metar": "METAR EGNM 020920Z 05004KT 020V160 CAVOK 05/M01 Q1021",
      "taf": "TAF EGNM 020503Z 0206/0306 34004KT 9999 FEW015 SCT030"
    },
    {
      "icao": "EGPD",
      "alert": "OK",
      "vis_m": 9999,
      "fzfg": false,
      "metar_trigger": false,
      "taf_trigger": false,
      "metar": "METAR EGPD 020920Z COR AUTO 29007KT 250V320 9999 NCD 05/01 Q1020 NOSIG",
      "taf": "TAF EGPD 020456Z 0206/0306 28007KT 9999 FEW040"
    },
    {
      "icao": "EGPF",
      "alert": "OK",
      "vis_m": 9999,
      "fzfg": false,
      "metar_trigger": false,
      "taf_trigger": false,
      "metar": "METAR EGPF 020920Z AUTO VRB02KT 9999 NCD 04/01 Q1022",
      "taf": "TAF EGPF 020449Z 0206/0306 VRB02KT 9999 FEW040"
    },
    {
      "icao": "EHBK",
      "alert": "OK",
      "vis_m": 9999,
      "fzfg": false,
      "metar_trigger": false,
      "taf_trigger": false,
      "metar": "METAR EHBK 020925Z AUTO 20008KT 9999 BKN008 OVC009 07/03 Q1017 TEMPO 7000 -RADZ BKN012",
      "taf": "TAF EHBK 020514Z 0206/0312 20007KT CAVOK"
    },
    {
      "icao": "EHEH",
      "alert": "OK",
      "vis_m": 5000,
      "fzfg": false,
      "metar_trigger": false,
      "taf_trigger": false,
      "metar": "METAR EHEH 020925Z AUTO 24004KT 210V300 5000 BR FEW012 OVC057 10/08 Q1017 WHT TEMPO 3000 BR SCT004 BKN005",
      "taf": "TAF EHEH 020513Z 0206/0312 19004KT 9999 SCT008"
    },
    {
      "icao": "EKBI",
      "alert": "OK",
      "vis_m": 8000,
      "fzfg": false,
      "metar_trigger": false,
      "taf_trigger": false,
      "metar": "METAR EKBI 020920Z 19008KT 160V220 8000 BKN009 OVC054 08/07 Q1013",
      "taf": "TAF EKBI 020827Z 0209/0309 20006KT 9999 BKN006"
    },
    {
      "icao": "EKCH",
      "alert": "OK",
      "vis_m": 9999,
      "fzfg": false,
      "metar_trigger": false,
      "taf_trigger": false,
      "metar": "METAR EKCH 020920Z AUTO 19007KT 9999 FEW190/// 08/04 Q1015 NOSIG",
      "taf": "TAF EKCH 020827Z 0209/0309 20008KT 9999 SCT040"
    },
    {
      "icao": "ENAL",
      "alert": "OK",
      "vis_m": 9999,
      "fzfg": false,
      "metar_trigger": false,
      "taf_trigger": false,
      "metar": "METAR ENAL 020920Z VRB02KT 9999 SCT030 BKN040 04/M00 Q1015",
      "taf": "TAF ENAL 020800Z 0209/0218 34008KT 9999 FEW018 SCT040"
    },
    {
      "icao": "ENBR",
      "alert": "OK",
      "vis_m": 9999,
      "fzfg": false,
      "metar_trigger": false,
      "taf_trigger": false,
      "metar": "METAR ENBR 020920Z 35015KT 9999 FEW030 03/M03 Q1012 NOSIG RMK WIND 1200FT 35018G30KT",
      "taf": "TAF ENBR 020500Z 0206/0306 34012KT CAVOK"
    },
    {
      "icao": "ENGM",
      "alert": "OK",
      "vis_m": 9000,
      "fzfg": false,
      "metar_trigger": false,
      "taf_trigger": false,
      "metar": "METAR ENGM 020920Z 02013KT 9000 1600E -RA FEW009 BKN023 03/01 Q1009 TEMPO 4000 -SNRA",
      "taf": ""
    },
    {
      "icao": "ENHD",
      "alert": "OK",
      "vis_m": 9999,
      "fzfg": false,
      "metar_trigger": false,
      "taf_trigger": false,
      "metar": "METAR ENHD 020920Z AUTO 34030KT 9999 NCD 05/M02 Q1010",
      "taf": "TAF ENHD 020800Z 0209/0218 35030KT 9999 FEW020 SCT040"
    },
    {
      "icao": "ENTC",
      "alert": "OK",
      "vis_m": 9999,
      "fzfg": false,
      "metar_trigger": false,
      "taf_trigger": false,
      "metar": "METAR ENTC 020920Z 21030KT 9999 -SHRA BKN037 03/M01 Q0995 TEMPO 3000 -SHSNRA BKN008 SCT020CB RMK WIND 2600FT 21035KT",
      "taf": ""
    },
    {
      "icao": "ENTO",
      "alert": "OK",
      "vis_m": 9999,
      "fzfg": false,
      "metar_trigger": false,
      "taf_trigger": false,
      "metar": "METAR ENTO 020920Z 21007KT 9999 4000S -SHRA BKN004 BKN005 06/06 Q1008 TEMPO 4000 RADZ BR",
      "taf": ""
    },
    {
      "icao": "ENVA",
      "alert": "OK",
      "vis_m": 9999,
      "fzfg": false,
      "metar_trigger": false,
      "taf_trigger": false,
      "metar": "METAR ENVA 020920Z 23010KT 9999 FEW020TCU SCT028 04/M01 Q1014 NOSIG RMK WIND 670FT 25010KT",
      "taf": "TAF ENVA 020500Z 0206/0306 24005KT 8000 -RASN SCT007 BKN016"
    },
    {
      "icao": "ENZV",
      "alert": "OK",
      "vis_m": 9999,
      "fzfg": false,
      "metar_trigger": false,
      "taf_trigger": false,
      "metar": "METAR ENZV 020920Z 34019KT CAVOK 05/M02 Q1011 NOSIG",
      "taf": "TAF ENZV 020500Z 0206/0306 33012KT 9999 BKN020"
    },
    {
      "icao": "EPGD",
      "alert": "OK",
      "vis_m": 9999,
      "fzfg": false,
      "metar_trigger": false,
      "taf_trigger": false,
      "metar": "METAR EPGD 020930Z 30004KT 280V010 CAVOK 09/M04 Q1016",
      "taf": "TAF EPGD 020530Z 0206/0306 VRB04KT CAVOK"
    },
    {
      "icao": "EPKK",
      "alert": "OK",
      "vis_m": 9999,
      "fzfg": false,
      "metar_trigger": false,
      "taf_trigger": false,
      "metar": "METAR EPKK 020930Z VRB02KT 9999 BKN037 09/02 Q1013",
      "taf": "TAF EPKK 020830Z 0209/0309 VRB02KT 9999 BKN044"
    },
    {
      "icao": "EPKT",
      "alert": "OK",
      "vis_m": 9999,
      "fzfg": false,
      "metar_trigger": false,
      "taf_trigger": false,
      "metar": "METAR EPKT 020930Z 01010KT CAVOK 09/M01 Q1014",
      "taf": "TAF EPKT 020530Z 0206/0306 02004KT CAVOK"
    },
    {
      "icao": "EPLB",
      "alert": "OK",
      "vis_m": 9999,
      "fzfg": false,
      "metar_trigger": false,
      "taf_trigger": false,
      "metar": "METAR EPLB 020930Z 36006KT 300V050 CAVOK 12/03 Q1012",
      "taf": "TAF EPLB 020530Z 0206/0306 36006KT 9999 FEW030"
    },
    {
      "icao": "EPMO",
      "alert": "OK",
      "vis_m": 9999,
      "fzfg": false,
      "metar_trigger": false,
      "taf_trigger": false,
      "metar": "METAR EPMO 020930Z 02007KT 330V050 CAVOK 11/M02 Q1015",
      "taf": "TAF EPMO 020530Z 0206/0306 01006KT CAVOK"
    },
    {
      "icao": "EPPO",
      "alert": "OK",
      "vis_m": 9999,
      "fzfg": false,
      "metar_trigger": false,
      "taf_trigger": false,
      "metar": "METAR EPPO 020930Z 28003KT 190V300 CAVOK 12/M03 Q1017",
      "taf": "TAF EPPO 020530Z 0206/0306 34003KT CAVOK"
    },
    {
      "icao": "EPRA",
      "alert": "OK",
      "vis_m": 9999,
      "fzfg": false,
      "metar_trigger": false,
      "taf_trigger": false,
      "metar": "METAR EPRA 020930Z 33006KT 300V010 CAVOK 09/M00 Q1014",
      "taf": "TAF EPRA 020830Z 0209/0218 35008KT CAVOK"
    },
    {
      "icao": "EPRZ",
      "alert": "OK",
      "vis_m": 9999,
      "fzfg": false,
      "metar_trigger": false,
      "taf_trigger": false,
      "metar": "METAR EPRZ 020930Z 01005KT 330V040 CAVOK 11/05 Q1012",
      "taf": "TAF EPRZ 020530Z 0206/0306 32005KT 9999 BKN043"
    },
    {
      "icao": "EPSC",
      "alert": "OK",
      "vis_m": 9999,
      "fzfg": false,
      "metar_trigger": false,
      "taf_trigger": false,
      "metar": "METAR EPSC 020930Z 25007KT 230V290 9999 FEW048 10/01 Q1016",
      "taf": "TAF EPSC 020530Z 0206/0306 VRB02KT CAVOK"
    },
    {
      "icao": "EPSY",
      "alert": "OK",
      "vis_m": 9999,
      "fzfg": false,
      "metar_trigger": false,
      "taf_trigger": false,
      "metar": "METAR EPSY 020930Z 36005KT 320V050 CAVOK 11/M02 Q1015",
      "taf": "TAF EPSY 020830Z 0209/0218 VRB02KT CAVOK"
    },
    {
      "icao": "EPWA",
      "alert": "OK",
      "vis_m": 9999,
      "fzfg": false,
      "metar_trigger": false,
      "taf_trigger": false,
      "metar": "METAR EPWA 020930Z 02008KT CAVOK 10/M01 Q1014 NOSIG",
      "taf": "TAF EPWA 020830Z 0209/0309 01008KT CAVOK"
    },
    {
      "icao": "EPWR",
      "alert": "OK",
      "vis_m": 9999,
      "fzfg": false,
      "metar_trigger": false,
      "taf_trigger": false,
      "metar": "METAR EPWR 020930Z VRB03KT CAVOK 11/01 Q1016",
      "taf": "TAF EPWR 020830Z 0209/0309 30005KT CAVOK"
    },
    {
      "icao": "ESGG",
      "alert": "OK",
      "vis_m": 6000,
      "fzfg": false,
      "metar_trigger": false,
      "taf_trigger": false,
      "metar": "METAR ESGG 020850Z 18011KT 6000 BKN005 05/04 Q1011",
      "taf": "TAF ESGG 020830Z 0209/0309 18009KT 9999 BKN008"
    },
    {
      "icao": "ESKN",
      "alert": "OK",
      "vis_m": 9999,
      "fzfg": false,
      "metar_trigger": false,
      "taf_trigger": false,
      "metar": "METAR ESKN 020850Z 25007KT 9999 FEW045 BKN063 09/06 Q1011",
      "taf": "TAF ESKN 020830Z 0209/0309 23008KT CAVOK"
    },
    {
      "icao": "ESMS",
      "alert": "OK",
      "vis_m": 9999,
      "fzfg": false,
      "metar_trigger": false,
      "taf_trigger": false,
      "metar": "METAR ESMS 020850Z 21008KT CAVOK 09/04 Q1014",
      "taf": "TAF ESMS 020827Z 0209/0309 20007KT CAVOK"
    },
    {
      "icao": "ESSA",
      "alert": "OK",
      "vis_m": 9999,
      "fzfg": false,
      "metar_trigger": false,
      "taf_trigger": false,
      "metar": "METAR ESSA 020850Z 24011KT 9999 BKN010 08/05 Q1010 TEMPO BKN009",
      "taf": "TAF ESSA 020830Z 0209/0309 23008KT 9999 BKN012"
    },
    {
      "icao": "EYKA",
      "alert": "OK",
      "vis_m": 9999,
      "fzfg": false,
      "metar_trigger": false,
      "taf_trigger": false,
      "metar": "METAR EYKA 020920Z 36006KT 330V040 CAVOK 10/M02 Q1015",
      "taf": "TAF EYKA 020500Z 0206/0306 VRB04KT 9000 NSC"
    },
    {
      "icao": "EYPA",
      "alert": "OK",
      "vis_m": 9999,
      "fzfg": false,
      "metar_trigger": false,
      "taf_trigger": false,
      "metar": "METAR EYPA 020920Z VRB05KT CAVOK 05/02 Q1016",
      "taf": ""
    },
    {
      "icao": "EYVI",
      "alert": "OK",
      "vis_m": 9999,
      "fzfg": false,
      "metar_trigger": false,
      "taf_trigger": false,
      "metar": "METAR EYVI 020920Z 03006KT 340V090 CAVOK 11/M02 Q1014 NOSIG",
      "taf": "TAF EYVI 020500Z 0206/0306 VRB04KT 9000 NSC"
    },
    {
      "icao": "GCFV",
      "alert": "OK",
      "vis_m": 9999,
      "fzfg": false,
      "metar_trigger": false,
      "taf_trigger": false,
      "metar": "METAR GCFV 020930Z 02011KT CAVOK 21/11 Q1019",
      "taf": "TAF GCFV 020800Z 0209/0309 04013KT CAVOK TX24/0214Z TN16/0306Z"
    },
    {
      "icao": "GCLP",
      "alert": "OK",
      "vis_m": 9999,
      "fzfg": false,
      "metar_trigger": false,
      "taf_trigger": false,
      "metar": "METAR GCLP 020930Z 02015KT 9999 FEW025 20/14 Q1020 NOSIG",
      "taf": "TAF GCLP 020800Z 0209/0309 02018KT CAVOK TX24/0214Z TN17/0306Z"
    },
    {
      "icao": "GCTS",
      "alert": "OK",
      "vis_m": 9999,
      "fzfg": false,
      "metar_trigger": false,
      "taf_trigger": false,
      "metar": "METAR GCTS 020930Z 08014KT 050V110 CAVOK 21/11 Q1019 NOSIG",
      "taf": "TAF GCTS 020800Z 0209/0309 07018KT CAVOK TX25/0214Z TN16/0306Z"
    },
    {
      "icao": "GMAD",
      "alert": "OK",
      "vis_m": 8000,
      "fzfg": false,
      "metar_trigger": false,
      "taf_trigger": false,
      "metar": "METAR GMAD 020930Z 00000KT 8000 NSC 19/13 Q1016 NOSIG",
      "taf": "TAF GMAD 020500Z 0206/0312 07004KT 6000 SCT010"
    },
    {
      "icao": "GMMN",
      "alert": "OK",
      "vis_m": 8000,
      "fzfg": false,
      "metar_trigger": false,
      "taf_trigger": false,
      "metar": "METAR GMMN 020930Z 06005KT 030V110 8000 BKN003 15/14 Q1020 BECMG FEW004",
      "taf": "TAF GMMN 020500Z 0206/0312 15004KT 8000 BKN006"
    },
    {
      "icao": "GMMX",
      "alert": "OK",
      "vis_m": 9999,
      "fzfg": false,
      "metar_trigger": false,
      "taf_trigger": false,
      "metar": "METAR GMMX 020930Z 09004KT 030V120 CAVOK 19/10 Q1018 NOSIG",
      "taf": "TAF GMMX 020500Z 0206/0312 06006KT CAVOK"
    },
    {
      "icao": "HEGN",
      "alert": "OK",
      "vis_m": null,
      "fzfg": false,
      "metar_trigger": false,
      "taf_trigger": false,
      "metar": "",
      "taf": "TAF HEGN 020500Z 0206/0312 16006G16KT 9999 BKN020"
    },
    {
      "icao": "HEMA",
      "alert": "OK",
      "vis_m": null,
      "fzfg": false,
      "metar_trigger": false,
      "taf_trigger": false,
      "metar": "",
      "taf": "TAF HEMA 020500Z 0206/0312 08006G18KT 9999 BKN020"
    },
    {
      "icao": "HESH",
      "alert": "OK",
      "vis_m": null,
      "fzfg": false,
      "metar_trigger": false,
      "taf_trigger": false,
      "metar": "",
      "taf": "TAF HESH 020500Z 0206/0312 12006G16KT 9999 BKN020"
    },
    {
      "icao": "HESX",
      "alert": "OK",
      "vis_m": null,
      "fzfg": false,
      "metar_trigger": false,
      "taf_trigger": false,
      "metar": "",
      "taf": ""
    },
    {
      "icao": "LATI",
      "alert": "OK",
      "vis_m": 9999,
      "fzfg": false,
      "metar_trigger": false,
      "taf_trigger": false,
      "metar": "METAR LATI 020920Z VRB02KT 9999 -RA FEW030 OVC055 13/10 Q0995 NOSIG",
      "taf": "TAF LATI 020500Z 0206/0306 35010KT 9999 SCT050 BKN070 TX16/0211Z TN06/0304Z"
    },
    {
      "icao": "LBPD",
      "alert": "OK",
      "vis_m": 8000,
      "fzfg": false,
      "metar_trigger": false,
      "taf_trigger": false,
      "metar": "METAR LBPD 020930Z AUTO 14006KT 8000 -RA FEW006/// SCT009/// OVC017/// 09/09 Q0998 NOSIG",
      "taf": "TAF LBPD 020500Z 0206/0306 11010KT 6000 -RA SCT015 BKN020 OVC030"
    },
    {
      "icao": "LBSF",
      "alert": "OK",
      "vis_m": 9999,
      "fzfg": false,
      "metar_trigger": false,
      "taf_trigger": false,
      "metar": "METAR LBSF 020930Z 06007KT 9999 -RA SCT027 OVC035 08/04 Q0998 NOSIG",
      "taf": "TAF LBSF 020500Z 0206/0306 09010KT 6000 -RA SCT015 BKN025 OVC040"
    },
    {
      "icao": "LBWN",
      "alert": "OK",
      "vis_m": 9999,
      "fzfg": false,
      "metar_trigger": false,
      "taf_trigger": false,
      "metar": "METAR LBWN 020930Z 17008KT 140V210 9999 -RA SCT011 OVC023 10/09 Q1000 TEMPO 3000 RA",
      "taf": "TAF LBWN 020500Z 0206/0306 05014KT 9999 BKN013 BKN040"
    },
    {
      "icao": "LCLK",
      "alert": "OK",
      "vis_m": 7000,
      "fzfg": false,
      "metar_trigger": false,
      "taf_trigger": false,
      "metar": "METAR LCLK 020930Z 05004KT 020V100 7000 FEW014 SCT020 21/18 Q1006 NOSIG",
      "taf": ""
    },
    {
      "icao": "LCPH",
      "alert": "OK",
      "vis_m": 2000,
      "fzfg": false,
      "metar_trigger": false,
      "taf_trigger": false,
      "metar": "METAR LCPH 020930Z 31012KT 250V320 2000 DU SCT006 BKN011 BKN050 19/16 Q1007 TEMPO 1200 DU",
      "taf": ""
    },
    {
      "icao": "LEAL",
      "alert": "OK",
      "vis_m": 9999,
      "fzfg": false,
      "metar_trigger": false,
      "taf_trigger": false,
      "metar": "METAR LEAL 020930Z 24005KT 150V320 CAVOK 19/02 Q1016 NOSIG",
      "taf": ""
    },
    {
      "icao": "LEBB",
      "alert": "OK",
      "vis_m": 4500,
      "fzfg": false,
      "metar_trigger": false,
      "taf_trigger": false,
      "metar": "METAR LEBB 020930Z 30008KT 250V320 4500 -RA SCT012 BKN021 BKN036 11/09 Q1025 TEMPO RA",
      "taf": "TAF LEBB 020500Z 0206/0306 32009KT 9999 FEW020 BKN030 TX13/0214Z TN08/0306Z"
    },
    {
      "icao": "LEBL",
      "alert": "OK",
      "vis_m": 9999,
      "fzfg": false,
      "metar_trigger": false,
      "taf_trigger": false,
      "metar": "METAR LEBL 020930Z 22010KT 190V250 9999 FEW025 15/06 Q1013 NOSIG",
      "taf": "TAF LEBL 020500Z 0206/0306 32006KT 9999 FEW020 SCT030 TX21/0213Z TN09/0206Z"
    },
    {
      "icao": "LECH",
      "alert": "OK",
      "vis_m": 9999,
      "fzfg": false,
      "metar_trigger": false,
      "taf_trigger": false,
      "metar": "METAR LECH 020930Z AUTO 35017G29KT 300V030 CAVOK 14/01 Q1015",
      "taf": "TAF LECH 020500Z 0206/0306 34020KT CAVOK TX19/0213Z TN11/0305Z"
    },
    {
      "icao": "LEMD",
      "alert": "OK",
      "vis_m": 9999,
      "fzfg": false,
      "metar_trigger": false,
      "taf_trigger": false,
      "metar": "METAR LEMD 020930Z 06004KT CAVOK 11/02 Q1021 NOSIG",
      "taf": ""
    },
    {
      "icao": "LEMG",
      "alert": "OK",
      "vis_m": 9999,
      "fzfg": false,
      "metar_trigger": false,
      "taf_trigger": false,
      "metar": "METAR LEMG 020930Z 28015KT 260V320 CAVOK 19/01 Q1016 NOSIG",
      "taf": "TAF LEMG 020500Z 0206/0306 30010KT CAVOK TX24/0213Z TN09/0305Z"
    },
    {
      "icao": "LEVC",
      "alert": "OK",
      "vis_m": 9999,
      "fzfg": false,
      "metar_trigger": false,
      "taf_trigger": false,
      "metar": "METAR LEVC 020930Z 32015KT CAVOK 16/01 Q1016 NOSIG",
      "taf": "TAF LEVC 020500Z 0206/0306 31015KT CAVOK TX23/0214Z TN15/0305Z"
    },
    {
      "icao": "LEXJ",
      "alert": "OK",
      "vis_m": 9000,
      "fzfg": false,
      "metar_trigger": false,
      "taf_trigger": false,
      "metar": "METAR LEXJ 020930Z 35009KT 310V050 9000 SCT020 BKN050 12/08 Q1026",
      "taf": "TAF LEXJ 020800Z 0209/0309 32009KT 9999 SCT010 BKN030 TX14/0212Z TN09/0303Z"
    },
    {
      "icao": "LEZG",
      "alert": "OK",
      "vis_m": 9999,
      "fzfg": false,
      "metar_trigger": false,
      "taf_trigger": false,
      "metar": "METAR LEZG 020930Z 30018KT 280V340 9999 BKN035 12/05 Q1019 NOSIG",
      "taf": "TAF LEZG 020500Z 0206/0306 29020KT 9999 SCT050 TX17/0214Z TN10/0305Z"
    },
    {
      "icao": "LEZL",
      "alert": "OK",
      "vis_m": 9999,
      "fzfg": false,
      "metar_trigger": false,
      "taf_trigger": false,
      "metar": "METAR LEZL 020930Z 06007KT 020V110 CAVOK 20/05 Q1020 NOSIG",
      "taf": "TAF LEZL 020800Z 0209/0309 05008KT CAVOK TX26/0215Z TN10/0307Z"
    },
    {
      "icao": "LFBD",
      "alert": "OK",
      "vis_m": 9999,
      "fzfg": false,
      "metar_trigger": false,
      "taf_trigger": false,
      "metar": "METAR LFBD 020930Z AUTO 35013KT 9999 FEW032 OVC054 11/06 Q1022 TEMPO 4000 -SHRA BKN015TCU",
      "taf": "TAF LFBD 020500Z 0206/0312 33005KT CAVOK TX16/0312Z TN07/0305Z"
    },
    {
      "icao": "LFLL",
      "alert": "OK",
      "vis_m": 9999,
      "fzfg": false,
      "metar_trigger": false,
      "taf_trigger": false,
      "metar": "METAR LFLL 020930Z 36013KT 9999 FEW031 08/00 Q1016 NOSIG",
      "taf": "TAF LFLL 020500Z 0206/0312 36009KT CAVOK"
    },
    {
      "icao": "LFLS",
      "alert": "OK",
      "vis_m": 9999,
      "fzfg": false,
      "metar_trigger": false,
      "taf_trigger": false,
      "metar": "METAR LFLS 020930Z AUTO 34007KT 310V030 9999 FEW029 SCT037 07/01 Q1015 BECMG 36017G27KT",
      "taf": "TAF LFLS 020800Z 0209/0309 36010KT CAVOK"
    },
    {
      "icao": "LFMN",
      "alert": "OK",
      "vis_m": 9999,
      "fzfg": false,
      "metar_trigger": false,
      "taf_trigger": false,
      "metar": "METAR LFMN 020930Z 21008KT CAVOK 15/01 Q1006 NOSIG",
      "taf": "TAF LFMN 020800Z 0209/0315 33006KT CAVOK"
    },
    {
      "icao": "LFOB",
      "alert": "OK",
      "vis_m": 9999,
      "fzfg": false,
      "metar_trigger": false,
      "taf_trigger": false,
      "metar": "METAR LFOB 020930Z AUTO 30007KT 9999 SCT010 BKN066 OVC086 11/09 Q1019 TEMPO 4000 -RADZ BKN012 OVC035",
      "taf": "TAF LFOB 020500Z 0206/0306 VRB04KT 9999 FEW020 BKN035"
    },
    {
      "icao": "LFPO",
      "alert": "OK",
      "vis_m": 9000,
      "fzfg": false,
      "metar_trigger": false,
      "taf_trigger": false,
      "metar": "METAR LFPO 020930Z VRB03KT 9000 SCT009 BKN015 10/09 Q1020 NOSIG",
      "taf": ""
    },
    {
      "icao": "LFSB",
      "alert": "OK",
      "vis_m": 9999,
      "fzfg": false,
      "metar_trigger": false,
      "taf_trigger": false,
      "metar": "METAR LFSB 020930Z AUTO 36005KT 280V040 CAVOK 09/02 Q1017 NOSIG",
      "taf": "TAF LFSB 020500Z 0206/0306 35005KT 9999 SCT050"
    },
    {
      "icao": "LGAV",
      "alert": "OK",
      "vis_m": 9999,
      "fzfg": false,
      "metar_trigger": false,
      "taf_trigger": false,
      "metar": "METAR LGAV 020920Z 21020KT 9999 FEW020 SCT030 16/08 Q0996 NOSIG",
      "taf": "TAF LGAV 020500Z 0206/0306 22014KT 9999 FEW015 BKN025 BKN070"
    },
    {
      "icao": "LGTS",
      "alert": "OK",
      "vis_m": 5000,
      "fzfg": false,
      "metar_trigger": false,
      "taf_trigger": false,
      "metar": "METAR LGTS 020920Z 27017KT 5000 RA SCT006 BKN018 11/11 Q0993 NOSIG",
      "taf": ""
    },
    {
      "icao": "LHBP",
      "alert": "OK",
      "vis_m": 9999,
      "fzfg": false,
      "metar_trigger": false,
      "taf_trigger": false,
      "metar": "METAR LHBP 020930Z 03008KT 350V060 9999 BKN034 14/06 Q1007 NOSIG",
      "taf": "TAF LHBP 020515Z 0206/0306 34008KT 9999 BKN035"
    },
    {
      "icao": "LHDC",
      "alert": "OK",
      "vis_m": 9999,
      "fzfg": false,
      "metar_trigger": false,
      "taf_trigger": false,
      "metar": "METAR LHDC 020915Z AUTO 04011KT 010V080 CAVOK 14/06 Q1006 NOSIG",
      "taf": "TAF LHDC 020815Z 0209/0218 04011KT CAVOK"
    },
    {
      "icao": "LIBD",
      "alert": "OK",
      "vis_m": 9999,
      "fzfg": false,
      "metar_trigger": false,
      "taf_trigger": false,
      "metar": "METAR LIBD 020920Z 05008KT 9999 -RA BKN025 12/10 Q0995",
      "taf": "TAF LIBD 020500Z 0206/0306 04012KT 7000 RA BKN040"
    },
    {
      "icao": "LIBG",
      "alert": "OK",
      "vis_m": 7000,
      "fzfg": false,
      "metar_trigger": false,
      "taf_trigger": false,
      "metar": "METAR LIBG 020850Z 07010KT 7000 -RA SCT010 BKN040 12/12 Q0993 RERA",
      "taf": "TAF LIBG 020800Z 0209/0218 04012KT 7000 RA OVC030"
    },
    {
      "icao": "LIBP",
      "alert": "OK",
      "vis_m": 8000,
      "fzfg": false,
      "metar_trigger": false,
      "taf_trigger": false,
      "metar": "METAR LIBP 020920Z AUTO 01009KT 8000 -RA OVC022/// 10/09 Q1002 RERA",
      "taf": "TAF LIBP 020500Z 0206/0306 36015KT 7000 RA OVC030"
    },
    {
      "icao": "LIBR",
      "alert": "OK",
      "vis_m": 5000,
      "fzfg": false,
      "metar_trigger": false,
      "taf_trigger": false,
      "metar": "METAR LIBR 020920Z 09012KT 5000 -RA BKN025 12/09 Q0994",
      "taf": "TAF LIBR 020500Z 0206/0306 05015KT 7000 RA OVC040"
    },
    {
      "icao": "LICA",
      "alert": "OK",
      "vis_m": 9999,
      "fzfg": false,
      "metar_trigger": false,
      "taf_trigger": false,
      "metar": "METAR LICA 020920Z AUTO 28009KT 9999 -RA OVC045/// 12/11 Q0993",
      "taf": "TAF LICA 020500Z 0206/0306 VRB05KT 9999 BKN040"
    },
    {
      "icao": "LICC",
      "alert": "OK",
      "vis_m": 9999,
      "fzfg": false,
      "metar_trigger": false,
      "taf_trigger": false,
      "metar": "METAR LICC 020920Z 23007KT 200V270 9999 FEW020 SCT100 15/13 Q0994",
      "taf": "TAF LICC 020500Z 0206/0306 26006KT 9999 SCT030"
    },
    {
      "icao": "LICJ",
      "alert": "OK",
      "vis_m": 9000,
      "fzfg": false,
      "metar_trigger": false,
      "taf_trigger": false,
      "metar": "METAR LICJ 020920Z 35013KT 9000 -RA VCSH SCT020 13/10 Q0996",
      "taf": "TAF LICJ 020500Z 0206/0306 35013KT 9999 SCT020"
    },
    {
      "icao": "LIMC",
      "alert": "OK",
      "vis_m": 9999,
      "fzfg": false,
      "metar_trigger": false,
      "taf_trigger": false,
      "metar": "METAR LIMC 020920Z 13005KT 040V210 CAVOK 14/M04 Q1008 NOSIG",
      "taf": "TAF LIMC 020500Z 0206/0312 VRB05KT CAVOK"
    },
    {
      "icao": "LIME",
      "alert": "OK",
      "vis_m": 9999,
      "fzfg": false,
      "metar_trigger": false,
      "taf_trigger": false,
      "metar": "METAR LIME 020920Z VRB03KT CAVOK 13/M01 Q1008 NOSIG",
      "taf": "TAF LIME 020500Z 0206/0306 01005KT CAVOK"
    },
    {
      "icao": "LIMF",
      "alert": "OK",
      "vis_m": 9999,
      "fzfg": false,
      "metar_trigger": false,
      "taf_trigger": false,
      "metar": "METAR LIMF 020920Z 10006KT 050V130 CAVOK 13/M03 Q1008",
      "taf": "TAF LIMF 020500Z 0206/0306 VRB05KT CAVOK"
    },
    {
      "icao": "LIMJ",
      "alert": "OK",
      "vis_m": 9999,
      "fzfg": false,
      "metar_trigger": false,
      "taf_trigger": false,
      "metar": "METAR LIMJ 020920Z 05009KT 020V080 CAVOK 16/M03 Q1006",
      "taf": "TAF LIMJ 020500Z 0206/0306 02010KT CAVOK"
    },
    {
      "icao": "LIPE",
      "alert": "OK",
      "vis_m": 9999,
      "fzfg": false,
      "metar_trigger": false,
      "taf_trigger": false,
      "metar": "METAR LIPE 020920Z 04006KT 360V140 CAVOK 14/00 Q1007",
      "taf": "TAF LIPE 020500Z 0206/0306 VRB05KT 9999 SCT060"
    },
    {
      "icao": "LIPH",
      "alert": "OK",
      "vis_m": 9999,
      "fzfg": false,
      "metar_trigger": false,
      "taf_trigger": false,
      "metar": "METAR LIPH 020920Z 10004KT 050V160 CAVOK 15/M00 Q1007",
      "taf": "TAF LIPH 020500Z 0206/0306 VRB05KT 9999 SCT060"
    },
    {
      "icao": "LIPQ",
      "alert": "OK",
      "vis_m": 9999,
      "fzfg": false,
      "metar_trigger": false,
      "taf_trigger": false,
      "metar": "METAR LIPQ 020920Z AUTO 09012KT 040V110 9999 NCD 16/M00 Q1006",
      "taf": "TAF LIPQ 020500Z 0206/0306 VRB05KT CAVOK"
    },
    {
      "icao": "LIPR",
      "alert": "OK",
      "vis_m": 9999,
      "fzfg": false,
      "metar_trigger": false,
      "taf_trigger": false,
      "metar": "METAR LIPR 020920Z 05011KT 9999 SCT040 12/05 Q1006",
      "taf": "TAF LIPR 020500Z 0206/0306 04015KT 9999 SCT050"
    },
    {
      "icao": "LIPX",
      "alert": "OK",
      "vis_m": 9999,
      "fzfg": false,
      "metar_trigger": false,
      "taf_trigger": false,
      "metar": "METAR LIPX 020920Z 22006KT 180V260 CAVOK 14/M02 Q1007",
      "taf": "TAF LIPX 020500Z 0206/0306 VRB05KT CAVOK"
    },
    {
      "icao": "LIPY",
      "alert": "OK",
      "vis_m": 9999,
      "fzfg": false,
      "metar_trigger": false,
      "taf_trigger": false,
      "metar": "METAR LIPY 020920Z AUTO 03010KT 9999 OVC063/// 12/07 Q1004",
      "taf": "TAF LIPY 020500Z 0206/0306 03015KT 9999 BKN050"
    },
    {
      "icao": "LIPZ",
      "alert": "OK",
      "vis_m": 9999,
      "fzfg": false,
      "metar_trigger": false,
      "taf_trigger": false,
      "metar": "METAR LIPZ 020920Z 08006KT 050V110 CAVOK 13/00 Q1007 NOSIG",
      "taf": "TAF LIPZ 020500Z 0206/0312 VRB06KT CAVOK"
    },
    {
      "icao": "LIRF",
      "alert": "OK",
      "vis_m": 9999,
      "fzfg": false,
      "metar_trigger": false,
      "taf_trigger": false,
      "metar": "METAR LIRF 020920Z 01015KT CAVOK 13/05 Q0999 NOSIG",
      "taf": "TAF LIRF 020500Z 0206/0312 02016KT CAVOK"
    },
    {
      "icao": "LIRN",
      "alert": "OK",
      "vis_m": 9999,
      "fzfg": false,
      "metar_trigger": false,
      "taf_trigger": false,
      "metar": "METAR LIRN 020920Z 03009KT 9999 FEW040 BKN080 12/07 Q0996 NOSIG",
      "taf": "TAF LIRN 020500Z 0206/0306 03014KT 9999 SCT050"
    },
    {
      "icao": "LIRP",
      "alert": "OK",
      "vis_m": 9999,
      "fzfg": false,
      "metar_trigger": false,
      "taf_trigger": false,
      "metar": "METAR LIRP 020915Z 09008KT CAVOK 15/00 Q1005 NOSIG",
      "taf": "TAF LIRP 020500Z 0206/0306 03005KT 9999 SCT080"
    },
    {
      "icao": "LIRZ",
      "alert": "OK",
      "vis_m": 9999,
      "fzfg": false,
      "metar_trigger": false,
      "taf_trigger": false,
      "metar": "METAR LIRZ 020920Z AUTO 02009KT 9999 -RA BKN032/// 10/05 Q1003",
      "taf": "TAF LIRZ 020500Z 0206/0306 03013KT 9999 BKN040"
    },
    {
      "icao": "LJLJ",
      "alert": "OK",
      "vis_m": 9999,
      "fzfg": false,
      "metar_trigger": false,
      "taf_trigger": false,
      "metar": "METAR LJLJ 020930Z 26004KT 210V290 9999 BKN055 11/M00 Q1008 NOSIG",
      "taf": "TAF LJLJ 020500Z 0206/0306 30003KT 9999 SCT055"
    },
    {
      "icao": "LKMT",
      "alert": "OK",
      "vis_m": 9999,
      "fzfg": false,
      "metar_trigger": false,
      "taf_trigger": false,
      "metar": "METAR LKMT 020930Z 03011KT CAVOK 08/02 Q1014 NOSIG",
      "taf": "TAF LKMT 020500Z 0206/0306 04008KT CAVOK"
    },
    {
      "icao": "LKPR",
      "alert": "OK",
      "vis_m": 9999,
      "fzfg": false,
      "metar_trigger": false,
      "taf_trigger": false,
      "metar": "METAR LKPR 020930Z 32006KT 290V350 9999 FEW030 08/01 Q1016 NOSIG",
      "taf": "TAF LKPR 020800Z 0209/0315 34006KT CAVOK"
    },
    {
      "icao": "LLBG",
      "alert": "OK",
      "vis_m": 9000,
      "fzfg": false,
      "metar_trigger": false,
      "taf_trigger": false,
      "metar": "METAR LLBG 020920Z 26017KT 9000 BKN038 22/17 Q1010 BECMG 5000 DU",
      "taf": "TAF LLBG 020502Z 0206/0306 15012KT CAVOK TX26/0208Z TN16/0303Z"
    },
    {
      "icao": "LMML",
      "alert": "OK",
      "vis_m": 9999,
      "fzfg": false,
      "metar_trigger": false,
      "taf_trigger": false,
      "metar": "METAR LMML 020915Z 27022G32KT 9999 FEW015 13/10 Q0996 NOSIG",
      "taf": "TAF LMML 020500Z 0206/0306 28020G30KT 9999 SCT020"
    },
    {
      "icao": "LOWW",
      "alert": "OK",
      "vis_m": 9999,
      "fzfg": false,
      "metar_trigger": false,
      "taf_trigger": false,
      "metar": "METAR LOWW 020920Z 32014KT 9999 -RA FEW044 OVC050 08/02 Q1012 NOSIG",
      "taf": "TAF LOWW 020815Z 0209/0315 33015G25KT 9999 BKN040 TX15/0313Z TN06/0304Z"
    },
    {
      "icao": "LPFR",
      "alert": "OK",
      "vis_m": 9999,
      "fzfg": false,
      "metar_trigger": false,
      "taf_trigger": false,
      "metar": "METAR LPFR 020930Z 14005KT CAVOK 22/09 Q1020",
      "taf": "TAF LPFR 020500Z 0206/0306 02008KT CAVOK"
    },
    {
      "icao": "LPMA",
      "alert": "OK",
      "vis_m": 9999,
      "fzfg": false,
      "metar_trigger": false,
      "taf_trigger": false,
      "metar": "METAR LPMA 020930Z 36014KT 9999 FEW015 21/06 Q1023",
      "taf": "TAF LPMA 020500Z 0206/0306 01015KT 9999 SCT015"
    },
    {
      "icao": "LPPR",
      "alert": "OK",
      "vis_m": 9999,
      "fzfg": false,
      "metar_trigger": false,
      "taf_trigger": false,
      "metar": "METAR LPPR 020930Z 35008KT CAVOK 15/06 Q1023",
      "taf": "TAF LPPR 020500Z 0206/0306 VRB02KT CAVOK"
    },
    {
      "icao": "LPPS",
      "alert": "OK",
      "vis_m": 9999,
      "fzfg": false,
      "metar_trigger": false,
      "taf_trigger": false,
      "metar": "METAR LPPS 020930Z 01014KT 9999 FEW012 18/14 Q1023",
      "taf": "TAF LPPS 020500Z 0206/0312 03010KT 9999 SCT012"
    },
    {
      "icao": "LPPT",
      "alert": "OK",
      "vis_m": 9999,
      "fzfg": false,
      "metar_trigger": false,
      "taf_trigger": false,
      "metar": "METAR LPPT 020930Z 34009KT CAVOK 17/10 Q1022",
      "taf": "TAF LPPT 020500Z 0206/0312 33012KT CAVOK"
    },
    {
      "icao": "LQBK",
      "alert": "OK",
      "vis_m": 9999,
      "fzfg": false,
      "metar_trigger": false,
      "taf_trigger": false,
      "metar": "METAR LQBK 020930Z 27007KT 9999 BKN025 06/02 Q1007 NOSIG",
      "taf": "TAF LQBK 020500Z 0206/0306 29007KT 9999 SCT030 BKN045 TX11/0213Z TN06/0305Z"
    },
    {
      "icao": "LQSA",
      "alert": "OK",
      "vis_m": 9999,
      "fzfg": false,
      "metar_trigger": false,
      "taf_trigger": false,
      "metar": "METAR LQSA 020930Z 30008KT 270V330 9999 SCT015 BKN028 05/03 Q1003 NOSIG",
      "taf": "TAF LQSA 020500Z 0206/0306 28008KT 9999 SCT020 BKN040 TX07/0213Z TN04/0305Z"
    },
    {
      "icao": "LQTZ",
      "alert": "OK",
      "vis_m": 9999,
      "fzfg": false,
      "metar_trigger": false,
      "taf_trigger": false,
      "metar": "METAR LQTZ 020930Z 29006KT 260V330 9999 OVC015 04/03 Q1005",
      "taf": "TAF LQTZ 020500Z 0206/0306 30005KT 7000 SCT015 OVC030 TX07/0213Z TN03/0305Z"
    },
    {
      "icao": "LRBC",
      "alert": "OK",
      "vis_m": 7000,
      "fzfg": false,
      "metar_trigger": false,
      "taf_trigger": false,
      "metar": "METAR LRBC 020930Z 35012KT 7000 OVC007 08/06 Q1007",
      "taf": "TAF LRBC 020800Z 0209/0218 35012KT 9999 BKN005"
    },
    {
      "icao": "LRBS",
      "alert": "OK",
      "vis_m": 4000,
      "fzfg": false,
      "metar_trigger": false,
      "taf_trigger": false,
      "metar": "METAR LRBS 020930Z 05015G27KT 4000 RA BR OVC006 09/07 Q1002 NOSIG",
      "taf": "TAF LRBS 020500Z 0206/0306 06018KT 9999 BKN010 OVC020"
    },
    {
      "icao": "LRBV",
      "alert": "OK",
      "vis_m": 9999,
      "fzfg": false,
      "metar_trigger": false,
      "taf_trigger": false,
      "metar": "METAR LRBV 020930Z 06007KT 9999 SCT008 BKN036 08/06 Q1004",
      "taf": "TAF LRBV 020800Z 0209/0218 VRB04KT 9999 BKN010"
    },
    {
      "icao": "LRCL",
      "alert": "OK",
      "vis_m": 9999,
      "fzfg": false,
      "metar_trigger": false,
      "taf_trigger": false,
      "metar": "METAR LRCL 020930Z 25004KT 9999 BKN058 09/04 Q1006",
      "taf": "TAF LRCL 020800Z 0209/0218 VRB04KT 9999 BKN060"
    },
    {
      "icao": "LRCV",
      "alert": "OK",
      "vis_m": 6000,
      "fzfg": false,
      "metar_trigger": false,
      "taf_trigger": false,
      "metar": "METAR LRCV 020930Z 06010KT 6000 -RA OVC017 08/08 Q1002",
      "taf": "TAF LRCV 020800Z 0209/0218 08014KT 5000 -RA BR OVC010"
    },
    {
      "icao": "LRIA",
      "alert": "OK",
      "vis_m": 6000,
      "fzfg": false,
      "metar_trigger": false,
      "taf_trigger": false,
      "metar": "METAR LRIA 020930Z 32009KT 6000 OVC003 08/07 Q1007",
      "taf": "TAF LRIA 020800Z 0209/0218 31008KT 3000 BR OVC002"
    },
    {
      "icao": "LROP",
      "alert": "OK",
      "vis_m": 5000,
      "fzfg": false,
      "metar_trigger": false,
      "taf_trigger": false,
      "metar": "METAR LROP 020930Z 06019KT 5000 RA BR OVC009 09/08 Q1003 NOSIG",
      "taf": "TAF LROP 020500Z 0206/0306 06018KT 9999 BKN010 OVC020"
    },
    {
      "icao": "LRSB",
      "alert": "OK",
      "vis_m": 9999,
      "fzfg": false,
      "metar_trigger": false,
      "taf_trigger": false,
      "metar": "METAR LRSB 020930Z 32004KT 9999 FEW010 SCT020 OVC025 07/05 Q1005",
      "taf": "TAF LRSB 020500Z 0206/0306 VRB04KT 9999 BKN040"
    },
    {
      "icao": "LRSM",
      "alert": "OK",
      "vis_m": 9999,
      "fzfg": false,
      "metar_trigger": false,
      "taf_trigger": false,
      "metar": "METAR LRSM 020930Z VRB02KT CAVOK 12/06 Q1006",
      "taf": "TAF LRSM 020800Z 0209/0218 VRB04KT CAVOK"
    },
    {
      "icao": "LRSV",
      "alert": "OK",
      "vis_m": 9999,
      "fzfg": false,
      "metar_trigger": false,
      "taf_trigger": false,
      "metar": "METAR LRSV 020930Z 32007KT 290V350 9999 FEW021 BKN047 09/07 Q1007",
      "taf": "TAF LRSV 020800Z 0209/0218 32010KT 9999 BKN035"
    },
    {
      "icao": "LRTM",
      "alert": "OK",
      "vis_m": 9000,
      "fzfg": false,
      "metar_trigger": false,
      "taf_trigger": false,
      "metar": "METAR LRTM 020930Z 24003KT 210V270 9000 SCT047 08/06 Q1005",
      "taf": "TAF LRTM 020800Z 0209/0218 VRB04KT 5000 BR SCT045"
    },
    {
      "icao": "LRTR",
      "alert": "OK",
      "vis_m": 9999,
      "fzfg": false,
      "metar_trigger": false,
      "taf_trigger": false,
      "metar": "METAR LRTR 020930Z 01009KT 9999 FEW030 14/07 Q1003 NOSIG",
      "taf": "TAF LRTR 020500Z 0206/0306 01010KT CAVOK"
    },
    {
      "icao": "LTAC",
      "alert": "OK",
      "vis_m": 9999,
      "fzfg": false,
      "metar_trigger": false,
      "taf_trigger": false,
      "metar": "METAR LTAC 020920Z 10005KT 050V130 9999 -SHRA FEW010 BKN030 BKN080 11/09 Q1004 RESHRA NOSIG RMK RWY21C 11006KT RWY03L 10005KT 060V130 RWY21R 10006KT 330V120 RWY03R 05004KT RWY21L 10006KT",
      "taf": "TAF LTAC 020440Z 0206/0306 VRB02KT 9999 SCT040 BKN100"
    },
    {
      "icao": "LTFM",
      "alert": "OK",
      "vis_m": 8000,
      "fzfg": false,
      "metar_trigger": false,
      "taf_trigger": false,
      "metar": "METAR LTFM 020920Z 33007KT 290V360 8000 BKN005 BKN024 12/10 Q0999 NOSIG RMK RWY17L 01008KT 290V070 RWY34L 34008KT RWY16R 32007KT RWY36 33007KT RWY18 32007KT",
      "taf": "TAF LTFM 020440Z 0206/0312 14013KT 9999 BKN004 BKN020"
    },
    {
      "icao": "LUKK",
      "alert": "OK",
      "vis_m": 9999,
      "fzfg": false,
      "metar_trigger": false,
      "taf_trigger": false,
      "metar": "METAR LUKK 020930Z 02007KT 360V060 9999 OVC011 12/09 Q1006 NOSIG",
      "taf": "TAF LUKK 020506Z 0206/0306 VRB06KT 5000 BR BKN005"
    },
    {
      "icao": "LWOH",
      "alert": "OK",
      "vis_m": 9999,
      "fzfg": false,
      "metar_trigger": false,
      "taf_trigger": false,
      "metar": "METAR LWOH 020920Z 36007KT 320V030 9999 -RA OVC033 07/05 Q0995",
      "taf": "TAF LWOH 020810Z 0209/0309 34008KT 9999 RA SCT025 OVC035"
    },
    {
      "icao": "LWSK",
      "alert": "OK",
      "vis_m": 9999,
      "fzfg": false,
      "metar_trigger": false,
      "taf_trigger": false,
      "metar": "METAR LWSK 020920Z 24003KT 180V300 9999 -RA BKN035 OVC070 09/08 Q0996 NOSIG",
      "taf": "TAF LWSK 020810Z 0209/0309 VRB02KT 9999 -RA FEW020 BKN035 OVC070"
    },
    {
      "icao": "LYBE",
      "alert": "OK",
      "vis_m": 9999,
      "fzfg": false,
      "metar_trigger": false,
      "taf_trigger": false,
      "metar": "METAR LYBE 020930Z 35006KT 320V050 9999 BKN013 08/05 Q1005 NOSIG",
      "taf": "TAF LYBE 020500Z 0206/0306 35008KT 9999 SCT010 BKN045 TX11/0213Z TN05/0206Z"
    },
    {
      "icao": "LYNI",
      "alert": "OK",
      "vis_m": 9999,
      "fzfg": false,
      "metar_trigger": false,
      "taf_trigger": false,
      "metar": "METAR LYNI 020930Z 36010KT 300V040 9999 FEW027 BKN060 10/05 Q1000 NOSIG",
      "taf": "TAF LYNI 020500Z 0206/0306 04014KT 9999 SCT040 BKN080 TX11/0213Z TN07/0305Z"
    },
    {
      "icao": "LYPG",
      "alert": "OK",
      "vis_m": 9999,
      "fzfg": false,
      "metar_trigger": false,
      "taf_trigger": false,
      "metar": "METAR LYPG 020930Z 02013KT 9999 FEW040 OVC090 15/03 Q0995 TEMPO 02025KT",
      "taf": "TAF LYPG 020500Z 0206/0306 36015KT 9999 FEW050 OVC090 TX16/0212Z TN10/0304Z"
    },
    {
      "icao": "LZIB",
      "alert": "OK",
      "vis_m": 9999,
      "fzfg": false,
      "metar_trigger": false,
      "taf_trigger": false,
      "metar": "METAR LZIB 020930Z 31010KT 9999 -RA NSC 09/03 Q1010 NOSIG",
      "taf": "TAF LZIB 020515Z 0206/0306 35016KT CAVOK"
    },
    {
      "icao": "LZKZ",
      "alert": "OK",
      "vis_m": 9999,
      "fzfg": false,
      "metar_trigger": false,
      "taf_trigger": false,
      "metar": "METAR LZKZ 020930Z 36022KT CAVOK 11/04 Q1008 NOSIG",
      "taf": "TAF LZKZ 020515Z 0206/0306 01020KT CAVOK"
    },
    {
      "icao": "LZTT",
      "alert": "OK",
      "vis_m": 9999,
      "fzfg": false,
      "metar_trigger": false,
      "taf_trigger": false,
      "metar": "METAR LZTT 020930Z AUTO 12006KT 090V160 9999 // OVC038/// 04/02 Q1010 NOSIG",
      "taf": "TAF LZTT 020515Z 0206/0306 08013KT 9999 -RA FEW005 OVC026"
    },
    {
      "icao": "OEJN",
      "alert": "OK",
      "vis_m": 8000,
      "fzfg": false,
      "metar_trigger": false,
      "taf_trigger": false,
      "metar": "METAR OEJN 020900Z 19007KT 8000 NSC 36/16 Q1008 NOSIG",
      "taf": "TAF OEJN 020500Z 0206/0312 20010KT 7000 NSC"
    },
    {
      "icao": "OEMA",
      "alert": "OK",
      "vis_m": 9999,
      "fzfg": false,
      "metar_trigger": false,
      "taf_trigger": false,
      "metar": "METAR OEMA 020900Z 14005KT CAVOK 34/01 Q1014 NOSIG",
      "taf": "TAF OEMA 020500Z 0206/0312 15015KT 7000 FEW040"
    },
    {
      "icao": "OJAI",
      "alert": "OK",
      "vis_m": 4000,
      "fzfg": false,
      "metar_trigger": false,
      "taf_trigger": false,
      "metar": "METAR OJAI 020900Z 18012KT 4000 HZ FEW035 SCT080 18/11 Q1082 NOSIG",
      "taf": "TAF OJAI 020500Z 0206/0312 12014KT 4000 BR FEW025TCU SCT030"
    },
    {
      "icao": "OMAA",
      "alert": "OK",
      "vis_m": null,
      "fzfg": false,
      "metar_trigger": false,
      "taf_trigger": false,
      "metar": "",
      "taf": ""
    },
    {
      "icao": "OMDB",
      "alert": "OK",
      "vis_m": null,
      "fzfg": false,
      "metar_trigger": false,
      "taf_trigger": false,
      "metar": "",
      "taf": ""
    },
    {
      "icao": "UAAA",
      "alert": "OK",
      "vis_m": 9999,
      "fzfg": false,
      "metar_trigger": false,
      "taf_trigger": false,
      "metar": "METAR UAAA 020930Z 02003MPS 300V070 9999 FEW100 SCT200 25/02 Q1011 NOSIG",
      "taf": "TAF UAAA 020500Z 0206/0306 03003G08MPS 9999 FEW050 SCT100 TX26/0210Z TN09/0301Z"
    },
    {
      "icao": "UBBB",
      "alert": "OK",
      "vis_m": 9999,
      "fzfg": false,
      "metar_trigger": false,
      "taf_trigger": false,
      "metar": "METAR UBBB 020930Z 16022KT CAVOK 16/11 Q1013 NOSIG",
      "taf": "TAF UBBB 020508Z 0206/0306 15012KT 9999 SCT012 SCT025 TX18/0210Z TN09/0301Z"
    },
    {
      "icao": "UDSG",
      "alert": "OK",
      "vis_m": 9999,
      "fzfg": false,
      "metar_trigger": false,
      "taf_trigger": false,
      "metar": "METAR UDSG 020930Z 21011KT 180V250 9999 SCT043CB 12/M01 Q1015 NOSIG",
      "taf": "TAF UDSG 020458Z 0206/0306 24006KT 9999 SCT050"
    },
    {
      "icao": "UDYZ",
      "alert": "OK",
      "vis_m": 9999,
      "fzfg": false,
      "metar_trigger": false,
      "taf_trigger": false,
      "metar": "METAR UDYZ 020930Z 15007KT 110V180 9999 FEW046 17/00 Q1013 NOSIG",
      "taf": "TAF UDYZ 020500Z 0206/0306 22006KT 9999 FEW040"
    },
    {
      "icao": "UGKO",
      "alert": "OK",
      "vis_m": 9999,
      "fzfg": false,
      "metar_trigger": false,
      "taf_trigger": false,
      "metar": "METAR UGKO 020930Z 08025KT CAVOK 23/05 Q1005 NOSIG",
      "taf": "TAF UGKO 020500Z 0206/0306 08010KT CAVOK TX25/0212Z TN13/0302Z"
    }
  ]
}