{
  "ts_utc": "2026-03-26T15:41:11Z",
  "threshold_m": 150,
  "source": "stations_override.txt (ICAO list) + aviationweather.gov (METAR/TAF raw)",
  "station_count": 159,
  "stations": [
    {
      "icao": "BIKF",
      "alert": "OK",
      "vis_m": 9999,
      "fzfg": false,
      "metar_trigger": false,
      "taf_trigger": false,
      "metar": "METAR BIKF 261530Z 16017KT 9999 VCSH SCT025CB BKN090 03/00 Q0979",
      "taf": "TAF BIKF 261334Z 2615/2715 19018G28KT 9999 -SHRA SCT016 BKN030 TX05/2617Z TN00/2715Z"
    },
    {
      "icao": "BKPR",
      "alert": "OK",
      "vis_m": 9999,
      "fzfg": false,
      "metar_trigger": false,
      "taf_trigger": false,
      "metar": "METAR BKPR 261530Z 06005KT 9999 BKN065 13/03 Q0996 NOSIG",
      "taf": "TAF BKPR 261130Z 2612/2712 16008KT 9999 BKN050"
    },
    {
      "icao": "EBCI",
      "alert": "OK",
      "vis_m": 9999,
      "fzfg": false,
      "metar_trigger": false,
      "taf_trigger": false,
      "metar": "METAR EBCI 261520Z 31008KT 280V350 9999 VCSH SCT017 BKN025 04/01 Q1019 TEMPO 2000 SHSNGS BKN012CB",
      "taf": "TAF EBCI 261110Z 2612/2718 33010KT 9999 SCT022TCU"
    },
    {
      "icao": "EDDB",
      "alert": "OK",
      "vis_m": 9999,
      "fzfg": false,
      "metar_trigger": false,
      "taf_trigger": false,
      "metar": "METAR EDDB 261520Z AUTO 31009KT 9999 VCSH FEW022 SCT042 FEW///TCU 05/02 Q1011 TEMPO 32015G25KT",
      "taf": "TAF EDDB 261100Z 2612/2712 28012KT 9999 BKN030"
    },
    {
      "icao": "EDDH",
      "alert": "OK",
      "vis_m": 9999,
      "fzfg": false,
      "metar_trigger": false,
      "taf_trigger": false,
      "metar": "METAR EDDH 261520Z AUTO 29013G26KT 250V310 9999 -SHSNRA FEW019 SCT041 FEW///CB 04/M02 Q1012 TEMPO SHRASN",
      "taf": "TAF EDDH 261100Z 2612/2718 30015G25KT 9999 SCT035"
    },
    {
      "icao": "EDDK",
      "alert": "OK",
      "vis_m": 9999,
      "fzfg": false,
      "metar_trigger": false,
      "taf_trigger": false,
      "metar": "METAR EDDK 261520Z AUTO 01014KT 340V040 9999 -SHRA FEW017 SCT030 FEW///CB 03/00 Q1017 RESHSN TEMPO SHRA",
      "taf": "TAF EDDK 261100Z 2612/2718 32013KT 9999 BKN025"
    },
    {
      "icao": "EDDN",
      "alert": "OK",
      "vis_m": 9999,
      "fzfg": false,
      "metar_trigger": false,
      "taf_trigger": false,
      "metar": "METAR EDDN 261520Z AUTO 32016KT 9999 -SHRA BKN042 FEW///CB 06/M01 Q1012 RESHRA TEMPO 31009KT SHRA",
      "taf": ""
    },
    {
      "icao": "EDDS",
      "alert": "OK",
      "vis_m": 9999,
      "fzfg": false,
      "metar_trigger": false,
      "taf_trigger": false,
      "metar": "METAR EDDS 261520Z AUTO 01008KT 340V060 9999 FEW017 07/M05 Q1013 TEMPO SHRA BKN020CB",
      "taf": "TAF EDDS 261100Z 2612/2712 31012KT 9999 SCT025"
    },
    {
      "icao": "EDFH",
      "alert": "OK",
      "vis_m": 9999,
      "fzfg": false,
      "metar_trigger": false,
      "taf_trigger": false,
      "metar": "METAR EDFH 261520Z 30010KT 260V340 9999 FEW026 SCT035 05/M02 Q1015",
      "taf": "TAF EDFH 261100Z 2612/2712 33010KT 9999 BKN030"
    },
    {
      "icao": "EDJA",
      "alert": "OK",
      "vis_m": 2000,
      "fzfg": false,
      "metar_trigger": false,
      "taf_trigger": false,
      "metar": "METAR EDJA 261520Z 34010G28KT 300V010 2000 SHSN FEW022CB BKN054 02/M02 Q1012",
      "taf": "TAF EDJA 261400Z 2615/2624 32008KT 9999 BKN025"
    },
    {
      "icao": "EDLW",
      "alert": "OK",
      "vis_m": 9999,
      "fzfg": false,
      "metar_trigger": false,
      "taf_trigger": false,
      "metar": "METAR EDLW 261520Z VRB03KT 9999 VCSH SCT026 SCT031CB 03/01 Q1016",
      "taf": "TAF EDLW 261100Z 2612/2712 31010KT 9999 BKN025"
    },
    {
      "icao": "EDNY",
      "alert": "OK",
      "vis_m": 9999,
      "fzfg": false,
      "metar_trigger": false,
      "taf_trigger": false,
      "metar": "METAR EDNY 261520Z VRB03KT 9999 BKN039 BKN048 03/00 Q1014",
      "taf": "TAF EDNY 261400Z 2615/2624 33005KT 9999 SCT030"
    },
    {
      "icao": "EDSB",
      "alert": "OK",
      "vis_m": 9999,
      "fzfg": false,
      "metar_trigger": false,
      "taf_trigger": false,
      "metar": "METAR EDSB 261520Z 29009KT 260V340 9999 VCSH FEW045 09/M03 Q1015",
      "taf": "TAF EDSB 261100Z 2612/2712 31006KT 9999 SCT030"
    },
    {
      "icao": "EETN",
      "alert": "OK",
      "vis_m": 9999,
      "fzfg": false,
      "metar_trigger": false,
      "taf_trigger": false,
      "metar": "METAR EETN 261520Z 21010KT 180V240 9999 BKN036 07/M00 Q1003 NOSIG",
      "taf": "TAF EETN 261130Z 2612/2712 20013KT 9999 BKN025"
    },
    {
      "icao": "EFTU",
      "alert": "OK",
      "vis_m": 9999,
      "fzfg": false,
      "metar_trigger": false,
      "taf_trigger": false,
      "metar": "METAR EFTU 261520Z AUTO 21012KT 190V250 9999 -RA OVC006 03/02 Q0998 REDZ",
      "taf": "TAF EFTU 261427Z 2615/2715 20012KT 9999 BKN007"
    },
    {
      "icao": "EGBB",
      "alert": "OK",
      "vis_m": 9999,
      "fzfg": false,
      "metar_trigger": false,
      "taf_trigger": false,
      "metar": "METAR EGBB 261520Z 32011KT 290V350 CAVOK 09/M03 Q1022",
      "taf": "TAF EGBB 261052Z 2612/2712 34010KT 9999 FEW035"
    },
    {
      "icao": "EGGP",
      "alert": "OK",
      "vis_m": 9999,
      "fzfg": false,
      "metar_trigger": false,
      "taf_trigger": false,
      "metar": "METAR EGGP 261520Z 29010KT 260V330 9999 FEW040 09/01 Q1022",
      "taf": "TAF EGGP 261054Z 2612/2712 28010KT 9999 FEW030"
    },
    {
      "icao": "EGGW",
      "alert": "OK",
      "vis_m": 9999,
      "fzfg": false,
      "metar_trigger": false,
      "taf_trigger": false,
      "metar": "METAR EGGW 261520Z AUTO 32008KT 280V340 9999 NCD 09/M04 Q1022",
      "taf": "TAF EGGW 261056Z 2612/2712 31010KT 9999 SCT040"
    },
    {
      "icao": "EGKK",
      "alert": "OK",
      "vis_m": 9999,
      "fzfg": false,
      "metar_trigger": false,
      "taf_trigger": false,
      "metar": "METAR EGKK 261520Z 30010KT 270V330 CAVOK 10/M05 Q1022",
      "taf": "TAF EGKK 261056Z 2612/2718 33010KT 9999 FEW040"
    },
    {
      "icao": "EGNM",
      "alert": "OK",
      "vis_m": 9999,
      "fzfg": false,
      "metar_trigger": false,
      "taf_trigger": false,
      "metar": "METAR EGNM 261520Z 28011KT 9999 FEW040 07/M03 Q1021",
      "taf": "TAF EGNM 261059Z 2612/2712 29009KT 9999 FEW025"
    },
    {
      "icao": "EGPD",
      "alert": "OK",
      "vis_m": 9999,
      "fzfg": false,
      "metar_trigger": false,
      "taf_trigger": false,
      "metar": "METAR EGPD 261520Z COR AUTO 23007KT 9999 FEW046 07/M01 Q1016 NOSIG",
      "taf": ""
    },
    {
      "icao": "EGPF",
      "alert": "OK",
      "vis_m": 9999,
      "fzfg": false,
      "metar_trigger": false,
      "taf_trigger": false,
      "metar": "METAR EGPF 261520Z AUTO 21015KT 9999 FEW023 SCT029 BKN040 08/04 Q1018",
      "taf": "TAF EGPF 261100Z 2612/2712 23012KT 9999 FEW020"
    },
    {
      "icao": "EHBK",
      "alert": "OK",
      "vis_m": 9999,
      "fzfg": false,
      "metar_trigger": false,
      "taf_trigger": false,
      "metar": "METAR EHBK 261525Z AUTO 33010KT 290V010 9999 NSC 06/M01 Q1018 TEMPO 6000 SHRAGS SCT010 SCT020CB",
      "taf": "TAF EHBK 261114Z 2612/2718 32010KT 9999 BKN030"
    },
    {
      "icao": "EHEH",
      "alert": "OK",
      "vis_m": 9999,
      "fzfg": false,
      "metar_trigger": false,
      "taf_trigger": false,
      "metar": "METAR EHEH 261525Z AUTO 32006KT 250V360 9999 FEW022CB SCT051 BKN069 05/M01 Q1019 RERA BLU TEMPO 34012G22KT 3000 SHRA SHRAGS FEW015 SCT020CB",
      "taf": "TAF EHEH 261120Z 2612/2718 31006KT 9999 SCT045"
    },
    {
      "icao": "EKBI",
      "alert": "OK",
      "vis_m": 9999,
      "fzfg": false,
      "metar_trigger": false,
      "taf_trigger": false,
      "metar": "METAR EKBI 261520Z AUTO 28017KT 9999 -DZRA OVC023/// 04/01 Q1007",
      "taf": "TAF EKBI 261427Z 2615/2715 28015KT 9999 BKN030"
    },
    {
      "icao": "EKCH",
      "alert": "OK",
      "vis_m": 9999,
      "fzfg": false,
      "metar_trigger": false,
      "taf_trigger": false,
      "metar": "METAR EKCH 261520Z AUTO 28014KT 250V310 9999 BKN048/// 07/M03 Q1006 NOSIG",
      "taf": "TAF EKCH 261427Z 2615/2715 26015KT 9999 BKN025"
    },
    {
      "icao": "ENAL",
      "alert": "OK",
      "vis_m": 9999,
      "fzfg": false,
      "metar_trigger": false,
      "taf_trigger": false,
      "metar": "METAR ENAL 261520Z 01004KT 350V050 9999 VCSH SCT025TCU 06/01 Q1007",
      "taf": "TAF ENAL 261400Z 2615/2624 29008KT 9999 -SHRA FEW015 BKN035"
    },
    {
      "icao": "ENBR",
      "alert": "OK",
      "vis_m": 9999,
      "fzfg": false,
      "metar_trigger": false,
      "taf_trigger": false,
      "metar": "METAR ENBR 261520Z 31012KT 9999 -SHRA FEW006 SCT010 FEW014CB BKN020 04/01 Q1008 NOSIG RMK WIND 1200FT 31023KT",
      "taf": ""
    },
    {
      "icao": "ENGM",
      "alert": "OK",
      "vis_m": 9999,
      "fzfg": false,
      "metar_trigger": false,
      "taf_trigger": false,
      "metar": "METAR ENGM 261520Z 35009KT 290V050 CAVOK 11/M08 Q0999 NOSIG",
      "taf": "TAF ENGM 261100Z 2612/2712 32008KT CAVOK"
    },
    {
      "icao": "ENHD",
      "alert": "OK",
      "vis_m": 9999,
      "fzfg": false,
      "metar_trigger": false,
      "taf_trigger": false,
      "metar": "METAR ENHD 261520Z 33017KT 290V350 9999 FEW010 SCT028 BKN040 04/01 Q1009",
      "taf": "TAF ENHD 261400Z 2615/2623 33020KT 9999 FEW015TCU SCT030"
    },
    {
      "icao": "ENTC",
      "alert": "OK",
      "vis_m": 9999,
      "fzfg": false,
      "metar_trigger": false,
      "taf_trigger": false,
      "metar": "METAR ENTC 261520Z 04004KT 020V080 9999 FEW012 SCT020 BKN032 02/M01 Q0991 TEMPO BKN014 RMK WIND 2600FT 35018KT",
      "taf": "TAF ENTC 261100Z 2612/2712 01008KT 9999 FEW015 BKN030"
    },
    {
      "icao": "ENTO",
      "alert": "OK",
      "vis_m": 9999,
      "fzfg": false,
      "metar_trigger": false,
      "taf_trigger": false,
      "metar": "METAR ENTO 261520Z 33008KT 300V360 CAVOK 11/M06 Q1001 NOSIG",
      "taf": "TAF ENTO 261100Z 2612/2712 32010KT CAVOK"
    },
    {
      "icao": "ENVA",
      "alert": "OK",
      "vis_m": 9999,
      "fzfg": false,
      "metar_trigger": false,
      "taf_trigger": false,
      "metar": "METAR ENVA 261520Z 26016KT 9999 -SHRASN BKN020CB 04/02 Q0996 TEMPO 4000 SHRA BKN014CB RMK WIND 670FT 26018G28KT",
      "taf": "TAF ENVA 261100Z 2612/2712 27022G32KT 9999 -SHRA SCT012 BKN025"
    },
    {
      "icao": "ENZV",
      "alert": "OK",
      "vis_m": 9999,
      "fzfg": false,
      "metar_trigger": false,
      "taf_trigger": false,
      "metar": "METAR ENZV 261520Z 34017KT 9999 VCSH FEW015CB 06/M01 Q1009 NOSIG",
      "taf": ""
    },
    {
      "icao": "EPGD",
      "alert": "OK",
      "vis_m": 9999,
      "fzfg": false,
      "metar_trigger": false,
      "taf_trigger": false,
      "metar": "METAR EPGD 261530Z 27011KT 9999 OVC035 06/M01 Q1008",
      "taf": "TAF EPGD 261130Z 2612/2712 26012KT 9999 SCT028"
    },
    {
      "icao": "EPKK",
      "alert": "OK",
      "vis_m": 9999,
      "fzfg": false,
      "metar_trigger": false,
      "taf_trigger": false,
      "metar": "METAR EPKK 261530Z 36008KT 330V030 9999 -RA SCT013 BKN018 04/02 Q1006",
      "taf": "TAF EPKK 261430Z 2615/2715 35010KT 9999 -RA SCT012 BKN020"
    },
    {
      "icao": "EPKT",
      "alert": "OK",
      "vis_m": 9999,
      "fzfg": false,
      "metar_trigger": false,
      "taf_trigger": false,
      "metar": "METAR EPKT 261530Z 01014KT 340V040 9999 FEW017 BKN042 06/M03 Q1006",
      "taf": "TAF EPKT 261130Z 2612/2712 01010KT 9999 BKN020"
    },
    {
      "icao": "EPLB",
      "alert": "OK",
      "vis_m": 9999,
      "fzfg": false,
      "metar_trigger": false,
      "taf_trigger": false,
      "metar": "METAR EPLB 261530Z 34008KT 9999 -SHRA BKN007 FEW015CB 07/05 Q1004",
      "taf": "TAF EPLB 261130Z 2612/2712 02007KT 9999 -RA FEW010 BKN015"
    },
    {
      "icao": "EPMO",
      "alert": "OK",
      "vis_m": 9999,
      "fzfg": false,
      "metar_trigger": false,
      "taf_trigger": false,
      "metar": "METAR EPMO 261530Z 32008KT 290V350 CAVOK 09/01 Q1007",
      "taf": "TAF EPMO 261130Z 2612/2712 33010KT CAVOK"
    },
    {
      "icao": "EPPO",
      "alert": "OK",
      "vis_m": 9999,
      "fzfg": false,
      "metar_trigger": false,
      "taf_trigger": false,
      "metar": "METAR EPPO 261530Z 31010KT 9999 SCT039 07/M03 Q1009",
      "taf": "TAF EPPO 261130Z 2612/2712 32008KT 9999 SCT025"
    },
    {
      "icao": "EPRA",
      "alert": "OK",
      "vis_m": 9999,
      "fzfg": false,
      "metar_trigger": false,
      "taf_trigger": false,
      "metar": "METAR EPRA 261530Z 03008KT 9999 -RA BKN012 OVC030 06/03 Q1006",
      "taf": "TAF EPRA 261430Z 2615/2624 35010KT 8000 -RA BKN012 OVC030"
    },
    {
      "icao": "EPRZ",
      "alert": "OK",
      "vis_m": 9999,
      "fzfg": false,
      "metar_trigger": false,
      "taf_trigger": false,
      "metar": "METAR EPRZ 261530Z 34015KT 9999 BKN008 FEW012CB 07/05 Q1003",
      "taf": ""
    },
    {
      "icao": "EPSC",
      "alert": "OK",
      "vis_m": 9999,
      "fzfg": false,
      "metar_trigger": false,
      "taf_trigger": false,
      "metar": "METAR EPSC 261530Z 23009KT 190V250 9999 -SHRA BKN024CB 04/00 Q1009",
      "taf": "TAF EPSC 261130Z 2612/2712 27011KT 9999 SCT025"
    },
    {
      "icao": "EPSY",
      "alert": "OK",
      "vis_m": 9999,
      "fzfg": false,
      "metar_trigger": false,
      "taf_trigger": false,
      "metar": "METAR EPSY 261530Z 35007KT CAVOK 09/M02 Q1007",
      "taf": "TAF EPSY 261430Z 2615/2624 35006KT CAVOK"
    },
    {
      "icao": "EPWA",
      "alert": "OK",
      "vis_m": 9999,
      "fzfg": false,
      "metar_trigger": false,
      "taf_trigger": false,
      "metar": "METAR EPWA 261530Z 01007KT 330V040 CAVOK 10/M03 Q1006 NOSIG",
      "taf": "TAF EPWA 261430Z 2615/2715 33010KT CAVOK"
    },
    {
      "icao": "EPWR",
      "alert": "OK",
      "vis_m": 9999,
      "fzfg": false,
      "metar_trigger": false,
      "taf_trigger": false,
      "metar": "METAR EPWR 261530Z 31012KT 9999 BKN040 08/M02 Q1009",
      "taf": "TAF EPWR 261430Z 2615/2715 32010KT 9999 SCT030"
    },
    {
      "icao": "ESGG",
      "alert": "OK",
      "vis_m": 9999,
      "fzfg": false,
      "metar_trigger": false,
      "taf_trigger": false,
      "metar": "METAR ESGG 261520Z 24009KT CAVOK 08/M02 Q1002",
      "taf": "TAF ESGG 261430Z 2615/2715 26008KT CAVOK"
    },
    {
      "icao": "ESKN",
      "alert": "OK",
      "vis_m": 9999,
      "fzfg": false,
      "metar_trigger": false,
      "taf_trigger": false,
      "metar": "METAR ESKN 261520Z 25008KT 9999 SCT040 BKN058 08/03 Q0998",
      "taf": "TAF ESKN 261430Z 2615/2715 24010KT 9999 BKN035"
    },
    {
      "icao": "ESMS",
      "alert": "OK",
      "vis_m": 9999,
      "fzfg": false,
      "metar_trigger": false,
      "taf_trigger": false,
      "metar": "METAR ESMS 261520Z 26014KT 9999 SCT035 BKN045 06/M02 Q1005",
      "taf": "TAF ESMS 261427Z 2615/2715 26015KT 9999 BKN030"
    },
    {
      "icao": "ESSA",
      "alert": "OK",
      "vis_m": 9999,
      "fzfg": false,
      "metar_trigger": false,
      "taf_trigger": false,
      "metar": "METAR ESSA 261520Z 25008KT 9999 BKN021 04/00 Q0998 NOSIG",
      "taf": "TAF ESSA 261430Z 2615/2715 24010KT 9999 BKN020"
    },
    {
      "icao": "EYKA",
      "alert": "OK",
      "vis_m": 9999,
      "fzfg": false,
      "metar_trigger": false,
      "taf_trigger": false,
      "metar": "METAR EYKA 261520Z 14004KT 120V180 CAVOK 07/05 Q1007",
      "taf": "TAF EYKA 261101Z 2612/2712 VRB04KT 8000 SCT015 BKN040"
    },
    {
      "icao": "EYPA",
      "alert": "OK",
      "vis_m": 9999,
      "fzfg": false,
      "metar_trigger": false,
      "taf_trigger": false,
      "metar": "METAR EYPA 261520Z 23005KT 180V290 CAVOK 05/02 Q1007",
      "taf": "TAF EYPA 261101Z 2612/2712 21012KT 9000 BKN030"
    },
    {
      "icao": "EYVI",
      "alert": "OK",
      "vis_m": 9999,
      "fzfg": false,
      "metar_trigger": false,
      "taf_trigger": false,
      "metar": "METAR EYVI 261520Z 34010KT 9999 SCT014 06/03 Q1006 NOSIG",
      "taf": "TAF EYVI 261105Z 2612/2712 34009KT 9000 OVC040"
    },
    {
      "icao": "GCFV",
      "alert": "OK",
      "vis_m": 9999,
      "fzfg": false,
      "metar_trigger": false,
      "taf_trigger": false,
      "metar": "METAR GCFV 261530Z 36016KT 9999 SCT025 BKN030 21/13 Q1012",
      "taf": "TAF GCFV 261400Z 2615/2715 35014KT 9999 SCT030 TX22/2714Z TN16/2706Z"
    },
    {
      "icao": "GCLP",
      "alert": "OK",
      "vis_m": 9999,
      "fzfg": false,
      "metar_trigger": false,
      "taf_trigger": false,
      "metar": "METAR GCLP 261530Z 36021KT 9999 SCT025 20/13 Q1013 NOSIG",
      "taf": "TAF GCLP 261400Z 2615/2715 01022KT 9999 FEW025 TX23/2714Z TN17/2706Z"
    },
    {
      "icao": "GCTS",
      "alert": "OK",
      "vis_m": 9999,
      "fzfg": false,
      "metar_trigger": false,
      "taf_trigger": false,
      "metar": "METAR GCTS 261530Z 09020KT 9999 SCT035 22/14 Q1013 NOSIG",
      "taf": ""
    },
    {
      "icao": "GMAD",
      "alert": "OK",
      "vis_m": 9999,
      "fzfg": false,
      "metar_trigger": false,
      "taf_trigger": false,
      "metar": "METAR GMAD 261530Z 23013KT 9999 FEW030TCU FEW040CB 23/14 Q1006 NOSIG",
      "taf": "TAF GMAD 261100Z 2612/2718 28013KT 8000 SCT020"
    },
    {
      "icao": "GMMN",
      "alert": "OK",
      "vis_m": 9999,
      "fzfg": false,
      "metar_trigger": false,
      "taf_trigger": false,
      "metar": "METAR GMMN 261530Z 31011KT 270V340 9999 FEW020 SCT200 20/16 Q1008 NOSIG",
      "taf": "TAF GMMN 261100Z 2612/2718 28004KT 9999 SCT020"
    },
    {
      "icao": "GMMX",
      "alert": "OK",
      "vis_m": 9999,
      "fzfg": false,
      "metar_trigger": false,
      "taf_trigger": false,
      "metar": "METAR GMMX 261530Z VRB03KT 9999 SCT023 FEW030CB BKN080 22/14 Q1008 NOSIG",
      "taf": "TAF GMMX 261100Z 2612/2718 12006KT 8000 SCT023 SCT080"
    },
    {
      "icao": "HEGN",
      "alert": "OK",
      "vis_m": 9999,
      "fzfg": false,
      "metar_trigger": false,
      "taf_trigger": false,
      "metar": "METAR HEGN 261500Z 27020KT 9999 SCT020 21/04 Q1008 NOSIG",
      "taf": "TAF HEGN 261100Z 2612/2718 28018G28KT 6000 SCT025"
    },
    {
      "icao": "HEMA",
      "alert": "OK",
      "vis_m": 4000,
      "fzfg": false,
      "metar_trigger": false,
      "taf_trigger": false,
      "metar": "METAR HEMA 261500Z 27016KT 4000 SA NSC 23/03 Q1008 NOSIG",
      "taf": "TAF HEMA 261100Z 2612/2718 29018G28KT 6000 SCT025"
    },
    {
      "icao": "HESH",
      "alert": "OK",
      "vis_m": 9999,
      "fzfg": false,
      "metar_trigger": false,
      "taf_trigger": false,
      "metar": "METAR HESH 261500Z 26011KT 9999 SCT020 21/04 Q1007 NOSIG",
      "taf": "TAF HESH 261100Z 2612/2718 29015G25KT 9999 SCT025"
    },
    {
      "icao": "HESX",
      "alert": "OK",
      "vis_m": 9999,
      "fzfg": false,
      "metar_trigger": false,
      "taf_trigger": false,
      "metar": "METAR HESX 261500Z 33016KT 9999 FEW020 SCT025 19/07 Q1007 NOSIG",
      "taf": "TAF HESX 261102Z 2612/2718 32015KT 9999 SCT020 BKN070"
    },
    {
      "icao": "LATI",
      "alert": "OK",
      "vis_m": 9999,
      "fzfg": false,
      "metar_trigger": false,
      "taf_trigger": false,
      "metar": "METAR LATI 261520Z 18011KT 9999 SCT055 BKN080 16/04 Q0997 NOSIG",
      "taf": "TAF LATI 261100Z 2612/2712 19015G25KT 9999 BKN060 TX19/2612Z TN06/2703Z"
    },
    {
      "icao": "LBPD",
      "alert": "OK",
      "vis_m": 9999,
      "fzfg": false,
      "metar_trigger": false,
      "taf_trigger": false,
      "metar": "METAR LBPD 261530Z AUTO 29005KT 270V360 9999 BKN091/// 16/07 Q1000 NOSIG",
      "taf": "TAF LBPD 261100Z 2612/2712 09010KT 9999 SCT060"
    },
    {
      "icao": "LBSF",
      "alert": "OK",
      "vis_m": 9999,
      "fzfg": false,
      "metar_trigger": false,
      "taf_trigger": false,
      "metar": "METAR LBSF 261530Z 11015KT 9999 BKN076 14/02 Q0999 NOSIG",
      "taf": "TAF LBSF 261100Z 2612/2712 11014KT 9999 SCT070"
    },
    {
      "icao": "LBWN",
      "alert": "OK",
      "vis_m": 9999,
      "fzfg": false,
      "metar_trigger": false,
      "taf_trigger": false,
      "metar": "METAR LBWN 261530Z AUTO 11012KT 9999 NCD 09/05 Q1004 NOSIG",
      "taf": "TAF LBWN 261100Z 2612/2712 11015KT CAVOK"
    },
    {
      "icao": "LCLK",
      "alert": "OK",
      "vis_m": 9999,
      "fzfg": false,
      "metar_trigger": false,
      "taf_trigger": false,
      "metar": "METAR LCLK 261530Z 23010KT 9999 FEW025 FEW028TCU FEW030CB 18/14 Q1003 NOSIG RMK CB TO NE-SE",
      "taf": "TAF LCLK 261130Z 2612/2712 22012KT 9999 FEW025"
    },
    {
      "icao": "LCPH",
      "alert": "OK",
      "vis_m": 9999,
      "fzfg": false,
      "metar_trigger": false,
      "taf_trigger": false,
      "metar": "METAR LCPH 261530Z 32014KT 9999 FEW035TCU 18/12 Q1003 NOSIG",
      "taf": "TAF LCPH 261130Z 2612/2712 30017KT 9999 FEW025"
    },
    {
      "icao": "LEAL",
      "alert": "OK",
      "vis_m": 9999,
      "fzfg": false,
      "metar_trigger": false,
      "taf_trigger": false,
      "metar": "METAR LEAL 261530Z 07011KT 030V110 9999 FEW040 16/05 Q1014 NOSIG",
      "taf": "TAF LEAL 261100Z 2612/2712 08013KT 9999 FEW025 TX16/2612Z TN07/2706Z"
    },
    {
      "icao": "LEBB",
      "alert": "OK",
      "vis_m": 9999,
      "fzfg": false,
      "metar_trigger": false,
      "taf_trigger": false,
      "metar": "METAR LEBB 261530Z 34010KT 290V030 9999 FEW035 SCT056 13/04 Q1025 NOSIG",
      "taf": "TAF LEBB 261100Z 2612/2712 35009KT 9999 FEW025 BKN050 TX12/2612Z TN06/2706Z"
    },
    {
      "icao": "LEBL",
      "alert": "OK",
      "vis_m": 9999,
      "fzfg": false,
      "metar_trigger": false,
      "taf_trigger": false,
      "metar": "METAR LEBL 261530Z 16010KT 130V200 CAVOK 14/08 Q1013 NOSIG",
      "taf": "TAF LEBL 261100Z 2612/2712 15010KT 9999 FEW025 TX17/2612Z TN08/2706Z"
    },
    {
      "icao": "LECH",
      "alert": "OK",
      "vis_m": 9999,
      "fzfg": false,
      "metar_trigger": false,
      "taf_trigger": false,
      "metar": "METAR LECH 261530Z AUTO 03008KT CAVOK 16/01 Q1014",
      "taf": "TAF LECH 261100Z 2612/2712 33009KT 9999 FEW030 TX18/2613Z TN05/2706Z"
    },
    {
      "icao": "LEMD",
      "alert": "OK",
      "vis_m": 9999,
      "fzfg": false,
      "metar_trigger": false,
      "taf_trigger": false,
      "metar": "METAR LEMD 261530Z 04007KT 330V100 CAVOK 16/M00 Q1016 NOSIG",
      "taf": "TAF LEMD 261100Z 2612/2718 05008KT CAVOK TX18/2616Z TN03/2706Z"
    },
    {
      "icao": "LEMG",
      "alert": "OK",
      "vis_m": 9999,
      "fzfg": false,
      "metar_trigger": false,
      "taf_trigger": false,
      "metar": "METAR LEMG 261530Z 11011KT 090V150 9999 FEW023 18/11 Q1014 NOSIG",
      "taf": "TAF LEMG 261100Z 2612/2712 12010KT CAVOK TX20/2613Z TN08/2706Z"
    },
    {
      "icao": "LEVC",
      "alert": "OK",
      "vis_m": 9999,
      "fzfg": false,
      "metar_trigger": false,
      "taf_trigger": false,
      "metar": "METAR LEVC 261530Z 13012KT 100V160 CAVOK 15/04 Q1015 NOSIG",
      "taf": "TAF LEVC 261100Z 2612/2712 01008KT 9999 FEW030 TX19/2613Z TN05/2706Z"
    },
    {
      "icao": "LEXJ",
      "alert": "OK",
      "vis_m": 9000,
      "fzfg": false,
      "metar_trigger": false,
      "taf_trigger": false,
      "metar": "METAR LEXJ 261530Z 02005KT 9000 -RA SCT053 BKN064 12/04 Q1026",
      "taf": "TAF LEXJ 261400Z 2615/2715 35009KT 9999 FEW025 BKN040 TX13/2615Z TN07/2706Z"
    },
    {
      "icao": "LEZG",
      "alert": "OK",
      "vis_m": 9999,
      "fzfg": false,
      "metar_trigger": false,
      "taf_trigger": false,
      "metar": "METAR LEZG 261530Z 30030G44KT 9999 FEW045 13/M01 Q1018 NOSIG",
      "taf": "TAF LEZG 261100Z 2612/2712 31024KT 9999 FEW050 TX14/2614Z TN07/2706Z"
    },
    {
      "icao": "LEZL",
      "alert": "OK",
      "vis_m": 9999,
      "fzfg": false,
      "metar_trigger": false,
      "taf_trigger": false,
      "metar": "METAR LEZL 261530Z 07011KT 030V100 CAVOK 27/05 Q1010 NOSIG",
      "taf": "TAF LEZL 261400Z 2615/2715 08010KT CAVOK TX25/2615Z TN10/2707Z"
    },
    {
      "icao": "LFBD",
      "alert": "OK",
      "vis_m": 9999,
      "fzfg": false,
      "metar_trigger": false,
      "taf_trigger": false,
      "metar": "METAR LFBD 261530Z AUTO 33012KT 300V010 9999 3500 NSC 13/00 Q1023 TEMPO 4500 -SHRA BKN040TCU",
      "taf": "TAF LFBD 261100Z 2612/2718 36010KT 9999 SCT040 TX14/2614Z TN02/2706Z"
    },
    {
      "icao": "LFLL",
      "alert": "OK",
      "vis_m": 9999,
      "fzfg": false,
      "metar_trigger": false,
      "taf_trigger": false,
      "metar": "METAR LFLL 261530Z 01015KT 9999 FEW026CB SCT028TCU BKN053 08/M00 Q1016 TEMPO 34025G45KT 1000 SHGS SCT020CB",
      "taf": ""
    },
    {
      "icao": "LFLS",
      "alert": "OK",
      "vis_m": 9999,
      "fzfg": false,
      "metar_trigger": false,
      "taf_trigger": false,
      "metar": "METAR LFLS 261530Z AUTO 36019G31KT 9999 FEW010 05/00 Q1015 TEMPO 34025G45KT 1200 SHRAGS BKN013 SCT020CB",
      "taf": "TAF LFLS 261400Z 2615/2715 34015G25KT 9999 SCT025 BKN050"
    },
    {
      "icao": "LFMN",
      "alert": "OK",
      "vis_m": 9999,
      "fzfg": false,
      "metar_trigger": false,
      "taf_trigger": false,
      "metar": "METAR LFMN 261530Z 15011KT 9999 FEW060 SCT130 17/M00 Q1000 NOSIG",
      "taf": "TAF LFMN 261400Z 2615/2721 16010KT CAVOK"
    },
    {
      "icao": "LFOB",
      "alert": "OK",
      "vis_m": 9999,
      "fzfg": false,
      "metar_trigger": false,
      "taf_trigger": false,
      "metar": "METAR LFOB 261530Z AUTO 33016KT 9999 FEW049 09/M02 Q1021 BECMG VRB03KT",
      "taf": "TAF LFOB 261100Z 2612/2712 32013KT 9999 SCT030"
    },
    {
      "icao": "LFPO",
      "alert": "OK",
      "vis_m": 9999,
      "fzfg": false,
      "metar_trigger": false,
      "taf_trigger": false,
      "metar": "METAR LFPO 261530Z 33011G21KT 260V010 9999 FEW016 SCT066 10/02 Q1020 NOSIG",
      "taf": ""
    },
    {
      "icao": "LFSB",
      "alert": "OK",
      "vis_m": 9999,
      "fzfg": false,
      "metar_trigger": false,
      "taf_trigger": false,
      "metar": "METAR LFSB 261530Z AUTO 20006KT 9999 FEW031/// BKN048/// BKN056/// ///CB 07/03 Q1016 TEMPO 36012G22KT 4000 SHRAGS",
      "taf": ""
    },
    {
      "icao": "LGAV",
      "alert": "OK",
      "vis_m": 9999,
      "fzfg": false,
      "metar_trigger": false,
      "taf_trigger": false,
      "metar": "METAR LGAV 261520Z 20012KT 9999 FEW030 16/05 Q1004 NOSIG",
      "taf": "TAF LGAV 261100Z 2612/2712 VRB05KT 9999 FEW020"
    },
    {
      "icao": "LGTS",
      "alert": "OK",
      "vis_m": 9999,
      "fzfg": false,
      "metar_trigger": false,
      "taf_trigger": false,
      "metar": "METAR LGTS 261520Z 11011KT 9999 SCT025 17/07 Q1001 NOSIG",
      "taf": "TAF LGTS 261100Z 2612/2712 12015KT 9999 SCT025"
    },
    {
      "icao": "LHBP",
      "alert": "OK",
      "vis_m": 9999,
      "fzfg": false,
      "metar_trigger": false,
      "taf_trigger": false,
      "metar": "METAR LHBP 261530Z 17006KT 140V200 9999 -RA NSC 13/02 Q0999 NOSIG",
      "taf": ""
    },
    {
      "icao": "LHDC",
      "alert": "OK",
      "vis_m": 9999,
      "fzfg": false,
      "metar_trigger": false,
      "taf_trigger": false,
      "metar": "METAR LHDC 261515Z AUTO 09007KT 050V110 CAVOK 16/03 Q0998 NOSIG",
      "taf": "TAF LHDC 261415Z 2615/2624 14005KT CAVOK"
    },
    {
      "icao": "LIBD",
      "alert": "OK",
      "vis_m": 9999,
      "fzfg": false,
      "metar_trigger": false,
      "taf_trigger": false,
      "metar": "METAR LIBD 261520Z 23023G33KT 9999 SCT045 11/04 Q0994",
      "taf": "TAF LIBD 261100Z 2612/2712 23015G28KT CAVOK"
    },
    {
      "icao": "LIBG",
      "alert": "OK",
      "vis_m": 7000,
      "fzfg": false,
      "metar_trigger": false,
      "taf_trigger": false,
      "metar": "METAR LIBG 261450Z 26012G22KT 230V300 7000 -RA BKN020 12/08 Q0995",
      "taf": "TAF LIBG 261400Z 2615/2624 24014KT 9999 SCT020"
    },
    {
      "icao": "LIBP",
      "alert": "OK",
      "vis_m": 9999,
      "fzfg": false,
      "metar_trigger": false,
      "taf_trigger": false,
      "metar": "METAR LIBP 261520Z AUTO 05012KT 9999 -RA VCTS OVC029/// 11/05 Q0991",
      "taf": "TAF LIBP 261100Z 2612/2712 24010KT 9999 FEW050"
    },
    {
      "icao": "LIBR",
      "alert": "OK",
      "vis_m": 9999,
      "fzfg": false,
      "metar_trigger": false,
      "taf_trigger": false,
      "metar": "METAR LIBR 261520Z 21015KT 9999 SCT045 13/09 Q0994 RERA",
      "taf": "TAF LIBR 261100Z 2612/2712 22012KT CAVOK"
    },
    {
      "icao": "LICA",
      "alert": "OK",
      "vis_m": 9999,
      "fzfg": false,
      "metar_trigger": false,
      "taf_trigger": false,
      "metar": "METAR LICA 261520Z AUTO 27025KT 9999 -RA OVC064/// 13/07 Q0999",
      "taf": "TAF LICA 261100Z 2612/2712 25022G40KT 9999 BKN020"
    },
    {
      "icao": "LICC",
      "alert": "OK",
      "vis_m": 9999,
      "fzfg": false,
      "metar_trigger": false,
      "taf_trigger": false,
      "metar": "METAR LICC 261520Z 24015KT 9999 FEW030 SCT070 16/12 Q1001",
      "taf": "TAF LICC 261100Z 2612/2712 25020G35KT 9999 FEW040"
    },
    {
      "icao": "LICJ",
      "alert": "OK",
      "vis_m": 9999,
      "fzfg": false,
      "metar_trigger": false,
      "taf_trigger": false,
      "metar": "METAR LICJ 261520Z 25029G39KT 9999 SCT050 13/05 Q1002",
      "taf": "TAF LICJ 261100Z 2612/2712 27026G40KT 9999 SCT020"
    },
    {
      "icao": "LIMC",
      "alert": "OK",
      "vis_m": 9999,
      "fzfg": false,
      "metar_trigger": false,
      "taf_trigger": false,
      "metar": "METAR LIMC 261520Z 35019G34KT CAVOK 13/M16 Q1002 WS ALL RWY NOSIG",
      "taf": "TAF LIMC 261100Z 2612/2718 35025G38KT CAVOK"
    },
    {
      "icao": "LIME",
      "alert": "OK",
      "vis_m": 9999,
      "fzfg": false,
      "metar_trigger": false,
      "taf_trigger": false,
      "metar": "METAR LIME 261520Z 34010KT 300V020 9999 SCT110 14/M12 Q0999 TEMPO 01020G30KT",
      "taf": "TAF LIME 261100Z 2612/2712 01018G28KT CAVOK"
    },
    {
      "icao": "LIMF",
      "alert": "OK",
      "vis_m": 9999,
      "fzfg": false,
      "metar_trigger": false,
      "taf_trigger": false,
      "metar": "METAR LIMF 261520Z 33016KT 300V360 CAVOK 13/M13 Q1003",
      "taf": "TAF LIMF 261100Z 2612/2712 32018G28KT CAVOK"
    },
    {
      "icao": "LIMJ",
      "alert": "OK",
      "vis_m": 9999,
      "fzfg": false,
      "metar_trigger": false,
      "taf_trigger": false,
      "metar": "METAR LIMJ 261520Z 36018G38KT 300V050 CAVOK 15/M12 Q0999",
      "taf": "TAF LIMJ 261100Z 2612/2712 35025G45KT 9999 FEW060"
    },
    {
      "icao": "LIPE",
      "alert": "OK",
      "vis_m": 9999,
      "fzfg": false,
      "metar_trigger": false,
      "taf_trigger": false,
      "metar": "METAR LIPE 261520Z VRB02KT 9999 FEW025 BKN070 10/03 Q0999",
      "taf": "TAF LIPE 261100Z 2612/2712 27010KT 9999 SCT020"
    },
    {
      "icao": "LIPH",
      "alert": "OK",
      "vis_m": 9999,
      "fzfg": false,
      "metar_trigger": false,
      "taf_trigger": false,
      "metar": "METAR LIPH 261520Z VRB01KT 9999 FEW040 BKN060 13/M03 Q0997",
      "taf": "TAF LIPH 261100Z 2612/2712 03014KT 9999 SCT040"
    },
    {
      "icao": "LIPQ",
      "alert": "OK",
      "vis_m": 9999,
      "fzfg": false,
      "metar_trigger": false,
      "taf_trigger": false,
      "metar": "METAR LIPQ 261520Z AUTO 04005KT 010V070 9999 OVC110/// 12/M03 Q0996",
      "taf": "TAF LIPQ 261100Z 2612/2712 VRB06KT 9999 SCT070"
    },
    {
      "icao": "LIPR",
      "alert": "OK",
      "vis_m": 5000,
      "fzfg": false,
      "metar_trigger": false,
      "taf_trigger": false,
      "metar": "METAR LIPR 261520Z 01019KT 5000 R30/1100D RA SCT015 BKN020 07/05 Q0996",
      "taf": "TAF LIPR 261100Z 2612/2712 02016KT 9999 SCT030"
    },
    {
      "icao": "LIPX",
      "alert": "OK",
      "vis_m": 9999,
      "fzfg": false,
      "metar_trigger": false,
      "taf_trigger": false,
      "metar": "METAR LIPX 261520Z 36018KT 9999 SCT040 BKN070 13/M10 Q0998",
      "taf": "TAF LIPX 261100Z 2612/2712 04020G30KT 9999 SCT040"
    },
    {
      "icao": "LIPY",
      "alert": "OK",
      "vis_m": 9999,
      "fzfg": false,
      "metar_trigger": false,
      "taf_trigger": false,
      "metar": "METAR LIPY 261520Z AUTO 28004KT 250V320 9999 OVC024/// 08/05 Q0994",
      "taf": "TAF LIPY 261100Z 2612/2712 32013KT 9999 BKN025"
    },
    {
      "icao": "LIPZ",
      "alert": "OK",
      "vis_m": 9999,
      "fzfg": false,
      "metar_trigger": false,
      "taf_trigger": false,
      "metar": "METAR LIPZ 261520Z 33011G21KT 9999 SCT050 BKN070 13/M04 Q0997 NOSIG",
      "taf": "TAF LIPZ 261100Z 2612/2718 03018G28KT 9999 FEW035"
    },
    {
      "icao": "LIRF",
      "alert": "OK",
      "vis_m": 9999,
      "fzfg": false,
      "metar_trigger": false,
      "taf_trigger": false,
      "metar": "METAR LIRF 261520Z 33016KT 9999 SCT030 09/04 Q0995 NOSIG",
      "taf": ""
    },
    {
      "icao": "LIRN",
      "alert": "OK",
      "vis_m": 7000,
      "fzfg": false,
      "metar_trigger": false,
      "taf_trigger": false,
      "metar": "METAR LIRN 261520Z 28012KT 250V330 7000 -RA SCT020 BKN040 09/03 Q0995 NOSIG",
      "taf": "TAF LIRN 261100Z 2612/2712 25025G35KT 9999 BKN030"
    },
    {
      "icao": "LIRP",
      "alert": "OK",
      "vis_m": 9999,
      "fzfg": false,
      "metar_trigger": false,
      "taf_trigger": false,
      "metar": "METAR LIRP 261515Z 06005KT 9999 FEW040 SCT070 11/M00 Q0998 NOSIG",
      "taf": "TAF LIRP 261100Z 2612/2712 34012KT 9999 BKN050"
    },
    {
      "icao": "LIRZ",
      "alert": "OK",
      "vis_m": 9999,
      "fzfg": false,
      "metar_trigger": false,
      "taf_trigger": false,
      "metar": "METAR LIRZ 261520Z AUTO 34007KT 9999 -DZ OVC011/// 04/03 Q0994",
      "taf": "TAF LIRZ 261100Z 2612/2712 27018G28KT 9999 BKN020"
    },
    {
      "icao": "LJLJ",
      "alert": "OK",
      "vis_m": 9999,
      "fzfg": false,
      "metar_trigger": false,
      "taf_trigger": false,
      "metar": "METAR LJLJ 261530Z 34016G30KT 9999 -RA FEW034 SCT042 BKN100 07/M03 Q0998 WS ALL RWY NOSIG",
      "taf": "TAF LJLJ 261100Z 2612/2712 33005KT 9999 FEW007 BKN035 OVC080"
    },
    {
      "icao": "LKMT",
      "alert": "OK",
      "vis_m": 9999,
      "fzfg": false,
      "metar_trigger": false,
      "taf_trigger": false,
      "metar": "METAR LKMT 261530Z 02015KT 9999 -RA SCT019 BKN024 05/01 Q1007 NOSIG",
      "taf": "TAF LKMT 261100Z 2612/2712 04014KT 9999 -RA SCT012 OVC020"
    },
    {
      "icao": "LKPR",
      "alert": "OK",
      "vis_m": 9999,
      "fzfg": false,
      "metar_trigger": false,
      "taf_trigger": false,
      "metar": "METAR LKPR 261530Z 35013KT 310V010 9999 FEW040 06/M03 Q1010 NOSIG",
      "taf": "TAF LKPR 261400Z 2615/2721 31014KT 9999 BKN035"
    },
    {
      "icao": "LLBG",
      "alert": "OK",
      "vis_m": 9999,
      "fzfg": false,
      "metar_trigger": false,
      "taf_trigger": false,
      "metar": "METAR LLBG 261520Z 27008KT 9999 BKN030 17/10 Q1005 NOSIG",
      "taf": "TAF LLBG 261105Z 2612/2712 29012KT 9999 SCT030 TX17/2613Z TN12/2704Z"
    },
    {
      "icao": "LMML",
      "alert": "OK",
      "vis_m": 9999,
      "fzfg": false,
      "metar_trigger": false,
      "taf_trigger": false,
      "metar": "METAR LMML 261515Z 28020KT 250V310 9999 FEW019 16/11 Q1006 NOSIG",
      "taf": "TAF LMML 261100Z 2612/2712 28017KT 9999 FEW025"
    },
    {
      "icao": "LOWW",
      "alert": "OK",
      "vis_m": 9999,
      "fzfg": false,
      "metar_trigger": false,
      "taf_trigger": false,
      "metar": "METAR LOWW 261520Z 35021G32KT 9999 -RA FEW014 BKN024 04/01 Q1006 NOSIG",
      "taf": "TAF LOWW 261415Z 2615/2721 34020G30KT 9999 FEW014 BKN020 TX06/2714Z TN01/2706Z"
    },
    {
      "icao": "LPFR",
      "alert": "OK",
      "vis_m": 9999,
      "fzfg": false,
      "metar_trigger": false,
      "taf_trigger": false,
      "metar": "METAR LPFR 261530Z 11009KT 9999 FEW020 24/10 Q1010",
      "taf": "TAF LPFR 261100Z 2612/2712 11010KT CAVOK"
    },
    {
      "icao": "LPMA",
      "alert": "OK",
      "vis_m": 9999,
      "fzfg": false,
      "metar_trigger": false,
      "taf_trigger": false,
      "metar": "METAR LPMA 261530Z 36016G26KT 330V040 9999 BKN016 17/11 Q1016",
      "taf": "TAF LPMA 261100Z 2612/2712 01015KT 9999 FEW015"
    },
    {
      "icao": "LPPR",
      "alert": "OK",
      "vis_m": 9999,
      "fzfg": false,
      "metar_trigger": false,
      "taf_trigger": false,
      "metar": "METAR LPPR 261530Z 32011KT CAVOK 18/09 Q1018",
      "taf": "TAF LPPR 261100Z 2612/2712 05010KT CAVOK"
    },
    {
      "icao": "LPPS",
      "alert": "OK",
      "vis_m": 9999,
      "fzfg": false,
      "metar_trigger": false,
      "taf_trigger": false,
      "metar": "METAR LPPS 261530Z 35018KT 9999 FEW014 BKN030 16/11 Q1017",
      "taf": "TAF LPPS 261100Z 2612/2718 02015KT 9999 SCT015 BKN030"
    },
    {
      "icao": "LPPT",
      "alert": "OK",
      "vis_m": 9999,
      "fzfg": false,
      "metar_trigger": false,
      "taf_trigger": false,
      "metar": "METAR LPPT 261530Z 04013KT 010V070 CAVOK 22/06 Q1014",
      "taf": "TAF LPPT 261100Z 2612/2718 04015KT CAVOK"
    },
    {
      "icao": "LQBK",
      "alert": "OK",
      "vis_m": 9999,
      "fzfg": false,
      "metar_trigger": false,
      "taf_trigger": false,
      "metar": "METAR LQBK 261530Z 32008KT 9999 -RA FEW013 FEW035TCU BKN040 10/06 Q0994 TEMPO 4000 SHRA",
      "taf": "TAF LQBK 261100Z 2612/2712 03007KT 9999 SCT040 TX11/2612Z TN01/2704Z"
    },
    {
      "icao": "LQSA",
      "alert": "OK",
      "vis_m": 6000,
      "fzfg": false,
      "metar_trigger": false,
      "taf_trigger": false,
      "metar": "METAR LQSA 261530Z 14007KT 100V170 6000 -SHRA FEW008 FEW030TCU BKN045 02/01 Q0996 NOSIG",
      "taf": ""
    },
    {
      "icao": "LQTZ",
      "alert": "OK",
      "vis_m": 3800,
      "fzfg": false,
      "metar_trigger": false,
      "taf_trigger": false,
      "metar": "METAR LQTZ 261530Z 08006KT 3800 SHRA FEW012 FEW025TCU BKN035 07/07 Q0996",
      "taf": "TAF LQTZ 261100Z 2612/2712 12008KT 9999 SCT050 TX16/2612Z TN02/2705Z"
    },
    {
      "icao": "LRBC",
      "alert": "OK",
      "vis_m": 9999,
      "fzfg": false,
      "metar_trigger": false,
      "taf_trigger": false,
      "metar": "METAR LRBC 261530Z 14014KT CAVOK 15/01 Q1003",
      "taf": "TAF LRBC 261400Z 2615/2624 15018KT CAVOK"
    },
    {
      "icao": "LRBS",
      "alert": "OK",
      "vis_m": 9999,
      "fzfg": false,
      "metar_trigger": false,
      "taf_trigger": false,
      "metar": "METAR LRBS 261530Z COR 09013KT CAVOK 17/00 Q1001 NOSIG",
      "taf": "TAF LRBS 261100Z 2612/2712 13011KT CAVOK"
    },
    {
      "icao": "LRBV",
      "alert": "OK",
      "vis_m": 9999,
      "fzfg": false,
      "metar_trigger": false,
      "taf_trigger": false,
      "metar": "METAR LRBV 261530Z 16011KT 9999 SCT081 13/M01 Q1001",
      "taf": "TAF LRBV 261400Z 2615/2624 18014KT CAVOK"
    },
    {
      "icao": "LRCL",
      "alert": "OK",
      "vis_m": 9999,
      "fzfg": false,
      "metar_trigger": false,
      "taf_trigger": false,
      "metar": "METAR LRCL 261530Z 16013KT CAVOK 16/M00 Q0999",
      "taf": "TAF LRCL 261400Z 2615/2624 15012KT CAVOK"
    },
    {
      "icao": "LRCV",
      "alert": "OK",
      "vis_m": 9999,
      "fzfg": false,
      "metar_trigger": false,
      "taf_trigger": false,
      "metar": "METAR LRCV 261530Z 08012KT 9999 FEW049 16/04 Q0999",
      "taf": "TAF LRCV 261400Z 2615/2624 08016KT CAVOK"
    },
    {
      "icao": "LRIA",
      "alert": "OK",
      "vis_m": 9999,
      "fzfg": false,
      "metar_trigger": false,
      "taf_trigger": false,
      "metar": "METAR LRIA 261530Z 16008KT CAVOK 16/00 Q1003",
      "taf": "TAF LRIA 261400Z 2615/2624 14016KT CAVOK"
    },
    {
      "icao": "LROP",
      "alert": "OK",
      "vis_m": 9999,
      "fzfg": false,
      "metar_trigger": false,
      "taf_trigger": false,
      "metar": "METAR LROP 261530Z 09013KT CAVOK 17/M05 Q1002 NOSIG",
      "taf": "TAF LROP 261100Z 2612/2712 13011KT CAVOK"
    },
    {
      "icao": "LRSB",
      "alert": "OK",
      "vis_m": 9999,
      "fzfg": false,
      "metar_trigger": false,
      "taf_trigger": false,
      "metar": "METAR LRSB 261530Z 16010KT 9999 FEW055 14/00 Q0999",
      "taf": "TAF LRSB 261100Z 2612/2712 16015KT CAVOK"
    },
    {
      "icao": "LRSM",
      "alert": "OK",
      "vis_m": 9999,
      "fzfg": false,
      "metar_trigger": false,
      "taf_trigger": false,
      "metar": "METAR LRSM 261530Z 28009KT 9999 -SHRA FEW035CB BKN045 11/07 Q0999",
      "taf": "TAF LRSM 261400Z 2615/2624 09007KT CAVOK"
    },
    {
      "icao": "LRSV",
      "alert": "OK",
      "vis_m": 9999,
      "fzfg": false,
      "metar_trigger": false,
      "taf_trigger": false,
      "metar": "METAR LRSV 261530Z 17012KT CAVOK 14/02 Q1002",
      "taf": "TAF LRSV 261400Z 2615/2624 15012KT CAVOK"
    },
    {
      "icao": "LRTM",
      "alert": "OK",
      "vis_m": 9999,
      "fzfg": false,
      "metar_trigger": false,
      "taf_trigger": false,
      "metar": "METAR LRTM 261530Z 11007KT 9999 SCT043 16/00 Q0999",
      "taf": "TAF LRTM 261400Z 2615/2624 09008KT CAVOK"
    },
    {
      "icao": "LRTR",
      "alert": "OK",
      "vis_m": 9999,
      "fzfg": false,
      "metar_trigger": false,
      "taf_trigger": false,
      "metar": "METAR LRTR 261530Z 13009KT CAVOK 17/M02 Q0996 NOSIG",
      "taf": "TAF LRTR 261100Z 2612/2712 17016KT CAVOK"
    },
    {
      "icao": "LTAC",
      "alert": "OK",
      "vis_m": 9999,
      "fzfg": false,
      "metar_trigger": false,
      "taf_trigger": false,
      "metar": "METAR LTAC 261520Z 21005KT 9999 SCT040 09/01 Q1005 NOSIG RMK RWY21C 21006KT RWY03L 20005KT RWY21R 23006KT RWY03R 19005KT RWY21L 22006KT",
      "taf": "TAF LTAC 261040Z 2612/2712 VRB02KT 9999 SCT033 BKN100"
    },
    {
      "icao": "LTFM",
      "alert": "OK",
      "vis_m": 9999,
      "fzfg": false,
      "metar_trigger": false,
      "taf_trigger": false,
      "metar": "METAR LTFM 261520Z 09011KT CAVOK 11/05 Q1005 NOSIG RMK RWY17L 09013KT RWY34L 08009KT RWY16R 10014KT RWY36 08010KT RWY18 10012KT",
      "taf": "TAF LTFM 261040Z 2612/2718 07010KT 9999 SCT035"
    },
    {
      "icao": "LUKK",
      "alert": "OK",
      "vis_m": 9999,
      "fzfg": false,
      "metar_trigger": false,
      "taf_trigger": false,
      "metar": "METAR LUKK 261530Z 16009KT CAVOK 15/01 Q1005 NOSIG",
      "taf": "TAF LUKK 261103Z 2612/2712 16008KT CAVOK"
    },
    {
      "icao": "LWOH",
      "alert": "OK",
      "vis_m": 9999,
      "fzfg": false,
      "metar_trigger": false,
      "taf_trigger": false,
      "metar": "METAR LWOH 261520Z 14014KT 9999 FEW040 SCT050 11/04 Q0998",
      "taf": "TAF LWOH 261440Z 2615/2715 14012KT 9999 SCT040 BKN060"
    },
    {
      "icao": "LWSK",
      "alert": "OK",
      "vis_m": 9999,
      "fzfg": false,
      "metar_trigger": false,
      "taf_trigger": false,
      "metar": "METAR LWSK 261520Z 12018KT 9999 SCT060 BKN093 17/04 Q0997 NOSIG",
      "taf": "TAF LWSK 261440Z 2615/2715 13012KT 9999 SCT050 BKN080"
    },
    {
      "icao": "LYBE",
      "alert": "OK",
      "vis_m": 9999,
      "fzfg": false,
      "metar_trigger": false,
      "taf_trigger": false,
      "metar": "METAR LYBE 261530Z 15010KT CAVOK 18/01 Q0994 NOSIG",
      "taf": "TAF LYBE 261100Z 2612/2712 15012KT CAVOK TX17/2612Z TN07/2706Z"
    },
    {
      "icao": "LYNI",
      "alert": "OK",
      "vis_m": 9999,
      "fzfg": false,
      "metar_trigger": false,
      "taf_trigger": false,
      "metar": "METAR LYNI 261530Z 17004KT 110V220 CAVOK 17/01 Q0996 NOSIG",
      "taf": "TAF LYNI 261100Z 2612/2712 13008KT 9999 BKN070 TX19/2612Z TN07/2705Z"
    },
    {
      "icao": "LYPG",
      "alert": "OK",
      "vis_m": 9999,
      "fzfg": false,
      "metar_trigger": false,
      "taf_trigger": false,
      "metar": "METAR LYPG 261530Z 17009KT 140V200 9999 FEW030 BKN040 OVC080 13/08 Q0995 NOSIG",
      "taf": "TAF LYPG 261100Z 2612/2712 16015KT 9999 FEW020 BKN040 OVC070 TX17/2613Z TN09/2706Z"
    },
    {
      "icao": "LZIB",
      "alert": "OK",
      "vis_m": 9999,
      "fzfg": false,
      "metar_trigger": false,
      "taf_trigger": false,
      "metar": "METAR LZIB 261530Z 34017KT 9999 -RA FEW011 BKN036 OVC042 05/02 Q1004 TEMPO 33020G30KT",
      "taf": "TAF LZIB 261115Z 2612/2712 36018KT 9999 -RA FEW014 SCT020"
    },
    {
      "icao": "LZKZ",
      "alert": "OK",
      "vis_m": 9999,
      "fzfg": false,
      "metar_trigger": false,
      "taf_trigger": false,
      "metar": "METAR LZKZ 261530Z 36016KT CAVOK 12/03 Q1000 NOSIG",
      "taf": ""
    },
    {
      "icao": "LZTT",
      "alert": "OK",
      "vis_m": 9999,
      "fzfg": false,
      "metar_trigger": false,
      "taf_trigger": false,
      "metar": "METAR LZTT 261530Z 08012KT 9999 -RA SCT010 OVC023 03/02 Q1002 NOSIG",
      "taf": "TAF LZTT 261115Z 2612/2712 08006KT 9999 -RA SCT011 BKN040"
    },
    {
      "icao": "OEJN",
      "alert": "OK",
      "vis_m": 7000,
      "fzfg": false,
      "metar_trigger": false,
      "taf_trigger": false,
      "metar": "METAR OEJN 261500Z 35014KT 7000 SCT040 24/08 Q1009 NOSIG",
      "taf": "TAF OEJN 261100Z 2612/2718 35012KT 7000 SCT040"
    },
    {
      "icao": "OEMA",
      "alert": "OK",
      "vis_m": 9999,
      "fzfg": false,
      "metar_trigger": false,
      "taf_trigger": false,
      "metar": "METAR OEMA 261500Z 23015KT 9999 SCT035 20/00 Q1008 NOSIG",
      "taf": "TAF OEMA 261100Z 2612/2718 26013KT 7000 SCT040"
    },
    {
      "icao": "OJAI",
      "alert": "OK",
      "vis_m": 2800,
      "fzfg": false,
      "metar_trigger": false,
      "taf_trigger": false,
      "metar": "METAR OJAI 261500Z 26013KT 2800 -RA FEW012 BKN025 10/08 Q1004 NOSIG",
      "taf": "TAF OJAI 261100Z 2612/2718 29012KT 4000 -RA FEW025TCU BKN030"
    },
    {
      "icao": "OMAA",
      "alert": "OK",
      "vis_m": null,
      "fzfg": false,
      "metar_trigger": false,
      "taf_trigger": false,
      "metar": "",
      "taf": ""
    },
    {
      "icao": "OMDB",
      "alert": "OK",
      "vis_m": null,
      "fzfg": false,
      "metar_trigger": false,
      "taf_trigger": false,
      "metar": "",
      "taf": ""
    },
    {
      "icao": "UAAA",
      "alert": "OK",
      "vis_m": 5000,
      "fzfg": false,
      "metar_trigger": false,
      "taf_trigger": false,
      "metar": "METAR UAAA 261530Z 19002MPS 5000 FU NSC 12/M02 Q1016 NOSIG",
      "taf": "TAF UAAA 261102Z 2612/2712 20003MPS 9999 FEW100 TX22/2710Z TN04/2701Z"
    },
    {
      "icao": "UBBB",
      "alert": "OK",
      "vis_m": 5000,
      "fzfg": false,
      "metar_trigger": false,
      "taf_trigger": false,
      "metar": "METAR UBBB 261530Z 19012KT 5000 BR OVC003 11/11 Q1004 NOSIG",
      "taf": ""
    },
    {
      "icao": "UDSG",
      "alert": "OK",
      "vis_m": 9999,
      "fzfg": false,
      "metar_trigger": false,
      "taf_trigger": false,
      "metar": "METAR UDSG 261530Z 25001KT 9999 FEW049CB 08/04 Q1004 NOSIG",
      "taf": "TAF UDSG 261100Z 2612/2712 27006KT 9999 SCT040"
    },
    {
      "icao": "UDYZ",
      "alert": "OK",
      "vis_m": 9999,
      "fzfg": false,
      "metar_trigger": false,
      "taf_trigger": false,
      "metar": "METAR UDYZ 261530Z 24007KT 9999 SCT046 14/08 Q1001 NOSIG",
      "taf": "TAF UDYZ 261100Z 2612/2712 03006KT 9999 SCT040"
    },
    {
      "icao": "UGKO",
      "alert": "OK",
      "vis_m": 9999,
      "fzfg": false,
      "metar_trigger": false,
      "taf_trigger": false,
      "metar": "METAR UGKO 261530Z 24005KT 9999 OVC029 10/09 Q1006 NOSIG",
      "taf": "TAF UGKO 261100Z 2612/2712 26007KT 9999 SCT015 OVC030 TX12/2612Z TN08/2703Z"
    }
  ]
}