{
  "ts_utc": "2026-01-15T23:11:04Z",
  "threshold_m": 150,
  "source": "stations_override.txt (ICAO list) + aviationweather.gov (METAR/TAF raw)",
  "station_count": 159,
  "stations": [
    {
      "icao": "BIKF",
      "alert": "OK",
      "vis_m": 9999,
      "fzfg": false,
      "metar_trigger": false,
      "taf_trigger": false,
      "metar": "METAR BIKF 152300Z 01019KT CAVOK 01/M02 Q0993",
      "taf": "TAF BIKF 152222Z 1600/1700 02020KT 9999 FEW025 SCT040 TX02/1606Z TNM02/1700Z"
    },
    {
      "icao": "BKPR",
      "alert": "OK",
      "vis_m": 9999,
      "fzfg": false,
      "metar_trigger": false,
      "taf_trigger": false,
      "metar": "METAR BKPR 152300Z VRB01KT 9999 BKN060 03/01 Q1024 NOSIG",
      "taf": "TAF BKPR 151730Z 1518/1618 VRB05KT 9999 SCT050"
    },
    {
      "icao": "EBCI",
      "alert": "OK",
      "vis_m": 9999,
      "fzfg": false,
      "metar_trigger": false,
      "taf_trigger": false,
      "metar": "METAR EBCI 152250Z 18014G26KT 9999 -RA FEW027 BKN045 11/06 Q1005 TEMPO 190/17KT MAX30",
      "taf": "TAF EBCI 151710Z 1518/1624 18012KT 9999 SCT030"
    },
    {
      "icao": "EDDB",
      "alert": "OK",
      "vis_m": 7000,
      "fzfg": false,
      "metar_trigger": false,
      "taf_trigger": false,
      "metar": "METAR EDDB 152250Z AUTO 14007KT 7000 NSC 03/03 Q1016 TEMPO 2500 BR",
      "taf": "TAF EDDB 151700Z 1518/1618 14006KT 3000 BR SCT002"
    },
    {
      "icao": "EDDH",
      "alert": "OK",
      "vis_m": 9999,
      "fzfg": false,
      "metar_trigger": false,
      "taf_trigger": false,
      "metar": "METAR EDDH 152250Z AUTO 14008KT CAVOK 06/05 Q1010 NOSIG",
      "taf": "TAF EDDH 151700Z 1518/1624 15010KT 9999 BKN025"
    },
    {
      "icao": "EDDK",
      "alert": "OK",
      "vis_m": 9999,
      "fzfg": false,
      "metar_trigger": false,
      "taf_trigger": false,
      "metar": "METAR EDDK 152250Z AUTO 13011KT CAVOK 10/06 Q1009 NOSIG",
      "taf": "TAF EDDK 151700Z 1518/1624 15011KT 9999 SCT030"
    },
    {
      "icao": "EDDN",
      "alert": "OK",
      "vis_m": 9999,
      "fzfg": false,
      "metar_trigger": false,
      "taf_trigger": false,
      "metar": "METAR EDDN 152250Z AUTO 11004KT CAVOK 02/00 Q1015",
      "taf": "TAF EDDN 151700Z 1518/1618 12007KT CAVOK"
    },
    {
      "icao": "EDDS",
      "alert": "OK",
      "vis_m": 9999,
      "fzfg": false,
      "metar_trigger": false,
      "taf_trigger": false,
      "metar": "METAR EDDS 152250Z AUTO VRB02KT CAVOK 01/M00 Q1013",
      "taf": "TAF EDDS 151700Z 1518/1618 VRB02KT CAVOK"
    },
    {
      "icao": "EDFH",
      "alert": "OK",
      "vis_m": 9999,
      "fzfg": false,
      "metar_trigger": false,
      "taf_trigger": false,
      "metar": "METAR EDFH 152250Z 16010KT CAVOK 06/05 Q1010",
      "taf": "TAF EDFH 151700Z 1518/1618 16011KT 9999 SCT030"
    },
    {
      "icao": "EDJA",
      "alert": "OK",
      "vis_m": 9999,
      "fzfg": false,
      "metar_trigger": false,
      "taf_trigger": false,
      "metar": "METAR EDJA 152250Z AUTO 27002KT 9999 // NCD M00/M02 Q1013",
      "taf": "TAF EDJA 151700Z 1518/1603 VRB03KT CAVOK"
    },
    {
      "icao": "EDLW",
      "alert": "OK",
      "vis_m": 9999,
      "fzfg": false,
      "metar_trigger": false,
      "taf_trigger": false,
      "metar": "METAR EDLW 152250Z AUTO 16013KT 9999 // FEW190/// 10/05 Q1008",
      "taf": "TAF EDLW 151700Z 1518/1618 17012KT 9999 SCT030"
    },
    {
      "icao": "EDNY",
      "alert": "OK",
      "vis_m": 9999,
      "fzfg": false,
      "metar_trigger": false,
      "taf_trigger": false,
      "metar": "METAR EDNY 152250Z AUTO 00000KT 9999 // NCD 01/M00 Q1014",
      "taf": "TAF EDNY 151700Z 1518/1603 05003KT CAVOK"
    },
    {
      "icao": "EDSB",
      "alert": "OK",
      "vis_m": 9999,
      "fzfg": false,
      "metar_trigger": false,
      "taf_trigger": false,
      "metar": "METAR EDSB 152250Z AUTO 16007KT 9999 // NCD 06/03 Q1013",
      "taf": "TAF EDSB 151700Z 1518/1618 VRB02KT CAVOK"
    },
    {
      "icao": "EETN",
      "alert": "OK",
      "vis_m": 3600,
      "fzfg": false,
      "metar_trigger": false,
      "taf_trigger": false,
      "metar": "METAR EETN 152250Z 18011KT 3600 SN BKN008 OVC023 M07/M09 Q1024",
      "taf": "TAF EETN 151730Z 1518/1618 17012KT 9999 SCT008 BKN035"
    },
    {
      "icao": "EFTU",
      "alert": "OK",
      "vis_m": 9000,
      "fzfg": false,
      "metar_trigger": false,
      "taf_trigger": false,
      "metar": "METAR EFTU 152250Z AUTO 18008KT 150V210 9000 OVC002 01/01 Q1020",
      "taf": "TAF EFTU 152139Z 1521/1621 17007KT 9000 -DZRA OVC003"
    },
    {
      "icao": "EGBB",
      "alert": "OK",
      "vis_m": 9000,
      "fzfg": false,
      "metar_trigger": false,
      "taf_trigger": false,
      "metar": "METAR EGBB 152250Z 24004KT 9000 BKN030 04/04 Q0999",
      "taf": ""
    },
    {
      "icao": "EGGP",
      "alert": "OK",
      "vis_m": 100,
      "fzfg": false,
      "metar_trigger": false,
      "taf_trigger": false,
      "metar": "METAR EGGP 152250Z 16003KT 110V200 0100 R27/0500N FG VV/// 03/02 Q0998",
      "taf": "TAF EGGP 152300Z 1600/1624 VRB03KT 6000 FEW040"
    },
    {
      "icao": "EGGW",
      "alert": "OK",
      "vis_m": 9999,
      "fzfg": false,
      "metar_trigger": false,
      "taf_trigger": false,
      "metar": "METAR EGGW 152250Z AUTO 27010KT 9999 FEW007 SCT010 BKN025 04/03 Q0998",
      "taf": "TAF EGGW 152253Z 1600/1624 27010KT 9999 SCT025"
    },
    {
      "icao": "EGKK",
      "alert": "OK",
      "vis_m": 9999,
      "fzfg": false,
      "metar_trigger": false,
      "taf_trigger": false,
      "metar": "METAR EGKK 152250Z 24005KT 9999 BKN011 06/06 Q0999",
      "taf": "TAF EGKK 151654Z 1518/1624 18015KT 9999 BKN015"
    },
    {
      "icao": "EGNM",
      "alert": "OK",
      "vis_m": 200,
      "fzfg": false,
      "metar_trigger": false,
      "taf_trigger": false,
      "metar": "METAR EGNM 152150Z 32002KT 0200 R32/0250N -DZ FG VV/// 04/04 Q0997",
      "taf": "TAF EGNM 151657Z 1518/1618 VRB03KT 9999 FEW010"
    },
    {
      "icao": "EGPD",
      "alert": "OK",
      "vis_m": 9999,
      "fzfg": false,
      "metar_trigger": false,
      "taf_trigger": false,
      "metar": "METAR EGPD 152250Z COR AUTO VRB02KT 9999 NCD M01/M02 Q0997 NOSIG",
      "taf": "TAF EGPD 152254Z 1600/1624 VRB03KT CAVOK"
    },
    {
      "icao": "EGPF",
      "alert": "OK",
      "vis_m": 9999,
      "fzfg": false,
      "metar_trigger": false,
      "taf_trigger": false,
      "metar": "METAR EGPF 152250Z AUTO 07003KT 050V120 9999 BKN028 01/01 Q0998",
      "taf": "TAF EGPF 152255Z 1600/1624 VRB03KT 9999 FEW045"
    },
    {
      "icao": "EHBK",
      "alert": "OK",
      "vis_m": 9999,
      "fzfg": false,
      "metar_trigger": false,
      "taf_trigger": false,
      "metar": "METAR EHBK 152255Z AUTO 16014KT 9999 NSC 11/07 Q1005",
      "taf": "TAF EHBK 151707Z 1518/1624 16010KT CAVOK"
    },
    {
      "icao": "EHEH",
      "alert": "OK",
      "vis_m": 9999,
      "fzfg": false,
      "metar_trigger": false,
      "taf_trigger": false,
      "metar": "METAR EHEH 152255Z AUTO 15010KT 120V190 9999 FEW053 BKN080 BKN087 11/07 Q1004 BLU",
      "taf": "TAF EHEH 151736Z 1518/1624 16008KT CAVOK"
    },
    {
      "icao": "EKBI",
      "alert": "OK",
      "vis_m": 1700,
      "fzfg": false,
      "metar_trigger": false,
      "taf_trigger": false,
      "metar": "METAR EKBI 152250Z AUTO 15007KT 130V190 1700 BR OVC002/// 06/06 Q1008",
      "taf": "TAF EKBI 152027Z 1521/1621 14008KT 0300 -RADZ FG OVC002"
    },
    {
      "icao": "EKCH",
      "alert": "OK",
      "vis_m": 4000,
      "fzfg": false,
      "metar_trigger": false,
      "taf_trigger": false,
      "metar": "METAR EKCH 152250Z 14011KT 4000 BR OVC004 04/03 Q1013 TEMPO 2000",
      "taf": "TAF EKCH 152027Z 1521/1621 15015KT 5000 OVC002"
    },
    {
      "icao": "ENAL",
      "alert": "OK",
      "vis_m": 9999,
      "fzfg": false,
      "metar_trigger": false,
      "taf_trigger": false,
      "metar": "METAR ENAL 152250Z AUTO 19013KT 150V220 9999 NCD 08/01 Q0999",
      "taf": "TAF ENAL 152000Z 1521/1606 17012KT 9999 SCT050"
    },
    {
      "icao": "ENBR",
      "alert": "OK",
      "vis_m": 9999,
      "fzfg": false,
      "metar_trigger": false,
      "taf_trigger": false,
      "metar": "METAR ENBR 152250Z 14014KT 9999 SCT020 BKN040 06/03 Q1002 RMK WIND 1200FT 15019KT",
      "taf": ""
    },
    {
      "icao": "ENGM",
      "alert": "OK",
      "vis_m": 4700,
      "fzfg": false,
      "metar_trigger": false,
      "taf_trigger": false,
      "metar": "METAR ENGM 152250Z 03004KT 360V060 4700 1600E -SN BR OVC003 M01/M01 Q1009",
      "taf": ""
    },
    {
      "icao": "ENHD",
      "alert": "OK",
      "vis_m": 9999,
      "fzfg": false,
      "metar_trigger": false,
      "taf_trigger": false,
      "metar": "METAR ENHD 152250Z 14014KT 9999 FEW013 SCT018 BKN022 06/04 Q1003",
      "taf": "TAF ENHD 151400Z 1515/1523 13018KT 9999 -RA FEW015 BKN030"
    },
    {
      "icao": "ENTC",
      "alert": "OK",
      "vis_m": 9999,
      "fzfg": false,
      "metar_trigger": false,
      "taf_trigger": false,
      "metar": "METAR ENTC 152250Z 20016KT 9999 BKN039 M01/M07 Q1008 RMK WIND 2600FT 16009KT",
      "taf": ""
    },
    {
      "icao": "ENTO",
      "alert": "OK",
      "vis_m": 3600,
      "fzfg": false,
      "metar_trigger": false,
      "taf_trigger": false,
      "metar": "METAR ENTO 152250Z AUTO 36005KT 3600 OVC002/// 00/00 Q1008",
      "taf": ""
    },
    {
      "icao": "ENVA",
      "alert": "OK",
      "vis_m": 9999,
      "fzfg": false,
      "metar_trigger": false,
      "taf_trigger": false,
      "metar": "METAR ENVA 152250Z 10004KT CAVOK 04/M03 Q1003 RMK WIND 670FT 17019KT",
      "taf": "TAF ENVA 151700Z 1518/1618 12015KT 9999 FEW050"
    },
    {
      "icao": "ENZV",
      "alert": "OK",
      "vis_m": 9999,
      "fzfg": false,
      "metar_trigger": false,
      "taf_trigger": false,
      "metar": "METAR ENZV 152250Z 14011KT CAVOK 06/03 Q1003",
      "taf": "TAF ENZV 151700Z 1518/1618 14015KT 9999 FEW020 BKN030"
    },
    {
      "icao": "EPGD",
      "alert": "OK",
      "vis_m": 1600,
      "fzfg": false,
      "metar_trigger": false,
      "taf_trigger": false,
      "metar": "METAR EPGD 152300Z 16011KT 1600 0900E PRFG BR BKN002 M03/M03 Q1021",
      "taf": ""
    },
    {
      "icao": "EPKK",
      "alert": "OK",
      "vis_m": 6000,
      "fzfg": false,
      "metar_trigger": false,
      "taf_trigger": false,
      "metar": "METAR EPKK 152300Z 06007KT 6000 FEW010 OVC022 01/M00 Q1021",
      "taf": ""
    },
    {
      "icao": "EPKT",
      "alert": "OK",
      "vis_m": 5000,
      "fzfg": false,
      "metar_trigger": false,
      "taf_trigger": false,
      "metar": "METAR EPKT 152300Z 15004KT 5000 BR FEW037 BKN041 02/01 Q1020",
      "taf": ""
    },
    {
      "icao": "EPLB",
      "alert": "OK",
      "vis_m": 4200,
      "fzfg": false,
      "metar_trigger": false,
      "taf_trigger": false,
      "metar": "METAR EPLB 152300Z 09008KT 4200 BR BKN016 OVC023 M05/M05 Q1025",
      "taf": ""
    },
    {
      "icao": "EPMO",
      "alert": "OK",
      "vis_m": 2500,
      "fzfg": false,
      "metar_trigger": false,
      "taf_trigger": false,
      "metar": "METAR EPMO 152300Z 09005KT 2500 BR OVC005 M03/M03 Q1023",
      "taf": ""
    },
    {
      "icao": "EPPO",
      "alert": "OK",
      "vis_m": 400,
      "fzfg": false,
      "metar_trigger": false,
      "taf_trigger": false,
      "metar": "METAR EPPO 152300Z 11008KT 0400 R28/P2000U FG OVC001 01/01 Q1019",
      "taf": "TAF EPPO 151730Z 1518/1618 13007KT 2500 BR BKN003"
    },
    {
      "icao": "EPRA",
      "alert": "OK",
      "vis_m": 6000,
      "fzfg": false,
      "metar_trigger": false,
      "taf_trigger": false,
      "metar": "METAR EPRA 152300Z 13006KT 6000 BKN003 OVC024 M01/M01 Q1023",
      "taf": "TAF EPRA 152030Z 1521/1606 12006KT 7000 OVC006"
    },
    {
      "icao": "EPRZ",
      "alert": "OK",
      "vis_m": 1200,
      "fzfg": false,
      "metar_trigger": false,
      "taf_trigger": false,
      "metar": "METAR EPRZ 152300Z 10006KT 1200 R27/P2000N BR OVC002 00/00 Q1023",
      "taf": ""
    },
    {
      "icao": "EPSC",
      "alert": "OK",
      "vis_m": 3600,
      "fzfg": false,
      "metar_trigger": false,
      "taf_trigger": false,
      "metar": "METAR EPSC 152300Z 13012KT 3600 BR BKN004 OVC020 02/02 Q1017",
      "taf": "TAF EPSC 151730Z 1518/1618 14010KT 6000 OVC005"
    },
    {
      "icao": "EPSY",
      "alert": "OK",
      "vis_m": 4000,
      "fzfg": false,
      "metar_trigger": false,
      "taf_trigger": false,
      "metar": "METAR EPSY 152300Z 15005KT 090V200 4000 BR OVC030 M07/M08 Q1024",
      "taf": "TAF EPSY 152030Z 1521/1606 14006KT 3500 BR BKN030"
    },
    {
      "icao": "EPWA",
      "alert": "OK",
      "vis_m": 4500,
      "fzfg": false,
      "metar_trigger": false,
      "taf_trigger": false,
      "metar": "METAR EPWA 152300Z 11008KT 4500 BR BKN005 BKN027 M03/M04 Q1023 NOSIG",
      "taf": "TAF EPWA 152030Z 1521/1621 12010KT 4500 BR BKN005"
    },
    {
      "icao": "EPWR",
      "alert": "OK",
      "vis_m": 5000,
      "fzfg": false,
      "metar_trigger": false,
      "taf_trigger": false,
      "metar": "METAR EPWR 152300Z 12007KT 5000 BR BKN047 02/02 Q1019",
      "taf": "TAF EPWR 152030Z 1521/1621 12006KT 4000 BR OVC035"
    },
    {
      "icao": "ESGG",
      "alert": "OK",
      "vis_m": 5000,
      "fzfg": false,
      "metar_trigger": false,
      "taf_trigger": false,
      "metar": "METAR ESGG 152250Z 15008KT 5000 BR OVC002 03/02 Q1010",
      "taf": ""
    },
    {
      "icao": "ESKN",
      "alert": "OK",
      "vis_m": 9999,
      "fzfg": false,
      "metar_trigger": false,
      "taf_trigger": false,
      "metar": "METAR ESKN 152250Z 16012KT 9999 BKN009 02/01 Q1016",
      "taf": "TAF ESKN 152030Z 1521/1621 17014KT 9999 BKN005"
    },
    {
      "icao": "ESMS",
      "alert": "OK",
      "vis_m": 200,
      "fzfg": false,
      "metar_trigger": false,
      "taf_trigger": false,
      "metar": "METAR ESMS 152250Z 13010KT 0200 R17/0800N R35/0750N FG VV002 03/03 Q1013",
      "taf": "TAF ESMS 152027Z 1521/1621 14010KT 0200 FG OVC002"
    },
    {
      "icao": "ESSA",
      "alert": "OK",
      "vis_m": 9999,
      "fzfg": false,
      "metar_trigger": false,
      "taf_trigger": false,
      "metar": "METAR ESSA 152250Z 16010KT 9999 BKN014 02/00 Q1016 NOSIG",
      "taf": "TAF ESSA 152030Z 1521/1621 18014KT 9999 SCT003 OVC005"
    },
    {
      "icao": "EYKA",
      "alert": "OK",
      "vis_m": 7000,
      "fzfg": false,
      "metar_trigger": false,
      "taf_trigger": false,
      "metar": "METAR EYKA 152250Z 15009KT 120V220 7000 OVC009 M09/M12 Q1027",
      "taf": "TAF EYKA 152304Z 1600/1624 16013KT 9000 OVC010"
    },
    {
      "icao": "EYPA",
      "alert": "OK",
      "vis_m": 8000,
      "fzfg": false,
      "metar_trigger": false,
      "taf_trigger": false,
      "metar": "METAR EYPA 152250Z 14013KT 8000 OVC032 M05/M07 Q1024",
      "taf": "TAF EYPA 152303Z 1600/1624 14015KT 9000 SCT010 OVC020"
    },
    {
      "icao": "EYVI",
      "alert": "OK",
      "vis_m": 9000,
      "fzfg": false,
      "metar_trigger": false,
      "taf_trigger": false,
      "metar": "METAR EYVI 152250Z 17009KT 9000 NSC M17/M19 Q1028 NOSIG",
      "taf": "TAF EYVI 152305Z 1600/1624 16012KT 9000 NSC"
    },
    {
      "icao": "GCFV",
      "alert": "OK",
      "vis_m": 9999,
      "fzfg": false,
      "metar_trigger": false,
      "taf_trigger": false,
      "metar": "METAR GCFV 152300Z 34009KT 9999 BKN032 17/09 Q1025",
      "taf": "TAF GCFV 152000Z 1521/1621 34006KT 9999 SCT030 TX22/1614Z TN14/1606Z"
    },
    {
      "icao": "GCLP",
      "alert": "OK",
      "vis_m": 9999,
      "fzfg": false,
      "metar_trigger": false,
      "taf_trigger": false,
      "metar": "METAR GCLP 152300Z 36010KT 9999 BKN036 17/10 Q1025 NOSIG",
      "taf": "TAF GCLP 152000Z 1521/1621 36013KT 9999 BKN030 TX22/1614Z TN15/1606Z"
    },
    {
      "icao": "GCTS",
      "alert": "OK",
      "vis_m": 9999,
      "fzfg": false,
      "metar_trigger": false,
      "taf_trigger": false,
      "metar": "METAR GCTS 152300Z 06010KT 020V080 9999 FEW040 17/09 Q1025 NOSIG",
      "taf": "TAF GCTS 152000Z 1521/1621 02005KT 9999 BKN030 TX22/1614Z TN13/1606Z"
    },
    {
      "icao": "GMAD",
      "alert": "OK",
      "vis_m": 9999,
      "fzfg": false,
      "metar_trigger": false,
      "taf_trigger": false,
      "metar": "METAR GMAD 152300Z 14003KT CAVOK 11/11 Q1023 NOSIG",
      "taf": "TAF GMAD 151700Z 1518/1624 26010KT 9999 FEW030"
    },
    {
      "icao": "GMMN",
      "alert": "OK",
      "vis_m": 9999,
      "fzfg": false,
      "metar_trigger": false,
      "taf_trigger": false,
      "metar": "METAR GMMN 152300Z 20007KT 9999 SCT020 SCT120 10/09 Q1023 NOSIG",
      "taf": "TAF GMMN 151700Z 1518/1624 32008KT 9999 BKN020 SCT200"
    },
    {
      "icao": "GMMX",
      "alert": "OK",
      "vis_m": 9999,
      "fzfg": false,
      "metar_trigger": false,
      "taf_trigger": false,
      "metar": "METAR GMMX 152300Z 26004KT 9999 FEW030 10/07 Q1023 NOSIG",
      "taf": "TAF GMMX 151700Z 1518/1624 06006KT 8000 SCT026"
    },
    {
      "icao": "HEGN",
      "alert": "OK",
      "vis_m": 9999,
      "fzfg": false,
      "metar_trigger": false,
      "taf_trigger": false,
      "metar": "METAR HEGN 152200Z 28009KT CAVOK 15/07 Q1022 NOSIG",
      "taf": "TAF HEGN 152300Z 1600/1706 29015KT CAVOK"
    },
    {
      "icao": "HEMA",
      "alert": "OK",
      "vis_m": 9999,
      "fzfg": false,
      "metar_trigger": false,
      "taf_trigger": false,
      "metar": "METAR HEMA 152200Z 34007KT CAVOK 16/09 Q1021 NOSIG",
      "taf": "TAF HEMA 152300Z 1600/1706 30015KT 9999 SCT025"
    },
    {
      "icao": "HESH",
      "alert": "OK",
      "vis_m": 9999,
      "fzfg": false,
      "metar_trigger": false,
      "taf_trigger": false,
      "metar": "METAR HESH 152200Z 35012KT CAVOK 18/04 Q1022 NOSIG",
      "taf": "TAF HESH 152300Z 1600/1706 33010KT CAVOK"
    },
    {
      "icao": "HESX",
      "alert": "OK",
      "vis_m": 9999,
      "fzfg": false,
      "metar_trigger": false,
      "taf_trigger": false,
      "metar": "METAR HESX 152200Z 36005KT CAVOK 12/09 Q1024 NOSIG",
      "taf": "TAF HESX 152300Z 1600/1706 36006KT 9999 FEW025"
    },
    {
      "icao": "LATI",
      "alert": "OK",
      "vis_m": 9999,
      "fzfg": false,
      "metar_trigger": false,
      "taf_trigger": false,
      "metar": "METAR LATI 152250Z VRB03KT 9999 OVC066 09/05 Q1023 NOSIG",
      "taf": "TAF LATI 152300Z 1600/1624 VRB05KT 9999 BKN070 TX16/1612Z TN06/1605Z"
    },
    {
      "icao": "LBPD",
      "alert": "OK",
      "vis_m": 9999,
      "fzfg": false,
      "metar_trigger": false,
      "taf_trigger": false,
      "metar": "METAR LBPD 152300Z AUTO 21003KT 9999 NCD 02/01 Q1023",
      "taf": "TAF LBPD 151700Z 1518/1618 28010KT 9999 SCT070"
    },
    {
      "icao": "LBSF",
      "alert": "OK",
      "vis_m": 9000,
      "fzfg": false,
      "metar_trigger": false,
      "taf_trigger": false,
      "metar": "METAR LBSF 152300Z AUTO 11004KT 9000 OVC058/// 01/M01 Q1024 NOSIG",
      "taf": "TAF LBSF 151700Z 1518/1618 VRB03KT 9999 SCT060"
    },
    {
      "icao": "LBWN",
      "alert": "OK",
      "vis_m": 9999,
      "fzfg": false,
      "metar_trigger": false,
      "taf_trigger": false,
      "metar": "METAR LBWN 152300Z AUTO VRB02KT 9999 OVC029/// 04/01 Q1024 NOSIG",
      "taf": ""
    },
    {
      "icao": "LCLK",
      "alert": "OK",
      "vis_m": 9999,
      "fzfg": false,
      "metar_trigger": false,
      "taf_trigger": false,
      "metar": "METAR LCLK 152300Z 31006KT 9999 SCT037 09/07 Q1024 NOSIG",
      "taf": "TAF LCLK 151730Z 1518/1618 31006KT 9999 FEW040 SCT050"
    },
    {
      "icao": "LCPH",
      "alert": "OK",
      "vis_m": 9999,
      "fzfg": false,
      "metar_trigger": false,
      "taf_trigger": false,
      "metar": "METAR LCPH 152300Z 01010KT 010V080 CAVOK 09/05 Q1023 NOSIG",
      "taf": "TAF LCPH 151730Z 1518/1618 02007KT 9999 FEW025 SCT040"
    },
    {
      "icao": "LEAL",
      "alert": "OK",
      "vis_m": 9999,
      "fzfg": false,
      "metar_trigger": false,
      "taf_trigger": false,
      "metar": "METAR LEAL 152300Z 30005KT CAVOK 10/10 Q1017 NOSIG",
      "taf": "TAF LEAL 151700Z 1518/1618 VRB04KT CAVOK TX17/1613Z TN07/1606Z"
    },
    {
      "icao": "LEBB",
      "alert": "OK",
      "vis_m": 9999,
      "fzfg": false,
      "metar_trigger": false,
      "taf_trigger": false,
      "metar": "METAR LEBB 152300Z AUTO 00000KT 9999 BKN047 OVC055 11/08 Q1013",
      "taf": "TAF LEBB 151700Z 1518/1618 19009KT 9999 FEW025 BKN060 TX16/1612Z TN05/1607Z"
    },
    {
      "icao": "LEBL",
      "alert": "OK",
      "vis_m": 9000,
      "fzfg": false,
      "metar_trigger": false,
      "taf_trigger": false,
      "metar": "METAR LEBL 152300Z 31004KT 9000 FEW010 SCT022 08/06 Q1015 NOSIG",
      "taf": "TAF LEBL 151700Z 1518/1618 21010KT 9999 SCT015 TX14/1612Z TN06/1606Z"
    },
    {
      "icao": "LECH",
      "alert": "OK",
      "vis_m": 9999,
      "fzfg": false,
      "metar_trigger": false,
      "taf_trigger": false,
      "metar": "METAR LECH 152300Z AUTO 27004KT 240V330 CAVOK 08/01 Q1016",
      "taf": ""
    },
    {
      "icao": "LEMD",
      "alert": "OK",
      "vis_m": 8000,
      "fzfg": false,
      "metar_trigger": false,
      "taf_trigger": false,
      "metar": "METAR LEMD 152300Z 16005KT 8000 FEW005 BKN010 OVC020 06/06 Q1016 NOSIG",
      "taf": ""
    },
    {
      "icao": "LEMG",
      "alert": "OK",
      "vis_m": 9999,
      "fzfg": false,
      "metar_trigger": false,
      "taf_trigger": false,
      "metar": "METAR LEMG 152300Z 00000KT 9999 FEW060 11/09 Q1019 NOSIG",
      "taf": "TAF LEMG 151700Z 1518/1618 29005KT 9999 FEW040 TX18/1614Z TN11/1607Z"
    },
    {
      "icao": "LEVC",
      "alert": "OK",
      "vis_m": 9999,
      "fzfg": false,
      "metar_trigger": false,
      "taf_trigger": false,
      "metar": "METAR LEVC 152300Z 26005KT CAVOK 07/04 Q1016 NOSIG",
      "taf": "TAF LEVC 151700Z 1518/1618 26005KT CAVOK TX15/1612Z TN06/1606Z"
    },
    {
      "icao": "LEXJ",
      "alert": "OK",
      "vis_m": 8000,
      "fzfg": false,
      "metar_trigger": false,
      "taf_trigger": false,
      "metar": "METAR LEXJ 152300Z 23003KT 210V330 8000 OVC046 10/08 Q1012",
      "taf": "TAF LEXJ 152000Z 1521/1621 20009KT 9999 SCT020 TX15/1614Z TN08/1608Z"
    },
    {
      "icao": "LEZG",
      "alert": "OK",
      "vis_m": 9999,
      "fzfg": false,
      "metar_trigger": false,
      "taf_trigger": false,
      "metar": "METAR LEZG 152300Z 15005KT 9999 -RA OVC045 08/08 Q1016 NOSIG",
      "taf": "TAF LEZG 151700Z 1518/1618 VRB04KT 9999 FEW020 TX13/1614Z TN05/1606Z"
    },
    {
      "icao": "LEZL",
      "alert": "OK",
      "vis_m": 9999,
      "fzfg": false,
      "metar_trigger": false,
      "taf_trigger": false,
      "metar": "METAR LEZL 152300Z 18005KT 150V210 9999 SCT030 13/12 Q1018 NOSIG",
      "taf": "TAF LEZL 152000Z 1521/1621 VRB03KT CAVOK TX17/1614Z TN08/1607Z"
    },
    {
      "icao": "LFBD",
      "alert": "OK",
      "vis_m": 9999,
      "fzfg": false,
      "metar_trigger": false,
      "taf_trigger": false,
      "metar": "METAR LFBD 152300Z AUTO 22009KT 9999 BKN021 BKN031 BKN040 11/08 Q1011 TEMPO 4000 -RA BKN010 BKN040TCU",
      "taf": "TAF LFBD 151700Z 1518/1624 21010KT 9999 BKN040 TX11/1615Z TN05/1624Z"
    },
    {
      "icao": "LFLL",
      "alert": "OK",
      "vis_m": 9999,
      "fzfg": false,
      "metar_trigger": false,
      "taf_trigger": false,
      "metar": "METAR LFLL 152300Z 19006KT 140V250 CAVOK 11/04 Q1014 NOSIG",
      "taf": "TAF LFLL 151700Z 1518/1624 18015G25KT 9999 FEW030"
    },
    {
      "icao": "LFLS",
      "alert": "OK",
      "vis_m": 9999,
      "fzfg": false,
      "metar_trigger": false,
      "taf_trigger": false,
      "metar": "METAR LFLS 152300Z AUTO 31003KT 260V340 9999 BKN060 09/03 Q1015",
      "taf": "TAF LFLS 151400Z 1515/1615 20010KT CAVOK"
    },
    {
      "icao": "LFMN",
      "alert": "OK",
      "vis_m": 9999,
      "fzfg": false,
      "metar_trigger": false,
      "taf_trigger": false,
      "metar": "METAR LFMN 152300Z 32007KT 270V020 9999 BKN023 SCT056 11/07 Q1020 NOSIG",
      "taf": "TAF LFMN 152000Z 1521/1703 VRB03KT 9999 SCT020 BKN030"
    },
    {
      "icao": "LFOB",
      "alert": "OK",
      "vis_m": 9999,
      "fzfg": false,
      "metar_trigger": false,
      "taf_trigger": false,
      "metar": "METAR LFOB 152300Z AUTO 20017KT 9999 BKN020 BKN025 OVC036 11/08 Q1003 TEMPO 21020G30KT 3500 SHRA BKN009 OVC013",
      "taf": "TAF LFOB 151700Z 1518/1618 17010G20KT 9999 BKN030"
    },
    {
      "icao": "LFPO",
      "alert": "OK",
      "vis_m": 9999,
      "fzfg": false,
      "metar_trigger": false,
      "taf_trigger": false,
      "metar": "METAR LFPO 152300Z 20015KT 9999 BKN016 10/07 Q1006 NOSIG",
      "taf": "TAF LFPO 151700Z 1518/1624 18010KT CAVOK"
    },
    {
      "icao": "LFSB",
      "alert": "OK",
      "vis_m": 9999,
      "fzfg": false,
      "metar_trigger": false,
      "taf_trigger": false,
      "metar": "METAR LFSB 152300Z AUTO 17005KT CAVOK 05/03 Q1014 NOSIG",
      "taf": "TAF LFSB 151700Z 1518/1618 12006KT CAVOK"
    },
    {
      "icao": "LGAV",
      "alert": "OK",
      "vis_m": 9999,
      "fzfg": false,
      "metar_trigger": false,
      "taf_trigger": false,
      "metar": "METAR LGAV 152250Z 29002KT 9999 FEW030 04/02 Q1024 NOSIG",
      "taf": "TAF LGAV 152300Z 1600/1624 VRB03KT 9999 SCT025"
    },
    {
      "icao": "LGTS",
      "alert": "OK",
      "vis_m": 9999,
      "fzfg": false,
      "metar_trigger": false,
      "taf_trigger": false,
      "metar": "METAR LGTS 152250Z VRB03KT CAVOK 03/02 Q1024 NOSIG",
      "taf": "TAF LGTS 152300Z 1600/1624 VRB03KT 9999 FEW030"
    },
    {
      "icao": "LHBP",
      "alert": "OK",
      "vis_m": 4800,
      "fzfg": false,
      "metar_trigger": false,
      "taf_trigger": false,
      "metar": "METAR LHBP 152300Z 08003KT 4800 BR BKN007 OVC013 M01/M02 Q1022 NOSIG",
      "taf": ""
    },
    {
      "icao": "LHDC",
      "alert": "OK",
      "vis_m": 3400,
      "fzfg": false,
      "metar_trigger": false,
      "taf_trigger": false,
      "metar": "METAR LHDC 152245Z AUTO 06005KT 3400 -DZ BR OVC003 01/00 Q1023",
      "taf": "TAF LHDC 151415Z 1515/1524 VRB03KT 5000 BR SCT004 OVC040"
    },
    {
      "icao": "LIBD",
      "alert": "OK",
      "vis_m": 9999,
      "fzfg": false,
      "metar_trigger": false,
      "taf_trigger": false,
      "metar": "METAR LIBD 152250Z 21007KT CAVOK 06/05 Q1022",
      "taf": "TAF LIBD 151700Z 1518/1618 VRB05KT 9999 FEW030"
    },
    {
      "icao": "LIBG",
      "alert": "OK",
      "vis_m": null,
      "fzfg": false,
      "metar_trigger": false,
      "taf_trigger": false,
      "metar": "",
      "taf": "TAF LIBG 151700Z 1518/1603 VRB05KT 8000 FEW025"
    },
    {
      "icao": "LIBP",
      "alert": "OK",
      "vis_m": 9999,
      "fzfg": false,
      "metar_trigger": false,
      "taf_trigger": false,
      "metar": "METAR LIBP 152250Z AUTO 20005KT 9999 NCD 03/03 Q1022",
      "taf": "TAF LIBP 151700Z 1518/1618 VRB05KT CAVOK"
    },
    {
      "icao": "LIBR",
      "alert": "OK",
      "vis_m": 6000,
      "fzfg": false,
      "metar_trigger": false,
      "taf_trigger": false,
      "metar": "METAR LIBR 152250Z 28004KT 250V310 6000 SCT040 08/07 Q1022",
      "taf": "TAF LIBR 151700Z 1518/1618 VRB05KT 9999 FEW025"
    },
    {
      "icao": "LICA",
      "alert": "OK",
      "vis_m": 9999,
      "fzfg": false,
      "metar_trigger": false,
      "taf_trigger": false,
      "metar": "METAR LICA 152250Z AUTO 07006KT 9999 NCD 07/06 Q1022",
      "taf": "TAF LICA 151700Z 1518/1618 VRB05KT CAVOK"
    },
    {
      "icao": "LICC",
      "alert": "OK",
      "vis_m": 7000,
      "fzfg": false,
      "metar_trigger": false,
      "taf_trigger": false,
      "metar": "METAR LICC 152250Z 20003KT 7000 R08/1400U NSC 10/06 Q1022",
      "taf": "TAF LICC 151700Z 1518/1618 VRB05KT 9999 SCT040"
    },
    {
      "icao": "LICJ",
      "alert": "OK",
      "vis_m": 9999,
      "fzfg": false,
      "metar_trigger": false,
      "taf_trigger": false,
      "metar": "METAR LICJ 152250Z 06006KT CAVOK 11/08 Q1019",
      "taf": "TAF LICJ 151700Z 1518/1618 05010KT CAVOK"
    },
    {
      "icao": "LIMC",
      "alert": "OK",
      "vis_m": 1000,
      "fzfg": false,
      "metar_trigger": false,
      "taf_trigger": false,
      "metar": "METAR LIMC 152250Z VRB02KT 1000 R35R/1600D R17L/0700U R35L/P2000N BCFG OVC003 07/06 Q1022 NOSIG",
      "taf": ""
    },
    {
      "icao": "LIME",
      "alert": "OK",
      "vis_m": 5000,
      "fzfg": false,
      "metar_trigger": false,
      "taf_trigger": false,
      "metar": "METAR LIME 152250Z 03003KT 360V070 5000 BR SCT015 SCT070 04/04 Q1022 NOSIG",
      "taf": "TAF LIME 151700Z 1518/1618 VRB04KT 2000 BR BKN013"
    },
    {
      "icao": "LIMF",
      "alert": "OK",
      "vis_m": 3500,
      "fzfg": false,
      "metar_trigger": false,
      "taf_trigger": false,
      "metar": "METAR LIMF 152250Z 33002KT 3500 BR BKN040 05/03 Q1022",
      "taf": "TAF LIMF 151700Z 1518/1618 VRB03KT 6000 SCT020"
    },
    {
      "icao": "LIMJ",
      "alert": "OK",
      "vis_m": 9999,
      "fzfg": false,
      "metar_trigger": false,
      "taf_trigger": false,
      "metar": "METAR LIMJ 152250Z 05013KT 9999 -DZ BKN024 10/07 Q1020 RERA",
      "taf": "TAF LIMJ 151700Z 1518/1618 04010KT 9999 SCT020 SCT050"
    },
    {
      "icao": "LIPE",
      "alert": "OK",
      "vis_m": 1800,
      "fzfg": false,
      "metar_trigger": false,
      "taf_trigger": false,
      "metar": "METAR LIPE 152250Z VRB01KT 1800 BR BKN015 06/06 Q1022",
      "taf": "TAF LIPE 151700Z 1518/1618 VRB04KT 3000 BR BKN040"
    },
    {
      "icao": "LIPH",
      "alert": "OK",
      "vis_m": 4500,
      "fzfg": false,
      "metar_trigger": false,
      "taf_trigger": false,
      "metar": "METAR LIPH 152250Z AUTO VRB01KT 4500 BR FEW023/// OVC076/// 04/03 Q1022",
      "taf": "TAF LIPH 151700Z 1518/1618 VRB04KT 6000 SCT040"
    },
    {
      "icao": "LIPQ",
      "alert": "OK",
      "vis_m": 1900,
      "fzfg": false,
      "metar_trigger": false,
      "taf_trigger": false,
      "metar": "METAR LIPQ 152250Z AUTO 02002KT 1900 BR OVC020/// 08/07 Q1022",
      "taf": "TAF LIPQ 151700Z 1518/1618 VRB04KT 3000 BR BKN035"
    },
    {
      "icao": "LIPR",
      "alert": "OK",
      "vis_m": 1700,
      "fzfg": false,
      "metar_trigger": false,
      "taf_trigger": false,
      "metar": "METAR LIPR 152250Z AUTO 30003KT 1700 BR BKN004/// 07/06 Q1022",
      "taf": "TAF LIPR 151700Z 1518/1618 VRB04KT 3000 BR SCT020"
    },
    {
      "icao": "LIPX",
      "alert": "OK",
      "vis_m": 5000,
      "fzfg": false,
      "metar_trigger": false,
      "taf_trigger": false,
      "metar": "METAR LIPX 152250Z VRB02KT 5000 -RA BR BKN060 05/04 Q1022",
      "taf": "TAF LIPX 151700Z 1518/1618 VRB04KT 4000 BR BKN040"
    },
    {
      "icao": "LIPY",
      "alert": "OK",
      "vis_m": 1200,
      "fzfg": false,
      "metar_trigger": false,
      "taf_trigger": false,
      "metar": "METAR LIPY 152250Z AUTO 17002KT 1200 R22/1900N BR SCT004/// BKN083/// 08/07 Q1022",
      "taf": "TAF LIPY 151700Z 1518/1618 VRB05KT 7000 SCT060"
    },
    {
      "icao": "LIPZ",
      "alert": "OK",
      "vis_m": 6000,
      "fzfg": false,
      "metar_trigger": false,
      "taf_trigger": false,
      "metar": "METAR LIPZ 152250Z VRB02KT 6000 BKN020 07/04 Q1022 NOSIG",
      "taf": "TAF LIPZ 151700Z 1518/1624 VRB04KT 6000 SCT040"
    },
    {
      "icao": "LIRF",
      "alert": "OK",
      "vis_m": 9999,
      "fzfg": false,
      "metar_trigger": false,
      "taf_trigger": false,
      "metar": "METAR LIRF 152250Z 10005KT 070V130 CAVOK 11/09 Q1022 NOSIG",
      "taf": "TAF LIRF 151700Z 1518/1624 15012KT 9999 SCT050"
    },
    {
      "icao": "LIRN",
      "alert": "OK",
      "vis_m": 9999,
      "fzfg": false,
      "metar_trigger": false,
      "taf_trigger": false,
      "metar": "METAR LIRN 152250Z 34002KT CAVOK 07/05 Q1022 NOSIG",
      "taf": "TAF LIRN 151700Z 1518/1618 VRB05KT CAVOK"
    },
    {
      "icao": "LIRP",
      "alert": "OK",
      "vis_m": 9999,
      "fzfg": false,
      "metar_trigger": false,
      "taf_trigger": false,
      "metar": "METAR LIRP 152245Z VRB03KT 9999 SCT020 SCT060 09/08 Q1021 NOSIG",
      "taf": "TAF LIRP 151700Z 1518/1618 12005KT 9999 SCT020 SCT030"
    },
    {
      "icao": "LIRZ",
      "alert": "OK",
      "vis_m": 9999,
      "fzfg": false,
      "metar_trigger": false,
      "taf_trigger": false,
      "metar": "METAR LIRZ 152250Z AUTO VRB02KT 9999 BKN045/// BKN059/// 09/08 Q1022",
      "taf": "TAF LIRZ 151700Z 1518/1618 VRB05KT 9999 SCT040 BKN070"
    },
    {
      "icao": "LJLJ",
      "alert": "OK",
      "vis_m": 9999,
      "fzfg": false,
      "metar_trigger": false,
      "taf_trigger": false,
      "metar": "METAR LJLJ 152300Z 29005KT 9999 FEW003 SCT035 BKN045 01/01 Q1020 NOSIG",
      "taf": "TAF LJLJ 152300Z 1600/1700 30004KT 9999 FEW003 SCT030 BKN045"
    },
    {
      "icao": "LKMT",
      "alert": "OK",
      "vis_m": 4500,
      "fzfg": false,
      "metar_trigger": false,
      "taf_trigger": false,
      "metar": "METAR LKMT 152300Z 22009KT 4500 BR SCT043 01/00 Q1020 NOSIG",
      "taf": "TAF LKMT 151700Z 1518/1618 22008KT 4500 BR BKN045"
    },
    {
      "icao": "LKPR",
      "alert": "OK",
      "vis_m": 200,
      "fzfg": true,
      "metar_trigger": false,
      "taf_trigger": false,
      "metar": "METAR LKPR 152300Z 28003KT 250V310 0200 R24/0500N R30/0400N FZFG VV001 M00/M00 Q1018 NOSIG",
      "taf": "TAF LKPR 152000Z 1521/1703 VRB02KT 0200 FG VV001"
    },
    {
      "icao": "LLBG",
      "alert": "OK",
      "vis_m": 9999,
      "fzfg": false,
      "metar_trigger": false,
      "taf_trigger": false,
      "metar": "METAR LLBG 152250Z VRB03KT CAVOK 10/07 Q1024 NOSIG",
      "taf": "TAF LLBG 151704Z 1518/1618 VRB03KT 9999 SCT045"
    },
    {
      "icao": "LMML",
      "alert": "OK",
      "vis_m": 9999,
      "fzfg": false,
      "metar_trigger": false,
      "taf_trigger": false,
      "metar": "METAR LMML 152245Z 13012KT 9999 FEW030 15/13 Q1020 NOSIG",
      "taf": "TAF LMML 152300Z 1600/1624 13012KT 9999 FEW018"
    },
    {
      "icao": "LOWW",
      "alert": "OK",
      "vis_m": 500,
      "fzfg": true,
      "metar_trigger": false,
      "taf_trigger": false,
      "metar": "METAR LOWW 152250Z 14006KT 0500 R16/0600N R29/0550N FZFG FEW000 BKN001 M01/M01 Q1021 TEMPO -FZDZ",
      "taf": "TAF LOWW 152015Z 1521/1703 14006KT 0800 BCFG FEW001 BKN002 TX01/1702Z TNM01/1521Z"
    },
    {
      "icao": "LPFR",
      "alert": "OK",
      "vis_m": 6000,
      "fzfg": false,
      "metar_trigger": false,
      "taf_trigger": false,
      "metar": "METAR LPFR 152300Z 22015KT 6000 -DZ SCT005 FEW012TCU BKN015 15/14 Q1017",
      "taf": "TAF LPFR 151700Z 1518/1618 24013KT 9999 SCT012 BKN025"
    },
    {
      "icao": "LPMA",
      "alert": "OK",
      "vis_m": 9999,
      "fzfg": false,
      "metar_trigger": false,
      "taf_trigger": false,
      "metar": "METAR LPMA 152300Z 32004KT 300V360 9999 FEW015 15/10 Q1025",
      "taf": "TAF LPMA 151700Z 1518/1618 18005KT 9999 SCT012 BKN025"
    },
    {
      "icao": "LPPR",
      "alert": "OK",
      "vis_m": 7000,
      "fzfg": false,
      "metar_trigger": false,
      "taf_trigger": false,
      "metar": "METAR LPPR 152300Z 09003KT 050V120 7000 FEW016 FEW018TCU SCT028 10/09 Q1015",
      "taf": ""
    },
    {
      "icao": "LPPS",
      "alert": "OK",
      "vis_m": 8000,
      "fzfg": false,
      "metar_trigger": false,
      "taf_trigger": false,
      "metar": "METAR LPPS 152300Z 29013KT 8000 -RADZ SCT010 SCT030 16/15 Q1024 RERA",
      "taf": "TAF LPPS 151700Z 1518/1624 27012KT 9999 SCT015 BKN030"
    },
    {
      "icao": "LPPT",
      "alert": "OK",
      "vis_m": 9999,
      "fzfg": false,
      "metar_trigger": false,
      "taf_trigger": false,
      "metar": "METAR LPPT 152300Z 31003KT 9999 FEW015 11/10 Q1017",
      "taf": "TAF LPPT 151700Z 1518/1624 22015KT 2000 RADZ BR SCT002 BKN004"
    },
    {
      "icao": "LQBK",
      "alert": "OK",
      "vis_m": 9999,
      "fzfg": false,
      "metar_trigger": false,
      "taf_trigger": false,
      "metar": "METAR LQBK 152300Z VRB01KT CAVOK 04/02 Q1021 NOSIG",
      "taf": "TAF LQBK 152300Z 1600/1624 15005KT 9999 SCT047 TX09/1613Z TN02/1605Z"
    },
    {
      "icao": "LQSA",
      "alert": "OK",
      "vis_m": 3000,
      "fzfg": false,
      "metar_trigger": false,
      "taf_trigger": false,
      "metar": "METAR LQSA 152300Z VRB02KT 3000 BR OVC055 01/01 Q1023",
      "taf": "TAF LQSA 152300Z 1600/1624 VRB02KT 2000 BR SCT050 TX05/1614Z TNM03/1605Z"
    },
    {
      "icao": "LQTZ",
      "alert": "OK",
      "vis_m": 4000,
      "fzfg": false,
      "metar_trigger": false,
      "taf_trigger": false,
      "metar": "METAR LQTZ 152300Z 33003KT 4000 BR NSC 02/02 Q1022",
      "taf": "TAF LQTZ 152300Z 1600/1624 VRB02KT 6000 SCT050 TX09/1613Z TN00/1605Z"
    },
    {
      "icao": "LRBC",
      "alert": "OK",
      "vis_m": 5000,
      "fzfg": false,
      "metar_trigger": false,
      "taf_trigger": false,
      "metar": "METAR LRBC 152300Z 34006KT 5000 BR OVC010 M04/M06 Q1027",
      "taf": "TAF LRBC 152000Z 1521/1606 VRB04KT 5000 BR OVC010"
    },
    {
      "icao": "LRBS",
      "alert": "OK",
      "vis_m": 5000,
      "fzfg": false,
      "metar_trigger": false,
      "taf_trigger": false,
      "metar": "METAR LRBS 152300Z 05008KT 020V080 5000 BR FEW007 M01/M02 Q1025 NOSIG",
      "taf": "TAF LRBS 151700Z 1518/1618 06007KT 5000 BR NSC"
    },
    {
      "icao": "LRBV",
      "alert": "OK",
      "vis_m": 750,
      "fzfg": false,
      "metar_trigger": false,
      "taf_trigger": false,
      "metar": "METAR LRBV 152300Z AUTO 32002KT 0750 0650 R21/0900N UP VV004 01/00 Q1022",
      "taf": "TAF LRBV 152000Z 1521/1606 VRB04KT 5000 BR BKN005 OVC010"
    },
    {
      "icao": "LRCL",
      "alert": "OK",
      "vis_m": 3000,
      "fzfg": false,
      "metar_trigger": false,
      "taf_trigger": false,
      "metar": "METAR LRCL 152300Z 00000KT 3000 BR OVC005 01/M00 Q1023",
      "taf": "TAF LRCL 152000Z 1521/1606 VRB04KT 2000 -DZ BR OVC005"
    },
    {
      "icao": "LRCV",
      "alert": "OK",
      "vis_m": 4000,
      "fzfg": false,
      "metar_trigger": false,
      "taf_trigger": false,
      "metar": "METAR LRCV 152300Z 08006KT 4000 BR NSC M01/M01 Q1024",
      "taf": "TAF LRCV 152000Z 1521/1606 10010KT 5000 BR NSC"
    },
    {
      "icao": "LRIA",
      "alert": "OK",
      "vis_m": 9000,
      "fzfg": false,
      "metar_trigger": false,
      "taf_trigger": false,
      "metar": "METAR LRIA 152300Z 02007KT 9000 -SN OVC008 M07/M09 Q1028",
      "taf": "TAF LRIA 152000Z 1521/1606 02006KT 5000 BR SCT010 OVC035"
    },
    {
      "icao": "LROP",
      "alert": "OK",
      "vis_m": 4500,
      "fzfg": false,
      "metar_trigger": false,
      "taf_trigger": false,
      "metar": "METAR LROP 152300Z 05009KT 4500 BR NSC M01/M02 Q1025 NOSIG",
      "taf": "TAF LROP 151700Z 1518/1618 06007KT 5000 BR NSC"
    },
    {
      "icao": "LRSB",
      "alert": "OK",
      "vis_m": 350,
      "fzfg": false,
      "metar_trigger": false,
      "taf_trigger": false,
      "metar": "METAR LRSB 152300Z 36003KT 0350 R27/0650N -DZ FG FEW001 OVC002 01/01 Q1022",
      "taf": "TAF LRSB 151700Z 1518/1618 VRB04KT 1500 BR BKN005 OVC010"
    },
    {
      "icao": "LRSM",
      "alert": "OK",
      "vis_m": 6000,
      "fzfg": false,
      "metar_trigger": false,
      "taf_trigger": false,
      "metar": "METAR LRSM 152300Z AUTO 09004KT 6000 BKN013/// OVC045/// 01/M00 Q1024",
      "taf": "TAF LRSM 151400Z 1515/1524 VRB04KT 5000 BR BKN005"
    },
    {
      "icao": "LRSV",
      "alert": "OK",
      "vis_m": 2500,
      "fzfg": false,
      "metar_trigger": false,
      "taf_trigger": false,
      "metar": "METAR LRSV 152300Z 07007KT 2500 BR OVC002 M09/M10 Q1025",
      "taf": "TAF LRSV 152000Z 1521/1606 08007KT 1500 BR BKN002"
    },
    {
      "icao": "LRTM",
      "alert": "OK",
      "vis_m": 5000,
      "fzfg": false,
      "metar_trigger": false,
      "taf_trigger": false,
      "metar": "METAR LRTM 152300Z AUTO 05004KT 5000 BR OVC008/// 01/M00 Q1024",
      "taf": "TAF LRTM 151400Z 1515/1524 VRB04KT 3000 BR SCT010 BKN030"
    },
    {
      "icao": "LRTR",
      "alert": "OK",
      "vis_m": 4000,
      "fzfg": false,
      "metar_trigger": false,
      "taf_trigger": false,
      "metar": "METAR LRTR 152300Z 11005KT 4000 -RA BR BKN045 01/01 Q1022",
      "taf": "TAF LRTR 151700Z 1518/1618 10006KT 5000 BR NSC"
    },
    {
      "icao": "LTAC",
      "alert": "OK",
      "vis_m": 9999,
      "fzfg": false,
      "metar_trigger": false,
      "taf_trigger": false,
      "metar": "METAR LTAC 152250Z 20006KT 170V230 9999 SCT015 SCT030 BKN080 03/M00 Q1022 NOSIG RMK RWY21C 20008KT RWY03L 20005KT RWY21R 20008KT RWY03R 17006KT RWY21L 20006KT",
      "taf": "TAF LTAC 152240Z 1600/1624 21008KT 9999 SCT035 BKN100"
    },
    {
      "icao": "LTFM",
      "alert": "OK",
      "vis_m": 9999,
      "fzfg": false,
      "metar_trigger": false,
      "taf_trigger": false,
      "metar": "METAR LTFM 152250Z 24005KT 9999 SCT025 BKN070 09/07 Q1023 NOSIG RMK RWY17L 23007G17KT RWY34L 23004KT RWY16R 23006KT RWY36 24008KT RWY18 24008KT",
      "taf": "TAF LTFM 152240Z 1600/1706 VRB02KT 9999 SCT025 BKN070"
    },
    {
      "icao": "LUKK",
      "alert": "OK",
      "vis_m": 9999,
      "fzfg": false,
      "metar_trigger": false,
      "taf_trigger": false,
      "metar": "METAR LUKK 152300Z 02009KT CAVOK M13/M15 Q1029 NOSIG",
      "taf": "TAF LUKK 151717Z 1518/1618 01009KT CAVOK"
    },
    {
      "icao": "LWOH",
      "alert": "OK",
      "vis_m": null,
      "fzfg": false,
      "metar_trigger": false,
      "taf_trigger": false,
      "metar": "",
      "taf": "TAF LWOH 152025Z 1521/1621 VRB02KT 9999 FEW040"
    },
    {
      "icao": "LWSK",
      "alert": "OK",
      "vis_m": 5000,
      "fzfg": false,
      "metar_trigger": false,
      "taf_trigger": false,
      "metar": "METAR LWSK 152250Z VRB01KT 5000 BR NSC M02/M03 Q1025 NOSIG",
      "taf": "TAF LWSK 152025Z 1521/1621 VRB02KT CAVOK"
    },
    {
      "icao": "LYBE",
      "alert": "OK",
      "vis_m": 5000,
      "fzfg": false,
      "metar_trigger": false,
      "taf_trigger": false,
      "metar": "METAR LYBE 152300Z 12003KT 5000 BR NSC 04/02 Q1022 NOSIG",
      "taf": "TAF LYBE 151700Z 1518/1618 06004KT 8000 NSC TX08/1613Z TN02/1606Z"
    },
    {
      "icao": "LYNI",
      "alert": "OK",
      "vis_m": 9999,
      "fzfg": false,
      "metar_trigger": false,
      "taf_trigger": false,
      "metar": "METAR LYNI 152300Z VRB02KT 9999 BKN070 05/04 Q1023 NOSIG",
      "taf": "TAF LYNI 151700Z 1518/1618 11004KT 6000 BKN060 TX07/1612Z TN01/1606Z"
    },
    {
      "icao": "LYPG",
      "alert": "OK",
      "vis_m": 9999,
      "fzfg": false,
      "metar_trigger": false,
      "taf_trigger": false,
      "metar": "METAR LYPG 152300Z VRB02KT 9999 -RA FEW036 BKN050 08/06 Q1024 NOSIG",
      "taf": "TAF LYPG 151700Z 1518/1618 VRB02KT 9999 SCT040 BKN080 TX14/1613Z TN05/1605Z"
    },
    {
      "icao": "LZIB",
      "alert": "OK",
      "vis_m": 1600,
      "fzfg": false,
      "metar_trigger": false,
      "taf_trigger": false,
      "metar": "METAR LZIB 152300Z 06007KT 1600 -FZDZ BR BKN002 OVC003 M00/M01 Q1022 NOSIG",
      "taf": ""
    },
    {
      "icao": "LZKZ",
      "alert": "OK",
      "vis_m": 5000,
      "fzfg": false,
      "metar_trigger": false,
      "taf_trigger": false,
      "metar": "METAR LZKZ 152300Z 36003KT 5000 -RA BR OVC022 00/M01 Q1023 NOSIG",
      "taf": ""
    },
    {
      "icao": "LZTT",
      "alert": "OK",
      "vis_m": 6000,
      "fzfg": false,
      "metar_trigger": false,
      "taf_trigger": false,
      "metar": "METAR LZTT 152300Z 00000KT 6000 OVC008 00/M01 Q1020",
      "taf": ""
    },
    {
      "icao": "OEJN",
      "alert": "OK",
      "vis_m": 9999,
      "fzfg": false,
      "metar_trigger": false,
      "taf_trigger": false,
      "metar": "METAR OEJN 152300Z 06006KT 9999 FEW040 24/09 Q1014 NOSIG",
      "taf": "TAF OEJN 151700Z 1518/1624 34010KT 7000 FEW040"
    },
    {
      "icao": "OEMA",
      "alert": "OK",
      "vis_m": 9999,
      "fzfg": false,
      "metar_trigger": false,
      "taf_trigger": false,
      "metar": "METAR OEMA 152300Z 02004KT CAVOK 14/M03 Q1023 NOSIG",
      "taf": "TAF OEMA 151700Z 1518/1624 09012KT 7000 NSC"
    },
    {
      "icao": "OJAI",
      "alert": "OK",
      "vis_m": 1500,
      "fzfg": false,
      "metar_trigger": false,
      "taf_trigger": false,
      "metar": "METAR OJAI 152300Z 33003KT 1500 BR NSC 03/02 Q1025 NOSIG",
      "taf": "TAF OJAI 151653Z 1518/1624 29008KT 5000 HZ FEW030"
    },
    {
      "icao": "OMAA",
      "alert": "OK",
      "vis_m": 9999,
      "fzfg": false,
      "metar_trigger": false,
      "taf_trigger": false,
      "metar": "METAR OMAA 152300Z 31012KT 9999 FEW035 20/12 Q1017 NOSIG",
      "taf": "TAF OMAA 152300Z 1600/1706 32012KT 8000 FEW030"
    },
    {
      "icao": "OMDB",
      "alert": "OK",
      "vis_m": 9999,
      "fzfg": false,
      "metar_trigger": false,
      "taf_trigger": false,
      "metar": "METAR OMDB 152300Z 28013KT CAVOK 21/11 Q1017 NOSIG",
      "taf": "TAF OMDB 152300Z 1600/1706 29013KT 8000 FEW030"
    },
    {
      "icao": "UAAA",
      "alert": "OK",
      "vis_m": 2300,
      "fzfg": false,
      "metar_trigger": false,
      "taf_trigger": false,
      "metar": "METAR UAAA 152300Z 34001MPS 2300 BR OVC003 M08/M09 Q1019 NOSIG RMK QBB110",
      "taf": "TAF UAAA 151703Z 1518/1618 32003G08MPS 1600 BR FU FEW004 BKN011CB OVC020 TXM08/1608Z TNM11/1603Z"
    },
    {
      "icao": "UBBB",
      "alert": "OK",
      "vis_m": 9999,
      "fzfg": false,
      "metar_trigger": false,
      "taf_trigger": false,
      "metar": "METAR UBBB 152300Z 16006KT 9999 BKN031 02/M01 Q1022 NOSIG",
      "taf": "TAF UBBB 152302Z 1600/1624 17008KT 9999 SCT030 TX07/1610Z TNM00/1602Z"
    },
    {
      "icao": "UDSG",
      "alert": "OK",
      "vis_m": 9999,
      "fzfg": false,
      "metar_trigger": false,
      "taf_trigger": false,
      "metar": "METAR UDSG 152300Z 04002KT 9999 NSC M17/M20 Q1019 NOSIG",
      "taf": "TAF UDSG 151658Z 1518/1618 VRB06KT 9999 FEW040"
    },
    {
      "icao": "UDYZ",
      "alert": "OK",
      "vis_m": 9999,
      "fzfg": false,
      "metar_trigger": false,
      "taf_trigger": false,
      "metar": "METAR UDYZ 152300Z 11003KT 9999 NSC M06/M10 Q1022 NOSIG",
      "taf": "TAF UDYZ 151700Z 1518/1618 VRB04KT 6000 NSC"
    },
    {
      "icao": "UGKO",
      "alert": "OK",
      "vis_m": 9999,
      "fzfg": false,
      "metar_trigger": false,
      "taf_trigger": false,
      "metar": "METAR UGKO 152300Z 11010KT 9999 SCT084 01/M03 Q1021 NOSIG",
      "taf": "TAF UGKO 152300Z 1600/1624 08007KT 9999 BKN050 TX02/1612Z TNM01/1601Z"
    }
  ]
}