{
  "ts_utc": "2026-04-05T23:48:06Z",
  "threshold_m": 150,
  "source": "stations_override.txt (ICAO list) + aviationweather.gov (METAR/TAF raw)",
  "station_count": 159,
  "stations": [
    {
      "icao": "BIKF",
      "alert": "OK",
      "vis_m": 9999,
      "fzfg": false,
      "metar_trigger": false,
      "taf_trigger": false,
      "metar": "METAR BIKF 052330Z 09009KT 9999 FEW013 SCT029 BKN060 01/M00 Q1008",
      "taf": "TAF BIKF 052217Z 0600/0700 07006KT 9999 FEW030 TX06/0624Z TNM01/0600Z"
    },
    {
      "icao": "BKPR",
      "alert": "OK",
      "vis_m": 9999,
      "fzfg": false,
      "metar_trigger": false,
      "taf_trigger": false,
      "metar": "METAR BKPR 052330Z 30004KT CAVOK 07/05 Q1024 NOSIG",
      "taf": "TAF BKPR 052330Z 0600/0624 34006KT 9999 FEW040"
    },
    {
      "icao": "EBCI",
      "alert": "OK",
      "vis_m": 9999,
      "fzfg": false,
      "metar_trigger": false,
      "taf_trigger": false,
      "metar": "METAR EBCI 052320Z 23007KT CAVOK 06/02 Q1026 NOSIG",
      "taf": "TAF EBCI 052315Z 0600/0706 23010KT CAVOK"
    },
    {
      "icao": "EDDB",
      "alert": "OK",
      "vis_m": 9999,
      "fzfg": false,
      "metar_trigger": false,
      "taf_trigger": false,
      "metar": "METAR EDDB 052320Z AUTO 25009KT 9999 FEW037 06/05 Q1017 NOSIG",
      "taf": "TAF EDDB 052300Z 0600/0624 27015KT 9999 FEW035"
    },
    {
      "icao": "EDDH",
      "alert": "OK",
      "vis_m": 9999,
      "fzfg": false,
      "metar_trigger": false,
      "taf_trigger": false,
      "metar": "METAR EDDH 052320Z AUTO 25009KT 230V290 9999 -SHRA FEW025 SCT042 FEW///CB 07/04 Q1018 TEMPO 26015G25KT",
      "taf": "TAF EDDH 052300Z 0600/0706 26011KT 9999 SCT030"
    },
    {
      "icao": "EDDK",
      "alert": "OK",
      "vis_m": 9999,
      "fzfg": false,
      "metar_trigger": false,
      "taf_trigger": false,
      "metar": "METAR EDDK 052320Z AUTO 27009KT 9999 FEW048 08/03 Q1025 NOSIG",
      "taf": "TAF EDDK 052300Z 0600/0706 VRB03KT CAVOK"
    },
    {
      "icao": "EDDN",
      "alert": "OK",
      "vis_m": 9999,
      "fzfg": false,
      "metar_trigger": false,
      "taf_trigger": false,
      "metar": "METAR EDDN 052320Z AUTO 33011KT 9999 SCT036 SCT047 11/04 Q1023",
      "taf": "TAF EDDN 052300Z 0600/0624 29007KT CAVOK"
    },
    {
      "icao": "EDDS",
      "alert": "OK",
      "vis_m": 9999,
      "fzfg": false,
      "metar_trigger": false,
      "taf_trigger": false,
      "metar": "METAR EDDS 052320Z AUTO 26005KT 230V290 9999 BKN033 BKN043 11/06 Q1024",
      "taf": "TAF EDDS 052300Z 0600/0624 29005KT CAVOK"
    },
    {
      "icao": "EDFH",
      "alert": "OK",
      "vis_m": 9999,
      "fzfg": false,
      "metar_trigger": false,
      "taf_trigger": false,
      "metar": "METAR EDFH 052320Z 28006KT CAVOK 06/M00 Q1024",
      "taf": "TAF EDFH 052300Z 0600/0624 28005KT CAVOK"
    },
    {
      "icao": "EDJA",
      "alert": "OK",
      "vis_m": 9999,
      "fzfg": false,
      "metar_trigger": false,
      "taf_trigger": false,
      "metar": "METAR EDJA 052320Z AUTO 23004KT 200V260 9999 // OVC067/// 10/07 Q1025",
      "taf": "TAF EDJA 051700Z 0518/0603 25010KT CAVOK"
    },
    {
      "icao": "EDLW",
      "alert": "OK",
      "vis_m": 9999,
      "fzfg": false,
      "metar_trigger": false,
      "taf_trigger": false,
      "metar": "METAR EDLW 052320Z AUTO 25006KT 220V290 9999 // FEW026/// BKN044/// OVC062/// 07/01 Q1024",
      "taf": "TAF EDLW 051700Z 0518/0618 24008KT 9999 SCT035"
    },
    {
      "icao": "EDNY",
      "alert": "OK",
      "vis_m": 9999,
      "fzfg": false,
      "metar_trigger": false,
      "taf_trigger": false,
      "metar": "METAR EDNY 052320Z AUTO VRB02KT 9999 // SCT062/// BKN085/// OVC100/// 12/10 Q1025",
      "taf": "TAF EDNY 051700Z 0518/0603 25008KT CAVOK"
    },
    {
      "icao": "EDSB",
      "alert": "OK",
      "vis_m": 9999,
      "fzfg": false,
      "metar_trigger": false,
      "taf_trigger": false,
      "metar": "METAR EDSB 052320Z AUTO 34003KT 300V010 9999 // BKN045/// BKN140/// 12/07 Q1026",
      "taf": "TAF EDSB 052300Z 0600/0624 VRB03KT CAVOK"
    },
    {
      "icao": "EETN",
      "alert": "OK",
      "vis_m": 9999,
      "fzfg": false,
      "metar_trigger": false,
      "taf_trigger": false,
      "metar": "METAR EETN 052320Z 19011KT CAVOK 04/01 Q0994",
      "taf": "TAF EETN 051730Z 0518/0618 19012KT 9999 SCT015 OVC035"
    },
    {
      "icao": "EFTU",
      "alert": "OK",
      "vis_m": 9999,
      "fzfg": false,
      "metar_trigger": false,
      "taf_trigger": false,
      "metar": "METAR EFTU 052320Z AUTO 21013G24KT 170V240 9999 OVC028 04/00 Q0987",
      "taf": "TAF EFTU 052334Z 0600/0624 20015G27KT 9999 BKN025"
    },
    {
      "icao": "EGBB",
      "alert": "OK",
      "vis_m": 9999,
      "fzfg": false,
      "metar_trigger": false,
      "taf_trigger": false,
      "metar": "METAR EGBB 052320Z 23003KT CAVOK 02/M01 Q1025",
      "taf": "TAF EGBB 052255Z 0600/0624 23003KT 9999 FEW030"
    },
    {
      "icao": "EGGP",
      "alert": "OK",
      "vis_m": 9999,
      "fzfg": false,
      "metar_trigger": false,
      "taf_trigger": false,
      "metar": "METAR EGGP 052320Z 16005KT CAVOK 03/01 Q1023",
      "taf": "TAF EGGP 052256Z 0600/0624 VRB03KT 9999 FEW040"
    },
    {
      "icao": "EGGW",
      "alert": "OK",
      "vis_m": 9999,
      "fzfg": false,
      "metar_trigger": false,
      "taf_trigger": false,
      "metar": "METAR EGGW 052320Z AUTO 27008KT 9999 NCD 04/00 Q1025",
      "taf": "TAF EGGW 052255Z 0600/0624 25005KT 9999 FEW035"
    },
    {
      "icao": "EGKK",
      "alert": "OK",
      "vis_m": 9999,
      "fzfg": false,
      "metar_trigger": false,
      "taf_trigger": false,
      "metar": "METAR EGKK 052320Z 21003KT CAVOK 05/M01 Q1026",
      "taf": "TAF EGKK 052300Z 0600/0706 VRB03KT 9999 FEW045"
    },
    {
      "icao": "EGNM",
      "alert": "OK",
      "vis_m": 9999,
      "fzfg": false,
      "metar_trigger": false,
      "taf_trigger": false,
      "metar": "METAR EGNM 052320Z 24007KT CAVOK 02/M01 Q1022",
      "taf": "TAF EGNM 052255Z 0600/0624 23010KT 9999 FEW035"
    },
    {
      "icao": "EGPD",
      "alert": "OK",
      "vis_m": 9999,
      "fzfg": false,
      "metar_trigger": false,
      "taf_trigger": false,
      "metar": "METAR EGPD 052320Z COR AUTO 25008KT 9999 NCD 03/M03 Q1016 NOSIG",
      "taf": "TAF EGPD 052253Z 0600/0624 24008KT CAVOK"
    },
    {
      "icao": "EGPF",
      "alert": "OK",
      "vis_m": 9999,
      "fzfg": false,
      "metar_trigger": false,
      "taf_trigger": false,
      "metar": "METAR EGPF 052320Z AUTO 30005KT 240V340 9999 NCD 02/00 Q1020",
      "taf": "TAF EGPF 052256Z 0600/0624 VRB03KT 9999 FEW030"
    },
    {
      "icao": "EHBK",
      "alert": "OK",
      "vis_m": 9999,
      "fzfg": false,
      "metar_trigger": false,
      "taf_trigger": false,
      "metar": "METAR EHBK 052325Z AUTO 24004KT 210V290 9999 NSC 06/03 Q1025",
      "taf": "TAF EHBK 052252Z 0600/0706 22005KT CAVOK"
    },
    {
      "icao": "EHEH",
      "alert": "OK",
      "vis_m": 9999,
      "fzfg": false,
      "metar_trigger": false,
      "taf_trigger": false,
      "metar": "METAR EHEH 052325Z AUTO 23003KT 9999 OVC330 05/03 Q1025 BLU",
      "taf": "TAF EHEH 051757Z 0518/0624 25012KT 9999 FEW035"
    },
    {
      "icao": "EKBI",
      "alert": "OK",
      "vis_m": 9999,
      "fzfg": false,
      "metar_trigger": false,
      "taf_trigger": false,
      "metar": "METAR EKBI 052320Z AUTO 27017KT 9999 BKN021/// 05/02 Q1013",
      "taf": "TAF EKBI 052327Z 0600/0624 25018KT 9999 BKN035"
    },
    {
      "icao": "EKCH",
      "alert": "OK",
      "vis_m": 9999,
      "fzfg": false,
      "metar_trigger": false,
      "taf_trigger": false,
      "metar": "METAR EKCH 052320Z AUTO 26020KT 9999 FEW031/// BKN099/// BKN160/// 06/01 Q1010 TEMPO 26018KT",
      "taf": "TAF EKCH 052327Z 0600/0624 25020G35KT 9999 FEW045"
    },
    {
      "icao": "ENAL",
      "alert": "OK",
      "vis_m": 9999,
      "fzfg": false,
      "metar_trigger": false,
      "taf_trigger": false,
      "metar": "METAR ENAL 052320Z AUTO 27016KT 240V300 9999 FEW025/// SCT034/// BKN050/// 04/02 Q0996",
      "taf": "TAF ENAL 052300Z 0600/0609 27015KT 9999 FEW015 BKN030"
    },
    {
      "icao": "ENBR",
      "alert": "OK",
      "vis_m": 9999,
      "fzfg": false,
      "metar_trigger": false,
      "taf_trigger": false,
      "metar": "METAR ENBR 052320Z 26011G23KT 220V300 9999 FEW035 05/M00 Q1002 RMK WIND 1200FT 28022KT",
      "taf": "TAF ENBR 052300Z 0600/0624 27012KT 9999 FEW015 SCT030"
    },
    {
      "icao": "ENGM",
      "alert": "OK",
      "vis_m": 9999,
      "fzfg": false,
      "metar_trigger": false,
      "taf_trigger": false,
      "metar": "METAR ENGM 052320Z 29006KT 210V360 CAVOK 03/M06 Q0992",
      "taf": "TAF ENGM 052300Z 0600/0624 26008KT CAVOK"
    },
    {
      "icao": "ENHD",
      "alert": "OK",
      "vis_m": 9999,
      "fzfg": false,
      "metar_trigger": false,
      "taf_trigger": false,
      "metar": "METAR ENHD 052320Z AUTO 27024KT 9999 NCD 05/01 Q1005",
      "taf": ""
    },
    {
      "icao": "ENTC",
      "alert": "OK",
      "vis_m": 9999,
      "fzfg": false,
      "metar_trigger": false,
      "taf_trigger": false,
      "metar": "METAR ENTC 052320Z AUTO 03004KT 9999 NCD M02/M05 Q0996 RMK WIND 2600FT 18020KT",
      "taf": "TAF ENTC 052300Z 0600/0624 VRB03KT CAVOK"
    },
    {
      "icao": "ENTO",
      "alert": "OK",
      "vis_m": 9999,
      "fzfg": false,
      "metar_trigger": false,
      "taf_trigger": false,
      "metar": "METAR ENTO 052320Z AUTO 25010KT 220V280 9999 NCD 05/M04 Q0997",
      "taf": "TAF ENTO 052300Z 0600/0624 26010KT CAVOK"
    },
    {
      "icao": "ENVA",
      "alert": "OK",
      "vis_m": 9999,
      "fzfg": false,
      "metar_trigger": false,
      "taf_trigger": false,
      "metar": "METAR ENVA 052320Z 26016KT 9999 -RA BKN009 OVC013 02/02 Q0990 RMK WIND 670FT 27015KT",
      "taf": "TAF ENVA 052300Z 0600/0624 28012KT 9999 SCT010 BKN020"
    },
    {
      "icao": "ENZV",
      "alert": "OK",
      "vis_m": 9999,
      "fzfg": false,
      "metar_trigger": false,
      "taf_trigger": false,
      "metar": "METAR ENZV 052320Z 28016KT 9999 FEW025CB 05/01 Q1005",
      "taf": "TAF ENZV 052300Z 0600/0624 29018KT 9999 FEW020 SCT035"
    },
    {
      "icao": "EPGD",
      "alert": "OK",
      "vis_m": 9999,
      "fzfg": false,
      "metar_trigger": false,
      "taf_trigger": false,
      "metar": "METAR EPGD 052330Z 27017G27KT 9999 FEW030 05/01 Q1010",
      "taf": "TAF EPGD 052330Z 0600/0624 27012KT 9999 BKN035"
    },
    {
      "icao": "EPKK",
      "alert": "OK",
      "vis_m": 9999,
      "fzfg": false,
      "metar_trigger": false,
      "taf_trigger": false,
      "metar": "METAR EPKK 052330Z 34007KT 310V010 CAVOK 13/07 Q1016",
      "taf": "TAF EPKK 052330Z 0600/0624 34008KT 9999 BKN040"
    },
    {
      "icao": "EPKT",
      "alert": "OK",
      "vis_m": 9999,
      "fzfg": false,
      "metar_trigger": false,
      "taf_trigger": false,
      "metar": "METAR EPKT 052330Z 33006KT 9999 FEW006 SCT028 09/07 Q1017 RESHRA",
      "taf": "TAF EPKT 052330Z 0600/0624 33010KT 9999 BKN025"
    },
    {
      "icao": "EPLB",
      "alert": "OK",
      "vis_m": 7000,
      "fzfg": false,
      "metar_trigger": false,
      "taf_trigger": false,
      "metar": "METAR EPLB 052330Z 32013KT 7000 -SHRA FEW007 BKN011 BKN052CB 11/09 Q1014 RESHRA",
      "taf": "TAF EPLB 052330Z 0600/0624 25005KT CAVOK"
    },
    {
      "icao": "EPMO",
      "alert": "OK",
      "vis_m": 9999,
      "fzfg": false,
      "metar_trigger": false,
      "taf_trigger": false,
      "metar": "METAR EPMO 052330Z 19006KT 9999 FEW042 07/06 Q1014",
      "taf": "TAF EPMO 052330Z 0600/0624 VRB04KT CAVOK"
    },
    {
      "icao": "EPPO",
      "alert": "OK",
      "vis_m": 9999,
      "fzfg": false,
      "metar_trigger": false,
      "taf_trigger": false,
      "metar": "METAR EPPO 052330Z 25008KT CAVOK 08/06 Q1015",
      "taf": "TAF EPPO 052330Z 0600/0624 26010KT 9999 SCT030"
    },
    {
      "icao": "EPRA",
      "alert": "OK",
      "vis_m": 9999,
      "fzfg": false,
      "metar_trigger": false,
      "taf_trigger": false,
      "metar": "METAR EPRA 052330Z 32005KT 270V350 9999 -RA SCT042 09/07 Q1015",
      "taf": "TAF EPRA 052330Z 0600/0609 31010KT 9999 BKN040"
    },
    {
      "icao": "EPRZ",
      "alert": "OK",
      "vis_m": 9999,
      "fzfg": false,
      "metar_trigger": false,
      "taf_trigger": false,
      "metar": "METAR EPRZ 052330Z 24016G26KT CAVOK 16/05 Q1014",
      "taf": "TAF EPRZ 052330Z 0600/0624 28014KT CAVOK"
    },
    {
      "icao": "EPSC",
      "alert": "OK",
      "vis_m": 9999,
      "fzfg": false,
      "metar_trigger": false,
      "taf_trigger": false,
      "metar": "METAR EPSC 052330Z 27013KT CAVOK 08/01 Q1014",
      "taf": "TAF EPSC 052330Z 0600/0624 27012KT 9999 BKN045"
    },
    {
      "icao": "EPSY",
      "alert": "OK",
      "vis_m": 9999,
      "fzfg": false,
      "metar_trigger": false,
      "taf_trigger": false,
      "metar": "METAR EPSY 052300Z 20006KT CAVOK 05/04 Q1012",
      "taf": "TAF EPSY 052330Z 0600/0609 20006KT CAVOK"
    },
    {
      "icao": "EPWA",
      "alert": "OK",
      "vis_m": 9999,
      "fzfg": false,
      "metar_trigger": false,
      "taf_trigger": false,
      "metar": "METAR EPWA 052330Z 22004KT 9999 FEW047 08/06 Q1014 NOSIG",
      "taf": "TAF EPWA 052330Z 0600/0624 VRB04KT CAVOK"
    },
    {
      "icao": "EPWR",
      "alert": "OK",
      "vis_m": 9999,
      "fzfg": false,
      "metar_trigger": false,
      "taf_trigger": false,
      "metar": "METAR EPWR 052330Z 25011KT CAVOK 11/05 Q1017",
      "taf": "TAF EPWR 052330Z 0600/0624 27012KT CAVOK"
    },
    {
      "icao": "ESGG",
      "alert": "OK",
      "vis_m": 9999,
      "fzfg": false,
      "metar_trigger": false,
      "taf_trigger": false,
      "metar": "METAR ESGG 052320Z 27020G39KT 9999 BKN021 04/00 Q1001",
      "taf": "TAF ESGG 052330Z 0600/0624 25022G38KT 9999 BKN020"
    },
    {
      "icao": "ESKN",
      "alert": "OK",
      "vis_m": 9999,
      "fzfg": false,
      "metar_trigger": false,
      "taf_trigger": false,
      "metar": "METAR ESKN 052320Z 25020KT 9999 FEW011 SCT014 BKN019 04/03 Q0988",
      "taf": "TAF ESKN 052330Z 0600/0624 22017G35KT 9999 FEW011 SCT014 BKN020"
    },
    {
      "icao": "ESMS",
      "alert": "OK",
      "vis_m": 9999,
      "fzfg": false,
      "metar_trigger": false,
      "taf_trigger": false,
      "metar": "METAR ESMS 052320Z 26017KT 9999 BKN042 06/01 Q1009",
      "taf": "TAF ESMS 052327Z 0600/0624 25020G32KT 9999 FEW035"
    },
    {
      "icao": "ESSA",
      "alert": "OK",
      "vis_m": 9999,
      "fzfg": false,
      "metar_trigger": false,
      "taf_trigger": false,
      "metar": "METAR ESSA 052320Z 23015KT 9999 BKN011 04/02 Q0984 TEMPO BKN008",
      "taf": "TAF ESSA 052330Z 0600/0624 22020G32KT 9999 -RA BKN015"
    },
    {
      "icao": "EYKA",
      "alert": "OK",
      "vis_m": 9999,
      "fzfg": false,
      "metar_trigger": false,
      "taf_trigger": false,
      "metar": "METAR EYKA 052320Z AUTO 27012KT 9999 NCD 07/02 Q1008",
      "taf": "TAF EYKA 052301Z 0600/0624 25011KT 9000 NSC"
    },
    {
      "icao": "EYPA",
      "alert": "OK",
      "vis_m": 9999,
      "fzfg": false,
      "metar_trigger": false,
      "taf_trigger": false,
      "metar": "METAR EYPA 052320Z AUTO 24009G20KT 200V280 9999 NCD 04/02 Q1005",
      "taf": "TAF EYPA 052301Z 0600/0624 27012G22KT 9000 NSC"
    },
    {
      "icao": "EYVI",
      "alert": "OK",
      "vis_m": 9999,
      "fzfg": false,
      "metar_trigger": false,
      "taf_trigger": false,
      "metar": "METAR EYVI 052320Z 22006KT CAVOK 06/02 Q1007 NOSIG",
      "taf": "TAF EYVI 052300Z 0600/0624 24010KT 9000 SCT020"
    },
    {
      "icao": "GCFV",
      "alert": "OK",
      "vis_m": 9999,
      "fzfg": false,
      "metar_trigger": false,
      "taf_trigger": false,
      "metar": "METAR GCFV 052330Z AUTO 35012KT CAVOK 20/12 Q1013",
      "taf": ""
    },
    {
      "icao": "GCLP",
      "alert": "OK",
      "vis_m": 9999,
      "fzfg": false,
      "metar_trigger": false,
      "taf_trigger": false,
      "metar": "METAR GCLP 052330Z 02017KT 9999 FEW020 19/15 Q1014 NOSIG",
      "taf": "TAF GCLP 052000Z 0521/0621 03015KT CAVOK TX23/0614Z TN17/0606Z"
    },
    {
      "icao": "GCTS",
      "alert": "OK",
      "vis_m": 9999,
      "fzfg": false,
      "metar_trigger": false,
      "taf_trigger": false,
      "metar": "METAR GCTS 052330Z 00000KT CAVOK 18/15 Q1015 NOSIG",
      "taf": "TAF GCTS 052000Z 0521/0621 10013KT CAVOK TX23/0614Z TN16/0606Z"
    },
    {
      "icao": "GMAD",
      "alert": "OK",
      "vis_m": 9999,
      "fzfg": false,
      "metar_trigger": false,
      "taf_trigger": false,
      "metar": "METAR GMAD 052330Z 10012G24KT 9999 SCT030 BKN080 26/10 Q1017 NOSIG",
      "taf": "TAF GMAD 052300Z 0600/0706 08006KT 8000 SCT026 BKN080"
    },
    {
      "icao": "GMMN",
      "alert": "OK",
      "vis_m": 9999,
      "fzfg": false,
      "metar_trigger": false,
      "taf_trigger": false,
      "metar": "METAR GMMN 052330Z 14006KT CAVOK 17/11 Q1018 NOSIG",
      "taf": "TAF GMMN 052300Z 0600/0706 14008KT CAVOK"
    },
    {
      "icao": "GMMX",
      "alert": "OK",
      "vis_m": 8000,
      "fzfg": false,
      "metar_trigger": false,
      "taf_trigger": false,
      "metar": "METAR GMMX 052330Z 33005KT 280V020 8000 BKN100 23/08 Q1019 NOSIG",
      "taf": "TAF GMMX 052300Z 0600/0706 36006KT 8000 SCT100"
    },
    {
      "icao": "HEGN",
      "alert": "OK",
      "vis_m": 9999,
      "fzfg": false,
      "metar_trigger": false,
      "taf_trigger": false,
      "metar": "METAR HEGN 052300Z 26004KT CAVOK 19/M03 Q1017 NOSIG",
      "taf": "TAF HEGN 052300Z 0600/0706 28006G18KT CAVOK"
    },
    {
      "icao": "HEMA",
      "alert": "OK",
      "vis_m": 9999,
      "fzfg": false,
      "metar_trigger": false,
      "taf_trigger": false,
      "metar": "METAR HEMA 052300Z 29013KT CAVOK 23/00 Q1016 NOSIG",
      "taf": "TAF HEMA 052300Z 0600/0706 30008G20KT CAVOK"
    },
    {
      "icao": "HESH",
      "alert": "OK",
      "vis_m": 9999,
      "fzfg": false,
      "metar_trigger": false,
      "taf_trigger": false,
      "metar": "METAR HESH 052300Z 32005KT CAVOK 20/03 Q1017 NOSIG",
      "taf": "TAF HESH 052300Z 0600/0706 32006G18KT CAVOK"
    },
    {
      "icao": "HESX",
      "alert": "OK",
      "vis_m": 9999,
      "fzfg": false,
      "metar_trigger": false,
      "taf_trigger": false,
      "metar": "METAR HESX 052300Z 33006KT CAVOK 13/11 Q1020 NOSIG",
      "taf": "TAF HESX 052300Z 0600/0706 33008KT CAVOK"
    },
    {
      "icao": "LATI",
      "alert": "OK",
      "vis_m": null,
      "fzfg": false,
      "metar_trigger": false,
      "taf_trigger": false,
      "metar": "",
      "taf": "TAF LATI 052300Z 0600/0624 VRB03KT CAVOK TX24/0611Z TN06/0604Z"
    },
    {
      "icao": "LBPD",
      "alert": "OK",
      "vis_m": 9999,
      "fzfg": false,
      "metar_trigger": false,
      "taf_trigger": false,
      "metar": "METAR LBPD 052330Z AUTO VRB01KT 9999 SCT081/// 10/04 Q1022",
      "taf": "TAF LBPD 052300Z 0600/0624 VRB03KT 9999 SCT060"
    },
    {
      "icao": "LBSF",
      "alert": "OK",
      "vis_m": 9999,
      "fzfg": false,
      "metar_trigger": false,
      "taf_trigger": false,
      "metar": "METAR LBSF 052330Z AUTO 13003KT 9999 NCD 06/04 Q1023 NOSIG",
      "taf": "TAF LBSF 052300Z 0600/0624 VRB03KT 9999 SCT070"
    },
    {
      "icao": "LBWN",
      "alert": "OK",
      "vis_m": 9999,
      "fzfg": false,
      "metar_trigger": false,
      "taf_trigger": false,
      "metar": "METAR LBWN 052330Z AUTO 01004KT 9999 NCD 07/03 Q1022 NOSIG",
      "taf": "TAF LBWN 052300Z 0600/0624 VRB03KT CAVOK"
    },
    {
      "icao": "LCLK",
      "alert": "OK",
      "vis_m": 9999,
      "fzfg": false,
      "metar_trigger": false,
      "taf_trigger": false,
      "metar": "METAR LCLK 052330Z 29005KT 9999 FEW030 11/11 Q1017 NOSIG",
      "taf": "TAF LCLK 052330Z 0600/0700 29006KT 9999 FEW025"
    },
    {
      "icao": "LCPH",
      "alert": "OK",
      "vis_m": 9999,
      "fzfg": false,
      "metar_trigger": false,
      "taf_trigger": false,
      "metar": "METAR LCPH 052330Z 07006KT 010V080 9999 FEW018 SCT025 12/10 Q1017 NOSIG",
      "taf": "TAF LCPH 052330Z 0600/0700 35008KT 9999 FEW025 FEW030TCU SCT040"
    },
    {
      "icao": "LEAL",
      "alert": "OK",
      "vis_m": 9999,
      "fzfg": false,
      "metar_trigger": false,
      "taf_trigger": false,
      "metar": "METAR LEAL 052330Z 02004KT 350V070 CAVOK 15/10 Q1025 NOSIG",
      "taf": "TAF LEAL 052300Z 0600/0624 01005KT CAVOK TX21/0612Z TN11/0606Z"
    },
    {
      "icao": "LEBB",
      "alert": "OK",
      "vis_m": 9999,
      "fzfg": false,
      "metar_trigger": false,
      "taf_trigger": false,
      "metar": "METAR LEBB 052330Z AUTO 12003KT 070V140 CAVOK 10/09 Q1024",
      "taf": "TAF LEBB 052300Z 0600/0624 13008KT 9999 SCT020 TX28/0615Z TN09/0603Z"
    },
    {
      "icao": "LEBL",
      "alert": "OK",
      "vis_m": 9999,
      "fzfg": false,
      "metar_trigger": false,
      "taf_trigger": false,
      "metar": "METAR LEBL 052330Z 24007KT CAVOK 14/11 Q1026 NOSIG",
      "taf": "TAF LEBL 052300Z 0600/0624 22007KT 9999 FEW010 TX21/0612Z TN11/0605Z"
    },
    {
      "icao": "LECH",
      "alert": "OK",
      "vis_m": 9999,
      "fzfg": false,
      "metar_trigger": false,
      "taf_trigger": false,
      "metar": "METAR LECH 052330Z AUTO 20006KT CAVOK 12/04 Q1026",
      "taf": "TAF LECH 052300Z 0600/0624 VRB03KT 9999 FEW020 TX23/0614Z TN10/0606Z"
    },
    {
      "icao": "LEMD",
      "alert": "OK",
      "vis_m": 9999,
      "fzfg": false,
      "metar_trigger": false,
      "taf_trigger": false,
      "metar": "METAR LEMD 052330Z VRB01KT CAVOK 12/05 Q1024 NOSIG",
      "taf": "TAF LEMD 052300Z 0600/0706 VRB04KT CAVOK TX27/0616Z TN09/0606Z"
    },
    {
      "icao": "LEMG",
      "alert": "OK",
      "vis_m": 9999,
      "fzfg": false,
      "metar_trigger": false,
      "taf_trigger": false,
      "metar": "METAR LEMG 052330Z 28008KT CAVOK 13/05 Q1024 NOSIG",
      "taf": "TAF LEMG 052300Z 0600/0624 28006KT CAVOK TX22/0614Z TN10/0606Z"
    },
    {
      "icao": "LEVC",
      "alert": "OK",
      "vis_m": 9999,
      "fzfg": false,
      "metar_trigger": false,
      "taf_trigger": false,
      "metar": "METAR LEVC 052330Z 33006KT CAVOK 13/07 Q1026 NOSIG",
      "taf": "TAF LEVC 052300Z 0600/0624 VRB03KT 9999 FEW015 TX22/0614Z TN10/0606Z"
    },
    {
      "icao": "LEXJ",
      "alert": "OK",
      "vis_m": 7000,
      "fzfg": false,
      "metar_trigger": false,
      "taf_trigger": false,
      "metar": "METAR LEXJ 052330Z AUTO 11003KT 080V140 7000 NSC 11/09 Q1023",
      "taf": "TAF LEXJ 052000Z 0521/0621 04006KT 9999 SCT020 TX30/0614Z TN10/0606Z"
    },
    {
      "icao": "LEZG",
      "alert": "OK",
      "vis_m": 9999,
      "fzfg": false,
      "metar_trigger": false,
      "taf_trigger": false,
      "metar": "METAR LEZG 052330Z 11005KT CAVOK 16/08 Q1023 NOSIG",
      "taf": "TAF LEZG 052300Z 0600/0624 09006KT CAVOK TX29/0614Z TN12/0606Z"
    },
    {
      "icao": "LEZL",
      "alert": "OK",
      "vis_m": 9999,
      "fzfg": false,
      "metar_trigger": false,
      "taf_trigger": false,
      "metar": "METAR LEZL 052330Z AUTO 08005KT CAVOK 14/06 Q1020",
      "taf": "TAF LEZL 052000Z 0521/0621 06008KT CAVOK TX29/0615Z TN12/0606Z"
    },
    {
      "icao": "LFBD",
      "alert": "OK",
      "vis_m": 9999,
      "fzfg": false,
      "metar_trigger": false,
      "taf_trigger": false,
      "metar": "METAR LFBD 052330Z AUTO 04005KT CAVOK 12/10 Q1025 NOSIG",
      "taf": "TAF LFBD 052300Z 0600/0706 03005KT CAVOK TX29/0614Z TN10/0606Z"
    },
    {
      "icao": "LFLL",
      "alert": "OK",
      "vis_m": 9999,
      "fzfg": false,
      "metar_trigger": false,
      "taf_trigger": false,
      "metar": "METAR LFLL 052330Z VRB02KT CAVOK 13/06 Q1025 NOSIG",
      "taf": "TAF LFLL 052300Z 0600/0706 VRB02KT CAVOK"
    },
    {
      "icao": "LFLS",
      "alert": "OK",
      "vis_m": 9999,
      "fzfg": false,
      "metar_trigger": false,
      "taf_trigger": false,
      "metar": "METAR LFLS 052330Z AUTO 12003KT CAVOK 09/05 Q1026",
      "taf": ""
    },
    {
      "icao": "LFMN",
      "alert": "OK",
      "vis_m": 9999,
      "fzfg": false,
      "metar_trigger": false,
      "taf_trigger": false,
      "metar": "METAR LFMN 052330Z 32006KT 9999 FEW020 12/10 Q1025 TEMPO BKN010",
      "taf": "TAF LFMN 052000Z 0521/0703 33010KT CAVOK"
    },
    {
      "icao": "LFOB",
      "alert": "OK",
      "vis_m": 9999,
      "fzfg": false,
      "metar_trigger": false,
      "taf_trigger": false,
      "metar": "METAR LFOB 052330Z AUTO 00000KT CAVOK 02/02 Q1027 NOSIG",
      "taf": "TAF LFOB 052300Z 0600/0624 VRB03KT 9999 SCT030"
    },
    {
      "icao": "LFPO",
      "alert": "OK",
      "vis_m": 9999,
      "fzfg": false,
      "metar_trigger": false,
      "taf_trigger": false,
      "metar": "METAR LFPO 052330Z 35003KT CAVOK 06/04 Q1027 NOSIG",
      "taf": "TAF LFPO 052300Z 0600/0706 VRB03KT CAVOK"
    },
    {
      "icao": "LFSB",
      "alert": "OK",
      "vis_m": 9999,
      "fzfg": false,
      "metar_trigger": false,
      "taf_trigger": false,
      "metar": "METAR LFSB 052330Z AUTO 32004KT CAVOK 13/08 Q1026 NOSIG",
      "taf": "TAF LFSB 052300Z 0600/0624 29008KT CAVOK"
    },
    {
      "icao": "LGAV",
      "alert": "OK",
      "vis_m": 9999,
      "fzfg": false,
      "metar_trigger": false,
      "taf_trigger": false,
      "metar": "METAR LGAV 052320Z 33006KT 9999 FEW025 12/04 Q1022 NOSIG",
      "taf": "TAF LGAV 052300Z 0600/0624 36015KT 9999 FEW020"
    },
    {
      "icao": "LGTS",
      "alert": "OK",
      "vis_m": 9999,
      "fzfg": false,
      "metar_trigger": false,
      "taf_trigger": false,
      "metar": "METAR LGTS 052320Z 11006KT 9999 FEW025 10/07 Q1022 NOSIG",
      "taf": "TAF LGTS 052300Z 0600/0624 VRB03KT 9999 FEW025"
    },
    {
      "icao": "LHBP",
      "alert": "OK",
      "vis_m": 9999,
      "fzfg": false,
      "metar_trigger": false,
      "taf_trigger": false,
      "metar": "METAR LHBP 052330Z 13005KT 9999 -RA NSC 12/08 Q1020 NOSIG",
      "taf": "TAF LHBP 052315Z 0600/0624 16004KT CAVOK"
    },
    {
      "icao": "LHDC",
      "alert": "OK",
      "vis_m": 9999,
      "fzfg": false,
      "metar_trigger": false,
      "taf_trigger": false,
      "metar": "METAR LHDC 052315Z AUTO 20007KT 170V240 CAVOK 09/06 Q1020",
      "taf": "TAF LHDC 051715Z 0518/0603 21012KT CAVOK"
    },
    {
      "icao": "LIBD",
      "alert": "OK",
      "vis_m": 9999,
      "fzfg": false,
      "metar_trigger": false,
      "taf_trigger": false,
      "metar": "METAR LIBD 052320Z 22006KT CAVOK 09/06 Q1024",
      "taf": "TAF LIBD 052300Z 0600/0624 23006KT CAVOK"
    },
    {
      "icao": "LIBG",
      "alert": "OK",
      "vis_m": null,
      "fzfg": false,
      "metar_trigger": false,
      "taf_trigger": false,
      "metar": "",
      "taf": ""
    },
    {
      "icao": "LIBP",
      "alert": "OK",
      "vis_m": 9999,
      "fzfg": false,
      "metar_trigger": false,
      "taf_trigger": false,
      "metar": "METAR LIBP 052320Z AUTO 21005KT 9999 NCD 08/06 Q1023",
      "taf": "TAF LIBP 052300Z 0600/0624 23006KT CAVOK"
    },
    {
      "icao": "LIBR",
      "alert": "OK",
      "vis_m": 9999,
      "fzfg": false,
      "metar_trigger": false,
      "taf_trigger": false,
      "metar": "METAR LIBR 052320Z 25007KT CAVOK 09/07 Q1024",
      "taf": "TAF LIBR 052300Z 0600/0624 29006KT CAVOK"
    },
    {
      "icao": "LICA",
      "alert": "OK",
      "vis_m": 9999,
      "fzfg": false,
      "metar_trigger": false,
      "taf_trigger": false,
      "metar": "METAR LICA 052320Z AUTO VRB01KT 9999 FEW013/// BKN016/// 11/10 Q1026",
      "taf": "TAF LICA 052300Z 0600/0624 VRB05KT 9999 SCT013"
    },
    {
      "icao": "LICC",
      "alert": "OK",
      "vis_m": 9999,
      "fzfg": false,
      "metar_trigger": false,
      "taf_trigger": false,
      "metar": "METAR LICC 052320Z 25006KT CAVOK 10/07 Q1025",
      "taf": "TAF LICC 052300Z 0600/0624 26007KT 8000 FEW060"
    },
    {
      "icao": "LICJ",
      "alert": "OK",
      "vis_m": 9999,
      "fzfg": false,
      "metar_trigger": false,
      "taf_trigger": false,
      "metar": "METAR LICJ 052320Z 11004KT CAVOK 11/09 Q1026",
      "taf": "TAF LICJ 052300Z 0600/0624 VRB04KT CAVOK"
    },
    {
      "icao": "LIMC",
      "alert": "OK",
      "vis_m": 9999,
      "fzfg": false,
      "metar_trigger": false,
      "taf_trigger": false,
      "metar": "METAR LIMC 052320Z 08002KT CAVOK 12/07 Q1023 NOSIG",
      "taf": "TAF LIMC 052300Z 0600/0706 18006KT CAVOK"
    },
    {
      "icao": "LIME",
      "alert": "OK",
      "vis_m": 9999,
      "fzfg": false,
      "metar_trigger": false,
      "taf_trigger": false,
      "metar": "METAR LIME 052320Z 02004KT CAVOK 13/06 Q1023 NOSIG",
      "taf": "TAF LIME 052300Z 0600/0624 VRB05KT CAVOK"
    },
    {
      "icao": "LIMF",
      "alert": "OK",
      "vis_m": 9999,
      "fzfg": false,
      "metar_trigger": false,
      "taf_trigger": false,
      "metar": "METAR LIMF 052320Z 27003KT CAVOK 15/05 Q1023",
      "taf": "TAF LIMF 052300Z 0600/0624 VRB05KT CAVOK"
    },
    {
      "icao": "LIMJ",
      "alert": "OK",
      "vis_m": 9999,
      "fzfg": false,
      "metar_trigger": false,
      "taf_trigger": false,
      "metar": "METAR LIMJ 052320Z 13008KT 9999 BKN020 15/13 Q1025",
      "taf": "TAF LIMJ 052300Z 0600/0624 VRB05KT 9999 BKN015"
    },
    {
      "icao": "LIPE",
      "alert": "OK",
      "vis_m": 9999,
      "fzfg": false,
      "metar_trigger": false,
      "taf_trigger": false,
      "metar": "METAR LIPE 052320Z 20005KT 150V210 CAVOK 15/01 Q1022",
      "taf": "TAF LIPE 052300Z 0600/0624 VRB05KT CAVOK"
    },
    {
      "icao": "LIPH",
      "alert": "OK",
      "vis_m": 9999,
      "fzfg": false,
      "metar_trigger": false,
      "taf_trigger": false,
      "metar": "METAR LIPH 052320Z AUTO VRB02KT 9999 NCD 11/06 Q1023",
      "taf": "TAF LIPH 052300Z 0600/0624 VRB05KT CAVOK"
    },
    {
      "icao": "LIPQ",
      "alert": "OK",
      "vis_m": 9999,
      "fzfg": false,
      "metar_trigger": false,
      "taf_trigger": false,
      "metar": "METAR LIPQ 052320Z AUTO VRB02KT 9999 NCD 08/06 Q1023",
      "taf": "TAF LIPQ 052300Z 0600/0624 VRB05KT CAVOK"
    },
    {
      "icao": "LIPR",
      "alert": "OK",
      "vis_m": 9999,
      "fzfg": false,
      "metar_trigger": false,
      "taf_trigger": false,
      "metar": "METAR LIPR 052320Z AUTO VRB02KT 9999 NCD 08/07 Q1022",
      "taf": "TAF LIPR 052300Z 0600/0624 VRB05KT CAVOK"
    },
    {
      "icao": "LIPX",
      "alert": "OK",
      "vis_m": 9999,
      "fzfg": false,
      "metar_trigger": false,
      "taf_trigger": false,
      "metar": "METAR LIPX 052320Z 06003KT 020V090 CAVOK 12/05 Q1023",
      "taf": "TAF LIPX 052300Z 0600/0624 VRB05KT CAVOK"
    },
    {
      "icao": "LIPY",
      "alert": "OK",
      "vis_m": 9999,
      "fzfg": false,
      "metar_trigger": false,
      "taf_trigger": false,
      "metar": "METAR LIPY 052320Z AUTO VRB01KT 9999 NCD 10/07 Q1023",
      "taf": "TAF LIPY 052300Z 0600/0624 24006KT CAVOK"
    },
    {
      "icao": "LIPZ",
      "alert": "OK",
      "vis_m": 9999,
      "fzfg": false,
      "metar_trigger": false,
      "taf_trigger": false,
      "metar": "METAR LIPZ 052320Z 04004KT CAVOK 11/07 Q1023 NOSIG",
      "taf": "TAF LIPZ 052300Z 0600/0706 VRB05KT CAVOK"
    },
    {
      "icao": "LIRF",
      "alert": "OK",
      "vis_m": 2000,
      "fzfg": false,
      "metar_trigger": false,
      "taf_trigger": false,
      "metar": "METAR LIRF 052320Z 34003KT 2000 R16L/0750N R16R/1800D R25/0225D R34R/1900U BCFG SCT001 11/11 Q1025 BECMG 1300 BCFG",
      "taf": ""
    },
    {
      "icao": "LIRN",
      "alert": "OK",
      "vis_m": 9999,
      "fzfg": false,
      "metar_trigger": false,
      "taf_trigger": false,
      "metar": "METAR LIRN 052320Z VRB02KT CAVOK 11/05 Q1025 NOSIG",
      "taf": "TAF LIRN 052300Z 0600/0624 VRB05KT CAVOK"
    },
    {
      "icao": "LIRP",
      "alert": "OK",
      "vis_m": 5000,
      "fzfg": false,
      "metar_trigger": false,
      "taf_trigger": false,
      "metar": "METAR LIRP 052315Z 16003KT 5000 MIFG FEW005 08/07 Q1026 TEMPO 3000",
      "taf": "TAF LIRP 052300Z 0600/0624 VRB03KT CAVOK"
    },
    {
      "icao": "LIRZ",
      "alert": "OK",
      "vis_m": 9999,
      "fzfg": false,
      "metar_trigger": false,
      "taf_trigger": false,
      "metar": "METAR LIRZ 052320Z AUTO 03005KT 9999 NCD 06/03 Q1026",
      "taf": "TAF LIRZ 052300Z 0600/0624 VRB04KT CAVOK"
    },
    {
      "icao": "LJLJ",
      "alert": "OK",
      "vis_m": 9999,
      "fzfg": false,
      "metar_trigger": false,
      "taf_trigger": false,
      "metar": "METAR LJLJ 052330Z VRB01KT CAVOK 07/03 Q1023 NOSIG",
      "taf": "TAF LJLJ 052300Z 0600/0700 30003KT CAVOK"
    },
    {
      "icao": "LKMT",
      "alert": "OK",
      "vis_m": 9999,
      "fzfg": false,
      "metar_trigger": false,
      "taf_trigger": false,
      "metar": "METAR LKMT 052330Z 34004KT CAVOK 14/06 Q1017 NOSIG",
      "taf": "TAF LKMT 052300Z 0600/0624 21008KT CAVOK"
    },
    {
      "icao": "LKPR",
      "alert": "OK",
      "vis_m": 9999,
      "fzfg": false,
      "metar_trigger": false,
      "taf_trigger": false,
      "metar": "METAR LKPR 052330Z 30011KT 9999 BKN048 11/04 Q1020 NOSIG",
      "taf": "TAF LKPR 052300Z 0600/0706 28014KT 9999 BKN045"
    },
    {
      "icao": "LLBG",
      "alert": "OK",
      "vis_m": 9999,
      "fzfg": false,
      "metar_trigger": false,
      "taf_trigger": false,
      "metar": "METAR LLBG 052320Z VRB02KT CAVOK 13/10 Q1017 NOSIG",
      "taf": "TAF LLBG 052300Z 0600/0624 VRB03KT CAVOK TX20/0611Z TN10/0604Z"
    },
    {
      "icao": "LMML",
      "alert": "OK",
      "vis_m": 9999,
      "fzfg": false,
      "metar_trigger": false,
      "taf_trigger": false,
      "metar": "METAR LMML 052345Z 29005KT CAVOK 13/09 Q1025 NOSIG",
      "taf": "TAF LMML 052300Z 0600/0624 29008KT 9999 FEW015"
    },
    {
      "icao": "LOWW",
      "alert": "OK",
      "vis_m": 9999,
      "fzfg": false,
      "metar_trigger": false,
      "taf_trigger": false,
      "metar": "METAR LOWW 052320Z 27011KT 9999 FEW048 17/07 Q1020 NOSIG",
      "taf": "TAF LOWW 052315Z 0600/0706 30012KT 9999 FEW050 TX16/0613Z TN06/0704Z"
    },
    {
      "icao": "LPFR",
      "alert": "OK",
      "vis_m": 9999,
      "fzfg": false,
      "metar_trigger": false,
      "taf_trigger": false,
      "metar": "METAR LPFR 052330Z 08010KT CAVOK 18/08 Q1019",
      "taf": "TAF LPFR 052300Z 0600/0624 08010KT CAVOK"
    },
    {
      "icao": "LPMA",
      "alert": "OK",
      "vis_m": 9999,
      "fzfg": false,
      "metar_trigger": false,
      "taf_trigger": false,
      "metar": "METAR LPMA 052330Z 23003KT 9999 FEW013 17/12 Q1015",
      "taf": "TAF LPMA 052300Z 0600/0624 VRB05KT 9999 SCT015"
    },
    {
      "icao": "LPPR",
      "alert": "OK",
      "vis_m": 9999,
      "fzfg": false,
      "metar_trigger": false,
      "taf_trigger": false,
      "metar": "METAR LPPR 052330Z 06003KT CAVOK 17/07 Q1019",
      "taf": "TAF LPPR 052300Z 0600/0624 09007KT CAVOK"
    },
    {
      "icao": "LPPS",
      "alert": "OK",
      "vis_m": 9999,
      "fzfg": false,
      "metar_trigger": false,
      "taf_trigger": false,
      "metar": "METAR LPPS 052330Z 36004KT 9999 FEW013 15/14 Q1015",
      "taf": "TAF LPPS 052300Z 0600/0706 VRB05KT 9999 SCT015"
    },
    {
      "icao": "LPPT",
      "alert": "OK",
      "vis_m": 9999,
      "fzfg": false,
      "metar_trigger": false,
      "taf_trigger": false,
      "metar": "METAR LPPT 052330Z VRB02KT CAVOK 16/07 Q1019",
      "taf": "TAF LPPT 052300Z 0600/0706 VRB02KT CAVOK"
    },
    {
      "icao": "LQBK",
      "alert": "OK",
      "vis_m": 9999,
      "fzfg": false,
      "metar_trigger": false,
      "taf_trigger": false,
      "metar": "METAR LQBK 052330Z 14008KT CAVOK 13/03 Q1021 NOSIG",
      "taf": "TAF LQBK 052300Z 0600/0624 16007KT CAVOK TX22/0614Z TN09/0605Z"
    },
    {
      "icao": "LQSA",
      "alert": "OK",
      "vis_m": 9999,
      "fzfg": false,
      "metar_trigger": false,
      "taf_trigger": false,
      "metar": "METAR LQSA 052330Z 14004KT CAVOK 05/02 Q1024",
      "taf": "TAF LQSA 052300Z 0600/0624 VRB02KT CAVOK TX22/0614Z TN05/0604Z"
    },
    {
      "icao": "LQTZ",
      "alert": "OK",
      "vis_m": 9999,
      "fzfg": false,
      "metar_trigger": false,
      "taf_trigger": false,
      "metar": "METAR LQTZ 052330Z 05002KT CAVOK 05/05 Q1023",
      "taf": "TAF LQTZ 052300Z 0600/0624 VRB02KT CAVOK TX20/0613Z TN04/0605Z"
    },
    {
      "icao": "LRBC",
      "alert": "OK",
      "vis_m": 9999,
      "fzfg": false,
      "metar_trigger": false,
      "taf_trigger": false,
      "metar": "METAR LRBC 052330Z VRB01KT CAVOK 08/06 Q1019",
      "taf": "TAF LRBC 052300Z 0600/0609 VRB04KT CAVOK"
    },
    {
      "icao": "LRBS",
      "alert": "OK",
      "vis_m": 9999,
      "fzfg": false,
      "metar_trigger": false,
      "taf_trigger": false,
      "metar": "METAR LRBS 052330Z 27003KT CAVOK 10/07 Q1021 NOSIG",
      "taf": "TAF LRBS 052300Z 0600/0624 VRB04KT CAVOK"
    },
    {
      "icao": "LRBV",
      "alert": "OK",
      "vis_m": 9999,
      "fzfg": false,
      "metar_trigger": false,
      "taf_trigger": false,
      "metar": "METAR LRBV 052330Z AUTO 23007KT 9999 NCD 06/03 Q1022",
      "taf": "TAF LRBV 051700Z 0518/0603 23006KT CAVOK"
    },
    {
      "icao": "LRCL",
      "alert": "OK",
      "vis_m": 9999,
      "fzfg": false,
      "metar_trigger": false,
      "taf_trigger": false,
      "metar": "METAR LRCL 052330Z 25004KT CAVOK 06/04 Q1022",
      "taf": "TAF LRCL 052300Z 0600/0609 VRB04KT CAVOK"
    },
    {
      "icao": "LRCV",
      "alert": "OK",
      "vis_m": 9999,
      "fzfg": false,
      "metar_trigger": false,
      "taf_trigger": false,
      "metar": "METAR LRCV 052330Z 23006KT CAVOK 10/08 Q1021",
      "taf": "TAF LRCV 052300Z 0600/0609 27006KT CAVOK"
    },
    {
      "icao": "LRIA",
      "alert": "OK",
      "vis_m": 9999,
      "fzfg": false,
      "metar_trigger": false,
      "taf_trigger": false,
      "metar": "METAR LRIA 052330Z VRB01KT CAVOK 11/06 Q1018",
      "taf": "TAF LRIA 052300Z 0600/0609 VRB04KT CAVOK"
    },
    {
      "icao": "LROP",
      "alert": "OK",
      "vis_m": 9999,
      "fzfg": false,
      "metar_trigger": false,
      "taf_trigger": false,
      "metar": "METAR LROP 052330Z 24003KT CAVOK 09/07 Q1021 NOSIG",
      "taf": "TAF LROP 052300Z 0600/0624 VRB04KT CAVOK"
    },
    {
      "icao": "LRSB",
      "alert": "OK",
      "vis_m": 9999,
      "fzfg": false,
      "metar_trigger": false,
      "taf_trigger": false,
      "metar": "METAR LRSB 052330Z VRB02KT CAVOK 06/04 Q1022",
      "taf": "TAF LRSB 052300Z 0600/0624 VRB04KT CAVOK"
    },
    {
      "icao": "LRSM",
      "alert": "OK",
      "vis_m": 9999,
      "fzfg": false,
      "metar_trigger": false,
      "taf_trigger": false,
      "metar": "METAR LRSM 052330Z AUTO 21007KT 9999 FEW090/// 09/05 Q1020",
      "taf": ""
    },
    {
      "icao": "LRSV",
      "alert": "OK",
      "vis_m": 9999,
      "fzfg": false,
      "metar_trigger": false,
      "taf_trigger": false,
      "metar": "METAR LRSV 052330Z 26014KT CAVOK 11/03 Q1018",
      "taf": "TAF LRSV 052300Z 0600/0609 26014KT CAVOK"
    },
    {
      "icao": "LRTM",
      "alert": "OK",
      "vis_m": 9999,
      "fzfg": false,
      "metar_trigger": false,
      "taf_trigger": false,
      "metar": "METAR LRTM 052330Z 33001KT CAVOK 05/04 Q1022",
      "taf": "TAF LRTM 052300Z 0600/0609 VRB04KT CAVOK"
    },
    {
      "icao": "LRTR",
      "alert": "OK",
      "vis_m": 8000,
      "fzfg": false,
      "metar_trigger": false,
      "taf_trigger": false,
      "metar": "METAR LRTR 052330Z 09005KT 8000 NSC 06/05 Q1022 NOSIG",
      "taf": "TAF LRTR 052300Z 0600/0624 11006KT CAVOK"
    },
    {
      "icao": "LTAC",
      "alert": "OK",
      "vis_m": 9999,
      "fzfg": false,
      "metar_trigger": false,
      "taf_trigger": false,
      "metar": "METAR LTAC 052320Z 03008KT 9999 SCT040 BKN100 06/02 Q1020 NOSIG RMK RWY21C 01007KT RWY03L 02008KT RWY21R 36007KT RWY03R 01008KT RWY21L 02006KT",
      "taf": "TAF LTAC 052240Z 0600/0624 02009KT 9999 SCT040"
    },
    {
      "icao": "LTFM",
      "alert": "OK",
      "vis_m": 7000,
      "fzfg": false,
      "metar_trigger": false,
      "taf_trigger": false,
      "metar": "METAR LTFM 052320Z 32004KT 240V350 7000 2000N BR FEW002 10/06 Q1022 NOSIG RMK RWY17L 27004KT RWY34L 00000KT RWY16R 25002KT RWY36 VRB02KT RWY18 29004KT 250V340",
      "taf": "TAF LTFM 052240Z 0600/0706 VRB02KT 4000 BR NSC"
    },
    {
      "icao": "LUKK",
      "alert": "OK",
      "vis_m": 9999,
      "fzfg": false,
      "metar_trigger": false,
      "taf_trigger": false,
      "metar": "METAR LUKK 052330Z 25003KT CAVOK 09/04 Q1019 NOSIG",
      "taf": "TAF LUKK 052316Z 0600/0624 24006KT CAVOK"
    },
    {
      "icao": "LWOH",
      "alert": "OK",
      "vis_m": null,
      "fzfg": false,
      "metar_trigger": false,
      "taf_trigger": false,
      "metar": "",
      "taf": "TAF LWOH 052030Z 0521/0621 33005KT 9999 SCT040"
    },
    {
      "icao": "LWSK",
      "alert": "OK",
      "vis_m": null,
      "fzfg": false,
      "metar_trigger": false,
      "taf_trigger": false,
      "metar": "",
      "taf": "TAF LWSK 052030Z 0521/0621 VRB02KT CAVOK"
    },
    {
      "icao": "LYBE",
      "alert": "OK",
      "vis_m": 9999,
      "fzfg": false,
      "metar_trigger": false,
      "taf_trigger": false,
      "metar": "METAR LYBE 052330Z 19007KT CAVOK 11/07 Q1022 NOSIG",
      "taf": "TAF LYBE 052300Z 0600/0624 16005KT CAVOK TX22/0613Z TN07/0605Z"
    },
    {
      "icao": "LYNI",
      "alert": "OK",
      "vis_m": 9999,
      "fzfg": false,
      "metar_trigger": false,
      "taf_trigger": false,
      "metar": "METAR LYNI 052330Z 11003KT 080V180 CAVOK 08/06 Q1024 NOSIG",
      "taf": "TAF LYNI 052300Z 0600/0624 32005KT CAVOK TX21/0613Z TN05/0605Z"
    },
    {
      "icao": "LYPG",
      "alert": "OK",
      "vis_m": 9999,
      "fzfg": false,
      "metar_trigger": false,
      "taf_trigger": false,
      "metar": "METAR LYPG 052330Z VRB02KT CAVOK 11/04 Q1023 NOSIG",
      "taf": "TAF LYPG 052300Z 0600/0624 32005KT CAVOK TX23/0612Z TN07/0604Z"
    },
    {
      "icao": "LZIB",
      "alert": "OK",
      "vis_m": 9999,
      "fzfg": false,
      "metar_trigger": false,
      "taf_trigger": false,
      "metar": "METAR LZIB 052330Z 25013KT CAVOK 19/07 Q1019 NOSIG",
      "taf": "TAF LZIB 052315Z 0600/0700 30010KT CAVOK"
    },
    {
      "icao": "LZKZ",
      "alert": "OK",
      "vis_m": 9999,
      "fzfg": false,
      "metar_trigger": false,
      "taf_trigger": false,
      "metar": "METAR LZKZ 052330Z 19009KT CAVOK 12/07 Q1018 NOSIG",
      "taf": "TAF LZKZ 052315Z 0600/0700 VRB02KT CAVOK"
    },
    {
      "icao": "LZTT",
      "alert": "OK",
      "vis_m": 9999,
      "fzfg": false,
      "metar_trigger": false,
      "taf_trigger": false,
      "metar": "METAR LZTT 052330Z 27005KT 9999 SCT063 10/05 Q1018",
      "taf": "TAF LZTT 052315Z 0600/0700 26009KT 9999 FEW053 SCT080"
    },
    {
      "icao": "OEJN",
      "alert": "OK",
      "vis_m": 9999,
      "fzfg": false,
      "metar_trigger": false,
      "taf_trigger": false,
      "metar": "METAR OEJN 052300Z 33008KT CAVOK 25/17 Q1012 NOSIG",
      "taf": "TAF OEJN 052300Z 0600/0706 36005KT 7000 FEW040"
    },
    {
      "icao": "OEMA",
      "alert": "OK",
      "vis_m": 9000,
      "fzfg": false,
      "metar_trigger": false,
      "taf_trigger": false,
      "metar": "METAR OEMA 052300Z 03007KT 9000 SCT045 25/M02 Q1016 NOSIG",
      "taf": "TAF OEMA 052300Z 0600/0706 VRB03KT 9999 SCT040"
    },
    {
      "icao": "OJAI",
      "alert": "OK",
      "vis_m": 4000,
      "fzfg": false,
      "metar_trigger": false,
      "taf_trigger": false,
      "metar": "METAR OJAI 052300Z 15003KT 4000 BR NSC 07/06 Q1020 NOSIG",
      "taf": "TAF OJAI 052300Z 0600/0706 28012KT 4000 BR FEW025TCU SCT030"
    },
    {
      "icao": "OMAA",
      "alert": "OK",
      "vis_m": null,
      "fzfg": false,
      "metar_trigger": false,
      "taf_trigger": false,
      "metar": "",
      "taf": ""
    },
    {
      "icao": "OMDB",
      "alert": "OK",
      "vis_m": null,
      "fzfg": false,
      "metar_trigger": false,
      "taf_trigger": false,
      "metar": "",
      "taf": ""
    },
    {
      "icao": "UAAA",
      "alert": "OK",
      "vis_m": 9999,
      "fzfg": false,
      "metar_trigger": false,
      "taf_trigger": false,
      "metar": "METAR UAAA 052330Z 22002MPS 180V280 9999 FEW050CB SCT100 BKN200 11/07 Q1009 NOSIG",
      "taf": "TAF UAAA 052301Z 0600/0624 04003MPS 9999 FEW050CB SCT100 TX24/0610Z TN12/0601Z"
    },
    {
      "icao": "UBBB",
      "alert": "OK",
      "vis_m": 9999,
      "fzfg": false,
      "metar_trigger": false,
      "taf_trigger": false,
      "metar": "METAR UBBB 052330Z 30024G34KT 9999 -SHRA SCT011 BKN045CB OVC045 11/10 Q1008 WS R35 NOSIG",
      "taf": "TAF UBBB 052306Z 0600/0624 30026G36KT 9999 SCT010 SCT040CB OVC040 TX13/0612Z TN10/0601Z"
    },
    {
      "icao": "UDSG",
      "alert": "OK",
      "vis_m": 9999,
      "fzfg": false,
      "metar_trigger": false,
      "taf_trigger": false,
      "metar": "METAR UDSG 052330Z 35003KT 290V030 9999 NSC 03/M02 Q1016 NOSIG",
      "taf": "TAF UDSG 052258Z 0600/0624 VRB06KT 9999 SCT040"
    },
    {
      "icao": "UDYZ",
      "alert": "OK",
      "vis_m": 9999,
      "fzfg": false,
      "metar_trigger": false,
      "taf_trigger": false,
      "metar": "METAR UDYZ 052330Z 09004KT 9999 FEW046 05/01 Q1013 NOSIG",
      "taf": "TAF UDYZ 052300Z 0600/0624 20006KT 9999 FEW040"
    },
    {
      "icao": "UGKO",
      "alert": "OK",
      "vis_m": 9999,
      "fzfg": false,
      "metar_trigger": false,
      "taf_trigger": false,
      "metar": "METAR UGKO 052330Z 26007KT 9999 SCT024 BKN032 10/09 Q1018 NOSIG",
      "taf": "TAF UGKO 052300Z 0600/0624 25007KT 9999 SCT020 OVC050 TX13/0611Z TN09/0603Z"
    }
  ]
}