{
  "ts_utc": "2026-03-10T04:24:40Z",
  "threshold_m": 150,
  "source": "stations_override.txt (ICAO list) + aviationweather.gov (METAR/TAF raw)",
  "station_count": 159,
  "stations": [
    {
      "icao": "BIKF",
      "alert": "OK",
      "vis_m": 9999,
      "fzfg": false,
      "metar_trigger": false,
      "taf_trigger": false,
      "metar": "METAR BIKF 100400Z 24017G27KT 9999 -SHRA SCT016TCU BKN025 04/02 Q0971",
      "taf": "TAF BIKF 100102Z 1003/1103 23018KT 9999 -SHRA BKN020 TX05/1012Z TN01/1024Z"
    },
    {
      "icao": "BKPR",
      "alert": "OK",
      "vis_m": null,
      "fzfg": false,
      "metar_trigger": false,
      "taf_trigger": false,
      "metar": "",
      "taf": "TAF BKPR 092330Z 1000/1024 14007KT CAVOK"
    },
    {
      "icao": "EBCI",
      "alert": "OK",
      "vis_m": 9999,
      "fzfg": false,
      "metar_trigger": false,
      "taf_trigger": false,
      "metar": "METAR EBCI 100350Z VRB02KT CAVOK 10/06 Q1017 NOSIG",
      "taf": "TAF EBCI 092315Z 1000/1106 19005KT 9999 FEW030"
    },
    {
      "icao": "EDDB",
      "alert": "OK",
      "vis_m": 9999,
      "fzfg": false,
      "metar_trigger": false,
      "taf_trigger": false,
      "metar": "METAR EDDB 100420Z AUTO 12001KT CAVOK 02/01 Q1017 NOSIG",
      "taf": "TAF EDDB 092300Z 1000/1024 VRB03KT CAVOK"
    },
    {
      "icao": "EDDH",
      "alert": "OK",
      "vis_m": 9000,
      "fzfg": false,
      "metar_trigger": false,
      "taf_trigger": false,
      "metar": "METAR EDDH 100420Z AUTO 09002KT 9000 0700 R23/P2000N R15/0900U BCFG NCD 01/01 Q1016 NOSIG",
      "taf": "TAF EDDH 092300Z 1000/1106 VRB02KT CAVOK"
    },
    {
      "icao": "EDDK",
      "alert": "OK",
      "vis_m": 9999,
      "fzfg": false,
      "metar_trigger": false,
      "taf_trigger": false,
      "metar": "METAR EDDK 100420Z AUTO VRB01KT CAVOK 08/03 Q1017 NOSIG",
      "taf": "TAF EDDK 092300Z 1000/1106 VRB03KT CAVOK"
    },
    {
      "icao": "EDDN",
      "alert": "OK",
      "vis_m": 2500,
      "fzfg": false,
      "metar_trigger": false,
      "taf_trigger": false,
      "metar": "METAR EDDN 100420Z AUTO VRB02KT 2500 0450 R10/P2000N BCFG NSC 03/02 Q1019",
      "taf": "TAF EDDN 092300Z 1000/1024 12005KT CAVOK"
    },
    {
      "icao": "EDDS",
      "alert": "OK",
      "vis_m": 9999,
      "fzfg": false,
      "metar_trigger": false,
      "taf_trigger": false,
      "metar": "METAR EDDS 100420Z AUTO 04002KT CAVOK 03/02 Q1018",
      "taf": "TAF EDDS 092300Z 1000/1024 VRB03KT CAVOK"
    },
    {
      "icao": "EDFH",
      "alert": "OK",
      "vis_m": 9999,
      "fzfg": false,
      "metar_trigger": false,
      "taf_trigger": false,
      "metar": "METAR EDFH 100350Z 22003KT 180V240 CAVOK 10/05 Q1018",
      "taf": "TAF EDFH 092300Z 1000/1024 20004KT CAVOK"
    },
    {
      "icao": "EDJA",
      "alert": "OK",
      "vis_m": 9999,
      "fzfg": false,
      "metar_trigger": false,
      "taf_trigger": false,
      "metar": "METAR EDJA 100350Z AUTO 15004KT 9999 // FEW095/// 01/M00 Q1019",
      "taf": "TAF EDJA 100200Z 1003/1012 21005KT CAVOK"
    },
    {
      "icao": "EDLW",
      "alert": "OK",
      "vis_m": 9999,
      "fzfg": false,
      "metar_trigger": false,
      "taf_trigger": false,
      "metar": "METAR EDLW 100350Z AUTO 16010KT 9999 // NCD 07/04 Q1017",
      "taf": "TAF EDLW 091700Z 0918/1018 VRB03KT CAVOK"
    },
    {
      "icao": "EDNY",
      "alert": "OK",
      "vis_m": 3800,
      "fzfg": false,
      "metar_trigger": false,
      "taf_trigger": false,
      "metar": "METAR EDNY 100350Z AUTO 00000KT 3800 0900 R24/1500D FEW007/// 03/02 Q1020",
      "taf": "TAF EDNY 100200Z 1003/1012 06002KT 8000 NSC"
    },
    {
      "icao": "EDSB",
      "alert": "OK",
      "vis_m": 9999,
      "fzfg": false,
      "metar_trigger": false,
      "taf_trigger": false,
      "metar": "METAR EDSB 100350Z 16004KT CAVOK 04/04 Q1019",
      "taf": "TAF EDSB 092300Z 1000/1024 VRB03KT CAVOK"
    },
    {
      "icao": "EETN",
      "alert": "OK",
      "vis_m": 500,
      "fzfg": true,
      "metar_trigger": false,
      "taf_trigger": false,
      "metar": "METAR EETN 100420Z 21006KT 0500 R26/1500N FZFG VV001 M00/M00 Q1017 BECMG 1000 BR BKN003",
      "taf": "TAF EETN 092330Z 1000/1024 21006KT 0200 FG VV001"
    },
    {
      "icao": "EFTU",
      "alert": "OK",
      "vis_m": 8000,
      "fzfg": false,
      "metar_trigger": false,
      "taf_trigger": false,
      "metar": "METAR EFTU 100420Z AUTO 23005KT 8000 NCD M00/M01 Q1014",
      "taf": "TAF EFTU 100230Z 1003/1103 21004KT 8000 NSC"
    },
    {
      "icao": "EGBB",
      "alert": "OK",
      "vis_m": 9999,
      "fzfg": false,
      "metar_trigger": false,
      "taf_trigger": false,
      "metar": "METAR EGBB 100350Z 19005KT 9999 BKN035 07/05 Q1015",
      "taf": "TAF EGBB 092259Z 1000/1024 18009KT 4000 BR BKN009"
    },
    {
      "icao": "EGGP",
      "alert": "OK",
      "vis_m": 9999,
      "fzfg": false,
      "metar_trigger": false,
      "taf_trigger": false,
      "metar": "METAR EGGP 100350Z AUTO 20004KT 160V230 9999 NCD 06/04 Q1013",
      "taf": ""
    },
    {
      "icao": "EGGW",
      "alert": "OK",
      "vis_m": 4400,
      "fzfg": false,
      "metar_trigger": false,
      "taf_trigger": false,
      "metar": "METAR EGGW 100350Z AUTO 22005KT 4400 BR BKN006 08/07 Q1015",
      "taf": ""
    },
    {
      "icao": "EGKK",
      "alert": "OK",
      "vis_m": 4000,
      "fzfg": false,
      "metar_trigger": false,
      "taf_trigger": false,
      "metar": "METAR EGKK 100350Z 23003KT 4000 BR BKN005 09/08 Q1016",
      "taf": "TAF EGKK 092259Z 1000/1106 21004KT 6000 FEW003 SCT010"
    },
    {
      "icao": "EGNM",
      "alert": "OK",
      "vis_m": null,
      "fzfg": false,
      "metar_trigger": false,
      "taf_trigger": false,
      "metar": "",
      "taf": "TAF EGNM 091701Z 0918/1018 22006KT 9999 SCT012"
    },
    {
      "icao": "EGPD",
      "alert": "OK",
      "vis_m": 9999,
      "fzfg": false,
      "metar_trigger": false,
      "taf_trigger": false,
      "metar": "METAR EGPD 100350Z COR AUTO 20012KT 9999 NCD 07/04 Q1006 NOSIG",
      "taf": "TAF EGPD 092256Z 1000/1024 18008KT 9999 SCT020"
    },
    {
      "icao": "EGPF",
      "alert": "OK",
      "vis_m": 9999,
      "fzfg": false,
      "metar_trigger": false,
      "taf_trigger": false,
      "metar": "METAR EGPF 100350Z AUTO 19007KT 9999 NCD 06/02 Q1008",
      "taf": "TAF EGPF 092256Z 1000/1024 21008KT 9999 FEW015 SCT020"
    },
    {
      "icao": "EHBK",
      "alert": "OK",
      "vis_m": 9999,
      "fzfg": false,
      "metar_trigger": false,
      "taf_trigger": false,
      "metar": "METAR EHBK 100355Z AUTO 19005KT 9999 NSC 09/06 Q1017",
      "taf": "TAF EHBK 092310Z 1000/1106 18005KT 9999 FEW045"
    },
    {
      "icao": "EHEH",
      "alert": "OK",
      "vis_m": 9999,
      "fzfg": false,
      "metar_trigger": false,
      "taf_trigger": false,
      "metar": "METAR EHEH 100355Z AUTO 16004KT 9999 OVC082 07/05 Q1016 BLU RMK TREND REMOTE BY EHWX",
      "taf": ""
    },
    {
      "icao": "EKBI",
      "alert": "OK",
      "vis_m": 200,
      "fzfg": false,
      "metar_trigger": false,
      "taf_trigger": false,
      "metar": "METAR EKBI 100420Z AUTO 23005KT 0200 R09/0650N R27/0550N FG VV002 02/02 Q1015",
      "taf": "TAF EKBI 100227Z 1003/1103 24004KT 0100 FG VV001"
    },
    {
      "icao": "EKCH",
      "alert": "OK",
      "vis_m": 3900,
      "fzfg": false,
      "metar_trigger": false,
      "taf_trigger": false,
      "metar": "METAR EKCH 100420Z AUTO 16002KT 3900 BR NCD 03/01 Q1016 TEMPO 5000",
      "taf": "TAF EKCH 100227Z 1003/1103 15004KT 7000 NSC"
    },
    {
      "icao": "ENAL",
      "alert": "OK",
      "vis_m": 9999,
      "fzfg": false,
      "metar_trigger": false,
      "taf_trigger": false,
      "metar": "METAR ENAL 100350Z AUTO 21010KT 9999 -RA OVC037/// 08/04 Q1005",
      "taf": "TAF ENAL 100200Z 1003/1012 22008KT 9999 -RA FEW005 BKN035"
    },
    {
      "icao": "ENBR",
      "alert": "OK",
      "vis_m": 2600,
      "fzfg": false,
      "metar_trigger": false,
      "taf_trigger": false,
      "metar": "METAR ENBR 100350Z 15013KT 2600 +RA OVC003 03/03 Q1010 RMK WIND 1200FT 15021KT",
      "taf": ""
    },
    {
      "icao": "ENGM",
      "alert": "OK",
      "vis_m": 550,
      "fzfg": true,
      "metar_trigger": false,
      "taf_trigger": false,
      "metar": "METAR ENGM 100350Z 20004KT 0550 R19R/0800U R01R/0650N R19L/0550N R01L/0600N FZFG VV002 M01/M02 Q1012",
      "taf": "TAF ENGM 092300Z 1000/1024 18005KT 0300 FZFG VV001"
    },
    {
      "icao": "ENHD",
      "alert": "OK",
      "vis_m": 650,
      "fzfg": false,
      "metar_trigger": false,
      "taf_trigger": false,
      "metar": "METAR ENHD 100350Z AUTO 16011KT 140V200 0650 R13/1800N R31/1800N FG VV003 03/03 Q1011",
      "taf": "TAF ENHD 100200Z 1003/1012 18015KT 0300 -RA FG VV002"
    },
    {
      "icao": "ENTC",
      "alert": "OK",
      "vis_m": 9999,
      "fzfg": false,
      "metar_trigger": false,
      "taf_trigger": false,
      "metar": "METAR ENTC 100350Z AUTO 22016KT 9999 -RA FEW023/// SCT037/// BKN045/// 02/M00 Q1000 RMK WIND 2600FT 25025KT",
      "taf": ""
    },
    {
      "icao": "ENTO",
      "alert": "WARNING",
      "vis_m": 300,
      "fzfg": true,
      "metar_trigger": false,
      "taf_trigger": true,
      "metar": "METAR ENTO 100350Z AUTO 00000KT 0300 R18/1300D R36/1200N FZFG VV003 M01/M01 Q1013",
      "taf": "TAF ENTO 092300Z 1000/1024 VRB03KT 0100 FZFG VV001"
    },
    {
      "icao": "ENVA",
      "alert": "OK",
      "vis_m": 9999,
      "fzfg": false,
      "metar_trigger": false,
      "taf_trigger": false,
      "metar": "METAR ENVA 100350Z AUTO 07003KT 9999 NCD 01/M00 Q1006 RMK WIND 670FT 14004KT",
      "taf": "TAF ENVA 092300Z 1000/1024 10007KT 9999 BKN050"
    },
    {
      "icao": "ENZV",
      "alert": "OK",
      "vis_m": 2300,
      "fzfg": false,
      "metar_trigger": false,
      "taf_trigger": false,
      "metar": "METAR ENZV 100350Z 17010KT 2300 BR OVC003 04/03 Q1012",
      "taf": "TAF ENZV 092300Z 1000/1024 18010KT 0500 FG VV002"
    },
    {
      "icao": "EPGD",
      "alert": "OK",
      "vis_m": 9999,
      "fzfg": false,
      "metar_trigger": false,
      "taf_trigger": false,
      "metar": "METAR EPGD 100400Z 31001KT CAVOK 04/M01 Q1019",
      "taf": "TAF EPGD 092330Z 1000/1024 16005KT CAVOK"
    },
    {
      "icao": "EPKK",
      "alert": "OK",
      "vis_m": 9999,
      "fzfg": false,
      "metar_trigger": false,
      "taf_trigger": false,
      "metar": "METAR EPKK 100400Z 04004KT CAVOK M01/M03 Q1023",
      "taf": "TAF EPKK 100230Z 1003/1103 VRB02KT CAVOK"
    },
    {
      "icao": "EPKT",
      "alert": "OK",
      "vis_m": 9999,
      "fzfg": false,
      "metar_trigger": false,
      "taf_trigger": false,
      "metar": "METAR EPKT 100400Z 14003KT 100V160 CAVOK 03/M03 Q1022",
      "taf": "TAF EPKT 092330Z 1000/1024 16004KT CAVOK"
    },
    {
      "icao": "EPLB",
      "alert": "OK",
      "vis_m": 9999,
      "fzfg": false,
      "metar_trigger": false,
      "taf_trigger": false,
      "metar": "METAR EPLB 100400Z 10003KT CAVOK M00/M02 Q1025",
      "taf": "TAF EPLB 092330Z 1000/1024 VRB02KT CAVOK"
    },
    {
      "icao": "EPMO",
      "alert": "OK",
      "vis_m": 9999,
      "fzfg": false,
      "metar_trigger": false,
      "taf_trigger": false,
      "metar": "METAR EPMO 100400Z 16007KT CAVOK 04/M01 Q1022",
      "taf": "TAF EPMO 092330Z 1000/1024 12005KT CAVOK"
    },
    {
      "icao": "EPPO",
      "alert": "OK",
      "vis_m": 9999,
      "fzfg": false,
      "metar_trigger": false,
      "taf_trigger": false,
      "metar": "METAR EPPO 100400Z 15006KT CAVOK 05/M01 Q1018",
      "taf": "TAF EPPO 092330Z 1000/1024 16008KT CAVOK"
    },
    {
      "icao": "EPRA",
      "alert": "OK",
      "vis_m": 9999,
      "fzfg": false,
      "metar_trigger": false,
      "taf_trigger": false,
      "metar": "METAR EPRA 100400Z 17007KT CAVOK 03/M02 Q1023",
      "taf": "TAF EPRA 100230Z 1003/1012 18006KT CAVOK"
    },
    {
      "icao": "EPRZ",
      "alert": "OK",
      "vis_m": 9999,
      "fzfg": false,
      "metar_trigger": false,
      "taf_trigger": false,
      "metar": "METAR EPRZ 100400Z 11005KT CAVOK M00/M03 Q1025",
      "taf": "TAF EPRZ 092330Z 1000/1024 10006KT CAVOK"
    },
    {
      "icao": "EPSC",
      "alert": "OK",
      "vis_m": 9999,
      "fzfg": false,
      "metar_trigger": false,
      "taf_trigger": false,
      "metar": "METAR EPSC 100400Z 13007KT CAVOK 04/M01 Q1017",
      "taf": "TAF EPSC 092330Z 1000/1024 13010KT CAVOK"
    },
    {
      "icao": "EPSY",
      "alert": "OK",
      "vis_m": 9999,
      "fzfg": false,
      "metar_trigger": false,
      "taf_trigger": false,
      "metar": "METAR EPSY 100400Z VRB01KT CAVOK M03/M03 Q1022",
      "taf": "TAF EPSY 100230Z 1003/1012 VRB02KT CAVOK"
    },
    {
      "icao": "EPWA",
      "alert": "OK",
      "vis_m": 9999,
      "fzfg": false,
      "metar_trigger": false,
      "taf_trigger": false,
      "metar": "METAR EPWA 100400Z 14004KT CAVOK 02/M02 Q1023 NOSIG",
      "taf": "TAF EPWA 100230Z 1003/1103 14005KT CAVOK"
    },
    {
      "icao": "EPWR",
      "alert": "OK",
      "vis_m": 9999,
      "fzfg": false,
      "metar_trigger": false,
      "taf_trigger": false,
      "metar": "METAR EPWR 100400Z VRB09KT CAVOK 05/00 Q1019",
      "taf": "TAF EPWR 100230Z 1003/1103 13010KT CAVOK"
    },
    {
      "icao": "ESGG",
      "alert": "OK",
      "vis_m": 9999,
      "fzfg": false,
      "metar_trigger": false,
      "taf_trigger": false,
      "metar": "METAR ESGG 100350Z 16006KT CAVOK 00/M02 Q1014",
      "taf": "TAF ESGG 100230Z 1003/1103 16005KT CAVOK"
    },
    {
      "icao": "ESKN",
      "alert": "OK",
      "vis_m": 9000,
      "fzfg": false,
      "metar_trigger": false,
      "taf_trigger": false,
      "metar": "METAR ESKN 100350Z 15003KT 9000 NSC M02/M02 Q1015",
      "taf": "TAF ESKN 100230Z 1003/1103 VRB02KT CAVOK"
    },
    {
      "icao": "ESMS",
      "alert": "OK",
      "vis_m": 9999,
      "fzfg": false,
      "metar_trigger": false,
      "taf_trigger": false,
      "metar": "METAR ESMS 100350Z 09004KT CAVOK 00/00 Q1016",
      "taf": "TAF ESMS 100227Z 1003/1103 13004KT CAVOK"
    },
    {
      "icao": "ESSA",
      "alert": "OK",
      "vis_m": 9999,
      "fzfg": false,
      "metar_trigger": false,
      "taf_trigger": false,
      "metar": "METAR ESSA 100350Z 19003KT CAVOK M01/M02 Q1015 NOSIG",
      "taf": "TAF ESSA 100230Z 1003/1103 20005KT CAVOK"
    },
    {
      "icao": "EYKA",
      "alert": "OK",
      "vis_m": 9999,
      "fzfg": false,
      "metar_trigger": false,
      "taf_trigger": false,
      "metar": "METAR EYKA 100420Z VRB02KT CAVOK 01/M02 Q1023",
      "taf": "TAF EYKA 092300Z 1000/1024 VRB04KT 5000 BR NSC"
    },
    {
      "icao": "EYPA",
      "alert": "OK",
      "vis_m": 9999,
      "fzfg": false,
      "metar_trigger": false,
      "taf_trigger": false,
      "metar": "METAR EYPA 100420Z 17008KT CAVOK 03/M01 Q1020",
      "taf": "TAF EYPA 092300Z 1000/1024 VRB05KT 9000 NSC"
    },
    {
      "icao": "EYVI",
      "alert": "OK",
      "vis_m": 9999,
      "fzfg": false,
      "metar_trigger": false,
      "taf_trigger": false,
      "metar": "METAR EYVI 100420Z 16005KT CAVOK 02/M02 Q1023 NOSIG",
      "taf": "TAF EYVI 092300Z 1000/1024 18008KT 9000 NSC"
    },
    {
      "icao": "GCFV",
      "alert": "OK",
      "vis_m": 9999,
      "fzfg": false,
      "metar_trigger": false,
      "taf_trigger": false,
      "metar": "METAR GCFV 100400Z AUTO 36017KT 9999 OVC042 16/11 Q1022",
      "taf": "TAF GCFV 100200Z 1003/1103 02016KT 9999 BKN035 TX21/1014Z TN15/1006Z"
    },
    {
      "icao": "GCLP",
      "alert": "OK",
      "vis_m": 9999,
      "fzfg": false,
      "metar_trigger": false,
      "taf_trigger": false,
      "metar": "METAR GCLP 100400Z 36020KT 330V030 9999 FEW030 BKN045 16/10 Q1023 NOSIG",
      "taf": "TAF GCLP 100200Z 1003/1103 01019KT 9999 SCT030 BKN040 TX20/1014Z TN15/1006Z"
    },
    {
      "icao": "GCTS",
      "alert": "OK",
      "vis_m": 9999,
      "fzfg": false,
      "metar_trigger": false,
      "taf_trigger": false,
      "metar": "METAR GCTS 100400Z 01007KT 340V050 9999 FEW040 15/07 Q1023 NOSIG",
      "taf": "TAF GCTS 100200Z 1003/1103 05011KT 9999 SCT040 TX21/1014Z TN15/1006Z"
    },
    {
      "icao": "GMAD",
      "alert": "OK",
      "vis_m": 8000,
      "fzfg": false,
      "metar_trigger": false,
      "taf_trigger": false,
      "metar": "METAR GMAD 100400Z 00000KT 8000 NSC 09/07 Q1017 NOSIG",
      "taf": "TAF GMAD 092300Z 1000/1106 22011KT 8000 NSC"
    },
    {
      "icao": "GMMN",
      "alert": "OK",
      "vis_m": 8000,
      "fzfg": false,
      "metar_trigger": false,
      "taf_trigger": false,
      "metar": "METAR GMMN 100400Z 35006KT 8000 FEW006 BKN023 10/09 Q1022 NOSIG",
      "taf": ""
    },
    {
      "icao": "GMMX",
      "alert": "OK",
      "vis_m": 9999,
      "fzfg": false,
      "metar_trigger": false,
      "taf_trigger": false,
      "metar": "METAR GMMX 100400Z 04006KT 9999 SCT013 BKN020 11/08 Q1021 NOSIG",
      "taf": "TAF GMMX 092300Z 1000/1106 06006KT 9999 SCT013 SCT020"
    },
    {
      "icao": "HEGN",
      "alert": "OK",
      "vis_m": 9999,
      "fzfg": false,
      "metar_trigger": false,
      "taf_trigger": false,
      "metar": "METAR HEGN 100400Z 29011KT CAVOK 13/02 Q1017 NOSIG",
      "taf": "TAF HEGN 092300Z 1000/1106 30015KT CAVOK"
    },
    {
      "icao": "HEMA",
      "alert": "OK",
      "vis_m": 9999,
      "fzfg": false,
      "metar_trigger": false,
      "taf_trigger": false,
      "metar": "METAR HEMA 100400Z 32015KT CAVOK 17/05 Q1016 NOSIG",
      "taf": "TAF HEMA 092300Z 1000/1106 27010KT CAVOK"
    },
    {
      "icao": "HESH",
      "alert": "OK",
      "vis_m": 9999,
      "fzfg": false,
      "metar_trigger": false,
      "taf_trigger": false,
      "metar": "METAR HESH 100400Z 34012KT CAVOK 16/04 Q1016 NOSIG",
      "taf": "TAF HESH 092300Z 1000/1106 32010KT CAVOK"
    },
    {
      "icao": "HESX",
      "alert": "OK",
      "vis_m": 9999,
      "fzfg": false,
      "metar_trigger": false,
      "taf_trigger": false,
      "metar": "METAR HESX 100400Z 04006KT CAVOK 08/06 Q1020 NOSIG",
      "taf": "TAF HESX 092300Z 1000/1106 05009KT CAVOK"
    },
    {
      "icao": "LATI",
      "alert": "OK",
      "vis_m": 9999,
      "fzfg": false,
      "metar_trigger": false,
      "taf_trigger": false,
      "metar": "METAR LATI 100420Z 14004KT CAVOK 03/00 Q1025 NOSIG",
      "taf": "TAF LATI 092300Z 1000/1024 VRB03KT CAVOK TX19/1012Z TN04/1005Z"
    },
    {
      "icao": "LBPD",
      "alert": "OK",
      "vis_m": 9999,
      "fzfg": false,
      "metar_trigger": false,
      "taf_trigger": false,
      "metar": "METAR LBPD 100400Z AUTO 00000KT 9999 NCD M01/M01 Q1032 NOSIG",
      "taf": "TAF LBPD 092300Z 1000/1024 VRB04KT CAVOK"
    },
    {
      "icao": "LBSF",
      "alert": "OK",
      "vis_m": 9999,
      "fzfg": false,
      "metar_trigger": false,
      "taf_trigger": false,
      "metar": "METAR LBSF 100400Z AUTO 09008KT 9999 NCD M01/M02 Q1030 NOSIG",
      "taf": "TAF LBSF 092300Z 1000/1024 13010KT CAVOK"
    },
    {
      "icao": "LBWN",
      "alert": "OK",
      "vis_m": 600,
      "fzfg": true,
      "metar_trigger": false,
      "taf_trigger": false,
      "metar": "METAR LBWN 100400Z AUTO 28002KT 0600 0350W R09/0450D FG SCT002/// BKN014/// M02/M02 Q1032 TEMPO 0300 FZFG BKN002",
      "taf": ""
    },
    {
      "icao": "LCLK",
      "alert": "OK",
      "vis_m": 9999,
      "fzfg": false,
      "metar_trigger": false,
      "taf_trigger": false,
      "metar": "METAR LCLK 100400Z 35008KT 310V010 9999 FEW025 09/04 Q1023 NOSIG",
      "taf": "TAF LCLK 092330Z 1000/1100 32008KT CAVOK"
    },
    {
      "icao": "LCPH",
      "alert": "OK",
      "vis_m": 9999,
      "fzfg": false,
      "metar_trigger": false,
      "taf_trigger": false,
      "metar": "METAR LCPH 100400Z AUTO 04004KT 010V080 9999 NCD 10/00 Q1022 NOSIG",
      "taf": "TAF LCPH 092330Z 1000/1100 04008KT CAVOK"
    },
    {
      "icao": "LEAL",
      "alert": "OK",
      "vis_m": 9999,
      "fzfg": false,
      "metar_trigger": false,
      "taf_trigger": false,
      "metar": "METAR LEAL 100400Z 09004KT 9999 FEW012 13/13 Q1016 NOSIG",
      "taf": "TAF LEAL 092300Z 1000/1024 VRB04KT 9999 SCT025 TX14/1013Z TN10/1006Z"
    },
    {
      "icao": "LEBB",
      "alert": "OK",
      "vis_m": 9999,
      "fzfg": false,
      "metar_trigger": false,
      "taf_trigger": false,
      "metar": "METAR LEBB 100400Z 00000KT 9999 BKN024 10/10 Q1020 TEMPO 3000 BR",
      "taf": "TAF LEBB 092300Z 1000/1024 30008KT 9999 FEW005 BKN016 TX15/1014Z TN07/1023Z"
    },
    {
      "icao": "LEBL",
      "alert": "OK",
      "vis_m": 1800,
      "fzfg": false,
      "metar_trigger": false,
      "taf_trigger": false,
      "metar": "METAR LEBL 100400Z 33008KT 1800 0800N BR BCFG FEW005 SCT022 09/09 Q1019 NOSIG",
      "taf": ""
    },
    {
      "icao": "LECH",
      "alert": "OK",
      "vis_m": 8000,
      "fzfg": false,
      "metar_trigger": false,
      "taf_trigger": false,
      "metar": "METAR LECH 100400Z AUTO 03004KT 360V070 8000 OVC034 09/08 Q1018",
      "taf": ""
    },
    {
      "icao": "LEMD",
      "alert": "OK",
      "vis_m": 9999,
      "fzfg": false,
      "metar_trigger": false,
      "taf_trigger": false,
      "metar": "METAR LEMD 100400Z 17003KT 9999 SCT015 BKN020 04/04 Q1017 NOSIG",
      "taf": "TAF LEMD 092300Z 1000/1106 VRB03KT 9999 SCT020 TX13/1015Z TN04/1006Z"
    },
    {
      "icao": "LEMG",
      "alert": "OK",
      "vis_m": 9999,
      "fzfg": false,
      "metar_trigger": false,
      "taf_trigger": false,
      "metar": "METAR LEMG 100400Z 29010KT CAVOK 09/05 Q1018 NOSIG",
      "taf": "TAF LEMG 092300Z 1000/1024 29010KT CAVOK TX15/1015Z TN08/1007Z"
    },
    {
      "icao": "LEVC",
      "alert": "OK",
      "vis_m": 9999,
      "fzfg": false,
      "metar_trigger": false,
      "taf_trigger": false,
      "metar": "METAR LEVC 100400Z 32004KT 9999 OVC014 11/09 Q1017 NOSIG",
      "taf": ""
    },
    {
      "icao": "LEXJ",
      "alert": "OK",
      "vis_m": 9999,
      "fzfg": false,
      "metar_trigger": false,
      "taf_trigger": false,
      "metar": "METAR LEXJ 100400Z AUTO 22006KT 9999 FEW026 OVC038 09/05 Q1020",
      "taf": "TAF LEXJ 100200Z 1003/1103 22009KT 9999 BKN025 TX15/1014Z TN09/1102Z"
    },
    {
      "icao": "LEZG",
      "alert": "OK",
      "vis_m": 9999,
      "fzfg": false,
      "metar_trigger": false,
      "taf_trigger": false,
      "metar": "METAR LEZG 100400Z VRB02KT 9999 FEW020 BKN070 09/09 Q1018 NOSIG",
      "taf": "TAF LEZG 092300Z 1000/1024 VRB04KT 9999 FEW025 SCT040 TX15/1014Z TN07/1006Z"
    },
    {
      "icao": "LEZL",
      "alert": "OK",
      "vis_m": 9999,
      "fzfg": false,
      "metar_trigger": false,
      "taf_trigger": false,
      "metar": "METAR LEZL 100400Z AUTO 28004KT 9999 OVC045 09/07 Q1019",
      "taf": "TAF LEZL 100200Z 1003/1103 27005KT CAVOK TX16/1015Z TN08/1007Z"
    },
    {
      "icao": "LFBD",
      "alert": "OK",
      "vis_m": 9999,
      "fzfg": false,
      "metar_trigger": false,
      "taf_trigger": false,
      "metar": "METAR LFBD 100400Z AUTO 13005KT CAVOK 07/07 Q1018 TEMPO 0400 FG VV///",
      "taf": ""
    },
    {
      "icao": "LFLL",
      "alert": "OK",
      "vis_m": 9999,
      "fzfg": false,
      "metar_trigger": false,
      "taf_trigger": false,
      "metar": "METAR LFLL 100400Z 00000KT 9999 -RA OVC032 10/09 Q1020 NOSIG",
      "taf": "TAF LFLL 092300Z 1000/1106 15003KT 9999 BKN053"
    },
    {
      "icao": "LFLS",
      "alert": "OK",
      "vis_m": 9999,
      "fzfg": false,
      "metar_trigger": false,
      "taf_trigger": false,
      "metar": "METAR LFLS 100400Z AUTO 34002KT 9999 -DZ SCT012/// SCT031/// BKN052/// //////TCU 09/08 Q1020 TEMPO 4000 -RA BKN009",
      "taf": "TAF LFLS 100200Z 1003/1103 09005KT 9999 FEW015 BKN040"
    },
    {
      "icao": "LFMN",
      "alert": "OK",
      "vis_m": 4000,
      "fzfg": false,
      "metar_trigger": false,
      "taf_trigger": false,
      "metar": "METAR LFMN 100400Z 06010KT 4000 +TSRA BKN010 BKN030CB BKN050 12/10 Q1022 BECMG NSW",
      "taf": ""
    },
    {
      "icao": "LFOB",
      "alert": "OK",
      "vis_m": 7000,
      "fzfg": false,
      "metar_trigger": false,
      "taf_trigger": false,
      "metar": "METAR LFOB 100400Z AUTO 20003KT 7000 -RA //////TCU 10/10 Q1017 TEMPO 4500 -SHRA BECMG FEW045",
      "taf": ""
    },
    {
      "icao": "LFPO",
      "alert": "OK",
      "vis_m": 9999,
      "fzfg": false,
      "metar_trigger": false,
      "taf_trigger": false,
      "metar": "METAR LFPO 100400Z AUTO 22002KT 9999 SCT025/// BKN035/// BKN064/// //////TCU 11/09 Q1018 TEMPO 4000 -SHRA",
      "taf": ""
    },
    {
      "icao": "LFSB",
      "alert": "OK",
      "vis_m": 9999,
      "fzfg": false,
      "metar_trigger": false,
      "taf_trigger": false,
      "metar": "METAR LFSB 100400Z AUTO 16006KT CAVOK 06/04 Q1020 NOSIG",
      "taf": "TAF LFSB 092300Z 1000/1024 14004KT CAVOK"
    },
    {
      "icao": "LGAV",
      "alert": "OK",
      "vis_m": 9999,
      "fzfg": false,
      "metar_trigger": false,
      "taf_trigger": false,
      "metar": "METAR LGAV 100350Z 01009KT 9999 FEW025 08/04 Q1026 NOSIG",
      "taf": "TAF LGAV 092300Z 1000/1024 01014KT 9999 FEW025"
    },
    {
      "icao": "LGTS",
      "alert": "OK",
      "vis_m": 9999,
      "fzfg": false,
      "metar_trigger": false,
      "taf_trigger": false,
      "metar": "METAR LGTS 100350Z VRB03KT 9999 FEW025 02/01 Q1030 NOSIG",
      "taf": "TAF LGTS 092300Z 1000/1024 VRB03KT 9999 FEW030"
    },
    {
      "icao": "LHBP",
      "alert": "OK",
      "vis_m": 9999,
      "fzfg": false,
      "metar_trigger": false,
      "taf_trigger": false,
      "metar": "METAR LHBP 100400Z 10009KT CAVOK 03/M00 Q1026 NOSIG",
      "taf": "TAF LHBP 092315Z 1000/1024 13006KT CAVOK"
    },
    {
      "icao": "LHDC",
      "alert": "OK",
      "vis_m": 9999,
      "fzfg": false,
      "metar_trigger": false,
      "taf_trigger": false,
      "metar": "METAR LHDC 100345Z AUTO 07003KT CAVOK 00/M01 Q1027",
      "taf": ""
    },
    {
      "icao": "LIBD",
      "alert": "OK",
      "vis_m": 9999,
      "fzfg": false,
      "metar_trigger": false,
      "taf_trigger": false,
      "metar": "METAR LIBD 100350Z 22005KT CAVOK 06/06 Q1024",
      "taf": "TAF LIBD 092300Z 1000/1024 VRB05KT CAVOK"
    },
    {
      "icao": "LIBG",
      "alert": "OK",
      "vis_m": null,
      "fzfg": false,
      "metar_trigger": false,
      "taf_trigger": false,
      "metar": "",
      "taf": "TAF LIBG 091700Z 0918/1003 VRB05KT 9000 SCT003"
    },
    {
      "icao": "LIBP",
      "alert": "OK",
      "vis_m": 3400,
      "fzfg": false,
      "metar_trigger": false,
      "taf_trigger": false,
      "metar": "METAR LIBP 100350Z AUTO VRB01KT 3400 BR OVC110/// 09/09 Q1024",
      "taf": "TAF LIBP 092300Z 1000/1024 VRB05KT 4000 BR SCT020"
    },
    {
      "icao": "LIBR",
      "alert": "OK",
      "vis_m": 9999,
      "fzfg": false,
      "metar_trigger": false,
      "taf_trigger": false,
      "metar": "METAR LIBR 100350Z 27003KT CAVOK 09/08 Q1024",
      "taf": "TAF LIBR 092300Z 1000/1024 VRB05KT CAVOK"
    },
    {
      "icao": "LICA",
      "alert": "OK",
      "vis_m": 9999,
      "fzfg": false,
      "metar_trigger": false,
      "taf_trigger": false,
      "metar": "METAR LICA 100350Z AUTO 06007KT 9999 NCD 09/08 Q1023",
      "taf": "TAF LICA 092300Z 1000/1024 07010KT CAVOK"
    },
    {
      "icao": "LICC",
      "alert": "OK",
      "vis_m": 6000,
      "fzfg": false,
      "metar_trigger": false,
      "taf_trigger": false,
      "metar": "METAR LICC 100350Z 25004KT 6000 SCT025 07/05 Q1023",
      "taf": "TAF LICC 092300Z 1000/1024 03006KT 9999 FEW020"
    },
    {
      "icao": "LICJ",
      "alert": "OK",
      "vis_m": 9999,
      "fzfg": false,
      "metar_trigger": false,
      "taf_trigger": false,
      "metar": "METAR LICJ 100350Z 17002KT CAVOK 11/09 Q1022",
      "taf": "TAF LICJ 092300Z 1000/1024 VRB05KT 9999 FEW010"
    },
    {
      "icao": "LIMC",
      "alert": "OK",
      "vis_m": 9999,
      "fzfg": false,
      "metar_trigger": false,
      "taf_trigger": false,
      "metar": "METAR LIMC 100350Z 33002KT 9999 BKN050 BKN095 10/06 Q1023 NOSIG",
      "taf": "TAF LIMC 092300Z 1000/1106 VRB05KT 9999 SCT060"
    },
    {
      "icao": "LIME",
      "alert": "OK",
      "vis_m": 9999,
      "fzfg": false,
      "metar_trigger": false,
      "taf_trigger": false,
      "metar": "METAR LIME 100350Z VRB02KT 9999 SCT090 09/05 Q1023 NOSIG",
      "taf": "TAF LIME 092300Z 1000/1024 VRB05KT 9999 SCT050"
    },
    {
      "icao": "LIMF",
      "alert": "OK",
      "vis_m": 8000,
      "fzfg": false,
      "metar_trigger": false,
      "taf_trigger": false,
      "metar": "METAR LIMF 100350Z 29006KT 8000 BKN070 10/05 Q1023",
      "taf": "TAF LIMF 092300Z 1000/1024 VRB04KT 7000 SCT050"
    },
    {
      "icao": "LIMJ",
      "alert": "OK",
      "vis_m": 9999,
      "fzfg": false,
      "metar_trigger": false,
      "taf_trigger": false,
      "metar": "METAR LIMJ 100350Z AUTO 04005KT 9999 OVC071/// 13/07 Q1022",
      "taf": "TAF LIMJ 092300Z 1000/1024 VRB06KT 9999 SCT030"
    },
    {
      "icao": "LIPE",
      "alert": "OK",
      "vis_m": 9999,
      "fzfg": false,
      "metar_trigger": false,
      "taf_trigger": false,
      "metar": "METAR LIPE 100350Z VRB02KT CAVOK 06/04 Q1023",
      "taf": "TAF LIPE 092300Z 1000/1024 VRB05KT 8000 NSC"
    },
    {
      "icao": "LIPH",
      "alert": "OK",
      "vis_m": 6000,
      "fzfg": false,
      "metar_trigger": false,
      "taf_trigger": false,
      "metar": "METAR LIPH 100350Z AUTO 03003KT 6000 NCD 09/08 Q1024",
      "taf": "TAF LIPH 092300Z 1000/1024 VRB04KT 1500 BR OVC014"
    },
    {
      "icao": "LIPQ",
      "alert": "OK",
      "vis_m": 100,
      "fzfg": false,
      "metar_trigger": false,
      "taf_trigger": false,
      "metar": "METAR LIPQ 100350Z AUTO 07001KT 0100 R09/0350D BCFG FEW010/// 04/04 Q1024",
      "taf": "TAF LIPQ 092300Z 1000/1024 VRB04KT 2000 BR FEW010"
    },
    {
      "icao": "LIPR",
      "alert": "OK",
      "vis_m": 1300,
      "fzfg": false,
      "metar_trigger": false,
      "taf_trigger": false,
      "metar": "METAR LIPR 100350Z AUTO 17002KT 1300 R30/P2000N BR NCD 03/03 Q1023",
      "taf": "TAF LIPR 092300Z 1000/1024 VRB05KT 6000 NSC"
    },
    {
      "icao": "LIPX",
      "alert": "OK",
      "vis_m": 2500,
      "fzfg": false,
      "metar_trigger": false,
      "taf_trigger": false,
      "metar": "METAR LIPX 100350Z VRB02KT 2500 BR SCT004 07/06 Q1024",
      "taf": ""
    },
    {
      "icao": "LIPY",
      "alert": "OK",
      "vis_m": 3600,
      "fzfg": false,
      "metar_trigger": false,
      "taf_trigger": false,
      "metar": "METAR LIPY 100350Z AUTO VRB01KT 3600 BR SCT072/// 07/07 Q1023",
      "taf": "TAF LIPY 092300Z 1000/1024 VRB05KT 4000 BR SCT030"
    },
    {
      "icao": "LIPZ",
      "alert": "OK",
      "vis_m": 4000,
      "fzfg": false,
      "metar_trigger": false,
      "taf_trigger": false,
      "metar": "METAR LIPZ 100350Z 05005KT 4000 BR NSC 08/07 Q1024 NOSIG",
      "taf": "TAF LIPZ 092300Z 1000/1106 VRB04KT 2000 BR OVC003"
    },
    {
      "icao": "LIRF",
      "alert": "OK",
      "vis_m": 9000,
      "fzfg": false,
      "metar_trigger": false,
      "taf_trigger": false,
      "metar": "METAR LIRF 100350Z 07004KT 9000 FEW050 08/08 Q1023 NOSIG",
      "taf": "TAF LIRF 092300Z 1000/1106 06005KT 9999 FEW030"
    },
    {
      "icao": "LIRN",
      "alert": "OK",
      "vis_m": 9999,
      "fzfg": false,
      "metar_trigger": false,
      "taf_trigger": false,
      "metar": "METAR LIRN 100350Z 35003KT CAVOK 08/07 Q1023 NOSIG",
      "taf": "TAF LIRN 092300Z 1000/1024 VRB05KT CAVOK"
    },
    {
      "icao": "LIRP",
      "alert": "OK",
      "vis_m": 8000,
      "fzfg": false,
      "metar_trigger": false,
      "taf_trigger": false,
      "metar": "METAR LIRP 100345Z VRB02KT 8000 SCT040 08/08 Q1023 NOSIG",
      "taf": "TAF LIRP 092300Z 1000/1024 09003KT 4000 MIFG FEW005 SCT010"
    },
    {
      "icao": "LIRZ",
      "alert": "OK",
      "vis_m": 9999,
      "fzfg": false,
      "metar_trigger": false,
      "taf_trigger": false,
      "metar": "METAR LIRZ 100350Z AUTO 34002KT 9999 BKN049/// 07/06 Q1024",
      "taf": "TAF LIRZ 092300Z 1000/1024 VRB05KT 9999 FEW060"
    },
    {
      "icao": "LJLJ",
      "alert": "OK",
      "vis_m": 9999,
      "fzfg": false,
      "metar_trigger": false,
      "taf_trigger": false,
      "metar": "METAR LJLJ 100400Z 28002KT 9999 FEW060 SCT090 01/M00 Q1023 NOSIG",
      "taf": "TAF LJLJ 092300Z 1000/1100 12004KT 9999 FEW055"
    },
    {
      "icao": "LKMT",
      "alert": "OK",
      "vis_m": 9999,
      "fzfg": false,
      "metar_trigger": false,
      "taf_trigger": false,
      "metar": "METAR LKMT 100400Z 26007KT CAVOK 04/M02 Q1022 NOSIG",
      "taf": "TAF LKMT 092300Z 1000/1024 21006KT CAVOK"
    },
    {
      "icao": "LKPR",
      "alert": "OK",
      "vis_m": 9999,
      "fzfg": false,
      "metar_trigger": false,
      "taf_trigger": false,
      "metar": "METAR LKPR 100400Z VRB02KT CAVOK 04/01 Q1019 NOSIG",
      "taf": "TAF LKPR 100200Z 1003/1109 19004KT CAVOK"
    },
    {
      "icao": "LLBG",
      "alert": "OK",
      "vis_m": 9999,
      "fzfg": false,
      "metar_trigger": false,
      "taf_trigger": false,
      "metar": "METAR LLBG 100420Z VRB01KT CAVOK 07/03 Q1021 NOSIG",
      "taf": "TAF LLBG 092343Z 1000/1024 VRB04KT CAVOK TX24/1012Z TN07/1004Z"
    },
    {
      "icao": "LMML",
      "alert": "OK",
      "vis_m": 9999,
      "fzfg": false,
      "metar_trigger": false,
      "taf_trigger": false,
      "metar": "METAR LMML 100415Z 06014KT 9999 FEW018 14/11 Q1020 NOSIG",
      "taf": "TAF LMML 092300Z 1000/1024 09017KT 9999 SCT015"
    },
    {
      "icao": "LOWW",
      "alert": "OK",
      "vis_m": 9999,
      "fzfg": false,
      "metar_trigger": false,
      "taf_trigger": false,
      "metar": "METAR LOWW 100350Z 13009KT CAVOK 06/00 Q1021 NOSIG",
      "taf": "TAF LOWW 100215Z 1003/1109 15010KT CAVOK TX17/1014Z TN04/1105Z"
    },
    {
      "icao": "LPFR",
      "alert": "OK",
      "vis_m": 9999,
      "fzfg": false,
      "metar_trigger": false,
      "taf_trigger": false,
      "metar": "METAR LPFR 100400Z 30006KT 9999 FEW040 09/06 Q1020",
      "taf": "TAF LPFR 092300Z 1000/1024 30007KT 9999 SCT030"
    },
    {
      "icao": "LPMA",
      "alert": "OK",
      "vis_m": 9999,
      "fzfg": false,
      "metar_trigger": false,
      "taf_trigger": false,
      "metar": "METAR LPMA 100400Z 02017KT 350V050 9999 SCT015 SCT030 14/05 Q1028",
      "taf": "TAF LPMA 092300Z 1000/1024 01012KT 9999 SCT015 BKN030"
    },
    {
      "icao": "LPPR",
      "alert": "OK",
      "vis_m": 9999,
      "fzfg": false,
      "metar_trigger": false,
      "taf_trigger": false,
      "metar": "METAR LPPR 100400Z 34006KT 9999 FEW018 07/05 Q1020",
      "taf": "TAF LPPR 092300Z 1000/1024 VRB02KT 9999 SCT018"
    },
    {
      "icao": "LPPS",
      "alert": "OK",
      "vis_m": 9999,
      "fzfg": false,
      "metar_trigger": false,
      "taf_trigger": false,
      "metar": "METAR LPPS 100400Z 02014KT 9999 SCT014 BKN030 14/05 Q1028",
      "taf": "TAF LPPS 092300Z 1000/1106 03015KT 9999 SCT015 BKN030"
    },
    {
      "icao": "LPPT",
      "alert": "OK",
      "vis_m": 9999,
      "fzfg": false,
      "metar_trigger": false,
      "taf_trigger": false,
      "metar": "METAR LPPT 100400Z 31006KT 270V010 9999 -SHRA FEW020 FEW024TCU SCT030 09/07 Q1021",
      "taf": "TAF LPPT 092300Z 1000/1106 33010KT 9999 SCT018"
    },
    {
      "icao": "LQBK",
      "alert": "OK",
      "vis_m": 9999,
      "fzfg": false,
      "metar_trigger": false,
      "taf_trigger": false,
      "metar": "METAR LQBK 100400Z 30002KT CAVOK 01/M01 Q1024 NOSIG",
      "taf": "TAF LQBK 092300Z 1000/1024 14005KT CAVOK TX18/1014Z TN01/1005Z"
    },
    {
      "icao": "LQSA",
      "alert": "OK",
      "vis_m": 9999,
      "fzfg": false,
      "metar_trigger": false,
      "taf_trigger": false,
      "metar": "METAR LQSA 100400Z VRB01KT CAVOK 01/01 Q1025",
      "taf": "TAF LQSA 092300Z 1000/1024 VRB02KT 9999 SCT055 TX16/1014Z TN01/1005Z"
    },
    {
      "icao": "LQTZ",
      "alert": "OK",
      "vis_m": 8000,
      "fzfg": false,
      "metar_trigger": false,
      "taf_trigger": false,
      "metar": "METAR LQTZ 100400Z 10002KT 8000 NSC M00/M01 Q1025",
      "taf": "TAF LQTZ 092300Z 1000/1024 VRB02KT CAVOK TX18/1014Z TN00/1005Z"
    },
    {
      "icao": "LRBC",
      "alert": "OK",
      "vis_m": 9999,
      "fzfg": false,
      "metar_trigger": false,
      "taf_trigger": false,
      "metar": "METAR LRBC 100400Z 18012KT CAVOK 02/01 Q1030",
      "taf": "TAF LRBC 100200Z 1003/1012 17010KT CAVOK"
    },
    {
      "icao": "LRBS",
      "alert": "OK",
      "vis_m": 6000,
      "fzfg": false,
      "metar_trigger": false,
      "taf_trigger": false,
      "metar": "METAR LRBS 100400Z 09003KT 6000 NSC M02/M03 Q1032 TEMPO 3000 BR",
      "taf": "TAF LRBS 092300Z 1000/1024 06007KT CAVOK"
    },
    {
      "icao": "LRBV",
      "alert": "OK",
      "vis_m": 9999,
      "fzfg": false,
      "metar_trigger": false,
      "taf_trigger": false,
      "metar": "METAR LRBV 100400Z AUTO 13007KT 9999 NCD M03/M06 Q1030",
      "taf": "TAF LRBV 100200Z 1003/1012 VRB04KT CAVOK"
    },
    {
      "icao": "LRCL",
      "alert": "OK",
      "vis_m": 9999,
      "fzfg": false,
      "metar_trigger": false,
      "taf_trigger": false,
      "metar": "METAR LRCL 100400Z 09005KT CAVOK 02/M05 Q1029",
      "taf": "TAF LRCL 100200Z 1003/1012 08008KT CAVOK"
    },
    {
      "icao": "LRCV",
      "alert": "OK",
      "vis_m": 9999,
      "fzfg": false,
      "metar_trigger": false,
      "taf_trigger": false,
      "metar": "METAR LRCV 100400Z 04007KT CAVOK 01/M00 Q1030",
      "taf": "TAF LRCV 100200Z 1003/1012 06012KT CAVOK"
    },
    {
      "icao": "LRIA",
      "alert": "OK",
      "vis_m": 9999,
      "fzfg": false,
      "metar_trigger": false,
      "taf_trigger": false,
      "metar": "METAR LRIA 100400Z 10010KT CAVOK 01/M01 Q1030",
      "taf": "TAF LRIA 100200Z 1003/1012 18006KT CAVOK"
    },
    {
      "icao": "LROP",
      "alert": "OK",
      "vis_m": 5000,
      "fzfg": false,
      "metar_trigger": false,
      "taf_trigger": false,
      "metar": "METAR LROP 100400Z 08005KT 5000 BR NSC M00/M01 Q1032 TEMPO 3000 BR",
      "taf": "TAF LROP 092300Z 1000/1024 06007KT CAVOK"
    },
    {
      "icao": "LRSB",
      "alert": "OK",
      "vis_m": 9999,
      "fzfg": false,
      "metar_trigger": false,
      "taf_trigger": false,
      "metar": "METAR LRSB 100400Z 08009KT CAVOK 06/M07 Q1029",
      "taf": "TAF LRSB 092300Z 1000/1024 VRB04KT CAVOK"
    },
    {
      "icao": "LRSM",
      "alert": "OK",
      "vis_m": null,
      "fzfg": false,
      "metar_trigger": false,
      "taf_trigger": false,
      "metar": "",
      "taf": "TAF LRSM 100200Z 1003/1012 VRB04KT CAVOK"
    },
    {
      "icao": "LRSV",
      "alert": "OK",
      "vis_m": 9999,
      "fzfg": false,
      "metar_trigger": false,
      "taf_trigger": false,
      "metar": "METAR LRSV 100400Z 21009KT CAVOK 01/M02 Q1028",
      "taf": "TAF LRSV 100200Z 1003/1012 19008KT CAVOK"
    },
    {
      "icao": "LRTM",
      "alert": "OK",
      "vis_m": 9999,
      "fzfg": false,
      "metar_trigger": false,
      "taf_trigger": false,
      "metar": "METAR LRTM 100400Z AUTO 10007KT 9999 NCD M01/M04 Q1030",
      "taf": "TAF LRTM 100200Z 1003/1012 09008KT CAVOK"
    },
    {
      "icao": "LRTR",
      "alert": "OK",
      "vis_m": 9999,
      "fzfg": false,
      "metar_trigger": false,
      "taf_trigger": false,
      "metar": "METAR LRTR 100400Z 10010KT CAVOK 05/M00 Q1027",
      "taf": "TAF LRTR 092300Z 1000/1024 10006KT CAVOK"
    },
    {
      "icao": "LTAC",
      "alert": "OK",
      "vis_m": 9999,
      "fzfg": false,
      "metar_trigger": false,
      "taf_trigger": false,
      "metar": "METAR LTAC 100350Z 03007KT 350V080 CAVOK M02/M07 Q1030 NOSIG RMK RWY21C 01008KT RWY03L 02008KT RWY21R 02006KT RWY03R 35007KT RWY21L 36009KT",
      "taf": "TAF LTAC 092240Z 1000/1024 05010KT CAVOK"
    },
    {
      "icao": "LTFM",
      "alert": "OK",
      "vis_m": 9999,
      "fzfg": false,
      "metar_trigger": false,
      "taf_trigger": false,
      "metar": "METAR LTFM 100350Z 04010KT 9999 BKN008 06/05 Q1030 NOSIG RMK RWY17L 04006KT RWY34L 04010KT RWY16R 03006KT RWY36 05010KT RWY18 07009KT",
      "taf": "TAF LTFM 092240Z 1000/1106 06012KT 9999 FEW025"
    },
    {
      "icao": "LUKK",
      "alert": "OK",
      "vis_m": 9999,
      "fzfg": false,
      "metar_trigger": false,
      "taf_trigger": false,
      "metar": "METAR LUKK 100400Z VRB03KT CAVOK 01/M03 Q1032 NOSIG",
      "taf": "TAF LUKK 092318Z 1000/1024 VRB05KT CAVOK"
    },
    {
      "icao": "LWOH",
      "alert": "OK",
      "vis_m": null,
      "fzfg": false,
      "metar_trigger": false,
      "taf_trigger": false,
      "metar": "",
      "taf": "TAF LWOH 100230Z 1003/1103 02006KT CAVOK"
    },
    {
      "icao": "LWSK",
      "alert": "OK",
      "vis_m": 9999,
      "fzfg": false,
      "metar_trigger": false,
      "taf_trigger": false,
      "metar": "METAR LWSK 100320Z 01004KT CAVOK 01/M01 Q1029 NOSIG",
      "taf": "TAF LWSK 100230Z 1003/1103 VRB02KT CAVOK"
    },
    {
      "icao": "LYBE",
      "alert": "OK",
      "vis_m": 9999,
      "fzfg": false,
      "metar_trigger": false,
      "taf_trigger": false,
      "metar": "METAR LYBE 100400Z 14014KT CAVOK 08/M00 Q1026 NOSIG",
      "taf": "TAF LYBE 092300Z 1000/1024 12015KT CAVOK TX17/1013Z TN06/1005Z"
    },
    {
      "icao": "LYNI",
      "alert": "OK",
      "vis_m": 9999,
      "fzfg": false,
      "metar_trigger": false,
      "taf_trigger": false,
      "metar": "METAR LYNI 100400Z 11015KT CAVOK 06/M01 Q1029 NOSIG",
      "taf": "TAF LYNI 092300Z 1000/1024 09011KT CAVOK TX17/1012Z TN04/1005Z"
    },
    {
      "icao": "LYPG",
      "alert": "OK",
      "vis_m": 9999,
      "fzfg": false,
      "metar_trigger": false,
      "taf_trigger": false,
      "metar": "METAR LYPG 100400Z VRB02KT 9999 SCT090 08/06 Q1025 NOSIG",
      "taf": "TAF LYPG 092300Z 1000/1024 35005KT 9999 SCT090 TX19/1013Z TN06/1005Z"
    },
    {
      "icao": "LZIB",
      "alert": "OK",
      "vis_m": 9999,
      "fzfg": false,
      "metar_trigger": false,
      "taf_trigger": false,
      "metar": "METAR LZIB 100400Z 05006KT CAVOK 04/00 Q1023 NOSIG",
      "taf": "TAF LZIB 092315Z 1000/1100 07005KT CAVOK"
    },
    {
      "icao": "LZKZ",
      "alert": "OK",
      "vis_m": 9999,
      "fzfg": false,
      "metar_trigger": false,
      "taf_trigger": false,
      "metar": "METAR LZKZ 100400Z 35002KT CAVOK 01/M01 Q1027 NOSIG",
      "taf": "TAF LZKZ 092315Z 1000/1100 VRB02KT CAVOK"
    },
    {
      "icao": "LZTT",
      "alert": "OK",
      "vis_m": 9999,
      "fzfg": false,
      "metar_trigger": false,
      "taf_trigger": false,
      "metar": "METAR LZTT 100400Z 22004KT 180V260 9999 FEW046 01/M02 Q1025",
      "taf": "TAF LZTT 092315Z 1000/1100 26006KT CAVOK"
    },
    {
      "icao": "OEJN",
      "alert": "OK",
      "vis_m": 9999,
      "fzfg": false,
      "metar_trigger": false,
      "taf_trigger": false,
      "metar": "METAR OEJN 100400Z 33004KT CAVOK 19/11 Q1013 NOSIG",
      "taf": "TAF OEJN 092300Z 1000/1106 03005KT CAVOK"
    },
    {
      "icao": "OEMA",
      "alert": "OK",
      "vis_m": 9999,
      "fzfg": false,
      "metar_trigger": false,
      "taf_trigger": false,
      "metar": "METAR OEMA 100400Z 01004KT CAVOK 15/M03 Q1017 NOSIG",
      "taf": "TAF OEMA 092300Z 1000/1106 VRB03KT CAVOK"
    },
    {
      "icao": "OJAI",
      "alert": "OK",
      "vis_m": 5000,
      "fzfg": false,
      "metar_trigger": false,
      "taf_trigger": false,
      "metar": "METAR OJAI 100400Z 00000KT 5000 BR NSC 00/M02 Q1020 NOSIG",
      "taf": "TAF OJAI 092249Z 1000/1106 11005KT 5000 HZ NSC"
    },
    {
      "icao": "OMAA",
      "alert": "OK",
      "vis_m": null,
      "fzfg": false,
      "metar_trigger": false,
      "taf_trigger": false,
      "metar": "",
      "taf": ""
    },
    {
      "icao": "OMDB",
      "alert": "OK",
      "vis_m": null,
      "fzfg": false,
      "metar_trigger": false,
      "taf_trigger": false,
      "metar": "",
      "taf": ""
    },
    {
      "icao": "UAAA",
      "alert": "OK",
      "vis_m": 9999,
      "fzfg": false,
      "metar_trigger": false,
      "taf_trigger": false,
      "metar": "METAR UAAA 100400Z 26005MPS 240V310 9999 -SHRA SCT006 BKN017CB OVC100 03/02 Q1022 NOSIG RMK QBB180",
      "taf": "TAF UAAA 092302Z 1000/1024 15003MPS 4000 -SHRA BR BKN011CB OVC020 TX05/1002Z TN02/1008Z"
    },
    {
      "icao": "UBBB",
      "alert": "OK",
      "vis_m": 9999,
      "fzfg": false,
      "metar_trigger": false,
      "taf_trigger": false,
      "metar": "METAR UBBB 100400Z VRB02KT 9999 BKN030 04/00 Q1038 NOSIG",
      "taf": "TAF UBBB 092303Z 1000/1024 33010KT 9999 BKN020 TX06/1010Z TN02/1001Z"
    },
    {
      "icao": "UDSG",
      "alert": "OK",
      "vis_m": 9999,
      "fzfg": false,
      "metar_trigger": false,
      "taf_trigger": false,
      "metar": "METAR UDSG 100400Z 04002KT 9999 NSC M14/M17 Q1031 NOSIG",
      "taf": "TAF UDSG 092300Z 1000/1024 VRB06KT 9999 FEW050"
    },
    {
      "icao": "UDYZ",
      "alert": "OK",
      "vis_m": 9999,
      "fzfg": false,
      "metar_trigger": false,
      "taf_trigger": false,
      "metar": "METAR UDYZ 100400Z 34002KT 9999 NSC M05/M07 Q1033 NOSIG",
      "taf": "TAF UDYZ 092300Z 1000/1024 18006KT 9999 FEW040"
    },
    {
      "icao": "UGKO",
      "alert": "OK",
      "vis_m": 9999,
      "fzfg": false,
      "metar_trigger": false,
      "taf_trigger": false,
      "metar": "METAR UGKO 100400Z 11003KT 9999 BKN075 02/01 Q1035 NOSIG",
      "taf": "TAF UGKO 092300Z 1000/1024 08007KT 9999 SCT060 TX14/1012Z TN02/1004Z"
    }
  ]
}