{
  "ts_utc": "2026-01-10T09:35:09Z",
  "threshold_m": 150,
  "source": "stations_override.txt (ICAO list) + aviationweather.gov (METAR/TAF raw)",
  "station_count": 159,
  "stations": [
    {
      "icao": "BIKF",
      "alert": "OK",
      "vis_m": 9999,
      "fzfg": false,
      "metar_trigger": false,
      "taf_trigger": false,
      "metar": "METAR BIKF 100930Z 08002KT CAVOK M04/M08 Q1011",
      "taf": "TAF BIKF 100747Z 1009/1109 06007KT 9999 FEW040 TX00/1106Z TNM07/1009Z"
    },
    {
      "icao": "BKPR",
      "alert": "OK",
      "vis_m": 6000,
      "fzfg": false,
      "metar_trigger": false,
      "taf_trigger": false,
      "metar": "METAR BKPR 100930Z 12004KT 6000 -RA FEW005 SCT015 BKN025 01/01 Q0998 TEMPO 4000 RA",
      "taf": "TAF BKPR 100530Z 1006/1106 17008KT 9999 SCT020 BKN040"
    },
    {
      "icao": "EBCI",
      "alert": "OK",
      "vis_m": 1400,
      "fzfg": false,
      "metar_trigger": false,
      "taf_trigger": false,
      "metar": "METAR EBCI 100920Z 33006KT 310V010 1400 R24/1900U -SN SCT004 BKN006 BKN008 M02/M02 Q1006 BECMG 4000 -SN",
      "taf": "TAF EBCI 100515Z 1006/1112 33009KT 3500 -SN SCT001 BKN003"
    },
    {
      "icao": "EDDB",
      "alert": "OK",
      "vis_m": 9999,
      "fzfg": false,
      "metar_trigger": false,
      "taf_trigger": false,
      "metar": "METAR EDDB 100920Z AUTO 08002KT CAVOK M07/M11 Q1010 NOSIG",
      "taf": "TAF EDDB 100500Z 1006/1106 07010KT CAVOK"
    },
    {
      "icao": "EDDH",
      "alert": "OK",
      "vis_m": 9999,
      "fzfg": false,
      "metar_trigger": false,
      "taf_trigger": false,
      "metar": "METAR EDDH 100920Z AUTO 08006KT 9999 OVC045 M02/M07 Q1013 NOSIG",
      "taf": "TAF EDDH 100500Z 1006/1112 08015G25KT 9999 SCT030"
    },
    {
      "icao": "EDDK",
      "alert": "OK",
      "vis_m": 2200,
      "fzfg": false,
      "metar_trigger": false,
      "taf_trigger": false,
      "metar": "METAR EDDK 100920Z AUTO 34007KT 2200 -SN BR BKN004 BKN008 OVC013 M01/M02 Q1004 TEMPO 4000 -SN BKN005",
      "taf": "TAF EDDK 100500Z 1006/1112 24005KT 4000 -SN BR OVC008"
    },
    {
      "icao": "EDDN",
      "alert": "OK",
      "vis_m": 9999,
      "fzfg": false,
      "metar_trigger": false,
      "taf_trigger": false,
      "metar": "METAR EDDN 100920Z AUTO 27004KT 230V290 9999 -RADZ BKN007 BKN014 01/00 Q1001 TEMPO 3500 -SN",
      "taf": "TAF EDDN 100500Z 1006/1106 24007KT 9999 SCT008 BKN020"
    },
    {
      "icao": "EDDS",
      "alert": "OK",
      "vis_m": 9999,
      "fzfg": false,
      "metar_trigger": false,
      "taf_trigger": false,
      "metar": "METAR EDDS 100920Z AUTO 22005KT 170V250 9999 FEW019 SCT038 01/M00 Q1002 NOSIG",
      "taf": ""
    },
    {
      "icao": "EDFH",
      "alert": "OK",
      "vis_m": 2400,
      "fzfg": false,
      "metar_trigger": false,
      "taf_trigger": false,
      "metar": "METAR EDFH 100920Z COR 29008KT 260V320 2400 -SN BKN002 BKN004 OVC009 M02/M03 Q1001 RESN",
      "taf": "TAF EDFH 100500Z 1006/1106 26012KT 7000 OVC005"
    },
    {
      "icao": "EDJA",
      "alert": "OK",
      "vis_m": 4200,
      "fzfg": false,
      "metar_trigger": false,
      "taf_trigger": false,
      "metar": "METAR EDJA 100920Z 24019G30KT 4200 -SN BKN011 BKN019 OVC035 00/M01 Q1002",
      "taf": "TAF EDJA 100800Z 1009/1018 24020G35KT 9999 BKN015"
    },
    {
      "icao": "EDLW",
      "alert": "OK",
      "vis_m": 9999,
      "fzfg": false,
      "metar_trigger": false,
      "taf_trigger": false,
      "metar": "METAR EDLW 100920Z 02011KT 9999 OVC011 M04/M06 Q1005",
      "taf": "TAF EDLW 100500Z 1006/1106 05010KT 6000 SCT004 BKN007"
    },
    {
      "icao": "EDNY",
      "alert": "OK",
      "vis_m": 9999,
      "fzfg": false,
      "metar_trigger": false,
      "taf_trigger": false,
      "metar": "METAR EDNY 100920Z 24019KT 9999 -RA BKN018 OVC025 02/M00 Q1004",
      "taf": "TAF EDNY 100800Z 1009/1018 24015G25KT 9999 BKN015"
    },
    {
      "icao": "EDSB",
      "alert": "OK",
      "vis_m": 9000,
      "fzfg": false,
      "metar_trigger": false,
      "taf_trigger": false,
      "metar": "METAR EDSB 100920Z 21013KT 9000 -RA BKN008 OVC014 02/01 Q1004",
      "taf": "TAF EDSB 100500Z 1006/1106 21013KT 9999 BKN020"
    },
    {
      "icao": "EETN",
      "alert": "OK",
      "vis_m": 1200,
      "fzfg": false,
      "metar_trigger": false,
      "taf_trigger": false,
      "metar": "METAR EETN 100920Z 03016G26KT 1200 R08/1800D SN BLSN VV014 M06/M08 Q1007 TEMPO 2000",
      "taf": "TAF EETN 100530Z 1006/1106 03016G26KT 9999 DRSN BKN015 BKN020"
    },
    {
      "icao": "EFTU",
      "alert": "OK",
      "vis_m": 9999,
      "fzfg": false,
      "metar_trigger": false,
      "taf_trigger": false,
      "metar": "METAR EFTU 100920Z AUTO 03008KT 350V050 9999 FEW019 M10/M13 Q1014",
      "taf": ""
    },
    {
      "icao": "EGBB",
      "alert": "OK",
      "vis_m": 9999,
      "fzfg": false,
      "metar_trigger": false,
      "taf_trigger": false,
      "metar": "METAR EGBB 100920Z 32003KT 9999 6000SE NSC M02/M02 Q1016",
      "taf": "TAF EGBB 100458Z 1006/1106 32006KT 9999 FEW018"
    },
    {
      "icao": "EGGP",
      "alert": "OK",
      "vis_m": 9999,
      "fzfg": false,
      "metar_trigger": false,
      "taf_trigger": false,
      "metar": "METAR EGGP 100920Z 10003KT CAVOK M00/M02 Q1016",
      "taf": "TAF EGGP 100457Z 1006/1106 VRB02KT 9999 SCT040"
    },
    {
      "icao": "EGGW",
      "alert": "OK",
      "vis_m": 9999,
      "fzfg": false,
      "metar_trigger": false,
      "taf_trigger": false,
      "metar": "METAR EGGW 100920Z COR 33010KT 290V360 9999 BKN005 M00/M01 Q1014",
      "taf": "TAF EGGW 100455Z 1006/1106 34012KT 9999 SCT010"
    },
    {
      "icao": "EGKK",
      "alert": "OK",
      "vis_m": 9999,
      "fzfg": false,
      "metar_trigger": false,
      "taf_trigger": false,
      "metar": "METAR EGKK 100920Z 33010KT 9999 BKN010 01/M00 Q1014",
      "taf": "TAF EGKK 100457Z 1006/1112 33010KT 9999 SCT015"
    },
    {
      "icao": "EGNM",
      "alert": "OK",
      "vis_m": 9999,
      "fzfg": false,
      "metar_trigger": false,
      "taf_trigger": false,
      "metar": "METAR EGNM 100920Z 26004KT CAVOK M02/M04 Q1015",
      "taf": "TAF EGNM 100455Z 1006/1106 27004KT 9999 FEW040"
    },
    {
      "icao": "EGPD",
      "alert": "OK",
      "vis_m": 9999,
      "fzfg": false,
      "metar_trigger": false,
      "taf_trigger": false,
      "metar": "METAR EGPD 100920Z COR AUTO 18007KT 9999 SCT036 01/M00 Q1014 NOSIG",
      "taf": "TAF EGPD 100453Z 1006/1106 17008KT 9999 FEW015 SCT025"
    },
    {
      "icao": "EGPF",
      "alert": "OK",
      "vis_m": 3100,
      "fzfg": false,
      "metar_trigger": false,
      "taf_trigger": false,
      "metar": "METAR EGPF 100920Z 09003KT 040V150 3100 -RA FEW024 BKN035 00/00 Q1014",
      "taf": ""
    },
    {
      "icao": "EHBK",
      "alert": "OK",
      "vis_m": 7000,
      "fzfg": false,
      "metar_trigger": false,
      "taf_trigger": false,
      "metar": "METAR EHBK 100925Z AUTO 34007KT 7000 SCT006 BKN007 OVC008 M03/M04 Q1006 REFZDZ BECMG 8000 BKN012",
      "taf": "TAF EHBK 100513Z 1006/1112 32007KT 4000 -SN BR BKN008"
    },
    {
      "icao": "EHEH",
      "alert": "OK",
      "vis_m": 9999,
      "fzfg": false,
      "metar_trigger": false,
      "taf_trigger": false,
      "metar": "METAR EHEH 100925Z AUTO 02010KT 360V060 9999 -SGSN SCT013 OVC015 M02/M05 Q1007 WHT TEMPO 3500 SCT008 BKN012 RMK TREND REMOTE BY EHWX",
      "taf": "TAF EHEH 100525Z 1006/1112 02009KT 8000 -SN BKN012"
    },
    {
      "icao": "EKBI",
      "alert": "OK",
      "vis_m": 9999,
      "fzfg": false,
      "metar_trigger": false,
      "taf_trigger": false,
      "metar": "METAR EKBI 100920Z AUTO 06013KT 030V090 9999 NCD M02/M06 Q1017",
      "taf": "TAF EKBI 100827Z 1009/1109 06012KT 9999 FEW045"
    },
    {
      "icao": "EKCH",
      "alert": "OK",
      "vis_m": 9999,
      "fzfg": false,
      "metar_trigger": false,
      "taf_trigger": false,
      "metar": "METAR EKCH 100920Z AUTO 03015KT 9999 NCD M03/M07 Q1017 NOSIG",
      "taf": "TAF EKCH 100827Z 1009/1109 04018KT CAVOK"
    },
    {
      "icao": "ENAL",
      "alert": "OK",
      "vis_m": 9999,
      "fzfg": false,
      "metar_trigger": false,
      "taf_trigger": false,
      "metar": "METAR ENAL 100920Z 18008KT 150V210 CAVOK M01/M09 Q1020",
      "taf": "TAF ENAL 100800Z 1009/1018 19012KT CAVOK"
    },
    {
      "icao": "ENBR",
      "alert": "OK",
      "vis_m": 9999,
      "fzfg": false,
      "metar_trigger": false,
      "taf_trigger": false,
      "metar": "METAR ENBR 100920Z 12004KT CAVOK M06/M12 Q1022 NOSIG RMK WIND 1200FT 16012KT",
      "taf": "TAF ENBR 100500Z 1006/1106 10005KT CAVOK"
    },
    {
      "icao": "ENGM",
      "alert": "OK",
      "vis_m": 9999,
      "fzfg": false,
      "metar_trigger": false,
      "taf_trigger": false,
      "metar": "METAR ENGM 100920Z 35004KT CAVOK M15/M17 Q1023 NOSIG",
      "taf": "TAF ENGM 100500Z 1006/1106 35005KT CAVOK"
    },
    {
      "icao": "ENHD",
      "alert": "OK",
      "vis_m": 9999,
      "fzfg": false,
      "metar_trigger": false,
      "taf_trigger": false,
      "metar": "METAR ENHD 100920Z 14009KT CAVOK M06/M11 Q1022",
      "taf": "TAF ENHD 100800Z 1009/1018 13012KT CAVOK"
    },
    {
      "icao": "ENTC",
      "alert": "OK",
      "vis_m": 9999,
      "fzfg": false,
      "metar_trigger": false,
      "taf_trigger": false,
      "metar": "METAR ENTC 100920Z VRB02KT CAVOK M12/M14 Q1021 NOSIG RMK WIND 2600FT 13006KT",
      "taf": "TAF ENTC 100500Z 1006/1106 20003KT CAVOK"
    },
    {
      "icao": "ENTO",
      "alert": "OK",
      "vis_m": 9999,
      "fzfg": false,
      "metar_trigger": false,
      "taf_trigger": false,
      "metar": "METAR ENTO 100920Z 36005KT CAVOK M09/M12 Q1023 NOSIG",
      "taf": "TAF ENTO 100500Z 1006/1106 36008KT CAVOK"
    },
    {
      "icao": "ENVA",
      "alert": "OK",
      "vis_m": 9999,
      "fzfg": false,
      "metar_trigger": false,
      "taf_trigger": false,
      "metar": "METAR ENVA 100920Z 07003KT 030V090 CAVOK M06/M11 Q1021 NOSIG RMK WIND 670FT 15007KT",
      "taf": "TAF ENVA 100500Z 1006/1106 10008KT CAVOK"
    },
    {
      "icao": "ENZV",
      "alert": "OK",
      "vis_m": 9999,
      "fzfg": false,
      "metar_trigger": false,
      "taf_trigger": false,
      "metar": "METAR ENZV 100920Z 08010KT CAVOK M04/M13 Q1023 NOSIG",
      "taf": "TAF ENZV 100500Z 1006/1106 08008KT CAVOK"
    },
    {
      "icao": "EPGD",
      "alert": "OK",
      "vis_m": 7000,
      "fzfg": false,
      "metar_trigger": false,
      "taf_trigger": false,
      "metar": "METAR EPGD 100930Z 02014KT 360V060 7000 -SHSN DRSN FEW002 SCT022TCU BKN026 M02/M05 Q1005",
      "taf": "TAF EPGD 100530Z 1006/1106 02015KT 7000 -SN BKN030"
    },
    {
      "icao": "EPKK",
      "alert": "OK",
      "vis_m": 9999,
      "fzfg": false,
      "metar_trigger": false,
      "taf_trigger": false,
      "metar": "METAR EPKK 100930Z 24003KT 9999 -SN BKN012 M11/M14 Q1004",
      "taf": "TAF EPKK 100830Z 1009/1109 25005KT 7000 OVC008"
    },
    {
      "icao": "EPKT",
      "alert": "OK",
      "vis_m": 9999,
      "fzfg": false,
      "metar_trigger": false,
      "taf_trigger": false,
      "metar": "METAR EPKT 100930Z 33004KT 310V010 9999 FEW012 M10/M12 Q1004",
      "taf": "TAF EPKT 100530Z 1006/1106 04004KT 9999 OVC007"
    },
    {
      "icao": "EPLB",
      "alert": "OK",
      "vis_m": 5000,
      "fzfg": false,
      "metar_trigger": false,
      "taf_trigger": false,
      "metar": "METAR EPLB 100930Z 28010KT 5000 -SN BR FEW003 BKN006 OVC008 M13/M14 Q1002",
      "taf": "TAF EPLB 100530Z 1006/1106 29010KT 9999 SCT005"
    },
    {
      "icao": "EPMO",
      "alert": "OK",
      "vis_m": 1400,
      "fzfg": false,
      "metar_trigger": false,
      "taf_trigger": false,
      "metar": "METAR EPMO 100930Z 30007KT 1400 R08/1800D SN BR FEW005 SCT025 M11/M11 Q1003",
      "taf": "TAF EPMO 100530Z 1006/1106 29007KT CAVOK"
    },
    {
      "icao": "EPPO",
      "alert": "OK",
      "vis_m": 9999,
      "fzfg": false,
      "metar_trigger": false,
      "taf_trigger": false,
      "metar": "METAR EPPO 100930Z 30005KT 270V330 9999 BKN019 M07/M11 Q1008",
      "taf": "TAF EPPO 100530Z 1006/1106 06006KT 9999 SCT030"
    },
    {
      "icao": "EPRA",
      "alert": "OK",
      "vis_m": 9999,
      "fzfg": false,
      "metar_trigger": false,
      "taf_trigger": false,
      "metar": "METAR EPRA 100930Z 29006KT 9999 SCT010 M12/M15 Q1003",
      "taf": "TAF EPRA 100830Z 1009/1018 28006KT CAVOK"
    },
    {
      "icao": "EPRZ",
      "alert": "OK",
      "vis_m": 8000,
      "fzfg": false,
      "metar_trigger": false,
      "taf_trigger": false,
      "metar": "METAR EPRZ 100930Z 26008KT 8000 -SN BKN003 OVC014 M11/M14 Q1003",
      "taf": ""
    },
    {
      "icao": "EPSC",
      "alert": "OK",
      "vis_m": 9999,
      "fzfg": false,
      "metar_trigger": false,
      "taf_trigger": false,
      "metar": "METAR EPSC 100930Z 30004KT CAVOK M02/M06 Q1010",
      "taf": "TAF EPSC 100530Z 1006/1106 06005KT 9999 BKN030"
    },
    {
      "icao": "EPSY",
      "alert": "OK",
      "vis_m": 9999,
      "fzfg": false,
      "metar_trigger": false,
      "taf_trigger": false,
      "metar": "METAR EPSY 100930Z 34005KT 9999 -SN FEW013 BKN021 M07/M10 Q1002",
      "taf": "TAF EPSY 100830Z 1009/1018 35008KT 9999 BKN025"
    },
    {
      "icao": "EPWA",
      "alert": "OK",
      "vis_m": 9999,
      "fzfg": false,
      "metar_trigger": false,
      "taf_trigger": false,
      "metar": "METAR EPWA 100930Z 30009KT 9999 -SN NSC M12/M13 Q1003 TEMPO 4000 -SN BR",
      "taf": "TAF EPWA 100830Z 1009/1109 29007KT 9999 SCT030"
    },
    {
      "icao": "EPWR",
      "alert": "OK",
      "vis_m": 9999,
      "fzfg": false,
      "metar_trigger": false,
      "taf_trigger": false,
      "metar": "METAR EPWR 100930Z 35006KT CAVOK M09/M12 Q1007",
      "taf": "TAF EPWR 100830Z 1009/1109 34007KT CAVOK"
    },
    {
      "icao": "ESGG",
      "alert": "OK",
      "vis_m": 9999,
      "fzfg": false,
      "metar_trigger": false,
      "taf_trigger": false,
      "metar": "METAR ESGG 100920Z 02012KT CAVOK M10/M12 Q1019",
      "taf": "TAF ESGG 100830Z 1009/1109 02009KT CAVOK"
    },
    {
      "icao": "ESKN",
      "alert": "OK",
      "vis_m": 9999,
      "fzfg": false,
      "metar_trigger": false,
      "taf_trigger": false,
      "metar": "METAR ESKN 100920Z 34011KT CAVOK M08/M10 Q1017",
      "taf": "TAF ESKN 100830Z 1009/1109 35012KT CAVOK"
    },
    {
      "icao": "ESMS",
      "alert": "OK",
      "vis_m": 9999,
      "fzfg": false,
      "metar_trigger": false,
      "taf_trigger": false,
      "metar": "METAR ESMS 100920Z 01010KT CAVOK M05/M08 Q1015",
      "taf": "TAF ESMS 100827Z 1009/1109 36014KT CAVOK"
    },
    {
      "icao": "ESSA",
      "alert": "OK",
      "vis_m": 9999,
      "fzfg": false,
      "metar_trigger": false,
      "taf_trigger": false,
      "metar": "METAR ESSA 100920Z 35012KT CAVOK M08/M11 Q1018 NOSIG",
      "taf": "TAF ESSA 100830Z 1009/1109 34012KT CAVOK"
    },
    {
      "icao": "EYKA",
      "alert": "OK",
      "vis_m": 2500,
      "fzfg": false,
      "metar_trigger": false,
      "taf_trigger": false,
      "metar": "METAR EYKA 100920Z 36007KT 330V030 2500 SN BKN024 OVC033 M09/M11 Q1000",
      "taf": "TAF EYKA 100500Z 1006/1106 36010KT 5000 SN SCT010 BKN015"
    },
    {
      "icao": "EYPA",
      "alert": "OK",
      "vis_m": 9999,
      "fzfg": false,
      "metar_trigger": false,
      "taf_trigger": false,
      "metar": "METAR EYPA 100920Z 01010KT CAVOK M05/M09 Q1004",
      "taf": ""
    },
    {
      "icao": "EYVI",
      "alert": "OK",
      "vis_m": 7000,
      "fzfg": false,
      "metar_trigger": false,
      "taf_trigger": false,
      "metar": "METAR EYVI 100920Z 36010KT 7000 -SN FEW013 BKN040 M10/M13 Q0997 TEMPO 0800 +SN",
      "taf": ""
    },
    {
      "icao": "GCFV",
      "alert": "OK",
      "vis_m": 9999,
      "fzfg": false,
      "metar_trigger": false,
      "taf_trigger": false,
      "metar": "METAR GCFV 100900Z 02013KT 9999 BKN031 18/09 Q1028",
      "taf": "TAF GCFV 100800Z 1009/1109 05015KT 9999 SCT025 TX20/1014Z TN15/1106Z"
    },
    {
      "icao": "GCLP",
      "alert": "OK",
      "vis_m": 9999,
      "fzfg": false,
      "metar_trigger": false,
      "taf_trigger": false,
      "metar": "METAR GCLP 100900Z 34009KT 310V010 9999 FEW035 BKN055 18/09 Q1027 NOSIG",
      "taf": "TAF GCLP 100800Z 1009/1109 03013KT 9999 SCT030 TX19/1014Z TN15/1106Z"
    },
    {
      "icao": "GCTS",
      "alert": "OK",
      "vis_m": 9999,
      "fzfg": false,
      "metar_trigger": false,
      "taf_trigger": false,
      "metar": "METAR GCTS 100900Z 04010KT 9999 FEW040 17/07 Q1028 NOSIG",
      "taf": "TAF GCTS 100800Z 1009/1109 09017KT 9999 FEW030 TX23/1014Z TN16/1106Z"
    },
    {
      "icao": "GMAD",
      "alert": "OK",
      "vis_m": 9999,
      "fzfg": false,
      "metar_trigger": false,
      "taf_trigger": false,
      "metar": "METAR GMAD 100930Z 13004KT CAVOK 09/08 Q1026 NOSIG",
      "taf": "TAF GMAD 100500Z 1006/1112 06008KT CAVOK"
    },
    {
      "icao": "GMMN",
      "alert": "OK",
      "vis_m": 9999,
      "fzfg": false,
      "metar_trigger": false,
      "taf_trigger": false,
      "metar": "METAR GMMN 100930Z 15005KT 120V180 9999 FEW023 10/08 Q1030 NOSIG",
      "taf": "TAF GMMN 100500Z 1006/1112 12004KT 9999 FEW023"
    },
    {
      "icao": "GMMX",
      "alert": "OK",
      "vis_m": 8000,
      "fzfg": false,
      "metar_trigger": false,
      "taf_trigger": false,
      "metar": "METAR GMMX 100930Z 08003KT 8000 NSC 09/06 Q1028 NOSIG",
      "taf": "TAF GMMX 100500Z 1006/1112 06006KT 8000 NSC"
    },
    {
      "icao": "HEGN",
      "alert": "OK",
      "vis_m": 9999,
      "fzfg": false,
      "metar_trigger": false,
      "taf_trigger": false,
      "metar": "METAR HEGN 100900Z 32010KT CAVOK 19/07 Q1022 NOSIG",
      "taf": "TAF HEGN 100500Z 1006/1112 32010G24KT 6000 NSC"
    },
    {
      "icao": "HEMA",
      "alert": "OK",
      "vis_m": 9999,
      "fzfg": false,
      "metar_trigger": false,
      "taf_trigger": false,
      "metar": "METAR HEMA 100900Z 33019KT 9999 SCT025 20/11 Q1020 NOSIG",
      "taf": "TAF HEMA 100500Z 1006/1112 33010G24KT 6000 NSC"
    },
    {
      "icao": "HESH",
      "alert": "OK",
      "vis_m": 9999,
      "fzfg": false,
      "metar_trigger": false,
      "taf_trigger": false,
      "metar": "METAR HESH 100900Z 36015KT CAVOK 20/06 Q1021 NOSIG",
      "taf": "TAF HESH 100500Z 1006/1112 34014KT CAVOK"
    },
    {
      "icao": "HESX",
      "alert": "OK",
      "vis_m": 9999,
      "fzfg": false,
      "metar_trigger": false,
      "taf_trigger": false,
      "metar": "METAR HESX 100900Z 24010KT CAVOK 16/09 Q1022 NOSIG",
      "taf": "TAF HESX 100800Z 1008/1112 23007KT CAVOK"
    },
    {
      "icao": "LATI",
      "alert": "OK",
      "vis_m": 9999,
      "fzfg": false,
      "metar_trigger": false,
      "taf_trigger": false,
      "metar": "METAR LATI 100920Z 14008KT 9999 FEW019 SCT032 BKN043 11/07 Q0999 NOSIG",
      "taf": "TAF LATI 100500Z 1006/1106 12008KT 9999 BKN080 TX11/1012Z TN05/1106Z"
    },
    {
      "icao": "LBPD",
      "alert": "OK",
      "vis_m": 9999,
      "fzfg": false,
      "metar_trigger": false,
      "taf_trigger": false,
      "metar": "METAR LBPD 100930Z AUTO VRB01KT 9999 FEW054/// BKN120/// 04/00 Q1001 NOSIG",
      "taf": "TAF LBPD 100500Z 1006/1106 VRB03KT 9999 SCT050"
    },
    {
      "icao": "LBSF",
      "alert": "OK",
      "vis_m": 9999,
      "fzfg": false,
      "metar_trigger": false,
      "taf_trigger": false,
      "metar": "METAR LBSF 100930Z 13006KT 9999 -RA FEW040 OVC046 03/02 Q0999 NOSIG",
      "taf": "TAF LBSF 100500Z 1006/1106 VRB03KT 7000 SCT030 BKN050"
    },
    {
      "icao": "LBWN",
      "alert": "OK",
      "vis_m": 9999,
      "fzfg": false,
      "metar_trigger": false,
      "taf_trigger": false,
      "metar": "METAR LBWN 100930Z 33003KT 280V360 9999 BKN045 06/03 Q0999 NOSIG",
      "taf": "TAF LBWN 100500Z 1006/1106 VRB04KT 9999 BKN040"
    },
    {
      "icao": "LCLK",
      "alert": "OK",
      "vis_m": 9999,
      "fzfg": false,
      "metar_trigger": false,
      "taf_trigger": false,
      "metar": "METAR LCLK 100930Z 22016KT 9999 FEW030 20/14 Q1016 NOSIG",
      "taf": "TAF LCLK 100530Z 1006/1106 29007KT 9999 FEW020"
    },
    {
      "icao": "LCPH",
      "alert": "OK",
      "vis_m": 9999,
      "fzfg": false,
      "metar_trigger": false,
      "taf_trigger": false,
      "metar": "METAR LCPH 100930Z 24008KT 9999 SCT030 SCT050 19/11 Q1017 NOSIG",
      "taf": "TAF LCPH 100530Z 1006/1106 32012KT 9999 FEW025 SCT040"
    },
    {
      "icao": "LEAL",
      "alert": "OK",
      "vis_m": 9999,
      "fzfg": false,
      "metar_trigger": false,
      "taf_trigger": false,
      "metar": "METAR LEAL 100900Z 30010KT CAVOK 12/02 Q1025 NOSIG",
      "taf": "TAF LEAL 100500Z 1006/1106 27009KT 9999 FEW040 TX16/1014Z TN08/1006Z"
    },
    {
      "icao": "LEBB",
      "alert": "OK",
      "vis_m": 9999,
      "fzfg": false,
      "metar_trigger": false,
      "taf_trigger": false,
      "metar": "METAR LEBB 100900Z 27008KT 210V310 9999 VCSH FEW025TCU SCT030 BKN056 09/06 Q1025 TEMPO SHRA",
      "taf": "TAF LEBB 100500Z 1006/1106 27010KT 9999 FEW020 BKN040 TX10/1014Z TN04/1105Z"
    },
    {
      "icao": "LEBL",
      "alert": "OK",
      "vis_m": 9999,
      "fzfg": false,
      "metar_trigger": false,
      "taf_trigger": false,
      "metar": "METAR LEBL 100900Z 33007KT 290V010 9999 FEW028 10/01 Q1019 NOSIG",
      "taf": ""
    },
    {
      "icao": "LECH",
      "alert": "OK",
      "vis_m": 9999,
      "fzfg": false,
      "metar_trigger": false,
      "taf_trigger": false,
      "metar": "METAR LECH 100900Z AUTO 25005KT CAVOK 08/M02 Q1023",
      "taf": ""
    },
    {
      "icao": "LEMD",
      "alert": "OK",
      "vis_m": 9999,
      "fzfg": false,
      "metar_trigger": false,
      "taf_trigger": false,
      "metar": "METAR LEMD 100900Z 13003KT CAVOK 03/M01 Q1026 NOSIG",
      "taf": ""
    },
    {
      "icao": "LEMG",
      "alert": "OK",
      "vis_m": 9999,
      "fzfg": false,
      "metar_trigger": false,
      "taf_trigger": false,
      "metar": "METAR LEMG 100900Z 29016KT CAVOK 11/05 Q1027 NOSIG",
      "taf": "TAF LEMG 100500Z 1006/1106 30015KT CAVOK TX18/1014Z TN10/1006Z"
    },
    {
      "icao": "LEVC",
      "alert": "OK",
      "vis_m": 9999,
      "fzfg": false,
      "metar_trigger": false,
      "taf_trigger": false,
      "metar": "METAR LEVC 100900Z 16003KT CAVOK 11/00 Q1025 NOSIG",
      "taf": "TAF LEVC 100500Z 1006/1106 27008KT 9999 FEW040 TX16/1014Z TN07/1006Z"
    },
    {
      "icao": "LEXJ",
      "alert": "OK",
      "vis_m": 9000,
      "fzfg": false,
      "metar_trigger": false,
      "taf_trigger": false,
      "metar": "METAR LEXJ 100900Z 26008KT 230V290 9000 -RA SCT024 BKN035 09/06 Q1026",
      "taf": "TAF LEXJ 100800Z 1009/1109 27011KT 9999 BKN035 TX12/1015Z TN07/1101Z"
    },
    {
      "icao": "LEZG",
      "alert": "OK",
      "vis_m": 9999,
      "fzfg": false,
      "metar_trigger": false,
      "taf_trigger": false,
      "metar": "METAR LEZG 100900Z 30007KT 9999 FEW060 07/00 Q1024 NOSIG",
      "taf": "TAF LEZG 100500Z 1006/1106 28012KT 9999 FEW040 TX11/1015Z TN05/1006Z"
    },
    {
      "icao": "LEZL",
      "alert": "OK",
      "vis_m": 9999,
      "fzfg": false,
      "metar_trigger": false,
      "taf_trigger": false,
      "metar": "METAR LEZL 100900Z 34003KT 280V020 CAVOK 07/07 Q1030 NOSIG",
      "taf": "TAF LEZL 100800Z 1009/1109 01003KT CAVOK TX15/1015Z TN04/1107Z"
    },
    {
      "icao": "LFBD",
      "alert": "OK",
      "vis_m": 9999,
      "fzfg": false,
      "metar_trigger": false,
      "taf_trigger": false,
      "metar": "METAR LFBD 100930Z AUTO 29009KT 9999 -RA FEW006/// BKN045/// BKN062/// ///TCU 07/05 Q1020 TEMPO VRB15G30KT 2000 SHRA BKN025CB",
      "taf": "TAF LFBD 100500Z 1006/1112 30005KT 9999 SCT030 TX09/1013Z TN02/1022Z"
    },
    {
      "icao": "LFLL",
      "alert": "OK",
      "vis_m": 9999,
      "fzfg": false,
      "metar_trigger": false,
      "taf_trigger": false,
      "metar": "METAR LFLL 100930Z 27005KT 9999 FEW040 SCT050 BKN160 04/01 Q1014 NOSIG",
      "taf": "TAF LFLL 100500Z 1006/1112 31010KT 9999 BKN030"
    },
    {
      "icao": "LFLS",
      "alert": "OK",
      "vis_m": 9999,
      "fzfg": false,
      "metar_trigger": false,
      "taf_trigger": false,
      "metar": "METAR LFLS 100930Z AUTO VRB02KT 9999 FEW014 SCT019 OVC054 02/01 Q1014 TEMPO 1200 -SHSN BKN008 BKN020TCU",
      "taf": ""
    },
    {
      "icao": "LFMN",
      "alert": "OK",
      "vis_m": 9999,
      "fzfg": false,
      "metar_trigger": false,
      "taf_trigger": false,
      "metar": "METAR LFMN 100930Z 33004KT 270V020 CAVOK 12/M09 Q1004 NOSIG",
      "taf": "TAF LFMN 100800Z 1009/1115 33013KT CAVOK"
    },
    {
      "icao": "LFOB",
      "alert": "OK",
      "vis_m": 9999,
      "fzfg": false,
      "metar_trigger": false,
      "taf_trigger": false,
      "metar": "METAR LFOB 100930Z AUTO 31014KT 9999 BKN015 BKN031 BKN039 02/01 Q1011",
      "taf": "TAF LFOB 092300Z 1000/1024 28015G25KT 9999 BKN025"
    },
    {
      "icao": "LFPO",
      "alert": "OK",
      "vis_m": 9999,
      "fzfg": false,
      "metar_trigger": false,
      "taf_trigger": false,
      "metar": "METAR LFPO 100930Z 29010KT 9999 FEW026 BKN040 04/M01 Q1011 NOSIG",
      "taf": "TAF LFPO 100500Z 1006/1112 30010KT 9999 BKN025"
    },
    {
      "icao": "LFSB",
      "alert": "OK",
      "vis_m": 9999,
      "fzfg": false,
      "metar_trigger": false,
      "taf_trigger": false,
      "metar": "METAR LFSB 100930Z AUTO 25012KT 9999 FEW014 SCT045 BKN056 01/M00 Q1007 TEMPO 25015G30KT 3000 -SHRASN SCT025TCU",
      "taf": "TAF LFSB 100500Z 1006/1106 25015KT 9999 SCT025 BKN040"
    },
    {
      "icao": "LGAV",
      "alert": "OK",
      "vis_m": 9999,
      "fzfg": false,
      "metar_trigger": false,
      "taf_trigger": false,
      "metar": "METAR LGAV 100920Z 21016KT 9999 SCT025 19/08 Q1004 NOSIG",
      "taf": "TAF LGAV 100500Z 1006/1106 24012KT 9999 FEW025"
    },
    {
      "icao": "LGTS",
      "alert": "OK",
      "vis_m": 9999,
      "fzfg": false,
      "metar_trigger": false,
      "taf_trigger": false,
      "metar": "METAR LGTS 100920Z VRB02KT 9999 SCT025 09/05 Q1000 NOSIG",
      "taf": "TAF LGTS 100500Z 1006/1106 VRB03KT 9999 SCT030"
    },
    {
      "icao": "LHBP",
      "alert": "OK",
      "vis_m": 3500,
      "fzfg": false,
      "metar_trigger": false,
      "taf_trigger": false,
      "metar": "METAR LHBP 100930Z VRB01KT 3500 BR BKN004 OVC007 M05/M06 Q1002 TEMPO 2500 BR BKN005 OVC010",
      "taf": "TAF LHBP 100515Z 1006/1106 VRB03KT 8000 BKN016 OVC045"
    },
    {
      "icao": "LHDC",
      "alert": "OK",
      "vis_m": 5000,
      "fzfg": false,
      "metar_trigger": false,
      "taf_trigger": false,
      "metar": "METAR LHDC 100915Z AUTO VRB02KT 5000 BR SCT013 OVC023 M04/M06 Q1002 NOSIG",
      "taf": "TAF LHDC 100815Z 1009/1018 04005KT 4000 BR BKN025 OVC050"
    },
    {
      "icao": "LIBD",
      "alert": "OK",
      "vis_m": 9999,
      "fzfg": false,
      "metar_trigger": false,
      "taf_trigger": false,
      "metar": "METAR LIBD 100920Z 25015G25KT CAVOK 12/05 Q0998",
      "taf": "TAF LIBD 100500Z 1006/1106 23012KT 9999 SCT040"
    },
    {
      "icao": "LIBG",
      "alert": "OK",
      "vis_m": 9999,
      "fzfg": false,
      "metar_trigger": false,
      "taf_trigger": false,
      "metar": "METAR LIBG 100850Z 26009KT 230V300 9999 FEW040 13/10 Q0999",
      "taf": "TAF LIBG 100800Z 1009/1018 23013KT 9999 SCT040"
    },
    {
      "icao": "LIBP",
      "alert": "OK",
      "vis_m": 9999,
      "fzfg": false,
      "metar_trigger": false,
      "taf_trigger": false,
      "metar": "METAR LIBP 100920Z AUTO 31007KT 280V340 9999 FEW030/// BKN072/// BKN200/// 08/05 Q0999",
      "taf": "TAF LIBP 100500Z 1006/1106 25005KT 9999 SCT040"
    },
    {
      "icao": "LIBR",
      "alert": "OK",
      "vis_m": 9999,
      "fzfg": false,
      "metar_trigger": false,
      "taf_trigger": false,
      "metar": "METAR LIBR 100920Z 26014KT 9999 FEW025 13/07 Q0999 REDZ",
      "taf": "TAF LIBR 100500Z 1006/1106 21008KT 9999 SCT040"
    },
    {
      "icao": "LICA",
      "alert": "OK",
      "vis_m": 9999,
      "fzfg": false,
      "metar_trigger": false,
      "taf_trigger": false,
      "metar": "METAR LICA 100920Z AUTO 26029KT 9999 FEW039/// SCT064/// 14/07 Q1004",
      "taf": "TAF LICA 100500Z 1006/1106 25025G35KT 9999 SCT020"
    },
    {
      "icao": "LICC",
      "alert": "OK",
      "vis_m": 9999,
      "fzfg": false,
      "metar_trigger": false,
      "taf_trigger": false,
      "metar": "METAR LICC 100920Z 25014KT 9999 FEW110 15/10 Q1008",
      "taf": "TAF LICC 100500Z 1006/1106 26018G30KT 9999 FEW050"
    },
    {
      "icao": "LICJ",
      "alert": "OK",
      "vis_m": 9999,
      "fzfg": false,
      "metar_trigger": false,
      "taf_trigger": false,
      "metar": "METAR LICJ 100920Z 27026KT 9999 -RA BKN040 14/07 Q1010",
      "taf": "TAF LICJ 100500Z 1006/1106 23020G30KT 9999 SCT030"
    },
    {
      "icao": "LIMC",
      "alert": "OK",
      "vis_m": 7000,
      "fzfg": false,
      "metar_trigger": false,
      "taf_trigger": false,
      "metar": "METAR LIMC 100920Z 05005KT 7000 NSC M02/M02 Q1003 NOSIG",
      "taf": "TAF LIMC 100500Z 1006/1112 VRB04KT 7000 NSC"
    },
    {
      "icao": "LIME",
      "alert": "OK",
      "vis_m": 9999,
      "fzfg": false,
      "metar_trigger": false,
      "taf_trigger": false,
      "metar": "METAR LIME 100920Z VRB02KT CAVOK 02/M03 Q1003 NOSIG",
      "taf": "TAF LIME 100500Z 1006/1106 VRB04KT 8000 NSC"
    },
    {
      "icao": "LIMF",
      "alert": "OK",
      "vis_m": 9999,
      "fzfg": false,
      "metar_trigger": false,
      "taf_trigger": false,
      "metar": "METAR LIMF 100920Z VRB03KT CAVOK 03/M06 Q1003",
      "taf": "TAF LIMF 100500Z 1006/1106 30010KT 8000 NSC"
    },
    {
      "icao": "LIMJ",
      "alert": "OK",
      "vis_m": 9999,
      "fzfg": false,
      "metar_trigger": false,
      "taf_trigger": false,
      "metar": "METAR LIMJ 100920Z VRB03KT CAVOK 11/M05 Q1002",
      "taf": "TAF LIMJ 100500Z 1006/1106 04013KT CAVOK"
    },
    {
      "icao": "LIPE",
      "alert": "OK",
      "vis_m": 7000,
      "fzfg": false,
      "metar_trigger": false,
      "taf_trigger": false,
      "metar": "METAR LIPE 100920Z 27007KT 7000 NSC 03/M01 Q1003",
      "taf": "TAF LIPE 100500Z 1006/1106 27006KT 7000 NSC"
    },
    {
      "icao": "LIPH",
      "alert": "OK",
      "vis_m": 9999,
      "fzfg": false,
      "metar_trigger": false,
      "taf_trigger": false,
      "metar": "METAR LIPH 100920Z 30004KT CAVOK 04/M02 Q1001",
      "taf": "TAF LIPH 100500Z 1006/1106 VRB05KT 9999 SCT040"
    },
    {
      "icao": "LIPQ",
      "alert": "OK",
      "vis_m": 9999,
      "fzfg": false,
      "metar_trigger": false,
      "taf_trigger": false,
      "metar": "METAR LIPQ 100920Z AUTO 02003KT 350V050 9999 NCD 05/02 Q1001",
      "taf": "TAF LIPQ 100500Z 1006/1106 VRB05KT 9999 BKN030"
    },
    {
      "icao": "LIPR",
      "alert": "OK",
      "vis_m": 5000,
      "fzfg": false,
      "metar_trigger": false,
      "taf_trigger": false,
      "metar": "METAR LIPR 100920Z 31015KT 5000 BR NSC 02/M00 Q1002",
      "taf": "TAF LIPR 100500Z 1006/1106 30010KT 7000 SCT040"
    },
    {
      "icao": "LIPX",
      "alert": "OK",
      "vis_m": 9999,
      "fzfg": false,
      "metar_trigger": false,
      "taf_trigger": false,
      "metar": "METAR LIPX 100920Z 30006KT CAVOK 05/M01 Q1002",
      "taf": "TAF LIPX 100500Z 1006/1106 VRB05KT 8000 NSC"
    },
    {
      "icao": "LIPY",
      "alert": "OK",
      "vis_m": 9999,
      "fzfg": false,
      "metar_trigger": false,
      "taf_trigger": false,
      "metar": "METAR LIPY 100920Z AUTO 31011KT 9999 BKN042/// BKN130/// 04/M00 Q1001",
      "taf": "TAF LIPY 100500Z 1006/1106 30012KT 9999 SCT050"
    },
    {
      "icao": "LIPZ",
      "alert": "OK",
      "vis_m": 9999,
      "fzfg": false,
      "metar_trigger": false,
      "taf_trigger": false,
      "metar": "METAR LIPZ 100920Z 31007KT CAVOK 03/M02 Q1001 NOSIG",
      "taf": "TAF LIPZ 100500Z 1006/1112 VRB05KT CAVOK"
    },
    {
      "icao": "LIRF",
      "alert": "OK",
      "vis_m": 9999,
      "fzfg": false,
      "metar_trigger": false,
      "taf_trigger": false,
      "metar": "METAR LIRF 100920Z 30017KT 9999 FEW030 08/05 Q0999 NOSIG",
      "taf": "TAF LIRF 100500Z 1006/1112 25023G35KT 9999 SCT025"
    },
    {
      "icao": "LIRN",
      "alert": "OK",
      "vis_m": 9999,
      "fzfg": false,
      "metar_trigger": false,
      "taf_trigger": false,
      "metar": "METAR LIRN 100920Z 28012KT 9999 -RA FEW020 BKN040 10/05 Q0999 RETSRA NOSIG",
      "taf": "TAF LIRN 100500Z 1006/1106 26020G32KT 9999 SCT030"
    },
    {
      "icao": "LIRP",
      "alert": "OK",
      "vis_m": 9999,
      "fzfg": false,
      "metar_trigger": false,
      "taf_trigger": false,
      "metar": "METAR LIRP 100915Z 12004KT CAVOK 08/06 Q1001 NOSIG",
      "taf": "TAF LIRP 100500Z 1006/1106 VRB05KT 9999 SCT040"
    },
    {
      "icao": "LIRZ",
      "alert": "OK",
      "vis_m": 9999,
      "fzfg": false,
      "metar_trigger": false,
      "taf_trigger": false,
      "metar": "METAR LIRZ 100920Z AUTO 33005KT 290V350 9999 FEW110/// 07/04 Q1000",
      "taf": "TAF LIRZ 100500Z 1006/1106 VRB05KT 9999 BKN040"
    },
    {
      "icao": "LJLJ",
      "alert": "OK",
      "vis_m": 150,
      "fzfg": true,
      "metar_trigger": false,
      "taf_trigger": false,
      "metar": "METAR LJLJ 100900Z 10003KT 080V140 0150 R30/0200N FZFG VV001 M01/M01 Q1001 NOSIG",
      "taf": "TAF LJLJ 100500Z 1006/1106 30003KT 4000 BR SCT001 BKN015 BKN030"
    },
    {
      "icao": "LKMT",
      "alert": "OK",
      "vis_m": 2500,
      "fzfg": false,
      "metar_trigger": false,
      "taf_trigger": false,
      "metar": "METAR LKMT 100930Z 02008KT 2500 -SN BR FEW011 SCT025 M10/M12 Q1004 NOSIG",
      "taf": ""
    },
    {
      "icao": "LKPR",
      "alert": "OK",
      "vis_m": 1800,
      "fzfg": false,
      "metar_trigger": false,
      "taf_trigger": false,
      "metar": "METAR LKPR 100930Z 04008KT 1800 -SN BR DRSN FEW004 BKN005 OVC017 M05/M06 Q1002 TEMPO 4000 BR",
      "taf": "TAF LKPR 100800Z 1009/1115 01006KT 2500 -SN BR BKN003 OVC006"
    },
    {
      "icao": "LLBG",
      "alert": "OK",
      "vis_m": 9999,
      "fzfg": false,
      "metar_trigger": false,
      "taf_trigger": false,
      "metar": "METAR LLBG 100920Z 16012KT 9999 FEW035 SCT040 16/11 Q1020 NOSIG RMK RERA",
      "taf": "TAF LLBG 100503Z 1006/1106 21012KT 9999 SCT035"
    },
    {
      "icao": "LMML",
      "alert": "OK",
      "vis_m": 9999,
      "fzfg": false,
      "metar_trigger": false,
      "taf_trigger": false,
      "metar": "METAR LMML 100915Z 27016KT 9999 FEW020 BKN045 15/09 Q1012 NOSIG",
      "taf": "TAF LMML 100500Z 1006/1106 26019KT 9999 SCT023"
    },
    {
      "icao": "LOWW",
      "alert": "OK",
      "vis_m": 4800,
      "fzfg": false,
      "metar_trigger": false,
      "taf_trigger": false,
      "metar": "METAR LOWW 100920Z 03005KT 4800 BR FEW005 OVC050 M04/M06 Q1002 BECMG 6000",
      "taf": "TAF LOWW 100815Z 1009/1115 12003KT 6000 SCT004 BKN050 TXM01/1012Z TNM07/1101Z"
    },
    {
      "icao": "LPFR",
      "alert": "OK",
      "vis_m": 9999,
      "fzfg": false,
      "metar_trigger": false,
      "taf_trigger": false,
      "metar": "METAR LPFR 100900Z 36004KT 320V030 9999 FEW025 09/07 Q1030",
      "taf": "TAF LPFR 100500Z 1006/1106 32005KT 9999 FEW035"
    },
    {
      "icao": "LPMA",
      "alert": "OK",
      "vis_m": 9999,
      "fzfg": false,
      "metar_trigger": false,
      "taf_trigger": false,
      "metar": "METAR LPMA 100900Z 35007KT 320V020 9999 BKN014 15/11 Q1031",
      "taf": "TAF LPMA 100500Z 1006/1106 02008KT 9999 SCT016"
    },
    {
      "icao": "LPPR",
      "alert": "OK",
      "vis_m": 9999,
      "fzfg": false,
      "metar_trigger": false,
      "taf_trigger": false,
      "metar": "METAR LPPR 100900Z 12007KT 9999 SCT018 08/07 Q1029",
      "taf": "TAF LPPR 100500Z 1006/1106 VRB02KT 9999 SCT035"
    },
    {
      "icao": "LPPS",
      "alert": "OK",
      "vis_m": 9999,
      "fzfg": false,
      "metar_trigger": false,
      "taf_trigger": false,
      "metar": "METAR LPPS 100900Z 35003KT 300V010 9999 SCT013 14/12 Q1031",
      "taf": "TAF LPPS 100500Z 1006/1112 03008KT 9999 SCT015 SCT030"
    },
    {
      "icao": "LPPT",
      "alert": "OK",
      "vis_m": 9999,
      "fzfg": false,
      "metar_trigger": false,
      "taf_trigger": false,
      "metar": "METAR LPPT 100900Z 26004KT 9999 FEW022 BKN034 11/10 Q1030",
      "taf": "TAF LPPT 100500Z 1006/1112 VRB02KT 9999 SCT035"
    },
    {
      "icao": "LQBK",
      "alert": "OK",
      "vis_m": 200,
      "fzfg": false,
      "metar_trigger": false,
      "taf_trigger": false,
      "metar": "METAR LQBK 100930Z 27003KT 0200 R16/0500N FG BKN003 OVC007 01/01 Q1001 TEMPO 0800 -SNRA",
      "taf": "TAF LQBK 100500Z 1006/1106 30005KT 7000 SCT010 BKN030 TX02/1011Z TNM06/1105Z"
    },
    {
      "icao": "LQSA",
      "alert": "OK",
      "vis_m": 350,
      "fzfg": true,
      "metar_trigger": false,
      "taf_trigger": false,
      "metar": "METAR LQSA 100930Z VRB01KT 0350 R11/0600N -SN FZFG BKN003 OVC035 M00/M00 Q0997 TEMPO 0700 SN FG",
      "taf": ""
    },
    {
      "icao": "LQTZ",
      "alert": "OK",
      "vis_m": 800,
      "fzfg": false,
      "metar_trigger": false,
      "taf_trigger": false,
      "metar": "METAR LQTZ 100930Z 31002KT 0800 R09/0900D FG BKN005 BKN009 OVC013 00/00 Q1000",
      "taf": ""
    },
    {
      "icao": "LRBC",
      "alert": "OK",
      "vis_m": 9999,
      "fzfg": false,
      "metar_trigger": false,
      "taf_trigger": false,
      "metar": "METAR LRBC 100900Z 36004KT 310V040 9999 SCT009 SCT046 OVC053 M03/M06 Q1001",
      "taf": "TAF LRBC 100800Z 1009/1018 35008KT 9999 BKN050"
    },
    {
      "icao": "LRBS",
      "alert": "OK",
      "vis_m": 9999,
      "fzfg": false,
      "metar_trigger": false,
      "taf_trigger": false,
      "metar": "METAR LRBS 100900Z 21004KT 9999 BKN020 02/M01 Q1000 NOSIG",
      "taf": "TAF LRBS 100500Z 1006/1106 VRB04KT 9999 BKN040"
    },
    {
      "icao": "LRBV",
      "alert": "OK",
      "vis_m": 3000,
      "fzfg": false,
      "metar_trigger": false,
      "taf_trigger": false,
      "metar": "METAR LRBV 100900Z VRB02KT 3000 -SN BR OVC013 M03/M06 Q1000",
      "taf": "TAF LRBV 100800Z 1009/1018 VRB04KT 9999 BKN020 OVC025"
    },
    {
      "icao": "LRCL",
      "alert": "OK",
      "vis_m": 5000,
      "fzfg": false,
      "metar_trigger": false,
      "taf_trigger": false,
      "metar": "METAR LRCL 100900Z COR VRB02KT 5000 BR OVC027 M05/M07 Q1001",
      "taf": "TAF LRCL 100800Z 1009/1018 VRB04KT 5000 BR OVC020"
    },
    {
      "icao": "LRCV",
      "alert": "OK",
      "vis_m": 9999,
      "fzfg": false,
      "metar_trigger": false,
      "taf_trigger": false,
      "metar": "METAR LRCV 100900Z VRB01KT 9999 BKN013 00/M01 Q1000",
      "taf": "TAF LRCV 100800Z 1009/1018 VRB04KT 9999 SCT025 BKN045"
    },
    {
      "icao": "LRIA",
      "alert": "OK",
      "vis_m": 9999,
      "fzfg": false,
      "metar_trigger": false,
      "taf_trigger": false,
      "metar": "METAR LRIA 100900Z VRB02KT 9999 SCT029 M03/M06 Q1001",
      "taf": "TAF LRIA 100800Z 1009/1018 VRB04KT CAVOK"
    },
    {
      "icao": "LROP",
      "alert": "OK",
      "vis_m": 9999,
      "fzfg": false,
      "metar_trigger": false,
      "taf_trigger": false,
      "metar": "METAR LROP 100900Z 20006KT 9999 BKN021 02/M01 Q1000 NOSIG",
      "taf": "TAF LROP 100500Z 1006/1106 VRB04KT 9999 BKN040"
    },
    {
      "icao": "LRSB",
      "alert": "OK",
      "vis_m": 9000,
      "fzfg": false,
      "metar_trigger": false,
      "taf_trigger": false,
      "metar": "METAR LRSB 100900Z 01003KT 9000 FEW004 SCT018 M02/M05 Q1000",
      "taf": "TAF LRSB 100500Z 1006/1106 VRB04KT 9999 BKN020"
    },
    {
      "icao": "LRSM",
      "alert": "OK",
      "vis_m": 9999,
      "fzfg": false,
      "metar_trigger": false,
      "taf_trigger": false,
      "metar": "METAR LRSM 100900Z AUTO 09006KT 9999 OVC035/// M04/M06 Q1002",
      "taf": ""
    },
    {
      "icao": "LRSV",
      "alert": "OK",
      "vis_m": 9999,
      "fzfg": false,
      "metar_trigger": false,
      "taf_trigger": false,
      "metar": "METAR LRSV 100900Z 08004KT 9999 FEW045 M04/M10 Q0999",
      "taf": "TAF LRSV 100800Z 1009/1018 VRB04KT 9999 BKN040"
    },
    {
      "icao": "LRTM",
      "alert": "OK",
      "vis_m": 9000,
      "fzfg": false,
      "metar_trigger": false,
      "taf_trigger": false,
      "metar": "METAR LRTM 100900Z VRB02KT 9000 FEW016 SCT022 BKN028 M04/M06 Q1001",
      "taf": "TAF LRTM 100800Z 1009/1018 VRB04KT 9999 SCT015 BKN025"
    },
    {
      "icao": "LRTR",
      "alert": "OK",
      "vis_m": 150,
      "fzfg": true,
      "metar_trigger": false,
      "taf_trigger": false,
      "metar": "METAR LRTR 100900Z VRB01KT 0150 R29/0400N FZFG VV002 M00/M00 Q1001",
      "taf": ""
    },
    {
      "icao": "LTAC",
      "alert": "OK",
      "vis_m": 9999,
      "fzfg": false,
      "metar_trigger": false,
      "taf_trigger": false,
      "metar": "METAR LTAC 100920Z VRB02KT 9999 BKN029 BKN090 00/M04 Q1011 NOSIG RMK RWY21C VRB02KT RWY03L VRB02KT RWY21R VRB01KT RWY03R 00000KT RWY21L 00000KT",
      "taf": ""
    },
    {
      "icao": "LTFM",
      "alert": "OK",
      "vis_m": 6000,
      "fzfg": false,
      "metar_trigger": false,
      "taf_trigger": false,
      "metar": "METAR LTFM 100920Z 21014KT 6000 -SHRA BKN028 BKN090 11/09 Q1002 NOSIG RMK RWY17L 22011KT RWY34L 21008KT RWY16R 22010KT RWY36 21014KT RWY18 22014KT",
      "taf": ""
    },
    {
      "icao": "LUKK",
      "alert": "OK",
      "vis_m": 3200,
      "fzfg": false,
      "metar_trigger": false,
      "taf_trigger": false,
      "metar": "METAR LUKK 100930Z 34004KT 310V090 3200 SN FEW020 SCT027 BKN033 M05/M06 Q1001 TEMPO 1500 SN BKN012",
      "taf": ""
    },
    {
      "icao": "LWOH",
      "alert": "OK",
      "vis_m": 8000,
      "fzfg": false,
      "metar_trigger": false,
      "taf_trigger": false,
      "metar": "METAR LWOH 100920Z 16011KT 130V190 8000 -RA SCT010 OVC035 05/03 Q1000",
      "taf": "TAF LWOH 100830Z 1009/1109 18010KT 9999 -RA SCT010 OVC035"
    },
    {
      "icao": "LWSK",
      "alert": "OK",
      "vis_m": 8000,
      "fzfg": false,
      "metar_trigger": false,
      "taf_trigger": false,
      "metar": "METAR LWSK 100920Z VRB01KT 8000 -RA SCT050 BKN090 M01/M03 Q1001 NOSIG",
      "taf": "TAF LWSK 100830Z 1009/1109 VRB02KT 9999 BKN090"
    },
    {
      "icao": "LYBE",
      "alert": "OK",
      "vis_m": 100,
      "fzfg": false,
      "metar_trigger": false,
      "taf_trigger": false,
      "metar": "METAR LYBE 100930Z 00000KT 0100 R12L/0150N R30R/0125N FG VV001 01/01 Q1001 NOSIG",
      "taf": ""
    },
    {
      "icao": "LYNI",
      "alert": "OK",
      "vis_m": 4000,
      "fzfg": false,
      "metar_trigger": false,
      "taf_trigger": false,
      "metar": "METAR LYNI 100930Z 33007KT 4000 -RA SCT010 BKN027 02/02 Q0999 NOSIG",
      "taf": ""
    },
    {
      "icao": "LYPG",
      "alert": "OK",
      "vis_m": 7000,
      "fzfg": false,
      "metar_trigger": false,
      "taf_trigger": false,
      "metar": "METAR LYPG 100930Z 05008KT 7000 FEW006 SCT030 BKN050 06/06 Q0997 TEMPO 2000 RA",
      "taf": "TAF LYPG 100500Z 1006/1106 16005KT 9999 FEW010 BKN030 OVC070 TX08/1012Z TN04/1105Z"
    },
    {
      "icao": "LZIB",
      "alert": "OK",
      "vis_m": 6000,
      "fzfg": false,
      "metar_trigger": false,
      "taf_trigger": false,
      "metar": "METAR LZIB 100930Z 03003KT 350V060 6000 FEW008 M03/M05 Q1002 TEMPO BKN007",
      "taf": "TAF LZIB 100515Z 1006/1106 06004KT 9999 BKN007 OVC012"
    },
    {
      "icao": "LZKZ",
      "alert": "OK",
      "vis_m": 6000,
      "fzfg": false,
      "metar_trigger": false,
      "taf_trigger": false,
      "metar": "METAR LZKZ 100930Z 03006KT 6000 SCT007 BKN038 M06/M09 Q1001 NOSIG",
      "taf": ""
    },
    {
      "icao": "LZTT",
      "alert": "OK",
      "vis_m": 9999,
      "fzfg": false,
      "metar_trigger": false,
      "taf_trigger": false,
      "metar": "METAR LZTT 100930Z 05002KT 9999 -SN OVC018 M08/M11 Q0998 NOSIG",
      "taf": "TAF LZTT 100515Z 1006/1106 07005KT 9999 SCT025 BKN045"
    },
    {
      "icao": "OEJN",
      "alert": "OK",
      "vis_m": 9999,
      "fzfg": false,
      "metar_trigger": false,
      "taf_trigger": false,
      "metar": "METAR OEJN 100900Z 34006KT 9999 SCT040 28/16 Q1015 NOSIG",
      "taf": "TAF OEJN 100500Z 1006/1112 29016KT 7000 SCT040"
    },
    {
      "icao": "OEMA",
      "alert": "OK",
      "vis_m": 9999,
      "fzfg": false,
      "metar_trigger": false,
      "taf_trigger": false,
      "metar": "METAR OEMA 100900Z 09005KT CAVOK 21/03 Q1021 NOSIG",
      "taf": "TAF OEMA 100500Z 1006/1112 06016KT 7000 FEW045"
    },
    {
      "icao": "OJAI",
      "alert": "OK",
      "vis_m": 4000,
      "fzfg": false,
      "metar_trigger": false,
      "taf_trigger": false,
      "metar": "METAR OJAI 100900Z 24010KT 4000 HZ BKN030 11/06 Q1022 NOSIG",
      "taf": "TAF OJAI 100500Z 1006/1112 26012KT 4000 BR SCT020 SCT025"
    },
    {
      "icao": "OMAA",
      "alert": "OK",
      "vis_m": 9999,
      "fzfg": false,
      "metar_trigger": false,
      "taf_trigger": false,
      "metar": "METAR OMAA 100900Z 16006KT 120V190 CAVOK 24/06 Q1018 NOSIG",
      "taf": "TAF OMAA 100500Z 1006/1112 VRB02KT 8000 NSC"
    },
    {
      "icao": "OMDB",
      "alert": "OK",
      "vis_m": 9999,
      "fzfg": false,
      "metar_trigger": false,
      "taf_trigger": false,
      "metar": "METAR OMDB 100930Z 22006KT 130V300 CAVOK 26/08 Q1018 NOSIG",
      "taf": "TAF OMDB 100500Z 1006/1112 20005KT 8000 NSC"
    },
    {
      "icao": "UAAA",
      "alert": "OK",
      "vis_m": 3600,
      "fzfg": false,
      "metar_trigger": false,
      "taf_trigger": false,
      "metar": "METAR UAAA 100900Z 02002MPS 350V060 3600 BR SCT200 02/M04 Q1017 NOSIG",
      "taf": "TAF UAAA 100505Z 1006/1106 23003MPS 1600 BR FU BKN011 OVC020 TX04/1009Z TNM05/1101Z"
    },
    {
      "icao": "UBBB",
      "alert": "OK",
      "vis_m": 9999,
      "fzfg": false,
      "metar_trigger": false,
      "taf_trigger": false,
      "metar": "METAR UBBB 100930Z 35022KT 9999 BKN017 10/05 Q1010 NOSIG",
      "taf": "TAF UBBB 100501Z 1006/1106 33018G28KT 9999 SCT015 BKN025 TX09/1008Z TN04/1102Z"
    },
    {
      "icao": "UDSG",
      "alert": "OK",
      "vis_m": 9000,
      "fzfg": false,
      "metar_trigger": false,
      "taf_trigger": false,
      "metar": "METAR UDSG 100900Z 23005KT 9000 BKN026 M01/M01 Q1009 NOSIG",
      "taf": "TAF UDSG 100458Z 1006/1106 VRB06KT 1000 BR OVC010"
    },
    {
      "icao": "UDYZ",
      "alert": "OK",
      "vis_m": 1200,
      "fzfg": false,
      "metar_trigger": false,
      "taf_trigger": false,
      "metar": "METAR UDYZ 100900Z 00000KT 1200 R08/1200U BR SCT023CB 03/M01 Q1010 NOSIG",
      "taf": "TAF UDYZ 100500Z 1006/1106 VRB04KT 1000 BR BKN030"
    },
    {
      "icao": "UGKO",
      "alert": "OK",
      "vis_m": 9999,
      "fzfg": false,
      "metar_trigger": false,
      "taf_trigger": false,
      "metar": "METAR UGKO 100900Z 22005KT 9999 BKN082 05/03 Q1015 NOSIG",
      "taf": "TAF UGKO 100500Z 1006/1106 24010KT 9999 OVC050 TX09/1012Z TN03/1022Z"
    }
  ]
}