{
  "ts_utc": "2026-07-15T13:22:01Z",
  "threshold_m": 150,
  "source": "stations_override.txt (ICAO list) + aviationweather.gov (METAR/TAF raw)",
  "station_count": 159,
  "stations": [
    {
      "icao": "BIKF",
      "alert": "OK",
      "vis_m": 9999,
      "fzfg": false,
      "metar_trigger": false,
      "taf_trigger": false,
      "metar": "METAR BIKF 151300Z 20025G35KT 9999 SCT011 OVC019 11/09 Q1016",
      "taf": "TAF BIKF 151047Z 1512/1612 20022G32KT 9999 BKN013 OVC020 TX12/1515Z TN10/1522Z"
    },
    {
      "icao": "BKPR",
      "alert": "OK",
      "vis_m": null,
      "fzfg": false,
      "metar_trigger": false,
      "taf_trigger": false,
      "metar": "",
      "taf": ""
    },
    {
      "icao": "EBCI",
      "alert": "OK",
      "vis_m": 9999,
      "fzfg": false,
      "metar_trigger": false,
      "taf_trigger": false,
      "metar": "METAR EBCI 151250Z 03014G27KT 010V080 CAVOK 29/13 Q1020 NOSIG",
      "taf": "TAF EBCI 151120Z 1512/1618 04008KT 9999 FEW045"
    },
    {
      "icao": "EDDB",
      "alert": "OK",
      "vis_m": 9999,
      "fzfg": false,
      "metar_trigger": false,
      "taf_trigger": false,
      "metar": "METAR EDDB 151250Z AUTO VRB03KT CAVOK 25/09 Q1021 NOSIG",
      "taf": "TAF EDDB 151100Z 1512/1612 06006KT CAVOK"
    },
    {
      "icao": "EDDH",
      "alert": "OK",
      "vis_m": 9999,
      "fzfg": false,
      "metar_trigger": false,
      "taf_trigger": false,
      "metar": "METAR EDDH 151250Z AUTO 04008KT 350V090 CAVOK 28/14 Q1021 NOSIG",
      "taf": "TAF EDDH 151100Z 1512/1618 33008KT CAVOK"
    },
    {
      "icao": "EDDK",
      "alert": "OK",
      "vis_m": 9999,
      "fzfg": false,
      "metar_trigger": false,
      "taf_trigger": false,
      "metar": "METAR EDDK 151250Z AUTO 04009KT 020V080 CAVOK 28/12 Q1019 NOSIG",
      "taf": "TAF EDDK 151100Z 1512/1618 04008KT CAVOK"
    },
    {
      "icao": "EDDN",
      "alert": "OK",
      "vis_m": 9999,
      "fzfg": false,
      "metar_trigger": false,
      "taf_trigger": false,
      "metar": "METAR EDDN 151250Z AUTO VRB05KT CAVOK 26/15 Q1019 NOSIG",
      "taf": "TAF EDDN 151100Z 1512/1612 06007KT CAVOK"
    },
    {
      "icao": "EDDS",
      "alert": "OK",
      "vis_m": 9999,
      "fzfg": false,
      "metar_trigger": false,
      "taf_trigger": false,
      "metar": "METAR EDDS 151250Z AUTO 09005KT 030V150 CAVOK 27/15 Q1018 NOSIG",
      "taf": "TAF EDDS 151100Z 1512/1612 01005KT CAVOK"
    },
    {
      "icao": "EDFH",
      "alert": "OK",
      "vis_m": 9999,
      "fzfg": false,
      "metar_trigger": false,
      "taf_trigger": false,
      "metar": "METAR EDFH 151250Z VRB06KT CAVOK 26/13 Q1020",
      "taf": "TAF EDFH 151100Z 1512/1612 06009KT CAVOK"
    },
    {
      "icao": "EDJA",
      "alert": "OK",
      "vis_m": 9999,
      "fzfg": false,
      "metar_trigger": false,
      "taf_trigger": false,
      "metar": "METAR EDJA 151250Z 07007KT CAVOK 22/17 Q1020",
      "taf": "TAF EDJA 151100Z 1512/1521 VRB03KT CAVOK"
    },
    {
      "icao": "EDLW",
      "alert": "OK",
      "vis_m": 9999,
      "fzfg": false,
      "metar_trigger": false,
      "taf_trigger": false,
      "metar": "METAR EDLW 151250Z 07010KT 040V100 CAVOK 27/11 Q1020",
      "taf": "TAF EDLW 151100Z 1512/1612 06009KT CAVOK"
    },
    {
      "icao": "EDNY",
      "alert": "OK",
      "vis_m": 9999,
      "fzfg": false,
      "metar_trigger": false,
      "taf_trigger": false,
      "metar": "METAR EDNY 151250Z VRB03KT 9999 VCSH BKN060CB 28/16 Q1017",
      "taf": "TAF EDNY 151100Z 1512/1521 VRB03KT CAVOK"
    },
    {
      "icao": "EDSB",
      "alert": "OK",
      "vis_m": 9999,
      "fzfg": false,
      "metar_trigger": false,
      "taf_trigger": false,
      "metar": "METAR EDSB 151250Z 02012KT CAVOK 29/16 Q1016",
      "taf": "TAF EDSB 151100Z 1512/1612 02012KT CAVOK"
    },
    {
      "icao": "EETN",
      "alert": "OK",
      "vis_m": 9999,
      "fzfg": false,
      "metar_trigger": false,
      "taf_trigger": false,
      "metar": "METAR EETN 151320Z 32008KT 300V360 CAVOK 24/13 Q1019 NOSIG",
      "taf": "TAF EETN 151130Z 1512/1612 32010KT CAVOK"
    },
    {
      "icao": "EFTU",
      "alert": "OK",
      "vis_m": 9999,
      "fzfg": false,
      "metar_trigger": false,
      "taf_trigger": false,
      "metar": "METAR EFTU 151250Z AUTO 34008KT 290V030 CAVOK 25/12 Q1020",
      "taf": "TAF EFTU 151128Z 1512/1612 33009KT CAVOK"
    },
    {
      "icao": "EGBB",
      "alert": "OK",
      "vis_m": 9999,
      "fzfg": false,
      "metar_trigger": false,
      "taf_trigger": false,
      "metar": "METAR EGBB 151250Z 04010KT 350V080 CAVOK 23/14 Q1025",
      "taf": "TAF EGBB 151101Z 1512/1612 06009KT 9999 FEW020"
    },
    {
      "icao": "EGGP",
      "alert": "OK",
      "vis_m": 9999,
      "fzfg": false,
      "metar_trigger": false,
      "taf_trigger": false,
      "metar": "METAR EGGP 151250Z 14007KT 100V190 9999 FEW048 24/14 Q1025",
      "taf": "TAF EGGP 151103Z 1512/1612 09008KT CAVOK"
    },
    {
      "icao": "EGGW",
      "alert": "OK",
      "vis_m": 9999,
      "fzfg": false,
      "metar_trigger": false,
      "taf_trigger": false,
      "metar": "METAR EGGW 151250Z AUTO 06012KT 020V090 9999 BKN039 25/14 Q1023",
      "taf": "TAF EGGW 151056Z 1512/1612 05010KT 9999 FEW040"
    },
    {
      "icao": "EGKK",
      "alert": "OK",
      "vis_m": 9999,
      "fzfg": false,
      "metar_trigger": false,
      "taf_trigger": false,
      "metar": "METAR EGKK 151250Z 05014KT 9999 FEW038 27/15 Q1022",
      "taf": "TAF EGKK 151057Z 1512/1618 06014KT 9999 FEW040"
    },
    {
      "icao": "EGNM",
      "alert": "OK",
      "vis_m": 9999,
      "fzfg": false,
      "metar_trigger": false,
      "taf_trigger": false,
      "metar": "METAR EGNM 151250Z VRB05KT 9999 SCT016 18/13 Q1027",
      "taf": "TAF EGNM 151104Z 1512/1612 06009KT 9999 BKN009"
    },
    {
      "icao": "EGPD",
      "alert": "OK",
      "vis_m": 9999,
      "fzfg": false,
      "metar_trigger": false,
      "taf_trigger": false,
      "metar": "METAR EGPD 151250Z AUTO 11008KT 070V150 9999 NCD 18/12 Q1028",
      "taf": "TAF EGPD 151054Z 1512/1612 11010KT 9999 SCT016"
    },
    {
      "icao": "EGPF",
      "alert": "OK",
      "vis_m": 9999,
      "fzfg": false,
      "metar_trigger": false,
      "taf_trigger": false,
      "metar": "METAR EGPF 151250Z AUTO 04008KT 360V090 9999 NCD 22/14 Q1027",
      "taf": "TAF EGPF 151055Z 1512/1612 07006KT CAVOK"
    },
    {
      "icao": "EHBK",
      "alert": "OK",
      "vis_m": 9999,
      "fzfg": false,
      "metar_trigger": false,
      "taf_trigger": false,
      "metar": "METAR EHBK 151255Z AUTO 04012KT 360V100 9999 NCD 29/11 Q1019 NOSIG",
      "taf": "TAF EHBK 151102Z 1512/1618 05011KT CAVOK"
    },
    {
      "icao": "EHEH",
      "alert": "OK",
      "vis_m": 9999,
      "fzfg": false,
      "metar_trigger": false,
      "taf_trigger": false,
      "metar": "METAR EHEH 151255Z AUTO 03008KT 320V090 9999 NCD 28/08 Q1020 BLU TEMPO 07010G20KT",
      "taf": "TAF EHEH 151104Z 1512/1618 06011KT CAVOK"
    },
    {
      "icao": "EKBI",
      "alert": "OK",
      "vis_m": 9999,
      "fzfg": false,
      "metar_trigger": false,
      "taf_trigger": false,
      "metar": "METAR EKBI 151250Z AUTO 05008KT 340V110 9999 NCD 28/08 Q1024",
      "taf": "TAF EKBI 151127Z 1512/1612 05006KT CAVOK"
    },
    {
      "icao": "EKCH",
      "alert": "OK",
      "vis_m": 9999,
      "fzfg": false,
      "metar_trigger": false,
      "taf_trigger": false,
      "metar": "METAR EKCH 151250Z AUTO 17006KT 130V220 9999 NCD 25/13 Q1024 NOSIG",
      "taf": "TAF EKCH 151127Z 1512/1612 VRB04KT CAVOK"
    },
    {
      "icao": "ENAL",
      "alert": "OK",
      "vis_m": 9999,
      "fzfg": false,
      "metar_trigger": false,
      "taf_trigger": false,
      "metar": "METAR ENAL 151250Z 07008KT 9999 FEW008 SCT012 15/11 Q1028",
      "taf": "TAF ENAL 151100Z 1512/1521 04009KT 9999 SCT008 BKN012"
    },
    {
      "icao": "ENBR",
      "alert": "OK",
      "vis_m": 9999,
      "fzfg": false,
      "metar_trigger": false,
      "taf_trigger": false,
      "metar": "METAR ENBR 151250Z 32008KT CAVOK 20/14 Q1026 NOSIG RMK WIND 1200FT 29004KT",
      "taf": "TAF ENBR 151100Z 1512/1612 33008KT CAVOK"
    },
    {
      "icao": "ENGM",
      "alert": "OK",
      "vis_m": 9999,
      "fzfg": false,
      "metar_trigger": false,
      "taf_trigger": false,
      "metar": "METAR ENGM 151250Z 21007KT CAVOK 30/13 Q1024 NOSIG",
      "taf": "TAF ENGM 151100Z 1512/1612 18010KT CAVOK"
    },
    {
      "icao": "ENHD",
      "alert": "OK",
      "vis_m": 600,
      "fzfg": false,
      "metar_trigger": false,
      "taf_trigger": false,
      "metar": "METAR ENHD 151250Z 35010KT 0600 R13/1000N R31/1100N FG VV002 14/12 Q1026",
      "taf": "TAF ENHD 151100Z 1512/1521 34012KT 0400 FG VV001"
    },
    {
      "icao": "ENTC",
      "alert": "OK",
      "vis_m": 9999,
      "fzfg": false,
      "metar_trigger": false,
      "taf_trigger": false,
      "metar": "METAR ENTC 151250Z 27011KT 9999 -DZRA FEW005 SCT008 BKN011 11/10 Q1020 TEMPO 4000 RADZ BKN008 RMK WIND 2600FT 23009KT",
      "taf": ""
    },
    {
      "icao": "ENTO",
      "alert": "OK",
      "vis_m": 9999,
      "fzfg": false,
      "metar_trigger": false,
      "taf_trigger": false,
      "metar": "METAR ENTO 151250Z 18007KT 160V230 CAVOK 29/15 Q1025 NOSIG",
      "taf": "TAF ENTO 151100Z 1512/1612 36005KT CAVOK"
    },
    {
      "icao": "ENVA",
      "alert": "OK",
      "vis_m": 9999,
      "fzfg": false,
      "metar_trigger": false,
      "taf_trigger": false,
      "metar": "METAR ENVA 151250Z 25009KT 210V270 CAVOK 17/12 Q1028 NOSIG RMK WIND 670FT 29007KT",
      "taf": "TAF ENVA 151100Z 1512/1612 27006KT CAVOK"
    },
    {
      "icao": "ENZV",
      "alert": "OK",
      "vis_m": 9999,
      "fzfg": false,
      "metar_trigger": false,
      "taf_trigger": false,
      "metar": "METAR ENZV 151250Z 29008KT CAVOK 20/14 Q1026 NOSIG",
      "taf": "TAF ENZV 151100Z 1512/1612 30008KT CAVOK"
    },
    {
      "icao": "EPGD",
      "alert": "OK",
      "vis_m": 9999,
      "fzfg": false,
      "metar_trigger": false,
      "taf_trigger": false,
      "metar": "METAR EPGD 151300Z 05007KT 360V070 9999 SCT010 20/17 Q1023",
      "taf": "TAF EPGD 151130Z 1512/1612 03008KT 9999 BKN005"
    },
    {
      "icao": "EPKK",
      "alert": "OK",
      "vis_m": 9999,
      "fzfg": false,
      "metar_trigger": false,
      "taf_trigger": false,
      "metar": "METAR EPKK 151300Z 02004KT 320V050 9999 FEW014 22/16 Q1020",
      "taf": "TAF EPKK 151130Z 1512/1612 05004KT 9999 FEW007 SCT044"
    },
    {
      "icao": "EPKT",
      "alert": "OK",
      "vis_m": 9999,
      "fzfg": false,
      "metar_trigger": false,
      "taf_trigger": false,
      "metar": "METAR EPKT 151300Z 28006KT 9999 FEW010 SCT014 21/18 Q1020",
      "taf": "TAF EPKT 151130Z 1512/1612 29005KT 9999 FEW006 BKN009"
    },
    {
      "icao": "EPLB",
      "alert": "OK",
      "vis_m": 9999,
      "fzfg": false,
      "metar_trigger": false,
      "taf_trigger": false,
      "metar": "METAR EPLB 151300Z 04007KT 350V070 CAVOK 29/16 Q1018",
      "taf": "TAF EPLB 151130Z 1512/1612 VRB05KT CAVOK"
    },
    {
      "icao": "EPMO",
      "alert": "OK",
      "vis_m": 9999,
      "fzfg": false,
      "metar_trigger": false,
      "taf_trigger": false,
      "metar": "METAR EPMO 151300Z 32009KT 280V350 CAVOK 27/14 Q1020",
      "taf": "TAF EPMO 151130Z 1512/1612 02005KT CAVOK"
    },
    {
      "icao": "EPPO",
      "alert": "OK",
      "vis_m": 9999,
      "fzfg": false,
      "metar_trigger": false,
      "taf_trigger": false,
      "metar": "METAR EPPO 151300Z 01003KT 9999 -SHRA FEW025 BKN070CB 18/16 Q1022",
      "taf": "TAF EPPO 151130Z 1512/1612 VRB02KT CAVOK"
    },
    {
      "icao": "EPRA",
      "alert": "OK",
      "vis_m": 9999,
      "fzfg": false,
      "metar_trigger": false,
      "taf_trigger": false,
      "metar": "METAR EPRA 151300Z 03007KT 010V070 CAVOK 28/16 Q1019",
      "taf": "TAF EPRA 151130Z 1512/1521 06006KT 9999 SCT040"
    },
    {
      "icao": "EPRZ",
      "alert": "OK",
      "vis_m": 9999,
      "fzfg": false,
      "metar_trigger": false,
      "taf_trigger": false,
      "metar": "METAR EPRZ 151300Z 25016KT 9999 -TSRA BKN033CB 24/19 Q1018",
      "taf": ""
    },
    {
      "icao": "EPSC",
      "alert": "OK",
      "vis_m": 9999,
      "fzfg": false,
      "metar_trigger": false,
      "taf_trigger": false,
      "metar": "METAR EPSC 151300Z 12006KT 050V160 9999 FEW048 24/11 Q1022",
      "taf": "TAF EPSC 151130Z 1512/1612 VRB05KT 9999 SCT045"
    },
    {
      "icao": "EPSY",
      "alert": "OK",
      "vis_m": 9999,
      "fzfg": false,
      "metar_trigger": false,
      "taf_trigger": false,
      "metar": "METAR EPSY 151300Z 01008KT 330V070 9999 FEW019 23/16 Q1021",
      "taf": "TAF EPSY 151130Z 1512/1521 01008KT 9999 SCT020"
    },
    {
      "icao": "EPWA",
      "alert": "OK",
      "vis_m": 9999,
      "fzfg": false,
      "metar_trigger": false,
      "taf_trigger": false,
      "metar": "METAR EPWA 151300Z VRB06KT CAVOK 28/15 Q1019 NOSIG",
      "taf": "TAF EPWA 151130Z 1512/1612 02005KT CAVOK"
    },
    {
      "icao": "EPWR",
      "alert": "OK",
      "vis_m": 9999,
      "fzfg": false,
      "metar_trigger": false,
      "taf_trigger": false,
      "metar": "METAR EPWR 151300Z 33006KT 290V350 9999 SCT009 BKN012 19/16 Q1021",
      "taf": "TAF EPWR 151130Z 1512/1612 03008KT 9999 BKN009"
    },
    {
      "icao": "ESGG",
      "alert": "OK",
      "vis_m": 9999,
      "fzfg": false,
      "metar_trigger": false,
      "taf_trigger": false,
      "metar": "METAR ESGG 151250Z 04007KT 360V120 CAVOK 29/12 Q1024",
      "taf": "TAF ESGG 151130Z 1512/1612 02007KT CAVOK"
    },
    {
      "icao": "ESKN",
      "alert": "OK",
      "vis_m": 9999,
      "fzfg": false,
      "metar_trigger": false,
      "taf_trigger": false,
      "metar": "METAR ESKN 151250Z 02005KT 330V100 CAVOK 29/11 Q1023",
      "taf": "TAF ESKN 151130Z 1512/1612 04007KT CAVOK"
    },
    {
      "icao": "ESMS",
      "alert": "OK",
      "vis_m": 9999,
      "fzfg": false,
      "metar_trigger": false,
      "taf_trigger": false,
      "metar": "METAR ESMS 151250Z 22007KT 160V260 CAVOK 25/12 Q1024",
      "taf": "TAF ESMS 151130Z 1512/1612 15008KT CAVOK"
    },
    {
      "icao": "ESSA",
      "alert": "OK",
      "vis_m": 9999,
      "fzfg": false,
      "metar_trigger": false,
      "taf_trigger": false,
      "metar": "METAR ESSA 151250Z VRB04KT CAVOK 26/09 Q1023 NOSIG",
      "taf": "TAF ESSA 151130Z 1512/1612 03007KT CAVOK"
    },
    {
      "icao": "EYKA",
      "alert": "OK",
      "vis_m": 9999,
      "fzfg": false,
      "metar_trigger": false,
      "taf_trigger": false,
      "metar": "METAR EYKA 151320Z 01007KT 340V050 9999 SCT042 25/17 Q1020",
      "taf": "TAF EYKA 151100Z 1512/1612 VRB03KT 9000 SCT030"
    },
    {
      "icao": "EYPA",
      "alert": "OK",
      "vis_m": 9999,
      "fzfg": false,
      "metar_trigger": false,
      "taf_trigger": false,
      "metar": "METAR EYPA 151320Z 35007KT 280V040 CAVOK 20/14 Q1022",
      "taf": "TAF EYPA 151100Z 1512/1612 VRB03KT 9000 NSC"
    },
    {
      "icao": "EYVI",
      "alert": "OK",
      "vis_m": 9999,
      "fzfg": false,
      "metar_trigger": false,
      "taf_trigger": false,
      "metar": "METAR EYVI 151320Z 01010KT 9999 SCT043 25/16 Q1020 NOSIG",
      "taf": "TAF EYVI 151100Z 1512/1612 33010KT 9000 SCT035"
    },
    {
      "icao": "GCFV",
      "alert": "OK",
      "vis_m": 9999,
      "fzfg": false,
      "metar_trigger": false,
      "taf_trigger": false,
      "metar": "METAR GCFV 151300Z 05013KT 020V080 CAVOK 26/21 Q1018",
      "taf": "TAF GCFV 150800Z 1509/1609 04014KT 9999 FEW020 TX28/1514Z TN22/1606Z"
    },
    {
      "icao": "GCLP",
      "alert": "OK",
      "vis_m": 9999,
      "fzfg": false,
      "metar_trigger": false,
      "taf_trigger": false,
      "metar": "METAR GCLP 151300Z 02023KT 9999 FEW020 28/20 Q1017 NOSIG",
      "taf": "TAF GCLP 150800Z 1509/1609 02022KT 9999 FEW020 TX29/1514Z TN23/1606Z"
    },
    {
      "icao": "GCTS",
      "alert": "OK",
      "vis_m": 9999,
      "fzfg": false,
      "metar_trigger": false,
      "taf_trigger": false,
      "metar": "METAR GCTS 151300Z 26014KT CAVOK 28/20 Q1018 WS R07 NOSIG",
      "taf": ""
    },
    {
      "icao": "GMAD",
      "alert": "OK",
      "vis_m": 9999,
      "fzfg": false,
      "metar_trigger": false,
      "taf_trigger": false,
      "metar": "METAR GMAD 151300Z 26010KT 230V290 CAVOK 32/18 Q1014 NOSIG",
      "taf": "TAF GMAD 151100Z 1512/1618 27012KT CAVOK"
    },
    {
      "icao": "GMMN",
      "alert": "OK",
      "vis_m": 9999,
      "fzfg": false,
      "metar_trigger": false,
      "taf_trigger": false,
      "metar": "METAR GMMN 151300Z 02013KT 320V050 CAVOK 29/19 Q1018 NOSIG",
      "taf": "TAF GMMN 151100Z 1512/1618 36014KT CAVOK"
    },
    {
      "icao": "GMMX",
      "alert": "OK",
      "vis_m": 8000,
      "fzfg": false,
      "metar_trigger": false,
      "taf_trigger": false,
      "metar": "METAR GMMX 151300Z VRB04KT 8000 SCT023 36/16 Q1017 NOSIG",
      "taf": "TAF GMMX 151100Z 1512/1618 06006KT 8000 SCT033 SCT100"
    },
    {
      "icao": "HEGN",
      "alert": "OK",
      "vis_m": 9999,
      "fzfg": false,
      "metar_trigger": false,
      "taf_trigger": false,
      "metar": "METAR HEGN 151300Z 36014KT CAVOK 35/13 Q1006 NOSIG",
      "taf": "TAF HEGN 151100Z 1512/1618 02018KT CAVOK"
    },
    {
      "icao": "HEMA",
      "alert": "OK",
      "vis_m": 9999,
      "fzfg": false,
      "metar_trigger": false,
      "taf_trigger": false,
      "metar": "METAR HEMA 151300Z 35016KT CAVOK 34/14 Q1006 NOSIG",
      "taf": "TAF HEMA 151100Z 1512/1618 36018KT CAVOK"
    },
    {
      "icao": "HESH",
      "alert": "OK",
      "vis_m": 9999,
      "fzfg": false,
      "metar_trigger": false,
      "taf_trigger": false,
      "metar": "METAR HESH 151300Z 03007KT CAVOK 39/10 Q1005 NOSIG",
      "taf": "TAF HESH 151100Z 1512/1618 02015KT CAVOK"
    },
    {
      "icao": "HESX",
      "alert": "OK",
      "vis_m": 9999,
      "fzfg": false,
      "metar_trigger": false,
      "taf_trigger": false,
      "metar": "METAR HESX 151300Z 34008KT CAVOK 34/15 Q1009 NOSIG",
      "taf": "TAF HESX 151100Z 1512/1618 33010KT CAVOK"
    },
    {
      "icao": "LATI",
      "alert": "OK",
      "vis_m": 9999,
      "fzfg": false,
      "metar_trigger": false,
      "taf_trigger": false,
      "metar": "METAR LATI 151320Z 26008KT 230V310 CAVOK 35/13 Q1015 NOSIG",
      "taf": "TAF LATI 151100Z 1512/1612 32010KT CAVOK TX36/1512Z TN18/1604Z"
    },
    {
      "icao": "LBPD",
      "alert": "OK",
      "vis_m": 9999,
      "fzfg": false,
      "metar_trigger": false,
      "taf_trigger": false,
      "metar": "METAR LBPD 151300Z AUTO VRB06G17KT 9999 NCD 33/12 Q1015 NOSIG",
      "taf": "TAF LBPD 151100Z 1512/1612 VRB03KT CAVOK"
    },
    {
      "icao": "LBSF",
      "alert": "OK",
      "vis_m": 9999,
      "fzfg": false,
      "metar_trigger": false,
      "taf_trigger": false,
      "metar": "METAR LBSF 151300Z VRB04KT 9999 FEW052 SCT070 32/05 Q1017 NOSIG",
      "taf": "TAF LBSF 151100Z 1512/1612 06010KT 9999 SCT060"
    },
    {
      "icao": "LBWN",
      "alert": "OK",
      "vis_m": 9999,
      "fzfg": false,
      "metar_trigger": false,
      "taf_trigger": false,
      "metar": "METAR LBWN 151300Z AUTO 11011KT 9999 NSC 29/19 Q1015 NOSIG",
      "taf": "TAF LBWN 151100Z 1512/1612 12012KT 9999 SCT045"
    },
    {
      "icao": "LCLK",
      "alert": "OK",
      "vis_m": 9999,
      "fzfg": false,
      "metar_trigger": false,
      "taf_trigger": false,
      "metar": "METAR LCLK 151300Z 20011KT 9999 FEW030 34/22 Q1007 NOSIG",
      "taf": "TAF LCLK 151130Z 1512/1612 21014KT 9999 FEW020"
    },
    {
      "icao": "LCPH",
      "alert": "OK",
      "vis_m": 9999,
      "fzfg": false,
      "metar_trigger": false,
      "taf_trigger": false,
      "metar": "METAR LCPH 151300Z 25007KT 9999 FEW020 31/25 Q1008 NOSIG",
      "taf": "TAF LCPH 151130Z 1512/1612 29010KT 9999 FEW020"
    },
    {
      "icao": "LEAL",
      "alert": "OK",
      "vis_m": 9999,
      "fzfg": false,
      "metar_trigger": false,
      "taf_trigger": false,
      "metar": "METAR LEAL 151300Z 18006KT 060V230 CAVOK 35/20 Q1016 NOSIG",
      "taf": "TAF LEAL 151100Z 1512/1612 18012KT CAVOK TX37/1515Z TN25/1605Z"
    },
    {
      "icao": "LEBB",
      "alert": "OK",
      "vis_m": 9999,
      "fzfg": false,
      "metar_trigger": false,
      "taf_trigger": false,
      "metar": "METAR LEBB 151300Z 32005KT 220V030 9999 FEW037 30/21 Q1018 NOSIG",
      "taf": "TAF LEBB 151100Z 1512/1612 32009KT 9999 SCT025 TX28/1514Z TN19/1606Z"
    },
    {
      "icao": "LEBL",
      "alert": "OK",
      "vis_m": 8000,
      "fzfg": false,
      "metar_trigger": false,
      "taf_trigger": false,
      "metar": "METAR LEBL 151300Z 21017KT 8000 VCSH FEW012 FEW090TCU 29/26 Q1015 NOSIG",
      "taf": ""
    },
    {
      "icao": "LECH",
      "alert": "OK",
      "vis_m": 9999,
      "fzfg": false,
      "metar_trigger": false,
      "taf_trigger": false,
      "metar": "METAR LECH 151300Z AUTO 10011KT 070V130 CAVOK 31/23 Q1018",
      "taf": "TAF LECH 151100Z 1512/1612 VRB04KT CAVOK TX34/1515Z TN25/1605Z"
    },
    {
      "icao": "LEMD",
      "alert": "OK",
      "vis_m": 9999,
      "fzfg": false,
      "metar_trigger": false,
      "taf_trigger": false,
      "metar": "METAR LEMD 151300Z 21009G19KT 170V320 CAVOK 34/06 Q1020 NOSIG",
      "taf": "TAF LEMD 151100Z 1512/1618 21010KT CAVOK TX37/1516Z TN20/1605Z"
    },
    {
      "icao": "LEMG",
      "alert": "OK",
      "vis_m": 9999,
      "fzfg": false,
      "metar_trigger": false,
      "taf_trigger": false,
      "metar": "METAR LEMG 151300Z 15009KT 120V180 CAVOK 33/15 Q1016 NOSIG",
      "taf": "TAF LEMG 151100Z 1512/1612 27007KT CAVOK TX38/1514Z TN22/1605Z"
    },
    {
      "icao": "LEVC",
      "alert": "OK",
      "vis_m": 9999,
      "fzfg": false,
      "metar_trigger": false,
      "taf_trigger": false,
      "metar": "METAR LEVC 151300Z 10010KT 070V130 CAVOK 34/21 Q1015 NOSIG",
      "taf": "TAF LEVC 151100Z 1512/1612 32008KT 9999 FEW070 TX42/1515Z TN25/1605Z"
    },
    {
      "icao": "LEXJ",
      "alert": "OK",
      "vis_m": 9999,
      "fzfg": false,
      "metar_trigger": false,
      "taf_trigger": false,
      "metar": "METAR LEXJ 151300Z 36006KT 310V050 9999 SCT057 27/20 Q1018",
      "taf": "TAF LEXJ 150800Z 1509/1609 24005KT 8000 SCT016 TX28/1513Z TN20/1604Z"
    },
    {
      "icao": "LEZG",
      "alert": "OK",
      "vis_m": 9999,
      "fzfg": false,
      "metar_trigger": false,
      "taf_trigger": false,
      "metar": "METAR LEZG 151300Z 24010KT CAVOK 39/08 Q1015 NOSIG",
      "taf": "TAF LEZG 151100Z 1512/1612 VRB04KT CAVOK TX43/1515Z TN22/1605Z"
    },
    {
      "icao": "LEZL",
      "alert": "OK",
      "vis_m": 9999,
      "fzfg": false,
      "metar_trigger": false,
      "taf_trigger": false,
      "metar": "METAR LEZL 151300Z 26003KT CAVOK 33/10 Q1017 NOSIG",
      "taf": "TAF LEZL 150800Z 1509/1609 VRB03KT 9999 FEW020 TX36/1515Z TN21/1605Z"
    },
    {
      "icao": "LFBD",
      "alert": "OK",
      "vis_m": 9999,
      "fzfg": false,
      "metar_trigger": false,
      "taf_trigger": false,
      "metar": "METAR LFBD 151300Z AUTO 09005KT 060V160 CAVOK 32/17 Q1016 NOSIG",
      "taf": "TAF LFBD 151100Z 1512/1618 03005KT CAVOK TX35/1515Z TN21/1605Z"
    },
    {
      "icao": "LFLL",
      "alert": "OK",
      "vis_m": 9999,
      "fzfg": false,
      "metar_trigger": false,
      "taf_trigger": false,
      "metar": "METAR LFLL 151300Z VRB03KT 9999 -TSRA FEW030 BKN076CB BKN120 26/20 Q1018 TEMPO 2000 TSRA",
      "taf": "TAF LFLL 151100Z 1512/1618 11008KT CAVOK"
    },
    {
      "icao": "LFLS",
      "alert": "OK",
      "vis_m": 9999,
      "fzfg": false,
      "metar_trigger": false,
      "taf_trigger": false,
      "metar": "METAR LFLS 151300Z AUTO 04007KT 360V070 CAVOK 29/18 Q1019 TEMPO VRB20G40KT 3000 TSRAGR BKN070CB",
      "taf": ""
    },
    {
      "icao": "LFMN",
      "alert": "OK",
      "vis_m": 9999,
      "fzfg": false,
      "metar_trigger": false,
      "taf_trigger": false,
      "metar": "METAR LFMN 151300Z 17008KT 9999 FEW021 30/24 Q1016 NOSIG",
      "taf": "TAF LFMN 150800Z 1509/1615 17010KT 9999 FEW033"
    },
    {
      "icao": "LFOB",
      "alert": "OK",
      "vis_m": 9999,
      "fzfg": false,
      "metar_trigger": false,
      "taf_trigger": false,
      "metar": "METAR LFOB 151300Z AUTO 04011KT CAVOK 29/14 Q1018 NOSIG",
      "taf": "TAF LFOB 151100Z 1512/1612 04010KT CAVOK"
    },
    {
      "icao": "LFPO",
      "alert": "OK",
      "vis_m": 9999,
      "fzfg": false,
      "metar_trigger": false,
      "taf_trigger": false,
      "metar": "METAR LFPO 151300Z 05010KT 360V070 CAVOK 31/11 Q1017 NOSIG",
      "taf": "TAF LFPO 151100Z 1512/1618 04010KT CAVOK"
    },
    {
      "icao": "LFSB",
      "alert": "OK",
      "vis_m": 9999,
      "fzfg": false,
      "metar_trigger": false,
      "taf_trigger": false,
      "metar": "METAR LFSB 151300Z AUTO 36010KT 320V040 CAVOK 32/18 Q1016 TEMPO 24015G30KT 3000 TSRA SCT060CB",
      "taf": "TAF LFSB 151100Z 1512/1612 33005KT 9999 FEW050 SCT150"
    },
    {
      "icao": "LGAV",
      "alert": "OK",
      "vis_m": 9999,
      "fzfg": false,
      "metar_trigger": false,
      "taf_trigger": false,
      "metar": "METAR LGAV 151250Z 06015KT 9999 FEW025 32/12 Q1015 NOSIG",
      "taf": "TAF LGAV 151100Z 1512/1612 06015KT 9999 FEW025"
    },
    {
      "icao": "LGTS",
      "alert": "OK",
      "vis_m": 9999,
      "fzfg": false,
      "metar_trigger": false,
      "taf_trigger": false,
      "metar": "METAR LGTS 151250Z 19009KT 9999 FEW025 33/16 Q1015 NOSIG",
      "taf": "TAF LGTS 151100Z 1512/1612 16013KT 9999 FEW030"
    },
    {
      "icao": "LHBP",
      "alert": "OK",
      "vis_m": 9999,
      "fzfg": false,
      "metar_trigger": false,
      "taf_trigger": false,
      "metar": "METAR LHBP 151300Z VRB03KT 9999 SCT048 SCT080 BKN210 29/17 Q1017 NOSIG",
      "taf": "TAF LHBP 151115Z 1512/1612 09006KT CAVOK"
    },
    {
      "icao": "LHDC",
      "alert": "OK",
      "vis_m": 9999,
      "fzfg": false,
      "metar_trigger": false,
      "taf_trigger": false,
      "metar": "METAR LHDC 151245Z AUTO 33009KT 290V360 9999 -SHRA BKN044 //////TCU 27/18 Q1018 NOSIG",
      "taf": "TAF LHDC 151115Z 1512/1521 35006KT CAVOK"
    },
    {
      "icao": "LIBD",
      "alert": "OK",
      "vis_m": 9999,
      "fzfg": false,
      "metar_trigger": false,
      "taf_trigger": false,
      "metar": "METAR LIBD 151250Z 04006KT 350V060 CAVOK 33/21 Q1015",
      "taf": "TAF LIBD 151100Z 1512/1612 04010KT CAVOK"
    },
    {
      "icao": "LIBG",
      "alert": "OK",
      "vis_m": 9999,
      "fzfg": false,
      "metar_trigger": false,
      "taf_trigger": false,
      "metar": "METAR LIBG 151250Z AUTO 22009KT 170V260 9999 NCD 36/15 Q1015",
      "taf": "TAF LIBG 151100Z 1512/1612 VRB05KT 9999 FEW030"
    },
    {
      "icao": "LIBP",
      "alert": "OK",
      "vis_m": 9999,
      "fzfg": false,
      "metar_trigger": false,
      "taf_trigger": false,
      "metar": "METAR LIBP 151250Z AUTO 08010KT 9999 NCD 32/18 Q1016",
      "taf": "TAF LIBP 151100Z 1512/1612 08010KT CAVOK"
    },
    {
      "icao": "LIBR",
      "alert": "OK",
      "vis_m": 9999,
      "fzfg": false,
      "metar_trigger": false,
      "taf_trigger": false,
      "metar": "METAR LIBR 151250Z 10008KT CAVOK 30/20 Q1015",
      "taf": "TAF LIBR 151100Z 1512/1612 VRB05KT CAVOK"
    },
    {
      "icao": "LICA",
      "alert": "OK",
      "vis_m": 9999,
      "fzfg": false,
      "metar_trigger": false,
      "taf_trigger": false,
      "metar": "METAR LICA 151250Z AUTO 26012KT 9999 NCD 32/20 Q1016",
      "taf": "TAF LICA 151100Z 1512/1612 27013KT 9999 FEW015"
    },
    {
      "icao": "LICC",
      "alert": "OK",
      "vis_m": 9999,
      "fzfg": false,
      "metar_trigger": false,
      "taf_trigger": false,
      "metar": "METAR LICC 151250Z 06010KT CAVOK 37/18 Q1015",
      "taf": "TAF LICC 151100Z 1512/1612 09012KT CAVOK"
    },
    {
      "icao": "LICJ",
      "alert": "OK",
      "vis_m": 9999,
      "fzfg": false,
      "metar_trigger": false,
      "taf_trigger": false,
      "metar": "METAR LICJ 151250Z 33010KT CAVOK 29/26 Q1016",
      "taf": "TAF LICJ 151100Z 1512/1612 35012KT CAVOK"
    },
    {
      "icao": "LIMC",
      "alert": "OK",
      "vis_m": 9999,
      "fzfg": false,
      "metar_trigger": false,
      "taf_trigger": false,
      "metar": "METAR LIMC 151250Z 28004KT 230V360 CAVOK 32/19 Q1016 NOSIG",
      "taf": "TAF LIMC 151100Z 1512/1618 VRB05KT CAVOK"
    },
    {
      "icao": "LIME",
      "alert": "OK",
      "vis_m": 9999,
      "fzfg": false,
      "metar_trigger": false,
      "taf_trigger": false,
      "metar": "METAR LIME 151250Z 22006KT 150V280 9999 FEW085 BKN100 33/19 Q1015 NOSIG",
      "taf": "TAF LIME 151100Z 1512/1612 VRB05KT CAVOK"
    },
    {
      "icao": "LIMF",
      "alert": "OK",
      "vis_m": 7000,
      "fzfg": false,
      "metar_trigger": false,
      "taf_trigger": false,
      "metar": "METAR LIMF 151250Z 34013KT 7000 TSRA SCT040CB BKN100 26/22 Q1018",
      "taf": "TAF LIMF 151100Z 1512/1612 VRB05KT 9999 FEW060"
    },
    {
      "icao": "LIMJ",
      "alert": "OK",
      "vis_m": 9999,
      "fzfg": false,
      "metar_trigger": false,
      "taf_trigger": false,
      "metar": "METAR LIMJ 151250Z 21006KT 9999 SCT025 28/25 Q1016",
      "taf": "TAF LIMJ 151100Z 1512/1612 20010KT 9999 FEW015"
    },
    {
      "icao": "LIPE",
      "alert": "OK",
      "vis_m": 9999,
      "fzfg": false,
      "metar_trigger": false,
      "taf_trigger": false,
      "metar": "METAR LIPE 151250Z 04006KT 010V070 CAVOK 34/21 Q1014",
      "taf": "TAF LIPE 151100Z 1512/1612 VRB05KT 9999 FEW030"
    },
    {
      "icao": "LIPH",
      "alert": "OK",
      "vis_m": 9999,
      "fzfg": false,
      "metar_trigger": false,
      "taf_trigger": false,
      "metar": "METAR LIPH 151250Z VRB04KT CAVOK 34/19 Q1014",
      "taf": "TAF LIPH 151100Z 1512/1612 12010KT 9999 SCT030"
    },
    {
      "icao": "LIPQ",
      "alert": "OK",
      "vis_m": 9999,
      "fzfg": false,
      "metar_trigger": false,
      "taf_trigger": false,
      "metar": "METAR LIPQ 151250Z AUTO 26004KT 200V010 9999 NCD 33/17 Q1015",
      "taf": "TAF LIPQ 151100Z 1512/1612 VRB05KT 9999 SCT050"
    },
    {
      "icao": "LIPR",
      "alert": "OK",
      "vis_m": 9999,
      "fzfg": false,
      "metar_trigger": false,
      "taf_trigger": false,
      "metar": "METAR LIPR 151250Z 06009KT 040V100 CAVOK 30/24 Q1015",
      "taf": "TAF LIPR 151100Z 1512/1612 04010KT 9999 FEW030"
    },
    {
      "icao": "LIPX",
      "alert": "OK",
      "vis_m": 9999,
      "fzfg": false,
      "metar_trigger": false,
      "taf_trigger": false,
      "metar": "METAR LIPX 151250Z VRB04KT CAVOK 33/19 Q1015",
      "taf": "TAF LIPX 151100Z 1512/1612 VRB05KT CAVOK"
    },
    {
      "icao": "LIPY",
      "alert": "OK",
      "vis_m": 9999,
      "fzfg": false,
      "metar_trigger": false,
      "taf_trigger": false,
      "metar": "METAR LIPY 151250Z AUTO 05010KT 9999 NCD 30/24 Q1015",
      "taf": "TAF LIPY 151100Z 1512/1612 04010KT 9999 FEW050"
    },
    {
      "icao": "LIPZ",
      "alert": "OK",
      "vis_m": 9999,
      "fzfg": false,
      "metar_trigger": false,
      "taf_trigger": false,
      "metar": "METAR LIPZ 151250Z 14010KT CAVOK 30/22 Q1015 NOSIG",
      "taf": "TAF LIPZ 151100Z 1512/1618 13010KT 9999 SCT040"
    },
    {
      "icao": "LIRF",
      "alert": "OK",
      "vis_m": 9999,
      "fzfg": false,
      "metar_trigger": false,
      "taf_trigger": false,
      "metar": "METAR LIRF 151250Z 24008KT 210V270 CAVOK 31/24 Q1016 NOSIG",
      "taf": "TAF LIRF 151100Z 1512/1618 23010KT CAVOK"
    },
    {
      "icao": "LIRN",
      "alert": "OK",
      "vis_m": 9999,
      "fzfg": false,
      "metar_trigger": false,
      "taf_trigger": false,
      "metar": "METAR LIRN 151250Z 18007KT 150V220 CAVOK 33/19 Q1017 NOSIG",
      "taf": "TAF LIRN 151100Z 1512/1612 23010KT CAVOK"
    },
    {
      "icao": "LIRP",
      "alert": "OK",
      "vis_m": 9999,
      "fzfg": false,
      "metar_trigger": false,
      "taf_trigger": false,
      "metar": "METAR LIRP 151245Z 28009KT CAVOK 33/23 Q1015 NOSIG",
      "taf": "TAF LIRP 151100Z 1512/1612 27010KT 9999 FEW030"
    },
    {
      "icao": "LIRZ",
      "alert": "OK",
      "vis_m": 9999,
      "fzfg": false,
      "metar_trigger": false,
      "taf_trigger": false,
      "metar": "METAR LIRZ 151250Z AUTO VRB05KT 9999 NCD 35/14 Q1016",
      "taf": "TAF LIRZ 151100Z 1512/1612 VRB05KT CAVOK"
    },
    {
      "icao": "LJLJ",
      "alert": "OK",
      "vis_m": 9999,
      "fzfg": false,
      "metar_trigger": false,
      "taf_trigger": false,
      "metar": "METAR LJLJ 151300Z 13004KT 9999 FEW050CB SCT150 32/13 Q1017 NOSIG",
      "taf": "TAF LJLJ 151100Z 1512/1612 12003KT 9999 FEW050"
    },
    {
      "icao": "LKMT",
      "alert": "OK",
      "vis_m": 9999,
      "fzfg": false,
      "metar_trigger": false,
      "taf_trigger": false,
      "metar": "METAR LKMT 151300Z 35008KT 320V020 9999 FEW020 BKN024 21/17 Q1020 NOSIG",
      "taf": "TAF LKMT 151100Z 1512/1612 02006KT 9999 SCT012 BKN027"
    },
    {
      "icao": "LKPR",
      "alert": "OK",
      "vis_m": 9999,
      "fzfg": false,
      "metar_trigger": false,
      "taf_trigger": false,
      "metar": "METAR LKPR 151300Z 35007KT 290V040 CAVOK 26/13 Q1019 NOSIG",
      "taf": "TAF LKPR 151100Z 1512/1618 02004KT CAVOK"
    },
    {
      "icao": "LLBG",
      "alert": "OK",
      "vis_m": 9999,
      "fzfg": false,
      "metar_trigger": false,
      "taf_trigger": false,
      "metar": "METAR LLBG 151250Z 29009KT CAVOK 31/21 Q1008 NOSIG",
      "taf": "TAF LLBG 151101Z 1512/1612 28010KT CAVOK TX32/1512Z TN24/1603Z"
    },
    {
      "icao": "LMML",
      "alert": "OK",
      "vis_m": 9999,
      "fzfg": false,
      "metar_trigger": false,
      "taf_trigger": false,
      "metar": "METAR LMML 151315Z 23011KT 200V270 CAVOK 31/22 Q1017 NOSIG",
      "taf": "TAF LMML 151100Z 1512/1612 25012KT CAVOK"
    },
    {
      "icao": "LOWW",
      "alert": "OK",
      "vis_m": 9999,
      "fzfg": false,
      "metar_trigger": false,
      "taf_trigger": false,
      "metar": "METAR LOWW 151250Z VRB06KT 9999 FEW050 30/14 Q1018 NOSIG",
      "taf": "TAF LOWW 151115Z 1512/1618 VRB04KT 9999 FEW050 TX31/1615Z TN18/1603Z"
    },
    {
      "icao": "LPFR",
      "alert": "OK",
      "vis_m": 9999,
      "fzfg": false,
      "metar_trigger": false,
      "taf_trigger": false,
      "metar": "METAR LPFR 151300Z 26014KT CAVOK 25/18 Q1019",
      "taf": "TAF LPFR 151100Z 1512/1612 24013KT CAVOK"
    },
    {
      "icao": "LPMA",
      "alert": "OK",
      "vis_m": 9999,
      "fzfg": false,
      "metar_trigger": false,
      "taf_trigger": false,
      "metar": "METAR LPMA 151300Z 17008KT 120V190 9999 SCT015 BKN030 24/21 Q1021",
      "taf": "TAF LPMA 151100Z 1512/1612 16010KT 9999 SCT015"
    },
    {
      "icao": "LPPR",
      "alert": "OK",
      "vis_m": 9999,
      "fzfg": false,
      "metar_trigger": false,
      "taf_trigger": false,
      "metar": "METAR LPPR 151300Z 27006KT 230V320 9999 FEW015 23/17 Q1020",
      "taf": "TAF LPPR 151100Z 1512/1612 27008KT 9999 SCT015"
    },
    {
      "icao": "LPPS",
      "alert": "OK",
      "vis_m": 9999,
      "fzfg": false,
      "metar_trigger": false,
      "taf_trigger": false,
      "metar": "METAR LPPS 151300Z 15008KT 110V180 9999 SCT015 25/19 Q1021",
      "taf": "TAF LPPS 151100Z 1512/1618 16008KT 9999 SCT015"
    },
    {
      "icao": "LPPT",
      "alert": "OK",
      "vis_m": 9999,
      "fzfg": false,
      "metar_trigger": false,
      "taf_trigger": false,
      "metar": "METAR LPPT 151300Z 25009KT 220V280 9999 FEW038 27/15 Q1020 NOSIG",
      "taf": "TAF LPPT 151100Z 1512/1618 24010KT 9999 FEW030"
    },
    {
      "icao": "LQBK",
      "alert": "OK",
      "vis_m": 9999,
      "fzfg": false,
      "metar_trigger": false,
      "taf_trigger": false,
      "metar": "METAR LQBK 151300Z 33007KT 260V010 CAVOK 33/15 Q1016 NOSIG",
      "taf": "TAF LQBK 151100Z 1512/1612 14005KT CAVOK TX34/1514Z TN17/1603Z"
    },
    {
      "icao": "LQSA",
      "alert": "OK",
      "vis_m": 9999,
      "fzfg": false,
      "metar_trigger": false,
      "taf_trigger": false,
      "metar": "METAR LQSA 151300Z 34009KT 320V100 9999 FEW035TCU 32/15 Q1017 TEMPO TS FEW035CB SCT045",
      "taf": "TAF LQSA 151100Z 1512/1612 VRB02KT 9999 SCT050 TX32/1513Z TN17/1604Z"
    },
    {
      "icao": "LQTZ",
      "alert": "OK",
      "vis_m": 9999,
      "fzfg": false,
      "metar_trigger": false,
      "taf_trigger": false,
      "metar": "METAR LQTZ 151300Z 02003KT 330V060 9999 SCT050 32/20 Q1016",
      "taf": "TAF LQTZ 151100Z 1512/1612 VRB02KT CAVOK TX32/1514Z TN16/1603Z"
    },
    {
      "icao": "LRBC",
      "alert": "OK",
      "vis_m": 9999,
      "fzfg": false,
      "metar_trigger": false,
      "taf_trigger": false,
      "metar": "METAR LRBC 151300Z 02006KT 9999 FEW055 30/17 Q1017",
      "taf": "TAF LRBC 151100Z 1512/1521 01010KT 9999 FEW045"
    },
    {
      "icao": "LRBS",
      "alert": "OK",
      "vis_m": 9999,
      "fzfg": false,
      "metar_trigger": false,
      "taf_trigger": false,
      "metar": "METAR LRBS 151300Z VRB01KT CAVOK 32/17 Q1016 NOSIG",
      "taf": "TAF LRBS 151100Z 1512/1612 VRB04KT CAVOK"
    },
    {
      "icao": "LRBV",
      "alert": "OK",
      "vis_m": 9999,
      "fzfg": false,
      "metar_trigger": false,
      "taf_trigger": false,
      "metar": "METAR LRBV 151300Z VRB02KT 9999 FEW060 26/14 Q1019",
      "taf": "TAF LRBV 151100Z 1512/1521 VRB04KT 9999 SCT045"
    },
    {
      "icao": "LRCL",
      "alert": "OK",
      "vis_m": 9999,
      "fzfg": false,
      "metar_trigger": false,
      "taf_trigger": false,
      "metar": "METAR LRCL 151300Z 27010KT 240V300 9999 FEW040CB SCT050 26/16 Q1018",
      "taf": "TAF LRCL 151100Z 1512/1521 12008KT 9999 SCT045"
    },
    {
      "icao": "LRCV",
      "alert": "OK",
      "vis_m": 9999,
      "fzfg": false,
      "metar_trigger": false,
      "taf_trigger": false,
      "metar": "METAR LRCV 151300Z 09006KT 040V130 CAVOK 31/16 Q1016",
      "taf": "TAF LRCV 151100Z 1512/1521 16008KT CAVOK"
    },
    {
      "icao": "LRIA",
      "alert": "OK",
      "vis_m": 9999,
      "fzfg": false,
      "metar_trigger": false,
      "taf_trigger": false,
      "metar": "METAR LRIA 151300Z 34009KT 310V020 CAVOK 30/14 Q1016",
      "taf": "TAF LRIA 151100Z 1512/1521 35010KT 9999 SCT045"
    },
    {
      "icao": "LROP",
      "alert": "OK",
      "vis_m": 9999,
      "fzfg": false,
      "metar_trigger": false,
      "taf_trigger": false,
      "metar": "METAR LROP 151300Z 16003KT 060V220 CAVOK 29/17 Q1016 NOSIG",
      "taf": "TAF LROP 151100Z 1512/1612 VRB04KT CAVOK"
    },
    {
      "icao": "LRSB",
      "alert": "OK",
      "vis_m": 9999,
      "fzfg": false,
      "metar_trigger": false,
      "taf_trigger": false,
      "metar": "METAR LRSB 151300Z 08006KT 040V130 9999 FEW053 FEW055TCU 29/16 Q1018 NOSIG",
      "taf": "TAF LRSB 151100Z 1512/1612 VRB04KT 9999 SCT045"
    },
    {
      "icao": "LRSM",
      "alert": "OK",
      "vis_m": 9999,
      "fzfg": false,
      "metar_trigger": false,
      "taf_trigger": false,
      "metar": "METAR LRSM 151300Z 33007KT 9999 FEW055TCU 29/17 Q1017",
      "taf": "TAF LRSM 151100Z 1512/1521 VRB04KT CAVOK"
    },
    {
      "icao": "LRSV",
      "alert": "OK",
      "vis_m": 9999,
      "fzfg": false,
      "metar_trigger": false,
      "taf_trigger": false,
      "metar": "METAR LRSV 151300Z 36006KT 320V040 9999 SCT045 27/16 Q1018",
      "taf": "TAF LRSV 151100Z 1512/1521 36010KT 9999 SCT040"
    },
    {
      "icao": "LRTM",
      "alert": "OK",
      "vis_m": 9999,
      "fzfg": false,
      "metar_trigger": false,
      "taf_trigger": false,
      "metar": "METAR LRTM 151300Z 05004KT 340V130 9999 FEW035TCU 30/18 Q1017",
      "taf": "TAF LRTM 151100Z 1512/1521 VRB04KT 9999 SCT045"
    },
    {
      "icao": "LRTR",
      "alert": "OK",
      "vis_m": 9999,
      "fzfg": false,
      "metar_trigger": false,
      "taf_trigger": false,
      "metar": "METAR LRTR 151300Z 36005KT CAVOK 32/13 Q1016",
      "taf": "TAF LRTR 151100Z 1512/1612 36007KT CAVOK"
    },
    {
      "icao": "LTAC",
      "alert": "OK",
      "vis_m": 9999,
      "fzfg": false,
      "metar_trigger": false,
      "taf_trigger": false,
      "metar": "METAR LTAC 151250Z 08006KT 030V120 9999 SCT040 28/08 Q1016 NOSIG RMK RWY21C 35005KT 260V070 RWY03L VRB05KT RWY21R 34006KT 240V030 RWY03R 35004KT 270V060 RWY21L 11007KT 050V160",
      "taf": "TAF LTAC 151040Z 1512/1612 04012KT 9999 SCT040"
    },
    {
      "icao": "LTFM",
      "alert": "OK",
      "vis_m": 9999,
      "fzfg": false,
      "metar_trigger": false,
      "taf_trigger": false,
      "metar": "METAR LTFM 151250Z 03010KT 340V060 9999 SCT025 27/18 Q1016 NOSIG RMK RWY17L 01010KT 340V040 RWY34L 02009KT 350V050 RWY16R 02010KT 350V050 RWY36 04010KT RWY18 03008KT",
      "taf": "TAF LTFM 151040Z 1512/1618 02012KT 9999 SCT025"
    },
    {
      "icao": "LUKK",
      "alert": "OK",
      "vis_m": 9999,
      "fzfg": false,
      "metar_trigger": false,
      "taf_trigger": false,
      "metar": "METAR LUKK 151300Z 32011KT 300V360 CAVOK 30/16 Q1015 NOSIG",
      "taf": "TAF LUKK 151102Z 1512/1612 35012KT CAVOK"
    },
    {
      "icao": "LWOH",
      "alert": "OK",
      "vis_m": 9999,
      "fzfg": false,
      "metar_trigger": false,
      "taf_trigger": false,
      "metar": "METAR LWOH 151250Z 17005KT 140V210 9999 FEW040 29/15 Q1018",
      "taf": "TAF LWOH 151120Z 1512/1612 16005KT 9999 FEW040"
    },
    {
      "icao": "LWSK",
      "alert": "OK",
      "vis_m": 9999,
      "fzfg": false,
      "metar_trigger": false,
      "taf_trigger": false,
      "metar": "METAR LWSK 151320Z 22004KT 140V300 CAVOK 36/16 Q1015 NOSIG",
      "taf": "TAF LWSK 151120Z 1512/1612 VRB02KT CAVOK"
    },
    {
      "icao": "LYBE",
      "alert": "OK",
      "vis_m": 9999,
      "fzfg": false,
      "metar_trigger": false,
      "taf_trigger": false,
      "metar": "METAR LYBE 151300Z 03006KT 300V080 CAVOK 32/16 Q1016 NOSIG",
      "taf": "TAF LYBE 151100Z 1512/1612 36005KT CAVOK TX33/1514Z TN21/1603Z"
    },
    {
      "icao": "LYNI",
      "alert": "OK",
      "vis_m": 9999,
      "fzfg": false,
      "metar_trigger": false,
      "taf_trigger": false,
      "metar": "METAR LYNI 151300Z 31008KT 260V350 9999 FEW060 35/13 Q1015 NOSIG",
      "taf": "TAF LYNI 151100Z 1512/1612 32005KT 9999 SCT050 TX34/1514Z TN18/1603Z"
    },
    {
      "icao": "LYPG",
      "alert": "OK",
      "vis_m": 9999,
      "fzfg": false,
      "metar_trigger": false,
      "taf_trigger": false,
      "metar": "METAR LYPG 151300Z 14007KT 100V170 9999 FEW040 36/16 Q1013 NOSIG",
      "taf": "TAF LYPG 151100Z 1512/1612 18008KT 9999 FEW050 TX36/1513Z TN24/1603Z"
    },
    {
      "icao": "LZIB",
      "alert": "OK",
      "vis_m": 9999,
      "fzfg": false,
      "metar_trigger": false,
      "taf_trigger": false,
      "metar": "METAR LZIB 151300Z VRB05KT 9999 SCT045 30/17 Q1017 NOSIG",
      "taf": "TAF LZIB 151115Z 1512/1612 02004KT 9999 SCT040"
    },
    {
      "icao": "LZKZ",
      "alert": "OK",
      "vis_m": 9999,
      "fzfg": false,
      "metar_trigger": false,
      "taf_trigger": false,
      "metar": "METAR LZKZ 151300Z 05004KT 020V090 9999 FEW035 22/18 Q1019 NOSIG",
      "taf": "TAF LZKZ 151115Z 1512/1612 02006KT CAVOK"
    },
    {
      "icao": "LZTT",
      "alert": "OK",
      "vis_m": 9999,
      "fzfg": false,
      "metar_trigger": false,
      "taf_trigger": false,
      "metar": "METAR LZTT 151300Z VRB02KT 9999 FEW008 BKN050 18/16 Q1021 NOSIG",
      "taf": "TAF LZTT 151115Z 1512/1612 28004KT 9999 SCT060"
    },
    {
      "icao": "OEJN",
      "alert": "OK",
      "vis_m": 9999,
      "fzfg": false,
      "metar_trigger": false,
      "taf_trigger": false,
      "metar": "METAR OEJN 151300Z 30008KT CAVOK 37/21 Q1004 NOSIG",
      "taf": "TAF OEJN 151100Z 1512/1618 30012KT 9999 FEW040"
    },
    {
      "icao": "OEMA",
      "alert": "OK",
      "vis_m": 9999,
      "fzfg": false,
      "metar_trigger": false,
      "taf_trigger": false,
      "metar": "METAR OEMA 151300Z 28006KT 9999 FEW045 45/M04 Q1007 NOSIG",
      "taf": "TAF OEMA 151100Z 1512/1618 29016KT 9999 FEW040"
    },
    {
      "icao": "OJAI",
      "alert": "OK",
      "vis_m": 5000,
      "fzfg": false,
      "metar_trigger": false,
      "taf_trigger": false,
      "metar": "METAR OJAI 151300Z 28014KT 5000 DU NSC 33/06 Q1012 NOSIG",
      "taf": "TAF OJAI 151100Z 1512/1618 27008KT 5000 HZ NSC"
    },
    {
      "icao": "OMAA",
      "alert": "OK",
      "vis_m": 9999,
      "fzfg": false,
      "metar_trigger": false,
      "taf_trigger": false,
      "metar": "METAR OMAA 151300Z 32014KT CAVOK 40/26 Q0994 NOSIG",
      "taf": "TAF OMAA 151100Z 1512/1618 33013KT 8000 NSC"
    },
    {
      "icao": "OMDB",
      "alert": "OK",
      "vis_m": 8000,
      "fzfg": false,
      "metar_trigger": false,
      "taf_trigger": false,
      "metar": "SPECI OMDB 151309Z 07012KT 010V090 8000 NSC 46/19 Q0994 NOSIG",
      "taf": "TAF OMDB 151100Z 1512/1618 10012KT 8000 NSC"
    },
    {
      "icao": "UAAA",
      "alert": "OK",
      "vis_m": 9999,
      "fzfg": false,
      "metar_trigger": false,
      "taf_trigger": false,
      "metar": "METAR UAAA 151300Z 07004MPS 9999 FEW050CB SCT100 34/10 Q1007 NOSIG",
      "taf": "TAF UAAA 151102Z 1512/1612 04003MPS 9999 FEW050CB SCT100 TX38/1610Z TN20/1601Z"
    },
    {
      "icao": "UBBB",
      "alert": "OK",
      "vis_m": 9999,
      "fzfg": false,
      "metar_trigger": false,
      "taf_trigger": false,
      "metar": "METAR UBBB 151300Z 34024G34KT CAVOK 28/22 Q1007 NOSIG",
      "taf": "TAF UBBB 151054Z 1512/1612 33022G32KT 9999 SCT015 TX31/1512Z TN23/1601Z"
    },
    {
      "icao": "UDSG",
      "alert": "OK",
      "vis_m": 9999,
      "fzfg": false,
      "metar_trigger": false,
      "taf_trigger": false,
      "metar": "METAR UDSG 151300Z 34009KT 9999 FEW043CB 27/13 Q1016 NOSIG",
      "taf": "TAF UDSG 151100Z 1512/1612 33006KT 9999 FEW050"
    },
    {
      "icao": "UDYZ",
      "alert": "OK",
      "vis_m": 9999,
      "fzfg": false,
      "metar_trigger": false,
      "taf_trigger": false,
      "metar": "METAR UDYZ 151300Z 17005KT 120V230 9999 FEW046 37/06 Q1008 NOSIG",
      "taf": "TAF UDYZ 151100Z 1512/1612 04006KT 9999 FEW040"
    },
    {
      "icao": "UGKO",
      "alert": "OK",
      "vis_m": 9999,
      "fzfg": false,
      "metar_trigger": false,
      "taf_trigger": false,
      "metar": "METAR UGKO 151300Z 24012KT 9999 BKN060 27/19 Q1013 NOSIG",
      "taf": "TAF UGKO 151100Z 1512/1612 VRB02KT 9999 SCT030 BKN070 TX27/1612Z TN19/1602Z"
    }
  ]
}