{
  "ts_utc": "2026-03-21T16:56:16Z",
  "threshold_m": 150,
  "source": "stations_override.txt (ICAO list) + aviationweather.gov (METAR/TAF raw)",
  "station_count": 159,
  "stations": [
    {
      "icao": "BIKF",
      "alert": "OK",
      "vis_m": 5000,
      "fzfg": false,
      "metar_trigger": false,
      "taf_trigger": false,
      "metar": "METAR BIKF 211630Z 24009KT 5000 -SHSN FEW003 BKN010TCU OVC038 M01/M03 Q0988",
      "taf": "TAF BIKF 211634Z 2118/2218 23008KT 9999 -SHSN FEW010CB BKN025 TX01/2214Z TNM02/2208Z"
    },
    {
      "icao": "BKPR",
      "alert": "OK",
      "vis_m": null,
      "fzfg": false,
      "metar_trigger": false,
      "taf_trigger": false,
      "metar": "",
      "taf": "TAF BKPR 211130Z 2112/2212 06009KT 9999 SCT050 BKN090"
    },
    {
      "icao": "EBCI",
      "alert": "OK",
      "vis_m": 9999,
      "fzfg": false,
      "metar_trigger": false,
      "taf_trigger": false,
      "metar": "METAR EBCI 211620Z 03012KT CAVOK 12/03 Q1015 NOSIG",
      "taf": "TAF EBCI 211103Z 2112/2218 05005KT CAVOK"
    },
    {
      "icao": "EDDB",
      "alert": "OK",
      "vis_m": 9999,
      "fzfg": false,
      "metar_trigger": false,
      "taf_trigger": false,
      "metar": "METAR EDDB 211650Z AUTO 08006KT CAVOK 09/01 Q1019 NOSIG",
      "taf": "TAF EDDB 211100Z 2112/2212 07010KT 9999 SCT020"
    },
    {
      "icao": "EDDH",
      "alert": "OK",
      "vis_m": 9999,
      "fzfg": false,
      "metar_trigger": false,
      "taf_trigger": false,
      "metar": "METAR EDDH 211650Z AUTO 05009KT CAVOK 07/04 Q1020 TEMPO BKN004",
      "taf": "TAF EDDH 211100Z 2112/2218 07007KT 9999 SCT025"
    },
    {
      "icao": "EDDK",
      "alert": "OK",
      "vis_m": 9999,
      "fzfg": false,
      "metar_trigger": false,
      "taf_trigger": false,
      "metar": "METAR EDDK 211650Z AUTO 07004KT 040V110 CAVOK 14/02 Q1014 NOSIG",
      "taf": "TAF EDDK 211100Z 2112/2218 02007KT CAVOK"
    },
    {
      "icao": "EDDN",
      "alert": "OK",
      "vis_m": 9999,
      "fzfg": false,
      "metar_trigger": false,
      "taf_trigger": false,
      "metar": "METAR EDDN 211650Z AUTO 04004KT 9999 SCT046 07/05 Q1014 NOSIG",
      "taf": "TAF EDDN 211100Z 2112/2212 05005KT 9999 SCT040"
    },
    {
      "icao": "EDDS",
      "alert": "OK",
      "vis_m": 6000,
      "fzfg": false,
      "metar_trigger": false,
      "taf_trigger": false,
      "metar": "METAR EDDS 211650Z AUTO 02005KT 320V050 6000 SHRA FEW017 BKN033 BKN044 FEW///CB 08/04 Q1012 TEMPO 4000 SHRA",
      "taf": "TAF EDDS 211100Z 2112/2212 04005KT 9999 SCT030"
    },
    {
      "icao": "EDFH",
      "alert": "OK",
      "vis_m": 9999,
      "fzfg": false,
      "metar_trigger": false,
      "taf_trigger": false,
      "metar": "METAR EDFH 211620Z 08004KT 330V130 CAVOK 09/00 Q1013",
      "taf": "TAF EDFH 211100Z 2112/2212 08008KT 9999 SCT040"
    },
    {
      "icao": "EDJA",
      "alert": "OK",
      "vis_m": 9999,
      "fzfg": false,
      "metar_trigger": false,
      "taf_trigger": false,
      "metar": "METAR EDJA 211620Z 06009KT CAVOK 09/01 Q1011",
      "taf": "TAF EDJA 211400Z 2115/2124 05010KT 9999 SCT035"
    },
    {
      "icao": "EDLW",
      "alert": "OK",
      "vis_m": 9999,
      "fzfg": false,
      "metar_trigger": false,
      "taf_trigger": false,
      "metar": "METAR EDLW 211620Z 02007KT 350V060 CAVOK 10/04 Q1016",
      "taf": "TAF EDLW 211100Z 2112/2212 05007KT CAVOK"
    },
    {
      "icao": "EDNY",
      "alert": "OK",
      "vis_m": 9999,
      "fzfg": false,
      "metar_trigger": false,
      "taf_trigger": false,
      "metar": "METAR EDNY 211620Z 05010KT 9999 FEW046 SCT056 11/02 Q1011",
      "taf": "TAF EDNY 211400Z 2115/2124 04008KT 9999 SCT050"
    },
    {
      "icao": "EDSB",
      "alert": "OK",
      "vis_m": 9999,
      "fzfg": false,
      "metar_trigger": false,
      "taf_trigger": false,
      "metar": "METAR EDSB 211620Z 03010KT CAVOK 13/03 Q1012",
      "taf": "TAF EDSB 211100Z 2112/2212 03008KT 9999 SCT045"
    },
    {
      "icao": "EETN",
      "alert": "OK",
      "vis_m": 9999,
      "fzfg": false,
      "metar_trigger": false,
      "taf_trigger": false,
      "metar": "METAR EETN 211650Z 23010KT CAVOK 07/M05 Q1022 NOSIG",
      "taf": "TAF EETN 211130Z 2112/2212 22012KT CAVOK"
    },
    {
      "icao": "EFTU",
      "alert": "OK",
      "vis_m": 9999,
      "fzfg": false,
      "metar_trigger": false,
      "taf_trigger": false,
      "metar": "METAR EFTU 211650Z AUTO 21009KT CAVOK 05/M00 Q1018",
      "taf": "TAF EFTU 211422Z 2115/2215 21010KT CAVOK"
    },
    {
      "icao": "EGBB",
      "alert": "OK",
      "vis_m": 9999,
      "fzfg": false,
      "metar_trigger": false,
      "taf_trigger": false,
      "metar": "METAR EGBB 211650Z 01004KT 330V060 CAVOK 14/06 Q1018",
      "taf": "TAF EGBB 211058Z 2112/2212 11003KT CAVOK"
    },
    {
      "icao": "EGGP",
      "alert": "OK",
      "vis_m": 9999,
      "fzfg": false,
      "metar_trigger": false,
      "taf_trigger": false,
      "metar": "METAR EGGP 211650Z 13002KT 9999 7000W NSC 14/04 Q1017",
      "taf": ""
    },
    {
      "icao": "EGGW",
      "alert": "OK",
      "vis_m": 1200,
      "fzfg": false,
      "metar_trigger": false,
      "taf_trigger": false,
      "metar": "METAR EGGW 211650Z AUTO 02006KT 350V070 1200 R07/P1500N BCFG NCD 11/M01 Q1018",
      "taf": "TAF EGGW 211056Z 2112/2212 05006KT CAVOK"
    },
    {
      "icao": "EGKK",
      "alert": "OK",
      "vis_m": 9999,
      "fzfg": false,
      "metar_trigger": false,
      "taf_trigger": false,
      "metar": "METAR EGKK 211650Z 05007KT CAVOK 12/M01 Q1017",
      "taf": ""
    },
    {
      "icao": "EGNM",
      "alert": "OK",
      "vis_m": 7000,
      "fzfg": false,
      "metar_trigger": false,
      "taf_trigger": false,
      "metar": "METAR EGNM 211650Z 14005KT 7000 NSC 11/05 Q1017",
      "taf": ""
    },
    {
      "icao": "EGPD",
      "alert": "OK",
      "vis_m": 9999,
      "fzfg": false,
      "metar_trigger": false,
      "taf_trigger": false,
      "metar": "METAR EGPD 211650Z COR AUTO 16010KT 9999 FEW046 12/06 Q1014 NOSIG",
      "taf": "TAF EGPD 211057Z 2112/2212 13006KT 9999 FEW035"
    },
    {
      "icao": "EGPF",
      "alert": "OK",
      "vis_m": 9999,
      "fzfg": false,
      "metar_trigger": false,
      "taf_trigger": false,
      "metar": "METAR EGPF 211650Z AUTO 24009KT 9999 NCD 12/05 Q1017",
      "taf": "TAF EGPF 211055Z 2112/2212 22005KT 9999 FEW025"
    },
    {
      "icao": "EHBK",
      "alert": "OK",
      "vis_m": 9999,
      "fzfg": false,
      "metar_trigger": false,
      "taf_trigger": false,
      "metar": "METAR EHBK 211625Z AUTO 04009KT 010V080 9999 NCD 12/04 Q1015 NOSIG",
      "taf": "TAF EHBK 211121Z 2112/2218 05008KT CAVOK"
    },
    {
      "icao": "EHEH",
      "alert": "OK",
      "vis_m": 9999,
      "fzfg": false,
      "metar_trigger": false,
      "taf_trigger": false,
      "metar": "METAR EHEH 211625Z AUTO 04009KT 010V070 9999 NCD 12/04 Q1016 BLU NOSIG RMK TREND REMOTE BY EHWX",
      "taf": "TAF EHEH 211149Z 2112/2218 04007KT CAVOK"
    },
    {
      "icao": "EKBI",
      "alert": "OK",
      "vis_m": 9999,
      "fzfg": false,
      "metar_trigger": false,
      "taf_trigger": false,
      "metar": "METAR EKBI 211650Z AUTO 15004KT 110V180 9999 BKN013/// 05/02 Q1021",
      "taf": "TAF EKBI 211427Z 2115/2215 14006KT 9000 BKN008"
    },
    {
      "icao": "EKCH",
      "alert": "OK",
      "vis_m": 9999,
      "fzfg": false,
      "metar_trigger": false,
      "taf_trigger": false,
      "metar": "METAR EKCH 211650Z AUTO 17002KT 9999 NCD 05/M01 Q1023 NOSIG",
      "taf": "TAF EKCH 211427Z 2115/2215 17007KT 6000 SCT005"
    },
    {
      "icao": "ENAL",
      "alert": "OK",
      "vis_m": 9999,
      "fzfg": false,
      "metar_trigger": false,
      "taf_trigger": false,
      "metar": "METAR ENAL 211620Z 24014KT 9999 VCSH SCT025 BKN050 07/04 Q1014",
      "taf": "TAF ENAL 211400Z 2115/2124 23016KT 9999 -SHRA SCT020 BKN040"
    },
    {
      "icao": "ENBR",
      "alert": "OK",
      "vis_m": 9999,
      "fzfg": false,
      "metar_trigger": false,
      "taf_trigger": false,
      "metar": "METAR ENBR 211620Z 19009KT 9999 BKN005 05/04 Q1017 NOSIG RMK WIND 1200FT 18014KT",
      "taf": "TAF ENBR 211100Z 2112/2212 16015KT 5000 SCT003 OVC007"
    },
    {
      "icao": "ENGM",
      "alert": "OK",
      "vis_m": 9999,
      "fzfg": false,
      "metar_trigger": false,
      "taf_trigger": false,
      "metar": "METAR ENGM 211620Z 22008KT CAVOK 08/00 Q1016 NOSIG",
      "taf": ""
    },
    {
      "icao": "ENHD",
      "alert": "OK",
      "vis_m": 9999,
      "fzfg": false,
      "metar_trigger": false,
      "taf_trigger": false,
      "metar": "METAR ENHD 211620Z 17010KT 150V210 9999 OVC005 06/05 Q1018",
      "taf": ""
    },
    {
      "icao": "ENTC",
      "alert": "OK",
      "vis_m": 4000,
      "fzfg": false,
      "metar_trigger": false,
      "taf_trigger": false,
      "metar": "METAR ENTC 211620Z 22018KT 4000 SHRASN FEW005 SCT017CB BKN039 02/M01 Q0996 TEMPO 23029G40KT 1500 SHSNRAGS BKN008 SCT020CB RMK WIND 2600FT 26050G67KT",
      "taf": "TAF ENTC 211100Z 2112/2212 21018KT 9999 -SHRASN FEW015CB BKN025"
    },
    {
      "icao": "ENTO",
      "alert": "OK",
      "vis_m": 9999,
      "fzfg": false,
      "metar_trigger": false,
      "taf_trigger": false,
      "metar": "METAR ENTO 211620Z 17006KT CAVOK 07/03 Q1018 NOSIG",
      "taf": ""
    },
    {
      "icao": "ENVA",
      "alert": "OK",
      "vis_m": 9999,
      "fzfg": false,
      "metar_trigger": false,
      "taf_trigger": false,
      "metar": "METAR ENVA 211620Z 24010KT 9999 VCSH FEW018 BKN052 07/02 Q1014 RMK WIND 670FT 24012KT",
      "taf": "TAF ENVA 211100Z 2112/2212 24008KT 9999 FEW012 BKN030"
    },
    {
      "icao": "ENZV",
      "alert": "OK",
      "vis_m": 9999,
      "fzfg": false,
      "metar_trigger": false,
      "taf_trigger": false,
      "metar": "METAR ENZV 211620Z 18011KT 9999 OVC007 06/04 Q1019 NOSIG",
      "taf": ""
    },
    {
      "icao": "EPGD",
      "alert": "OK",
      "vis_m": 9999,
      "fzfg": false,
      "metar_trigger": false,
      "taf_trigger": false,
      "metar": "METAR EPGD 211630Z 07006KT CAVOK 06/M00 Q1023",
      "taf": "TAF EPGD 211130Z 2112/2212 08010KT CAVOK"
    },
    {
      "icao": "EPKK",
      "alert": "OK",
      "vis_m": 9999,
      "fzfg": false,
      "metar_trigger": false,
      "taf_trigger": false,
      "metar": "METAR EPKK 211630Z 06009KT CAVOK 09/M04 Q1019",
      "taf": "TAF EPKK 211430Z 2115/2215 07011KT CAVOK"
    },
    {
      "icao": "EPKT",
      "alert": "OK",
      "vis_m": 9999,
      "fzfg": false,
      "metar_trigger": false,
      "taf_trigger": false,
      "metar": "METAR EPKT 211630Z 08008KT CAVOK 08/M03 Q1019",
      "taf": "TAF EPKT 211130Z 2112/2212 10012KT CAVOK"
    },
    {
      "icao": "EPLB",
      "alert": "OK",
      "vis_m": 9999,
      "fzfg": false,
      "metar_trigger": false,
      "taf_trigger": false,
      "metar": "METAR EPLB 211630Z 07006KT CAVOK 07/M00 Q1021",
      "taf": "TAF EPLB 211130Z 2112/2212 09010KT 9999 SCT043"
    },
    {
      "icao": "EPMO",
      "alert": "OK",
      "vis_m": 9999,
      "fzfg": false,
      "metar_trigger": false,
      "taf_trigger": false,
      "metar": "METAR EPMO 211630Z 06007KT CAVOK 08/00 Q1022",
      "taf": "TAF EPMO 211130Z 2112/2212 09010KT 9999 SCT040"
    },
    {
      "icao": "EPPO",
      "alert": "OK",
      "vis_m": 9999,
      "fzfg": false,
      "metar_trigger": false,
      "taf_trigger": false,
      "metar": "METAR EPPO 211630Z 11009KT CAVOK 09/M02 Q1021",
      "taf": "TAF EPPO 211130Z 2112/2212 09008KT 9999 SCT040"
    },
    {
      "icao": "EPRA",
      "alert": "OK",
      "vis_m": 9999,
      "fzfg": false,
      "metar_trigger": false,
      "taf_trigger": false,
      "metar": "METAR EPRA 211630Z 07007KT CAVOK 08/M02 Q1021",
      "taf": "TAF EPRA 211430Z 2115/2124 11008KT CAVOK"
    },
    {
      "icao": "EPRZ",
      "alert": "OK",
      "vis_m": 9999,
      "fzfg": false,
      "metar_trigger": false,
      "taf_trigger": false,
      "metar": "METAR EPRZ 211630Z 09010KT CAVOK 09/M02 Q1020",
      "taf": "TAF EPRZ 211130Z 2112/2212 10013KT 9999 SCT045"
    },
    {
      "icao": "EPSC",
      "alert": "OK",
      "vis_m": 9999,
      "fzfg": false,
      "metar_trigger": false,
      "taf_trigger": false,
      "metar": "METAR EPSC 211630Z 15008KT CAVOK 10/M03 Q1021",
      "taf": "TAF EPSC 211130Z 2112/2212 10010KT CAVOK"
    },
    {
      "icao": "EPSY",
      "alert": "OK",
      "vis_m": 9999,
      "fzfg": false,
      "metar_trigger": false,
      "taf_trigger": false,
      "metar": "METAR EPSY 211630Z 07004KT 040V100 9999 SCT045 07/00 Q1023",
      "taf": "TAF EPSY 211430Z 2115/2124 12006KT 9999 BKN040"
    },
    {
      "icao": "EPWA",
      "alert": "OK",
      "vis_m": 9999,
      "fzfg": false,
      "metar_trigger": false,
      "taf_trigger": false,
      "metar": "METAR EPWA 211630Z 11008KT 080V150 CAVOK 10/M03 Q1021 NOSIG",
      "taf": "TAF EPWA 211430Z 2115/2215 11009KT CAVOK"
    },
    {
      "icao": "EPWR",
      "alert": "OK",
      "vis_m": 9999,
      "fzfg": false,
      "metar_trigger": false,
      "taf_trigger": false,
      "metar": "METAR EPWR 211630Z 08007KT CAVOK 10/M02 Q1019",
      "taf": "TAF EPWR 211430Z 2115/2215 09010KT CAVOK"
    },
    {
      "icao": "ESGG",
      "alert": "OK",
      "vis_m": 2400,
      "fzfg": false,
      "metar_trigger": false,
      "taf_trigger": false,
      "metar": "METAR ESGG 211650Z 21006KT 2400 BR VV003 02/01 Q1021",
      "taf": "TAF ESGG 211430Z 2115/2215 19008KT 9000 OVC004"
    },
    {
      "icao": "ESKN",
      "alert": "OK",
      "vis_m": 9999,
      "fzfg": false,
      "metar_trigger": false,
      "taf_trigger": false,
      "metar": "METAR ESKN 211650Z 23010KT CAVOK 11/M02 Q1019",
      "taf": "TAF ESKN 211430Z 2115/2215 24011KT CAVOK"
    },
    {
      "icao": "ESMS",
      "alert": "OK",
      "vis_m": 9999,
      "fzfg": false,
      "metar_trigger": false,
      "taf_trigger": false,
      "metar": "METAR ESMS 211650Z 14006KT CAVOK 06/M02 Q1022",
      "taf": "TAF ESMS 211427Z 2115/2215 14006KT 9000 FEW004"
    },
    {
      "icao": "ESSA",
      "alert": "OK",
      "vis_m": 9999,
      "fzfg": false,
      "metar_trigger": false,
      "taf_trigger": false,
      "metar": "METAR ESSA 211650Z 24010KT CAVOK 10/M02 Q1017 NOSIG",
      "taf": "TAF ESSA 211430Z 2115/2215 24014KT CAVOK"
    },
    {
      "icao": "EYKA",
      "alert": "OK",
      "vis_m": 9999,
      "fzfg": false,
      "metar_trigger": false,
      "taf_trigger": false,
      "metar": "METAR EYKA 211650Z 16001KT CAVOK 07/M00 Q1024",
      "taf": "TAF EYKA 211100Z 2112/2212 VRB04KT 9000 BKN030"
    },
    {
      "icao": "EYPA",
      "alert": "OK",
      "vis_m": 9999,
      "fzfg": false,
      "metar_trigger": false,
      "taf_trigger": false,
      "metar": "METAR EYPA 211650Z VRB02KT CAVOK 04/00 Q1024",
      "taf": ""
    },
    {
      "icao": "EYVI",
      "alert": "OK",
      "vis_m": 9999,
      "fzfg": false,
      "metar_trigger": false,
      "taf_trigger": false,
      "metar": "METAR EYVI 211650Z 14003KT CAVOK 07/01 Q1024 NOSIG",
      "taf": "TAF EYVI 211100Z 2112/2212 VRB04KT 9000 BKN025"
    },
    {
      "icao": "GCFV",
      "alert": "OK",
      "vis_m": 9999,
      "fzfg": false,
      "metar_trigger": false,
      "taf_trigger": false,
      "metar": "METAR GCFV 211630Z 20019KT 170V240 9999 FEW025 SCT030 23/14 Q1002",
      "taf": "TAF GCFV 211400Z 2115/2215 21020KT 9999 SCT030 TX22/2214Z TN17/2206Z"
    },
    {
      "icao": "GCLP",
      "alert": "OK",
      "vis_m": 9999,
      "fzfg": false,
      "metar_trigger": false,
      "taf_trigger": false,
      "metar": "METAR GCLP 211630Z 22026G40KT 9999 FEW035 22/12 Q0999 NOSIG",
      "taf": "TAF GCLP 211400Z 2115/2215 23025KT 9999 FEW035 TX22/2214Z TN16/2206Z"
    },
    {
      "icao": "GCTS",
      "alert": "OK",
      "vis_m": 9999,
      "fzfg": false,
      "metar_trigger": false,
      "taf_trigger": false,
      "metar": "METAR GCTS 211630Z 28016KT 9999 FEW025 SCT050 19/15 Q1001 NOSIG",
      "taf": "TAF GCTS 211400Z 2115/2215 24022KT 9999 SCT025 TX22/2214Z TN15/2206Z"
    },
    {
      "icao": "GMAD",
      "alert": "OK",
      "vis_m": 8000,
      "fzfg": false,
      "metar_trigger": false,
      "taf_trigger": false,
      "metar": "METAR GMAD 211630Z 26011KT 8000 FEW023 SCT083 23/14 Q1006 NOSIG",
      "taf": "TAF GMAD 211100Z 2112/2218 28010KT 6000 BKN020 BKN080"
    },
    {
      "icao": "GMMN",
      "alert": "OK",
      "vis_m": 4000,
      "fzfg": false,
      "metar_trigger": false,
      "taf_trigger": false,
      "metar": "METAR GMMN 211630Z VRB02KT 4000 +RA SCT012 BKN030 16/13 Q1007 NOSIG",
      "taf": "TAF GMMN 211100Z 2112/2218 10004KT 8000 SCT020 BKN100"
    },
    {
      "icao": "GMMX",
      "alert": "OK",
      "vis_m": 9999,
      "fzfg": false,
      "metar_trigger": false,
      "taf_trigger": false,
      "metar": "METAR GMMX 211630Z 31005KT 250V360 9999 BKN020 20/13 Q1006 RERA NOSIG",
      "taf": "TAF GMMX 210500Z 2106/2212 06006KT 8000 SCT023"
    },
    {
      "icao": "HEGN",
      "alert": "OK",
      "vis_m": 6000,
      "fzfg": false,
      "metar_trigger": false,
      "taf_trigger": false,
      "metar": "METAR HEGN 211600Z 11010KT 6000 SCT020 BKN025 24/11 Q1005 NOSIG",
      "taf": ""
    },
    {
      "icao": "HEMA",
      "alert": "OK",
      "vis_m": 9999,
      "fzfg": false,
      "metar_trigger": false,
      "taf_trigger": false,
      "metar": "METAR HEMA 211600Z 14014KT CAVOK 25/08 Q1007 NOSIG",
      "taf": ""
    },
    {
      "icao": "HESH",
      "alert": "OK",
      "vis_m": 9999,
      "fzfg": false,
      "metar_trigger": false,
      "taf_trigger": false,
      "metar": "METAR HESH 211600Z 15015KT CAVOK 23/15 Q1006 NOSIG",
      "taf": ""
    },
    {
      "icao": "HESX",
      "alert": "OK",
      "vis_m": 9999,
      "fzfg": false,
      "metar_trigger": false,
      "taf_trigger": false,
      "metar": "METAR HESX 211600Z 25011KT 9999 SCT020 15/06 Q1007 NOSIG",
      "taf": ""
    },
    {
      "icao": "LATI",
      "alert": "OK",
      "vis_m": 9999,
      "fzfg": false,
      "metar_trigger": false,
      "taf_trigger": false,
      "metar": "METAR LATI 211650Z 30003KT 260V320 9999 BKN088 13/02 Q1010 NOSIG",
      "taf": "TAF LATI 211100Z 2112/2212 32010KT 9999 FEW060 BKN090 TX17/2112Z TN06/2204Z"
    },
    {
      "icao": "LBPD",
      "alert": "OK",
      "vis_m": 9999,
      "fzfg": false,
      "metar_trigger": false,
      "taf_trigger": false,
      "metar": "METAR LBPD 211630Z AUTO 12007KT 9999 OVC072/// 10/01 Q1012 NOSIG",
      "taf": "TAF LBPD 211100Z 2112/2212 08010KT 9999 SCT040 BKN060"
    },
    {
      "icao": "LBSF",
      "alert": "OK",
      "vis_m": 9999,
      "fzfg": false,
      "metar_trigger": false,
      "taf_trigger": false,
      "metar": "METAR LBSF 211630Z AUTO 05007KT 010V070 9999 NSC 08/M04 Q1012 NOSIG",
      "taf": "TAF LBSF 211100Z 2112/2212 05014KT 9999 SCT030 BKN050"
    },
    {
      "icao": "LBWN",
      "alert": "OK",
      "vis_m": 9999,
      "fzfg": false,
      "metar_trigger": false,
      "taf_trigger": false,
      "metar": "METAR LBWN 211630Z 02008KT 9999 -RA OVC017 08/06 Q1012 NOSIG",
      "taf": "TAF LBWN 211100Z 2112/2212 01015KT 9999 SCT015 OVC040"
    },
    {
      "icao": "LCLK",
      "alert": "OK",
      "vis_m": 9999,
      "fzfg": false,
      "metar_trigger": false,
      "taf_trigger": false,
      "metar": "METAR LCLK 211630Z 23007KT 9999 FEW025 15/11 Q1002 NOSIG",
      "taf": "TAF LCLK 211130Z 2112/2212 21020KT 9999 FEW020 SCT040"
    },
    {
      "icao": "LCPH",
      "alert": "OK",
      "vis_m": 9999,
      "fzfg": false,
      "metar_trigger": false,
      "taf_trigger": false,
      "metar": "METAR LCPH 211630Z 26012KT 250V310 9999 FEW025TCU BKN070 15/10 Q1002 NOSIG",
      "taf": "TAF LCPH 211130Z 2112/2212 25018KT 9999 FEW020 SCT040"
    },
    {
      "icao": "LEAL",
      "alert": "OK",
      "vis_m": 9999,
      "fzfg": false,
      "metar_trigger": false,
      "taf_trigger": false,
      "metar": "METAR LEAL 211630Z 08008KT 9999 BKN052 15/06 Q1012 NOSIG",
      "taf": "TAF LEAL 211100Z 2112/2212 09007KT 9999 FEW020 TX17/2112Z TN06/2206Z"
    },
    {
      "icao": "LEBB",
      "alert": "OK",
      "vis_m": 9999,
      "fzfg": false,
      "metar_trigger": false,
      "taf_trigger": false,
      "metar": "METAR LEBB 211630Z 28008KT CAVOK 17/09 Q1011 NOSIG",
      "taf": ""
    },
    {
      "icao": "LEBL",
      "alert": "OK",
      "vis_m": 9999,
      "fzfg": false,
      "metar_trigger": false,
      "taf_trigger": false,
      "metar": "METAR LEBL 211630Z 21010KT CAVOK 15/10 Q1011 NOSIG",
      "taf": "TAF LEBL 211100Z 2112/2212 21010KT 9999 FEW055 TX16/2112Z TN07/2206Z"
    },
    {
      "icao": "LECH",
      "alert": "OK",
      "vis_m": 9999,
      "fzfg": false,
      "metar_trigger": false,
      "taf_trigger": false,
      "metar": "METAR LECH 211630Z AUTO 12006KT 090V200 CAVOK 13/06 Q1011",
      "taf": "TAF LECH 211100Z 2112/2212 01005KT 9999 SCT020 TX17/2112Z TN03/2206Z"
    },
    {
      "icao": "LEMD",
      "alert": "OK",
      "vis_m": 9999,
      "fzfg": false,
      "metar_trigger": false,
      "taf_trigger": false,
      "metar": "METAR LEMD 211630Z 19001KT 9999 SCT028 BKN034 12/06 Q1011 NOSIG",
      "taf": "TAF LEMD 211100Z 2112/2218 VRB04KT 9999 SCT030 BKN050 TX14/2212Z TN02/2205Z"
    },
    {
      "icao": "LEMG",
      "alert": "OK",
      "vis_m": 9999,
      "fzfg": false,
      "metar_trigger": false,
      "taf_trigger": false,
      "metar": "METAR LEMG 211630Z 10009KT 060V130 9999 FEW020 BKN045 15/11 Q1010 NOSIG",
      "taf": "TAF LEMG 211100Z 2112/2212 11010KT 9999 FEW025 BKN040 TX17/2113Z TN12/2206Z"
    },
    {
      "icao": "LEVC",
      "alert": "OK",
      "vis_m": 9999,
      "fzfg": false,
      "metar_trigger": false,
      "taf_trigger": false,
      "metar": "METAR LEVC 211630Z 12005KT 070V150 9999 FEW025 15/09 Q1012 NOSIG",
      "taf": "TAF LEVC 211100Z 2112/2212 10006KT 9999 FEW020 TX16/2112Z TN04/2206Z"
    },
    {
      "icao": "LEXJ",
      "alert": "OK",
      "vis_m": 9999,
      "fzfg": false,
      "metar_trigger": false,
      "taf_trigger": false,
      "metar": "METAR LEXJ 211630Z 01003KT 320V060 CAVOK 14/09 Q1011",
      "taf": "TAF LEXJ 211400Z 2115/2215 36009KT CAVOK TX17/2115Z TN07/2207Z"
    },
    {
      "icao": "LEZG",
      "alert": "OK",
      "vis_m": 9999,
      "fzfg": false,
      "metar_trigger": false,
      "taf_trigger": false,
      "metar": "METAR LEZG 211630Z 11003KT CAVOK 17/00 Q1010 NOSIG",
      "taf": "TAF LEZG 211100Z 2112/2212 10004KT 9999 FEW010 TX18/2114Z TN05/2206Z"
    },
    {
      "icao": "LEZL",
      "alert": "OK",
      "vis_m": 9999,
      "fzfg": false,
      "metar_trigger": false,
      "taf_trigger": false,
      "metar": "METAR LEZL 211630Z 05004KT 020V080 9999 FEW045 21/12 Q1008 NOSIG",
      "taf": "TAF LEZL 211400Z 2115/2215 03005KT 9999 FEW030 TX21/2115Z TN11/2207Z"
    },
    {
      "icao": "LFBD",
      "alert": "OK",
      "vis_m": 9999,
      "fzfg": false,
      "metar_trigger": false,
      "taf_trigger": false,
      "metar": "METAR LFBD 211630Z AUTO 04008KT 360V080 CAVOK 19/03 Q1010 NOSIG",
      "taf": "TAF LFBD 211100Z 2112/2218 36005KT CAVOK TX20/2114Z TN04/2206Z"
    },
    {
      "icao": "LFLL",
      "alert": "OK",
      "vis_m": 9999,
      "fzfg": false,
      "metar_trigger": false,
      "taf_trigger": false,
      "metar": "METAR LFLL 211630Z 34009KT CAVOK 16/M00 Q1010 NOSIG",
      "taf": "TAF LFLL 211100Z 2112/2218 VRB03KT CAVOK"
    },
    {
      "icao": "LFLS",
      "alert": "OK",
      "vis_m": 9999,
      "fzfg": false,
      "metar_trigger": false,
      "taf_trigger": false,
      "metar": "METAR LFLS 211630Z AUTO 28007KT 250V330 CAVOK 15/04 Q1010 NOSIG",
      "taf": "TAF LFLS 211400Z 2115/2215 32005KT 9999 FEW045"
    },
    {
      "icao": "LFMN",
      "alert": "OK",
      "vis_m": 9999,
      "fzfg": false,
      "metar_trigger": false,
      "taf_trigger": false,
      "metar": "METAR LFMN 211630Z 20003KT 9999 FEW033 SCT083 BKN210 14/04 Q1011 NOSIG",
      "taf": "TAF LFMN 211400Z 2115/2221 19005KT 9999 FEW030 BKN060"
    },
    {
      "icao": "LFOB",
      "alert": "OK",
      "vis_m": 9999,
      "fzfg": false,
      "metar_trigger": false,
      "taf_trigger": false,
      "metar": "METAR LFOB 211630Z AUTO 02009KT CAVOK 14/05 Q1014 NOSIG",
      "taf": "TAF LFOB 211100Z 2112/2212 03011KT CAVOK"
    },
    {
      "icao": "LFPO",
      "alert": "OK",
      "vis_m": 9999,
      "fzfg": false,
      "metar_trigger": false,
      "taf_trigger": false,
      "metar": "METAR LFPO 211630Z 03007KT 350V060 CAVOK 15/04 Q1013 NOSIG",
      "taf": "TAF LFPO 211100Z 2112/2218 03006KT CAVOK"
    },
    {
      "icao": "LFSB",
      "alert": "OK",
      "vis_m": 9999,
      "fzfg": false,
      "metar_trigger": false,
      "taf_trigger": false,
      "metar": "METAR LFSB 211630Z AUTO VRB03KT CAVOK 12/03 Q1011 NOSIG",
      "taf": "TAF LFSB 211100Z 2112/2212 01005KT CAVOK"
    },
    {
      "icao": "LGAV",
      "alert": "OK",
      "vis_m": 9999,
      "fzfg": false,
      "metar_trigger": false,
      "taf_trigger": false,
      "metar": "METAR LGAV 211650Z 35008KT 9999 SCT030 BKN070 11/03 Q1010 NOSIG",
      "taf": "TAF LGAV 211100Z 2112/2212 36012KT 9999 SCT025 BKN070"
    },
    {
      "icao": "LGTS",
      "alert": "OK",
      "vis_m": 9999,
      "fzfg": false,
      "metar_trigger": false,
      "taf_trigger": false,
      "metar": "METAR LGTS 211620Z COR 22004KT 9999 FEW025 15/02 Q1010 NOSIG",
      "taf": "TAF LGTS 211100Z 2112/2212 VRB03KT 9999 SCT025"
    },
    {
      "icao": "LHBP",
      "alert": "OK",
      "vis_m": 9999,
      "fzfg": false,
      "metar_trigger": false,
      "taf_trigger": false,
      "metar": "METAR LHBP 211630Z 07005KT CAVOK 12/M02 Q1016 NOSIG",
      "taf": "TAF LHBP 211115Z 2112/2212 08012KT CAVOK"
    },
    {
      "icao": "LHDC",
      "alert": "OK",
      "vis_m": 9999,
      "fzfg": false,
      "metar_trigger": false,
      "taf_trigger": false,
      "metar": "METAR LHDC 211615Z AUTO 07007KT CAVOK 12/M01 Q1016 NOSIG",
      "taf": "TAF LHDC 211415Z 2115/2124 07012KT CAVOK"
    },
    {
      "icao": "LIBD",
      "alert": "OK",
      "vis_m": 9999,
      "fzfg": false,
      "metar_trigger": false,
      "taf_trigger": false,
      "metar": "METAR LIBD 211620Z 32004KT 290V360 CAVOK 12/03 Q1011",
      "taf": "TAF LIBD 211100Z 2112/2212 34010KT 9999 SCT040"
    },
    {
      "icao": "LIBG",
      "alert": "OK",
      "vis_m": 9999,
      "fzfg": false,
      "metar_trigger": false,
      "taf_trigger": false,
      "metar": "METAR LIBG 211550Z 01004KT 9999 FEW040 11/05 Q1010",
      "taf": "TAF LIBG 211400Z 2115/2124 33008KT 9999 SCT030"
    },
    {
      "icao": "LIBP",
      "alert": "OK",
      "vis_m": 9999,
      "fzfg": false,
      "metar_trigger": false,
      "taf_trigger": false,
      "metar": "METAR LIBP 211620Z AUTO 30002KT 9999 OVC075/// 11/03 Q1012",
      "taf": "TAF LIBP 211100Z 2112/2212 35010KT 9999 BKN050"
    },
    {
      "icao": "LIBR",
      "alert": "OK",
      "vis_m": 9999,
      "fzfg": false,
      "metar_trigger": false,
      "taf_trigger": false,
      "metar": "METAR LIBR 211620Z 36008KT CAVOK 13/01 Q1010",
      "taf": "TAF LIBR 211100Z 2112/2212 04015KT 9999 SCT030"
    },
    {
      "icao": "LICA",
      "alert": "OK",
      "vis_m": 9999,
      "fzfg": false,
      "metar_trigger": false,
      "taf_trigger": false,
      "metar": "METAR LICA 211620Z AUTO 25004KT 210V290 9999 BKN060/// 14/04 Q1010",
      "taf": "TAF LICA 211100Z 2112/2212 27010KT 9999 SCT040"
    },
    {
      "icao": "LICC",
      "alert": "OK",
      "vis_m": 9999,
      "fzfg": false,
      "metar_trigger": false,
      "taf_trigger": false,
      "metar": "METAR LICC 211620Z 10008KT 9999 FEW040 SCT080 14/13 Q1010",
      "taf": "TAF LICC 211100Z 2112/2212 10010KT 9999 SCT030"
    },
    {
      "icao": "LICJ",
      "alert": "OK",
      "vis_m": 9999,
      "fzfg": false,
      "metar_trigger": false,
      "taf_trigger": false,
      "metar": "METAR LICJ 211620Z 06014KT CAVOK 15/04 Q1009",
      "taf": "TAF LICJ 211100Z 2112/2212 03013KT 9999 SCT040"
    },
    {
      "icao": "LIMC",
      "alert": "OK",
      "vis_m": 9999,
      "fzfg": false,
      "metar_trigger": false,
      "taf_trigger": false,
      "metar": "METAR LIMC 211620Z 12007KT 080V150 9999 BKN060 14/03 Q1010 NOSIG",
      "taf": "TAF LIMC 211100Z 2112/2218 14010KT 9999 FEW040"
    },
    {
      "icao": "LIME",
      "alert": "OK",
      "vis_m": 9999,
      "fzfg": false,
      "metar_trigger": false,
      "taf_trigger": false,
      "metar": "METAR LIME 211620Z 14006KT 120V190 9999 FEW100 13/00 Q1011 NOSIG",
      "taf": "TAF LIME 211100Z 2112/2212 VRB05KT 9999 FEW060"
    },
    {
      "icao": "LIMF",
      "alert": "OK",
      "vis_m": 9999,
      "fzfg": false,
      "metar_trigger": false,
      "taf_trigger": false,
      "metar": "METAR LIMF 211620Z 08006KT 9999 SCT060 OVC110 13/03 Q1010",
      "taf": "TAF LIMF 211100Z 2112/2212 VRB05KT 9999 SCT060"
    },
    {
      "icao": "LIMJ",
      "alert": "OK",
      "vis_m": 9999,
      "fzfg": false,
      "metar_trigger": false,
      "taf_trigger": false,
      "metar": "METAR LIMJ 211620Z 15004KT 9999 FEW040 SCT062 14/06 Q1012",
      "taf": "TAF LIMJ 211100Z 2112/2212 19010KT CAVOK"
    },
    {
      "icao": "LIPE",
      "alert": "OK",
      "vis_m": 9999,
      "fzfg": false,
      "metar_trigger": false,
      "taf_trigger": false,
      "metar": "METAR LIPE 211620Z 10010KT CAVOK 14/M02 Q1012",
      "taf": "TAF LIPE 211100Z 2112/2212 08010KT 9999 SCT040"
    },
    {
      "icao": "LIPH",
      "alert": "OK",
      "vis_m": 9999,
      "fzfg": false,
      "metar_trigger": false,
      "taf_trigger": false,
      "metar": "METAR LIPH 211620Z 16005KT 120V190 CAVOK 14/01 Q1012",
      "taf": "TAF LIPH 211100Z 2112/2212 VRB05KT 9999 BKN060"
    },
    {
      "icao": "LIPQ",
      "alert": "OK",
      "vis_m": 9999,
      "fzfg": false,
      "metar_trigger": false,
      "taf_trigger": false,
      "metar": "METAR LIPQ 211620Z AUTO 08003KT 9999 OVC076/// 14/00 Q1013",
      "taf": "TAF LIPQ 211100Z 2112/2212 VRB05KT 9999 SCT060"
    },
    {
      "icao": "LIPR",
      "alert": "OK",
      "vis_m": 9999,
      "fzfg": false,
      "metar_trigger": false,
      "taf_trigger": false,
      "metar": "METAR LIPR 211620Z 07004KT CAVOK 13/M00 Q1012",
      "taf": "TAF LIPR 211100Z 2112/2212 05010KT 9999 SCT040"
    },
    {
      "icao": "LIPX",
      "alert": "OK",
      "vis_m": 9999,
      "fzfg": false,
      "metar_trigger": false,
      "taf_trigger": false,
      "metar": "METAR LIPX 211620Z VRB01KT 9999 BKN060 14/M00 Q1012",
      "taf": "TAF LIPX 211100Z 2112/2212 VRB05KT 9999 FEW060"
    },
    {
      "icao": "LIPY",
      "alert": "OK",
      "vis_m": 9999,
      "fzfg": false,
      "metar_trigger": false,
      "taf_trigger": false,
      "metar": "METAR LIPY 211620Z AUTO 05005KT 9999 BKN080/// 12/M00 Q1012",
      "taf": "TAF LIPY 211100Z 2112/2212 05010KT 9999 FEW060"
    },
    {
      "icao": "LIPZ",
      "alert": "OK",
      "vis_m": 9999,
      "fzfg": false,
      "metar_trigger": false,
      "taf_trigger": false,
      "metar": "METAR LIPZ 211620Z VRB02KT 9999 FEW070 14/01 Q1013 NOSIG",
      "taf": "TAF LIPZ 211100Z 2112/2218 12010KT 9999 SCT060"
    },
    {
      "icao": "LIRF",
      "alert": "OK",
      "vis_m": 9999,
      "fzfg": false,
      "metar_trigger": false,
      "taf_trigger": false,
      "metar": "METAR LIRF 211620Z AUTO 22005KT 9999 OVC088/// 13/04 Q1010",
      "taf": "TAF LIRF 211100Z 2112/2218 26010KT 9999 FEW050"
    },
    {
      "icao": "LIRN",
      "alert": "OK",
      "vis_m": 9999,
      "fzfg": false,
      "metar_trigger": false,
      "taf_trigger": false,
      "metar": "METAR LIRN 211620Z 09006KT 050V130 9999 BKN080 13/M01 Q1011 NOSIG",
      "taf": "TAF LIRN 211100Z 2112/2212 04006KT 9999 FEW040"
    },
    {
      "icao": "LIRP",
      "alert": "OK",
      "vis_m": 9999,
      "fzfg": false,
      "metar_trigger": false,
      "taf_trigger": false,
      "metar": "METAR LIRP 211615Z 33010KT 9999 FEW040 14/02 Q1011 NOSIG",
      "taf": "TAF LIRP 211100Z 2112/2212 VRB03KT CAVOK"
    },
    {
      "icao": "LIRZ",
      "alert": "OK",
      "vis_m": 9999,
      "fzfg": false,
      "metar_trigger": false,
      "taf_trigger": false,
      "metar": "METAR LIRZ 211620Z AUTO 05008KT 9999 OVC071/// 11/M01 Q1011",
      "taf": "TAF LIRZ 211100Z 2112/2212 03013KT 9999 SCT030"
    },
    {
      "icao": "LJLJ",
      "alert": "OK",
      "vis_m": 9999,
      "fzfg": false,
      "metar_trigger": false,
      "taf_trigger": false,
      "metar": "METAR LJLJ 211630Z 08006KT 9999 FEW045 BKN060 09/M00 Q1014 NOSIG",
      "taf": "TAF LJLJ 211100Z 2112/2212 13005KT 9999 FEW065 BKN085"
    },
    {
      "icao": "LKMT",
      "alert": "OK",
      "vis_m": 9999,
      "fzfg": false,
      "metar_trigger": false,
      "taf_trigger": false,
      "metar": "METAR LKMT 211630Z 04007KT CAVOK 08/00 Q1018 NOSIG",
      "taf": "TAF LKMT 211100Z 2112/2212 04012KT 9999 BKN025"
    },
    {
      "icao": "LKPR",
      "alert": "OK",
      "vis_m": 9999,
      "fzfg": false,
      "metar_trigger": false,
      "taf_trigger": false,
      "metar": "METAR LKPR 211630Z 08012KT 9999 FEW047 08/M00 Q1016 NOSIG",
      "taf": "TAF LKPR 211400Z 2115/2221 10006KT 9999 SCT035"
    },
    {
      "icao": "LLBG",
      "alert": "OK",
      "vis_m": 9999,
      "fzfg": false,
      "metar_trigger": false,
      "taf_trigger": false,
      "metar": "METAR LLBG 211650Z 31005KT 9999 -RA FEW022 BKN050 12/10 Q1007 RETSRA TEMPO 5000 TSRA FEW025CB",
      "taf": "TAF LLBG 211103Z 2112/2212 24015KT 9999 SCT035 TX18/2112Z TN12/2204Z"
    },
    {
      "icao": "LMML",
      "alert": "OK",
      "vis_m": 9999,
      "fzfg": false,
      "metar_trigger": false,
      "taf_trigger": false,
      "metar": "METAR LMML 211645Z 07006KT 9999 FEW020 14/09 Q1009 NOSIG",
      "taf": "TAF LMML 211100Z 2112/2212 11007KT 9999 SCT020"
    },
    {
      "icao": "LOWW",
      "alert": "OK",
      "vis_m": 9999,
      "fzfg": false,
      "metar_trigger": false,
      "taf_trigger": false,
      "metar": "METAR LOWW 211620Z 12006KT CAVOK 11/00 Q1016 NOSIG",
      "taf": "TAF LOWW 211415Z 2115/2221 12010KT 9999 FEW040 TX13/2214Z TN04/2204Z"
    },
    {
      "icao": "LPFR",
      "alert": "OK",
      "vis_m": 9999,
      "fzfg": false,
      "metar_trigger": false,
      "taf_trigger": false,
      "metar": "METAR LPFR 211630Z 10009KT 9999 FEW010 SCT040 17/14 Q1008",
      "taf": "TAF LPFR 211100Z 2112/2212 12012KT 9999 SCT015 BKN030"
    },
    {
      "icao": "LPMA",
      "alert": "OK",
      "vis_m": 9000,
      "fzfg": false,
      "metar_trigger": false,
      "taf_trigger": false,
      "metar": "METAR LPMA 211630Z 15009KT 090V210 9000 -SHRA BKN013 FEW018CB 16/13 Q0997",
      "taf": "TAF LPMA 211100Z 2112/2212 20012KT 9999 SCT015"
    },
    {
      "icao": "LPPR",
      "alert": "OK",
      "vis_m": 9999,
      "fzfg": false,
      "metar_trigger": false,
      "taf_trigger": false,
      "metar": "METAR LPPR 211630Z 31008KT 280V340 CAVOK 16/11 Q1009",
      "taf": "TAF LPPR 211100Z 2112/2212 VRB05KT 9999 FEW035"
    },
    {
      "icao": "LPPS",
      "alert": "OK",
      "vis_m": 9999,
      "fzfg": false,
      "metar_trigger": false,
      "taf_trigger": false,
      "metar": "METAR LPPS 211630Z 13012KT 100V160 9999 SCT012 FEW018TCU 17/13 Q0998",
      "taf": "TAF LPPS 211100Z 2112/2218 12015KT 9999 SCT015 SCT030"
    },
    {
      "icao": "LPPT",
      "alert": "OK",
      "vis_m": 9999,
      "fzfg": false,
      "metar_trigger": false,
      "taf_trigger": false,
      "metar": "METAR LPPT 211630Z 06005KT 010V090 9999 FEW020 FEW025TCU 19/13 Q1008",
      "taf": "TAF LPPT 211100Z 2112/2218 11007KT 9999 SCT015 SCT035"
    },
    {
      "icao": "LQBK",
      "alert": "OK",
      "vis_m": 9999,
      "fzfg": false,
      "metar_trigger": false,
      "taf_trigger": false,
      "metar": "METAR LQBK 211630Z 03005KT CAVOK 11/M03 Q1013 NOSIG",
      "taf": "TAF LQBK 211100Z 2112/2212 32005KT CAVOK TX12/2113Z TN01/2205Z"
    },
    {
      "icao": "LQSA",
      "alert": "OK",
      "vis_m": 9999,
      "fzfg": false,
      "metar_trigger": false,
      "taf_trigger": false,
      "metar": "METAR LQSA 211630Z 07007KT 030V120 9999 BKN065 09/M03 Q1011 NOSIG",
      "taf": "TAF LQSA 211100Z 2112/2212 02005KT 9999 SCT060 TX10/2114Z TN02/2205Z"
    },
    {
      "icao": "LQTZ",
      "alert": "OK",
      "vis_m": 9999,
      "fzfg": false,
      "metar_trigger": false,
      "taf_trigger": false,
      "metar": "METAR LQTZ 211630Z 09007KT 9999 BKN070 11/M03 Q1013",
      "taf": "TAF LQTZ 211100Z 2112/2212 VRB02KT 9999 SCT060 TX12/2113Z TN01/2205Z"
    },
    {
      "icao": "LRBC",
      "alert": "OK",
      "vis_m": 9999,
      "fzfg": false,
      "metar_trigger": false,
      "taf_trigger": false,
      "metar": "METAR LRBC 211630Z 35010KT 9999 OVC038 10/02 Q1017",
      "taf": "TAF LRBC 211400Z 2115/2124 36012KT 9999 BKN045"
    },
    {
      "icao": "LRBS",
      "alert": "OK",
      "vis_m": 9999,
      "fzfg": false,
      "metar_trigger": false,
      "taf_trigger": false,
      "metar": "METAR LRBS 211630Z 06014KT CAVOK 10/02 Q1014 NOSIG",
      "taf": "TAF LRBS 211100Z 2112/2212 05015KT CAVOK"
    },
    {
      "icao": "LRBV",
      "alert": "OK",
      "vis_m": 9999,
      "fzfg": false,
      "metar_trigger": false,
      "taf_trigger": false,
      "metar": "METAR LRBV 211630Z 08012KT 9999 SCT055 SCT066 08/M02 Q1015",
      "taf": "TAF LRBV 211400Z 2115/2124 08014KT 9999 BKN045"
    },
    {
      "icao": "LRCL",
      "alert": "OK",
      "vis_m": 9999,
      "fzfg": false,
      "metar_trigger": false,
      "taf_trigger": false,
      "metar": "METAR LRCL 211630Z 08006KT CAVOK 10/M03 Q1015",
      "taf": "TAF LRCL 211400Z 2115/2124 08010KT 9999 BKN045"
    },
    {
      "icao": "LRCV",
      "alert": "OK",
      "vis_m": 9999,
      "fzfg": false,
      "metar_trigger": false,
      "taf_trigger": false,
      "metar": "METAR LRCV 211630Z 05002KT CAVOK 11/03 Q1014",
      "taf": "TAF LRCV 211400Z 2115/2124 10008KT 9999 SCT045"
    },
    {
      "icao": "LRIA",
      "alert": "OK",
      "vis_m": 9999,
      "fzfg": false,
      "metar_trigger": false,
      "taf_trigger": false,
      "metar": "METAR LRIA 211630Z 07004KT 020V120 9999 -RA SCT034 BKN039 BKN047 06/03 Q1018",
      "taf": "TAF LRIA 211400Z 2115/2124 36014KT 9999 BKN035"
    },
    {
      "icao": "LROP",
      "alert": "OK",
      "vis_m": 9999,
      "fzfg": false,
      "metar_trigger": false,
      "taf_trigger": false,
      "metar": "METAR LROP 211630Z 07015KT CAVOK 10/M01 Q1014 NOSIG",
      "taf": "TAF LROP 211100Z 2112/2212 05015KT CAVOK"
    },
    {
      "icao": "LRSB",
      "alert": "OK",
      "vis_m": 9999,
      "fzfg": false,
      "metar_trigger": false,
      "taf_trigger": false,
      "metar": "METAR LRSB 211630Z 11004KT 9999 FEW083 09/M04 Q1014 NOSIG",
      "taf": "TAF LRSB 211100Z 2112/2212 09010KT 9999 SCT045"
    },
    {
      "icao": "LRSM",
      "alert": "OK",
      "vis_m": 9999,
      "fzfg": false,
      "metar_trigger": false,
      "taf_trigger": false,
      "metar": "METAR LRSM 211630Z AUTO 06006KT 9999 SCT085/// 10/00 Q1016",
      "taf": ""
    },
    {
      "icao": "LRSV",
      "alert": "OK",
      "vis_m": 9999,
      "fzfg": false,
      "metar_trigger": false,
      "taf_trigger": false,
      "metar": "METAR LRSV 211630Z 33008KT 9999 BKN034 07/02 Q1017",
      "taf": "TAF LRSV 211400Z 2115/2124 34012KT 9999 BKN030"
    },
    {
      "icao": "LRTM",
      "alert": "OK",
      "vis_m": 9999,
      "fzfg": false,
      "metar_trigger": false,
      "taf_trigger": false,
      "metar": "METAR LRTM 211630Z 04007KT 9999 SCT035 10/M02 Q1015",
      "taf": "TAF LRTM 211400Z 2115/2124 08010KT 9999 BKN040"
    },
    {
      "icao": "LRTR",
      "alert": "OK",
      "vis_m": 9999,
      "fzfg": false,
      "metar_trigger": false,
      "taf_trigger": false,
      "metar": "METAR LRTR 211630Z 07005KT CAVOK 11/M02 Q1014",
      "taf": "TAF LRTR 211100Z 2112/2212 VRB04KT 9999 SCT045"
    },
    {
      "icao": "LTAC",
      "alert": "OK",
      "vis_m": 9999,
      "fzfg": false,
      "metar_trigger": false,
      "taf_trigger": false,
      "metar": "METAR LTAC 211620Z 05010KT 9999 BKN025 BKN080 07/05 Q1002 RESHRA NOSIG RMK RWY21C 04009KT RWY03L 05010KT RWY21R 03008KT RWY03R 03010KT RWY21L 04008KT",
      "taf": "TAF LTAC 211040Z 2112/2212 04012KT 9999 SCT040 BKN100"
    },
    {
      "icao": "LTFM",
      "alert": "OK",
      "vis_m": 3400,
      "fzfg": false,
      "metar_trigger": false,
      "taf_trigger": false,
      "metar": "METAR LTFM 211620Z 03017KT 3400 1400SE R35R/1400N R17L/P1500N R34L/P1500N R36/1400U -RA BCFG BKN003 BKN018 08/07 Q1008 NOSIG RMK RWY17L 03014KT RWY34L 02016KT RWY16R 02016KT RWY36 03017KT RWY18 03014KT",
      "taf": ""
    },
    {
      "icao": "LUKK",
      "alert": "OK",
      "vis_m": 9999,
      "fzfg": false,
      "metar_trigger": false,
      "taf_trigger": false,
      "metar": "METAR LUKK 211630Z 01008KT CAVOK 08/03 Q1017 NOSIG",
      "taf": "TAF LUKK 211111Z 2112/2212 03012KT 9999 BKN020"
    },
    {
      "icao": "LWOH",
      "alert": "OK",
      "vis_m": 9999,
      "fzfg": false,
      "metar_trigger": false,
      "taf_trigger": false,
      "metar": "METAR LWOH 211650Z 06001KT 9999 BKN050 08/M00 Q1010",
      "taf": "TAF LWOH 211425Z 2115/2215 18008KT 9999 BKN050"
    },
    {
      "icao": "LWSK",
      "alert": "OK",
      "vis_m": 9999,
      "fzfg": false,
      "metar_trigger": false,
      "taf_trigger": false,
      "metar": "METAR LWSK 211650Z 35009KT 9999 BKN080 12/M02 Q1011 NOSIG",
      "taf": "TAF LWSK 211425Z 2115/2215 VRB02KT 9999 BKN070"
    },
    {
      "icao": "LYBE",
      "alert": "OK",
      "vis_m": 9999,
      "fzfg": false,
      "metar_trigger": false,
      "taf_trigger": false,
      "metar": "METAR LYBE 211630Z 07005KT CAVOK 12/M01 Q1014 NOSIG",
      "taf": "TAF LYBE 211100Z 2112/2212 08008KT CAVOK TX13/2113Z TN04/2205Z"
    },
    {
      "icao": "LYNI",
      "alert": "OK",
      "vis_m": 9999,
      "fzfg": false,
      "metar_trigger": false,
      "taf_trigger": false,
      "metar": "METAR LYNI 211630Z 05007KT 9999 BKN087 12/M04 Q1012 NOSIG",
      "taf": "TAF LYNI 211100Z 2112/2212 06008KT 9999 SCT080 TX13/2113Z TN01/2206Z"
    },
    {
      "icao": "LYPG",
      "alert": "OK",
      "vis_m": 9999,
      "fzfg": false,
      "metar_trigger": false,
      "taf_trigger": false,
      "metar": "METAR LYPG 211630Z 20003KT 9999 BKN080 15/M02 Q1009 NOSIG",
      "taf": "TAF LYPG 211100Z 2112/2212 18006KT CAVOK TX16/2113Z TN06/2121Z"
    },
    {
      "icao": "LZIB",
      "alert": "OK",
      "vis_m": 9999,
      "fzfg": false,
      "metar_trigger": false,
      "taf_trigger": false,
      "metar": "METAR LZIB 211630Z 04010KT 9999 -RA FEW043 11/03 Q1016 NOSIG",
      "taf": "TAF LZIB 211115Z 2112/2212 13008KT CAVOK"
    },
    {
      "icao": "LZKZ",
      "alert": "OK",
      "vis_m": 9999,
      "fzfg": false,
      "metar_trigger": false,
      "taf_trigger": false,
      "metar": "METAR LZKZ 211630Z 36011KT CAVOK 11/00 Q1017 NOSIG",
      "taf": "TAF LZKZ 211115Z 2112/2212 01009KT CAVOK"
    },
    {
      "icao": "LZTT",
      "alert": "OK",
      "vis_m": 9999,
      "fzfg": false,
      "metar_trigger": false,
      "taf_trigger": false,
      "metar": "METAR LZTT 211630Z 05007KT 360V060 9999 FEW038 05/M01 Q1017 NOSIG",
      "taf": "TAF LZTT 211115Z 2112/2212 07007KT 9999 FEW020 BKN030"
    },
    {
      "icao": "OEJN",
      "alert": "OK",
      "vis_m": 5000,
      "fzfg": false,
      "metar_trigger": false,
      "taf_trigger": false,
      "metar": "METAR OEJN 211600Z 33012KT 5000 BLDU NSC 26/11 Q1008 NOSIG",
      "taf": "TAF OEJN 211100Z 2112/2218 30012KT 7000 FEW040"
    },
    {
      "icao": "OEMA",
      "alert": "OK",
      "vis_m": 9999,
      "fzfg": false,
      "metar_trigger": false,
      "taf_trigger": false,
      "metar": "METAR OEMA 211600Z 22010KT CAVOK 26/M07 Q1010 NOSIG",
      "taf": "TAF OEMA 211100Z 2112/2218 27010KT 7000 NSC"
    },
    {
      "icao": "OJAI",
      "alert": "OK",
      "vis_m": 4000,
      "fzfg": false,
      "metar_trigger": false,
      "taf_trigger": false,
      "metar": "METAR OJAI 211600Z 28008KT 4000 HZ NSC 10/03 Q1007 NOSIG",
      "taf": "TAF OJAI 211100Z 2112/2218 24012KT 5000 HZ FEW025TCU SCT030"
    },
    {
      "icao": "OMAA",
      "alert": "OK",
      "vis_m": null,
      "fzfg": false,
      "metar_trigger": false,
      "taf_trigger": false,
      "metar": "",
      "taf": ""
    },
    {
      "icao": "OMDB",
      "alert": "OK",
      "vis_m": null,
      "fzfg": false,
      "metar_trigger": false,
      "taf_trigger": false,
      "metar": "",
      "taf": ""
    },
    {
      "icao": "UAAA",
      "alert": "OK",
      "vis_m": 3100,
      "fzfg": false,
      "metar_trigger": false,
      "taf_trigger": false,
      "metar": "METAR UAAA 211630Z 19002MPS 3100 FU BKN100 08/01 Q1013 NOSIG",
      "taf": "TAF UAAA 211100Z 2112/2212 20002G07MPS 9999 FEW050 SCT100 TX18/2209Z TN00/2201Z"
    },
    {
      "icao": "UBBB",
      "alert": "OK",
      "vis_m": 9999,
      "fzfg": false,
      "metar_trigger": false,
      "taf_trigger": false,
      "metar": "METAR UBBB 211630Z 19004KT CAVOK 11/08 Q1008 NOSIG",
      "taf": "TAF UBBB 211654Z 2118/2218 VRB04KT 9999 FEW030 TX16/2210Z TN08/2201Z"
    },
    {
      "icao": "UDSG",
      "alert": "OK",
      "vis_m": 9999,
      "fzfg": false,
      "metar_trigger": false,
      "taf_trigger": false,
      "metar": "METAR UDSG 211630Z 06006KT 9999 SCT043 03/01 Q1010 NOSIG",
      "taf": "TAF UDSG 211100Z 2112/2212 VRB06KT 9999 SCT040"
    },
    {
      "icao": "UDYZ",
      "alert": "OK",
      "vis_m": 9999,
      "fzfg": false,
      "metar_trigger": false,
      "taf_trigger": false,
      "metar": "METAR UDYZ 211630Z 07005KT 9999 VCTS BKN043CB 14/04 Q1007 TEMPO -TSRA",
      "taf": ""
    },
    {
      "icao": "UGKO",
      "alert": "OK",
      "vis_m": 9999,
      "fzfg": false,
      "metar_trigger": false,
      "taf_trigger": false,
      "metar": "METAR UGKO 211630Z 28007KT CAVOK 11/08 Q1005 NOSIG",
      "taf": "TAF UGKO 211100Z 2112/2212 26007KT CAVOK TX19/2112Z TN06/2203Z"
    }
  ]
}