{
  "ts_utc": "2026-04-10T13:48:56Z",
  "threshold_m": 150,
  "source": "stations_override.txt (ICAO list) + aviationweather.gov (METAR/TAF raw)",
  "station_count": 159,
  "stations": [
    {
      "icao": "BIKF",
      "alert": "OK",
      "vis_m": 9999,
      "fzfg": false,
      "metar_trigger": false,
      "taf_trigger": false,
      "metar": "METAR BIKF 101330Z 18006KT 130V230 9999 FEW021 SCT032 BKN079 04/M05 Q1001",
      "taf": "TAF BIKF 101333Z 1015/1115 18006KT 9999 SCT030 TX04/1015Z TNM03/1103Z"
    },
    {
      "icao": "BKPR",
      "alert": "OK",
      "vis_m": 9999,
      "fzfg": false,
      "metar_trigger": false,
      "taf_trigger": false,
      "metar": "METAR BKPR 101330Z 02004KT 310V080 9999 FEW035 13/M04 Q1016 NOSIG",
      "taf": "TAF BKPR 101130Z 1012/1112 01009KT 9999 SCT040 BKN070"
    },
    {
      "icao": "EBCI",
      "alert": "OK",
      "vis_m": 9999,
      "fzfg": false,
      "metar_trigger": false,
      "taf_trigger": false,
      "metar": "METAR EBCI 101320Z 25004KT 210V290 9999 FEW047 12/00 Q1020 NOSIG",
      "taf": "TAF EBCI 101100Z 1012/1118 VRB03KT 9999 FEW040"
    },
    {
      "icao": "EDDB",
      "alert": "OK",
      "vis_m": 9999,
      "fzfg": false,
      "metar_trigger": false,
      "taf_trigger": false,
      "metar": "METAR EDDB 101320Z AUTO VRB03KT CAVOK 09/M02 Q1017 NOSIG",
      "taf": "TAF EDDB 101100Z 1012/1112 14010KT 9999 FEW045"
    },
    {
      "icao": "EDDH",
      "alert": "OK",
      "vis_m": 9999,
      "fzfg": false,
      "metar_trigger": false,
      "taf_trigger": false,
      "metar": "METAR EDDH 101320Z AUTO 26011KT 220V300 9999 FEW037 11/03 Q1017 NOSIG",
      "taf": "TAF EDDH 101100Z 1012/1118 30011KT 9999 BKN020"
    },
    {
      "icao": "EDDK",
      "alert": "OK",
      "vis_m": 9999,
      "fzfg": false,
      "metar_trigger": false,
      "taf_trigger": false,
      "metar": "METAR EDDK 101320Z AUTO 25005KT 210V300 9999 FEW046 12/01 Q1019 NOSIG",
      "taf": "TAF EDDK 101100Z 1012/1118 30006KT 9999 SCT040"
    },
    {
      "icao": "EDDN",
      "alert": "OK",
      "vis_m": 9999,
      "fzfg": false,
      "metar_trigger": false,
      "taf_trigger": false,
      "metar": "METAR EDDN 101320Z AUTO 35004KT 290V060 9999 FEW025 SCT031 BKN040 11/04 Q1017 NOSIG",
      "taf": "TAF EDDN 101100Z 1012/1112 31008KT 9999 BKN020"
    },
    {
      "icao": "EDDS",
      "alert": "OK",
      "vis_m": 9999,
      "fzfg": false,
      "metar_trigger": false,
      "taf_trigger": false,
      "metar": "METAR EDDS 101320Z AUTO 25002KT 9999 FEW037 12/04 Q1017 NOSIG",
      "taf": "TAF EDDS 101100Z 1012/1112 32005KT 9999 SCT030"
    },
    {
      "icao": "EDFH",
      "alert": "OK",
      "vis_m": 9999,
      "fzfg": false,
      "metar_trigger": false,
      "taf_trigger": false,
      "metar": "METAR EDFH 101320Z VRB04KT CAVOK 10/M07 Q1018",
      "taf": "TAF EDFH 101100Z 1012/1112 34005KT 9999 FEW025"
    },
    {
      "icao": "EDJA",
      "alert": "OK",
      "vis_m": 9999,
      "fzfg": false,
      "metar_trigger": false,
      "taf_trigger": false,
      "metar": "METAR EDJA 101320Z VRB01KT 9999 BKN008 10/08 Q1018",
      "taf": "TAF EDJA 101100Z 1012/1021 32006KT 9000 SCT005 BKN012"
    },
    {
      "icao": "EDLW",
      "alert": "OK",
      "vis_m": 9999,
      "fzfg": false,
      "metar_trigger": false,
      "taf_trigger": false,
      "metar": "METAR EDLW 101320Z 26006KT 210V310 9999 FEW044 11/03 Q1019",
      "taf": "TAF EDLW 101100Z 1012/1112 30005KT 9999 SCT035"
    },
    {
      "icao": "EDNY",
      "alert": "OK",
      "vis_m": 9999,
      "fzfg": false,
      "metar_trigger": false,
      "taf_trigger": false,
      "metar": "METAR EDNY 101320Z COR 03009KT 9999 -RA BKN041 11/09 Q1018",
      "taf": "TAF EDNY 101100Z 1012/1021 22003KT 9999 FEW025 BKN050"
    },
    {
      "icao": "EDSB",
      "alert": "OK",
      "vis_m": 9999,
      "fzfg": false,
      "metar_trigger": false,
      "taf_trigger": false,
      "metar": "METAR EDSB 101320Z 03003KT 340V080 9999 FEW035 13/05 Q1018",
      "taf": "TAF EDSB 101100Z 1012/1112 01004KT 9999 FEW030"
    },
    {
      "icao": "EETN",
      "alert": "OK",
      "vis_m": 9999,
      "fzfg": false,
      "metar_trigger": false,
      "taf_trigger": false,
      "metar": "METAR EETN 101320Z 05011KT CAVOK 06/M06 Q1023 NOSIG",
      "taf": "TAF EETN 101130Z 1012/1112 06013KT CAVOK"
    },
    {
      "icao": "EFTU",
      "alert": "OK",
      "vis_m": 9999,
      "fzfg": false,
      "metar_trigger": false,
      "taf_trigger": false,
      "metar": "METAR EFTU 101320Z AUTO VRB04KT CAVOK 10/M06 Q1023",
      "taf": "TAF EFTU 101122Z 1012/1112 10007KT CAVOK"
    },
    {
      "icao": "EGBB",
      "alert": "OK",
      "vis_m": 9999,
      "fzfg": false,
      "metar_trigger": false,
      "taf_trigger": false,
      "metar": "METAR EGBB 101320Z 20008KT 160V240 CAVOK 11/M02 Q1016",
      "taf": "TAF EGBB 101104Z 1012/1112 18010KT 9999 FEW045"
    },
    {
      "icao": "EGGP",
      "alert": "OK",
      "vis_m": 9999,
      "fzfg": false,
      "metar_trigger": false,
      "taf_trigger": false,
      "metar": "METAR EGGP 101320Z 17008KT 140V220 9999 SCT028 11/M01 Q1015",
      "taf": "TAF EGGP 101101Z 1012/1112 17010KT 9999 FEW025"
    },
    {
      "icao": "EGGW",
      "alert": "OK",
      "vis_m": 9999,
      "fzfg": false,
      "metar_trigger": false,
      "taf_trigger": false,
      "metar": "METAR EGGW 101320Z AUTO 21007KT 130V250 9999 FEW049 12/00 Q1017",
      "taf": "TAF EGGW 101100Z 1012/1112 21009KT 9999 SCT040"
    },
    {
      "icao": "EGKK",
      "alert": "OK",
      "vis_m": 9999,
      "fzfg": false,
      "metar_trigger": false,
      "taf_trigger": false,
      "metar": "METAR EGKK 101320Z 21008KT 150V250 CAVOK 12/M00 Q1018",
      "taf": "TAF EGKK 101053Z 1012/1118 20010KT 9999 FEW035"
    },
    {
      "icao": "EGNM",
      "alert": "OK",
      "vis_m": 9999,
      "fzfg": false,
      "metar_trigger": false,
      "taf_trigger": false,
      "metar": "METAR EGNM 101320Z 21009KT 180V250 9999 SCT040 10/M01 Q1015",
      "taf": "TAF EGNM 101101Z 1012/1112 22009KT 9999 FEW025"
    },
    {
      "icao": "EGPD",
      "alert": "OK",
      "vis_m": 9999,
      "fzfg": false,
      "metar_trigger": false,
      "taf_trigger": false,
      "metar": "METAR EGPD 101320Z COR AUTO 15013KT 9999 SCT042 10/00 Q1013",
      "taf": "TAF EGPD 101054Z 1012/1112 28009KT 9999 FEW045"
    },
    {
      "icao": "EGPF",
      "alert": "OK",
      "vis_m": 9999,
      "fzfg": false,
      "metar_trigger": false,
      "taf_trigger": false,
      "metar": "METAR EGPF 101320Z AUTO 15012KT 130V200 9999 BKN049 10/M00 Q1012",
      "taf": "TAF EGPF 101059Z 1012/1112 20008KT 9999 SCT030"
    },
    {
      "icao": "EHBK",
      "alert": "OK",
      "vis_m": 9999,
      "fzfg": false,
      "metar_trigger": false,
      "taf_trigger": false,
      "metar": "METAR EHBK 101325Z AUTO 23006KT 180V270 9999 NSC 11/03 Q1020 NOSIG",
      "taf": "TAF EHBK 101118Z 1012/1118 26004KT CAVOK"
    },
    {
      "icao": "EHEH",
      "alert": "OK",
      "vis_m": 9999,
      "fzfg": false,
      "metar_trigger": false,
      "taf_trigger": false,
      "metar": "METAR EHEH 101325Z AUTO 23006KT 210V320 9999 FEW046 SCT051 OVC120 12/02 Q1019 BLU NOSIG",
      "taf": "TAF EHEH 101106Z 1012/1118 26004KT 9999 BKN030"
    },
    {
      "icao": "EKBI",
      "alert": "OK",
      "vis_m": 9999,
      "fzfg": false,
      "metar_trigger": false,
      "taf_trigger": false,
      "metar": "METAR EKBI 101320Z 28011KT 9999 -SHRA FEW012CB BKN016 07/05 Q1015",
      "taf": "TAF EKBI 101127Z 1012/1112 28010KT 9999 BKN015"
    },
    {
      "icao": "EKCH",
      "alert": "OK",
      "vis_m": 9999,
      "fzfg": false,
      "metar_trigger": false,
      "taf_trigger": false,
      "metar": "METAR EKCH 101320Z AUTO 15014KT 9999 OVC055/// 06/01 Q1018 NOSIG",
      "taf": "TAF EKCH 101127Z 1012/1112 14012KT 9999 SCT025"
    },
    {
      "icao": "ENAL",
      "alert": "OK",
      "vis_m": 9999,
      "fzfg": false,
      "metar_trigger": false,
      "taf_trigger": false,
      "metar": "METAR ENAL 101320Z 22010KT CAVOK 10/M04 Q1011",
      "taf": "TAF ENAL 101100Z 1012/1021 VRB05KT 9999 BKN060"
    },
    {
      "icao": "ENBR",
      "alert": "OK",
      "vis_m": 9999,
      "fzfg": false,
      "metar_trigger": false,
      "taf_trigger": false,
      "metar": "METAR ENBR 101320Z 15011KT 9999 -SHRA SCT020 BKN030 04/M00 Q1013 NOSIG RMK WIND 1200FT 14019KT",
      "taf": "TAF ENBR 101100Z 1012/1112 15009KT 9999 -RA SCT015 BKN030"
    },
    {
      "icao": "ENGM",
      "alert": "OK",
      "vis_m": 9999,
      "fzfg": false,
      "metar_trigger": false,
      "taf_trigger": false,
      "metar": "METAR ENGM 101320Z 15012KT 120V190 9999 FEW035 06/M04 Q1017 NOSIG",
      "taf": "TAF ENGM 101100Z 1012/1112 14010KT CAVOK"
    },
    {
      "icao": "ENHD",
      "alert": "OK",
      "vis_m": 9999,
      "fzfg": false,
      "metar_trigger": false,
      "taf_trigger": false,
      "metar": "METAR ENHD 101320Z 12011KT 9999 -RA FEW012 SCT027 BKN034 04/02 Q1013",
      "taf": "TAF ENHD 101100Z 1012/1021 14012KT 9999 -RA BKN020"
    },
    {
      "icao": "ENTC",
      "alert": "OK",
      "vis_m": 9999,
      "fzfg": false,
      "metar_trigger": false,
      "taf_trigger": false,
      "metar": "METAR ENTC 101320Z 20008KT CAVOK 08/00 Q1015 NOSIG RMK WIND 2600FT 17007KT",
      "taf": "TAF ENTC 101100Z 1012/1112 20008KT CAVOK"
    },
    {
      "icao": "ENTO",
      "alert": "OK",
      "vis_m": 9999,
      "fzfg": false,
      "metar_trigger": false,
      "taf_trigger": false,
      "metar": "METAR ENTO 101320Z 12007KT 9999 SCT040 06/M03 Q1017 NOSIG",
      "taf": "TAF ENTO 101100Z 1012/1112 10008KT 9999 SCT030"
    },
    {
      "icao": "ENVA",
      "alert": "OK",
      "vis_m": 9999,
      "fzfg": false,
      "metar_trigger": false,
      "taf_trigger": false,
      "metar": "METAR ENVA 101320Z 14013G25KT 110V190 CAVOK 11/M06 Q1015 NOSIG RMK WIND 670FT 16025G37KT",
      "taf": "TAF ENVA 101100Z 1012/1112 14012KT CAVOK"
    },
    {
      "icao": "ENZV",
      "alert": "OK",
      "vis_m": 9999,
      "fzfg": false,
      "metar_trigger": false,
      "taf_trigger": false,
      "metar": "METAR ENZV 101320Z 16008KT 9999 -RA OVC028 05/01 Q1013 NOSIG",
      "taf": "TAF ENZV 101100Z 1012/1112 14009KT 9999 -RA BKN025"
    },
    {
      "icao": "EPGD",
      "alert": "OK",
      "vis_m": 9999,
      "fzfg": false,
      "metar_trigger": false,
      "taf_trigger": false,
      "metar": "METAR EPGD 101330Z 04010KT 9999 FEW045 07/M03 Q1019",
      "taf": "TAF EPGD 101130Z 1012/1112 17006KT 9999 SCT045"
    },
    {
      "icao": "EPKK",
      "alert": "OK",
      "vis_m": 9999,
      "fzfg": false,
      "metar_trigger": false,
      "taf_trigger": false,
      "metar": "METAR EPKK 101330Z VRB04KT 9999 FEW052 08/M02 Q1017",
      "taf": "TAF EPKK 101130Z 1012/1112 07007KT 9999 SCT040"
    },
    {
      "icao": "EPKT",
      "alert": "OK",
      "vis_m": 9999,
      "fzfg": false,
      "metar_trigger": false,
      "taf_trigger": false,
      "metar": "METAR EPKT 101330Z 12005KT 060V170 CAVOK 08/M05 Q1017",
      "taf": "TAF EPKT 101130Z 1012/1112 10010KT CAVOK"
    },
    {
      "icao": "EPLB",
      "alert": "OK",
      "vis_m": 9999,
      "fzfg": false,
      "metar_trigger": false,
      "taf_trigger": false,
      "metar": "METAR EPLB 101330Z 32004KT 280V350 9999 BKN039 06/M03 Q1018",
      "taf": "TAF EPLB 101130Z 1012/1112 30005KT 9999 BKN040"
    },
    {
      "icao": "EPMO",
      "alert": "OK",
      "vis_m": 9999,
      "fzfg": false,
      "metar_trigger": false,
      "taf_trigger": false,
      "metar": "METAR EPMO 101330Z 02004KT 320V090 CAVOK 09/M03 Q1018",
      "taf": "TAF EPMO 101130Z 1012/1112 VRB05KT 9999 SCT049"
    },
    {
      "icao": "EPPO",
      "alert": "OK",
      "vis_m": 9999,
      "fzfg": false,
      "metar_trigger": false,
      "taf_trigger": false,
      "metar": "METAR EPPO 101330Z 19007KT 150V210 CAVOK 11/M05 Q1017",
      "taf": "TAF EPPO 101130Z 1012/1112 11010KT CAVOK"
    },
    {
      "icao": "EPRA",
      "alert": "OK",
      "vis_m": 9999,
      "fzfg": false,
      "metar_trigger": false,
      "taf_trigger": false,
      "metar": "METAR EPRA 101330Z VRB03KT CAVOK 07/M05 Q1018",
      "taf": "TAF EPRA 101130Z 1012/1021 05005KT 9999 SCT040"
    },
    {
      "icao": "EPRZ",
      "alert": "OK",
      "vis_m": 9999,
      "fzfg": false,
      "metar_trigger": false,
      "taf_trigger": false,
      "metar": "METAR EPRZ 101330Z 09003KT 060V150 CAVOK 07/M04 Q1018",
      "taf": "TAF EPRZ 101130Z 1012/1112 VRB02KT 9999 BKN040"
    },
    {
      "icao": "EPSC",
      "alert": "OK",
      "vis_m": 9999,
      "fzfg": false,
      "metar_trigger": false,
      "taf_trigger": false,
      "metar": "METAR EPSC 101330Z VRB04KT CAVOK 10/M05 Q1018",
      "taf": "TAF EPSC 101130Z 1012/1112 14010KT CAVOK"
    },
    {
      "icao": "EPSY",
      "alert": "OK",
      "vis_m": 9999,
      "fzfg": false,
      "metar_trigger": false,
      "taf_trigger": false,
      "metar": "METAR EPSY 101330Z 32006KT 280V010 CAVOK 09/M04 Q1018",
      "taf": "TAF EPSY 101130Z 1012/1021 VRB02KT 9999 SCT040"
    },
    {
      "icao": "EPWA",
      "alert": "OK",
      "vis_m": 9999,
      "fzfg": false,
      "metar_trigger": false,
      "taf_trigger": false,
      "metar": "METAR EPWA 101330Z 33004KT 270V060 CAVOK 09/M05 Q1018 NOSIG",
      "taf": "TAF EPWA 101130Z 1012/1112 VRB05KT 9999 SCT049"
    },
    {
      "icao": "EPWR",
      "alert": "OK",
      "vis_m": 9999,
      "fzfg": false,
      "metar_trigger": false,
      "taf_trigger": false,
      "metar": "METAR EPWR 101330Z 14005KT 080V180 CAVOK 09/M06 Q1017",
      "taf": "TAF EPWR 101130Z 1012/1112 14010KT CAVOK"
    },
    {
      "icao": "ESGG",
      "alert": "OK",
      "vis_m": 9999,
      "fzfg": false,
      "metar_trigger": false,
      "taf_trigger": false,
      "metar": "METAR ESGG 101320Z 14014KT CAVOK 09/M04 Q1015",
      "taf": "TAF ESGG 101130Z 1012/1112 15012G22KT CAVOK"
    },
    {
      "icao": "ESKN",
      "alert": "OK",
      "vis_m": 9999,
      "fzfg": false,
      "metar_trigger": false,
      "taf_trigger": false,
      "metar": "METAR ESKN 101320Z 14010KT CAVOK 07/M03 Q1022",
      "taf": "TAF ESKN 101130Z 1012/1112 15010KT CAVOK"
    },
    {
      "icao": "ESMS",
      "alert": "OK",
      "vis_m": 9999,
      "fzfg": false,
      "metar_trigger": false,
      "taf_trigger": false,
      "metar": "METAR ESMS 101320Z 12013KT CAVOK 06/M00 Q1017",
      "taf": "TAF ESMS 101127Z 1012/1112 13010KT 9999 SCT025"
    },
    {
      "icao": "ESSA",
      "alert": "OK",
      "vis_m": 9999,
      "fzfg": false,
      "metar_trigger": false,
      "taf_trigger": false,
      "metar": "METAR ESSA 101320Z 10009KT CAVOK 09/M03 Q1022 NOSIG",
      "taf": "TAF ESSA 101130Z 1012/1112 17006KT CAVOK"
    },
    {
      "icao": "EYKA",
      "alert": "OK",
      "vis_m": 9999,
      "fzfg": false,
      "metar_trigger": false,
      "taf_trigger": false,
      "metar": "METAR EYKA 101320Z 33010KT CAVOK 11/M02 Q1017",
      "taf": "TAF EYKA 101100Z 1012/1112 36010KT 9000 SCT045"
    },
    {
      "icao": "EYPA",
      "alert": "OK",
      "vis_m": 9999,
      "fzfg": false,
      "metar_trigger": false,
      "taf_trigger": false,
      "metar": "METAR EYPA 101320Z VRB07KT CAVOK 05/M01 Q1021",
      "taf": "TAF EYPA 101100Z 1012/1112 33010KT 9000 SCT045"
    },
    {
      "icao": "EYVI",
      "alert": "OK",
      "vis_m": 9999,
      "fzfg": false,
      "metar_trigger": false,
      "taf_trigger": false,
      "metar": "METAR EYVI 101320Z 35014KT CAVOK 10/M05 Q1015 NOSIG",
      "taf": "TAF EYVI 101100Z 1012/1112 36010KT 9000 NSC"
    },
    {
      "icao": "GCFV",
      "alert": "OK",
      "vis_m": 9999,
      "fzfg": false,
      "metar_trigger": false,
      "taf_trigger": false,
      "metar": "METAR GCFV 101330Z 29016KT 260V320 9999 VCSH SCT020TCU SCT025 BKN045 20/13 Q1016",
      "taf": "TAF GCFV 100800Z 1009/1109 30012KT 9999 SCT030 TX21/1014Z TN15/1106Z"
    },
    {
      "icao": "GCLP",
      "alert": "OK",
      "vis_m": 9999,
      "fzfg": false,
      "metar_trigger": false,
      "taf_trigger": false,
      "metar": "METAR GCLP 101330Z 34014KT 300V010 9999 FEW035 BKN055 22/11 Q1018 NOSIG",
      "taf": "TAF GCLP 100800Z 1009/1109 34015KT 9999 SCT030 TX22/1014Z TN15/1106Z"
    },
    {
      "icao": "GCTS",
      "alert": "OK",
      "vis_m": 9999,
      "fzfg": false,
      "metar_trigger": false,
      "taf_trigger": false,
      "metar": "METAR GCTS 101330Z 15009KT 120V190 9999 FEW030 BKN045 20/12 Q1018 NOSIG",
      "taf": "TAF GCTS 100800Z 1009/1109 VRB08KT 9999 SCT030 TX23/1014Z TN16/1106Z"
    },
    {
      "icao": "GMAD",
      "alert": "OK",
      "vis_m": 8000,
      "fzfg": false,
      "metar_trigger": false,
      "taf_trigger": false,
      "metar": "METAR GMAD 101330Z 30005KT 220V030 8000 TS SCT020 SCT026TCU FEW030CB 19/11 Q1014 NOSIG",
      "taf": "TAF GMAD 101100Z 1012/1118 28012KT 6000 BKN020 SCT023TCU"
    },
    {
      "icao": "GMMN",
      "alert": "OK",
      "vis_m": 9999,
      "fzfg": false,
      "metar_trigger": false,
      "taf_trigger": false,
      "metar": "METAR GMMN 101330Z 36009KT 320V040 9999 BKN026 19/13 Q1014 NOSIG",
      "taf": "TAF GMMN 101100Z 1012/1118 VRB03KT 9999 SCT020"
    },
    {
      "icao": "GMMX",
      "alert": "OK",
      "vis_m": 9999,
      "fzfg": false,
      "metar_trigger": false,
      "taf_trigger": false,
      "metar": "METAR GMMX 101330Z VRB05KT 9999 BKN023 19/09 Q1012 NOSIG",
      "taf": "TAF GMMX 101100Z 1012/1118 32015KT 8000 SCT015 BKN023"
    },
    {
      "icao": "HEGN",
      "alert": "OK",
      "vis_m": 9999,
      "fzfg": false,
      "metar_trigger": false,
      "taf_trigger": false,
      "metar": "METAR HEGN 101300Z 01012KT CAVOK 28/M02 Q1013 NOSIG",
      "taf": "TAF HEGN 101100Z 1012/1118 03015KT CAVOK"
    },
    {
      "icao": "HEMA",
      "alert": "OK",
      "vis_m": 9999,
      "fzfg": false,
      "metar_trigger": false,
      "taf_trigger": false,
      "metar": "METAR HEMA 101300Z 34018KT CAVOK 27/01 Q1013 NOSIG",
      "taf": "TAF HEMA 101100Z 1012/1118 02015KT CAVOK"
    },
    {
      "icao": "HESH",
      "alert": "OK",
      "vis_m": 9999,
      "fzfg": false,
      "metar_trigger": false,
      "taf_trigger": false,
      "metar": "METAR HESH 101300Z 14006KT CAVOK 27/05 Q1014 NOSIG",
      "taf": "TAF HESH 101100Z 1012/1118 13010KT CAVOK"
    },
    {
      "icao": "HESX",
      "alert": "OK",
      "vis_m": 9999,
      "fzfg": false,
      "metar_trigger": false,
      "taf_trigger": false,
      "metar": "METAR HESX 101300Z 29009KT 9999 SCT020 26/05 Q1015 NOSIG",
      "taf": "TAF HESX 101100Z 1012/1118 30010KT CAVOK"
    },
    {
      "icao": "LATI",
      "alert": "OK",
      "vis_m": null,
      "fzfg": false,
      "metar_trigger": false,
      "taf_trigger": false,
      "metar": "",
      "taf": "TAF LATI 101100Z 1012/1112 29010KT CAVOK TX21/1111Z TN07/1102Z"
    },
    {
      "icao": "LBPD",
      "alert": "OK",
      "vis_m": 9999,
      "fzfg": false,
      "metar_trigger": false,
      "taf_trigger": false,
      "metar": "METAR LBPD 101330Z AUTO 35007KT 320V030 9999 SCT088/// 14/M04 Q1016 NOSIG",
      "taf": "TAF LBPD 101100Z 1012/1112 29012KT 9999 SCT060"
    },
    {
      "icao": "LBSF",
      "alert": "OK",
      "vis_m": 9999,
      "fzfg": false,
      "metar_trigger": false,
      "taf_trigger": false,
      "metar": "METAR LBSF 101330Z 28005KT 210V350 9999 SCT068 BKN084 10/M08 Q1016 NOSIG",
      "taf": "TAF LBSF 101100Z 1012/1112 32010KT 9999 SCT050"
    },
    {
      "icao": "LBWN",
      "alert": "OK",
      "vis_m": 9999,
      "fzfg": false,
      "metar_trigger": false,
      "taf_trigger": false,
      "metar": "METAR LBWN 101330Z AUTO 36007KT 320V050 9999 NSC 10/M00 Q1017 NOSIG",
      "taf": "TAF LBWN 101100Z 1012/1112 01010KT 9999 SCT025 BKN045"
    },
    {
      "icao": "LCLK",
      "alert": "OK",
      "vis_m": 9999,
      "fzfg": false,
      "metar_trigger": false,
      "taf_trigger": false,
      "metar": "METAR LCLK 101330Z 32012KT 9999 FEW020 SCT050 22/09 Q1011 NOSIG",
      "taf": "TAF LCLK 101130Z 1012/1112 22020KT 9999 FEW020 SCT040"
    },
    {
      "icao": "LCPH",
      "alert": "OK",
      "vis_m": 9999,
      "fzfg": false,
      "metar_trigger": false,
      "taf_trigger": false,
      "metar": "METAR LCPH 101330Z 31011KT 250V320 9999 FEW025 19/10 Q1013 NOSIG",
      "taf": "TAF LCPH 101130Z 1012/1112 29016KT 9999 FEW020"
    },
    {
      "icao": "LEAL",
      "alert": "OK",
      "vis_m": 9999,
      "fzfg": false,
      "metar_trigger": false,
      "taf_trigger": false,
      "metar": "METAR LEAL 101330Z 07013KT CAVOK 26/05 Q1016 NOSIG",
      "taf": "TAF LEAL 101100Z 1012/1112 07015KT CAVOK TX26/1013Z TN15/1106Z"
    },
    {
      "icao": "LEBB",
      "alert": "OK",
      "vis_m": 9999,
      "fzfg": false,
      "metar_trigger": false,
      "taf_trigger": false,
      "metar": "METAR LEBB 101330Z VRB02KT CAVOK 28/14 Q1013 NOSIG",
      "taf": "TAF LEBB 101100Z 1012/1112 VRB03KT 9999 SCT025 TX30/1015Z TN13/1107Z"
    },
    {
      "icao": "LEBL",
      "alert": "OK",
      "vis_m": 9999,
      "fzfg": false,
      "metar_trigger": false,
      "taf_trigger": false,
      "metar": "METAR LEBL 101330Z 22013KT 9999 FEW040 23/10 Q1016 NOSIG",
      "taf": "TAF LEBL 101100Z 1012/1112 20009KT CAVOK TX22/1012Z TN12/1106Z"
    },
    {
      "icao": "LECH",
      "alert": "OK",
      "vis_m": 9999,
      "fzfg": false,
      "metar_trigger": false,
      "taf_trigger": false,
      "metar": "METAR LECH 101330Z AUTO 12010KT 090V160 CAVOK 24/03 Q1017",
      "taf": "TAF LECH 101100Z 1012/1112 VRB04KT CAVOK TX27/1014Z TN10/1106Z"
    },
    {
      "icao": "LEMD",
      "alert": "OK",
      "vis_m": 9999,
      "fzfg": false,
      "metar_trigger": false,
      "taf_trigger": false,
      "metar": "METAR LEMD 101330Z 17007KT 100V220 CAVOK 27/03 Q1016 NOSIG",
      "taf": "TAF LEMD 101100Z 1012/1118 VRB04KT CAVOK TX29/1015Z TN10/1106Z"
    },
    {
      "icao": "LEMG",
      "alert": "OK",
      "vis_m": 9999,
      "fzfg": false,
      "metar_trigger": false,
      "taf_trigger": false,
      "metar": "METAR LEMG 101330Z 19011G22KT 140V250 9999 FEW040 19/11 Q1011 NOSIG",
      "taf": ""
    },
    {
      "icao": "LEVC",
      "alert": "OK",
      "vis_m": 9999,
      "fzfg": false,
      "metar_trigger": false,
      "taf_trigger": false,
      "metar": "METAR LEVC 101330Z 11008KT 080V160 9999 FEW069 27/01 Q1016 NOSIG",
      "taf": "TAF LEVC 101100Z 1012/1112 10010KT CAVOK TX28/1013Z TN13/1106Z"
    },
    {
      "icao": "LEXJ",
      "alert": "OK",
      "vis_m": 9999,
      "fzfg": false,
      "metar_trigger": false,
      "taf_trigger": false,
      "metar": "METAR LEXJ 101330Z 06010KT 360V140 CAVOK 16/13 Q1014",
      "taf": "TAF LEXJ 100800Z 1009/1109 VRB03KT 9999 SCT020 TX24/1014Z TN13/1109Z"
    },
    {
      "icao": "LEZG",
      "alert": "OK",
      "vis_m": 9999,
      "fzfg": false,
      "metar_trigger": false,
      "taf_trigger": false,
      "metar": "METAR LEZG 101330Z 07002KT CAVOK 26/07 Q1016 NOSIG",
      "taf": "TAF LEZG 101100Z 1012/1112 11009KT CAVOK TX30/1015Z TN08/1106Z"
    },
    {
      "icao": "LEZL",
      "alert": "OK",
      "vis_m": 9999,
      "fzfg": false,
      "metar_trigger": false,
      "taf_trigger": false,
      "metar": "METAR LEZL 101330Z VRB02KT CAVOK 24/13 Q1011 NOSIG",
      "taf": ""
    },
    {
      "icao": "LFBD",
      "alert": "OK",
      "vis_m": 9999,
      "fzfg": false,
      "metar_trigger": false,
      "taf_trigger": false,
      "metar": "METAR LFBD 101330Z AUTO 09007KT 010V140 CAVOK 20/13 Q1016 NOSIG",
      "taf": "TAF LFBD 101100Z 1012/1118 VRB03KT 9999 BKN013 TX26/1016Z TN10/1117Z"
    },
    {
      "icao": "LFLL",
      "alert": "OK",
      "vis_m": 9999,
      "fzfg": false,
      "metar_trigger": false,
      "taf_trigger": false,
      "metar": "METAR LFLL 101330Z 35007KT 290V020 9999 FEW033 BKN260 20/11 Q1017 NOSIG",
      "taf": "TAF LFLL 101100Z 1012/1118 35005KT CAVOK"
    },
    {
      "icao": "LFLS",
      "alert": "OK",
      "vis_m": 9999,
      "fzfg": false,
      "metar_trigger": false,
      "taf_trigger": false,
      "metar": "METAR LFLS 101330Z AUTO 35005KT 310V020 CAVOK 21/10 Q1017 NOSIG",
      "taf": "TAF LFLS 100800Z 1009/1109 VRB02KT CAVOK"
    },
    {
      "icao": "LFMN",
      "alert": "OK",
      "vis_m": 9999,
      "fzfg": false,
      "metar_trigger": false,
      "taf_trigger": false,
      "metar": "METAR LFMN 101330Z 13008KT 9999 FEW012 BKN260 17/13 Q1014 NOSIG",
      "taf": "TAF LFMN 100800Z 1009/1115 12010KT CAVOK"
    },
    {
      "icao": "LFOB",
      "alert": "OK",
      "vis_m": 9999,
      "fzfg": false,
      "metar_trigger": false,
      "taf_trigger": false,
      "metar": "METAR LFOB 101330Z AUTO 35004KT 270V050 CAVOK 13/02 Q1019 NOSIG",
      "taf": "TAF LFOB 101100Z 1012/1112 10005KT CAVOK"
    },
    {
      "icao": "LFPO",
      "alert": "OK",
      "vis_m": 9999,
      "fzfg": false,
      "metar_trigger": false,
      "taf_trigger": false,
      "metar": "METAR LFPO 101330Z 06003KT 350V110 CAVOK 15/02 Q1019 NOSIG",
      "taf": "TAF LFPO 101100Z 1012/1118 VRB03KT CAVOK"
    },
    {
      "icao": "LFSB",
      "alert": "OK",
      "vis_m": 9999,
      "fzfg": false,
      "metar_trigger": false,
      "taf_trigger": false,
      "metar": "METAR LFSB 101330Z AUTO 36008KT 330V040 9999 SCT026 BKN140 16/10 Q1017 NOSIG",
      "taf": "TAF LFSB 101100Z 1012/1112 36010KT 9999 BKN025"
    },
    {
      "icao": "LGAV",
      "alert": "OK",
      "vis_m": 9999,
      "fzfg": false,
      "metar_trigger": false,
      "taf_trigger": false,
      "metar": "METAR LGAV 101320Z 07008KT 9999 FEW025 SCT040 17/09 Q1015 NOSIG",
      "taf": "TAF LGAV 101100Z 1012/1112 VRB05KT 9999 SCT025 SCT070"
    },
    {
      "icao": "LGTS",
      "alert": "OK",
      "vis_m": 9999,
      "fzfg": false,
      "metar_trigger": false,
      "taf_trigger": false,
      "metar": "METAR LGTS 101320Z 26006KT 9999 FEW025 17/00 Q1015 NOSIG",
      "taf": "TAF LGTS 101100Z 1012/1112 13012KT 9999 SCT025"
    },
    {
      "icao": "LHBP",
      "alert": "OK",
      "vis_m": 9999,
      "fzfg": false,
      "metar_trigger": false,
      "taf_trigger": false,
      "metar": "METAR LHBP 101330Z VRB03KT CAVOK 12/M05 Q1017 NOSIG",
      "taf": "TAF LHBP 101115Z 1012/1112 VRB03KT CAVOK"
    },
    {
      "icao": "LHDC",
      "alert": "OK",
      "vis_m": 9999,
      "fzfg": false,
      "metar_trigger": false,
      "taf_trigger": false,
      "metar": "METAR LHDC 101315Z AUTO VRB05KT CAVOK 12/M07 Q1017 NOSIG",
      "taf": "TAF LHDC 101115Z 1012/1021 32004KT CAVOK"
    },
    {
      "icao": "LIBD",
      "alert": "OK",
      "vis_m": 9999,
      "fzfg": false,
      "metar_trigger": false,
      "taf_trigger": false,
      "metar": "METAR LIBD 101320Z 08011KT CAVOK 18/10 Q1015",
      "taf": "TAF LIBD 101100Z 1012/1112 06012KT CAVOK"
    },
    {
      "icao": "LIBG",
      "alert": "OK",
      "vis_m": 9999,
      "fzfg": false,
      "metar_trigger": false,
      "taf_trigger": false,
      "metar": "METAR LIBG 101250Z 18006KT 140V210 CAVOK 20/09 Q1015",
      "taf": "TAF LIBG 101100Z 1012/1021 19010KT CAVOK"
    },
    {
      "icao": "LIBP",
      "alert": "OK",
      "vis_m": 9999,
      "fzfg": false,
      "metar_trigger": false,
      "taf_trigger": false,
      "metar": "METAR LIBP 101320Z AUTO 07008KT 9999 FEW250/// 19/11 Q1014",
      "taf": "TAF LIBP 101100Z 1012/1112 08012KT CAVOK"
    },
    {
      "icao": "LIBR",
      "alert": "OK",
      "vis_m": 9999,
      "fzfg": false,
      "metar_trigger": false,
      "taf_trigger": false,
      "metar": "METAR LIBR 101320Z 12008KT CAVOK 17/11 Q1015",
      "taf": "TAF LIBR 101100Z 1012/1112 10012KT CAVOK"
    },
    {
      "icao": "LICA",
      "alert": "OK",
      "vis_m": 9999,
      "fzfg": false,
      "metar_trigger": false,
      "taf_trigger": false,
      "metar": "METAR LICA 101320Z AUTO 25010KT 9999 NCD 19/12 Q1016",
      "taf": "TAF LICA 101100Z 1012/1112 26012KT CAVOK"
    },
    {
      "icao": "LICC",
      "alert": "OK",
      "vis_m": 9999,
      "fzfg": false,
      "metar_trigger": false,
      "taf_trigger": false,
      "metar": "METAR LICC 101320Z 09007KT CAVOK 21/15 Q1015",
      "taf": "TAF LICC 101100Z 1012/1112 09012KT CAVOK"
    },
    {
      "icao": "LICJ",
      "alert": "OK",
      "vis_m": 9999,
      "fzfg": false,
      "metar_trigger": false,
      "taf_trigger": false,
      "metar": "METAR LICJ 101320Z 29009KT CAVOK 20/11 Q1016",
      "taf": "TAF LICJ 101100Z 1012/1112 29010KT CAVOK"
    },
    {
      "icao": "LIMC",
      "alert": "OK",
      "vis_m": 9999,
      "fzfg": false,
      "metar_trigger": false,
      "taf_trigger": false,
      "metar": "METAR LIMC 101320Z 22003KT 160V270 CAVOK 20/09 Q1013 NOSIG",
      "taf": "TAF LIMC 101100Z 1012/1118 VRB05KT CAVOK"
    },
    {
      "icao": "LIME",
      "alert": "OK",
      "vis_m": 9999,
      "fzfg": false,
      "metar_trigger": false,
      "taf_trigger": false,
      "metar": "METAR LIME 101320Z VRB03KT CAVOK 19/09 Q1013 NOSIG",
      "taf": "TAF LIME 101100Z 1012/1112 VRB05KT CAVOK"
    },
    {
      "icao": "LIMF",
      "alert": "OK",
      "vis_m": 9999,
      "fzfg": false,
      "metar_trigger": false,
      "taf_trigger": false,
      "metar": "METAR LIMF 101320Z 12003KT 080V190 CAVOK 20/11 Q1013",
      "taf": "TAF LIMF 101100Z 1012/1112 VRB05KT CAVOK"
    },
    {
      "icao": "LIMJ",
      "alert": "OK",
      "vis_m": 9999,
      "fzfg": false,
      "metar_trigger": false,
      "taf_trigger": false,
      "metar": "METAR LIMJ 101320Z 22003KT 200V260 9999 BKN020 16/12 Q1015",
      "taf": "TAF LIMJ 101100Z 1012/1112 VRB05KT 9999 BKN020"
    },
    {
      "icao": "LIPE",
      "alert": "OK",
      "vis_m": 9999,
      "fzfg": false,
      "metar_trigger": false,
      "taf_trigger": false,
      "metar": "METAR LIPE 101320Z 09004KT 010V130 CAVOK 20/07 Q1013",
      "taf": "TAF LIPE 101100Z 1012/1112 VRB05KT CAVOK"
    },
    {
      "icao": "LIPH",
      "alert": "OK",
      "vis_m": 9999,
      "fzfg": false,
      "metar_trigger": false,
      "taf_trigger": false,
      "metar": "METAR LIPH 101320Z 16004KT 110V210 CAVOK 18/07 Q1014",
      "taf": "TAF LIPH 101100Z 1012/1112 VRB05KT CAVOK"
    },
    {
      "icao": "LIPQ",
      "alert": "OK",
      "vis_m": 9999,
      "fzfg": false,
      "metar_trigger": false,
      "taf_trigger": false,
      "metar": "METAR LIPQ 101320Z AUTO 26006KT 230V290 9999 BKN240/// 18/02 Q1014",
      "taf": "TAF LIPQ 101100Z 1012/1112 19010KT CAVOK"
    },
    {
      "icao": "LIPR",
      "alert": "OK",
      "vis_m": 9999,
      "fzfg": false,
      "metar_trigger": false,
      "taf_trigger": false,
      "metar": "METAR LIPR 101320Z 09006KT 060V130 CAVOK 15/12 Q1014",
      "taf": "TAF LIPR 101100Z 1012/1112 09010KT CAVOK"
    },
    {
      "icao": "LIPX",
      "alert": "OK",
      "vis_m": 9999,
      "fzfg": false,
      "metar_trigger": false,
      "taf_trigger": false,
      "metar": "METAR LIPX 101320Z VRB02KT CAVOK 19/07 Q1014",
      "taf": "TAF LIPX 101100Z 1012/1112 VRB05KT CAVOK"
    },
    {
      "icao": "LIPY",
      "alert": "OK",
      "vis_m": 9999,
      "fzfg": false,
      "metar_trigger": false,
      "taf_trigger": false,
      "metar": "METAR LIPY 101320Z AUTO 07007KT 9999 BKN190/// 19/09 Q1014",
      "taf": "TAF LIPY 101100Z 1012/1112 10010KT CAVOK"
    },
    {
      "icao": "LIPZ",
      "alert": "OK",
      "vis_m": 9999,
      "fzfg": false,
      "metar_trigger": false,
      "taf_trigger": false,
      "metar": "METAR LIPZ 101320Z 15007KT CAVOK 16/07 Q1015 NOSIG",
      "taf": "TAF LIPZ 101100Z 1012/1118 15010KT CAVOK"
    },
    {
      "icao": "LIRF",
      "alert": "OK",
      "vis_m": 9999,
      "fzfg": false,
      "metar_trigger": false,
      "taf_trigger": false,
      "metar": "METAR LIRF 101320Z 20011KT CAVOK 19/13 Q1015 NOSIG",
      "taf": "TAF LIRF 101100Z 1012/1118 19013KT CAVOK"
    },
    {
      "icao": "LIRN",
      "alert": "OK",
      "vis_m": 9999,
      "fzfg": false,
      "metar_trigger": false,
      "taf_trigger": false,
      "metar": "METAR LIRN 101320Z 21008KT 170V240 CAVOK 19/12 Q1016 NOSIG",
      "taf": "TAF LIRN 101100Z 1012/1112 20010KT CAVOK"
    },
    {
      "icao": "LIRP",
      "alert": "OK",
      "vis_m": 9999,
      "fzfg": false,
      "metar_trigger": false,
      "taf_trigger": false,
      "metar": "METAR LIRP 101315Z 26008KT CAVOK 21/09 Q1015 NOSIG",
      "taf": "TAF LIRP 101100Z 1012/1112 25005KT 9999 FEW080"
    },
    {
      "icao": "LIRZ",
      "alert": "OK",
      "vis_m": 9999,
      "fzfg": false,
      "metar_trigger": false,
      "taf_trigger": false,
      "metar": "METAR LIRZ 101320Z AUTO 19005KT 150V220 9999 NCD 22/08 Q1014",
      "taf": "TAF LIRZ 101100Z 1012/1112 22010KT CAVOK"
    },
    {
      "icao": "LJLJ",
      "alert": "OK",
      "vis_m": 9999,
      "fzfg": false,
      "metar_trigger": false,
      "taf_trigger": false,
      "metar": "METAR LJLJ 101330Z 09005KT 9999 BKN100 15/01 Q1014 NOSIG",
      "taf": "TAF LJLJ 101100Z 1012/1112 10005KT 9999 FEW070"
    },
    {
      "icao": "LKMT",
      "alert": "OK",
      "vis_m": 9999,
      "fzfg": false,
      "metar_trigger": false,
      "taf_trigger": false,
      "metar": "METAR LKMT 101330Z 25004KT 150V310 9999 FEW048 09/M02 Q1016 NOSIG",
      "taf": "TAF LKMT 101100Z 1012/1112 VRB02KT 9999 SCT045"
    },
    {
      "icao": "LKPR",
      "alert": "OK",
      "vis_m": 9999,
      "fzfg": false,
      "metar_trigger": false,
      "taf_trigger": false,
      "metar": "METAR LKPR 101330Z 19003KT 140V260 9999 FEW014 BKN018 OVC030 03/M00 Q1017 TEMPO BKN014",
      "taf": "TAF LKPR 101100Z 1012/1118 14006KT 9999 BKN035"
    },
    {
      "icao": "LLBG",
      "alert": "OK",
      "vis_m": 9999,
      "fzfg": false,
      "metar_trigger": false,
      "taf_trigger": false,
      "metar": "METAR LLBG 101320Z 26010KT 9999 SCT026 21/13 Q1015 NOSIG",
      "taf": "TAF LLBG 101102Z 1012/1112 28012KT 9999 SCT030 TX22/1012Z TN12/1103Z"
    },
    {
      "icao": "LMML",
      "alert": "OK",
      "vis_m": 9999,
      "fzfg": false,
      "metar_trigger": false,
      "taf_trigger": false,
      "metar": "METAR LMML 101345Z 27014KT CAVOK 24/10 Q1017 NOSIG",
      "taf": "TAF LMML 101100Z 1012/1112 26008KT CAVOK ."
    },
    {
      "icao": "LOWW",
      "alert": "OK",
      "vis_m": 9999,
      "fzfg": false,
      "metar_trigger": false,
      "taf_trigger": false,
      "metar": "METAR LOWW 101320Z 23006KT 190V260 9999 FEW008 BKN030 04/01 Q1018 NOSIG",
      "taf": "TAF LOWW 101115Z 1012/1118 VRB03KT 9999 -RA FEW012 BKN030 TX13/1115Z TN02/1104Z"
    },
    {
      "icao": "LPFR",
      "alert": "OK",
      "vis_m": 9999,
      "fzfg": false,
      "metar_trigger": false,
      "taf_trigger": false,
      "metar": "METAR LPFR 101330Z 26013KT 9999 FEW025 17/13 Q1013",
      "taf": "TAF LPFR 101100Z 1012/1112 25012KT 9999 FEW030"
    },
    {
      "icao": "LPMA",
      "alert": "OK",
      "vis_m": 9999,
      "fzfg": false,
      "metar_trigger": false,
      "taf_trigger": false,
      "metar": "METAR LPMA 101330Z 36016G26KT 320V030 9999 SCT015 FEW018TCU 18/13 Q1018",
      "taf": "TAF LPMA 101100Z 1012/1112 36015KT 9999 SCT015"
    },
    {
      "icao": "LPPR",
      "alert": "OK",
      "vis_m": 9999,
      "fzfg": false,
      "metar_trigger": false,
      "taf_trigger": false,
      "metar": "METAR LPPR 101330Z 29005KT 260V320 CAVOK 24/14 Q1013",
      "taf": "TAF LPPR 101100Z 1012/1112 08007KT CAVOK"
    },
    {
      "icao": "LPPS",
      "alert": "OK",
      "vis_m": 9999,
      "fzfg": false,
      "metar_trigger": false,
      "taf_trigger": false,
      "metar": "METAR LPPS 101330Z 36017KT 9999 SCT014 BKN030 17/14 Q1019",
      "taf": "TAF LPPS 101100Z 1012/1118 36018KT 9999 SCT012 SCT030"
    },
    {
      "icao": "LPPT",
      "alert": "OK",
      "vis_m": 9999,
      "fzfg": false,
      "metar_trigger": false,
      "taf_trigger": false,
      "metar": "METAR LPPT 101330Z 24006KT 170V320 9999 FEW025 23/15 Q1013",
      "taf": "TAF LPPT 101100Z 1012/1118 23010KT 9999 FEW030"
    },
    {
      "icao": "LQBK",
      "alert": "OK",
      "vis_m": 9999,
      "fzfg": false,
      "metar_trigger": false,
      "taf_trigger": false,
      "metar": "METAR LQBK 101330Z 01007KT CAVOK 16/M00 Q1015 NOSIG",
      "taf": "TAF LQBK 101100Z 1012/1112 17005KT CAVOK TX18/1013Z TN05/1104Z"
    },
    {
      "icao": "LQSA",
      "alert": "OK",
      "vis_m": 9999,
      "fzfg": false,
      "metar_trigger": false,
      "taf_trigger": false,
      "metar": "METAR LQSA 101330Z 33004KT 260V030 CAVOK 15/M04 Q1015 NOSIG",
      "taf": "TAF LQSA 101100Z 1012/1112 28006KT 9999 SCT060 TX16/1014Z TN03/1104Z"
    },
    {
      "icao": "LQTZ",
      "alert": "OK",
      "vis_m": 9999,
      "fzfg": false,
      "metar_trigger": false,
      "taf_trigger": false,
      "metar": "METAR LQTZ 101330Z 14005KT 100V180 9999 SCT070 15/M02 Q1016",
      "taf": "TAF LQTZ 101100Z 1012/1112 VRB02KT CAVOK TX16/1013Z TN04/1104Z"
    },
    {
      "icao": "LRBC",
      "alert": "OK",
      "vis_m": 9999,
      "fzfg": false,
      "metar_trigger": false,
      "taf_trigger": false,
      "metar": "METAR LRBC 101330Z 35006KT 280V030 9999 SCT039 BKN065 08/M02 Q1017",
      "taf": "TAF LRBC 101100Z 1012/1021 36010KT 9999 SCT020 BKN045"
    },
    {
      "icao": "LRBS",
      "alert": "OK",
      "vis_m": 9999,
      "fzfg": false,
      "metar_trigger": false,
      "taf_trigger": false,
      "metar": "METAR LRBS 101330Z VRB03KT 9999 FEW043 10/M01 Q1018 NOSIG",
      "taf": "TAF LRBS 101100Z 1012/1112 VRB04KT 9999 SCT045"
    },
    {
      "icao": "LRBV",
      "alert": "OK",
      "vis_m": 9999,
      "fzfg": false,
      "metar_trigger": false,
      "taf_trigger": false,
      "metar": "METAR LRBV 101330Z VRB02KT 9999 FEW036 SCT053 BKN072 06/M03 Q1016",
      "taf": "TAF LRBV 101100Z 1012/1021 VRB04KT 9999 SCT025"
    },
    {
      "icao": "LRCL",
      "alert": "OK",
      "vis_m": 9999,
      "fzfg": false,
      "metar_trigger": false,
      "taf_trigger": false,
      "metar": "METAR LRCL 101330Z 24005KT 200V280 9999 SCT071 10/M05 Q1016",
      "taf": "TAF LRCL 101100Z 1012/1021 VRB04KT 9999 SCT045"
    },
    {
      "icao": "LRCV",
      "alert": "OK",
      "vis_m": 9999,
      "fzfg": false,
      "metar_trigger": false,
      "taf_trigger": false,
      "metar": "METAR LRCV 101330Z 21008KT 9999 -SHRA BKN040CB 10/01 Q1017",
      "taf": "TAF LRCV 101100Z 1012/1021 22008KT 9999 SCT035"
    },
    {
      "icao": "LRIA",
      "alert": "OK",
      "vis_m": 9999,
      "fzfg": false,
      "metar_trigger": false,
      "taf_trigger": false,
      "metar": "METAR LRIA 101330Z 30010KT 9999 FEW032 07/M01 Q1018",
      "taf": "TAF LRIA 101100Z 1012/1021 33010KT 9999 BKN040"
    },
    {
      "icao": "LROP",
      "alert": "OK",
      "vis_m": 9999,
      "fzfg": false,
      "metar_trigger": false,
      "taf_trigger": false,
      "metar": "METAR LROP 101330Z VRB02KT 9999 FEW048 10/M06 Q1018 NOSIG",
      "taf": "TAF LROP 101100Z 1012/1112 VRB04KT 9999 SCT045"
    },
    {
      "icao": "LRSB",
      "alert": "OK",
      "vis_m": 9999,
      "fzfg": false,
      "metar_trigger": false,
      "taf_trigger": false,
      "metar": "METAR LRSB 101330Z 29006KT 250V310 9999 FEW055 09/M05 Q1015",
      "taf": "TAF LRSB 101100Z 1012/1112 VRB04KT 9999 SCT045"
    },
    {
      "icao": "LRSM",
      "alert": "OK",
      "vis_m": 9999,
      "fzfg": false,
      "metar_trigger": false,
      "taf_trigger": false,
      "metar": "METAR LRSM 101330Z 33006KT 270V350 CAVOK 12/M08 Q1017",
      "taf": "TAF LRSM 101100Z 1012/1021 VRB04KT CAVOK"
    },
    {
      "icao": "LRSV",
      "alert": "OK",
      "vis_m": 9999,
      "fzfg": false,
      "metar_trigger": false,
      "taf_trigger": false,
      "metar": "METAR LRSV 101330Z 30008KT 280V340 9999 SCT035 04/M03 Q1017",
      "taf": "TAF LRSV 101100Z 1012/1021 34010KT 9999 BKN035"
    },
    {
      "icao": "LRTM",
      "alert": "OK",
      "vis_m": 9999,
      "fzfg": false,
      "metar_trigger": false,
      "taf_trigger": false,
      "metar": "METAR LRTM 101330Z VRB03KT 9999 SCT035 10/M04 Q1016",
      "taf": "TAF LRTM 101100Z 1012/1021 VRB04KT 9999 SCT040"
    },
    {
      "icao": "LRTR",
      "alert": "OK",
      "vis_m": 9999,
      "fzfg": false,
      "metar_trigger": false,
      "taf_trigger": false,
      "metar": "METAR LRTR 101330Z 30008KT 270V330 CAVOK 12/M02 Q1016",
      "taf": "TAF LRTR 101100Z 1012/1112 31010KT 9999 SCT035"
    },
    {
      "icao": "LTAC",
      "alert": "OK",
      "vis_m": 9999,
      "fzfg": false,
      "metar_trigger": false,
      "taf_trigger": false,
      "metar": "METAR LTAC 101320Z VRB05KT 9999 SCT035 BKN080 07/M04 Q1012 NOSIG RMK RWY21C 32011KT 260V360 RWY03L 35010KT 310V010 RWY21R 31012KT 260V350 RWY03R VRB04KT RWY21L 12006KT 070V130",
      "taf": "TAF LTAC 101040Z 1012/1112 VRB02KT 9999 SCT035 BKN100"
    },
    {
      "icao": "LTFM",
      "alert": "OK",
      "vis_m": 9999,
      "fzfg": false,
      "metar_trigger": false,
      "taf_trigger": false,
      "metar": "METAR LTFM 101320Z 07009KT 020V090 9999 SCT023 BKN080 08/03 Q1018 NOSIG RMK RWY17L 07010KT 030V090 RWY34L 05008KT RWY16R 06009KT 020V080 RWY36 06010KT 020V090 RWY18 07009KT",
      "taf": "TAF LTFM 101040Z 1012/1118 02012KT 9999 SCT025 BKN080"
    },
    {
      "icao": "LUKK",
      "alert": "OK",
      "vis_m": 9999,
      "fzfg": false,
      "metar_trigger": false,
      "taf_trigger": false,
      "metar": "METAR LUKK 101330Z 31009KT 280V360 CAVOK 08/M03 Q1017 NOSIG",
      "taf": "TAF LUKK 101101Z 1012/1112 34010KT 9999 BKN035"
    },
    {
      "icao": "LWOH",
      "alert": "OK",
      "vis_m": 9999,
      "fzfg": false,
      "metar_trigger": false,
      "taf_trigger": false,
      "metar": "METAR LWOH 101320Z 14009KT 9999 FEW043 16/01 Q1014",
      "taf": "TAF LWOH 101115Z 1012/1112 17010KT 9999 FEW040"
    },
    {
      "icao": "LWSK",
      "alert": "OK",
      "vis_m": null,
      "fzfg": false,
      "metar_trigger": false,
      "taf_trigger": false,
      "metar": "",
      "taf": "TAF LWSK 101115Z 1012/1112 04010KT CAVOK"
    },
    {
      "icao": "LYBE",
      "alert": "OK",
      "vis_m": 9999,
      "fzfg": false,
      "metar_trigger": false,
      "taf_trigger": false,
      "metar": "METAR LYBE 101330Z 36003KT 310V040 CAVOK 14/M00 Q1017 NOSIG",
      "taf": "TAF LYBE 101100Z 1012/1112 04005KT CAVOK TX14/1013Z TN06/1104Z"
    },
    {
      "icao": "LYNI",
      "alert": "OK",
      "vis_m": 9999,
      "fzfg": false,
      "metar_trigger": false,
      "taf_trigger": false,
      "metar": "METAR LYNI 101330Z 34010KT 320V020 9999 FEW050 14/M04 Q1017 NOSIG",
      "taf": "TAF LYNI 101100Z 1012/1112 32012KT 9999 SCT050 BKN080 TX15/1012Z TN06/1105Z"
    },
    {
      "icao": "LYPG",
      "alert": "OK",
      "vis_m": 9999,
      "fzfg": false,
      "metar_trigger": false,
      "taf_trigger": false,
      "metar": "METAR LYPG 101330Z 19008KT 140V220 CAVOK 20/M00 Q1014 TEMPO 18018KT",
      "taf": "TAF LYPG 101100Z 1012/1112 17008KT 9999 FEW090 TX22/1013Z TN11/1104Z"
    },
    {
      "icao": "LZIB",
      "alert": "OK",
      "vis_m": 9999,
      "fzfg": false,
      "metar_trigger": false,
      "taf_trigger": false,
      "metar": "METAR LZIB 101330Z VRB02KT 9999 FEW043 08/M02 Q1018 NOSIG",
      "taf": ""
    },
    {
      "icao": "LZKZ",
      "alert": "OK",
      "vis_m": 9999,
      "fzfg": false,
      "metar_trigger": false,
      "taf_trigger": false,
      "metar": "METAR LZKZ 101330Z 34004KT 290V040 CAVOK 09/M07 Q1017 NOSIG",
      "taf": "TAF LZKZ 101115Z 1012/1112 01006KT 9999 FEW045"
    },
    {
      "icao": "LZTT",
      "alert": "OK",
      "vis_m": 9999,
      "fzfg": false,
      "metar_trigger": false,
      "taf_trigger": false,
      "metar": "METAR LZTT 101330Z 17006KT 100V230 9999 FEW060 08/M08 Q1014 NOSIG",
      "taf": "TAF LZTT 101115Z 1012/1112 07007KT 9999 SCT045"
    },
    {
      "icao": "OEJN",
      "alert": "OK",
      "vis_m": 9999,
      "fzfg": false,
      "metar_trigger": false,
      "taf_trigger": false,
      "metar": "METAR OEJN 101300Z 32017KT CAVOK 30/12 Q1010 NOSIG",
      "taf": "TAF OEJN 101100Z 1012/1118 30016KT CAVOK"
    },
    {
      "icao": "OEMA",
      "alert": "OK",
      "vis_m": 9999,
      "fzfg": false,
      "metar_trigger": false,
      "taf_trigger": false,
      "metar": "METAR OEMA 101300Z 23013KT CAVOK 32/M15 Q1012 NOSIG",
      "taf": "TAF OEMA 101100Z 1012/1118 24015KT 7000 NSC"
    },
    {
      "icao": "OJAI",
      "alert": "OK",
      "vis_m": 5000,
      "fzfg": false,
      "metar_trigger": false,
      "taf_trigger": false,
      "metar": "METAR OJAI 101300Z 26016KT 5000 BLDU FEW030 19/07 Q1015 NOSIG",
      "taf": "TAF OJAI 101038Z 1012/1118 25012KT 5000 HZ NSC"
    },
    {
      "icao": "OMAA",
      "alert": "OK",
      "vis_m": null,
      "fzfg": false,
      "metar_trigger": false,
      "taf_trigger": false,
      "metar": "",
      "taf": ""
    },
    {
      "icao": "OMDB",
      "alert": "OK",
      "vis_m": null,
      "fzfg": false,
      "metar_trigger": false,
      "taf_trigger": false,
      "metar": "",
      "taf": ""
    },
    {
      "icao": "UAAA",
      "alert": "OK",
      "vis_m": 9999,
      "fzfg": false,
      "metar_trigger": false,
      "taf_trigger": false,
      "metar": "METAR UAAA 101330Z 10001MPS 9999 SCT050CB BKN100 16/09 Q1020 NOSIG",
      "taf": "TAF UAAA 101101Z 1012/1112 21002G07MPS 9999 SCT050CB BKN100 TX19/1108Z TN07/1101Z"
    },
    {
      "icao": "UBBB",
      "alert": "OK",
      "vis_m": 9999,
      "fzfg": false,
      "metar_trigger": false,
      "taf_trigger": false,
      "metar": "METAR UBBB 101330Z 18014KT 9999 BKN012 14/11 Q1012 NOSIG",
      "taf": "TAF UBBB 101056Z 1012/1112 17016KT 9999 SCT012 BKN025 TX14/1012Z TN07/1101Z"
    },
    {
      "icao": "UDSG",
      "alert": "OK",
      "vis_m": 9999,
      "fzfg": false,
      "metar_trigger": false,
      "taf_trigger": false,
      "metar": "METAR UDSG 101330Z 28009KT 9999 BKN036CB 07/04 Q1011 NOSIG",
      "taf": "TAF UDSG 101058Z 1012/1112 18010KT 9999 BKN030"
    },
    {
      "icao": "UDYZ",
      "alert": "OK",
      "vis_m": 9999,
      "fzfg": false,
      "metar_trigger": false,
      "taf_trigger": false,
      "metar": "METAR UDYZ 101330Z 32003KT 9999 SCT043CB 16/07 Q1009 NOSIG",
      "taf": "TAF UDYZ 101100Z 1012/1112 30006KT 9999 SCT040"
    },
    {
      "icao": "UGKO",
      "alert": "OK",
      "vis_m": 9999,
      "fzfg": false,
      "metar_trigger": false,
      "taf_trigger": false,
      "metar": "METAR UGKO 101330Z 35003KT 320V020 9999 BKN023CB OVC032 11/06 Q1014 NOSIG",
      "taf": "TAF UGKO 101100Z 1012/1112 26007KT 9999 SCT022 BKN050 TX13/1111Z TN05/1103Z"
    }
  ]
}