{
  "ts_utc": "2026-01-26T16:00:36Z",
  "threshold_m": 150,
  "source": "stations_override.txt (ICAO list) + aviationweather.gov (METAR/TAF raw)",
  "station_count": 159,
  "stations": [
    {
      "icao": "BIKF",
      "alert": "OK",
      "vis_m": 9999,
      "fzfg": false,
      "metar_trigger": false,
      "taf_trigger": false,
      "metar": "METAR BIKF 261530Z 07022KT 9999 SCT049 BKN180 05/M01 Q0998",
      "taf": "TAF BIKF 261330Z 2615/2715 08022G32KT 9999 FEW025 SCT045 TX05/2615Z TN02/2709Z"
    },
    {
      "icao": "BKPR",
      "alert": "OK",
      "vis_m": null,
      "fzfg": false,
      "metar_trigger": false,
      "taf_trigger": false,
      "metar": "",
      "taf": "TAF BKPR 261130Z 2612/2712 15008KT 9999 SCT020 BKN060"
    },
    {
      "icao": "EBCI",
      "alert": "OK",
      "vis_m": 3500,
      "fzfg": false,
      "metar_trigger": false,
      "taf_trigger": false,
      "metar": "METAR EBCI 261550Z 35004KT 320V030 3500 BR SCT004 OVC005 01/M01 Q1003 NOSIG",
      "taf": "TAF EBCI 261110Z 2612/2718 VRB03KT 2000 BR BKN003"
    },
    {
      "icao": "EDDB",
      "alert": "OK",
      "vis_m": 9999,
      "fzfg": false,
      "metar_trigger": false,
      "taf_trigger": false,
      "metar": "METAR EDDB 261550Z AUTO 19006KT 9999 FEW011 M01/M02 Q0998 TEMPO 4000 -SN BKN009",
      "taf": ""
    },
    {
      "icao": "EDDH",
      "alert": "OK",
      "vis_m": 9999,
      "fzfg": false,
      "metar_trigger": false,
      "taf_trigger": false,
      "metar": "METAR EDDH 261550Z AUTO 01005KT 330V040 9999 -SN OVC006 01/00 Q0999 TEMPO 2500 SN BKN004",
      "taf": "TAF EDDH 261100Z 2612/2718 06007KT 8000 OVC007"
    },
    {
      "icao": "EDDK",
      "alert": "OK",
      "vis_m": 2600,
      "fzfg": false,
      "metar_trigger": false,
      "taf_trigger": false,
      "metar": "METAR EDDK 261550Z AUTO 28010KT 2600 -SN BR BKN005 M01/M02 Q1003 TEMPO 1400 -FZDZ",
      "taf": "TAF EDDK 261100Z 2612/2718 29008KT 2900 BR BKN005"
    },
    {
      "icao": "EDDN",
      "alert": "OK",
      "vis_m": 1700,
      "fzfg": false,
      "metar_trigger": false,
      "taf_trigger": false,
      "metar": "METAR EDDN 261550Z AUTO 31004KT 1700 SN BR BKN005 BKN009 M00/M01 Q1001 TEMPO 1200 SN OVC001",
      "taf": "TAF EDDN 261100Z 2612/2712 25005KT 2000 -SN BR OVC003"
    },
    {
      "icao": "EDDS",
      "alert": "OK",
      "vis_m": 9999,
      "fzfg": false,
      "metar_trigger": false,
      "taf_trigger": false,
      "metar": "METAR EDDS 261550Z AUTO VRB02KT 9999 BKN025 BKN029 05/01 Q1001 NOSIG",
      "taf": ""
    },
    {
      "icao": "EDFH",
      "alert": "OK",
      "vis_m": 9999,
      "fzfg": false,
      "metar_trigger": false,
      "taf_trigger": false,
      "metar": "METAR EDFH 261550Z 28012KT 9999 FEW010 SCT012 BKN020 02/M00 Q1001",
      "taf": "TAF EDFH 261100Z 2612/2712 27010KT 8000 BKN006"
    },
    {
      "icao": "EDJA",
      "alert": "OK",
      "vis_m": 9999,
      "fzfg": false,
      "metar_trigger": false,
      "taf_trigger": false,
      "metar": "METAR EDJA 261550Z 23014KT 9999 SCT014 SCT024 OVC032 03/00 Q1002",
      "taf": "TAF EDJA 261400Z 2615/2624 23012KT 9999 OVC010"
    },
    {
      "icao": "EDLW",
      "alert": "OK",
      "vis_m": 2400,
      "fzfg": false,
      "metar_trigger": false,
      "taf_trigger": false,
      "metar": "METAR EDLW 261550Z 26005KT 230V330 2400 BR BKN004 OVC009 00/M00 Q1001 RESN",
      "taf": "TAF EDLW 261100Z 2612/2712 27006KT 6000 OVC006"
    },
    {
      "icao": "EDNY",
      "alert": "OK",
      "vis_m": 9999,
      "fzfg": false,
      "metar_trigger": false,
      "taf_trigger": false,
      "metar": "METAR EDNY 261550Z 23011KT 9999 SCT043 05/02 Q1004",
      "taf": "TAF EDNY 261400Z 2615/2624 25012KT 9999 SCT025"
    },
    {
      "icao": "EDSB",
      "alert": "OK",
      "vis_m": 9999,
      "fzfg": false,
      "metar_trigger": false,
      "taf_trigger": false,
      "metar": "METAR EDSB 261550Z 23008KT 200V260 9999 VCSH FEW020 BKN028 BKN034 06/03 Q1003",
      "taf": "TAF EDSB 261100Z 2612/2712 21007KT 6000 BKN020"
    },
    {
      "icao": "EETN",
      "alert": "OK",
      "vis_m": 9999,
      "fzfg": false,
      "metar_trigger": false,
      "taf_trigger": false,
      "metar": "METAR EETN 261550Z 01003KT CAVOK M11/M12 Q1010 NOSIG",
      "taf": "TAF EETN 261130Z 2612/2712 VRB02KT 9999 OVC012"
    },
    {
      "icao": "EFTU",
      "alert": "OK",
      "vis_m": 9999,
      "fzfg": false,
      "metar_trigger": false,
      "taf_trigger": false,
      "metar": "METAR EFTU 261550Z AUTO VRB01KT 9999 BKN027 M06/M08 Q1012",
      "taf": "TAF EFTU 261425Z 2615/2715 36004KT 9999 BKN030"
    },
    {
      "icao": "EGBB",
      "alert": "OK",
      "vis_m": 6000,
      "fzfg": false,
      "metar_trigger": false,
      "taf_trigger": false,
      "metar": "METAR EGBB 261550Z 12009KT 6000 BKN011 04/02 Q0999",
      "taf": ""
    },
    {
      "icao": "EGGP",
      "alert": "OK",
      "vis_m": 8000,
      "fzfg": false,
      "metar_trigger": false,
      "taf_trigger": false,
      "metar": "METAR EGGP 261550Z 12010KT 8000 BKN015 OVC030 04/01 Q0998",
      "taf": "TAF EGGP 261057Z 2612/2712 12010KT 9999 SCT025"
    },
    {
      "icao": "EGGW",
      "alert": "OK",
      "vis_m": 6000,
      "fzfg": false,
      "metar_trigger": false,
      "taf_trigger": false,
      "metar": "METAR EGGW 261550Z AUTO 13008KT 6000 BKN011 04/02 Q1000",
      "taf": ""
    },
    {
      "icao": "EGKK",
      "alert": "OK",
      "vis_m": 8000,
      "fzfg": false,
      "metar_trigger": false,
      "taf_trigger": false,
      "metar": "METAR EGKK 261550Z 11008KT 8000 BKN010 06/05 Q1000",
      "taf": "TAF EGKK 261101Z 2612/2718 06005KT 4000 BR BKN009"
    },
    {
      "icao": "EGNM",
      "alert": "OK",
      "vis_m": 6000,
      "fzfg": false,
      "metar_trigger": false,
      "taf_trigger": false,
      "metar": "METAR EGNM 261550Z 10007KT 6000 FEW006 BKN009 01/00 Q1000",
      "taf": "TAF EGNM 261056Z 2612/2712 11008KT 7000 BKN010"
    },
    {
      "icao": "EGPD",
      "alert": "OK",
      "vis_m": 9000,
      "fzfg": false,
      "metar_trigger": false,
      "taf_trigger": false,
      "metar": "METAR EGPD 261550Z COR 14014KT 9000 -RA SCT012 BKN018 05/03 Q1002 TEMPO RA",
      "taf": "TAF EGPD 261056Z 2612/2712 12009KT 9999 SCT016 BKN030"
    },
    {
      "icao": "EGPF",
      "alert": "OK",
      "vis_m": 9999,
      "fzfg": false,
      "metar_trigger": false,
      "taf_trigger": false,
      "metar": "METAR EGPF 261550Z AUTO 11010KT 9999 OVC026 05/00 Q0998",
      "taf": "TAF EGPF 261058Z 2612/2712 08011KT 9999 FEW018 SCT030"
    },
    {
      "icao": "EHBK",
      "alert": "OK",
      "vis_m": 2700,
      "fzfg": false,
      "metar_trigger": false,
      "taf_trigger": false,
      "metar": "METAR EHBK 261525Z AUTO 23006KT 2700 BR OVC002/// M01/M01 Q1003 BECMG 3000",
      "taf": ""
    },
    {
      "icao": "EHEH",
      "alert": "OK",
      "vis_m": null,
      "fzfg": false,
      "metar_trigger": false,
      "taf_trigger": false,
      "metar": "",
      "taf": "TAF EHEH 261150Z 2612/2718 29006KT 2500 BR BKN007"
    },
    {
      "icao": "EKBI",
      "alert": "OK",
      "vis_m": 9999,
      "fzfg": false,
      "metar_trigger": false,
      "taf_trigger": false,
      "metar": "METAR EKBI 261550Z AUTO 04012KT 9999 OVC013/// M02/M04 Q1005",
      "taf": "TAF EKBI 261427Z 2615/2715 05015KT 9999 BKN018"
    },
    {
      "icao": "EKCH",
      "alert": "OK",
      "vis_m": 9999,
      "fzfg": false,
      "metar_trigger": false,
      "taf_trigger": false,
      "metar": "METAR EKCH 261550Z 05015KT 9999 OVC014 00/M03 Q1004 TEMPO BKN008",
      "taf": ""
    },
    {
      "icao": "ENAL",
      "alert": "OK",
      "vis_m": 9999,
      "fzfg": false,
      "metar_trigger": false,
      "taf_trigger": false,
      "metar": "METAR ENAL 261550Z 20003KT 180V240 CAVOK M05/M08 Q1011",
      "taf": "TAF ENAL 261400Z 2615/2624 17005KT CAVOK"
    },
    {
      "icao": "ENBR",
      "alert": "OK",
      "vis_m": 9999,
      "fzfg": false,
      "metar_trigger": false,
      "taf_trigger": false,
      "metar": "METAR ENBR 261550Z 07002KT CAVOK M04/M10 Q1010 NOSIG RMK WIND 1200FT 05003KT",
      "taf": "TAF ENBR 261100Z 2612/2712 VRB03KT CAVOK"
    },
    {
      "icao": "ENGM",
      "alert": "OK",
      "vis_m": 9999,
      "fzfg": false,
      "metar_trigger": false,
      "taf_trigger": false,
      "metar": "METAR ENGM 261550Z 01004KT 330V070 CAVOK M12/M14 Q1013 NOSIG",
      "taf": "TAF ENGM 261100Z 2612/2712 36008KT CAVOK"
    },
    {
      "icao": "ENHD",
      "alert": "OK",
      "vis_m": 9999,
      "fzfg": false,
      "metar_trigger": false,
      "taf_trigger": false,
      "metar": "METAR ENHD 261550Z /////KT CAVOK M04/M11 Q1010 RMK WIND RWY 31 00000KT",
      "taf": "TAF ENHD 261400Z 2615/2623 12005KT CAVOK"
    },
    {
      "icao": "ENTC",
      "alert": "OK",
      "vis_m": 9999,
      "fzfg": false,
      "metar_trigger": false,
      "taf_trigger": false,
      "metar": "METAR ENTC 261550Z 15003KT 100V170 9999 SCT030 BKN053 M04/M07 Q1012 NOSIG RMK WIND 2600FT 35019KT",
      "taf": "TAF ENTC 261100Z 2612/2712 04006KT 9999 FEW012 BKN030"
    },
    {
      "icao": "ENTO",
      "alert": "OK",
      "vis_m": 9999,
      "fzfg": false,
      "metar_trigger": false,
      "taf_trigger": false,
      "metar": "METAR ENTO 261550Z 02005KT CAVOK M10/M13 Q1013 NOSIG",
      "taf": "TAF ENTO 261100Z 2612/2712 01010KT CAVOK"
    },
    {
      "icao": "ENVA",
      "alert": "OK",
      "vis_m": 9999,
      "fzfg": false,
      "metar_trigger": false,
      "taf_trigger": false,
      "metar": "METAR ENVA 261550Z 08005KT CAVOK M10/M12 Q1014 NOSIG RMK WIND 670FT 11008KT",
      "taf": "TAF ENVA 261100Z 2612/2712 11008KT CAVOK"
    },
    {
      "icao": "ENZV",
      "alert": "OK",
      "vis_m": 9999,
      "fzfg": false,
      "metar_trigger": false,
      "taf_trigger": false,
      "metar": "METAR ENZV 261550Z 20004KT CAVOK M03/M15 Q1010 NOSIG",
      "taf": "TAF ENZV 261100Z 2612/2712 12006KT CAVOK"
    },
    {
      "icao": "EPGD",
      "alert": "OK",
      "vis_m": 3700,
      "fzfg": false,
      "metar_trigger": false,
      "taf_trigger": false,
      "metar": "METAR EPGD 261530Z 09007KT 3700 BR OVC003 M03/M04 Q1000 REFZRA",
      "taf": "TAF EPGD 261130Z 2612/2712 09010KT 6000 -FZRA OVC005"
    },
    {
      "icao": "EPKK",
      "alert": "OK",
      "vis_m": 6000,
      "fzfg": false,
      "metar_trigger": false,
      "taf_trigger": false,
      "metar": "METAR EPKK 261530Z 29002KT 6000 NSC 03/01 Q1000",
      "taf": "TAF EPKK 261430Z 2615/2715 22004KT 9999 SCT040"
    },
    {
      "icao": "EPKT",
      "alert": "OK",
      "vis_m": 8000,
      "fzfg": false,
      "metar_trigger": false,
      "taf_trigger": false,
      "metar": "METAR EPKT 261530Z 17005KT 8000 NSC 04/02 Q1000",
      "taf": "TAF EPKT 261130Z 2612/2712 22007KT 9999 BKN030"
    },
    {
      "icao": "EPLB",
      "alert": "OK",
      "vis_m": 9999,
      "fzfg": false,
      "metar_trigger": false,
      "taf_trigger": false,
      "metar": "METAR EPLB 261530Z 12004KT 9999 BKN042 01/00 Q1002",
      "taf": "TAF EPLB 261130Z 2612/2712 11012KT 9999 BKN035"
    },
    {
      "icao": "EPMO",
      "alert": "OK",
      "vis_m": 7000,
      "fzfg": false,
      "metar_trigger": false,
      "taf_trigger": false,
      "metar": "METAR EPMO 261530Z 14003KT 100V170 7000 SCT016 BKN036 00/M00 Q1001",
      "taf": "TAF EPMO 261130Z 2612/2712 10012KT 4000 -RA BR BKN008"
    },
    {
      "icao": "EPPO",
      "alert": "OK",
      "vis_m": 300,
      "fzfg": false,
      "metar_trigger": false,
      "taf_trigger": false,
      "metar": "METAR EPPO 261530Z 08005KT 0300 R28/0900N FG VV002 01/00 Q0999",
      "taf": ""
    },
    {
      "icao": "EPRA",
      "alert": "OK",
      "vis_m": 9999,
      "fzfg": false,
      "metar_trigger": false,
      "taf_trigger": false,
      "metar": "METAR EPRA 261530Z 15005KT 9999 SCT040 02/00 Q1001",
      "taf": "TAF EPRA 261430Z 2615/2624 16006KT 8000 BKN040"
    },
    {
      "icao": "EPRZ",
      "alert": "OK",
      "vis_m": 8000,
      "fzfg": false,
      "metar_trigger": false,
      "taf_trigger": false,
      "metar": "METAR EPRZ 261530Z 05004KT 8000 -RA FEW043 02/01 Q1001",
      "taf": "TAF EPRZ 261130Z 2612/2712 10012KT 9999 BKN040"
    },
    {
      "icao": "EPSC",
      "alert": "OK",
      "vis_m": 4000,
      "fzfg": false,
      "metar_trigger": false,
      "taf_trigger": false,
      "metar": "METAR EPSC 261530Z 10005KT 4000 BR OVC004 M01/M01 Q0999",
      "taf": ""
    },
    {
      "icao": "EPSY",
      "alert": "OK",
      "vis_m": 4400,
      "fzfg": false,
      "metar_trigger": false,
      "taf_trigger": false,
      "metar": "METAR EPSY 261530Z 10003KT 060V130 4400 -FZDZ BR OVC003 M03/M03 Q1001",
      "taf": ""
    },
    {
      "icao": "EPWA",
      "alert": "OK",
      "vis_m": 9999,
      "fzfg": false,
      "metar_trigger": false,
      "taf_trigger": false,
      "metar": "METAR EPWA 261530Z 13004KT 9999 BKN026 01/00 Q1001 NOSIG",
      "taf": "TAF EPWA 261430Z 2615/2715 13005KT 8000 SCT012 BKN025"
    },
    {
      "icao": "EPWR",
      "alert": "OK",
      "vis_m": 9999,
      "fzfg": false,
      "metar_trigger": false,
      "taf_trigger": false,
      "metar": "METAR EPWR 261530Z 22008KT 200V260 9999 FEW034 06/M01 Q0999",
      "taf": "TAF EPWR 261430Z 2615/2715 21010KT 9999 SCT030"
    },
    {
      "icao": "ESGG",
      "alert": "OK",
      "vis_m": 9999,
      "fzfg": false,
      "metar_trigger": false,
      "taf_trigger": false,
      "metar": "METAR ESGG 261550Z 05010KT 9999 BKN017 M05/M08 Q1008",
      "taf": "TAF ESGG 261430Z 2615/2715 04013KT 9999 BKN020"
    },
    {
      "icao": "ESKN",
      "alert": "OK",
      "vis_m": 9999,
      "fzfg": false,
      "metar_trigger": false,
      "taf_trigger": false,
      "metar": "METAR ESKN 261550Z 02008KT 9999 FEW030 M05/M08 Q1012",
      "taf": "TAF ESKN 261430Z 2615/2715 02009KT 9999 BKN025"
    },
    {
      "icao": "ESMS",
      "alert": "OK",
      "vis_m": 2200,
      "fzfg": false,
      "metar_trigger": false,
      "taf_trigger": false,
      "metar": "METAR ESMS 261550Z 06016KT 2200 -SN BKN008 OVC013 00/M01 Q1002",
      "taf": "TAF ESMS 261427Z 2615/2715 06012KT 9999 BKN012"
    },
    {
      "icao": "ESSA",
      "alert": "OK",
      "vis_m": 9999,
      "fzfg": false,
      "metar_trigger": false,
      "taf_trigger": false,
      "metar": "METAR ESSA 261550Z VRB02KT 9999 BKN014 M08/M11 Q1013 TEMPO BKN016",
      "taf": "TAF ESSA 261430Z 2615/2715 01008KT CAVOK"
    },
    {
      "icao": "EYKA",
      "alert": "OK",
      "vis_m": 4800,
      "fzfg": false,
      "metar_trigger": false,
      "taf_trigger": false,
      "metar": "METAR EYKA 261550Z 08007KT 4800 -FZRA BR OVC008 M05/M06 Q1005",
      "taf": "TAF EYKA 261105Z 2612/2712 10008KT 9000 OVC015"
    },
    {
      "icao": "EYPA",
      "alert": "OK",
      "vis_m": 9000,
      "fzfg": false,
      "metar_trigger": false,
      "taf_trigger": false,
      "metar": "METAR EYPA 261550Z 08006KT 9000 -SN FEW013 OVC019 M06/M09 Q1006",
      "taf": "TAF EYPA 261105Z 2612/2712 08008KT 9000 OVC015"
    },
    {
      "icao": "EYVI",
      "alert": "OK",
      "vis_m": 6000,
      "fzfg": false,
      "metar_trigger": false,
      "taf_trigger": false,
      "metar": "METAR EYVI 261550Z 13008KT 6000 -FZRA OVC006 M06/M07 Q1005 NOSIG",
      "taf": "TAF EYVI 261102Z 2612/2712 14010KT 8000 OVC005"
    },
    {
      "icao": "GCFV",
      "alert": "OK",
      "vis_m": 9999,
      "fzfg": false,
      "metar_trigger": false,
      "taf_trigger": false,
      "metar": "METAR GCFV 261530Z 12006KT 080V170 9999 FEW035 19/10 Q1023",
      "taf": "TAF GCFV 261400Z 2615/2715 27005KT CAVOK TX22/2714Z TN12/2706Z"
    },
    {
      "icao": "GCLP",
      "alert": "OK",
      "vis_m": 9999,
      "fzfg": false,
      "metar_trigger": false,
      "taf_trigger": false,
      "metar": "METAR GCLP 261530Z 13005KT 080V160 9999 BKN034 19/11 Q1023 NOSIG",
      "taf": "TAF GCLP 261400Z 2615/2715 13005KT 9999 SCT035 TX22/2714Z TN12/2706Z"
    },
    {
      "icao": "GCTS",
      "alert": "OK",
      "vis_m": 9999,
      "fzfg": false,
      "metar_trigger": false,
      "taf_trigger": false,
      "metar": "METAR GCTS 261530Z 24013KT 200V260 9999 FEW035 19/10 Q1023 NOSIG",
      "taf": "TAF GCTS 261400Z 2615/2715 22010KT 9999 SCT035 TX22/2714Z TN14/2706Z"
    },
    {
      "icao": "GMAD",
      "alert": "OK",
      "vis_m": 9999,
      "fzfg": false,
      "metar_trigger": false,
      "taf_trigger": false,
      "metar": "METAR GMAD 261530Z 00000KT 9999 FEW020 20/13 Q1021 NOSIG",
      "taf": "TAF GMAD 261100Z 2612/2718 06005KT 8000 NSC"
    },
    {
      "icao": "GMMN",
      "alert": "OK",
      "vis_m": 9999,
      "fzfg": false,
      "metar_trigger": false,
      "taf_trigger": false,
      "metar": "METAR GMMN 261530Z 24009KT 9999 BKN026 17/13 Q1021 NOSIG",
      "taf": "TAF GMMN 261100Z 2612/2718 20012KT 9999 SCT030"
    },
    {
      "icao": "GMMX",
      "alert": "OK",
      "vis_m": 9999,
      "fzfg": false,
      "metar_trigger": false,
      "taf_trigger": false,
      "metar": "METAR GMMX 261530Z VRB03KT CAVOK 17/08 Q1021 NOSIG",
      "taf": "TAF GMMX 261100Z 2612/2718 24006KT 8000 NSC"
    },
    {
      "icao": "HEGN",
      "alert": "OK",
      "vis_m": 9999,
      "fzfg": false,
      "metar_trigger": false,
      "taf_trigger": false,
      "metar": "METAR HEGN 261500Z 08004KT CAVOK 23/12 Q1015 NOSIG",
      "taf": "TAF HEGN 261100Z 2612/2718 12012KT CAVOK"
    },
    {
      "icao": "HEMA",
      "alert": "OK",
      "vis_m": 6000,
      "fzfg": false,
      "metar_trigger": false,
      "taf_trigger": false,
      "metar": "METAR HEMA 261500Z 06004KT 6000 NSC 22/13 Q1014 NOSIG",
      "taf": "TAF HEMA 261100Z 2612/2718 13012KT CAVOK"
    },
    {
      "icao": "HESH",
      "alert": "OK",
      "vis_m": 9999,
      "fzfg": false,
      "metar_trigger": false,
      "taf_trigger": false,
      "metar": "METAR HESH 261500Z 16008KT CAVOK 23/11 Q1015 NOSIG",
      "taf": "TAF HESH 261100Z 2612/2718 18012KT CAVOK"
    },
    {
      "icao": "HESX",
      "alert": "OK",
      "vis_m": 9999,
      "fzfg": false,
      "metar_trigger": false,
      "taf_trigger": false,
      "metar": "METAR HESX 261500Z 22008KT CAVOK 21/02 Q1013 NOSIG",
      "taf": "TAF HESX 261100Z 2612/2718 18011KT 9999 FEW030 SCT100"
    },
    {
      "icao": "LATI",
      "alert": "OK",
      "vis_m": 9999,
      "fzfg": false,
      "metar_trigger": false,
      "taf_trigger": false,
      "metar": "METAR LATI 261550Z 29002KT 9999 FEW035 11/06 Q0999 NOSIG",
      "taf": "TAF LATI 261100Z 2612/2712 VRB05KT 9999 SCT012 BKN060 TX14/2712Z TN05/2704Z"
    },
    {
      "icao": "LBPD",
      "alert": "OK",
      "vis_m": 5000,
      "fzfg": false,
      "metar_trigger": false,
      "taf_trigger": false,
      "metar": "METAR LBPD 261530Z AUTO 30006KT 5000 BR BKN013/// BKN035/// 07/07 Q0998 NOSIG",
      "taf": "TAF LBPD 261100Z 2612/2712 VRB04KT 5000 BR BKN004 OVC050"
    },
    {
      "icao": "LBSF",
      "alert": "OK",
      "vis_m": 6000,
      "fzfg": false,
      "metar_trigger": false,
      "taf_trigger": false,
      "metar": "METAR LBSF 261530Z 06005KT 6000 RA SCT019 SCT029 OVC056 07/06 Q0998 TEMPO 3000 RA",
      "taf": "TAF LBSF 261100Z 2612/2712 14010KT 9999 SCT012 OVC025"
    },
    {
      "icao": "LBWN",
      "alert": "OK",
      "vis_m": 9999,
      "fzfg": false,
      "metar_trigger": false,
      "taf_trigger": false,
      "metar": "METAR LBWN 261530Z 11009KT 070V130 9999 FEW025 BKN047 10/08 Q1003 NOSIG",
      "taf": "TAF LBWN 261100Z 2612/2712 10010KT 9999 SCT040"
    },
    {
      "icao": "LCLK",
      "alert": "OK",
      "vis_m": 9999,
      "fzfg": false,
      "metar_trigger": false,
      "taf_trigger": false,
      "metar": "METAR LCLK 261530Z 10012KT 9999 FEW020 SCT035 17/14 Q1013 NOSIG",
      "taf": "TAF LCLK 261130Z 2612/2712 10013KT 9999 FEW020"
    },
    {
      "icao": "LCPH",
      "alert": "OK",
      "vis_m": 9999,
      "fzfg": false,
      "metar_trigger": false,
      "taf_trigger": false,
      "metar": "METAR LCPH 261530Z 10015KT 090V160 9999 FEW030 17/12 Q1012 NOSIG",
      "taf": "TAF LCPH 261130Z 2612/2712 11020KT 9999 FEW030"
    },
    {
      "icao": "LEAL",
      "alert": "OK",
      "vis_m": 9999,
      "fzfg": false,
      "metar_trigger": false,
      "taf_trigger": false,
      "metar": "METAR LEAL 261530Z VRB02KT 9999 BKN060 18/12 Q1010 NOSIG",
      "taf": ""
    },
    {
      "icao": "LEBB",
      "alert": "OK",
      "vis_m": 9999,
      "fzfg": false,
      "metar_trigger": false,
      "taf_trigger": false,
      "metar": "METAR LEBB 261530Z VRB03KT 9999 -RA FEW022 SCT071 11/08 Q1002 TEMPO RA",
      "taf": "TAF LEBB 261100Z 2612/2712 20009KT 9999 FEW020 BKN035 TX18/2623Z TN05/2710Z"
    },
    {
      "icao": "LEBL",
      "alert": "OK",
      "vis_m": 9999,
      "fzfg": false,
      "metar_trigger": false,
      "taf_trigger": false,
      "metar": "METAR LEBL 261530Z 29012G25KT 270V330 9999 FEW030 14/05 Q1007 NOSIG",
      "taf": "TAF LEBL 261100Z 2612/2712 28010KT 9999 FEW050 TX16/2612Z TN09/2706Z"
    },
    {
      "icao": "LECH",
      "alert": "OK",
      "vis_m": 9999,
      "fzfg": false,
      "metar_trigger": false,
      "taf_trigger": false,
      "metar": "METAR LECH 261530Z AUTO 06003KT 040V100 9999 FEW050 14/04 Q1008",
      "taf": ""
    },
    {
      "icao": "LEMD",
      "alert": "OK",
      "vis_m": 3000,
      "fzfg": false,
      "metar_trigger": false,
      "taf_trigger": false,
      "metar": "METAR LEMD 261530Z VRB02KT 3000 BR BKN003 BKN009 07/07 Q1009 TEMPO 1400",
      "taf": ""
    },
    {
      "icao": "LEMG",
      "alert": "OK",
      "vis_m": 9999,
      "fzfg": false,
      "metar_trigger": false,
      "taf_trigger": false,
      "metar": "METAR LEMG 261530Z 30005KT 270V330 9999 BKN065 18/12 Q1014 NOSIG",
      "taf": "TAF LEMG 261100Z 2612/2712 30009KT 9999 FEW040 TX20/2614Z TN10/2707Z"
    },
    {
      "icao": "LEVC",
      "alert": "OK",
      "vis_m": 9999,
      "fzfg": false,
      "metar_trigger": false,
      "taf_trigger": false,
      "metar": "METAR LEVC 261530Z 23003KT 150V270 9999 FEW055 16/06 Q1008 NOSIG",
      "taf": ""
    },
    {
      "icao": "LEXJ",
      "alert": "OK",
      "vis_m": 9999,
      "fzfg": false,
      "metar_trigger": false,
      "taf_trigger": false,
      "metar": "METAR LEXJ 261530Z 22011G21KT 160V250 9999 -RA OVC085 13/06 Q1000",
      "taf": "TAF LEXJ 261400Z 2615/2715 23009KT 9999 SCT060 TX16/2621Z TN10/2709Z"
    },
    {
      "icao": "LEZG",
      "alert": "OK",
      "vis_m": 9999,
      "fzfg": false,
      "metar_trigger": false,
      "taf_trigger": false,
      "metar": "METAR LEZG 261530Z VRB02KT 9999 -RA BKN075 OVC085 09/08 Q1007 NOSIG",
      "taf": "TAF LEZG 261100Z 2612/2712 25010KT 9999 FEW040 TX12/2614Z TN08/2706Z"
    },
    {
      "icao": "LEZL",
      "alert": "OK",
      "vis_m": 9999,
      "fzfg": false,
      "metar_trigger": false,
      "taf_trigger": false,
      "metar": "METAR LEZL 261530Z 25014KT 220V280 9999 SCT020 BKN040 OVC047 19/15 Q1015 NOSIG",
      "taf": "TAF LEZL 261400Z 2615/2715 24010KT 9999 FEW015 SCT030 TX19/2615Z TN11/2707Z"
    },
    {
      "icao": "LFBD",
      "alert": "OK",
      "vis_m": 9999,
      "fzfg": false,
      "metar_trigger": false,
      "taf_trigger": false,
      "metar": "METAR LFBD 261530Z AUTO 16009KT 9999 BKN017 BKN094 BKN190 11/08 Q1003 NOSIG",
      "taf": ""
    },
    {
      "icao": "LFLL",
      "alert": "OK",
      "vis_m": 9999,
      "fzfg": false,
      "metar_trigger": false,
      "taf_trigger": false,
      "metar": "METAR LFLL 261530Z 00000KT 9999 FEW033 SCT053 08/01 Q1006 NOSIG",
      "taf": "TAF LFLL 261100Z 2612/2718 VRB03KT 9999 BKN045"
    },
    {
      "icao": "LFLS",
      "alert": "OK",
      "vis_m": 9999,
      "fzfg": false,
      "metar_trigger": false,
      "taf_trigger": false,
      "metar": "METAR LFLS 261530Z AUTO 34004KT 9999 SCT041 07/01 Q1006 NOSIG",
      "taf": "TAF LFLS 261400Z 2615/2715 36006KT 9999 SCT035"
    },
    {
      "icao": "LFMN",
      "alert": "OK",
      "vis_m": 9999,
      "fzfg": false,
      "metar_trigger": false,
      "taf_trigger": false,
      "metar": "METAR LFMN 261530Z 21009KT CAVOK 13/06 Q1002 NOSIG",
      "taf": "TAF LFMN 261400Z 2615/2721 21010KT CAVOK"
    },
    {
      "icao": "LFOB",
      "alert": "OK",
      "vis_m": 9999,
      "fzfg": false,
      "metar_trigger": false,
      "taf_trigger": false,
      "metar": "METAR LFOB 261530Z AUTO 14006KT 9999 OVC010 07/06 Q1002 NOSIG",
      "taf": "TAF LFOB 261100Z 2612/2712 16010KT 2000 BR OVC002"
    },
    {
      "icao": "LFPO",
      "alert": "OK",
      "vis_m": 9999,
      "fzfg": false,
      "metar_trigger": false,
      "taf_trigger": false,
      "metar": "METAR LFPO 261530Z 20009KT 170V230 9999 SCT015 BKN041 08/05 Q1003 NOSIG",
      "taf": ""
    },
    {
      "icao": "LFSB",
      "alert": "OK",
      "vis_m": 9999,
      "fzfg": false,
      "metar_trigger": false,
      "taf_trigger": false,
      "metar": "METAR LFSB 261530Z AUTO 27009KT 9999 FEW029 OVC048 07/02 Q1005 NOSIG",
      "taf": "TAF LFSB 261100Z 2612/2712 25011KT 9999 BKN020"
    },
    {
      "icao": "LGAV",
      "alert": "OK",
      "vis_m": 9999,
      "fzfg": false,
      "metar_trigger": false,
      "taf_trigger": false,
      "metar": "METAR LGAV 261550Z 33007KT 9999 FEW015TCU SCT025 BKN060 11/07 Q0998 NOSIG",
      "taf": "TAF LGAV 261100Z 2612/2712 20012KT 9999 SCT020 BKN070"
    },
    {
      "icao": "LGTS",
      "alert": "OK",
      "vis_m": 9999,
      "fzfg": false,
      "metar_trigger": false,
      "taf_trigger": false,
      "metar": "METAR LGTS 261550Z VRB03KT 9999 -RA SCT010 FEW018TCU BKN025 10/10 Q0996 NOSIG",
      "taf": "TAF LGTS 261100Z 2612/2712 14005KT 9999 FEW008 BKN025"
    },
    {
      "icao": "LHBP",
      "alert": "OK",
      "vis_m": 3000,
      "fzfg": false,
      "metar_trigger": false,
      "taf_trigger": false,
      "metar": "SPECI LHBP 261549Z 35003KT 320V020 3000 BR BKN002 OVC005 05/05 Q1001 TEMPO 5000 BR",
      "taf": ""
    },
    {
      "icao": "LHDC",
      "alert": "OK",
      "vis_m": 1600,
      "fzfg": false,
      "metar_trigger": false,
      "taf_trigger": false,
      "metar": "METAR LHDC 261515Z AUTO VRB02KT 1600 -RA BR FEW028 OVC048 //////TCU 06/06 Q1001 NOSIG",
      "taf": "TAF LHDC 261415Z 2615/2624 VRB03KT 6000 -RA SCT030 OVC040"
    },
    {
      "icao": "LIBD",
      "alert": "OK",
      "vis_m": 9999,
      "fzfg": false,
      "metar_trigger": false,
      "taf_trigger": false,
      "metar": "METAR LIBD 261520Z AUTO 35006KT 320V030 9999 NCD 12/07 Q0999",
      "taf": "TAF LIBD 261100Z 2612/2712 34008KT 9999 SCT025"
    },
    {
      "icao": "LIBG",
      "alert": "OK",
      "vis_m": 9999,
      "fzfg": false,
      "metar_trigger": false,
      "taf_trigger": false,
      "metar": "METAR LIBG 261450Z 06010KT 9999 FEW030 15/06 Q0998",
      "taf": "TAF LIBG 261400Z 2615/2624 VRB06KT 9999 FEW030"
    },
    {
      "icao": "LIBP",
      "alert": "OK",
      "vis_m": 9999,
      "fzfg": false,
      "metar_trigger": false,
      "taf_trigger": false,
      "metar": "METAR LIBP 261520Z AUTO 36012KT 9999 BKN015/// 09/06 Q1002",
      "taf": "TAF LIBP 261100Z 2612/2712 33010KT CAVOK"
    },
    {
      "icao": "LIBR",
      "alert": "OK",
      "vis_m": 9999,
      "fzfg": false,
      "metar_trigger": false,
      "taf_trigger": false,
      "metar": "METAR LIBR 261520Z 35005KT CAVOK 13/07 Q0999",
      "taf": "TAF LIBR 261100Z 2612/2712 VRB06KT 9999 SCT025"
    },
    {
      "icao": "LICA",
      "alert": "OK",
      "vis_m": 9999,
      "fzfg": false,
      "metar_trigger": false,
      "taf_trigger": false,
      "metar": "METAR LICA 261520Z AUTO 26007KT 9999 NCD 13/09 Q0998",
      "taf": "TAF LICA 261100Z 2612/2712 26012KT 9999 BKN030"
    },
    {
      "icao": "LICC",
      "alert": "OK",
      "vis_m": 9999,
      "fzfg": false,
      "metar_trigger": false,
      "taf_trigger": false,
      "metar": "METAR LICC 261520Z 26008KT 9999 FEW020 BKN060 12/09 Q0998",
      "taf": "TAF LICC 261100Z 2612/2712 26012KT 9999 SCT030"
    },
    {
      "icao": "LICJ",
      "alert": "OK",
      "vis_m": 9999,
      "fzfg": false,
      "metar_trigger": false,
      "taf_trigger": false,
      "metar": "METAR LICJ 261520Z 26010KT 9999 BKN020 13/09 Q1000",
      "taf": "TAF LICJ 261100Z 2612/2712 22013KT 9999 BKN030"
    },
    {
      "icao": "LIMC",
      "alert": "OK",
      "vis_m": 9999,
      "fzfg": false,
      "metar_trigger": false,
      "taf_trigger": false,
      "metar": "METAR LIMC 261520Z 26006KT 230V290 CAVOK 09/03 Q1002 NOSIG",
      "taf": "TAF LIMC 261100Z 2612/2718 VRB04KT 9999 SCT015"
    },
    {
      "icao": "LIME",
      "alert": "OK",
      "vis_m": 9999,
      "fzfg": false,
      "metar_trigger": false,
      "taf_trigger": false,
      "metar": "METAR LIME 261520Z 23007KT CAVOK 09/03 Q1002 NOSIG",
      "taf": "TAF LIME 261100Z 2612/2712 VRB05KT 7000 FEW020"
    },
    {
      "icao": "LIMF",
      "alert": "OK",
      "vis_m": 9999,
      "fzfg": false,
      "metar_trigger": false,
      "taf_trigger": false,
      "metar": "METAR LIMF 261520Z 11003KT CAVOK 09/03 Q1002",
      "taf": "TAF LIMF 261100Z 2612/2712 VRB04KT 6000 SCT020"
    },
    {
      "icao": "LIMJ",
      "alert": "OK",
      "vis_m": 9999,
      "fzfg": false,
      "metar_trigger": false,
      "taf_trigger": false,
      "metar": "METAR LIMJ 261520Z 05006KT 010V080 CAVOK 11/02 Q1002",
      "taf": "TAF LIMJ 261100Z 2612/2712 03010KT 9999 BKN040"
    },
    {
      "icao": "LIPE",
      "alert": "OK",
      "vis_m": 9999,
      "fzfg": false,
      "metar_trigger": false,
      "taf_trigger": false,
      "metar": "METAR LIPE 261520Z 30005KT 270V330 9999 SCT025 09/04 Q1003",
      "taf": "TAF LIPE 261100Z 2612/2712 VRB04KT 6000 SCT015"
    },
    {
      "icao": "LIPH",
      "alert": "OK",
      "vis_m": 9999,
      "fzfg": false,
      "metar_trigger": false,
      "taf_trigger": false,
      "metar": "METAR LIPH 261520Z 24006KT CAVOK 09/05 Q1001",
      "taf": "TAF LIPH 261100Z 2612/2712 VRB04KT 9999 FEW025"
    },
    {
      "icao": "LIPQ",
      "alert": "OK",
      "vis_m": 9999,
      "fzfg": false,
      "metar_trigger": false,
      "taf_trigger": false,
      "metar": "METAR LIPQ 261520Z AUTO 27003KT 9999 NCD 11/05 Q1001",
      "taf": "TAF LIPQ 261100Z 2612/2712 VRB04KT 9999 SCT020"
    },
    {
      "icao": "LIPR",
      "alert": "OK",
      "vis_m": 8000,
      "fzfg": false,
      "metar_trigger": false,
      "taf_trigger": false,
      "metar": "METAR LIPR 261520Z 31009KT 8000 BKN020 07/04 Q1003",
      "taf": "TAF LIPR 261100Z 2612/2712 30010KT 9999 SCT025"
    },
    {
      "icao": "LIPX",
      "alert": "OK",
      "vis_m": 9999,
      "fzfg": false,
      "metar_trigger": false,
      "taf_trigger": false,
      "metar": "METAR LIPX 261520Z 25009KT CAVOK 09/04 Q1002",
      "taf": "TAF LIPX 261100Z 2612/2712 27010KT 8000 SCT020"
    },
    {
      "icao": "LIPY",
      "alert": "OK",
      "vis_m": 9999,
      "fzfg": false,
      "metar_trigger": false,
      "taf_trigger": false,
      "metar": "METAR LIPY 261520Z AUTO 30007KT 9999 OVC017/// 07/05 Q1003",
      "taf": "TAF LIPY 261100Z 2612/2712 34010KT 9999 SCT020"
    },
    {
      "icao": "LIPZ",
      "alert": "OK",
      "vis_m": 9999,
      "fzfg": false,
      "metar_trigger": false,
      "taf_trigger": false,
      "metar": "METAR LIPZ 261520Z 27004KT CAVOK 09/05 Q1001 NOSIG",
      "taf": "TAF LIPZ 261100Z 2612/2718 VRB04KT 7000 FEW020"
    },
    {
      "icao": "LIRF",
      "alert": "OK",
      "vis_m": 9999,
      "fzfg": false,
      "metar_trigger": false,
      "taf_trigger": false,
      "metar": "METAR LIRF 261520Z 35006KT CAVOK 10/08 Q1000 NOSIG",
      "taf": "TAF LIRF 261100Z 2612/2718 36006KT 9999 SCT030"
    },
    {
      "icao": "LIRN",
      "alert": "OK",
      "vis_m": 9999,
      "fzfg": false,
      "metar_trigger": false,
      "taf_trigger": false,
      "metar": "METAR LIRN 261520Z VRB02KT 9999 FEW040 BKN060 11/09 Q0999 NOSIG",
      "taf": "TAF LIRN 261100Z 2612/2712 VRB05KT 9999 SCT040"
    },
    {
      "icao": "LIRP",
      "alert": "OK",
      "vis_m": 9999,
      "fzfg": false,
      "metar_trigger": false,
      "taf_trigger": false,
      "metar": "METAR LIRP 261515Z 05002KT 9999 FEW030 12/06 Q1002 NOSIG",
      "taf": "TAF LIRP 261100Z 2612/2712 12004KT 9999 FEW020 SCT040"
    },
    {
      "icao": "LIRZ",
      "alert": "OK",
      "vis_m": 9999,
      "fzfg": false,
      "metar_trigger": false,
      "taf_trigger": false,
      "metar": "METAR LIRZ 261520Z AUTO 32003KT 9999 FEW043/// 11/04 Q1000",
      "taf": "TAF LIRZ 261100Z 2612/2712 VRB05KT 9999 FEW040"
    },
    {
      "icao": "LJLJ",
      "alert": "OK",
      "vis_m": 700,
      "fzfg": false,
      "metar_trigger": false,
      "taf_trigger": false,
      "metar": "METAR LJLJ 261530Z 29004KT 0700 R30/1700U FG BKN002 04/03 Q1001 NOSIG",
      "taf": "TAF LJLJ 261100Z 2612/2712 VRB02KT 3500 BR BKN002"
    },
    {
      "icao": "LKMT",
      "alert": "OK",
      "vis_m": 9999,
      "fzfg": false,
      "metar_trigger": false,
      "taf_trigger": false,
      "metar": "METAR LKMT 261530Z 24010KT CAVOK 02/01 Q1001 NOSIG",
      "taf": "TAF LKMT 261100Z 2612/2712 23008KT 9999 SCT008 BKN016"
    },
    {
      "icao": "LKPR",
      "alert": "OK",
      "vis_m": 6000,
      "fzfg": false,
      "metar_trigger": false,
      "taf_trigger": false,
      "metar": "METAR LKPR 261530Z 21005KT 6000 -SN FEW007 BKN013 OVC040 00/00 Q0998 TEMPO BKN007",
      "taf": "TAF LKPR 261400Z 2615/2721 23009KT 9999 OVC016"
    },
    {
      "icao": "LLBG",
      "alert": "OK",
      "vis_m": 9999,
      "fzfg": false,
      "metar_trigger": false,
      "taf_trigger": false,
      "metar": "METAR LLBG 261550Z VRB02KT CAVOK 19/04 Q1014 NOSIG",
      "taf": "TAF LLBG 261104Z 2612/2712 20008KT CAVOK"
    },
    {
      "icao": "LMML",
      "alert": "OK",
      "vis_m": 9999,
      "fzfg": false,
      "metar_trigger": false,
      "taf_trigger": false,
      "metar": "METAR LMML 261545Z 29022G35KT 9999 -RA FEW020TCU BKN040 11/09 Q1000 RESHRA NOSIG",
      "taf": "TAF LMML 261100Z 2612/2712 25020G30KT 9999 SCT015"
    },
    {
      "icao": "LOWW",
      "alert": "OK",
      "vis_m": 6000,
      "fzfg": false,
      "metar_trigger": false,
      "taf_trigger": false,
      "metar": "METAR LOWW 261550Z 17003KT 6000 FEW007 01/01 Q1002 TEMPO 4000 BR",
      "taf": "TAF LOWW 261415Z 2615/2721 13004KT 9999 FEW010 TX03/2615Z TNM01/2721Z"
    },
    {
      "icao": "LPFR",
      "alert": "OK",
      "vis_m": 8000,
      "fzfg": false,
      "metar_trigger": false,
      "taf_trigger": false,
      "metar": "METAR LPFR 261530Z 24013KT 8000 SCT010 BKN030 16/15 Q1016",
      "taf": "TAF LPFR 261100Z 2612/2712 25015KT 9999 SCT012 BKN025"
    },
    {
      "icao": "LPMA",
      "alert": "OK",
      "vis_m": 9999,
      "fzfg": false,
      "metar_trigger": false,
      "taf_trigger": false,
      "metar": "METAR LPMA 261530Z 21015G26KT 140V270 9999 SCT016 18/13 Q1017",
      "taf": "TAF LPMA 261100Z 2612/2712 22018KT 9999 SCT015"
    },
    {
      "icao": "LPPR",
      "alert": "OK",
      "vis_m": 6000,
      "fzfg": false,
      "metar_trigger": false,
      "taf_trigger": false,
      "metar": "METAR LPPR 261530Z 19019KT 6000 -RADZ BKN007 BKN011 14/13 Q1005 RERA",
      "taf": "TAF LPPR 261100Z 2612/2712 19015KT 9999 SCT012 BKN025"
    },
    {
      "icao": "LPPS",
      "alert": "OK",
      "vis_m": 9999,
      "fzfg": false,
      "metar_trigger": false,
      "taf_trigger": false,
      "metar": "METAR LPPS 261530Z 24011G21KT 200V280 9999 FEW015 SCT030 20/09 Q1018",
      "taf": "TAF LPPS 261100Z 2612/2718 VRB05KT 9999 SCT015 SCT030"
    },
    {
      "icao": "LPPT",
      "alert": "OK",
      "vis_m": 9999,
      "fzfg": false,
      "metar_trigger": false,
      "taf_trigger": false,
      "metar": "METAR LPPT 261530Z 22016KT 9999 BKN006 15/15 Q1011 WS R20",
      "taf": ""
    },
    {
      "icao": "LQBK",
      "alert": "OK",
      "vis_m": 9999,
      "fzfg": false,
      "metar_trigger": false,
      "taf_trigger": false,
      "metar": "METAR LQBK 261530Z VRB02KT 9999 -RA BKN045 07/06 Q1001 NOSIG",
      "taf": "TAF LQBK 261100Z 2612/2712 30005KT 6000 NSC TX06/2613Z TN02/2706Z"
    },
    {
      "icao": "LQSA",
      "alert": "OK",
      "vis_m": 9999,
      "fzfg": false,
      "metar_trigger": false,
      "taf_trigger": false,
      "metar": "METAR LQSA 261530Z 22003KT 120V250 9999 BKN055 07/04 Q0999 NOSIG",
      "taf": "TAF LQSA 261100Z 2612/2712 VRB02KT 9999 SCT050 TX09/2613Z TN01/2704Z"
    },
    {
      "icao": "LQTZ",
      "alert": "OK",
      "vis_m": 9999,
      "fzfg": false,
      "metar_trigger": false,
      "taf_trigger": false,
      "metar": "METAR LQTZ 261530Z 29003KT 9999 FEW045 BKN070 11/05 Q0999",
      "taf": "TAF LQTZ 261100Z 2612/2712 28006KT 9999 SCT040 TX11/2613Z TN01/2706Z"
    },
    {
      "icao": "LRBC",
      "alert": "OK",
      "vis_m": 300,
      "fzfg": false,
      "metar_trigger": false,
      "taf_trigger": false,
      "metar": "METAR LRBC 261530Z 15005KT 0300 R16/1100D FG VV002 03/03 Q1005",
      "taf": "TAF LRBC 261400Z 2615/2624 15006KT 0600 FG OVC002"
    },
    {
      "icao": "LRBS",
      "alert": "OK",
      "vis_m": 3000,
      "fzfg": false,
      "metar_trigger": false,
      "taf_trigger": false,
      "metar": "METAR LRBS 261530Z 05010KT 3000 -RA BR SCT002 BKN030 07/06 Q1002 NOSIG",
      "taf": "TAF LRBS 261100Z 2612/2712 06012KT 1500 BR OVC001"
    },
    {
      "icao": "LRBV",
      "alert": "OK",
      "vis_m": 9999,
      "fzfg": false,
      "metar_trigger": false,
      "taf_trigger": false,
      "metar": "METAR LRBV 261530Z 11009KT 9999 FEW040 SCT046 08/05 Q1000",
      "taf": "TAF LRBV 261400Z 2615/2624 11008KT 9999 BKN040"
    },
    {
      "icao": "LRCL",
      "alert": "OK",
      "vis_m": 9999,
      "fzfg": false,
      "metar_trigger": false,
      "taf_trigger": false,
      "metar": "METAR LRCL 261530Z COR 00000KT 9999 -RA BKN059 04/03 Q1001",
      "taf": "TAF LRCL 261400Z 2615/2624 VRB04KT CAVOK"
    },
    {
      "icao": "LRCV",
      "alert": "OK",
      "vis_m": 200,
      "fzfg": false,
      "metar_trigger": false,
      "taf_trigger": false,
      "metar": "METAR LRCV 261530Z 25005KT 0200 R26/0450N RA FG VV002 03/03 Q1001",
      "taf": "TAF LRCV 261400Z 2615/2624 VRB04KT 0250 -RA FG VV001"
    },
    {
      "icao": "LRIA",
      "alert": "OK",
      "vis_m": 9999,
      "fzfg": false,
      "metar_trigger": false,
      "taf_trigger": false,
      "metar": "METAR LRIA 261530Z 11018KT 9999 -RA BKN002 OVC004 04/03 Q1006",
      "taf": "TAF LRIA 261400Z 2615/2624 11012KT 5000 -RA BR BKN002 OVC020"
    },
    {
      "icao": "LROP",
      "alert": "OK",
      "vis_m": 3000,
      "fzfg": false,
      "metar_trigger": false,
      "taf_trigger": false,
      "metar": "METAR LROP 261530Z 07013KT 3000 -RA BR FEW003 07/07 Q1003 NOSIG",
      "taf": "TAF LROP 261100Z 2612/2712 06012KT 1500 BR OVC001"
    },
    {
      "icao": "LRSB",
      "alert": "OK",
      "vis_m": 9999,
      "fzfg": false,
      "metar_trigger": false,
      "taf_trigger": false,
      "metar": "METAR LRSB 261530Z 12006KT 080V140 9999 -RA FEW041 SCT070 10/07 Q0999",
      "taf": "TAF LRSB 261100Z 2612/2712 15017KT CAVOK"
    },
    {
      "icao": "LRSM",
      "alert": "OK",
      "vis_m": 1500,
      "fzfg": false,
      "metar_trigger": false,
      "taf_trigger": false,
      "metar": "METAR LRSM 261530Z VRB01KT 1500 BR NSC 04/03 Q1001",
      "taf": "TAF LRSM 261400Z 2615/2624 VRB04KT 9999 BKN045"
    },
    {
      "icao": "LRSV",
      "alert": "OK",
      "vis_m": 400,
      "fzfg": false,
      "metar_trigger": false,
      "taf_trigger": false,
      "metar": "METAR LRSV 261530Z 12005KT 0400 R34/0600N -RA FG VV001 01/01 Q1004",
      "taf": "TAF LRSV 261400Z 2615/2624 13008KT 0350 -RA FG VV002"
    },
    {
      "icao": "LRTM",
      "alert": "OK",
      "vis_m": 5000,
      "fzfg": false,
      "metar_trigger": false,
      "taf_trigger": false,
      "metar": "METAR LRTM 261530Z 23004KT 5000 -RA BR FEW015 SCT040 02/01 Q1000",
      "taf": "TAF LRTM 261400Z 2615/2624 VRB04KT 5000 -RA BR SCT015"
    },
    {
      "icao": "LRTR",
      "alert": "OK",
      "vis_m": 4500,
      "fzfg": false,
      "metar_trigger": false,
      "taf_trigger": false,
      "metar": "METAR LRTR 261530Z 35005KT 4500 -RA BR FEW004 SCT028 BKN040 06/06 Q1000 TEMPO 3000 BR",
      "taf": "TAF LRTR 261100Z 2612/2712 VRB04KT 9999 SCT045"
    },
    {
      "icao": "LTAC",
      "alert": "OK",
      "vis_m": 9999,
      "fzfg": false,
      "metar_trigger": false,
      "taf_trigger": false,
      "metar": "METAR LTAC 261550Z 11005KT 9999 SCT040 BKN100 09/03 Q1009 NOSIG",
      "taf": "TAF LTAC 261040Z 2612/2712 17008KT 9999 SCT035 BKN090"
    },
    {
      "icao": "LTFM",
      "alert": "OK",
      "vis_m": 9999,
      "fzfg": false,
      "metar_trigger": false,
      "taf_trigger": false,
      "metar": "METAR LTFM 261550Z 08007KT 9999 FEW040 BKN120 14/07 Q1001 NOSIG",
      "taf": "TAF LTFM 261040Z 2612/2718 12009KT CAVOK"
    },
    {
      "icao": "LUKK",
      "alert": "OK",
      "vis_m": 8000,
      "fzfg": false,
      "metar_trigger": false,
      "taf_trigger": false,
      "metar": "METAR LUKK 261530Z 11012KT 8000 -RA OVC003 00/00 Q1009 NOSIG",
      "taf": ""
    },
    {
      "icao": "LWOH",
      "alert": "OK",
      "vis_m": 9999,
      "fzfg": false,
      "metar_trigger": false,
      "taf_trigger": false,
      "metar": "METAR LWOH 261550Z VRB01KT 9999 FEW025 BKN035 08/06 Q0997",
      "taf": "TAF LWOH 261430Z 2615/2715 VRB02KT 9999 SCT020 BKN035"
    },
    {
      "icao": "LWSK",
      "alert": "OK",
      "vis_m": 4000,
      "fzfg": false,
      "metar_trigger": false,
      "taf_trigger": false,
      "metar": "METAR LWSK 261550Z VRB02KT 4000 BR FEW003 SCT015 OVC032 10/09 Q0997 NOSIG",
      "taf": "TAF LWSK 261430Z 2615/2715 VRB02KT 5000 RA FEW004 BKN015 OVC035"
    },
    {
      "icao": "LYBE",
      "alert": "OK",
      "vis_m": 9999,
      "fzfg": false,
      "metar_trigger": false,
      "taf_trigger": false,
      "metar": "METAR LYBE 261530Z 08003KT CAVOK 08/04 Q1000 NOSIG",
      "taf": "TAF LYBE 261100Z 2612/2712 14010KT 9999 SCT040 TX10/2712Z TN03/2706Z"
    },
    {
      "icao": "LYNI",
      "alert": "OK",
      "vis_m": 9999,
      "fzfg": false,
      "metar_trigger": false,
      "taf_trigger": false,
      "metar": "METAR LYNI 261530Z 33011KT 9999 BKN050 OVC080 08/05 Q0998 NOSIG",
      "taf": "TAF LYNI 261100Z 2612/2712 05013KT 9999 SCT020 BKN050 TX11/2612Z TN03/2706Z"
    },
    {
      "icao": "LYPG",
      "alert": "OK",
      "vis_m": 9999,
      "fzfg": false,
      "metar_trigger": false,
      "taf_trigger": false,
      "metar": "METAR LYPG 261530Z 24005KT 9999 FEW016 10/07 Q0999 NOSIG",
      "taf": "TAF LYPG 261100Z 2612/2712 34006KT 9999 FEW013 SCT040 BKN080 TX11/2613Z TN04/2704Z"
    },
    {
      "icao": "LZIB",
      "alert": "OK",
      "vis_m": 9999,
      "fzfg": false,
      "metar_trigger": false,
      "taf_trigger": false,
      "metar": "METAR LZIB 261530Z 19002KT 9999 FEW013 04/03 Q1002 TEMPO 2500 BR BKN007",
      "taf": ""
    },
    {
      "icao": "LZKZ",
      "alert": "OK",
      "vis_m": 500,
      "fzfg": false,
      "metar_trigger": false,
      "taf_trigger": false,
      "metar": "METAR LZKZ 261530Z 08002KT 0500 R01/0450N FG FEW001 SCT009 05/04 Q1000 TEMPO FEW001 BKN009",
      "taf": ""
    },
    {
      "icao": "LZTT",
      "alert": "OK",
      "vis_m": 900,
      "fzfg": false,
      "metar_trigger": false,
      "taf_trigger": false,
      "metar": "METAR LZTT 261530Z 33004KT 0900 R27/1700U FG OVC002 03/02 Q0999 NOSIG",
      "taf": ""
    },
    {
      "icao": "OEJN",
      "alert": "OK",
      "vis_m": 8000,
      "fzfg": false,
      "metar_trigger": false,
      "taf_trigger": false,
      "metar": "METAR OEJN 261500Z 30005KT 8000 NSC 28/11 Q1012 NOSIG",
      "taf": "TAF OEJN 261100Z 2612/2718 27010KT 7000 NSC"
    },
    {
      "icao": "OEMA",
      "alert": "OK",
      "vis_m": 9999,
      "fzfg": false,
      "metar_trigger": false,
      "taf_trigger": false,
      "metar": "METAR OEMA 261500Z 09006KT CAVOK 23/M03 Q1019 NOSIG",
      "taf": "TAF OEMA 261100Z 2612/2718 09012KT 7000 NSC"
    },
    {
      "icao": "OJAI",
      "alert": "OK",
      "vis_m": null,
      "fzfg": false,
      "metar_trigger": false,
      "taf_trigger": false,
      "metar": "",
      "taf": "TAF OJAI 261034Z 2612/2718 13008KT 5000 HZ NSC"
    },
    {
      "icao": "OMAA",
      "alert": "OK",
      "vis_m": 9999,
      "fzfg": false,
      "metar_trigger": false,
      "taf_trigger": false,
      "metar": "METAR OMAA 261530Z 30009KT 9999 SCT035 20/14 Q1018 NOSIG",
      "taf": "TAF OMAA 261100Z 2612/2718 33014KT 8000 SCT040"
    },
    {
      "icao": "OMDB",
      "alert": "OK",
      "vis_m": 9999,
      "fzfg": false,
      "metar_trigger": false,
      "taf_trigger": false,
      "metar": "METAR OMDB 261530Z 01008KT 350V060 CAVOK 21/14 Q1017 NOSIG",
      "taf": "TAF OMDB 261100Z 2612/2718 31013KT 8000 SCT035"
    },
    {
      "icao": "UAAA",
      "alert": "OK",
      "vis_m": 3600,
      "fzfg": false,
      "metar_trigger": false,
      "taf_trigger": false,
      "metar": "METAR UAAA 261530Z 22002MPS 3600 BR FU BKN200 M03/M06 Q1021 NOSIG",
      "taf": "TAF UAAA 261102Z 2612/2712 23003MPS 3100 BR FU SCT050 BKN100 TX03/2708Z TNM11/2702Z"
    },
    {
      "icao": "UBBB",
      "alert": "OK",
      "vis_m": 9999,
      "fzfg": false,
      "metar_trigger": false,
      "taf_trigger": false,
      "metar": "METAR UBBB 261530Z 31020G30KT 9999 BKN006 OVC026 05/03 Q1023 NOSIG",
      "taf": "TAF UBBB 261055Z 2612/2712 34016KT 9999 SCT012 BKN030 TX07/2612Z TN02/2701Z"
    },
    {
      "icao": "UDSG",
      "alert": "OK",
      "vis_m": 3800,
      "fzfg": false,
      "metar_trigger": false,
      "taf_trigger": false,
      "metar": "METAR UDSG 261530Z 06004KT 3800 BR FEW049 M13/M14 Q1022 NOSIG",
      "taf": "TAF UDSG 261058Z 2612/2712 VRB06KT 3000 BR BKN030"
    },
    {
      "icao": "UDYZ",
      "alert": "OK",
      "vis_m": 3100,
      "fzfg": false,
      "metar_trigger": false,
      "taf_trigger": false,
      "metar": "METAR UDYZ 261530Z 25004KT 3100 BR BKN008 M04/M06 Q1025 NOSIG",
      "taf": "TAF UDYZ 261100Z 2612/2712 VRB04KT 2300 BR BKN005"
    },
    {
      "icao": "UGKO",
      "alert": "OK",
      "vis_m": 9999,
      "fzfg": false,
      "metar_trigger": false,
      "taf_trigger": false,
      "metar": "METAR UGKO 261530Z 06008KT CAVOK 10/03 Q1014 NOSIG",
      "taf": "TAF UGKO 261100Z 2612/2712 08020KT CAVOK TX16/2612Z TN07/2618Z"
    }
  ]
}