{
  "ts_utc": "2026-05-31T21:17:12Z",
  "threshold_m": 150,
  "source": "stations_override.txt (ICAO list) + aviationweather.gov (METAR/TAF raw)",
  "station_count": 159,
  "stations": [
    {
      "icao": "BIKF",
      "alert": "OK",
      "vis_m": 9999,
      "fzfg": false,
      "metar_trigger": false,
      "taf_trigger": false,
      "metar": "METAR BIKF 312100Z 14007KT 100V160 9999 FEW020 BKN032 BKN046 11/08 Q1009",
      "taf": "TAF BIKF 311957Z 3121/0121 14012KT 9999 FEW012 BKN035 TX13/0115Z TN09/0105Z"
    },
    {
      "icao": "BKPR",
      "alert": "OK",
      "vis_m": 9999,
      "fzfg": false,
      "metar_trigger": false,
      "taf_trigger": false,
      "metar": "METAR BKPR 312100Z 30005KT CAVOK 18/10 Q1016 NOSIG",
      "taf": "TAF BKPR 311730Z 3118/0118 30007KT 9999 FEW050"
    },
    {
      "icao": "EBCI",
      "alert": "OK",
      "vis_m": 9999,
      "fzfg": false,
      "metar_trigger": false,
      "taf_trigger": false,
      "metar": "METAR EBCI 312050Z 25005KT 9999 FEW045 16/12 Q1018 NOSIG",
      "taf": "TAF EBCI 311700Z 3118/0124 27010KT 9999 FEW045"
    },
    {
      "icao": "EDDB",
      "alert": "OK",
      "vis_m": 9999,
      "fzfg": false,
      "metar_trigger": false,
      "taf_trigger": false,
      "metar": "METAR EDDB 312050Z AUTO 31002KT 9999 FEW049 15/14 Q1011 NOSIG",
      "taf": "TAF EDDB 311700Z 3118/0118 29006KT 9999 SCT030"
    },
    {
      "icao": "EDDH",
      "alert": "OK",
      "vis_m": 9999,
      "fzfg": false,
      "metar_trigger": false,
      "taf_trigger": false,
      "metar": "METAR EDDH 312050Z AUTO 03003KT 350V070 9999 R15/1200U FEW029 15/12 Q1013 NOSIG",
      "taf": "TAF EDDH 311700Z 3118/0124 32008KT CAVOK"
    },
    {
      "icao": "EDDK",
      "alert": "OK",
      "vis_m": 9999,
      "fzfg": false,
      "metar_trigger": false,
      "taf_trigger": false,
      "metar": "METAR EDDK 312050Z AUTO 32008KT CAVOK 18/11 Q1016 NOSIG",
      "taf": "TAF EDDK 311700Z 3118/0124 28012KT 9999 SCT040"
    },
    {
      "icao": "EDDN",
      "alert": "OK",
      "vis_m": 9999,
      "fzfg": false,
      "metar_trigger": false,
      "taf_trigger": false,
      "metar": "METAR EDDN 312050Z AUTO 32007KT 280V340 9999 BKN026 BKN039 17/15 Q1015",
      "taf": "TAF EDDN 311700Z 3118/0118 28007KT 9999 FEW020 SCT040"
    },
    {
      "icao": "EDDS",
      "alert": "OK",
      "vis_m": 9999,
      "fzfg": false,
      "metar_trigger": false,
      "taf_trigger": false,
      "metar": "METAR EDDS 312050Z AUTO 28011KT 9999 -SHRA FEW///TCU 18/12 Q1016",
      "taf": "TAF EDDS 311700Z 3118/0118 27008KT 9999 FEW045"
    },
    {
      "icao": "EDFH",
      "alert": "OK",
      "vis_m": 9999,
      "fzfg": false,
      "metar_trigger": false,
      "taf_trigger": false,
      "metar": "METAR EDFH 312050Z 28005KT 250V310 CAVOK 15/11 Q1017",
      "taf": "TAF EDFH 311700Z 3118/0118 28008KT 9999 SCT040"
    },
    {
      "icao": "EDJA",
      "alert": "OK",
      "vis_m": 9999,
      "fzfg": false,
      "metar_trigger": false,
      "taf_trigger": false,
      "metar": "METAR EDJA 312050Z 22009KT 9999 BKN027 BKN034 15/14 Q1018",
      "taf": "TAF EDJA 311700Z 3118/0103 15005KT 9999 SCT050"
    },
    {
      "icao": "EDLW",
      "alert": "OK",
      "vis_m": 9999,
      "fzfg": false,
      "metar_trigger": false,
      "taf_trigger": false,
      "metar": "METAR EDLW 312050Z AUTO 26007KT 220V300 9999 // FEW069/// OVC190/// 18/11 Q1015",
      "taf": "TAF EDLW 311700Z 3118/0118 29007KT 9999 SCT040"
    },
    {
      "icao": "EDNY",
      "alert": "OK",
      "vis_m": 9999,
      "fzfg": false,
      "metar_trigger": false,
      "taf_trigger": false,
      "metar": "METAR EDNY 312050Z AUTO 25006KT 220V280 9999 FEW025/// SCT038/// OVC098/// 17/15 Q1018",
      "taf": "TAF EDNY 311700Z 3118/0103 24006KT 9999 SCT050"
    },
    {
      "icao": "EDSB",
      "alert": "OK",
      "vis_m": 9999,
      "fzfg": false,
      "metar_trigger": false,
      "taf_trigger": false,
      "metar": "METAR EDSB 312050Z 23004KT 200V290 CAVOK 20/13 Q1017",
      "taf": "TAF EDSB 311700Z 3118/0118 21008KT 9999 FEW045"
    },
    {
      "icao": "EETN",
      "alert": "OK",
      "vis_m": 9999,
      "fzfg": false,
      "metar_trigger": false,
      "taf_trigger": false,
      "metar": "METAR EETN 312050Z 15004KT 9999 OVC043 12/08 Q1014 NOSIG",
      "taf": "TAF EETN 311730Z 3118/0118 VRB02KT 9999 SCT035"
    },
    {
      "icao": "EFTU",
      "alert": "OK",
      "vis_m": 9999,
      "fzfg": false,
      "metar_trigger": false,
      "taf_trigger": false,
      "metar": "METAR EFTU 312050Z AUTO 24004KT CAVOK 13/09 Q1014",
      "taf": "TAF EFTU 312034Z 3121/0121 22005KT CAVOK"
    },
    {
      "icao": "EGBB",
      "alert": "OK",
      "vis_m": 9999,
      "fzfg": false,
      "metar_trigger": false,
      "taf_trigger": false,
      "metar": "METAR EGBB 312050Z 29005KT CAVOK 16/09 Q1017",
      "taf": "TAF EGBB 311655Z 3118/0118 29009KT 9999 SCT040"
    },
    {
      "icao": "EGGP",
      "alert": "OK",
      "vis_m": 9999,
      "fzfg": false,
      "metar_trigger": false,
      "taf_trigger": false,
      "metar": "METAR EGGP 312050Z 22005KT 180V250 9999 FEW035 15/10 Q1016",
      "taf": "TAF EGGP 311655Z 3118/0118 28012KT 9999 FEW035"
    },
    {
      "icao": "EGGW",
      "alert": "OK",
      "vis_m": 9999,
      "fzfg": false,
      "metar_trigger": false,
      "taf_trigger": false,
      "metar": "METAR EGGW 312050Z AUTO 26012KT 9999 SCT037 SCT044 17/11 Q1017",
      "taf": "TAF EGGW 311656Z 3118/0118 27012KT 9999 SCT030"
    },
    {
      "icao": "EGKK",
      "alert": "OK",
      "vis_m": 9999,
      "fzfg": false,
      "metar_trigger": false,
      "taf_trigger": false,
      "metar": "METAR EGKK 312050Z 22004KT CAVOK 17/09 Q1018",
      "taf": "TAF EGKK 311657Z 3118/0124 27010KT 9999 FEW040"
    },
    {
      "icao": "EGNM",
      "alert": "OK",
      "vis_m": 9999,
      "fzfg": false,
      "metar_trigger": false,
      "taf_trigger": false,
      "metar": "METAR EGNM 312050Z 26008KT 9999 FEW042 14/10 Q1016",
      "taf": "TAF EGNM 311654Z 3118/0118 28014KT 9999 SCT040"
    },
    {
      "icao": "EGPD",
      "alert": "OK",
      "vis_m": 9999,
      "fzfg": false,
      "metar_trigger": false,
      "taf_trigger": false,
      "metar": "METAR EGPD 312050Z AUTO VRB02KT 9999 -RA //////TCU 13/10 Q1011 NOSIG",
      "taf": "TAF EGPD 311656Z 3118/0118 VRB03KT 9999 FEW040"
    },
    {
      "icao": "EGPF",
      "alert": "OK",
      "vis_m": 9999,
      "fzfg": false,
      "metar_trigger": false,
      "taf_trigger": false,
      "metar": "METAR EGPF 312050Z AUTO 24005KT 9999 BKN045 13/09 Q1013",
      "taf": "TAF EGPF 311654Z 3118/0118 25010KT 9999 BKN040"
    },
    {
      "icao": "EHBK",
      "alert": "OK",
      "vis_m": 9999,
      "fzfg": false,
      "metar_trigger": false,
      "taf_trigger": false,
      "metar": "METAR EHBK 312055Z AUTO 24003KT 200V310 9999 OVC037 17/13 Q1016 RETS",
      "taf": "TAF EHBK 311701Z 3118/0124 27010KT CAVOK"
    },
    {
      "icao": "EHEH",
      "alert": "OK",
      "vis_m": 9999,
      "fzfg": false,
      "metar_trigger": false,
      "taf_trigger": false,
      "metar": "METAR EHEH 312055Z AUTO VRB02KT 9999 OVC200 14/12 Q1016 BLU TEMPO 27012G22KT",
      "taf": "TAF EHEH 311749Z 3118/0124 28010KT 9999 FEW042"
    },
    {
      "icao": "EKBI",
      "alert": "OK",
      "vis_m": 9999,
      "fzfg": false,
      "metar_trigger": false,
      "taf_trigger": false,
      "metar": "METAR EKBI 312050Z AUTO 28005KT 9999 BKN019/// BKN100/// 12/10 Q1013",
      "taf": "TAF EKBI 312027Z 3121/0121 28004KT 9999 BKN018"
    },
    {
      "icao": "EKCH",
      "alert": "OK",
      "vis_m": 9999,
      "fzfg": false,
      "metar_trigger": false,
      "taf_trigger": false,
      "metar": "METAR EKCH 312050Z AUTO 01002KT 9999 BKN023/// BKN140/// 14/11 Q1013 NOSIG",
      "taf": "TAF EKCH 312027Z 3121/0121 35005KT 9999 BKN020"
    },
    {
      "icao": "ENAL",
      "alert": "OK",
      "vis_m": 9999,
      "fzfg": false,
      "metar_trigger": false,
      "taf_trigger": false,
      "metar": "METAR ENAL 312050Z 26003KT 9999 -DZRA SCT002 BKN006 10/10 Q1011",
      "taf": "TAF ENAL 312000Z 3121/0106 VRB03KT 9999 FEW002 SCT005"
    },
    {
      "icao": "ENBR",
      "alert": "OK",
      "vis_m": 9999,
      "fzfg": false,
      "metar_trigger": false,
      "taf_trigger": false,
      "metar": "METAR ENBR 312050Z 33002KT 9999 -DZ FEW006 BKN020 10/10 Q1011 RMK WIND 1200FT 00000KT",
      "taf": "TAF ENBR 311700Z 3118/0118 34005KT 9999 SCT004 BKN015"
    },
    {
      "icao": "ENGM",
      "alert": "OK",
      "vis_m": 9999,
      "fzfg": false,
      "metar_trigger": false,
      "taf_trigger": false,
      "metar": "METAR ENGM 312050Z 10003KT 050V180 9999 1900SE VCFG FEW010 14/12 Q1011 NOSIG",
      "taf": ""
    },
    {
      "icao": "ENHD",
      "alert": "OK",
      "vis_m": 7000,
      "fzfg": false,
      "metar_trigger": false,
      "taf_trigger": false,
      "metar": "METAR ENHD 312050Z 00000KT 7000 RA FEW032 11/10 Q1011",
      "taf": "TAF ENHD 311400Z 3115/3122 28005KT 8000 -DZRA SCT003 BKN015"
    },
    {
      "icao": "ENTC",
      "alert": "OK",
      "vis_m": 9999,
      "fzfg": false,
      "metar_trigger": false,
      "taf_trigger": false,
      "metar": "METAR ENTC 312050Z 02013KT CAVOK 07/02 Q1016 NOSIG RMK WIND 2600FT 10010KT",
      "taf": "TAF ENTC 311700Z 3118/0118 02012KT CAVOK"
    },
    {
      "icao": "ENTO",
      "alert": "OK",
      "vis_m": 9999,
      "fzfg": false,
      "metar_trigger": false,
      "taf_trigger": false,
      "metar": "METAR ENTO 312050Z 17007KT 9999 OVC006 12/12 Q1011 TEMPO SCT006",
      "taf": "TAF ENTO 311700Z 3118/0118 19008KT CAVOK"
    },
    {
      "icao": "ENVA",
      "alert": "OK",
      "vis_m": 9999,
      "fzfg": false,
      "metar_trigger": false,
      "taf_trigger": false,
      "metar": "METAR ENVA 312050Z 08006KT CAVOK 16/13 Q1010 RMK WIND 670FT 07004KT",
      "taf": "TAF ENVA 311700Z 3118/0118 24012KT 9999 FEW035"
    },
    {
      "icao": "ENZV",
      "alert": "OK",
      "vis_m": 8000,
      "fzfg": false,
      "metar_trigger": false,
      "taf_trigger": false,
      "metar": "METAR ENZV 312050Z 00000KT 8000 -DZ SCT009 BKN026 11/10 Q1011",
      "taf": "TAF ENZV 311700Z 3118/0118 29008KT 9999 SCT008 BKN015"
    },
    {
      "icao": "EPGD",
      "alert": "OK",
      "vis_m": 9999,
      "fzfg": false,
      "metar_trigger": false,
      "taf_trigger": false,
      "metar": "METAR EPGD 312100Z 34003KT 330V030 9999 BKN013 12/10 Q1012",
      "taf": ""
    },
    {
      "icao": "EPKK",
      "alert": "OK",
      "vis_m": 9999,
      "fzfg": false,
      "metar_trigger": false,
      "taf_trigger": false,
      "metar": "METAR EPKK 312100Z 04004KT 010V070 CAVOK 17/11 Q1011",
      "taf": "TAF EPKK 312030Z 3121/0121 06005KT CAVOK"
    },
    {
      "icao": "EPKT",
      "alert": "OK",
      "vis_m": 9999,
      "fzfg": false,
      "metar_trigger": false,
      "taf_trigger": false,
      "metar": "METAR EPKT 312100Z 08004KT CAVOK 14/10 Q1011",
      "taf": "TAF EPKT 311730Z 3118/0118 04005KT CAVOK"
    },
    {
      "icao": "EPLB",
      "alert": "OK",
      "vis_m": 9999,
      "fzfg": false,
      "metar_trigger": false,
      "taf_trigger": false,
      "metar": "METAR EPLB 312100Z 07003KT CAVOK 11/10 Q1012",
      "taf": "TAF EPLB 311730Z 3118/0118 VRB02KT CAVOK"
    },
    {
      "icao": "EPMO",
      "alert": "OK",
      "vis_m": 9999,
      "fzfg": false,
      "metar_trigger": false,
      "taf_trigger": false,
      "metar": "METAR EPMO 312100Z VRB01KT CAVOK 14/11 Q1011",
      "taf": "TAF EPMO 311730Z 3118/0118 VRB02KT CAVOK"
    },
    {
      "icao": "EPPO",
      "alert": "OK",
      "vis_m": 9999,
      "fzfg": false,
      "metar_trigger": false,
      "taf_trigger": false,
      "metar": "METAR EPPO 312100Z 02001KT 9999 OVC042 14/11 Q1011",
      "taf": "TAF EPPO 311730Z 3118/0118 04006KT CAVOK"
    },
    {
      "icao": "EPRA",
      "alert": "OK",
      "vis_m": 9999,
      "fzfg": false,
      "metar_trigger": false,
      "taf_trigger": false,
      "metar": "METAR EPRA 312100Z VRB02KT CAVOK 14/10 Q1011",
      "taf": "TAF EPRA 312030Z 3121/0106 VRB03KT CAVOK"
    },
    {
      "icao": "EPRZ",
      "alert": "OK",
      "vis_m": 9999,
      "fzfg": false,
      "metar_trigger": false,
      "taf_trigger": false,
      "metar": "METAR EPRZ 312100Z VRB01KT CAVOK 13/12 Q1011",
      "taf": "TAF EPRZ 311730Z 3118/0118 VRB02KT CAVOK"
    },
    {
      "icao": "EPSC",
      "alert": "OK",
      "vis_m": 9999,
      "fzfg": false,
      "metar_trigger": false,
      "taf_trigger": false,
      "metar": "METAR EPSC 312100Z 36002KT CAVOK 12/10 Q1012",
      "taf": "TAF EPSC 311730Z 3118/0118 03005KT 9999 BKN040"
    },
    {
      "icao": "EPSY",
      "alert": "OK",
      "vis_m": 9999,
      "fzfg": false,
      "metar_trigger": false,
      "taf_trigger": false,
      "metar": "METAR EPSY 312100Z 00000KT CAVOK 14/13 Q1011",
      "taf": "TAF EPSY 312030Z 3121/0106 VRB02KT CAVOK"
    },
    {
      "icao": "EPWA",
      "alert": "OK",
      "vis_m": 9999,
      "fzfg": false,
      "metar_trigger": false,
      "taf_trigger": false,
      "metar": "METAR EPWA 312100Z 17001KT CAVOK 16/11 Q1011 NOSIG",
      "taf": "TAF EPWA 312030Z 3121/0121 VRB02KT CAVOK"
    },
    {
      "icao": "EPWR",
      "alert": "OK",
      "vis_m": 9999,
      "fzfg": false,
      "metar_trigger": false,
      "taf_trigger": false,
      "metar": "METAR EPWR 312100Z 34004KT 310V010 9999 -RA NSC 17/14 Q1011",
      "taf": "TAF EPWR 312030Z 3121/0121 05006KT CAVOK"
    },
    {
      "icao": "ESGG",
      "alert": "OK",
      "vis_m": 9999,
      "fzfg": false,
      "metar_trigger": false,
      "taf_trigger": false,
      "metar": "METAR ESGG 312050Z 25003KT 9999 BKN006 12/11 Q1012",
      "taf": "TAF ESGG 312030Z 3121/0121 23004KT 9999 SCT030"
    },
    {
      "icao": "ESKN",
      "alert": "OK",
      "vis_m": 9999,
      "fzfg": false,
      "metar_trigger": false,
      "taf_trigger": false,
      "metar": "METAR ESKN 312050Z 08004KT 050V110 CAVOK 11/09 Q1012",
      "taf": "TAF ESKN 312030Z 3121/0121 13007KT CAVOK"
    },
    {
      "icao": "ESMS",
      "alert": "OK",
      "vis_m": 9999,
      "fzfg": false,
      "metar_trigger": false,
      "taf_trigger": false,
      "metar": "METAR ESMS 312050Z 30005KT CAVOK 13/12 Q1012",
      "taf": "TAF ESMS 312027Z 3121/0121 31008KT 9999 BKN020"
    },
    {
      "icao": "ESSA",
      "alert": "OK",
      "vis_m": 9999,
      "fzfg": false,
      "metar_trigger": false,
      "taf_trigger": false,
      "metar": "METAR ESSA 312050Z 11005KT CAVOK 13/07 Q1012 NOSIG",
      "taf": "TAF ESSA 312030Z 3121/0121 13007KT CAVOK"
    },
    {
      "icao": "EYKA",
      "alert": "OK",
      "vis_m": 9999,
      "fzfg": false,
      "metar_trigger": false,
      "taf_trigger": false,
      "metar": "METAR EYKA 312050Z 12004KT CAVOK 13/09 Q1013",
      "taf": "TAF EYKA 311700Z 3118/0118 VRB03KT 9000 NSC"
    },
    {
      "icao": "EYPA",
      "alert": "OK",
      "vis_m": 9999,
      "fzfg": false,
      "metar_trigger": false,
      "taf_trigger": false,
      "metar": "METAR EYPA 312050Z VRB01KT CAVOK 10/06 Q1012",
      "taf": "TAF EYPA 311700Z 3118/0118 VRB03KT 9000 NSC"
    },
    {
      "icao": "EYVI",
      "alert": "OK",
      "vis_m": 9999,
      "fzfg": false,
      "metar_trigger": false,
      "taf_trigger": false,
      "metar": "METAR EYVI 312050Z VRB01KT CAVOK 05/04 Q1013 NOSIG",
      "taf": "TAF EYVI 311700Z 3118/0118 VRB03KT 9000 NSC"
    },
    {
      "icao": "GCFV",
      "alert": "OK",
      "vis_m": 9999,
      "fzfg": false,
      "metar_trigger": false,
      "taf_trigger": false,
      "metar": "METAR GCFV 312100Z 36011KT 9999 FEW020 21/16 Q1019",
      "taf": "TAF GCFV 312000Z 3121/0121 36012KT 9999 FEW025 TX25/0114Z TN18/0106Z"
    },
    {
      "icao": "GCLP",
      "alert": "OK",
      "vis_m": 9999,
      "fzfg": false,
      "metar_trigger": false,
      "taf_trigger": false,
      "metar": "METAR GCLP 312100Z 01022KT 9999 SCT023 21/15 Q1019 NOSIG",
      "taf": "TAF GCLP 312000Z 3121/0121 02023KT 9999 FEW025 TX26/0114Z TN19/0106Z"
    },
    {
      "icao": "GCTS",
      "alert": "OK",
      "vis_m": 9999,
      "fzfg": false,
      "metar_trigger": false,
      "taf_trigger": false,
      "metar": "METAR GCTS 312100Z 08010KT 9999 SCT025 21/16 Q1020 NOSIG",
      "taf": "TAF GCTS 312000Z 3121/0121 07015KT 9999 FEW025 TX26/0114Z TN18/0106Z"
    },
    {
      "icao": "GMAD",
      "alert": "OK",
      "vis_m": 5000,
      "fzfg": false,
      "metar_trigger": false,
      "taf_trigger": false,
      "metar": "METAR GMAD 312100Z 21005KT 5000 BKN006 SCT013 21/17 Q1017 NOSIG",
      "taf": "TAF GMAD 311700Z 3118/0124 26013KT 8000 NSC"
    },
    {
      "icao": "GMMN",
      "alert": "OK",
      "vis_m": 9999,
      "fzfg": false,
      "metar_trigger": false,
      "taf_trigger": false,
      "metar": "METAR GMMN 312100Z 04005KT 020V080 9999 FEW020 21/18 Q1017 NOSIG",
      "taf": "TAF GMMN 311700Z 3118/0124 36013KT CAVOK"
    },
    {
      "icao": "GMMX",
      "alert": "OK",
      "vis_m": 9999,
      "fzfg": false,
      "metar_trigger": false,
      "taf_trigger": false,
      "metar": "METAR GMMX 312100Z 26007KT 9999 SCT033 FEW040CB 30/12 Q1017 NOSIG",
      "taf": "TAF GMMX 311700Z 3118/0124 30015KT 8000 SCT033 FEW040CB"
    },
    {
      "icao": "HEGN",
      "alert": "OK",
      "vis_m": 9999,
      "fzfg": false,
      "metar_trigger": false,
      "taf_trigger": false,
      "metar": "METAR HEGN 312000Z 31010KT CAVOK 29/11 Q1011 NOSIG",
      "taf": "TAF HEGN 311700Z 3118/0124 32008G20KT CAVOK"
    },
    {
      "icao": "HEMA",
      "alert": "OK",
      "vis_m": 9999,
      "fzfg": false,
      "metar_trigger": false,
      "taf_trigger": false,
      "metar": "METAR HEMA 312000Z 31010KT CAVOK 28/05 Q1010 NOSIG",
      "taf": "TAF HEMA 311700Z 3118/0124 33012G24KT CAVOK"
    },
    {
      "icao": "HESH",
      "alert": "OK",
      "vis_m": 9999,
      "fzfg": false,
      "metar_trigger": false,
      "taf_trigger": false,
      "metar": "METAR HESH 312000Z 35008KT CAVOK 31/08 Q1010 NOSIG",
      "taf": "TAF HESH 311700Z 3118/0124 36006G18KT CAVOK"
    },
    {
      "icao": "HESX",
      "alert": "OK",
      "vis_m": 9999,
      "fzfg": false,
      "metar_trigger": false,
      "taf_trigger": false,
      "metar": "METAR HESX 312000Z 33006KT CAVOK 24/07 Q1015 NOSIG",
      "taf": ""
    },
    {
      "icao": "LATI",
      "alert": "OK",
      "vis_m": null,
      "fzfg": false,
      "metar_trigger": false,
      "taf_trigger": false,
      "metar": "",
      "taf": "TAF LATI 311700Z 3118/0118 VRB05KT CAVOK TX30/0112Z TN14/0104Z"
    },
    {
      "icao": "LBPD",
      "alert": "OK",
      "vis_m": 9999,
      "fzfg": false,
      "metar_trigger": false,
      "taf_trigger": false,
      "metar": "METAR LBPD 312100Z AUTO VRB01KT 9999 BKN080/// 18/17 Q1013",
      "taf": "TAF LBPD 311700Z 3118/0118 28010KT 9999 SCT060"
    },
    {
      "icao": "LBSF",
      "alert": "OK",
      "vis_m": 9999,
      "fzfg": false,
      "metar_trigger": false,
      "taf_trigger": false,
      "metar": "METAR LBSF 312100Z AUTO 07005KT 9999 NCD 17/08 Q1015 NOSIG",
      "taf": "TAF LBSF 311700Z 3118/0118 28014KT 9999 SCT060"
    },
    {
      "icao": "LBWN",
      "alert": "OK",
      "vis_m": 9999,
      "fzfg": false,
      "metar_trigger": false,
      "taf_trigger": false,
      "metar": "METAR LBWN 312100Z AUTO 10003KT 9999 NSC 17/17 Q1011 NOSIG",
      "taf": "TAF LBWN 311700Z 3118/0118 30010KT 9999 SCT045"
    },
    {
      "icao": "LCLK",
      "alert": "OK",
      "vis_m": 9999,
      "fzfg": false,
      "metar_trigger": false,
      "taf_trigger": false,
      "metar": "METAR LCLK 312100Z 29004KT CAVOK 20/17 Q1014 NOSIG",
      "taf": "TAF LCLK 311730Z 3118/0118 31006KT 9999 FEW025"
    },
    {
      "icao": "LCPH",
      "alert": "OK",
      "vis_m": 9999,
      "fzfg": false,
      "metar_trigger": false,
      "taf_trigger": false,
      "metar": "METAR LCPH 312100Z 01004KT CAVOK 21/17 Q1014 NOSIG",
      "taf": "TAF LCPH 311730Z 3118/0118 01008KT 9999 FEW025"
    },
    {
      "icao": "LEAL",
      "alert": "OK",
      "vis_m": 9999,
      "fzfg": false,
      "metar_trigger": false,
      "taf_trigger": false,
      "metar": "METAR LEAL 312100Z 25001KT CAVOK 24/14 Q1017 NOSIG",
      "taf": ""
    },
    {
      "icao": "LEBB",
      "alert": "OK",
      "vis_m": 9999,
      "fzfg": false,
      "metar_trigger": false,
      "taf_trigger": false,
      "metar": "METAR LEBB 312100Z VRB02KT CAVOK 16/14 Q1024 NOSIG",
      "taf": "TAF LEBB 311700Z 3118/0118 32010KT 9999 FEW020 TX25/0113Z TN12/0105Z"
    },
    {
      "icao": "LEBL",
      "alert": "OK",
      "vis_m": 9999,
      "fzfg": false,
      "metar_trigger": false,
      "taf_trigger": false,
      "metar": "METAR LEBL 312100Z 12003KT 080V160 CAVOK 24/22 Q1017 NOSIG",
      "taf": "TAF LEBL 311700Z 3118/0118 17006KT 9999 FEW020 TX27/0112Z TN21/0105Z"
    },
    {
      "icao": "LECH",
      "alert": "OK",
      "vis_m": 9000,
      "fzfg": false,
      "metar_trigger": false,
      "taf_trigger": false,
      "metar": "METAR LECH 312100Z AUTO VRB01KT 9000 NSC 21/14 Q1019",
      "taf": ""
    },
    {
      "icao": "LEMD",
      "alert": "OK",
      "vis_m": 9999,
      "fzfg": false,
      "metar_trigger": false,
      "taf_trigger": false,
      "metar": "METAR LEMD 312100Z 25005KT 220V280 CAVOK 29/01 Q1018 NOSIG",
      "taf": "TAF LEMD 311700Z 3118/0124 24008KT CAVOK TX36/0116Z TN18/0105Z"
    },
    {
      "icao": "LEMG",
      "alert": "OK",
      "vis_m": 9999,
      "fzfg": false,
      "metar_trigger": false,
      "taf_trigger": false,
      "metar": "METAR LEMG 312100Z 13004KT CAVOK 22/15 Q1017 NOSIG",
      "taf": "TAF LEMG 311700Z 3118/0118 13010KT CAVOK TX29/0114Z TN19/0106Z"
    },
    {
      "icao": "LEVC",
      "alert": "OK",
      "vis_m": 9999,
      "fzfg": false,
      "metar_trigger": false,
      "taf_trigger": false,
      "metar": "METAR LEVC 312100Z 32003KT CAVOK 25/15 Q1017 NOSIG",
      "taf": "TAF LEVC 311700Z 3118/0118 10010KT 9999 FEW010 TX29/0112Z TN19/0106Z"
    },
    {
      "icao": "LEXJ",
      "alert": "OK",
      "vis_m": 9999,
      "fzfg": false,
      "metar_trigger": false,
      "taf_trigger": false,
      "metar": "METAR LEXJ 312100Z VRB02KT CAVOK 17/13 Q1023",
      "taf": "TAF LEXJ 312000Z 3121/0121 VRB03KT CAVOK TX21/0112Z TN13/0105Z"
    },
    {
      "icao": "LEZG",
      "alert": "OK",
      "vis_m": 9999,
      "fzfg": false,
      "metar_trigger": false,
      "taf_trigger": false,
      "metar": "METAR LEZG 312100Z 29018KT CAVOK 22/11 Q1019 NOSIG",
      "taf": "TAF LEZG 311700Z 3118/0118 30012KT CAVOK TX35/0115Z TN16/0106Z"
    },
    {
      "icao": "LEZL",
      "alert": "OK",
      "vis_m": 9999,
      "fzfg": false,
      "metar_trigger": false,
      "taf_trigger": false,
      "metar": "METAR LEZL 312100Z 22006KT CAVOK 30/14 Q1015 NOSIG",
      "taf": "TAF LEZL 312000Z 3121/0121 20010KT CAVOK TX40/0115Z TN20/0106Z"
    },
    {
      "icao": "LFBD",
      "alert": "OK",
      "vis_m": 9999,
      "fzfg": false,
      "metar_trigger": false,
      "taf_trigger": false,
      "metar": "METAR LFBD 312100Z AUTO 27004KT 250V320 CAVOK 18/14 Q1023 TEMPO BKN010",
      "taf": "TAF LFBD 311700Z 3118/0124 29010KT CAVOK TX27/0114Z TN16/0104Z"
    },
    {
      "icao": "LFLL",
      "alert": "OK",
      "vis_m": 9999,
      "fzfg": false,
      "metar_trigger": false,
      "taf_trigger": false,
      "metar": "METAR LFLL 312100Z 35005KT CAVOK 22/15 Q1019 NOSIG",
      "taf": "TAF LFLL 311700Z 3118/0124 35010KT CAVOK"
    },
    {
      "icao": "LFLS",
      "alert": "OK",
      "vis_m": 9999,
      "fzfg": false,
      "metar_trigger": false,
      "taf_trigger": false,
      "metar": "METAR LFLS 312100Z AUTO 36003KT 9999 SCT062 BKN170 BKN210 18/15 Q1020",
      "taf": "TAF LFLS 311400Z 3115/0115 35010KT CAVOK"
    },
    {
      "icao": "LFMN",
      "alert": "OK",
      "vis_m": 9999,
      "fzfg": false,
      "metar_trigger": false,
      "taf_trigger": false,
      "metar": "METAR LFMN 312100Z 08004KT 9999 FEW010 BKN230 23/21 Q1013 NOSIG",
      "taf": "TAF LFMN 312000Z 3121/0203 07008KT CAVOK"
    },
    {
      "icao": "LFOB",
      "alert": "OK",
      "vis_m": 9999,
      "fzfg": false,
      "metar_trigger": false,
      "taf_trigger": false,
      "metar": "METAR LFOB 312100Z AUTO 29006KT CAVOK 14/10 Q1020 NOSIG",
      "taf": "TAF LFOB 311700Z 3118/0118 30015KT 9999 SCT040"
    },
    {
      "icao": "LFPO",
      "alert": "OK",
      "vis_m": 9999,
      "fzfg": false,
      "metar_trigger": false,
      "taf_trigger": false,
      "metar": "METAR LFPO 312100Z AUTO 33007KT 300V010 CAVOK 20/13 Q1020 NOSIG",
      "taf": "TAF LFPO 311700Z 3118/0124 30008KT 9999 FEW040 SCT140"
    },
    {
      "icao": "LFSB",
      "alert": "OK",
      "vis_m": 9999,
      "fzfg": false,
      "metar_trigger": false,
      "taf_trigger": false,
      "metar": "METAR LFSB 312100Z AUTO 05001KT 9999 SCT041/// BKN110/// BKN130/// ///CB 18/17 Q1018 BECMG FEW030 BKN100",
      "taf": ""
    },
    {
      "icao": "LGAV",
      "alert": "OK",
      "vis_m": 9999,
      "fzfg": false,
      "metar_trigger": false,
      "taf_trigger": false,
      "metar": "METAR LGAV 312050Z 27003KT 9999 FEW025 22/13 Q1014 NOSIG",
      "taf": "TAF LGAV 311700Z 3118/0118 21010KT 9999 FEW025"
    },
    {
      "icao": "LGTS",
      "alert": "OK",
      "vis_m": 9999,
      "fzfg": false,
      "metar_trigger": false,
      "taf_trigger": false,
      "metar": "METAR LGTS 312050Z 12004KT 9999 FEW030 21/13 Q1012 NOSIG",
      "taf": "TAF LGTS 311700Z 3118/0118 VRB03KT 9999 FEW025"
    },
    {
      "icao": "LHBP",
      "alert": "OK",
      "vis_m": 9999,
      "fzfg": false,
      "metar_trigger": false,
      "taf_trigger": false,
      "metar": "METAR LHBP 312100Z VRB03KT 9999 FEW040 FEW050TCU BKN090 19/11 Q1011 NOSIG",
      "taf": "TAF LHBP 311715Z 3118/0118 27006KT CAVOK"
    },
    {
      "icao": "LHDC",
      "alert": "OK",
      "vis_m": 9999,
      "fzfg": false,
      "metar_trigger": false,
      "taf_trigger": false,
      "metar": "METAR LHDC 312045Z AUTO 10004KT 060V130 CAVOK 20/12 Q1011 NOSIG",
      "taf": "TAF LHDC 311715Z 3118/0103 VRB03KT CAVOK"
    },
    {
      "icao": "LIBD",
      "alert": "OK",
      "vis_m": 9999,
      "fzfg": false,
      "metar_trigger": false,
      "taf_trigger": false,
      "metar": "METAR LIBD 312050Z VRB02KT CAVOK 20/13 Q1014",
      "taf": "TAF LIBD 311700Z 3118/0118 22008KT CAVOK"
    },
    {
      "icao": "LIBG",
      "alert": "OK",
      "vis_m": null,
      "fzfg": false,
      "metar_trigger": false,
      "taf_trigger": false,
      "metar": "",
      "taf": "TAF LIBG 311100Z 3112/0112 21008KT CAVOK"
    },
    {
      "icao": "LIBP",
      "alert": "OK",
      "vis_m": 9999,
      "fzfg": false,
      "metar_trigger": false,
      "taf_trigger": false,
      "metar": "METAR LIBP 312050Z AUTO 23005KT 9999 NCD 21/14 Q1013",
      "taf": "TAF LIBP 311700Z 3118/0118 VRB05KT CAVOK"
    },
    {
      "icao": "LIBR",
      "alert": "OK",
      "vis_m": 9999,
      "fzfg": false,
      "metar_trigger": false,
      "taf_trigger": false,
      "metar": "METAR LIBR 312050Z 21003KT CAVOK 22/09 Q1014",
      "taf": "TAF LIBR 311700Z 3118/0118 VRB05KT CAVOK"
    },
    {
      "icao": "LICA",
      "alert": "OK",
      "vis_m": 9999,
      "fzfg": false,
      "metar_trigger": false,
      "taf_trigger": false,
      "metar": "METAR LICA 312050Z AUTO 25003KT 220V280 9999 BKN014/// 21/20 Q1017",
      "taf": "TAF LICA 311700Z 3118/0118 26010KT CAVOK"
    },
    {
      "icao": "LICC",
      "alert": "OK",
      "vis_m": 9999,
      "fzfg": false,
      "metar_trigger": false,
      "taf_trigger": false,
      "metar": "METAR LICC 312050Z 25005KT CAVOK 20/13 Q1016",
      "taf": "TAF LICC 311700Z 3118/0118 VRB05KT CAVOK"
    },
    {
      "icao": "LICJ",
      "alert": "OK",
      "vis_m": 9999,
      "fzfg": false,
      "metar_trigger": false,
      "taf_trigger": false,
      "metar": "METAR LICJ 312050Z 07004KT CAVOK 22/20 Q1017",
      "taf": "TAF LICJ 311700Z 3118/0118 03013KT CAVOK"
    },
    {
      "icao": "LIMC",
      "alert": "OK",
      "vis_m": 9999,
      "fzfg": false,
      "metar_trigger": false,
      "taf_trigger": false,
      "metar": "METAR LIMC 312050Z 04008KT 350V110 9999 BKN100 19/17 Q1013 RETS NOSIG",
      "taf": "TAF LIMC 311700Z 3118/0124 VRB05KT 9999 FEW040"
    },
    {
      "icao": "LIME",
      "alert": "OK",
      "vis_m": 9999,
      "fzfg": false,
      "metar_trigger": false,
      "taf_trigger": false,
      "metar": "METAR LIME 312050Z VRB02KT 9999 FEW030 SCT070 24/16 Q1013 TEMPO 4000 TSRA",
      "taf": ""
    },
    {
      "icao": "LIMF",
      "alert": "OK",
      "vis_m": 9999,
      "fzfg": false,
      "metar_trigger": false,
      "taf_trigger": false,
      "metar": "METAR LIMF 312050Z VRB02KT CAVOK 23/16 Q1012",
      "taf": "TAF LIMF 311700Z 3118/0118 VRB05KT CAVOK"
    },
    {
      "icao": "LIMJ",
      "alert": "OK",
      "vis_m": 9999,
      "fzfg": false,
      "metar_trigger": false,
      "taf_trigger": false,
      "metar": "METAR LIMJ 312050Z AUTO 12011KT 9999 BKN029/// BKN180/// 23/21 Q1014",
      "taf": "TAF LIMJ 311700Z 3118/0118 16010KT 9999 FEW020"
    },
    {
      "icao": "LIPE",
      "alert": "OK",
      "vis_m": 9999,
      "fzfg": false,
      "metar_trigger": false,
      "taf_trigger": false,
      "metar": "METAR LIPE 312050Z 19007KT CAVOK 26/14 Q1011",
      "taf": ""
    },
    {
      "icao": "LIPH",
      "alert": "OK",
      "vis_m": 7000,
      "fzfg": false,
      "metar_trigger": false,
      "taf_trigger": false,
      "metar": "METAR LIPH 312050Z 01005KT 330V040 7000 -TSRA FEW020CB SCT060 22/20 Q1012",
      "taf": "TAF LIPH 311700Z 3118/0118 VRB05KT 9999 SCT040"
    },
    {
      "icao": "LIPQ",
      "alert": "OK",
      "vis_m": 9999,
      "fzfg": false,
      "metar_trigger": false,
      "taf_trigger": false,
      "metar": "METAR LIPQ 312050Z AUTO VRB01KT 9999 BKN120/// OVC160/// 22/16 Q1012",
      "taf": "TAF LIPQ 311700Z 3118/0118 VRB05KT 9999 SCT050"
    },
    {
      "icao": "LIPR",
      "alert": "OK",
      "vis_m": 9999,
      "fzfg": false,
      "metar_trigger": false,
      "taf_trigger": false,
      "metar": "METAR LIPR 312050Z 18002KT CAVOK 21/17 Q1012",
      "taf": "TAF LIPR 311700Z 3118/0118 12007KT CAVOK"
    },
    {
      "icao": "LIPX",
      "alert": "OK",
      "vis_m": 9999,
      "fzfg": false,
      "metar_trigger": false,
      "taf_trigger": false,
      "metar": "METAR LIPX 312050Z 11004KT 9999 SCT075 24/18 Q1011",
      "taf": "TAF LIPX 311700Z 3118/0118 VRB05KT 9999 SCT040"
    },
    {
      "icao": "LIPY",
      "alert": "OK",
      "vis_m": 9999,
      "fzfg": false,
      "metar_trigger": false,
      "taf_trigger": false,
      "metar": "METAR LIPY 312050Z AUTO 20003KT 9999 NCD 23/16 Q1013",
      "taf": "TAF LIPY 311700Z 3118/0118 21006KT CAVOK"
    },
    {
      "icao": "LIPZ",
      "alert": "OK",
      "vis_m": 9999,
      "fzfg": false,
      "metar_trigger": false,
      "taf_trigger": false,
      "metar": "METAR LIPZ 312050Z 04009KT 9999 FEW065 23/19 Q1012 NOSIG",
      "taf": "TAF LIPZ 311700Z 3118/0124 12007KT CAVOK"
    },
    {
      "icao": "LIRF",
      "alert": "OK",
      "vis_m": 9999,
      "fzfg": false,
      "metar_trigger": false,
      "taf_trigger": false,
      "metar": "METAR LIRF 312050Z 26003KT CAVOK 21/19 Q1016 NOSIG",
      "taf": "TAF LIRF 311700Z 3118/0124 27010KT CAVOK"
    },
    {
      "icao": "LIRN",
      "alert": "OK",
      "vis_m": 9999,
      "fzfg": false,
      "metar_trigger": false,
      "taf_trigger": false,
      "metar": "METAR LIRN 312050Z 25004KT CAVOK 22/18 Q1017 NOSIG",
      "taf": "TAF LIRN 311700Z 3118/0118 VRB04KT CAVOK"
    },
    {
      "icao": "LIRP",
      "alert": "OK",
      "vis_m": 9999,
      "fzfg": false,
      "metar_trigger": false,
      "taf_trigger": false,
      "metar": "METAR LIRP 312045Z VRB02KT CAVOK 20/17 Q1015 NOSIG",
      "taf": "TAF LIRP 311700Z 3118/0118 27010KT CAVOK"
    },
    {
      "icao": "LIRZ",
      "alert": "OK",
      "vis_m": 9999,
      "fzfg": false,
      "metar_trigger": false,
      "taf_trigger": false,
      "metar": "METAR LIRZ 312050Z AUTO VRB02KT 9999 NCD 21/13 Q1016",
      "taf": "TAF LIRZ 311700Z 3118/0118 26010KT CAVOK"
    },
    {
      "icao": "LJLJ",
      "alert": "OK",
      "vis_m": 9999,
      "fzfg": false,
      "metar_trigger": false,
      "taf_trigger": false,
      "metar": "METAR LJLJ 312100Z VRB01KT 9999 VCSH FEW043TCU BKN100 BKN120 18/16 Q1015 NOSIG",
      "taf": "TAF LJLJ 311700Z 3118/0118 VRB02KT 9999 FEW060"
    },
    {
      "icao": "LKMT",
      "alert": "OK",
      "vis_m": 9999,
      "fzfg": false,
      "metar_trigger": false,
      "taf_trigger": false,
      "metar": "METAR LKMT 312100Z 22007KT CAVOK 17/14 Q1010 NOSIG",
      "taf": "TAF LKMT 311700Z 3118/0118 22006KT 9999 SCT045"
    },
    {
      "icao": "LKPR",
      "alert": "OK",
      "vis_m": 9999,
      "fzfg": false,
      "metar_trigger": false,
      "taf_trigger": false,
      "metar": "METAR LKPR 312100Z 23007KT 220V350 9999 -RA FEW008 SCT029 BKN045 15/14 Q1012 NOSIG",
      "taf": "TAF LKPR 312000Z 3121/0203 27008KT CAVOK"
    },
    {
      "icao": "LLBG",
      "alert": "OK",
      "vis_m": 9999,
      "fzfg": false,
      "metar_trigger": false,
      "taf_trigger": false,
      "metar": "METAR LLBG 312050Z VRB02KT 9999 FEW025 21/17 Q1014 NOSIG",
      "taf": "TAF LLBG 311703Z 3118/0118 VRB04KT 9999 FEW018 TX26/0112Z TN19/0103Z"
    },
    {
      "icao": "LMML",
      "alert": "OK",
      "vis_m": 9999,
      "fzfg": false,
      "metar_trigger": false,
      "taf_trigger": false,
      "metar": "METAR LMML 312115Z 27002KT CAVOK 21/19 Q1017 NOSIG",
      "taf": "TAF LMML 311700Z 3118/0118 28009KT 9999 FEW011"
    },
    {
      "icao": "LOWW",
      "alert": "OK",
      "vis_m": 9999,
      "fzfg": false,
      "metar_trigger": false,
      "taf_trigger": false,
      "metar": "METAR LOWW 312050Z 30007KT CAVOK 18/14 Q1012 NOSIG",
      "taf": "TAF LOWW 312015Z 3121/0203 VRB03KT 9999 FEW050 TX20/0112Z TN14/0203Z"
    },
    {
      "icao": "LPFR",
      "alert": "OK",
      "vis_m": 9999,
      "fzfg": false,
      "metar_trigger": false,
      "taf_trigger": false,
      "metar": "METAR LPFR 312100Z 30004KT 280V340 CAVOK 28/18 Q1016",
      "taf": "TAF LPFR 311700Z 3118/0118 27010KT CAVOK"
    },
    {
      "icao": "LPMA",
      "alert": "OK",
      "vis_m": 9999,
      "fzfg": false,
      "metar_trigger": false,
      "taf_trigger": false,
      "metar": "METAR LPMA 312100Z 36014KT 320V030 9999 FEW015 20/14 Q1022",
      "taf": "TAF LPMA 311700Z 3118/0118 01015KT 9999 SCT015"
    },
    {
      "icao": "LPPR",
      "alert": "OK",
      "vis_m": 9999,
      "fzfg": false,
      "metar_trigger": false,
      "taf_trigger": false,
      "metar": "METAR LPPR 312100Z 34010KT 9999 FEW007 17/15 Q1020",
      "taf": "TAF LPPR 311700Z 3118/0118 32013KT CAVOK"
    },
    {
      "icao": "LPPS",
      "alert": "OK",
      "vis_m": 9999,
      "fzfg": false,
      "metar_trigger": false,
      "taf_trigger": false,
      "metar": "METAR LPPS 312100Z 01008KT 9999 SCT012 18/16 Q1023",
      "taf": "TAF LPPS 311700Z 3118/0124 01015KT 9999 SCT015"
    },
    {
      "icao": "LPPT",
      "alert": "OK",
      "vis_m": 9999,
      "fzfg": false,
      "metar_trigger": false,
      "taf_trigger": false,
      "metar": "METAR LPPT 312100Z 35013KT 320V020 CAVOK 19/14 Q1020 WS R02",
      "taf": "TAF LPPT 311700Z 3118/0124 34015KT CAVOK"
    },
    {
      "icao": "LQBK",
      "alert": "OK",
      "vis_m": 9999,
      "fzfg": false,
      "metar_trigger": false,
      "taf_trigger": false,
      "metar": "METAR LQBK 312100Z 32015KT 9999 FEW047 18/14 Q1014 NOSIG",
      "taf": "TAF LQBK 311700Z 3118/0118 20005KT 9999 SCT040 TX27/3118Z TN15/0104Z"
    },
    {
      "icao": "LQSA",
      "alert": "OK",
      "vis_m": 9999,
      "fzfg": false,
      "metar_trigger": false,
      "taf_trigger": false,
      "metar": "METAR LQSA 312100Z VRB02KT CAVOK 19/11 Q1015 NOSIG",
      "taf": "TAF LQSA 311700Z 3118/0118 VRB02KT CAVOK TX27/0113Z TN14/0104Z"
    },
    {
      "icao": "LQTZ",
      "alert": "OK",
      "vis_m": 9999,
      "fzfg": false,
      "metar_trigger": false,
      "taf_trigger": false,
      "metar": "METAR LQTZ 312100Z 30005KT CAVOK 17/14 Q1014",
      "taf": "TAF LQTZ 311700Z 3118/0118 VRB02KT CAVOK TX26/3118Z TN13/0103Z"
    },
    {
      "icao": "LRBC",
      "alert": "OK",
      "vis_m": 9999,
      "fzfg": false,
      "metar_trigger": false,
      "taf_trigger": false,
      "metar": "METAR LRBC 312100Z 00000KT 9999 -RA SCT034 OVC051 16/14 Q1013",
      "taf": "TAF LRBC 312000Z 3121/0106 VRB04KT CAVOK"
    },
    {
      "icao": "LRBS",
      "alert": "OK",
      "vis_m": 9999,
      "fzfg": false,
      "metar_trigger": false,
      "taf_trigger": false,
      "metar": "METAR LRBS 312100Z COR 06003KT 010V080 CAVOK 17/15 Q1013 NOSIG",
      "taf": "TAF LRBS 311700Z 3118/0118 07010KT CAVOK"
    },
    {
      "icao": "LRBV",
      "alert": "OK",
      "vis_m": 9999,
      "fzfg": false,
      "metar_trigger": false,
      "taf_trigger": false,
      "metar": "METAR LRBV 312100Z AUTO 31003KT 280V340 9999 OVC093/// 16/09 Q1013",
      "taf": "TAF LRBV 311700Z 3118/0103 VRB04KT 9999 SCT050"
    },
    {
      "icao": "LRCL",
      "alert": "OK",
      "vis_m": 9999,
      "fzfg": false,
      "metar_trigger": false,
      "taf_trigger": false,
      "metar": "METAR LRCL 312100Z 27003KT CAVOK 16/10 Q1013",
      "taf": "TAF LRCL 312000Z 3121/0106 VRB04KT CAVOK"
    },
    {
      "icao": "LRCV",
      "alert": "OK",
      "vis_m": 9999,
      "fzfg": false,
      "metar_trigger": false,
      "taf_trigger": false,
      "metar": "METAR LRCV 312100Z VRB02KT CAVOK 16/12 Q1012",
      "taf": "TAF LRCV 312000Z 3121/0106 VRB04KT CAVOK"
    },
    {
      "icao": "LRIA",
      "alert": "OK",
      "vis_m": 9999,
      "fzfg": false,
      "metar_trigger": false,
      "taf_trigger": false,
      "metar": "METAR LRIA 312100Z 30004KT 9999 SCT047 15/12 Q1012",
      "taf": "TAF LRIA 312000Z 3121/0106 VRB04KT CAVOK"
    },
    {
      "icao": "LROP",
      "alert": "OK",
      "vis_m": 9999,
      "fzfg": false,
      "metar_trigger": false,
      "taf_trigger": false,
      "metar": "METAR LROP 312100Z 04003KT 350V080 CAVOK 17/15 Q1013",
      "taf": ""
    },
    {
      "icao": "LRSB",
      "alert": "OK",
      "vis_m": 9999,
      "fzfg": false,
      "metar_trigger": false,
      "taf_trigger": false,
      "metar": "METAR LRSB 312100Z 18002KT 9999 FEW085 14/12 Q1013",
      "taf": "TAF LRSB 311700Z 3118/0118 VRB04KT 9999 SCT045"
    },
    {
      "icao": "LRSM",
      "alert": "OK",
      "vis_m": 9999,
      "fzfg": false,
      "metar_trigger": false,
      "taf_trigger": false,
      "metar": "METAR LRSM 312100Z AUTO 05009KT 9999 -RA BKN050/// OVC075/// 17/13 Q1012",
      "taf": ""
    },
    {
      "icao": "LRSV",
      "alert": "OK",
      "vis_m": 9999,
      "fzfg": false,
      "metar_trigger": false,
      "taf_trigger": false,
      "metar": "METAR LRSV 312100Z 30006KT CAVOK 13/11 Q1012",
      "taf": "TAF LRSV 312000Z 3121/0106 26006KT CAVOK"
    },
    {
      "icao": "LRTM",
      "alert": "OK",
      "vis_m": 9999,
      "fzfg": false,
      "metar_trigger": false,
      "taf_trigger": false,
      "metar": "METAR LRTM 312100Z 12002KT CAVOK 14/10 Q1012",
      "taf": "TAF LRTM 312000Z 3121/0106 VRB04KT CAVOK"
    },
    {
      "icao": "LRTR",
      "alert": "OK",
      "vis_m": 9999,
      "fzfg": false,
      "metar_trigger": false,
      "taf_trigger": false,
      "metar": "METAR LRTR 312100Z 00000KT CAVOK 16/11 Q1011 NOSIG",
      "taf": "TAF LRTR 311700Z 3118/0118 VRB04KT CAVOK"
    },
    {
      "icao": "LTAC",
      "alert": "OK",
      "vis_m": 9999,
      "fzfg": false,
      "metar_trigger": false,
      "taf_trigger": false,
      "metar": "METAR LTAC 312050Z 01003KT 9999 SCT040 SCT100 11/06 Q1016 NOSIG RMK RWY21C 36002KT RWY03L 01002KT RWY21R 36002KT RWY03R 00000KT RWY21L VRB02KT",
      "taf": "TAF LTAC 311640Z 3118/0118 VRB02KT 9999 SCT040 SCT200"
    },
    {
      "icao": "LTFM",
      "alert": "OK",
      "vis_m": 9999,
      "fzfg": false,
      "metar_trigger": false,
      "taf_trigger": false,
      "metar": "METAR LTFM 312050Z 24008KT CAVOK 19/14 Q1012 NOSIG RMK RWY17L 24010KT RWY34L 23007KT RWY16R 23008KT RWY36 22008KT RWY18 24010G20KT",
      "taf": "TAF LTFM 311640Z 3118/0124 23010KT 9999 SCT035 BKN100"
    },
    {
      "icao": "LUKK",
      "alert": "OK",
      "vis_m": 9999,
      "fzfg": false,
      "metar_trigger": false,
      "taf_trigger": false,
      "metar": "METAR LUKK 312100Z VRB02KT CAVOK 15/09 Q1012 NOSIG",
      "taf": "TAF LUKK 311718Z 3118/0118 VRB06KT 9999 SCT040"
    },
    {
      "icao": "LWOH",
      "alert": "OK",
      "vis_m": null,
      "fzfg": false,
      "metar_trigger": false,
      "taf_trigger": false,
      "metar": "",
      "taf": "TAF LWOH 312055Z 3121/0121 VRB02KT 9999 FEW040"
    },
    {
      "icao": "LWSK",
      "alert": "OK",
      "vis_m": null,
      "fzfg": false,
      "metar_trigger": false,
      "taf_trigger": false,
      "metar": "",
      "taf": "TAF LWSK 312055Z 3121/0121 VRB02KT CAVOK"
    },
    {
      "icao": "LYBE",
      "alert": "OK",
      "vis_m": 9999,
      "fzfg": false,
      "metar_trigger": false,
      "taf_trigger": false,
      "metar": "METAR LYBE 312100Z 24005KT CAVOK 23/12 Q1012 NOSIG",
      "taf": "TAF LYBE 311700Z 3118/0118 25006KT CAVOK TX26/0110Z TN18/0104Z"
    },
    {
      "icao": "LYNI",
      "alert": "OK",
      "vis_m": 9999,
      "fzfg": false,
      "metar_trigger": false,
      "taf_trigger": false,
      "metar": "METAR LYNI 312100Z 13003KT 100V190 CAVOK 17/10 Q1014 NOSIG",
      "taf": "TAF LYNI 311700Z 3118/0118 09005KT CAVOK TX30/0112Z TN11/0104Z"
    },
    {
      "icao": "LYPG",
      "alert": "OK",
      "vis_m": 9999,
      "fzfg": false,
      "metar_trigger": false,
      "taf_trigger": false,
      "metar": "METAR LYPG 312100Z VRB01KT CAVOK 21/15 Q1015 NOSIG",
      "taf": "TAF LYPG 311700Z 3118/0118 16008KT CAVOK TX30/0114Z TN17/0103Z"
    },
    {
      "icao": "LZIB",
      "alert": "OK",
      "vis_m": 9999,
      "fzfg": false,
      "metar_trigger": false,
      "taf_trigger": false,
      "metar": "METAR LZIB 312100Z 24009KT 210V290 CAVOK 19/14 Q1012 NOSIG",
      "taf": "TAF LZIB 311715Z 3118/0118 30006KT CAVOK"
    },
    {
      "icao": "LZKZ",
      "alert": "OK",
      "vis_m": 9999,
      "fzfg": false,
      "metar_trigger": false,
      "taf_trigger": false,
      "metar": "METAR LZKZ 312100Z VRB02KT CAVOK 17/12 Q1012 NOSIG",
      "taf": "TAF LZKZ 311715Z 3118/0118 20005KT CAVOK"
    },
    {
      "icao": "LZTT",
      "alert": "OK",
      "vis_m": 9999,
      "fzfg": false,
      "metar_trigger": false,
      "taf_trigger": false,
      "metar": "METAR LZTT 312100Z 29003KT 9999 FEW060 SCT076 11/08 Q1013",
      "taf": "TAF LZTT 311715Z 3118/0118 27009KT 9999 BKN040"
    },
    {
      "icao": "OEJN",
      "alert": "OK",
      "vis_m": 9999,
      "fzfg": false,
      "metar_trigger": false,
      "taf_trigger": false,
      "metar": "METAR OEJN 312100Z 36006KT CAVOK 27/21 Q1008 NOSIG",
      "taf": "TAF OEJN 311700Z 3118/0124 35008KT CAVOK"
    },
    {
      "icao": "OEMA",
      "alert": "OK",
      "vis_m": 9999,
      "fzfg": false,
      "metar_trigger": false,
      "taf_trigger": false,
      "metar": "METAR OEMA 312100Z 21004KT CAVOK 34/03 Q1012 NOSIG",
      "taf": "TAF OEMA 311700Z 3118/0124 28006KT CAVOK"
    },
    {
      "icao": "OJAI",
      "alert": "OK",
      "vis_m": 5000,
      "fzfg": false,
      "metar_trigger": false,
      "taf_trigger": false,
      "metar": "METAR OJAI 312100Z 28004KT 5000 HZ NSC 19/10 Q1017 NOSIG",
      "taf": "TAF OJAI 311700Z 3118/0124 30010KT 5000 HZ FEW035"
    },
    {
      "icao": "OMAA",
      "alert": "OK",
      "vis_m": 9999,
      "fzfg": false,
      "metar_trigger": false,
      "taf_trigger": false,
      "metar": "METAR OMAA 312100Z 22004KT 190V250 CAVOK 29/23 Q1004 NOSIG",
      "taf": "TAF OMAA 311700Z 3118/0200 21005KT 8000 NSC"
    },
    {
      "icao": "OMDB",
      "alert": "OK",
      "vis_m": 9999,
      "fzfg": false,
      "metar_trigger": false,
      "taf_trigger": false,
      "metar": "METAR OMDB 312100Z 19009KT CAVOK 31/23 Q1003 NOSIG",
      "taf": "TAF OMDB 311700Z 3118/0200 19007KT CAVOK"
    },
    {
      "icao": "UAAA",
      "alert": "OK",
      "vis_m": 9999,
      "fzfg": false,
      "metar_trigger": false,
      "taf_trigger": false,
      "metar": "METAR UAAA 312100Z 15004MPS 9999 SCT100 24/08 Q1010 NOSIG",
      "taf": "TAF UAAA 311701Z 3118/0118 18003MPS 9999 FEW050CB SCT100 TX35/0110Z TN19/0101Z"
    },
    {
      "icao": "UBBB",
      "alert": "OK",
      "vis_m": 9999,
      "fzfg": false,
      "metar_trigger": false,
      "taf_trigger": false,
      "metar": "METAR UBBB 312100Z 32008KT CAVOK 17/13 Q1014 NOSIG",
      "taf": "TAF UBBB 311702Z 3118/0118 31010KT CAVOK TX24/0111Z TN15/3123Z"
    },
    {
      "icao": "UDSG",
      "alert": "OK",
      "vis_m": 9999,
      "fzfg": false,
      "metar_trigger": false,
      "taf_trigger": false,
      "metar": "METAR UDSG 312100Z 06003KT 360V100 9999 NSC 02/M01 Q1021 NOSIG",
      "taf": "TAF UDSG 311658Z 3118/0118 36006KT 9999 FEW050"
    },
    {
      "icao": "UDYZ",
      "alert": "OK",
      "vis_m": 9999,
      "fzfg": false,
      "metar_trigger": false,
      "taf_trigger": false,
      "metar": "METAR UDYZ 312100Z VRB01KT 9999 NSC 11/03 Q1017 NOSIG",
      "taf": "TAF UDYZ 311700Z 3118/0118 03006KT 9999 FEW040"
    },
    {
      "icao": "UGKO",
      "alert": "OK",
      "vis_m": 9999,
      "fzfg": false,
      "metar_trigger": false,
      "taf_trigger": false,
      "metar": "METAR UGKO 312100Z AUTO 08007KT CAVOK 11/09 Q1017 NOSIG",
      "taf": "TAF UGKO 311700Z 3118/0118 08007KT CAVOK TX27/0112Z TN09/0101Z"
    }
  ]
}