{
  "ts_utc": "2026-01-18T18:38:30Z",
  "threshold_m": 150,
  "source": "stations_override.txt (ICAO list) + aviationweather.gov (METAR/TAF raw)",
  "station_count": 159,
  "stations": [
    {
      "icao": "BIKF",
      "alert": "OK",
      "vis_m": 9999,
      "fzfg": false,
      "metar_trigger": false,
      "taf_trigger": false,
      "metar": "METAR BIKF 181830Z 12028G40KT 9999 -RA BKN016 OVC035 07/05 Q0990",
      "taf": "TAF BIKF 181637Z 1818/1918 13026G36KT 8000 RA BKN012 OVC022 TX06/1818Z TN01/1909Z"
    },
    {
      "icao": "BKPR",
      "alert": "OK",
      "vis_m": 9999,
      "fzfg": false,
      "metar_trigger": false,
      "taf_trigger": false,
      "metar": "METAR BKPR 181830Z 35014KT CAVOK M03/M06 Q1029 NOSIG",
      "taf": "TAF BKPR 181730Z 1818/1918 02012KT CAVOK"
    },
    {
      "icao": "EBCI",
      "alert": "OK",
      "vis_m": 9999,
      "fzfg": false,
      "metar_trigger": false,
      "taf_trigger": false,
      "metar": "METAR EBCI 181820Z 06003KT CAVOK 05/04 Q1017 NOSIG",
      "taf": "TAF EBCI 181702Z 1818/1924 17004KT CAVOK"
    },
    {
      "icao": "EDDB",
      "alert": "OK",
      "vis_m": 9999,
      "fzfg": false,
      "metar_trigger": false,
      "taf_trigger": false,
      "metar": "METAR EDDB 181820Z AUTO 09006KT CAVOK M00/M03 Q1026 NOSIG",
      "taf": "TAF EDDB 181700Z 1818/1918 11009KT CAVOK"
    },
    {
      "icao": "EDDH",
      "alert": "OK",
      "vis_m": 9999,
      "fzfg": false,
      "metar_trigger": false,
      "taf_trigger": false,
      "metar": "METAR EDDH 181820Z AUTO 12009KT CAVOK 02/M00 Q1023 NOSIG",
      "taf": "TAF EDDH 181700Z 1818/1924 12009KT CAVOK"
    },
    {
      "icao": "EDDK",
      "alert": "OK",
      "vis_m": 9999,
      "fzfg": false,
      "metar_trigger": false,
      "taf_trigger": false,
      "metar": "METAR EDDK 181820Z AUTO 12007KT 080V150 9999 OVC011 03/00 Q1020 NOSIG",
      "taf": "TAF EDDK 181700Z 1818/1924 12007KT 9999 OVC009"
    },
    {
      "icao": "EDDN",
      "alert": "OK",
      "vis_m": 9999,
      "fzfg": false,
      "metar_trigger": false,
      "taf_trigger": false,
      "metar": "METAR EDDN 181820Z AUTO 10007KT CAVOK 01/M02 Q1020 NOSIG",
      "taf": "TAF EDDN 181700Z 1818/1918 10007KT CAVOK"
    },
    {
      "icao": "EDDS",
      "alert": "OK",
      "vis_m": 9999,
      "fzfg": false,
      "metar_trigger": false,
      "taf_trigger": false,
      "metar": "METAR EDDS 181820Z AUTO 11003KT 070V150 9999 OVC010 01/M01 Q1018 NOSIG",
      "taf": "TAF EDDS 181700Z 1818/1918 09005KT 9999 OVC012"
    },
    {
      "icao": "EDFH",
      "alert": "OK",
      "vis_m": 4000,
      "fzfg": true,
      "metar_trigger": false,
      "taf_trigger": false,
      "metar": "METAR EDFH 181820Z 12014KT 4000 BR OVC001 00/M00 Q1018",
      "taf": "TAF EDFH 181700Z 1818/1918 14010KT 0300 FZFG VV000"
    },
    {
      "icao": "EDJA",
      "alert": "OK",
      "vis_m": 750,
      "fzfg": true,
      "metar_trigger": false,
      "taf_trigger": false,
      "metar": "METAR EDJA 181820Z 07003KT 040V110 0750 R06/1000D FZFG VV/// M02/M03 Q1018",
      "taf": "TAF EDJA 181700Z 1818/1903 VRB03KT 1500 BR OVC001"
    },
    {
      "icao": "EDLW",
      "alert": "OK",
      "vis_m": 9999,
      "fzfg": false,
      "metar_trigger": false,
      "taf_trigger": false,
      "metar": "METAR EDLW 181820Z 00000KT CAVOK 01/M00 Q1019",
      "taf": "TAF EDLW 181700Z 1818/1918 11004KT CAVOK"
    },
    {
      "icao": "EDNY",
      "alert": "OK",
      "vis_m": 9999,
      "fzfg": false,
      "metar_trigger": false,
      "taf_trigger": false,
      "metar": "METAR EDNY 181820Z 01005KT 340V040 9999 OVC007 M01/M01 Q1019",
      "taf": "TAF EDNY 181700Z 1818/1903 03004KT 9999 BKN007"
    },
    {
      "icao": "EDSB",
      "alert": "OK",
      "vis_m": 8000,
      "fzfg": false,
      "metar_trigger": false,
      "taf_trigger": false,
      "metar": "METAR EDSB 181820Z 18005KT 8000 SCT013 M00/M02 Q1020",
      "taf": "TAF EDSB 181700Z 1818/1918 VRB03KT 9999 SCT015"
    },
    {
      "icao": "EETN",
      "alert": "OK",
      "vis_m": 400,
      "fzfg": true,
      "metar_trigger": false,
      "taf_trigger": false,
      "metar": "METAR EETN 181820Z 17003KT 0400 R26/1200N FZFG VV002 M04/M05 Q1037 TEMPO 0800",
      "taf": "TAF EETN 181730Z 1818/1918 19005KT 0500 FZFG OVC002"
    },
    {
      "icao": "EFTU",
      "alert": "OK",
      "vis_m": 5000,
      "fzfg": false,
      "metar_trigger": false,
      "taf_trigger": false,
      "metar": "METAR EFTU 181820Z AUTO 18006KT 150V210 5000 -SHRA OVC002 01/01 Q1034",
      "taf": "TAF EFTU 181736Z 1818/1918 18005KT 4000 BR OVC004"
    },
    {
      "icao": "EGBB",
      "alert": "OK",
      "vis_m": 350,
      "fzfg": false,
      "metar_trigger": false,
      "taf_trigger": false,
      "metar": "METAR EGBB 181820Z 13002KT 0350 R15/P1500N FG OVC002 06/06 Q1015 RERA",
      "taf": "TAF EGBB 181703Z 1818/1918 15005KT 3000 RADZ BR BKN003"
    },
    {
      "icao": "EGGP",
      "alert": "OK",
      "vis_m": 9999,
      "fzfg": false,
      "metar_trigger": false,
      "taf_trigger": false,
      "metar": "METAR EGGP 181820Z 16003KT 9999 FEW004 BKN007 05/05 Q1015",
      "taf": "TAF EGGP 181702Z 1818/1918 17003KT 7000 -RADZ BKN012"
    },
    {
      "icao": "EGGW",
      "alert": "OK",
      "vis_m": 8000,
      "fzfg": false,
      "metar_trigger": false,
      "taf_trigger": false,
      "metar": "METAR EGGW 181820Z AUTO 12003KT 8000 NCD 08/07 Q1015",
      "taf": "TAF EGGW 181706Z 1818/1918 13006KT 9999 SCT045"
    },
    {
      "icao": "EGKK",
      "alert": "OK",
      "vis_m": 9999,
      "fzfg": false,
      "metar_trigger": false,
      "taf_trigger": false,
      "metar": "METAR EGKK 181820Z 09004KT CAVOK 09/09 Q1015",
      "taf": "TAF EGKK 181658Z 1818/1924 14006KT 9999 FEW045"
    },
    {
      "icao": "EGNM",
      "alert": "OK",
      "vis_m": 1200,
      "fzfg": false,
      "metar_trigger": false,
      "taf_trigger": false,
      "metar": "METAR EGNM 181820Z 18004KT 1200 R32/P1500N -RA BR SCT001 OVC002 05/05 Q1014",
      "taf": "TAF EGNM 181702Z 1818/1918 06003KT 0300 FG VV///"
    },
    {
      "icao": "EGPD",
      "alert": "OK",
      "vis_m": 8000,
      "fzfg": false,
      "metar_trigger": false,
      "taf_trigger": false,
      "metar": "METAR EGPD 181820Z 14009KT 8000 -RA BKN006 07/06 Q1015 TEMPO 4000 RADZ BKN004",
      "taf": "TAF EGPD 181657Z 1818/1918 14008KT 9999 BKN010"
    },
    {
      "icao": "EGPF",
      "alert": "OK",
      "vis_m": 9000,
      "fzfg": false,
      "metar_trigger": false,
      "taf_trigger": false,
      "metar": "METAR EGPF 181820Z AUTO 10004KT 010V120 9000 -RA OVC017 06/05 Q1014",
      "taf": "TAF EGPF 181701Z 1818/1918 06003KT 9999 FEW020 SCT040"
    },
    {
      "icao": "EHBK",
      "alert": "OK",
      "vis_m": 9999,
      "fzfg": false,
      "metar_trigger": false,
      "taf_trigger": false,
      "metar": "METAR EHBK 181825Z AUTO 08010KT 9999 NSC 01/00 Q1018 NOSIG",
      "taf": "TAF EHBK 181720Z 1818/1924 08006KT CAVOK"
    },
    {
      "icao": "EHEH",
      "alert": "OK",
      "vis_m": 9999,
      "fzfg": false,
      "metar_trigger": false,
      "taf_trigger": false,
      "metar": "METAR EHEH 181825Z AUTO 10007KT 050V150 9999 NCD 03/00 Q1019 BLU NOSIG RMK TREND REMOTE BY EHWX",
      "taf": "TAF EHEH 181739Z 1818/1924 10005KT CAVOK"
    },
    {
      "icao": "EKBI",
      "alert": "OK",
      "vis_m": 6000,
      "fzfg": false,
      "metar_trigger": false,
      "taf_trigger": false,
      "metar": "METAR EKBI 181820Z AUTO 10009KT 6000 OVC007/// 02/01 Q1024",
      "taf": "TAF EKBI 181727Z 1818/1918 12010KT 4000 BR BKN005"
    },
    {
      "icao": "EKCH",
      "alert": "OK",
      "vis_m": 8000,
      "fzfg": false,
      "metar_trigger": false,
      "taf_trigger": false,
      "metar": "METAR EKCH 181820Z 11014KT 8000 BKN007 03/02 Q1028 BECMG BKN020",
      "taf": "TAF EKCH 181727Z 1818/1918 13012KT 9999 BKN008"
    },
    {
      "icao": "ENAL",
      "alert": "OK",
      "vis_m": 9999,
      "fzfg": false,
      "metar_trigger": false,
      "taf_trigger": false,
      "metar": "METAR ENAL 181820Z 07005KT 9999 -RA FEW050 SCT059 04/01 Q1023",
      "taf": "TAF ENAL 181700Z 1818/1903 08005KT 9999 -RA FEW030 BKN050"
    },
    {
      "icao": "ENBR",
      "alert": "OK",
      "vis_m": 3500,
      "fzfg": false,
      "metar_trigger": false,
      "taf_trigger": false,
      "metar": "METAR ENBR 181820Z 21003KT 180V240 3500 BR -DZ OVC004 04/04 Q1023 TEMPO 1500 -RADZ BR RMK WIND 1200FT 23009KT",
      "taf": "TAF ENBR 181700Z 1818/1918 13005KT 0800 -DZ FG VV002"
    },
    {
      "icao": "ENGM",
      "alert": "OK",
      "vis_m": 3500,
      "fzfg": false,
      "metar_trigger": false,
      "taf_trigger": false,
      "metar": "METAR ENGM 181820Z 05003KT 010V090 3500 BR BKN002 00/M00 Q1029 TEMPO 2500 BR",
      "taf": "TAF ENGM 181700Z 1818/1918 05005KT 5000 BKN005"
    },
    {
      "icao": "ENHD",
      "alert": "OK",
      "vis_m": 9999,
      "fzfg": false,
      "metar_trigger": false,
      "taf_trigger": false,
      "metar": "METAR ENHD 181820Z 15005KT 9999 BKN047 04/02 Q1023",
      "taf": "TAF ENHD 181400Z 1815/1823 15005KT 9999 BKN008"
    },
    {
      "icao": "ENTC",
      "alert": "OK",
      "vis_m": 9999,
      "fzfg": false,
      "metar_trigger": false,
      "taf_trigger": false,
      "metar": "METAR ENTC 181820Z 23006KT 180V260 9999 -RA FEW007 BKN009 03/01 Q1029 TEMPO SCT009 BKN016 RMK WIND 2600FT 25018KT",
      "taf": "TAF ENTC 181700Z 1818/1918 21009KT 9999 -SHRA FEW008 BKN018"
    },
    {
      "icao": "ENTO",
      "alert": "OK",
      "vis_m": 9999,
      "fzfg": false,
      "metar_trigger": false,
      "taf_trigger": false,
      "metar": "METAR ENTO 181820Z 06005KT 9999 BKN003 00/00 Q1029 NOSIG",
      "taf": ""
    },
    {
      "icao": "ENVA",
      "alert": "OK",
      "vis_m": 9999,
      "fzfg": false,
      "metar_trigger": false,
      "taf_trigger": false,
      "metar": "METAR ENVA 181820Z 08005KT CAVOK M04/M05 Q1027 RMK WIND 670FT 09011KT",
      "taf": "TAF ENVA 181700Z 1818/1918 08008KT CAVOK"
    },
    {
      "icao": "ENZV",
      "alert": "OK",
      "vis_m": 9999,
      "fzfg": false,
      "metar_trigger": false,
      "taf_trigger": false,
      "metar": "METAR ENZV 181820Z 18003KT 9999 BKN037 03/00 Q1024 NOSIG",
      "taf": "TAF ENZV 181700Z 1818/1918 16008KT 9999 BKN035"
    },
    {
      "icao": "EPGD",
      "alert": "OK",
      "vis_m": 9999,
      "fzfg": false,
      "metar_trigger": false,
      "taf_trigger": false,
      "metar": "METAR EPGD 181830Z 18008KT CAVOK M10/M11 Q1033",
      "taf": "TAF EPGD 181730Z 1818/1918 17007KT 8000 NSC"
    },
    {
      "icao": "EPKK",
      "alert": "OK",
      "vis_m": 6000,
      "fzfg": false,
      "metar_trigger": false,
      "taf_trigger": false,
      "metar": "METAR EPKK 181830Z 08003KT 040V100 6000 NSC M09/M13 Q1033",
      "taf": "TAF EPKK 181730Z 1818/1918 06005KT 7000 NSC"
    },
    {
      "icao": "EPKT",
      "alert": "OK",
      "vis_m": 9999,
      "fzfg": false,
      "metar_trigger": false,
      "taf_trigger": false,
      "metar": "METAR EPKT 181830Z 10005KT CAVOK M09/M12 Q1032",
      "taf": "TAF EPKT 181730Z 1818/1918 11006KT CAVOK"
    },
    {
      "icao": "EPLB",
      "alert": "OK",
      "vis_m": 8000,
      "fzfg": false,
      "metar_trigger": false,
      "taf_trigger": false,
      "metar": "METAR EPLB 181830Z 11005KT 8000 NSC M14/M16 Q1038",
      "taf": "TAF EPLB 181730Z 1818/1918 11008KT 8000 NSC"
    },
    {
      "icao": "EPMO",
      "alert": "OK",
      "vis_m": 6000,
      "fzfg": false,
      "metar_trigger": false,
      "taf_trigger": false,
      "metar": "METAR EPMO 181830Z 09007KT 6000 NSC M11/M13 Q1036",
      "taf": "TAF EPMO 181730Z 1818/1918 09008KT 7000 NSC"
    },
    {
      "icao": "EPPO",
      "alert": "OK",
      "vis_m": 9999,
      "fzfg": false,
      "metar_trigger": false,
      "taf_trigger": false,
      "metar": "METAR EPPO 181830Z 11010KT CAVOK M04/M07 Q1031",
      "taf": "TAF EPPO 181730Z 1818/1918 10010KT 8000 NSC"
    },
    {
      "icao": "EPRA",
      "alert": "OK",
      "vis_m": 9999,
      "fzfg": false,
      "metar_trigger": false,
      "taf_trigger": false,
      "metar": "METAR EPRA 181830Z 12011KT CAVOK M08/M12 Q1035",
      "taf": "TAF EPRA 181730Z 1818/1903 12010KT CAVOK"
    },
    {
      "icao": "EPRZ",
      "alert": "OK",
      "vis_m": 9999,
      "fzfg": false,
      "metar_trigger": false,
      "taf_trigger": false,
      "metar": "METAR EPRZ 181830Z 09009KT CAVOK M09/M12 Q1035",
      "taf": "TAF EPRZ 181730Z 1818/1918 08011KT CAVOK"
    },
    {
      "icao": "EPSC",
      "alert": "OK",
      "vis_m": 9999,
      "fzfg": false,
      "metar_trigger": false,
      "taf_trigger": false,
      "metar": "METAR EPSC 181830Z 12012KT CAVOK M01/M03 Q1029",
      "taf": "TAF EPSC 181730Z 1818/1918 12007KT 8000 NSC"
    },
    {
      "icao": "EPSY",
      "alert": "OK",
      "vis_m": 9999,
      "fzfg": false,
      "metar_trigger": false,
      "taf_trigger": false,
      "metar": "METAR EPSY 181830Z 12003KT 070V160 CAVOK M12/M14 Q1037",
      "taf": "TAF EPSY 181730Z 1818/1903 13006KT CAVOK"
    },
    {
      "icao": "EPWA",
      "alert": "OK",
      "vis_m": 9999,
      "fzfg": false,
      "metar_trigger": false,
      "taf_trigger": false,
      "metar": "METAR EPWA 181830Z 11009KT CAVOK M09/M12 Q1036 NOSIG",
      "taf": "TAF EPWA 181730Z 1818/1918 11009KT CAVOK"
    },
    {
      "icao": "EPWR",
      "alert": "OK",
      "vis_m": 5000,
      "fzfg": false,
      "metar_trigger": false,
      "taf_trigger": false,
      "metar": "METAR EPWR 181830Z 13009KT 5000 BR NSC M01/M02 Q1030",
      "taf": "TAF EPWR 181730Z 1818/1918 11008KT 5000 BR NSC"
    },
    {
      "icao": "ESGG",
      "alert": "OK",
      "vis_m": 3400,
      "fzfg": false,
      "metar_trigger": false,
      "taf_trigger": false,
      "metar": "METAR ESGG 181820Z 10011KT 3400 BR OVC003 01/00 Q1028",
      "taf": "TAF ESGG 181730Z 1818/1918 11011KT 9999 OVC003"
    },
    {
      "icao": "ESKN",
      "alert": "OK",
      "vis_m": 9999,
      "fzfg": false,
      "metar_trigger": false,
      "taf_trigger": false,
      "metar": "METAR ESKN 181820Z 15008KT 9999 BKN010 01/01 Q1032",
      "taf": "TAF ESKN 181730Z 1818/1918 16008KT 7000 OVC003"
    },
    {
      "icao": "ESMS",
      "alert": "OK",
      "vis_m": 3800,
      "fzfg": false,
      "metar_trigger": false,
      "taf_trigger": false,
      "metar": "METAR ESMS 181820Z 10013KT 3800 BR BKN004 OVC006 02/02 Q1028",
      "taf": "TAF ESMS 181727Z 1818/1918 13010KT 1200 BR BKN004"
    },
    {
      "icao": "ESSA",
      "alert": "OK",
      "vis_m": 400,
      "fzfg": false,
      "metar_trigger": false,
      "taf_trigger": false,
      "metar": "METAR ESSA 181820Z 18010KT 0400 FG VV002 01/01 Q1032 TEMPO 0300",
      "taf": "TAF ESSA 181730Z 1818/1918 17007KT 4000 BR OVC002"
    },
    {
      "icao": "EYKA",
      "alert": "OK",
      "vis_m": 9000,
      "fzfg": false,
      "metar_trigger": false,
      "taf_trigger": false,
      "metar": "METAR EYKA 181820Z 15004KT 9000 NSC M14/M16 Q1040",
      "taf": "TAF EYKA 181700Z 1818/1918 VRB05KT 9000 NSC"
    },
    {
      "icao": "EYPA",
      "alert": "OK",
      "vis_m": 9999,
      "fzfg": false,
      "metar_trigger": false,
      "taf_trigger": false,
      "metar": "METAR EYPA 181820Z 15008KT CAVOK M09/M12 Q1037",
      "taf": "TAF EYPA 181700Z 1818/1918 14010KT CAVOK"
    },
    {
      "icao": "EYVI",
      "alert": "OK",
      "vis_m": 9999,
      "fzfg": false,
      "metar_trigger": false,
      "taf_trigger": false,
      "metar": "METAR EYVI 181820Z 16006KT CAVOK M14/M16 Q1040 NOSIG",
      "taf": "TAF EYVI 181700Z 1818/1918 17010KT 5000 BR NSC"
    },
    {
      "icao": "GCFV",
      "alert": "OK",
      "vis_m": 9999,
      "fzfg": false,
      "metar_trigger": false,
      "taf_trigger": false,
      "metar": "METAR GCFV 181830Z 34020KT 9999 SCT035 17/09 Q1016",
      "taf": "TAF GCFV 181400Z 1815/1915 36018KT 9999 FEW025 SCT035 TX20/1914Z TN15/1906Z"
    },
    {
      "icao": "GCLP",
      "alert": "OK",
      "vis_m": 9999,
      "fzfg": false,
      "metar_trigger": false,
      "taf_trigger": false,
      "metar": "METAR GCLP 181830Z 01022KT 9999 FEW025 SCT035 17/12 Q1017 NOSIG",
      "taf": "TAF GCLP 181400Z 1815/1915 36025KT 9999 FEW025 SCT035 TX20/1914Z TN16/1906Z"
    },
    {
      "icao": "GCTS",
      "alert": "OK",
      "vis_m": 9999,
      "fzfg": false,
      "metar_trigger": false,
      "taf_trigger": false,
      "metar": "METAR GCTS 181830Z 07017KT 9999 BKN034 19/11 Q1017 NOSIG",
      "taf": "TAF GCTS 181400Z 1815/1915 06014KT 9999 SCT035 TX23/1914Z TN14/1906Z"
    },
    {
      "icao": "GMAD",
      "alert": "OK",
      "vis_m": 9999,
      "fzfg": false,
      "metar_trigger": false,
      "taf_trigger": false,
      "metar": "METAR GMAD 181830Z 31011KT 9999 SCT026 13/06 Q1010 NOSIG",
      "taf": "TAF GMAD 181700Z 1818/1924 24008KT 8000 SCT020"
    },
    {
      "icao": "GMMN",
      "alert": "OK",
      "vis_m": 8000,
      "fzfg": false,
      "metar_trigger": false,
      "taf_trigger": false,
      "metar": "METAR GMMN 181830Z 36003KT 300V030 8000 BKN013 SCT023TCU 09/07 Q1011 TEMPO 3000 RA",
      "taf": "TAF GMMN 181700Z 1818/1924 34004KT 9999 BKN013 SCT023TCU"
    },
    {
      "icao": "GMMX",
      "alert": "OK",
      "vis_m": 8000,
      "fzfg": false,
      "metar_trigger": false,
      "taf_trigger": false,
      "metar": "METAR GMMX 181830Z 22008KT 8000 SCT010 BKN020 FEW026CB 09/06 Q1012 TEMPO 1500 SHRA",
      "taf": "TAF GMMX 181700Z 1818/1924 06006KT 8000 BKN023 SCT080"
    },
    {
      "icao": "HEGN",
      "alert": "OK",
      "vis_m": 9999,
      "fzfg": false,
      "metar_trigger": false,
      "taf_trigger": false,
      "metar": "METAR HEGN 181800Z 29003KT CAVOK 17/03 Q1017 NOSIG",
      "taf": "TAF HEGN 181700Z 1818/1924 30015KT CAVOK"
    },
    {
      "icao": "HEMA",
      "alert": "OK",
      "vis_m": 9999,
      "fzfg": false,
      "metar_trigger": false,
      "taf_trigger": false,
      "metar": "METAR HEMA 181800Z 31008KT CAVOK 17/09 Q1016 NOSIG",
      "taf": "TAF HEMA 181700Z 1818/1924 32010KT CAVOK"
    },
    {
      "icao": "HESH",
      "alert": "OK",
      "vis_m": 9999,
      "fzfg": false,
      "metar_trigger": false,
      "taf_trigger": false,
      "metar": "METAR HESH 181800Z 34011KT CAVOK 19/07 Q1015 NOSIG",
      "taf": "TAF HESH 181700Z 1818/1924 35010KT CAVOK"
    },
    {
      "icao": "HESX",
      "alert": "OK",
      "vis_m": 9999,
      "fzfg": false,
      "metar_trigger": false,
      "taf_trigger": false,
      "metar": "METAR HESX 181800Z 35006KT CAVOK 14/08 Q1017 NOSIG",
      "taf": "TAF HESX 181700Z 1818/1924 35006KT 9999 SCT025"
    },
    {
      "icao": "LATI",
      "alert": "OK",
      "vis_m": 9999,
      "fzfg": false,
      "metar_trigger": false,
      "taf_trigger": false,
      "metar": "METAR LATI 181820Z VRB02KT CAVOK 06/M03 Q1024 NOSIG",
      "taf": "TAF LATI 181700Z 1818/1918 VRB05KT CAVOK TX14/1912Z TNM02/1904Z"
    },
    {
      "icao": "LBPD",
      "alert": "OK",
      "vis_m": 9999,
      "fzfg": false,
      "metar_trigger": false,
      "taf_trigger": false,
      "metar": "METAR LBPD 181830Z AUTO 12006KT 9999 OVC041/// M03/M05 Q1034 NOSIG",
      "taf": "TAF LBPD 181700Z 1818/1918 11010KT CAVOK"
    },
    {
      "icao": "LBSF",
      "alert": "OK",
      "vis_m": 9999,
      "fzfg": false,
      "metar_trigger": false,
      "taf_trigger": false,
      "metar": "METAR LBSF 181830Z AUTO 22003KT 9999 NCD M08/M12 Q1032 NOSIG",
      "taf": "TAF LBSF 181700Z 1818/1918 06010KT 9999 SCT015"
    },
    {
      "icao": "LBWN",
      "alert": "OK",
      "vis_m": 9999,
      "fzfg": false,
      "metar_trigger": false,
      "taf_trigger": false,
      "metar": "METAR LBWN 181830Z AUTO 31009KT 280V360 9999 -SHSN SCT015/// BKN017/// M07/M10 Q1035 NOSIG",
      "taf": "TAF LBWN 181700Z 1818/1918 32012KT 9999 SCT020 BKN030"
    },
    {
      "icao": "LCLK",
      "alert": "OK",
      "vis_m": 9999,
      "fzfg": false,
      "metar_trigger": false,
      "taf_trigger": false,
      "metar": "METAR LCLK 181830Z 34012KT 9999 FEW050 09/02 Q1018 NOSIG",
      "taf": "TAF LCLK 181730Z 1818/1918 03014KT 9999 FEW025"
    },
    {
      "icao": "LCPH",
      "alert": "OK",
      "vis_m": 9999,
      "fzfg": false,
      "metar_trigger": false,
      "taf_trigger": false,
      "metar": "METAR LCPH 181830Z 07009KT 9999 FEW025 SCT050 09/04 Q1017 NOSIG",
      "taf": "TAF LCPH 181730Z 1818/1918 06009KT 9999 SCT025"
    },
    {
      "icao": "LEAL",
      "alert": "OK",
      "vis_m": 9999,
      "fzfg": false,
      "metar_trigger": false,
      "taf_trigger": false,
      "metar": "METAR LEAL 181830Z 31007KT 9999 FEW050 11/06 Q1011 NOSIG",
      "taf": "TAF LEAL 181700Z 1818/1918 29004KT 9999 FEW030 TX14/1913Z TN08/1904Z"
    },
    {
      "icao": "LEBB",
      "alert": "OK",
      "vis_m": 9999,
      "fzfg": false,
      "metar_trigger": false,
      "taf_trigger": false,
      "metar": "METAR LEBB 181830Z VRB01KT 9999 FEW012 SCT021 BKN030 10/09 Q1016 NOSIG",
      "taf": "TAF LEBB 181700Z 1818/1918 24005KT 9999 BKN020 TX13/1914Z TN06/1907Z"
    },
    {
      "icao": "LEBL",
      "alert": "OK",
      "vis_m": 9999,
      "fzfg": false,
      "metar_trigger": false,
      "taf_trigger": false,
      "metar": "METAR LEBL 181830Z 05006KT 9999 FEW010 BKN015 BKN028 13/11 Q1012 NOSIG",
      "taf": "TAF LEBL 181700Z 1818/1918 05008KT 9999 FEW010 TX14/1912Z TN10/1906Z"
    },
    {
      "icao": "LECH",
      "alert": "OK",
      "vis_m": 9999,
      "fzfg": false,
      "metar_trigger": false,
      "taf_trigger": false,
      "metar": "METAR LECH 181830Z AUTO 05004KT CAVOK 07/06 Q1012",
      "taf": ""
    },
    {
      "icao": "LEMD",
      "alert": "OK",
      "vis_m": 9999,
      "fzfg": false,
      "metar_trigger": false,
      "taf_trigger": false,
      "metar": "METAR LEMD 181830Z 36005KT 320V040 CAVOK 06/02 Q1013 NOSIG",
      "taf": "TAF LEMD 181700Z 1818/1924 02007KT 9999 FEW040 TX10/1914Z TNM01/1906Z"
    },
    {
      "icao": "LEMG",
      "alert": "OK",
      "vis_m": 9999,
      "fzfg": false,
      "metar_trigger": false,
      "taf_trigger": false,
      "metar": "METAR LEMG 181830Z 30003KT 9999 FEW030 SCT075 09/06 Q1011 NOSIG",
      "taf": "TAF LEMG 181700Z 1818/1918 VRB03KT 9999 FEW030 TX13/1914Z TN04/1906Z"
    },
    {
      "icao": "LEVC",
      "alert": "OK",
      "vis_m": 9999,
      "fzfg": false,
      "metar_trigger": false,
      "taf_trigger": false,
      "metar": "METAR LEVC 181830Z 36004KT 9999 FEW038 11/09 Q1012 NOSIG",
      "taf": "TAF LEVC 181700Z 1818/1918 06006KT 9999 FEW020 TX16/1913Z TN05/1906Z"
    },
    {
      "icao": "LEXJ",
      "alert": "OK",
      "vis_m": 9999,
      "fzfg": false,
      "metar_trigger": false,
      "taf_trigger": false,
      "metar": "METAR LEXJ 181830Z 22006KT 170V260 9999 FEW010 BKN040 10/08 Q1016",
      "taf": "TAF LEXJ 181400Z 1815/1915 25009KT 9999 BKN020 TX12/1913Z TN07/1907Z"
    },
    {
      "icao": "LEZG",
      "alert": "OK",
      "vis_m": 9999,
      "fzfg": false,
      "metar_trigger": false,
      "taf_trigger": false,
      "metar": "METAR LEZG 181830Z 25006KT 9999 BKN030 08/08 Q1014 NOSIG",
      "taf": "TAF LEZG 181700Z 1818/1918 29008KT 9999 SCT008 TX11/1915Z TN07/1906Z"
    },
    {
      "icao": "LEZL",
      "alert": "OK",
      "vis_m": 9999,
      "fzfg": false,
      "metar_trigger": false,
      "taf_trigger": false,
      "metar": "METAR LEZL 181830Z 02008KT CAVOK 11/04 Q1013 NOSIG",
      "taf": "TAF LEZL 181400Z 1815/1915 05010KT CAVOK TX14/1815Z TN03/1907Z"
    },
    {
      "icao": "LFBD",
      "alert": "OK",
      "vis_m": 9999,
      "fzfg": false,
      "metar_trigger": false,
      "taf_trigger": false,
      "metar": "METAR LFBD 181830Z AUTO 17004KT 9999 FEW038 OVC047 10/09 Q1015 TEMPO 3000 RADZ OVC003",
      "taf": "TAF LFBD 181700Z 1818/1924 14005KT 9999 BKN020 TX11/1915Z TN08/1903Z"
    },
    {
      "icao": "LFLL",
      "alert": "OK",
      "vis_m": 500,
      "fzfg": false,
      "metar_trigger": false,
      "taf_trigger": false,
      "metar": "METAR LFLL 181830Z 01003KT 0500 R35L/0400N R17R/0600U R35R/0550U R17L/0650N FG VV/// 05/05 Q1017 NOSIG",
      "taf": "TAF LFLL 181700Z 1818/1924 VRB02KT 0500 FG VV///"
    },
    {
      "icao": "LFLS",
      "alert": "OK",
      "vis_m": 8000,
      "fzfg": false,
      "metar_trigger": false,
      "taf_trigger": false,
      "metar": "METAR LFLS 181830Z AUTO 00000KT 8000 NSC 05/04 Q1017 NOSIG",
      "taf": "TAF LFLS 181400Z 1815/1915 08005KT CAVOK"
    },
    {
      "icao": "LFMN",
      "alert": "OK",
      "vis_m": 9999,
      "fzfg": false,
      "metar_trigger": false,
      "taf_trigger": false,
      "metar": "METAR LFMN 181830Z 09024KT 9999 -RA FEW063 OVC083 16/07 Q1017 BECMG 06015KT",
      "taf": "TAF LFMN 181400Z 1815/1921 09025KT 9999 OVC060"
    },
    {
      "icao": "LFOB",
      "alert": "OK",
      "vis_m": 9999,
      "fzfg": false,
      "metar_trigger": false,
      "taf_trigger": false,
      "metar": "METAR LFOB 181830Z AUTO 13005KT CAVOK 05/04 Q1017 NOSIG",
      "taf": "TAF LFOB 181700Z 1818/1918 13005KT CAVOK"
    },
    {
      "icao": "LFPO",
      "alert": "OK",
      "vis_m": 9999,
      "fzfg": false,
      "metar_trigger": false,
      "taf_trigger": false,
      "metar": "METAR LFPO 181830Z 09004KT CAVOK 06/04 Q1017 NOSIG",
      "taf": "TAF LFPO 181700Z 1818/1924 VRB03KT CAVOK"
    },
    {
      "icao": "LFSB",
      "alert": "OK",
      "vis_m": 9999,
      "fzfg": false,
      "metar_trigger": false,
      "taf_trigger": false,
      "metar": "METAR LFSB 181830Z AUTO 08004KT 9999 OVC011 02/M00 Q1019 BECMG 3000 BR BKN003",
      "taf": "TAF LFSB 181700Z 1818/1918 VRB03KT 9000 OVC011"
    },
    {
      "icao": "LGAV",
      "alert": "OK",
      "vis_m": 9999,
      "fzfg": false,
      "metar_trigger": false,
      "taf_trigger": false,
      "metar": "METAR LGAV 181820Z 03013KT 9999 BKN040 06/M00 Q1027 NOSIG",
      "taf": "TAF LGAV 181700Z 1818/1918 03016KT 9999 FEW020 SCT030"
    },
    {
      "icao": "LGTS",
      "alert": "OK",
      "vis_m": 9999,
      "fzfg": false,
      "metar_trigger": false,
      "taf_trigger": false,
      "metar": "METAR LGTS 181820Z 12005KT 9999 FEW025 BKN040 05/M01 Q1030 NOSIG",
      "taf": "TAF LGTS 181700Z 1818/1918 09007KT 9999 FEW015 BKN035"
    },
    {
      "icao": "LHBP",
      "alert": "OK",
      "vis_m": 800,
      "fzfg": true,
      "metar_trigger": false,
      "taf_trigger": false,
      "metar": "METAR LHBP 181830Z 12007KT 0800 R13R/P2000N R13L/1500U FZFG BKN001 M07/M08 Q1035 TEMPO 0400 -SG FZFG VV001",
      "taf": ""
    },
    {
      "icao": "LHDC",
      "alert": "OK",
      "vis_m": 8000,
      "fzfg": true,
      "metar_trigger": false,
      "taf_trigger": false,
      "metar": "METAR LHDC 181815Z AUTO VRB02KT 8000 OVC005 M03/M03 Q1036 BECMG 2500 BR TEMPO 0650 -SG -FZDZ FZFG VV002",
      "taf": "TAF LHDC 181715Z 1818/1903 VRB03KT 7000 OVC005"
    },
    {
      "icao": "LIBD",
      "alert": "OK",
      "vis_m": 9999,
      "fzfg": false,
      "metar_trigger": false,
      "taf_trigger": false,
      "metar": "METAR LIBD 181820Z AUTO 22002KT 9999 FEW031/// SCT062/// BKN120/// 10/09 Q1022",
      "taf": "TAF LIBD 181700Z 1818/1918 16007KT 7000 SCT020"
    },
    {
      "icao": "LIBG",
      "alert": "OK",
      "vis_m": 9999,
      "fzfg": false,
      "metar_trigger": false,
      "taf_trigger": false,
      "metar": "METAR LIBG 181750Z 09004KT 9999 SCT040 11/11 Q1022",
      "taf": "TAF LIBG 181700Z 1818/1903 VRB06KT 9999 SCT010 BKN020"
    },
    {
      "icao": "LIBP",
      "alert": "OK",
      "vis_m": 6000,
      "fzfg": false,
      "metar_trigger": false,
      "taf_trigger": false,
      "metar": "METAR LIBP 181820Z AUTO VRB01KT 6000 FEW018/// SCT044/// BKN110/// 10/10 Q1023",
      "taf": "TAF LIBP 181700Z 1818/1918 VRB06KT 9999 SCT010 BKN040"
    },
    {
      "icao": "LIBR",
      "alert": "OK",
      "vis_m": 9999,
      "fzfg": false,
      "metar_trigger": false,
      "taf_trigger": false,
      "metar": "METAR LIBR 181820Z 17003KT CAVOK 10/05 Q1023",
      "taf": "TAF LIBR 181700Z 1818/1918 17006KT 9999 SCT030"
    },
    {
      "icao": "LICA",
      "alert": "OK",
      "vis_m": 9999,
      "fzfg": false,
      "metar_trigger": false,
      "taf_trigger": false,
      "metar": "METAR LICA 181820Z AUTO 08015KT 9999 SCT029/// BKN089/// 12/09 Q1019",
      "taf": "TAF LICA 181700Z 1818/1918 08018G28KT 9999 BKN020"
    },
    {
      "icao": "LICC",
      "alert": "OK",
      "vis_m": 9999,
      "fzfg": false,
      "metar_trigger": false,
      "taf_trigger": false,
      "metar": "METAR LICC 181820Z 12005KT 090V170 9999 -RA FEW010 SCT025 BKN050 15/13 Q1017 REDZ",
      "taf": "TAF LICC 181700Z 1818/1918 08015KT 9999 SCT015 BKN040"
    },
    {
      "icao": "LICJ",
      "alert": "OK",
      "vis_m": 9999,
      "fzfg": false,
      "metar_trigger": false,
      "taf_trigger": false,
      "metar": "METAR LICJ 181820Z 10006KT 060V130 9999 FEW060 15/07 Q1015",
      "taf": "TAF LICJ 181700Z 1818/1918 06012KT 9999 SCT040"
    },
    {
      "icao": "LIMC",
      "alert": "OK",
      "vis_m": 9999,
      "fzfg": false,
      "metar_trigger": false,
      "taf_trigger": false,
      "metar": "METAR LIMC 181820Z 02004KT 9999 BKN081 08/03 Q1025 NOSIG",
      "taf": "TAF LIMC 181700Z 1818/1924 VRB05KT 8000 BKN050"
    },
    {
      "icao": "LIME",
      "alert": "OK",
      "vis_m": 9999,
      "fzfg": false,
      "metar_trigger": false,
      "taf_trigger": false,
      "metar": "METAR LIME 181820Z AUTO VRB02KT 9999 SCT067/// SCT100/// 07/02 Q1025",
      "taf": "TAF LIME 181700Z 1818/1918 VRB04KT 8000 FEW025 BKN050"
    },
    {
      "icao": "LIMF",
      "alert": "OK",
      "vis_m": 9000,
      "fzfg": false,
      "metar_trigger": false,
      "taf_trigger": false,
      "metar": "METAR LIMF 181820Z 01005KT 9000 FEW020 OVC060 08/05 Q1024",
      "taf": "TAF LIMF 181700Z 1818/1918 34007KT 4000 -RA OVC030"
    },
    {
      "icao": "LIMJ",
      "alert": "OK",
      "vis_m": 9999,
      "fzfg": false,
      "metar_trigger": false,
      "taf_trigger": false,
      "metar": "METAR LIMJ 181820Z 03014KT CAVOK 11/06 Q1021",
      "taf": "TAF LIMJ 181700Z 1818/1918 03012KT 9999 FEW040"
    },
    {
      "icao": "LIPE",
      "alert": "OK",
      "vis_m": 1800,
      "fzfg": false,
      "metar_trigger": false,
      "taf_trigger": false,
      "metar": "METAR LIPE 181820Z 36003KT 330V030 1800 -RA BR BKN006 SCT026 07/07 Q1025",
      "taf": "TAF LIPE 181700Z 1818/1918 VRB05KT 7000 BKN035"
    },
    {
      "icao": "LIPH",
      "alert": "OK",
      "vis_m": 9999,
      "fzfg": false,
      "metar_trigger": false,
      "taf_trigger": false,
      "metar": "METAR LIPH 181820Z 05005KT 9999 BKN050 08/M00 Q1026",
      "taf": "TAF LIPH 181700Z 1818/1918 04007KT 9999 SCT060"
    },
    {
      "icao": "LIPQ",
      "alert": "OK",
      "vis_m": 9999,
      "fzfg": false,
      "metar_trigger": false,
      "taf_trigger": false,
      "metar": "METAR LIPQ 181820Z AUTO 36003KT 310V080 9999 OVC100/// 07/M03 Q1026",
      "taf": "TAF LIPQ 181700Z 1818/1918 08009KT 9999 SCT060"
    },
    {
      "icao": "LIPR",
      "alert": "OK",
      "vis_m": 9999,
      "fzfg": false,
      "metar_trigger": false,
      "taf_trigger": false,
      "metar": "METAR LIPR 181820Z 11005KT 050V190 9999 RA SCT025 BKN050 10/08 Q1023",
      "taf": "TAF LIPR 181700Z 1818/1918 09012KT 7000 SCT025"
    },
    {
      "icao": "LIPX",
      "alert": "OK",
      "vis_m": 9999,
      "fzfg": false,
      "metar_trigger": false,
      "taf_trigger": false,
      "metar": "METAR LIPX 181820Z 09009KT 060V130 9999 OVC075 09/M00 Q1024",
      "taf": "TAF LIPX 181700Z 1818/1918 09007KT 9999 BKN050"
    },
    {
      "icao": "LIPY",
      "alert": "OK",
      "vis_m": 150,
      "fzfg": false,
      "metar_trigger": false,
      "taf_trigger": false,
      "metar": "METAR LIPY 181820Z AUTO VRB02KT 0150 R22/0650D FG FEW003/// BKN025/// 08/08 Q1023",
      "taf": ""
    },
    {
      "icao": "LIPZ",
      "alert": "OK",
      "vis_m": 9999,
      "fzfg": false,
      "metar_trigger": false,
      "taf_trigger": false,
      "metar": "METAR LIPZ 181820Z 06011KT 9999 BKN045 07/00 Q1025 NOSIG",
      "taf": "TAF LIPZ 181700Z 1818/1924 05010KT 9999 SCT050"
    },
    {
      "icao": "LIRF",
      "alert": "OK",
      "vis_m": 9999,
      "fzfg": false,
      "metar_trigger": false,
      "taf_trigger": false,
      "metar": "METAR LIRF 181820Z 05007KT 9999 FEW055 13/06 Q1018 NOSIG",
      "taf": "TAF LIRF 181700Z 1818/1924 06009KT 9999 SCT040"
    },
    {
      "icao": "LIRN",
      "alert": "OK",
      "vis_m": 9999,
      "fzfg": false,
      "metar_trigger": false,
      "taf_trigger": false,
      "metar": "METAR LIRN 181820Z 05006KT 9999 -RA BKN060 12/08 Q1019 NOSIG",
      "taf": "TAF LIRN 181700Z 1818/1918 05010KT 9999 SCT040"
    },
    {
      "icao": "LIRP",
      "alert": "OK",
      "vis_m": 9999,
      "fzfg": false,
      "metar_trigger": false,
      "taf_trigger": false,
      "metar": "METAR LIRP 181815Z 06010KT 9999 FEW070 11/05 Q1020 NOSIG",
      "taf": "TAF LIRP 181700Z 1818/1918 11010KT 9999 BKN080"
    },
    {
      "icao": "LIRZ",
      "alert": "OK",
      "vis_m": 9999,
      "fzfg": false,
      "metar_trigger": false,
      "taf_trigger": false,
      "metar": "METAR LIRZ 181820Z AUTO 04009KT 9999 NCD 11/04 Q1020",
      "taf": "TAF LIRZ 181700Z 1818/1918 03012KT CAVOK"
    },
    {
      "icao": "LJLJ",
      "alert": "OK",
      "vis_m": 9999,
      "fzfg": false,
      "metar_trigger": false,
      "taf_trigger": false,
      "metar": "METAR LJLJ 181830Z VRB01KT 9999 FEW004 M03/M04 Q1030 NOSIG",
      "taf": "TAF LJLJ 181700Z 1818/1918 20003KT 9999 FEW025"
    },
    {
      "icao": "LKMT",
      "alert": "OK",
      "vis_m": 300,
      "fzfg": true,
      "metar_trigger": false,
      "taf_trigger": false,
      "metar": "METAR LKMT 181830Z VRB01KT 0300 R22/0350N R04/0350N FZFG VV001 M08/M08 Q1032 NOSIG",
      "taf": "TAF LKMT 181700Z 1818/1918 VRB02KT 0300 FZFG VV002"
    },
    {
      "icao": "LKPR",
      "alert": "OK",
      "vis_m": 9999,
      "fzfg": false,
      "metar_trigger": false,
      "taf_trigger": false,
      "metar": "METAR LKPR 181830Z 10007KT CAVOK M03/M05 Q1026 NOSIG",
      "taf": "TAF LKPR 181700Z 1818/1924 12010KT CAVOK"
    },
    {
      "icao": "LLBG",
      "alert": "OK",
      "vis_m": 9999,
      "fzfg": false,
      "metar_trigger": false,
      "taf_trigger": false,
      "metar": "METAR LLBG 181820Z 20006KT 9999 SCT050 13/11 Q1015 TEMPO 7000 RA FEW020TCU",
      "taf": "TAF LLBG 181706Z 1818/1918 VRB04KT 9999 SCT040"
    },
    {
      "icao": "LMML",
      "alert": "OK",
      "vis_m": 9999,
      "fzfg": false,
      "metar_trigger": false,
      "taf_trigger": false,
      "metar": "METAR LMML 181815Z 12019KT 9999 BKN010 15/14 Q1014 NOSIG",
      "taf": "TAF LMML 181700Z 1818/1918 12015KT 9999 SCT015"
    },
    {
      "icao": "LOWW",
      "alert": "OK",
      "vis_m": 9999,
      "fzfg": false,
      "metar_trigger": false,
      "taf_trigger": false,
      "metar": "METAR LOWW 181820Z 15011KT CAVOK M02/M04 Q1032 NOSIG",
      "taf": "TAF LOWW 181715Z 1818/1924 14013KT 9999 FEW020 SCT030 TXM02/1818Z TNM06/1924Z"
    },
    {
      "icao": "LPFR",
      "alert": "OK",
      "vis_m": 9999,
      "fzfg": false,
      "metar_trigger": false,
      "taf_trigger": false,
      "metar": "METAR LPFR 181830Z 35006KT 9999 FEW040 11/04 Q1013",
      "taf": "TAF LPFR 181700Z 1818/1918 35008KT CAVOK"
    },
    {
      "icao": "LPMA",
      "alert": "OK",
      "vis_m": 9999,
      "fzfg": false,
      "metar_trigger": false,
      "taf_trigger": false,
      "metar": "METAR LPMA 181830Z 36007KT 290V060 9999 SCT015 16/08 Q1021",
      "taf": "TAF LPMA 181700Z 1818/1918 01010KT 9999 SCT015"
    },
    {
      "icao": "LPPR",
      "alert": "OK",
      "vis_m": 9999,
      "fzfg": false,
      "metar_trigger": false,
      "taf_trigger": false,
      "metar": "METAR LPPR 181830Z 01004KT 330V050 CAVOK 09/07 Q1016",
      "taf": "TAF LPPR 181700Z 1818/1918 33007KT CAVOK"
    },
    {
      "icao": "LPPS",
      "alert": "OK",
      "vis_m": 9999,
      "fzfg": false,
      "metar_trigger": false,
      "taf_trigger": false,
      "metar": "METAR LPPS 181830Z 36014KT 9999 SCT015 15/09 Q1021",
      "taf": "TAF LPPS 181700Z 1818/1924 01015KT 9999 SCT015"
    },
    {
      "icao": "LPPT",
      "alert": "OK",
      "vis_m": 9999,
      "fzfg": false,
      "metar_trigger": false,
      "taf_trigger": false,
      "metar": "METAR LPPT 181830Z 35006KT 9999 FEW022 08/05 Q1016",
      "taf": "TAF LPPT 181700Z 1818/1924 36010KT 9999 FEW035"
    },
    {
      "icao": "LQBK",
      "alert": "OK",
      "vis_m": 9999,
      "fzfg": false,
      "metar_trigger": false,
      "taf_trigger": false,
      "metar": "METAR LQBK 181830Z 02004KT 360V060 9999 BKN017 OVC027 M00/M03 Q1033 NOSIG",
      "taf": "TAF LQBK 181700Z 1818/1918 34006KT 9999 BKN025 TX00/1914Z TNM07/1906Z"
    },
    {
      "icao": "LQSA",
      "alert": "OK",
      "vis_m": 3000,
      "fzfg": false,
      "metar_trigger": false,
      "taf_trigger": false,
      "metar": "METAR LQSA 181830Z 20003KT 3000 R11/1100D BR FEW030 M02/M02 Q1028 BECMG 2000",
      "taf": "TAF LQSA 181700Z 1818/1918 VRB02KT 4000 BR FEW030 TX00/1913Z TNM07/1906Z"
    },
    {
      "icao": "LQTZ",
      "alert": "OK",
      "vis_m": 9999,
      "fzfg": false,
      "metar_trigger": false,
      "taf_trigger": false,
      "metar": "METAR LQTZ 181830Z VRB02KT 9999 SCT030 M01/M02 Q1031",
      "taf": "TAF LQTZ 181700Z 1818/1918 10006KT 9999 BKN025 TX03/1913Z TNM03/1906Z"
    },
    {
      "icao": "LRBC",
      "alert": "OK",
      "vis_m": 9999,
      "fzfg": false,
      "metar_trigger": false,
      "taf_trigger": false,
      "metar": "METAR LRBC 181830Z 35012KT 9999 OVC030 M08/M13 Q1039",
      "taf": "TAF LRBC 181700Z 1818/1903 35010KT 9999 BKN030"
    },
    {
      "icao": "LRBS",
      "alert": "OK",
      "vis_m": 7000,
      "fzfg": false,
      "metar_trigger": false,
      "taf_trigger": false,
      "metar": "METAR LRBS 181830Z 27003KT 230V300 7000 SCT024 BKN042 M06/M09 Q1038 NOSIG",
      "taf": "TAF LRBS 181700Z 1818/1918 VRB04KT 7000 BKN025"
    },
    {
      "icao": "LRBV",
      "alert": "OK",
      "vis_m": 9999,
      "fzfg": false,
      "metar_trigger": false,
      "taf_trigger": false,
      "metar": "METAR LRBV 181830Z 07007KT CAVOK M11/M13 Q1034",
      "taf": "TAF LRBV 181700Z 1818/1903 VRB04KT 9999 SCT035"
    },
    {
      "icao": "LRCL",
      "alert": "OK",
      "vis_m": 9999,
      "fzfg": false,
      "metar_trigger": false,
      "taf_trigger": false,
      "metar": "METAR LRCL 181830Z 04004KT 020V080 CAVOK M08/M11 Q1035",
      "taf": "TAF LRCL 181700Z 1818/1903 07006KT CAVOK"
    },
    {
      "icao": "LRCV",
      "alert": "OK",
      "vis_m": 7000,
      "fzfg": false,
      "metar_trigger": false,
      "taf_trigger": false,
      "metar": "METAR LRCV 181830Z 23004KT 7000 NSC M10/M11 Q1037",
      "taf": "TAF LRCV 181700Z 1818/1903 VRB03KT 7000 NSC"
    },
    {
      "icao": "LRIA",
      "alert": "OK",
      "vis_m": 9999,
      "fzfg": false,
      "metar_trigger": false,
      "taf_trigger": false,
      "metar": "METAR LRIA 181830Z VRB02KT 9999 SCT013 OVC024 M11/M14 Q1040",
      "taf": "TAF LRIA 181700Z 1818/1903 32006KT 9999 BKN010 BKN030"
    },
    {
      "icao": "LROP",
      "alert": "OK",
      "vis_m": 6000,
      "fzfg": false,
      "metar_trigger": false,
      "taf_trigger": false,
      "metar": "METAR LROP 181830Z 27007KT 6000 FEW025 BKN041 M07/M10 Q1038 NOSIG",
      "taf": "TAF LROP 181700Z 1818/1918 VRB04KT 7000 BKN025"
    },
    {
      "icao": "LRSB",
      "alert": "OK",
      "vis_m": 9999,
      "fzfg": false,
      "metar_trigger": false,
      "taf_trigger": false,
      "metar": "METAR LRSB 181830Z 25005KT CAVOK M11/M13 Q1034",
      "taf": "TAF LRSB 181700Z 1818/1918 VRB04KT CAVOK"
    },
    {
      "icao": "LRSM",
      "alert": "OK",
      "vis_m": 8000,
      "fzfg": false,
      "metar_trigger": false,
      "taf_trigger": false,
      "metar": "METAR LRSM 181830Z AUTO 23004KT 190V260 8000 NCD M09/M11 Q1036",
      "taf": "TAF LRSM 181400Z 1815/1824 11005KT CAVOK"
    },
    {
      "icao": "LRSV",
      "alert": "OK",
      "vis_m": 9999,
      "fzfg": false,
      "metar_trigger": false,
      "taf_trigger": false,
      "metar": "METAR LRSV 181830Z 26002KT 9999 BKN031 M11/M13 Q1037",
      "taf": "TAF LRSV 181700Z 1818/1903 VRB04KT CAVOK"
    },
    {
      "icao": "LRTM",
      "alert": "OK",
      "vis_m": 8000,
      "fzfg": false,
      "metar_trigger": false,
      "taf_trigger": false,
      "metar": "METAR LRTM 181830Z VRB02KT 8000 NSC M14/M16 Q1036",
      "taf": "TAF LRTM 181700Z 1818/1903 VRB04KT 7000 NSC"
    },
    {
      "icao": "LRTR",
      "alert": "OK",
      "vis_m": 4800,
      "fzfg": false,
      "metar_trigger": false,
      "taf_trigger": false,
      "metar": "METAR LRTR 181830Z 05004KT 4800 BR NSC M06/M06 Q1035 BECMG 3000 BR",
      "taf": "TAF LRTR 181700Z 1818/1918 VRB04KT 7000 NSC"
    },
    {
      "icao": "LTAC",
      "alert": "OK",
      "vis_m": 9999,
      "fzfg": false,
      "metar_trigger": false,
      "taf_trigger": false,
      "metar": "METAR LTAC 181820Z 33007KT 9999 SCT040 SCT100 M04/M10 Q1021 NOSIG RMK RWY21C 29007KT RWY03L 32006KT 290V360 RWY21R 27006KT RWY03R 32005KT RWY21L 29007KT",
      "taf": "TAF LTAC 181640Z 1818/1918 VRB02KT 9999 SCT040 SCT100"
    },
    {
      "icao": "LTFM",
      "alert": "OK",
      "vis_m": 8000,
      "fzfg": false,
      "metar_trigger": false,
      "taf_trigger": false,
      "metar": "METAR LTFM 181820Z 36023KT 8000 -SHSN BKN012 BKN025 01/M02 Q1031 NOSIG RMK RWY17L 35022KT RWY34L 35023KT RWY16R 35022KT RWY36 36024KT RWY18 36023KT",
      "taf": "TAF LTFM 181640Z 1818/1924 35023G33KT 8000 -SHSN BKN012 BKN025"
    },
    {
      "icao": "LUKK",
      "alert": "OK",
      "vis_m": 9999,
      "fzfg": false,
      "metar_trigger": false,
      "taf_trigger": false,
      "metar": "METAR LUKK 181830Z 02014KT 9999 OVC020 M08/M11 Q1038 NOSIG",
      "taf": "TAF LUKK 181712Z 1818/1918 34008KT 9999 BKN015"
    },
    {
      "icao": "LWOH",
      "alert": "OK",
      "vis_m": 9999,
      "fzfg": false,
      "metar_trigger": false,
      "taf_trigger": false,
      "metar": "METAR LWOH 181820Z 04009KT 9999 BKN045 02/M04 Q1026",
      "taf": "TAF LWOH 181730Z 1818/1918 35005KT 9999 SCT040"
    },
    {
      "icao": "LWSK",
      "alert": "OK",
      "vis_m": 9999,
      "fzfg": false,
      "metar_trigger": false,
      "taf_trigger": false,
      "metar": "METAR LWSK 181820Z 03010KT 360V060 CAVOK 00/M05 Q1030 NOSIG",
      "taf": "TAF LWSK 181730Z 1818/1918 05005KT 9999 SCT040"
    },
    {
      "icao": "LYBE",
      "alert": "OK",
      "vis_m": 9999,
      "fzfg": false,
      "metar_trigger": false,
      "taf_trigger": false,
      "metar": "METAR LYBE 181830Z 11008KT CAVOK M04/M08 Q1034 NOSIG",
      "taf": "TAF LYBE 181700Z 1818/1918 10012KT CAVOK TX01/1913Z TNM06/1906Z"
    },
    {
      "icao": "LYNI",
      "alert": "OK",
      "vis_m": 9999,
      "fzfg": false,
      "metar_trigger": false,
      "taf_trigger": false,
      "metar": "METAR LYNI 181830Z 35003KT CAVOK M04/M09 Q1033 NOSIG",
      "taf": "TAF LYNI 181700Z 1818/1918 05007KT CAVOK TX01/1913Z TNM08/1906Z"
    },
    {
      "icao": "LYPG",
      "alert": "OK",
      "vis_m": 9999,
      "fzfg": false,
      "metar_trigger": false,
      "taf_trigger": false,
      "metar": "METAR LYPG 181830Z VRB01KT CAVOK 05/M02 Q1025 NOSIG",
      "taf": "TAF LYPG 181700Z 1818/1918 35005KT CAVOK TX08/1912Z TNM02/1906Z"
    },
    {
      "icao": "LZIB",
      "alert": "OK",
      "vis_m": 9999,
      "fzfg": false,
      "metar_trigger": false,
      "taf_trigger": false,
      "metar": "METAR LZIB 181830Z 11007KT CAVOK M03/M05 Q1033 NOSIG",
      "taf": "TAF LZIB 181715Z 1818/1918 09005KT 9999 FEW020"
    },
    {
      "icao": "LZKZ",
      "alert": "OK",
      "vis_m": 9999,
      "fzfg": false,
      "metar_trigger": false,
      "taf_trigger": false,
      "metar": "METAR LZKZ 181830Z 04002KT CAVOK M04/M08 Q1035 NOSIG",
      "taf": "TAF LZKZ 181715Z 1818/1918 VRB02KT CAVOK"
    },
    {
      "icao": "LZTT",
      "alert": "OK",
      "vis_m": 9999,
      "fzfg": false,
      "metar_trigger": false,
      "taf_trigger": false,
      "metar": "METAR LZTT 181830Z 27005KT CAVOK M11/M12 Q1031 NOSIG",
      "taf": "TAF LZTT 181715Z 1818/1918 VRB02KT CAVOK"
    },
    {
      "icao": "OEJN",
      "alert": "OK",
      "vis_m": 9999,
      "fzfg": false,
      "metar_trigger": false,
      "taf_trigger": false,
      "metar": "METAR OEJN 181800Z 35010KT CAVOK 24/16 Q1013 NOSIG",
      "taf": "TAF OEJN 181700Z 1818/1924 03007KT 7000 FEW040"
    },
    {
      "icao": "OEMA",
      "alert": "OK",
      "vis_m": 9999,
      "fzfg": false,
      "metar_trigger": false,
      "taf_trigger": false,
      "metar": "METAR OEMA 181800Z 22009KT CAVOK 22/06 Q1016 NOSIG",
      "taf": "TAF OEMA 181700Z 1818/1924 30008KT CAVOK"
    },
    {
      "icao": "OJAI",
      "alert": "OK",
      "vis_m": 4000,
      "fzfg": false,
      "metar_trigger": false,
      "taf_trigger": false,
      "metar": "METAR OJAI 181800Z 23006KT 4000 BR FEW025 08/07 Q1016 NOSIG",
      "taf": ""
    },
    {
      "icao": "OMAA",
      "alert": "OK",
      "vis_m": 9999,
      "fzfg": false,
      "metar_trigger": false,
      "taf_trigger": false,
      "metar": "METAR OMAA 181800Z 26003KT CAVOK 19/13 Q1016 NOSIG",
      "taf": "TAF OMAA 181700Z 1818/2000 25005KT 8000 NSC"
    },
    {
      "icao": "OMDB",
      "alert": "OK",
      "vis_m": 9999,
      "fzfg": false,
      "metar_trigger": false,
      "taf_trigger": false,
      "metar": "METAR OMDB 181830Z 17005KT 9999 FEW040 20/13 Q1016 NOSIG",
      "taf": "TAF OMDB 181700Z 1818/2000 27010KT 8000 FEW040"
    },
    {
      "icao": "UAAA",
      "alert": "OK",
      "vis_m": 1000,
      "fzfg": false,
      "metar_trigger": false,
      "taf_trigger": false,
      "metar": "METAR UAAA 181830Z 00000MPS 1000 R23L/P2000 BR FU SCT200 M17/M19 Q1028 NOSIG",
      "taf": "TAF UAAA 181702Z 1818/1918 30003MPS 1100 BR FU BKN011 OVC030 TXM09/1908Z TNM19/1903Z"
    },
    {
      "icao": "UBBB",
      "alert": "OK",
      "vis_m": 9999,
      "fzfg": false,
      "metar_trigger": false,
      "taf_trigger": false,
      "metar": "METAR UBBB 181830Z 05012KT 9999 BKN026 04/01 Q1029 NOSIG",
      "taf": "TAF UBBB 181652Z 1818/1918 03008KT 9999 SCT025 TX04/1910Z TN02/1901Z"
    },
    {
      "icao": "UDSG",
      "alert": "OK",
      "vis_m": 9999,
      "fzfg": false,
      "metar_trigger": false,
      "taf_trigger": false,
      "metar": "METAR UDSG 181830Z 09019KT 9999 BKN033 M04/M08 Q1016 NOSIG",
      "taf": "TAF UDSG 181658Z 1818/1918 VRB06KT 5000 BR BKN030"
    },
    {
      "icao": "UDYZ",
      "alert": "OK",
      "vis_m": 800,
      "fzfg": true,
      "metar_trigger": false,
      "taf_trigger": false,
      "metar": "METAR UDYZ 181830Z 18001KT 0800 0750N R08/1900D -SN FZFG OVC023 M01/M01 Q1018 NOSIG",
      "taf": "TAF UDYZ 181700Z 1818/1918 VRB04KT 1500 BR BKN020"
    },
    {
      "icao": "UGKO",
      "alert": "OK",
      "vis_m": 9999,
      "fzfg": false,
      "metar_trigger": false,
      "taf_trigger": false,
      "metar": "METAR UGKO 181830Z VRB02KT 9999 BKN028 M01/M01 Q1022 NOSIG",
      "taf": "TAF UGKO 181700Z 1818/1918 26007KT 9999 SCT023 BKN050 TX04/1911Z TNM01/1823Z"
    }
  ]
}