{
  "ts_utc": "2026-01-26T18:56:24Z",
  "threshold_m": 150,
  "source": "stations_override.txt (ICAO list) + aviationweather.gov (METAR/TAF raw)",
  "station_count": 159,
  "stations": [
    {
      "icao": "BIKF",
      "alert": "OK",
      "vis_m": 9999,
      "fzfg": false,
      "metar_trigger": false,
      "taf_trigger": false,
      "metar": "METAR BIKF 261830Z 07027G37KT CAVOK 05/M03 Q0999",
      "taf": "TAF BIKF 261645Z 2618/2718 08022G32KT 9999 SCT045 TX06/2715Z TN02/2709Z"
    },
    {
      "icao": "BKPR",
      "alert": "OK",
      "vis_m": null,
      "fzfg": false,
      "metar_trigger": false,
      "taf_trigger": false,
      "metar": "",
      "taf": "TAF BKPR 261730Z 2618/2718 33008KT 9999 SCT015 BKN030"
    },
    {
      "icao": "EBCI",
      "alert": "OK",
      "vis_m": 3000,
      "fzfg": false,
      "metar_trigger": false,
      "taf_trigger": false,
      "metar": "METAR EBCI 261850Z 09003KT 3000 BR SCT005 OVC007 01/M00 Q1004 TEMPO 2500",
      "taf": "TAF EBCI 261722Z 2618/2724 14006KT 4000 BR BKN006"
    },
    {
      "icao": "EDDB",
      "alert": "OK",
      "vis_m": 5000,
      "fzfg": false,
      "metar_trigger": false,
      "taf_trigger": false,
      "metar": "METAR EDDB 261850Z AUTO 13005KT 5000 -SN BR BKN011 BKN030 BKN048 M01/M02 Q0999 TEMPO 4000 -SN BKN009",
      "taf": "TAF EDDB 261700Z 2618/2718 18005KT 7000 FEW012 BKN020"
    },
    {
      "icao": "EDDH",
      "alert": "OK",
      "vis_m": 6000,
      "fzfg": false,
      "metar_trigger": false,
      "taf_trigger": false,
      "metar": "METAR EDDH 261850Z AUTO 02006KT 340V050 6000 -SN BKN008 BKN013 01/M00 Q1001 TEMPO 2500 SN",
      "taf": ""
    },
    {
      "icao": "EDDK",
      "alert": "OK",
      "vis_m": 6000,
      "fzfg": false,
      "metar_trigger": false,
      "taf_trigger": false,
      "metar": "METAR EDDK 261850Z AUTO 28007KT 6000 BKN008 BKN012 OVC018 M00/M01 Q1004 NOSIG",
      "taf": "TAF EDDK 261700Z 2618/2724 VRB03KT 4000 BR BKN007"
    },
    {
      "icao": "EDDN",
      "alert": "OK",
      "vis_m": 2300,
      "fzfg": false,
      "metar_trigger": false,
      "taf_trigger": false,
      "metar": "METAR EDDN 261850Z AUTO 28004KT 2300 SN BR BKN003 BKN006 BKN016 M00/M01 Q1002 TEMPO 1200 SN OVC001",
      "taf": "TAF EDDN 261700Z 2618/2718 25005KT 2000 -SN BR OVC003"
    },
    {
      "icao": "EDDS",
      "alert": "OK",
      "vis_m": 9999,
      "fzfg": false,
      "metar_trigger": false,
      "taf_trigger": false,
      "metar": "METAR EDDS 261850Z AUTO 23005KT 190V260 9999 BKN020 04/01 Q1002 NOSIG",
      "taf": "TAF EDDS 261700Z 2618/2718 25005KT 9999 BKN020"
    },
    {
      "icao": "EDFH",
      "alert": "OK",
      "vis_m": 9999,
      "fzfg": false,
      "metar_trigger": false,
      "taf_trigger": false,
      "metar": "METAR EDFH 261850Z 28009KT 9999 FEW008 OVC021 01/M00 Q1002",
      "taf": "TAF EDFH 261700Z 2618/2718 27010KT 9999 BKN015"
    },
    {
      "icao": "EDJA",
      "alert": "OK",
      "vis_m": 9999,
      "fzfg": false,
      "metar_trigger": false,
      "taf_trigger": false,
      "metar": "METAR EDJA 261850Z 23013KT 9999 OVC043 02/M00 Q1003",
      "taf": "TAF EDJA 261700Z 2618/2703 23012KT 9999 FEW030"
    },
    {
      "icao": "EDLW",
      "alert": "OK",
      "vis_m": 3400,
      "fzfg": false,
      "metar_trigger": false,
      "taf_trigger": false,
      "metar": "METAR EDLW 261850Z 26004KT 240V310 3400 -SN OVC003 00/M00 Q1002",
      "taf": "TAF EDLW 261700Z 2618/2718 24005KT 4000 BR BKN005"
    },
    {
      "icao": "EDNY",
      "alert": "OK",
      "vis_m": 9999,
      "fzfg": false,
      "metar_trigger": false,
      "taf_trigger": false,
      "metar": "METAR EDNY 261850Z 24010KT 9999 BKN041 05/01 Q1005",
      "taf": "TAF EDNY 261700Z 2618/2703 23007KT 9999 SCT035"
    },
    {
      "icao": "EDSB",
      "alert": "OK",
      "vis_m": 9999,
      "fzfg": false,
      "metar_trigger": false,
      "taf_trigger": false,
      "metar": "METAR EDSB 261850Z 20006KT 9999 SCT023 BKN027 OVC033 05/03 Q1004",
      "taf": "TAF EDSB 261700Z 2618/2718 21007KT 6000 BKN020"
    },
    {
      "icao": "EETN",
      "alert": "OK",
      "vis_m": 9999,
      "fzfg": false,
      "metar_trigger": false,
      "taf_trigger": false,
      "metar": "METAR EETN 261850Z 01005KT CAVOK M07/M08 Q1011 NOSIG",
      "taf": "TAF EETN 261730Z 2618/2718 VRB02KT 9999 SCT015"
    },
    {
      "icao": "EFTU",
      "alert": "OK",
      "vis_m": 9999,
      "fzfg": false,
      "metar_trigger": false,
      "taf_trigger": false,
      "metar": "METAR EFTU 261850Z AUTO 04005KT 360V080 9999 OVC009 M07/M09 Q1013",
      "taf": "TAF EFTU 261736Z 2618/2718 01004KT 9999 BKN006"
    },
    {
      "icao": "EGBB",
      "alert": "OK",
      "vis_m": 6000,
      "fzfg": false,
      "metar_trigger": false,
      "taf_trigger": false,
      "metar": "METAR EGBB 261850Z 12011KT 6000 BKN010 04/02 Q0998",
      "taf": "TAF EGBB 261703Z 2618/2718 12009KT 6000 BKN010"
    },
    {
      "icao": "EGGP",
      "alert": "OK",
      "vis_m": 7000,
      "fzfg": false,
      "metar_trigger": false,
      "taf_trigger": false,
      "metar": "METAR EGGP 261850Z 12017KT 7000 BKN014 OVC030 04/01 Q0997",
      "taf": "TAF EGGP 261656Z 2618/2718 12010KT 9999 SCT015 BKN020"
    },
    {
      "icao": "EGGW",
      "alert": "OK",
      "vis_m": 2900,
      "fzfg": false,
      "metar_trigger": false,
      "taf_trigger": false,
      "metar": "METAR EGGW 261850Z AUTO 12009KT 2900 HZ OVC005 04/03 Q0999",
      "taf": ""
    },
    {
      "icao": "EGKK",
      "alert": "OK",
      "vis_m": 7000,
      "fzfg": false,
      "metar_trigger": false,
      "taf_trigger": false,
      "metar": "METAR EGKK 261850Z 09009KT 7000 BKN012 06/04 Q0999",
      "taf": "TAF EGKK 261653Z 2618/2724 11009KT 9999 SCT020"
    },
    {
      "icao": "EGNM",
      "alert": "OK",
      "vis_m": 6000,
      "fzfg": false,
      "metar_trigger": false,
      "taf_trigger": false,
      "metar": "METAR EGNM 261850Z 11009KT 6000 OVC005 01/00 Q0999",
      "taf": "TAF EGNM 261657Z 2618/2718 11008KT 6000 SCT007 BKN010"
    },
    {
      "icao": "EGPD",
      "alert": "OK",
      "vis_m": 9999,
      "fzfg": false,
      "metar_trigger": false,
      "taf_trigger": false,
      "metar": "METAR EGPD 261850Z COR AUTO 13016G27KT 9999 -RA BKN017 BKN022 OVC034 05/01 Q1001 TEMPO BKN012",
      "taf": "TAF EGPD 261659Z 2618/2718 13016G28KT 9999 SCT016 BKN030"
    },
    {
      "icao": "EGPF",
      "alert": "OK",
      "vis_m": 9999,
      "fzfg": false,
      "metar_trigger": false,
      "taf_trigger": false,
      "metar": "METAR EGPF 261850Z AUTO 10013KT 090V150 9999 BKN023/// OVC033/// //////TCU 05/01 Q0997",
      "taf": "TAF EGPF 261702Z 2618/2718 08011KT 9999 FEW018 SCT030"
    },
    {
      "icao": "EHBK",
      "alert": "OK",
      "vis_m": 3300,
      "fzfg": false,
      "metar_trigger": false,
      "taf_trigger": false,
      "metar": "METAR EHBK 261825Z AUTO 21005KT 3300 BR OVC004/// M01/M01 Q1004 NOSIG",
      "taf": "TAF EHBK 261718Z 2618/2724 30003KT 6000 SCT008"
    },
    {
      "icao": "EHEH",
      "alert": "OK",
      "vis_m": null,
      "fzfg": false,
      "metar_trigger": false,
      "taf_trigger": false,
      "metar": "",
      "taf": "TAF EHEH 261754Z 2618/2724 24005KT 4000 BR BKN007"
    },
    {
      "icao": "EKBI",
      "alert": "OK",
      "vis_m": 9999,
      "fzfg": false,
      "metar_trigger": false,
      "taf_trigger": false,
      "metar": "METAR EKBI 261850Z AUTO 04010KT 9999 OVC011/// M02/M04 Q1006",
      "taf": "TAF EKBI 261727Z 2618/2718 05015KT 9999 BKN018"
    },
    {
      "icao": "EKCH",
      "alert": "OK",
      "vis_m": 1500,
      "fzfg": false,
      "metar_trigger": false,
      "taf_trigger": false,
      "metar": "METAR EKCH 261850Z 03015KT 1500 -SN OVC008 M01/M01 Q1005 TEMPO 3000 BKN012",
      "taf": "TAF EKCH 261727Z 2618/2718 05015KT 1200 SN BKN008"
    },
    {
      "icao": "ENAL",
      "alert": "OK",
      "vis_m": 9999,
      "fzfg": false,
      "metar_trigger": false,
      "taf_trigger": false,
      "metar": "METAR ENAL 261850Z 18004KT CAVOK M05/M06 Q1011",
      "taf": "TAF ENAL 261700Z 2618/2703 15005KT CAVOK"
    },
    {
      "icao": "ENBR",
      "alert": "OK",
      "vis_m": 9999,
      "fzfg": false,
      "metar_trigger": false,
      "taf_trigger": false,
      "metar": "METAR ENBR 261850Z 07002KT CAVOK M07/M11 Q1010 NOSIG RMK WIND 1200FT 26004KT",
      "taf": "TAF ENBR 261700Z 2618/2718 07004KT CAVOK"
    },
    {
      "icao": "ENGM",
      "alert": "OK",
      "vis_m": 9999,
      "fzfg": false,
      "metar_trigger": false,
      "taf_trigger": false,
      "metar": "METAR ENGM 261850Z VRB02KT 9999 SCT023 M14/M15 Q1014 NOSIG",
      "taf": "TAF ENGM 261700Z 2618/2718 36008KT 9999 SCT030"
    },
    {
      "icao": "ENHD",
      "alert": "OK",
      "vis_m": 9999,
      "fzfg": false,
      "metar_trigger": false,
      "taf_trigger": false,
      "metar": "METAR ENHD 261850Z /////KT CAVOK M08/M11 Q1010 RMK WIND RWY 31 00000KT",
      "taf": "TAF ENHD 261400Z 2615/2623 12005KT CAVOK"
    },
    {
      "icao": "ENTC",
      "alert": "OK",
      "vis_m": 9999,
      "fzfg": false,
      "metar_trigger": false,
      "taf_trigger": false,
      "metar": "METAR ENTC 261850Z 11002KT 9999 BKN046 OVC056 M04/M07 Q1011 NOSIG RMK WIND 2600FT 35014KT",
      "taf": "TAF ENTC 261700Z 2618/2718 18003KT 9999 FEW020 BKN045"
    },
    {
      "icao": "ENTO",
      "alert": "OK",
      "vis_m": 9999,
      "fzfg": false,
      "metar_trigger": false,
      "taf_trigger": false,
      "metar": "METAR ENTO 261850Z 01007KT 9999 BKN028 M09/M11 Q1014 NOSIG",
      "taf": "TAF ENTO 261700Z 2618/2718 01008KT CAVOK"
    },
    {
      "icao": "ENVA",
      "alert": "OK",
      "vis_m": 9999,
      "fzfg": false,
      "metar_trigger": false,
      "taf_trigger": false,
      "metar": "METAR ENVA 261850Z 08003KT 040V100 CAVOK M11/M13 Q1013 NOSIG RMK WIND 670FT 09010KT",
      "taf": "TAF ENVA 261700Z 2618/2718 11008KT CAVOK"
    },
    {
      "icao": "ENZV",
      "alert": "OK",
      "vis_m": 9999,
      "fzfg": false,
      "metar_trigger": false,
      "taf_trigger": false,
      "metar": "METAR ENZV 261850Z 18006KT CAVOK M06/M13 Q1011 NOSIG",
      "taf": "TAF ENZV 261700Z 2618/2718 13006KT CAVOK"
    },
    {
      "icao": "EPGD",
      "alert": "OK",
      "vis_m": 2000,
      "fzfg": false,
      "metar_trigger": false,
      "taf_trigger": false,
      "metar": "METAR EPGD 261830Z 10005KT 2000 -SG BR OVC003 M03/M03 Q1002",
      "taf": "TAF EPGD 261730Z 2618/2718 11004KT 2500 BR OVC003"
    },
    {
      "icao": "EPKK",
      "alert": "OK",
      "vis_m": 3200,
      "fzfg": false,
      "metar_trigger": false,
      "taf_trigger": false,
      "metar": "METAR EPKK 261830Z 25003KT 3200 BR NSC 00/M01 Q1001",
      "taf": "TAF EPKK 261730Z 2618/2718 25004KT 6000 NSC"
    },
    {
      "icao": "EPKT",
      "alert": "OK",
      "vis_m": 9999,
      "fzfg": false,
      "metar_trigger": false,
      "taf_trigger": false,
      "metar": "METAR EPKT 261830Z 24007KT CAVOK 01/M00 Q1001",
      "taf": "TAF EPKT 261730Z 2618/2718 25003KT 4000 BR NSC"
    },
    {
      "icao": "EPLB",
      "alert": "OK",
      "vis_m": 9999,
      "fzfg": false,
      "metar_trigger": false,
      "taf_trigger": false,
      "metar": "METAR EPLB 261830Z 12005KT 9999 FEW007 02/01 Q1002",
      "taf": "TAF EPLB 261730Z 2618/2718 VRB03KT 9999 BKN035"
    },
    {
      "icao": "EPMO",
      "alert": "OK",
      "vis_m": 6000,
      "fzfg": false,
      "metar_trigger": false,
      "taf_trigger": false,
      "metar": "METAR EPMO 261830Z 10004KT 060V140 6000 BKN011 01/M00 Q1001",
      "taf": ""
    },
    {
      "icao": "EPPO",
      "alert": "OK",
      "vis_m": 900,
      "fzfg": false,
      "metar_trigger": false,
      "taf_trigger": false,
      "metar": "METAR EPPO 261830Z 11003KT 0900 R28/P2000D FG BKN001 OVC033 01/01 Q1000",
      "taf": "TAF EPPO 261730Z 2618/2718 11004KT 0200 FG OVC001"
    },
    {
      "icao": "EPRA",
      "alert": "OK",
      "vis_m": 8000,
      "fzfg": false,
      "metar_trigger": false,
      "taf_trigger": false,
      "metar": "METAR EPRA 261830Z 15004KT 8000 NSC 02/00 Q1001",
      "taf": "TAF EPRA 261730Z 2618/2703 17006KT 8000 BKN040"
    },
    {
      "icao": "EPRZ",
      "alert": "OK",
      "vis_m": 4000,
      "fzfg": false,
      "metar_trigger": false,
      "taf_trigger": false,
      "metar": "METAR EPRZ 261830Z 06005KT 4000 -RA BR OVC040 01/01 Q1001",
      "taf": "TAF EPRZ 261730Z 2618/2718 06004KT 9999 BKN040"
    },
    {
      "icao": "EPSC",
      "alert": "OK",
      "vis_m": 2500,
      "fzfg": false,
      "metar_trigger": false,
      "taf_trigger": false,
      "metar": "METAR EPSC 261830Z 11005KT 2500 BR OVC002 M01/M01 Q1000",
      "taf": "TAF EPSC 261730Z 2618/2718 12004KT 2000 BR OVC003"
    },
    {
      "icao": "EPSY",
      "alert": "OK",
      "vis_m": 1500,
      "fzfg": false,
      "metar_trigger": false,
      "taf_trigger": false,
      "metar": "METAR EPSY 261830Z VRB02KT 1500 BR OVC001 M02/M02 Q1002",
      "taf": "TAF EPSY 261730Z 2618/2703 10004KT 3000 BR OVC002"
    },
    {
      "icao": "EPWA",
      "alert": "OK",
      "vis_m": 8000,
      "fzfg": false,
      "metar_trigger": false,
      "taf_trigger": false,
      "metar": "METAR EPWA 261830Z 15004KT 8000 BKN017 BKN043 01/00 Q1001 NOSIG",
      "taf": "TAF EPWA 261730Z 2618/2718 VRB02KT 8000 SCT012 BKN020"
    },
    {
      "icao": "EPWR",
      "alert": "OK",
      "vis_m": 9999,
      "fzfg": false,
      "metar_trigger": false,
      "taf_trigger": false,
      "metar": "METAR EPWR 261830Z 13003KT 9999 SCT043 02/M01 Q1000",
      "taf": "TAF EPWR 261730Z 2618/2718 26003KT 9999 BKN040"
    },
    {
      "icao": "ESGG",
      "alert": "OK",
      "vis_m": 9999,
      "fzfg": false,
      "metar_trigger": false,
      "taf_trigger": false,
      "metar": "METAR ESGG 261850Z 03012KT 9999 OVC028 M05/M08 Q1009",
      "taf": "TAF ESGG 261730Z 2618/2718 05010KT 9999 OVC020"
    },
    {
      "icao": "ESKN",
      "alert": "OK",
      "vis_m": 9999,
      "fzfg": false,
      "metar_trigger": false,
      "taf_trigger": false,
      "metar": "METAR ESKN 261850Z 36005KT CAVOK M08/M11 Q1013",
      "taf": "TAF ESKN 261730Z 2618/2718 02006KT CAVOK"
    },
    {
      "icao": "ESMS",
      "alert": "OK",
      "vis_m": 1900,
      "fzfg": false,
      "metar_trigger": false,
      "taf_trigger": false,
      "metar": "METAR ESMS 261850Z 06013KT 1900 -SN VV009 M00/M00 Q1003",
      "taf": "TAF ESMS 261727Z 2618/2718 06012KT 1200 SN BKN008"
    },
    {
      "icao": "ESSA",
      "alert": "OK",
      "vis_m": 9999,
      "fzfg": false,
      "metar_trigger": false,
      "taf_trigger": false,
      "metar": "METAR ESSA 261850Z 33006KT 9999 BKN019 M07/M09 Q1013 TEMPO BKN016",
      "taf": "TAF ESSA 261730Z 2618/2718 31005KT 9999 BKN016"
    },
    {
      "icao": "EYKA",
      "alert": "OK",
      "vis_m": 3800,
      "fzfg": false,
      "metar_trigger": false,
      "taf_trigger": false,
      "metar": "METAR EYKA 261850Z 08007KT 3800 -FZRA -SN OVC006 M04/M05 Q1005",
      "taf": "TAF EYKA 261709Z 2618/2718 VRB04KT 3000 -FZRA -SN OVC005"
    },
    {
      "icao": "EYPA",
      "alert": "OK",
      "vis_m": 3100,
      "fzfg": false,
      "metar_trigger": false,
      "taf_trigger": false,
      "metar": "METAR EYPA 261850Z 07009KT 3100 SN BKN026 BKN031 OVC041 M07/M09 Q1006",
      "taf": "TAF EYPA 261708Z 2618/2718 07012KT 3000 SN BKN005 OVC010"
    },
    {
      "icao": "EYVI",
      "alert": "OK",
      "vis_m": 5000,
      "fzfg": false,
      "metar_trigger": false,
      "taf_trigger": false,
      "metar": "METAR EYVI 261850Z 13005KT 5000 -FZRA BR OVC005 M04/M05 Q1005 NOSIG",
      "taf": "TAF EYVI 261710Z 2618/2718 VRB04KT 3000 -FZRA SN OVC005"
    },
    {
      "icao": "GCFV",
      "alert": "OK",
      "vis_m": 9999,
      "fzfg": false,
      "metar_trigger": false,
      "taf_trigger": false,
      "metar": "METAR GCFV 261830Z 28009KT 9999 FEW035 18/10 Q1023",
      "taf": "TAF GCFV 261400Z 2615/2715 27005KT CAVOK TX22/2714Z TN12/2706Z"
    },
    {
      "icao": "GCLP",
      "alert": "OK",
      "vis_m": 9999,
      "fzfg": false,
      "metar_trigger": false,
      "taf_trigger": false,
      "metar": "METAR GCLP 261830Z VRB02KT 9999 BKN033 18/11 Q1023 NOSIG",
      "taf": "TAF GCLP 261400Z 2615/2715 13005KT 9999 SCT035 TX22/2714Z TN12/2706Z"
    },
    {
      "icao": "GCTS",
      "alert": "OK",
      "vis_m": 9999,
      "fzfg": false,
      "metar_trigger": false,
      "taf_trigger": false,
      "metar": "METAR GCTS 261830Z 26011KT 9999 FEW030 18/10 Q1023 NOSIG",
      "taf": "TAF GCTS 261400Z 2615/2715 22010KT 9999 SCT035 TX22/2714Z TN14/2706Z"
    },
    {
      "icao": "GMAD",
      "alert": "OK",
      "vis_m": 9999,
      "fzfg": false,
      "metar_trigger": false,
      "taf_trigger": false,
      "metar": "METAR GMAD 261830Z 26008KT 9999 FEW020 14/11 Q1021 NOSIG",
      "taf": "TAF GMAD 261700Z 2618/2724 20008KT 8000 NSC"
    },
    {
      "icao": "GMMN",
      "alert": "OK",
      "vis_m": 9999,
      "fzfg": false,
      "metar_trigger": false,
      "taf_trigger": false,
      "metar": "METAR GMMN 261830Z 24004KT 9999 BKN026 15/13 Q1020 NOSIG",
      "taf": "TAF GMMN 261700Z 2618/2724 22008KT 9999 BKN026"
    },
    {
      "icao": "GMMX",
      "alert": "OK",
      "vis_m": 9999,
      "fzfg": false,
      "metar_trigger": false,
      "taf_trigger": false,
      "metar": "METAR GMMX 261830Z 36003KT 330V030 CAVOK 15/08 Q1021 NOSIG",
      "taf": "TAF GMMX 261700Z 2618/2724 24006KT 8000 NSC"
    },
    {
      "icao": "HEGN",
      "alert": "OK",
      "vis_m": 9999,
      "fzfg": false,
      "metar_trigger": false,
      "taf_trigger": false,
      "metar": "METAR HEGN 261800Z 20003KT CAVOK 20/11 Q1016 NOSIG",
      "taf": "TAF HEGN 261700Z 2618/2724 11010KT CAVOK"
    },
    {
      "icao": "HEMA",
      "alert": "OK",
      "vis_m": 9999,
      "fzfg": false,
      "metar_trigger": false,
      "taf_trigger": false,
      "metar": "METAR HEMA 261800Z 19004KT CAVOK 19/12 Q1015 NOSIG",
      "taf": "TAF HEMA 261700Z 2618/2724 10010KT 6000 NSC"
    },
    {
      "icao": "HESH",
      "alert": "OK",
      "vis_m": 9999,
      "fzfg": false,
      "metar_trigger": false,
      "taf_trigger": false,
      "metar": "METAR HESH 261800Z 31002KT CAVOK 20/10 Q1015 NOSIG",
      "taf": "TAF HESH 261700Z 2618/2724 16010KT CAVOK"
    },
    {
      "icao": "HESX",
      "alert": "OK",
      "vis_m": 9999,
      "fzfg": false,
      "metar_trigger": false,
      "taf_trigger": false,
      "metar": "METAR HESX 261800Z 25007KT CAVOK 16/M02 Q1014 NOSIG",
      "taf": "TAF HESX 261700Z 2618/2724 22009KT CAVOK"
    },
    {
      "icao": "LATI",
      "alert": "OK",
      "vis_m": 9999,
      "fzfg": false,
      "metar_trigger": false,
      "taf_trigger": false,
      "metar": "METAR LATI 261850Z VRB02KT 9999 FEW040 08/06 Q1000 NOSIG",
      "taf": "TAF LATI 261700Z 2618/2718 VRB05KT 9999 SCT040 BKN080 TX14/2712Z TN06/2705Z"
    },
    {
      "icao": "LBPD",
      "alert": "OK",
      "vis_m": 6000,
      "fzfg": false,
      "metar_trigger": false,
      "taf_trigger": false,
      "metar": "METAR LBPD 261830Z AUTO 17003KT 6000 -SHRA FEW013/// OVC056/// 06/06 Q0998 NOSIG",
      "taf": "TAF LBPD 261700Z 2618/2718 11008KT 7000 SCT015 BKN040"
    },
    {
      "icao": "LBSF",
      "alert": "OK",
      "vis_m": 1200,
      "fzfg": false,
      "metar_trigger": false,
      "taf_trigger": false,
      "metar": "METAR LBSF 261830Z AUTO VRB02KT 1200 R27/2000D RA BR SCT014/// OVC022/// 06/06 Q0997 NOSIG",
      "taf": "TAF LBSF 261700Z 2618/2718 VRB04KT 6000 RA SCT012 OVC025"
    },
    {
      "icao": "LBWN",
      "alert": "OK",
      "vis_m": 9999,
      "fzfg": false,
      "metar_trigger": false,
      "taf_trigger": false,
      "metar": "METAR LBWN 261830Z AUTO 08009KT 9999 SCT013/// 09/09 Q1002 TEMPO 5000 RA",
      "taf": "TAF LBWN 261700Z 2618/2718 10010KT 9999 SCT015 BKN040"
    },
    {
      "icao": "LCLK",
      "alert": "OK",
      "vis_m": 9999,
      "fzfg": false,
      "metar_trigger": false,
      "taf_trigger": false,
      "metar": "METAR LCLK 261830Z 12015KT 9999 FEW030 18/14 Q1012 NOSIG",
      "taf": "TAF LCLK 261730Z 2618/2718 10013KT 9999 FEW020"
    },
    {
      "icao": "LCPH",
      "alert": "OK",
      "vis_m": 9999,
      "fzfg": false,
      "metar_trigger": false,
      "taf_trigger": false,
      "metar": "METAR LCPH 261830Z 12011KT 090V160 9999 FEW026 16/12 Q1012 NOSIG",
      "taf": "TAF LCPH 261730Z 2618/2718 11015KT 9999 FEW030"
    },
    {
      "icao": "LEAL",
      "alert": "OK",
      "vis_m": 9999,
      "fzfg": false,
      "metar_trigger": false,
      "taf_trigger": false,
      "metar": "METAR LEAL 261830Z 23005KT CAVOK 16/13 Q1010 NOSIG",
      "taf": "TAF LEAL 261700Z 2618/2718 27007KT 9999 FEW040 TX20/2712Z TN11/2706Z"
    },
    {
      "icao": "LEBB",
      "alert": "OK",
      "vis_m": 9999,
      "fzfg": false,
      "metar_trigger": false,
      "taf_trigger": false,
      "metar": "METAR LEBB 261830Z 13008KT 100V200 9999 FEW025 13/09 Q1000 NOSIG",
      "taf": "TAF LEBB 261700Z 2618/2718 20009KT 9999 FEW020 BKN035 TX16/2623Z TN11/2709Z"
    },
    {
      "icao": "LEBL",
      "alert": "OK",
      "vis_m": 9999,
      "fzfg": false,
      "metar_trigger": false,
      "taf_trigger": false,
      "metar": "METAR LEBL 261830Z 26005KT 240V300 9999 -SHRA FEW030TCU 13/05 Q1007 NOSIG",
      "taf": "TAF LEBL 261700Z 2618/2718 27010KT 9999 FEW055 TX16/2712Z TN09/2706Z"
    },
    {
      "icao": "LECH",
      "alert": "OK",
      "vis_m": 9999,
      "fzfg": false,
      "metar_trigger": false,
      "taf_trigger": false,
      "metar": "METAR LECH 261830Z AUTO VRB02KT CAVOK 10/07 Q1008",
      "taf": ""
    },
    {
      "icao": "LEMD",
      "alert": "OK",
      "vis_m": 8000,
      "fzfg": false,
      "metar_trigger": false,
      "taf_trigger": false,
      "metar": "METAR LEMD 261830Z 22010KT 8000 FEW014 BKN020 11/11 Q1008 NOSIG",
      "taf": ""
    },
    {
      "icao": "LEMG",
      "alert": "OK",
      "vis_m": 9999,
      "fzfg": false,
      "metar_trigger": false,
      "taf_trigger": false,
      "metar": "METAR LEMG 261830Z VRB01KT 9999 BKN050 16/12 Q1015 NOSIG",
      "taf": "TAF LEMG 261700Z 2618/2718 30009KT 9999 FEW040 TX19/2714Z TN10/2707Z"
    },
    {
      "icao": "LEVC",
      "alert": "OK",
      "vis_m": 9999,
      "fzfg": false,
      "metar_trigger": false,
      "taf_trigger": false,
      "metar": "METAR LEVC 261830Z 23010KT 200V270 9999 SCT055 17/10 Q1008 NOSIG",
      "taf": "TAF LEVC 261700Z 2618/2718 23009KT 9999 FEW040 TX20/2712Z TN11/2706Z"
    },
    {
      "icao": "LEXJ",
      "alert": "OK",
      "vis_m": 9999,
      "fzfg": false,
      "metar_trigger": false,
      "taf_trigger": false,
      "metar": "METAR LEXJ 261830Z 21016G31KT 170V250 CAVOK 16/08 Q0997",
      "taf": "TAF LEXJ 261400Z 2615/2715 23009KT 9999 SCT060 TX16/2621Z TN10/2709Z"
    },
    {
      "icao": "LEZG",
      "alert": "OK",
      "vis_m": 9999,
      "fzfg": false,
      "metar_trigger": false,
      "taf_trigger": false,
      "metar": "METAR LEZG 261830Z 09006KT 9999 BKN045 BKN065 09/09 Q1007 NOSIG",
      "taf": "TAF LEZG 261700Z 2618/2718 12008KT 9999 FEW040 TX15/2714Z TN08/2706Z"
    },
    {
      "icao": "LEZL",
      "alert": "OK",
      "vis_m": 9999,
      "fzfg": false,
      "metar_trigger": false,
      "taf_trigger": false,
      "metar": "METAR LEZL 261830Z 23012KT 200V260 9999 FEW020 BKN040 17/15 Q1015 NOSIG",
      "taf": "TAF LEZL 261400Z 2615/2715 24010KT 9999 FEW015 SCT030 TX19/2615Z TN11/2707Z"
    },
    {
      "icao": "LFBD",
      "alert": "OK",
      "vis_m": 9999,
      "fzfg": false,
      "metar_trigger": false,
      "taf_trigger": false,
      "metar": "METAR LFBD 261830Z AUTO 15010KT 9999 OVC030 10/07 Q1001 NOSIG",
      "taf": "TAF LFBD 261700Z 2618/2724 15010KT CAVOK TX11/2714Z TN07/2724Z"
    },
    {
      "icao": "LFLL",
      "alert": "OK",
      "vis_m": 9999,
      "fzfg": false,
      "metar_trigger": false,
      "taf_trigger": false,
      "metar": "METAR LFLL 261830Z 14008KT CAVOK 04/01 Q1005 NOSIG",
      "taf": "TAF LFLL 261700Z 2618/2724 16005KT CAVOK"
    },
    {
      "icao": "LFLS",
      "alert": "OK",
      "vis_m": 9999,
      "fzfg": false,
      "metar_trigger": false,
      "taf_trigger": false,
      "metar": "METAR LFLS 261830Z AUTO 11004KT CAVOK 00/M01 Q1006 NOSIG",
      "taf": "TAF LFLS 261400Z 2615/2715 36006KT 9999 SCT035"
    },
    {
      "icao": "LFMN",
      "alert": "OK",
      "vis_m": 9999,
      "fzfg": false,
      "metar_trigger": false,
      "taf_trigger": false,
      "metar": "METAR LFMN 261830Z 32006KT 9999 FEW043 SCT260 09/05 Q1005 NOSIG",
      "taf": "TAF LFMN 261400Z 2615/2721 21010KT CAVOK"
    },
    {
      "icao": "LFOB",
      "alert": "OK",
      "vis_m": 9999,
      "fzfg": false,
      "metar_trigger": false,
      "taf_trigger": false,
      "metar": "METAR LFOB 261830Z AUTO 15005KT 9999 BKN014 BKN023 BKN030 07/05 Q1002 TEMPO BKN004",
      "taf": "TAF LFOB 261700Z 2618/2718 14008KT 9999 BKN025 OVC035"
    },
    {
      "icao": "LFPO",
      "alert": "OK",
      "vis_m": 9999,
      "fzfg": false,
      "metar_trigger": false,
      "taf_trigger": false,
      "metar": "METAR LFPO 261830Z 18008KT 9999 OVC013 06/04 Q1003 NOSIG",
      "taf": "TAF LFPO 261700Z 2618/2724 19010KT 9999 SCT016 BKN030"
    },
    {
      "icao": "LFSB",
      "alert": "OK",
      "vis_m": 9999,
      "fzfg": false,
      "metar_trigger": false,
      "taf_trigger": false,
      "metar": "METAR LFSB 261830Z AUTO 22007KT 9999 BKN050 05/01 Q1005 NOSIG",
      "taf": "TAF LFSB 261700Z 2618/2718 VRB03KT 9999 BKN050"
    },
    {
      "icao": "LGAV",
      "alert": "OK",
      "vis_m": 9999,
      "fzfg": false,
      "metar_trigger": false,
      "taf_trigger": false,
      "metar": "METAR LGAV 261850Z 25007KT 9999 FEW015TCU SCT025 BKN070 11/07 Q1000 NOSIG",
      "taf": "TAF LGAV 261700Z 2618/2718 23012KT 9999 SCT025"
    },
    {
      "icao": "LGTS",
      "alert": "OK",
      "vis_m": 8000,
      "fzfg": false,
      "metar_trigger": false,
      "taf_trigger": false,
      "metar": "METAR LGTS 261850Z VRB02KT 8000 -RA SCT010 BKN025 10/10 Q0996 NOSIG",
      "taf": "TAF LGTS 261700Z 2618/2718 34010KT 9999 SCT010 BKN025"
    },
    {
      "icao": "LHBP",
      "alert": "OK",
      "vis_m": 9000,
      "fzfg": false,
      "metar_trigger": false,
      "taf_trigger": false,
      "metar": "METAR LHBP 261830Z 31007KT 9000 OVC008 04/04 Q1002 BECMG BKN012",
      "taf": ""
    },
    {
      "icao": "LHDC",
      "alert": "OK",
      "vis_m": 2100,
      "fzfg": false,
      "metar_trigger": false,
      "taf_trigger": false,
      "metar": "METAR LHDC 261815Z AUTO 05003KT 2100 BR BKN008 OVC050 06/05 Q1001 NOSIG",
      "taf": "TAF LHDC 261715Z 2618/2703 VRB03KT 6000 -RA SCT010 OVC030"
    },
    {
      "icao": "LIBD",
      "alert": "OK",
      "vis_m": 9999,
      "fzfg": false,
      "metar_trigger": false,
      "taf_trigger": false,
      "metar": "METAR LIBD 261850Z AUTO 27005KT 9999 NCD 08/06 Q1001",
      "taf": "TAF LIBD 261700Z 2618/2718 28008KT 9999 SCT025"
    },
    {
      "icao": "LIBG",
      "alert": "OK",
      "vis_m": 9999,
      "fzfg": false,
      "metar_trigger": false,
      "taf_trigger": false,
      "metar": "METAR LIBG 261750Z VRB02KT CAVOK 10/06 Q1000",
      "taf": "TAF LIBG 261700Z 2618/2703 32006KT 9999 FEW030"
    },
    {
      "icao": "LIBP",
      "alert": "OK",
      "vis_m": 9999,
      "fzfg": false,
      "metar_trigger": false,
      "taf_trigger": false,
      "metar": "METAR LIBP 261850Z AUTO 26003KT 220V310 9999 OVC045/// 08/04 Q1005",
      "taf": "TAF LIBP 261700Z 2618/2718 02010KT CAVOK"
    },
    {
      "icao": "LIBR",
      "alert": "OK",
      "vis_m": 9999,
      "fzfg": false,
      "metar_trigger": false,
      "taf_trigger": false,
      "metar": "METAR LIBR 261850Z 35007KT CAVOK 12/07 Q1000",
      "taf": "TAF LIBR 261700Z 2618/2718 33006KT 9999 FEW020"
    },
    {
      "icao": "LICA",
      "alert": "OK",
      "vis_m": 9999,
      "fzfg": false,
      "metar_trigger": false,
      "taf_trigger": false,
      "metar": "METAR LICA 261850Z AUTO 04004KT 9999 OVC070/// 11/09 Q1000",
      "taf": "TAF LICA 261700Z 2618/2718 VRB05KT 9999 SCT030"
    },
    {
      "icao": "LICC",
      "alert": "OK",
      "vis_m": 9999,
      "fzfg": false,
      "metar_trigger": false,
      "taf_trigger": false,
      "metar": "METAR LICC 261850Z 26011KT 9999 FEW020 BKN090 11/08 Q1000",
      "taf": "TAF LICC 261700Z 2618/2718 26008KT 9999 SCT030"
    },
    {
      "icao": "LICJ",
      "alert": "OK",
      "vis_m": 9999,
      "fzfg": false,
      "metar_trigger": false,
      "taf_trigger": false,
      "metar": "METAR LICJ 261850Z 28011KT 9999 SCT040 12/08 Q1002",
      "taf": "TAF LICJ 261700Z 2618/2718 29012KT 9999 SCT030"
    },
    {
      "icao": "LIMC",
      "alert": "OK",
      "vis_m": 9999,
      "fzfg": false,
      "metar_trigger": false,
      "taf_trigger": false,
      "metar": "METAR LIMC 261850Z 01003KT 350V050 CAVOK 03/01 Q1004 NOSIG",
      "taf": "TAF LIMC 261700Z 2618/2724 VRB04KT 3000 BR SCT025"
    },
    {
      "icao": "LIME",
      "alert": "OK",
      "vis_m": 9999,
      "fzfg": false,
      "metar_trigger": false,
      "taf_trigger": false,
      "metar": "METAR LIME 261850Z AUTO 01003KT 9999 NCD 04/03 Q1004",
      "taf": "TAF LIME 261700Z 2618/2718 VRB05KT 7000 FEW020"
    },
    {
      "icao": "LIMF",
      "alert": "OK",
      "vis_m": 9999,
      "fzfg": false,
      "metar_trigger": false,
      "taf_trigger": false,
      "metar": "METAR LIMF 261850Z 31004KT CAVOK 05/01 Q1004",
      "taf": "TAF LIMF 261700Z 2618/2718 VRB04KT 6000 SCT020"
    },
    {
      "icao": "LIMJ",
      "alert": "OK",
      "vis_m": 9999,
      "fzfg": false,
      "metar_trigger": false,
      "taf_trigger": false,
      "metar": "METAR LIMJ 261850Z 05010KT 010V070 CAVOK 09/01 Q1004",
      "taf": "TAF LIMJ 261700Z 2618/2718 03010KT 9999 SCT040"
    },
    {
      "icao": "LIPE",
      "alert": "OK",
      "vis_m": 9999,
      "fzfg": false,
      "metar_trigger": false,
      "taf_trigger": false,
      "metar": "METAR LIPE 261850Z 22004KT CAVOK 04/02 Q1005",
      "taf": "TAF LIPE 261700Z 2618/2718 VRB05KT 6000 SCT020"
    },
    {
      "icao": "LIPH",
      "alert": "OK",
      "vis_m": 8000,
      "fzfg": false,
      "metar_trigger": false,
      "taf_trigger": false,
      "metar": "METAR LIPH 261850Z 23003KT 8000 MIFG NSC 06/05 Q1004",
      "taf": "TAF LIPH 261700Z 2618/2718 25005KT 8000 FEW010"
    },
    {
      "icao": "LIPQ",
      "alert": "OK",
      "vis_m": 9999,
      "fzfg": false,
      "metar_trigger": false,
      "taf_trigger": false,
      "metar": "METAR LIPQ 261850Z AUTO 36002KT 9999 NCD 04/04 Q1004",
      "taf": "TAF LIPQ 261700Z 2618/2718 VRB04KT 9999 SCT020"
    },
    {
      "icao": "LIPR",
      "alert": "OK",
      "vis_m": 9999,
      "fzfg": false,
      "metar_trigger": false,
      "taf_trigger": false,
      "metar": "METAR LIPR 261850Z VRB01KT 9999 BKN025 05/03 Q1004",
      "taf": "TAF LIPR 261700Z 2618/2718 23005KT 9999 SCT015"
    },
    {
      "icao": "LIPX",
      "alert": "OK",
      "vis_m": 9999,
      "fzfg": false,
      "metar_trigger": false,
      "taf_trigger": false,
      "metar": "METAR LIPX 261850Z 26006KT CAVOK 05/02 Q1004",
      "taf": "TAF LIPX 261700Z 2618/2718 VRB04KT 8000 SCT020"
    },
    {
      "icao": "LIPY",
      "alert": "OK",
      "vis_m": 9999,
      "fzfg": false,
      "metar_trigger": false,
      "taf_trigger": false,
      "metar": "METAR LIPY 261850Z AUTO 28007KT 9999 OVC024/// 07/04 Q1004",
      "taf": "TAF LIPY 261700Z 2618/2718 VRB05KT 9999 SCT015"
    },
    {
      "icao": "LIPZ",
      "alert": "OK",
      "vis_m": 9999,
      "fzfg": false,
      "metar_trigger": false,
      "taf_trigger": false,
      "metar": "METAR LIPZ 261850Z 24005KT CAVOK 05/04 Q1004 NOSIG",
      "taf": "TAF LIPZ 261700Z 2618/2724 25005KT 8000 FEW020"
    },
    {
      "icao": "LIRF",
      "alert": "OK",
      "vis_m": 9999,
      "fzfg": false,
      "metar_trigger": false,
      "taf_trigger": false,
      "metar": "METAR LIRF 261850Z 35002KT CAVOK 07/06 Q1003 NOSIG",
      "taf": "TAF LIRF 261700Z 2618/2724 36006KT 9999 FEW030"
    },
    {
      "icao": "LIRN",
      "alert": "OK",
      "vis_m": 9999,
      "fzfg": false,
      "metar_trigger": false,
      "taf_trigger": false,
      "metar": "METAR LIRN 261850Z 35005KT 280V010 9999 BKN060 10/08 Q1001 NOSIG",
      "taf": "TAF LIRN 261700Z 2618/2718 04005KT 9999 SCT040"
    },
    {
      "icao": "LIRP",
      "alert": "OK",
      "vis_m": 9999,
      "fzfg": false,
      "metar_trigger": false,
      "taf_trigger": false,
      "metar": "METAR LIRP 261845Z 06002KT CAVOK 07/06 Q1004 NOSIG",
      "taf": "TAF LIRP 261700Z 2618/2718 13004KT 9999 FEW020 SCT040"
    },
    {
      "icao": "LIRZ",
      "alert": "OK",
      "vis_m": 9999,
      "fzfg": false,
      "metar_trigger": false,
      "taf_trigger": false,
      "metar": "METAR LIRZ 261850Z AUTO 03008KT 9999 NCD 06/03 Q1003",
      "taf": "TAF LIRZ 261700Z 2618/2718 VRB05KT 8000 FEW040"
    },
    {
      "icao": "LJLJ",
      "alert": "OK",
      "vis_m": 500,
      "fzfg": false,
      "metar_trigger": false,
      "taf_trigger": false,
      "metar": "METAR LJLJ 261830Z 31004KT 0500 R30/0700N FG VV001 02/02 Q1003 NOSIG",
      "taf": "TAF LJLJ 261700Z 2618/2718 30003KT 0400 FG VV001"
    },
    {
      "icao": "LKMT",
      "alert": "OK",
      "vis_m": 9999,
      "fzfg": false,
      "metar_trigger": false,
      "taf_trigger": false,
      "metar": "METAR LKMT 261830Z 24007KT CAVOK M00/M01 Q1002 NOSIG",
      "taf": "TAF LKMT 261700Z 2618/2718 23008KT CAVOK"
    },
    {
      "icao": "LKPR",
      "alert": "OK",
      "vis_m": 9999,
      "fzfg": false,
      "metar_trigger": false,
      "taf_trigger": false,
      "metar": "METAR LKPR 261830Z 20009KT 140V240 9999 -SN SCT015 SCT049 00/M01 Q0999 NOSIG",
      "taf": "TAF LKPR 261700Z 2618/2724 23008KT 9999 OVC015"
    },
    {
      "icao": "LLBG",
      "alert": "OK",
      "vis_m": 9999,
      "fzfg": false,
      "metar_trigger": false,
      "taf_trigger": false,
      "metar": "METAR LLBG 261850Z 11005KT CAVOK 15/05 Q1014 NOSIG",
      "taf": "TAF LLBG 261703Z 2618/2718 11005KT CAVOK"
    },
    {
      "icao": "LMML",
      "alert": "OK",
      "vis_m": 9999,
      "fzfg": false,
      "metar_trigger": false,
      "taf_trigger": false,
      "metar": "METAR LMML 261845Z 28019KT 9999 FEW025 12/07 Q1003 NOSIG",
      "taf": "TAF LMML 261700Z 2618/2718 30020KT 9999 SCT015"
    },
    {
      "icao": "LOWW",
      "alert": "OK",
      "vis_m": 1200,
      "fzfg": true,
      "metar_trigger": false,
      "taf_trigger": false,
      "metar": "METAR LOWW 261850Z 18005KT 1200 0300SE R16/0500U R29/0400D BCFG FEW000 M00/M01 Q1003 TEMPO 0400 FZFG",
      "taf": "TAF LOWW 261715Z 2618/2724 22005KT 9999 FEW005 TX03/2714Z TNM01/2706Z"
    },
    {
      "icao": "LPFR",
      "alert": "OK",
      "vis_m": 9000,
      "fzfg": false,
      "metar_trigger": false,
      "taf_trigger": false,
      "metar": "METAR LPFR 261830Z 25018KT 9000 -DZRA SCT006 SCT022 BKN030 14/13 Q1014 REDZ",
      "taf": "TAF LPFR 261700Z 2618/2718 25015KT 9999 SCT012 BKN030"
    },
    {
      "icao": "LPMA",
      "alert": "OK",
      "vis_m": 9999,
      "fzfg": false,
      "metar_trigger": false,
      "taf_trigger": false,
      "metar": "METAR LPMA 261830Z VRB08KT 9999 BKN016 18/12 Q1017",
      "taf": "TAF LPMA 261700Z 2618/2718 22018KT 9999 SCT015"
    },
    {
      "icao": "LPPR",
      "alert": "OK",
      "vis_m": 5000,
      "fzfg": false,
      "metar_trigger": false,
      "taf_trigger": false,
      "metar": "METAR LPPR 261830Z 18023G35KT 5000 -RADZ BR BKN006 BKN011 14/13 Q1002",
      "taf": "TAF LPPR 261700Z 2618/2718 20018G30KT 6000 -RA SCT006 BKN012"
    },
    {
      "icao": "LPPS",
      "alert": "OK",
      "vis_m": 9999,
      "fzfg": false,
      "metar_trigger": false,
      "taf_trigger": false,
      "metar": "METAR LPPS 261830Z 22004KT 190V300 9999 SCT015 SCT030 18/12 Q1017",
      "taf": "TAF LPPS 261700Z 2618/2724 23010KT 9999 SCT015 SCT030"
    },
    {
      "icao": "LPPT",
      "alert": "OK",
      "vis_m": 9999,
      "fzfg": false,
      "metar_trigger": false,
      "taf_trigger": false,
      "metar": "METAR LPPT 261830Z 21021KT 9999 FEW010 15/13 Q1009",
      "taf": "TAF LPPT 261700Z 2618/2724 23017KT 9999 SCT012 BKN025"
    },
    {
      "icao": "LQBK",
      "alert": "OK",
      "vis_m": 9999,
      "fzfg": false,
      "metar_trigger": false,
      "taf_trigger": false,
      "metar": "METAR LQBK 261830Z VRB02KT 9999 BKN037 05/04 Q1003 NOSIG",
      "taf": ""
    },
    {
      "icao": "LQSA",
      "alert": "OK",
      "vis_m": 9999,
      "fzfg": false,
      "metar_trigger": false,
      "taf_trigger": false,
      "metar": "METAR LQSA 261830Z VRB03KT 9999 SCT035 BKN045 04/04 Q1001 NOSIG",
      "taf": "TAF LQSA 261700Z 2618/2718 VRB02KT 9999 SCT045 TX08/2713Z TN01/2705Z"
    },
    {
      "icao": "LQTZ",
      "alert": "OK",
      "vis_m": 9999,
      "fzfg": false,
      "metar_trigger": false,
      "taf_trigger": false,
      "metar": "METAR LQTZ 261830Z 28003KT 260V320 9999 SCT031 BKN073 07/06 Q1002",
      "taf": "TAF LQTZ 261700Z 2618/2718 28006KT 9999 SCT015 BKN030 TX11/2713Z TN00/2706Z"
    },
    {
      "icao": "LRBC",
      "alert": "OK",
      "vis_m": 800,
      "fzfg": false,
      "metar_trigger": false,
      "taf_trigger": false,
      "metar": "METAR LRBC 261830Z 15007KT 0800 R16/0900N -RA FG VV002 04/04 Q1005",
      "taf": "TAF LRBC 261700Z 2618/2703 17010KT 0150 FG VV002"
    },
    {
      "icao": "LRBS",
      "alert": "OK",
      "vis_m": 4000,
      "fzfg": false,
      "metar_trigger": false,
      "taf_trigger": false,
      "metar": "METAR LRBS 261830Z 06009KT 4000 -DZ BR BKN003 07/07 Q1002 TEMPO 0800 FG OVC002",
      "taf": "TAF LRBS 261700Z 2618/2718 07012KT 3000 BR BKN003"
    },
    {
      "icao": "LRBV",
      "alert": "OK",
      "vis_m": 9999,
      "fzfg": false,
      "metar_trigger": false,
      "taf_trigger": false,
      "metar": "METAR LRBV 261830Z 04011KT 9999 FEW037 BKN043 09/04 Q1000",
      "taf": "TAF LRBV 261700Z 2618/2703 02008KT 9999 BKN045"
    },
    {
      "icao": "LRCL",
      "alert": "OK",
      "vis_m": 4000,
      "fzfg": false,
      "metar_trigger": false,
      "taf_trigger": false,
      "metar": "METAR LRCL 261830Z 29002KT 4000 -RA BR BKN039 OVC057 03/02 Q1001",
      "taf": "TAF LRCL 261700Z 2618/2703 VRB04KT 9999 -RA BKN050"
    },
    {
      "icao": "LRCV",
      "alert": "OK",
      "vis_m": 600,
      "fzfg": false,
      "metar_trigger": false,
      "taf_trigger": false,
      "metar": "METAR LRCV 261830Z 08008KT 0600 R26/0700N -RA FG BKN002 OVC037 05/05 Q1000",
      "taf": "TAF LRCV 261700Z 2618/2703 VRB04KT 0800 -RADZ FG BKN002 OVC020"
    },
    {
      "icao": "LRIA",
      "alert": "OK",
      "vis_m": 8000,
      "fzfg": false,
      "metar_trigger": false,
      "taf_trigger": false,
      "metar": "METAR LRIA 261830Z 12018KT 8000 -RA OVC002 03/03 Q1006",
      "taf": "TAF LRIA 261700Z 2618/2703 12018KT 9999 -RA BKN003 OVC010"
    },
    {
      "icao": "LROP",
      "alert": "OK",
      "vis_m": 4000,
      "fzfg": false,
      "metar_trigger": false,
      "taf_trigger": false,
      "metar": "METAR LROP 261830Z 07010KT 4000 -RA BR OVC003 07/07 Q1002 TEMPO 0800 FG OVC002",
      "taf": "TAF LROP 261700Z 2618/2718 07012KT 3000 BR BKN003"
    },
    {
      "icao": "LRSB",
      "alert": "OK",
      "vis_m": 9999,
      "fzfg": false,
      "metar_trigger": false,
      "taf_trigger": false,
      "metar": "METAR LRSB 261830Z 24006KT 210V270 9999 FEW055 SCT070 07/05 Q0999",
      "taf": "TAF LRSB 261700Z 2618/2718 14012KT 9999 SCT040"
    },
    {
      "icao": "LRSM",
      "alert": "OK",
      "vis_m": 600,
      "fzfg": false,
      "metar_trigger": false,
      "taf_trigger": false,
      "metar": "METAR LRSM 261830Z AUTO 00000KT 0600 R19/0650N FG FEW041/// OVC055/// 03/02 Q1001",
      "taf": ""
    },
    {
      "icao": "LRSV",
      "alert": "OK",
      "vis_m": 250,
      "fzfg": false,
      "metar_trigger": false,
      "taf_trigger": false,
      "metar": "METAR LRSV 261830Z 15009KT 0250 R34/0500N -DZ FG VV001 02/02 Q1004",
      "taf": "TAF LRSV 261700Z 2618/2703 14012KT 0350 -RADZ FG VV001"
    },
    {
      "icao": "LRTM",
      "alert": "OK",
      "vis_m": 3800,
      "fzfg": false,
      "metar_trigger": false,
      "taf_trigger": false,
      "metar": "METAR LRTM 261830Z AUTO 28001KT 3800 BR NCD 02/01 Q1000",
      "taf": "TAF LRTM 261400Z 2615/2624 VRB04KT 5000 -RA BR SCT015"
    },
    {
      "icao": "LRTR",
      "alert": "OK",
      "vis_m": 4500,
      "fzfg": false,
      "metar_trigger": false,
      "taf_trigger": false,
      "metar": "METAR LRTR 261830Z 36005KT 340V040 4500 -RA BR SCT004 BKN018 06/06 Q1000",
      "taf": "TAF LRTR 261700Z 2618/2718 31006KT 5000 -RA BR BKN005 OVC030"
    },
    {
      "icao": "LTAC",
      "alert": "OK",
      "vis_m": 9999,
      "fzfg": false,
      "metar_trigger": false,
      "taf_trigger": false,
      "metar": "METAR LTAC 261850Z 36004KT 9999 SCT040 BKN100 06/03 Q1008 NOSIG",
      "taf": "TAF LTAC 261640Z 2618/2718 17008KT 9999 SCT040 BKN100"
    },
    {
      "icao": "LTFM",
      "alert": "OK",
      "vis_m": 7000,
      "fzfg": false,
      "metar_trigger": false,
      "taf_trigger": false,
      "metar": "METAR LTFM 261850Z 23024KT 7000 3300N SHRA SCT010 FEW020CB BKN030 10/08 Q1002 BECMG TL1950 NSW",
      "taf": ""
    },
    {
      "icao": "LUKK",
      "alert": "OK",
      "vis_m": 5000,
      "fzfg": false,
      "metar_trigger": false,
      "taf_trigger": false,
      "metar": "METAR LUKK 261830Z 10007KT 5000 -RA BR OVC002 00/M00 Q1009 TEMPO 4000 -FZRA BR BKN001",
      "taf": "TAF LUKK 261720Z 2618/2718 09009KT 5000 RA BR OVC002"
    },
    {
      "icao": "LWOH",
      "alert": "OK",
      "vis_m": 9999,
      "fzfg": false,
      "metar_trigger": false,
      "taf_trigger": false,
      "metar": "METAR LWOH 261850Z 06003KT 9999 BKN040 06/04 Q0998",
      "taf": "TAF LWOH 261430Z 2615/2715 VRB02KT 9999 SCT020 BKN035"
    },
    {
      "icao": "LWSK",
      "alert": "OK",
      "vis_m": 6000,
      "fzfg": false,
      "metar_trigger": false,
      "taf_trigger": false,
      "metar": "METAR LWSK 261850Z VRB02KT 6000 -RA SCT004 BKN012 OVC035 08/08 Q0997 NOSIG",
      "taf": ""
    },
    {
      "icao": "LYBE",
      "alert": "OK",
      "vis_m": 8000,
      "fzfg": false,
      "metar_trigger": false,
      "taf_trigger": false,
      "metar": "METAR LYBE 261830Z 33005KT 8000 BKN013 06/04 Q1001 TEMPO BKN008",
      "taf": "TAF LYBE 261700Z 2618/2718 30008KT 9999 SCT017 TX10/2712Z TN03/2706Z"
    },
    {
      "icao": "LYNI",
      "alert": "OK",
      "vis_m": 9999,
      "fzfg": false,
      "metar_trigger": false,
      "taf_trigger": false,
      "metar": "METAR LYNI 261830Z 35008KT 320V020 9999 -RA SCT017 BKN040 OVC080 06/05 Q0999 NOSIG",
      "taf": "TAF LYNI 261700Z 2618/2718 35015KT 9999 SCT020 BKN050 TX07/2713Z TN03/2706Z"
    },
    {
      "icao": "LYPG",
      "alert": "OK",
      "vis_m": 9999,
      "fzfg": false,
      "metar_trigger": false,
      "taf_trigger": false,
      "metar": "METAR LYPG 261830Z 11003KT 080V160 9999 FEW016 07/06 Q0999 NOSIG",
      "taf": "TAF LYPG 261700Z 2618/2718 34005KT 9999 FEW020 TX14/2713Z TN04/2704Z"
    },
    {
      "icao": "LZIB",
      "alert": "OK",
      "vis_m": 200,
      "fzfg": false,
      "metar_trigger": false,
      "taf_trigger": false,
      "metar": "METAR LZIB 261830Z 20004KT 0200 R31/0400N R22/0375N FG OVC001 01/00 Q1003 NOSIG",
      "taf": ""
    },
    {
      "icao": "LZKZ",
      "alert": "OK",
      "vis_m": 4000,
      "fzfg": false,
      "metar_trigger": false,
      "taf_trigger": false,
      "metar": "METAR LZKZ 261830Z 33003KT 4000 R01/0900U BCFG FEW001 SCT008 OVC015 05/04 Q1001 TEMPO 0500 FG SCT001 OVC008",
      "taf": ""
    },
    {
      "icao": "LZTT",
      "alert": "OK",
      "vis_m": 5000,
      "fzfg": false,
      "metar_trigger": false,
      "taf_trigger": false,
      "metar": "METAR LZTT 261830Z 29006KT 5000 BR BKN004 OVC013 02/02 Q1000",
      "taf": "TAF LZTT 261715Z 2618/2718 24004KT 9999 FEW006 SCT035"
    },
    {
      "icao": "OEJN",
      "alert": "OK",
      "vis_m": 9999,
      "fzfg": false,
      "metar_trigger": false,
      "taf_trigger": false,
      "metar": "METAR OEJN 261800Z 02002KT CAVOK 26/12 Q1014 NOSIG",
      "taf": "TAF OEJN 261700Z 2618/2724 VRB03KT 7000 NSC"
    },
    {
      "icao": "OEMA",
      "alert": "OK",
      "vis_m": 9999,
      "fzfg": false,
      "metar_trigger": false,
      "taf_trigger": false,
      "metar": "METAR OEMA 261800Z 32004KT CAVOK 18/M03 Q1020 NOSIG",
      "taf": "TAF OEMA 261700Z 2618/2724 08015KT 7000 NSC"
    },
    {
      "icao": "OJAI",
      "alert": "OK",
      "vis_m": 5000,
      "fzfg": false,
      "metar_trigger": false,
      "taf_trigger": false,
      "metar": "METAR OJAI 261800Z 10003KT 5000 HZ NSC 10/01 Q1018 NOSIG",
      "taf": "TAF OJAI 261658Z 2618/2724 VRB02KT 5000 HZ NSC"
    },
    {
      "icao": "OMAA",
      "alert": "OK",
      "vis_m": 9999,
      "fzfg": false,
      "metar_trigger": false,
      "taf_trigger": false,
      "metar": "METAR OMAA 261830Z 28008KT CAVOK 19/13 Q1019 NOSIG",
      "taf": "TAF OMAA 261700Z 2618/2800 31010KT 8000 FEW045"
    },
    {
      "icao": "OMDB",
      "alert": "OK",
      "vis_m": 9999,
      "fzfg": false,
      "metar_trigger": false,
      "taf_trigger": false,
      "metar": "METAR OMDB 261830Z 08004KT 020V120 CAVOK 20/13 Q1019 NOSIG",
      "taf": "TAF OMDB 261700Z 2618/2800 14004KT 8000 NSC"
    },
    {
      "icao": "UAAA",
      "alert": "OK",
      "vis_m": 2700,
      "fzfg": false,
      "metar_trigger": false,
      "taf_trigger": false,
      "metar": "METAR UAAA 261830Z 21001MPS 2700 BR FU SCT200 M05/M08 Q1020 NOSIG",
      "taf": "TAF UAAA 261701Z 2618/2718 22003MPS 1500 BR FU SCT020 BKN050 TX03/2708Z TNM07/2702Z"
    },
    {
      "icao": "UBBB",
      "alert": "OK",
      "vis_m": 9999,
      "fzfg": false,
      "metar_trigger": false,
      "taf_trigger": false,
      "metar": "METAR UBBB 261830Z 35022KT 9999 BKN012 OVC025 05/03 Q1024 NOSIG",
      "taf": "TAF UBBB 261700Z 2618/2718 32018G28KT 9999 SCT009 BKN025 TX05/2710Z TN02/2701Z"
    },
    {
      "icao": "UDSG",
      "alert": "OK",
      "vis_m": 2800,
      "fzfg": false,
      "metar_trigger": false,
      "taf_trigger": false,
      "metar": "METAR UDSG 261830Z 04002KT 2800 BR FEW049 M12/M13 Q1022 NOSIG",
      "taf": "TAF UDSG 261658Z 2618/2718 VRB06KT 3000 BR BKN030"
    },
    {
      "icao": "UDYZ",
      "alert": "OK",
      "vis_m": 2300,
      "fzfg": false,
      "metar_trigger": false,
      "taf_trigger": false,
      "metar": "METAR UDYZ 261830Z 22004KT 2300 BR BKN006 M05/M06 Q1025 NOSIG",
      "taf": "TAF UDYZ 261700Z 2618/2718 VRB06KT 2300 BR BKN006"
    },
    {
      "icao": "UGKO",
      "alert": "OK",
      "vis_m": 9999,
      "fzfg": false,
      "metar_trigger": false,
      "taf_trigger": false,
      "metar": "METAR UGKO 261830Z 08016KT CAVOK 10/02 Q1013 NOSIG",
      "taf": "TAF UGKO 261700Z 2618/2718 08027G37KT CAVOK TX13/2711Z TN07/2620Z"
    }
  ]
}