{
  "ts_utc": "2026-02-23T09:06:27Z",
  "threshold_m": 150,
  "source": "stations_override.txt (ICAO list) + aviationweather.gov (METAR/TAF raw)",
  "station_count": 159,
  "stations": [
    {
      "icao": "BIKF",
      "alert": "OK",
      "vis_m": 6000,
      "fzfg": false,
      "metar_trigger": false,
      "taf_trigger": false,
      "metar": "METAR BIKF 230900Z 13024KT 6000 -RA BKN010 OVC022 04/03 Q0993",
      "taf": "TAF BIKF 230750Z 2309/2409 14022KT 9999 -SHRA SCT015 BKN025 TX07/2314Z TN01/2406Z"
    },
    {
      "icao": "BKPR",
      "alert": "OK",
      "vis_m": 8000,
      "fzfg": false,
      "metar_trigger": false,
      "taf_trigger": false,
      "metar": "METAR BKPR 230900Z 12004KT 8000 BKN085 03/01 Q1021 NOSIG",
      "taf": "TAF BKPR 230530Z 2306/2406 19006KT 2500 BR FEW030"
    },
    {
      "icao": "EBCI",
      "alert": "OK",
      "vis_m": 9999,
      "fzfg": false,
      "metar_trigger": false,
      "taf_trigger": false,
      "metar": "METAR EBCI 230850Z 24016KT 9999 BKN015 09/06 Q1018 NOSIG",
      "taf": "TAF EBCI 230510Z 2306/2412 24013KT 9999 FEW012 SCT025"
    },
    {
      "icao": "EDDB",
      "alert": "OK",
      "vis_m": 9999,
      "fzfg": false,
      "metar_trigger": false,
      "taf_trigger": false,
      "metar": "METAR EDDB 230850Z AUTO 26014KT 9999 FEW018 SCT032 10/07 Q1010 BECMG 25015G25KT",
      "taf": "TAF EDDB 230500Z 2306/2406 26010KT 9999 SCT015 BKN030"
    },
    {
      "icao": "EDDH",
      "alert": "OK",
      "vis_m": 8000,
      "fzfg": false,
      "metar_trigger": false,
      "taf_trigger": false,
      "metar": "METAR EDDH 230850Z AUTO 25010KT 220V290 8000 SHRA SCT008 BKN011 BKN019 FEW///TCU 08/07 Q1008 TEMPO NSW BKN008",
      "taf": "TAF EDDH 230500Z 2306/2412 24010KT 9999 FEW010 BKN020"
    },
    {
      "icao": "EDDK",
      "alert": "OK",
      "vis_m": 9999,
      "fzfg": false,
      "metar_trigger": false,
      "taf_trigger": false,
      "metar": "METAR EDDK 230850Z AUTO 24012KT 9999 FEW027 BKN048 10/05 Q1016 NOSIG",
      "taf": "TAF EDDK 230500Z 2306/2412 25008KT 9999 BKN025"
    },
    {
      "icao": "EDDN",
      "alert": "OK",
      "vis_m": 3800,
      "fzfg": false,
      "metar_trigger": false,
      "taf_trigger": false,
      "metar": "METAR EDDN 230850Z AUTO 26007KT 3800 -RA BR FEW007 BKN024 OVC028 08/07 Q1017 RESHRA TEMPO 8000 BKN010",
      "taf": ""
    },
    {
      "icao": "EDDS",
      "alert": "OK",
      "vis_m": 9999,
      "fzfg": false,
      "metar_trigger": false,
      "taf_trigger": false,
      "metar": "METAR EDDS 230850Z AUTO 23009KT 190V270 9999 BKN016 BKN021 OVC027 10/07 Q1018 NOSIG",
      "taf": "TAF EDDS 230500Z 2306/2406 22007KT 9999 BKN030"
    },
    {
      "icao": "EDFH",
      "alert": "OK",
      "vis_m": 9999,
      "fzfg": false,
      "metar_trigger": false,
      "taf_trigger": false,
      "metar": "METAR EDFH 230850Z 27014KT 9999 FEW005 BKN010 08/06 Q1017",
      "taf": ""
    },
    {
      "icao": "EDJA",
      "alert": "OK",
      "vis_m": 9999,
      "fzfg": false,
      "metar_trigger": false,
      "taf_trigger": false,
      "metar": "METAR EDJA 230850Z 24018G30KT 9999 BKN012 BKN041 08/05 Q1020",
      "taf": ""
    },
    {
      "icao": "EDLW",
      "alert": "OK",
      "vis_m": 9999,
      "fzfg": false,
      "metar_trigger": false,
      "taf_trigger": false,
      "metar": "METAR EDLW 230850Z 23015KT 9999 -RA SCT017 BKN034 09/06 Q1013",
      "taf": "TAF EDLW 230500Z 2306/2406 24012KT 9999 BKN012"
    },
    {
      "icao": "EDNY",
      "alert": "OK",
      "vis_m": 9999,
      "fzfg": false,
      "metar_trigger": false,
      "taf_trigger": false,
      "metar": "METAR EDNY 230850Z 20004KT 9999 FEW037 BKN044 OVC052 09/07 Q1022",
      "taf": "TAF EDNY 230800Z 2309/2318 23005KT 9999 BKN045"
    },
    {
      "icao": "EDSB",
      "alert": "OK",
      "vis_m": 9999,
      "fzfg": false,
      "metar_trigger": false,
      "taf_trigger": false,
      "metar": "METAR EDSB 230850Z 20013KT 9999 -DZ SCT023 OVC027 10/09 Q1021",
      "taf": "TAF EDSB 230500Z 2306/2406 21012KT 9999 BKN020"
    },
    {
      "icao": "EETN",
      "alert": "OK",
      "vis_m": 9999,
      "fzfg": false,
      "metar_trigger": false,
      "taf_trigger": false,
      "metar": "METAR EETN 230850Z 16005KT 130V190 9999 SCT002 M07/M07 Q1008 TEMPO BKN002",
      "taf": ""
    },
    {
      "icao": "EFTU",
      "alert": "OK",
      "vis_m": 9999,
      "fzfg": false,
      "metar_trigger": false,
      "taf_trigger": false,
      "metar": "METAR EFTU 230850Z AUTO 10005KT 9999 BKN003 OVC004 M07/M08 Q1007",
      "taf": "TAF EFTU 230825Z 2309/2409 12004KT 9999 OVC002"
    },
    {
      "icao": "EGBB",
      "alert": "OK",
      "vis_m": 9999,
      "fzfg": false,
      "metar_trigger": false,
      "taf_trigger": false,
      "metar": "METAR EGBB 230850Z 25010KT 200V290 9999 SCT039 10/05 Q1012",
      "taf": "TAF EGBB 230457Z 2306/2406 25010KT 9999 SCT030"
    },
    {
      "icao": "EGGP",
      "alert": "OK",
      "vis_m": 9999,
      "fzfg": false,
      "metar_trigger": false,
      "taf_trigger": false,
      "metar": "METAR EGGP 230850Z 23009KT 9999 FEW030 09/05 Q1011",
      "taf": "TAF EGGP 230459Z 2306/2406 26013KT 9999 FEW030"
    },
    {
      "icao": "EGGW",
      "alert": "OK",
      "vis_m": 9999,
      "fzfg": false,
      "metar_trigger": false,
      "taf_trigger": false,
      "metar": "METAR EGGW 230850Z AUTO 24015KT 9999 FEW015 SCT042 09/06 Q1014",
      "taf": "TAF EGGW 230457Z 2306/2406 23014KT 9999 SCT025"
    },
    {
      "icao": "EGKK",
      "alert": "OK",
      "vis_m": 9999,
      "fzfg": false,
      "metar_trigger": false,
      "taf_trigger": false,
      "metar": "METAR EGKK 230850Z 24009KT 9999 BKN016 09/08 Q1016",
      "taf": "TAF EGKK 230456Z 2306/2412 23010KT 9999 SCT025"
    },
    {
      "icao": "EGNM",
      "alert": "OK",
      "vis_m": 9999,
      "fzfg": false,
      "metar_trigger": false,
      "taf_trigger": false,
      "metar": "METAR EGNM 230850Z 25021KT 9999 -RADZ SCT015 08/04 Q1007",
      "taf": "TAF EGNM 230459Z 2306/2406 26014KT 9999 FEW030"
    },
    {
      "icao": "EGPD",
      "alert": "OK",
      "vis_m": 9999,
      "fzfg": false,
      "metar_trigger": false,
      "taf_trigger": false,
      "metar": "METAR EGPD 230850Z COR AUTO 23006KT 9999 NCD 06/02 Q0998 NOSIG",
      "taf": "TAF EGPD 230453Z 2306/2406 21006KT 9999 FEW035"
    },
    {
      "icao": "EGPF",
      "alert": "OK",
      "vis_m": 9000,
      "fzfg": false,
      "metar_trigger": false,
      "taf_trigger": false,
      "metar": "METAR EGPF 230850Z 25014KT 9000 -SHRA SCT015TCU BKN024 BKN039 08/06 Q1003",
      "taf": "TAF EGPF 230456Z 2306/2406 24009KT 9999 FEW020 SCT035"
    },
    {
      "icao": "EHBK",
      "alert": "OK",
      "vis_m": 9999,
      "fzfg": false,
      "metar_trigger": false,
      "taf_trigger": false,
      "metar": "METAR EHBK 230855Z AUTO 23015KT 210V270 9999 BKN016/// BKN019/// OVC040/// 09/06 Q1016 NOSIG",
      "taf": "TAF EHBK 230453Z 2306/2412 24011KT 9999 BKN018"
    },
    {
      "icao": "EHEH",
      "alert": "OK",
      "vis_m": 9999,
      "fzfg": false,
      "metar_trigger": false,
      "taf_trigger": false,
      "metar": "METAR EHEH 230855Z AUTO 23013KT 210V280 9999 OVC016 10/07 Q1014 WHT NOSIG RMK TREND REMOTE BY EHWX",
      "taf": "TAF EHEH 230553Z 2306/2412 24012G22KT 9999 SCT017 BKN020"
    },
    {
      "icao": "EKBI",
      "alert": "OK",
      "vis_m": 7000,
      "fzfg": false,
      "metar_trigger": false,
      "taf_trigger": false,
      "metar": "METAR EKBI 230850Z 24011KT 7000 BKN004 05/05 Q1003",
      "taf": "TAF EKBI 230825Z 2309/2409 24008KT 7000 SCT003 BKN030"
    },
    {
      "icao": "EKCH",
      "alert": "OK",
      "vis_m": 5000,
      "fzfg": false,
      "metar_trigger": false,
      "taf_trigger": false,
      "metar": "METAR EKCH 230850Z 23009KT 5000 SHRA FEW004 BKN020CB BKN033 03/03 Q1003 TEMPO 3000 BR BKN007",
      "taf": "TAF EKCH 230829Z 2309/2409 24012KT 5000 SHRA SCT004 BKN020CB"
    },
    {
      "icao": "ENAL",
      "alert": "OK",
      "vis_m": 9999,
      "fzfg": false,
      "metar_trigger": false,
      "taf_trigger": false,
      "metar": "METAR ENAL 230850Z 14004KT 9999 -DZRA VV017 02/01 Q0995",
      "taf": "TAF ENAL 230800Z 2309/2318 12087KT 9999 -SHRASN SCT010 BKN020"
    },
    {
      "icao": "ENBR",
      "alert": "OK",
      "vis_m": 3000,
      "fzfg": false,
      "metar_trigger": false,
      "taf_trigger": false,
      "metar": "METAR ENBR 230850Z 16010KT 3000 -SHRA BR BKN003 04/04 Q0996 RERA TEMPO 6000 SHRA RMK WIND 1200FT 20010KT",
      "taf": "TAF ENBR 230500Z 2306/2406 17009KT 9999 SCT008 BKN020"
    },
    {
      "icao": "ENGM",
      "alert": "OK",
      "vis_m": 2700,
      "fzfg": false,
      "metar_trigger": false,
      "taf_trigger": false,
      "metar": "METAR ENGM 230850Z VRB01KT 2700 -SN FEW005 BKN028 M03/M05 Q0999 TEMPO 4000 BKN005",
      "taf": "TAF ENGM 230500Z 2306/2406 02003KT 8000 -SN SCT015 BKN020"
    },
    {
      "icao": "ENHD",
      "alert": "OK",
      "vis_m": 9000,
      "fzfg": false,
      "metar_trigger": false,
      "taf_trigger": false,
      "metar": "METAR ENHD 230850Z 15006KT 120V180 9000 -RA FEW006 BKN009 BKN020 04/03 Q0997",
      "taf": "TAF ENHD 230800Z 2309/2318 17008KT 9999 SCT004 BKN010"
    },
    {
      "icao": "ENTC",
      "alert": "OK",
      "vis_m": 9999,
      "fzfg": false,
      "metar_trigger": false,
      "taf_trigger": false,
      "metar": "METAR ENTC 230850Z 24008KT 220V280 9999 FEW014 M03/M06 Q1005 NOSIG RMK WIND 2600FT 18005KT",
      "taf": ""
    },
    {
      "icao": "ENTO",
      "alert": "OK",
      "vis_m": 1300,
      "fzfg": false,
      "metar_trigger": false,
      "taf_trigger": false,
      "metar": "METAR ENTO 230850Z 00000KT 1300 R18/P2000N R36/1700D -SN BR VV002 M02/M02 Q1000 TEMPO 1500 BCFG",
      "taf": "TAF ENTO 230500Z 2306/2406 03005KT 8000 -SN BKN012"
    },
    {
      "icao": "ENVA",
      "alert": "OK",
      "vis_m": 9999,
      "fzfg": false,
      "metar_trigger": false,
      "taf_trigger": false,
      "metar": "METAR ENVA 230850Z 10006KT CAVOK M04/M08 Q0997 NOSIG RMK WIND 670FT 11006KT",
      "taf": ""
    },
    {
      "icao": "ENZV",
      "alert": "OK",
      "vis_m": 9999,
      "fzfg": false,
      "metar_trigger": false,
      "taf_trigger": false,
      "metar": "METAR ENZV 230850Z 15008KT 9999 -RA SCT018 BKN023 04/03 Q0998 TEMPO 4000 SHRA BKN008",
      "taf": ""
    },
    {
      "icao": "EPGD",
      "alert": "OK",
      "vis_m": 9999,
      "fzfg": false,
      "metar_trigger": false,
      "taf_trigger": false,
      "metar": "METAR EPGD 230900Z 27012KT 9999 OVC003 02/02 Q1004",
      "taf": "TAF EPGD 230530Z 2306/2406 27012KT 8000 -DZ BKN003"
    },
    {
      "icao": "EPKK",
      "alert": "OK",
      "vis_m": 9999,
      "fzfg": false,
      "metar_trigger": false,
      "taf_trigger": false,
      "metar": "METAR EPKK 230900Z 26011KT 9999 BKN012 08/06 Q1011",
      "taf": "TAF EPKK 230830Z 2309/2409 24012KT 9999 BKN016"
    },
    {
      "icao": "EPKT",
      "alert": "OK",
      "vis_m": 9999,
      "fzfg": false,
      "metar_trigger": false,
      "taf_trigger": false,
      "metar": "METAR EPKT 230900Z 27011KT 9999 FEW009 BKN014 07/06 Q1011",
      "taf": ""
    },
    {
      "icao": "EPLB",
      "alert": "OK",
      "vis_m": 9999,
      "fzfg": false,
      "metar_trigger": false,
      "taf_trigger": false,
      "metar": "METAR EPLB 230900Z 27014KT 9999 OVC009 06/06 Q1007",
      "taf": ""
    },
    {
      "icao": "EPMO",
      "alert": "OK",
      "vis_m": 9999,
      "fzfg": false,
      "metar_trigger": false,
      "taf_trigger": false,
      "metar": "METAR EPMO 230900Z 27013KT 9999 BKN011 05/04 Q1007",
      "taf": "TAF EPMO 230530Z 2306/2406 25012KT 2500 BR BKN004"
    },
    {
      "icao": "EPPO",
      "alert": "OK",
      "vis_m": 9999,
      "fzfg": false,
      "metar_trigger": false,
      "taf_trigger": false,
      "metar": "METAR EPPO 230900Z 25009KT 9999 FEW008TCU OVC009 07/06 Q1009",
      "taf": "TAF EPPO 230530Z 2306/2406 27012KT 9999 BKN015"
    },
    {
      "icao": "EPRA",
      "alert": "OK",
      "vis_m": 9999,
      "fzfg": false,
      "metar_trigger": false,
      "taf_trigger": false,
      "metar": "METAR EPRA 230900Z 29012KT 260V320 9999 BKN010 07/04 Q1008",
      "taf": "TAF EPRA 230830Z 2309/2318 27012KT 9999 OVC009"
    },
    {
      "icao": "EPRZ",
      "alert": "OK",
      "vis_m": 9999,
      "fzfg": false,
      "metar_trigger": false,
      "taf_trigger": false,
      "metar": "METAR EPRZ 230900Z 25013KT 9999 OVC011 08/06 Q1010",
      "taf": "TAF EPRZ 230530Z 2306/2406 24008KT 9999 -RA OVC011"
    },
    {
      "icao": "EPSC",
      "alert": "OK",
      "vis_m": 9999,
      "fzfg": false,
      "metar_trigger": false,
      "taf_trigger": false,
      "metar": "METAR EPSC 230900Z 24007KT 9999 SCT006 OVC008 06/06 Q1007",
      "taf": "TAF EPSC 230530Z 2306/2406 25010KT 9999 OVC007"
    },
    {
      "icao": "EPSY",
      "alert": "OK",
      "vis_m": 7000,
      "fzfg": false,
      "metar_trigger": false,
      "taf_trigger": false,
      "metar": "METAR EPSY 230900Z 28010KT 7000 BKN002 OVC005 04/03 Q1005",
      "taf": "TAF EPSY 230830Z 2309/2318 27006KT 9999 OVC004"
    },
    {
      "icao": "EPWA",
      "alert": "OK",
      "vis_m": 9999,
      "fzfg": false,
      "metar_trigger": false,
      "taf_trigger": false,
      "metar": "METAR EPWA 230900Z 27015KT 9999 BKN012 06/04 Q1007 BECMG SCT012 BKN015",
      "taf": "TAF EPWA 230830Z 2309/2409 27012KT 9999 SCT007 OVC011"
    },
    {
      "icao": "EPWR",
      "alert": "OK",
      "vis_m": 9999,
      "fzfg": false,
      "metar_trigger": false,
      "taf_trigger": false,
      "metar": "METAR EPWR 230900Z 24007KT 9999 FEW027 08/06 Q1011",
      "taf": "TAF EPWR 230830Z 2309/2409 27010KT 9999 BKN025"
    },
    {
      "icao": "ESGG",
      "alert": "OK",
      "vis_m": 100,
      "fzfg": false,
      "metar_trigger": false,
      "taf_trigger": false,
      "metar": "METAR ESGG 230850Z 21006KT 0100 R03/0350N R21/0275N FG VV002 01/01 Q1000",
      "taf": "TAF ESGG 230830Z 2309/2409 18006KT 0150 FG VV002"
    },
    {
      "icao": "ESKN",
      "alert": "OK",
      "vis_m": 9999,
      "fzfg": false,
      "metar_trigger": false,
      "taf_trigger": false,
      "metar": "METAR ESKN 230850Z 13009KT 9999 FEW013 BKN024 00/M01 Q1002",
      "taf": "TAF ESKN 230830Z 2309/2409 13008KT 9999 SCT005 BKN020"
    },
    {
      "icao": "ESMS",
      "alert": "OK",
      "vis_m": 150,
      "fzfg": false,
      "metar_trigger": false,
      "taf_trigger": false,
      "metar": "METAR ESMS 230850Z 20003KT 0150 R17/0650N R35/0375N -DZ OVC002 02/02 Q1003",
      "taf": "TAF ESMS 230830Z 2309/2409 26008KT 0200 FG BKN001"
    },
    {
      "icao": "ESSA",
      "alert": "OK",
      "vis_m": 9999,
      "fzfg": false,
      "metar_trigger": false,
      "taf_trigger": false,
      "metar": "METAR ESSA 230850Z 14006KT 9999 BKN009 M01/M02 Q1003 TEMPO SCT010",
      "taf": ""
    },
    {
      "icao": "EYKA",
      "alert": "OK",
      "vis_m": 9000,
      "fzfg": false,
      "metar_trigger": false,
      "taf_trigger": false,
      "metar": "METAR EYKA 230850Z 12008KT 9000 -SNRA OVC016 01/M02 Q1004",
      "taf": "TAF EYKA 230516Z 2306/2406 VRB05KT 9000 BKN040"
    },
    {
      "icao": "EYPA",
      "alert": "OK",
      "vis_m": 9999,
      "fzfg": false,
      "metar_trigger": false,
      "taf_trigger": false,
      "metar": "METAR EYPA 230850Z 15009KT 9999 -SNRA BKN005 BKN009 00/M00 Q1001",
      "taf": "TAF EYPA 230517Z 2306/2406 VRB05KT 5000 SNRA SCT005 OVC010"
    },
    {
      "icao": "EYVI",
      "alert": "OK",
      "vis_m": 9999,
      "fzfg": false,
      "metar_trigger": false,
      "taf_trigger": false,
      "metar": "METAR EYVI 230850Z 14009KT 9999 OVC045 01/M02 Q1004 NOSIG",
      "taf": "TAF EYVI 230523Z 2306/2406 13010KT 9000 OVC030"
    },
    {
      "icao": "GCFV",
      "alert": "OK",
      "vis_m": 9999,
      "fzfg": false,
      "metar_trigger": false,
      "taf_trigger": false,
      "metar": "METAR GCFV 230900Z 32003KT 270V350 CAVOK 21/08 Q1022",
      "taf": "TAF GCFV 230800Z 2309/2409 17005KT 7000 NSC TX24/2314Z TN17/2406Z"
    },
    {
      "icao": "GCLP",
      "alert": "OK",
      "vis_m": 9999,
      "fzfg": false,
      "metar_trigger": false,
      "taf_trigger": false,
      "metar": "METAR GCLP 230900Z 24004KT 210V280 CAVOK 23/03 Q1022 NOSIG",
      "taf": "TAF GCLP 230800Z 2309/2409 17010KT 7000 NSC TX25/2314Z TN18/2406Z"
    },
    {
      "icao": "GCTS",
      "alert": "OK",
      "vis_m": 9999,
      "fzfg": false,
      "metar_trigger": false,
      "taf_trigger": false,
      "metar": "METAR GCTS 230900Z 09010KT 050V130 CAVOK 25/M01 Q1021 NOSIG",
      "taf": "TAF GCTS 230800Z 2309/2409 10010KT 8000 NSC TX27/2314Z TN19/2406Z"
    },
    {
      "icao": "GMAD",
      "alert": "OK",
      "vis_m": 9999,
      "fzfg": false,
      "metar_trigger": false,
      "taf_trigger": false,
      "metar": "METAR GMAD 230900Z 06006KT CAVOK 16/06 Q1023 NOSIG",
      "taf": "TAF GMAD 230500Z 2306/2412 06007KT CAVOK"
    },
    {
      "icao": "GMMN",
      "alert": "OK",
      "vis_m": 4000,
      "fzfg": false,
      "metar_trigger": false,
      "taf_trigger": false,
      "metar": "METAR GMMN 230900Z 15003KT 120V180 4000 BR NSC 15/11 Q1024 BECMG 5000",
      "taf": "TAF GMMN 230500Z 2306/2412 14006KT CAVOK"
    },
    {
      "icao": "GMMX",
      "alert": "OK",
      "vis_m": 9999,
      "fzfg": false,
      "metar_trigger": false,
      "taf_trigger": false,
      "metar": "METAR GMMX 230900Z 07004KT 050V110 CAVOK 15/06 Q1025 NOSIG",
      "taf": "TAF GMMX 230500Z 2306/2412 06006KT 8000 NSC"
    },
    {
      "icao": "HEGN",
      "alert": "OK",
      "vis_m": 9999,
      "fzfg": false,
      "metar_trigger": false,
      "taf_trigger": false,
      "metar": "METAR HEGN 230800Z 32016KT CAVOK 20/02 Q1014 NOSIG",
      "taf": "TAF HEGN 230500Z 2306/2412 33012G22KT CAVOK"
    },
    {
      "icao": "HEMA",
      "alert": "OK",
      "vis_m": 9999,
      "fzfg": false,
      "metar_trigger": false,
      "taf_trigger": false,
      "metar": "METAR HEMA 230800Z 33010KT CAVOK 21/03 Q1014 NOSIG",
      "taf": "TAF HEMA 230500Z 2306/2412 35012G22KT CAVOK"
    },
    {
      "icao": "HESH",
      "alert": "OK",
      "vis_m": 9999,
      "fzfg": false,
      "metar_trigger": false,
      "taf_trigger": false,
      "metar": "METAR HESH 230800Z 01010KT CAVOK 22/06 Q1007 NOSIG",
      "taf": "TAF HESH 230500Z 2306/2412 01014KT CAVOK"
    },
    {
      "icao": "HESX",
      "alert": "OK",
      "vis_m": 9999,
      "fzfg": false,
      "metar_trigger": false,
      "taf_trigger": false,
      "metar": "METAR HESX 230800Z 28008KT CAVOK 17/09 Q1016 NOSIG",
      "taf": ""
    },
    {
      "icao": "LATI",
      "alert": "OK",
      "vis_m": 9999,
      "fzfg": false,
      "metar_trigger": false,
      "taf_trigger": false,
      "metar": "METAR LATI 230850Z VRB01KT CAVOK 12/02 Q1022 NOSIG",
      "taf": "TAF LATI 230500Z 2306/2406 VRB05KT CAVOK TX18/2312Z TN03/2405Z"
    },
    {
      "icao": "LBPD",
      "alert": "OK",
      "vis_m": 9999,
      "fzfg": false,
      "metar_trigger": false,
      "taf_trigger": false,
      "metar": "METAR LBPD 230900Z AUTO 35003KT 300V030 9999 NCD 08/01 Q1019 NOSIG",
      "taf": "TAF LBPD 230500Z 2306/2406 VRB03KT 9999 SCT060"
    },
    {
      "icao": "LBSF",
      "alert": "OK",
      "vis_m": 9999,
      "fzfg": false,
      "metar_trigger": false,
      "taf_trigger": false,
      "metar": "METAR LBSF 230900Z 29006KT 220V330 9999 FEW083 05/M01 Q1020 NOSIG",
      "taf": "TAF LBSF 230500Z 2306/2406 VRB03KT 9999 SCT050"
    },
    {
      "icao": "LBWN",
      "alert": "OK",
      "vis_m": 9999,
      "fzfg": false,
      "metar_trigger": false,
      "taf_trigger": false,
      "metar": "METAR LBWN 230900Z 24009KT CAVOK 08/03 Q1018 NOSIG",
      "taf": "TAF LBWN 230500Z 2306/2406 30006KT CAVOK"
    },
    {
      "icao": "LCLK",
      "alert": "OK",
      "vis_m": 9999,
      "fzfg": false,
      "metar_trigger": false,
      "taf_trigger": false,
      "metar": "METAR LCLK 230900Z 20008KT 170V240 9999 FEW025 FEW040CB 19/11 Q1013 NOSIG RMK DISTANT CB TO N. S",
      "taf": "TAF LCLK 230530Z 2306/2406 33006KT 9999 FEW025"
    },
    {
      "icao": "LCPH",
      "alert": "OK",
      "vis_m": 9999,
      "fzfg": false,
      "metar_trigger": false,
      "taf_trigger": false,
      "metar": "METAR LCPH 230900Z 26007KT 230V320 9999 FEW025 FEW030TCU SCT035 18/11 Q1013 NOSIG",
      "taf": "TAF LCPH 230530Z 2306/2406 05006KT 9999 FEW020"
    },
    {
      "icao": "LEAL",
      "alert": "OK",
      "vis_m": 9999,
      "fzfg": false,
      "metar_trigger": false,
      "taf_trigger": false,
      "metar": "METAR LEAL 230900Z VRB02KT CAVOK 15/07 Q1026 NOSIG",
      "taf": "TAF LEAL 230500Z 2306/2406 VRB04KT CAVOK TX20/2312Z TN07/2406Z"
    },
    {
      "icao": "LEBB",
      "alert": "OK",
      "vis_m": 8000,
      "fzfg": false,
      "metar_trigger": false,
      "taf_trigger": false,
      "metar": "METAR LEBB 230900Z 09005KT 060V120 8000 FEW004 09/08 Q1027 NOSIG",
      "taf": "TAF LEBB 230500Z 2306/2406 10005KT CAVOK TX22/2314Z TN04/2307Z"
    },
    {
      "icao": "LEBL",
      "alert": "OK",
      "vis_m": 9999,
      "fzfg": false,
      "metar_trigger": false,
      "taf_trigger": false,
      "metar": "METAR LEBL 230900Z 33008KT 300V080 9999 FEW025 13/07 Q1025 NOSIG",
      "taf": "TAF LEBL 230500Z 2306/2406 33010KT CAVOK TX18/2312Z TN08/2306Z"
    },
    {
      "icao": "LECH",
      "alert": "OK",
      "vis_m": 9999,
      "fzfg": false,
      "metar_trigger": false,
      "taf_trigger": false,
      "metar": "METAR LECH 230900Z AUTO VRB02KT CAVOK 14/02 Q1026",
      "taf": ""
    },
    {
      "icao": "LEMD",
      "alert": "OK",
      "vis_m": 9999,
      "fzfg": false,
      "metar_trigger": false,
      "taf_trigger": false,
      "metar": "METAR LEMD 230900Z VRB01KT CAVOK 07/00 Q1028 NOSIG",
      "taf": "TAF LEMD 230500Z 2306/2412 VRB04KT CAVOK TX21/2315Z TN02/2307Z"
    },
    {
      "icao": "LEMG",
      "alert": "OK",
      "vis_m": 9999,
      "fzfg": false,
      "metar_trigger": false,
      "taf_trigger": false,
      "metar": "METAR LEMG 230900Z 31003KT 280V340 CAVOK 10/05 Q1026 NOSIG",
      "taf": "TAF LEMG 230500Z 2306/2406 29008KT CAVOK TX19/2314Z TN04/2307Z"
    },
    {
      "icao": "LEVC",
      "alert": "OK",
      "vis_m": 9999,
      "fzfg": false,
      "metar_trigger": false,
      "taf_trigger": false,
      "metar": "METAR LEVC 230900Z VRB02KT CAVOK 13/05 Q1026 NOSIG",
      "taf": "TAF LEVC 230500Z 2306/2406 VRB04KT CAVOK TX24/2312Z TN07/2406Z"
    },
    {
      "icao": "LEXJ",
      "alert": "OK",
      "vis_m": 2900,
      "fzfg": false,
      "metar_trigger": false,
      "taf_trigger": false,
      "metar": "METAR LEXJ 230900Z 16001KT 2900 BR SCT030 08/08 Q1026",
      "taf": "TAF LEXJ 230800Z 2309/2409 20009KT 9999 FEW020 TX19/2314Z TN06/2309Z"
    },
    {
      "icao": "LEZG",
      "alert": "OK",
      "vis_m": 9999,
      "fzfg": false,
      "metar_trigger": false,
      "taf_trigger": false,
      "metar": "METAR LEZG 230900Z 00000KT CAVOK 11/04 Q1027 NOSIG",
      "taf": "TAF LEZG 230500Z 2306/2406 30009KT CAVOK TX20/2314Z TN06/2406Z"
    },
    {
      "icao": "LEZL",
      "alert": "OK",
      "vis_m": 9999,
      "fzfg": false,
      "metar_trigger": false,
      "taf_trigger": false,
      "metar": "METAR LEZL 230900Z 04006KT CAVOK 12/10 Q1025 NOSIG",
      "taf": "TAF LEZL 230800Z 2309/2409 VRB03KT CAVOK TX23/2315Z TN08/2407Z"
    },
    {
      "icao": "LFBD",
      "alert": "OK",
      "vis_m": 9999,
      "fzfg": false,
      "metar_trigger": false,
      "taf_trigger": false,
      "metar": "METAR LFBD 230900Z AUTO 18006KT CAVOK 10/10 Q1027 TEMPO 1500 BR BKN002",
      "taf": "TAF LFBD 230500Z 2306/2412 20005KT 7000 SCT007 TX17/2315Z TN07/2406Z"
    },
    {
      "icao": "LFLL",
      "alert": "OK",
      "vis_m": 9999,
      "fzfg": false,
      "metar_trigger": false,
      "taf_trigger": false,
      "metar": "METAR LFLL 230900Z VRB01KT 9999 BKN028 SCT060 BKN093 11/07 Q1026 NOSIG",
      "taf": "TAF LFLL 230500Z 2306/2412 VRB02KT 9999 BKN030"
    },
    {
      "icao": "LFLS",
      "alert": "OK",
      "vis_m": 9999,
      "fzfg": false,
      "metar_trigger": false,
      "taf_trigger": false,
      "metar": "METAR LFLS 230900Z AUTO VRB02KT 9999 FEW060 11/06 Q1025 NOSIG",
      "taf": "TAF LFLS 230800Z 2309/2409 VRB02KT CAVOK"
    },
    {
      "icao": "LFMN",
      "alert": "OK",
      "vis_m": 9999,
      "fzfg": false,
      "metar_trigger": false,
      "taf_trigger": false,
      "metar": "METAR LFMN 230900Z 33010KT 9999 FEW033 BKN260 12/06 Q1020 NOSIG",
      "taf": "TAF LFMN 230800Z 2309/2415 33010KT 9999 FEW020 BKN250"
    },
    {
      "icao": "LFOB",
      "alert": "OK",
      "vis_m": 9999,
      "fzfg": false,
      "metar_trigger": false,
      "taf_trigger": false,
      "metar": "METAR LFOB 230900Z AUTO 25007KT 220V280 9999 BKN011 OVC018 10/08 Q1021 TEMPO BKN008 BKN012",
      "taf": "TAF LFOB 230500Z 2306/2406 23012KT 9999 BKN016 OVC025"
    },
    {
      "icao": "LFPO",
      "alert": "OK",
      "vis_m": 9999,
      "fzfg": false,
      "metar_trigger": false,
      "taf_trigger": false,
      "metar": "METAR LFPO 230900Z 25008KT 9999 SCT013 12/09 Q1022 TEMPO BKN011",
      "taf": "TAF LFPO 230500Z 2306/2412 24008KT 9999 FEW012 SCT030"
    },
    {
      "icao": "LFSB",
      "alert": "OK",
      "vis_m": 9999,
      "fzfg": false,
      "metar_trigger": false,
      "taf_trigger": false,
      "metar": "METAR LFSB 230900Z AUTO 26011KT 9999 OVC020 11/07 Q1023 NOSIG",
      "taf": "TAF LFSB 230500Z 2306/2406 25010KT 9999 BKN025"
    },
    {
      "icao": "LGAV",
      "alert": "OK",
      "vis_m": 9999,
      "fzfg": false,
      "metar_trigger": false,
      "taf_trigger": false,
      "metar": "METAR LGAV 230850Z 02011KT 340V050 9999 FEW030 13/03 Q1021 NOSIG",
      "taf": "TAF LGAV 230500Z 2306/2406 32010KT 9999 FEW018 SCT025"
    },
    {
      "icao": "LGTS",
      "alert": "OK",
      "vis_m": 9999,
      "fzfg": false,
      "metar_trigger": false,
      "taf_trigger": false,
      "metar": "METAR LGTS 230850Z 27008KT CAVOK 10/03 Q1022 NOSIG",
      "taf": "TAF LGTS 230500Z 2306/2406 VRB03KT 9999 FEW030"
    },
    {
      "icao": "LHBP",
      "alert": "OK",
      "vis_m": 9999,
      "fzfg": false,
      "metar_trigger": false,
      "taf_trigger": false,
      "metar": "METAR LHBP 230900Z 25007KT 9999 BKN024 BKN037 09/07 Q1015 NOSIG",
      "taf": "TAF LHBP 230515Z 2306/2406 20006KT 9999 SCT025 OVC035"
    },
    {
      "icao": "LHDC",
      "alert": "OK",
      "vis_m": 4000,
      "fzfg": false,
      "metar_trigger": false,
      "taf_trigger": false,
      "metar": "METAR LHDC 230845Z AUTO 21012KT 4000 -RA BR BKN007 06/06 Q1014 BECMG 6000 NSW BKN011",
      "taf": "TAF LHDC 230815Z 2309/2318 21012KT 3000 -RA BR BKN004 OVC018"
    },
    {
      "icao": "LIBD",
      "alert": "OK",
      "vis_m": 9999,
      "fzfg": false,
      "metar_trigger": false,
      "taf_trigger": false,
      "metar": "METAR LIBD 230850Z 22005KT 190V250 CAVOK 17/04 Q1020",
      "taf": "TAF LIBD 230500Z 2306/2406 VRB06KT CAVOK"
    },
    {
      "icao": "LIBG",
      "alert": "OK",
      "vis_m": 9999,
      "fzfg": false,
      "metar_trigger": false,
      "taf_trigger": false,
      "metar": "METAR LIBG 230850Z VRB01KT CAVOK 15/05 Q1021",
      "taf": "TAF LIBG 230800Z 2309/2318 VRB05KT CAVOK"
    },
    {
      "icao": "LIBP",
      "alert": "OK",
      "vis_m": 9999,
      "fzfg": false,
      "metar_trigger": false,
      "taf_trigger": false,
      "metar": "METAR LIBP 230850Z AUTO 21005KT 9999 NCD 14/06 Q1020",
      "taf": "TAF LIBP 230500Z 2306/2406 VRB04KT CAVOK"
    },
    {
      "icao": "LIBR",
      "alert": "OK",
      "vis_m": 9999,
      "fzfg": false,
      "metar_trigger": false,
      "taf_trigger": false,
      "metar": "METAR LIBR 230850Z 23007KT CAVOK 14/03 Q1021",
      "taf": "TAF LIBR 230500Z 2306/2406 VRB05KT CAVOK"
    },
    {
      "icao": "LICA",
      "alert": "OK",
      "vis_m": 9999,
      "fzfg": false,
      "metar_trigger": false,
      "taf_trigger": false,
      "metar": "METAR LICA 230850Z AUTO 25007KT 9999 SCT018/// 15/12 Q1024",
      "taf": "TAF LICA 230500Z 2306/2406 27012KT 9999 FEW020"
    },
    {
      "icao": "LICC",
      "alert": "OK",
      "vis_m": 9999,
      "fzfg": false,
      "metar_trigger": false,
      "taf_trigger": false,
      "metar": "METAR LICC 230850Z 25007KT CAVOK 15/11 Q1024",
      "taf": "TAF LICC 230500Z 2306/2406 25008KT CAVOK"
    },
    {
      "icao": "LICJ",
      "alert": "OK",
      "vis_m": 9999,
      "fzfg": false,
      "metar_trigger": false,
      "taf_trigger": false,
      "metar": "METAR LICJ 230850Z 21015KT CAVOK 16/07 Q1023",
      "taf": "TAF LICJ 230500Z 2306/2406 21014KT 9999 FEW030"
    },
    {
      "icao": "LIMC",
      "alert": "OK",
      "vis_m": 9000,
      "fzfg": false,
      "metar_trigger": false,
      "taf_trigger": false,
      "metar": "METAR LIMC 230850Z 02004KT 340V050 9000 NSC 09/07 Q1020 NOSIG",
      "taf": "TAF LIMC 230500Z 2306/2412 VRB05KT 4000 BCFG NSC"
    },
    {
      "icao": "LIME",
      "alert": "OK",
      "vis_m": 5000,
      "fzfg": false,
      "metar_trigger": false,
      "taf_trigger": false,
      "metar": "METAR LIME 230850Z VRB01KT 5000 BR NSC 10/07 Q1020 NOSIG",
      "taf": "TAF LIME 230500Z 2306/2406 VRB05KT CAVOK"
    },
    {
      "icao": "LIMF",
      "alert": "OK",
      "vis_m": 6000,
      "fzfg": false,
      "metar_trigger": false,
      "taf_trigger": false,
      "metar": "METAR LIMF 230850Z 22004KT 6000 SCT020 08/03 Q1020",
      "taf": "TAF LIMF 230500Z 2306/2406 VRB05KT 9999 FEW025"
    },
    {
      "icao": "LIMJ",
      "alert": "OK",
      "vis_m": 9999,
      "fzfg": false,
      "metar_trigger": false,
      "taf_trigger": false,
      "metar": "METAR LIMJ 230850Z 01002KT 9999 SCT030 14/09 Q1021",
      "taf": "TAF LIMJ 230500Z 2306/2406 03005KT 8000 BKN015"
    },
    {
      "icao": "LIPE",
      "alert": "OK",
      "vis_m": 9999,
      "fzfg": false,
      "metar_trigger": false,
      "taf_trigger": false,
      "metar": "METAR LIPE 230850Z VRB01KT CAVOK 11/07 Q1020",
      "taf": "TAF LIPE 230500Z 2306/2406 VRB04KT CAVOK"
    },
    {
      "icao": "LIPH",
      "alert": "OK",
      "vis_m": 300,
      "fzfg": false,
      "metar_trigger": false,
      "taf_trigger": false,
      "metar": "METAR LIPH 230850Z VRB02KT 0300 R07/0700N FG VV001 06/06 Q1021",
      "taf": ""
    },
    {
      "icao": "LIPQ",
      "alert": "OK",
      "vis_m": 9999,
      "fzfg": false,
      "metar_trigger": false,
      "taf_trigger": false,
      "metar": "METAR LIPQ 230850Z AUTO VRB01KT 9999 NCD 10/06 Q1021",
      "taf": "TAF LIPQ 230500Z 2306/2406 VRB03KT 8000 FEW035"
    },
    {
      "icao": "LIPR",
      "alert": "OK",
      "vis_m": 8000,
      "fzfg": false,
      "metar_trigger": false,
      "taf_trigger": false,
      "metar": "METAR LIPR 230850Z 30005KT 8000 BKN040 09/08 Q1021",
      "taf": "TAF LIPR 230500Z 2306/2406 VRB05KT 8000 NSC"
    },
    {
      "icao": "LIPX",
      "alert": "OK",
      "vis_m": 5000,
      "fzfg": false,
      "metar_trigger": false,
      "taf_trigger": false,
      "metar": "METAR LIPX 230850Z VRB01KT 5000 BR FEW025 08/05 Q1021",
      "taf": "TAF LIPX 230500Z 2306/2406 VRB05KT 7000 SCT030"
    },
    {
      "icao": "LIPY",
      "alert": "OK",
      "vis_m": 9999,
      "fzfg": false,
      "metar_trigger": false,
      "taf_trigger": false,
      "metar": "METAR LIPY 230850Z AUTO 36006KT 9999 FEW220/// 11/09 Q1021",
      "taf": "TAF LIPY 230500Z 2306/2406 VRB04KT 8000 NSC"
    },
    {
      "icao": "LIPZ",
      "alert": "OK",
      "vis_m": 300,
      "fzfg": false,
      "metar_trigger": false,
      "taf_trigger": false,
      "metar": "METAR LIPZ 230850Z VRB02KT 0300 R04R/0650N FG VV001 06/06 Q1021 BECMG 0700 FG",
      "taf": ""
    },
    {
      "icao": "LIRF",
      "alert": "OK",
      "vis_m": 9999,
      "fzfg": false,
      "metar_trigger": false,
      "taf_trigger": false,
      "metar": "METAR LIRF 230850Z 07007KT 9999 BKN030 10/08 Q1022 NOSIG",
      "taf": "TAF LIRF 230500Z 2306/2412 10008KT 9999 SCT020"
    },
    {
      "icao": "LIRN",
      "alert": "OK",
      "vis_m": 9999,
      "fzfg": false,
      "metar_trigger": false,
      "taf_trigger": false,
      "metar": "METAR LIRN 230850Z 18004KT 150V240 9999 FEW015 SCT030 14/10 Q1023 NOSIG",
      "taf": "TAF LIRN 230500Z 2306/2406 VRB05KT CAVOK"
    },
    {
      "icao": "LIRP",
      "alert": "OK",
      "vis_m": 9000,
      "fzfg": false,
      "metar_trigger": false,
      "taf_trigger": false,
      "metar": "METAR LIRP 230845Z 12003KT 9000 SCT015 BKN040 12/12 Q1021 NOSIG",
      "taf": "TAF LIRP 230500Z 2306/2406 12005KT 9999 SCT020 SCT040"
    },
    {
      "icao": "LIRZ",
      "alert": "OK",
      "vis_m": 9999,
      "fzfg": false,
      "metar_trigger": false,
      "taf_trigger": false,
      "metar": "METAR LIRZ 230850Z AUTO VRB01KT 9999 BKN030/// 10/06 Q1022",
      "taf": "TAF LIRZ 230500Z 2306/2406 VRB05KT 9999 BKN030"
    },
    {
      "icao": "LJLJ",
      "alert": "OK",
      "vis_m": 9999,
      "fzfg": false,
      "metar_trigger": false,
      "taf_trigger": false,
      "metar": "METAR LJLJ 230900Z VRB02KT CAVOK 07/04 Q1019 NOSIG",
      "taf": "TAF LJLJ 230500Z 2306/2406 VRB02KT 9999 FEW005"
    },
    {
      "icao": "LKMT",
      "alert": "OK",
      "vis_m": 8000,
      "fzfg": false,
      "metar_trigger": false,
      "taf_trigger": false,
      "metar": "METAR LKMT 230900Z 23015KT 8000 FEW007 07/07 Q1013 NOSIG",
      "taf": "TAF LKMT 230500Z 2306/2406 22014KT 9999 SCT022 BKN040"
    },
    {
      "icao": "LKPR",
      "alert": "OK",
      "vis_m": 9999,
      "fzfg": false,
      "metar_trigger": false,
      "taf_trigger": false,
      "metar": "METAR LKPR 230900Z 24016KT 9999 FEW020 10/05 Q1014 NOSIG",
      "taf": "TAF LKPR 230800Z 2309/2415 23015KT 9999 SCT025"
    },
    {
      "icao": "LLBG",
      "alert": "OK",
      "vis_m": 9999,
      "fzfg": false,
      "metar_trigger": false,
      "taf_trigger": false,
      "metar": "METAR LLBG 230850Z 22011KT 9999 FEW035 19/07 Q1014 NOSIG RMK BKN080",
      "taf": "TAF LLBG 230506Z 2306/2406 VRB04KT 9999 FEW030"
    },
    {
      "icao": "LMML",
      "alert": "OK",
      "vis_m": 9999,
      "fzfg": false,
      "metar_trigger": false,
      "taf_trigger": false,
      "metar": "METAR LMML 230845Z 27009KT 9999 FEW018 16/12 Q1026 NOSIG",
      "taf": "TAF LMML 230500Z 2306/2406 30010KT 9999 FEW020"
    },
    {
      "icao": "LOWW",
      "alert": "OK",
      "vis_m": 9999,
      "fzfg": false,
      "metar_trigger": false,
      "taf_trigger": false,
      "metar": "METAR LOWW 230850Z 28017KT 9999 FEW026 SCT030 12/07 Q1016 NOSIG",
      "taf": "TAF LOWW 230815Z 2309/2415 28012KT 9999 FEW040 SCT050 TX13/2312Z TN08/2406Z"
    },
    {
      "icao": "LPFR",
      "alert": "OK",
      "vis_m": 9999,
      "fzfg": false,
      "metar_trigger": false,
      "taf_trigger": false,
      "metar": "METAR LPFR 230900Z 11006KT CAVOK 14/08 Q1025",
      "taf": "TAF LPFR 230500Z 2306/2406 03005KT CAVOK"
    },
    {
      "icao": "LPMA",
      "alert": "OK",
      "vis_m": 9999,
      "fzfg": false,
      "metar_trigger": false,
      "taf_trigger": false,
      "metar": "METAR LPMA 230900Z 03007KT 9999 FEW015 16/12 Q1022",
      "taf": "TAF LPMA 230500Z 2306/2406 01007KT 9999 FEW015"
    },
    {
      "icao": "LPPR",
      "alert": "OK",
      "vis_m": 9999,
      "fzfg": false,
      "metar_trigger": false,
      "taf_trigger": false,
      "metar": "METAR LPPR 230900Z 12009KT CAVOK 12/06 Q1024",
      "taf": "TAF LPPR 230500Z 2306/2406 09005KT CAVOK"
    },
    {
      "icao": "LPPS",
      "alert": "OK",
      "vis_m": 9999,
      "fzfg": false,
      "metar_trigger": false,
      "taf_trigger": false,
      "metar": "METAR LPPS 230900Z VRB02KT 9999 FEW014 15/12 Q1023",
      "taf": "TAF LPPS 230500Z 2306/2412 VRB05KT 9999 FEW015"
    },
    {
      "icao": "LPPT",
      "alert": "OK",
      "vis_m": 9999,
      "fzfg": false,
      "metar_trigger": false,
      "taf_trigger": false,
      "metar": "METAR LPPT 230900Z 06005G18KT 040V100 CAVOK 11/09 Q1025",
      "taf": "TAF LPPT 230500Z 2306/2412 04005KT 9999 FEW006"
    },
    {
      "icao": "LQBK",
      "alert": "OK",
      "vis_m": 9999,
      "fzfg": false,
      "metar_trigger": false,
      "taf_trigger": false,
      "metar": "METAR LQBK 230900Z VRB02KT CAVOK 10/04 Q1018 NOSIG",
      "taf": "TAF LQBK 230500Z 2306/2406 32005KT CAVOK TX15/2313Z TN02/2306Z"
    },
    {
      "icao": "LQSA",
      "alert": "OK",
      "vis_m": 9999,
      "fzfg": false,
      "metar_trigger": false,
      "taf_trigger": false,
      "metar": "METAR LQSA 230900Z VRB02KT CAVOK 05/03 Q1020 NOSIG",
      "taf": "TAF LQSA 230500Z 2306/2406 VRB02KT CAVOK TX16/2314Z TN00/2306Z"
    },
    {
      "icao": "LQTZ",
      "alert": "OK",
      "vis_m": 9999,
      "fzfg": false,
      "metar_trigger": false,
      "taf_trigger": false,
      "metar": "METAR LQTZ 230900Z VRB01KT CAVOK 07/04 Q1019",
      "taf": "TAF LQTZ 230500Z 2306/2406 30005KT CAVOK TX15/2313Z TN01/2306Z"
    },
    {
      "icao": "LRBC",
      "alert": "OK",
      "vis_m": 9999,
      "fzfg": false,
      "metar_trigger": false,
      "taf_trigger": false,
      "metar": "METAR LRBC 230900Z 16008KT CAVOK 05/00 Q1013",
      "taf": "TAF LRBC 230800Z 2309/2318 17008KT CAVOK"
    },
    {
      "icao": "LRBS",
      "alert": "OK",
      "vis_m": 9999,
      "fzfg": false,
      "metar_trigger": false,
      "taf_trigger": false,
      "metar": "METAR LRBS 230900Z 25010KT CAVOK M01/M01 Q1018 NOSIG",
      "taf": "TAF LRBS 230500Z 2306/2406 26008KT 3000 BR BKN002"
    },
    {
      "icao": "LRBV",
      "alert": "OK",
      "vis_m": 7000,
      "fzfg": false,
      "metar_trigger": false,
      "taf_trigger": false,
      "metar": "METAR LRBV 230900Z VRB03KT 7000 FEW011 BKN025 M00/M02 Q1016",
      "taf": "TAF LRBV 230800Z 2309/2318 VRB04KT 9999 BKN025"
    },
    {
      "icao": "LRCL",
      "alert": "OK",
      "vis_m": 9999,
      "fzfg": false,
      "metar_trigger": false,
      "taf_trigger": false,
      "metar": "METAR LRCL 230900Z 10006KT 9999 -RA FEW007 OVC033 04/02 Q1014",
      "taf": "TAF LRCL 230800Z 2309/2318 VRB04KT 9999 BKN035"
    },
    {
      "icao": "LRCV",
      "alert": "OK",
      "vis_m": 1500,
      "fzfg": false,
      "metar_trigger": false,
      "taf_trigger": false,
      "metar": "METAR LRCV 230900Z 30003KT 1500 BR BKN002 01/01 Q1018",
      "taf": "TAF LRCV 230800Z 2309/2318 VRB04KT 0600 FG OVC001"
    },
    {
      "icao": "LRIA",
      "alert": "OK",
      "vis_m": 9999,
      "fzfg": false,
      "metar_trigger": false,
      "taf_trigger": false,
      "metar": "METAR LRIA 230900Z 10006KT CAVOK 02/M00 Q1013",
      "taf": "TAF LRIA 230800Z 2309/2318 10008KT CAVOK"
    },
    {
      "icao": "LROP",
      "alert": "OK",
      "vis_m": 8000,
      "fzfg": false,
      "metar_trigger": false,
      "taf_trigger": false,
      "metar": "METAR LROP 230900Z 23009KT 8000 NSC M00/M00 Q1017 NOSIG",
      "taf": "TAF LROP 230500Z 2306/2406 26008KT 1500 BR BKN002"
    },
    {
      "icao": "LRSB",
      "alert": "OK",
      "vis_m": 9999,
      "fzfg": false,
      "metar_trigger": false,
      "taf_trigger": false,
      "metar": "METAR LRSB 230900Z COR 12003KT 090V150 9999 -RA SCT023 BKN049 OVC057 04/03 Q1015",
      "taf": "TAF LRSB 230500Z 2306/2406 VRB03KT 9999 BKN045"
    },
    {
      "icao": "LRSM",
      "alert": "OK",
      "vis_m": 9999,
      "fzfg": false,
      "metar_trigger": false,
      "taf_trigger": false,
      "metar": "METAR LRSM 230900Z 14005KT 9999 RA FEW003 BKN010 OVC014 05/04 Q1014",
      "taf": "TAF LRSM 230800Z 2309/2318 12006KT 5000 -RA BR BKN010 BKN020"
    },
    {
      "icao": "LRSV",
      "alert": "OK",
      "vis_m": 9999,
      "fzfg": false,
      "metar_trigger": false,
      "taf_trigger": false,
      "metar": "METAR LRSV 230900Z 21008KT CAVOK 05/01 Q1010",
      "taf": "TAF LRSV 230800Z 2309/2318 18006KT CAVOK"
    },
    {
      "icao": "LRTM",
      "alert": "OK",
      "vis_m": 9999,
      "fzfg": false,
      "metar_trigger": false,
      "taf_trigger": false,
      "metar": "METAR LRTM 230900Z 08005KT 9999 FEW030 BKN038 BKN046 05/03 Q1015",
      "taf": "TAF LRTM 230800Z 2309/2318 VRB04KT 9999 BKN040"
    },
    {
      "icao": "LRTR",
      "alert": "OK",
      "vis_m": 9999,
      "fzfg": false,
      "metar_trigger": false,
      "taf_trigger": false,
      "metar": "METAR LRTR 230900Z 23005KT 9999 -RA SCT036 SCT043 07/06 Q1018",
      "taf": "TAF LRTR 230500Z 2306/2406 12006KT 9999 BKN040"
    },
    {
      "icao": "LTAC",
      "alert": "OK",
      "vis_m": 9999,
      "fzfg": false,
      "metar_trigger": false,
      "taf_trigger": false,
      "metar": "METAR LTAC 230850Z VRB02KT 9999 FEW017 SCT023 04/M01 Q1016 NOSIG RMK RWY21C 12003KT 040V210 RWY03L 23003KT 120V280 RWY21R VRB04KT RWY03R 22004KT 160V270 RWY21L VRB02KT",
      "taf": "TAF LTAC 230440Z 2306/2406 VRB02KT 9999 SCT040"
    },
    {
      "icao": "LTFM",
      "alert": "OK",
      "vis_m": 9999,
      "fzfg": false,
      "metar_trigger": false,
      "taf_trigger": false,
      "metar": "METAR LTFM 230850Z 21008KT 160V260 9999 SCT025 08/01 Q1021 NOSIG RMK RWY17L 22006KT RWY34L 21008KT 180V240 RWY16R 21007KT 170V230 RWY36 20007KT 150V220 RWY18 22006KT 180V260",
      "taf": "TAF LTFM 230440Z 2306/2412 27005KT 9999 SCT018 BKN028"
    },
    {
      "icao": "LUKK",
      "alert": "OK",
      "vis_m": 9999,
      "fzfg": false,
      "metar_trigger": false,
      "taf_trigger": false,
      "metar": "METAR LUKK 230900Z 21005KT 180V250 CAVOK 04/M01 Q1014 NOSIG",
      "taf": "TAF LUKK 230524Z 2306/2406 20009KT 9999 BKN040"
    },
    {
      "icao": "LWOH",
      "alert": "OK",
      "vis_m": 9999,
      "fzfg": false,
      "metar_trigger": false,
      "taf_trigger": false,
      "metar": "METAR LWOH 230850Z 15004KT 120V180 9999 FEW050 06/01 Q1021",
      "taf": "TAF LWOH 230830Z 2309/2409 17010KT CAVOK"
    },
    {
      "icao": "LWSK",
      "alert": "OK",
      "vis_m": 9999,
      "fzfg": false,
      "metar_trigger": false,
      "taf_trigger": false,
      "metar": "METAR LWSK 230850Z VRB02KT CAVOK 05/01 Q1022 NOSIG",
      "taf": "TAF LWSK 230830Z 2309/2409 VRB02KT CAVOK"
    },
    {
      "icao": "LYBE",
      "alert": "OK",
      "vis_m": 9999,
      "fzfg": false,
      "metar_trigger": false,
      "taf_trigger": false,
      "metar": "METAR LYBE 230900Z 23005KT CAVOK 09/03 Q1018 NOSIG",
      "taf": "TAF LYBE 230500Z 2306/2406 20005KT CAVOK TX14/2313Z TN03/2306Z"
    },
    {
      "icao": "LYNI",
      "alert": "OK",
      "vis_m": 9999,
      "fzfg": false,
      "metar_trigger": false,
      "taf_trigger": false,
      "metar": "METAR LYNI 230900Z VRB02KT 9999 FEW090 04/02 Q1021 NOSIG",
      "taf": "TAF LYNI 230500Z 2306/2406 19004KT 9999 BKN060 TX13/2313Z TNM00/2405Z"
    },
    {
      "icao": "LYPG",
      "alert": "OK",
      "vis_m": 9999,
      "fzfg": false,
      "metar_trigger": false,
      "taf_trigger": false,
      "metar": "METAR LYPG 230900Z VRB01KT CAVOK 11/01 Q1022 NOSIG",
      "taf": "TAF LYPG 230500Z 2306/2406 16005KT CAVOK TX16/2313Z TN03/2306Z"
    },
    {
      "icao": "LZIB",
      "alert": "OK",
      "vis_m": 9999,
      "fzfg": false,
      "metar_trigger": false,
      "taf_trigger": false,
      "metar": "METAR LZIB 230900Z 26013KT 9999 FEW020 BKN047 12/07 Q1015 NOSIG",
      "taf": "TAF LZIB 230515Z 2306/2406 25009KT 9999 SCT040"
    },
    {
      "icao": "LZKZ",
      "alert": "OK",
      "vis_m": 3000,
      "fzfg": false,
      "metar_trigger": false,
      "taf_trigger": false,
      "metar": "METAR LZKZ 230900Z VRB02KT 3000 -RA BR BKN004 OVC042 04/03 Q1013 NOSIG",
      "taf": "TAF LZKZ 230515Z 2306/2406 23009KT 6000 BKN018"
    },
    {
      "icao": "LZTT",
      "alert": "OK",
      "vis_m": 9999,
      "fzfg": false,
      "metar_trigger": false,
      "taf_trigger": false,
      "metar": "METAR LZTT 230900Z 28015KT 9999 FEW006 SCT046 06/04 Q1011 NOSIG",
      "taf": "TAF LZTT 230515Z 2306/2406 27008KT 9999 BKN020"
    },
    {
      "icao": "OEJN",
      "alert": "OK",
      "vis_m": 9999,
      "fzfg": false,
      "metar_trigger": false,
      "taf_trigger": false,
      "metar": "METAR OEJN 230900Z 29008KT 9999 FEW040 29/17 Q1010 NOSIG",
      "taf": "TAF OEJN 230500Z 2306/2412 30012KT CAVOK"
    },
    {
      "icao": "OEMA",
      "alert": "OK",
      "vis_m": 9999,
      "fzfg": false,
      "metar_trigger": false,
      "taf_trigger": false,
      "metar": "METAR OEMA 230900Z 21007KT CAVOK 27/07 Q1012 NOSIG",
      "taf": "TAF OEMA 230500Z 2306/2412 27010KT CAVOK"
    },
    {
      "icao": "OJAI",
      "alert": "OK",
      "vis_m": 5000,
      "fzfg": false,
      "metar_trigger": false,
      "taf_trigger": false,
      "metar": "METAR OJAI 230800Z 17004KT 5000 HZ FEW030 12/03 Q1015 NOSIG",
      "taf": ""
    },
    {
      "icao": "OMAA",
      "alert": "OK",
      "vis_m": 9999,
      "fzfg": false,
      "metar_trigger": false,
      "taf_trigger": false,
      "metar": "METAR OMAA 230900Z 30008KT 270V330 CAVOK 28/12 Q1010 NOSIG",
      "taf": "TAF OMAA 230500Z 2306/2412 19005KT 4000 HZ SCT008"
    },
    {
      "icao": "OMDB",
      "alert": "OK",
      "vis_m": 9999,
      "fzfg": false,
      "metar_trigger": false,
      "taf_trigger": false,
      "metar": "METAR OMDB 230900Z 32009KT 280V360 CAVOK 29/08 Q1010 NOSIG",
      "taf": "TAF OMDB 230500Z 2306/2412 23005KT 1500 BR BKN003"
    },
    {
      "icao": "UAAA",
      "alert": "OK",
      "vis_m": 9999,
      "fzfg": false,
      "metar_trigger": false,
      "taf_trigger": false,
      "metar": "METAR UAAA 230900Z 05004MPS 9999 BKN023CB OVC100 05/M00 Q1018 NOSIG",
      "taf": "TAF UAAA 230503Z 2306/2406 25002G07MPS 9999 BKN030CB BKN100 TX09/2309Z TNM06/2401Z"
    },
    {
      "icao": "UBBB",
      "alert": "OK",
      "vis_m": 9999,
      "fzfg": false,
      "metar_trigger": false,
      "taf_trigger": false,
      "metar": "METAR UBBB 230900Z 32016KT 9999 BKN015 OVC044 07/04 Q1015 NOSIG",
      "taf": "TAF UBBB 230459Z 2306/2406 32016KT 9999 SCT015 BKN030 TX08/2310Z TN05/2401Z"
    },
    {
      "icao": "UDSG",
      "alert": "OK",
      "vis_m": 9999,
      "fzfg": false,
      "metar_trigger": false,
      "taf_trigger": false,
      "metar": "METAR UDSG 230900Z 03007KT 350V060 9999 FEW049 06/M01 Q1013 NOSIG",
      "taf": "TAF UDSG 230458Z 2306/2406 VRB06KT 9999 SCT030"
    },
    {
      "icao": "UDYZ",
      "alert": "OK",
      "vis_m": 9999,
      "fzfg": false,
      "metar_trigger": false,
      "taf_trigger": false,
      "metar": "METAR UDYZ 230900Z VRB01KT 9999 SCT046 11/01 Q1012 NOSIG",
      "taf": "TAF UDYZ 230500Z 2306/2406 20006KT 6000 SCT040"
    },
    {
      "icao": "UGKO",
      "alert": "OK",
      "vis_m": 9999,
      "fzfg": false,
      "metar_trigger": false,
      "taf_trigger": false,
      "metar": "METAR UGKO 230900Z VRB02KT 9999 SCT020 BKN028 08/06 Q1018 NOSIG",
      "taf": "TAF UGKO 230500Z 2306/2406 26007KT 9999 BKN050 TX10/2311Z TN04/2403Z"
    }
  ]
}