{
  "ts_utc": "2026-01-21T07:40:20Z",
  "threshold_m": 150,
  "source": "stations_override.txt (ICAO list) + aviationweather.gov (METAR/TAF raw)",
  "station_count": 159,
  "stations": [
    {
      "icao": "BIKF",
      "alert": "OK",
      "vis_m": 9999,
      "fzfg": false,
      "metar_trigger": false,
      "taf_trigger": false,
      "metar": "METAR BIKF 210730Z 06009KT CAVOK 03/00 Q0999",
      "taf": "TAF BIKF 210454Z 2106/2206 05012KT 9999 FEW020 BKN045 TX05/2115Z TN03/2106Z"
    },
    {
      "icao": "BKPR",
      "alert": "OK",
      "vis_m": 9999,
      "fzfg": false,
      "metar_trigger": false,
      "taf_trigger": false,
      "metar": "METAR BKPR 210730Z 16004KT 9999 SCT015 BKN040 M00/M02 Q1017 NOSIG",
      "taf": ""
    },
    {
      "icao": "EBCI",
      "alert": "OK",
      "vis_m": 9999,
      "fzfg": false,
      "metar_trigger": false,
      "taf_trigger": false,
      "metar": "METAR EBCI 210720Z 17007KT 140V200 CAVOK 05/00 Q1004 NOSIG",
      "taf": "TAF EBCI 210510Z 2106/2212 15009KT 9999 SCT040"
    },
    {
      "icao": "EDDB",
      "alert": "OK",
      "vis_m": 9999,
      "fzfg": false,
      "metar_trigger": false,
      "taf_trigger": false,
      "metar": "METAR EDDB 210720Z AUTO 12007KT CAVOK M07/M09 Q1012 NOSIG",
      "taf": "TAF EDDB 210500Z 2106/2206 12005KT CAVOK"
    },
    {
      "icao": "EDDH",
      "alert": "OK",
      "vis_m": 9999,
      "fzfg": false,
      "metar_trigger": false,
      "taf_trigger": false,
      "metar": "METAR EDDH 210720Z AUTO 09005KT CAVOK M04/M07 Q1010 NOSIG",
      "taf": "TAF EDDH 210500Z 2106/2212 09005KT CAVOK"
    },
    {
      "icao": "EDDK",
      "alert": "OK",
      "vis_m": 9999,
      "fzfg": false,
      "metar_trigger": false,
      "taf_trigger": false,
      "metar": "METAR EDDK 210720Z AUTO 12012KT CAVOK 02/M03 Q1007 NOSIG",
      "taf": "TAF EDDK 210500Z 2106/2212 12009KT CAVOK"
    },
    {
      "icao": "EDDN",
      "alert": "OK",
      "vis_m": 9000,
      "fzfg": false,
      "metar_trigger": false,
      "taf_trigger": false,
      "metar": "METAR EDDN 210720Z AUTO 11006KT 9000 NCD M08/M10 Q1011 NOSIG",
      "taf": "TAF EDDN 210500Z 2106/2206 11007KT CAVOK"
    },
    {
      "icao": "EDDS",
      "alert": "OK",
      "vis_m": 9999,
      "fzfg": false,
      "metar_trigger": false,
      "taf_trigger": false,
      "metar": "METAR EDDS 210720Z AUTO VRB02KT CAVOK M05/M05 Q1008 NOSIG",
      "taf": "TAF EDDS 210500Z 2106/2206 VRB03KT 3500 BR NSC"
    },
    {
      "icao": "EDFH",
      "alert": "OK",
      "vis_m": 2000,
      "fzfg": false,
      "metar_trigger": false,
      "taf_trigger": false,
      "metar": "METAR EDFH 210720Z 14012KT 2000 BR NSC M04/M04 Q1007",
      "taf": "TAF EDFH 210500Z 2106/2206 14013KT 6000 NSC"
    },
    {
      "icao": "EDJA",
      "alert": "OK",
      "vis_m": 9999,
      "fzfg": false,
      "metar_trigger": false,
      "taf_trigger": false,
      "metar": "METAR EDJA 210720Z 08001KT CAVOK M05/M06 Q1008",
      "taf": "TAF EDJA 210500Z 2106/2115 VRB02KT CAVOK"
    },
    {
      "icao": "EDLW",
      "alert": "OK",
      "vis_m": 9999,
      "fzfg": false,
      "metar_trigger": false,
      "taf_trigger": false,
      "metar": "METAR EDLW 210720Z VRB02KT CAVOK 05/M04 Q1006",
      "taf": "TAF EDLW 210500Z 2106/2206 14006KT CAVOK"
    },
    {
      "icao": "EDNY",
      "alert": "OK",
      "vis_m": 750,
      "fzfg": true,
      "metar_trigger": false,
      "taf_trigger": false,
      "metar": "METAR EDNY 210720Z 02004KT 330V060 0750 R24/1000N FZFG VV/// M03/M04 Q1010",
      "taf": "TAF EDNY 210500Z 2106/2115 VRB02KT 0500 FZFG VV001"
    },
    {
      "icao": "EDSB",
      "alert": "OK",
      "vis_m": 900,
      "fzfg": true,
      "metar_trigger": false,
      "taf_trigger": false,
      "metar": "METAR EDSB 210720Z VRB01KT 0900 R21/1200N FZFG VV/// M01/M02 Q1010",
      "taf": "TAF EDSB 210500Z 2106/2206 VRB03KT 0600 FZFG VV003"
    },
    {
      "icao": "EETN",
      "alert": "OK",
      "vis_m": 1300,
      "fzfg": false,
      "metar_trigger": false,
      "taf_trigger": false,
      "metar": "METAR EETN 210720Z 08008KT 1300 R08/P2000N BR OVC002 M02/M02 Q1022 TEMPO 3000",
      "taf": "TAF EETN 210530Z 2106/2206 09010KT 6000 BKN003 OVC005"
    },
    {
      "icao": "EFTU",
      "alert": "OK",
      "vis_m": 9999,
      "fzfg": false,
      "metar_trigger": false,
      "taf_trigger": false,
      "metar": "METAR EFTU 210720Z AUTO 09008KT 9999 -SHSN OVC007 M03/M04 Q1023",
      "taf": "TAF EFTU 210530Z 2106/2206 07005KT 9999 -SN FEW005 OVC007"
    },
    {
      "icao": "EGBB",
      "alert": "OK",
      "vis_m": 9999,
      "fzfg": false,
      "metar_trigger": false,
      "taf_trigger": false,
      "metar": "METAR EGBB 210720Z 13011KT 9999 BKN006 05/04 Q0991",
      "taf": "TAF EGBB 210455Z 2106/2206 16008KT 9999 BKN020"
    },
    {
      "icao": "EGGP",
      "alert": "OK",
      "vis_m": 9999,
      "fzfg": false,
      "metar_trigger": false,
      "taf_trigger": false,
      "metar": "METAR EGGP 210720Z 14012KT 9999 SCT025 04/03 Q0990",
      "taf": "TAF EGGP 210500Z 2106/2206 17011KT 9999 SCT012"
    },
    {
      "icao": "EGGW",
      "alert": "OK",
      "vis_m": 9999,
      "fzfg": false,
      "metar_trigger": false,
      "taf_trigger": false,
      "metar": "METAR EGGW 210720Z AUTO 14009KT 9999 SCT006 BKN011 05/04 Q0993",
      "taf": "TAF EGGW 210455Z 2106/2206 16012KT 9999 SCT020"
    },
    {
      "icao": "EGKK",
      "alert": "OK",
      "vis_m": 7000,
      "fzfg": false,
      "metar_trigger": false,
      "taf_trigger": false,
      "metar": "METAR EGKK 210720Z 13008KT 110V170 7000 -RA SCT007 BKN041 07/06 Q0994",
      "taf": "TAF EGKK 210455Z 2106/2212 17009KT 9999 SCT016"
    },
    {
      "icao": "EGNM",
      "alert": "OK",
      "vis_m": 5000,
      "fzfg": false,
      "metar_trigger": false,
      "taf_trigger": false,
      "metar": "METAR EGNM 210720Z 13007KT 5000 BR SCT002 BKN008 03/03 Q0991",
      "taf": "TAF EGNM 210525Z 2106/2206 15009KT 9999 SCT012"
    },
    {
      "icao": "EGPD",
      "alert": "OK",
      "vis_m": 5000,
      "fzfg": false,
      "metar_trigger": false,
      "taf_trigger": false,
      "metar": "METAR EGPD 210720Z 12015KT 5000 RA BKN006 07/05 Q0994 RERA TEMPO 4000 BKN004",
      "taf": ""
    },
    {
      "icao": "EGPF",
      "alert": "OK",
      "vis_m": 9999,
      "fzfg": false,
      "metar_trigger": false,
      "taf_trigger": false,
      "metar": "METAR EGPF 210720Z AUTO 05003KT 020V090 9999 -RA OVC022 05/04 Q0990",
      "taf": "TAF EGPF 210456Z 2106/2206 10008KT 9999 FEW015 SCT035"
    },
    {
      "icao": "EHBK",
      "alert": "OK",
      "vis_m": 9999,
      "fzfg": false,
      "metar_trigger": false,
      "taf_trigger": false,
      "metar": "METAR EHBK 210725Z AUTO 15009KT 9999 NSC 06/01 Q1005 NOSIG",
      "taf": "TAF EHBK 210518Z 2106/2212 17010KT CAVOK"
    },
    {
      "icao": "EHEH",
      "alert": "OK",
      "vis_m": 9999,
      "fzfg": false,
      "metar_trigger": false,
      "taf_trigger": false,
      "metar": "METAR EHEH 210725Z AUTO 13005KT 110V190 9999 FEW068 SCT075 BKN081 03/M00 Q1005 BLU NOSIG RMK TREND REMOTE BY EHWX",
      "taf": "TAF EHEH 210543Z 2106/2212 13006KT 9999 BKN045"
    },
    {
      "icao": "EKBI",
      "alert": "OK",
      "vis_m": 9999,
      "fzfg": false,
      "metar_trigger": false,
      "taf_trigger": false,
      "metar": "METAR EKBI 210720Z AUTO 09018KT 9999 OVC011/// M01/M03 Q1012",
      "taf": "TAF EKBI 210527Z 2106/2206 08010KT 7000 BKN010"
    },
    {
      "icao": "EKCH",
      "alert": "OK",
      "vis_m": 6000,
      "fzfg": false,
      "metar_trigger": false,
      "taf_trigger": false,
      "metar": "METAR EKCH 210720Z AUTO 07006KT 6000 BKN020/// M00/M01 Q1015 NOSIG",
      "taf": "TAF EKCH 210527Z 2106/2206 07010KT 8000 NSC"
    },
    {
      "icao": "ENAL",
      "alert": "OK",
      "vis_m": 9999,
      "fzfg": false,
      "metar_trigger": false,
      "taf_trigger": false,
      "metar": "METAR ENAL 210720Z 13006KT 090V150 CAVOK 00/M01 Q1013",
      "taf": "TAF ENAL 210500Z 2106/2115 13010KT CAVOK"
    },
    {
      "icao": "ENBR",
      "alert": "OK",
      "vis_m": 9999,
      "fzfg": false,
      "metar_trigger": false,
      "taf_trigger": false,
      "metar": "METAR ENBR 210720Z 00000KT CAVOK M01/M01 Q1011 NOSIG RMK WIND 1200FT 14007KT",
      "taf": "TAF ENBR 210500Z 2106/2206 08005KT CAVOK"
    },
    {
      "icao": "ENGM",
      "alert": "OK",
      "vis_m": 9999,
      "fzfg": false,
      "metar_trigger": false,
      "taf_trigger": false,
      "metar": "METAR ENGM 210720Z 02007KT 9999 -SHSN OVC017 M03/M05 Q1021 NOSIG",
      "taf": "TAF ENGM 210500Z 2106/2206 02008KT 9999 OVC018"
    },
    {
      "icao": "ENHD",
      "alert": "OK",
      "vis_m": 9999,
      "fzfg": false,
      "metar_trigger": false,
      "taf_trigger": false,
      "metar": "METAR ENHD 210720Z 08003KT CAVOK M02/M03 Q1010",
      "taf": "TAF ENHD 210500Z 2106/2115 17005KT CAVOK"
    },
    {
      "icao": "ENTC",
      "alert": "OK",
      "vis_m": 9999,
      "fzfg": false,
      "metar_trigger": false,
      "taf_trigger": false,
      "metar": "METAR ENTC 210720Z VRB02KT CAVOK M08/M09 Q1026 NOSIG RMK WIND 2600FT 10004KT",
      "taf": ""
    },
    {
      "icao": "ENTO",
      "alert": "OK",
      "vis_m": 9999,
      "fzfg": false,
      "metar_trigger": false,
      "taf_trigger": false,
      "metar": "METAR ENTO 210720Z 04010KT 010V070 9999 OVC016 M03/M06 Q1020 NOSIG",
      "taf": "TAF ENTO 210500Z 2106/2206 03012KT 9999 OVC012"
    },
    {
      "icao": "ENVA",
      "alert": "OK",
      "vis_m": 9999,
      "fzfg": false,
      "metar_trigger": false,
      "taf_trigger": false,
      "metar": "METAR ENVA 210720Z 05005KT 010V080 CAVOK M03/M08 Q1020 NOSIG RMK WIND 670FT 13013KT",
      "taf": "TAF ENVA 210500Z 2106/2206 09008KT CAVOK"
    },
    {
      "icao": "ENZV",
      "alert": "OK",
      "vis_m": 9999,
      "fzfg": false,
      "metar_trigger": false,
      "taf_trigger": false,
      "metar": "METAR ENZV 210720Z 00000KT CAVOK M03/M04 Q1010 NOSIG",
      "taf": "TAF ENZV 210500Z 2106/2206 10005KT CAVOK"
    },
    {
      "icao": "EPGD",
      "alert": "OK",
      "vis_m": 400,
      "fzfg": true,
      "metar_trigger": false,
      "taf_trigger": false,
      "metar": "METAR EPGD 210730Z 30001KT 0400 R29/0450D FZFG NSC M15/M17 Q1014",
      "taf": ""
    },
    {
      "icao": "EPKK",
      "alert": "OK",
      "vis_m": 2800,
      "fzfg": false,
      "metar_trigger": false,
      "taf_trigger": false,
      "metar": "METAR EPKK 210730Z VRB01KT 2800 BR NSC M13/M16 Q1017",
      "taf": "TAF EPKK 210530Z 2106/2206 VRB02KT 2500 BR NSC"
    },
    {
      "icao": "EPKT",
      "alert": "OK",
      "vis_m": 4300,
      "fzfg": false,
      "metar_trigger": false,
      "taf_trigger": false,
      "metar": "METAR EPKT 210730Z 07003KT 050V120 4300 BR NSC M11/M13 Q1016",
      "taf": "TAF EPKT 210530Z 2106/2206 VRB02KT 3500 BR NSC"
    },
    {
      "icao": "EPLB",
      "alert": "OK",
      "vis_m": 2800,
      "fzfg": false,
      "metar_trigger": false,
      "taf_trigger": false,
      "metar": "METAR EPLB 210730Z 08002KT 2800 BR NSC M15/M16 Q1018",
      "taf": "TAF EPLB 210530Z 2106/2206 VRB03KT 7000 NSC"
    },
    {
      "icao": "EPMO",
      "alert": "OK",
      "vis_m": 4400,
      "fzfg": false,
      "metar_trigger": false,
      "taf_trigger": false,
      "metar": "METAR EPMO 210730Z 14006KT 4400 BR NSC M09/M09 Q1017",
      "taf": "TAF EPMO 210530Z 2106/2206 13005KT 7000 NSC"
    },
    {
      "icao": "EPPO",
      "alert": "OK",
      "vis_m": 9999,
      "fzfg": false,
      "metar_trigger": false,
      "taf_trigger": false,
      "metar": "METAR EPPO 210730Z 13003KT CAVOK M07/M10 Q1014",
      "taf": "TAF EPPO 210530Z 2106/2206 13005KT CAVOK"
    },
    {
      "icao": "EPRA",
      "alert": "OK",
      "vis_m": 9999,
      "fzfg": false,
      "metar_trigger": false,
      "taf_trigger": false,
      "metar": "METAR EPRA 210730Z 15004KT CAVOK M10/M13 Q1017",
      "taf": "TAF EPRA 210530Z 2106/2115 15006KT 8000 NSC"
    },
    {
      "icao": "EPRZ",
      "alert": "OK",
      "vis_m": 4800,
      "fzfg": false,
      "metar_trigger": false,
      "taf_trigger": false,
      "metar": "METAR EPRZ 210730Z 06003KT 020V080 4800 BR NSC M11/M14 Q1018",
      "taf": "TAF EPRZ 210530Z 2106/2206 10005KT 8000 NSC"
    },
    {
      "icao": "EPSC",
      "alert": "OK",
      "vis_m": 9999,
      "fzfg": false,
      "metar_trigger": false,
      "taf_trigger": false,
      "metar": "METAR EPSC 210730Z 12005KT CAVOK M08/M09 Q1013",
      "taf": "TAF EPSC 210530Z 2106/2206 12007KT CAVOK"
    },
    {
      "icao": "EPSY",
      "alert": "OK",
      "vis_m": 1500,
      "fzfg": false,
      "metar_trigger": false,
      "taf_trigger": false,
      "metar": "METAR EPSY 210730Z 00000KT 1500 BR NSC M19/M21 Q1016",
      "taf": "TAF EPSY 210530Z 2106/2115 VRB02KT 4000 BR NSC"
    },
    {
      "icao": "EPWA",
      "alert": "OK",
      "vis_m": 5000,
      "fzfg": false,
      "metar_trigger": false,
      "taf_trigger": false,
      "metar": "METAR EPWA 210730Z 11005KT 070V150 5000 BR NSC M11/M12 Q1017 NOSIG",
      "taf": "TAF EPWA 210530Z 2106/2206 13005KT 7000 NSC"
    },
    {
      "icao": "EPWR",
      "alert": "OK",
      "vis_m": 9999,
      "fzfg": false,
      "metar_trigger": false,
      "taf_trigger": false,
      "metar": "METAR EPWR 210730Z 19008KT CAVOK M01/M07 Q1014",
      "taf": ""
    },
    {
      "icao": "ESGG",
      "alert": "OK",
      "vis_m": 9999,
      "fzfg": false,
      "metar_trigger": false,
      "taf_trigger": false,
      "metar": "METAR ESGG 210720Z 06010KT 9999 OVC008 M02/M04 Q1016",
      "taf": "TAF ESGG 210530Z 2106/2206 07010KT 9000 OVC006"
    },
    {
      "icao": "ESKN",
      "alert": "OK",
      "vis_m": 9999,
      "fzfg": false,
      "metar_trigger": false,
      "taf_trigger": false,
      "metar": "METAR ESKN 210720Z 05005KT 020V080 9999 BKN018 M00/M02 Q1019",
      "taf": "TAF ESKN 210530Z 2106/2206 04010KT 9999 OVC020"
    },
    {
      "icao": "ESMS",
      "alert": "OK",
      "vis_m": 9999,
      "fzfg": false,
      "metar_trigger": false,
      "taf_trigger": false,
      "metar": "METAR ESMS 210720Z 09005KT 9999 BKN019 M01/M03 Q1014",
      "taf": "TAF ESMS 210527Z 2106/2206 07008KT 8000 NSC"
    },
    {
      "icao": "ESSA",
      "alert": "OK",
      "vis_m": 9999,
      "fzfg": false,
      "metar_trigger": false,
      "taf_trigger": false,
      "metar": "METAR ESSA 210720Z 05008KT 9999 FEW010 SCT016 BKN023 M02/M04 Q1021 TEMPO OVC020",
      "taf": ""
    },
    {
      "icao": "EYKA",
      "alert": "OK",
      "vis_m": 4800,
      "fzfg": false,
      "metar_trigger": false,
      "taf_trigger": false,
      "metar": "METAR EYKA 210720Z VRB01KT 4800 BR NSC M17/M19 Q1018",
      "taf": "TAF EYKA 210500Z 2106/2206 VRB04KT 5000 BR NSC"
    },
    {
      "icao": "EYPA",
      "alert": "OK",
      "vis_m": 8000,
      "fzfg": false,
      "metar_trigger": false,
      "taf_trigger": false,
      "metar": "METAR EYPA 210720Z 09004KT 8000 FEW002 M12/M14 Q1017",
      "taf": ""
    },
    {
      "icao": "EYVI",
      "alert": "OK",
      "vis_m": 3100,
      "fzfg": false,
      "metar_trigger": false,
      "taf_trigger": false,
      "metar": "METAR EYVI 210720Z 16005KT 3100 BR NSC M14/M16 Q1017 NOSIG",
      "taf": ""
    },
    {
      "icao": "GCFV",
      "alert": "OK",
      "vis_m": 9999,
      "fzfg": false,
      "metar_trigger": false,
      "taf_trigger": false,
      "metar": "METAR GCFV 210730Z 31008KT 9999 FEW035 14/08 Q1021",
      "taf": "TAF GCFV 210200Z 2103/2203 30005KT 9999 SCT035 TX21/2114Z TN14/2106Z"
    },
    {
      "icao": "GCLP",
      "alert": "OK",
      "vis_m": 9999,
      "fzfg": false,
      "metar_trigger": false,
      "taf_trigger": false,
      "metar": "METAR GCLP 210730Z 34006KT 9999 SCT040 17/11 Q1022 NOSIG",
      "taf": "TAF GCLP 210200Z 2103/2203 33008KT 9999 BKN025 TX21/2114Z TN14/2106Z"
    },
    {
      "icao": "GCTS",
      "alert": "OK",
      "vis_m": 9999,
      "fzfg": false,
      "metar_trigger": false,
      "taf_trigger": false,
      "metar": "METAR GCTS 210730Z 36008KT 9999 FEW030 15/08 Q1022 NOSIG",
      "taf": "TAF GCTS 210200Z 2103/2203 36005KT 9999 FEW035 TX22/2114Z TN14/2106Z"
    },
    {
      "icao": "GMAD",
      "alert": "OK",
      "vis_m": 9999,
      "fzfg": false,
      "metar_trigger": false,
      "taf_trigger": false,
      "metar": "METAR GMAD 210730Z 06006KT 9999 FEW030 07/07 Q1019 NOSIG",
      "taf": "TAF GMAD 210500Z 2106/2212 06008KT"
    },
    {
      "icao": "GMMN",
      "alert": "OK",
      "vis_m": 9999,
      "fzfg": false,
      "metar_trigger": false,
      "taf_trigger": false,
      "metar": "METAR GMMN 210730Z 21006KT 9999 BKN040 09/08 Q1019 NOSIG",
      "taf": "TAF GMMN 210500Z 2106/2212 18006KT 9999 BKN034"
    },
    {
      "icao": "GMMX",
      "alert": "OK",
      "vis_m": 9999,
      "fzfg": false,
      "metar_trigger": false,
      "taf_trigger": false,
      "metar": "METAR GMMX 210730Z VRB02KT CAVOK 05/04 Q1020 NOSIG",
      "taf": "TAF GMMX 210500Z 2106/2212 28006KT 8000 SCT026"
    },
    {
      "icao": "HEGN",
      "alert": "OK",
      "vis_m": 9999,
      "fzfg": false,
      "metar_trigger": false,
      "taf_trigger": false,
      "metar": "METAR HEGN 210700Z 30008KT CAVOK 17/05 Q1020 NOSIG",
      "taf": "TAF HEGN 210500Z 2106/2212 01013KT CAVOK"
    },
    {
      "icao": "HEMA",
      "alert": "OK",
      "vis_m": 9999,
      "fzfg": false,
      "metar_trigger": false,
      "taf_trigger": false,
      "metar": "METAR HEMA 210700Z 31012KT CAVOK 20/12 Q1018 NOSIG",
      "taf": "TAF HEMA 210500Z 2106/2212 01015KT CAVOK"
    },
    {
      "icao": "HESH",
      "alert": "OK",
      "vis_m": 9999,
      "fzfg": false,
      "metar_trigger": false,
      "taf_trigger": false,
      "metar": "METAR HESH 210700Z 34010KT CAVOK 19/07 Q1019 NOSIG",
      "taf": "TAF HESH 210500Z 2106/2212 15012KT CAVOK"
    },
    {
      "icao": "HESX",
      "alert": "OK",
      "vis_m": 9999,
      "fzfg": false,
      "metar_trigger": false,
      "taf_trigger": false,
      "metar": "METAR HESX 210700Z 07021KT 9999 SCT020 12/02 Q1017 NOSIG",
      "taf": "TAF HESX 210500Z 2106/2212 08015KT 6000 NSC"
    },
    {
      "icao": "LATI",
      "alert": "OK",
      "vis_m": 9999,
      "fzfg": false,
      "metar_trigger": false,
      "taf_trigger": false,
      "metar": "METAR LATI 210720Z 32004KT 9999 -RA FEW020 SCT043 OVC060 05/03 Q1012 NOSIG",
      "taf": "TAF LATI 210500Z 2106/2206 VRB05KT 9999 -RA SCT035 BKN060 TX10/2112Z TN05/2204Z"
    },
    {
      "icao": "LBPD",
      "alert": "OK",
      "vis_m": 9999,
      "fzfg": false,
      "metar_trigger": false,
      "taf_trigger": false,
      "metar": "METAR LBPD 210730Z AUTO 27004KT 9999 OVC025/// M04/M04 Q1025 NOSIG",
      "taf": "TAF LBPD 210500Z 2106/2206 VRB03KT 9999 SCT040 BKN070"
    },
    {
      "icao": "LBSF",
      "alert": "OK",
      "vis_m": 9999,
      "fzfg": false,
      "metar_trigger": false,
      "taf_trigger": false,
      "metar": "METAR LBSF 210730Z 09008KT 9999 FEW027 SCT088 M03/M07 Q1022 NOSIG",
      "taf": "TAF LBSF 210500Z 2106/2206 11012KT 9999 BKN060"
    },
    {
      "icao": "LBWN",
      "alert": "OK",
      "vis_m": 7000,
      "fzfg": false,
      "metar_trigger": false,
      "taf_trigger": false,
      "metar": "METAR LBWN 210730Z 11002KT 7000 OVC021 M00/M00 Q1026 NOSIG",
      "taf": "TAF LBWN 210500Z 2106/2206 VRB03KT 9999 BKN020"
    },
    {
      "icao": "LCLK",
      "alert": "OK",
      "vis_m": 9999,
      "fzfg": false,
      "metar_trigger": false,
      "taf_trigger": false,
      "metar": "METAR LCLK 210730Z 02010KT 9999 FEW018 11/04 Q1025 NOSIG",
      "taf": "TAF LCLK 210530Z 2106/2206 32009KT CAVOK"
    },
    {
      "icao": "LCPH",
      "alert": "OK",
      "vis_m": 9999,
      "fzfg": false,
      "metar_trigger": false,
      "taf_trigger": false,
      "metar": "METAR LCPH 210730Z AUTO 11004KT 070V160 9999 NCD 11/M04 Q1023 NOSIG",
      "taf": "TAF LCPH 210530Z 2106/2206 06008KT CAVOK"
    },
    {
      "icao": "LEAL",
      "alert": "OK",
      "vis_m": 9999,
      "fzfg": false,
      "metar_trigger": false,
      "taf_trigger": false,
      "metar": "METAR LEAL 210730Z 30016KT 9999 BKN042 12/04 Q1011 NOSIG",
      "taf": "TAF LEAL 210500Z 2106/2206 30012KT 9999 BKN050 TX19/2113Z TN12/2106Z"
    },
    {
      "icao": "LEBB",
      "alert": "OK",
      "vis_m": 9999,
      "fzfg": false,
      "metar_trigger": false,
      "taf_trigger": false,
      "metar": "METAR LEBB 210700Z 18018G36KT 120V250 9999 FEW045 15/05 Q1000 NOSIG",
      "taf": "TAF LEBB 210500Z 2106/2206 20009KT 9999 FEW060 TX14/2115Z TN07/2206Z"
    },
    {
      "icao": "LEBL",
      "alert": "OK",
      "vis_m": 9999,
      "fzfg": false,
      "metar_trigger": false,
      "taf_trigger": false,
      "metar": "METAR LEBL 210730Z 33006KT 240V010 9999 FEW025 10/10 Q1010 NOSIG",
      "taf": ""
    },
    {
      "icao": "LECH",
      "alert": "OK",
      "vis_m": 7000,
      "fzfg": false,
      "metar_trigger": false,
      "taf_trigger": false,
      "metar": "METAR LECH 210730Z AUTO VRB02KT 7000 FEW021 OVC032 08/07 Q1011",
      "taf": ""
    },
    {
      "icao": "LEMD",
      "alert": "OK",
      "vis_m": 8000,
      "fzfg": false,
      "metar_trigger": false,
      "taf_trigger": false,
      "metar": "METAR LEMD 210730Z 34005KT 8000 -DZ BKN006 OVC018 00/M00 Q1011 NOSIG",
      "taf": ""
    },
    {
      "icao": "LEMG",
      "alert": "OK",
      "vis_m": 9999,
      "fzfg": false,
      "metar_trigger": false,
      "taf_trigger": false,
      "metar": "METAR LEMG 210730Z 26007KT 230V290 CAVOK 10/04 Q1015 NOSIG",
      "taf": "TAF LEMG 210500Z 2106/2206 30010KT CAVOK TX17/2114Z TN08/2107Z"
    },
    {
      "icao": "LEVC",
      "alert": "OK",
      "vis_m": 9999,
      "fzfg": false,
      "metar_trigger": false,
      "taf_trigger": false,
      "metar": "METAR LEVC 210730Z 24007KT 9999 FEW020 OVC042 08/07 Q1012 NOSIG",
      "taf": "TAF LEVC 210500Z 2106/2206 30007KT 9999 OVC025 TX15/2113Z TN10/2106Z"
    },
    {
      "icao": "LEXJ",
      "alert": "OK",
      "vis_m": 9999,
      "fzfg": false,
      "metar_trigger": false,
      "taf_trigger": false,
      "metar": "METAR LEXJ 210730Z 20017G32KT 160V250 9999 FEW060 15/04 Q0997",
      "taf": "TAF LEXJ 210200Z 2103/2203 22009KT 9999 SCT040 TX15/2115Z TN09/2103Z"
    },
    {
      "icao": "LEZG",
      "alert": "OK",
      "vis_m": 9999,
      "fzfg": false,
      "metar_trigger": false,
      "taf_trigger": false,
      "metar": "METAR LEZG 210730Z 08003KT CAVOK 02/02 Q1010 NOSIG",
      "taf": "TAF LEZG 210500Z 2106/2206 VRB04KT 9999 FEW040 TX14/2115Z TN05/2106Z"
    },
    {
      "icao": "LEZL",
      "alert": "OK",
      "vis_m": 9999,
      "fzfg": false,
      "metar_trigger": false,
      "taf_trigger": false,
      "metar": "METAR LEZL 210730Z 32003KT 9999 SCT028 SCT036 07/07 Q1015 NOSIG",
      "taf": "TAF LEZL 210200Z 2103/2203 VRB03KT CAVOK TX15/2115Z TN05/2107Z"
    },
    {
      "icao": "LFBD",
      "alert": "OK",
      "vis_m": 9999,
      "fzfg": false,
      "metar_trigger": false,
      "taf_trigger": false,
      "metar": "METAR LFBD 210730Z AUTO 14013KT CAVOK 06/04 Q1001 NOSIG",
      "taf": "TAF LFBD 210500Z 2106/2212 16010KT CAVOK TX13/2114Z TN06/2106Z"
    },
    {
      "icao": "LFLL",
      "alert": "OK",
      "vis_m": 9999,
      "fzfg": false,
      "metar_trigger": false,
      "taf_trigger": false,
      "metar": "METAR LFLL 210730Z 14011KT CAVOK 04/02 Q1007 NOSIG",
      "taf": "TAF LFLL 210500Z 2106/2212 13009KT CAVOK"
    },
    {
      "icao": "LFLS",
      "alert": "OK",
      "vis_m": 9999,
      "fzfg": false,
      "metar_trigger": false,
      "taf_trigger": false,
      "metar": "METAR LFLS 210730Z AUTO 08006KT 060V120 CAVOK 01/M02 Q1008 NOSIG",
      "taf": "TAF LFLS 210200Z 2103/2203 09005KT CAVOK"
    },
    {
      "icao": "LFMN",
      "alert": "OK",
      "vis_m": 9999,
      "fzfg": false,
      "metar_trigger": false,
      "taf_trigger": false,
      "metar": "METAR LFMN 210730Z 34009KT 320V020 CAVOK 06/M01 Q1009 NOSIG",
      "taf": "TAF LFMN 210200Z 2103/2209 33010KT CAVOK"
    },
    {
      "icao": "LFOB",
      "alert": "OK",
      "vis_m": 9999,
      "fzfg": false,
      "metar_trigger": false,
      "taf_trigger": false,
      "metar": "METAR LFOB 210730Z AUTO 16012KT 9999 FEW048 OVC100 08/06 Q1000 NOSIG",
      "taf": "TAF LFOB 210500Z 2106/2206 16012KT 9999 BKN045"
    },
    {
      "icao": "LFPO",
      "alert": "OK",
      "vis_m": 9999,
      "fzfg": false,
      "metar_trigger": false,
      "taf_trigger": false,
      "metar": "METAR LFPO 210730Z AUTO 18011KT CAVOK 09/05 Q1001",
      "taf": "TAF LFPO 210500Z 2106/2212 17010KT CAVOK"
    },
    {
      "icao": "LFSB",
      "alert": "OK",
      "vis_m": 9999,
      "fzfg": false,
      "metar_trigger": false,
      "taf_trigger": false,
      "metar": "METAR LFSB 210730Z AUTO 17005KT CAVOK M01/M02 Q1008 NOSIG",
      "taf": "TAF LFSB 210500Z 2106/2206 16005KT CAVOK"
    },
    {
      "icao": "LGAV",
      "alert": "OK",
      "vis_m": 7000,
      "fzfg": false,
      "metar_trigger": false,
      "taf_trigger": false,
      "metar": "METAR LGAV 210720Z 10005KT 060V160 7000 -RA SCT018 BKN025 10/07 Q1017 RERA NOSIG",
      "taf": "TAF LGAV 210500Z 2106/2206 10012KT 9999 FEW018 BKN025"
    },
    {
      "icao": "LGTS",
      "alert": "OK",
      "vis_m": 9999,
      "fzfg": false,
      "metar_trigger": false,
      "taf_trigger": false,
      "metar": "METAR LGTS 210720Z VRB02KT 9999 FEW005 BKN040 05/02 Q1022 NOSIG",
      "taf": "TAF LGTS 210500Z 2106/2206 11010KT 9999 FEW010 BKN025"
    },
    {
      "icao": "LHBP",
      "alert": "OK",
      "vis_m": 4500,
      "fzfg": false,
      "metar_trigger": false,
      "taf_trigger": false,
      "metar": "METAR LHBP 210730Z VRB01KT 4500 BR NSC M10/M12 Q1021 BECMG 6000 NSW",
      "taf": "TAF LHBP 210515Z 2106/2206 VRB03KT 2500 BR NSC"
    },
    {
      "icao": "LHDC",
      "alert": "OK",
      "vis_m": 4000,
      "fzfg": false,
      "metar_trigger": false,
      "taf_trigger": false,
      "metar": "METAR LHDC 210715Z AUTO 04004KT 4000 BR NCD M10/M12 Q1021 NOSIG",
      "taf": "TAF LHDC 210515Z 2106/2115 04006KT 2500 BR NSC"
    },
    {
      "icao": "LIBD",
      "alert": "OK",
      "vis_m": 5000,
      "fzfg": false,
      "metar_trigger": false,
      "taf_trigger": false,
      "metar": "METAR LIBD 210720Z VRB01KT 5000 -RA OVC010 06/06 Q1010",
      "taf": "TAF LIBD 210500Z 2106/2206 12008KT 8000 BKN020"
    },
    {
      "icao": "LIBG",
      "alert": "OK",
      "vis_m": 9999,
      "fzfg": false,
      "metar_trigger": false,
      "taf_trigger": false,
      "metar": "SPECI LIBG 210655Z 05014KT 9999 -RA FEW015 SCT045 08/08 Q1008",
      "taf": "TAF LIBG 210731Z 2108/2115 05015KT 9999 RA FEW015 SCT040"
    },
    {
      "icao": "LIBP",
      "alert": "OK",
      "vis_m": 9000,
      "fzfg": false,
      "metar_trigger": false,
      "taf_trigger": false,
      "metar": "METAR LIBP 210650Z AUTO 20002KT 9000 OVC053/// 06/06 Q1012",
      "taf": "TAF LIBP 210500Z 2106/2206 VRB05KT 9999 FEW050"
    },
    {
      "icao": "LIBR",
      "alert": "OK",
      "vis_m": 9999,
      "fzfg": false,
      "metar_trigger": false,
      "taf_trigger": false,
      "metar": "METAR LIBR 210720Z 08018KT 9999 SCT015 10/06 Q1009",
      "taf": "TAF LIBR 210500Z 2106/2206 06015KT 8000 RA BKN020"
    },
    {
      "icao": "LICA",
      "alert": "OK",
      "vis_m": 9999,
      "fzfg": false,
      "metar_trigger": false,
      "taf_trigger": false,
      "metar": "METAR LICA 210650Z AUTO 07022KT 9999 -DZRA BKN047/// 12/07 Q1001",
      "taf": "TAF LICA 210500Z 2106/2206 08022G35KT 8000 RA BKN040"
    },
    {
      "icao": "LICC",
      "alert": "OK",
      "vis_m": 9999,
      "fzfg": false,
      "metar_trigger": false,
      "taf_trigger": false,
      "metar": "METAR LICC 210720Z 31004KT 9999 SCT040 SCT080 12/10 Q1001",
      "taf": "TAF LICC 210500Z 2106/2206 VRB06KT 7000 RA BKN030"
    },
    {
      "icao": "LICJ",
      "alert": "OK",
      "vis_m": 9999,
      "fzfg": false,
      "metar_trigger": false,
      "taf_trigger": false,
      "metar": "METAR LICJ 210720Z 08016KT 9999 -RA FEW020 SCT030 BKN070 12/10 Q0999",
      "taf": "TAF LICJ 210500Z 2106/2206 07020G40KT 9999 BKN030"
    },
    {
      "icao": "LIMC",
      "alert": "CRITICAL",
      "vis_m": 100,
      "fzfg": true,
      "metar_trigger": true,
      "taf_trigger": false,
      "metar": "METAR LIMC 210720Z 03004KT 0100 R35R/0250N R17L/0275N R35L/0250N FZFG OVC001 M00/M00 Q1012 NOSIG",
      "taf": ""
    },
    {
      "icao": "LIME",
      "alert": "OK",
      "vis_m": 9999,
      "fzfg": false,
      "metar_trigger": false,
      "taf_trigger": false,
      "metar": "METAR LIME 210720Z 02003KT CAVOK M00/M02 Q1012 NOSIG",
      "taf": "TAF LIME 210500Z 2106/2206 VRB04KT CAVOK"
    },
    {
      "icao": "LIMF",
      "alert": "OK",
      "vis_m": 7000,
      "fzfg": false,
      "metar_trigger": false,
      "taf_trigger": false,
      "metar": "METAR LIMF 210720Z 29003KT 260V360 7000 NSC M00/M03 Q1012",
      "taf": "TAF LIMF 210500Z 2106/2206 VRB04KT 9999 SCT060"
    },
    {
      "icao": "LIMJ",
      "alert": "OK",
      "vis_m": 9999,
      "fzfg": false,
      "metar_trigger": false,
      "taf_trigger": false,
      "metar": "METAR LIMJ 210720Z 05015KT CAVOK 06/M04 Q1010",
      "taf": "TAF LIMJ 210500Z 2106/2206 02015KT CAVOK"
    },
    {
      "icao": "LIPE",
      "alert": "OK",
      "vis_m": 7000,
      "fzfg": false,
      "metar_trigger": false,
      "taf_trigger": false,
      "metar": "METAR LIPE 210720Z 18003KT 7000 NSC M01/M02 Q1014",
      "taf": "TAF LIPE 210500Z 2106/2206 VRB05KT 9999 FEW040"
    },
    {
      "icao": "LIPH",
      "alert": "OK",
      "vis_m": 9999,
      "fzfg": false,
      "metar_trigger": false,
      "taf_trigger": false,
      "metar": "METAR LIPH 210720Z 04003KT CAVOK M03/M07 Q1014",
      "taf": "TAF LIPH 210500Z 2106/2206 VRB05KT CAVOK"
    },
    {
      "icao": "LIPQ",
      "alert": "OK",
      "vis_m": 9999,
      "fzfg": false,
      "metar_trigger": false,
      "taf_trigger": false,
      "metar": "METAR LIPQ 210720Z AUTO 05004KT 9999 NCD M02/M09 Q1014",
      "taf": "TAF LIPQ 210500Z 2106/2206 VRB05KT CAVOK"
    },
    {
      "icao": "LIPR",
      "alert": "OK",
      "vis_m": 9999,
      "fzfg": false,
      "metar_trigger": false,
      "taf_trigger": false,
      "metar": "METAR LIPR 210720Z 29009KT 9999 BKN020 03/M02 Q1014",
      "taf": "TAF LIPR 210500Z 2106/2206 30010KT 9999 SCT040"
    },
    {
      "icao": "LIPX",
      "alert": "OK",
      "vis_m": 9000,
      "fzfg": false,
      "metar_trigger": false,
      "taf_trigger": false,
      "metar": "METAR LIPX 210720Z 36002KT 9000 NSC M04/M05 Q1013",
      "taf": "TAF LIPX 210500Z 2106/2206 VRB04KT CAVOK"
    },
    {
      "icao": "LIPY",
      "alert": "OK",
      "vis_m": 9999,
      "fzfg": false,
      "metar_trigger": false,
      "taf_trigger": false,
      "metar": "METAR LIPY 210650Z AUTO 24003KT 210V270 9999 OVC046/// 04/02 Q1013",
      "taf": "TAF LIPY 210500Z 2106/2206 32008KT 9999 BKN020"
    },
    {
      "icao": "LIPZ",
      "alert": "OK",
      "vis_m": 9999,
      "fzfg": false,
      "metar_trigger": false,
      "taf_trigger": false,
      "metar": "METAR LIPZ 210720Z 03008KT CAVOK M03/M08 Q1014 NOSIG",
      "taf": "TAF LIPZ 210500Z 2106/2212 02007KT CAVOK"
    },
    {
      "icao": "LIRF",
      "alert": "OK",
      "vis_m": 9999,
      "fzfg": false,
      "metar_trigger": false,
      "taf_trigger": false,
      "metar": "METAR LIRF 210720Z 01005KT CAVOK 07/01 Q1007 NOSIG",
      "taf": "TAF LIRF 210500Z 2106/2212 04010KT 9999 SCT055"
    },
    {
      "icao": "LIRN",
      "alert": "OK",
      "vis_m": 9999,
      "fzfg": false,
      "metar_trigger": false,
      "taf_trigger": false,
      "metar": "METAR LIRN 210720Z 03011KT 9999 FEW020 BKN080 07/03 Q1006 NOSIG",
      "taf": "TAF LIRN 210500Z 2106/2206 05015G28KT 9999 BKN060"
    },
    {
      "icao": "LIRP",
      "alert": "OK",
      "vis_m": 9999,
      "fzfg": false,
      "metar_trigger": false,
      "taf_trigger": false,
      "metar": "METAR LIRP 210715Z 15005KT 9999 FEW070 04/M02 Q1010 NOSIG",
      "taf": "TAF LIRP 210500Z 2106/2206 06008KT CAVOK"
    },
    {
      "icao": "LIRZ",
      "alert": "OK",
      "vis_m": 9999,
      "fzfg": false,
      "metar_trigger": false,
      "taf_trigger": false,
      "metar": "METAR LIRZ 210650Z AUTO 02014KT 9999 NCD 06/01 Q1009",
      "taf": "TAF LIRZ 202300Z 2100/2124 06013KT 9999 FEW070"
    },
    {
      "icao": "LJLJ",
      "alert": "OK",
      "vis_m": 9999,
      "fzfg": false,
      "metar_trigger": false,
      "taf_trigger": false,
      "metar": "METAR LJLJ 210730Z 15003KT 110V210 9999 OVC015 M05/M08 Q1017 NOSIG",
      "taf": "TAF LJLJ 210500Z 2106/2206 12003KT 9999 OVC015"
    },
    {
      "icao": "LKMT",
      "alert": "OK",
      "vis_m": 9999,
      "fzfg": false,
      "metar_trigger": false,
      "taf_trigger": false,
      "metar": "METAR LKMT 210730Z 24012KT CAVOK M04/M08 Q1016 NOSIG",
      "taf": "TAF LKMT 210500Z 2106/2206 23014KT CAVOK"
    },
    {
      "icao": "LKPR",
      "alert": "OK",
      "vis_m": 9000,
      "fzfg": false,
      "metar_trigger": false,
      "taf_trigger": false,
      "metar": "METAR LKPR 210730Z 11007KT 9000 BKN011 M07/M09 Q1014 NOSIG",
      "taf": "TAF LKPR 210500Z 2106/2212 13005KT 9999 OVC010"
    },
    {
      "icao": "LLBG",
      "alert": "OK",
      "vis_m": 9999,
      "fzfg": false,
      "metar_trigger": false,
      "taf_trigger": false,
      "metar": "METAR LLBG 210720Z 09004KT CAVOK 13/M01 Q1023 BECMG 10020G30KT RMK SCT140",
      "taf": "TAF LLBG 210505Z 2106/2206 11010KT CAVOK"
    },
    {
      "icao": "LMML",
      "alert": "OK",
      "vis_m": 9999,
      "fzfg": false,
      "metar_trigger": false,
      "taf_trigger": false,
      "metar": "METAR LMML 210715Z 19006KT 160V230 9999 FEW018CB 13/11 Q1001 NOSIG",
      "taf": "TAF LMML 210500Z 2106/2206 23015KT 9999 SCT015"
    },
    {
      "icao": "LOWW",
      "alert": "OK",
      "vis_m": 5000,
      "fzfg": false,
      "metar_trigger": false,
      "taf_trigger": false,
      "metar": "METAR LOWW 210720Z 14013KT 5000 BR FEW004 OVC005 M06/M07 Q1018 TEMPO 4000 BR OVC004",
      "taf": "TAF LOWW 210515Z 2106/2212 14013KT 8000 FEW008 BKN010 TXM04/2212Z TNM07/2204Z"
    },
    {
      "icao": "LPFR",
      "alert": "OK",
      "vis_m": 5000,
      "fzfg": false,
      "metar_trigger": false,
      "taf_trigger": false,
      "metar": "METAR LPFR 210730Z 22015KT 5000 -RADZ BR SCT004 SCT010 BKN030 13/12 Q1014",
      "taf": "TAF LPFR 210500Z 2106/2206 24015KT 9999 SCT012 BKN025"
    },
    {
      "icao": "LPMA",
      "alert": "OK",
      "vis_m": 9999,
      "fzfg": false,
      "metar_trigger": false,
      "taf_trigger": false,
      "metar": "METAR LPMA 210730Z 27006KT 9999 SCT015 15/09 Q1021",
      "taf": "TAF LPMA 210500Z 2106/2206 VRB05KT 9999 SCT015"
    },
    {
      "icao": "LPPR",
      "alert": "OK",
      "vis_m": 2500,
      "fzfg": false,
      "metar_trigger": false,
      "taf_trigger": false,
      "metar": "METAR LPPR 210730Z 18021KT 2500 RA BR BKN006 BKN014 12/12 Q1002",
      "taf": "TAF LPPR 210500Z 2106/2206 19015KT 8000 -RA SCT008 BKN025"
    },
    {
      "icao": "LPPS",
      "alert": "OK",
      "vis_m": 9999,
      "fzfg": false,
      "metar_trigger": false,
      "taf_trigger": false,
      "metar": "METAR LPPS 210730Z 29014KT 9999 -DZ SCT014 SCT030 16/15 Q1020 RERA",
      "taf": "TAF LPPS 210500Z 2106/2212 29015KT 9999 SCT015"
    },
    {
      "icao": "LPPT",
      "alert": "OK",
      "vis_m": 7000,
      "fzfg": false,
      "metar_trigger": false,
      "taf_trigger": false,
      "metar": "METAR LPPT 210730Z 23013KT 7000 RA BKN004 14/14 Q1008",
      "taf": "TAF LPPT 210500Z 2106/2212 21013KT 9999 SCT008 BKN015"
    },
    {
      "icao": "LQBK",
      "alert": "OK",
      "vis_m": 5000,
      "fzfg": false,
      "metar_trigger": false,
      "taf_trigger": false,
      "metar": "METAR LQBK 210730Z VRB02KT 5000 BR BKN007 OVC015 M03/M05 Q1019 NOSIG",
      "taf": "TAF LQBK 210500Z 2106/2206 VRB02KT 9999 BKN020 TXM00/2113Z TNM04/2205Z"
    },
    {
      "icao": "LQSA",
      "alert": "OK",
      "vis_m": 3000,
      "fzfg": false,
      "metar_trigger": false,
      "taf_trigger": false,
      "metar": "METAR LQSA 210730Z 00000KT 3000 BR BKN006 OVC015 M06/M06 Q1016 NOSIG",
      "taf": "TAF LQSA 210500Z 2106/2206 VRB02KT 4000 BR BKN008 TX00/2113Z TNM07/2106Z"
    },
    {
      "icao": "LQTZ",
      "alert": "OK",
      "vis_m": 2500,
      "fzfg": false,
      "metar_trigger": false,
      "taf_trigger": false,
      "metar": "METAR LQTZ 210730Z VRB02KT 2500 BR OVC007 M05/M05 Q1018",
      "taf": "TAF LQTZ 210500Z 2106/2206 VRB02KT 3000 BR BKN010 TXM00/2114Z TNM06/2205Z"
    },
    {
      "icao": "LRBC",
      "alert": "CRITICAL",
      "vis_m": 100,
      "fzfg": true,
      "metar_trigger": true,
      "taf_trigger": false,
      "metar": "METAR LRBC 210730Z 17010KT 0100 R16/0450N FZFG VV001 M07/M09 Q1023",
      "taf": ""
    },
    {
      "icao": "LRBS",
      "alert": "OK",
      "vis_m": 2000,
      "fzfg": false,
      "metar_trigger": false,
      "taf_trigger": false,
      "metar": "METAR LRBS 210730Z 05003KT 2000 BR BKN002 M09/M10 Q1025 TEMPO 3000 BKN005",
      "taf": ""
    },
    {
      "icao": "LRBV",
      "alert": "OK",
      "vis_m": 600,
      "fzfg": true,
      "metar_trigger": false,
      "taf_trigger": false,
      "metar": "METAR LRBV 210730Z VRB03KT 0600 R21/P2000N FZFG VV002 M10/M11 Q1021",
      "taf": "TAF LRBV 210500Z 2106/2115 VRB04KT 0350 FZFG VV001"
    },
    {
      "icao": "LRCL",
      "alert": "OK",
      "vis_m": 600,
      "fzfg": true,
      "metar_trigger": false,
      "taf_trigger": false,
      "metar": "METAR LRCL 210730Z 08003KT 0600 R25/0400N -SN FZFG BKN001 BKN003 M15/M17 Q1022",
      "taf": "TAF LRCL 210500Z 2106/2115 VRB04KT 0600 FZFG VV002"
    },
    {
      "icao": "LRCV",
      "alert": "OK",
      "vis_m": 8000,
      "fzfg": false,
      "metar_trigger": false,
      "taf_trigger": false,
      "metar": "METAR LRCV 210730Z 08001KT 8000 NSC M06/M07 Q1023",
      "taf": "TAF LRCV 210500Z 2106/2115 VRB04KT 3000 BR NSC"
    },
    {
      "icao": "LRIA",
      "alert": "OK",
      "vis_m": 300,
      "fzfg": true,
      "metar_trigger": false,
      "taf_trigger": false,
      "metar": "METAR LRIA 210730Z 11005KT 0300 R14/0600N FZFG VV001 M08/M10 Q1023",
      "taf": "TAF LRIA 210500Z 2106/2115 11006KT 0300 FZFG VV001"
    },
    {
      "icao": "LROP",
      "alert": "OK",
      "vis_m": 200,
      "fzfg": true,
      "metar_trigger": false,
      "taf_trigger": false,
      "metar": "METAR LROP 210730Z VRB02KT 0200 R08R/0350N R08L/0900U FZFG VV002 M09/M11 Q1025 BECMG 0350 BKN002",
      "taf": ""
    },
    {
      "icao": "LRSB",
      "alert": "OK",
      "vis_m": 150,
      "fzfg": true,
      "metar_trigger": false,
      "taf_trigger": false,
      "metar": "METAR LRSB 210730Z 23002KT 0150 R27/0200N FZFG FEW002 M14/M16 Q1021",
      "taf": ""
    },
    {
      "icao": "LRSM",
      "alert": "OK",
      "vis_m": 9999,
      "fzfg": false,
      "metar_trigger": false,
      "taf_trigger": false,
      "metar": "METAR LRSM 210730Z 09004KT CAVOK M11/M13 Q1021",
      "taf": "TAF LRSM 210500Z 2106/2115 VRB04KT 5000 BR NSC"
    },
    {
      "icao": "LRSV",
      "alert": "OK",
      "vis_m": 9999,
      "fzfg": false,
      "metar_trigger": false,
      "taf_trigger": false,
      "metar": "METAR LRSV 210730Z 22005KT CAVOK M08/M10 Q1019",
      "taf": "TAF LRSV 210500Z 2106/2115 VRB04KT CAVOK"
    },
    {
      "icao": "LRTM",
      "alert": "OK",
      "vis_m": 150,
      "fzfg": true,
      "metar_trigger": false,
      "taf_trigger": false,
      "metar": "METAR LRTM 210730Z 06002KT 0150 R07/0400U FZFG -SN VV001 M15/M17 Q1023",
      "taf": "TAF LRTM 210500Z 2106/2115 VRB04KT 0150 FZFG VV001"
    },
    {
      "icao": "LRTR",
      "alert": "OK",
      "vis_m": 8000,
      "fzfg": false,
      "metar_trigger": false,
      "taf_trigger": false,
      "metar": "METAR LRTR 210730Z 12005KT 8000 NSC M07/M09 Q1020 NOSIG",
      "taf": "TAF LRTR 210500Z 2106/2206 10008KT CAVOK"
    },
    {
      "icao": "LTAC",
      "alert": "OK",
      "vis_m": 9999,
      "fzfg": false,
      "metar_trigger": false,
      "taf_trigger": false,
      "metar": "METAR LTAC 210720Z 03002KT CAVOK M07/M11 Q1027 NOSIG RMK RWY21C 05002KT RWY03L VRB02KT RWY21R VRB02KT RWY03R 03003KT RWY21L 05003KT",
      "taf": "TAF LTAC 210440Z 2106/2206 VRB02KT CAVOK"
    },
    {
      "icao": "LTFM",
      "alert": "OK",
      "vis_m": 9999,
      "fzfg": false,
      "metar_trigger": false,
      "taf_trigger": false,
      "metar": "METAR LTFM 210720Z 09011KT CAVOK 04/M04 Q1024 NOSIG RMK RWY17L 09014KT RWY34L 07010KT RWY16R 09014KT RWY36 08012KT RWY18 11012KT",
      "taf": "TAF LTFM 210440Z 2106/2212 09015KT 9999 FEW040"
    },
    {
      "icao": "LUKK",
      "alert": "OK",
      "vis_m": 3700,
      "fzfg": false,
      "metar_trigger": false,
      "taf_trigger": false,
      "metar": "METAR LUKK 210730Z VRB02KT 3700 BR NSC M11/M12 Q1025 TEMPO 1500 BR",
      "taf": "TAF LUKK 210518Z 2106/2206 VRB04KT 3000 BR NSC"
    },
    {
      "icao": "LWOH",
      "alert": "OK",
      "vis_m": 3000,
      "fzfg": false,
      "metar_trigger": false,
      "taf_trigger": false,
      "metar": "METAR LWOH 210720Z 01009KT 340V050 3000 SN BKN010 OVC033 01/M02 Q1017",
      "taf": "TAF LWOH 210555Z 2106/2206 03010KT 9999 SCT035 BKN070"
    },
    {
      "icao": "LWSK",
      "alert": "OK",
      "vis_m": 1000,
      "fzfg": false,
      "metar_trigger": false,
      "taf_trigger": false,
      "metar": "METAR LWSK 210720Z 03004KT 1000 R34/P2000N -SN SCT010 BKN020 OVC030 M01/M02 Q1022 NOSIG",
      "taf": "TAF LWSK 210555Z 2106/2206 VRB02KT 5000 SCT040 OVC070"
    },
    {
      "icao": "LYBE",
      "alert": "OK",
      "vis_m": 400,
      "fzfg": true,
      "metar_trigger": false,
      "taf_trigger": false,
      "metar": "METAR LYBE 210730Z 26003KT 230V330 0400 R12L/0650D R30R/0550U FZFG VV001 M06/M07 Q1019 NOSIG",
      "taf": "TAF LYBE 210500Z 2106/2206 27005KT 0500 FZFG BKN001 TX05/2113Z TNM07/2106Z"
    },
    {
      "icao": "LYNI",
      "alert": "OK",
      "vis_m": 9999,
      "fzfg": false,
      "metar_trigger": false,
      "taf_trigger": false,
      "metar": "METAR LYNI 210730Z 11013KT 9999 SCT090 01/M09 Q1020 NOSIG",
      "taf": "TAF LYNI 210500Z 2106/2206 10008KT CAVOK TX05/2113Z TNM04/2106Z"
    },
    {
      "icao": "LYPG",
      "alert": "OK",
      "vis_m": 8000,
      "fzfg": false,
      "metar_trigger": false,
      "taf_trigger": false,
      "metar": "METAR LYPG 210730Z 33005KT 8000 -RA FEW030 BKN040 OVC070 03/M01 Q1015 NOSIG",
      "taf": "TAF LYPG 210500Z 2106/2206 16005KT 9999 SCT040 OVC070 TX08/2113Z TN02/2106Z"
    },
    {
      "icao": "LZIB",
      "alert": "OK",
      "vis_m": 2100,
      "fzfg": false,
      "metar_trigger": false,
      "taf_trigger": false,
      "metar": "METAR LZIB 210730Z 08005KT 2100 BR SCT002 OVC003 M08/M09 Q1020 NOSIG",
      "taf": ""
    },
    {
      "icao": "LZKZ",
      "alert": "OK",
      "vis_m": 9999,
      "fzfg": false,
      "metar_trigger": false,
      "taf_trigger": false,
      "metar": "METAR LZKZ 210730Z VRB01KT 9999 FEW001 M11/M12 Q1021 NOSIG",
      "taf": "TAF LZKZ 210515Z 2106/2206 VRB02KT CAVOK"
    },
    {
      "icao": "LZTT",
      "alert": "OK",
      "vis_m": 9999,
      "fzfg": false,
      "metar_trigger": false,
      "taf_trigger": false,
      "metar": "METAR LZTT 210730Z 18006KT CAVOK M08/M12 Q1016 NOSIG",
      "taf": "TAF LZTT 210515Z 2106/2206 20005KT CAVOK"
    },
    {
      "icao": "OEJN",
      "alert": "OK",
      "vis_m": 9999,
      "fzfg": false,
      "metar_trigger": false,
      "taf_trigger": false,
      "metar": "METAR OEJN 210700Z 35008KT CAVOK 26/09 Q1015 NOSIG",
      "taf": "TAF OEJN 210500Z 2106/2212 01005KT 7000 NSC"
    },
    {
      "icao": "OEMA",
      "alert": "OK",
      "vis_m": 9999,
      "fzfg": false,
      "metar_trigger": false,
      "taf_trigger": false,
      "metar": "METAR OEMA 210700Z 09008KT CAVOK 16/M01 Q1024 NOSIG",
      "taf": "TAF OEMA 210500Z 2106/2212 08012KT 7000 NSC"
    },
    {
      "icao": "OJAI",
      "alert": "OK",
      "vis_m": 4000,
      "fzfg": false,
      "metar_trigger": false,
      "taf_trigger": false,
      "metar": "METAR OJAI 210700Z 07016KT 4000 BLDU NSC 03/M06 Q1025 NOSIG",
      "taf": "TAF OJAI 210447Z 2106/2212 08010KT 5000 HZ FEW030"
    },
    {
      "icao": "OMAA",
      "alert": "OK",
      "vis_m": 9999,
      "fzfg": false,
      "metar_trigger": false,
      "taf_trigger": false,
      "metar": "METAR OMAA 210700Z 32008KT 270V350 9999 FEW040 23/11 Q1017 NOSIG",
      "taf": "TAF OMAA 210500Z 2106/2212 20006KT 8000 NSC"
    },
    {
      "icao": "OMDB",
      "alert": "OK",
      "vis_m": 9999,
      "fzfg": false,
      "metar_trigger": false,
      "taf_trigger": false,
      "metar": "METAR OMDB 210730Z 30013KT CAVOK 23/10 Q1017 NOSIG",
      "taf": "TAF OMDB 210500Z 2106/2212 29014KT 8000 NSC"
    },
    {
      "icao": "UAAA",
      "alert": "OK",
      "vis_m": 2900,
      "fzfg": false,
      "metar_trigger": false,
      "taf_trigger": false,
      "metar": "METAR UAAA 210730Z VRB01MPS 2900 BR SCT007 BKN200 M08/M10 Q1017 NOSIG",
      "taf": "TAF UAAA 210502Z 2106/2206 04003MPS 3100 BR SCT011 BKN050 TXM06/2108Z TNM14/2202Z"
    },
    {
      "icao": "UBBB",
      "alert": "OK",
      "vis_m": 9999,
      "fzfg": false,
      "metar_trigger": false,
      "taf_trigger": false,
      "metar": "METAR UBBB 210730Z 32022G34KT 9999 BKN023 03/M02 Q1026 NOSIG",
      "taf": "TAF UBBB 210502Z 2106/2206 31016G26KT 9999 SCT025 TX04/2110Z TN00/2201Z"
    },
    {
      "icao": "UDSG",
      "alert": "OK",
      "vis_m": 9999,
      "fzfg": false,
      "metar_trigger": false,
      "taf_trigger": false,
      "metar": "METAR UDSG 210730Z 07003KT 030V140 9999 NSC M08/M13 Q1024 NOSIG",
      "taf": "TAF UDSG 210500Z 2106/2206 VRB06KT 9999 FEW050"
    },
    {
      "icao": "UDYZ",
      "alert": "OK",
      "vis_m": 9999,
      "fzfg": false,
      "metar_trigger": false,
      "taf_trigger": false,
      "metar": "METAR UDYZ 210730Z 13002KT 9999 NSC M04/M08 Q1026 NOSIG",
      "taf": "TAF UDYZ 210500Z 2106/2206 VRB06KT 9999 NSC"
    },
    {
      "icao": "UGKO",
      "alert": "OK",
      "vis_m": 2900,
      "fzfg": false,
      "metar_trigger": false,
      "taf_trigger": false,
      "metar": "METAR UGKO 210730Z 26011KT 2900 RA BR SCT006 BKN007 OVC010 02/01 Q1031 NOSIG",
      "taf": "TAF UGKO 210500Z 2106/2206 26007KT 9999 SCT020 BKN050 TX06/2111Z TNM01/2206Z"
    }
  ]
}