{
  "ts_utc": "2026-02-05T18:00:32Z",
  "threshold_m": 150,
  "source": "stations_override.txt (ICAO list) + aviationweather.gov (METAR/TAF raw)",
  "station_count": 159,
  "stations": [
    {
      "icao": "BIKF",
      "alert": "OK",
      "vis_m": 9999,
      "fzfg": false,
      "metar_trigger": false,
      "taf_trigger": false,
      "metar": "METAR BIKF 051730Z 04007KT CAVOK 02/M04 Q1005",
      "taf": "TAF BIKF 051651Z 0518/0618 05008KT CAVOK TX04/0617Z TNM01/0603Z"
    },
    {
      "icao": "BKPR",
      "alert": "OK",
      "vis_m": null,
      "fzfg": false,
      "metar_trigger": false,
      "taf_trigger": false,
      "metar": "",
      "taf": "TAF BKPR 051730Z 0518/0618 24007KT 9999 SCT040"
    },
    {
      "icao": "EBCI",
      "alert": "OK",
      "vis_m": 9999,
      "fzfg": false,
      "metar_trigger": false,
      "taf_trigger": false,
      "metar": "METAR EBCI 051750Z 09005KT 070V130 9999 BKN030 07/06 Q0986 NOSIG",
      "taf": "TAF EBCI 051703Z 0518/0624 13007KT 9999 SCT020 BKN035"
    },
    {
      "icao": "EDDB",
      "alert": "OK",
      "vis_m": 3300,
      "fzfg": false,
      "metar_trigger": false,
      "taf_trigger": false,
      "metar": "METAR EDDB 051750Z AUTO 09006KT 3300 -FZRADZ BR OVC004 FEW///TCU M01/M02 Q0996 TEMPO 2900 -FZRA OVC005",
      "taf": "TAF EDDB 051700Z 0518/0618 09008KT 4000 BR BKN004"
    },
    {
      "icao": "EDDH",
      "alert": "OK",
      "vis_m": 9000,
      "fzfg": false,
      "metar_trigger": false,
      "taf_trigger": false,
      "metar": "METAR EDDH 051750Z AUTO 09008KT 050V130 9000 OVC008 M03/M05 Q0996 NOSIG",
      "taf": "TAF EDDH 051700Z 0518/0624 08008KT 8000 OVC008"
    },
    {
      "icao": "EDDK",
      "alert": "OK",
      "vis_m": 9999,
      "fzfg": false,
      "metar_trigger": false,
      "taf_trigger": false,
      "metar": "METAR EDDK 051750Z AUTO 12008KT 080V150 9999 -RA BKN047 04/02 Q0990 RESHRA NOSIG",
      "taf": "TAF EDDK 051700Z 0518/0624 12008KT 9999 SCT040"
    },
    {
      "icao": "EDDN",
      "alert": "OK",
      "vis_m": 9999,
      "fzfg": false,
      "metar_trigger": false,
      "taf_trigger": false,
      "metar": "METAR EDDN 051750Z AUTO 14007KT 9999 OVC011 02/M00 Q0992 NOSIG",
      "taf": "TAF EDDN 051700Z 0518/0618 10005KT 9999 OVC011"
    },
    {
      "icao": "EDDS",
      "alert": "OK",
      "vis_m": 9999,
      "fzfg": false,
      "metar_trigger": false,
      "taf_trigger": false,
      "metar": "METAR EDDS 051750Z AUTO 09008KT 060V120 CAVOK 03/M00 Q0989 NOSIG",
      "taf": "TAF EDDS 051700Z 0518/0618 VRB03KT CAVOK"
    },
    {
      "icao": "EDFH",
      "alert": "OK",
      "vis_m": 300,
      "fzfg": true,
      "metar_trigger": false,
      "taf_trigger": false,
      "metar": "METAR EDFH 051750Z 14017KT 0300 R21/0350N FZFG VV/// 00/M00 Q0989",
      "taf": "TAF EDFH 051700Z 0518/0618 14013KT 0200 FZFG VV000"
    },
    {
      "icao": "EDJA",
      "alert": "OK",
      "vis_m": 9999,
      "fzfg": false,
      "metar_trigger": false,
      "taf_trigger": false,
      "metar": "METAR EDJA 051750Z COR 05008KT CAVOK 02/M01 Q0989",
      "taf": "TAF EDJA 051700Z 0518/0603 06006KT CAVOK"
    },
    {
      "icao": "EDLW",
      "alert": "OK",
      "vis_m": 9999,
      "fzfg": false,
      "metar_trigger": false,
      "taf_trigger": false,
      "metar": "METAR EDLW 051750Z 10005KT CAVOK 05/02 Q0990",
      "taf": "TAF EDLW 051700Z 0518/0618 09007KT CAVOK"
    },
    {
      "icao": "EDNY",
      "alert": "OK",
      "vis_m": 7000,
      "fzfg": false,
      "metar_trigger": false,
      "taf_trigger": false,
      "metar": "METAR EDNY 051750Z 07002KT 7000 NSC 01/00 Q0989",
      "taf": "TAF EDNY 051700Z 0518/0603 VRB03KT CAVOK"
    },
    {
      "icao": "EDSB",
      "alert": "OK",
      "vis_m": 9000,
      "fzfg": false,
      "metar_trigger": false,
      "taf_trigger": false,
      "metar": "METAR EDSB 051750Z 02009KT 9000 NSC 03/02 Q0988",
      "taf": "TAF EDSB 051700Z 0518/0618 02004KT CAVOK"
    },
    {
      "icao": "EETN",
      "alert": "OK",
      "vis_m": 9999,
      "fzfg": false,
      "metar_trigger": false,
      "taf_trigger": false,
      "metar": "METAR EETN 051750Z 08009KT CAVOK M16/M17 Q1017 NOSIG",
      "taf": "TAF EETN 051730Z 0518/0618 08010KT CAVOK"
    },
    {
      "icao": "EFTU",
      "alert": "OK",
      "vis_m": 9999,
      "fzfg": false,
      "metar_trigger": false,
      "taf_trigger": false,
      "metar": "METAR EFTU 051750Z AUTO 08006KT 9999 FEW008 M14/M16 Q1018",
      "taf": "TAF EFTU 051730Z 0518/0618 09005KT 9999 -SN BKN009"
    },
    {
      "icao": "EGBB",
      "alert": "OK",
      "vis_m": 3000,
      "fzfg": false,
      "metar_trigger": false,
      "taf_trigger": false,
      "metar": "METAR EGBB 051750Z 08012KT 3000 BR OVC004 04/04 Q0983",
      "taf": "TAF EGBB 051658Z 0518/0618 09012KT 9999 -RA SCT006 BKN012"
    },
    {
      "icao": "EGGP",
      "alert": "OK",
      "vis_m": 9999,
      "fzfg": false,
      "metar_trigger": false,
      "taf_trigger": false,
      "metar": "METAR EGGP 051750Z 09021KT 9999 -RA BKN022 04/00 Q0984",
      "taf": "TAF EGGP 051703Z 0518/0618 09020G30KT 9999 BKN020"
    },
    {
      "icao": "EGGW",
      "alert": "OK",
      "vis_m": 3500,
      "fzfg": false,
      "metar_trigger": false,
      "taf_trigger": false,
      "metar": "METAR EGGW 051750Z AUTO 10011KT 3500 -DZ OVC002/// //////TCU 06/06 Q0982",
      "taf": "TAF EGGW 051704Z 0518/0618 11010KT 6000 -RA SCT003 BKN006"
    },
    {
      "icao": "EGKK",
      "alert": "OK",
      "vis_m": 9999,
      "fzfg": false,
      "metar_trigger": false,
      "taf_trigger": false,
      "metar": "METAR EGKK 051750Z 09006KT 9999 -RA FEW010 SCT048 09/09 Q0981",
      "taf": "TAF EGKK 051703Z 0518/0624 09010KT 9999 SCT007 BKN020"
    },
    {
      "icao": "EGNM",
      "alert": "OK",
      "vis_m": 1700,
      "fzfg": false,
      "metar_trigger": false,
      "taf_trigger": false,
      "metar": "METAR EGNM 051750Z 08014KT 1700 -SN BR OVC003 01/01 Q0987",
      "taf": "TAF EGNM 051703Z 0518/0618 08015KT 9999 SCT004 BKN006"
    },
    {
      "icao": "EGPD",
      "alert": "OK",
      "vis_m": 5000,
      "fzfg": false,
      "metar_trigger": false,
      "taf_trigger": false,
      "metar": "METAR EGPD 051750Z COR AUTO 10016G26KT 5000 -RA BKN010 OVC040 03/01 Q0998 NOSIG",
      "taf": "TAF EGPD 051656Z 0518/0618 09015KT 9999 BKN016"
    },
    {
      "icao": "EGPF",
      "alert": "OK",
      "vis_m": 9999,
      "fzfg": false,
      "metar_trigger": false,
      "taf_trigger": false,
      "metar": "METAR EGPF 051750Z AUTO 07024KT 9999 BKN020 04/00 Q0991",
      "taf": "TAF EGPF 051658Z 0518/0618 08018G30KT 9999 SCT020"
    },
    {
      "icao": "EHBK",
      "alert": "OK",
      "vis_m": 9999,
      "fzfg": false,
      "metar_trigger": false,
      "taf_trigger": false,
      "metar": "METAR EHBK 051755Z AUTO 09007KT 9999 FEW015CB BKN042 06/05 Q0988 REDZ NOSIG",
      "taf": "TAF EHBK 051720Z 0518/0624 10008KT 9999 OVC040"
    },
    {
      "icao": "EHEH",
      "alert": "OK",
      "vis_m": null,
      "fzfg": false,
      "metar_trigger": false,
      "taf_trigger": false,
      "metar": "",
      "taf": "TAF EHEH 051134Z 0512/0618 10008KT CAVOK"
    },
    {
      "icao": "EKBI",
      "alert": "OK",
      "vis_m": 2600,
      "fzfg": false,
      "metar_trigger": false,
      "taf_trigger": false,
      "metar": "METAR EKBI 051749Z 07020KT 040V100 2600 -SN BLSN BKN009 M02/M03 Q0999",
      "taf": "TAF EKBI 051727Z 0518/0618 07016KT 1500 -SN BLSN BKN005"
    },
    {
      "icao": "EKCH",
      "alert": "OK",
      "vis_m": 2500,
      "fzfg": false,
      "metar_trigger": false,
      "taf_trigger": false,
      "metar": "METAR EKCH 051750Z 07018KT 2500 -SN DRSN BKN010 M01/M03 Q1001 TEMPO 07018G28KT 1200 SN BKN007",
      "taf": ""
    },
    {
      "icao": "ENAL",
      "alert": "OK",
      "vis_m": 9999,
      "fzfg": false,
      "metar_trigger": false,
      "taf_trigger": false,
      "metar": "METAR ENAL 051750Z 07010KT CAVOK M03/M11 Q1009",
      "taf": "TAF ENAL 051700Z 0518/0603 07008KT CAVOK"
    },
    {
      "icao": "ENBR",
      "alert": "OK",
      "vis_m": 9999,
      "fzfg": false,
      "metar_trigger": false,
      "taf_trigger": false,
      "metar": "METAR ENBR 051750Z 06002KT CAVOK M04/M11 Q1007 NOSIG RMK WIND 1200FT 11007KT",
      "taf": "TAF ENBR 051700Z 0518/0618 04005KT CAVOK"
    },
    {
      "icao": "ENGM",
      "alert": "OK",
      "vis_m": 9999,
      "fzfg": false,
      "metar_trigger": false,
      "taf_trigger": false,
      "metar": "METAR ENGM 051750Z 01008KT 9999 -SN BKN021 M10/M14 Q1014 NOSIG",
      "taf": "TAF ENGM 051700Z 0518/0618 02010KT 9999 -SN BKN020"
    },
    {
      "icao": "ENHD",
      "alert": "OK",
      "vis_m": 9999,
      "fzfg": false,
      "metar_trigger": false,
      "taf_trigger": false,
      "metar": "METAR ENHD 051750Z 07013KT CAVOK M00/M13 Q1006",
      "taf": "TAF ENHD 051400Z 0515/0523 06008KT CAVOK"
    },
    {
      "icao": "ENTC",
      "alert": "OK",
      "vis_m": 6000,
      "fzfg": false,
      "metar_trigger": false,
      "taf_trigger": false,
      "metar": "METAR ENTC 051750Z 25003KT 6000 -SHRASN SCT004 BKN010 M00/M01 Q1014 TEMPO 2000 SHSNRA BKN005 RMK WIND 2600FT 30017KT",
      "taf": "TAF ENTC 051700Z 0518/0618 25005KT 9999 FEW005 BKN025"
    },
    {
      "icao": "ENTO",
      "alert": "OK",
      "vis_m": 9999,
      "fzfg": false,
      "metar_trigger": false,
      "taf_trigger": false,
      "metar": "METAR ENTO 051750Z 02013KT 9999 -SN OVC021 M08/M12 Q1013 NOSIG",
      "taf": "TAF ENTO 051700Z 0518/0618 03012KT 8000 -SN BKN025"
    },
    {
      "icao": "ENVA",
      "alert": "OK",
      "vis_m": 9999,
      "fzfg": false,
      "metar_trigger": false,
      "taf_trigger": false,
      "metar": "METAR ENVA 051750Z 10006KT CAVOK M11/M18 Q1013 NOSIG RMK WIND 670FT 10007KT",
      "taf": "TAF ENVA 051700Z 0518/0618 11008KT CAVOK"
    },
    {
      "icao": "ENZV",
      "alert": "OK",
      "vis_m": 9999,
      "fzfg": false,
      "metar_trigger": false,
      "taf_trigger": false,
      "metar": "METAR ENZV 051750Z 03004KT CAVOK M02/M13 Q1006 NOSIG",
      "taf": "TAF ENZV 051700Z 0518/0618 08008KT CAVOK"
    },
    {
      "icao": "EPGD",
      "alert": "OK",
      "vis_m": 3000,
      "fzfg": false,
      "metar_trigger": false,
      "taf_trigger": false,
      "metar": "METAR EPGD 051730Z 09008KT 3000 -FZRA BR OVC003 M05/M05 Q1002 REFZDZ",
      "taf": "TAF EPGD 051730Z 0518/0618 10010KT 4000 -FZRA BR BKN005"
    },
    {
      "icao": "EPKK",
      "alert": "OK",
      "vis_m": 5000,
      "fzfg": false,
      "metar_trigger": false,
      "taf_trigger": false,
      "metar": "METAR EPKK 051730Z 06007KT 5000 BR BKN006 01/00 Q0997",
      "taf": "TAF EPKK 051730Z 0518/0618 06008KT 4000 BR OVC007"
    },
    {
      "icao": "EPKT",
      "alert": "OK",
      "vis_m": 4700,
      "fzfg": false,
      "metar_trigger": false,
      "taf_trigger": false,
      "metar": "METAR EPKT 051730Z 07006KT 4700 BR BKN006 01/00 Q0997",
      "taf": "TAF EPKT 051730Z 0518/0618 09006KT 4000 BR OVC007"
    },
    {
      "icao": "EPLB",
      "alert": "OK",
      "vis_m": 2000,
      "fzfg": false,
      "metar_trigger": false,
      "taf_trigger": false,
      "metar": "METAR EPLB 051730Z 10013KT 2000 -FZDZ BR OVC002 M01/M01 Q1002",
      "taf": "TAF EPLB 051730Z 0518/0618 11011KT 2500 BR OVC002"
    },
    {
      "icao": "EPMO",
      "alert": "OK",
      "vis_m": 5000,
      "fzfg": false,
      "metar_trigger": false,
      "taf_trigger": false,
      "metar": "METAR EPMO 051730Z 09011KT 5000 BR OVC005 M01/M01 Q1001",
      "taf": "TAF EPMO 051730Z 0518/0618 09012KT 5000 BR OVC005"
    },
    {
      "icao": "EPPO",
      "alert": "OK",
      "vis_m": 3000,
      "fzfg": false,
      "metar_trigger": false,
      "taf_trigger": false,
      "metar": "METAR EPPO 051730Z 09009KT 3000 BR OVC004 M02/M03 Q0998",
      "taf": "TAF EPPO 051730Z 0518/0618 09008KT 3000 BR OVC005"
    },
    {
      "icao": "EPRA",
      "alert": "OK",
      "vis_m": 1800,
      "fzfg": false,
      "metar_trigger": false,
      "taf_trigger": false,
      "metar": "METAR EPRA 051730Z 10011KT 1800 BR OVC002 00/M00 Q1000",
      "taf": "TAF EPRA 051730Z 0518/0603 11010KT 1500 BR OVC003"
    },
    {
      "icao": "EPRZ",
      "alert": "OK",
      "vis_m": 6000,
      "fzfg": false,
      "metar_trigger": false,
      "taf_trigger": false,
      "metar": "METAR EPRZ 051730Z 09015KT 6000 OVC002 01/01 Q0999",
      "taf": "TAF EPRZ 051730Z 0518/0618 09012KT 6000 OVC003"
    },
    {
      "icao": "EPSC",
      "alert": "OK",
      "vis_m": 7000,
      "fzfg": false,
      "metar_trigger": false,
      "taf_trigger": false,
      "metar": "METAR EPSC 051730Z 08007KT 7000 OVC006 M03/M04 Q0998 REFZRA",
      "taf": "TAF EPSC 051730Z 0518/0618 08008KT 8000 OVC010"
    },
    {
      "icao": "EPSY",
      "alert": "OK",
      "vis_m": 9999,
      "fzfg": false,
      "metar_trigger": false,
      "taf_trigger": false,
      "metar": "METAR EPSY 051730Z 08006KT 030V130 9999 OVC011 M03/M05 Q1003",
      "taf": "TAF EPSY 051730Z 0518/0603 10008KT 8000 OVC010"
    },
    {
      "icao": "EPWA",
      "alert": "OK",
      "vis_m": 8000,
      "fzfg": false,
      "metar_trigger": false,
      "taf_trigger": false,
      "metar": "METAR EPWA 051730Z 10013KT 8000 OVC003 M00/M01 Q1001 TEMPO -FZDZ",
      "taf": "TAF EPWA 051730Z 0518/0618 10011KT 6000 OVC003"
    },
    {
      "icao": "EPWR",
      "alert": "OK",
      "vis_m": 2000,
      "fzfg": false,
      "metar_trigger": false,
      "taf_trigger": false,
      "metar": "METAR EPWR 051730Z 11004KT 080V150 2000 BR OVC003 01/01 Q0997",
      "taf": "TAF EPWR 051730Z 0518/0618 10006KT 2000 BR OVC002"
    },
    {
      "icao": "ESGG",
      "alert": "OK",
      "vis_m": 9999,
      "fzfg": false,
      "metar_trigger": false,
      "taf_trigger": false,
      "metar": "METAR ESGG 051750Z 05014KT 9999 SCT023 BKN066 M04/M08 Q1006",
      "taf": "TAF ESGG 051730Z 0518/0618 07014G24KT 9999 SCT040"
    },
    {
      "icao": "ESKN",
      "alert": "OK",
      "vis_m": 9999,
      "fzfg": false,
      "metar_trigger": false,
      "taf_trigger": false,
      "metar": "METAR ESKN 051750Z AUTO 03009KT 350V060 9999 OVC018/// M05/M07 Q1012",
      "taf": "TAF ESKN 051730Z 0518/0618 04008KT 9999 OVC020"
    },
    {
      "icao": "ESMS",
      "alert": "OK",
      "vis_m": 1500,
      "fzfg": false,
      "metar_trigger": false,
      "taf_trigger": false,
      "metar": "METAR ESMS 051750Z 09022KT 1500 -SN VV012 M01/M02 Q1000",
      "taf": "TAF ESMS 051740Z 0518/0618 08018G33KT 1200 SN DRSN BKN004"
    },
    {
      "icao": "ESSA",
      "alert": "OK",
      "vis_m": 9999,
      "fzfg": false,
      "metar_trigger": false,
      "taf_trigger": false,
      "metar": "METAR ESSA 051750Z 05011KT 9999 -SN BKN012 M06/M09 Q1015 NOSIG",
      "taf": "TAF ESSA 051730Z 0518/0618 05010KT 9999 BKN018"
    },
    {
      "icao": "EYKA",
      "alert": "OK",
      "vis_m": 9999,
      "fzfg": false,
      "metar_trigger": false,
      "taf_trigger": false,
      "metar": "METAR EYKA 051750Z 10008KT 9999 OVC034 M06/M08 Q1008",
      "taf": "TAF EYKA 051711Z 0518/0618 09009KT 8000 SCT010 OVC020"
    },
    {
      "icao": "EYPA",
      "alert": "OK",
      "vis_m": 9999,
      "fzfg": false,
      "metar_trigger": false,
      "taf_trigger": false,
      "metar": "METAR EYPA 051750Z 09008KT 9999 -SN BKN017 OVC043 M08/M11 Q1008",
      "taf": "TAF EYPA 051711Z 0518/0618 10010KT 8000 OVC020"
    },
    {
      "icao": "EYVI",
      "alert": "OK",
      "vis_m": 9999,
      "fzfg": false,
      "metar_trigger": false,
      "taf_trigger": false,
      "metar": "METAR EYVI 051750Z 11009KT 9999 FEW012 BKN040 M06/M08 Q1009 NOSIG",
      "taf": "TAF EYVI 051711Z 0518/0618 12010KT 8000 SCT010 OVC015"
    },
    {
      "icao": "GCFV",
      "alert": "OK",
      "vis_m": 9999,
      "fzfg": false,
      "metar_trigger": false,
      "taf_trigger": false,
      "metar": "METAR GCFV 051730Z COR VRB04G14KT 9999 FEW030 22/14 Q1015",
      "taf": "TAF GCFV 051400Z 0515/0615 17007KT 9999 FEW025 TX21/0614Z TN16/0606Z"
    },
    {
      "icao": "GCLP",
      "alert": "OK",
      "vis_m": 9999,
      "fzfg": false,
      "metar_trigger": false,
      "taf_trigger": false,
      "metar": "METAR GCLP 051730Z 09005KT 9999 FEW025 22/15 Q1015 NOSIG",
      "taf": "TAF GCLP 051400Z 0515/0615 18008KT 9999 SCT025 TX21/0614Z TN16/0606Z"
    },
    {
      "icao": "GCTS",
      "alert": "OK",
      "vis_m": 9999,
      "fzfg": false,
      "metar_trigger": false,
      "taf_trigger": false,
      "metar": "METAR GCTS 051730Z 14005KT 110V170 9999 SCT035 21/14 Q1014 NOSIG",
      "taf": "TAF GCTS 051400Z 0515/0615 VRB05KT 9999 SCT025 TX24/0614Z TN16/0606Z"
    },
    {
      "icao": "GMAD",
      "alert": "OK",
      "vis_m": 9999,
      "fzfg": false,
      "metar_trigger": false,
      "taf_trigger": false,
      "metar": "METAR GMAD 051730Z 25009KT 9999 FEW023 SCT033 17/16 Q1014 NOSIG",
      "taf": "TAF GMAD 051700Z 0518/0624 22006KT 8000 BKN016"
    },
    {
      "icao": "GMMN",
      "alert": "OK",
      "vis_m": 9999,
      "fzfg": false,
      "metar_trigger": false,
      "taf_trigger": false,
      "metar": "METAR GMMN 051730Z 24019KT 9999 SCT010 BKN020 17/14 Q1011 TEMPO 23025G35KT",
      "taf": "TAF GMMN 051700Z 0518/0624 23018KT 9999 SCT008 BKN020"
    },
    {
      "icao": "GMMX",
      "alert": "OK",
      "vis_m": 9999,
      "fzfg": false,
      "metar_trigger": false,
      "taf_trigger": false,
      "metar": "METAR GMMX 051730Z 29010KT 9999 SCT026 BKN080 19/13 Q1012 NOSIG",
      "taf": "TAF GMMX 051700Z 0518/0624 22006KT 8000 SCT026 SCT080"
    },
    {
      "icao": "HEGN",
      "alert": "OK",
      "vis_m": 9999,
      "fzfg": false,
      "metar_trigger": false,
      "taf_trigger": false,
      "metar": "METAR HEGN 051700Z 00000KT CAVOK 21/11 Q1013 NOSIG",
      "taf": "TAF HEGN 051700Z 0518/0624 30007KT CAVOK"
    },
    {
      "icao": "HEMA",
      "alert": "OK",
      "vis_m": 9999,
      "fzfg": false,
      "metar_trigger": false,
      "taf_trigger": false,
      "metar": "METAR HEMA 051700Z 05004KT CAVOK 21/11 Q1012 NOSIG",
      "taf": "TAF HEMA 051700Z 0518/0624 28009KT CAVOK"
    },
    {
      "icao": "HESH",
      "alert": "OK",
      "vis_m": 9999,
      "fzfg": false,
      "metar_trigger": false,
      "taf_trigger": false,
      "metar": "METAR HESH 051700Z 17004KT CAVOK 23/11 Q1012 NOSIG",
      "taf": "TAF HESH 051700Z 0518/0624 28007KT CAVOK"
    },
    {
      "icao": "HESX",
      "alert": "OK",
      "vis_m": 9999,
      "fzfg": false,
      "metar_trigger": false,
      "taf_trigger": false,
      "metar": "METAR HESX 051700Z 20006KT CAVOK 18/01 Q1012 NOSIG",
      "taf": "TAF HESX 051100Z 0512/0618 20010KT 9999 SCT020"
    },
    {
      "icao": "LATI",
      "alert": "OK",
      "vis_m": 9999,
      "fzfg": false,
      "metar_trigger": false,
      "taf_trigger": false,
      "metar": "METAR LATI 051750Z 00000KT 9999 BKN070 12/06 Q0999 NOSIG",
      "taf": "TAF LATI 051700Z 0518/0618 14006KT 9999 SCT050 BKN080 TX16/0615Z TN08/0605Z"
    },
    {
      "icao": "LBPD",
      "alert": "OK",
      "vis_m": 9999,
      "fzfg": false,
      "metar_trigger": false,
      "taf_trigger": false,
      "metar": "METAR LBPD 051730Z AUTO 30006KT 9999 -RA BKN030/// OVC059/// 04/04 Q1000 NOSIG",
      "taf": "TAF LBPD 051700Z 0518/0618 VRB04KT 9999 BKN015 OVC025"
    },
    {
      "icao": "LBSF",
      "alert": "OK",
      "vis_m": 9999,
      "fzfg": false,
      "metar_trigger": false,
      "taf_trigger": false,
      "metar": "METAR LBSF 051730Z AUTO 00000KT 9999 FEW033/// BKN062/// OVC076/// 05/03 Q0999 NOSIG",
      "taf": "TAF LBSF 051700Z 0518/0618 10010KT 9999 BKN020 OVC040"
    },
    {
      "icao": "LBWN",
      "alert": "OK",
      "vis_m": 9999,
      "fzfg": false,
      "metar_trigger": false,
      "taf_trigger": false,
      "metar": "METAR LBWN 051730Z AUTO 11014KT 9999 -RA BKN037/// OVC046/// 09/09 Q1002 NOSIG",
      "taf": "TAF LBWN 051700Z 0518/0618 10010KT 6000 RA BKN020 OVC040"
    },
    {
      "icao": "LCLK",
      "alert": "OK",
      "vis_m": 9999,
      "fzfg": false,
      "metar_trigger": false,
      "taf_trigger": false,
      "metar": "METAR LCLK 051730Z 36003KT 330V060 9999 FEW020 15/11 Q1013 NOSIG",
      "taf": "TAF LCLK 051730Z 0518/0618 35006KT 9999 FEW025"
    },
    {
      "icao": "LCPH",
      "alert": "OK",
      "vis_m": 9999,
      "fzfg": false,
      "metar_trigger": false,
      "taf_trigger": false,
      "metar": "METAR LCPH 051730Z 15012KT 090V160 9999 FEW040 16/10 Q1012 NOSIG",
      "taf": "TAF LCPH 051730Z 0518/0618 12015KT 9999 FEW020"
    },
    {
      "icao": "LEAL",
      "alert": "OK",
      "vis_m": 9999,
      "fzfg": false,
      "metar_trigger": false,
      "taf_trigger": false,
      "metar": "METAR LEAL 051730Z 24011KT 220V280 9999 SCT030 21/07 Q0996 NOSIG",
      "taf": "TAF LEAL 051700Z 0518/0618 25020KT 9999 FEW020 TX18/0615Z TN08/0606Z"
    },
    {
      "icao": "LEBB",
      "alert": "OK",
      "vis_m": 9999,
      "fzfg": false,
      "metar_trigger": false,
      "taf_trigger": false,
      "metar": "METAR LEBB 051730Z 22016G32KT 170V280 9999 FEW050 17/06 Q0984 NOSIG",
      "taf": "TAF LEBB 051700Z 0518/0618 22009KT 9999 FEW040 TX15/0613Z TN11/0608Z"
    },
    {
      "icao": "LEBL",
      "alert": "OK",
      "vis_m": 9000,
      "fzfg": false,
      "metar_trigger": false,
      "taf_trigger": false,
      "metar": "METAR LEBL 051730Z 25009KT 9000 FEW020 SCT050 14/12 Q0988 TEMPO 4000 SHRA FEW045TCU",
      "taf": ""
    },
    {
      "icao": "LECH",
      "alert": "OK",
      "vis_m": 9999,
      "fzfg": false,
      "metar_trigger": false,
      "taf_trigger": false,
      "metar": "METAR LECH 051730Z AUTO 25017KT CAVOK 14/05 Q0992",
      "taf": ""
    },
    {
      "icao": "LEMD",
      "alert": "OK",
      "vis_m": 9999,
      "fzfg": false,
      "metar_trigger": false,
      "taf_trigger": false,
      "metar": "METAR LEMD 051730Z 24019G33KT 9999 FEW035 SCT055 10/06 Q0994 NOSIG",
      "taf": "TAF LEMD 051700Z 0518/0624 23015KT 9999 SCT020 TX10/0615Z TN06/0607Z"
    },
    {
      "icao": "LEMG",
      "alert": "OK",
      "vis_m": 9999,
      "fzfg": false,
      "metar_trigger": false,
      "taf_trigger": false,
      "metar": "METAR LEMG 051730Z 28011G22KT 250V310 9999 FEW060 17/07 Q1003 NOSIG",
      "taf": "TAF LEMG 051700Z 0518/0618 29010KT 9999 FEW030 TX18/0614Z TN13/0607Z"
    },
    {
      "icao": "LEVC",
      "alert": "OK",
      "vis_m": 9999,
      "fzfg": false,
      "metar_trigger": false,
      "taf_trigger": false,
      "metar": "METAR LEVC 051730Z 28014KT 9999 FEW031 17/09 Q0994 NOSIG",
      "taf": "TAF LEVC 051700Z 0518/0618 27015KT 9999 FEW035 TX20/0614Z TN11/0606Z"
    },
    {
      "icao": "LEXJ",
      "alert": "OK",
      "vis_m": 9999,
      "fzfg": false,
      "metar_trigger": false,
      "taf_trigger": false,
      "metar": "SPECI LEXJ 051745Z 22004KT 190V250 9999 FEW040TCU BKN075 12/10 Q0986 RESHRA",
      "taf": ""
    },
    {
      "icao": "LEZG",
      "alert": "OK",
      "vis_m": 9999,
      "fzfg": false,
      "metar_trigger": false,
      "taf_trigger": false,
      "metar": "METAR LEZG 051730Z 29015KT 250V310 9999 SCT065 15/06 Q0990 NOSIG",
      "taf": "TAF LEZG 051700Z 0518/0618 25009KT 9999 FEW040 TX16/0615Z TN08/0606Z"
    },
    {
      "icao": "LEZL",
      "alert": "OK",
      "vis_m": 9999,
      "fzfg": false,
      "metar_trigger": false,
      "taf_trigger": false,
      "metar": "METAR LEZL 051730Z 24017G27KT 9999 FEW025 17/13 Q1002 NOSIG",
      "taf": "TAF LEZL 051400Z 0515/0615 23018KT 9999 FEW030 TX20/0515Z TN12/0607Z"
    },
    {
      "icao": "LFBD",
      "alert": "OK",
      "vis_m": 9999,
      "fzfg": false,
      "metar_trigger": false,
      "taf_trigger": false,
      "metar": "METAR LFBD 051730Z AUTO 18007KT CAVOK 10/09 Q0984 TEMPO 24015G25KT 3000 SHRA BKN035CB",
      "taf": "TAF LFBD 051700Z 0518/0624 22008KT 9999 BKN040 TX15/0614Z TN08/0624Z"
    },
    {
      "icao": "LFLL",
      "alert": "OK",
      "vis_m": 7000,
      "fzfg": false,
      "metar_trigger": false,
      "taf_trigger": false,
      "metar": "METAR LFLL 051730Z 12004KT 080V170 7000 RA OVC046 09/07 Q0986 TEMPO 4000 RA BKN014",
      "taf": "TAF LFLL 051700Z 0518/0624 18008KT 9999 RA BKN040"
    },
    {
      "icao": "LFLS",
      "alert": "OK",
      "vis_m": 8000,
      "fzfg": false,
      "metar_trigger": false,
      "taf_trigger": false,
      "metar": "METAR LFLS 051730Z AUTO 34005KT 310V010 8000 RA OVC043/// ///TCU 08/07 Q0986 TEMPO 4500 RA BECMG OVC050",
      "taf": "TAF LFLS 051400Z 0515/0615 24007KT CAVOK"
    },
    {
      "icao": "LFMN",
      "alert": "OK",
      "vis_m": 7000,
      "fzfg": false,
      "metar_trigger": false,
      "taf_trigger": false,
      "metar": "METAR LFMN 051730Z 03013KT 7000 -RA FEW010 SCT027 BKN040 11/09 Q0991 TEMPO TSRA",
      "taf": "TAF LFMN 051400Z 0515/0621 24008KT CAVOK"
    },
    {
      "icao": "LFOB",
      "alert": "OK",
      "vis_m": 9999,
      "fzfg": false,
      "metar_trigger": false,
      "taf_trigger": false,
      "metar": "METAR LFOB 051730Z AUTO 13005KT 9999 FEW046 BKN100 08/08 Q0983 BECMG FEW009 SCT050TCU OVC060",
      "taf": "TAF LFOB 051700Z 0518/0618 12010KT 9999 BKN045"
    },
    {
      "icao": "LFPO",
      "alert": "OK",
      "vis_m": 9999,
      "fzfg": false,
      "metar_trigger": false,
      "taf_trigger": false,
      "metar": "METAR LFPO 051730Z 09008KT 9999 -RA NSC 10/08 Q0983 TEMPO SCT045TCU",
      "taf": "TAF LFPO 051700Z 0518/0624 10005KT 9999 SCT040 BKN060"
    },
    {
      "icao": "LFSB",
      "alert": "OK",
      "vis_m": 9999,
      "fzfg": false,
      "metar_trigger": false,
      "taf_trigger": false,
      "metar": "METAR LFSB 051730Z AUTO 03004KT 360V070 CAVOK 05/01 Q0988 NOSIG",
      "taf": "TAF LFSB 051700Z 0518/0618 35004KT CAVOK"
    },
    {
      "icao": "LGAV",
      "alert": "OK",
      "vis_m": 9999,
      "fzfg": false,
      "metar_trigger": false,
      "taf_trigger": false,
      "metar": "METAR LGAV 051750Z 25006KT 9999 SCT025 13/10 Q1001 NOSIG",
      "taf": "TAF LGAV 051700Z 0518/0618 23012KT 9999 FEW020 SCT030"
    },
    {
      "icao": "LGTS",
      "alert": "OK",
      "vis_m": 9999,
      "fzfg": false,
      "metar_trigger": false,
      "taf_trigger": false,
      "metar": "METAR LGTS 051750Z 11005KT 9999 SCT025 11/08 Q0999 NOSIG",
      "taf": "TAF LGTS 051700Z 0518/0618 VRB03KT 9999 FEW010 SCT025"
    },
    {
      "icao": "LHBP",
      "alert": "OK",
      "vis_m": 9999,
      "fzfg": false,
      "metar_trigger": false,
      "taf_trigger": false,
      "metar": "METAR LHBP 051730Z 08003KT 9999 FEW022 BKN033 07/05 Q0997 NOSIG",
      "taf": "TAF LHBP 051715Z 0518/0618 08006KT 9999 BKN025"
    },
    {
      "icao": "LHDC",
      "alert": "OK",
      "vis_m": 9999,
      "fzfg": false,
      "metar_trigger": false,
      "taf_trigger": false,
      "metar": "METAR LHDC 051715Z AUTO VRB03KT CAVOK 09/06 Q0997 NOSIG",
      "taf": "TAF LHDC 051415Z 0515/0524 07005KT CAVOK"
    },
    {
      "icao": "LIBD",
      "alert": "OK",
      "vis_m": 9999,
      "fzfg": false,
      "metar_trigger": false,
      "taf_trigger": false,
      "metar": "METAR LIBD 051750Z 22004KT 180V240 CAVOK 09/08 Q0999",
      "taf": "TAF LIBD 051700Z 0518/0618 VRB05KT CAVOK"
    },
    {
      "icao": "LIBG",
      "alert": "OK",
      "vis_m": 9999,
      "fzfg": false,
      "metar_trigger": false,
      "taf_trigger": false,
      "metar": "METAR LIBG 051650Z 25003KT 9999 FEW040 12/09 Q0998",
      "taf": "TAF LIBG 051700Z 0518/0603 VRB05KT 9999 SCT030"
    },
    {
      "icao": "LIBP",
      "alert": "OK",
      "vis_m": 9999,
      "fzfg": false,
      "metar_trigger": false,
      "taf_trigger": false,
      "metar": "METAR LIBP 051750Z AUTO VRB03KT 9999 NCD 12/10 Q0997",
      "taf": "TAF LIBP 051700Z 0518/0618 VRB05KT 9999 BKN030"
    },
    {
      "icao": "LIBR",
      "alert": "OK",
      "vis_m": 9999,
      "fzfg": false,
      "metar_trigger": false,
      "taf_trigger": false,
      "metar": "METAR LIBR 051750Z 26007KT CAVOK 12/08 Q0999",
      "taf": "TAF LIBR 051700Z 0518/0618 20014KT CAVOK"
    },
    {
      "icao": "LICA",
      "alert": "OK",
      "vis_m": 9999,
      "fzfg": false,
      "metar_trigger": false,
      "taf_trigger": false,
      "metar": "METAR LICA 051750Z AUTO 26007KT 9999 -RA OVC026/// 13/11 Q1002",
      "taf": "TAF LICA 051700Z 0518/0618 27010KT 9999 SCT040"
    },
    {
      "icao": "LICC",
      "alert": "OK",
      "vis_m": 9999,
      "fzfg": false,
      "metar_trigger": false,
      "taf_trigger": false,
      "metar": "METAR LICC 051750Z 26010KT 9999 FEW030 15/12 Q1002",
      "taf": "TAF LICC 051700Z 0518/0618 25010KT 9999 FEW030"
    },
    {
      "icao": "LICJ",
      "alert": "OK",
      "vis_m": 9999,
      "fzfg": false,
      "metar_trigger": false,
      "taf_trigger": false,
      "metar": "METAR LICJ 051750Z 21013KT 9999 FEW020 16/11 Q1001",
      "taf": "TAF LICJ 051700Z 0518/0618 22013KT 9999 FEW030"
    },
    {
      "icao": "LIMC",
      "alert": "OK",
      "vis_m": 9999,
      "fzfg": false,
      "metar_trigger": false,
      "taf_trigger": false,
      "metar": "METAR LIMC 051750Z 02006KT CAVOK 05/04 Q0993 NOSIG",
      "taf": "TAF LIMC 051700Z 0518/0624 VRB05KT 8000 OVC040"
    },
    {
      "icao": "LIME",
      "alert": "OK",
      "vis_m": 9999,
      "fzfg": false,
      "metar_trigger": false,
      "taf_trigger": false,
      "metar": "METAR LIME 051750Z 02004KT 9999 FEW050 07/05 Q0993 NOSIG",
      "taf": "TAF LIME 051700Z 0518/0618 VRB06KT 7000 BKN045"
    },
    {
      "icao": "LIMF",
      "alert": "OK",
      "vis_m": 9999,
      "fzfg": false,
      "metar_trigger": false,
      "taf_trigger": false,
      "metar": "METAR LIMF 051750Z 36004KT 9999 SCT033 OVC140 08/05 Q0993",
      "taf": "TAF LIMF 051700Z 0518/0618 VRB05KT 7000 BKN040"
    },
    {
      "icao": "LIMJ",
      "alert": "OK",
      "vis_m": 9999,
      "fzfg": false,
      "metar_trigger": false,
      "taf_trigger": false,
      "metar": "METAR LIMJ 051750Z 17010KT 9999 SCT015 BKN040 13/10 Q0993",
      "taf": "TAF LIMJ 051700Z 0518/0618 15022KT 7000 OVC014"
    },
    {
      "icao": "LIPE",
      "alert": "OK",
      "vis_m": 9999,
      "fzfg": false,
      "metar_trigger": false,
      "taf_trigger": false,
      "metar": "METAR LIPE 051750Z 10004KT CAVOK 08/06 Q0994",
      "taf": "TAF LIPE 051700Z 0518/0618 27008KT CAVOK"
    },
    {
      "icao": "LIPH",
      "alert": "OK",
      "vis_m": 9999,
      "fzfg": false,
      "metar_trigger": false,
      "taf_trigger": false,
      "metar": "METAR LIPH 051750Z 07006KT 9999 BKN024 09/08 Q0995",
      "taf": "TAF LIPH 051700Z 0518/0618 04009KT 8000 BKN040"
    },
    {
      "icao": "LIPQ",
      "alert": "OK",
      "vis_m": 9999,
      "fzfg": false,
      "metar_trigger": false,
      "taf_trigger": false,
      "metar": "METAR LIPQ 051750Z AUTO 12002KT 9999 BKN040/// 06/05 Q0996",
      "taf": "TAF LIPQ 051700Z 0518/0618 VRB05KT 9999 BKN040"
    },
    {
      "icao": "LIPR",
      "alert": "OK",
      "vis_m": 9999,
      "fzfg": false,
      "metar_trigger": false,
      "taf_trigger": false,
      "metar": "METAR LIPR 051750Z VRB01KT 9999 FEW060 07/07 Q0995",
      "taf": "TAF LIPR 051700Z 0518/0618 15010KT 9999 BKN040"
    },
    {
      "icao": "LIPX",
      "alert": "OK",
      "vis_m": 9999,
      "fzfg": false,
      "metar_trigger": false,
      "taf_trigger": false,
      "metar": "METAR LIPX 051750Z 11003KT CAVOK 07/05 Q0994",
      "taf": "TAF LIPX 051700Z 0518/0618 VRB05KT 6000 SCT030 BKN050"
    },
    {
      "icao": "LIPY",
      "alert": "OK",
      "vis_m": 9999,
      "fzfg": false,
      "metar_trigger": false,
      "taf_trigger": false,
      "metar": "METAR LIPY 051750Z AUTO VRB01KT 9999 NCD 09/07 Q0996",
      "taf": "TAF LIPY 051700Z 0518/0618 VRB05KT 9999 BKN020"
    },
    {
      "icao": "LIPZ",
      "alert": "OK",
      "vis_m": 9999,
      "fzfg": false,
      "metar_trigger": false,
      "taf_trigger": false,
      "metar": "METAR LIPZ 051750Z 09004KT 9999 BKN025 07/06 Q0995 NOSIG",
      "taf": "TAF LIPZ 051700Z 0518/0624 VRB05KT 9999 BKN030"
    },
    {
      "icao": "LIRF",
      "alert": "OK",
      "vis_m": 9999,
      "fzfg": false,
      "metar_trigger": false,
      "taf_trigger": false,
      "metar": "METAR LIRF 051750Z 13006KT 110V170 CAVOK 12/09 Q0998 NOSIG",
      "taf": "TAF LIRF 051700Z 0518/0624 14015KT 9999 BKN040"
    },
    {
      "icao": "LIRN",
      "alert": "OK",
      "vis_m": 9999,
      "fzfg": false,
      "metar_trigger": false,
      "taf_trigger": false,
      "metar": "METAR LIRN 051750Z 18003KT 140V200 9999 FEW045 12/08 Q1000 NOSIG",
      "taf": "TAF LIRN 051700Z 0518/0618 VRB05KT 9999 SCT020"
    },
    {
      "icao": "LIRP",
      "alert": "OK",
      "vis_m": 9999,
      "fzfg": false,
      "metar_trigger": false,
      "taf_trigger": false,
      "metar": "METAR LIRP 051745Z 12005KT 9999 SCT040 BKN060 10/09 Q0995 NOSIG",
      "taf": "TAF LIRP 051700Z 0518/0618 10005KT 9999 SCT025 BKN060"
    },
    {
      "icao": "LIRZ",
      "alert": "OK",
      "vis_m": 9999,
      "fzfg": false,
      "metar_trigger": false,
      "taf_trigger": false,
      "metar": "METAR LIRZ 051750Z AUTO 17003KT 140V200 9999 OVC061/// 10/07 Q0997",
      "taf": "TAF LIRZ 051700Z 0518/0618 VRB05KT 9999 BKN060"
    },
    {
      "icao": "LJLJ",
      "alert": "OK",
      "vis_m": 9999,
      "fzfg": false,
      "metar_trigger": false,
      "taf_trigger": false,
      "metar": "METAR LJLJ 051730Z VRB01KT 9999 FEW002 SCT011 BKN020 04/03 Q0996 NOSIG",
      "taf": "TAF LJLJ 051700Z 0518/0618 VRB02KT 9999 FEW013 BKN035"
    },
    {
      "icao": "LKMT",
      "alert": "OK",
      "vis_m": 1800,
      "fzfg": false,
      "metar_trigger": false,
      "taf_trigger": false,
      "metar": "METAR LKMT 051730Z 31002KT 1800 BR FEW007 OVC047 01/00 Q0996 NOSIG",
      "taf": "TAF LKMT 051700Z 0518/0618 VRB02KT 4000 BR SCT014 OVC030"
    },
    {
      "icao": "LKPR",
      "alert": "OK",
      "vis_m": 6000,
      "fzfg": false,
      "metar_trigger": false,
      "taf_trigger": false,
      "metar": "METAR LKPR 051730Z 06005KT 6000 2800W SCT003 OVC012 03/03 Q0993 NOSIG",
      "taf": "TAF LKPR 051700Z 0518/0624 10006KT 1500 BR BKN003"
    },
    {
      "icao": "LLBG",
      "alert": "OK",
      "vis_m": 9999,
      "fzfg": false,
      "metar_trigger": false,
      "taf_trigger": false,
      "metar": "METAR LLBG 051750Z 34004KT CAVOK 17/11 Q1012 NOSIG",
      "taf": "TAF LLBG 051719Z 0518/0618 VRB04KT CAVOK"
    },
    {
      "icao": "LMML",
      "alert": "OK",
      "vis_m": 9999,
      "fzfg": false,
      "metar_trigger": false,
      "taf_trigger": false,
      "metar": "METAR LMML 051745Z VRB03KT CAVOK 15/12 Q1004 NOSIG",
      "taf": "TAF LMML 051700Z 0518/0618 26012KT 9999 FEW015"
    },
    {
      "icao": "LOWW",
      "alert": "OK",
      "vis_m": 6000,
      "fzfg": false,
      "metar_trigger": false,
      "taf_trigger": false,
      "metar": "METAR LOWW 051750Z 14004KT 6000 FEW012 BKN014 05/04 Q0995 TEMPO 4000 BR",
      "taf": "TAF LOWW 051715Z 0518/0624 16005KT 7000 FEW009 BKN015 TX04/0614Z TN02/0619Z"
    },
    {
      "icao": "LPFR",
      "alert": "OK",
      "vis_m": 7000,
      "fzfg": false,
      "metar_trigger": false,
      "taf_trigger": false,
      "metar": "METAR LPFR 051730Z 25017KT 7000 FEW020 SCT030 16/13 Q1003",
      "taf": "TAF LPFR 051700Z 0518/0618 23017KT 9999 SCT025"
    },
    {
      "icao": "LPMA",
      "alert": "OK",
      "vis_m": 9999,
      "fzfg": false,
      "metar_trigger": false,
      "taf_trigger": false,
      "metar": "METAR LPMA 051730Z 02010KT 340V050 9999 SCT015 FEW016TCU 20/11 Q1010",
      "taf": "TAF LPMA 051700Z 0518/0618 VRB08G18KT 9999 SCT015"
    },
    {
      "icao": "LPPR",
      "alert": "OK",
      "vis_m": 8000,
      "fzfg": false,
      "metar_trigger": false,
      "taf_trigger": false,
      "metar": "METAR LPPR 051730Z 23011KT 190V270 8000 FEW020CB BKN025 14/11 Q0992",
      "taf": "TAF LPPR 051700Z 0518/0618 24012KT 9999 SCT025"
    },
    {
      "icao": "LPPS",
      "alert": "OK",
      "vis_m": 9999,
      "fzfg": false,
      "metar_trigger": false,
      "taf_trigger": false,
      "metar": "METAR LPPS 051730Z 27015G27KT 9999 FEW015 SCT030 18/13 Q1011",
      "taf": "TAF LPPS 051700Z 0518/0624 27015KT 9999 SCT015"
    },
    {
      "icao": "LPPT",
      "alert": "OK",
      "vis_m": 9000,
      "fzfg": false,
      "metar_trigger": false,
      "taf_trigger": false,
      "metar": "METAR LPPT 051730Z 24019G30KT 9000 VCSH BKN020 FEW025CB 15/12 Q0999 WS R20",
      "taf": "TAF LPPT 051700Z 0518/0624 25012KT 9999 SCT025"
    },
    {
      "icao": "LQBK",
      "alert": "OK",
      "vis_m": 7000,
      "fzfg": false,
      "metar_trigger": false,
      "taf_trigger": false,
      "metar": "METAR LQBK 051730Z 00000KT 7000 SCT010 OVC040 07/06 Q0997 NOSIG",
      "taf": "TAF LQBK 051700Z 0518/0618 33005KT 9999 SCT045 TX07/0616Z TN03/0605Z"
    },
    {
      "icao": "LQSA",
      "alert": "OK",
      "vis_m": 9999,
      "fzfg": false,
      "metar_trigger": false,
      "taf_trigger": false,
      "metar": "METAR LQSA 051730Z VRB03KT 9999 BKN050 08/06 Q0997 NOSIG",
      "taf": "TAF LQSA 051700Z 0518/0618 VRB02KT 9999 BKN055 TX10/0613Z TN05/0605Z"
    },
    {
      "icao": "LQTZ",
      "alert": "OK",
      "vis_m": 9999,
      "fzfg": false,
      "metar_trigger": false,
      "taf_trigger": false,
      "metar": "METAR LQTZ 051730Z VRB01KT 9999 BKN066 09/09 Q0996",
      "taf": "TAF LQTZ 051700Z 0518/0618 10005KT 9999 SCT050 TX10/0613Z TN03/0605Z"
    },
    {
      "icao": "LRBC",
      "alert": "OK",
      "vis_m": 9999,
      "fzfg": false,
      "metar_trigger": false,
      "taf_trigger": false,
      "metar": "METAR LRBC 051730Z 15009KT 9999 -RADZ OVC008 05/05 Q1005",
      "taf": "TAF LRBC 051700Z 0518/0603 15008KT 5000 -RA BR OVC010"
    },
    {
      "icao": "LRBS",
      "alert": "OK",
      "vis_m": 9999,
      "fzfg": false,
      "metar_trigger": false,
      "taf_trigger": false,
      "metar": "METAR LRBS 051730Z 09007KT 9999 -RA OVC019 08/07 Q1001 NOSIG",
      "taf": "TAF LRBS 051700Z 0518/0618 08010KT 9999 SCT020 OVC030"
    },
    {
      "icao": "LRBV",
      "alert": "OK",
      "vis_m": 9999,
      "fzfg": false,
      "metar_trigger": false,
      "taf_trigger": false,
      "metar": "METAR LRBV 051730Z 10015KT 9999 SCT045 SCT054 BKN065 07/02 Q0999",
      "taf": "TAF LRBV 051700Z 0518/0603 09012KT 9999 BKN040"
    },
    {
      "icao": "LRCL",
      "alert": "OK",
      "vis_m": 9999,
      "fzfg": false,
      "metar_trigger": false,
      "taf_trigger": false,
      "metar": "METAR LRCL 051730Z 03001KT 9999 -RA OVC039 07/05 Q0999",
      "taf": "TAF LRCL 051700Z 0518/0603 VRB04KT 9999 OVC040"
    },
    {
      "icao": "LRCV",
      "alert": "OK",
      "vis_m": 200,
      "fzfg": false,
      "metar_trigger": false,
      "taf_trigger": false,
      "metar": "METAR LRCV 051730Z 25006KT 0200 R26/0500N FG VV002 02/02 Q1000",
      "taf": "TAF LRCV 051700Z 0518/0603 VRB04KT 0200 FG VV002"
    },
    {
      "icao": "LRIA",
      "alert": "OK",
      "vis_m": 9999,
      "fzfg": false,
      "metar_trigger": false,
      "taf_trigger": false,
      "metar": "METAR LRIA 051730Z 12021KT 9999 OVC004 01/01 Q1006",
      "taf": "TAF LRIA 051700Z 0518/0603 11017KT 5000 -RADZ BR BKN002 OVC005"
    },
    {
      "icao": "LROP",
      "alert": "OK",
      "vis_m": 8000,
      "fzfg": false,
      "metar_trigger": false,
      "taf_trigger": false,
      "metar": "METAR LROP 051730Z 10009KT 8000 OVC017 07/07 Q1001 NOSIG",
      "taf": "TAF LROP 051700Z 0518/0618 08010KT 9999 SCT020 OVC030"
    },
    {
      "icao": "LRSB",
      "alert": "OK",
      "vis_m": 9999,
      "fzfg": false,
      "metar_trigger": false,
      "taf_trigger": false,
      "metar": "METAR LRSB 051730Z 17007KT 9999 -RA SCT046 BKN060 BKN070 09/03 Q0998",
      "taf": "TAF LRSB 051700Z 0518/0618 VRB04KT 9999 BKN070"
    },
    {
      "icao": "LRSM",
      "alert": "OK",
      "vis_m": 9999,
      "fzfg": false,
      "metar_trigger": false,
      "taf_trigger": false,
      "metar": "METAR LRSM 051730Z AUTO VRB02KT 9999 FEW085/// BKN110/// 09/05 Q0998",
      "taf": "TAF LRSM 051400Z 0515/0524 14008KT 9999 SCT045"
    },
    {
      "icao": "LRSV",
      "alert": "OK",
      "vis_m": 200,
      "fzfg": false,
      "metar_trigger": false,
      "taf_trigger": false,
      "metar": "METAR LRSV 051730Z 12009KT 0200 R34/0400N -RA FG VV001 01/01 Q1003",
      "taf": "TAF LRSV 051700Z 0518/0603 12010KT 0200 -RA FG VV001"
    },
    {
      "icao": "LRTM",
      "alert": "OK",
      "vis_m": 9999,
      "fzfg": false,
      "metar_trigger": false,
      "taf_trigger": false,
      "metar": "METAR LRTM 051730Z AUTO 07003KT 9999 SCT041/// BKN049/// 07/04 Q0999",
      "taf": "TAF LRTM 051700Z 0518/0603 10006KT 9999 BKN040"
    },
    {
      "icao": "LRTR",
      "alert": "OK",
      "vis_m": 9999,
      "fzfg": false,
      "metar_trigger": false,
      "taf_trigger": false,
      "metar": "METAR LRTR 051730Z 12006KT CAVOK 08/06 Q0997",
      "taf": "TAF LRTR 051700Z 0518/0618 11006KT CAVOK"
    },
    {
      "icao": "LTAC",
      "alert": "OK",
      "vis_m": 9999,
      "fzfg": false,
      "metar_trigger": false,
      "taf_trigger": false,
      "metar": "METAR LTAC 051750Z VRB03KT 9999 SCT040 BKN100 04/01 Q1010 NOSIG",
      "taf": "TAF LTAC 051640Z 0518/0618 VRB02KT 9999 SCT040 BKN100"
    },
    {
      "icao": "LTFM",
      "alert": "OK",
      "vis_m": 9999,
      "fzfg": false,
      "metar_trigger": false,
      "taf_trigger": false,
      "metar": "METAR LTFM 051750Z 16011KT 9999 SCT035 BKN080 11/07 Q1002 NOSIG",
      "taf": "TAF LTFM 051640Z 0518/0624 14014KT 9999 -RA SCT035 BKN080"
    },
    {
      "icao": "LUKK",
      "alert": "OK",
      "vis_m": 9999,
      "fzfg": false,
      "metar_trigger": false,
      "taf_trigger": false,
      "metar": "METAR LUKK 051730Z 10012KT 9999 -FZRA OVC006 M00/M01 Q1009 NOSIG",
      "taf": "TAF LUKK 051718Z 0518/0618 12010KT 6000 OVC005"
    },
    {
      "icao": "LWOH",
      "alert": "OK",
      "vis_m": 9999,
      "fzfg": false,
      "metar_trigger": false,
      "taf_trigger": false,
      "metar": "METAR LWOH 051750Z 09004KT 060V130 9999 BKN040 08/05 Q0999",
      "taf": "TAF LWOH 051730Z 0518/0618 16006KT 9999 BKN040"
    },
    {
      "icao": "LWSK",
      "alert": "OK",
      "vis_m": 9999,
      "fzfg": false,
      "metar_trigger": false,
      "taf_trigger": false,
      "metar": "METAR LWSK 051750Z VRB01KT CAVOK 09/06 Q0998 NOSIG",
      "taf": "TAF LWSK 051730Z 0518/0618 VRB02KT 9999 SCT045"
    },
    {
      "icao": "LYBE",
      "alert": "OK",
      "vis_m": 9999,
      "fzfg": false,
      "metar_trigger": false,
      "taf_trigger": false,
      "metar": "METAR LYBE 051730Z 12010KT CAVOK 07/03 Q0996 NOSIG",
      "taf": "TAF LYBE 051700Z 0518/0618 09007KT CAVOK TX13/0613Z TN04/0606Z"
    },
    {
      "icao": "LYNI",
      "alert": "OK",
      "vis_m": 9999,
      "fzfg": false,
      "metar_trigger": false,
      "taf_trigger": false,
      "metar": "METAR LYNI 051730Z 30005KT CAVOK 05/02 Q0998 NOSIG",
      "taf": "TAF LYNI 051700Z 0518/0618 10006KT 9999 SCT050 TX11/0613Z TN02/0606Z"
    },
    {
      "icao": "LYPG",
      "alert": "OK",
      "vis_m": 9999,
      "fzfg": false,
      "metar_trigger": false,
      "taf_trigger": false,
      "metar": "METAR LYPG 051730Z 34006KT 320V020 9999 RA FEW024 SCT034 OVC070 09/08 Q1000 NOSIG",
      "taf": "TAF LYPG 051700Z 0518/0618 36005KT 8000 FEW020 SCT040 TX14/0615Z TN08/0602Z"
    },
    {
      "icao": "LZIB",
      "alert": "OK",
      "vis_m": 9999,
      "fzfg": false,
      "metar_trigger": false,
      "taf_trigger": false,
      "metar": "METAR LZIB 051730Z 09002KT 9999 FEW011 BKN016 06/05 Q0996 NOSIG",
      "taf": "TAF LZIB 051715Z 0518/0618 12007KT 9999 BKN020"
    },
    {
      "icao": "LZKZ",
      "alert": "OK",
      "vis_m": 9999,
      "fzfg": false,
      "metar_trigger": false,
      "taf_trigger": false,
      "metar": "METAR LZKZ 051730Z 36008KT CAVOK 03/02 Q0998 NOSIG",
      "taf": "TAF LZKZ 051715Z 0518/0618 01009KT 9999 BKN030"
    },
    {
      "icao": "LZTT",
      "alert": "OK",
      "vis_m": 4000,
      "fzfg": false,
      "metar_trigger": false,
      "taf_trigger": false,
      "metar": "METAR LZTT 051730Z 30003KT 4000 BR FEW003 BKN023 BKN050 01/01 Q0997 NOSIG",
      "taf": "TAF LZTT 051715Z 0518/0618 VRB02KT 9999 FEW005 BKN025"
    },
    {
      "icao": "OEJN",
      "alert": "OK",
      "vis_m": 9999,
      "fzfg": false,
      "metar_trigger": false,
      "taf_trigger": false,
      "metar": "METAR OEJN 051700Z 29003KT 9999 FEW040 SCT100 27/16 Q1011 NOSIG",
      "taf": "TAF OEJN 051700Z 0518/0624 36006KT 7000 FEW040"
    },
    {
      "icao": "OEMA",
      "alert": "OK",
      "vis_m": 9999,
      "fzfg": false,
      "metar_trigger": false,
      "taf_trigger": false,
      "metar": "METAR OEMA 051700Z 28002KT 9999 SCT040 BKN090 25/00 Q1016 NOSIG",
      "taf": "TAF OEMA 051700Z 0518/0624 28006KT 7000 SCT045"
    },
    {
      "icao": "OJAI",
      "alert": "OK",
      "vis_m": 5000,
      "fzfg": false,
      "metar_trigger": false,
      "taf_trigger": false,
      "metar": "METAR OJAI 051700Z 09014KT 5000 HZ NSC 15/M01 Q1015 NOSIG",
      "taf": "TAF OJAI 051700Z 0518/0624 12006KT 5000 HZ NSC"
    },
    {
      "icao": "OMAA",
      "alert": "OK",
      "vis_m": 9999,
      "fzfg": false,
      "metar_trigger": false,
      "taf_trigger": false,
      "metar": "METAR OMAA 051730Z 33007KT CAVOK 21/15 Q1019 NOSIG",
      "taf": "TAF OMAA 051700Z 0518/0700 33010KT 8000 NSC"
    },
    {
      "icao": "OMDB",
      "alert": "OK",
      "vis_m": 9999,
      "fzfg": false,
      "metar_trigger": false,
      "taf_trigger": false,
      "metar": "METAR OMDB 051730Z 24005KT CAVOK 22/15 Q1019 NOSIG",
      "taf": "TAF OMDB 051700Z 0518/0700 30010KT 8000 NSC"
    },
    {
      "icao": "UAAA",
      "alert": "OK",
      "vis_m": 2000,
      "fzfg": false,
      "metar_trigger": false,
      "taf_trigger": false,
      "metar": "METAR UAAA 051730Z 19002MPS 2000 R23L/P2000U BR FU BKN100 M01/M03 Q1012 NOSIG",
      "taf": "TAF UAAA 051709Z 0518/0618 20003MPS 1200 BR FU SCT050CB BKN100 TX04/0607Z TNM02/0602Z"
    },
    {
      "icao": "UBBB",
      "alert": "OK",
      "vis_m": 9999,
      "fzfg": false,
      "metar_trigger": false,
      "taf_trigger": false,
      "metar": "METAR UBBB 051730Z 05004KT 010V070 9999 -RA OVC017 01/M01 Q1026 NOSIG",
      "taf": "TAF UBBB 051702Z 0518/0618 13008KT 9999 BKN012 BKN020 TX08/0611Z TN02/0600Z"
    },
    {
      "icao": "UDSG",
      "alert": "OK",
      "vis_m": 9999,
      "fzfg": false,
      "metar_trigger": false,
      "taf_trigger": false,
      "metar": "METAR UDSG 051730Z 08001KT 9999 FEW046 M07/M09 Q1022 NOSIG",
      "taf": "TAF UDSG 051700Z 0518/0618 VRB06KT 9999 FEW040"
    },
    {
      "icao": "UDYZ",
      "alert": "OK",
      "vis_m": 8000,
      "fzfg": false,
      "metar_trigger": false,
      "taf_trigger": false,
      "metar": "METAR UDYZ 051730Z 33003KT 8000 NSC M01/M04 Q1023 NOSIG",
      "taf": "TAF UDYZ 051700Z 0518/0618 VRB04KT 6000 NSC"
    },
    {
      "icao": "UGKO",
      "alert": "OK",
      "vis_m": 9999,
      "fzfg": false,
      "metar_trigger": false,
      "taf_trigger": false,
      "metar": "METAR UGKO 051730Z 08028G41KT CAVOK 08/M03 Q1013 NOSIG",
      "taf": "TAF UGKO 051700Z 0518/0618 08032G45KT CAVOK TX15/0611Z TN05/0604Z"
    }
  ]
}