{
  "ts_utc": "2026-03-03T22:57:51Z",
  "threshold_m": 150,
  "source": "stations_override.txt (ICAO list) + aviationweather.gov (METAR/TAF raw)",
  "station_count": 159,
  "stations": [
    {
      "icao": "BIKF",
      "alert": "OK",
      "vis_m": 9999,
      "fzfg": false,
      "metar_trigger": false,
      "taf_trigger": false,
      "metar": "METAR BIKF 032230Z 16026KT 9999 BKN021 BKN090 06/03 Q0987",
      "taf": "TAF BIKF 032249Z 0400/0500 26009KT 9999 BKN020 TX05/0400Z TNM02/0500Z"
    },
    {
      "icao": "BKPR",
      "alert": "OK",
      "vis_m": null,
      "fzfg": false,
      "metar_trigger": false,
      "taf_trigger": false,
      "metar": "",
      "taf": "TAF BKPR 031730Z 0318/0418 VRB05KT CAVOK"
    },
    {
      "icao": "EBCI",
      "alert": "OK",
      "vis_m": 9999,
      "fzfg": false,
      "metar_trigger": false,
      "taf_trigger": false,
      "metar": "METAR EBCI 032250Z 05003KT CAVOK 08/04 Q1027 NOSIG",
      "taf": ""
    },
    {
      "icao": "EDDB",
      "alert": "OK",
      "vis_m": 9999,
      "fzfg": false,
      "metar_trigger": false,
      "taf_trigger": false,
      "metar": "METAR EDDB 032250Z AUTO 24002KT CAVOK 04/01 Q1026 NOSIG",
      "taf": "TAF EDDB 031700Z 0318/0418 26005KT CAVOK"
    },
    {
      "icao": "EDDH",
      "alert": "OK",
      "vis_m": 9999,
      "fzfg": false,
      "metar_trigger": false,
      "taf_trigger": false,
      "metar": "METAR EDDH 032250Z AUTO 33005KT CAVOK 04/02 Q1028 NOSIG",
      "taf": "TAF EDDH 031700Z 0318/0424 31005KT CAVOK"
    },
    {
      "icao": "EDDK",
      "alert": "OK",
      "vis_m": 9999,
      "fzfg": false,
      "metar_trigger": false,
      "taf_trigger": false,
      "metar": "METAR EDDK 032250Z AUTO VRB02KT CAVOK 06/04 Q1027 NOSIG",
      "taf": "TAF EDDK 031700Z 0318/0424 VRB03KT CAVOK"
    },
    {
      "icao": "EDDN",
      "alert": "OK",
      "vis_m": 9999,
      "fzfg": false,
      "metar_trigger": false,
      "taf_trigger": false,
      "metar": "METAR EDDN 032250Z AUTO 12003KT CAVOK 05/03 Q1027",
      "taf": "TAF EDDN 031700Z 0318/0418 VRB02KT CAVOK"
    },
    {
      "icao": "EDDS",
      "alert": "OK",
      "vis_m": 9999,
      "fzfg": false,
      "metar_trigger": false,
      "taf_trigger": false,
      "metar": "METAR EDDS 032250Z AUTO VRB01KT CAVOK 04/02 Q1026",
      "taf": "TAF EDDS 031700Z 0318/0418 VRB03KT CAVOK"
    },
    {
      "icao": "EDFH",
      "alert": "OK",
      "vis_m": 9999,
      "fzfg": false,
      "metar_trigger": false,
      "taf_trigger": false,
      "metar": "METAR EDFH 032250Z 16005KT CAVOK 05/03 Q1026",
      "taf": "TAF EDFH 031700Z 0318/0418 18004KT CAVOK"
    },
    {
      "icao": "EDJA",
      "alert": "OK",
      "vis_m": 250,
      "fzfg": false,
      "metar_trigger": false,
      "taf_trigger": false,
      "metar": "METAR EDJA 032250Z AUTO VRB02KT 0250 R06/0300N // VV/// 01/01 Q1026",
      "taf": "TAF EDJA 031700Z 0318/0403 VRB03KT CAVOK"
    },
    {
      "icao": "EDLW",
      "alert": "OK",
      "vis_m": 9999,
      "fzfg": false,
      "metar_trigger": false,
      "taf_trigger": false,
      "metar": "METAR EDLW 032250Z AUTO 15006KT 9999 // NCD 08/05 Q1027",
      "taf": "TAF EDLW 031700Z 0318/0418 VRB03KT CAVOK"
    },
    {
      "icao": "EDNY",
      "alert": "OK",
      "vis_m": 9999,
      "fzfg": false,
      "metar_trigger": false,
      "taf_trigger": false,
      "metar": "METAR EDNY 032250Z AUTO 06004KT 9999 // NCD 02/01 Q1027",
      "taf": "TAF EDNY 031700Z 0318/0403 VRB02KT CAVOK"
    },
    {
      "icao": "EDSB",
      "alert": "OK",
      "vis_m": 9999,
      "fzfg": false,
      "metar_trigger": false,
      "taf_trigger": false,
      "metar": "METAR EDSB 032250Z AUTO VRB01KT 9999 // NCD 04/03 Q1026",
      "taf": "TAF EDSB 031700Z 0318/0418 04004KT CAVOK"
    },
    {
      "icao": "EETN",
      "alert": "OK",
      "vis_m": 9999,
      "fzfg": false,
      "metar_trigger": false,
      "taf_trigger": false,
      "metar": "METAR EETN 032250Z 27013KT CAVOK 03/01 Q1010",
      "taf": "TAF EETN 031730Z 0318/0418 20014KT 9999 BKN004 OVC010"
    },
    {
      "icao": "EFTU",
      "alert": "OK",
      "vis_m": 9999,
      "fzfg": false,
      "metar_trigger": false,
      "taf_trigger": false,
      "metar": "METAR EFTU 032250Z AUTO 27007KT CAVOK M00/M01 Q1009",
      "taf": "TAF EFTU 032037Z 0321/0421 28008KT 9999 FEW010"
    },
    {
      "icao": "EGBB",
      "alert": "OK",
      "vis_m": 9999,
      "fzfg": false,
      "metar_trigger": false,
      "taf_trigger": false,
      "metar": "METAR EGBB 032250Z 09005KT 9999 OVC033 08/04 Q1028",
      "taf": "TAF EGBB 031655Z 0318/0418 07007KT 9999 SCT040"
    },
    {
      "icao": "EGGP",
      "alert": "OK",
      "vis_m": 9999,
      "fzfg": false,
      "metar_trigger": false,
      "taf_trigger": false,
      "metar": "METAR EGGP 032250Z 13008KT 9999 BKN026 08/04 Q1028",
      "taf": "TAF EGGP 031658Z 0318/0418 14007KT 9999 FEW035"
    },
    {
      "icao": "EGGW",
      "alert": "OK",
      "vis_m": 9999,
      "fzfg": false,
      "metar_trigger": false,
      "taf_trigger": false,
      "metar": "METAR EGGW 032250Z AUTO 09005KT 9999 NCD 06/04 Q1028",
      "taf": "TAF EGGW 031655Z 0318/0418 07006KT 9999 SCT030"
    },
    {
      "icao": "EGKK",
      "alert": "OK",
      "vis_m": 9999,
      "fzfg": false,
      "metar_trigger": false,
      "taf_trigger": false,
      "metar": "METAR EGKK 032250Z 07004KT CAVOK 05/04 Q1028",
      "taf": ""
    },
    {
      "icao": "EGNM",
      "alert": "OK",
      "vis_m": 9999,
      "fzfg": false,
      "metar_trigger": false,
      "taf_trigger": false,
      "metar": "METAR EGNM 032150Z 12006KT 9999 SCT023 04/01 Q1029",
      "taf": "TAF EGNM 031656Z 0318/0418 11005KT 9999 FEW030"
    },
    {
      "icao": "EGPD",
      "alert": "OK",
      "vis_m": 9999,
      "fzfg": false,
      "metar_trigger": false,
      "taf_trigger": false,
      "metar": "METAR EGPD 032250Z COR AUTO 20009KT 9999 NCD 05/M00 Q1026 NOSIG",
      "taf": "TAF EGPD 031656Z 0318/0418 19005KT 9999 FEW040"
    },
    {
      "icao": "EGPF",
      "alert": "OK",
      "vis_m": 9999,
      "fzfg": false,
      "metar_trigger": false,
      "taf_trigger": false,
      "metar": "METAR EGPF 032250Z AUTO VRB01KT 9999 NCD M01/M02 Q1027",
      "taf": "TAF EGPF 031658Z 0318/0418 11004KT 9999 FEW030"
    },
    {
      "icao": "EHBK",
      "alert": "OK",
      "vis_m": 9999,
      "fzfg": false,
      "metar_trigger": false,
      "taf_trigger": false,
      "metar": "METAR EHBK 032225Z AUTO 07005KT 050V110 9999 NCD 07/04 Q1027",
      "taf": "TAF EHBK 031717Z 0318/0424 09006KT CAVOK"
    },
    {
      "icao": "EHEH",
      "alert": "OK",
      "vis_m": 6000,
      "fzfg": false,
      "metar_trigger": false,
      "taf_trigger": false,
      "metar": "SPECI EHEH 032229Z AUTO 00000KT 6000 HZ ////// 06/05 Q1027 BLACKWHT",
      "taf": "TAF EHEH 031739Z 0318/0424 02005KT CAVOK"
    },
    {
      "icao": "EKBI",
      "alert": "OK",
      "vis_m": 1800,
      "fzfg": false,
      "metar_trigger": false,
      "taf_trigger": false,
      "metar": "METAR EKBI 032250Z AUTO 26006KT 1800 BR FEW015/// M01/M01 Q1029",
      "taf": ""
    },
    {
      "icao": "EKCH",
      "alert": "OK",
      "vis_m": 9999,
      "fzfg": false,
      "metar_trigger": false,
      "taf_trigger": false,
      "metar": "METAR EKCH 032250Z AUTO 26007KT 220V280 9999 NCD 01/M01 Q1027 NOSIG",
      "taf": "TAF EKCH 032027Z 0321/0421 27008KT CAVOK"
    },
    {
      "icao": "ENAL",
      "alert": "OK",
      "vis_m": 9999,
      "fzfg": false,
      "metar_trigger": false,
      "taf_trigger": false,
      "metar": "METAR ENAL 032250Z AUTO 25020KT 9999 BKN041/// BKN048/// OVC057/// 06/01 Q1018",
      "taf": "TAF ENAL 032000Z 0321/0406 24018KT 9999 -SHRA FEW020TCU SCT040"
    },
    {
      "icao": "ENBR",
      "alert": "OK",
      "vis_m": 9999,
      "fzfg": false,
      "metar_trigger": false,
      "taf_trigger": false,
      "metar": "METAR ENBR 032250Z 25006KT 220V280 9999 FEW011 BKN040 06/03 Q1024 RMK WIND 1200FT 28015KT",
      "taf": "TAF ENBR 031700Z 0318/0418 25008KT 9999 FEW015TCU SCT040"
    },
    {
      "icao": "ENGM",
      "alert": "OK",
      "vis_m": 9999,
      "fzfg": false,
      "metar_trigger": false,
      "taf_trigger": false,
      "metar": "METAR ENGM 032250Z 22005KT CAVOK 01/M06 Q1017",
      "taf": "TAF ENGM 031700Z 0318/0418 24008KT CAVOK"
    },
    {
      "icao": "ENHD",
      "alert": "OK",
      "vis_m": 7000,
      "fzfg": false,
      "metar_trigger": false,
      "taf_trigger": false,
      "metar": "METAR ENHD 032250Z AUTO 28009KT 7000 FEW008/// SCT040/// 06/05 Q1025",
      "taf": "TAF ENHD 031400Z 0315/0323 27015KT 9999 FEW010 SCT030"
    },
    {
      "icao": "ENTC",
      "alert": "OK",
      "vis_m": 9999,
      "fzfg": false,
      "metar_trigger": false,
      "taf_trigger": false,
      "metar": "METAR ENTC 032250Z 19008KT 9999 FEW049 M00/M04 Q0991 RMK WIND 2600FT 18014KT",
      "taf": "TAF ENTC 031700Z 0318/0418 20015KT 9999 FEW015 BKN040"
    },
    {
      "icao": "ENTO",
      "alert": "OK",
      "vis_m": 9999,
      "fzfg": false,
      "metar_trigger": false,
      "taf_trigger": false,
      "metar": "METAR ENTO 032250Z AUTO 23006KT 9999 NCD 02/M03 Q1020",
      "taf": "TAF ENTO 031700Z 0318/0418 24008KT CAVOK"
    },
    {
      "icao": "ENVA",
      "alert": "OK",
      "vis_m": 9999,
      "fzfg": false,
      "metar_trigger": false,
      "taf_trigger": false,
      "metar": "METAR ENVA 032250Z 25021KT 9999 BKN037 04/M01 Q1010 RMK WIND 670FT 26021G37KT",
      "taf": "TAF ENVA 031700Z 0318/0418 25025KT 9999 FEW020TCU BKN030"
    },
    {
      "icao": "ENZV",
      "alert": "OK",
      "vis_m": 9999,
      "fzfg": false,
      "metar_trigger": false,
      "taf_trigger": false,
      "metar": "METAR ENZV 032250Z 28005KT CAVOK 05/04 Q1026",
      "taf": "TAF ENZV 031700Z 0318/0418 28012KT 9999 FEW020 SCT040"
    },
    {
      "icao": "EPGD",
      "alert": "OK",
      "vis_m": 9999,
      "fzfg": false,
      "metar_trigger": false,
      "taf_trigger": false,
      "metar": "METAR EPGD 032230Z 29011KT CAVOK 06/03 Q1023",
      "taf": "TAF EPGD 031730Z 0318/0418 23004KT CAVOK"
    },
    {
      "icao": "EPKK",
      "alert": "OK",
      "vis_m": 9999,
      "fzfg": false,
      "metar_trigger": false,
      "taf_trigger": false,
      "metar": "METAR EPKK 032230Z 19001KT CAVOK 01/M02 Q1027",
      "taf": "TAF EPKK 032030Z 0321/0421 VRB02KT CAVOK"
    },
    {
      "icao": "EPKT",
      "alert": "OK",
      "vis_m": 9999,
      "fzfg": false,
      "metar_trigger": false,
      "taf_trigger": false,
      "metar": "METAR EPKT 032230Z 04001KT CAVOK M02/M04 Q1026",
      "taf": "TAF EPKT 031730Z 0318/0418 VRB02KT CAVOK"
    },
    {
      "icao": "EPLB",
      "alert": "OK",
      "vis_m": 9999,
      "fzfg": false,
      "metar_trigger": false,
      "taf_trigger": false,
      "metar": "METAR EPLB 032230Z 21007KT CAVOK 05/03 Q1026",
      "taf": "TAF EPLB 031730Z 0318/0418 21004KT 9999 SCT040"
    },
    {
      "icao": "EPMO",
      "alert": "OK",
      "vis_m": 9000,
      "fzfg": false,
      "metar_trigger": false,
      "taf_trigger": false,
      "metar": "METAR EPMO 032230Z 24006KT 9000 NSC 04/01 Q1025",
      "taf": "TAF EPMO 031730Z 0318/0418 22005KT CAVOK"
    },
    {
      "icao": "EPPO",
      "alert": "OK",
      "vis_m": 7000,
      "fzfg": false,
      "metar_trigger": false,
      "taf_trigger": false,
      "metar": "METAR EPPO 032230Z 18002KT 7000 NSC 00/M01 Q1025",
      "taf": "TAF EPPO 031730Z 0318/0418 VRB02KT CAVOK"
    },
    {
      "icao": "EPRA",
      "alert": "OK",
      "vis_m": 9999,
      "fzfg": false,
      "metar_trigger": false,
      "taf_trigger": false,
      "metar": "METAR EPRA 032230Z 24006KT CAVOK 04/M00 Q1026",
      "taf": "TAF EPRA 032030Z 0321/0406 21006KT 8000 NSC"
    },
    {
      "icao": "EPRZ",
      "alert": "OK",
      "vis_m": 5000,
      "fzfg": false,
      "metar_trigger": false,
      "taf_trigger": false,
      "metar": "METAR EPRZ 032230Z 19002KT 5000 BR NSC 03/00 Q1027",
      "taf": ""
    },
    {
      "icao": "EPSC",
      "alert": "OK",
      "vis_m": 9999,
      "fzfg": false,
      "metar_trigger": false,
      "taf_trigger": false,
      "metar": "METAR EPSC 032230Z 35003KT CAVOK 05/03 Q1026",
      "taf": "TAF EPSC 031730Z 0318/0418 22010KT CAVOK"
    },
    {
      "icao": "EPSY",
      "alert": "OK",
      "vis_m": 9999,
      "fzfg": false,
      "metar_trigger": false,
      "taf_trigger": false,
      "metar": "METAR EPSY 032230Z 22004KT CAVOK 00/00 Q1023",
      "taf": "TAF EPSY 032030Z 0321/0406 21006KT CAVOK"
    },
    {
      "icao": "EPWA",
      "alert": "OK",
      "vis_m": 9999,
      "fzfg": false,
      "metar_trigger": false,
      "taf_trigger": false,
      "metar": "METAR EPWA 032230Z 22002KT CAVOK 02/00 Q1025 NOSIG",
      "taf": "TAF EPWA 032030Z 0321/0421 23005KT CAVOK"
    },
    {
      "icao": "EPWR",
      "alert": "OK",
      "vis_m": 9999,
      "fzfg": false,
      "metar_trigger": false,
      "taf_trigger": false,
      "metar": "METAR EPWR 032230Z 31004KT CAVOK 02/M01 Q1026",
      "taf": "TAF EPWR 032030Z 0321/0421 VRB02KT CAVOK"
    },
    {
      "icao": "ESGG",
      "alert": "OK",
      "vis_m": 9999,
      "fzfg": false,
      "metar_trigger": false,
      "taf_trigger": false,
      "metar": "METAR ESGG 032250Z 28007KT 240V320 CAVOK 03/M01 Q1022",
      "taf": "TAF ESGG 032030Z 0321/0421 27008KT CAVOK"
    },
    {
      "icao": "ESKN",
      "alert": "OK",
      "vis_m": 9999,
      "fzfg": false,
      "metar_trigger": false,
      "taf_trigger": false,
      "metar": "METAR ESKN 032250Z 25011KT CAVOK 01/M01 Q1016",
      "taf": "TAF ESKN 032030Z 0321/0421 26012KT CAVOK"
    },
    {
      "icao": "ESMS",
      "alert": "OK",
      "vis_m": 9999,
      "fzfg": false,
      "metar_trigger": false,
      "taf_trigger": false,
      "metar": "METAR ESMS 032220Z 27008KT CAVOK 03/00 Q1025",
      "taf": "TAF ESMS 032027Z 0321/0421 30008KT CAVOK"
    },
    {
      "icao": "ESSA",
      "alert": "OK",
      "vis_m": 9999,
      "fzfg": false,
      "metar_trigger": false,
      "taf_trigger": false,
      "metar": "METAR ESSA 032250Z 25008KT CAVOK 01/M02 Q1014 NOSIG",
      "taf": "TAF ESSA 032030Z 0321/0421 25008KT CAVOK"
    },
    {
      "icao": "EYKA",
      "alert": "OK",
      "vis_m": 9999,
      "fzfg": false,
      "metar_trigger": false,
      "taf_trigger": false,
      "metar": "METAR EYKA 032250Z 22005KT 170V250 CAVOK 03/02 Q1020",
      "taf": "TAF EYKA 031705Z 0318/0418 VRB04KT 5000 BR SCT005 BKN015"
    },
    {
      "icao": "EYPA",
      "alert": "OK",
      "vis_m": 9999,
      "fzfg": false,
      "metar_trigger": false,
      "taf_trigger": false,
      "metar": "METAR EYPA 032250Z 29004KT 260V360 CAVOK 02/01 Q1019",
      "taf": "TAF EYPA 031700Z 0318/0418 28008KT 9000 NSC"
    },
    {
      "icao": "EYVI",
      "alert": "OK",
      "vis_m": 9999,
      "fzfg": false,
      "metar_trigger": false,
      "taf_trigger": false,
      "metar": "METAR EYVI 032250Z 17005KT 130V200 CAVOK 01/M01 Q1021 NOSIG",
      "taf": "TAF EYVI 031710Z 0318/0418 20010KT 5000 BR SCT005 BKN015"
    },
    {
      "icao": "GCFV",
      "alert": "OK",
      "vis_m": 9999,
      "fzfg": false,
      "metar_trigger": false,
      "taf_trigger": false,
      "metar": "METAR GCFV 032230Z 28010KT 250V330 9999 SCT035 14/09 Q1015",
      "taf": ""
    },
    {
      "icao": "GCLP",
      "alert": "OK",
      "vis_m": 9999,
      "fzfg": false,
      "metar_trigger": false,
      "taf_trigger": false,
      "metar": "METAR GCLP 032230Z 35010KT 320V020 9999 FEW040 15/08 Q1017 NOSIG",
      "taf": "TAF GCLP 032000Z 0321/0421 34012KT 9999 SCT030 TX21/0414Z TN14/0406Z"
    },
    {
      "icao": "GCTS",
      "alert": "OK",
      "vis_m": 9999,
      "fzfg": false,
      "metar_trigger": false,
      "taf_trigger": false,
      "metar": "METAR GCTS 032230Z 10008KT 070V150 9999 FEW035 16/07 Q1017 NOSIG",
      "taf": "TAF GCTS 032000Z 0321/0421 33008KT 9999 SCT035 TX22/0414Z TN13/0406Z"
    },
    {
      "icao": "GMAD",
      "alert": "OK",
      "vis_m": 8000,
      "fzfg": false,
      "metar_trigger": false,
      "taf_trigger": false,
      "metar": "METAR GMAD 032230Z 07003KT 050V110 8000 FEW020TCU SCT080 08/06 Q1013 NOSIG",
      "taf": ""
    },
    {
      "icao": "GMMN",
      "alert": "OK",
      "vis_m": 9999,
      "fzfg": false,
      "metar_trigger": false,
      "taf_trigger": false,
      "metar": "METAR GMMN 032230Z 15004KT 9999 FEW030 BKN080 08/06 Q1012 NOSIG",
      "taf": "TAF GMMN 031700Z 0318/0424 16012KT 9999 SCT030"
    },
    {
      "icao": "GMMX",
      "alert": "OK",
      "vis_m": 8000,
      "fzfg": false,
      "metar_trigger": false,
      "taf_trigger": false,
      "metar": "METAR GMMX 032230Z 33004KT 270V070 8000 SCT030 09/05 Q1011 NOSIG",
      "taf": "TAF GMMX 031700Z 0318/0424 28012KT 8000 BKN023"
    },
    {
      "icao": "HEGN",
      "alert": "OK",
      "vis_m": 9999,
      "fzfg": false,
      "metar_trigger": false,
      "taf_trigger": false,
      "metar": "METAR HEGN 032200Z 29012KT CAVOK 15/03 Q1021 NOSIG",
      "taf": ""
    },
    {
      "icao": "HEMA",
      "alert": "OK",
      "vis_m": 9999,
      "fzfg": false,
      "metar_trigger": false,
      "taf_trigger": false,
      "metar": "METAR HEMA 032200Z 30009KT CAVOK 17/06 Q1019 NOSIG",
      "taf": ""
    },
    {
      "icao": "HESH",
      "alert": "OK",
      "vis_m": 9999,
      "fzfg": false,
      "metar_trigger": false,
      "taf_trigger": false,
      "metar": "METAR HESH 032200Z 35012KT CAVOK 19/06 Q1019 NOSIG",
      "taf": ""
    },
    {
      "icao": "HESX",
      "alert": "OK",
      "vis_m": 6000,
      "fzfg": false,
      "metar_trigger": false,
      "taf_trigger": false,
      "metar": "METAR HESX 032200Z 01006KT 6000 NSC 10/07 Q1024 NOSIG",
      "taf": ""
    },
    {
      "icao": "LATI",
      "alert": "OK",
      "vis_m": 5000,
      "fzfg": false,
      "metar_trigger": false,
      "taf_trigger": false,
      "metar": "METAR LATI 032250Z VRB03KT 5000 NSC 07/05 Q1028 NOSIG",
      "taf": "TAF LATI 031700Z 0318/0418 VRB03KT CAVOK TX19/0412Z TN04/0403Z"
    },
    {
      "icao": "LBPD",
      "alert": "OK",
      "vis_m": 9999,
      "fzfg": false,
      "metar_trigger": false,
      "taf_trigger": false,
      "metar": "METAR LBPD 032230Z AUTO 00000KT 9999 NCD 04/01 Q1028",
      "taf": "TAF LBPD 031700Z 0318/0418 VRB03KT 9999 SCT080"
    },
    {
      "icao": "LBSF",
      "alert": "OK",
      "vis_m": 9999,
      "fzfg": false,
      "metar_trigger": false,
      "taf_trigger": false,
      "metar": "METAR LBSF 032230Z AUTO VRB01KT 9999 NSC 02/00 Q1028 NOSIG",
      "taf": "TAF LBSF 031700Z 0318/0418 VRB03KT 9999 SCT060"
    },
    {
      "icao": "LBWN",
      "alert": "OK",
      "vis_m": 9999,
      "fzfg": false,
      "metar_trigger": false,
      "taf_trigger": false,
      "metar": "METAR LBWN 032230Z AUTO VRB02KT 9999 NCD 02/02 Q1028 NOSIG",
      "taf": "TAF LBWN 031700Z 0318/0418 VRB04KT CAVOK"
    },
    {
      "icao": "LCLK",
      "alert": "OK",
      "vis_m": 9999,
      "fzfg": false,
      "metar_trigger": false,
      "taf_trigger": false,
      "metar": "METAR LCLK 032230Z 31005KT CAVOK 08/04 Q1022 NOSIG",
      "taf": "TAF LCLK 031730Z 0318/0418 30006KT 9999 FEW030"
    },
    {
      "icao": "LCPH",
      "alert": "OK",
      "vis_m": 9999,
      "fzfg": false,
      "metar_trigger": false,
      "taf_trigger": false,
      "metar": "METAR LCPH 032230Z 02008KT 9999 SCT026 10/07 Q1022 NOSIG",
      "taf": "TAF LCPH 031730Z 0318/0418 03010KT 9999 FEW020"
    },
    {
      "icao": "LEAL",
      "alert": "OK",
      "vis_m": 9999,
      "fzfg": false,
      "metar_trigger": false,
      "taf_trigger": false,
      "metar": "METAR LEAL 032230Z 06004KT 030V090 CAVOK 16/11 Q1015 NOSIG",
      "taf": "TAF LEAL 031700Z 0318/0418 05015KT 9999 FEW020 TX20/0412Z TN12/0407Z"
    },
    {
      "icao": "LEBB",
      "alert": "OK",
      "vis_m": 9999,
      "fzfg": false,
      "metar_trigger": false,
      "taf_trigger": false,
      "metar": "METAR LEBB 032230Z 11006KT CAVOK 13/08 Q1020 NOSIG",
      "taf": "TAF LEBB 031700Z 0318/0418 13009KT CAVOK TX21/0415Z TN09/0407Z"
    },
    {
      "icao": "LEBL",
      "alert": "OK",
      "vis_m": 9999,
      "fzfg": false,
      "metar_trigger": false,
      "taf_trigger": false,
      "metar": "METAR LEBL 032230Z 07017KT 9999 FEW020 SCT060 14/11 Q1021 NOSIG",
      "taf": "TAF LEBL 031700Z 0318/0418 05015KT 9999 FEW020 TX17/0412Z TN13/0406Z"
    },
    {
      "icao": "LECH",
      "alert": "OK",
      "vis_m": 9000,
      "fzfg": false,
      "metar_trigger": false,
      "taf_trigger": false,
      "metar": "METAR LECH 032230Z AUTO 04017G28KT 360V080 9000 BKN014 12/09 Q1021",
      "taf": ""
    },
    {
      "icao": "LEMD",
      "alert": "OK",
      "vis_m": 9999,
      "fzfg": false,
      "metar_trigger": false,
      "taf_trigger": false,
      "metar": "METAR LEMD 032230Z 32005KT CAVOK 10/06 Q1018 NOSIG",
      "taf": "TAF LEMD 031700Z 0318/0424 02006KT 9999 SCT060 TX18/0414Z TN07/0407Z"
    },
    {
      "icao": "LEMG",
      "alert": "OK",
      "vis_m": 9999,
      "fzfg": false,
      "metar_trigger": false,
      "taf_trigger": false,
      "metar": "METAR LEMG 032230Z 29003KT 9999 FEW050 13/10 Q1011 NOSIG",
      "taf": "TAF LEMG 031700Z 0318/0418 18005KT 9999 FEW040 TX17/0414Z TN12/0407Z"
    },
    {
      "icao": "LEVC",
      "alert": "OK",
      "vis_m": 9999,
      "fzfg": false,
      "metar_trigger": false,
      "taf_trigger": false,
      "metar": "METAR LEVC 032230Z 04016KT 9999 SCT018 BKN023 14/10 Q1020 NOSIG",
      "taf": "TAF LEVC 031700Z 0318/0418 05010KT 9999 BKN020 TX16/0412Z TN13/0407Z"
    },
    {
      "icao": "LEXJ",
      "alert": "OK",
      "vis_m": 9999,
      "fzfg": false,
      "metar_trigger": false,
      "taf_trigger": false,
      "metar": "METAR LEXJ 032230Z AUTO 14006KT 100V160 CAVOK 13/05 Q1019",
      "taf": "TAF LEXJ 032000Z 0321/0421 13007KT CAVOK TX21/0412Z TN09/0407Z"
    },
    {
      "icao": "LEZG",
      "alert": "OK",
      "vis_m": 9999,
      "fzfg": false,
      "metar_trigger": false,
      "taf_trigger": false,
      "metar": "METAR LEZG 032230Z 16003KT CAVOK 10/09 Q1021 NOSIG",
      "taf": "TAF LEZG 031700Z 0318/0418 VRB03KT 9999 FEW030 TX18/0415Z TN07/0406Z"
    },
    {
      "icao": "LEZL",
      "alert": "OK",
      "vis_m": 9999,
      "fzfg": false,
      "metar_trigger": false,
      "taf_trigger": false,
      "metar": "METAR LEZL 032230Z 22006KT CAVOK 17/12 Q1011 NOSIG",
      "taf": "TAF LEZL 032000Z 0321/0421 VRB03KT CAVOK TX18/0415Z TN11/0407Z"
    },
    {
      "icao": "LFBD",
      "alert": "OK",
      "vis_m": 9999,
      "fzfg": false,
      "metar_trigger": false,
      "taf_trigger": false,
      "metar": "METAR LFBD 032230Z AUTO 11007KT CAVOK 13/09 Q1022 NOSIG",
      "taf": "TAF LFBD 031700Z 0318/0424 12010KT CAVOK TX19/0414Z TN07/0406Z"
    },
    {
      "icao": "LFLL",
      "alert": "OK",
      "vis_m": 9999,
      "fzfg": false,
      "metar_trigger": false,
      "taf_trigger": false,
      "metar": "METAR LFLL 032230Z 00000KT CAVOK 10/05 Q1025 NOSIG",
      "taf": "TAF LFLL 031700Z 0318/0424 14004KT CAVOK"
    },
    {
      "icao": "LFLS",
      "alert": "OK",
      "vis_m": 9999,
      "fzfg": false,
      "metar_trigger": false,
      "taf_trigger": false,
      "metar": "METAR LFLS 032230Z AUTO 09008KT CAVOK 06/04 Q1025",
      "taf": "TAF LFLS 031400Z 0315/0415 VRB03KT CAVOK"
    },
    {
      "icao": "LFMN",
      "alert": "OK",
      "vis_m": 9999,
      "fzfg": false,
      "metar_trigger": false,
      "taf_trigger": false,
      "metar": "METAR LFMN 032230Z 33007KT CAVOK 12/07 Q1025 NOSIG",
      "taf": "TAF LFMN 032000Z 0321/0503 08015KT CAVOK"
    },
    {
      "icao": "LFOB",
      "alert": "OK",
      "vis_m": 9999,
      "fzfg": false,
      "metar_trigger": false,
      "taf_trigger": false,
      "metar": "METAR LFOB 032230Z AUTO 36002KT CAVOK 06/05 Q1026 TEMPO 3000 BR",
      "taf": "TAF LFOB 031700Z 0318/0418 04005KT CAVOK"
    },
    {
      "icao": "LFPO",
      "alert": "OK",
      "vis_m": 9999,
      "fzfg": false,
      "metar_trigger": false,
      "taf_trigger": false,
      "metar": "METAR LFPO 032230Z 03002KT CAVOK 12/06 Q1025 NOSIG",
      "taf": "TAF LFPO 031700Z 0318/0424 09004KT CAVOK"
    },
    {
      "icao": "LFSB",
      "alert": "OK",
      "vis_m": 9999,
      "fzfg": false,
      "metar_trigger": false,
      "taf_trigger": false,
      "metar": "METAR LFSB 032230Z AUTO 00000KT CAVOK 06/04 Q1026 NOSIG",
      "taf": "TAF LFSB 031700Z 0318/0418 34003KT CAVOK"
    },
    {
      "icao": "LGAV",
      "alert": "OK",
      "vis_m": 9999,
      "fzfg": false,
      "metar_trigger": false,
      "taf_trigger": false,
      "metar": "METAR LGAV 032250Z 28004KT 9999 FEW025 08/05 Q1027 NOSIG",
      "taf": "TAF LGAV 031700Z 0318/0418 VRB05KT 9999 FEW020"
    },
    {
      "icao": "LGTS",
      "alert": "OK",
      "vis_m": 9999,
      "fzfg": false,
      "metar_trigger": false,
      "taf_trigger": false,
      "metar": "METAR LGTS 032250Z 11004KT 9999 FEW025 08/08 Q1028 NOSIG",
      "taf": "TAF LGTS 031700Z 0318/0418 VRB03KT 9999 FEW025"
    },
    {
      "icao": "LHBP",
      "alert": "OK",
      "vis_m": 9999,
      "fzfg": false,
      "metar_trigger": false,
      "taf_trigger": false,
      "metar": "METAR LHBP 032230Z 03001KT CAVOK 01/M02 Q1028 NOSIG",
      "taf": "TAF LHBP 031715Z 0318/0418 36003KT CAVOK"
    },
    {
      "icao": "LHDC",
      "alert": "OK",
      "vis_m": 7000,
      "fzfg": false,
      "metar_trigger": false,
      "taf_trigger": false,
      "metar": "METAR LHDC 032215Z AUTO 00000KT 7000 NCD 02/M01 Q1028",
      "taf": ""
    },
    {
      "icao": "LIBD",
      "alert": "OK",
      "vis_m": 7000,
      "fzfg": false,
      "metar_trigger": false,
      "taf_trigger": false,
      "metar": "METAR LIBD 032250Z 22005KT 7000 NSC 06/06 Q1028",
      "taf": "TAF LIBD 031700Z 0318/0418 VRB05KT 7000 SCT030"
    },
    {
      "icao": "LIBG",
      "alert": "OK",
      "vis_m": null,
      "fzfg": false,
      "metar_trigger": false,
      "taf_trigger": false,
      "metar": "",
      "taf": "TAF LIBG 031700Z 0318/0403 VRB06KT 9999 FEW020"
    },
    {
      "icao": "LIBP",
      "alert": "OK",
      "vis_m": 2800,
      "fzfg": false,
      "metar_trigger": false,
      "taf_trigger": false,
      "metar": "METAR LIBP 032250Z AUTO 26001KT 2800 BR FEW012/// 08/08 Q1028",
      "taf": "TAF LIBP 031700Z 0318/0418 VRB05KT 7000 FEW020"
    },
    {
      "icao": "LIBR",
      "alert": "OK",
      "vis_m": 7000,
      "fzfg": false,
      "metar_trigger": false,
      "taf_trigger": false,
      "metar": "METAR LIBR 032250Z 28004KT 7000 3000SW BCFG NSC 10/10 Q1027",
      "taf": "TAF LIBR 031700Z 0318/0418 VRB05KT 7000 SCT020"
    },
    {
      "icao": "LICA",
      "alert": "OK",
      "vis_m": 9999,
      "fzfg": false,
      "metar_trigger": false,
      "taf_trigger": false,
      "metar": "METAR LICA 032250Z AUTO 05010KT 9999 FEW220/// 13/11 Q1027",
      "taf": "TAF LICA 031700Z 0318/0418 07015G25KT CAVOK"
    },
    {
      "icao": "LICC",
      "alert": "OK",
      "vis_m": 9999,
      "fzfg": false,
      "metar_trigger": false,
      "taf_trigger": false,
      "metar": "METAR LICC 032250Z 04004KT 9999 BKN130 14/12 Q1027",
      "taf": "TAF LICC 031700Z 0318/0418 08010KT 9999 SCT040"
    },
    {
      "icao": "LICJ",
      "alert": "OK",
      "vis_m": 9999,
      "fzfg": false,
      "metar_trigger": false,
      "taf_trigger": false,
      "metar": "METAR LICJ 032250Z 18004KT CAVOK 14/10 Q1024",
      "taf": "TAF LICJ 031700Z 0318/0418 04013KT 9999 SCT025"
    },
    {
      "icao": "LIMC",
      "alert": "OK",
      "vis_m": 9999,
      "fzfg": false,
      "metar_trigger": false,
      "taf_trigger": false,
      "metar": "METAR LIMC 032250Z 03003KT CAVOK 06/05 Q1028 NOSIG",
      "taf": "TAF LIMC 031700Z 0318/0424 VRB05KT 9999 FEW030"
    },
    {
      "icao": "LIME",
      "alert": "OK",
      "vis_m": 9000,
      "fzfg": false,
      "metar_trigger": false,
      "taf_trigger": false,
      "metar": "METAR LIME 032250Z 14003KT 9000 BKN060 11/08 Q1028 NOSIG",
      "taf": "TAF LIME 031700Z 0318/0418 VRB05KT 9999 SCT030"
    },
    {
      "icao": "LIMF",
      "alert": "OK",
      "vis_m": 6000,
      "fzfg": false,
      "metar_trigger": false,
      "taf_trigger": false,
      "metar": "METAR LIMF 032250Z 34002KT 6000 NSC 08/06 Q1028",
      "taf": "TAF LIMF 031700Z 0318/0418 VRB04KT 6000 SCT030"
    },
    {
      "icao": "LIMJ",
      "alert": "OK",
      "vis_m": 9999,
      "fzfg": false,
      "metar_trigger": false,
      "taf_trigger": false,
      "metar": "METAR LIMJ 032250Z AUTO 04012KT 9999 BKN200/// 13/07 Q1026",
      "taf": "TAF LIMJ 031700Z 0318/0418 VRB05KT 9999 FEW050"
    },
    {
      "icao": "LIPE",
      "alert": "OK",
      "vis_m": 6000,
      "fzfg": false,
      "metar_trigger": false,
      "taf_trigger": false,
      "metar": "METAR LIPE 032250Z 23003KT 200V260 6000 NSC 08/07 Q1028",
      "taf": "TAF LIPE 031700Z 0318/0418 VRB04KT 6000 SCT015"
    },
    {
      "icao": "LIPH",
      "alert": "OK",
      "vis_m": 2200,
      "fzfg": false,
      "metar_trigger": false,
      "taf_trigger": false,
      "metar": "METAR LIPH 032250Z AUTO 00000KT 2200 0300W R07/0450D // FEW005/// 07/07 Q1028",
      "taf": "TAF LIPH 031700Z 0318/0418 VRB04KT 5000 BR SCT030"
    },
    {
      "icao": "LIPQ",
      "alert": "OK",
      "vis_m": 200,
      "fzfg": false,
      "metar_trigger": false,
      "taf_trigger": false,
      "metar": "METAR LIPQ 032250Z AUTO 13001KT 0200 R09/0600N FG FEW010/// 06/05 Q1028",
      "taf": "TAF LIPQ 031700Z 0318/0418 VRB05KT 6000 SCT030"
    },
    {
      "icao": "LIPR",
      "alert": "OK",
      "vis_m": 4800,
      "fzfg": false,
      "metar_trigger": false,
      "taf_trigger": false,
      "metar": "METAR LIPR 032250Z AUTO VRB02KT 4800 BR OVC007/// 10/09 Q1028",
      "taf": "TAF LIPR 031700Z 0318/0418 VRB05KT 5000 BR BKN010"
    },
    {
      "icao": "LIPX",
      "alert": "OK",
      "vis_m": 6000,
      "fzfg": false,
      "metar_trigger": false,
      "taf_trigger": false,
      "metar": "METAR LIPX 032250Z 33003KT 6000 NSC 07/06 Q1028",
      "taf": "TAF LIPX 031700Z 0318/0418 VRB05KT 7000 SCT025"
    },
    {
      "icao": "LIPY",
      "alert": "OK",
      "vis_m": 6000,
      "fzfg": false,
      "metar_trigger": false,
      "taf_trigger": false,
      "metar": "METAR LIPY 032250Z AUTO 32002KT 6000 OVC006/// 10/09 Q1028",
      "taf": "TAF LIPY 031700Z 0318/0418 VRB05KT 6000 BKN006"
    },
    {
      "icao": "LIPZ",
      "alert": "OK",
      "vis_m": 9000,
      "fzfg": false,
      "metar_trigger": false,
      "taf_trigger": false,
      "metar": "METAR LIPZ 032250Z 25004KT 9000 BCFG NSC 09/08 Q1028 NOSIG",
      "taf": "TAF LIPZ 031700Z 0318/0424 VRB04KT CAVOK"
    },
    {
      "icao": "LIRF",
      "alert": "OK",
      "vis_m": 5000,
      "fzfg": false,
      "metar_trigger": false,
      "taf_trigger": false,
      "metar": "METAR LIRF 032250Z 36002KT 5000 BR NSC 11/10 Q1026 NOSIG",
      "taf": "TAF LIRF 031700Z 0318/0424 04006KT CAVOK"
    },
    {
      "icao": "LIRN",
      "alert": "OK",
      "vis_m": 7000,
      "fzfg": false,
      "metar_trigger": false,
      "taf_trigger": false,
      "metar": "METAR LIRN 032250Z VRB01KT 7000 NSC 10/09 Q1026 NOSIG",
      "taf": "TAF LIRN 031700Z 0318/0418 VRB05KT CAVOK"
    },
    {
      "icao": "LIRP",
      "alert": "OK",
      "vis_m": 8000,
      "fzfg": false,
      "metar_trigger": false,
      "taf_trigger": false,
      "metar": "METAR LIRP 032245Z 11003KT 8000 FEW010 11/11 Q1026 TEMPO 5000",
      "taf": "TAF LIRP 031700Z 0318/0418 26006KT 9999 SCT030 SCT060"
    },
    {
      "icao": "LIRZ",
      "alert": "OK",
      "vis_m": 9999,
      "fzfg": false,
      "metar_trigger": false,
      "taf_trigger": false,
      "metar": "METAR LIRZ 032250Z AUTO 34006KT 9999 NCD 09/08 Q1026",
      "taf": "TAF LIRZ 031700Z 0318/0418 VRB05KT 9999 SCT040"
    },
    {
      "icao": "LJLJ",
      "alert": "OK",
      "vis_m": 9999,
      "fzfg": false,
      "metar_trigger": false,
      "taf_trigger": false,
      "metar": "METAR LJLJ 032230Z 29004KT CAVOK 01/M00 Q1028 NOSIG",
      "taf": "TAF LJLJ 031700Z 0318/0418 VRB02KT 9999 FEW040"
    },
    {
      "icao": "LKMT",
      "alert": "OK",
      "vis_m": 9999,
      "fzfg": false,
      "metar_trigger": false,
      "taf_trigger": false,
      "metar": "METAR LKMT 032230Z 23005KT CAVOK 04/03 Q1027 NOSIG",
      "taf": "TAF LKMT 031700Z 0318/0418 23003KT CAVOK"
    },
    {
      "icao": "LKPR",
      "alert": "OK",
      "vis_m": 4000,
      "fzfg": false,
      "metar_trigger": false,
      "taf_trigger": false,
      "metar": "METAR LKPR 032230Z 00000KT 4000 1200NW R24/P2000N R30/P2000N BR BCFG FEW003 01/01 Q1027 BECMG 0400 FG BKN002",
      "taf": "TAF LKPR 032000Z 0321/0503 VRB02KT 6000 NSC"
    },
    {
      "icao": "LLBG",
      "alert": "OK",
      "vis_m": 9999,
      "fzfg": false,
      "metar_trigger": false,
      "taf_trigger": false,
      "metar": "METAR LLBG 032250Z VRB03KT CAVOK 11/05 Q1023 NOSIG",
      "taf": "TAF LLBG 031703Z 0318/0418 VRB04KT CAVOK TX19/0412Z TN07/0404Z"
    },
    {
      "icao": "LMML",
      "alert": "OK",
      "vis_m": 9999,
      "fzfg": false,
      "metar_trigger": false,
      "taf_trigger": false,
      "metar": "METAR LMML 032245Z 09010KT 9999 SCT009 15/14 Q1025 TEMPO BKN009",
      "taf": "TAF LMML 031910Z 0319/0418 12012KT 9999 SCT013"
    },
    {
      "icao": "LOWW",
      "alert": "OK",
      "vis_m": 9000,
      "fzfg": false,
      "metar_trigger": false,
      "taf_trigger": false,
      "metar": "METAR LOWW 032250Z 15004KT 9000 NSC 05/03 Q1027 NOSIG",
      "taf": "TAF LOWW 032015Z 0321/0503 VRB04KT CAVOK TX13/0414Z TN02/0405Z"
    },
    {
      "icao": "LPFR",
      "alert": "OK",
      "vis_m": 9999,
      "fzfg": false,
      "metar_trigger": false,
      "taf_trigger": false,
      "metar": "METAR LPFR 032230Z 03004KT 9999 FEW025 15/11 Q1012",
      "taf": "TAF LPFR 031700Z 0318/0418 05007KT 9999 SCT020"
    },
    {
      "icao": "LPMA",
      "alert": "OK",
      "vis_m": 9999,
      "fzfg": false,
      "metar_trigger": false,
      "taf_trigger": false,
      "metar": "METAR LPMA 032230Z 35024G38KT 300V010 9999 BKN015 FEW018CB 15/09 Q1016",
      "taf": "TAF LPMA 031700Z 0318/0418 35020G32KT 9999 SCT015"
    },
    {
      "icao": "LPPR",
      "alert": "OK",
      "vis_m": 9999,
      "fzfg": false,
      "metar_trigger": false,
      "taf_trigger": false,
      "metar": "METAR LPPR 032230Z 03006KT 360V100 CAVOK 12/10 Q1016",
      "taf": "TAF LPPR 031700Z 0318/0418 33007KT CAVOK"
    },
    {
      "icao": "LPPS",
      "alert": "OK",
      "vis_m": 9999,
      "fzfg": false,
      "metar_trigger": false,
      "taf_trigger": false,
      "metar": "METAR LPPS 032230Z 35027KT 9999 SCT014 FEW016TCU SCT030 14/12 Q1017",
      "taf": "TAF LPPS 031700Z 0318/0424 34023KT 9999 SCT015"
    },
    {
      "icao": "LPPT",
      "alert": "OK",
      "vis_m": 9999,
      "fzfg": false,
      "metar_trigger": false,
      "taf_trigger": false,
      "metar": "METAR LPPT 032230Z 36006KT CAVOK 14/09 Q1014",
      "taf": "TAF LPPT 031700Z 0318/0424 04013KT CAVOK"
    },
    {
      "icao": "LQBK",
      "alert": "OK",
      "vis_m": 9999,
      "fzfg": false,
      "metar_trigger": false,
      "taf_trigger": false,
      "metar": "METAR LQBK 032230Z 29003KT CAVOK 04/02 Q1028 NOSIG",
      "taf": "TAF LQBK 031700Z 0318/0418 VRB02KT CAVOK TX17/0414Z TN03/0406Z"
    },
    {
      "icao": "LQSA",
      "alert": "OK",
      "vis_m": 9999,
      "fzfg": false,
      "metar_trigger": false,
      "taf_trigger": false,
      "metar": "METAR LQSA 032230Z VRB02KT CAVOK 04/02 Q1028",
      "taf": "TAF LQSA 031700Z 0318/0418 VRB02KT 9999 SCT050 TX17/0414Z TN01/0405Z"
    },
    {
      "icao": "LQTZ",
      "alert": "OK",
      "vis_m": 6000,
      "fzfg": false,
      "metar_trigger": false,
      "taf_trigger": false,
      "metar": "METAR LQTZ 032230Z 00000KT 6000 NSC 02/02 Q1028",
      "taf": "TAF LQTZ 031700Z 0318/0418 06005KT 9999 SCT050 TX16/0414Z TN01/0405Z"
    },
    {
      "icao": "LRBC",
      "alert": "OK",
      "vis_m": 9999,
      "fzfg": false,
      "metar_trigger": false,
      "taf_trigger": false,
      "metar": "METAR LRBC 032230Z 17002KT CAVOK 03/01 Q1029",
      "taf": "TAF LRBC 032000Z 0321/0406 VRB04KT CAVOK"
    },
    {
      "icao": "LRBS",
      "alert": "OK",
      "vis_m": 1500,
      "fzfg": false,
      "metar_trigger": false,
      "taf_trigger": false,
      "metar": "METAR LRBS 032230Z 00000KT 1500 MIFG BR NSC 01/01 Q1029 BECMG 0600 FG",
      "taf": "TAF LRBS 031700Z 0318/0418 25004KT CAVOK"
    },
    {
      "icao": "LRBV",
      "alert": "OK",
      "vis_m": 9999,
      "fzfg": false,
      "metar_trigger": false,
      "taf_trigger": false,
      "metar": "METAR LRBV 032230Z AUTO VRB03KT 9999 NCD 02/M01 Q1028",
      "taf": "TAF LRBV 032000Z 0321/0406 24008KT CAVOK"
    },
    {
      "icao": "LRCL",
      "alert": "OK",
      "vis_m": 9999,
      "fzfg": false,
      "metar_trigger": false,
      "taf_trigger": false,
      "metar": "METAR LRCL 032230Z 24004KT CAVOK 02/M02 Q1028",
      "taf": "TAF LRCL 032000Z 0321/0406 VRB04KT CAVOK"
    },
    {
      "icao": "LRCV",
      "alert": "OK",
      "vis_m": 1600,
      "fzfg": false,
      "metar_trigger": false,
      "taf_trigger": false,
      "metar": "METAR LRCV 032230Z 05005KT 1600 BR NSC 01/01 Q1028",
      "taf": "TAF LRCV 032000Z 0321/0406 VRB04KT 5000 BR NSC"
    },
    {
      "icao": "LRIA",
      "alert": "OK",
      "vis_m": 9999,
      "fzfg": false,
      "metar_trigger": false,
      "taf_trigger": false,
      "metar": "METAR LRIA 032230Z 25004KT 130V290 CAVOK 02/00 Q1028",
      "taf": "TAF LRIA 032000Z 0321/0406 VRB04KT CAVOK"
    },
    {
      "icao": "LROP",
      "alert": "OK",
      "vis_m": 3000,
      "fzfg": false,
      "metar_trigger": false,
      "taf_trigger": false,
      "metar": "METAR LROP 032230Z 17002KT 3000 BR NSC 01/01 Q1029 BECMG 0800 FG",
      "taf": "TAF LROP 031700Z 0318/0418 25004KT CAVOK"
    },
    {
      "icao": "LRSB",
      "alert": "OK",
      "vis_m": 9999,
      "fzfg": false,
      "metar_trigger": false,
      "taf_trigger": false,
      "metar": "METAR LRSB 032230Z 20002KT CAVOK 03/01 Q1028",
      "taf": "TAF LRSB 031700Z 0318/0418 VRB04KT CAVOK"
    },
    {
      "icao": "LRSM",
      "alert": "OK",
      "vis_m": 9999,
      "fzfg": false,
      "metar_trigger": false,
      "taf_trigger": false,
      "metar": "METAR LRSM 032230Z AUTO 21005KT 9999 NCD 02/M01 Q1028",
      "taf": "TAF LRSM 031400Z 0315/0324 VRB04KT CAVOK"
    },
    {
      "icao": "LRSV",
      "alert": "OK",
      "vis_m": 9999,
      "fzfg": false,
      "metar_trigger": false,
      "taf_trigger": false,
      "metar": "METAR LRSV 032230Z 28005KT CAVOK 04/00 Q1027",
      "taf": "TAF LRSV 032000Z 0321/0406 27006KT CAVOK"
    },
    {
      "icao": "LRTM",
      "alert": "OK",
      "vis_m": 9999,
      "fzfg": false,
      "metar_trigger": false,
      "taf_trigger": false,
      "metar": "METAR LRTM 032230Z AUTO 00000KT 9999 NCD M01/M03 Q1028",
      "taf": "TAF LRTM 031400Z 0315/0324 VRB04KT CAVOK"
    },
    {
      "icao": "LRTR",
      "alert": "OK",
      "vis_m": 9999,
      "fzfg": false,
      "metar_trigger": false,
      "taf_trigger": false,
      "metar": "METAR LRTR 032230Z 07003KT CAVOK 01/01 Q1028",
      "taf": "TAF LRTR 031700Z 0318/0418 VRB04KT CAVOK"
    },
    {
      "icao": "LTAC",
      "alert": "OK",
      "vis_m": 9999,
      "fzfg": false,
      "metar_trigger": false,
      "taf_trigger": false,
      "metar": "METAR LTAC 032250Z 32011KT 9999 FEW040 SCT180 04/M03 Q1022 NOSIG",
      "taf": "TAF LTAC 031640Z 0318/0418 VRB02KT 9999 FEW040 SCT100 BKN180"
    },
    {
      "icao": "LTFM",
      "alert": "OK",
      "vis_m": 4800,
      "fzfg": false,
      "metar_trigger": false,
      "taf_trigger": false,
      "metar": "METAR LTFM 032250Z 29003KT 260V330 4800 BR BKN009 05/04 Q1029 NOSIG",
      "taf": "TAF LTFM 031640Z 0318/0424 VRB02KT 3200 BR BKN004"
    },
    {
      "icao": "LUKK",
      "alert": "OK",
      "vis_m": 9999,
      "fzfg": false,
      "metar_trigger": false,
      "taf_trigger": false,
      "metar": "METAR LUKK 032230Z 29007KT CAVOK 01/M01 Q1028 NOSIG",
      "taf": "TAF LUKK 031711Z 0318/0418 33009KT 9999 SCT035"
    },
    {
      "icao": "LWOH",
      "alert": "OK",
      "vis_m": null,
      "fzfg": false,
      "metar_trigger": false,
      "taf_trigger": false,
      "metar": "",
      "taf": "TAF LWOH 032010Z 0321/0421 VRB02KT CAVOK"
    },
    {
      "icao": "LWSK",
      "alert": "OK",
      "vis_m": 9999,
      "fzfg": false,
      "metar_trigger": false,
      "taf_trigger": false,
      "metar": "METAR LWSK 032250Z 05001KT CAVOK 04/01 Q1028 NOSIG",
      "taf": "TAF LWSK 032010Z 0321/0421 VRB02KT CAVOK"
    },
    {
      "icao": "LYBE",
      "alert": "OK",
      "vis_m": 7000,
      "fzfg": false,
      "metar_trigger": false,
      "taf_trigger": false,
      "metar": "METAR LYBE 032230Z VRB01KT 7000 NSC 06/04 Q1028 NOSIG",
      "taf": "TAF LYBE 031700Z 0318/0418 VRB02KT 8000 NSC TX17/0413Z TN02/0405Z"
    },
    {
      "icao": "LYNI",
      "alert": "OK",
      "vis_m": 9999,
      "fzfg": false,
      "metar_trigger": false,
      "taf_trigger": false,
      "metar": "METAR LYNI 032230Z 00000KT 9999 BKN080 07/03 Q1028 NOSIG",
      "taf": "TAF LYNI 031700Z 0318/0418 34005KT 9999 SCT080 TX19/0414Z TN01/0405Z"
    },
    {
      "icao": "LYPG",
      "alert": "OK",
      "vis_m": 9999,
      "fzfg": false,
      "metar_trigger": false,
      "taf_trigger": false,
      "metar": "METAR LYPG 032230Z 02002KT CAVOK 08/06 Q1027 NOSIG",
      "taf": "TAF LYPG 031700Z 0318/0418 36005KT CAVOK TX18/0413Z TN06/0405Z"
    },
    {
      "icao": "LZIB",
      "alert": "OK",
      "vis_m": 9999,
      "fzfg": false,
      "metar_trigger": false,
      "taf_trigger": false,
      "metar": "METAR LZIB 032230Z VRB02KT 9999 SCT049 04/03 Q1027 NOSIG",
      "taf": "TAF LZIB 031715Z 0318/0418 VRB02KT CAVOK"
    },
    {
      "icao": "LZKZ",
      "alert": "OK",
      "vis_m": 9999,
      "fzfg": false,
      "metar_trigger": false,
      "taf_trigger": false,
      "metar": "METAR LZKZ 032230Z 35003KT CAVOK 04/M01 Q1028 NOSIG",
      "taf": "TAF LZKZ 031715Z 0318/0418 VRB02KT CAVOK"
    },
    {
      "icao": "LZTT",
      "alert": "OK",
      "vis_m": 9999,
      "fzfg": false,
      "metar_trigger": false,
      "taf_trigger": false,
      "metar": "METAR LZTT 032230Z 28004KT CAVOK 01/M03 Q1027",
      "taf": "TAF LZTT 031715Z 0318/0418 24005KT CAVOK"
    },
    {
      "icao": "OEJN",
      "alert": "OK",
      "vis_m": 9999,
      "fzfg": false,
      "metar_trigger": false,
      "taf_trigger": false,
      "metar": "METAR OEJN 032200Z 02003KT 9999 FEW040 19/05 Q1016 NOSIG",
      "taf": "TAF OEJN 031700Z 0318/0424 34006KT 9999 FEW040"
    },
    {
      "icao": "OEMA",
      "alert": "OK",
      "vis_m": 9999,
      "fzfg": false,
      "metar_trigger": false,
      "taf_trigger": false,
      "metar": "METAR OEMA 032200Z 04016KT CAVOK 17/M07 Q1021 NOSIG",
      "taf": "TAF OEMA 031700Z 0318/0424 02008KT CAVOK"
    },
    {
      "icao": "OJAI",
      "alert": "OK",
      "vis_m": 5000,
      "fzfg": false,
      "metar_trigger": false,
      "taf_trigger": false,
      "metar": "METAR OJAI 032200Z 00000KT 5000 HZ NSC 05/M04 Q1023 NOSIG",
      "taf": "TAF OJAI 031650Z 0318/0424 29008KT 5000 HZ NSC"
    },
    {
      "icao": "OMAA",
      "alert": "OK",
      "vis_m": 9999,
      "fzfg": false,
      "metar_trigger": false,
      "taf_trigger": false,
      "metar": "METAR OMAA 032230Z 33010KT CAVOK 24/21 Q1010 NOSIG",
      "taf": "TAF OMAA 031700Z 0318/0500 04006KT 8000 NSC"
    },
    {
      "icao": "OMDB",
      "alert": "OK",
      "vis_m": 9999,
      "fzfg": false,
      "metar_trigger": false,
      "taf_trigger": false,
      "metar": "METAR OMDB 032230Z 09006KT CAVOK 25/18 Q1010 NOSIG",
      "taf": ""
    },
    {
      "icao": "UAAA",
      "alert": "OK",
      "vis_m": 250,
      "fzfg": false,
      "metar_trigger": false,
      "taf_trigger": false,
      "metar": "SPECI UAAA 032247Z VRB01MPS 0250 R23L/0900 FG VV002 00/00 Q1019 NOSIG RMK QBB080",
      "taf": ""
    },
    {
      "icao": "UBBB",
      "alert": "OK",
      "vis_m": 9999,
      "fzfg": false,
      "metar_trigger": false,
      "taf_trigger": false,
      "metar": "METAR UBBB 032230Z 17006KT CAVOK 07/04 Q1018 NOSIG",
      "taf": "TAF UBBB 032254Z 0400/0424 20010KT 9999 SCT030 TX12/0410Z TN04/0401Z"
    },
    {
      "icao": "UDSG",
      "alert": "OK",
      "vis_m": 9999,
      "fzfg": false,
      "metar_trigger": false,
      "taf_trigger": false,
      "metar": "METAR UDSG 032230Z 28003KT 9999 BKN046 M06/M08 Q1019 NOSIG",
      "taf": "TAF UDSG 031658Z 0318/0418 VRB06KT 9999 SCT040"
    },
    {
      "icao": "UDYZ",
      "alert": "OK",
      "vis_m": 9999,
      "fzfg": false,
      "metar_trigger": false,
      "taf_trigger": false,
      "metar": "METAR UDYZ 032230Z 07002KT 9999 NSC M01/M03 Q1019 NOSIG",
      "taf": "TAF UDYZ 031700Z 0318/0418 VRB06KT 9999 FEW040"
    },
    {
      "icao": "UGKO",
      "alert": "OK",
      "vis_m": 9999,
      "fzfg": false,
      "metar_trigger": false,
      "taf_trigger": false,
      "metar": "METAR UGKO 032230Z 01004KT 340V050 9999 SCT019 BKN030 06/03 Q1021 NOSIG",
      "taf": "TAF UGKO 031700Z 0318/0418 25006KT 9999 SCT030 OVC050 TX08/0318Z TN04/0403Z"
    }
  ]
}