{
  "ts_utc": "2026-01-11T10:58:38Z",
  "threshold_m": 150,
  "source": "stations_override.txt (ICAO list) + aviationweather.gov (METAR/TAF raw)",
  "station_count": 159,
  "stations": [
    {
      "icao": "BIKF",
      "alert": "OK",
      "vis_m": 9999,
      "fzfg": false,
      "metar_trigger": false,
      "taf_trigger": false,
      "metar": "METAR BIKF 111030Z 36012KT 9999 FEW035 SCT100 BKN170 M03/M06 Q0997",
      "taf": "TAF BIKF 111055Z 1112/1212 36013KT 9999 FEW030 TX00/1203Z TNM02/1212Z"
    },
    {
      "icao": "BKPR",
      "alert": "OK",
      "vis_m": null,
      "fzfg": false,
      "metar_trigger": false,
      "taf_trigger": false,
      "metar": "",
      "taf": ""
    },
    {
      "icao": "EBCI",
      "alert": "OK",
      "vis_m": 6000,
      "fzfg": false,
      "metar_trigger": false,
      "taf_trigger": false,
      "metar": "METAR EBCI 111050Z COR 19009KT 6000 BKN006 OVC008 M02/M03 Q1023 BECMG SCT008 BKN012",
      "taf": "TAF EBCI 110508Z 1106/1212 18005KT 8000 SCT005 BKN012"
    },
    {
      "icao": "EDDB",
      "alert": "OK",
      "vis_m": 9999,
      "fzfg": false,
      "metar_trigger": false,
      "taf_trigger": false,
      "metar": "METAR EDDB 111050Z AUTO 29010KT CAVOK M04/M08 Q1021 NOSIG",
      "taf": "TAF EDDB 110500Z 1106/1206 30010KT CAVOK"
    },
    {
      "icao": "EDDH",
      "alert": "OK",
      "vis_m": 400,
      "fzfg": true,
      "metar_trigger": false,
      "taf_trigger": false,
      "metar": "METAR EDDH 111050Z AUTO VRB01KT 0400 0150 R23/0700N R15/0650U FZFG OVC001 M08/M10 Q1025 TEMPO 0800",
      "taf": ""
    },
    {
      "icao": "EDDK",
      "alert": "OK",
      "vis_m": 9999,
      "fzfg": false,
      "metar_trigger": false,
      "taf_trigger": false,
      "metar": "METAR EDDK 111050Z AUTO 13008KT 100V160 CAVOK M04/M07 Q1025 NOSIG",
      "taf": "TAF EDDK 110500Z 1106/1212 12006KT CAVOK"
    },
    {
      "icao": "EDDN",
      "alert": "OK",
      "vis_m": 9999,
      "fzfg": false,
      "metar_trigger": false,
      "taf_trigger": false,
      "metar": "METAR EDDN 111050Z AUTO VRB02KT CAVOK M05/M09 Q1026 NOSIG",
      "taf": "TAF EDDN 110500Z 1106/1206 32002KT 9999 FEW010"
    },
    {
      "icao": "EDDS",
      "alert": "OK",
      "vis_m": 9999,
      "fzfg": false,
      "metar_trigger": false,
      "taf_trigger": false,
      "metar": "METAR EDDS 111050Z AUTO VRB02KT 9999 FEW010 OVC016 M01/M04 Q1024 NOSIG",
      "taf": ""
    },
    {
      "icao": "EDFH",
      "alert": "OK",
      "vis_m": 9999,
      "fzfg": false,
      "metar_trigger": false,
      "taf_trigger": false,
      "metar": "METAR EDFH 111050Z 13004KT 9999 BKN006 M05/M06 Q1023",
      "taf": ""
    },
    {
      "icao": "EDJA",
      "alert": "OK",
      "vis_m": 9000,
      "fzfg": false,
      "metar_trigger": false,
      "taf_trigger": false,
      "metar": "METAR EDJA 111050Z 22003KT 190V250 9000 SCT007 BKN010 BKN026 M03/M05 Q1023",
      "taf": ""
    },
    {
      "icao": "EDLW",
      "alert": "OK",
      "vis_m": 9999,
      "fzfg": false,
      "metar_trigger": false,
      "taf_trigger": false,
      "metar": "METAR EDLW 111050Z 11007KT 080V140 CAVOK M03/M08 Q1024",
      "taf": "TAF EDLW 110500Z 1106/1206 15005KT CAVOK"
    },
    {
      "icao": "EDNY",
      "alert": "OK",
      "vis_m": 9999,
      "fzfg": false,
      "metar_trigger": false,
      "taf_trigger": false,
      "metar": "METAR EDNY 111050Z 03003KT 9999 OVC024 M00/M03 Q1024",
      "taf": "TAF EDNY 110800Z 1109/1118 VRB03KT 9999 FEW012 BKN020"
    },
    {
      "icao": "EDSB",
      "alert": "OK",
      "vis_m": 9000,
      "fzfg": false,
      "metar_trigger": false,
      "taf_trigger": false,
      "metar": "METAR EDSB 111050Z 01003KT 9000 OVC023 M00/M02 Q1026",
      "taf": "TAF EDSB 110500Z 1106/1206 VRB03KT 9999 BKN015"
    },
    {
      "icao": "EETN",
      "alert": "OK",
      "vis_m": 600,
      "fzfg": false,
      "metar_trigger": false,
      "taf_trigger": false,
      "metar": "METAR EETN 111050Z 09010KT 0600 R08/1200N +SN DRSN VV005 M05/M06 Q1010 NOSIG",
      "taf": "TAF EETN 110530Z 1106/1206 04015KT 2000 SN DRSN BKN010 OVC020"
    },
    {
      "icao": "EFTU",
      "alert": "OK",
      "vis_m": 6000,
      "fzfg": false,
      "metar_trigger": false,
      "taf_trigger": false,
      "metar": "METAR EFTU 111050Z AUTO 03008KT 340V060 6000 -SN FEW014 OVC043 M07/M09 Q1014",
      "taf": "TAF EFTU 110823Z 1109/1209 02010KT 9999 -SN FEW016"
    },
    {
      "icao": "EGBB",
      "alert": "OK",
      "vis_m": 9999,
      "fzfg": false,
      "metar_trigger": false,
      "taf_trigger": false,
      "metar": "METAR EGBB 111050Z 16015KT 9999 SCT014 BKN033 05/02 Q1010",
      "taf": "TAF EGBB 110506Z 1106/1206 15010KT 9999 FEW015 SCT030"
    },
    {
      "icao": "EGGP",
      "alert": "OK",
      "vis_m": 9999,
      "fzfg": false,
      "metar_trigger": false,
      "taf_trigger": false,
      "metar": "METAR EGGP 111050Z 15013KT 130V190 9999 -RA FEW010 BKN013 05/04 Q1005",
      "taf": "TAF EGGP 110458Z 1106/1206 16015G25KT 9999 SCT030"
    },
    {
      "icao": "EGGW",
      "alert": "OK",
      "vis_m": 9999,
      "fzfg": false,
      "metar_trigger": false,
      "taf_trigger": false,
      "metar": "METAR EGGW 111050Z AUTO 17012KT 9999 BKN013 04/02 Q1014",
      "taf": "TAF EGGW 110505Z 1106/1206 15012KT 9999 FEW012 SCT040"
    },
    {
      "icao": "EGKK",
      "alert": "OK",
      "vis_m": 9999,
      "fzfg": false,
      "metar_trigger": false,
      "taf_trigger": false,
      "metar": "METAR EGKK 111050Z 17010KT 9999 SCT015 06/04 Q1016",
      "taf": "TAF EGKK 110501Z 1106/1212 10005KT 9999 FEW020"
    },
    {
      "icao": "EGNM",
      "alert": "OK",
      "vis_m": 2800,
      "fzfg": false,
      "metar_trigger": false,
      "taf_trigger": false,
      "metar": "METAR EGNM 111050Z 15012KT 2800 -RA BR SCT002 BKN004 01/01 Q1007",
      "taf": "TAF EGNM 110457Z 1106/1206 15012KT 9999 SCT020"
    },
    {
      "icao": "EGPD",
      "alert": "OK",
      "vis_m": 7000,
      "fzfg": false,
      "metar_trigger": false,
      "taf_trigger": false,
      "metar": "METAR EGPD 111050Z AUTO 17025G35KT 7000 -RA BKN010/// OVC016/// //////TCU 03/01 Q1000 RERA REDZ TEMPO 4000 RA BKN008",
      "taf": "TAF EGPD 110457Z 1106/1206 17022G38KT 9999 BKN016"
    },
    {
      "icao": "EGPF",
      "alert": "OK",
      "vis_m": 9999,
      "fzfg": false,
      "metar_trigger": false,
      "taf_trigger": false,
      "metar": "METAR EGPF 111050Z AUTO 15006G16KT 090V200 9999 -RA BKN012/// BKN038/// //////CB 07/05 Q0997 RERA",
      "taf": ""
    },
    {
      "icao": "EHBK",
      "alert": "OK",
      "vis_m": 9000,
      "fzfg": false,
      "metar_trigger": false,
      "taf_trigger": false,
      "metar": "METAR EHBK 111055Z AUTO 19009KT 9000 OVC011/// M02/M03 Q1024 NOSIG",
      "taf": ""
    },
    {
      "icao": "EHEH",
      "alert": "OK",
      "vis_m": 6000,
      "fzfg": false,
      "metar_trigger": false,
      "taf_trigger": false,
      "metar": "METAR EHEH 111025Z AUTO 15007KT 110V190 6000 BR OVC012 M02/M04 Q1024 GRN BECMG BKN012 RMK TREND REMOTE BY EHWX",
      "taf": "TAF EHEH 110923Z 1106/1212 07004KT CAVOK"
    },
    {
      "icao": "EKBI",
      "alert": "OK",
      "vis_m": 9999,
      "fzfg": false,
      "metar_trigger": false,
      "taf_trigger": false,
      "metar": "METAR EKBI 111050Z AUTO 10002KT 9999 NCD M08/M09 Q1024",
      "taf": "TAF EKBI 110827Z 1109/1209 VRB02KT CAVOK"
    },
    {
      "icao": "EKCH",
      "alert": "OK",
      "vis_m": 9999,
      "fzfg": false,
      "metar_trigger": false,
      "taf_trigger": false,
      "metar": "METAR EKCH 111050Z AUTO 34009KT 310V010 9999 NCD M02/M08 Q1022 NOSIG",
      "taf": "TAF EKCH 110827Z 1109/1209 33012KT CAVOK"
    },
    {
      "icao": "ENAL",
      "alert": "OK",
      "vis_m": 9999,
      "fzfg": false,
      "metar_trigger": false,
      "taf_trigger": false,
      "metar": "METAR ENAL 111050Z 12013KT CAVOK 02/M09 Q1014",
      "taf": "TAF ENAL 110800Z 1109/1118 14015KT CAVOK"
    },
    {
      "icao": "ENBR",
      "alert": "OK",
      "vis_m": 9999,
      "fzfg": false,
      "metar_trigger": false,
      "taf_trigger": false,
      "metar": "METAR ENBR 111050Z 13013KT 9999 SCT048 01/M07 Q1016 NOSIG RMK WIND 1200FT 14029KT",
      "taf": ""
    },
    {
      "icao": "ENGM",
      "alert": "OK",
      "vis_m": 9999,
      "fzfg": false,
      "metar_trigger": false,
      "taf_trigger": false,
      "metar": "METAR ENGM 111050Z VRB01KT 9999 SCT003 M17/M20 Q1023 TEMPO BKN003",
      "taf": "TAF ENGM 110500Z 1106/1206 34005KT CAVOK"
    },
    {
      "icao": "ENHD",
      "alert": "OK",
      "vis_m": 9999,
      "fzfg": false,
      "metar_trigger": false,
      "taf_trigger": false,
      "metar": "METAR ENHD 111050Z 13024KT 9999 BKN038 01/M05 Q1017",
      "taf": "TAF ENHD 110800Z 1109/1118 12020KT 9999 BKN040"
    },
    {
      "icao": "ENTC",
      "alert": "OK",
      "vis_m": 9999,
      "fzfg": false,
      "metar_trigger": false,
      "taf_trigger": false,
      "metar": "METAR ENTC 111050Z VRB01KT CAVOK M09/M12 Q1020 NOSIG RMK WIND 2600FT 18018KT",
      "taf": "TAF ENTC 110500Z 1106/1206 20005KT CAVOK"
    },
    {
      "icao": "ENTO",
      "alert": "OK",
      "vis_m": 9999,
      "fzfg": false,
      "metar_trigger": false,
      "taf_trigger": false,
      "metar": "METAR ENTO 111050Z 36004KT 9999 SCT010 M15/M17 Q1024 NOSIG",
      "taf": "TAF ENTO 110500Z 1106/1206 36003KT CAVOK"
    },
    {
      "icao": "ENVA",
      "alert": "OK",
      "vis_m": 9999,
      "fzfg": false,
      "metar_trigger": false,
      "taf_trigger": false,
      "metar": "METAR ENVA 111050Z 10005KT 070V140 CAVOK M08/M14 Q1019 NOSIG RMK WIND 670FT 11012KT",
      "taf": "TAF ENVA 110500Z 1106/1206 11008KT CAVOK"
    },
    {
      "icao": "ENZV",
      "alert": "OK",
      "vis_m": 9999,
      "fzfg": false,
      "metar_trigger": false,
      "taf_trigger": false,
      "metar": "METAR ENZV 111050Z 14021KT 9999 FEW030 SCT045 00/M06 Q1018 NOSIG",
      "taf": "TAF ENZV 110500Z 1106/1206 13015KT 9999 SCT045"
    },
    {
      "icao": "EPGD",
      "alert": "OK",
      "vis_m": 1400,
      "fzfg": false,
      "metar_trigger": false,
      "taf_trigger": false,
      "metar": "METAR EPGD 111030Z 32011KT 1400 R29/1400U SHSN VV010 M01/M02 Q1009 RESHSN",
      "taf": "TAF EPGD 110530Z 1106/1206 33012KT 3500 -SHSN DRSN BKN012 BKN016CB"
    },
    {
      "icao": "EPKK",
      "alert": "OK",
      "vis_m": 4500,
      "fzfg": false,
      "metar_trigger": false,
      "taf_trigger": false,
      "metar": "METAR EPKK 111030Z 27016KT 4500 -SN DRSN BR BKN020 M03/M06 Q1011",
      "taf": "TAF EPKK 110830Z 1109/1209 27015KT 6000 -SN BKN020"
    },
    {
      "icao": "EPKT",
      "alert": "OK",
      "vis_m": 2000,
      "fzfg": false,
      "metar_trigger": false,
      "taf_trigger": false,
      "metar": "METAR EPKT 111030Z 28015KT 2000 SN DRSN FEW009 BKN012 M04/M06 Q1011",
      "taf": "TAF EPKT 110530Z 1106/1206 28012KT 3500 -SN BR BKN014 BKN017"
    },
    {
      "icao": "EPLB",
      "alert": "OK",
      "vis_m": 9999,
      "fzfg": false,
      "metar_trigger": false,
      "taf_trigger": false,
      "metar": "METAR EPLB 111030Z 30010KT 9999 -SN FEW013 M05/M07 Q1006",
      "taf": "TAF EPLB 110530Z 1106/1206 29008KT 7000 -SN BKN030"
    },
    {
      "icao": "EPMO",
      "alert": "OK",
      "vis_m": 8000,
      "fzfg": false,
      "metar_trigger": false,
      "taf_trigger": false,
      "metar": "METAR EPMO 111030Z 31006KT 8000 -SN FEW026 SCT044 M04/M05 Q1008",
      "taf": "TAF EPMO 110530Z 1106/1206 30010KT 9999 BKN025"
    },
    {
      "icao": "EPPO",
      "alert": "OK",
      "vis_m": 9999,
      "fzfg": false,
      "metar_trigger": false,
      "taf_trigger": false,
      "metar": "METAR EPPO 111030Z 30012KT 9999 SCT016 BKN033 M02/M06 Q1014",
      "taf": "TAF EPPO 110530Z 1106/1206 30014KT 9999 -SN BKN020"
    },
    {
      "icao": "EPRA",
      "alert": "OK",
      "vis_m": 3500,
      "fzfg": false,
      "metar_trigger": false,
      "taf_trigger": false,
      "metar": "METAR EPRA 111030Z 30008KT 270V340 3500 -SN BKN012 M04/M06 Q1007",
      "taf": "TAF EPRA 110830Z 1109/1118 31010KT 8000 -SN BKN020"
    },
    {
      "icao": "EPRZ",
      "alert": "OK",
      "vis_m": 1300,
      "fzfg": false,
      "metar_trigger": false,
      "taf_trigger": false,
      "metar": "METAR EPRZ 111030Z 29009KT 1300 R27/1400N SN BR FEW003 OVC015 M04/M05 Q1008",
      "taf": "TAF EPRZ 110530Z 1106/1206 26014KT 6000 -SN BKN014 BKN017"
    },
    {
      "icao": "EPSC",
      "alert": "OK",
      "vis_m": 9999,
      "fzfg": false,
      "metar_trigger": false,
      "taf_trigger": false,
      "metar": "METAR EPSC 111030Z 32014KT 290V350 9999 BKN022 M01/M05 Q1017",
      "taf": "TAF EPSC 110530Z 1106/1206 30012KT CAVOK"
    },
    {
      "icao": "EPSY",
      "alert": "OK",
      "vis_m": 9999,
      "fzfg": false,
      "metar_trigger": false,
      "taf_trigger": false,
      "metar": "METAR EPSY 111030Z 33007KT 290V360 9999 SCT013 M06/M09 Q1007",
      "taf": "TAF EPSY 110830Z 1109/1118 32007KT 9999 BKN030"
    },
    {
      "icao": "EPWA",
      "alert": "OK",
      "vis_m": 9999,
      "fzfg": false,
      "metar_trigger": false,
      "taf_trigger": false,
      "metar": "METAR EPWA 111030Z 31008KT 9999 -SN FEW013 M03/M06 Q1008 NOSIG",
      "taf": "TAF EPWA 110830Z 1109/1209 28008KT 9999 BKN025"
    },
    {
      "icao": "EPWR",
      "alert": "OK",
      "vis_m": 8000,
      "fzfg": false,
      "metar_trigger": false,
      "taf_trigger": false,
      "metar": "METAR EPWR 111030Z 28020KT 8000 -SN DRSN FEW012 BKN019 M05/M07 Q1016",
      "taf": "TAF EPWR 110830Z 1109/1209 29015KT 9999 -SN BKN030"
    },
    {
      "icao": "ESGG",
      "alert": "OK",
      "vis_m": 4000,
      "fzfg": false,
      "metar_trigger": false,
      "taf_trigger": false,
      "metar": "METAR ESGG 111050Z 03003KT 4000 BR SCT003 M10/M12 Q1022",
      "taf": ""
    },
    {
      "icao": "ESKN",
      "alert": "OK",
      "vis_m": 9999,
      "fzfg": false,
      "metar_trigger": false,
      "taf_trigger": false,
      "metar": "METAR ESKN 111050Z 32013KT CAVOK M07/M09 Q1018",
      "taf": "TAF ESKN 110830Z 1109/1209 34014KT 9999 FEW015"
    },
    {
      "icao": "ESMS",
      "alert": "OK",
      "vis_m": 9999,
      "fzfg": false,
      "metar_trigger": false,
      "taf_trigger": false,
      "metar": "METAR ESMS 111050Z 32012KT CAVOK M06/M10 Q1021",
      "taf": "TAF ESMS 110827Z 1109/1209 32008KT CAVOK"
    },
    {
      "icao": "ESSA",
      "alert": "OK",
      "vis_m": 9999,
      "fzfg": false,
      "metar_trigger": false,
      "taf_trigger": false,
      "metar": "METAR ESSA 111050Z 33015KT CAVOK M06/M08 Q1017 NOSIG",
      "taf": "TAF ESSA 110830Z 1109/1209 33014KT CAVOK"
    },
    {
      "icao": "EYKA",
      "alert": "OK",
      "vis_m": 6000,
      "fzfg": false,
      "metar_trigger": false,
      "taf_trigger": false,
      "metar": "METAR EYKA 111050Z 31003KT 280V360 6000 -SN FEW026 OVC035 M11/M12 Q1006",
      "taf": "TAF EYKA 110512Z 1106/1206 VRB03KT 5000 SN BKN030"
    },
    {
      "icao": "EYPA",
      "alert": "OK",
      "vis_m": 9999,
      "fzfg": false,
      "metar_trigger": false,
      "taf_trigger": false,
      "metar": "METAR EYPA 111050Z 03010KT 9999 FEW048 M04/M07 Q1007",
      "taf": "TAF EYPA 110511Z 1106/1206 02007KT 7000 BKN030"
    },
    {
      "icao": "EYVI",
      "alert": "OK",
      "vis_m": 9999,
      "fzfg": false,
      "metar_trigger": false,
      "taf_trigger": false,
      "metar": "METAR EYVI 111050Z 32004KT 290V360 9999 -SN FEW006 BKN030 M13/M15 Q1004 NOSIG",
      "taf": "TAF EYVI 110503Z 1106/1206 VRB03KT 5000 SN BKN025"
    },
    {
      "icao": "GCFV",
      "alert": "OK",
      "vis_m": 9999,
      "fzfg": false,
      "metar_trigger": false,
      "taf_trigger": false,
      "metar": "METAR GCFV 111030Z 06011KT 9999 FEW025 19/12 Q1026",
      "taf": "TAF GCFV 110800Z 1109/1209 05010KT 9999 FEW020 TX20/1114Z TN13/1206Z"
    },
    {
      "icao": "GCLP",
      "alert": "OK",
      "vis_m": 9999,
      "fzfg": false,
      "metar_trigger": false,
      "taf_trigger": false,
      "metar": "METAR GCLP 111030Z 05012KT 9999 SCT035 20/12 Q1026 NOSIG",
      "taf": "TAF GCLP 110800Z 1109/1209 03014KT 9999 FEW025 TX21/1114Z TN14/1206Z"
    },
    {
      "icao": "GCTS",
      "alert": "OK",
      "vis_m": 9999,
      "fzfg": false,
      "metar_trigger": false,
      "taf_trigger": false,
      "metar": "METAR GCTS 111030Z 08015KT 050V110 9999 FEW040 20/10 Q1026 NOSIG",
      "taf": "TAF GCTS 110800Z 1109/1209 09015KT 9999 SCT040 TX23/1114Z TN16/1206Z"
    },
    {
      "icao": "GMAD",
      "alert": "OK",
      "vis_m": 9999,
      "fzfg": false,
      "metar_trigger": false,
      "taf_trigger": false,
      "metar": "METAR GMAD 111030Z 06006KT CAVOK 14/10 Q1026 NOSIG",
      "taf": "TAF GMAD 110500Z 1106/1212 05006KT CAVOK"
    },
    {
      "icao": "GMMN",
      "alert": "OK",
      "vis_m": 9999,
      "fzfg": false,
      "metar_trigger": false,
      "taf_trigger": false,
      "metar": "METAR GMMN 111030Z 08011KT 9999 FEW023 13/09 Q1027 NOSIG",
      "taf": "TAF GMMN 110500Z 1106/1212 04007KT 9999 SCT023"
    },
    {
      "icao": "GMMX",
      "alert": "OK",
      "vis_m": 9999,
      "fzfg": false,
      "metar_trigger": false,
      "taf_trigger": false,
      "metar": "METAR GMMX 111030Z VRB01KT CAVOK 13/09 Q1026 NOSIG",
      "taf": "TAF GMMX 110500Z 1106/1212 06005KT CAVOK"
    },
    {
      "icao": "HEGN",
      "alert": "OK",
      "vis_m": 9999,
      "fzfg": false,
      "metar_trigger": false,
      "taf_trigger": false,
      "metar": "METAR HEGN 111000Z 35003KT CAVOK 22/06 Q1017 NOSIG",
      "taf": ""
    },
    {
      "icao": "HEMA",
      "alert": "OK",
      "vis_m": 9999,
      "fzfg": false,
      "metar_trigger": false,
      "taf_trigger": false,
      "metar": "METAR HEMA 111000Z 34011KT CAVOK 22/14 Q1018 NOSIG",
      "taf": ""
    },
    {
      "icao": "HESH",
      "alert": "OK",
      "vis_m": 9999,
      "fzfg": false,
      "metar_trigger": false,
      "taf_trigger": false,
      "metar": "METAR HESH 111000Z 34006KT CAVOK 23/07 Q1018 NOSIG",
      "taf": ""
    },
    {
      "icao": "HESX",
      "alert": "OK",
      "vis_m": 9999,
      "fzfg": false,
      "metar_trigger": false,
      "taf_trigger": false,
      "metar": "METAR HESX 111000Z 25004KT CAVOK 18/06 Q1018 NOSIG",
      "taf": ""
    },
    {
      "icao": "LATI",
      "alert": "OK",
      "vis_m": 9999,
      "fzfg": false,
      "metar_trigger": false,
      "taf_trigger": false,
      "metar": "METAR LATI 111050Z VRB02KT CAVOK 10/M02 Q1009 NOSIG",
      "taf": "TAF LATI 110500Z 1106/1206 VRB04KT CAVOK TX08/1112Z TNM04/1205Z"
    },
    {
      "icao": "LBPD",
      "alert": "OK",
      "vis_m": 9999,
      "fzfg": false,
      "metar_trigger": false,
      "taf_trigger": false,
      "metar": "METAR LBPD 111030Z AUTO 28018KT 9999 OVC039/// 03/M01 Q1007 NOSIG",
      "taf": "TAF LBPD 110500Z 1106/1206 28015G28KT 9999 SCT020 BKN050"
    },
    {
      "icao": "LBSF",
      "alert": "OK",
      "vis_m": 8000,
      "fzfg": false,
      "metar_trigger": false,
      "taf_trigger": false,
      "metar": "METAR LBSF 111030Z 29020KT 8000 -SN OVC013 M03/M05 Q1009 NOSIG",
      "taf": ""
    },
    {
      "icao": "LBWN",
      "alert": "OK",
      "vis_m": 9999,
      "fzfg": false,
      "metar_trigger": false,
      "taf_trigger": false,
      "metar": "METAR LBWN 111030Z 32011KT 300V360 9999 SCT016 M01/M04 Q1009 NOSIG",
      "taf": "TAF LBWN 110500Z 1106/1206 36018G30KT 4000 SN BKN010 OVC020"
    },
    {
      "icao": "LCLK",
      "alert": "OK",
      "vis_m": 9999,
      "fzfg": false,
      "metar_trigger": false,
      "taf_trigger": false,
      "metar": "METAR LCLK 111030Z 20018KT 9999 FEW020 FEW025TCU FEW030CB 21/14 Q1013 NOSIG RMK CB TO W NW",
      "taf": ""
    },
    {
      "icao": "LCPH",
      "alert": "OK",
      "vis_m": 9999,
      "fzfg": false,
      "metar_trigger": false,
      "taf_trigger": false,
      "metar": "METAR LCPH 111030Z 24012KT 9999 SCT030 FEW035CB SCT045 19/13 Q1013 NOSIG",
      "taf": ""
    },
    {
      "icao": "LEAL",
      "alert": "OK",
      "vis_m": 9999,
      "fzfg": false,
      "metar_trigger": false,
      "taf_trigger": false,
      "metar": "METAR LEAL 111030Z 30011KT CAVOK 15/02 Q1026 NOSIG",
      "taf": "TAF LEAL 110500Z 1106/1206 29008KT CAVOK TX17/1114Z TN07/1106Z"
    },
    {
      "icao": "LEBB",
      "alert": "OK",
      "vis_m": 9999,
      "fzfg": false,
      "metar_trigger": false,
      "taf_trigger": false,
      "metar": "METAR LEBB 111030Z VRB02KT 9999 FEW049 12/06 Q1023 NOSIG",
      "taf": "TAF LEBB 110500Z 1106/1206 14008KT 9999 FEW040 SCT060 TX14/1114Z TN05/1106Z"
    },
    {
      "icao": "LEBL",
      "alert": "OK",
      "vis_m": 9999,
      "fzfg": false,
      "metar_trigger": false,
      "taf_trigger": false,
      "metar": "METAR LEBL 111030Z 33012KT 250V010 9999 FEW050 10/04 Q1024 NOSIG",
      "taf": "TAF LEBL 110500Z 1106/1206 35009KT 9999 FEW020 TX13/1113Z TN05/1106Z"
    },
    {
      "icao": "LECH",
      "alert": "OK",
      "vis_m": 9000,
      "fzfg": false,
      "metar_trigger": false,
      "taf_trigger": false,
      "metar": "METAR LECH 111030Z AUTO 22004KT 200V270 9000 NCD 11/M00 Q1025",
      "taf": ""
    },
    {
      "icao": "LEMD",
      "alert": "OK",
      "vis_m": 9999,
      "fzfg": false,
      "metar_trigger": false,
      "taf_trigger": false,
      "metar": "METAR LEMD 111030Z 18003KT 140V240 CAVOK 03/M01 Q1027 NOSIG",
      "taf": "TAF LEMD 110500Z 1106/1212 VRB03KT CAVOK TX10/1114Z TNM03/1106Z"
    },
    {
      "icao": "LEMG",
      "alert": "OK",
      "vis_m": 9999,
      "fzfg": false,
      "metar_trigger": false,
      "taf_trigger": false,
      "metar": "METAR LEMG 111030Z 28009KT CAVOK 13/04 Q1027 NOSIG",
      "taf": "TAF LEMG 110500Z 1106/1206 29012KT CAVOK TX17/1114Z TN06/1107Z"
    },
    {
      "icao": "LEVC",
      "alert": "OK",
      "vis_m": 9999,
      "fzfg": false,
      "metar_trigger": false,
      "taf_trigger": false,
      "metar": "METAR LEVC 111030Z 25006KT 220V280 CAVOK 12/00 Q1026 NOSIG",
      "taf": "TAF LEVC 110500Z 1106/1206 27008KT CAVOK TX16/1114Z TN04/1106Z"
    },
    {
      "icao": "LEXJ",
      "alert": "OK",
      "vis_m": 9999,
      "fzfg": false,
      "metar_trigger": false,
      "taf_trigger": false,
      "metar": "METAR LEXJ 111030Z VRB02KT CAVOK 11/06 Q1021",
      "taf": "TAF LEXJ 110800Z 1109/1209 22009KT 9999 FEW040 SCT070 TX16/1113Z TN12/1208Z"
    },
    {
      "icao": "LEZG",
      "alert": "OK",
      "vis_m": 9999,
      "fzfg": false,
      "metar_trigger": false,
      "taf_trigger": false,
      "metar": "METAR LEZG 111030Z 24009KT 210V270 CAVOK 10/02 Q1025 NOSIG",
      "taf": "TAF LEZG 110500Z 1106/1206 24009KT 9999 FEW020 TX12/1115Z TN03/1106Z"
    },
    {
      "icao": "LEZL",
      "alert": "OK",
      "vis_m": 9999,
      "fzfg": false,
      "metar_trigger": false,
      "taf_trigger": false,
      "metar": "METAR LEZL 111030Z 04006KT CAVOK 10/07 Q1029 NOSIG",
      "taf": "TAF LEZL 110800Z 1109/1209 06004KT CAVOK TX16/1115Z TN05/1207Z"
    },
    {
      "icao": "LFBD",
      "alert": "OK",
      "vis_m": 500,
      "fzfg": false,
      "metar_trigger": false,
      "taf_trigger": false,
      "metar": "METAR LFBD 111030Z AUTO 15006KT 120V180 0500 0450 R23/0700N R05/0650N R29/0600N FG VV/// 04/04 Q1024",
      "taf": ""
    },
    {
      "icao": "LFLL",
      "alert": "OK",
      "vis_m": 9999,
      "fzfg": false,
      "metar_trigger": false,
      "taf_trigger": false,
      "metar": "METAR LFLL 111030Z 33008KT 9999 FEW017 03/M01 Q1024 NOSIG",
      "taf": "TAF LFLL 110500Z 1106/1212 34005KT 9999 BKN028"
    },
    {
      "icao": "LFLS",
      "alert": "OK",
      "vis_m": 9999,
      "fzfg": false,
      "metar_trigger": false,
      "taf_trigger": false,
      "metar": "METAR LFLS 111030Z AUTO 30005KT 280V340 9999 BKN011 01/M01 Q1023",
      "taf": "TAF LFLS 110200Z 1103/1203 33008KT 9999 FEW013 BKN030"
    },
    {
      "icao": "LFMN",
      "alert": "OK",
      "vis_m": 9999,
      "fzfg": false,
      "metar_trigger": false,
      "taf_trigger": false,
      "metar": "METAR LFMN 111030Z 32012KT CAVOK 10/M07 Q1019 NOSIG",
      "taf": "TAF LFMN 110800Z 1109/1215 33010KT CAVOK"
    },
    {
      "icao": "LFOB",
      "alert": "OK",
      "vis_m": 9999,
      "fzfg": false,
      "metar_trigger": false,
      "taf_trigger": false,
      "metar": "METAR LFOB 111030Z AUTO 18008KT CAVOK 02/M01 Q1023 NOSIG",
      "taf": "TAF LFOB 110500Z 1106/1206 18008KT 9999 BKN020"
    },
    {
      "icao": "LFPO",
      "alert": "OK",
      "vis_m": 9999,
      "fzfg": false,
      "metar_trigger": false,
      "taf_trigger": false,
      "metar": "METAR LFPO 111030Z AUTO 19007KT CAVOK 02/M01 Q1024",
      "taf": "TAF LFPO 110500Z 1106/1212 19005KT CAVOK"
    },
    {
      "icao": "LFSB",
      "alert": "OK",
      "vis_m": 9999,
      "fzfg": false,
      "metar_trigger": false,
      "taf_trigger": false,
      "metar": "METAR LFSB 111030Z AUTO 27001KT 9999 BKN009 OVC014 01/M01 Q1025 BECMG SCT013",
      "taf": ""
    },
    {
      "icao": "LGAV",
      "alert": "OK",
      "vis_m": 9999,
      "fzfg": false,
      "metar_trigger": false,
      "taf_trigger": false,
      "metar": "METAR LGAV 111020Z 26011KT 9999 SCT020 13/03 Q1005 NOSIG",
      "taf": "TAF LGAV 110500Z 1106/1206 24012KT 9999 SCT025 SCT070"
    },
    {
      "icao": "LGTS",
      "alert": "OK",
      "vis_m": 9999,
      "fzfg": false,
      "metar_trigger": false,
      "taf_trigger": false,
      "metar": "METAR LGTS 111050Z 32020G30KT 9999 FEW025 07/01 Q1007 NOSIG",
      "taf": "TAF LGTS 110500Z 1106/1206 34015KT 9999 SCT030"
    },
    {
      "icao": "LHBP",
      "alert": "OK",
      "vis_m": 9999,
      "fzfg": false,
      "metar_trigger": false,
      "taf_trigger": false,
      "metar": "METAR LHBP 111030Z 31023KT 9999 DRSN FEW020 BKN075 M03/M07 Q1015 NOSIG",
      "taf": "TAF LHBP 110515Z 1106/1206 30012KT CAVOK"
    },
    {
      "icao": "LHDC",
      "alert": "OK",
      "vis_m": null,
      "fzfg": false,
      "metar_trigger": false,
      "taf_trigger": false,
      "metar": "",
      "taf": "TAF LHDC 110815Z 1109/1118 21007KT CAVOK"
    },
    {
      "icao": "LIBD",
      "alert": "OK",
      "vis_m": 9999,
      "fzfg": false,
      "metar_trigger": false,
      "taf_trigger": false,
      "metar": "METAR LIBD 111050Z 33011KT 300V020 9999 SCT025 11/01 Q1012",
      "taf": "TAF LIBD 110500Z 1106/1206 29014KT 9999 FEW040"
    },
    {
      "icao": "LIBG",
      "alert": "OK",
      "vis_m": 9999,
      "fzfg": false,
      "metar_trigger": false,
      "taf_trigger": false,
      "metar": "METAR LIBG 110950Z 31010KT 9999 FEW040 09/06 Q1011",
      "taf": "TAF LIBG 110800Z 1109/1118 32012KT 9999 SCT040"
    },
    {
      "icao": "LIBP",
      "alert": "OK",
      "vis_m": 4500,
      "fzfg": false,
      "metar_trigger": false,
      "taf_trigger": false,
      "metar": "METAR LIBP 111020Z AUTO 05007KT 4500 RA OVC013/// 04/03 Q1019",
      "taf": "TAF LIBP 110500Z 1106/1206 23007KT 9999 SCT040"
    },
    {
      "icao": "LIBR",
      "alert": "OK",
      "vis_m": 9999,
      "fzfg": false,
      "metar_trigger": false,
      "taf_trigger": false,
      "metar": "METAR LIBR 111050Z 36019KT 9999 FEW045 11/00 Q1010",
      "taf": ""
    },
    {
      "icao": "LICA",
      "alert": "OK",
      "vis_m": 9999,
      "fzfg": false,
      "metar_trigger": false,
      "taf_trigger": false,
      "metar": "METAR LICA 111020Z AUTO 30010KT 9999 NCD 12/02 Q1012",
      "taf": "TAF LICA 110500Z 1106/1206 VRB05KT 9999 SCT020"
    },
    {
      "icao": "LICC",
      "alert": "OK",
      "vis_m": 9999,
      "fzfg": false,
      "metar_trigger": false,
      "taf_trigger": false,
      "metar": "METAR LICC 111050Z 26012KT 9999 FEW080 13/09 Q1013",
      "taf": "TAF LICC 110500Z 1106/1206 26017KT 9999 SCT040"
    },
    {
      "icao": "LICJ",
      "alert": "OK",
      "vis_m": 9999,
      "fzfg": false,
      "metar_trigger": false,
      "taf_trigger": false,
      "metar": "METAR LICJ 111050Z 31014KT 9999 -RA SCT035 SCT050 11/05 Q1015",
      "taf": "TAF LICJ 110500Z 1106/1206 30020G30KT 9999 SCT030"
    },
    {
      "icao": "LIMC",
      "alert": "OK",
      "vis_m": 9999,
      "fzfg": false,
      "metar_trigger": false,
      "taf_trigger": false,
      "metar": "METAR LIMC 111050Z 07013KT CAVOK 11/M09 Q1018 NOSIG",
      "taf": "TAF LIMC 110500Z 1106/1212 01007KT CAVOK"
    },
    {
      "icao": "LIME",
      "alert": "OK",
      "vis_m": 9999,
      "fzfg": false,
      "metar_trigger": false,
      "taf_trigger": false,
      "metar": "METAR LIME 111050Z VRB02KT CAVOK 10/M10 Q1017 NOSIG",
      "taf": "TAF LIME 110500Z 1106/1206 VRB06KT CAVOK"
    },
    {
      "icao": "LIMF",
      "alert": "OK",
      "vis_m": 9999,
      "fzfg": false,
      "metar_trigger": false,
      "taf_trigger": false,
      "metar": "METAR LIMF 111050Z VRB02KT CAVOK 08/M07 Q1018",
      "taf": "TAF LIMF 110500Z 1106/1206 VRB05KT CAVOK"
    },
    {
      "icao": "LIMJ",
      "alert": "OK",
      "vis_m": 9999,
      "fzfg": false,
      "metar_trigger": false,
      "taf_trigger": false,
      "metar": "METAR LIMJ 111050Z 34010G22KT 300V020 CAVOK 13/M10 Q1018",
      "taf": "TAF LIMJ 110500Z 1106/1206 03012KT CAVOK"
    },
    {
      "icao": "LIPE",
      "alert": "OK",
      "vis_m": 9999,
      "fzfg": false,
      "metar_trigger": false,
      "taf_trigger": false,
      "metar": "METAR LIPE 111050Z 25007KT CAVOK 07/M04 Q1018",
      "taf": "TAF LIPE 110500Z 1106/1206 VRB06KT CAVOK"
    },
    {
      "icao": "LIPH",
      "alert": "OK",
      "vis_m": 9999,
      "fzfg": false,
      "metar_trigger": false,
      "taf_trigger": false,
      "metar": "METAR LIPH 111050Z 05004KT 360V080 CAVOK 05/M00 Q1018",
      "taf": "TAF LIPH 110500Z 1106/1206 VRB05KT CAVOK"
    },
    {
      "icao": "LIPQ",
      "alert": "OK",
      "vis_m": 9999,
      "fzfg": false,
      "metar_trigger": false,
      "taf_trigger": false,
      "metar": "METAR LIPQ 111050Z AUTO 12006KT 9999 BKN240/// 04/M02 Q1018",
      "taf": "TAF LIPQ 110500Z 1106/1206 VRB05KT CAVOK"
    },
    {
      "icao": "LIPR",
      "alert": "OK",
      "vis_m": 9999,
      "fzfg": false,
      "metar_trigger": false,
      "taf_trigger": false,
      "metar": "METAR LIPR 111050Z VRB02KT 9999 BKN030 06/01 Q1018",
      "taf": "TAF LIPR 110500Z 1106/1206 28010KT 9999 FEW040"
    },
    {
      "icao": "LIPX",
      "alert": "OK",
      "vis_m": 9999,
      "fzfg": false,
      "metar_trigger": false,
      "taf_trigger": false,
      "metar": "METAR LIPX 111050Z 24003KT 200V290 CAVOK 10/M05 Q1017",
      "taf": "TAF LIPX 110500Z 1106/1206 VRB05KT CAVOK"
    },
    {
      "icao": "LIPY",
      "alert": "OK",
      "vis_m": 9999,
      "fzfg": false,
      "metar_trigger": false,
      "taf_trigger": false,
      "metar": "METAR LIPY 111020Z AUTO 29004KT 240V340 9999 BKN028/// BKN120/// 07/02 Q1018",
      "taf": "TAF LIPY 110500Z 1106/1206 28007KT 9999 FEW040"
    },
    {
      "icao": "LIPZ",
      "alert": "OK",
      "vis_m": 9999,
      "fzfg": false,
      "metar_trigger": false,
      "taf_trigger": false,
      "metar": "METAR LIPZ 111050Z 09010KT 9999 FEW020 06/02 Q1018 NOSIG",
      "taf": "TAF LIPZ 110500Z 1106/1212 VRB05KT CAVOK"
    },
    {
      "icao": "LIRF",
      "alert": "OK",
      "vis_m": 9999,
      "fzfg": false,
      "metar_trigger": false,
      "taf_trigger": false,
      "metar": "METAR LIRF 111050Z 04009KT CAVOK 10/00 Q1015 NOSIG",
      "taf": "TAF LIRF 110500Z 1106/1212 03007KT 9999 SCT030"
    },
    {
      "icao": "LIRN",
      "alert": "OK",
      "vis_m": 9999,
      "fzfg": false,
      "metar_trigger": false,
      "taf_trigger": false,
      "metar": "METAR LIRN 111050Z 04011KT 010V070 CAVOK 10/01 Q1015 NOSIG",
      "taf": "TAF LIRN 110500Z 1106/1206 05005KT 9999 SCT030"
    },
    {
      "icao": "LIRP",
      "alert": "OK",
      "vis_m": 9999,
      "fzfg": false,
      "metar_trigger": false,
      "taf_trigger": false,
      "metar": "METAR LIRP 111045Z 12006KT CAVOK 08/01 Q1017 NOSIG",
      "taf": "TAF LIRP 110500Z 1106/1206 10005KT CAVOK"
    },
    {
      "icao": "LIRZ",
      "alert": "OK",
      "vis_m": 9999,
      "fzfg": false,
      "metar_trigger": false,
      "taf_trigger": false,
      "metar": "METAR LIRZ 111020Z AUTO 36008KT 9999 NCD 06/01 Q1016",
      "taf": "TAF LIRZ 110500Z 1106/1206 VRB05KT 9999 FEW030"
    },
    {
      "icao": "LJLJ",
      "alert": "OK",
      "vis_m": 9999,
      "fzfg": false,
      "metar_trigger": false,
      "taf_trigger": false,
      "metar": "METAR LJLJ 111030Z VRB01KT 9999 FEW017 M02/M07 Q1019 NOSIG",
      "taf": ""
    },
    {
      "icao": "LKMT",
      "alert": "OK",
      "vis_m": 9999,
      "fzfg": false,
      "metar_trigger": false,
      "taf_trigger": false,
      "metar": "METAR LKMT 111030Z 23009KT 9999 -SN BKN024 M04/M07 Q1015 NOSIG",
      "taf": "TAF LKMT 110500Z 1106/1206 34012KT 9999 BKN030"
    },
    {
      "icao": "LKPR",
      "alert": "OK",
      "vis_m": 9999,
      "fzfg": false,
      "metar_trigger": false,
      "taf_trigger": false,
      "metar": "METAR LKPR 111030Z 25012KT CAVOK M06/M11 Q1020 NOSIG",
      "taf": "TAF LKPR 110800Z 1109/1215 28012KT CAVOK"
    },
    {
      "icao": "LLBG",
      "alert": "OK",
      "vis_m": 9999,
      "fzfg": false,
      "metar_trigger": false,
      "taf_trigger": false,
      "metar": "METAR LLBG 111050Z 25006KT 210V280 CAVOK 21/08 Q1016 NOSIG",
      "taf": "TAF LLBG 110501Z 1106/1206 VRB04KT CAVOK"
    },
    {
      "icao": "LMML",
      "alert": "OK",
      "vis_m": 9999,
      "fzfg": false,
      "metar_trigger": false,
      "taf_trigger": false,
      "metar": "METAR LMML 111045Z 29022G32KT 9999 FEW030TCU 13/06 Q1015 NOSIG",
      "taf": "TAF LMML 110500Z 1106/1206 30028G38KT 9999 FEW015 SCT045"
    },
    {
      "icao": "LOWW",
      "alert": "OK",
      "vis_m": 9999,
      "fzfg": false,
      "metar_trigger": false,
      "taf_trigger": false,
      "metar": "METAR LOWW 111050Z 30019KT CAVOK M02/M09 Q1019 NOSIG",
      "taf": "TAF LOWW 110815Z 1109/1215 30015G25KT 9999 FEW020 BKN040 TXM03/1113Z TNM08/1207Z"
    },
    {
      "icao": "LPFR",
      "alert": "OK",
      "vis_m": 9999,
      "fzfg": false,
      "metar_trigger": false,
      "taf_trigger": false,
      "metar": "METAR LPFR 111030Z VRB02KT 9999 FEW020 14/09 Q1029",
      "taf": "TAF LPFR 110500Z 1106/1206 VRB02KT CAVOK"
    },
    {
      "icao": "LPMA",
      "alert": "OK",
      "vis_m": 9999,
      "fzfg": false,
      "metar_trigger": false,
      "taf_trigger": false,
      "metar": "METAR LPMA 111030Z 05005KT 010V080 9999 FEW015 17/12 Q1028",
      "taf": "TAF LPMA 110500Z 1106/1206 VRB05KT 9999 SCT015"
    },
    {
      "icao": "LPPR",
      "alert": "OK",
      "vis_m": 9999,
      "fzfg": false,
      "metar_trigger": false,
      "taf_trigger": false,
      "metar": "METAR LPPR 111030Z 18014KT 9999 BKN005 BKN011 13/12 Q1025",
      "taf": "TAF LPPR 110500Z 1106/1206 18012KT 8000 -RA SCT006 BKN015"
    },
    {
      "icao": "LPPS",
      "alert": "OK",
      "vis_m": 9999,
      "fzfg": false,
      "metar_trigger": false,
      "taf_trigger": false,
      "metar": "METAR LPPS 111030Z 01005KT 9999 FEW014 16/14 Q1028",
      "taf": "TAF LPPS 110500Z 1106/1212 VRB05KT 9999 SCT015"
    },
    {
      "icao": "LPPT",
      "alert": "OK",
      "vis_m": 1800,
      "fzfg": false,
      "metar_trigger": false,
      "taf_trigger": false,
      "metar": "METAR LPPT 111030Z VRB04KT 1800 0600SE R20/1200U -DZRA BR PRFG FEW001 BKN002 11/11 Q1028",
      "taf": ""
    },
    {
      "icao": "LQBK",
      "alert": "OK",
      "vis_m": 9999,
      "fzfg": false,
      "metar_trigger": false,
      "taf_trigger": false,
      "metar": "METAR LQBK 111030Z 01006KT 300V020 CAVOK M02/M08 Q1021 NOSIG",
      "taf": "TAF LQBK 110500Z 1106/1206 29007KT 9999 SCT040 TXM01/1113Z TNM12/1206Z"
    },
    {
      "icao": "LQSA",
      "alert": "OK",
      "vis_m": 9999,
      "fzfg": false,
      "metar_trigger": false,
      "taf_trigger": false,
      "metar": "METAR LQSA 111030Z 30007KT 260V330 9999 -SN FEW025 BKN040 M05/M09 Q1018 NOSIG",
      "taf": "TAF LQSA 110500Z 1106/1206 29006KT 9999 BKN020 TXM02/1106Z TNM14/1206Z"
    },
    {
      "icao": "LQTZ",
      "alert": "OK",
      "vis_m": 9999,
      "fzfg": false,
      "metar_trigger": false,
      "taf_trigger": false,
      "metar": "METAR LQTZ 111030Z 29008KT 9999 SCT020 BKN056 M04/M07 Q1020",
      "taf": "TAF LQTZ 110500Z 1106/1206 34007KT 9999 SCT010 BKN025 TXM01/1113Z TNM13/1206Z"
    },
    {
      "icao": "LRBC",
      "alert": "OK",
      "vis_m": 9999,
      "fzfg": false,
      "metar_trigger": false,
      "taf_trigger": false,
      "metar": "METAR LRBC 111030Z 15005KT 9999 BKN048 M05/M12 Q1009",
      "taf": "TAF LRBC 110800Z 1109/1118 33006KT 9999 BKN045"
    },
    {
      "icao": "LRBS",
      "alert": "OK",
      "vis_m": 3000,
      "fzfg": false,
      "metar_trigger": false,
      "taf_trigger": false,
      "metar": "METAR LRBS 111030Z 07005KT 3000 -SN BR SCT014 OVC030 M05/M08 Q1011 TEMPO 1500 SHSN FEW035CB",
      "taf": ""
    },
    {
      "icao": "LRBV",
      "alert": "OK",
      "vis_m": 9999,
      "fzfg": false,
      "metar_trigger": false,
      "taf_trigger": false,
      "metar": "METAR LRBV 111030Z 29013KT 9999 FEW019 SCT031 BKN049 M06/M11 Q1009",
      "taf": "TAF LRBV 110800Z 1109/1118 30015KT 5000 -SN OVC035"
    },
    {
      "icao": "LRCL",
      "alert": "OK",
      "vis_m": 9999,
      "fzfg": false,
      "metar_trigger": false,
      "taf_trigger": false,
      "metar": "METAR LRCL 111030Z 28008KT 9999 FEW036 M03/M10 Q1011",
      "taf": "TAF LRCL 110800Z 1109/1118 30008KT CAVOK"
    },
    {
      "icao": "LRCV",
      "alert": "OK",
      "vis_m": 9999,
      "fzfg": false,
      "metar_trigger": false,
      "taf_trigger": false,
      "metar": "METAR LRCV 111030Z 29013KT 9999 OVC010 M01/M03 Q1009",
      "taf": "TAF LRCV 110800Z 1109/1118 VRB04KT 5000 BR BKN005 OVC025"
    },
    {
      "icao": "LRIA",
      "alert": "OK",
      "vis_m": 9999,
      "fzfg": false,
      "metar_trigger": false,
      "taf_trigger": false,
      "metar": "METAR LRIA 111030Z 30006KT 260V350 CAVOK M04/M11 Q1009",
      "taf": "TAF LRIA 110800Z 1109/1118 26006KT CAVOK"
    },
    {
      "icao": "LROP",
      "alert": "OK",
      "vis_m": 6000,
      "fzfg": false,
      "metar_trigger": false,
      "taf_trigger": false,
      "metar": "METAR LROP 111030Z 08006KT 6000 -SN FEW014 OVC027 M05/M07 Q1011 TEMPO 5000 SHSN FEW035CB",
      "taf": ""
    },
    {
      "icao": "LRSB",
      "alert": "OK",
      "vis_m": 9999,
      "fzfg": false,
      "metar_trigger": false,
      "taf_trigger": false,
      "metar": "METAR LRSB 111030Z VRB01KT 9999 FEW017 SCT034 OVC045 M04/M11 Q1011",
      "taf": "TAF LRSB 110500Z 1106/1206 35008KT 9999 BKN030"
    },
    {
      "icao": "LRSM",
      "alert": "OK",
      "vis_m": 9999,
      "fzfg": false,
      "metar_trigger": false,
      "taf_trigger": false,
      "metar": "METAR LRSM 111030Z VRB02KT 9999 SCT045 M07/M11 Q1013",
      "taf": "TAF LRSM 110800Z 1109/1118 25005KT 9999 BKN040"
    },
    {
      "icao": "LRSV",
      "alert": "OK",
      "vis_m": 9999,
      "fzfg": false,
      "metar_trigger": false,
      "taf_trigger": false,
      "metar": "METAR LRSV 111030Z 35005KT 9999 SCT047 M04/M11 Q1005",
      "taf": "TAF LRSV 110800Z 1109/1118 25006KT 9999 BKN040"
    },
    {
      "icao": "LRTM",
      "alert": "OK",
      "vis_m": 9999,
      "fzfg": false,
      "metar_trigger": false,
      "taf_trigger": false,
      "metar": "METAR LRTM 111030Z 10004KT 9999 FEW029 M06/M13 Q1012",
      "taf": "TAF LRTM 110800Z 1109/1118 VRB04KT CAVOK"
    },
    {
      "icao": "LRTR",
      "alert": "OK",
      "vis_m": 9999,
      "fzfg": false,
      "metar_trigger": false,
      "taf_trigger": false,
      "metar": "METAR LRTR 111030Z 28009KT 9999 FEW015 M07/M10 Q1017",
      "taf": ""
    },
    {
      "icao": "LTAC",
      "alert": "OK",
      "vis_m": 2900,
      "fzfg": false,
      "metar_trigger": false,
      "taf_trigger": false,
      "metar": "METAR LTAC 111050Z 18004KT 2900 -RASN BR SCT010 BKN025 BKN080 01/00 Q1005 NOSIG RMK RWY21C 18006KT RWY03L 18003KT RWY21R 17007KT RWY03R 16004KT RWY21L 18006KT",
      "taf": "TAF LTAC 110440Z 1106/1206 21012KT 9999 SCT040 BKN100"
    },
    {
      "icao": "LTFM",
      "alert": "OK",
      "vis_m": 9999,
      "fzfg": false,
      "metar_trigger": false,
      "taf_trigger": false,
      "metar": "METAR LTFM 111050Z 01016KT 9999 -SHRA SCT012 BKN025 05/03 Q1006 NOSIG RMK RWY17L 01015KT RWY34L 35018KT RWY16R 36015KT RWY36 01017KT RWY18 02016KT",
      "taf": "TAF LTFM 110440Z 1106/1212 01014KT 9999 -SHRA SCT035 BKN100"
    },
    {
      "icao": "LUKK",
      "alert": "OK",
      "vis_m": null,
      "fzfg": false,
      "metar_trigger": false,
      "taf_trigger": false,
      "metar": "",
      "taf": "TAF LUKK 110503Z 1106/1206 34012KT 9999 BKN030"
    },
    {
      "icao": "LWOH",
      "alert": "OK",
      "vis_m": 9000,
      "fzfg": false,
      "metar_trigger": false,
      "taf_trigger": false,
      "metar": "METAR LWOH 111050Z 35008KT 310V030 9000 FEW011 BKN050 01/M02 Q1007",
      "taf": ""
    },
    {
      "icao": "LWSK",
      "alert": "OK",
      "vis_m": 9999,
      "fzfg": false,
      "metar_trigger": false,
      "taf_trigger": false,
      "metar": "METAR LWSK 111050Z 36018KT 9999 SCT025 BKN043 BKN075 01/M04 Q1013 NOSIG",
      "taf": ""
    },
    {
      "icao": "LYBE",
      "alert": "OK",
      "vis_m": 9999,
      "fzfg": false,
      "metar_trigger": false,
      "taf_trigger": false,
      "metar": "METAR LYBE 111030Z 28017KT CAVOK M05/M08 Q1019 NOSIG",
      "taf": "TAF LYBE 110500Z 1106/1206 35012KT 9999 SCT010 BKN030 TXM03/1112Z TNM05/1106Z"
    },
    {
      "icao": "LYNI",
      "alert": "OK",
      "vis_m": 9999,
      "fzfg": false,
      "metar_trigger": false,
      "taf_trigger": false,
      "metar": "METAR LYNI 111030Z 32011KT 290V360 9999 -SN FEW020 BKN030 M04/M07 Q1016 NOSIG",
      "taf": ""
    },
    {
      "icao": "LYPG",
      "alert": "OK",
      "vis_m": 9999,
      "fzfg": false,
      "metar_trigger": false,
      "taf_trigger": false,
      "metar": "METAR LYPG 111030Z 36022KT 9999 FEW040 07/M08 Q1011 NOSIG",
      "taf": "TAF LYPG 110500Z 1106/1206 36015KT 9999 FEW050 SCT080 TX09/1112Z TNM01/1205Z"
    },
    {
      "icao": "LZIB",
      "alert": "OK",
      "vis_m": 9999,
      "fzfg": false,
      "metar_trigger": false,
      "taf_trigger": false,
      "metar": "METAR LZIB 111030Z 29018KT 9999 -SN SCT028 BKN036 M02/M08 Q1018 NOSIG",
      "taf": "TAF LZIB 110515Z 1106/1206 29015KT 9999 SCT030"
    },
    {
      "icao": "LZKZ",
      "alert": "OK",
      "vis_m": 9999,
      "fzfg": false,
      "metar_trigger": false,
      "taf_trigger": false,
      "metar": "METAR LZKZ 111030Z 16004KT 140V200 9999 FEW046 M09/M12 Q1011 NOSIG",
      "taf": "TAF LZKZ 110515Z 1106/1206 22005KT CAVOK"
    },
    {
      "icao": "LZTT",
      "alert": "OK",
      "vis_m": 9999,
      "fzfg": false,
      "metar_trigger": false,
      "taf_trigger": false,
      "metar": "METAR LZTT 111030Z 27015KT 9999 -SN DRSN FEW015 OVC046 M06/M10 Q1007 NOSIG",
      "taf": "TAF LZTT 110515Z 1106/1206 27018KT 9999 -SN DRSN FEW013 BKN030"
    },
    {
      "icao": "OEJN",
      "alert": "OK",
      "vis_m": 6000,
      "fzfg": false,
      "metar_trigger": false,
      "taf_trigger": false,
      "metar": "METAR OEJN 111000Z 18004KT 6000 NSC 31/09 Q1014 NOSIG",
      "taf": "TAF OEJN 110500Z 1106/1212 26008KT 7000 FEW040"
    },
    {
      "icao": "OEMA",
      "alert": "OK",
      "vis_m": 9999,
      "fzfg": false,
      "metar_trigger": false,
      "taf_trigger": false,
      "metar": "METAR OEMA 111000Z 09009KT CAVOK 21/01 Q1021 NOSIG",
      "taf": "TAF OEMA 110500Z 1106/1212 10012KT 7000 FEW040"
    },
    {
      "icao": "OJAI",
      "alert": "OK",
      "vis_m": 5000,
      "fzfg": false,
      "metar_trigger": false,
      "taf_trigger": false,
      "metar": "METAR OJAI 111000Z 16012KT 5000 HZ NSC 14/06 Q1019 NOSIG",
      "taf": "TAF OJAI 110500Z 1106/1212 14006KT 3000 BR NSC"
    },
    {
      "icao": "OMAA",
      "alert": "OK",
      "vis_m": 9999,
      "fzfg": false,
      "metar_trigger": false,
      "taf_trigger": false,
      "metar": "METAR OMAA 111000Z 32004KT 270V050 CAVOK 25/07 Q1019 NOSIG",
      "taf": "TAF OMAA 110500Z 1106/1212 VRB02KT 8000 NSC"
    },
    {
      "icao": "OMDB",
      "alert": "OK",
      "vis_m": 9999,
      "fzfg": false,
      "metar_trigger": false,
      "taf_trigger": false,
      "metar": "METAR OMDB 111030Z 32009KT 280V360 CAVOK 25/12 Q1019 NOSIG",
      "taf": ""
    },
    {
      "icao": "UAAA",
      "alert": "OK",
      "vis_m": 3500,
      "fzfg": false,
      "metar_trigger": false,
      "taf_trigger": false,
      "metar": "METAR UAAA 111030Z VRB01MPS 3500 FU SCT100 BKN200 06/M02 Q1018 NOSIG",
      "taf": "TAF UAAA 110508Z 1106/1206 03003G08MPS 3100 BR FU SCT050CB BKN100 TX06/1109Z TNM04/1201Z"
    },
    {
      "icao": "UBBB",
      "alert": "OK",
      "vis_m": 9999,
      "fzfg": false,
      "metar_trigger": false,
      "taf_trigger": false,
      "metar": "METAR UBBB 111030Z 20024G36KT CAVOK 11/02 Q1012 NOSIG",
      "taf": "TAF UBBB 111054Z 1112/1212 19024G34KT 9999 SCT030 TX11/1112Z TN05/1202Z"
    },
    {
      "icao": "UDSG",
      "alert": "OK",
      "vis_m": 9999,
      "fzfg": false,
      "metar_trigger": false,
      "taf_trigger": false,
      "metar": "METAR UDSG 111030Z 15003KT 130V200 9999 BKN043 M05/M10 Q1020 NOSIG",
      "taf": "TAF UDSG 110458Z 1106/1206 VRB06KT 9999 SCT040"
    },
    {
      "icao": "UDYZ",
      "alert": "OK",
      "vis_m": 4400,
      "fzfg": false,
      "metar_trigger": false,
      "taf_trigger": false,
      "metar": "METAR UDYZ 111030Z VRB02KT 4400 BR SCT046 01/M03 Q1021 NOSIG",
      "taf": "TAF UDYZ 110500Z 1106/1206 VRB06KT 3500 BR FEW030"
    },
    {
      "icao": "UGKO",
      "alert": "OK",
      "vis_m": 9999,
      "fzfg": false,
      "metar_trigger": false,
      "taf_trigger": false,
      "metar": "METAR UGKO 111030Z 08023G33KT CAVOK 13/M03 Q1010 NOSIG",
      "taf": "TAF UGKO 110500Z 1106/1206 08017KT CAVOK TX14/1111Z TN09/1106Z"
    }
  ]
}