{
  "ts_utc": "2026-03-15T07:55:29Z",
  "threshold_m": 150,
  "source": "stations_override.txt (ICAO list) + aviationweather.gov (METAR/TAF raw)",
  "station_count": 159,
  "stations": [
    {
      "icao": "BIKF",
      "alert": "OK",
      "vis_m": 9999,
      "fzfg": false,
      "metar_trigger": false,
      "taf_trigger": false,
      "metar": "METAR BIKF 150730Z 06019KT 9999 -RASN FEW024 OVC048 02/M01 Q0968",
      "taf": "TAF BIKF 150410Z 1506/1606 07027G37KT 9999 BKN020 OVC060 TX03/1514Z TN01/1506Z"
    },
    {
      "icao": "BKPR",
      "alert": "OK",
      "vis_m": null,
      "fzfg": false,
      "metar_trigger": false,
      "taf_trigger": false,
      "metar": "",
      "taf": "TAF BKPR 150530Z 1506/1606 12006KT 9999 FEW050"
    },
    {
      "icao": "EBCI",
      "alert": "OK",
      "vis_m": 6000,
      "fzfg": false,
      "metar_trigger": false,
      "taf_trigger": false,
      "metar": "METAR EBCI 150720Z 22004KT 6000 NSC 02/01 Q1016 BECMG 6000 NSW",
      "taf": "TAF EBCI 150500Z 1506/1612 25004KT 9999 FEW030"
    },
    {
      "icao": "EDDB",
      "alert": "OK",
      "vis_m": 9999,
      "fzfg": false,
      "metar_trigger": false,
      "taf_trigger": false,
      "metar": "METAR EDDB 150750Z AUTO 34005KT 310V010 9999 BKN014 BKN025 06/03 Q1013 TEMPO SCT015",
      "taf": ""
    },
    {
      "icao": "EDDH",
      "alert": "OK",
      "vis_m": 9999,
      "fzfg": false,
      "metar_trigger": false,
      "taf_trigger": false,
      "metar": "METAR EDDH 150750Z AUTO 25005KT 220V300 9999 FEW007 05/03 Q1013 TEMPO 4500 BR BKN007",
      "taf": "TAF EDDH 150500Z 1506/1612 VRB02KT 9999 SCT015 BKN030"
    },
    {
      "icao": "EDDK",
      "alert": "OK",
      "vis_m": 9999,
      "fzfg": false,
      "metar_trigger": false,
      "taf_trigger": false,
      "metar": "METAR EDDK 150750Z AUTO VRB02KT 9999 BKN007 BKN039 05/03 Q1015 BECMG SCT010 BKN040",
      "taf": "TAF EDDK 150500Z 1506/1612 25004KT 9999 BKN010"
    },
    {
      "icao": "EDDN",
      "alert": "OK",
      "vis_m": 9999,
      "fzfg": false,
      "metar_trigger": false,
      "taf_trigger": false,
      "metar": "METAR EDDN 150750Z AUTO 29005KT 260V330 9999 BKN011 04/01 Q1013 NOSIG",
      "taf": "TAF EDDN 150500Z 1506/1606 30005KT 9999 BKN030"
    },
    {
      "icao": "EDDS",
      "alert": "OK",
      "vis_m": 9999,
      "fzfg": false,
      "metar_trigger": false,
      "taf_trigger": false,
      "metar": "METAR EDDS 150750Z AUTO 36004KT 320V050 9999 SCT012 BKN022 OVC031 04/01 Q1013 NOSIG",
      "taf": "TAF EDDS 150500Z 1506/1606 33005KT 9999 FEW013 BKN030"
    },
    {
      "icao": "EDFH",
      "alert": "OK",
      "vis_m": 8000,
      "fzfg": false,
      "metar_trigger": false,
      "taf_trigger": false,
      "metar": "METAR EDFH 150720Z 27004KT 8000 SCT002 BKN006 02/01 Q1014",
      "taf": "TAF EDFH 150500Z 1506/1606 31006KT 9999 SCT003 BKN015"
    },
    {
      "icao": "EDJA",
      "alert": "OK",
      "vis_m": 9999,
      "fzfg": false,
      "metar_trigger": false,
      "taf_trigger": false,
      "metar": "METAR EDJA 150720Z 22003KT 190V250 9999 FEW005 SCT026 02/00 Q1012",
      "taf": "TAF EDJA 150500Z 1506/1515 23004KT 9999 FEW004 OVC025"
    },
    {
      "icao": "EDLW",
      "alert": "OK",
      "vis_m": 4500,
      "fzfg": false,
      "metar_trigger": false,
      "taf_trigger": false,
      "metar": "METAR EDLW 150720Z 24003KT 4500 BR FEW004 SCT028 OVC034 04/03 Q1014",
      "taf": ""
    },
    {
      "icao": "EDNY",
      "alert": "OK",
      "vis_m": 9999,
      "fzfg": false,
      "metar_trigger": false,
      "taf_trigger": false,
      "metar": "METAR EDNY 150720Z 09002KT 9999 SCT005 02/02 Q1013",
      "taf": "TAF EDNY 150500Z 1506/1515 VRB03KT 9999 SCT008 BKN040"
    },
    {
      "icao": "EDSB",
      "alert": "OK",
      "vis_m": 9999,
      "fzfg": false,
      "metar_trigger": false,
      "taf_trigger": false,
      "metar": "METAR EDSB 150720Z VRB01KT 9999 FEW028 BKN039 05/03 Q1015",
      "taf": "TAF EDSB 150500Z 1506/1606 21003KT 9999 BKN030"
    },
    {
      "icao": "EETN",
      "alert": "OK",
      "vis_m": 9999,
      "fzfg": false,
      "metar_trigger": false,
      "taf_trigger": false,
      "metar": "METAR EETN 150750Z 18013KT CAVOK 08/M01 Q1010 NOSIG",
      "taf": "TAF EETN 150530Z 1506/1606 18012KT CAVOK"
    },
    {
      "icao": "EFTU",
      "alert": "OK",
      "vis_m": 9999,
      "fzfg": false,
      "metar_trigger": false,
      "taf_trigger": false,
      "metar": "METAR EFTU 150750Z AUTO 19005KT 160V220 CAVOK 04/01 Q1007",
      "taf": "TAF EFTU 150525Z 1506/1606 15005KT 0700 FG OVC001"
    },
    {
      "icao": "EGBB",
      "alert": "OK",
      "vis_m": 9999,
      "fzfg": false,
      "metar_trigger": false,
      "taf_trigger": false,
      "metar": "METAR EGBB 150720Z 18007KT CAVOK 06/04 Q1010",
      "taf": "TAF EGBB 150457Z 1506/1606 20002KT 9999 FEW045"
    },
    {
      "icao": "EGGP",
      "alert": "OK",
      "vis_m": 9999,
      "fzfg": false,
      "metar_trigger": false,
      "taf_trigger": false,
      "metar": "METAR EGGP 150720Z 17010KT 9999 FEW045 06/03 Q1007",
      "taf": "TAF EGGP 150458Z 1506/1606 18006KT 9999 FEW045"
    },
    {
      "icao": "EGGW",
      "alert": "OK",
      "vis_m": 9999,
      "fzfg": false,
      "metar_trigger": false,
      "taf_trigger": false,
      "metar": "METAR EGGW 150720Z AUTO 19006KT 160V220 9999 NCD 02/00 Q1012",
      "taf": "TAF EGGW 150501Z 1506/1606 21005KT CAVOK"
    },
    {
      "icao": "EGKK",
      "alert": "OK",
      "vis_m": 9999,
      "fzfg": false,
      "metar_trigger": false,
      "taf_trigger": false,
      "metar": "METAR EGKK 150720Z 16001KT CAVOK 03/00 Q1014",
      "taf": "TAF EGKK 150501Z 1506/1612 22004KT 9999 FEW035"
    },
    {
      "icao": "EGNM",
      "alert": "OK",
      "vis_m": 9999,
      "fzfg": false,
      "metar_trigger": false,
      "taf_trigger": false,
      "metar": "METAR EGNM 150720Z 20012KT CAVOK 04/02 Q1005",
      "taf": "TAF EGNM 150525Z 1506/1606 20012KT 9999 FEW035"
    },
    {
      "icao": "EGPD",
      "alert": "OK",
      "vis_m": 9999,
      "fzfg": false,
      "metar_trigger": false,
      "taf_trigger": false,
      "metar": "METAR EGPD 150720Z COR AUTO 20019KT 9999 BKN021 06/02 Q0994 NOSIG",
      "taf": "TAF EGPD 150458Z 1506/1606 19018G28KT 9999 SCT020"
    },
    {
      "icao": "EGPF",
      "alert": "OK",
      "vis_m": 9999,
      "fzfg": false,
      "metar_trigger": false,
      "taf_trigger": false,
      "metar": "METAR EGPF 150720Z AUTO 20021KT 9999 -RA BKN011 OVC022 07/06 Q0997",
      "taf": "TAF EGPF 150454Z 1506/1606 18010KT 9999 SCT025"
    },
    {
      "icao": "EHBK",
      "alert": "OK",
      "vis_m": 4700,
      "fzfg": false,
      "metar_trigger": false,
      "taf_trigger": false,
      "metar": "METAR EHBK 150725Z AUTO 19006KT 4700 BR FEW003 02/01 Q1015 BECMG 9999 NSW",
      "taf": "TAF EHBK 150509Z 1506/1612 25004KT 2500 BR MIFG FEW025"
    },
    {
      "icao": "EHEH",
      "alert": "OK",
      "vis_m": 2000,
      "fzfg": true,
      "metar_trigger": false,
      "taf_trigger": false,
      "metar": "METAR EHEH 150725Z AUTO 21004KT 2000 R21/2500U BR NCD 00/00 Q1015 YLO BECMG 9999 NSW",
      "taf": "TAF EHEH 150555Z 1506/1612 VRB02KT 0300 FZFG NSC"
    },
    {
      "icao": "EKBI",
      "alert": "OK",
      "vis_m": 9999,
      "fzfg": false,
      "metar_trigger": false,
      "taf_trigger": false,
      "metar": "METAR EKBI 150750Z AUTO 23004KT 9999 OVC009/// 04/03 Q1011",
      "taf": ""
    },
    {
      "icao": "EKCH",
      "alert": "OK",
      "vis_m": 8000,
      "fzfg": false,
      "metar_trigger": false,
      "taf_trigger": false,
      "metar": "METAR EKCH 150749Z 27007KT 8000 BKN011 05/04 Q1011 TEMPO BKN008",
      "taf": ""
    },
    {
      "icao": "ENAL",
      "alert": "OK",
      "vis_m": 9999,
      "fzfg": false,
      "metar_trigger": false,
      "taf_trigger": false,
      "metar": "METAR ENAL 150720Z 21008KT 9999 FEW028 SCT046 06/M00 Q0997",
      "taf": "TAF ENAL 150500Z 1506/1515 19012KT 9999 SCT040"
    },
    {
      "icao": "ENBR",
      "alert": "OK",
      "vis_m": 9999,
      "fzfg": false,
      "metar_trigger": false,
      "taf_trigger": false,
      "metar": "METAR ENBR 150720Z 15014KT 9999 SCT010 BKN053 03/01 Q1001 NOSIG RMK WIND 1200FT 16025KT",
      "taf": ""
    },
    {
      "icao": "ENGM",
      "alert": "OK",
      "vis_m": 9999,
      "fzfg": false,
      "metar_trigger": false,
      "taf_trigger": false,
      "metar": "METAR ENGM 150720Z 21006KT 180V240 9999 BKN011 02/M01 Q1005 NOSIG",
      "taf": "TAF ENGM 150500Z 1506/1606 18009KT 9999 BKN012"
    },
    {
      "icao": "ENHD",
      "alert": "OK",
      "vis_m": 9999,
      "fzfg": false,
      "metar_trigger": false,
      "taf_trigger": false,
      "metar": "METAR ENHD 150720Z AUTO 15013KT 9999 OVC005/// 04/04 Q1003",
      "taf": "TAF ENHD 150500Z 1506/1515 16010KT 9999 SCT020"
    },
    {
      "icao": "ENTC",
      "alert": "OK",
      "vis_m": 9999,
      "fzfg": false,
      "metar_trigger": false,
      "taf_trigger": false,
      "metar": "METAR ENTC 150720Z 21015KT 9999 SCT049 BKN060 03/M03 Q0994 RMK WIND 2600FT 19020KT",
      "taf": "TAF ENTC 150500Z 1506/1606 22009KT 9999 FEW025 SCT050"
    },
    {
      "icao": "ENTO",
      "alert": "OK",
      "vis_m": 1300,
      "fzfg": false,
      "metar_trigger": false,
      "taf_trigger": false,
      "metar": "METAR ENTO 150650Z 20004KT 160V230 1300 R18/P2000N R36/1900N BR OVC001 01/01 Q1006 TEMPO 2000 BR",
      "taf": "TAF ENTO 150500Z 1506/1606 20008KT 9999 BKN004"
    },
    {
      "icao": "ENVA",
      "alert": "OK",
      "vis_m": 9999,
      "fzfg": false,
      "metar_trigger": false,
      "taf_trigger": false,
      "metar": "METAR ENVA 150720Z 07006KT CAVOK 01/M03 Q1000 NOSIG RMK WIND 670FT 14012KT",
      "taf": "TAF ENVA 150500Z 1506/1606 08005KT CAVOK"
    },
    {
      "icao": "ENZV",
      "alert": "OK",
      "vis_m": 9999,
      "fzfg": false,
      "metar_trigger": false,
      "taf_trigger": false,
      "metar": "METAR ENZV 150720Z 16012KT 9999 BKN019 04/02 Q1004 NOSIG",
      "taf": "TAF ENZV 150500Z 1506/1606 16008KT 9999 FEW008 SCT015"
    },
    {
      "icao": "EPGD",
      "alert": "OK",
      "vis_m": 9999,
      "fzfg": false,
      "metar_trigger": false,
      "taf_trigger": false,
      "metar": "METAR EPGD 150730Z 25006KT CAVOK 08/01 Q1008",
      "taf": "TAF EPGD 150530Z 1506/1606 18005KT CAVOK"
    },
    {
      "icao": "EPKK",
      "alert": "OK",
      "vis_m": 9999,
      "fzfg": false,
      "metar_trigger": false,
      "taf_trigger": false,
      "metar": "METAR EPKK 150730Z 06006KT CAVOK 09/M00 Q1011",
      "taf": "TAF EPKK 150530Z 1506/1606 05007KT CAVOK"
    },
    {
      "icao": "EPKT",
      "alert": "OK",
      "vis_m": 9999,
      "fzfg": false,
      "metar_trigger": false,
      "taf_trigger": false,
      "metar": "METAR EPKT 150730Z 17006KT CAVOK 12/00 Q1010",
      "taf": "TAF EPKT 150530Z 1506/1606 14006KT CAVOK"
    },
    {
      "icao": "EPLB",
      "alert": "OK",
      "vis_m": 9999,
      "fzfg": false,
      "metar_trigger": false,
      "taf_trigger": false,
      "metar": "METAR EPLB 150730Z 14007KT 120V180 CAVOK 07/00 Q1014",
      "taf": "TAF EPLB 150530Z 1506/1606 12008KT CAVOK"
    },
    {
      "icao": "EPMO",
      "alert": "OK",
      "vis_m": 9999,
      "fzfg": false,
      "metar_trigger": false,
      "taf_trigger": false,
      "metar": "METAR EPMO 150730Z 15006KT 100V190 CAVOK 09/01 Q1011",
      "taf": "TAF EPMO 150530Z 1506/1606 14010KT CAVOK"
    },
    {
      "icao": "EPPO",
      "alert": "OK",
      "vis_m": 9999,
      "fzfg": false,
      "metar_trigger": false,
      "taf_trigger": false,
      "metar": "METAR EPPO 150730Z 29009KT 9999 OVC005 05/03 Q1010",
      "taf": "TAF EPPO 150530Z 1506/1606 31010KT 9999 BKN006"
    },
    {
      "icao": "EPRA",
      "alert": "OK",
      "vis_m": 9999,
      "fzfg": false,
      "metar_trigger": false,
      "taf_trigger": false,
      "metar": "METAR EPRA 150730Z 16010KT CAVOK 07/M01 Q1011",
      "taf": "TAF EPRA 150530Z 1506/1515 16010KT CAVOK"
    },
    {
      "icao": "EPRZ",
      "alert": "OK",
      "vis_m": 9999,
      "fzfg": false,
      "metar_trigger": false,
      "taf_trigger": false,
      "metar": "METAR EPRZ 150730Z 10011KT CAVOK 06/00 Q1013",
      "taf": "TAF EPRZ 150530Z 1506/1606 10008KT CAVOK"
    },
    {
      "icao": "EPSC",
      "alert": "OK",
      "vis_m": 7000,
      "fzfg": false,
      "metar_trigger": false,
      "taf_trigger": false,
      "metar": "METAR EPSC 150730Z 30007KT 7000 -RA OVC005 04/04 Q1011",
      "taf": ""
    },
    {
      "icao": "EPSY",
      "alert": "OK",
      "vis_m": 9999,
      "fzfg": false,
      "metar_trigger": false,
      "taf_trigger": false,
      "metar": "METAR EPSY 150730Z 16005KT 110V200 CAVOK 07/M00 Q1011",
      "taf": "TAF EPSY 150530Z 1506/1515 15008KT CAVOK"
    },
    {
      "icao": "EPWA",
      "alert": "OK",
      "vis_m": 9999,
      "fzfg": false,
      "metar_trigger": false,
      "taf_trigger": false,
      "metar": "METAR EPWA 150730Z 13011KT CAVOK 09/00 Q1011 NOSIG",
      "taf": "TAF EPWA 150530Z 1506/1606 14010KT CAVOK"
    },
    {
      "icao": "EPWR",
      "alert": "OK",
      "vis_m": 9999,
      "fzfg": false,
      "metar_trigger": false,
      "taf_trigger": false,
      "metar": "METAR EPWR 150730Z 29010KT 9999 OVC010 07/05 Q1011",
      "taf": "TAF EPWR 150530Z 1506/1606 28005KT 9999 BKN011"
    },
    {
      "icao": "ESGG",
      "alert": "OK",
      "vis_m": 3000,
      "fzfg": false,
      "metar_trigger": false,
      "taf_trigger": false,
      "metar": "METAR ESGG 150720Z 24008KT 3000 BR OVC003 02/02 Q1008",
      "taf": ""
    },
    {
      "icao": "ESKN",
      "alert": "OK",
      "vis_m": 7000,
      "fzfg": false,
      "metar_trigger": false,
      "taf_trigger": false,
      "metar": "METAR ESKN 150720Z 27003KT 7000 -DZ BKN027 02/02 Q1007",
      "taf": "TAF ESKN 150530Z 1506/1606 30004KT 9999 SCT010 BKN045"
    },
    {
      "icao": "ESMS",
      "alert": "OK",
      "vis_m": 5000,
      "fzfg": false,
      "metar_trigger": false,
      "taf_trigger": false,
      "metar": "METAR ESMS 150720Z 30005KT 5000 BR BKN004 05/05 Q1010 REDZ",
      "taf": "TAF ESMS 150527Z 1506/1606 28005KT 9999 BKN020"
    },
    {
      "icao": "ESSA",
      "alert": "OK",
      "vis_m": 9999,
      "fzfg": false,
      "metar_trigger": false,
      "taf_trigger": false,
      "metar": "METAR ESSA 150720Z 21003KT 180V240 9999 -RA BKN002 OVC031 01/01 Q1007 TEMPO 2000 RASN SCT002",
      "taf": ""
    },
    {
      "icao": "EYKA",
      "alert": "OK",
      "vis_m": 9999,
      "fzfg": false,
      "metar_trigger": false,
      "taf_trigger": false,
      "metar": "METAR EYKA 150750Z 15011KT 120V200 CAVOK 08/01 Q1014",
      "taf": "TAF EYKA 150500Z 1506/1606 15013KT 9000 NSC"
    },
    {
      "icao": "EYPA",
      "alert": "OK",
      "vis_m": 9999,
      "fzfg": false,
      "metar_trigger": false,
      "taf_trigger": false,
      "metar": "METAR EYPA 150750Z 16013KT CAVOK 09/01 Q1009",
      "taf": "TAF EYPA 150500Z 1506/1606 14013KT 9000 NSC"
    },
    {
      "icao": "EYVI",
      "alert": "OK",
      "vis_m": 9999,
      "fzfg": false,
      "metar_trigger": false,
      "taf_trigger": false,
      "metar": "METAR EYVI 150750Z 16020KT CAVOK 07/01 Q1015 NOSIG",
      "taf": "TAF EYVI 150500Z 1506/1606 16015KT 9000 NSC"
    },
    {
      "icao": "GCFV",
      "alert": "OK",
      "vis_m": 9999,
      "fzfg": false,
      "metar_trigger": false,
      "taf_trigger": false,
      "metar": "METAR GCFV 150730Z 02015KT 9999 BKN025 17/13 Q1017",
      "taf": "TAF GCFV 150200Z 1503/1603 03014KT 9999 BKN025 TX20/1514Z TN16/1506Z"
    },
    {
      "icao": "GCLP",
      "alert": "OK",
      "vis_m": 9999,
      "fzfg": false,
      "metar_trigger": false,
      "taf_trigger": false,
      "metar": "METAR GCLP 150730Z 36013KT 9999 FEW020 BKN035 17/12 Q1018 NOSIG",
      "taf": "TAF GCLP 150200Z 1503/1603 02018KT 9999 BKN025 TX20/1514Z TN16/1506Z"
    },
    {
      "icao": "GCTS",
      "alert": "OK",
      "vis_m": 9999,
      "fzfg": false,
      "metar_trigger": false,
      "taf_trigger": false,
      "metar": "METAR GCTS 150730Z 07016KT 040V110 9999 FEW025 17/10 Q1017 NOSIG",
      "taf": "TAF GCTS 150200Z 1503/1603 05018KT 9999 FEW030 TX23/1514Z TN16/1506Z"
    },
    {
      "icao": "GMAD",
      "alert": "OK",
      "vis_m": 5000,
      "fzfg": false,
      "metar_trigger": false,
      "taf_trigger": false,
      "metar": "METAR GMAD 150730Z 06004KT 5000 SCT010 SCT016 12/10 Q1014 NOSIG",
      "taf": "TAF GMAD 150500Z 1506/1612 06005KT 6000 SCT010"
    },
    {
      "icao": "GMMN",
      "alert": "OK",
      "vis_m": 9999,
      "fzfg": false,
      "metar_trigger": false,
      "taf_trigger": false,
      "metar": "METAR GMMN 150730Z 20005KT 9999 BKN028 13/12 Q1018 NOSIG",
      "taf": "TAF GMMN 150500Z 1506/1612 11002KT 9999 SCT010 SCT025"
    },
    {
      "icao": "GMMX",
      "alert": "OK",
      "vis_m": 8000,
      "fzfg": false,
      "metar_trigger": false,
      "taf_trigger": false,
      "metar": "METAR GMMX 150730Z 09005KT 070V130 8000 NSC 09/08 Q1017 NOSIG",
      "taf": "TAF GMMX 150500Z 1506/1612 04006KT 8000 SCT026"
    },
    {
      "icao": "HEGN",
      "alert": "OK",
      "vis_m": 4000,
      "fzfg": false,
      "metar_trigger": false,
      "taf_trigger": false,
      "metar": "METAR HEGN 150700Z 31019KT 4000 SA NSC 21/03 Q1009 NOSIG",
      "taf": "TAF HEGN 150500Z 1506/1612 30018G28KT 6000 SCT025"
    },
    {
      "icao": "HEMA",
      "alert": "OK",
      "vis_m": 9999,
      "fzfg": false,
      "metar_trigger": false,
      "taf_trigger": false,
      "metar": "METAR HEMA 150700Z 31007KT CAVOK 23/05 Q1010 NOSIG",
      "taf": "TAF HEMA 150500Z 1506/1612 32015G25KT 6000 SCT025"
    },
    {
      "icao": "HESH",
      "alert": "OK",
      "vis_m": 8000,
      "fzfg": false,
      "metar_trigger": false,
      "taf_trigger": false,
      "metar": "METAR HESH 150700Z 01007KT 8000 NSC 23/10 Q1008 NOSIG",
      "taf": "TAF HESH 150500Z 1506/1612 35012KT 6000 SCT025"
    },
    {
      "icao": "HESX",
      "alert": "OK",
      "vis_m": 9999,
      "fzfg": false,
      "metar_trigger": false,
      "taf_trigger": false,
      "metar": "METAR HESX 150700Z 24009KT CAVOK 14/08 Q1010 NOSIG",
      "taf": "TAF HESX 150500Z 1506/1612 25012KT CAVOK"
    },
    {
      "icao": "LATI",
      "alert": "OK",
      "vis_m": 9999,
      "fzfg": false,
      "metar_trigger": false,
      "taf_trigger": false,
      "metar": "METAR LATI 150750Z 17003KT 110V210 CAVOK 13/04 Q1008 NOSIG",
      "taf": "TAF LATI 150500Z 1506/1606 VRB04KT CAVOK TX20/1512Z TN05/1604Z"
    },
    {
      "icao": "LBPD",
      "alert": "OK",
      "vis_m": 9999,
      "fzfg": false,
      "metar_trigger": false,
      "taf_trigger": false,
      "metar": "METAR LBPD 150730Z AUTO 29005KT 260V320 9999 NCD 06/01 Q1013 NOSIG",
      "taf": "TAF LBPD 150500Z 1506/1606 VRB04KT CAVOK"
    },
    {
      "icao": "LBSF",
      "alert": "OK",
      "vis_m": 9000,
      "fzfg": false,
      "metar_trigger": false,
      "taf_trigger": false,
      "metar": "METAR LBSF 150730Z 13003KT 080V170 9000 NSC 05/00 Q1011 NOSIG",
      "taf": "TAF LBSF 150500Z 1506/1606 VRB04KT CAVOK"
    },
    {
      "icao": "LBWN",
      "alert": "OK",
      "vis_m": 9999,
      "fzfg": false,
      "metar_trigger": false,
      "taf_trigger": false,
      "metar": "METAR LBWN 150730Z 02009KT 340V050 9999 FEW025 09/04 Q1012 NOSIG",
      "taf": "TAF LBWN 150500Z 1506/1606 03010KT 9999 BKN015"
    },
    {
      "icao": "LCLK",
      "alert": "OK",
      "vis_m": 6000,
      "fzfg": false,
      "metar_trigger": false,
      "taf_trigger": false,
      "metar": "METAR LCLK 150730Z 23026KT 6000 SCT008 SCT020 BKN040 18/15 Q0994 NOSIG",
      "taf": "TAF LCLK 150530Z 1506/1606 17030G40KT 9999 FEW020 SCT040"
    },
    {
      "icao": "LCPH",
      "alert": "OK",
      "vis_m": 1200,
      "fzfg": false,
      "metar_trigger": false,
      "taf_trigger": false,
      "metar": "METAR LCPH 150730Z 31032KT 1200 R29/0400 R11/0700 SHRA SCT007 BKN015 FEW025TCU 14/12 Q0999 TEMPO 1000 TSRA FEW025CB",
      "taf": "TAF LCPH 150530Z 1506/1606 31025G35KT 9999 SCT025 BKN035"
    },
    {
      "icao": "LEAL",
      "alert": "OK",
      "vis_m": 9999,
      "fzfg": false,
      "metar_trigger": false,
      "taf_trigger": false,
      "metar": "METAR LEAL 150730Z 30009KT 270V330 9999 FEW035 14/02 Q1010 NOSIG",
      "taf": "TAF LEAL 150500Z 1506/1606 31009KT 9999 FEW015 BKN050 TX20/1512Z TN08/1506Z"
    },
    {
      "icao": "LEBB",
      "alert": "OK",
      "vis_m": 9999,
      "fzfg": false,
      "metar_trigger": false,
      "taf_trigger": false,
      "metar": "METAR LEBB 150730Z 31006KT 9999 FEW028 SCT055 10/06 Q1019 NOSIG",
      "taf": ""
    },
    {
      "icao": "LEBL",
      "alert": "OK",
      "vis_m": 9999,
      "fzfg": false,
      "metar_trigger": false,
      "taf_trigger": false,
      "metar": "METAR LEBL 150730Z 31011G23KT 270V360 9999 FEW024 09/00 Q1006 NOSIG",
      "taf": "TAF LEBL 150500Z 1506/1606 33009KT CAVOK TX18/1513Z TN07/1506Z"
    },
    {
      "icao": "LECH",
      "alert": "OK",
      "vis_m": 8000,
      "fzfg": false,
      "metar_trigger": false,
      "taf_trigger": false,
      "metar": "METAR LECH 150730Z AUTO 32018G34KT 280V350 8000 NCD 09/M01 Q1009",
      "taf": ""
    },
    {
      "icao": "LEMD",
      "alert": "OK",
      "vis_m": 9999,
      "fzfg": false,
      "metar_trigger": false,
      "taf_trigger": false,
      "metar": "METAR LEMD 150730Z 01012KT 340V070 9999 FEW060 08/00 Q1015 NOSIG",
      "taf": "TAF LEMD 150500Z 1506/1612 02012KT 9999 FEW060 TX15/1515Z TN07/1507Z"
    },
    {
      "icao": "LEMG",
      "alert": "OK",
      "vis_m": 9999,
      "fzfg": false,
      "metar_trigger": false,
      "taf_trigger": false,
      "metar": "METAR LEMG 150730Z 30011KT 270V340 9999 FEW028 BKN038 15/10 Q1013 NOSIG",
      "taf": "TAF LEMG 150500Z 1506/1606 30010KT 9999 SCT030 TX18/1515Z TN11/1507Z"
    },
    {
      "icao": "LEVC",
      "alert": "OK",
      "vis_m": 9999,
      "fzfg": false,
      "metar_trigger": false,
      "taf_trigger": false,
      "metar": "METAR LEVC 150730Z 31021KT 9999 FEW060 12/00 Q1011 NOSIG",
      "taf": "TAF LEVC 150500Z 1506/1606 33012KT 9999 SCT060 TX18/1512Z TN08/1506Z"
    },
    {
      "icao": "LEXJ",
      "alert": "OK",
      "vis_m": 9999,
      "fzfg": false,
      "metar_trigger": false,
      "taf_trigger": false,
      "metar": "METAR LEXJ 150730Z 33007KT 290V010 9999 SCT030 BKN055 09/03 Q1020",
      "taf": "TAF LEXJ 150200Z 1503/1603 29009KT 9999 SCT015 BKN025 TX13/1513Z TN09/1505Z"
    },
    {
      "icao": "LEZG",
      "alert": "OK",
      "vis_m": 9999,
      "fzfg": false,
      "metar_trigger": false,
      "taf_trigger": false,
      "metar": "METAR LEZG 150730Z 30020KT 9999 FEW050 08/04 Q1014 NOSIG",
      "taf": "TAF LEZG 150500Z 1506/1606 29015KT 9999 FEW050 SCT070 TX13/1514Z TN06/1506Z"
    },
    {
      "icao": "LEZL",
      "alert": "OK",
      "vis_m": 9999,
      "fzfg": false,
      "metar_trigger": false,
      "taf_trigger": false,
      "metar": "METAR LEZL 150730Z 29005KT 260V330 9999 BKN034 15/11 Q1015 NOSIG",
      "taf": "TAF LEZL 150200Z 1503/1603 30008KT 9999 SCT030 TX21/1515Z TN10/1507Z"
    },
    {
      "icao": "LFBD",
      "alert": "OK",
      "vis_m": 9999,
      "fzfg": false,
      "metar_trigger": false,
      "taf_trigger": false,
      "metar": "METAR LFBD 150730Z AUTO VRB02KT CAVOK 05/05 Q1018",
      "taf": "TAF LFBD 150500Z 1506/1612 33005KT CAVOK TX14/1514Z TN02/1506Z"
    },
    {
      "icao": "LFLL",
      "alert": "OK",
      "vis_m": 9999,
      "fzfg": false,
      "metar_trigger": false,
      "taf_trigger": false,
      "metar": "METAR LFLL 150730Z 35017KT 9999 SCT011 SCT160 04/02 Q1011 NOSIG",
      "taf": "TAF LFLL 150500Z 1506/1612 35018KT CAVOK"
    },
    {
      "icao": "LFLS",
      "alert": "OK",
      "vis_m": 9999,
      "fzfg": false,
      "metar_trigger": false,
      "taf_trigger": false,
      "metar": "METAR LFLS 150730Z AUTO 34012KT 9999 BKN011 03/01 Q1009",
      "taf": ""
    },
    {
      "icao": "LFMN",
      "alert": "OK",
      "vis_m": 9999,
      "fzfg": false,
      "metar_trigger": false,
      "taf_trigger": false,
      "metar": "METAR LFMN 150730Z 01007KT 340V040 9999 -RA BKN060 09/06 Q0998 NOSIG",
      "taf": "TAF LFMN 150200Z 1503/1609 34012KT 9999 SCT040 BKN100"
    },
    {
      "icao": "LFOB",
      "alert": "OK",
      "vis_m": 9999,
      "fzfg": false,
      "metar_trigger": false,
      "taf_trigger": false,
      "metar": "METAR LFOB 150730Z AUTO 00000KT CAVOK 00/M00 Q1017",
      "taf": "TAF LFOB 150500Z 1506/1606 VRB03KT CAVOK"
    },
    {
      "icao": "LFPO",
      "alert": "OK",
      "vis_m": 9999,
      "fzfg": false,
      "metar_trigger": false,
      "taf_trigger": false,
      "metar": "METAR LFPO 150730Z VRB01KT CAVOK 03/01 Q1017 NOSIG",
      "taf": "TAF LFPO 150500Z 1506/1612 VRB02KT CAVOK"
    },
    {
      "icao": "LFSB",
      "alert": "OK",
      "vis_m": 9999,
      "fzfg": false,
      "metar_trigger": false,
      "taf_trigger": false,
      "metar": "METAR LFSB 150730Z AUTO 34004KT 9999 FEW006 OVC042 04/03 Q1014",
      "taf": "TAF LFSB 150500Z 1506/1606 29003KT 9999 SCT015 BKN035"
    },
    {
      "icao": "LGAV",
      "alert": "OK",
      "vis_m": 9999,
      "fzfg": false,
      "metar_trigger": false,
      "taf_trigger": false,
      "metar": "METAR LGAV 150720Z 35006KT 320V020 9999 FEW030 13/03 Q1010 NOSIG",
      "taf": "TAF LGAV 150500Z 1506/1606 34010KT 9999 FEW030"
    },
    {
      "icao": "LGTS",
      "alert": "OK",
      "vis_m": 9999,
      "fzfg": false,
      "metar_trigger": false,
      "taf_trigger": false,
      "metar": "METAR LGTS 150720Z VRB02KT CAVOK 10/05 Q1011 NOSIG",
      "taf": "TAF LGTS 150500Z 1506/1606 VRB03KT 9999 FEW030"
    },
    {
      "icao": "LHBP",
      "alert": "OK",
      "vis_m": 9999,
      "fzfg": false,
      "metar_trigger": false,
      "taf_trigger": false,
      "metar": "METAR LHBP 150730Z 12014KT CAVOK 08/00 Q1012 NOSIG",
      "taf": "TAF LHBP 150515Z 1506/1606 08006KT CAVOK"
    },
    {
      "icao": "LHDC",
      "alert": "OK",
      "vis_m": 9999,
      "fzfg": false,
      "metar_trigger": false,
      "taf_trigger": false,
      "metar": "METAR LHDC 150715Z AUTO 06007KT CAVOK 08/M02 Q1013 NOSIG",
      "taf": "TAF LHDC 150515Z 1506/1515 06007KT CAVOK"
    },
    {
      "icao": "LIBD",
      "alert": "OK",
      "vis_m": 9999,
      "fzfg": false,
      "metar_trigger": false,
      "taf_trigger": false,
      "metar": "METAR LIBD 150720Z 13010KT 9999 FEW040 13/10 Q1004",
      "taf": "TAF LIBD 150500Z 1506/1606 13006KT 9999 SCT020"
    },
    {
      "icao": "LIBG",
      "alert": "OK",
      "vis_m": 8000,
      "fzfg": false,
      "metar_trigger": false,
      "taf_trigger": false,
      "metar": "SPECI LIBG 150651Z 06006KT 8000 -RA SCT020 SCT030 11/10 Q1005",
      "taf": ""
    },
    {
      "icao": "LIBP",
      "alert": "OK",
      "vis_m": 9999,
      "fzfg": false,
      "metar_trigger": false,
      "taf_trigger": false,
      "metar": "METAR LIBP 150720Z AUTO 24004KT 9999 BKN240/// 08/06 Q1003",
      "taf": "TAF LIBP 150500Z 1506/1606 VRB05KT 9999 SCT040"
    },
    {
      "icao": "LIBR",
      "alert": "OK",
      "vis_m": 9999,
      "fzfg": false,
      "metar_trigger": false,
      "taf_trigger": false,
      "metar": "METAR LIBR 150720Z 15010KT 9999 VCSH SCT045 13/09 Q1006",
      "taf": "TAF LIBR 150500Z 1506/1606 15006KT 9999 SCT015"
    },
    {
      "icao": "LICA",
      "alert": "OK",
      "vis_m": 9999,
      "fzfg": false,
      "metar_trigger": false,
      "taf_trigger": false,
      "metar": "METAR LICA 150720Z AUTO 07013KT 9999 NCD 14/10 Q1003",
      "taf": "TAF LICA 150500Z 1506/1606 08012KT 9999 BKN040"
    },
    {
      "icao": "LICC",
      "alert": "OK",
      "vis_m": 9999,
      "fzfg": false,
      "metar_trigger": false,
      "taf_trigger": false,
      "metar": "METAR LICC 150720Z VRB02KT 9999 FEW025 SCT090 09/07 Q1003",
      "taf": "TAF LICC 150500Z 1506/1606 24007KT 9999 SCT030"
    },
    {
      "icao": "LICJ",
      "alert": "OK",
      "vis_m": 9999,
      "fzfg": false,
      "metar_trigger": false,
      "taf_trigger": false,
      "metar": "METAR LICJ 150720Z 16014KT CAVOK 17/03 Q0998 WS R20",
      "taf": ""
    },
    {
      "icao": "LIMC",
      "alert": "OK",
      "vis_m": 9999,
      "fzfg": false,
      "metar_trigger": false,
      "taf_trigger": false,
      "metar": "METAR LIMC 150720Z 36019KT 9999 -RA BKN035 05/04 Q1005 WS R35L NOSIG",
      "taf": ""
    },
    {
      "icao": "LIME",
      "alert": "OK",
      "vis_m": 9999,
      "fzfg": false,
      "metar_trigger": false,
      "taf_trigger": false,
      "metar": "METAR LIME 150720Z AUTO 35002KT 9999 FEW120/// 11/07 Q1004",
      "taf": "TAF LIME 150500Z 1506/1606 02010KT 9999 SCT030 BKN040"
    },
    {
      "icao": "LIMF",
      "alert": "OK",
      "vis_m": 8000,
      "fzfg": false,
      "metar_trigger": false,
      "taf_trigger": false,
      "metar": "METAR LIMF 150720Z 01009KT 340V040 8000 -RA BKN030 07/04 Q1005",
      "taf": "TAF LIMF 150500Z 1506/1606 34010KT 9000 RA FEW010 OVC030"
    },
    {
      "icao": "LIMJ",
      "alert": "OK",
      "vis_m": 9000,
      "fzfg": false,
      "metar_trigger": false,
      "taf_trigger": false,
      "metar": "METAR LIMJ 150720Z 05016KT 9000 RA FEW020 OVC035 08/06 Q1002",
      "taf": "TAF LIMJ 150500Z 1506/1606 36018KT 7000 RA BKN020 BKN040"
    },
    {
      "icao": "LIPE",
      "alert": "OK",
      "vis_m": 9999,
      "fzfg": false,
      "metar_trigger": false,
      "taf_trigger": false,
      "metar": "METAR LIPE 150720Z 09007KT CAVOK 12/07 Q1003",
      "taf": "TAF LIPE 150500Z 1506/1606 13007KT 9999 SCT030"
    },
    {
      "icao": "LIPH",
      "alert": "OK",
      "vis_m": 9999,
      "fzfg": false,
      "metar_trigger": false,
      "taf_trigger": false,
      "metar": "METAR LIPH 150720Z 06009KT 9999 BKN015 13/09 Q1006",
      "taf": "TAF LIPH 150500Z 1506/1606 06012KT 9999 BKN020"
    },
    {
      "icao": "LIPQ",
      "alert": "OK",
      "vis_m": 9999,
      "fzfg": false,
      "metar_trigger": false,
      "taf_trigger": false,
      "metar": "METAR LIPQ 150720Z AUTO 01004KT 9999 BKN071/// 13/08 Q1007",
      "taf": "TAF LIPQ 150500Z 1506/1606 VRB05KT 9999 BKN040"
    },
    {
      "icao": "LIPR",
      "alert": "OK",
      "vis_m": 9999,
      "fzfg": false,
      "metar_trigger": false,
      "taf_trigger": false,
      "metar": "METAR LIPR 150720Z VRB01KT 9999 FEW060 10/08 Q1003",
      "taf": "TAF LIPR 150500Z 1506/1606 VRB05KT 9999 SCT060"
    },
    {
      "icao": "LIPX",
      "alert": "OK",
      "vis_m": 9999,
      "fzfg": false,
      "metar_trigger": false,
      "taf_trigger": false,
      "metar": "METAR LIPX 150720Z 06010KT 9999 SCT015 13/09 Q1004",
      "taf": "TAF LIPX 150500Z 1506/1606 09012KT 9999 FEW020 BKN060"
    },
    {
      "icao": "LIPY",
      "alert": "OK",
      "vis_m": 9999,
      "fzfg": false,
      "metar_trigger": false,
      "taf_trigger": false,
      "metar": "METAR LIPY 150720Z AUTO 24004KT 9999 NCD 09/08 Q1003",
      "taf": "TAF LIPY 150500Z 1506/1606 VRB05KT 9999 SCT020"
    },
    {
      "icao": "LIPZ",
      "alert": "OK",
      "vis_m": 9999,
      "fzfg": false,
      "metar_trigger": false,
      "taf_trigger": false,
      "metar": "METAR LIPZ 150720Z 10012KT 9999 FEW040 14/10 Q1006 NOSIG",
      "taf": "TAF LIPZ 150500Z 1506/1612 08015G30KT 9999 BKN030"
    },
    {
      "icao": "LIRF",
      "alert": "OK",
      "vis_m": 9999,
      "fzfg": false,
      "metar_trigger": false,
      "taf_trigger": false,
      "metar": "METAR LIRF 150720Z 11014KT 9999 FEW050 13/09 Q1000 NOSIG",
      "taf": "TAF LIRF 150500Z 1506/1612 13014KT 9999 SCT025"
    },
    {
      "icao": "LIRN",
      "alert": "OK",
      "vis_m": 9999,
      "fzfg": false,
      "metar_trigger": false,
      "taf_trigger": false,
      "metar": "METAR LIRN 150720Z 04005KT 9999 SCT050 12/08 Q1002 NOSIG",
      "taf": "TAF LIRN 150500Z 1506/1606 VRB05KT 9999 SCT030"
    },
    {
      "icao": "LIRP",
      "alert": "OK",
      "vis_m": 9999,
      "fzfg": false,
      "metar_trigger": false,
      "taf_trigger": false,
      "metar": "METAR LIRP 150715Z 10015KT 9999 BKN080 13/07 Q0999 NOSIG",
      "taf": "TAF LIRP 150500Z 1506/1606 10012KT 9999 FEW020 SCT060"
    },
    {
      "icao": "LIRZ",
      "alert": "OK",
      "vis_m": 9999,
      "fzfg": false,
      "metar_trigger": false,
      "taf_trigger": false,
      "metar": "METAR LIRZ 150720Z AUTO 08004KT 340V130 9999 NCD 08/06 Q1002",
      "taf": "TAF LIRZ 150500Z 1506/1606 VRB05KT 9999 BKN030"
    },
    {
      "icao": "LJLJ",
      "alert": "OK",
      "vis_m": 9999,
      "fzfg": false,
      "metar_trigger": false,
      "taf_trigger": false,
      "metar": "METAR LJLJ 150730Z 09003KT 030V120 9999 VCFG FEW001 SCT085 BKN180 07/06 Q1009 NOSIG",
      "taf": "TAF LJLJ 150500Z 1506/1606 28002KT 9999 FEW001 SCT040"
    },
    {
      "icao": "LKMT",
      "alert": "OK",
      "vis_m": 9999,
      "fzfg": false,
      "metar_trigger": false,
      "taf_trigger": false,
      "metar": "METAR LKMT 150730Z 24007KT CAVOK 11/03 Q1010 NOSIG",
      "taf": "TAF LKMT 150500Z 1506/1606 24010KT CAVOK"
    },
    {
      "icao": "LKPR",
      "alert": "OK",
      "vis_m": 9999,
      "fzfg": false,
      "metar_trigger": false,
      "taf_trigger": false,
      "metar": "METAR LKPR 150730Z 26006KT 9999 BKN017 OVC032 05/03 Q1011 NOSIG",
      "taf": "TAF LKPR 150500Z 1506/1612 32007KT 9999 SCT018 OVC025"
    },
    {
      "icao": "LLBG",
      "alert": "OK",
      "vis_m": 9999,
      "fzfg": false,
      "metar_trigger": false,
      "taf_trigger": false,
      "metar": "METAR LLBG 150750Z 22020KT 9999 SCT021 BKN050 17/11 Q1009 NOSIG",
      "taf": "TAF LLBG 150506Z 1506/1606 19006KT 9999 SCT025 TX18/1511Z TN13/1604Z"
    },
    {
      "icao": "LMML",
      "alert": "OK",
      "vis_m": 9999,
      "fzfg": false,
      "metar_trigger": false,
      "taf_trigger": false,
      "metar": "METAR LMML 150745Z 19009KT 160V220 CAVOK 17/13 Q1001 NOSIG",
      "taf": "TAF LMML 150500Z 1506/1606 20015KT 9999 FEW018"
    },
    {
      "icao": "LOWW",
      "alert": "OK",
      "vis_m": 9999,
      "fzfg": false,
      "metar_trigger": false,
      "taf_trigger": false,
      "metar": "METAR LOWW 150720Z 01005KT 9999 FEW026 BKN028 08/04 Q1012 TEMPO 31010KT",
      "taf": "TAF LOWW 150515Z 1506/1612 34005KT 9999 SCT050 TX15/1514Z TN06/1506Z"
    },
    {
      "icao": "LPFR",
      "alert": "OK",
      "vis_m": 9999,
      "fzfg": false,
      "metar_trigger": false,
      "taf_trigger": false,
      "metar": "METAR LPFR 150730Z 33008KT 300V360 9999 FEW024 14/09 Q1016",
      "taf": "TAF LPFR 150500Z 1506/1606 31008KT 9999 SCT010 BKN025"
    },
    {
      "icao": "LPMA",
      "alert": "OK",
      "vis_m": 9999,
      "fzfg": false,
      "metar_trigger": false,
      "taf_trigger": false,
      "metar": "METAR LPMA 150730Z 01009KT 9999 BKN015 SCT030 16/12 Q1021",
      "taf": "TAF LPMA 150500Z 1506/1606 01012KT 9999 SCT015"
    },
    {
      "icao": "LPPR",
      "alert": "OK",
      "vis_m": 9999,
      "fzfg": false,
      "metar_trigger": false,
      "taf_trigger": false,
      "metar": "METAR LPPR 150730Z 36011KT 9999 FEW020 09/06 Q1020",
      "taf": "TAF LPPR 150500Z 1506/1606 34007KT CAVOK"
    },
    {
      "icao": "LPPS",
      "alert": "OK",
      "vis_m": 9000,
      "fzfg": false,
      "metar_trigger": false,
      "taf_trigger": false,
      "metar": "METAR LPPS 150730Z 02006KT 9000 -RADZ SCT010 BKN030 15/13 Q1021",
      "taf": "TAF LPPS 150500Z 1506/1612 03010KT 9999 SCT012 BKN030"
    },
    {
      "icao": "LPPT",
      "alert": "OK",
      "vis_m": 9999,
      "fzfg": false,
      "metar_trigger": false,
      "taf_trigger": false,
      "metar": "METAR LPPT 150730Z 34017KT 9999 FEW018 12/09 Q1018",
      "taf": "TAF LPPT 150500Z 1506/1612 33015KT 9999 FEW015"
    },
    {
      "icao": "LQBK",
      "alert": "OK",
      "vis_m": 9999,
      "fzfg": false,
      "metar_trigger": false,
      "taf_trigger": false,
      "metar": "METAR LQBK 150730Z VRB03KT CAVOK 08/02 Q1009 NOSIG",
      "taf": "TAF LQBK 150500Z 1506/1606 34004KT CAVOK TX19/1513Z TN04/1605Z"
    },
    {
      "icao": "LQSA",
      "alert": "OK",
      "vis_m": 9999,
      "fzfg": false,
      "metar_trigger": false,
      "taf_trigger": false,
      "metar": "METAR LQSA 150730Z VRB02KT CAVOK 05/M01 Q1009 NOSIG",
      "taf": "TAF LQSA 150500Z 1506/1606 29006KT CAVOK TX18/1514Z TNM00/1506Z"
    },
    {
      "icao": "LQTZ",
      "alert": "OK",
      "vis_m": 9999,
      "fzfg": false,
      "metar_trigger": false,
      "taf_trigger": false,
      "metar": "METAR LQTZ 150730Z VRB01KT CAVOK 08/03 Q1009",
      "taf": "TAF LQTZ 150500Z 1506/1606 VRB02KT 9999 SCT050 TX19/1513Z TN01/1605Z"
    },
    {
      "icao": "LRBC",
      "alert": "OK",
      "vis_m": 9999,
      "fzfg": false,
      "metar_trigger": false,
      "taf_trigger": false,
      "metar": "METAR LRBC 150730Z 34006KT CAVOK 06/02 Q1017",
      "taf": "TAF LRBC 150500Z 1506/1515 34005KT CAVOK"
    },
    {
      "icao": "LRBS",
      "alert": "OK",
      "vis_m": 8000,
      "fzfg": false,
      "metar_trigger": false,
      "taf_trigger": false,
      "metar": "METAR LRBS 150730Z 06011KT 8000 BKN007 BKN010 05/03 Q1014 NOSIG",
      "taf": "TAF LRBS 150500Z 1506/1606 06011KT 9999 BKN010"
    },
    {
      "icao": "LRBV",
      "alert": "OK",
      "vis_m": 9999,
      "fzfg": false,
      "metar_trigger": false,
      "taf_trigger": false,
      "metar": "METAR LRBV 150730Z 10007KT 070V130 CAVOK 04/M01 Q1013",
      "taf": "TAF LRBV 150500Z 1506/1515 VRB04KT CAVOK"
    },
    {
      "icao": "LRCL",
      "alert": "OK",
      "vis_m": 9999,
      "fzfg": false,
      "metar_trigger": false,
      "taf_trigger": false,
      "metar": "METAR LRCL 150730Z 05004KT 030V100 CAVOK 07/M02 Q1013",
      "taf": "TAF LRCL 150500Z 1506/1515 VRB04KT CAVOK"
    },
    {
      "icao": "LRCV",
      "alert": "OK",
      "vis_m": 9999,
      "fzfg": false,
      "metar_trigger": false,
      "taf_trigger": false,
      "metar": "METAR LRCV 150730Z 08014KT CAVOK 06/04 Q1014",
      "taf": ""
    },
    {
      "icao": "LRIA",
      "alert": "OK",
      "vis_m": 9999,
      "fzfg": false,
      "metar_trigger": false,
      "taf_trigger": false,
      "metar": "METAR LRIA 150730Z 07006KT 040V100 CAVOK 06/M03 Q1017",
      "taf": "TAF LRIA 150500Z 1506/1515 VRB04KT CAVOK"
    },
    {
      "icao": "LROP",
      "alert": "OK",
      "vis_m": 9999,
      "fzfg": false,
      "metar_trigger": false,
      "taf_trigger": false,
      "metar": "METAR LROP 150730Z 07015KT 9999 OVC010 06/03 Q1015 NOSIG",
      "taf": "TAF LROP 150500Z 1506/1606 06011KT 5000 BR BKN010"
    },
    {
      "icao": "LRSB",
      "alert": "OK",
      "vis_m": 9999,
      "fzfg": false,
      "metar_trigger": false,
      "taf_trigger": false,
      "metar": "METAR LRSB 150730Z VRB01KT CAVOK 08/M04 Q1012",
      "taf": "TAF LRSB 150500Z 1506/1606 VRB04KT CAVOK"
    },
    {
      "icao": "LRSM",
      "alert": "OK",
      "vis_m": 9999,
      "fzfg": false,
      "metar_trigger": false,
      "taf_trigger": false,
      "metar": "METAR LRSM 150730Z 14008KT CAVOK 11/M04 Q1013",
      "taf": "TAF LRSM 150500Z 1506/1515 13006KT CAVOK"
    },
    {
      "icao": "LRSV",
      "alert": "OK",
      "vis_m": 9999,
      "fzfg": false,
      "metar_trigger": false,
      "taf_trigger": false,
      "metar": "METAR LRSV 150730Z 09008KT CAVOK 04/01 Q1016",
      "taf": "TAF LRSV 150500Z 1506/1515 10006KT CAVOK"
    },
    {
      "icao": "LRTM",
      "alert": "OK",
      "vis_m": 9999,
      "fzfg": false,
      "metar_trigger": false,
      "taf_trigger": false,
      "metar": "METAR LRTM 150730Z 08003KT 040V110 CAVOK 06/M01 Q1014",
      "taf": "TAF LRTM 150500Z 1506/1515 10005KT CAVOK"
    },
    {
      "icao": "LRTR",
      "alert": "OK",
      "vis_m": 9999,
      "fzfg": false,
      "metar_trigger": false,
      "taf_trigger": false,
      "metar": "METAR LRTR 150730Z 10012KT CAVOK 10/M01 Q1011 NOSIG",
      "taf": "TAF LRTR 150500Z 1506/1606 10008KT CAVOK"
    },
    {
      "icao": "LTAC",
      "alert": "OK",
      "vis_m": 9999,
      "fzfg": false,
      "metar_trigger": false,
      "taf_trigger": false,
      "metar": "METAR LTAC 150720Z 03013KT 9999 FEW040 SCT100 10/M00 Q1004 NOSIG RMK RWY21C 02012KT RWY03L 03011KT RWY21R 03012KT RWY03R 01011KT 340V050 RWY21L 02013KT",
      "taf": ""
    },
    {
      "icao": "LTFM",
      "alert": "OK",
      "vis_m": 9999,
      "fzfg": false,
      "metar_trigger": false,
      "taf_trigger": false,
      "metar": "METAR LTFM 150720Z 36014KT 9999 BKN020 08/05 Q1010 NOSIG RMK RWY17L 36010KT RWY34L 36014KT RWY16R 36011KT RWY36 36014KT RWY18 01012KT",
      "taf": "TAF LTFM 150440Z 1506/1612 04012KT 9999 BKN020"
    },
    {
      "icao": "LUKK",
      "alert": "OK",
      "vis_m": 9999,
      "fzfg": false,
      "metar_trigger": false,
      "taf_trigger": false,
      "metar": "METAR LUKK 150730Z 07010KT 030V100 CAVOK 07/M03 Q1017 NOSIG",
      "taf": "TAF LUKK 150517Z 1506/1606 03006KT CAVOK"
    },
    {
      "icao": "LWOH",
      "alert": "OK",
      "vis_m": 9999,
      "fzfg": false,
      "metar_trigger": false,
      "taf_trigger": false,
      "metar": "METAR LWOH 150720Z VRB01KT 9999 FEW030 08/02 Q1009",
      "taf": "TAF LWOH 150510Z 1506/1606 34005KT CAVOK"
    },
    {
      "icao": "LWSK",
      "alert": "OK",
      "vis_m": 9999,
      "fzfg": false,
      "metar_trigger": false,
      "taf_trigger": false,
      "metar": "METAR LWSK 150750Z VRB02KT CAVOK 09/03 Q1011 NOSIG",
      "taf": "TAF LWSK 150510Z 1506/1606 VRB02KT CAVOK"
    },
    {
      "icao": "LYBE",
      "alert": "OK",
      "vis_m": 9999,
      "fzfg": false,
      "metar_trigger": false,
      "taf_trigger": false,
      "metar": "METAR LYBE 150730Z 13014KT CAVOK 10/01 Q1010 NOSIG",
      "taf": "TAF LYBE 150500Z 1506/1606 13012KT CAVOK TX18/1513Z TN04/1605Z"
    },
    {
      "icao": "LYNI",
      "alert": "OK",
      "vis_m": 9999,
      "fzfg": false,
      "metar_trigger": false,
      "taf_trigger": false,
      "metar": "METAR LYNI 150730Z 03006KT 340V060 CAVOK 09/02 Q1011 NOSIG",
      "taf": "TAF LYNI 150500Z 1506/1606 05005KT CAVOK TX18/1513Z TN02/1605Z"
    },
    {
      "icao": "LYPG",
      "alert": "OK",
      "vis_m": 9999,
      "fzfg": false,
      "metar_trigger": false,
      "taf_trigger": false,
      "metar": "METAR LYPG 150730Z 35003KT 300V030 CAVOK 12/03 Q1009 NOSIG",
      "taf": "TAF LYPG 150500Z 1506/1606 16005KT CAVOK TX20/1513Z TN06/1605Z"
    },
    {
      "icao": "LZIB",
      "alert": "OK",
      "vis_m": 9999,
      "fzfg": false,
      "metar_trigger": false,
      "taf_trigger": false,
      "metar": "METAR LZIB 150730Z 06008KT CAVOK 09/00 Q1011 NOSIG",
      "taf": "TAF LZIB 150515Z 1506/1606 04008KT CAVOK"
    },
    {
      "icao": "LZKZ",
      "alert": "OK",
      "vis_m": 9999,
      "fzfg": false,
      "metar_trigger": false,
      "taf_trigger": false,
      "metar": "METAR LZKZ 150730Z 01006KT CAVOK 08/M04 Q1013 NOSIG",
      "taf": "TAF LZKZ 150515Z 1506/1606 01005KT CAVOK"
    },
    {
      "icao": "LZTT",
      "alert": "OK",
      "vis_m": 9999,
      "fzfg": false,
      "metar_trigger": false,
      "taf_trigger": false,
      "metar": "METAR LZTT 150730Z 14004KT 110V170 CAVOK 06/M01 Q1012 NOSIG",
      "taf": "TAF LZTT 150515Z 1506/1606 26004KT CAVOK"
    },
    {
      "icao": "OEJN",
      "alert": "OK",
      "vis_m": 2000,
      "fzfg": false,
      "metar_trigger": false,
      "taf_trigger": false,
      "metar": "SPECI OEJN 150721Z 16020KT 2000 BLSA NSC 33/18 Q1006 TEMPO 1000",
      "taf": "TAF OEJN 150500Z 1506/1612 20018KT 7000 NSC"
    },
    {
      "icao": "OEMA",
      "alert": "OK",
      "vis_m": 9999,
      "fzfg": false,
      "metar_trigger": false,
      "taf_trigger": false,
      "metar": "METAR OEMA 150700Z 15007KT CAVOK 30/13 Q1012 NOSIG",
      "taf": "TAF OEMA 150500Z 1506/1612 20018KT 7000 FEW040"
    },
    {
      "icao": "OJAI",
      "alert": "OK",
      "vis_m": 4000,
      "fzfg": false,
      "metar_trigger": false,
      "taf_trigger": false,
      "metar": "METAR OJAI 150700Z 24014KT 4000 HZ SCT030 13/07 Q1009 NOSIG",
      "taf": "TAF OJAI 150500Z 1506/1612 27014KT 4000 BR SCT020"
    },
    {
      "icao": "OMAA",
      "alert": "OK",
      "vis_m": null,
      "fzfg": false,
      "metar_trigger": false,
      "taf_trigger": false,
      "metar": "",
      "taf": ""
    },
    {
      "icao": "OMDB",
      "alert": "OK",
      "vis_m": null,
      "fzfg": false,
      "metar_trigger": false,
      "taf_trigger": false,
      "metar": "",
      "taf": ""
    },
    {
      "icao": "UAAA",
      "alert": "OK",
      "vis_m": 9999,
      "fzfg": false,
      "metar_trigger": false,
      "taf_trigger": false,
      "metar": "METAR UAAA 150730Z 23003MPS 180V280 9999 SCT200 06/M04 Q1027 NOSIG",
      "taf": "TAF UAAA 150502Z 1506/1606 26004MPS 9999 SCT100 TX06/1509Z TNM04/1601Z"
    },
    {
      "icao": "UBBB",
      "alert": "OK",
      "vis_m": 9999,
      "fzfg": false,
      "metar_trigger": false,
      "taf_trigger": false,
      "metar": "METAR UBBB 150730Z 14018KT 9999 FEW050CB 11/06 Q1020 NOSIG",
      "taf": "TAF UBBB 150457Z 1506/1606 14012KT 9999 BKN040 TX13/1509Z TN07/1600Z"
    },
    {
      "icao": "UDSG",
      "alert": "OK",
      "vis_m": 9000,
      "fzfg": false,
      "metar_trigger": false,
      "taf_trigger": false,
      "metar": "METAR UDSG 150730Z 20002KT 9000 FEW013 OVC023 02/01 Q1015 NOSIG",
      "taf": "TAF UDSG 150458Z 1506/1606 VRB06KT 5000 BR OVC030"
    },
    {
      "icao": "UDYZ",
      "alert": "OK",
      "vis_m": 2000,
      "fzfg": false,
      "metar_trigger": false,
      "taf_trigger": false,
      "metar": "METAR UDYZ 150730Z VRB01KT 2000 R08/2000U -SHRA BR FEW003 OVC023CB 07/07 Q1014 NOSIG",
      "taf": "TAF UDYZ 150500Z 1506/1606 20006KT 3500 BR BKN030"
    },
    {
      "icao": "UGKO",
      "alert": "OK",
      "vis_m": 9999,
      "fzfg": false,
      "metar_trigger": false,
      "taf_trigger": false,
      "metar": "METAR UGKO 150730Z 08036G52KT CAVOK 13/02 Q1008 NOSIG",
      "taf": "TAF UGKO 150500Z 1506/1606 08033G47KT CAVOK TX14/1511Z TN06/1603Z"
    }
  ]
}