{
  "ts_utc": "2026-03-02T21:42:55Z",
  "threshold_m": 150,
  "source": "stations_override.txt (ICAO list) + aviationweather.gov (METAR/TAF raw)",
  "station_count": 159,
  "stations": [
    {
      "icao": "BIKF",
      "alert": "OK",
      "vis_m": 9999,
      "fzfg": false,
      "metar_trigger": false,
      "taf_trigger": false,
      "metar": "METAR BIKF 022130Z 34007KT CAVOK M03/M09 Q1008",
      "taf": "TAF BIKF 021951Z 0221/0321 VRB03KT 9999 BKN030 TX07/0317Z TNM08/0300Z"
    },
    {
      "icao": "BKPR",
      "alert": "OK",
      "vis_m": 9999,
      "fzfg": false,
      "metar_trigger": false,
      "taf_trigger": false,
      "metar": "METAR BKPR 022130Z 29006KT CAVOK 08/03 Q1025 NOSIG",
      "taf": "TAF BKPR 021730Z 0218/0318 34007KT 9999 SCT040"
    },
    {
      "icao": "EBCI",
      "alert": "OK",
      "vis_m": 9999,
      "fzfg": false,
      "metar_trigger": false,
      "taf_trigger": false,
      "metar": "METAR EBCI 022120Z 18005KT CAVOK 10/04 Q1021 NOSIG",
      "taf": "TAF EBCI 021700Z 0218/0324 17005KT CAVOK"
    },
    {
      "icao": "EDDB",
      "alert": "OK",
      "vis_m": 9999,
      "fzfg": false,
      "metar_trigger": false,
      "taf_trigger": false,
      "metar": "METAR EDDB 022120Z AUTO 16005KT CAVOK 07/00 Q1025 NOSIG",
      "taf": "TAF EDDB 021700Z 0218/0318 17005KT CAVOK"
    },
    {
      "icao": "EDDH",
      "alert": "OK",
      "vis_m": 9999,
      "fzfg": false,
      "metar_trigger": false,
      "taf_trigger": false,
      "metar": "METAR EDDH 022120Z AUTO 15005KT CAVOK 07/03 Q1023 NOSIG",
      "taf": "TAF EDDH 021700Z 0218/0324 16004KT CAVOK"
    },
    {
      "icao": "EDDK",
      "alert": "OK",
      "vis_m": 9999,
      "fzfg": false,
      "metar_trigger": false,
      "taf_trigger": false,
      "metar": "METAR EDDK 022120Z AUTO 12006KT CAVOK 11/03 Q1023 NOSIG",
      "taf": "TAF EDDK 021700Z 0218/0324 13005KT CAVOK"
    },
    {
      "icao": "EDDN",
      "alert": "OK",
      "vis_m": 9999,
      "fzfg": false,
      "metar_trigger": false,
      "taf_trigger": false,
      "metar": "METAR EDDN 022120Z AUTO VRB01KT CAVOK 04/02 Q1024 NOSIG",
      "taf": "TAF EDDN 021700Z 0218/0318 VRB03KT CAVOK"
    },
    {
      "icao": "EDDS",
      "alert": "OK",
      "vis_m": 9999,
      "fzfg": false,
      "metar_trigger": false,
      "taf_trigger": false,
      "metar": "METAR EDDS 022120Z AUTO 00000KT CAVOK 04/02 Q1023",
      "taf": "TAF EDDS 021700Z 0218/0318 VRB03KT CAVOK"
    },
    {
      "icao": "EDFH",
      "alert": "OK",
      "vis_m": 9999,
      "fzfg": false,
      "metar_trigger": false,
      "taf_trigger": false,
      "metar": "METAR EDFH 022120Z 14009KT CAVOK 06/02 Q1023",
      "taf": "TAF EDFH 021700Z 0218/0318 14008KT CAVOK"
    },
    {
      "icao": "EDJA",
      "alert": "OK",
      "vis_m": 4000,
      "fzfg": false,
      "metar_trigger": false,
      "taf_trigger": false,
      "metar": "METAR EDJA 022120Z 05002KT 4000 0500E R06/P2000N BCFG FEW008 02/02 Q1023",
      "taf": "TAF EDJA 021700Z 0218/0303 05006KT CAVOK"
    },
    {
      "icao": "EDLW",
      "alert": "OK",
      "vis_m": 9999,
      "fzfg": false,
      "metar_trigger": false,
      "taf_trigger": false,
      "metar": "METAR EDLW 022120Z 17008KT CAVOK 10/03 Q1022",
      "taf": "TAF EDLW 021700Z 0218/0318 16006KT CAVOK"
    },
    {
      "icao": "EDNY",
      "alert": "OK",
      "vis_m": 5000,
      "fzfg": false,
      "metar_trigger": false,
      "taf_trigger": false,
      "metar": "METAR EDNY 022120Z AUTO VRB01KT 5000 // NCD 01/01 Q1024",
      "taf": "TAF EDNY 021700Z 0218/0303 VRB02KT CAVOK"
    },
    {
      "icao": "EDSB",
      "alert": "OK",
      "vis_m": 9999,
      "fzfg": false,
      "metar_trigger": false,
      "taf_trigger": false,
      "metar": "METAR EDSB 022120Z 00000KT CAVOK 06/03 Q1023",
      "taf": "TAF EDSB 021700Z 0218/0318 02004KT CAVOK"
    },
    {
      "icao": "EETN",
      "alert": "OK",
      "vis_m": 9999,
      "fzfg": false,
      "metar_trigger": false,
      "taf_trigger": false,
      "metar": "METAR EETN 022120Z 33005KT 9999 OVC009 01/M01 Q1021 NOSIG",
      "taf": "TAF EETN 021730Z 0218/0318 33012KT 9999 OVC010"
    },
    {
      "icao": "EFTU",
      "alert": "OK",
      "vis_m": 9999,
      "fzfg": false,
      "metar_trigger": false,
      "taf_trigger": false,
      "metar": "METAR EFTU 022120Z AUTO VRB02KT 9999 OVC005 M01/M02 Q1022",
      "taf": "TAF EFTU 022038Z 0221/0321 VRB02KT 9999 BKN004"
    },
    {
      "icao": "EGBB",
      "alert": "OK",
      "vis_m": 9999,
      "fzfg": false,
      "metar_trigger": false,
      "taf_trigger": false,
      "metar": "METAR EGBB 022120Z 32005KT 9999 BKN024 OVC035 10/07 Q1018",
      "taf": "TAF EGBB 021700Z 0218/0318 18010KT 9999 FEW035"
    },
    {
      "icao": "EGGP",
      "alert": "OK",
      "vis_m": 9999,
      "fzfg": false,
      "metar_trigger": false,
      "taf_trigger": false,
      "metar": "METAR EGGP 022120Z 25002KT CAVOK 07/03 Q1018",
      "taf": "TAF EGGP 021655Z 0218/0318 VRB04KT 9999 SCT030"
    },
    {
      "icao": "EGGW",
      "alert": "OK",
      "vis_m": 9999,
      "fzfg": false,
      "metar_trigger": false,
      "taf_trigger": false,
      "metar": "METAR EGGW 022120Z AUTO 19005KT 160V220 9999 NCD 08/06 Q1018",
      "taf": "TAF EGGW 021657Z 0218/0318 18010KT 9999 SCT025"
    },
    {
      "icao": "EGKK",
      "alert": "OK",
      "vis_m": 9999,
      "fzfg": false,
      "metar_trigger": false,
      "taf_trigger": false,
      "metar": "METAR EGKK 022120Z 34003KT 220V010 CAVOK 08/06 Q1019",
      "taf": "TAF EGKK 021654Z 0218/0324 19010KT 9999 FEW030"
    },
    {
      "icao": "EGNM",
      "alert": "OK",
      "vis_m": 9999,
      "fzfg": false,
      "metar_trigger": false,
      "taf_trigger": false,
      "metar": "METAR EGNM 022120Z 27012KT 9999 FEW015 07/05 Q1017",
      "taf": "TAF EGNM 021655Z 0218/0318 26005KT 9999 SCT040"
    },
    {
      "icao": "EGPD",
      "alert": "OK",
      "vis_m": 9999,
      "fzfg": false,
      "metar_trigger": false,
      "taf_trigger": false,
      "metar": "METAR EGPD 022120Z AUTO 30027KT 9999 -RA BKN021 BKN027 07/03 Q1010 TEMPO RA",
      "taf": ""
    },
    {
      "icao": "EGPF",
      "alert": "OK",
      "vis_m": 9999,
      "fzfg": false,
      "metar_trigger": false,
      "taf_trigger": false,
      "metar": "METAR EGPF 022120Z AUTO 24006KT 210V280 9999 BKN037 OVC047 06/01 Q1016",
      "taf": ""
    },
    {
      "icao": "EHBK",
      "alert": "OK",
      "vis_m": 9999,
      "fzfg": false,
      "metar_trigger": false,
      "taf_trigger": false,
      "metar": "METAR EHBK 022125Z AUTO 16006KT 9999 NCD 10/05 Q1021 NOSIG",
      "taf": "TAF EHBK 021714Z 0218/0324 15005KT CAVOK"
    },
    {
      "icao": "EHEH",
      "alert": "OK",
      "vis_m": 9999,
      "fzfg": false,
      "metar_trigger": false,
      "taf_trigger": false,
      "metar": "METAR EHEH 022125Z AUTO 16004KT 150V240 9999 NCD 09/04 Q1021 BLU NOSIG RMK TREND REMOTE BY EHWX",
      "taf": "TAF EHEH 021719Z 0218/0324 15007KT CAVOK"
    },
    {
      "icao": "EKBI",
      "alert": "OK",
      "vis_m": 9999,
      "fzfg": false,
      "metar_trigger": false,
      "taf_trigger": false,
      "metar": "METAR EKBI 022120Z AUTO 15006KT 9999 NCD 08/04 Q1021",
      "taf": "TAF EKBI 022027Z 0221/0321 18008KT CAVOK"
    },
    {
      "icao": "EKCH",
      "alert": "OK",
      "vis_m": 9999,
      "fzfg": false,
      "metar_trigger": false,
      "taf_trigger": false,
      "metar": "METAR EKCH 022120Z AUTO 18006KT 9999 FEW078/// 04/02 Q1024 NOSIG",
      "taf": "TAF EKCH 022027Z 0221/0321 16005KT CAVOK"
    },
    {
      "icao": "ENAL",
      "alert": "OK",
      "vis_m": 9999,
      "fzfg": false,
      "metar_trigger": false,
      "taf_trigger": false,
      "metar": "METAR ENAL 022120Z AUTO 24010KT 9999 -RA OVC045/// 08/06 Q1003",
      "taf": "TAF ENAL 022000Z 0221/0306 21012KT 9999 -RA BKN050"
    },
    {
      "icao": "ENBR",
      "alert": "OK",
      "vis_m": 6000,
      "fzfg": false,
      "metar_trigger": false,
      "taf_trigger": false,
      "metar": "METAR ENBR 022120Z 16022KT 6000 RA SCT003 OVC007 06/05 Q1008 RMK WIND 1200FT 17030G41KT",
      "taf": "TAF ENBR 021700Z 0218/0318 16020G30KT 8000 -RA SCT005 BKN010"
    },
    {
      "icao": "ENGM",
      "alert": "OK",
      "vis_m": 750,
      "fzfg": false,
      "metar_trigger": false,
      "taf_trigger": false,
      "metar": "METAR ENGM 022120Z 20012KT 0750 R19R/1000U R01R/0750N R19L/0800U R01L/1000D -RA FG VV002 02/02 Q1015 TEMPO 0500 FG",
      "taf": ""
    },
    {
      "icao": "ENHD",
      "alert": "OK",
      "vis_m": 8000,
      "fzfg": false,
      "metar_trigger": false,
      "taf_trigger": false,
      "metar": "METAR ENHD 022120Z AUTO 17021KT 8000 RA SCT005/// OVC006/// 07/05 Q1011",
      "taf": "TAF ENHD 021400Z 0215/0223 16020KT 9000 SCT005 BKN010"
    },
    {
      "icao": "ENTC",
      "alert": "OK",
      "vis_m": 9999,
      "fzfg": false,
      "metar_trigger": false,
      "taf_trigger": false,
      "metar": "METAR ENTC 022120Z 06003KT CAVOK M02/M03 Q1010 NOSIG RMK WIND 2600FT 16019KT",
      "taf": "TAF ENTC 021700Z 0218/0318 19007KT 9999 FEW035"
    },
    {
      "icao": "ENTO",
      "alert": "OK",
      "vis_m": 500,
      "fzfg": false,
      "metar_trigger": false,
      "taf_trigger": false,
      "metar": "METAR ENTO 022120Z 21010KT 0500 R18/P2000N R36/P2000D FG VV003 03/03 Q1017 TEMPO 2000 BR SCT002 BKN005",
      "taf": ""
    },
    {
      "icao": "ENVA",
      "alert": "OK",
      "vis_m": 9999,
      "fzfg": false,
      "metar_trigger": false,
      "taf_trigger": false,
      "metar": "METAR ENVA 022120Z 06007KT 030V090 CAVOK 06/01 Q1005 RMK WIND 670FT 14014KT",
      "taf": "TAF ENVA 021700Z 0218/0318 14008KT 9999 SCT045"
    },
    {
      "icao": "ENZV",
      "alert": "OK",
      "vis_m": 9999,
      "fzfg": false,
      "metar_trigger": false,
      "taf_trigger": false,
      "metar": "METAR ENZV 022120Z 17018KT 9999 OVC009 07/05 Q1012",
      "taf": "TAF ENZV 021700Z 0218/0318 16020G30KT 9000 BKN010"
    },
    {
      "icao": "EPGD",
      "alert": "OK",
      "vis_m": 9999,
      "fzfg": false,
      "metar_trigger": false,
      "taf_trigger": false,
      "metar": "METAR EPGD 022130Z 26003KT 240V330 9999 FEW017 BKN019 06/02 Q1025",
      "taf": "TAF EPGD 021730Z 0218/0318 28005KT CAVOK"
    },
    {
      "icao": "EPKK",
      "alert": "OK",
      "vis_m": 9999,
      "fzfg": false,
      "metar_trigger": false,
      "taf_trigger": false,
      "metar": "METAR EPKK 022130Z VRB02KT CAVOK 01/M01 Q1027",
      "taf": "TAF EPKK 022030Z 0221/0321 VRB02KT CAVOK"
    },
    {
      "icao": "EPKT",
      "alert": "OK",
      "vis_m": 9999,
      "fzfg": false,
      "metar_trigger": false,
      "taf_trigger": false,
      "metar": "METAR EPKT 022130Z 06003KT CAVOK M01/M02 Q1027",
      "taf": "TAF EPKT 021730Z 0218/0318 VRB02KT CAVOK"
    },
    {
      "icao": "EPLB",
      "alert": "OK",
      "vis_m": 9999,
      "fzfg": false,
      "metar_trigger": false,
      "taf_trigger": false,
      "metar": "METAR EPLB 022130Z 27006KT CAVOK 04/00 Q1026",
      "taf": "TAF EPLB 021730Z 0218/0318 26006KT CAVOK"
    },
    {
      "icao": "EPMO",
      "alert": "OK",
      "vis_m": 9999,
      "fzfg": false,
      "metar_trigger": false,
      "taf_trigger": false,
      "metar": "METAR EPMO 022130Z 24007KT 9999 BKN049 06/01 Q1025",
      "taf": "TAF EPMO 021730Z 0218/0318 26004KT CAVOK"
    },
    {
      "icao": "EPPO",
      "alert": "OK",
      "vis_m": 9000,
      "fzfg": false,
      "metar_trigger": false,
      "taf_trigger": false,
      "metar": "METAR EPPO 022130Z 18002KT 9000 NSC 03/M00 Q1026",
      "taf": "TAF EPPO 021730Z 0218/0318 VRB02KT CAVOK"
    },
    {
      "icao": "EPRA",
      "alert": "OK",
      "vis_m": 9999,
      "fzfg": false,
      "metar_trigger": false,
      "taf_trigger": false,
      "metar": "METAR EPRA 022130Z 25007KT CAVOK 02/M01 Q1026",
      "taf": "TAF EPRA 022030Z 0221/0306 VRB03KT 8000 NSC"
    },
    {
      "icao": "EPRZ",
      "alert": "OK",
      "vis_m": 6000,
      "fzfg": false,
      "metar_trigger": false,
      "taf_trigger": false,
      "metar": "METAR EPRZ 022130Z 24003KT 6000 NSC 02/M00 Q1027",
      "taf": "TAF EPRZ 021730Z 0218/0318 27003KT CAVOK"
    },
    {
      "icao": "EPSC",
      "alert": "OK",
      "vis_m": 9999,
      "fzfg": false,
      "metar_trigger": false,
      "taf_trigger": false,
      "metar": "METAR EPSC 022130Z 12005KT CAVOK 02/01 Q1025",
      "taf": "TAF EPSC 021730Z 0218/0318 14004KT CAVOK"
    },
    {
      "icao": "EPSY",
      "alert": "OK",
      "vis_m": 9999,
      "fzfg": false,
      "metar_trigger": false,
      "taf_trigger": false,
      "metar": "METAR EPSY 022130Z 33005KT 9999 -RA FEW027 OVC031 06/03 Q1025",
      "taf": "TAF EPSY 022030Z 0221/0306 28004KT 9999 BKN040"
    },
    {
      "icao": "EPWA",
      "alert": "OK",
      "vis_m": 9999,
      "fzfg": false,
      "metar_trigger": false,
      "taf_trigger": false,
      "metar": "METAR EPWA 022130Z VRB01KT CAVOK 04/M01 Q1026 NOSIG",
      "taf": "TAF EPWA 022030Z 0221/0321 25005KT CAVOK"
    },
    {
      "icao": "EPWR",
      "alert": "OK",
      "vis_m": 9999,
      "fzfg": false,
      "metar_trigger": false,
      "taf_trigger": false,
      "metar": "METAR EPWR 022130Z 12003KT CAVOK 02/M00 Q1026",
      "taf": "TAF EPWR 022030Z 0221/0321 10002KT CAVOK"
    },
    {
      "icao": "ESGG",
      "alert": "OK",
      "vis_m": 6000,
      "fzfg": false,
      "metar_trigger": false,
      "taf_trigger": false,
      "metar": "METAR ESGG 022120Z 18010KT 6000 NSC 06/05 Q1021",
      "taf": "TAF ESGG 022030Z 0221/0321 18010KT 3000 BR BKN003"
    },
    {
      "icao": "ESKN",
      "alert": "OK",
      "vis_m": 9999,
      "fzfg": false,
      "metar_trigger": false,
      "taf_trigger": false,
      "metar": "METAR ESKN 022120Z 13005KT 9999 SCT005 BKN010 02/00 Q1022",
      "taf": ""
    },
    {
      "icao": "ESMS",
      "alert": "OK",
      "vis_m": 9999,
      "fzfg": false,
      "metar_trigger": false,
      "taf_trigger": false,
      "metar": "METAR ESMS 022120Z 16004KT CAVOK 03/02 Q1024",
      "taf": "TAF ESMS 022027Z 0221/0321 14005KT CAVOK"
    },
    {
      "icao": "ESSA",
      "alert": "OK",
      "vis_m": 9999,
      "fzfg": false,
      "metar_trigger": false,
      "taf_trigger": false,
      "metar": "METAR ESSA 022120Z 18005KT CAVOK 00/M02 Q1021 NOSIG",
      "taf": "TAF ESSA 022030Z 0221/0321 17003KT CAVOK"
    },
    {
      "icao": "EYKA",
      "alert": "OK",
      "vis_m": 9999,
      "fzfg": false,
      "metar_trigger": false,
      "taf_trigger": false,
      "metar": "METAR EYKA 022120Z 28006KT CAVOK M01/M02 Q1023",
      "taf": "TAF EYKA 021700Z 0218/0318 VRB04KT 5000 BR SCT005"
    },
    {
      "icao": "EYPA",
      "alert": "OK",
      "vis_m": 700,
      "fzfg": true,
      "metar_trigger": false,
      "taf_trigger": false,
      "metar": "METAR EYPA 022120Z 18001KT 0700 R19/1000D FZFG OVC001 M03/M03 Q1025",
      "taf": ""
    },
    {
      "icao": "EYVI",
      "alert": "OK",
      "vis_m": 9999,
      "fzfg": false,
      "metar_trigger": false,
      "taf_trigger": false,
      "metar": "METAR EYVI 022120Z 31007KT 9999 SCT037 00/M02 Q1022 NOSIG",
      "taf": "TAF EYVI 021711Z 0218/0318 VRB04KT 5000 BR SCT030"
    },
    {
      "icao": "GCFV",
      "alert": "OK",
      "vis_m": 6000,
      "fzfg": false,
      "metar_trigger": false,
      "taf_trigger": false,
      "metar": "METAR GCFV 022130Z 34021KT 6000 RA SCT012 BKN030 15/13 Q1016 RERA",
      "taf": "TAF GCFV 022000Z 0221/0321 36018KT 9999 BKN025 TX19/0314Z TN13/0306Z"
    },
    {
      "icao": "GCLP",
      "alert": "OK",
      "vis_m": 3000,
      "fzfg": false,
      "metar_trigger": false,
      "taf_trigger": false,
      "metar": "SPECI GCLP 022139Z 01017KT 3000 RA SCT008 BKN020 15/14 Q1018 TEMPO RA",
      "taf": "TAF GCLP 022000Z 0221/0321 35022KT 9999 BKN020 TX20/0314Z TN14/0306Z"
    },
    {
      "icao": "GCTS",
      "alert": "OK",
      "vis_m": 9999,
      "fzfg": false,
      "metar_trigger": false,
      "taf_trigger": false,
      "metar": "METAR GCTS 022130Z 11008KT 9999 SCT018 16/13 Q1017 NOSIG",
      "taf": "TAF GCTS 022000Z 0221/0321 VRB06KT 9999 SCT030 TX20/0314Z TN12/0306Z"
    },
    {
      "icao": "GMAD",
      "alert": "OK",
      "vis_m": 6000,
      "fzfg": false,
      "metar_trigger": false,
      "taf_trigger": false,
      "metar": "METAR GMAD 022130Z 26005KT 6000 SCT013 BKN100 14/12 Q1012 NOSIG",
      "taf": "TAF GMAD 021700Z 0218/0324 24010KT 8000 SCT016 BKN080"
    },
    {
      "icao": "GMMN",
      "alert": "OK",
      "vis_m": 9999,
      "fzfg": false,
      "metar_trigger": false,
      "taf_trigger": false,
      "metar": "METAR GMMN 022130Z 21005KT 9999 BKN020 13/11 Q1010 NOSIG",
      "taf": "TAF GMMN 021700Z 0218/0324 28008KT 9999 BKN016"
    },
    {
      "icao": "GMMX",
      "alert": "OK",
      "vis_m": 8000,
      "fzfg": false,
      "metar_trigger": false,
      "taf_trigger": false,
      "metar": "METAR GMMX 022130Z 29006KT 250V330 8000 BKN020 13/10 Q1010 RERA NOSIG",
      "taf": "TAF GMMX 021700Z 0218/0324 06006KT 8000 SCT030 SCT200"
    },
    {
      "icao": "HEGN",
      "alert": "OK",
      "vis_m": 9999,
      "fzfg": false,
      "metar_trigger": false,
      "taf_trigger": false,
      "metar": "METAR HEGN 022100Z 30018KT CAVOK 16/06 Q1017 NOSIG",
      "taf": "TAF HEGN 021700Z 0218/0324 32008G18KT CAVOK"
    },
    {
      "icao": "HEMA",
      "alert": "OK",
      "vis_m": 9999,
      "fzfg": false,
      "metar_trigger": false,
      "taf_trigger": false,
      "metar": "METAR HEMA 022100Z 25008KT CAVOK 16/05 Q1016 NOSIG",
      "taf": "TAF HEMA 021700Z 0218/0324 33008G18KT CAVOK"
    },
    {
      "icao": "HESH",
      "alert": "OK",
      "vis_m": 9999,
      "fzfg": false,
      "metar_trigger": false,
      "taf_trigger": false,
      "metar": "METAR HESH 022100Z 35017KT CAVOK 19/01 Q1016 NOSIG",
      "taf": "TAF HESH 021700Z 0218/0324 36012KT CAVOK"
    },
    {
      "icao": "HESX",
      "alert": "OK",
      "vis_m": 9999,
      "fzfg": false,
      "metar_trigger": false,
      "taf_trigger": false,
      "metar": "METAR HESX 022100Z 36005KT CAVOK 11/06 Q1023 NOSIG",
      "taf": "TAF HESX 021700Z 0218/0324 02010KT 9999 SCT025"
    },
    {
      "icao": "LATI",
      "alert": "OK",
      "vis_m": 8000,
      "fzfg": false,
      "metar_trigger": false,
      "taf_trigger": false,
      "metar": "METAR LATI 022120Z VRB01KT 8000 SCT170 09/07 Q1027 NOSIG",
      "taf": "TAF LATI 021700Z 0218/0318 VRB03KT CAVOK TX19/0312Z TN06/0304Z"
    },
    {
      "icao": "LBPD",
      "alert": "OK",
      "vis_m": 9999,
      "fzfg": false,
      "metar_trigger": false,
      "taf_trigger": false,
      "metar": "METAR LBPD 022130Z AUTO 24004KT 9999 BKN200/// 06/02 Q1024",
      "taf": "TAF LBPD 021700Z 0218/0318 VRB03KT CAVOK"
    },
    {
      "icao": "LBSF",
      "alert": "OK",
      "vis_m": 9999,
      "fzfg": false,
      "metar_trigger": false,
      "taf_trigger": false,
      "metar": "METAR LBSF 022130Z AUTO 00000KT 9999 NSC 06/M01 Q1024 NOSIG",
      "taf": "TAF LBSF 021700Z 0218/0318 VRB04KT CAVOK"
    },
    {
      "icao": "LBWN",
      "alert": "OK",
      "vis_m": 9999,
      "fzfg": false,
      "metar_trigger": false,
      "taf_trigger": false,
      "metar": "METAR LBWN 022130Z AUTO 00000KT 9999 NSC 03/03 Q1024 NOSIG",
      "taf": "TAF LBWN 021700Z 0218/0318 VRB04KT 9999 SCT045"
    },
    {
      "icao": "LCLK",
      "alert": "OK",
      "vis_m": 9999,
      "fzfg": false,
      "metar_trigger": false,
      "taf_trigger": false,
      "metar": "METAR LCLK 022130Z 30007KT 9999 FEW060 08/04 Q1023 NOSIG",
      "taf": "TAF LCLK 021730Z 0218/0318 32006KT 9999 FEW040"
    },
    {
      "icao": "LCPH",
      "alert": "OK",
      "vis_m": 9999,
      "fzfg": false,
      "metar_trigger": false,
      "taf_trigger": false,
      "metar": "METAR LCPH 022130Z 05003KT 010V080 CAVOK 09/02 Q1023 NOSIG",
      "taf": "TAF LCPH 021730Z 0218/0318 02008KT 9999 FEW040"
    },
    {
      "icao": "LEAL",
      "alert": "OK",
      "vis_m": 9999,
      "fzfg": false,
      "metar_trigger": false,
      "taf_trigger": false,
      "metar": "METAR LEAL 022130Z 06012KT 030V090 9999 OVC070 15/13 Q1016 NOSIG",
      "taf": "TAF LEAL 021700Z 0218/0318 05014KT 9999 SCT020 TX21/0312Z TN13/0307Z"
    },
    {
      "icao": "LEBB",
      "alert": "OK",
      "vis_m": 9999,
      "fzfg": false,
      "metar_trigger": false,
      "taf_trigger": false,
      "metar": "METAR LEBB 022130Z VRB03KT CAVOK 16/07 Q1015 NOSIG",
      "taf": "TAF LEBB 021700Z 0218/0318 14009KT CAVOK TX20/0315Z TN08/0306Z"
    },
    {
      "icao": "LEBL",
      "alert": "OK",
      "vis_m": 9999,
      "fzfg": false,
      "metar_trigger": false,
      "taf_trigger": false,
      "metar": "METAR LEBL 022130Z 08006KT 9999 FEW009 SCT016 13/11 Q1021 NOSIG",
      "taf": "TAF LEBL 021700Z 0218/0318 11008KT 9999 FEW040 TX17/0312Z TN12/0306Z"
    },
    {
      "icao": "LECH",
      "alert": "OK",
      "vis_m": 8000,
      "fzfg": false,
      "metar_trigger": false,
      "taf_trigger": false,
      "metar": "METAR LECH 022130Z AUTO 04005KT 8000 SCT022 OVC027 10/10 Q1020",
      "taf": ""
    },
    {
      "icao": "LEMD",
      "alert": "OK",
      "vis_m": 9999,
      "fzfg": false,
      "metar_trigger": false,
      "taf_trigger": false,
      "metar": "METAR LEMD 022130Z VRB02KT 9999 -DZ BKN070 12/05 Q1016 NOSIG",
      "taf": ""
    },
    {
      "icao": "LEMG",
      "alert": "OK",
      "vis_m": 9000,
      "fzfg": false,
      "metar_trigger": false,
      "taf_trigger": false,
      "metar": "METAR LEMG 022130Z VRB01KT 9000 FEW018 12/10 Q1012 NOSIG",
      "taf": "TAF LEMG 021700Z 0218/0318 18007KT 9999 SCT020 TX19/0314Z TN13/0307Z"
    },
    {
      "icao": "LEVC",
      "alert": "OK",
      "vis_m": 9999,
      "fzfg": false,
      "metar_trigger": false,
      "taf_trigger": false,
      "metar": "METAR LEVC 022130Z 07005KT 040V140 9999 BKN015 13/11 Q1019 NOSIG",
      "taf": ""
    },
    {
      "icao": "LEXJ",
      "alert": "OK",
      "vis_m": 9999,
      "fzfg": false,
      "metar_trigger": false,
      "taf_trigger": false,
      "metar": "METAR LEXJ 022130Z 15003KT CAVOK 10/06 Q1013",
      "taf": ""
    },
    {
      "icao": "LEZG",
      "alert": "OK",
      "vis_m": 9999,
      "fzfg": false,
      "metar_trigger": false,
      "taf_trigger": false,
      "metar": "METAR LEZG 022130Z 11009KT 070V140 9999 FEW020 SCT085 12/08 Q1019 NOSIG",
      "taf": "TAF LEZG 021700Z 0218/0318 10014KT 9999 SCT015 TX18/0315Z TN08/0306Z"
    },
    {
      "icao": "LEZL",
      "alert": "OK",
      "vis_m": 9999,
      "fzfg": false,
      "metar_trigger": false,
      "taf_trigger": false,
      "metar": "METAR LEZL 022130Z VRB02KT CAVOK 15/10 Q1010 NOSIG",
      "taf": "TAF LEZL 022000Z 0221/0321 VRB03KT CAVOK TX23/0315Z TN10/0307Z"
    },
    {
      "icao": "LFBD",
      "alert": "OK",
      "vis_m": 9999,
      "fzfg": false,
      "metar_trigger": false,
      "taf_trigger": false,
      "metar": "METAR LFBD 022130Z AUTO 13011KT CAVOK 13/07 Q1017 NOSIG",
      "taf": "TAF LFBD 021700Z 0218/0324 12010KT CAVOK TX18/0314Z TN06/0305Z"
    },
    {
      "icao": "LFLL",
      "alert": "OK",
      "vis_m": 9999,
      "fzfg": false,
      "metar_trigger": false,
      "taf_trigger": false,
      "metar": "METAR LFLL 022130Z 13007KT CAVOK 11/06 Q1022 NOSIG",
      "taf": "TAF LFLL 021700Z 0218/0324 18009KT CAVOK"
    },
    {
      "icao": "LFLS",
      "alert": "OK",
      "vis_m": 9999,
      "fzfg": false,
      "metar_trigger": false,
      "taf_trigger": false,
      "metar": "METAR LFLS 022130Z AUTO 05004KT 010V120 CAVOK 08/07 Q1023",
      "taf": "TAF LFLS 021400Z 0215/0315 23008KT CAVOK"
    },
    {
      "icao": "LFMN",
      "alert": "OK",
      "vis_m": 9999,
      "fzfg": false,
      "metar_trigger": false,
      "taf_trigger": false,
      "metar": "METAR LFMN 022130Z 32007KT CAVOK 11/08 Q1025 NOSIG",
      "taf": "TAF LFMN 022000Z 0221/0403 06010KT CAVOK"
    },
    {
      "icao": "LFOB",
      "alert": "OK",
      "vis_m": 9999,
      "fzfg": false,
      "metar_trigger": false,
      "taf_trigger": false,
      "metar": "METAR LFOB 022130Z AUTO 09003KT CAVOK 07/04 Q1020 NOSIG",
      "taf": "TAF LFOB 021700Z 0218/0318 15010KT CAVOK"
    },
    {
      "icao": "LFPO",
      "alert": "OK",
      "vis_m": 9999,
      "fzfg": false,
      "metar_trigger": false,
      "taf_trigger": false,
      "metar": "METAR LFPO 022130Z 15001KT CAVOK 10/05 Q1020 NOSIG",
      "taf": "TAF LFPO 021700Z 0218/0324 14003KT CAVOK"
    },
    {
      "icao": "LFSB",
      "alert": "OK",
      "vis_m": 9999,
      "fzfg": false,
      "metar_trigger": false,
      "taf_trigger": false,
      "metar": "METAR LFSB 022130Z AUTO 24002KT CAVOK 05/04 Q1023 NOSIG",
      "taf": "TAF LFSB 021700Z 0218/0318 19003KT CAVOK"
    },
    {
      "icao": "LGAV",
      "alert": "OK",
      "vis_m": 9999,
      "fzfg": false,
      "metar_trigger": false,
      "taf_trigger": false,
      "metar": "METAR LGAV 022120Z 00000KT CAVOK 04/03 Q1025 NOSIG",
      "taf": "TAF LGAV 021700Z 0218/0318 VRB05KT 9999 FEW025"
    },
    {
      "icao": "LGTS",
      "alert": "OK",
      "vis_m": 9999,
      "fzfg": false,
      "metar_trigger": false,
      "taf_trigger": false,
      "metar": "METAR LGTS 022120Z 11006KT CAVOK 06/05 Q1025 NOSIG",
      "taf": "TAF LGTS 021700Z 0218/0318 VRB03KT 9999 FEW025"
    },
    {
      "icao": "LHBP",
      "alert": "OK",
      "vis_m": 9999,
      "fzfg": false,
      "metar_trigger": false,
      "taf_trigger": false,
      "metar": "METAR LHBP 022130Z VRB01KT CAVOK 04/00 Q1026 NOSIG",
      "taf": "TAF LHBP 021715Z 0218/0318 VRB03KT CAVOK"
    },
    {
      "icao": "LHDC",
      "alert": "OK",
      "vis_m": 9000,
      "fzfg": false,
      "metar_trigger": false,
      "taf_trigger": false,
      "metar": "METAR LHDC 022115Z AUTO 01002KT 9000 NCD 04/01 Q1027",
      "taf": "TAF LHDC 021415Z 0215/0224 VRB01KT CAVOK"
    },
    {
      "icao": "LIBD",
      "alert": "OK",
      "vis_m": 6000,
      "fzfg": false,
      "metar_trigger": false,
      "taf_trigger": false,
      "metar": "METAR LIBD 022120Z 21005KT 6000 NSC 08/08 Q1026",
      "taf": "TAF LIBD 021700Z 0218/0318 VRB05KT 7000 SCT035"
    },
    {
      "icao": "LIBG",
      "alert": "OK",
      "vis_m": null,
      "fzfg": false,
      "metar_trigger": false,
      "taf_trigger": false,
      "metar": "",
      "taf": "TAF LIBG 021700Z 0218/0303 VRB06KT 9999 FEW015"
    },
    {
      "icao": "LIBP",
      "alert": "OK",
      "vis_m": 5000,
      "fzfg": false,
      "metar_trigger": false,
      "taf_trigger": false,
      "metar": "METAR LIBP 022120Z 20002KT 5000 BR NSC 11/11 Q1026",
      "taf": "TAF LIBP 021700Z 0218/0318 VRB05KT 6000 FEW040"
    },
    {
      "icao": "LIBR",
      "alert": "OK",
      "vis_m": 9999,
      "fzfg": false,
      "metar_trigger": false,
      "taf_trigger": false,
      "metar": "METAR LIBR 022120Z VRB01KT CAVOK 11/10 Q1026",
      "taf": "TAF LIBR 021700Z 0218/0318 14006KT 8000 SCT040"
    },
    {
      "icao": "LICA",
      "alert": "OK",
      "vis_m": 9999,
      "fzfg": false,
      "metar_trigger": false,
      "taf_trigger": false,
      "metar": "METAR LICA 022120Z 08005KT CAVOK 08/07 Q1026",
      "taf": "TAF LICA 021700Z 0218/0318 VRB05KT 8000 SCT040"
    },
    {
      "icao": "LICC",
      "alert": "OK",
      "vis_m": 9999,
      "fzfg": false,
      "metar_trigger": false,
      "taf_trigger": false,
      "metar": "METAR LICC 022120Z 26005KT 9999 FEW025 11/09 Q1026",
      "taf": "TAF LICC 021700Z 0218/0318 VRB05KT 9999 SCT040"
    },
    {
      "icao": "LICJ",
      "alert": "OK",
      "vis_m": 9999,
      "fzfg": false,
      "metar_trigger": false,
      "taf_trigger": false,
      "metar": "METAR LICJ 022120Z 17002KT CAVOK 13/11 Q1025",
      "taf": "TAF LICJ 021700Z 0218/0318 07010KT 9999 FEW020"
    },
    {
      "icao": "LIMC",
      "alert": "OK",
      "vis_m": 9999,
      "fzfg": false,
      "metar_trigger": false,
      "taf_trigger": false,
      "metar": "METAR LIMC 022120Z 35004KT 9999 FEW015 BKN050 09/08 Q1026 NOSIG",
      "taf": "TAF LIMC 021700Z 0218/0324 VRB05KT 7000 SCT010 BKN030"
    },
    {
      "icao": "LIME",
      "alert": "OK",
      "vis_m": 7000,
      "fzfg": false,
      "metar_trigger": false,
      "taf_trigger": false,
      "metar": "METAR LIME 022120Z 36002KT 7000 SCT014 SCT080 10/07 Q1026 NOSIG",
      "taf": "TAF LIME 021700Z 0218/0318 VRB05KT 8000 BKN030"
    },
    {
      "icao": "LIMF",
      "alert": "OK",
      "vis_m": 4000,
      "fzfg": false,
      "metar_trigger": false,
      "taf_trigger": false,
      "metar": "METAR LIMF 022120Z 01004KT 4000 BR BKN010 BKN035 10/08 Q1026",
      "taf": "TAF LIMF 021700Z 0218/0318 VRB04KT 6000 BKN030"
    },
    {
      "icao": "LIMJ",
      "alert": "OK",
      "vis_m": 9999,
      "fzfg": false,
      "metar_trigger": false,
      "taf_trigger": false,
      "metar": "METAR LIMJ 022120Z VRB01KT CAVOK 12/08 Q1025",
      "taf": "TAF LIMJ 021700Z 0218/0318 VRB04KT 9999 SCT040"
    },
    {
      "icao": "LIPE",
      "alert": "OK",
      "vis_m": 4000,
      "fzfg": false,
      "metar_trigger": false,
      "taf_trigger": false,
      "metar": "METAR LIPE 022120Z VRB02KT 4000 BR FEW045 SCT070 10/10 Q1026",
      "taf": "TAF LIPE 021700Z 0218/0318 VRB04KT 7000 BKN040"
    },
    {
      "icao": "LIPH",
      "alert": "OK",
      "vis_m": 7000,
      "fzfg": false,
      "metar_trigger": false,
      "taf_trigger": false,
      "metar": "METAR LIPH 022120Z VRB01KT 7000 BKN080 10/09 Q1027",
      "taf": "TAF LIPH 021700Z 0218/0318 VRB04KT 6000 BKN040"
    },
    {
      "icao": "LIPQ",
      "alert": "OK",
      "vis_m": 9999,
      "fzfg": false,
      "metar_trigger": false,
      "taf_trigger": false,
      "metar": "METAR LIPQ 022120Z VRB01KT 9999 FEW030 07/07 Q1027",
      "taf": "TAF LIPQ 021700Z 0218/0318 VRB05KT 7000 BKN040"
    },
    {
      "icao": "LIPR",
      "alert": "OK",
      "vis_m": 200,
      "fzfg": false,
      "metar_trigger": false,
      "taf_trigger": false,
      "metar": "METAR LIPR 022120Z 29003KT 0200 R30/0650D FG VV001 09/09 Q1026",
      "taf": "TAF LIPR 021700Z 0218/0318 VRB05KT 0400 FG OVC001"
    },
    {
      "icao": "LIPX",
      "alert": "OK",
      "vis_m": 8000,
      "fzfg": false,
      "metar_trigger": false,
      "taf_trigger": false,
      "metar": "METAR LIPX 022120Z 12005KT 8000 BKN020 12/09 Q1027",
      "taf": "TAF LIPX 021700Z 0218/0318 VRB05KT 6000 BKN030"
    },
    {
      "icao": "LIPY",
      "alert": "OK",
      "vis_m": 5000,
      "fzfg": false,
      "metar_trigger": false,
      "taf_trigger": false,
      "metar": "METAR LIPY 022120Z 22004KT 180V260 5000 RA NSC 11/10 Q1026",
      "taf": "TAF LIPY 021700Z 0218/0318 VRB05KT 5000 BR NSC"
    },
    {
      "icao": "LIPZ",
      "alert": "OK",
      "vis_m": 9999,
      "fzfg": false,
      "metar_trigger": false,
      "taf_trigger": false,
      "metar": "METAR LIPZ 022120Z 02003KT CAVOK 10/09 Q1027 NOSIG",
      "taf": ""
    },
    {
      "icao": "LIRF",
      "alert": "OK",
      "vis_m": 9999,
      "fzfg": false,
      "metar_trigger": false,
      "taf_trigger": false,
      "metar": "METAR LIRF 022120Z 11004KT 080V150 9999 FEW050 13/11 Q1026 NOSIG",
      "taf": "TAF LIRF 021700Z 0218/0324 14010KT 9999 SCT030"
    },
    {
      "icao": "LIRN",
      "alert": "OK",
      "vis_m": 8000,
      "fzfg": false,
      "metar_trigger": false,
      "taf_trigger": false,
      "metar": "METAR LIRN 022120Z 30003KT 270V350 8000 NSC 12/09 Q1026 NOSIG",
      "taf": "TAF LIRN 021700Z 0218/0318 VRB04KT 8000 SCT030"
    },
    {
      "icao": "LIRP",
      "alert": "OK",
      "vis_m": 9999,
      "fzfg": false,
      "metar_trigger": false,
      "taf_trigger": false,
      "metar": "METAR LIRP 022115Z 06004KT 9999 BKN070 11/09 Q1025 NOSIG",
      "taf": "TAF LIRP 021700Z 0218/0318 08005KT 9999 FEW025 BKN070"
    },
    {
      "icao": "LIRZ",
      "alert": "OK",
      "vis_m": 9999,
      "fzfg": false,
      "metar_trigger": false,
      "taf_trigger": false,
      "metar": "METAR LIRZ 022120Z 03003KT CAVOK 10/09 Q1026",
      "taf": "TAF LIRZ 021700Z 0218/0318 VRB05KT 7000 BKN040"
    },
    {
      "icao": "LJLJ",
      "alert": "OK",
      "vis_m": 9999,
      "fzfg": false,
      "metar_trigger": false,
      "taf_trigger": false,
      "metar": "METAR LJLJ 022130Z VRB02KT 9999 FEW060 BKN088 07/06 Q1026 NOSIG",
      "taf": "TAF LJLJ 021700Z 0218/0318 VRB02KT 9999 FEW033 BKN050"
    },
    {
      "icao": "LKMT",
      "alert": "OK",
      "vis_m": 9999,
      "fzfg": false,
      "metar_trigger": false,
      "taf_trigger": false,
      "metar": "METAR LKMT 022130Z 22002KT CAVOK 02/00 Q1027 NOSIG",
      "taf": "TAF LKMT 021700Z 0218/0318 04006KT CAVOK"
    },
    {
      "icao": "LKPR",
      "alert": "OK",
      "vis_m": 350,
      "fzfg": true,
      "metar_trigger": false,
      "taf_trigger": false,
      "metar": "METAR LKPR 022130Z VRB02KT 0350 R24/0400N R30/0400N FZFG VV001 M01/M01 Q1026 NOSIG",
      "taf": "TAF LKPR 022000Z 0221/0403 VRB02KT 0300 FG VV001"
    },
    {
      "icao": "LLBG",
      "alert": "OK",
      "vis_m": 9999,
      "fzfg": false,
      "metar_trigger": false,
      "taf_trigger": false,
      "metar": "METAR LLBG 022120Z VRB02KT CAVOK 10/05 Q1021 NOSIG",
      "taf": "TAF LLBG 021705Z 0218/0318 02005KT CAVOK TX21/0311Z TN07/0304Z"
    },
    {
      "icao": "LMML",
      "alert": "OK",
      "vis_m": 9999,
      "fzfg": false,
      "metar_trigger": false,
      "taf_trigger": false,
      "metar": "METAR LMML 022115Z 13009KT 9999 FEW013 14/12 Q1026 NOSIG",
      "taf": "TAF LMML 021700Z 0218/0318 15010KT 9999 FEW017"
    },
    {
      "icao": "LOWW",
      "alert": "OK",
      "vis_m": 9999,
      "fzfg": false,
      "metar_trigger": false,
      "taf_trigger": false,
      "metar": "METAR LOWW 022120Z 15003KT CAVOK 05/03 Q1026 NOSIG",
      "taf": "TAF LOWW 022015Z 0221/0403 VRB04KT CAVOK TX14/0314Z TN02/0305Z"
    },
    {
      "icao": "LPFR",
      "alert": "OK",
      "vis_m": 9000,
      "fzfg": false,
      "metar_trigger": false,
      "taf_trigger": false,
      "metar": "METAR LPFR 022130Z 14005KT 9000 FEW008 SCT018 BKN040 15/14 Q1008",
      "taf": "TAF LPFR 021700Z 0218/0318 13013KT 9999 SCT015"
    },
    {
      "icao": "LPMA",
      "alert": "OK",
      "vis_m": 9999,
      "fzfg": false,
      "metar_trigger": false,
      "taf_trigger": false,
      "metar": "METAR LPMA 022130Z 35019G29KT 310V020 9999 SCT015 14/04 Q1019",
      "taf": "TAF LPMA 021700Z 0218/0318 VRB10G23KT 9999 SCT015"
    },
    {
      "icao": "LPPR",
      "alert": "OK",
      "vis_m": 9999,
      "fzfg": false,
      "metar_trigger": false,
      "taf_trigger": false,
      "metar": "METAR LPPR 022130Z 35006KT 9999 FEW018 FEW025CB BKN048 12/10 Q1010",
      "taf": "TAF LPPR 021700Z 0218/0318 VRB05KT 9999 SCT020"
    },
    {
      "icao": "LPPS",
      "alert": "OK",
      "vis_m": 9999,
      "fzfg": false,
      "metar_trigger": false,
      "taf_trigger": false,
      "metar": "METAR LPPS 022130Z 35022G32KT 9999 FEW015 FEW018CB 13/06 Q1019",
      "taf": "TAF LPPS 021700Z 0218/0324 34020KT 9999 SCT015 SCT030"
    },
    {
      "icao": "LPPT",
      "alert": "OK",
      "vis_m": 9999,
      "fzfg": false,
      "metar_trigger": false,
      "taf_trigger": false,
      "metar": "METAR LPPT 022130Z 02004KT 360V070 9999 FEW020CB FEW022 SCT030 12/11 Q1009",
      "taf": "TAF LPPT 021700Z 0218/0324 30008KT 9999 BKN025"
    },
    {
      "icao": "LQBK",
      "alert": "OK",
      "vis_m": 9999,
      "fzfg": false,
      "metar_trigger": false,
      "taf_trigger": false,
      "metar": "METAR LQBK 022130Z 00000KT CAVOK 08/05 Q1026 NOSIG",
      "taf": "TAF LQBK 021700Z 0218/0318 15005KT CAVOK TX16/0314Z TN04/0305Z"
    },
    {
      "icao": "LQSA",
      "alert": "OK",
      "vis_m": 9999,
      "fzfg": false,
      "metar_trigger": false,
      "taf_trigger": false,
      "metar": "METAR LQSA 022130Z 10002KT 9999 BKN060 05/04 Q1026 NOSIG",
      "taf": "TAF LQSA 021700Z 0218/0318 VRB02KT 9999 SCT055 TX15/0314Z TN03/0305Z"
    },
    {
      "icao": "LQTZ",
      "alert": "OK",
      "vis_m": 6000,
      "fzfg": false,
      "metar_trigger": false,
      "taf_trigger": false,
      "metar": "METAR LQTZ 022130Z VRB01KT 6000 BKN070 08/05 Q1026",
      "taf": ""
    },
    {
      "icao": "LRBC",
      "alert": "OK",
      "vis_m": 8000,
      "fzfg": false,
      "metar_trigger": false,
      "taf_trigger": false,
      "metar": "METAR LRBC 022130Z 01003KT 8000 BKN036 M02/M05 Q1027",
      "taf": "TAF LRBC 022000Z 0221/0306 34006KT 5000 BR BKN035"
    },
    {
      "icao": "LRBS",
      "alert": "OK",
      "vis_m": 450,
      "fzfg": true,
      "metar_trigger": false,
      "taf_trigger": false,
      "metar": "METAR LRBS 022130Z 29002KT 0450 R07/0650N FZFG BKN001 M01/M01 Q1026 NOSIG",
      "taf": "TAF LRBS 021700Z 0218/0318 VRB04KT 5000 BR NSC"
    },
    {
      "icao": "LRBV",
      "alert": "OK",
      "vis_m": 9999,
      "fzfg": false,
      "metar_trigger": false,
      "taf_trigger": false,
      "metar": "METAR LRBV 022130Z AUTO 22006KT 9999 OVC100/// 03/M01 Q1025",
      "taf": "TAF LRBV 022000Z 0221/0306 22009KT CAVOK"
    },
    {
      "icao": "LRCL",
      "alert": "OK",
      "vis_m": 9999,
      "fzfg": false,
      "metar_trigger": false,
      "taf_trigger": false,
      "metar": "METAR LRCL 022130Z VRB01KT CAVOK 03/M00 Q1026",
      "taf": "TAF LRCL 022000Z 0221/0306 VRB04KT CAVOK"
    },
    {
      "icao": "LRCV",
      "alert": "OK",
      "vis_m": 2900,
      "fzfg": false,
      "metar_trigger": false,
      "taf_trigger": false,
      "metar": "METAR LRCV 022130Z 07006KT 2900 BR NSC 00/00 Q1026",
      "taf": "TAF LRCV 022000Z 0221/0306 VRB04KT 3000 BR NSC"
    },
    {
      "icao": "LRIA",
      "alert": "OK",
      "vis_m": 9999,
      "fzfg": false,
      "metar_trigger": false,
      "taf_trigger": false,
      "metar": "METAR LRIA 022130Z 30007KT 9999 OVC035 04/02 Q1027",
      "taf": "TAF LRIA 022000Z 0221/0306 30007KT 9999 BKN035"
    },
    {
      "icao": "LROP",
      "alert": "OK",
      "vis_m": 3000,
      "fzfg": false,
      "metar_trigger": false,
      "taf_trigger": false,
      "metar": "METAR LROP 022130Z 27003KT 220V340 3000 BR SCT001 M01/M01 Q1026 NOSIG",
      "taf": "TAF LROP 021700Z 0218/0318 VRB04KT 5000 BR NSC"
    },
    {
      "icao": "LRSB",
      "alert": "OK",
      "vis_m": 9999,
      "fzfg": false,
      "metar_trigger": false,
      "taf_trigger": false,
      "metar": "METAR LRSB 022130Z VRB02KT CAVOK 02/M01 Q1025",
      "taf": "TAF LRSB 021700Z 0218/0318 VRB04KT CAVOK"
    },
    {
      "icao": "LRSM",
      "alert": "OK",
      "vis_m": 8000,
      "fzfg": false,
      "metar_trigger": false,
      "taf_trigger": false,
      "metar": "METAR LRSM 022130Z AUTO 20005KT 8000 NCD 01/M00 Q1026",
      "taf": "TAF LRSM 021400Z 0215/0224 VRB04KT CAVOK"
    },
    {
      "icao": "LRSV",
      "alert": "OK",
      "vis_m": 9999,
      "fzfg": false,
      "metar_trigger": false,
      "taf_trigger": false,
      "metar": "METAR LRSV 022130Z 31005KT 9999 BKN022 03/02 Q1026",
      "taf": "TAF LRSV 022000Z 0221/0306 30006KT 9999 BKN025"
    },
    {
      "icao": "LRTM",
      "alert": "OK",
      "vis_m": 8000,
      "fzfg": false,
      "metar_trigger": false,
      "taf_trigger": false,
      "metar": "METAR LRTM 022130Z AUTO 00000KT 8000 NCD 01/M00 Q1026",
      "taf": "TAF LRTM 021400Z 0215/0224 VRB04KT CAVOK"
    },
    {
      "icao": "LRTR",
      "alert": "OK",
      "vis_m": 9999,
      "fzfg": false,
      "metar_trigger": false,
      "taf_trigger": false,
      "metar": "METAR LRTR 022130Z 35003KT CAVOK 05/04 Q1026",
      "taf": "TAF LRTR 021700Z 0218/0318 VRB04KT CAVOK"
    },
    {
      "icao": "LTAC",
      "alert": "OK",
      "vis_m": 9999,
      "fzfg": false,
      "metar_trigger": false,
      "taf_trigger": false,
      "metar": "METAR LTAC 022120Z 36003KT CAVOK 01/M03 Q1025 NOSIG RMK RWY21C VRB02KT RWY03L 34002KT RWY21R 00000KT RWY03R 34001KT RWY21L VRB01KT",
      "taf": "TAF LTAC 021640Z 0218/0318 VRB02KT CAVOK"
    },
    {
      "icao": "LTFM",
      "alert": "OK",
      "vis_m": 9999,
      "fzfg": false,
      "metar_trigger": false,
      "taf_trigger": false,
      "metar": "METAR LTFM 022120Z 18007KT CAVOK 05/03 Q1024 NOSIG RMK RWY17L 19008KT RWY34L 18005KT RWY16R 17008KT RWY36 19006KT RWY18 18007KT",
      "taf": "TAF LTFM 021640Z 0218/0324 VRB02KT CAVOK"
    },
    {
      "icao": "LUKK",
      "alert": "OK",
      "vis_m": 9999,
      "fzfg": false,
      "metar_trigger": false,
      "taf_trigger": false,
      "metar": "METAR LUKK 022130Z 34007KT 300V360 CAVOK 04/02 Q1026 NOSIG",
      "taf": "TAF LUKK 021705Z 0218/0318 34008KT 9999 SCT030"
    },
    {
      "icao": "LWOH",
      "alert": "OK",
      "vis_m": null,
      "fzfg": false,
      "metar_trigger": false,
      "taf_trigger": false,
      "metar": "",
      "taf": "TAF LWOH 022030Z 0221/0321 VRB02KT 9999 FEW040"
    },
    {
      "icao": "LWSK",
      "alert": "OK",
      "vis_m": 9999,
      "fzfg": false,
      "metar_trigger": false,
      "taf_trigger": false,
      "metar": "METAR LWSK 022120Z VRB02KT CAVOK 06/03 Q1025 NOSIG",
      "taf": "TAF LWSK 022030Z 0221/0321 VRB02KT CAVOK"
    },
    {
      "icao": "LYBE",
      "alert": "OK",
      "vis_m": 8000,
      "fzfg": false,
      "metar_trigger": false,
      "taf_trigger": false,
      "metar": "METAR LYBE 022130Z VRB01KT 8000 NSC 06/03 Q1026 NOSIG",
      "taf": "TAF LYBE 021700Z 0218/0318 22004KT 7000 NSC TX16/0313Z TN03/0305Z"
    },
    {
      "icao": "LYNI",
      "alert": "OK",
      "vis_m": 9999,
      "fzfg": false,
      "metar_trigger": false,
      "taf_trigger": false,
      "metar": "METAR LYNI 022130Z 33004KT CAVOK 10/04 Q1025 NOSIG",
      "taf": "TAF LYNI 021700Z 0218/0318 36003KT CAVOK TX16/0313Z TN04/0305Z"
    },
    {
      "icao": "LYPG",
      "alert": "OK",
      "vis_m": 9999,
      "fzfg": false,
      "metar_trigger": false,
      "taf_trigger": false,
      "metar": "METAR LYPG 022130Z 33004KT CAVOK 09/07 Q1027 NOSIG",
      "taf": "TAF LYPG 021700Z 0218/0318 35005KT 9999 FEW034 TX19/0314Z TN06/0305Z"
    },
    {
      "icao": "LZIB",
      "alert": "OK",
      "vis_m": 9999,
      "fzfg": false,
      "metar_trigger": false,
      "taf_trigger": false,
      "metar": "METAR LZIB 022130Z VRB01KT CAVOK 03/01 Q1026 NOSIG",
      "taf": "TAF LZIB 021715Z 0218/0318 VRB02KT CAVOK"
    },
    {
      "icao": "LZKZ",
      "alert": "OK",
      "vis_m": 9999,
      "fzfg": false,
      "metar_trigger": false,
      "taf_trigger": false,
      "metar": "METAR LZKZ 022130Z 02007KT CAVOK 05/01 Q1027 NOSIG",
      "taf": "TAF LZKZ 021715Z 0218/0318 01006KT CAVOK"
    },
    {
      "icao": "LZTT",
      "alert": "OK",
      "vis_m": 9999,
      "fzfg": false,
      "metar_trigger": false,
      "taf_trigger": false,
      "metar": "METAR LZTT 022130Z 29004KT 9999 BKN030 01/M01 Q1026",
      "taf": "TAF LZTT 021715Z 0218/0318 VRB02KT 9999 SCT020"
    },
    {
      "icao": "OEJN",
      "alert": "OK",
      "vis_m": 9999,
      "fzfg": false,
      "metar_trigger": false,
      "taf_trigger": false,
      "metar": "METAR OEJN 022100Z 35006KT CAVOK 20/10 Q1013 NOSIG",
      "taf": "TAF OEJN 021700Z 0218/0324 35005KT CAVOK"
    },
    {
      "icao": "OEMA",
      "alert": "OK",
      "vis_m": 9999,
      "fzfg": false,
      "metar_trigger": false,
      "taf_trigger": false,
      "metar": "METAR OEMA 022100Z 25009KT CAVOK 19/04 Q1015 NOSIG",
      "taf": "TAF OEMA 021700Z 0218/0324 30008KT CAVOK"
    },
    {
      "icao": "OJAI",
      "alert": "OK",
      "vis_m": 5000,
      "fzfg": false,
      "metar_trigger": false,
      "taf_trigger": false,
      "metar": "METAR OJAI 022100Z 01009KT 5000 HZ NSC 09/M02 Q1021 NOSIG",
      "taf": "TAF OJAI 021650Z 0218/0324 VRB02KT 5000 HZ NSC"
    },
    {
      "icao": "OMAA",
      "alert": "OK",
      "vis_m": 9999,
      "fzfg": false,
      "metar_trigger": false,
      "taf_trigger": false,
      "metar": "METAR OMAA 022130Z 04003KT CAVOK 26/08 Q1010 NOSIG",
      "taf": "TAF OMAA 021700Z 0218/0400 04006KT 8000 NSC"
    },
    {
      "icao": "OMDB",
      "alert": "OK",
      "vis_m": 9999,
      "fzfg": false,
      "metar_trigger": false,
      "taf_trigger": false,
      "metar": "METAR OMDB 022130Z 10004KT CAVOK 27/08 Q1010 NOSIG",
      "taf": "TAF OMDB 021700Z 0218/0400 07005KT 8000 NSC"
    },
    {
      "icao": "UAAA",
      "alert": "OK",
      "vis_m": 1400,
      "fzfg": false,
      "metar_trigger": false,
      "taf_trigger": false,
      "metar": "METAR UAAA 022130Z 20003MPS 170V230 1400 R23L/P2000U -SHRA BR BKN020CB OVC100 01/00 Q1022 NOSIG",
      "taf": "TAF UAAA 021701Z 0218/0318 24003MPS 2000 -SHRASN BR BKN011CB OVC050 TX03/0310Z TNM01/0302Z"
    },
    {
      "icao": "UBBB",
      "alert": "OK",
      "vis_m": 9999,
      "fzfg": false,
      "metar_trigger": false,
      "taf_trigger": false,
      "metar": "METAR UBBB 022130Z 21006KT CAVOK 05/03 Q1023 NOSIG",
      "taf": "TAF UBBB 021702Z 0218/0318 18006KT 9999 SCT015 TX10/0310Z TN01/0301Z"
    },
    {
      "icao": "UDSG",
      "alert": "OK",
      "vis_m": 9999,
      "fzfg": false,
      "metar_trigger": false,
      "taf_trigger": false,
      "metar": "METAR UDSG 022130Z 00000KT 9999 NSC M10/M10 Q1022 NOSIG",
      "taf": "TAF UDSG 021700Z 0218/0318 VRB06KT 9999 FEW050"
    },
    {
      "icao": "UDYZ",
      "alert": "OK",
      "vis_m": 9999,
      "fzfg": false,
      "metar_trigger": false,
      "taf_trigger": false,
      "metar": "METAR UDYZ 022130Z VRB02KT 9999 NSC 00/M06 Q1023 NOSIG",
      "taf": "TAF UDYZ 021700Z 0218/0318 04006KT 9999 FEW040"
    },
    {
      "icao": "UGKO",
      "alert": "OK",
      "vis_m": 6000,
      "fzfg": false,
      "metar_trigger": false,
      "taf_trigger": false,
      "metar": "METAR UGKO 022130Z 06004KT 6000 -RA FEW018 SCT027 BKN031 05/04 Q1027 NOSIG",
      "taf": "TAF UGKO 021700Z 0218/0318 25007KT 9999 BKN050 TX12/0311Z TN02/0304Z"
    }
  ]
}