{
  "ts_utc": "2026-01-19T18:22:51Z",
  "threshold_m": 150,
  "source": "stations_override.txt (ICAO list) + aviationweather.gov (METAR/TAF raw)",
  "station_count": 159,
  "stations": [
    {
      "icao": "BIKF",
      "alert": "OK",
      "vis_m": 9999,
      "fzfg": false,
      "metar_trigger": false,
      "taf_trigger": false,
      "metar": "METAR BIKF 191800Z 14020KT 9999 VCSH FEW015CB BKN038 04/M01 Q0993",
      "taf": "TAF BIKF 191659Z 1918/2018 15020G30KT 9999 -SHRA FEW015 BKN035 TX06/2010Z TN02/2018Z"
    },
    {
      "icao": "BKPR",
      "alert": "OK",
      "vis_m": 9999,
      "fzfg": false,
      "metar_trigger": false,
      "taf_trigger": false,
      "metar": "METAR BKPR 191800Z 36009KT CAVOK M03/M07 Q1031 NOSIG",
      "taf": "TAF BKPR 191730Z 1918/2018 02008KT CAVOK"
    },
    {
      "icao": "EBCI",
      "alert": "OK",
      "vis_m": 9999,
      "fzfg": false,
      "metar_trigger": false,
      "taf_trigger": false,
      "metar": "METAR EBCI 191750Z VRB02KT CAVOK 07/04 Q1018 NOSIG",
      "taf": "TAF EBCI 191710Z 1918/2024 17007KT CAVOK"
    },
    {
      "icao": "EDDB",
      "alert": "OK",
      "vis_m": 9999,
      "fzfg": false,
      "metar_trigger": false,
      "taf_trigger": false,
      "metar": "METAR EDDB 191750Z AUTO 14007KT CAVOK 01/M07 Q1024 NOSIG",
      "taf": "TAF EDDB 191700Z 1918/2018 14007KT CAVOK"
    },
    {
      "icao": "EDDH",
      "alert": "OK",
      "vis_m": 9999,
      "fzfg": false,
      "metar_trigger": false,
      "taf_trigger": false,
      "metar": "METAR EDDH 191750Z AUTO 11007KT CAVOK 00/M04 Q1021 NOSIG",
      "taf": "TAF EDDH 191700Z 1918/2024 11006KT CAVOK"
    },
    {
      "icao": "EDDK",
      "alert": "OK",
      "vis_m": 9000,
      "fzfg": false,
      "metar_trigger": false,
      "taf_trigger": false,
      "metar": "METAR EDDK 191750Z AUTO 12010KT 9000 OVC009 01/M01 Q1020 NOSIG",
      "taf": "TAF EDDK 191700Z 1918/2024 12007KT 9999 OVC010"
    },
    {
      "icao": "EDDN",
      "alert": "OK",
      "vis_m": 9999,
      "fzfg": false,
      "metar_trigger": false,
      "taf_trigger": false,
      "metar": "METAR EDDN 191750Z AUTO 10007KT CAVOK 01/M06 Q1021 NOSIG",
      "taf": "TAF EDDN 191700Z 1918/2018 11008KT CAVOK"
    },
    {
      "icao": "EDDS",
      "alert": "OK",
      "vis_m": 9999,
      "fzfg": false,
      "metar_trigger": false,
      "taf_trigger": false,
      "metar": "METAR EDDS 191750Z AUTO 29001KT CAVOK M00/M01 Q1018 NOSIG",
      "taf": "TAF EDDS 191700Z 1918/2018 VRB03KT CAVOK"
    },
    {
      "icao": "EDFH",
      "alert": "OK",
      "vis_m": 400,
      "fzfg": true,
      "metar_trigger": false,
      "taf_trigger": false,
      "metar": "METAR EDFH 191750Z 15005KT 120V190 0400 R21/0400N FZFG VV/// M01/M02 Q1019",
      "taf": "TAF EDFH 191700Z 1918/2018 14010KT 0400 FZFG OVC001"
    },
    {
      "icao": "EDJA",
      "alert": "OK",
      "vis_m": 5000,
      "fzfg": false,
      "metar_trigger": false,
      "taf_trigger": false,
      "metar": "METAR EDJA 191750Z 03007KT 5000 NSC M02/M02 Q1019",
      "taf": "TAF EDJA 191700Z 1918/2003 05004KT CAVOK"
    },
    {
      "icao": "EDLW",
      "alert": "OK",
      "vis_m": 9999,
      "fzfg": false,
      "metar_trigger": false,
      "taf_trigger": false,
      "metar": "METAR EDLW 191750Z 16007KT CAVOK 01/M02 Q1019",
      "taf": "TAF EDLW 191700Z 1918/2018 14004KT CAVOK"
    },
    {
      "icao": "EDNY",
      "alert": "OK",
      "vis_m": 400,
      "fzfg": true,
      "metar_trigger": false,
      "taf_trigger": false,
      "metar": "METAR EDNY 191750Z VRB01KT 0400 R24/0450N FZFG VV/// M02/M03 Q1019",
      "taf": "TAF EDNY 191700Z 1918/2003 04003KT CAVOK"
    },
    {
      "icao": "EDSB",
      "alert": "OK",
      "vis_m": 8000,
      "fzfg": false,
      "metar_trigger": false,
      "taf_trigger": false,
      "metar": "METAR EDSB 191750Z 05005KT 8000 OVC006 01/M00 Q1021",
      "taf": "TAF EDSB 191700Z 1918/2018 07005KT 7000 OVC006"
    },
    {
      "icao": "EETN",
      "alert": "OK",
      "vis_m": 3900,
      "fzfg": false,
      "metar_trigger": false,
      "taf_trigger": false,
      "metar": "METAR EETN 191750Z 17004KT 3900 BR OVC004 M07/M07 Q1032 TEMPO 2000 SN",
      "taf": "TAF EETN 191730Z 1918/2018 VRB02KT 5000 BR OVC003"
    },
    {
      "icao": "EFTU",
      "alert": "OK",
      "vis_m": 9999,
      "fzfg": false,
      "metar_trigger": false,
      "taf_trigger": false,
      "metar": "METAR EFTU 191750Z AUTO 14004KT 9999 OVC010 M01/M02 Q1030",
      "taf": "TAF EFTU 191737Z 1918/2018 15005KT 9999 BKN008"
    },
    {
      "icao": "EGBB",
      "alert": "OK",
      "vis_m": 2600,
      "fzfg": false,
      "metar_trigger": false,
      "taf_trigger": false,
      "metar": "METAR EGBB 191750Z 14008KT 2600 DZ BKN004 09/08 Q1012",
      "taf": "TAF EGBB 191656Z 1918/2018 14005KT 9999 SCT018"
    },
    {
      "icao": "EGGP",
      "alert": "OK",
      "vis_m": 9999,
      "fzfg": false,
      "metar_trigger": false,
      "taf_trigger": false,
      "metar": "METAR EGGP 191750Z 15003KT 9999 -RA BKN007 06/05 Q1011",
      "taf": "TAF EGGP 191701Z 1918/2018 15008KT 9999 FEW010 SCT020"
    },
    {
      "icao": "EGGW",
      "alert": "OK",
      "vis_m": 9000,
      "fzfg": false,
      "metar_trigger": false,
      "taf_trigger": false,
      "metar": "METAR EGGW 191750Z AUTO 15006KT 9000 BKN012 OVC016 08/08 Q1013",
      "taf": "TAF EGGW 191657Z 1918/2018 16010KT 9999 SCT010 BKN020"
    },
    {
      "icao": "EGKK",
      "alert": "OK",
      "vis_m": 8000,
      "fzfg": false,
      "metar_trigger": false,
      "taf_trigger": false,
      "metar": "METAR EGKK 191750Z 13005KT 8000 -DZRA BKN007 09/09 Q1014",
      "taf": ""
    },
    {
      "icao": "EGNM",
      "alert": "OK",
      "vis_m": 500,
      "fzfg": false,
      "metar_trigger": false,
      "taf_trigger": false,
      "metar": "METAR EGNM 191750Z 13006KT 090V150 0500 R32/P1500N FG OVC001 07/07 Q1011",
      "taf": "TAF EGNM 191704Z 1918/2018 14007KT 0300 FG VV///"
    },
    {
      "icao": "EGPD",
      "alert": "OK",
      "vis_m": 3600,
      "fzfg": false,
      "metar_trigger": false,
      "taf_trigger": false,
      "metar": "METAR EGPD 191750Z AUTO 14002KT 3600 HZ OVC003 06/05 Q1012 TEMPO 2000 BR",
      "taf": "TAF EGPD 191657Z 1918/2018 VRB03KT 9999 SCT005 BKN008"
    },
    {
      "icao": "EGPF",
      "alert": "OK",
      "vis_m": 9999,
      "fzfg": false,
      "metar_trigger": false,
      "taf_trigger": false,
      "metar": "METAR EGPF 191750Z AUTO 07005KT 9999 NCD 03/02 Q1011",
      "taf": "TAF EGPF 191704Z 1918/2018 07006KT 9999 FEW015 SCT030"
    },
    {
      "icao": "EHBK",
      "alert": "OK",
      "vis_m": 9999,
      "fzfg": false,
      "metar_trigger": false,
      "taf_trigger": false,
      "metar": "METAR EHBK 191755Z AUTO 14004KT 090V180 9999 NSC 04/02 Q1018 NOSIG",
      "taf": "TAF EHBK 191711Z 1918/2024 11003KT CAVOK"
    },
    {
      "icao": "EHEH",
      "alert": "OK",
      "vis_m": 9999,
      "fzfg": false,
      "metar_trigger": false,
      "taf_trigger": false,
      "metar": "METAR EHEH 191755Z AUTO 13004KT 9999 OVC120 03/01 Q1019 BLU NOSIG RMK TREND REMOTE BY EHWX",
      "taf": "TAF EHEH 191712Z 1918/2024 14005KT CAVOK"
    },
    {
      "icao": "EKBI",
      "alert": "OK",
      "vis_m": 9999,
      "fzfg": false,
      "metar_trigger": false,
      "taf_trigger": false,
      "metar": "METAR EKBI 191750Z AUTO 10006KT 9999 NCD M01/M03 Q1021",
      "taf": "TAF EKBI 191727Z 1918/2018 12008KT CAVOK"
    },
    {
      "icao": "EKCH",
      "alert": "OK",
      "vis_m": 9999,
      "fzfg": false,
      "metar_trigger": false,
      "taf_trigger": false,
      "metar": "METAR EKCH 191750Z AUTO 13010KT 9999 NCD 02/M02 Q1025 NOSIG",
      "taf": "TAF EKCH 191727Z 1918/2018 11015KT CAVOK"
    },
    {
      "icao": "ENAL",
      "alert": "OK",
      "vis_m": 9999,
      "fzfg": false,
      "metar_trigger": false,
      "taf_trigger": false,
      "metar": "METAR ENAL 191750Z 12005KT 9999 BKN045 04/03 Q1020",
      "taf": "TAF ENAL 191700Z 1918/2003 VRB05KT 9999 -RA FEW010 BKN040"
    },
    {
      "icao": "ENBR",
      "alert": "OK",
      "vis_m": 9999,
      "fzfg": false,
      "metar_trigger": false,
      "taf_trigger": false,
      "metar": "METAR ENBR 191750Z 09002KT 9999 SCT010 02/02 Q1020 NOSIG RMK WIND 1200FT 18006KT",
      "taf": ""
    },
    {
      "icao": "ENGM",
      "alert": "OK",
      "vis_m": 9999,
      "fzfg": false,
      "metar_trigger": false,
      "taf_trigger": false,
      "metar": "METAR ENGM 191750Z 19003KT 9999 FEW006 OVC021 M01/M02 Q1026 TEMPO BKN014",
      "taf": "TAF ENGM 191700Z 1918/2018 14005KT 9999 -SN FEW008 BKN020"
    },
    {
      "icao": "ENHD",
      "alert": "OK",
      "vis_m": 9999,
      "fzfg": false,
      "metar_trigger": false,
      "taf_trigger": false,
      "metar": "METAR ENHD 191750Z 12004KT CAVOK 01/M00 Q1020",
      "taf": "TAF ENHD 191400Z 1915/1923 16008KT 9999 FEW050"
    },
    {
      "icao": "ENTC",
      "alert": "OK",
      "vis_m": 150,
      "fzfg": true,
      "metar_trigger": false,
      "taf_trigger": false,
      "metar": "METAR ENTC 191750Z 14003KT 110V180 0150 R36/0400N R18/1100D FZFG VV002 M02/M02 Q1027 TEMPO 6000 BKN003 RMK WIND 2600FT 09005KT",
      "taf": ""
    },
    {
      "icao": "ENTO",
      "alert": "OK",
      "vis_m": 9999,
      "fzfg": false,
      "metar_trigger": false,
      "taf_trigger": false,
      "metar": "METAR ENTO 191750Z 01003KT 9999 FEW011 OVC023 M00/M00 Q1026 TEMPO BKN012",
      "taf": "TAF ENTO 191700Z 1918/2018 03008KT 9999 BKN018"
    },
    {
      "icao": "ENVA",
      "alert": "OK",
      "vis_m": 9999,
      "fzfg": false,
      "metar_trigger": false,
      "taf_trigger": false,
      "metar": "METAR ENVA 191750Z 07005KT CAVOK M01/M02 Q1023 NOSIG RMK WIND 670FT 13006KT",
      "taf": "TAF ENVA 191700Z 1918/2018 09005KT CAVOK"
    },
    {
      "icao": "ENZV",
      "alert": "OK",
      "vis_m": 9999,
      "fzfg": false,
      "metar_trigger": false,
      "taf_trigger": false,
      "metar": "METAR ENZV 191750Z 00000KT CAVOK 01/M02 Q1020 NOSIG",
      "taf": "TAF ENZV 191700Z 1918/2018 12005KT CAVOK"
    },
    {
      "icao": "EPGD",
      "alert": "OK",
      "vis_m": 7000,
      "fzfg": false,
      "metar_trigger": false,
      "taf_trigger": false,
      "metar": "METAR EPGD 191800Z 17005KT 7000 NSC M08/M10 Q1030",
      "taf": "TAF EPGD 191730Z 1918/2018 16006KT 7000 NSC"
    },
    {
      "icao": "EPKK",
      "alert": "OK",
      "vis_m": 4000,
      "fzfg": false,
      "metar_trigger": false,
      "taf_trigger": false,
      "metar": "METAR EPKK 191800Z VRB02KT 4000 BR NSC M07/M11 Q1033",
      "taf": "TAF EPKK 191730Z 1918/2018 VRB02KT 4000 BR NSC"
    },
    {
      "icao": "EPKT",
      "alert": "OK",
      "vis_m": 5000,
      "fzfg": false,
      "metar_trigger": false,
      "taf_trigger": false,
      "metar": "METAR EPKT 191800Z 15005KT 5000 BR NSC M04/M08 Q1032",
      "taf": "TAF EPKT 191730Z 1918/2018 14006KT 6000 NSC"
    },
    {
      "icao": "EPLB",
      "alert": "OK",
      "vis_m": 4300,
      "fzfg": false,
      "metar_trigger": false,
      "taf_trigger": false,
      "metar": "METAR EPLB 191800Z 15004KT 4300 BR NSC M12/M13 Q1034",
      "taf": "TAF EPLB 191730Z 1918/2018 10004KT 5000 BR NSC"
    },
    {
      "icao": "EPMO",
      "alert": "OK",
      "vis_m": 4900,
      "fzfg": false,
      "metar_trigger": false,
      "taf_trigger": false,
      "metar": "METAR EPMO 191800Z 12003KT 070V170 4900 BR NSC M12/M13 Q1033",
      "taf": "TAF EPMO 191730Z 1918/2018 12006KT 5000 BR NSC"
    },
    {
      "icao": "EPPO",
      "alert": "OK",
      "vis_m": 9999,
      "fzfg": false,
      "metar_trigger": false,
      "taf_trigger": false,
      "metar": "METAR EPPO 191800Z 12012KT CAVOK M00/M05 Q1028",
      "taf": "TAF EPPO 191730Z 1918/2018 11010KT CAVOK"
    },
    {
      "icao": "EPRA",
      "alert": "OK",
      "vis_m": 9999,
      "fzfg": false,
      "metar_trigger": false,
      "taf_trigger": false,
      "metar": "METAR EPRA 191800Z 17007KT CAVOK M08/M13 Q1033",
      "taf": "TAF EPRA 191730Z 1918/2003 15008KT CAVOK"
    },
    {
      "icao": "EPRZ",
      "alert": "OK",
      "vis_m": 5000,
      "fzfg": false,
      "metar_trigger": false,
      "taf_trigger": false,
      "metar": "METAR EPRZ 191800Z 08007KT 5000 BR NSC M09/M13 Q1034",
      "taf": "TAF EPRZ 191730Z 1918/2018 10008KT 7000 NSC"
    },
    {
      "icao": "EPSC",
      "alert": "OK",
      "vis_m": 9999,
      "fzfg": false,
      "metar_trigger": false,
      "taf_trigger": false,
      "metar": "METAR EPSC 191800Z 12017KT CAVOK M00/M06 Q1026",
      "taf": "TAF EPSC 191730Z 1918/2018 14010KT CAVOK"
    },
    {
      "icao": "EPSY",
      "alert": "OK",
      "vis_m": 8000,
      "fzfg": false,
      "metar_trigger": false,
      "taf_trigger": false,
      "metar": "METAR EPSY 191800Z VRB01KT 8000 NSC M16/M17 Q1033",
      "taf": "TAF EPSY 191730Z 1918/2003 VRB02KT 8000 NSC"
    },
    {
      "icao": "EPWA",
      "alert": "OK",
      "vis_m": 8000,
      "fzfg": false,
      "metar_trigger": false,
      "taf_trigger": false,
      "metar": "METAR EPWA 191800Z 14007KT 8000 NSC M12/M14 Q1033 NOSIG",
      "taf": "TAF EPWA 191730Z 1918/2018 13005KT 7000 NSC"
    },
    {
      "icao": "EPWR",
      "alert": "OK",
      "vis_m": 9999,
      "fzfg": false,
      "metar_trigger": false,
      "taf_trigger": false,
      "metar": "METAR EPWR 191800Z 14014KT CAVOK 01/M07 Q1029",
      "taf": "TAF EPWR 191730Z 1918/2018 15010KT CAVOK"
    },
    {
      "icao": "ESGG",
      "alert": "OK",
      "vis_m": 9999,
      "fzfg": false,
      "metar_trigger": false,
      "taf_trigger": false,
      "metar": "METAR ESGG 191750Z 11009KT CAVOK M03/M04 Q1025",
      "taf": "TAF ESGG 191730Z 1918/2018 11009KT 9999 FEW007"
    },
    {
      "icao": "ESKN",
      "alert": "OK",
      "vis_m": 9000,
      "fzfg": false,
      "metar_trigger": false,
      "taf_trigger": false,
      "metar": "METAR ESKN 191750Z 17009KT 9000 BKN006 M00/M01 Q1028",
      "taf": "TAF ESKN 191730Z 1918/2018 16005KT 9999 BKN007"
    },
    {
      "icao": "ESMS",
      "alert": "OK",
      "vis_m": 9999,
      "fzfg": false,
      "metar_trigger": false,
      "taf_trigger": false,
      "metar": "METAR ESMS 191750Z 13008KT CAVOK 01/M01 Q1024",
      "taf": "TAF ESMS 191727Z 1918/2018 12010KT CAVOK"
    },
    {
      "icao": "ESSA",
      "alert": "OK",
      "vis_m": 9999,
      "fzfg": false,
      "metar_trigger": false,
      "taf_trigger": false,
      "metar": "METAR ESSA 191750Z 18007KT 9999 BKN009 M01/M02 Q1028 NOSIG",
      "taf": "TAF ESSA 191730Z 1918/2018 16007KT 9999 OVC007"
    },
    {
      "icao": "EYKA",
      "alert": "OK",
      "vis_m": 9000,
      "fzfg": false,
      "metar_trigger": false,
      "taf_trigger": false,
      "metar": "METAR EYKA 191750Z VRB02KT 9000 NSC M12/M13 Q1034",
      "taf": "TAF EYKA 191700Z 1918/2018 VRB04KT 9000 NSC"
    },
    {
      "icao": "EYPA",
      "alert": "OK",
      "vis_m": 9999,
      "fzfg": false,
      "metar_trigger": false,
      "taf_trigger": false,
      "metar": "METAR EYPA 191750Z 17007KT CAVOK M10/M13 Q1032",
      "taf": "TAF EYPA 191700Z 1918/2018 15008KT 9000 NSC"
    },
    {
      "icao": "EYVI",
      "alert": "OK",
      "vis_m": 7000,
      "fzfg": false,
      "metar_trigger": false,
      "taf_trigger": false,
      "metar": "METAR EYVI 191750Z 18009KT 7000 NSC M13/M15 Q1034 NOSIG",
      "taf": "TAF EYVI 191700Z 1918/2018 17008KT 5000 BR NSC"
    },
    {
      "icao": "GCFV",
      "alert": "OK",
      "vis_m": 9999,
      "fzfg": false,
      "metar_trigger": false,
      "taf_trigger": false,
      "metar": "METAR GCFV 191800Z 02022KT 9999 FEW035 17/11 Q1022",
      "taf": "TAF GCFV 191400Z 1915/2015 02020KT 9999 SCT035 TX21/2014Z TN14/2006Z"
    },
    {
      "icao": "GCLP",
      "alert": "OK",
      "vis_m": 9999,
      "fzfg": false,
      "metar_trigger": false,
      "taf_trigger": false,
      "metar": "METAR GCLP 191800Z 01016KT 9999 BKN035 18/09 Q1023 NOSIG",
      "taf": "TAF GCLP 191400Z 1915/2015 02023KT 9999 BKN035 TX20/2014Z TN16/2006Z"
    },
    {
      "icao": "GCTS",
      "alert": "OK",
      "vis_m": 9999,
      "fzfg": false,
      "metar_trigger": false,
      "taf_trigger": false,
      "metar": "METAR GCTS 191800Z 06021KT 9999 FEW035 18/09 Q1023 NOSIG",
      "taf": "TAF GCTS 191400Z 1915/2015 08020KT 9999 SCT040 TX22/2014Z TN14/2006Z"
    },
    {
      "icao": "GMAD",
      "alert": "OK",
      "vis_m": 9999,
      "fzfg": false,
      "metar_trigger": false,
      "taf_trigger": false,
      "metar": "METAR GMAD 191800Z 36005KT CAVOK 15/04 Q1017 NOSIG",
      "taf": "TAF GMAD 191700Z 1918/2024 20008KT 8000 SCT020"
    },
    {
      "icao": "GMMN",
      "alert": "OK",
      "vis_m": 9999,
      "fzfg": false,
      "metar_trigger": false,
      "taf_trigger": false,
      "metar": "METAR GMMN 191800Z 32005KT 9999 SCT030 10/06 Q1021 NOSIG",
      "taf": "TAF GMMN 191700Z 1918/2024 34008KT 9999 SCT030"
    },
    {
      "icao": "GMMX",
      "alert": "OK",
      "vis_m": 8000,
      "fzfg": false,
      "metar_trigger": false,
      "taf_trigger": false,
      "metar": "METAR GMMX 191800Z 09003KT 8000 BKN020 11/06 Q1021 NOSIG",
      "taf": "TAF GMMX 191700Z 1918/2024 06006KT 8000 BKN023 SCT080"
    },
    {
      "icao": "HEGN",
      "alert": "OK",
      "vis_m": 9999,
      "fzfg": false,
      "metar_trigger": false,
      "taf_trigger": false,
      "metar": "METAR HEGN 191800Z 34010KT CAVOK 18/06 Q1019 NOSIG",
      "taf": "TAF HEGN 191700Z 1918/2024 30012KT CAVOK"
    },
    {
      "icao": "HEMA",
      "alert": "OK",
      "vis_m": 9999,
      "fzfg": false,
      "metar_trigger": false,
      "taf_trigger": false,
      "metar": "METAR HEMA 191800Z 29008KT CAVOK 17/08 Q1018 NOSIG",
      "taf": "TAF HEMA 191700Z 1918/2024 31012KT CAVOK"
    },
    {
      "icao": "HESH",
      "alert": "OK",
      "vis_m": 9999,
      "fzfg": false,
      "metar_trigger": false,
      "taf_trigger": false,
      "metar": "METAR HESH 191800Z 32004KT CAVOK 18/08 Q1017 NOSIG",
      "taf": "TAF HESH 191700Z 1918/2024 33010KT CAVOK"
    },
    {
      "icao": "HESX",
      "alert": "OK",
      "vis_m": 9999,
      "fzfg": false,
      "metar_trigger": false,
      "taf_trigger": false,
      "metar": "METAR HESX 191800Z 02007KT CAVOK 13/08 Q1019 NOSIG",
      "taf": "TAF HESX 191700Z 1918/2024 01008KT CAVOK"
    },
    {
      "icao": "LATI",
      "alert": "OK",
      "vis_m": 9999,
      "fzfg": false,
      "metar_trigger": false,
      "taf_trigger": false,
      "metar": "METAR LATI 191820Z 00000KT CAVOK 04/M04 Q1026 NOSIG",
      "taf": "TAF LATI 191700Z 1918/2018 VRB05KT CAVOK TX13/2012Z TNM05/2005Z"
    },
    {
      "icao": "LBPD",
      "alert": "OK",
      "vis_m": 9999,
      "fzfg": false,
      "metar_trigger": false,
      "taf_trigger": false,
      "metar": "METAR LBPD 191800Z AUTO 15003KT 050V210 9999 OVC054/// M02/M05 Q1036 NOSIG",
      "taf": "TAF LBPD 191700Z 1918/2018 VRB03KT 9999 SCT030"
    },
    {
      "icao": "LBSF",
      "alert": "OK",
      "vis_m": 9999,
      "fzfg": false,
      "metar_trigger": false,
      "taf_trigger": false,
      "metar": "METAR LBSF 191800Z AUTO 11009KT 9999 NCD M06/M09 Q1034 NOSIG",
      "taf": ""
    },
    {
      "icao": "LBWN",
      "alert": "OK",
      "vis_m": 9999,
      "fzfg": false,
      "metar_trigger": false,
      "taf_trigger": false,
      "metar": "METAR LBWN 191800Z AUTO 32006KT 280V050 9999 OVC013/// M04/M06 Q1037 NOSIG",
      "taf": "TAF LBWN 191700Z 1918/2018 32010KT 9999 BKN010"
    },
    {
      "icao": "LCLK",
      "alert": "OK",
      "vis_m": 9999,
      "fzfg": false,
      "metar_trigger": false,
      "taf_trigger": false,
      "metar": "METAR LCLK 191800Z 34007G18KT 330V080 9999 FEW030 06/00 Q1023 NOSIG",
      "taf": "TAF LCLK 191730Z 1918/2018 34009KT 9999 FEW030"
    },
    {
      "icao": "LCPH",
      "alert": "OK",
      "vis_m": 9999,
      "fzfg": false,
      "metar_trigger": false,
      "taf_trigger": false,
      "metar": "METAR LCPH 191800Z 07009KT 010V080 9999 SCT035 SCT044 BKN050 09/00 Q1022 NOSIG",
      "taf": "TAF LCPH 191730Z 1918/2018 06008KT 9999 FEW030 SCT045"
    },
    {
      "icao": "LEAL",
      "alert": "OK",
      "vis_m": 9999,
      "fzfg": false,
      "metar_trigger": false,
      "taf_trigger": false,
      "metar": "METAR LEAL 191800Z 31005KT 9999 BKN045 OVC060 14/07 Q1013 NOSIG",
      "taf": "TAF LEAL 191700Z 1918/2018 32005KT 9999 FEW035 TX17/2013Z TN10/2006Z"
    },
    {
      "icao": "LEBB",
      "alert": "OK",
      "vis_m": 9999,
      "fzfg": false,
      "metar_trigger": false,
      "taf_trigger": false,
      "metar": "METAR LEBB 191800Z 28004KT 260V320 9999 SCT055 11/07 Q1019 TEMPO RA",
      "taf": "TAF LEBB 191700Z 1918/2018 VRB03KT 9999 BKN030 TX13/2013Z TN02/2007Z"
    },
    {
      "icao": "LEBL",
      "alert": "OK",
      "vis_m": 9999,
      "fzfg": false,
      "metar_trigger": false,
      "taf_trigger": false,
      "metar": "METAR LEBL 191800Z 02008KT 9999 SCT023 BKN034 BKN045 12/10 Q1013 NOSIG",
      "taf": "TAF LEBL 191700Z 1918/2018 01013KT 9999 SCT020 BKN030 TX14/2013Z TN09/2006Z"
    },
    {
      "icao": "LECH",
      "alert": "OK",
      "vis_m": 9999,
      "fzfg": false,
      "metar_trigger": false,
      "taf_trigger": false,
      "metar": "METAR LECH 191800Z AUTO 05007KT 010V080 9999 BKN060 10/05 Q1014",
      "taf": ""
    },
    {
      "icao": "LEMD",
      "alert": "OK",
      "vis_m": 9999,
      "fzfg": false,
      "metar_trigger": false,
      "taf_trigger": false,
      "metar": "METAR LEMD 191800Z 35009KT CAVOK 09/02 Q1016 NOSIG",
      "taf": "TAF LEMD 191700Z 1918/2024 VRB04KT CAVOK TX12/2014Z TNM03/2006Z"
    },
    {
      "icao": "LEMG",
      "alert": "OK",
      "vis_m": 9999,
      "fzfg": false,
      "metar_trigger": false,
      "taf_trigger": false,
      "metar": "METAR LEMG 191800Z 30013KT CAVOK 11/02 Q1016 NOSIG",
      "taf": "TAF LEMG 191700Z 1918/2018 29012KT CAVOK TX14/2014Z TN05/2006Z"
    },
    {
      "icao": "LEVC",
      "alert": "OK",
      "vis_m": 9999,
      "fzfg": false,
      "metar_trigger": false,
      "taf_trigger": false,
      "metar": "METAR LEVC 191800Z 26005KT 9999 -DZ BKN053 12/09 Q1014 NOSIG",
      "taf": "TAF LEVC 191700Z 1918/2018 30007KT 9999 SCT035 TX15/2013Z TN07/2006Z"
    },
    {
      "icao": "LEXJ",
      "alert": "OK",
      "vis_m": 9999,
      "fzfg": false,
      "metar_trigger": false,
      "taf_trigger": false,
      "metar": "METAR LEXJ 191800Z 29010KT 260V320 9999 BKN055 11/06 Q1019",
      "taf": "TAF LEXJ 191400Z 1915/2015 22009KT 9999 SCT040 TX13/2014Z TN05/2006Z"
    },
    {
      "icao": "LEZG",
      "alert": "OK",
      "vis_m": 9999,
      "fzfg": false,
      "metar_trigger": false,
      "taf_trigger": false,
      "metar": "METAR LEZG 191800Z 27009KT 9999 SCT045 10/06 Q1016 NOSIG",
      "taf": "TAF LEZG 191700Z 1918/2018 30010KT 9999 SCT030 TX10/2015Z TN03/2006Z"
    },
    {
      "icao": "LEZL",
      "alert": "OK",
      "vis_m": 9999,
      "fzfg": false,
      "metar_trigger": false,
      "taf_trigger": false,
      "metar": "METAR LEZL 191800Z 34008KT 300V010 CAVOK 14/04 Q1018 NOSIG",
      "taf": "TAF LEZL 191400Z 1915/2015 36003KT CAVOK TX16/1915Z TN04/2007Z"
    },
    {
      "icao": "LFBD",
      "alert": "OK",
      "vis_m": 9999,
      "fzfg": false,
      "metar_trigger": false,
      "taf_trigger": false,
      "metar": "METAR LFBD 191800Z AUTO 16003KT CAVOK 09/08 Q1017 NOSIG",
      "taf": "TAF LFBD 191700Z 1918/2024 VRB03KT 9999 SCT030 TX12/2013Z TN04/2007Z"
    },
    {
      "icao": "LFLL",
      "alert": "OK",
      "vis_m": 1100,
      "fzfg": false,
      "metar_trigger": false,
      "taf_trigger": false,
      "metar": "METAR LFLL 191800Z 03004KT 350V080 1100 R35L/1600D R17R/1000D R35R/1500D R17L/1800D BR VV/// 04/04 Q1019 NOSIG",
      "taf": "TAF LFLL 191700Z 1918/2024 VRB02KT 1200 BR OVC001"
    },
    {
      "icao": "LFLS",
      "alert": "OK",
      "vis_m": 2600,
      "fzfg": false,
      "metar_trigger": false,
      "taf_trigger": false,
      "metar": "METAR LFLS 191800Z AUTO 03002KT 2600 BR NSC 05/05 Q1018 TEMPO 0600 FG VV///",
      "taf": ""
    },
    {
      "icao": "LFMN",
      "alert": "OK",
      "vis_m": 9999,
      "fzfg": false,
      "metar_trigger": false,
      "taf_trigger": false,
      "metar": "METAR LFMN 191800Z 04014KT CAVOK 14/M00 Q1017 NOSIG",
      "taf": "TAF LFMN 191400Z 1915/2021 07025KT 9999 BKN090"
    },
    {
      "icao": "LFOB",
      "alert": "OK",
      "vis_m": 9999,
      "fzfg": false,
      "metar_trigger": false,
      "taf_trigger": false,
      "metar": "METAR LFOB 191800Z AUTO 13002KT CAVOK 07/06 Q1017 TEMPO 4500 BR",
      "taf": "TAF LFOB 191700Z 1918/2018 12005KT 8000 NSC"
    },
    {
      "icao": "LFPO",
      "alert": "OK",
      "vis_m": 9999,
      "fzfg": false,
      "metar_trigger": false,
      "taf_trigger": false,
      "metar": "METAR LFPO 191800Z 14004KT 110V170 CAVOK 08/06 Q1017 NOSIG",
      "taf": "TAF LFPO 191700Z 1918/2024 11005KT CAVOK"
    },
    {
      "icao": "LFSB",
      "alert": "OK",
      "vis_m": 5000,
      "fzfg": false,
      "metar_trigger": false,
      "taf_trigger": false,
      "metar": "METAR LFSB 191800Z AUTO 34006KT 5000 BR OVC003 01/01 Q1019 TEMPO 0300 FG VV///",
      "taf": "TAF LFSB 191700Z 1918/2018 33004KT 3500 BR OVC002"
    },
    {
      "icao": "LGAV",
      "alert": "OK",
      "vis_m": 9999,
      "fzfg": false,
      "metar_trigger": false,
      "taf_trigger": false,
      "metar": "METAR LGAV 191750Z 02013KT 9999 FEW020 BKN040 05/M01 Q1030 NOSIG",
      "taf": "TAF LGAV 191700Z 1918/2018 02016G26KT 9999 SCT020 BKN040"
    },
    {
      "icao": "LGTS",
      "alert": "OK",
      "vis_m": 9999,
      "fzfg": false,
      "metar_trigger": false,
      "taf_trigger": false,
      "metar": "METAR LGTS 191750Z 11006KT 9999 FEW020 SCT035 02/M05 Q1034 NOSIG",
      "taf": "TAF LGTS 191700Z 1918/2018 11008KT 9999 SCT030"
    },
    {
      "icao": "LHBP",
      "alert": "OK",
      "vis_m": 5000,
      "fzfg": false,
      "metar_trigger": false,
      "taf_trigger": false,
      "metar": "METAR LHBP 191800Z 08006KT 5000 BR BKN004 M06/M07 Q1037 TEMPO 4500 BR",
      "taf": "TAF LHBP 191715Z 1918/2018 09005KT 5000 BR BKN007"
    },
    {
      "icao": "LHDC",
      "alert": "OK",
      "vis_m": 5000,
      "fzfg": false,
      "metar_trigger": false,
      "taf_trigger": false,
      "metar": "METAR LHDC 191745Z AUTO VRB03KT 5000 BR OVC003 M06/M07 Q1038 BECMG 6000 NSW NSC",
      "taf": "TAF LHDC 191715Z 1918/2003 VRB02KT 3000 BR OVC002"
    },
    {
      "icao": "LIBD",
      "alert": "OK",
      "vis_m": 9999,
      "fzfg": false,
      "metar_trigger": false,
      "taf_trigger": false,
      "metar": "METAR LIBD 191750Z 11006KT 9999 BKN045 09/06 Q1023",
      "taf": "TAF LIBD 191700Z 1918/2018 16008KT 9999 SCT040"
    },
    {
      "icao": "LIBG",
      "alert": "OK",
      "vis_m": 9999,
      "fzfg": false,
      "metar_trigger": false,
      "taf_trigger": false,
      "metar": "METAR LIBG 191750Z 07006KT 9999 SCT045 10/08 Q1023",
      "taf": "TAF LIBG 191700Z 1918/2003 11008KT 9999 SCT030"
    },
    {
      "icao": "LIBP",
      "alert": "OK",
      "vis_m": 9999,
      "fzfg": false,
      "metar_trigger": false,
      "taf_trigger": false,
      "metar": "METAR LIBP 191750Z AUTO 04002KT 9999 SCT056/// OVC072/// 10/08 Q1024",
      "taf": "TAF LIBP 191700Z 1918/2018 10010KT 9999 BKN030"
    },
    {
      "icao": "LIBR",
      "alert": "OK",
      "vis_m": 9999,
      "fzfg": false,
      "metar_trigger": false,
      "taf_trigger": false,
      "metar": "METAR LIBR 191750Z 16005KT CAVOK 10/03 Q1024",
      "taf": "TAF LIBR 191700Z 1918/2018 VRB05KT 9999 SCT040"
    },
    {
      "icao": "LICA",
      "alert": "OK",
      "vis_m": 9999,
      "fzfg": false,
      "metar_trigger": false,
      "taf_trigger": false,
      "metar": "METAR LICA 191750Z AUTO 06022KT 9999 DZRA BKN029/// BKN160/// 12/10 Q1018",
      "taf": "TAF LICA 191700Z 1918/2018 09024G40KT 9999 SCT020 BKN060"
    },
    {
      "icao": "LICC",
      "alert": "OK",
      "vis_m": 4000,
      "fzfg": false,
      "metar_trigger": false,
      "taf_trigger": false,
      "metar": "METAR LICC 191750Z 10024G34KT 4000 +RA BKN015 BKN030 14/11 Q1015",
      "taf": "TAF LICC 191700Z 1918/2018 10023G40KT 4000 RA BKN015"
    },
    {
      "icao": "LICJ",
      "alert": "OK",
      "vis_m": 9999,
      "fzfg": false,
      "metar_trigger": false,
      "taf_trigger": false,
      "metar": "METAR LICJ 191750Z 10027G40KT 9999 -RA SCT040 BKN070 16/08 Q1010 WS R07",
      "taf": "TAF LICJ 191700Z 1918/2018 10025G45KT 9999 SCT040 BKN060"
    },
    {
      "icao": "LIMC",
      "alert": "OK",
      "vis_m": 9999,
      "fzfg": false,
      "metar_trigger": false,
      "taf_trigger": false,
      "metar": "METAR LIMC 191750Z 23004KT 9999 SCT045 SCT075 06/01 Q1026 NOSIG",
      "taf": "TAF LIMC 191700Z 1918/2024 VRB04KT 9999 SCT050 SCT090"
    },
    {
      "icao": "LIME",
      "alert": "OK",
      "vis_m": 9999,
      "fzfg": false,
      "metar_trigger": false,
      "taf_trigger": false,
      "metar": "METAR LIME 191750Z VRB01KT 9999 BKN050 05/M00 Q1026 NOSIG",
      "taf": "TAF LIME 191700Z 1918/2018 VRB04KT 9999 BKN040"
    },
    {
      "icao": "LIMF",
      "alert": "OK",
      "vis_m": 9999,
      "fzfg": false,
      "metar_trigger": false,
      "taf_trigger": false,
      "metar": "METAR LIMF 191750Z 08003KT 9999 BKN040 OVC070 05/02 Q1026",
      "taf": "TAF LIMF 191700Z 1918/2018 VRB04KT 8000 BKN060"
    },
    {
      "icao": "LIMJ",
      "alert": "OK",
      "vis_m": 9999,
      "fzfg": false,
      "metar_trigger": false,
      "taf_trigger": false,
      "metar": "METAR LIMJ 191750Z 04013KT CAVOK 09/01 Q1021",
      "taf": "TAF LIMJ 191700Z 1918/2018 02015KT CAVOK"
    },
    {
      "icao": "LIPE",
      "alert": "OK",
      "vis_m": 8000,
      "fzfg": false,
      "metar_trigger": false,
      "taf_trigger": false,
      "metar": "METAR LIPE 191750Z 26005KT 8000 BKN027 05/03 Q1027",
      "taf": "TAF LIPE 191700Z 1918/2018 28006KT 9000 BKN020"
    },
    {
      "icao": "LIPH",
      "alert": "OK",
      "vis_m": 9999,
      "fzfg": false,
      "metar_trigger": false,
      "taf_trigger": false,
      "metar": "METAR LIPH 191750Z 04004KT CAVOK 04/M06 Q1028",
      "taf": "TAF LIPH 191700Z 1918/2018 06008KT CAVOK"
    },
    {
      "icao": "LIPQ",
      "alert": "OK",
      "vis_m": 9999,
      "fzfg": false,
      "metar_trigger": false,
      "taf_trigger": false,
      "metar": "METAR LIPQ 191750Z AUTO 07006KT 9999 NCD 03/M08 Q1028",
      "taf": "TAF LIPQ 191700Z 1918/2018 08010KT CAVOK"
    },
    {
      "icao": "LIPR",
      "alert": "OK",
      "vis_m": 9999,
      "fzfg": false,
      "metar_trigger": false,
      "taf_trigger": false,
      "metar": "METAR LIPR 191750Z 09010KT 060V120 9999 -RA BKN030 BKN060 10/05 Q1025",
      "taf": "TAF LIPR 191700Z 1918/2018 10012KT 9999 BKN030"
    },
    {
      "icao": "LIPX",
      "alert": "OK",
      "vis_m": 9999,
      "fzfg": false,
      "metar_trigger": false,
      "taf_trigger": false,
      "metar": "METAR LIPX 191750Z 03003KT 9999 SCT050 03/M05 Q1027",
      "taf": "TAF LIPX 191700Z 1918/2018 VRB05KT 9999 SCT050"
    },
    {
      "icao": "LIPY",
      "alert": "OK",
      "vis_m": 9999,
      "fzfg": false,
      "metar_trigger": false,
      "taf_trigger": false,
      "metar": "METAR LIPY 191750Z AUTO 08004KT 9999 FEW057/// BKN069/// 10/06 Q1024",
      "taf": "TAF LIPY 191700Z 1918/2018 09011KT 9999 BKN040"
    },
    {
      "icao": "LIPZ",
      "alert": "OK",
      "vis_m": 9999,
      "fzfg": false,
      "metar_trigger": false,
      "taf_trigger": false,
      "metar": "METAR LIPZ 191750Z 05006KT 9999 SCT050 04/M04 Q1028 NOSIG",
      "taf": "TAF LIPZ 191700Z 1918/2024 05011KT CAVOK"
    },
    {
      "icao": "LIRF",
      "alert": "OK",
      "vis_m": 9999,
      "fzfg": false,
      "metar_trigger": false,
      "taf_trigger": false,
      "metar": "METAR LIRF 191750Z 06010KT 9999 -RA SCT050 11/08 Q1017 NOSIG",
      "taf": "TAF LIRF 191700Z 1918/2024 06013KT 9999 SCT050"
    },
    {
      "icao": "LIRN",
      "alert": "OK",
      "vis_m": 9999,
      "fzfg": false,
      "metar_trigger": false,
      "taf_trigger": false,
      "metar": "METAR LIRN 191750Z 02010KT 9999 BKN075 11/06 Q1018 NOSIG",
      "taf": "TAF LIRN 191700Z 1918/2018 05012KT 9999 SCT060"
    },
    {
      "icao": "LIRP",
      "alert": "OK",
      "vis_m": 9999,
      "fzfg": false,
      "metar_trigger": false,
      "taf_trigger": false,
      "metar": "METAR LIRP 191745Z 09018KT 9999 SCT080 11/02 Q1020 NOSIG",
      "taf": "TAF LIRP 191700Z 1918/2018 07016KT 9999 SCT060"
    },
    {
      "icao": "LIRZ",
      "alert": "OK",
      "vis_m": 9999,
      "fzfg": false,
      "metar_trigger": false,
      "taf_trigger": false,
      "metar": "METAR LIRZ 191750Z AUTO 06010KT 9999 BKN089/// 11/03 Q1020",
      "taf": "TAF LIRZ 191700Z 1918/2018 04015KT 9999 SCT070"
    },
    {
      "icao": "LJLJ",
      "alert": "OK",
      "vis_m": 9999,
      "fzfg": false,
      "metar_trigger": false,
      "taf_trigger": false,
      "metar": "METAR LJLJ 191800Z 12005KT 9999 OVC025 M02/M06 Q1032 NOSIG",
      "taf": "TAF LJLJ 191700Z 1918/2018 12006KT 9999 BKN025"
    },
    {
      "icao": "LKMT",
      "alert": "OK",
      "vis_m": 9999,
      "fzfg": false,
      "metar_trigger": false,
      "taf_trigger": false,
      "metar": "METAR LKMT 191800Z 25017KT CAVOK M04/M07 Q1032 NOSIG",
      "taf": "TAF LKMT 191700Z 1918/2018 23012KT CAVOK"
    },
    {
      "icao": "LKPR",
      "alert": "OK",
      "vis_m": 9999,
      "fzfg": false,
      "metar_trigger": false,
      "taf_trigger": false,
      "metar": "METAR LKPR 191800Z 07005KT CAVOK M04/M07 Q1026 NOSIG",
      "taf": "TAF LKPR 191700Z 1918/2024 11007KT CAVOK"
    },
    {
      "icao": "LLBG",
      "alert": "OK",
      "vis_m": 9999,
      "fzfg": false,
      "metar_trigger": false,
      "taf_trigger": false,
      "metar": "METAR LLBG 191820Z 05004KT CAVOK 10/03 Q1021 NOSIG RMK FEW075",
      "taf": "TAF LLBG 191714Z 1918/2018 03006KT 9999 FEW040"
    },
    {
      "icao": "LMML",
      "alert": "OK",
      "vis_m": 9999,
      "fzfg": false,
      "metar_trigger": false,
      "taf_trigger": false,
      "metar": "METAR LMML 191815Z 09026G39KT 9999 BKN017 15/12 Q1011 NOSIG",
      "taf": "TAF LMML 191700Z 1918/2018 11032G42KT 9999 BKN016"
    },
    {
      "icao": "LOWW",
      "alert": "OK",
      "vis_m": 9999,
      "fzfg": false,
      "metar_trigger": false,
      "taf_trigger": false,
      "metar": "METAR LOWW 191750Z 14017KT CAVOK M04/M07 Q1033 NOSIG",
      "taf": "TAF LOWW 191715Z 1918/2024 14013KT 9999 FEW015 TXM04/1918Z TNM07/2007Z"
    },
    {
      "icao": "LPFR",
      "alert": "OK",
      "vis_m": 9999,
      "fzfg": false,
      "metar_trigger": false,
      "taf_trigger": false,
      "metar": "METAR LPFR 191800Z 34009KT 9999 FEW020 13/04 Q1019",
      "taf": "TAF LPFR 191700Z 1918/2018 33013KT CAVOK"
    },
    {
      "icao": "LPMA",
      "alert": "OK",
      "vis_m": 9999,
      "fzfg": false,
      "metar_trigger": false,
      "taf_trigger": false,
      "metar": "METAR LPMA 191800Z VRB03KT 9999 FEW015 16/10 Q1026",
      "taf": "TAF LPMA 191700Z 1918/2018 02008KT 9999 SCT015"
    },
    {
      "icao": "LPPR",
      "alert": "OK",
      "vis_m": 9999,
      "fzfg": false,
      "metar_trigger": false,
      "taf_trigger": false,
      "metar": "METAR LPPR 191800Z 22003KT 9999 MIFG NSC 09/08 Q1021",
      "taf": "TAF LPPR 191700Z 1918/2018 VRB02KT 9999 FEW012"
    },
    {
      "icao": "LPPS",
      "alert": "OK",
      "vis_m": 9999,
      "fzfg": false,
      "metar_trigger": false,
      "taf_trigger": false,
      "metar": "METAR LPPS 191800Z 35008KT 9999 SCT015 15/11 Q1026",
      "taf": "TAF LPPS 191700Z 1918/2024 36010KT 9999 SCT015"
    },
    {
      "icao": "LPPT",
      "alert": "OK",
      "vis_m": 9999,
      "fzfg": false,
      "metar_trigger": false,
      "taf_trigger": false,
      "metar": "METAR LPPT 191800Z 32008KT 9999 FEW010 11/09 Q1020",
      "taf": "TAF LPPT 191700Z 1918/2024 29007KT 9999 FEW012 SCT025"
    },
    {
      "icao": "LQBK",
      "alert": "OK",
      "vis_m": 9999,
      "fzfg": false,
      "metar_trigger": false,
      "taf_trigger": false,
      "metar": "METAR LQBK 191800Z VRB02KT 9999 OVC020 M02/M06 Q1034 NOSIG",
      "taf": "TAF LQBK 191700Z 1918/2018 VRB04KT 9999 BKN020 TXM01/2014Z TNM05/2006Z"
    },
    {
      "icao": "LQSA",
      "alert": "OK",
      "vis_m": 7000,
      "fzfg": false,
      "metar_trigger": false,
      "taf_trigger": false,
      "metar": "METAR LQSA 191800Z VRB02KT 7000 NSC M04/M05 Q1029 NOSIG",
      "taf": "TAF LQSA 191700Z 1918/2018 VRB02KT 9999 FEW035 TX00/2013Z TNM09/2006Z"
    },
    {
      "icao": "LQTZ",
      "alert": "OK",
      "vis_m": 7000,
      "fzfg": false,
      "metar_trigger": false,
      "taf_trigger": false,
      "metar": "METAR LQTZ 191800Z 31003KT 7000 NSC M04/M05 Q1033",
      "taf": "TAF LQTZ 191700Z 1918/2018 10005KT 8000 NSC TX02/2013Z TNM09/2006Z"
    },
    {
      "icao": "LRBC",
      "alert": "OK",
      "vis_m": 9999,
      "fzfg": false,
      "metar_trigger": false,
      "taf_trigger": false,
      "metar": "METAR LRBC 191800Z 34003KT CAVOK M07/M10 Q1037",
      "taf": "TAF LRBC 191700Z 1918/2003 VRB04KT CAVOK"
    },
    {
      "icao": "LRBS",
      "alert": "OK",
      "vis_m": 7000,
      "fzfg": false,
      "metar_trigger": false,
      "taf_trigger": false,
      "metar": "METAR LRBS 191800Z 29004KT 7000 NSC M05/M07 Q1039 NOSIG",
      "taf": "TAF LRBS 191700Z 1918/2018 25006KT CAVOK"
    },
    {
      "icao": "LRBV",
      "alert": "OK",
      "vis_m": 9999,
      "fzfg": false,
      "metar_trigger": false,
      "taf_trigger": false,
      "metar": "METAR LRBV 191800Z 21006KT CAVOK M09/M11 Q1034",
      "taf": "TAF LRBV 191700Z 1918/2003 20008KT CAVOK"
    },
    {
      "icao": "LRCL",
      "alert": "OK",
      "vis_m": 9999,
      "fzfg": false,
      "metar_trigger": false,
      "taf_trigger": false,
      "metar": "METAR LRCL 191800Z 09003KT CAVOK M09/M11 Q1036",
      "taf": "TAF LRCL 191700Z 1918/2003 VRB04KT CAVOK"
    },
    {
      "icao": "LRCV",
      "alert": "OK",
      "vis_m": 6000,
      "fzfg": false,
      "metar_trigger": false,
      "taf_trigger": false,
      "metar": "METAR LRCV 191800Z COR 25003KT 6000 OVC036 M04/M07 Q1038",
      "taf": "TAF LRCV 191700Z 1918/2003 VRB04KT 5000 BR BKN035"
    },
    {
      "icao": "LRIA",
      "alert": "OK",
      "vis_m": 7000,
      "fzfg": false,
      "metar_trigger": false,
      "taf_trigger": false,
      "metar": "METAR LRIA 191800Z 31004KT 290V010 7000 NSC M11/M13 Q1038",
      "taf": "TAF LRIA 191700Z 1918/2003 VRB04KT CAVOK"
    },
    {
      "icao": "LROP",
      "alert": "OK",
      "vis_m": 7000,
      "fzfg": false,
      "metar_trigger": false,
      "taf_trigger": false,
      "metar": "METAR LROP 191800Z 26005KT 7000 NSC M07/M09 Q1038 NOSIG",
      "taf": "TAF LROP 191700Z 1918/2018 25006KT CAVOK"
    },
    {
      "icao": "LRSB",
      "alert": "OK",
      "vis_m": 9999,
      "fzfg": false,
      "metar_trigger": false,
      "taf_trigger": false,
      "metar": "METAR LRSB 191800Z 28004KT CAVOK M11/M12 Q1035",
      "taf": "TAF LRSB 191700Z 1918/2018 VRB04KT CAVOK"
    },
    {
      "icao": "LRSM",
      "alert": "OK",
      "vis_m": 7000,
      "fzfg": false,
      "metar_trigger": false,
      "taf_trigger": false,
      "metar": "METAR LRSM 191800Z AUTO 00000KT 7000 NCD M11/M13 Q1038",
      "taf": "TAF LRSM 191400Z 1915/1924 VRB04KT CAVOK"
    },
    {
      "icao": "LRSV",
      "alert": "OK",
      "vis_m": 9999,
      "fzfg": false,
      "metar_trigger": false,
      "taf_trigger": false,
      "metar": "METAR LRSV 191800Z 16004KT CAVOK M08/M10 Q1034",
      "taf": "TAF LRSV 191700Z 1918/2003 VRB04KT CAVOK"
    },
    {
      "icao": "LRTM",
      "alert": "OK",
      "vis_m": 7000,
      "fzfg": false,
      "metar_trigger": false,
      "taf_trigger": false,
      "metar": "METAR LRTM 191800Z AUTO 00000KT 7000 NCD M13/M14 Q1037",
      "taf": "TAF LRTM 191400Z 1915/1924 VRB04KT 5000 BR FEW010"
    },
    {
      "icao": "LRTR",
      "alert": "OK",
      "vis_m": 7000,
      "fzfg": false,
      "metar_trigger": false,
      "taf_trigger": false,
      "metar": "METAR LRTR 191800Z 02004KT 7000 NSC M05/M06 Q1036",
      "taf": "TAF LRTR 191700Z 1918/2018 VRB04KT CAVOK"
    },
    {
      "icao": "LTAC",
      "alert": "OK",
      "vis_m": 9999,
      "fzfg": false,
      "metar_trigger": false,
      "taf_trigger": false,
      "metar": "METAR LTAC 191750Z VRB01KT 9999 FEW040 M04/M09 Q1024 NOSIG RMK RWY21C VRB02KT RWY03L VRB01KT RWY21R VRB02KT RWY03R VRB01KT RWY21L 00000KT",
      "taf": "TAF LTAC 191640Z 1918/2018 VRB02KT 9999 SCT035"
    },
    {
      "icao": "LTFM",
      "alert": "OK",
      "vis_m": 7000,
      "fzfg": false,
      "metar_trigger": false,
      "taf_trigger": false,
      "metar": "METAR LTFM 191750Z 35029KT 7000 -RA BKN013 BKN022 02/01 Q1032 NOSIG RMK RWY17L 34027KT RWY34L 34026KT RWY16R 34023KT RWY36 35025KT RWY18 35030KT",
      "taf": "TAF LTFM 191640Z 1918/2024 34022G37KT 7000 -RA BKN011 BKN022"
    },
    {
      "icao": "LUKK",
      "alert": "OK",
      "vis_m": 9999,
      "fzfg": false,
      "metar_trigger": false,
      "taf_trigger": false,
      "metar": "METAR LUKK 191800Z 33003KT 290V020 CAVOK M09/M12 Q1037 NOSIG",
      "taf": "TAF LUKK 191716Z 1918/2018 VRB04KT CAVOK"
    },
    {
      "icao": "LWOH",
      "alert": "OK",
      "vis_m": 9999,
      "fzfg": false,
      "metar_trigger": false,
      "taf_trigger": false,
      "metar": "METAR LWOH 191820Z 02010KT 350V060 CAVOK 01/M06 Q1028",
      "taf": "TAF LWOH 191750Z 1918/2018 04006KT 9999 FEW040"
    },
    {
      "icao": "LWSK",
      "alert": "OK",
      "vis_m": 9999,
      "fzfg": false,
      "metar_trigger": false,
      "taf_trigger": false,
      "metar": "METAR LWSK 191820Z VRB01KT CAVOK M03/M07 Q1033 NOSIG",
      "taf": "TAF LWSK 191750Z 1918/2018 VRB03KT CAVOK"
    },
    {
      "icao": "LYBE",
      "alert": "OK",
      "vis_m": 9999,
      "fzfg": false,
      "metar_trigger": false,
      "taf_trigger": false,
      "metar": "METAR LYBE 191800Z 11012KT CAVOK M03/M07 Q1035 NOSIG",
      "taf": "TAF LYBE 191700Z 1918/2018 10013KT CAVOK TX03/2013Z TNM06/2005Z"
    },
    {
      "icao": "LYNI",
      "alert": "OK",
      "vis_m": 9999,
      "fzfg": false,
      "metar_trigger": false,
      "taf_trigger": false,
      "metar": "METAR LYNI 191800Z 04012KT CAVOK M03/M08 Q1034 NOSIG",
      "taf": "TAF LYNI 191700Z 1918/2018 06006KT CAVOK TX04/2013Z TNM09/2005Z"
    },
    {
      "icao": "LYPG",
      "alert": "OK",
      "vis_m": 9999,
      "fzfg": false,
      "metar_trigger": false,
      "taf_trigger": false,
      "metar": "METAR LYPG 191800Z VRB01KT CAVOK 02/M04 Q1027 NOSIG",
      "taf": "TAF LYPG 191700Z 1918/2018 35005KT CAVOK TX10/2013Z TNM03/2005Z"
    },
    {
      "icao": "LZIB",
      "alert": "OK",
      "vis_m": 9999,
      "fzfg": false,
      "metar_trigger": false,
      "taf_trigger": false,
      "metar": "METAR LZIB 191800Z 12010KT 9999 FEW010 M05/M07 Q1035 NOSIG",
      "taf": "TAF LZIB 191715Z 1918/2018 12009KT 9999 FEW015"
    },
    {
      "icao": "LZKZ",
      "alert": "OK",
      "vis_m": 7000,
      "fzfg": false,
      "metar_trigger": false,
      "taf_trigger": false,
      "metar": "METAR LZKZ 191800Z 10003KT 7000 NSC M10/M11 Q1037 NOSIG",
      "taf": "TAF LZKZ 191715Z 1918/2018 20004KT CAVOK"
    },
    {
      "icao": "LZTT",
      "alert": "OK",
      "vis_m": 9999,
      "fzfg": false,
      "metar_trigger": false,
      "taf_trigger": false,
      "metar": "METAR LZTT 191800Z 28004KT CAVOK M13/M15 Q1032 NOSIG",
      "taf": "TAF LZTT 191715Z 1918/2018 27005KT CAVOK"
    },
    {
      "icao": "OEJN",
      "alert": "OK",
      "vis_m": 9999,
      "fzfg": false,
      "metar_trigger": false,
      "taf_trigger": false,
      "metar": "METAR OEJN 191800Z 36007KT CAVOK 24/11 Q1015 NOSIG",
      "taf": "TAF OEJN 191700Z 1918/2024 02008KT 9999 FEW040"
    },
    {
      "icao": "OEMA",
      "alert": "OK",
      "vis_m": 9999,
      "fzfg": false,
      "metar_trigger": false,
      "taf_trigger": false,
      "metar": "METAR OEMA 191800Z 33004KT CAVOK 19/M05 Q1017 NOSIG",
      "taf": "TAF OEMA 191700Z 1918/2024 34008KT CAVOK"
    },
    {
      "icao": "OJAI",
      "alert": "OK",
      "vis_m": 5000,
      "fzfg": false,
      "metar_trigger": false,
      "taf_trigger": false,
      "metar": "METAR OJAI 191800Z 29006KT 5000 HZ SCT035 06/03 Q1020 NOSIG",
      "taf": "TAF OJAI 191652Z 1918/2024 29006KT 7000 FEW035"
    },
    {
      "icao": "OMAA",
      "alert": "OK",
      "vis_m": 9999,
      "fzfg": false,
      "metar_trigger": false,
      "taf_trigger": false,
      "metar": "METAR OMAA 191800Z 07006KT 040V140 CAVOK 19/12 Q1015 NOSIG",
      "taf": "TAF OMAA 191700Z 1918/2100 08005KT 8000 NSC"
    },
    {
      "icao": "OMDB",
      "alert": "OK",
      "vis_m": 9999,
      "fzfg": false,
      "metar_trigger": false,
      "taf_trigger": false,
      "metar": "METAR OMDB 191800Z 09004KT 050V110 CAVOK 21/15 Q1016 NOSIG",
      "taf": "TAF OMDB 191700Z 1918/2100 13005KT 8000 NSC"
    },
    {
      "icao": "UAAA",
      "alert": "OK",
      "vis_m": 1000,
      "fzfg": false,
      "metar_trigger": false,
      "taf_trigger": false,
      "metar": "METAR UAAA 191800Z 15001MPS 1000 R05R/P2000 BR SCT100 M14/M16 Q1025 NOSIG",
      "taf": "TAF UAAA 191703Z 1918/2018 22003MPS 1100 BR FU SCT011 BKN030 TXM07/2008Z TNM17/2003Z"
    },
    {
      "icao": "UBBB",
      "alert": "OK",
      "vis_m": 9999,
      "fzfg": false,
      "metar_trigger": false,
      "taf_trigger": false,
      "metar": "METAR UBBB 191800Z 03014KT 9999 OVC027 02/M02 Q1025 NOSIG",
      "taf": "TAF UBBB 191700Z 1918/2018 02012KT 9999 OVC025 TX03/2010Z TN00/2001Z"
    },
    {
      "icao": "UDSG",
      "alert": "OK",
      "vis_m": 9999,
      "fzfg": false,
      "metar_trigger": false,
      "taf_trigger": false,
      "metar": "METAR UDSG 191800Z 06017KT 9999 BKN043 M05/M10 Q1013 NOSIG",
      "taf": "TAF UDSG 191658Z 1918/2018 36006KT 5000 BR BKN030"
    },
    {
      "icao": "UDYZ",
      "alert": "OK",
      "vis_m": 6000,
      "fzfg": false,
      "metar_trigger": false,
      "taf_trigger": false,
      "metar": "METAR UDYZ 191800Z 06001KT 6000 -SN OVC040 00/M01 Q1013 NOSIG",
      "taf": "TAF UDYZ 191700Z 1918/2018 VRB06KT 2000 BR OVC020"
    },
    {
      "icao": "UGKO",
      "alert": "OK",
      "vis_m": 9999,
      "fzfg": false,
      "metar_trigger": false,
      "taf_trigger": false,
      "metar": "METAR UGKO 191800Z VRB02KT 9999 SCT031 BKN070 02/02 Q1021 NOSIG",
      "taf": "TAF UGKO 191700Z 1918/2018 08006KT 9999 SCT020 OVC050 TX06/2012Z TNM01/2002Z"
    }
  ]
}