{
  "ts_utc": "2026-05-03T19:18:30Z",
  "threshold_m": 150,
  "source": "stations_override.txt (ICAO list) + aviationweather.gov (METAR/TAF raw)",
  "station_count": 159,
  "stations": [
    {
      "icao": "BIKF",
      "alert": "OK",
      "vis_m": 9999,
      "fzfg": false,
      "metar_trigger": false,
      "taf_trigger": false,
      "metar": "METAR BIKF 031900Z 33011KT CAVOK 05/M03 Q1012",
      "taf": "TAF BIKF 031645Z 0318/0418 33015KT 9999 FEW030 TX06/0318Z TNM01/0406Z"
    },
    {
      "icao": "BKPR",
      "alert": "OK",
      "vis_m": 9999,
      "fzfg": false,
      "metar_trigger": false,
      "taf_trigger": false,
      "metar": "METAR BKPR 031900Z 32003KT CAVOK 09/M00 Q1020 NOSIG",
      "taf": "TAF BKPR 031730Z 0318/0418 01008KT CAVOK"
    },
    {
      "icao": "EBCI",
      "alert": "OK",
      "vis_m": 9999,
      "fzfg": false,
      "metar_trigger": false,
      "taf_trigger": false,
      "metar": "METAR EBCI 031850Z 22003KT 170V280 9999 FEW008 SCT013CB BKN024 14/13 Q1012 TEMPO 4000 SHRA",
      "taf": "TAF EBCI 031710Z 0318/0424 19005KT 9999 SCT015"
    },
    {
      "icao": "EDDB",
      "alert": "OK",
      "vis_m": 9999,
      "fzfg": false,
      "metar_trigger": false,
      "taf_trigger": false,
      "metar": "METAR EDDB 031850Z AUTO VRB01KT CAVOK 21/09 Q1010 NOSIG",
      "taf": "TAF EDDB 031700Z 0318/0418 22006KT CAVOK"
    },
    {
      "icao": "EDDH",
      "alert": "OK",
      "vis_m": 9999,
      "fzfg": false,
      "metar_trigger": false,
      "taf_trigger": false,
      "metar": "METAR EDDH 031850Z AUTO 26011KT 230V290 9999 -RA NSC 19/13 Q1009 TEMPO 23015G25KT SHRA SCT030CB",
      "taf": "TAF EDDH 031700Z 0318/0424 26006KT 9999 FEW035"
    },
    {
      "icao": "EDDK",
      "alert": "OK",
      "vis_m": 9999,
      "fzfg": false,
      "metar_trigger": false,
      "taf_trigger": false,
      "metar": "METAR EDDK 031850Z AUTO 17004KT 140V200 9999 FEW046 15/11 Q1012 NOSIG",
      "taf": "TAF EDDK 031700Z 0318/0424 16004KT 9999 SCT040"
    },
    {
      "icao": "EDDN",
      "alert": "OK",
      "vis_m": 9999,
      "fzfg": false,
      "metar_trigger": false,
      "taf_trigger": false,
      "metar": "METAR EDDN 031850Z AUTO 33003KT CAVOK 18/08 Q1012 NOSIG",
      "taf": "TAF EDDN 031700Z 0318/0418 30007KT CAVOK"
    },
    {
      "icao": "EDDS",
      "alert": "OK",
      "vis_m": 9999,
      "fzfg": false,
      "metar_trigger": false,
      "taf_trigger": false,
      "metar": "METAR EDDS 031850Z AUTO 30011KT CAVOK 18/04 Q1013 BECMG 26005KT",
      "taf": "TAF EDDS 031700Z 0318/0418 26003KT CAVOK"
    },
    {
      "icao": "EDFH",
      "alert": "OK",
      "vis_m": 9999,
      "fzfg": false,
      "metar_trigger": false,
      "taf_trigger": false,
      "metar": "METAR EDFH 031850Z 21008KT CAVOK 13/07 Q1014",
      "taf": "TAF EDFH 031700Z 0318/0418 22007KT CAVOK"
    },
    {
      "icao": "EDJA",
      "alert": "OK",
      "vis_m": 9999,
      "fzfg": false,
      "metar_trigger": false,
      "taf_trigger": false,
      "metar": "METAR EDJA 031850Z 20007KT CAVOK 16/06 Q1013",
      "taf": "TAF EDJA 031700Z 0318/0403 23004KT CAVOK"
    },
    {
      "icao": "EDLW",
      "alert": "OK",
      "vis_m": 9999,
      "fzfg": false,
      "metar_trigger": false,
      "taf_trigger": false,
      "metar": "METAR EDLW 031850Z 22007KT CAVOK 16/12 Q1011",
      "taf": "TAF EDLW 031700Z 0318/0418 22012KT CAVOK"
    },
    {
      "icao": "EDNY",
      "alert": "OK",
      "vis_m": 9999,
      "fzfg": false,
      "metar_trigger": false,
      "taf_trigger": false,
      "metar": "METAR EDNY 031850Z AUTO 27005KT 220V330 9999 // FEW023/// SCT110/// BKN130/// 16/08 Q1014",
      "taf": "TAF EDNY 031700Z 0318/0403 23003KT CAVOK"
    },
    {
      "icao": "EDSB",
      "alert": "OK",
      "vis_m": 9999,
      "fzfg": false,
      "metar_trigger": false,
      "taf_trigger": false,
      "metar": "METAR EDSB 031850Z 25007KT 200V280 9999 -RA SCT049 18/05 Q1014",
      "taf": "TAF EDSB 031700Z 0318/0418 22003KT CAVOK"
    },
    {
      "icao": "EETN",
      "alert": "OK",
      "vis_m": 9999,
      "fzfg": false,
      "metar_trigger": false,
      "taf_trigger": false,
      "metar": "METAR EETN 031850Z 28003KT CAVOK 09/04 Q1008 NOSIG",
      "taf": "TAF EETN 031730Z 0318/0418 VRB02KT CAVOK"
    },
    {
      "icao": "EFTU",
      "alert": "OK",
      "vis_m": 9999,
      "fzfg": false,
      "metar_trigger": false,
      "taf_trigger": false,
      "metar": "METAR EFTU 031850Z AUTO 33005KT 300V360 CAVOK 08/M03 Q1008",
      "taf": "TAF EFTU 031725Z 0318/0418 31005KT CAVOK"
    },
    {
      "icao": "EGBB",
      "alert": "OK",
      "vis_m": 9999,
      "fzfg": false,
      "metar_trigger": false,
      "taf_trigger": false,
      "metar": "METAR EGBB 031850Z 36007KT 9999 FEW015 SCT043 13/10 Q1010",
      "taf": "TAF EGBB 031655Z 0318/0418 31010KT 9999 SCT030"
    },
    {
      "icao": "EGGP",
      "alert": "OK",
      "vis_m": 9999,
      "fzfg": false,
      "metar_trigger": false,
      "taf_trigger": false,
      "metar": "METAR EGGP 031850Z 04006KT 020V080 9999 BKN025 12/08 Q1011",
      "taf": "TAF EGGP 031702Z 0318/0418 04008KT 9999 BKN025"
    },
    {
      "icao": "EGGW",
      "alert": "OK",
      "vis_m": 9999,
      "fzfg": false,
      "metar_trigger": false,
      "taf_trigger": false,
      "metar": "METAR EGGW 031850Z AUTO 04004KT 330V080 9999 NCD 15/09 Q1009",
      "taf": ""
    },
    {
      "icao": "EGKK",
      "alert": "OK",
      "vis_m": 9999,
      "fzfg": false,
      "metar_trigger": false,
      "taf_trigger": false,
      "metar": "METAR EGKK 031850Z 24005KT 200V260 CAVOK 16/11 Q1009",
      "taf": "TAF EGKK 031656Z 0318/0424 24006KT 9999 SCT030"
    },
    {
      "icao": "EGNM",
      "alert": "OK",
      "vis_m": 8000,
      "fzfg": false,
      "metar_trigger": false,
      "taf_trigger": false,
      "metar": "METAR EGNM 031850Z 01011KT 8000 -DZ SCT004 BKN005 08/08 Q1011",
      "taf": "TAF EGNM 031702Z 0318/0418 03009KT 9999 BKN010"
    },
    {
      "icao": "EGPD",
      "alert": "OK",
      "vis_m": 9999,
      "fzfg": false,
      "metar_trigger": false,
      "taf_trigger": false,
      "metar": "METAR EGPD 031850Z COR AUTO 17006KT 9999 OVC019 08/04 Q1013 NOSIG",
      "taf": "TAF EGPD 031657Z 0318/0418 17004KT 9999 SCT025"
    },
    {
      "icao": "EGPF",
      "alert": "OK",
      "vis_m": 9999,
      "fzfg": false,
      "metar_trigger": false,
      "taf_trigger": false,
      "metar": "METAR EGPF 031850Z AUTO 12005KT 030V140 9999 FEW024 11/06 Q1013",
      "taf": "TAF EGPF 031655Z 0318/0418 09010KT 9999 BKN035"
    },
    {
      "icao": "EHBK",
      "alert": "OK",
      "vis_m": 9999,
      "fzfg": false,
      "metar_trigger": false,
      "taf_trigger": false,
      "metar": "METAR EHBK 031855Z AUTO 22009KT 9999 FEW035 BKN044 15/12 Q1011 NOSIG",
      "taf": "TAF EHBK 031716Z 0318/0424 19007KT 9999 BKN030"
    },
    {
      "icao": "EHEH",
      "alert": "OK",
      "vis_m": 9999,
      "fzfg": false,
      "metar_trigger": false,
      "taf_trigger": false,
      "metar": "METAR EHEH 031855Z AUTO 23008KT 9999 -RADZ FEW009 FEW015CB BKN053 OVC058 14/12 Q1011 RERA REDZ BLU TEMPO 4500 SHRA SCT040CB",
      "taf": "TAF EHEH 031730Z 0318/0424 19009KT 9999 FEW018 BKN022"
    },
    {
      "icao": "EKBI",
      "alert": "OK",
      "vis_m": 2600,
      "fzfg": false,
      "metar_trigger": false,
      "taf_trigger": false,
      "metar": "METAR EKBI 031850Z AUTO 30005KT 2600 RA OVC012/// 12/12 Q1008",
      "taf": ""
    },
    {
      "icao": "EKCH",
      "alert": "OK",
      "vis_m": 7000,
      "fzfg": false,
      "metar_trigger": false,
      "taf_trigger": false,
      "metar": "METAR EKCH 031850Z AUTO 01006KT 7000 SCT071/// BKN140/// BKN210/// 13/10 Q1008 TEMPO 4000 RADZ SCT040CB",
      "taf": "TAF EKCH 031727Z 0318/0418 15008KT 9999 FEW020"
    },
    {
      "icao": "ENAL",
      "alert": "OK",
      "vis_m": 9999,
      "fzfg": false,
      "metar_trigger": false,
      "taf_trigger": false,
      "metar": "METAR ENAL 031850Z 23016KT 9999 FEW037 06/M00 Q1006",
      "taf": "TAF ENAL 031700Z 0318/0403 24015KT 9999 FEW045"
    },
    {
      "icao": "ENBR",
      "alert": "OK",
      "vis_m": 9999,
      "fzfg": false,
      "metar_trigger": false,
      "taf_trigger": false,
      "metar": "METAR ENBR 031850Z 32008KT CAVOK 05/M02 Q1010 NOSIG RMK WIND 1200FT 33012KT",
      "taf": "TAF ENBR 031700Z 0318/0418 32010KT 9999 FEW025"
    },
    {
      "icao": "ENGM",
      "alert": "OK",
      "vis_m": 9999,
      "fzfg": false,
      "metar_trigger": false,
      "taf_trigger": false,
      "metar": "METAR ENGM 031850Z 16009KT 9999 FEW034 10/03 Q1006 NOSIG",
      "taf": "TAF ENGM 031700Z 0318/0418 18010KT 9999 FEW035"
    },
    {
      "icao": "ENHD",
      "alert": "OK",
      "vis_m": 9999,
      "fzfg": false,
      "metar_trigger": false,
      "taf_trigger": false,
      "metar": "METAR ENHD 031850Z 34016KT CAVOK 06/01 Q1010",
      "taf": "TAF ENHD 031400Z 0315/0322 34015KT CAVOK"
    },
    {
      "icao": "ENTC",
      "alert": "OK",
      "vis_m": 9999,
      "fzfg": false,
      "metar_trigger": false,
      "taf_trigger": false,
      "metar": "METAR ENTC 031850Z 20009KT 9999 BKN039 02/M03 Q1002 NOSIG RMK WIND 2600FT 20017KT",
      "taf": "TAF ENTC 031700Z 0318/0418 20017KT 9999 SCT020 BKN030"
    },
    {
      "icao": "ENTO",
      "alert": "OK",
      "vis_m": 8000,
      "fzfg": false,
      "metar_trigger": false,
      "taf_trigger": false,
      "metar": "METAR ENTO 031850Z 19008KT 8000 BKN002 09/09 Q1007 TEMPO SCT002 BKN005",
      "taf": ""
    },
    {
      "icao": "ENVA",
      "alert": "OK",
      "vis_m": 9999,
      "fzfg": false,
      "metar_trigger": false,
      "taf_trigger": false,
      "metar": "METAR ENVA 031850Z 26003KT 200V290 CAVOK 07/M02 Q1006 RMK WIND 670FT 30004KT",
      "taf": "TAF ENVA 031700Z 0318/0418 33005KT CAVOK"
    },
    {
      "icao": "ENZV",
      "alert": "OK",
      "vis_m": 9999,
      "fzfg": false,
      "metar_trigger": false,
      "taf_trigger": false,
      "metar": "METAR ENZV 031850Z 33013KT CAVOK 07/01 Q1010 NOSIG",
      "taf": "TAF ENZV 031700Z 0318/0418 31012KT CAVOK"
    },
    {
      "icao": "EPGD",
      "alert": "OK",
      "vis_m": 9999,
      "fzfg": false,
      "metar_trigger": false,
      "taf_trigger": false,
      "metar": "METAR EPGD 031900Z VRB02KT CAVOK 17/05 Q1011",
      "taf": "TAF EPGD 031730Z 0318/0418 02010KT CAVOK"
    },
    {
      "icao": "EPKK",
      "alert": "OK",
      "vis_m": 9999,
      "fzfg": false,
      "metar_trigger": false,
      "taf_trigger": false,
      "metar": "METAR EPKK 031900Z 27003KT CAVOK 16/06 Q1015",
      "taf": "TAF EPKK 031730Z 0318/0418 24004KT CAVOK"
    },
    {
      "icao": "EPKT",
      "alert": "OK",
      "vis_m": 9999,
      "fzfg": false,
      "metar_trigger": false,
      "taf_trigger": false,
      "metar": "METAR EPKT 031900Z 22005KT CAVOK 17/04 Q1015",
      "taf": "TAF EPKT 031730Z 0318/0418 22010KT CAVOK"
    },
    {
      "icao": "EPLB",
      "alert": "OK",
      "vis_m": 9999,
      "fzfg": false,
      "metar_trigger": false,
      "taf_trigger": false,
      "metar": "METAR EPLB 031900Z 20004KT CAVOK 17/05 Q1015",
      "taf": "TAF EPLB 031730Z 0318/0418 21010KT CAVOK"
    },
    {
      "icao": "EPMO",
      "alert": "OK",
      "vis_m": 9999,
      "fzfg": false,
      "metar_trigger": false,
      "taf_trigger": false,
      "metar": "METAR EPMO 031900Z 18004KT CAVOK 20/02 Q1013",
      "taf": "TAF EPMO 031730Z 0318/0418 20010KT CAVOK"
    },
    {
      "icao": "EPPO",
      "alert": "OK",
      "vis_m": 9999,
      "fzfg": false,
      "metar_trigger": false,
      "taf_trigger": false,
      "metar": "METAR EPPO 031900Z 17007KT CAVOK 22/02 Q1011",
      "taf": "TAF EPPO 031730Z 0318/0418 18008KT CAVOK"
    },
    {
      "icao": "EPRA",
      "alert": "OK",
      "vis_m": 9999,
      "fzfg": false,
      "metar_trigger": false,
      "taf_trigger": false,
      "metar": "METAR EPRA 031900Z 20006KT CAVOK 18/01 Q1015",
      "taf": "TAF EPRA 031730Z 0318/0403 20007KT CAVOK"
    },
    {
      "icao": "EPRZ",
      "alert": "OK",
      "vis_m": 9999,
      "fzfg": false,
      "metar_trigger": false,
      "taf_trigger": false,
      "metar": "METAR EPRZ 031900Z 16005KT CAVOK 17/03 Q1016",
      "taf": "TAF EPRZ 031730Z 0318/0418 19008KT CAVOK"
    },
    {
      "icao": "EPSC",
      "alert": "OK",
      "vis_m": 9999,
      "fzfg": false,
      "metar_trigger": false,
      "taf_trigger": false,
      "metar": "METAR EPSC 031900Z 09002KT CAVOK 19/08 Q1009",
      "taf": "TAF EPSC 031730Z 0318/0418 25010KT CAVOK"
    },
    {
      "icao": "EPSY",
      "alert": "OK",
      "vis_m": 9999,
      "fzfg": false,
      "metar_trigger": false,
      "taf_trigger": false,
      "metar": "METAR EPSY 031900Z 20003KT CAVOK 17/03 Q1012",
      "taf": "TAF EPSY 031730Z 0318/0403 21010KT CAVOK"
    },
    {
      "icao": "EPWA",
      "alert": "OK",
      "vis_m": 9999,
      "fzfg": false,
      "metar_trigger": false,
      "taf_trigger": false,
      "metar": "METAR EPWA 031900Z 19004KT CAVOK 21/02 Q1014 NOSIG",
      "taf": "TAF EPWA 031730Z 0318/0418 20010KT CAVOK"
    },
    {
      "icao": "EPWR",
      "alert": "OK",
      "vis_m": 9999,
      "fzfg": false,
      "metar_trigger": false,
      "taf_trigger": false,
      "metar": "METAR EPWR 031900Z 20006KT 160V220 CAVOK 22/03 Q1013",
      "taf": "TAF EPWR 031730Z 0318/0418 18008KT CAVOK"
    },
    {
      "icao": "ESGG",
      "alert": "OK",
      "vis_m": 9999,
      "fzfg": false,
      "metar_trigger": false,
      "taf_trigger": false,
      "metar": "METAR ESGG 031850Z 20004KT CAVOK 10/07 Q1008",
      "taf": "TAF ESGG 031730Z 0318/0418 21006KT CAVOK"
    },
    {
      "icao": "ESKN",
      "alert": "OK",
      "vis_m": 9999,
      "fzfg": false,
      "metar_trigger": false,
      "taf_trigger": false,
      "metar": "METAR ESKN 031850Z 15006KT CAVOK 07/03 Q1009",
      "taf": "TAF ESKN 031730Z 0318/0418 15007KT 9999 SCT035"
    },
    {
      "icao": "ESMS",
      "alert": "OK",
      "vis_m": 9999,
      "fzfg": false,
      "metar_trigger": false,
      "taf_trigger": false,
      "metar": "METAR ESMS 031850Z 06002KT CAVOK 14/09 Q1008",
      "taf": "TAF ESMS 031727Z 0318/0418 27008KT 9999 FEW020"
    },
    {
      "icao": "ESSA",
      "alert": "OK",
      "vis_m": 9999,
      "fzfg": false,
      "metar_trigger": false,
      "taf_trigger": false,
      "metar": "METAR ESSA 031850Z 09005KT 9999 BKN024 05/02 Q1009 NOSIG",
      "taf": "TAF ESSA 031730Z 0318/0418 10005KT 9999 SCT012 BKN025"
    },
    {
      "icao": "EYKA",
      "alert": "OK",
      "vis_m": 9999,
      "fzfg": false,
      "metar_trigger": false,
      "taf_trigger": false,
      "metar": "METAR EYKA 031850Z 19003KT CAVOK 15/04 Q1011",
      "taf": "TAF EYKA 031702Z 0318/0418 VRB04KT 9000 NSC"
    },
    {
      "icao": "EYPA",
      "alert": "OK",
      "vis_m": 9999,
      "fzfg": false,
      "metar_trigger": false,
      "taf_trigger": false,
      "metar": "METAR EYPA 031850Z VRB01KT CAVOK 12/06 Q1010",
      "taf": "TAF EYPA 031702Z 0318/0418 VRB03KT 9000 NSC"
    },
    {
      "icao": "EYVI",
      "alert": "OK",
      "vis_m": 9999,
      "fzfg": false,
      "metar_trigger": false,
      "taf_trigger": false,
      "metar": "METAR EYVI 031850Z 24003KT 210V280 CAVOK 14/04 Q1012 NOSIG",
      "taf": "TAF EYVI 031701Z 0318/0418 VRB04KT 9000 NSC"
    },
    {
      "icao": "GCFV",
      "alert": "OK",
      "vis_m": 9999,
      "fzfg": false,
      "metar_trigger": false,
      "taf_trigger": false,
      "metar": "METAR GCFV 031900Z 03007KT 9999 FEW025 20/16 Q1016",
      "taf": ""
    },
    {
      "icao": "GCLP",
      "alert": "OK",
      "vis_m": 9999,
      "fzfg": false,
      "metar_trigger": false,
      "taf_trigger": false,
      "metar": "METAR GCLP 031900Z 03014KT 9999 FEW025 20/16 Q1016 NOSIG",
      "taf": "TAF GCLP 031400Z 0315/0415 03015KT 9999 FEW025 TX24/0414Z TN18/0406Z"
    },
    {
      "icao": "GCTS",
      "alert": "OK",
      "vis_m": 9999,
      "fzfg": false,
      "metar_trigger": false,
      "taf_trigger": false,
      "metar": "METAR GCTS 031900Z 11009KT 9999 BKN030 20/15 Q1016 NOSIG",
      "taf": "TAF GCTS 031400Z 0315/0415 09015KT 9999 FEW025 TX25/0414Z TN18/0406Z"
    },
    {
      "icao": "GMAD",
      "alert": "OK",
      "vis_m": 9999,
      "fzfg": false,
      "metar_trigger": false,
      "taf_trigger": false,
      "metar": "METAR GMAD 031900Z 18013KT CAVOK 19/15 Q1011 NOSIG",
      "taf": "TAF GMAD 031700Z 0318/0424 23012KT CAVOK"
    },
    {
      "icao": "GMMN",
      "alert": "OK",
      "vis_m": 9999,
      "fzfg": false,
      "metar_trigger": false,
      "taf_trigger": false,
      "metar": "METAR GMMN 031900Z 35010KT 9999 FEW026 BKN100 18/13 Q1015 NOSIG",
      "taf": "TAF GMMN 031700Z 0318/0424 35008KT 9999 SCT030"
    },
    {
      "icao": "GMMX",
      "alert": "OK",
      "vis_m": 9999,
      "fzfg": false,
      "metar_trigger": false,
      "taf_trigger": false,
      "metar": "METAR GMMX 031900Z 24007KT 9999 FEW040 SCT080 26/12 Q1013 NOSIG",
      "taf": "TAF GMMX 031700Z 0318/0424 28006KT 8000 NSC"
    },
    {
      "icao": "HEGN",
      "alert": "OK",
      "vis_m": 9999,
      "fzfg": false,
      "metar_trigger": false,
      "taf_trigger": false,
      "metar": "METAR HEGN 031900Z 33015KT 9999 SCT025 29/11 Q1010 NOSIG",
      "taf": "TAF HEGN 031700Z 0318/0424 33008G22KT 6000 SCT025"
    },
    {
      "icao": "HEMA",
      "alert": "OK",
      "vis_m": 6000,
      "fzfg": false,
      "metar_trigger": false,
      "taf_trigger": false,
      "metar": "METAR HEMA 031900Z 31009KT 6000 NSC 30/07 Q1010 NOSIG",
      "taf": "TAF HEMA 031700Z 0318/0424 33008G22KT 6000 SCT025"
    },
    {
      "icao": "HESH",
      "alert": "OK",
      "vis_m": 9999,
      "fzfg": false,
      "metar_trigger": false,
      "taf_trigger": false,
      "metar": "METAR HESH 031900Z 29011KT 9999 SCT030 31/10 Q1009 NOSIG",
      "taf": "TAF HESH 031700Z 0318/0424 26008G22KT 6000 SCT025"
    },
    {
      "icao": "HESX",
      "alert": "OK",
      "vis_m": 9999,
      "fzfg": false,
      "metar_trigger": false,
      "taf_trigger": false,
      "metar": "METAR HESX 031900Z 33006KT CAVOK 16/06 Q1015 NOSIG",
      "taf": "TAF HESX 031700Z 0318/0424 32014KT 9999 FEW025"
    },
    {
      "icao": "LATI",
      "alert": "OK",
      "vis_m": null,
      "fzfg": false,
      "metar_trigger": false,
      "taf_trigger": false,
      "metar": "",
      "taf": "TAF LATI 031700Z 0318/0418 34012KT CAVOK TX24/0413Z TN06/0404Z"
    },
    {
      "icao": "LBPD",
      "alert": "OK",
      "vis_m": 9999,
      "fzfg": false,
      "metar_trigger": false,
      "taf_trigger": false,
      "metar": "METAR LBPD 031900Z AUTO 27005KT 9999 SCT088/// 08/01 Q1020 NOSIG",
      "taf": "TAF LBPD 031700Z 0318/0418 30010KT 9999 SCT060 BKN080"
    },
    {
      "icao": "LBSF",
      "alert": "OK",
      "vis_m": 9999,
      "fzfg": false,
      "metar_trigger": false,
      "taf_trigger": false,
      "metar": "METAR LBSF 031900Z AUTO VRB02KT 9999 NCD 04/M01 Q1020 NOSIG",
      "taf": "TAF LBSF 031700Z 0318/0418 03010KT 9999 SCT050"
    },
    {
      "icao": "LBWN",
      "alert": "OK",
      "vis_m": 9999,
      "fzfg": false,
      "metar_trigger": false,
      "taf_trigger": false,
      "metar": "METAR LBWN 031900Z AUTO 33005KT 9999 NCD 06/01 Q1018 NOSIG",
      "taf": "TAF LBWN 031700Z 0318/0418 05012KT 9999 SCT045"
    },
    {
      "icao": "LCLK",
      "alert": "OK",
      "vis_m": 9999,
      "fzfg": false,
      "metar_trigger": false,
      "taf_trigger": false,
      "metar": "METAR LCLK 031900Z 23009KT 9999 FEW025 15/09 Q1009 NOSIG",
      "taf": "TAF LCLK 031730Z 0318/0418 24016KT 9999 FEW018 SCT030"
    },
    {
      "icao": "LCPH",
      "alert": "OK",
      "vis_m": 9999,
      "fzfg": false,
      "metar_trigger": false,
      "taf_trigger": false,
      "metar": "METAR LCPH 031900Z 26020KT 250V310 9999 SCT030 SCT042 17/08 Q1009 NOSIG",
      "taf": "TAF LCPH 031730Z 0318/0418 28020KT 9999 FEW020 SCT035"
    },
    {
      "icao": "LEAL",
      "alert": "OK",
      "vis_m": 9999,
      "fzfg": false,
      "metar_trigger": false,
      "taf_trigger": false,
      "metar": "METAR LEAL 031900Z 08008KT 9999 FEW010 BKN014 19/16 Q1013 NOSIG",
      "taf": ""
    },
    {
      "icao": "LEBB",
      "alert": "OK",
      "vis_m": 8000,
      "fzfg": false,
      "metar_trigger": false,
      "taf_trigger": false,
      "metar": "METAR LEBB 031900Z VRB01KT 8000 -RA FEW008 SCT016 BKN050 15/15 Q1011 RERA NOSIG",
      "taf": "TAF LEBB 031700Z 0318/0418 30009KT 9000 FEW020 SCT040 TX18/0318Z TN12/0412Z"
    },
    {
      "icao": "LEBL",
      "alert": "OK",
      "vis_m": 8000,
      "fzfg": false,
      "metar_trigger": false,
      "taf_trigger": false,
      "metar": "METAR LEBL 031900Z 07006KT 8000 -DZ FEW020TCU SCT030 BKN050 17/17 Q1014 RERA NOSIG",
      "taf": "TAF LEBL 031700Z 0318/0418 10008KT 9999 SCT020 TX21/0412Z TN14/0406Z"
    },
    {
      "icao": "LECH",
      "alert": "OK",
      "vis_m": 9000,
      "fzfg": false,
      "metar_trigger": false,
      "taf_trigger": false,
      "metar": "METAR LECH 031900Z AUTO 10005KT 9000 OVC031 15/12 Q1014",
      "taf": "TAF LECH 031700Z 0318/0418 VRB04KT 9999 SCT010 TX22/0413Z TN12/0405Z"
    },
    {
      "icao": "LEMD",
      "alert": "OK",
      "vis_m": 9000,
      "fzfg": false,
      "metar_trigger": false,
      "taf_trigger": false,
      "metar": "METAR LEMD 031900Z 26008KT 230V300 9000 NSC 18/08 Q1011 NOSIG",
      "taf": "TAF LEMD 031700Z 0318/0424 23010KT 9999 FEW050 TX20/0416Z TN08/0405Z"
    },
    {
      "icao": "LEMG",
      "alert": "OK",
      "vis_m": 9999,
      "fzfg": false,
      "metar_trigger": false,
      "taf_trigger": false,
      "metar": "METAR LEMG 031900Z 11005KT 070V140 9999 FEW050 18/15 Q1012 NOSIG",
      "taf": "TAF LEMG 031700Z 0318/0418 15010KT 9999 FEW030 TX26/0414Z TN15/0407Z"
    },
    {
      "icao": "LEVC",
      "alert": "OK",
      "vis_m": 9999,
      "fzfg": false,
      "metar_trigger": false,
      "taf_trigger": false,
      "metar": "METAR LEVC 031900Z 09007KT 060V120 9999 SCT016 BKN032 OVC055 18/14 Q1013 NOSIG",
      "taf": ""
    },
    {
      "icao": "LEXJ",
      "alert": "OK",
      "vis_m": 600,
      "fzfg": false,
      "metar_trigger": false,
      "taf_trigger": false,
      "metar": "METAR LEXJ 031900Z 30015KT 0600 R29/P2000 R11/1700D +SHRA BKN010 SCT034CB OVC035 16/14 Q1012",
      "taf": ""
    },
    {
      "icao": "LEZG",
      "alert": "OK",
      "vis_m": 9999,
      "fzfg": false,
      "metar_trigger": false,
      "taf_trigger": false,
      "metar": "METAR LEZG 031900Z 05003KT 350V110 9999 BKN060 BKN080 16/14 Q1012 NOSIG",
      "taf": ""
    },
    {
      "icao": "LEZL",
      "alert": "OK",
      "vis_m": 9999,
      "fzfg": false,
      "metar_trigger": false,
      "taf_trigger": false,
      "metar": "METAR LEZL 031900Z 25013KT 220V280 CAVOK 20/10 Q1013 NOSIG",
      "taf": "TAF LEZL 031400Z 0315/0415 23009KT 9999 FEW030 TX27/0415Z TN13/0407Z"
    },
    {
      "icao": "LFBD",
      "alert": "OK",
      "vis_m": 9999,
      "fzfg": false,
      "metar_trigger": false,
      "taf_trigger": false,
      "metar": "METAR LFBD 031900Z AUTO VRB03KT 9999 ///CB 17/15 Q1011 TEMPO 3000 SHRA BKN010 BKN030CB",
      "taf": "TAF LFBD 031700Z 0318/0424 32005KT 9999 BKN040 TX18/0318Z TN12/0405Z"
    },
    {
      "icao": "LFLL",
      "alert": "OK",
      "vis_m": 9999,
      "fzfg": false,
      "metar_trigger": false,
      "taf_trigger": false,
      "metar": "METAR LFLL 031900Z 15006KT CAVOK 17/06 Q1014 NOSIG",
      "taf": "TAF LFLL 031700Z 0318/0424 18008KT CAVOK"
    },
    {
      "icao": "LFLS",
      "alert": "OK",
      "vis_m": 9999,
      "fzfg": false,
      "metar_trigger": false,
      "taf_trigger": false,
      "metar": "METAR LFLS 031900Z AUTO 24007KT 200V270 CAVOK 16/06 Q1015 NOSIG",
      "taf": "TAF LFLS 031400Z 0315/0415 24010KT CAVOK"
    },
    {
      "icao": "LFMN",
      "alert": "OK",
      "vis_m": 9999,
      "fzfg": false,
      "metar_trigger": false,
      "taf_trigger": false,
      "metar": "METAR LFMN 031900Z 12005KT CAVOK 17/13 Q1018 NOSIG",
      "taf": "TAF LFMN 031400Z 0315/0421 12005KT CAVOK"
    },
    {
      "icao": "LFOB",
      "alert": "OK",
      "vis_m": 9999,
      "fzfg": false,
      "metar_trigger": false,
      "taf_trigger": false,
      "metar": "METAR LFOB 031900Z AUTO 32005KT 9999 FEW041 SCT060 BKN170 15/13 Q1010 TEMPO VRB15G25KT 4000 SHRA BKN020CB",
      "taf": "TAF LFOB 031700Z 0318/0418 22007KT 9999 SCT030 BKN070"
    },
    {
      "icao": "LFPO",
      "alert": "OK",
      "vis_m": 9999,
      "fzfg": false,
      "metar_trigger": false,
      "taf_trigger": false,
      "metar": "METAR LFPO 031900Z AUTO 22005KT 9999 SCT038/// BKN052/// BKN094/// ///TCU 17/13 Q1011 TEMPO 4000 -SHRA FEW030CB",
      "taf": "TAF LFPO 031700Z 0318/0424 19008KT 9999 SCT030"
    },
    {
      "icao": "LFSB",
      "alert": "OK",
      "vis_m": 9999,
      "fzfg": false,
      "metar_trigger": false,
      "taf_trigger": false,
      "metar": "METAR LFSB 031900Z AUTO 00000KT CAVOK 16/07 Q1015 NOSIG",
      "taf": "TAF LFSB 031700Z 0318/0418 28008KT CAVOK"
    },
    {
      "icao": "LGAV",
      "alert": "OK",
      "vis_m": 9999,
      "fzfg": false,
      "metar_trigger": false,
      "taf_trigger": false,
      "metar": "METAR LGAV 031850Z 30005KT 9999 FEW025 12/02 Q1018 NOSIG",
      "taf": "TAF LGAV 031700Z 0318/0418 36013KT 9999 SCT025"
    },
    {
      "icao": "LGTS",
      "alert": "OK",
      "vis_m": 9999,
      "fzfg": false,
      "metar_trigger": false,
      "taf_trigger": false,
      "metar": "METAR LGTS 031850Z 16006KT 9999 FEW025 14/04 Q1018 NOSIG",
      "taf": "TAF LGTS 031700Z 0318/0418 VRB03KT 9999 FEW030"
    },
    {
      "icao": "LHBP",
      "alert": "OK",
      "vis_m": 9999,
      "fzfg": false,
      "metar_trigger": false,
      "taf_trigger": false,
      "metar": "METAR LHBP 031900Z 09006KT CAVOK 16/01 Q1018 NOSIG",
      "taf": "TAF LHBP 031715Z 0318/0418 12007KT CAVOK"
    },
    {
      "icao": "LHDC",
      "alert": "OK",
      "vis_m": 9999,
      "fzfg": false,
      "metar_trigger": false,
      "taf_trigger": false,
      "metar": "METAR LHDC 031845Z AUTO VRB02KT CAVOK 16/02 Q1018 NOSIG",
      "taf": "TAF LHDC 031715Z 0318/0403 VRB03KT CAVOK"
    },
    {
      "icao": "LIBD",
      "alert": "OK",
      "vis_m": 9999,
      "fzfg": false,
      "metar_trigger": false,
      "taf_trigger": false,
      "metar": "METAR LIBD 031850Z VRB02KT CAVOK 16/07 Q1017",
      "taf": "TAF LIBD 031700Z 0318/0418 VRB05KT CAVOK"
    },
    {
      "icao": "LIBG",
      "alert": "OK",
      "vis_m": 9999,
      "fzfg": false,
      "metar_trigger": false,
      "taf_trigger": false,
      "metar": "METAR LIBG 031750Z 35004KT CAVOK 19/07 Q1017",
      "taf": "TAF LIBG 031400Z 0315/0324 35015KT CAVOK"
    },
    {
      "icao": "LIBP",
      "alert": "OK",
      "vis_m": 9999,
      "fzfg": false,
      "metar_trigger": false,
      "taf_trigger": false,
      "metar": "METAR LIBP 031850Z AUTO VRB02KT 9999 NCD 14/08 Q1017",
      "taf": "TAF LIBP 031700Z 0318/0418 VRB05KT CAVOK"
    },
    {
      "icao": "LIBR",
      "alert": "OK",
      "vis_m": 9999,
      "fzfg": false,
      "metar_trigger": false,
      "taf_trigger": false,
      "metar": "METAR LIBR 031850Z 07001KT CAVOK 16/10 Q1017",
      "taf": "TAF LIBR 031700Z 0318/0418 VRB05KT CAVOK"
    },
    {
      "icao": "LICA",
      "alert": "OK",
      "vis_m": 9999,
      "fzfg": false,
      "metar_trigger": false,
      "taf_trigger": false,
      "metar": "METAR LICA 031850Z AUTO 25008KT 9999 FEW019/// 17/14 Q1020",
      "taf": "TAF LICA 031700Z 0318/0418 27012KT CAVOK"
    },
    {
      "icao": "LICC",
      "alert": "OK",
      "vis_m": 9999,
      "fzfg": false,
      "metar_trigger": false,
      "taf_trigger": false,
      "metar": "METAR LICC 031850Z 18003KT 150V220 9999 SCT050 18/11 Q1020",
      "taf": "TAF LICC 031700Z 0318/0418 09011KT CAVOK"
    },
    {
      "icao": "LICJ",
      "alert": "OK",
      "vis_m": 9999,
      "fzfg": false,
      "metar_trigger": false,
      "taf_trigger": false,
      "metar": "METAR LICJ 031850Z 20007KT CAVOK 17/09 Q1019",
      "taf": "TAF LICJ 031700Z 0318/0418 04010KT CAVOK"
    },
    {
      "icao": "LIMC",
      "alert": "OK",
      "vis_m": 9999,
      "fzfg": false,
      "metar_trigger": false,
      "taf_trigger": false,
      "metar": "METAR LIMC 031850Z 18004KT 150V220 CAVOK 19/04 Q1016 NOSIG",
      "taf": "TAF LIMC 031700Z 0318/0424 VRB05KT CAVOK"
    },
    {
      "icao": "LIME",
      "alert": "OK",
      "vis_m": 9999,
      "fzfg": false,
      "metar_trigger": false,
      "taf_trigger": false,
      "metar": "METAR LIME 031850Z 27004KT 230V290 9999 SCT090 21/04 Q1016 NOSIG",
      "taf": "TAF LIME 031700Z 0318/0418 VRB05KT CAVOK"
    },
    {
      "icao": "LIMF",
      "alert": "OK",
      "vis_m": 9999,
      "fzfg": false,
      "metar_trigger": false,
      "taf_trigger": false,
      "metar": "METAR LIMF 031850Z 10003KT 9999 FEW130 18/09 Q1017",
      "taf": "TAF LIMF 031700Z 0318/0418 VRB05KT 9999 SCT030"
    },
    {
      "icao": "LIMJ",
      "alert": "OK",
      "vis_m": 9999,
      "fzfg": false,
      "metar_trigger": false,
      "taf_trigger": false,
      "metar": "METAR LIMJ 031850Z 00000KT CAVOK 17/12 Q1018",
      "taf": "TAF LIMJ 031700Z 0318/0418 VRB05KT CAVOK"
    },
    {
      "icao": "LIPE",
      "alert": "OK",
      "vis_m": 9999,
      "fzfg": false,
      "metar_trigger": false,
      "taf_trigger": false,
      "metar": "METAR LIPE 031850Z 14006KT 110V180 CAVOK 20/08 Q1016",
      "taf": "TAF LIPE 031700Z 0318/0418 VRB05KT CAVOK"
    },
    {
      "icao": "LIPH",
      "alert": "OK",
      "vis_m": 9999,
      "fzfg": false,
      "metar_trigger": false,
      "taf_trigger": false,
      "metar": "METAR LIPH 031850Z 15003KT CAVOK 18/08 Q1016",
      "taf": "TAF LIPH 031700Z 0318/0418 VRB05KT CAVOK"
    },
    {
      "icao": "LIPQ",
      "alert": "OK",
      "vis_m": 9999,
      "fzfg": false,
      "metar_trigger": false,
      "taf_trigger": false,
      "metar": "METAR LIPQ 031850Z AUTO 11004KT 9999 NCD 17/06 Q1016",
      "taf": "TAF LIPQ 031700Z 0318/0418 VRB05KT CAVOK"
    },
    {
      "icao": "LIPR",
      "alert": "OK",
      "vis_m": 9999,
      "fzfg": false,
      "metar_trigger": false,
      "taf_trigger": false,
      "metar": "METAR LIPR 031850Z AUTO 18003KT 150V250 9999 NCD 19/08 Q1016",
      "taf": "TAF LIPR 031700Z 0318/0418 VRB05KT CAVOK"
    },
    {
      "icao": "LIPX",
      "alert": "OK",
      "vis_m": 9999,
      "fzfg": false,
      "metar_trigger": false,
      "taf_trigger": false,
      "metar": "METAR LIPX 031850Z 29003KT CAVOK 20/07 Q1016",
      "taf": "TAF LIPX 031700Z 0318/0418 VRB05KT CAVOK"
    },
    {
      "icao": "LIPY",
      "alert": "OK",
      "vis_m": 9000,
      "fzfg": false,
      "metar_trigger": false,
      "taf_trigger": false,
      "metar": "METAR LIPY 031850Z AUTO 22003KT 9000 NCD 18/08 Q1016",
      "taf": "TAF LIPY 031700Z 0318/0418 VRB05KT CAVOK"
    },
    {
      "icao": "LIPZ",
      "alert": "OK",
      "vis_m": 9999,
      "fzfg": false,
      "metar_trigger": false,
      "taf_trigger": false,
      "metar": "METAR LIPZ 031850Z 17003KT CAVOK 18/11 Q1016 NOSIG",
      "taf": "TAF LIPZ 031700Z 0318/0424 15010KT CAVOK"
    },
    {
      "icao": "LIRF",
      "alert": "OK",
      "vis_m": 9999,
      "fzfg": false,
      "metar_trigger": false,
      "taf_trigger": false,
      "metar": "METAR LIRF 031850Z 26006KT CAVOK 16/12 Q1019 NOSIG",
      "taf": "TAF LIRF 031700Z 0318/0424 27012KT 9999 SCT040"
    },
    {
      "icao": "LIRN",
      "alert": "OK",
      "vis_m": 9999,
      "fzfg": false,
      "metar_trigger": false,
      "taf_trigger": false,
      "metar": "METAR LIRN 031850Z 30006KT CAVOK 17/10 Q1019 NOSIG",
      "taf": "TAF LIRN 031700Z 0318/0418 VRB05KT 9999 FEW050"
    },
    {
      "icao": "LIRP",
      "alert": "OK",
      "vis_m": 9999,
      "fzfg": false,
      "metar_trigger": false,
      "taf_trigger": false,
      "metar": "METAR LIRP 031845Z 31003KT CAVOK 16/11 Q1018 NOSIG",
      "taf": "TAF LIRP 031700Z 0318/0418 26008KT CAVOK"
    },
    {
      "icao": "LIRZ",
      "alert": "OK",
      "vis_m": 9999,
      "fzfg": false,
      "metar_trigger": false,
      "taf_trigger": false,
      "metar": "METAR LIRZ 031850Z AUTO 02003KT 330V040 9999 NCD 17/09 Q1017",
      "taf": "TAF LIRZ 031700Z 0318/0418 VRB05KT 9999 SCT060"
    },
    {
      "icao": "LJLJ",
      "alert": "OK",
      "vis_m": 9999,
      "fzfg": false,
      "metar_trigger": false,
      "taf_trigger": false,
      "metar": "METAR LJLJ 031900Z VRB02KT CAVOK 16/07 Q1017 NOSIG",
      "taf": "TAF LJLJ 031700Z 0318/0418 26004KT CAVOK"
    },
    {
      "icao": "LKMT",
      "alert": "OK",
      "vis_m": 9999,
      "fzfg": false,
      "metar_trigger": false,
      "taf_trigger": false,
      "metar": "METAR LKMT 031900Z 20008KT CAVOK 17/01 Q1016 NOSIG",
      "taf": "TAF LKMT 031700Z 0318/0418 20007KT CAVOK"
    },
    {
      "icao": "LKPR",
      "alert": "OK",
      "vis_m": 9999,
      "fzfg": false,
      "metar_trigger": false,
      "taf_trigger": false,
      "metar": "METAR LKPR 031900Z 14009KT CAVOK 20/04 Q1012 NOSIG",
      "taf": "TAF LKPR 031700Z 0318/0424 16008KT CAVOK"
    },
    {
      "icao": "LLBG",
      "alert": "OK",
      "vis_m": 9999,
      "fzfg": false,
      "metar_trigger": false,
      "taf_trigger": false,
      "metar": "METAR LLBG 031850Z 28011KT 9999 FEW030 SCT040 18/11 Q1014 NOSIG",
      "taf": "TAF LLBG 031702Z 0318/0418 29010KT 9999 SCT017 BKN030 TX21/0411Z TN15/0403Z"
    },
    {
      "icao": "LMML",
      "alert": "OK",
      "vis_m": 9999,
      "fzfg": false,
      "metar_trigger": false,
      "taf_trigger": false,
      "metar": "METAR LMML 031915Z 24006KT CAVOK 16/10 Q1021 NOSIG",
      "taf": "TAF LMML 031700Z 0318/0418 25007KT 9999 FEW017"
    },
    {
      "icao": "LOWW",
      "alert": "OK",
      "vis_m": 9999,
      "fzfg": false,
      "metar_trigger": false,
      "taf_trigger": false,
      "metar": "METAR LOWW 031850Z 14011KT CAVOK 19/05 Q1015 NOSIG",
      "taf": "TAF LOWW 031715Z 0318/0424 15015KT CAVOK TX27/0414Z TN13/0403Z"
    },
    {
      "icao": "LPFR",
      "alert": "OK",
      "vis_m": 9999,
      "fzfg": false,
      "metar_trigger": false,
      "taf_trigger": false,
      "metar": "METAR LPFR 031900Z 25015KT 9999 FEW035 18/14 Q1014",
      "taf": "TAF LPFR 031700Z 0318/0418 25015KT 9999 FEW025"
    },
    {
      "icao": "LPMA",
      "alert": "OK",
      "vis_m": 9999,
      "fzfg": false,
      "metar_trigger": false,
      "taf_trigger": false,
      "metar": "METAR LPMA 031900Z 21014KT 9999 SCT013 18/16 Q1015",
      "taf": "TAF LPMA 031700Z 0318/0418 20017KT 9999 SCT013 SCT030"
    },
    {
      "icao": "LPPR",
      "alert": "OK",
      "vis_m": 9999,
      "fzfg": false,
      "metar_trigger": false,
      "taf_trigger": false,
      "metar": "METAR LPPR 031900Z 31006KT 280V350 9999 SCT020 15/10 Q1013",
      "taf": "TAF LPPR 031700Z 0318/0418 31010KT 9999 SCT015"
    },
    {
      "icao": "LPPS",
      "alert": "OK",
      "vis_m": 9999,
      "fzfg": false,
      "metar_trigger": false,
      "taf_trigger": false,
      "metar": "METAR LPPS 031900Z 17008KT 130V200 9999 SCT010 18/16 Q1016",
      "taf": "TAF LPPS 031700Z 0318/0424 19010KT 9999 SCT012"
    },
    {
      "icao": "LPPT",
      "alert": "OK",
      "vis_m": 9999,
      "fzfg": false,
      "metar_trigger": false,
      "taf_trigger": false,
      "metar": "METAR LPPT 031900Z 30008KT 280V350 9999 FEW025 16/10 Q1014",
      "taf": "TAF LPPT 031700Z 0318/0424 32010KT 9999 SCT025"
    },
    {
      "icao": "LQBK",
      "alert": "OK",
      "vis_m": 9999,
      "fzfg": false,
      "metar_trigger": false,
      "taf_trigger": false,
      "metar": "METAR LQBK 031900Z VRB01KT CAVOK 12/07 Q1018 NOSIG",
      "taf": "TAF LQBK 031700Z 0318/0418 VRB02KT CAVOK TX24/0414Z TN06/0404Z"
    },
    {
      "icao": "LQSA",
      "alert": "OK",
      "vis_m": 9999,
      "fzfg": false,
      "metar_trigger": false,
      "taf_trigger": false,
      "metar": "METAR LQSA 031900Z VRB03KT CAVOK 13/03 Q1018 NOSIG",
      "taf": "TAF LQSA 031700Z 0318/0418 VRB02KT CAVOK TX25/0414Z TN03/0404Z"
    },
    {
      "icao": "LQTZ",
      "alert": "OK",
      "vis_m": 9999,
      "fzfg": false,
      "metar_trigger": false,
      "taf_trigger": false,
      "metar": "METAR LQTZ 031900Z 10003KT CAVOK 11/05 Q1019",
      "taf": "TAF LQTZ 031700Z 0318/0418 06005KT CAVOK TX24/0413Z TN01/0404Z"
    },
    {
      "icao": "LRBC",
      "alert": "OK",
      "vis_m": 9999,
      "fzfg": false,
      "metar_trigger": false,
      "taf_trigger": false,
      "metar": "METAR LRBC 031900Z 12002KT CAVOK 10/01 Q1019",
      "taf": "TAF LRBC 031700Z 0318/0403 VRB04KT CAVOK"
    },
    {
      "icao": "LRBS",
      "alert": "OK",
      "vis_m": 9999,
      "fzfg": false,
      "metar_trigger": false,
      "taf_trigger": false,
      "metar": "METAR LRBS 031900Z 00000KT CAVOK 10/03 Q1019 NOSIG",
      "taf": "TAF LRBS 031700Z 0318/0418 VRB04KT CAVOK"
    },
    {
      "icao": "LRBV",
      "alert": "OK",
      "vis_m": 9999,
      "fzfg": false,
      "metar_trigger": false,
      "taf_trigger": false,
      "metar": "METAR LRBV 031900Z 29007KT 9999 FEW077 09/M01 Q1019",
      "taf": "TAF LRBV 031700Z 0318/0403 28007KT CAVOK"
    },
    {
      "icao": "LRCL",
      "alert": "OK",
      "vis_m": 9999,
      "fzfg": false,
      "metar_trigger": false,
      "taf_trigger": false,
      "metar": "METAR LRCL 031900Z 29001KT CAVOK 10/02 Q1019",
      "taf": "TAF LRCL 031700Z 0318/0403 VRB04KT CAVOK"
    },
    {
      "icao": "LRCV",
      "alert": "OK",
      "vis_m": 9999,
      "fzfg": false,
      "metar_trigger": false,
      "taf_trigger": false,
      "metar": "METAR LRCV 031900Z 24007KT CAVOK 09/02 Q1020",
      "taf": "TAF LRCV 031700Z 0318/0403 VRB04KT CAVOK"
    },
    {
      "icao": "LRIA",
      "alert": "OK",
      "vis_m": 9999,
      "fzfg": false,
      "metar_trigger": false,
      "taf_trigger": false,
      "metar": "METAR LRIA 031900Z 21004KT CAVOK 12/M01 Q1018",
      "taf": "TAF LRIA 031700Z 0318/0403 VRB04KT CAVOK"
    },
    {
      "icao": "LROP",
      "alert": "OK",
      "vis_m": 9999,
      "fzfg": false,
      "metar_trigger": false,
      "taf_trigger": false,
      "metar": "METAR LROP 031900Z 00000KT CAVOK 10/00 Q1019 NOSIG",
      "taf": "TAF LROP 031700Z 0318/0418 VRB04KT CAVOK"
    },
    {
      "icao": "LRSB",
      "alert": "OK",
      "vis_m": 9999,
      "fzfg": false,
      "metar_trigger": false,
      "taf_trigger": false,
      "metar": "METAR LRSB 031900Z 25007KT 9999 FEW075 SCT080 09/M00 Q1019",
      "taf": "TAF LRSB 031700Z 0318/0418 VRB04KT CAVOK"
    },
    {
      "icao": "LRSM",
      "alert": "OK",
      "vis_m": 9999,
      "fzfg": false,
      "metar_trigger": false,
      "taf_trigger": false,
      "metar": "METAR LRSM 031900Z AUTO 23004KT 9999 NCD 13/03 Q1018",
      "taf": ""
    },
    {
      "icao": "LRSV",
      "alert": "OK",
      "vis_m": 9999,
      "fzfg": false,
      "metar_trigger": false,
      "taf_trigger": false,
      "metar": "METAR LRSV 031900Z 22006KT CAVOK 12/02 Q1018",
      "taf": "TAF LRSV 031700Z 0318/0403 19005KT CAVOK"
    },
    {
      "icao": "LRTM",
      "alert": "OK",
      "vis_m": 9999,
      "fzfg": false,
      "metar_trigger": false,
      "taf_trigger": false,
      "metar": "METAR LRTM 031900Z 24001KT CAVOK 10/01 Q1019",
      "taf": "TAF LRTM 031700Z 0318/0403 VRB04KT CAVOK"
    },
    {
      "icao": "LRTR",
      "alert": "OK",
      "vis_m": 9999,
      "fzfg": false,
      "metar_trigger": false,
      "taf_trigger": false,
      "metar": "METAR LRTR 031900Z 32005KT CAVOK 12/02 Q1019 NOSIG",
      "taf": "TAF LRTR 031700Z 0318/0418 VRB04KT CAVOK"
    },
    {
      "icao": "LTAC",
      "alert": "OK",
      "vis_m": 9999,
      "fzfg": false,
      "metar_trigger": false,
      "taf_trigger": false,
      "metar": "METAR LTAC 031850Z 08014KT 9999 -SHRA SCT015 BKN021 BKN080 06/03 Q1003 NOSIG RMK RWY21C 07017KT RWY03L 07016KT RWY21R 05014KT RWY03R 07014KT RWY21L 07018KT",
      "taf": "TAF LTAC 031640Z 0318/0418 04013KT 9999 SCT030 BKN080"
    },
    {
      "icao": "LTFM",
      "alert": "OK",
      "vis_m": 9999,
      "fzfg": false,
      "metar_trigger": false,
      "taf_trigger": false,
      "metar": "METAR LTFM 031850Z 02023KT 9999 FEW035 BKN100 10/03 Q1014 NOSIG RMK RWY17L 02028KT RWY34L 02024KT RWY16R 02022G32KT RWY36 02026KT RWY18 03022KT",
      "taf": "TAF LTFM 031640Z 0318/0424 03029G42KT 9999 SCT040 BKN100"
    },
    {
      "icao": "LUKK",
      "alert": "OK",
      "vis_m": 9999,
      "fzfg": false,
      "metar_trigger": false,
      "taf_trigger": false,
      "metar": "METAR LUKK 031830Z 33006KT CAVOK 13/01 Q1018 NOSIG",
      "taf": "TAF LUKK 031714Z 0318/0418 VRB05KT CAVOK"
    },
    {
      "icao": "LWOH",
      "alert": "OK",
      "vis_m": 9999,
      "fzfg": false,
      "metar_trigger": false,
      "taf_trigger": false,
      "metar": "METAR LWOH 031850Z VRB02KT CAVOK 07/M02 Q1018",
      "taf": "TAF LWOH 031705Z 0318/0418 01010KT CAVOK"
    },
    {
      "icao": "LWSK",
      "alert": "OK",
      "vis_m": null,
      "fzfg": false,
      "metar_trigger": false,
      "taf_trigger": false,
      "metar": "",
      "taf": "TAF LWSK 031705Z 0318/0418 36010KT CAVOK"
    },
    {
      "icao": "LYBE",
      "alert": "OK",
      "vis_m": 9999,
      "fzfg": false,
      "metar_trigger": false,
      "taf_trigger": false,
      "metar": "METAR LYBE 031900Z 16004KT CAVOK 13/01 Q1019 NOSIG",
      "taf": "TAF LYBE 031700Z 0318/0418 11006KT CAVOK TX25/0413Z TN07/0404Z"
    },
    {
      "icao": "LYNI",
      "alert": "OK",
      "vis_m": 9999,
      "fzfg": false,
      "metar_trigger": false,
      "taf_trigger": false,
      "metar": "METAR LYNI 031900Z VRB01KT CAVOK 09/M01 Q1020 NOSIG",
      "taf": "TAF LYNI 031700Z 0318/0418 06006KT CAVOK TX23/0413Z TN04/0404Z"
    },
    {
      "icao": "LYPG",
      "alert": "OK",
      "vis_m": 9999,
      "fzfg": false,
      "metar_trigger": false,
      "taf_trigger": false,
      "metar": "METAR LYPG 031900Z 13003KT CAVOK 16/08 Q1017 NOSIG",
      "taf": "TAF LYPG 031700Z 0318/0418 36005KT CAVOK TX24/0413Z TN09/0404Z"
    },
    {
      "icao": "LZIB",
      "alert": "OK",
      "vis_m": 9999,
      "fzfg": false,
      "metar_trigger": false,
      "taf_trigger": false,
      "metar": "METAR LZIB 031900Z 13007KT CAVOK 16/03 Q1016 NOSIG",
      "taf": "TAF LZIB 031715Z 0318/0418 13011KT CAVOK"
    },
    {
      "icao": "LZKZ",
      "alert": "OK",
      "vis_m": 9999,
      "fzfg": false,
      "metar_trigger": false,
      "taf_trigger": false,
      "metar": "METAR LZKZ 031900Z 27003KT CAVOK 13/03 Q1018 NOSIG",
      "taf": "TAF LZKZ 031715Z 0318/0418 23007KT CAVOK"
    },
    {
      "icao": "LZTT",
      "alert": "OK",
      "vis_m": 9999,
      "fzfg": false,
      "metar_trigger": false,
      "taf_trigger": false,
      "metar": "METAR LZTT 031900Z VRB02KT CAVOK 10/01 Q1018",
      "taf": "TAF LZTT 031715Z 0318/0418 24005KT CAVOK"
    },
    {
      "icao": "OEJN",
      "alert": "OK",
      "vis_m": 9999,
      "fzfg": false,
      "metar_trigger": false,
      "taf_trigger": false,
      "metar": "METAR OEJN 031900Z 11003KT CAVOK 31/07 Q1008 NOSIG",
      "taf": "TAF OEJN 031700Z 0318/0424 03006KT CAVOK"
    },
    {
      "icao": "OEMA",
      "alert": "OK",
      "vis_m": 9999,
      "fzfg": false,
      "metar_trigger": false,
      "taf_trigger": false,
      "metar": "METAR OEMA 031900Z 25008KT CAVOK 35/00 Q1013 NOSIG",
      "taf": "TAF OEMA 031700Z 0318/0424 VRB03KT CAVOK"
    },
    {
      "icao": "OJAI",
      "alert": "OK",
      "vis_m": 4000,
      "fzfg": false,
      "metar_trigger": false,
      "taf_trigger": false,
      "metar": "METAR OJAI 031900Z 26012KT 4000 DU FEW030 FEW080 15/11 Q1015 NOSIG",
      "taf": "TAF OJAI 031700Z 0318/0424 24018KT 3000 BLDU SCT035"
    },
    {
      "icao": "OMAA",
      "alert": "OK",
      "vis_m": 9999,
      "fzfg": false,
      "metar_trigger": false,
      "taf_trigger": false,
      "metar": "METAR OMAA 031900Z 03005KT CAVOK 31/17 Q1006 NOSIG",
      "taf": "TAF OMAA 031700Z 0318/0500 VRB02KT CAVOK"
    },
    {
      "icao": "OMDB",
      "alert": "OK",
      "vis_m": 9999,
      "fzfg": false,
      "metar_trigger": false,
      "taf_trigger": false,
      "metar": "METAR OMDB 031900Z 18004KT CAVOK 33/16 Q1006 NOSIG",
      "taf": "TAF OMDB 031700Z 0318/0500 27010KT CAVOK"
    },
    {
      "icao": "UAAA",
      "alert": "OK",
      "vis_m": 5000,
      "fzfg": false,
      "metar_trigger": false,
      "taf_trigger": false,
      "metar": "METAR UAAA 031900Z 19003MPS 160V220 5000 -SHRA BR BKN050CB OVC100 15/13 Q1015 NOSIG",
      "taf": "TAF UAAA 031706Z 0318/0418 22003G08MPS 9999 -SHRA BKN050CB OVC100 TX19/0408Z TN13/0401Z"
    },
    {
      "icao": "UBBB",
      "alert": "OK",
      "vis_m": 9999,
      "fzfg": false,
      "metar_trigger": false,
      "taf_trigger": false,
      "metar": "METAR UBBB 031900Z 33008KT 9999 OVC013 11/08 Q1015 NOSIG",
      "taf": "TAF UBBB 031657Z 0318/0418 35006KT 9999 BKN012 TX17/0410Z TN09/0401Z"
    },
    {
      "icao": "UDSG",
      "alert": "OK",
      "vis_m": 9999,
      "fzfg": false,
      "metar_trigger": false,
      "taf_trigger": false,
      "metar": "METAR UDSG 031900Z 35003KT 9999 SCT046CB 10/06 Q1013 NOSIG",
      "taf": "TAF UDSG 031658Z 0318/0418 24006KT 9999 BKN040"
    },
    {
      "icao": "UDYZ",
      "alert": "OK",
      "vis_m": 9999,
      "fzfg": false,
      "metar_trigger": false,
      "taf_trigger": false,
      "metar": "METAR UDYZ 031900Z 04004KT 020V090 9999 SCT043CB 14/09 Q1011 NOSIG",
      "taf": "TAF UDYZ 031700Z 0318/0418 04006KT 9999 BKN040"
    },
    {
      "icao": "UGKO",
      "alert": "OK",
      "vis_m": 9999,
      "fzfg": false,
      "metar_trigger": false,
      "taf_trigger": false,
      "metar": "METAR UGKO 031900Z 02003KT 9999 SCT009 OVC024 12/10 Q1006 NOSIG",
      "taf": "TAF UGKO 031700Z 0318/0418 08007KT 9999 SCT030 OVC045 TX20/0411Z TN09/0322Z"
    }
  ]
}