{
  "ts_utc": "2026-04-09T16:05:30Z",
  "threshold_m": 150,
  "source": "stations_override.txt (ICAO list) + aviationweather.gov (METAR/TAF raw)",
  "station_count": 159,
  "stations": [
    {
      "icao": "BIKF",
      "alert": "OK",
      "vis_m": 7000,
      "fzfg": false,
      "metar_trigger": false,
      "taf_trigger": false,
      "metar": "METAR BIKF 091600Z 21032KT 7000 -RA BKN011 OVC030 04/02 Q0982",
      "taf": "TAF BIKF 091331Z 0915/1015 23032G42KT 9999 SCT020 BKN030 TX05/0915Z TNM00/1006Z"
    },
    {
      "icao": "BKPR",
      "alert": "OK",
      "vis_m": 9999,
      "fzfg": false,
      "metar_trigger": false,
      "taf_trigger": false,
      "metar": "METAR BKPR 091600Z 01017KT CAVOK 12/M01 Q1014 NOSIG",
      "taf": "TAF BKPR 091130Z 0912/1012 35007KT 9999 FEW040"
    },
    {
      "icao": "EBCI",
      "alert": "OK",
      "vis_m": 9999,
      "fzfg": false,
      "metar_trigger": false,
      "taf_trigger": false,
      "metar": "METAR EBCI 091550Z 26008KT 220V300 CAVOK 22/10 Q1016 NOSIG",
      "taf": "TAF EBCI 091115Z 0912/1018 24005KT CAVOK"
    },
    {
      "icao": "EDDB",
      "alert": "OK",
      "vis_m": 9999,
      "fzfg": false,
      "metar_trigger": false,
      "taf_trigger": false,
      "metar": "METAR EDDB 091550Z AUTO 10008KT 070V130 CAVOK 12/M07 Q1021 NOSIG",
      "taf": "TAF EDDB 091100Z 0912/1012 06007KT CAVOK"
    },
    {
      "icao": "EDDH",
      "alert": "OK",
      "vis_m": 9999,
      "fzfg": false,
      "metar_trigger": false,
      "taf_trigger": false,
      "metar": "METAR EDDH 091550Z AUTO 12010KT 090V150 CAVOK 14/M06 Q1020 NOSIG",
      "taf": "TAF EDDH 091100Z 0912/1018 11012KT CAVOK"
    },
    {
      "icao": "EDDK",
      "alert": "OK",
      "vis_m": 9999,
      "fzfg": false,
      "metar_trigger": false,
      "taf_trigger": false,
      "metar": "METAR EDDK 091550Z AUTO 14004KT 080V200 CAVOK 22/01 Q1016 NOSIG",
      "taf": "TAF EDDK 091100Z 0912/1018 12007KT CAVOK"
    },
    {
      "icao": "EDDN",
      "alert": "OK",
      "vis_m": 9999,
      "fzfg": false,
      "metar_trigger": false,
      "taf_trigger": false,
      "metar": "METAR EDDN 091550Z AUTO 27007KT 250V320 CAVOK 16/M02 Q1018 NOSIG",
      "taf": ""
    },
    {
      "icao": "EDDS",
      "alert": "OK",
      "vis_m": 9999,
      "fzfg": false,
      "metar_trigger": false,
      "taf_trigger": false,
      "metar": "METAR EDDS 091550Z AUTO 36008KT 320V040 CAVOK 19/00 Q1016 NOSIG",
      "taf": "TAF EDDS 091100Z 0912/1012 04004KT CAVOK"
    },
    {
      "icao": "EDFH",
      "alert": "OK",
      "vis_m": 9999,
      "fzfg": false,
      "metar_trigger": false,
      "taf_trigger": false,
      "metar": "METAR EDFH 091550Z 25005KT 230V290 CAVOK 19/01 Q1017",
      "taf": "TAF EDFH 091100Z 0912/1012 15006KT CAVOK"
    },
    {
      "icao": "EDJA",
      "alert": "OK",
      "vis_m": 9999,
      "fzfg": false,
      "metar_trigger": false,
      "taf_trigger": false,
      "metar": "METAR EDJA 091550Z 03006KT CAVOK 17/02 Q1017",
      "taf": "TAF EDJA 091400Z 0915/0924 30004KT CAVOK"
    },
    {
      "icao": "EDLW",
      "alert": "OK",
      "vis_m": 9999,
      "fzfg": false,
      "metar_trigger": false,
      "taf_trigger": false,
      "metar": "METAR EDLW 091550Z 07007KT CAVOK 17/04 Q1016",
      "taf": "TAF EDLW 091100Z 0912/1012 09007KT CAVOK"
    },
    {
      "icao": "EDNY",
      "alert": "OK",
      "vis_m": 9999,
      "fzfg": false,
      "metar_trigger": false,
      "taf_trigger": false,
      "metar": "METAR EDNY 091520Z 20004KT CAVOK 20/03 Q1017",
      "taf": "TAF EDNY 091400Z 0915/0924 24005KT CAVOK"
    },
    {
      "icao": "EDSB",
      "alert": "OK",
      "vis_m": 9999,
      "fzfg": false,
      "metar_trigger": false,
      "taf_trigger": false,
      "metar": "METAR EDSB 091550Z 03003KT 350V060 CAVOK 20/M00 Q1016",
      "taf": "TAF EDSB 091100Z 0912/1012 01004KT CAVOK"
    },
    {
      "icao": "EETN",
      "alert": "OK",
      "vis_m": 9999,
      "fzfg": false,
      "metar_trigger": false,
      "taf_trigger": false,
      "metar": "METAR EETN 091550Z 08013KT CAVOK 04/M05 Q1028 NOSIG",
      "taf": "TAF EETN 091130Z 0912/1012 04012KT 9999 FEW030"
    },
    {
      "icao": "EFTU",
      "alert": "OK",
      "vis_m": 9999,
      "fzfg": false,
      "metar_trigger": false,
      "taf_trigger": false,
      "metar": "METAR EFTU 091550Z AUTO 08006KT 040V110 CAVOK 08/M13 Q1028",
      "taf": "TAF EFTU 091422Z 0915/1015 09008KT CAVOK"
    },
    {
      "icao": "EGBB",
      "alert": "OK",
      "vis_m": 9999,
      "fzfg": false,
      "metar_trigger": false,
      "taf_trigger": false,
      "metar": "METAR EGBB 091550Z 27014KT 250V310 9999 -SHRA SCT038 11/04 Q1016",
      "taf": "TAF EGBB 091105Z 0912/1012 28009KT 9999 FEW045"
    },
    {
      "icao": "EGGP",
      "alert": "OK",
      "vis_m": 9999,
      "fzfg": false,
      "metar_trigger": false,
      "taf_trigger": false,
      "metar": "METAR EGGP 091550Z 27023KT 9999 FEW023 SCT035 09/03 Q1016",
      "taf": ""
    },
    {
      "icao": "EGGW",
      "alert": "OK",
      "vis_m": 9999,
      "fzfg": false,
      "metar_trigger": false,
      "taf_trigger": false,
      "metar": "METAR EGGW 091550Z AUTO 25018KT 9999 BKN024 13/08 Q1015",
      "taf": "TAF EGGW 091059Z 0912/1012 26012KT CAVOK"
    },
    {
      "icao": "EGKK",
      "alert": "OK",
      "vis_m": 9999,
      "fzfg": false,
      "metar_trigger": false,
      "taf_trigger": false,
      "metar": "METAR EGKK 091550Z 26011KT CAVOK 16/07 Q1016",
      "taf": "TAF EGKK 091055Z 0912/1018 24010KT CAVOK"
    },
    {
      "icao": "EGNM",
      "alert": "OK",
      "vis_m": 9999,
      "fzfg": false,
      "metar_trigger": false,
      "taf_trigger": false,
      "metar": "METAR EGNM 091550Z 27015KT 9999 -RA SCT012 BKN031 07/05 Q1013",
      "taf": "TAF EGNM 091056Z 0912/1012 26018G28KT 9999 SCT020"
    },
    {
      "icao": "EGPD",
      "alert": "OK",
      "vis_m": 9999,
      "fzfg": false,
      "metar_trigger": false,
      "taf_trigger": false,
      "metar": "METAR EGPD 091550Z COR AUTO 32010KT 9999 NCD 10/05 Q1007 NOSIG",
      "taf": ""
    },
    {
      "icao": "EGPF",
      "alert": "OK",
      "vis_m": 6000,
      "fzfg": false,
      "metar_trigger": false,
      "taf_trigger": false,
      "metar": "METAR EGPF 091550Z 29020KT 6000 -SHRA BKN032TCU 06/02 Q1012",
      "taf": "TAF EGPF 091057Z 0912/1012 26012KT 9999 FEW020"
    },
    {
      "icao": "EHBK",
      "alert": "OK",
      "vis_m": 9999,
      "fzfg": false,
      "metar_trigger": false,
      "taf_trigger": false,
      "metar": "METAR EHBK 091555Z AUTO 20003KT 9999 NSC 22/10 Q1015 NOSIG",
      "taf": "TAF EHBK 091117Z 0912/1018 19005KT CAVOK"
    },
    {
      "icao": "EHEH",
      "alert": "OK",
      "vis_m": 9999,
      "fzfg": false,
      "metar_trigger": false,
      "taf_trigger": false,
      "metar": "METAR EHEH 091555Z AUTO 18003KT 150V250 9999 FEW056 SCT087 BKN092 23/07 Q1014 BLU NOSIG RMK TREND REMOTE BY EHWX",
      "taf": "TAF EHEH 091103Z 0912/1018 15004KT CAVOK"
    },
    {
      "icao": "EKBI",
      "alert": "OK",
      "vis_m": 9999,
      "fzfg": false,
      "metar_trigger": false,
      "taf_trigger": false,
      "metar": "METAR EKBI 091550Z AUTO 12014KT 9999 FEW130/// BKN150/// 09/M01 Q1021",
      "taf": "TAF EKBI 091427Z 0915/1015 13015KT CAVOK"
    },
    {
      "icao": "EKCH",
      "alert": "OK",
      "vis_m": 9999,
      "fzfg": false,
      "metar_trigger": false,
      "taf_trigger": false,
      "metar": "METAR EKCH 091550Z AUTO 15013KT 9999 NCD 06/M04 Q1025 NOSIG",
      "taf": ""
    },
    {
      "icao": "ENAL",
      "alert": "OK",
      "vis_m": 9999,
      "fzfg": false,
      "metar_trigger": false,
      "taf_trigger": false,
      "metar": "METAR ENAL 091550Z 22010KT 9999 -RA BKN054 10/04 Q1012 RMK WIND RWY 06 19011KT",
      "taf": "TAF ENAL 091400Z 0915/0924 20008KT CAVOK"
    },
    {
      "icao": "ENBR",
      "alert": "OK",
      "vis_m": 9999,
      "fzfg": false,
      "metar_trigger": false,
      "taf_trigger": false,
      "metar": "METAR ENBR 091550Z 15024G36KT CAVOK 10/M03 Q1013 NOSIG RMK WIND 1200FT 14036KT",
      "taf": "TAF ENBR 091100Z 0912/1012 14015KT 9999 -RA FEW035 SCT050"
    },
    {
      "icao": "ENGM",
      "alert": "OK",
      "vis_m": 9999,
      "fzfg": false,
      "metar_trigger": false,
      "taf_trigger": false,
      "metar": "METAR ENGM 091550Z 24007KT 200V260 CAVOK 10/M03 Q1023 NOSIG",
      "taf": "TAF ENGM 091100Z 0912/1012 17008KT CAVOK"
    },
    {
      "icao": "ENHD",
      "alert": "OK",
      "vis_m": 9999,
      "fzfg": false,
      "metar_trigger": false,
      "taf_trigger": false,
      "metar": "METAR ENHD 091550Z 14018G30KT CAVOK 10/M01 Q1015",
      "taf": "TAF ENHD 091400Z 0915/0922 14018KT 9999 -RA SCT050"
    },
    {
      "icao": "ENTC",
      "alert": "OK",
      "vis_m": 9999,
      "fzfg": false,
      "metar_trigger": false,
      "taf_trigger": false,
      "metar": "METAR ENTC 091550Z 18012KT 9999 BKN068 09/M03 Q1017 NOSIG RMK WIND 2600FT 17025KT",
      "taf": "TAF ENTC 091100Z 0912/1012 21009KT 9999 BKN060"
    },
    {
      "icao": "ENTO",
      "alert": "OK",
      "vis_m": 9999,
      "fzfg": false,
      "metar_trigger": false,
      "taf_trigger": false,
      "metar": "METAR ENTO 091550Z 23007KT CAVOK 10/00 Q1023 NOSIG",
      "taf": "TAF ENTO 091100Z 0912/1012 17010KT CAVOK"
    },
    {
      "icao": "ENVA",
      "alert": "OK",
      "vis_m": 9999,
      "fzfg": false,
      "metar_trigger": false,
      "taf_trigger": false,
      "metar": "METAR ENVA 091550Z 15019KT CAVOK 12/00 Q1015 TEMPO 16020G32KT RMK WIND 670FT 16026KT",
      "taf": "TAF ENVA 091100Z 0912/1012 14015KT CAVOK"
    },
    {
      "icao": "ENZV",
      "alert": "OK",
      "vis_m": 9999,
      "fzfg": false,
      "metar_trigger": false,
      "taf_trigger": false,
      "metar": "METAR ENZV 091550Z 15024G34KT CAVOK 11/M04 Q1015 NOSIG",
      "taf": "TAF ENZV 091100Z 0912/1012 14020KT CAVOK"
    },
    {
      "icao": "EPGD",
      "alert": "OK",
      "vis_m": 9999,
      "fzfg": false,
      "metar_trigger": false,
      "taf_trigger": false,
      "metar": "METAR EPGD 091600Z 01011KT 9999 SCT022 03/M03 Q1024",
      "taf": "TAF EPGD 091130Z 0912/1012 04013KT 9999 FEW030"
    },
    {
      "icao": "EPKK",
      "alert": "OK",
      "vis_m": 9999,
      "fzfg": false,
      "metar_trigger": false,
      "taf_trigger": false,
      "metar": "METAR EPKK 091600Z 28008KT 9999 FEW023 03/M03 Q1020",
      "taf": "TAF EPKK 091430Z 0915/1015 31007KT 9999 BKN030"
    },
    {
      "icao": "EPKT",
      "alert": "OK",
      "vis_m": 9999,
      "fzfg": false,
      "metar_trigger": false,
      "taf_trigger": false,
      "metar": "METAR EPKT 091600Z 29004KT 250V330 9999 FEW025 03/M04 Q1020",
      "taf": ""
    },
    {
      "icao": "EPLB",
      "alert": "OK",
      "vis_m": 1800,
      "fzfg": false,
      "metar_trigger": false,
      "taf_trigger": false,
      "metar": "METAR EPLB 091600Z 30007KT 1800 SHSN SCT009 BKN014CB 01/M00 Q1020",
      "taf": ""
    },
    {
      "icao": "EPMO",
      "alert": "OK",
      "vis_m": 9999,
      "fzfg": false,
      "metar_trigger": false,
      "taf_trigger": false,
      "metar": "METAR EPMO 091600Z 02011KT CAVOK 05/M05 Q1021",
      "taf": "TAF EPMO 091130Z 0912/1012 35010KT CAVOK"
    },
    {
      "icao": "EPPO",
      "alert": "OK",
      "vis_m": 9999,
      "fzfg": false,
      "metar_trigger": false,
      "taf_trigger": false,
      "metar": "METAR EPPO 091600Z 05008KT 360V080 CAVOK 09/M08 Q1021",
      "taf": "TAF EPPO 091130Z 0912/1012 02010KT CAVOK"
    },
    {
      "icao": "EPRA",
      "alert": "OK",
      "vis_m": 9999,
      "fzfg": false,
      "metar_trigger": false,
      "taf_trigger": false,
      "metar": "METAR EPRA 091600Z 35005KT 330V030 CAVOK 05/M06 Q1019",
      "taf": "TAF EPRA 091430Z 0915/0924 01006KT 9999 SCT040"
    },
    {
      "icao": "EPRZ",
      "alert": "OK",
      "vis_m": 9999,
      "fzfg": false,
      "metar_trigger": false,
      "taf_trigger": false,
      "metar": "METAR EPRZ 091600Z 32002KT 9999 BKN023CB 03/01 Q1019",
      "taf": "TAF EPRZ 091130Z 0912/1012 32010KT 9999 BKN030"
    },
    {
      "icao": "EPSC",
      "alert": "OK",
      "vis_m": 9999,
      "fzfg": false,
      "metar_trigger": false,
      "taf_trigger": false,
      "metar": "METAR EPSC 091600Z 36010KT 340V040 CAVOK 08/M03 Q1022",
      "taf": "TAF EPSC 091130Z 0912/1012 03010KT CAVOK"
    },
    {
      "icao": "EPSY",
      "alert": "OK",
      "vis_m": 9999,
      "fzfg": false,
      "metar_trigger": false,
      "taf_trigger": false,
      "metar": "METAR EPSY 091600Z 06006KT 030V120 9999 BKN043 04/M06 Q1021",
      "taf": "TAF EPSY 091430Z 0915/0924 03010KT 9999 BKN040"
    },
    {
      "icao": "EPWA",
      "alert": "OK",
      "vis_m": 9999,
      "fzfg": false,
      "metar_trigger": false,
      "taf_trigger": false,
      "metar": "METAR EPWA 091600Z 03008KT 350V070 CAVOK 06/M06 Q1020 NOSIG",
      "taf": "TAF EPWA 091430Z 0915/1015 36010KT CAVOK"
    },
    {
      "icao": "EPWR",
      "alert": "OK",
      "vis_m": 9999,
      "fzfg": false,
      "metar_trigger": false,
      "taf_trigger": false,
      "metar": "METAR EPWR 091600Z 02004KT 340V070 9999 FEW048 07/M05 Q1021",
      "taf": "TAF EPWR 091430Z 0915/1015 34004KT CAVOK"
    },
    {
      "icao": "ESGG",
      "alert": "OK",
      "vis_m": 9999,
      "fzfg": false,
      "metar_trigger": false,
      "taf_trigger": false,
      "metar": "METAR ESGG 091550Z 26006KT 230V290 CAVOK 10/M02 Q1023",
      "taf": "TAF ESGG 091430Z 0915/1015 28008KT CAVOK"
    },
    {
      "icao": "ESKN",
      "alert": "OK",
      "vis_m": 9999,
      "fzfg": false,
      "metar_trigger": false,
      "taf_trigger": false,
      "metar": "METAR ESKN 091550Z 12010KT CAVOK 04/M05 Q1028",
      "taf": "TAF ESKN 091430Z 0915/1015 15009KT CAVOK"
    },
    {
      "icao": "ESMS",
      "alert": "OK",
      "vis_m": 9999,
      "fzfg": false,
      "metar_trigger": false,
      "taf_trigger": false,
      "metar": "METAR ESMS 091550Z 12012KT 080V140 CAVOK 06/M06 Q1025",
      "taf": "TAF ESMS 091427Z 0915/1015 11012KT CAVOK"
    },
    {
      "icao": "ESSA",
      "alert": "OK",
      "vis_m": 9999,
      "fzfg": false,
      "metar_trigger": false,
      "taf_trigger": false,
      "metar": "METAR ESSA 091550Z 14009KT CAVOK 07/M10 Q1027 NOSIG",
      "taf": "TAF ESSA 091430Z 0915/1015 12009KT CAVOK"
    },
    {
      "icao": "EYKA",
      "alert": "OK",
      "vis_m": 9999,
      "fzfg": false,
      "metar_trigger": false,
      "taf_trigger": false,
      "metar": "METAR EYKA 091550Z 05009KT CAVOK 03/M05 Q1023",
      "taf": "TAF EYKA 091100Z 0912/1012 04010KT 9000 BKN040"
    },
    {
      "icao": "EYPA",
      "alert": "OK",
      "vis_m": 9999,
      "fzfg": false,
      "metar_trigger": false,
      "taf_trigger": false,
      "metar": "METAR EYPA 091550Z 08010KT 030V110 CAVOK 05/M05 Q1024",
      "taf": "TAF EYPA 091100Z 0912/1012 05012KT 9000 SCT045"
    },
    {
      "icao": "EYVI",
      "alert": "OK",
      "vis_m": 9999,
      "fzfg": false,
      "metar_trigger": false,
      "taf_trigger": false,
      "metar": "METAR EYVI 091550Z 04011KT 9999 OVC035 02/M05 Q1021 NOSIG",
      "taf": "TAF EYVI 091100Z 0912/1012 03012KT 9000 OVC035"
    },
    {
      "icao": "GCFV",
      "alert": "OK",
      "vis_m": 9999,
      "fzfg": false,
      "metar_trigger": false,
      "taf_trigger": false,
      "metar": "METAR GCFV 091530Z 29025KT 9999 FEW025 21/11 Q1015",
      "taf": "TAF GCFV 091400Z 0915/1015 30020KT 9999 SCT030 TX21/1014Z TN15/1006Z"
    },
    {
      "icao": "GCLP",
      "alert": "OK",
      "vis_m": 9999,
      "fzfg": false,
      "metar_trigger": false,
      "taf_trigger": false,
      "metar": "METAR GCLP 091530Z 33020G30KT 300V360 9999 SCT030 23/08 Q1016 WS R03 NOSIG",
      "taf": "TAF GCLP 091400Z 0915/1015 33020KT 9999 SCT030 TX22/1014Z TN15/1006Z"
    },
    {
      "icao": "GCTS",
      "alert": "OK",
      "vis_m": 9999,
      "fzfg": false,
      "metar_trigger": false,
      "taf_trigger": false,
      "metar": "METAR GCTS 091530Z 18008KT 140V250 9999 FEW030 20/11 Q1017 NOSIG",
      "taf": "TAF GCTS 091400Z 0915/1015 18010KT 9999 SCT030 TX23/1014Z TN15/1006Z"
    },
    {
      "icao": "GMAD",
      "alert": "OK",
      "vis_m": 9999,
      "fzfg": false,
      "metar_trigger": false,
      "taf_trigger": false,
      "metar": "METAR GMAD 091600Z 27008KT 240V300 9999 FEW030TCU SCT040CB 20/11 Q1012 RETS NOSIG",
      "taf": "TAF GMAD 091100Z 0912/1018 26005KT 6000 SCT020 SCT080"
    },
    {
      "icao": "GMMN",
      "alert": "OK",
      "vis_m": 9999,
      "fzfg": false,
      "metar_trigger": false,
      "taf_trigger": false,
      "metar": "METAR GMMN 091600Z 36007KT 320V040 9999 SCT030 18/11 Q1013 NOSIG",
      "taf": "TAF GMMN 091100Z 0912/1018 32008KT 9999 SCT008 BKN023"
    },
    {
      "icao": "GMMX",
      "alert": "OK",
      "vis_m": 9999,
      "fzfg": false,
      "metar_trigger": false,
      "taf_trigger": false,
      "metar": "METAR GMMX 091600Z 23004KT 170V300 9999 BKN023 19/07 Q1012 NOSIG",
      "taf": "TAF GMMX 091100Z 0912/1018 08006KT 8000 SCT016 SCT023"
    },
    {
      "icao": "HEGN",
      "alert": "OK",
      "vis_m": 9999,
      "fzfg": false,
      "metar_trigger": false,
      "taf_trigger": false,
      "metar": "METAR HEGN 091500Z 14005KT CAVOK 25/08 Q1015 NOSIG",
      "taf": "TAF HEGN 091100Z 0912/1018 02015KT CAVOK"
    },
    {
      "icao": "HEMA",
      "alert": "OK",
      "vis_m": 9999,
      "fzfg": false,
      "metar_trigger": false,
      "taf_trigger": false,
      "metar": "METAR HEMA 091500Z 04007KT CAVOK 23/11 Q1014 NOSIG",
      "taf": "TAF HEMA 091100Z 0912/1018 03015KT CAVOK"
    },
    {
      "icao": "HESH",
      "alert": "OK",
      "vis_m": 9999,
      "fzfg": false,
      "metar_trigger": false,
      "taf_trigger": false,
      "metar": "METAR HESH 091500Z 15015KT CAVOK 25/10 Q1014 NOSIG",
      "taf": "TAF HESH 091100Z 0912/1018 03010KT CAVOK"
    },
    {
      "icao": "HESX",
      "alert": "OK",
      "vis_m": 9999,
      "fzfg": false,
      "metar_trigger": false,
      "taf_trigger": false,
      "metar": "METAR HESX 091500Z 26012KT CAVOK 25/M01 Q1014 NOSIG",
      "taf": "TAF HESX 091100Z 0912/1018 27010KT CAVOK"
    },
    {
      "icao": "LATI",
      "alert": "OK",
      "vis_m": 9999,
      "fzfg": false,
      "metar_trigger": false,
      "taf_trigger": false,
      "metar": "METAR LATI 091550Z 34009KT CAVOK 16/02 Q1015 NOSIG",
      "taf": "TAF LATI 091100Z 0912/1012 32015KT CAVOK TX20/0912Z TN05/1003Z"
    },
    {
      "icao": "LBPD",
      "alert": "OK",
      "vis_m": 9999,
      "fzfg": false,
      "metar_trigger": false,
      "taf_trigger": false,
      "metar": "METAR LBPD 091600Z AUTO 34004KT 310V010 9999 SCT052/// OVC063/// 12/M00 Q1014 NOSIG",
      "taf": "TAF LBPD 091100Z 0912/1012 28018KT 9999 SCT060"
    },
    {
      "icao": "LBSF",
      "alert": "OK",
      "vis_m": 9999,
      "fzfg": false,
      "metar_trigger": false,
      "taf_trigger": false,
      "metar": "METAR LBSF 091600Z AUTO 36009KT 330V030 9999 BKN073/// 11/M06 Q1014 NOSIG",
      "taf": "TAF LBSF 091100Z 0912/1012 31015KT 9999 SCT050"
    },
    {
      "icao": "LBWN",
      "alert": "OK",
      "vis_m": 9999,
      "fzfg": false,
      "metar_trigger": false,
      "taf_trigger": false,
      "metar": "METAR LBWN 091600Z AUTO 07007KT 9999 -RA FEW012 BKN029 OVC042 //////CB 05/04 Q1015 RESHRA TEMPO 3000 TSRA SCT030CB",
      "taf": "TAF LBWN 091100Z 0912/1012 13010KT 9999 BKN040"
    },
    {
      "icao": "LCLK",
      "alert": "OK",
      "vis_m": 9999,
      "fzfg": false,
      "metar_trigger": false,
      "taf_trigger": false,
      "metar": "METAR LCLK 091600Z 22016KT 9999 FEW030 18/16 Q1011 NOSIG",
      "taf": "TAF LCLK 091130Z 0912/1012 22020KT 9999 FEW020 FEW025TCU SCT045"
    },
    {
      "icao": "LCPH",
      "alert": "OK",
      "vis_m": 9999,
      "fzfg": false,
      "metar_trigger": false,
      "taf_trigger": false,
      "metar": "METAR LCPH 091600Z 26007KT 240V320 9999 BKN018 18/14 Q1012 TEMPO SCT015",
      "taf": "TAF LCPH 091130Z 0912/1012 27008KT 9999 FEW025"
    },
    {
      "icao": "LEAL",
      "alert": "OK",
      "vis_m": 9999,
      "fzfg": false,
      "metar_trigger": false,
      "taf_trigger": false,
      "metar": "METAR LEAL 091530Z 07013KT CAVOK 22/09 Q1017 NOSIG",
      "taf": "TAF LEAL 091100Z 0912/1012 08013KT CAVOK TX24/0913Z TN15/1006Z"
    },
    {
      "icao": "LEBB",
      "alert": "OK",
      "vis_m": 9999,
      "fzfg": false,
      "metar_trigger": false,
      "taf_trigger": false,
      "metar": "METAR LEBB 091530Z 29010KT 260V320 9999 FEW028 20/12 Q1021 NOSIG",
      "taf": "TAF LEBB 091100Z 0912/1012 31009KT 9999 FEW005 TX27/1012Z TN11/1006Z"
    },
    {
      "icao": "LEBL",
      "alert": "OK",
      "vis_m": 9999,
      "fzfg": false,
      "metar_trigger": false,
      "taf_trigger": false,
      "metar": "METAR LEBL 091530Z 21010KT 9999 VCFG FEW001 18/13 Q1017 TEMPO 1000 BCFG VV002",
      "taf": ""
    },
    {
      "icao": "LECH",
      "alert": "OK",
      "vis_m": 9000,
      "fzfg": false,
      "metar_trigger": false,
      "taf_trigger": false,
      "metar": "METAR LECH 091530Z AUTO 13008KT 9000 NCD 24/03 Q1018",
      "taf": "TAF LECH 091100Z 0912/1012 VRB04KT CAVOK TX26/0914Z TN09/1006Z"
    },
    {
      "icao": "LEMD",
      "alert": "OK",
      "vis_m": 9999,
      "fzfg": false,
      "metar_trigger": false,
      "taf_trigger": false,
      "metar": "METAR LEMD 091530Z 04003KT CAVOK 26/02 Q1017 NOSIG",
      "taf": "TAF LEMD 091100Z 0912/1018 01006KT CAVOK TX27/1015Z TN09/1006Z"
    },
    {
      "icao": "LEMG",
      "alert": "OK",
      "vis_m": 9999,
      "fzfg": false,
      "metar_trigger": false,
      "taf_trigger": false,
      "metar": "METAR LEMG 091530Z 17009KT 130V200 9999 FEW030 19/13 Q1011 NOSIG",
      "taf": "TAF LEMG 091100Z 0912/1012 13010KT 9999 FEW015 SCT025 TX21/0914Z TN14/1007Z"
    },
    {
      "icao": "LEVC",
      "alert": "OK",
      "vis_m": 9999,
      "fzfg": false,
      "metar_trigger": false,
      "taf_trigger": false,
      "metar": "METAR LEVC 091530Z 12007KT 080V150 CAVOK 24/04 Q1018 NOSIG",
      "taf": "TAF LEVC 091100Z 0912/1012 10008KT 9999 FEW010 TX26/0914Z TN13/1006Z"
    },
    {
      "icao": "LEXJ",
      "alert": "OK",
      "vis_m": 9999,
      "fzfg": false,
      "metar_trigger": false,
      "taf_trigger": false,
      "metar": "METAR LEXJ 091530Z 33009KT 280V010 9999 SCT014 17/13 Q1022",
      "taf": "TAF LEXJ 091400Z 0915/1015 29009KT 9000 SCT005 TX26/1014Z TN12/1007Z"
    },
    {
      "icao": "LEZG",
      "alert": "OK",
      "vis_m": 9999,
      "fzfg": false,
      "metar_trigger": false,
      "taf_trigger": false,
      "metar": "METAR LEZG 091530Z 31003KT CAVOK 27/03 Q1017 NOSIG",
      "taf": "TAF LEZG 091100Z 0912/1012 30003KT CAVOK TX29/0915Z TN12/1006Z"
    },
    {
      "icao": "LEZL",
      "alert": "OK",
      "vis_m": 9999,
      "fzfg": false,
      "metar_trigger": false,
      "taf_trigger": false,
      "metar": "METAR LEZL 091530Z 33006KT 290V040 CAVOK 24/13 Q1011 NOSIG",
      "taf": "TAF LEZL 091400Z 0915/1015 26008KT CAVOK TX26/1015Z TN11/1007Z"
    },
    {
      "icao": "LFBD",
      "alert": "OK",
      "vis_m": 9999,
      "fzfg": false,
      "metar_trigger": false,
      "taf_trigger": false,
      "metar": "METAR LFBD 091600Z AUTO 30012KT CAVOK 27/07 Q1018 NOSIG",
      "taf": "TAF LFBD 091100Z 0912/1018 24005KT CAVOK TX29/0914Z TN13/1001Z"
    },
    {
      "icao": "LFLL",
      "alert": "OK",
      "vis_m": 9999,
      "fzfg": false,
      "metar_trigger": false,
      "taf_trigger": false,
      "metar": "METAR LFLL 091600Z 01010KT 330V030 CAVOK 25/09 Q1016 NOSIG",
      "taf": "TAF LFLL 091100Z 0912/1018 35006KT CAVOK"
    },
    {
      "icao": "LFLS",
      "alert": "OK",
      "vis_m": 9999,
      "fzfg": false,
      "metar_trigger": false,
      "taf_trigger": false,
      "metar": "METAR LFLS 091600Z AUTO 33009KT CAVOK 23/07 Q1017 NOSIG",
      "taf": "TAF LFLS 091400Z 0915/1015 09005KT CAVOK"
    },
    {
      "icao": "LFMN",
      "alert": "OK",
      "vis_m": 9999,
      "fzfg": false,
      "metar_trigger": false,
      "taf_trigger": false,
      "metar": "METAR LFMN 091600Z 18006KT 9999 FEW013 17/13 Q1015 NOSIG",
      "taf": "TAF LFMN 091400Z 0915/1021 18006KT 9999 FEW013"
    },
    {
      "icao": "LFOB",
      "alert": "OK",
      "vis_m": 9999,
      "fzfg": false,
      "metar_trigger": false,
      "taf_trigger": false,
      "metar": "METAR LFOB 091600Z AUTO 30010KT CAVOK 22/14 Q1016 TEMPO 30015G25KT 4000 -SHRA SCT040 FEW080CB",
      "taf": "TAF LFOB 091100Z 0912/1012 24010KT CAVOK"
    },
    {
      "icao": "LFPO",
      "alert": "OK",
      "vis_m": 9999,
      "fzfg": false,
      "metar_trigger": false,
      "taf_trigger": false,
      "metar": "METAR LFPO 091600Z 27006KT 9999 SCT130CB BKN260 25/11 Q1016 TEMPO 4000 -TSRA BKN050CB",
      "taf": ""
    },
    {
      "icao": "LFSB",
      "alert": "OK",
      "vis_m": 9999,
      "fzfg": false,
      "metar_trigger": false,
      "taf_trigger": false,
      "metar": "METAR LFSB 091600Z AUTO 01004KT 340V070 CAVOK 23/07 Q1016 NOSIG",
      "taf": "TAF LFSB 091100Z 0912/1012 35004KT CAVOK"
    },
    {
      "icao": "LGAV",
      "alert": "OK",
      "vis_m": 9999,
      "fzfg": false,
      "metar_trigger": false,
      "taf_trigger": false,
      "metar": "METAR LGAV 091550Z 05006KT 010V080 9999 FEW025 15/07 Q1014 NOSIG",
      "taf": "TAF LGAV 091100Z 0912/1012 02010KT 9999 SCT030 SCT070"
    },
    {
      "icao": "LGTS",
      "alert": "OK",
      "vis_m": 9999,
      "fzfg": false,
      "metar_trigger": false,
      "taf_trigger": false,
      "metar": "METAR LGTS 091550Z 26004KT 9999 FEW030 18/M03 Q1012 NOSIG",
      "taf": "TAF LGTS 091100Z 0912/1012 VRB03KT 9999 FEW025"
    },
    {
      "icao": "LHBP",
      "alert": "OK",
      "vis_m": 9999,
      "fzfg": false,
      "metar_trigger": false,
      "taf_trigger": false,
      "metar": "METAR LHBP 091600Z 31008KT CAVOK 13/M07 Q1016 NOSIG",
      "taf": "TAF LHBP 091115Z 0912/1012 32009KT CAVOK"
    },
    {
      "icao": "LHDC",
      "alert": "OK",
      "vis_m": 9999,
      "fzfg": false,
      "metar_trigger": false,
      "taf_trigger": false,
      "metar": "METAR LHDC 091545Z AUTO 03014KT 360V060 CAVOK 09/M05 Q1017 NOSIG",
      "taf": "TAF LHDC 091415Z 0915/0924 03008KT CAVOK"
    },
    {
      "icao": "LIBD",
      "alert": "OK",
      "vis_m": 9999,
      "fzfg": false,
      "metar_trigger": false,
      "taf_trigger": false,
      "metar": "METAR LIBD 091550Z 10003KT 060V140 CAVOK 16/01 Q1016",
      "taf": "TAF LIBD 091100Z 0912/1012 03010KT CAVOK"
    },
    {
      "icao": "LIBG",
      "alert": "OK",
      "vis_m": 9999,
      "fzfg": false,
      "metar_trigger": false,
      "taf_trigger": false,
      "metar": "METAR LIBG 091450Z 01008KT CAVOK 19/01 Q1015",
      "taf": "TAF LIBG 091400Z 0915/0924 01012KT CAVOK"
    },
    {
      "icao": "LIBP",
      "alert": "OK",
      "vis_m": 9999,
      "fzfg": false,
      "metar_trigger": false,
      "taf_trigger": false,
      "metar": "METAR LIBP 091550Z AUTO 06008KT 9999 NCD 17/09 Q1015",
      "taf": "TAF LIBP 091100Z 0912/1012 08010KT CAVOK"
    },
    {
      "icao": "LIBR",
      "alert": "OK",
      "vis_m": 9999,
      "fzfg": false,
      "metar_trigger": false,
      "taf_trigger": false,
      "metar": "METAR LIBR 091550Z 33008KT 300V360 CAVOK 15/06 Q1015",
      "taf": "TAF LIBR 091100Z 0912/1012 34014KT CAVOK"
    },
    {
      "icao": "LICA",
      "alert": "OK",
      "vis_m": 9999,
      "fzfg": false,
      "metar_trigger": false,
      "taf_trigger": false,
      "metar": "METAR LICA 091550Z AUTO 26008KT 9999 NCD 17/14 Q1017",
      "taf": "TAF LICA 091100Z 0912/1012 26012KT 9999 FEW020"
    },
    {
      "icao": "LICC",
      "alert": "OK",
      "vis_m": 9999,
      "fzfg": false,
      "metar_trigger": false,
      "taf_trigger": false,
      "metar": "METAR LICC 091550Z 08007KT CAVOK 20/14 Q1017",
      "taf": "TAF LICC 091100Z 0912/1012 VRB05KT CAVOK"
    },
    {
      "icao": "LICJ",
      "alert": "OK",
      "vis_m": 9999,
      "fzfg": false,
      "metar_trigger": false,
      "taf_trigger": false,
      "metar": "METAR LICJ 091550Z 01003KT CAVOK 20/13 Q1017",
      "taf": "TAF LICJ 091100Z 0912/1012 33010KT CAVOK"
    },
    {
      "icao": "LIMC",
      "alert": "OK",
      "vis_m": 9999,
      "fzfg": false,
      "metar_trigger": false,
      "taf_trigger": false,
      "metar": "METAR LIMC 091550Z 18003KT 110V240 CAVOK 22/09 Q1014 NOSIG",
      "taf": "TAF LIMC 091100Z 0912/1018 VRB05KT CAVOK"
    },
    {
      "icao": "LIME",
      "alert": "OK",
      "vis_m": 9999,
      "fzfg": false,
      "metar_trigger": false,
      "taf_trigger": false,
      "metar": "METAR LIME 091550Z 18004KT 140V220 CAVOK 20/08 Q1014 NOSIG",
      "taf": "TAF LIME 091100Z 0912/1012 VRB05KT CAVOK"
    },
    {
      "icao": "LIMF",
      "alert": "OK",
      "vis_m": 9999,
      "fzfg": false,
      "metar_trigger": false,
      "taf_trigger": false,
      "metar": "METAR LIMF 091550Z 06004KT 020V090 CAVOK 22/09 Q1014",
      "taf": "TAF LIMF 091100Z 0912/1012 VRB05KT CAVOK"
    },
    {
      "icao": "LIMJ",
      "alert": "OK",
      "vis_m": 9999,
      "fzfg": false,
      "metar_trigger": false,
      "taf_trigger": false,
      "metar": "METAR LIMJ 091550Z VRB02KT 9999 FEW015 17/13 Q1015",
      "taf": "TAF LIMJ 091100Z 0912/1012 18006KT 9999 FEW020"
    },
    {
      "icao": "LIPE",
      "alert": "OK",
      "vis_m": 9999,
      "fzfg": false,
      "metar_trigger": false,
      "taf_trigger": false,
      "metar": "METAR LIPE 091550Z 08009KT 040V110 CAVOK 20/07 Q1014",
      "taf": "TAF LIPE 091100Z 0912/1012 08010KT 9999 SCT050"
    },
    {
      "icao": "LIPH",
      "alert": "OK",
      "vis_m": 9999,
      "fzfg": false,
      "metar_trigger": false,
      "taf_trigger": false,
      "metar": "METAR LIPH 091550Z 13006KT 100V170 CAVOK 16/07 Q1016",
      "taf": "TAF LIPH 091100Z 0912/1012 VRB05KT 9999 SCT050"
    },
    {
      "icao": "LIPQ",
      "alert": "OK",
      "vis_m": 9999,
      "fzfg": false,
      "metar_trigger": false,
      "taf_trigger": false,
      "metar": "METAR LIPQ 091550Z AUTO 21005KT 9999 FEW240/// 15/05 Q1016",
      "taf": "TAF LIPQ 091100Z 0912/1012 19010KT CAVOK"
    },
    {
      "icao": "LIPR",
      "alert": "OK",
      "vis_m": 9999,
      "fzfg": false,
      "metar_trigger": false,
      "taf_trigger": false,
      "metar": "METAR LIPR 091550Z 11010KT CAVOK 16/10 Q1015",
      "taf": "TAF LIPR 091100Z 0912/1012 12012KT 9999 FEW050"
    },
    {
      "icao": "LIPX",
      "alert": "OK",
      "vis_m": 9999,
      "fzfg": false,
      "metar_trigger": false,
      "taf_trigger": false,
      "metar": "METAR LIPX 091550Z 11004KT 070V160 CAVOK 20/06 Q1014",
      "taf": "TAF LIPX 091100Z 0912/1012 10006KT CAVOK"
    },
    {
      "icao": "LIPY",
      "alert": "OK",
      "vis_m": 9999,
      "fzfg": false,
      "metar_trigger": false,
      "taf_trigger": false,
      "metar": "METAR LIPY 091550Z AUTO 13005KT 090V190 9999 NCD 18/07 Q1015",
      "taf": "TAF LIPY 091100Z 0912/1012 14012KT CAVOK"
    },
    {
      "icao": "LIPZ",
      "alert": "OK",
      "vis_m": 9999,
      "fzfg": false,
      "metar_trigger": false,
      "taf_trigger": false,
      "metar": "METAR LIPZ 091550Z 13006KT 110V170 CAVOK 15/06 Q1016 NOSIG",
      "taf": "TAF LIPZ 091100Z 0912/1018 16010KT CAVOK"
    },
    {
      "icao": "LIRF",
      "alert": "OK",
      "vis_m": 9999,
      "fzfg": false,
      "metar_trigger": false,
      "taf_trigger": false,
      "metar": "METAR LIRF 091550Z 26007KT 230V290 9999 FEW005 17/14 Q1016 NOSIG",
      "taf": "TAF LIRF 091100Z 0912/1018 26010KT CAVOK"
    },
    {
      "icao": "LIRN",
      "alert": "OK",
      "vis_m": 9999,
      "fzfg": false,
      "metar_trigger": false,
      "taf_trigger": false,
      "metar": "METAR LIRN 091550Z 19008KT 160V220 9999 FEW030 17/12 Q1016 NOSIG",
      "taf": "TAF LIRN 091100Z 0912/1012 22010KT 9999 FEW020"
    },
    {
      "icao": "LIRP",
      "alert": "OK",
      "vis_m": 9999,
      "fzfg": false,
      "metar_trigger": false,
      "taf_trigger": false,
      "metar": "METAR LIRP 091545Z 27008KT CAVOK 18/11 Q1015 NOSIG",
      "taf": "TAF LIRP 091100Z 0912/1012 27007KT CAVOK"
    },
    {
      "icao": "LIRZ",
      "alert": "OK",
      "vis_m": 9999,
      "fzfg": false,
      "metar_trigger": false,
      "taf_trigger": false,
      "metar": "METAR LIRZ 091550Z AUTO 25010KT 9999 NCD 23/08 Q1013",
      "taf": "TAF LIRZ 091100Z 0912/1012 VRB05KT CAVOK"
    },
    {
      "icao": "LJLJ",
      "alert": "OK",
      "vis_m": 9999,
      "fzfg": false,
      "metar_trigger": false,
      "taf_trigger": false,
      "metar": "METAR LJLJ 091530Z 08005KT 040V120 CAVOK 15/M00 Q1015 NOSIG",
      "taf": "TAF LJLJ 091100Z 0912/1012 10005KT CAVOK"
    },
    {
      "icao": "LKMT",
      "alert": "OK",
      "vis_m": 9999,
      "fzfg": false,
      "metar_trigger": false,
      "taf_trigger": false,
      "metar": "METAR LKMT 091600Z 02013KT 9999 SCT036 05/M03 Q1020 NOSIG",
      "taf": "TAF LKMT 091100Z 0912/1012 01010KT 9999 BKN030"
    },
    {
      "icao": "LKPR",
      "alert": "OK",
      "vis_m": 9999,
      "fzfg": false,
      "metar_trigger": false,
      "taf_trigger": false,
      "metar": "METAR LKPR 091600Z 35009KT 330V030 CAVOK 11/M09 Q1019 NOSIG",
      "taf": "TAF LKPR 091400Z 0915/1021 02010KT CAVOK"
    },
    {
      "icao": "LLBG",
      "alert": "OK",
      "vis_m": 9999,
      "fzfg": false,
      "metar_trigger": false,
      "taf_trigger": false,
      "metar": "METAR LLBG 091550Z 32004KT CAVOK 19/12 Q1015 NOSIG",
      "taf": "TAF LLBG 091104Z 0912/1012 24012KT 9999 FEW030 TX21/0912Z TN13/1003Z"
    },
    {
      "icao": "LMML",
      "alert": "OK",
      "vis_m": 9999,
      "fzfg": false,
      "metar_trigger": false,
      "taf_trigger": false,
      "metar": "METAR LMML 091545Z 03006KT 010V090 CAVOK 20/12 Q1017 NOSIG",
      "taf": "TAF LMML 091100Z 0912/1012 VRB07KT CAVOK"
    },
    {
      "icao": "LOWW",
      "alert": "OK",
      "vis_m": 9999,
      "fzfg": false,
      "metar_trigger": false,
      "taf_trigger": false,
      "metar": "METAR LOWW 091550Z 01010KT 330V040 CAVOK 14/M03 Q1017 NOSIG",
      "taf": "TAF LOWW 091415Z 0915/1021 34012KT 9999 FEW050 TX14/0915Z TN00/1004Z"
    },
    {
      "icao": "LPFR",
      "alert": "OK",
      "vis_m": 9999,
      "fzfg": false,
      "metar_trigger": false,
      "taf_trigger": false,
      "metar": "METAR LPFR 091530Z 27009KT 240V300 9999 FEW030 SCT040 17/12 Q1013",
      "taf": "TAF LPFR 091100Z 0912/1012 24010KT 9999 SCT030"
    },
    {
      "icao": "LPMA",
      "alert": "OK",
      "vis_m": 9999,
      "fzfg": false,
      "metar_trigger": false,
      "taf_trigger": false,
      "metar": "METAR LPMA 091530Z 36018G30KT 310V040 9999 SCT013 FEW018CB 16/12 Q1019 RESHRA",
      "taf": ""
    },
    {
      "icao": "LPPR",
      "alert": "OK",
      "vis_m": 8000,
      "fzfg": false,
      "metar_trigger": false,
      "taf_trigger": false,
      "metar": "METAR LPPR 091530Z 34012KT 8000 FEW009 19/15 Q1015",
      "taf": "TAF LPPR 091100Z 0912/1012 32010KT CAVOK"
    },
    {
      "icao": "LPPS",
      "alert": "OK",
      "vis_m": 9999,
      "fzfg": false,
      "metar_trigger": false,
      "taf_trigger": false,
      "metar": "METAR LPPS 091530Z 01020G30KT 9999 FEW014 FEW016TCU SCT030 17/13 Q1020",
      "taf": "TAF LPPS 091100Z 0912/1018 01020KT 9999 SCT012 SCT030"
    },
    {
      "icao": "LPPT",
      "alert": "OK",
      "vis_m": 9999,
      "fzfg": false,
      "metar_trigger": false,
      "taf_trigger": false,
      "metar": "METAR LPPT 091530Z 34013KT 9999 FEW040 21/13 Q1013",
      "taf": "TAF LPPT 091100Z 0912/1018 05008KT 9999 SCT030"
    },
    {
      "icao": "LQBK",
      "alert": "OK",
      "vis_m": 9999,
      "fzfg": false,
      "metar_trigger": false,
      "taf_trigger": false,
      "metar": "METAR LQBK 091600Z 34005KT 290V020 CAVOK 14/M02 Q1017 NOSIG",
      "taf": "TAF LQBK 091100Z 0912/1012 29005KT CAVOK TX14/0913Z TN01/1004Z"
    },
    {
      "icao": "LQSA",
      "alert": "OK",
      "vis_m": 9999,
      "fzfg": false,
      "metar_trigger": false,
      "taf_trigger": false,
      "metar": "METAR LQSA 091600Z 35008KT 320V040 CAVOK 13/M10 Q1015 NOSIG",
      "taf": "TAF LQSA 091100Z 0912/1012 34006KT CAVOK TX15/0914Z TNM02/1005Z"
    },
    {
      "icao": "LQTZ",
      "alert": "OK",
      "vis_m": 9999,
      "fzfg": false,
      "metar_trigger": false,
      "taf_trigger": false,
      "metar": "METAR LQTZ 091600Z 33010KT CAVOK 13/M03 Q1017",
      "taf": "TAF LQTZ 091100Z 0912/1012 28006KT CAVOK TX13/0913Z TNM01/1004Z"
    },
    {
      "icao": "LRBC",
      "alert": "OK",
      "vis_m": 9999,
      "fzfg": false,
      "metar_trigger": false,
      "taf_trigger": false,
      "metar": "METAR LRBC 091530Z 36012KT 9999 BKN038 06/00 Q1016",
      "taf": "TAF LRBC 091400Z 0915/0924 03012KT 9999 BKN035"
    },
    {
      "icao": "LRBS",
      "alert": "OK",
      "vis_m": 9999,
      "fzfg": false,
      "metar_trigger": false,
      "taf_trigger": false,
      "metar": "METAR LRBS 091530Z 19005KT 140V230 9999 FEW035 BKN049 08/01 Q1015 NOSIG",
      "taf": "TAF LRBS 091100Z 0912/1012 VRB04KT CAVOK"
    },
    {
      "icao": "LRBV",
      "alert": "OK",
      "vis_m": 9999,
      "fzfg": false,
      "metar_trigger": false,
      "taf_trigger": false,
      "metar": "METAR LRBV 091530Z 28004KT 210V330 9999 SCT026 FEW040CB BKN058 02/00 Q1015",
      "taf": "TAF LRBV 091400Z 0915/0924 29009KT 9999 BKN030"
    },
    {
      "icao": "LRCL",
      "alert": "OK",
      "vis_m": 9999,
      "fzfg": false,
      "metar_trigger": false,
      "taf_trigger": false,
      "metar": "METAR LRCL 091530Z 29011KT 260V320 9999 VCSH FEW050CB SCT054 07/M03 Q1016",
      "taf": "TAF LRCL 091400Z 0915/0924 30012KT 9999 BKN040"
    },
    {
      "icao": "LRCV",
      "alert": "OK",
      "vis_m": 9999,
      "fzfg": false,
      "metar_trigger": false,
      "taf_trigger": false,
      "metar": "METAR LRCV 091530Z 31007KT 290V350 CAVOK 12/M01 Q1014",
      "taf": "TAF LRCV 091400Z 0915/0924 30009KT CAVOK"
    },
    {
      "icao": "LRIA",
      "alert": "OK",
      "vis_m": 9999,
      "fzfg": false,
      "metar_trigger": false,
      "taf_trigger": false,
      "metar": "METAR LRIA 091530Z 33011KT 9999 FEW019 SCT043 06/01 Q1015",
      "taf": "TAF LRIA 091400Z 0915/0924 32012KT 9999 BKN030"
    },
    {
      "icao": "LROP",
      "alert": "OK",
      "vis_m": 9999,
      "fzfg": false,
      "metar_trigger": false,
      "taf_trigger": false,
      "metar": "METAR LROP 091530Z 27007KT 9999 SCT049 09/M02 Q1015 NOSIG",
      "taf": "TAF LROP 091100Z 0912/1012 VRB04KT CAVOK"
    },
    {
      "icao": "LRSB",
      "alert": "OK",
      "vis_m": 9999,
      "fzfg": false,
      "metar_trigger": false,
      "taf_trigger": false,
      "metar": "METAR LRSB 091530Z 28006KT 9999 FEW030CB SCT050 BKN085 06/M00 Q1015 NOSIG",
      "taf": "TAF LRSB 091100Z 0912/1012 VRB04KT 9999 SCT045"
    },
    {
      "icao": "LRSM",
      "alert": "OK",
      "vis_m": 9999,
      "fzfg": false,
      "metar_trigger": false,
      "taf_trigger": false,
      "metar": "METAR LRSM 091530Z 01011KT CAVOK 09/M05 Q1017",
      "taf": "TAF LRSM 091400Z 0915/0924 34012KT 9999 SCT045"
    },
    {
      "icao": "LRSV",
      "alert": "OK",
      "vis_m": 9999,
      "fzfg": false,
      "metar_trigger": false,
      "taf_trigger": false,
      "metar": "METAR LRSV 091530Z 31013KT 9999 -SHSN SCT030CB BKN040 02/M01 Q1016",
      "taf": "TAF LRSV 091400Z 0915/0924 31014KT 9999 BKN040"
    },
    {
      "icao": "LRTM",
      "alert": "OK",
      "vis_m": 9999,
      "fzfg": false,
      "metar_trigger": false,
      "taf_trigger": false,
      "metar": "METAR LRTM 091530Z 34010KT 300V360 9999 FEW042CB SCT047 07/M00 Q1016",
      "taf": "TAF LRTM 091400Z 0915/0924 30009KT 9999 BKN035"
    },
    {
      "icao": "LRTR",
      "alert": "OK",
      "vis_m": 9999,
      "fzfg": false,
      "metar_trigger": false,
      "taf_trigger": false,
      "metar": "METAR LRTR 091530Z 29008KT 9999 FEW045 10/M01 Q1017",
      "taf": "TAF LRTR 091100Z 0912/1012 01010KT CAVOK"
    },
    {
      "icao": "LTAC",
      "alert": "OK",
      "vis_m": 9999,
      "fzfg": false,
      "metar_trigger": false,
      "taf_trigger": false,
      "metar": "METAR LTAC 091550Z 31008KT 9999 SCT040 BKN100 07/M05 Q1011 NOSIG RMK RWY21C 31007KT 230V330 RWY03L 30008KT 260V330 RWY21R 31006KT 260V330 RWY03R 28007KT 250V310 RWY21L 30007KT",
      "taf": "TAF LTAC 091040Z 0912/1012 VRB02KT 9999 SCT040 BKN100"
    },
    {
      "icao": "LTFM",
      "alert": "OK",
      "vis_m": 9999,
      "fzfg": false,
      "metar_trigger": false,
      "taf_trigger": false,
      "metar": "METAR LTFM 091550Z 02008KT 9999 FEW035 BKN090 09/03 Q1015 NOSIG RMK RWY17L 01006KT RWY34L 01007KT RWY16R 01006KT RWY36 02009KT RWY18 03007KT",
      "taf": "TAF LTFM 091040Z 0912/1018 20010KT 9999 SCT035 BKN090"
    },
    {
      "icao": "LUKK",
      "alert": "OK",
      "vis_m": 9999,
      "fzfg": false,
      "metar_trigger": false,
      "taf_trigger": false,
      "metar": "METAR LUKK 091600Z 32011KT 9999 FEW047CB 06/M00 Q1014 TEMPO 34015G25KT 5000 SHRA SCT030CB",
      "taf": "TAF LUKK 091106Z 0912/1012 34012KT 9999 SCT030"
    },
    {
      "icao": "LWOH",
      "alert": "OK",
      "vis_m": 9999,
      "fzfg": false,
      "metar_trigger": false,
      "taf_trigger": false,
      "metar": "METAR LWOH 091550Z 17004KT 130V230 9999 FEW040 SCT090 14/02 Q1012",
      "taf": "TAF LWOH 091420Z 0915/1015 16006KT 9999 FEW040"
    },
    {
      "icao": "LWSK",
      "alert": "OK",
      "vis_m": 9999,
      "fzfg": false,
      "metar_trigger": false,
      "taf_trigger": false,
      "metar": "METAR LWSK 091550Z 01012KT 340V040 CAVOK 16/00 Q1013 NOSIG",
      "taf": "TAF LWSK 091420Z 0915/1015 36010KT CAVOK"
    },
    {
      "icao": "LYBE",
      "alert": "OK",
      "vis_m": 9999,
      "fzfg": false,
      "metar_trigger": false,
      "taf_trigger": false,
      "metar": "METAR LYBE 091600Z 36004KT 320V060 CAVOK 11/M00 Q1018 NOSIG",
      "taf": "TAF LYBE 091100Z 0912/1012 33012KT 9999 SCT040 TX13/0913Z TN01/1004Z"
    },
    {
      "icao": "LYNI",
      "alert": "OK",
      "vis_m": 9999,
      "fzfg": false,
      "metar_trigger": false,
      "taf_trigger": false,
      "metar": "METAR LYNI 091600Z 31011KT 280V340 9999 FEW045 SCT060 11/M02 Q1016 NOSIG",
      "taf": "TAF LYNI 091100Z 0912/1012 32018KT 9999 SCT050 TX15/1012Z TN00/1004Z"
    },
    {
      "icao": "LYPG",
      "alert": "OK",
      "vis_m": 9999,
      "fzfg": false,
      "metar_trigger": false,
      "taf_trigger": false,
      "metar": "METAR LYPG 091600Z 20008KT CAVOK 18/01 Q1013 NOSIG",
      "taf": "TAF LYPG 091100Z 0912/1012 16008KT CAVOK TX22/1012Z TN06/1004Z"
    },
    {
      "icao": "LZIB",
      "alert": "OK",
      "vis_m": 9999,
      "fzfg": false,
      "metar_trigger": false,
      "taf_trigger": false,
      "metar": "METAR LZIB 091600Z 34010KT 290V010 CAVOK 13/M04 Q1017 NOSIG",
      "taf": "TAF LZIB 091115Z 0912/1012 35013KT CAVOK"
    },
    {
      "icao": "LZKZ",
      "alert": "OK",
      "vis_m": 9999,
      "fzfg": false,
      "metar_trigger": false,
      "taf_trigger": false,
      "metar": "METAR LZKZ 091600Z 03009KT CAVOK 06/M05 Q1018 NOSIG",
      "taf": "TAF LZKZ 091115Z 0912/1012 01013KT CAVOK"
    },
    {
      "icao": "LZTT",
      "alert": "OK",
      "vis_m": 9999,
      "fzfg": false,
      "metar_trigger": false,
      "taf_trigger": false,
      "metar": "METAR LZTT 091600Z 06013KT 9999 SCT043 04/M06 Q1015 NOSIG",
      "taf": ""
    },
    {
      "icao": "OEJN",
      "alert": "OK",
      "vis_m": 9999,
      "fzfg": false,
      "metar_trigger": false,
      "taf_trigger": false,
      "metar": "METAR OEJN 091600Z 31009KT CAVOK 26/08 Q1011 NOSIG",
      "taf": "TAF OEJN 091100Z 0912/1018 34012KT CAVOK"
    },
    {
      "icao": "OEMA",
      "alert": "OK",
      "vis_m": 9999,
      "fzfg": false,
      "metar_trigger": false,
      "taf_trigger": false,
      "metar": "METAR OEMA 091600Z VRB02KT CAVOK 27/M13 Q1015 NOSIG",
      "taf": "TAF OEMA 091100Z 0912/1018 35005KT CAVOK"
    },
    {
      "icao": "OJAI",
      "alert": "OK",
      "vis_m": 5000,
      "fzfg": false,
      "metar_trigger": false,
      "taf_trigger": false,
      "metar": "METAR OJAI 091500Z 28014KT 5000 HZ NSC 17/03 Q1016 NOSIG",
      "taf": "TAF OJAI 091049Z 0912/1018 26014KT 4000 HZ FEW035"
    },
    {
      "icao": "OMAA",
      "alert": "OK",
      "vis_m": null,
      "fzfg": false,
      "metar_trigger": false,
      "taf_trigger": false,
      "metar": "",
      "taf": ""
    },
    {
      "icao": "OMDB",
      "alert": "OK",
      "vis_m": null,
      "fzfg": false,
      "metar_trigger": false,
      "taf_trigger": false,
      "metar": "",
      "taf": ""
    },
    {
      "icao": "UAAA",
      "alert": "OK",
      "vis_m": 9999,
      "fzfg": false,
      "metar_trigger": false,
      "taf_trigger": false,
      "metar": "METAR UAAA 091530Z 17002MPS 9999 -SHRA BKN050CB OVC100 11/10 Q1019 NOSIG",
      "taf": "TAF UAAA 091108Z 0912/1012 17003G08MPS 9999 SCT011 BKN020CB OVC050 TX19/1008Z TN08/1001Z"
    },
    {
      "icao": "UBBB",
      "alert": "OK",
      "vis_m": 9999,
      "fzfg": false,
      "metar_trigger": false,
      "taf_trigger": false,
      "metar": "METAR UBBB 091600Z 01014KT 9999 OVC018 10/06 Q1014 NOSIG",
      "taf": "TAF UBBB 091053Z 0912/1012 36005KT 9999 SCT014 BKN025 TX12/0912Z TN07/1001Z"
    },
    {
      "icao": "UDSG",
      "alert": "OK",
      "vis_m": 9999,
      "fzfg": false,
      "metar_trigger": false,
      "taf_trigger": false,
      "metar": "METAR UDSG 091530Z 02004KT 9999 FEW046CB 04/M08 Q1013 NOSIG",
      "taf": "TAF UDSG 091058Z 0912/1012 24006KT 9999 BKN040"
    },
    {
      "icao": "UDYZ",
      "alert": "OK",
      "vis_m": 9999,
      "fzfg": false,
      "metar_trigger": false,
      "taf_trigger": false,
      "metar": "METAR UDYZ 091530Z 14009KT 9999 SCT043CB 13/02 Q1010 NOSIG",
      "taf": "TAF UDYZ 091100Z 0912/1012 23006KT 9999 FEW040"
    },
    {
      "icao": "UGKO",
      "alert": "OK",
      "vis_m": 9999,
      "fzfg": false,
      "metar_trigger": false,
      "taf_trigger": false,
      "metar": "METAR UGKO 091530Z 15007KT 9999 BKN055 09/05 Q1017 NOSIG",
      "taf": "TAF UGKO 091100Z 0912/1012 25007KT 9999 SCT020 OVC050 TX12/1011Z TN05/1003Z"
    }
  ]
}