{
  "ts_utc": "2026-02-01T08:44:58Z",
  "threshold_m": 150,
  "source": "stations_override.txt (ICAO list) + aviationweather.gov (METAR/TAF raw)",
  "station_count": 159,
  "stations": [
    {
      "icao": "BIKF",
      "alert": "OK",
      "vis_m": 9999,
      "fzfg": false,
      "metar_trigger": false,
      "taf_trigger": false,
      "metar": "METAR BIKF 010830Z 08011KT CAVOK 01/M03 Q0998",
      "taf": "TAF BIKF 010751Z 0109/0209 08013KT 9999 FEW040 TX04/0115Z TN01/0109Z"
    },
    {
      "icao": "BKPR",
      "alert": "OK",
      "vis_m": 9999,
      "fzfg": false,
      "metar_trigger": false,
      "taf_trigger": false,
      "metar": "METAR BKPR 010830Z 01016KT 9999 -RA SCT012 BKN030 02/02 Q1005 NOSIG",
      "taf": "TAF BKPR 010530Z 0106/0206 01008KT 9999 SCT012 BKN040"
    },
    {
      "icao": "EBCI",
      "alert": "OK",
      "vis_m": 9999,
      "fzfg": false,
      "metar_trigger": false,
      "taf_trigger": false,
      "metar": "METAR EBCI 010820Z 17007KT 150V210 9999 BKN008 06/04 Q1005 BECMG BKN012",
      "taf": "TAF EBCI 010506Z 0106/0212 18006KT 9999 SCT012 BKN020"
    },
    {
      "icao": "EDDB",
      "alert": "OK",
      "vis_m": 9999,
      "fzfg": false,
      "metar_trigger": false,
      "taf_trigger": false,
      "metar": "METAR EDDB 010820Z AUTO 09011KT 9999 OVC020 M08/M11 Q1016 NOSIG",
      "taf": "TAF EDDB 010500Z 0106/0206 08011KT 9999 OVC025"
    },
    {
      "icao": "EDDH",
      "alert": "OK",
      "vis_m": 9999,
      "fzfg": false,
      "metar_trigger": false,
      "taf_trigger": false,
      "metar": "METAR EDDH 010820Z AUTO 12013KT 080V140 9999 FEW014 BKN036 BKN046 M06/M09 Q1014 NOSIG",
      "taf": "TAF EDDH 010500Z 0106/0212 11012KT 9999 BKN013"
    },
    {
      "icao": "EDDK",
      "alert": "OK",
      "vis_m": 9999,
      "fzfg": false,
      "metar_trigger": false,
      "taf_trigger": false,
      "metar": "METAR EDDK 010820Z AUTO 11006KT 070V140 9999 SCT009 04/02 Q1008 NOSIG",
      "taf": "TAF EDDK 010500Z 0106/0212 12009KT 9999 SCT015 BKN030"
    },
    {
      "icao": "EDDN",
      "alert": "OK",
      "vis_m": 9999,
      "fzfg": false,
      "metar_trigger": false,
      "taf_trigger": false,
      "metar": "METAR EDDN 010820Z AUTO 12006KT 9999 OVC010 01/M01 Q1011 TEMPO OVC009",
      "taf": "TAF EDDN 010500Z 0106/0206 11006KT 9999 BKN015 OVC040"
    },
    {
      "icao": "EDDS",
      "alert": "OK",
      "vis_m": 9999,
      "fzfg": false,
      "metar_trigger": false,
      "taf_trigger": false,
      "metar": "METAR EDDS 010820Z AUTO 07001KT CAVOK 00/M01 Q1009 NOSIG",
      "taf": "TAF EDDS 010500Z 0106/0206 VRB03KT 7000 SCT008"
    },
    {
      "icao": "EDFH",
      "alert": "OK",
      "vis_m": 300,
      "fzfg": false,
      "metar_trigger": false,
      "taf_trigger": false,
      "metar": "METAR EDFH 010820Z 14011KT 0300 R21/0325N FG VV/// 01/01 Q1007",
      "taf": "TAF EDFH 010500Z 0106/0206 14012KT 0600 FG OVC001"
    },
    {
      "icao": "EDJA",
      "alert": "OK",
      "vis_m": 9999,
      "fzfg": false,
      "metar_trigger": false,
      "taf_trigger": false,
      "metar": "METAR EDJA 010820Z 18004KT 9999 BKN008 OVC062 00/M00 Q1009",
      "taf": "TAF EDJA 010800Z 0109/0118 VRB03KT 6000 OVC005"
    },
    {
      "icao": "EDLW",
      "alert": "OK",
      "vis_m": 9999,
      "fzfg": false,
      "metar_trigger": false,
      "taf_trigger": false,
      "metar": "METAR EDLW 010820Z 13009KT CAVOK 04/02 Q1007",
      "taf": "TAF EDLW 010500Z 0106/0206 12006KT 9999 SCT045"
    },
    {
      "icao": "EDNY",
      "alert": "OK",
      "vis_m": 8000,
      "fzfg": false,
      "metar_trigger": false,
      "taf_trigger": false,
      "metar": "METAR EDNY 010820Z 23003KT 8000 OVC008 02/01 Q1010",
      "taf": "TAF EDNY 010800Z 0109/0118 VRB03KT 9999 OVC009"
    },
    {
      "icao": "EDSB",
      "alert": "OK",
      "vis_m": 300,
      "fzfg": false,
      "metar_trigger": false,
      "taf_trigger": false,
      "metar": "METAR EDSB 010820Z 05002KT 0300 R21/0300N FG VV/// 02/02 Q1009",
      "taf": ""
    },
    {
      "icao": "EETN",
      "alert": "OK",
      "vis_m": 3600,
      "fzfg": false,
      "metar_trigger": false,
      "taf_trigger": false,
      "metar": "METAR EETN 010820Z VRB02KT 3600 SN OVC022 M14/M16 Q1033 TEMPO 2000",
      "taf": "TAF EETN 010530Z 0106/0206 10006KT 6000 SN SCT015 BKN020"
    },
    {
      "icao": "EFTU",
      "alert": "OK",
      "vis_m": 9999,
      "fzfg": false,
      "metar_trigger": false,
      "taf_trigger": false,
      "metar": "METAR EFTU 010820Z AUTO 10005KT CAVOK M17/M19 Q1034",
      "taf": "TAF EFTU 010836Z 0109/0209 08005KT CAVOK"
    },
    {
      "icao": "EGBB",
      "alert": "OK",
      "vis_m": 3000,
      "fzfg": false,
      "metar_trigger": false,
      "taf_trigger": false,
      "metar": "METAR EGBB 010820Z 14003KT 3000 BR OVC003 06/05 Q1000",
      "taf": "TAF EGBB 010500Z 0106/0206 18005KT 9999 SCT030"
    },
    {
      "icao": "EGGP",
      "alert": "OK",
      "vis_m": 9999,
      "fzfg": false,
      "metar_trigger": false,
      "taf_trigger": false,
      "metar": "METAR EGGP 010820Z 15002KT 9999 -RA SCT030 BKN037 04/03 Q0999",
      "taf": "TAF EGGP 010505Z 0106/0206 18005KT 9999 BKN030"
    },
    {
      "icao": "EGGW",
      "alert": "OK",
      "vis_m": 1400,
      "fzfg": false,
      "metar_trigger": false,
      "taf_trigger": false,
      "metar": "METAR EGGW 010820Z AUTO 16004KT 1400 R25/P1500N BR OVC002 06/06 Q1000",
      "taf": "TAF EGGW 010502Z 0106/0206 17005KT 9999 FEW008 SCT045"
    },
    {
      "icao": "EGKK",
      "alert": "OK",
      "vis_m": 8000,
      "fzfg": false,
      "metar_trigger": false,
      "taf_trigger": false,
      "metar": "METAR EGKK 010820Z 17003KT 8000 -RA SCT047 08/08 Q1001",
      "taf": "TAF EGKK 010500Z 0106/0212 18004KT 9999 SCT012"
    },
    {
      "icao": "EGNM",
      "alert": "OK",
      "vis_m": 9999,
      "fzfg": false,
      "metar_trigger": false,
      "taf_trigger": false,
      "metar": "METAR EGNM 010820Z 23006KT 9999 FEW008 SCT040 04/04 Q0999",
      "taf": "TAF EGNM 010504Z 0106/0206 16004KT 9999 SCT015"
    },
    {
      "icao": "EGPD",
      "alert": "OK",
      "vis_m": 7000,
      "fzfg": false,
      "metar_trigger": false,
      "taf_trigger": false,
      "metar": "METAR EGPD 010820Z 12013KT 7000 BKN007 07/05 Q1000 TEMPO 4000 RA BKN006",
      "taf": "TAF EGPD 010500Z 0106/0206 12012KT 9999 SCT008 BKN015"
    },
    {
      "icao": "EGPF",
      "alert": "OK",
      "vis_m": 7000,
      "fzfg": false,
      "metar_trigger": false,
      "taf_trigger": false,
      "metar": "METAR EGPF 010820Z 04003KT 020V090 7000 BKN009 06/05 Q0997",
      "taf": ""
    },
    {
      "icao": "EHBK",
      "alert": "OK",
      "vis_m": 9999,
      "fzfg": false,
      "metar_trigger": false,
      "taf_trigger": false,
      "metar": "METAR EHBK 010825Z AUTO 16006KT 120V190 9999 BKN026/// OVC030/// 07/05 Q1006 NOSIG",
      "taf": "TAF EHBK 010501Z 0106/0212 16006KT 9999 BKN040"
    },
    {
      "icao": "EHEH",
      "alert": "OK",
      "vis_m": null,
      "fzfg": false,
      "metar_trigger": false,
      "taf_trigger": false,
      "metar": "",
      "taf": "TAF EHEH 010545Z 0106/0212 14006KT 7000 BR BKN040"
    },
    {
      "icao": "EKBI",
      "alert": "OK",
      "vis_m": 9999,
      "fzfg": false,
      "metar_trigger": false,
      "taf_trigger": false,
      "metar": "METAR EKBI 010820Z AUTO 11015KT 9999 SCT015/// BKN030/// M05/M08 Q1015",
      "taf": "TAF EKBI 010827Z 0109/0209 11015KT 9999 BKN016"
    },
    {
      "icao": "EKCH",
      "alert": "OK",
      "vis_m": 9999,
      "fzfg": false,
      "metar_trigger": false,
      "taf_trigger": false,
      "metar": "METAR EKCH 010820Z AUTO 11019KT 9999 FEW028/// BKN170/// M04/M09 Q1020 TEMPO 11020G30KT",
      "taf": "TAF EKCH 010827Z 0109/0209 11018KT 9999 FEW030"
    },
    {
      "icao": "ENAL",
      "alert": "OK",
      "vis_m": 9999,
      "fzfg": false,
      "metar_trigger": false,
      "taf_trigger": false,
      "metar": "METAR ENAL 010820Z 13011KT CAVOK 01/M09 Q1016",
      "taf": "TAF ENAL 010800Z 0109/0118 13012KT CAVOK"
    },
    {
      "icao": "ENBR",
      "alert": "OK",
      "vis_m": 9999,
      "fzfg": false,
      "metar_trigger": false,
      "taf_trigger": false,
      "metar": "METAR ENBR 010820Z 08003KT CAVOK M04/M12 Q1015 NOSIG RMK WIND 1200FT 12006KT",
      "taf": "TAF ENBR 010500Z 0106/0206 10005KT CAVOK"
    },
    {
      "icao": "ENGM",
      "alert": "OK",
      "vis_m": 9999,
      "fzfg": false,
      "metar_trigger": false,
      "taf_trigger": false,
      "metar": "METAR ENGM 010820Z VRB02KT 9999 -SHSN BKN022 M09/M11 Q1024 NOSIG",
      "taf": "TAF ENGM 010500Z 0106/0206 03005KT 9999 BKN025"
    },
    {
      "icao": "ENHD",
      "alert": "OK",
      "vis_m": 9999,
      "fzfg": false,
      "metar_trigger": false,
      "taf_trigger": false,
      "metar": "METAR ENHD 010820Z 11018KT CAVOK M00/M10 Q1015",
      "taf": "TAF ENHD 010800Z 0109/0118 11018KT CAVOK"
    },
    {
      "icao": "ENTC",
      "alert": "OK",
      "vis_m": 9999,
      "fzfg": false,
      "metar_trigger": false,
      "taf_trigger": false,
      "metar": "METAR ENTC 010820Z 19018KT 9999 BKN036 M05/M11 Q1014 TEMPO 4000 -SHSN VV012 RMK WIND 2600FT 19019KT",
      "taf": "TAF ENTC 010500Z 0106/0206 19020KT 9999 FEW030 BKN050"
    },
    {
      "icao": "ENTO",
      "alert": "OK",
      "vis_m": 9999,
      "fzfg": false,
      "metar_trigger": false,
      "taf_trigger": false,
      "metar": "METAR ENTO 010820Z 13009KT 9999 BKN027 M04/M10 Q1023 NOSIG",
      "taf": "TAF ENTO 010500Z 0106/0206 09005KT 9999 BKN025"
    },
    {
      "icao": "ENVA",
      "alert": "OK",
      "vis_m": 9999,
      "fzfg": false,
      "metar_trigger": false,
      "taf_trigger": false,
      "metar": "METAR ENVA 010820Z 15005KT 090V250 CAVOK M03/M12 Q1019 NOSIG RMK WIND 670FT 16017KT",
      "taf": "TAF ENVA 010500Z 0106/0206 16012KT CAVOK"
    },
    {
      "icao": "ENZV",
      "alert": "OK",
      "vis_m": 9999,
      "fzfg": false,
      "metar_trigger": false,
      "taf_trigger": false,
      "metar": "METAR ENZV 010820Z 11014KT 080V140 9999 BKN038 M00/M09 Q1015 TEMPO 15018G28KT",
      "taf": "TAF ENZV 010500Z 0106/0206 12012KT 9999 SCT040"
    },
    {
      "icao": "EPGD",
      "alert": "OK",
      "vis_m": 9999,
      "fzfg": false,
      "metar_trigger": false,
      "taf_trigger": false,
      "metar": "METAR EPGD 010830Z 11011KT CAVOK M14/M17 Q1024",
      "taf": "TAF EPGD 010530Z 0106/0206 10010KT CAVOK"
    },
    {
      "icao": "EPKK",
      "alert": "OK",
      "vis_m": 9999,
      "fzfg": false,
      "metar_trigger": false,
      "taf_trigger": false,
      "metar": "METAR EPKK 010830Z 06012KT 9999 -SG BKN004 BKN016 M12/M15 Q1017",
      "taf": "TAF EPKK 010830Z 0109/0209 06012KT 9999 -SG BKN004 OVC008"
    },
    {
      "icao": "EPKT",
      "alert": "OK",
      "vis_m": 9999,
      "fzfg": false,
      "metar_trigger": false,
      "taf_trigger": false,
      "metar": "METAR EPKT 010830Z 06008KT 9999 -SN SCT003 OVC006 M12/M14 Q1016",
      "taf": ""
    },
    {
      "icao": "EPLB",
      "alert": "OK",
      "vis_m": 9999,
      "fzfg": false,
      "metar_trigger": false,
      "taf_trigger": false,
      "metar": "METAR EPLB 010830Z 07008KT CAVOK M18/M19 Q1022",
      "taf": "TAF EPLB 010530Z 0106/0206 08010KT CAVOK"
    },
    {
      "icao": "EPMO",
      "alert": "OK",
      "vis_m": 9999,
      "fzfg": false,
      "metar_trigger": false,
      "taf_trigger": false,
      "metar": "METAR EPMO 010830Z 07011KT CAVOK M16/M17 Q1023",
      "taf": "TAF EPMO 010530Z 0106/0206 09010KT CAVOK"
    },
    {
      "icao": "EPPO",
      "alert": "OK",
      "vis_m": 9999,
      "fzfg": false,
      "metar_trigger": false,
      "taf_trigger": false,
      "metar": "METAR EPPO 010830Z 10012KT CAVOK M12/M17 Q1020",
      "taf": "TAF EPPO 010530Z 0106/0206 09012KT CAVOK"
    },
    {
      "icao": "EPRA",
      "alert": "OK",
      "vis_m": 9999,
      "fzfg": false,
      "metar_trigger": false,
      "taf_trigger": false,
      "metar": "METAR EPRA 010830Z 05006KT CAVOK M16/M19 Q1021",
      "taf": "TAF EPRA 010830Z 0109/0118 07008KT CAVOK"
    },
    {
      "icao": "EPRZ",
      "alert": "OK",
      "vis_m": 9999,
      "fzfg": false,
      "metar_trigger": false,
      "taf_trigger": false,
      "metar": "METAR EPRZ 010830Z 08017KT CAVOK M14/M17 Q1018",
      "taf": "TAF EPRZ 010530Z 0106/0206 07010KT CAVOK"
    },
    {
      "icao": "EPSC",
      "alert": "OK",
      "vis_m": 9999,
      "fzfg": false,
      "metar_trigger": false,
      "taf_trigger": false,
      "metar": "METAR EPSC 010830Z 10012KT CAVOK M12/M15 Q1020",
      "taf": "TAF EPSC 010530Z 0106/0206 10012KT CAVOK"
    },
    {
      "icao": "EPSY",
      "alert": "OK",
      "vis_m": 9999,
      "fzfg": false,
      "metar_trigger": false,
      "taf_trigger": false,
      "metar": "METAR EPSY 010830Z 07004KT 010V110 CAVOK M17/M19 Q1025",
      "taf": "TAF EPSY 010830Z 0109/0118 06006KT CAVOK"
    },
    {
      "icao": "EPWA",
      "alert": "OK",
      "vis_m": 9999,
      "fzfg": false,
      "metar_trigger": false,
      "taf_trigger": false,
      "metar": "METAR EPWA 010830Z 09008KT 060V120 CAVOK M15/M17 Q1023 NOSIG",
      "taf": "TAF EPWA 010830Z 0109/0209 08010KT CAVOK"
    },
    {
      "icao": "EPWR",
      "alert": "OK",
      "vis_m": 9999,
      "fzfg": false,
      "metar_trigger": false,
      "taf_trigger": false,
      "metar": "METAR EPWR 010830Z 08008KT 9999 -SN FEW006 SCT008 BKN011 M09/M13 Q1017",
      "taf": "TAF EPWR 010830Z 0109/0209 09010KT 9999 BKN017"
    },
    {
      "icao": "ESGG",
      "alert": "OK",
      "vis_m": 9999,
      "fzfg": false,
      "metar_trigger": false,
      "taf_trigger": false,
      "metar": "METAR ESGG 010820Z 11008KT CAVOK M05/M11 Q1022",
      "taf": "TAF ESGG 010830Z 0109/0209 11009KT CAVOK"
    },
    {
      "icao": "ESKN",
      "alert": "OK",
      "vis_m": 9999,
      "fzfg": false,
      "metar_trigger": false,
      "taf_trigger": false,
      "metar": "METAR ESKN 010820Z 13013KT 9999 BKN031 M04/M11 Q1028",
      "taf": "TAF ESKN 010830Z 0109/0209 13013KT 9999 -SN BKN025"
    },
    {
      "icao": "ESMS",
      "alert": "OK",
      "vis_m": 9999,
      "fzfg": false,
      "metar_trigger": false,
      "taf_trigger": false,
      "metar": "METAR ESMS 010820Z 10015KT CAVOK M06/M10 Q1020",
      "taf": "TAF ESMS 010827Z 0109/0209 11015KT CAVOK"
    },
    {
      "icao": "ESSA",
      "alert": "OK",
      "vis_m": 6000,
      "fzfg": false,
      "metar_trigger": false,
      "taf_trigger": false,
      "metar": "METAR ESSA 010820Z 12009KT 6000 -SN FEW011 SCT021 BKN039 M06/M08 Q1029 TEMPO 4000",
      "taf": "TAF ESSA 010830Z 0109/0209 12010KT 9999 BKN020"
    },
    {
      "icao": "EYKA",
      "alert": "OK",
      "vis_m": 9999,
      "fzfg": false,
      "metar_trigger": false,
      "taf_trigger": false,
      "metar": "METAR EYKA 010820Z 35002KT CAVOK M19/M21 Q1029",
      "taf": "TAF EYKA 010500Z 0106/0206 VRB04KT 5000 BR BKN005"
    },
    {
      "icao": "EYPA",
      "alert": "OK",
      "vis_m": 9999,
      "fzfg": false,
      "metar_trigger": false,
      "taf_trigger": false,
      "metar": "METAR EYPA 010820Z 09006KT 070V130 CAVOK M19/M23 Q1030",
      "taf": "TAF EYPA 010500Z 0106/0206 09008KT CAVOK"
    },
    {
      "icao": "EYVI",
      "alert": "OK",
      "vis_m": 9000,
      "fzfg": false,
      "metar_trigger": false,
      "taf_trigger": false,
      "metar": "METAR EYVI 010820Z 03007KT 9000 FEW002 M18/M20 Q1026 TEMPO BKN002",
      "taf": "TAF EYVI 010500Z 0106/0206 04008KT 5000 BR BKN005"
    },
    {
      "icao": "GCFV",
      "alert": "OK",
      "vis_m": 9999,
      "fzfg": false,
      "metar_trigger": false,
      "taf_trigger": false,
      "metar": "METAR GCFV 010830Z 29006KT 240V320 9999 FEW020 14/10 Q1021",
      "taf": "TAF GCFV 010800Z 0109/0209 33007KT 9999 FEW020 TX22/0114Z TN14/0206Z"
    },
    {
      "icao": "GCLP",
      "alert": "OK",
      "vis_m": 9999,
      "fzfg": false,
      "metar_trigger": false,
      "taf_trigger": false,
      "metar": "METAR GCLP 010830Z 01016KT 9999 FEW020 17/13 Q1021 NOSIG",
      "taf": "TAF GCLP 010800Z 0109/0209 02018KT 9999 FEW020 TX21/0114Z TN15/0206Z"
    },
    {
      "icao": "GCTS",
      "alert": "OK",
      "vis_m": 9999,
      "fzfg": false,
      "metar_trigger": false,
      "taf_trigger": false,
      "metar": "METAR GCTS 010830Z 35004KT 9999 FEW022 15/12 Q1022 NOSIG",
      "taf": "TAF GCTS 010800Z 0109/0209 12007KT 9999 FEW025 TX23/0114Z TN14/0206Z"
    },
    {
      "icao": "GMAD",
      "alert": "OK",
      "vis_m": 2000,
      "fzfg": false,
      "metar_trigger": false,
      "taf_trigger": false,
      "metar": "METAR GMAD 010830Z 00000KT 2000 BR OVC003 14/14 Q1018 TEMPO 1200 BR",
      "taf": "TAF GMAD 010500Z 0106/0212 22005KT 6000 BKN005 SCT020"
    },
    {
      "icao": "GMMN",
      "alert": "OK",
      "vis_m": 500,
      "fzfg": false,
      "metar_trigger": false,
      "taf_trigger": false,
      "metar": "METAR GMMN 010830Z 17003KT 130V190 0500 FG BKN002 09/09 Q1021 BECMG 8000 NSC",
      "taf": "TAF GMMN 010500Z 0106/0212 08002KT 2000 BR SCT005"
    },
    {
      "icao": "GMMX",
      "alert": "OK",
      "vis_m": 9999,
      "fzfg": false,
      "metar_trigger": false,
      "taf_trigger": false,
      "metar": "METAR GMMX 010830Z VRB02KT CAVOK 13/11 Q1020 NOSIG",
      "taf": "TAF GMMX 010500Z 0106/0212 24006KT SCT023"
    },
    {
      "icao": "HEGN",
      "alert": "OK",
      "vis_m": 9999,
      "fzfg": false,
      "metar_trigger": false,
      "taf_trigger": false,
      "metar": "METAR HEGN 010800Z 11006KT CAVOK 24/15 Q1016 NOSIG",
      "taf": "TAF HEGN 010500Z 0106/0212 24008KT CAVOK"
    },
    {
      "icao": "HEMA",
      "alert": "OK",
      "vis_m": 9999,
      "fzfg": false,
      "metar_trigger": false,
      "taf_trigger": false,
      "metar": "METAR HEMA 010800Z 00000KT CAVOK 20/M00 Q1016 NOSIG",
      "taf": "TAF HEMA 010500Z 0106/0212 23008KT CAVOK"
    },
    {
      "icao": "HESH",
      "alert": "OK",
      "vis_m": 9999,
      "fzfg": false,
      "metar_trigger": false,
      "taf_trigger": false,
      "metar": "METAR HESH 010800Z 01006KT CAVOK 24/12 Q1016 NOSIG",
      "taf": "TAF HESH 010500Z 0106/0212 30008KT CAVOK"
    },
    {
      "icao": "HESX",
      "alert": "OK",
      "vis_m": 9999,
      "fzfg": false,
      "metar_trigger": false,
      "taf_trigger": false,
      "metar": "METAR HESX 010800Z 20016KT CAVOK 23/M04 Q1013 NOSIG",
      "taf": "TAF HESX 010500Z 0106/0212 22012G24KT 6000 NSC"
    },
    {
      "icao": "LATI",
      "alert": "OK",
      "vis_m": 9999,
      "fzfg": false,
      "metar_trigger": false,
      "taf_trigger": false,
      "metar": "METAR LATI 010820Z 31004KT 270V020 9999 FEW055 OVC080 09/06 Q1000 NOSIG",
      "taf": "TAF LATI 010500Z 0106/0206 VRB05KT 9999 SCT060 TX14/0112Z TN06/0205Z"
    },
    {
      "icao": "LBPD",
      "alert": "OK",
      "vis_m": 6000,
      "fzfg": false,
      "metar_trigger": false,
      "taf_trigger": false,
      "metar": "METAR LBPD 010830Z AUTO 11013KT 6000 -RASN OVC004/// 02/02 Q1012 TEMPO 3000 SNRA BKN003",
      "taf": "TAF LBPD 010500Z 0106/0206 10016KT 8000 SCT010 OVC015"
    },
    {
      "icao": "LBSF",
      "alert": "OK",
      "vis_m": 9999,
      "fzfg": false,
      "metar_trigger": false,
      "taf_trigger": false,
      "metar": "METAR LBSF 010830Z 12014KT 9999 -RA SCT011 OVC023 03/01 Q1008 TEMPO 4000 SNRA BKN010",
      "taf": "TAF LBSF 010500Z 0106/0206 10016KT 9999 BKN008 OVC012"
    },
    {
      "icao": "LBWN",
      "alert": "OK",
      "vis_m": 9999,
      "fzfg": false,
      "metar_trigger": false,
      "taf_trigger": false,
      "metar": "METAR LBWN 010830Z AUTO 07009KT 030V110 9999 OVC012/// M01/M03 Q1016 NOSIG",
      "taf": "TAF LBWN 010500Z 0106/0206 05012KT 8000 BKN015 OVC025"
    },
    {
      "icao": "LCLK",
      "alert": "OK",
      "vis_m": 7000,
      "fzfg": false,
      "metar_trigger": false,
      "taf_trigger": false,
      "metar": "METAR LCLK 010830Z 06004KT 030V090 7000 NSC 19/15 Q1014 NOSIG",
      "taf": "TAF LCLK 010530Z 0106/0206 33006KT 9999 FEW025"
    },
    {
      "icao": "LCPH",
      "alert": "OK",
      "vis_m": 9999,
      "fzfg": false,
      "metar_trigger": false,
      "taf_trigger": false,
      "metar": "METAR LCPH 010830Z 15010KT CAVOK 20/14 Q1013 NOSIG",
      "taf": "TAF LCPH 010530Z 0106/0206 08006KT 9999 SCT020"
    },
    {
      "icao": "LEAL",
      "alert": "OK",
      "vis_m": 9999,
      "fzfg": false,
      "metar_trigger": false,
      "taf_trigger": false,
      "metar": "METAR LEAL 010830Z 28006KT 210V330 CAVOK 14/04 Q1016 NOSIG",
      "taf": "TAF LEAL 010500Z 0106/0206 23005KT 9999 FEW030 TX16/0113Z TN10/0106Z"
    },
    {
      "icao": "LEBB",
      "alert": "OK",
      "vis_m": 9999,
      "fzfg": false,
      "metar_trigger": false,
      "taf_trigger": false,
      "metar": "METAR LEBB 010830Z VRB03KT 9999 BKN045 BKN067 12/05 Q1011 NOSIG",
      "taf": "TAF LEBB 010500Z 0106/0206 14009KT 9999 BKN040 TX13/0115Z TN08/0106Z"
    },
    {
      "icao": "LEBL",
      "alert": "OK",
      "vis_m": 9999,
      "fzfg": false,
      "metar_trigger": false,
      "taf_trigger": false,
      "metar": "METAR LEBL 010830Z 31012KT 260V350 CAVOK 07/04 Q1012 NOSIG",
      "taf": "TAF LEBL 010500Z 0106/0206 32009KT CAVOK TX15/0112Z TN07/0106Z"
    },
    {
      "icao": "LECH",
      "alert": "OK",
      "vis_m": 9999,
      "fzfg": false,
      "metar_trigger": false,
      "taf_trigger": false,
      "metar": "METAR LECH 010830Z AUTO 22003KT 190V270 CAVOK 07/01 Q1013",
      "taf": ""
    },
    {
      "icao": "LEMD",
      "alert": "OK",
      "vis_m": 5000,
      "fzfg": false,
      "metar_trigger": false,
      "taf_trigger": false,
      "metar": "METAR LEMD 010830Z 17003KT 130V210 5000 -DZ BR OVC008 06/06 Q1015 NOSIG",
      "taf": "TAF LEMD 010500Z 0106/0212 VRB03KT 9999 SCT010 TX09/0204Z TN04/0106Z"
    },
    {
      "icao": "LEMG",
      "alert": "OK",
      "vis_m": 9999,
      "fzfg": false,
      "metar_trigger": false,
      "taf_trigger": false,
      "metar": "METAR LEMG 010830Z 30004KT 9999 SCT060 11/09 Q1018 NOSIG",
      "taf": "TAF LEMG 010500Z 0106/0206 29005KT 9999 FEW045 TX19/0115Z TN12/0106Z"
    },
    {
      "icao": "LEVC",
      "alert": "OK",
      "vis_m": 9999,
      "fzfg": false,
      "metar_trigger": false,
      "taf_trigger": false,
      "metar": "METAR LEVC 010830Z 27011KT CAVOK 12/05 Q1015 NOSIG",
      "taf": "TAF LEVC 010500Z 0106/0206 26008KT 9999 FEW030 TX18/0113Z TN10/0106Z"
    },
    {
      "icao": "LEXJ",
      "alert": "OK",
      "vis_m": 9999,
      "fzfg": false,
      "metar_trigger": false,
      "taf_trigger": false,
      "metar": "METAR LEXJ 010830Z 23007KT 190V270 9999 SCT042 BKN065 12/05 Q1010",
      "taf": "TAF LEXJ 010800Z 0109/0209 22007KT 9999 SCT040 TX14/0115Z TN12/0109Z"
    },
    {
      "icao": "LEZG",
      "alert": "OK",
      "vis_m": 9999,
      "fzfg": false,
      "metar_trigger": false,
      "taf_trigger": false,
      "metar": "METAR LEZG 010830Z 32003KT 9999 SCT085 05/04 Q1014 NOSIG",
      "taf": "TAF LEZG 010500Z 0106/0206 24007KT 9999 FEW050 TX14/0114Z TN06/0106Z"
    },
    {
      "icao": "LEZL",
      "alert": "OK",
      "vis_m": 4000,
      "fzfg": false,
      "metar_trigger": false,
      "taf_trigger": false,
      "metar": "METAR LEZL 010830Z 20005KT 140V250 4000 -DZ BKN006 BKN014 14/13 Q1018 NOSIG",
      "taf": "TAF LEZL 010800Z 0109/0209 20009KT 9999 SCT020 TX17/0115Z TN10/0207Z"
    },
    {
      "icao": "LFBD",
      "alert": "OK",
      "vis_m": 8000,
      "fzfg": false,
      "metar_trigger": false,
      "taf_trigger": false,
      "metar": "METAR LFBD 010830Z AUTO 22009KT 8000 -RA BKN008 BKN023 BKN046 10/09 Q1009 TEMPO 3000 RA BKN006 BKN030TCU",
      "taf": "TAF LFBD 010500Z 0106/0212 20010KT 7000 BKN020 TX12/0115Z TN07/0203Z"
    },
    {
      "icao": "LFLL",
      "alert": "OK",
      "vis_m": 9999,
      "fzfg": false,
      "metar_trigger": false,
      "taf_trigger": false,
      "metar": "METAR LFLL 010830Z 16005KT 140V210 CAVOK 05/04 Q1009 NOSIG",
      "taf": "TAF LFLL 010500Z 0106/0212 16007KT 9999 BKN040"
    },
    {
      "icao": "LFLS",
      "alert": "OK",
      "vis_m": 9999,
      "fzfg": false,
      "metar_trigger": false,
      "taf_trigger": false,
      "metar": "METAR LFLS 010830Z AUTO 07004KT CAVOK 04/03 Q1009 NOSIG",
      "taf": "TAF LFLS 010800Z 0109/0209 09008KT CAVOK"
    },
    {
      "icao": "LFMN",
      "alert": "OK",
      "vis_m": 9999,
      "fzfg": false,
      "metar_trigger": false,
      "taf_trigger": false,
      "metar": "METAR LFMN 010830Z 33011KT 9999 SCT050 08/01 Q1007 NOSIG",
      "taf": "TAF LFMN 010800Z 0109/0215 33010KT 9999 SCT045"
    },
    {
      "icao": "LFOB",
      "alert": "OK",
      "vis_m": 9000,
      "fzfg": false,
      "metar_trigger": false,
      "taf_trigger": false,
      "metar": "METAR LFOB 010830Z AUTO 17006KT 140V200 9000 OVC003 06/06 Q1004 TEMPO 4000 BR",
      "taf": "TAF LFOB 010500Z 0106/0206 17006KT 8000 BKN007 OVC050"
    },
    {
      "icao": "LFPO",
      "alert": "OK",
      "vis_m": 1200,
      "fzfg": false,
      "metar_trigger": false,
      "taf_trigger": false,
      "metar": "METAR LFPO 010830Z 18006KT 1200 R02/P2000 R25/P2000 R07/1800U R24/P2000 R06/1600D BR OVC002 07/07 Q1005 NOSIG",
      "taf": ""
    },
    {
      "icao": "LFSB",
      "alert": "OK",
      "vis_m": 9999,
      "fzfg": false,
      "metar_trigger": false,
      "taf_trigger": false,
      "metar": "METAR LFSB 010830Z AUTO 13006KT 9999 BKN029 OVC034 04/02 Q1009 NOSIG",
      "taf": "TAF LFSB 010500Z 0106/0206 14005KT 9999 BKN025"
    },
    {
      "icao": "LGAV",
      "alert": "OK",
      "vis_m": 9999,
      "fzfg": false,
      "metar_trigger": false,
      "taf_trigger": false,
      "metar": "METAR LGAV 010820Z 17019KT 9999 FEW018 SCT025 BKN070 16/10 Q0999 NOSIG",
      "taf": "TAF LGAV 010500Z 0106/0206 14010KT 9999 FEW015 BKN025 BKN070"
    },
    {
      "icao": "LGTS",
      "alert": "OK",
      "vis_m": 9999,
      "fzfg": false,
      "metar_trigger": false,
      "taf_trigger": false,
      "metar": "METAR LGTS 010820Z 10014G24KT 9999 -RA FEW010 FEW015TCU BKN025 08/04 Q1002 NOSIG",
      "taf": "TAF LGTS 010500Z 0106/0206 10013KT 9999 FEW010 BKN025"
    },
    {
      "icao": "LHBP",
      "alert": "OK",
      "vis_m": 9999,
      "fzfg": false,
      "metar_trigger": false,
      "taf_trigger": false,
      "metar": "SPECI LHBP 010843Z 08004KT 050V110 9999 OVC013 00/M02 Q1013 NOSIG",
      "taf": "TAF LHBP 010515Z 0106/0206 07006KT 9999 OVC030"
    },
    {
      "icao": "LHDC",
      "alert": "OK",
      "vis_m": 9999,
      "fzfg": false,
      "metar_trigger": false,
      "taf_trigger": false,
      "metar": "METAR LHDC 010815Z AUTO 03008KT 9999 OVC010 M02/M05 Q1013 NOSIG",
      "taf": "TAF LHDC 010815Z 0109/0118 03007KT 9999 OVC010"
    },
    {
      "icao": "LIBD",
      "alert": "OK",
      "vis_m": 9999,
      "fzfg": false,
      "metar_trigger": false,
      "taf_trigger": false,
      "metar": "METAR LIBD 010820Z 35010KT 320V020 9999 SCT030 12/05 Q1002",
      "taf": "TAF LIBD 010500Z 0106/0206 34012KT 9999 FEW020"
    },
    {
      "icao": "LIBG",
      "alert": "OK",
      "vis_m": 8000,
      "fzfg": false,
      "metar_trigger": false,
      "taf_trigger": false,
      "metar": "METAR LIBG 010750Z 36008KT 8000 -RA BKN020 11/08 Q0999",
      "taf": "TAF LIBG 010800Z 0109/0118 03016KT 9999 SCT030"
    },
    {
      "icao": "LIBP",
      "alert": "OK",
      "vis_m": 9999,
      "fzfg": false,
      "metar_trigger": false,
      "taf_trigger": false,
      "metar": "METAR LIBP 010820Z AUTO 31006KT 260V350 9999 FEW059/// 10/06 Q1007",
      "taf": "TAF LIBP 010500Z 0106/0206 VRB05KT 9999 BKN030"
    },
    {
      "icao": "LIBR",
      "alert": "OK",
      "vis_m": 9999,
      "fzfg": false,
      "metar_trigger": false,
      "taf_trigger": false,
      "metar": "METAR LIBR 010820Z 09013KT 9999 -RA BKN040 11/07 Q0999",
      "taf": "TAF LIBR 010500Z 0106/0206 06016KT 9999 SCT040"
    },
    {
      "icao": "LICA",
      "alert": "OK",
      "vis_m": 9999,
      "fzfg": false,
      "metar_trigger": false,
      "taf_trigger": false,
      "metar": "METAR LICA 010820Z AUTO 03008KT 340V070 9999 OVC090/// 13/05 Q0998",
      "taf": "TAF LICA 010500Z 0106/0206 VRB05KT 9999 BKN030"
    },
    {
      "icao": "LICC",
      "alert": "OK",
      "vis_m": 9999,
      "fzfg": false,
      "metar_trigger": false,
      "taf_trigger": false,
      "metar": "METAR LICC 010820Z 21006KT 180V240 9999 FEW050 BKN100 13/10 Q0999",
      "taf": "TAF LICC 010500Z 0106/0206 28012KT 9999 SCT030"
    },
    {
      "icao": "LICJ",
      "alert": "OK",
      "vis_m": 9999,
      "fzfg": false,
      "metar_trigger": false,
      "taf_trigger": false,
      "metar": "METAR LICJ 010820Z 34018KT 9999 SCT030 15/09 Q1004",
      "taf": "TAF LICJ 010500Z 0106/0206 35015KT 9999 SCT030"
    },
    {
      "icao": "LIMC",
      "alert": "OK",
      "vis_m": 6000,
      "fzfg": false,
      "metar_trigger": false,
      "taf_trigger": false,
      "metar": "METAR LIMC 010820Z VRB01KT 6000 BCFG NSC 00/00 Q1008 NOSIG",
      "taf": "TAF LIMC 010500Z 0106/0212 VRB05KT 5000 BR FEW020"
    },
    {
      "icao": "LIME",
      "alert": "OK",
      "vis_m": 9999,
      "fzfg": false,
      "metar_trigger": false,
      "taf_trigger": false,
      "metar": "METAR LIME 010820Z VRB01KT CAVOK 03/01 Q1008 NOSIG",
      "taf": "TAF LIME 010500Z 0106/0206 VRB05KT 6000 FEW020"
    },
    {
      "icao": "LIMF",
      "alert": "OK",
      "vis_m": 9999,
      "fzfg": false,
      "metar_trigger": false,
      "taf_trigger": false,
      "metar": "METAR LIMF 010820Z VRB01KT CAVOK 02/M01 Q1008",
      "taf": "TAF LIMF 010500Z 0106/0206 VRB04KT CAVOK"
    },
    {
      "icao": "LIMJ",
      "alert": "OK",
      "vis_m": 9999,
      "fzfg": false,
      "metar_trigger": false,
      "taf_trigger": false,
      "metar": "METAR LIMJ 010820Z 02018KT CAVOK 07/02 Q1007 WS R10",
      "taf": "TAF LIMJ 010500Z 0106/0206 04014KT 9999 FEW050"
    },
    {
      "icao": "LIPE",
      "alert": "OK",
      "vis_m": 7000,
      "fzfg": false,
      "metar_trigger": false,
      "taf_trigger": false,
      "metar": "METAR LIPE 010820Z 29004KT 7000 SCT025 BKN045 06/04 Q1009",
      "taf": "TAF LIPE 010500Z 0106/0206 VRB05KT 7000 BKN030"
    },
    {
      "icao": "LIPH",
      "alert": "OK",
      "vis_m": 9999,
      "fzfg": false,
      "metar_trigger": false,
      "taf_trigger": false,
      "metar": "METAR LIPH 010820Z 01004KT CAVOK 05/01 Q1009",
      "taf": "TAF LIPH 010500Z 0106/0206 VRB04KT 9999 FEW040"
    },
    {
      "icao": "LIPQ",
      "alert": "OK",
      "vis_m": 9999,
      "fzfg": false,
      "metar_trigger": false,
      "taf_trigger": false,
      "metar": "METAR LIPQ 010820Z AUTO VRB02KT 9999 NCD 06/01 Q1009",
      "taf": "TAF LIPQ 010500Z 0106/0206 04005KT CAVOK"
    },
    {
      "icao": "LIPR",
      "alert": "OK",
      "vis_m": 8000,
      "fzfg": false,
      "metar_trigger": false,
      "taf_trigger": false,
      "metar": "METAR LIPR 010820Z 29008KT 8000 BKN045 07/04 Q1008",
      "taf": "TAF LIPR 010500Z 0106/0206 30010KT 9999 BKN040"
    },
    {
      "icao": "LIPX",
      "alert": "OK",
      "vis_m": 7000,
      "fzfg": false,
      "metar_trigger": false,
      "taf_trigger": false,
      "metar": "METAR LIPX 010820Z 35004KT 7000 SCT030 01/01 Q1009",
      "taf": "TAF LIPX 010500Z 0106/0206 VRB05KT 0300 FG BKN002"
    },
    {
      "icao": "LIPY",
      "alert": "OK",
      "vis_m": 9999,
      "fzfg": false,
      "metar_trigger": false,
      "taf_trigger": false,
      "metar": "METAR LIPY 010820Z AUTO 31009KT 9999 FEW012/// OVC049/// 07/05 Q1008",
      "taf": "TAF LIPY 010500Z 0106/0206 31010KT 8000 BKN012"
    },
    {
      "icao": "LIPZ",
      "alert": "OK",
      "vis_m": 9999,
      "fzfg": false,
      "metar_trigger": false,
      "taf_trigger": false,
      "metar": "METAR LIPZ 010820Z 01007KT CAVOK 05/01 Q1009 NOSIG",
      "taf": "TAF LIPZ 010500Z 0106/0212 04008KT CAVOK"
    },
    {
      "icao": "LIRF",
      "alert": "OK",
      "vis_m": 9999,
      "fzfg": false,
      "metar_trigger": false,
      "taf_trigger": false,
      "metar": "METAR LIRF 010820Z 02003KT 320V050 CAVOK 10/05 Q1004 NOSIG",
      "taf": "TAF LIRF 010500Z 0106/0212 02010KT CAVOK"
    },
    {
      "icao": "LIRN",
      "alert": "OK",
      "vis_m": 9999,
      "fzfg": false,
      "metar_trigger": false,
      "taf_trigger": false,
      "metar": "METAR LIRN 010820Z 04007KT CAVOK 12/04 Q1003 NOSIG",
      "taf": "TAF LIRN 010500Z 0106/0206 03012KT 9999 FEW030"
    },
    {
      "icao": "LIRP",
      "alert": "OK",
      "vis_m": 9999,
      "fzfg": false,
      "metar_trigger": false,
      "taf_trigger": false,
      "metar": "METAR LIRP 010815Z 09005KT CAVOK 06/05 Q1007 NOSIG",
      "taf": "TAF LIRP 010500Z 0106/0206 14005KT 9999 FEW050"
    },
    {
      "icao": "LIRZ",
      "alert": "OK",
      "vis_m": 9999,
      "fzfg": false,
      "metar_trigger": false,
      "taf_trigger": false,
      "metar": "METAR LIRZ 010820Z AUTO 04009KT 9999 NCD 07/04 Q1006",
      "taf": "TAF LIRZ 010500Z 0106/0206 03014KT CAVOK"
    },
    {
      "icao": "LJLJ",
      "alert": "OK",
      "vis_m": 9999,
      "fzfg": false,
      "metar_trigger": false,
      "taf_trigger": false,
      "metar": "METAR LJLJ 010830Z 20001KT 9999 MIFG FEW040 BKN120 01/00 Q1010 NOSIG",
      "taf": "TAF LJLJ 010500Z 0106/0206 VRB02KT 9999 OVC035"
    },
    {
      "icao": "LKMT",
      "alert": "OK",
      "vis_m": 8000,
      "fzfg": false,
      "metar_trigger": false,
      "taf_trigger": false,
      "metar": "METAR LKMT 010830Z 05008KT 8000 OVC013 M09/M11 Q1015 NOSIG",
      "taf": "TAF LKMT 010500Z 0106/0206 02012KT 9999 BKN022"
    },
    {
      "icao": "LKPR",
      "alert": "OK",
      "vis_m": 6000,
      "fzfg": false,
      "metar_trigger": false,
      "taf_trigger": false,
      "metar": "METAR LKPR 010830Z VRB02KT 6000 FEW007 BKN017 OVC036 M04/M05 Q1012 TEMPO BKN012",
      "taf": "TAF LKPR 010800Z 0109/0215 07006KT 6000 SCT010 OVC025"
    },
    {
      "icao": "LLBG",
      "alert": "OK",
      "vis_m": 9999,
      "fzfg": false,
      "metar_trigger": false,
      "taf_trigger": false,
      "metar": "METAR LLBG 010820Z VRB03KT CAVOK 25/06 Q1015 NOSIG",
      "taf": "TAF LLBG 010503Z 0106/0206 VRB03KT 8000 NSC"
    },
    {
      "icao": "LMML",
      "alert": "OK",
      "vis_m": 9999,
      "fzfg": false,
      "metar_trigger": false,
      "taf_trigger": false,
      "metar": "METAR LMML 010815Z 31022KT 9999 FEW025 14/09 Q1001 NOSIG",
      "taf": "TAF LMML 010500Z 0106/0206 31028KT 9999 FEW018"
    },
    {
      "icao": "LOWW",
      "alert": "OK",
      "vis_m": 9999,
      "fzfg": false,
      "metar_trigger": false,
      "taf_trigger": false,
      "metar": "METAR LOWW 010820Z 01007KT 9999 FEW009 BKN011 M03/M05 Q1013 TEMPO 4500 -SG BKN015",
      "taf": "TAF LOWW 010815Z 0109/0215 35008KT 8000 BKN015 TX02/0213Z TNM03/0109Z"
    },
    {
      "icao": "LPFR",
      "alert": "OK",
      "vis_m": 9999,
      "fzfg": false,
      "metar_trigger": false,
      "taf_trigger": false,
      "metar": "METAR LPFR 010830Z 26008KT 9999 FEW012 SCT040 15/14 Q1018",
      "taf": "TAF LPFR 010500Z 0106/0206 24010KT 9999 SCT015 BKN030"
    },
    {
      "icao": "LPMA",
      "alert": "OK",
      "vis_m": 9999,
      "fzfg": false,
      "metar_trigger": false,
      "taf_trigger": false,
      "metar": "METAR LPMA 010830Z 26004KT 9999 FEW015 15/10 Q1021",
      "taf": "TAF LPMA 010500Z 0106/0206 VRB05KT 9999 SCT015"
    },
    {
      "icao": "LPPR",
      "alert": "OK",
      "vis_m": 2400,
      "fzfg": false,
      "metar_trigger": false,
      "taf_trigger": false,
      "metar": "METAR LPPR 010830Z 22006KT 190V250 2400 -DZ BR BKN002 OVC005 14/13 Q1012",
      "taf": "TAF LPPR 010500Z 0106/0206 17015KT 6000 -RA SCT008 BKN015"
    },
    {
      "icao": "LPPS",
      "alert": "OK",
      "vis_m": 9999,
      "fzfg": false,
      "metar_trigger": false,
      "taf_trigger": false,
      "metar": "METAR LPPS 010830Z 26006KT CAVOK 15/14 Q1021",
      "taf": "TAF LPPS 010500Z 0106/0212 27007KT 9999 SCT012 SCT030"
    },
    {
      "icao": "LPPT",
      "alert": "OK",
      "vis_m": 3700,
      "fzfg": false,
      "metar_trigger": false,
      "taf_trigger": false,
      "metar": "METAR LPPT 010830Z 24008KT 3700 BR BKN002 15/15 Q1014",
      "taf": "TAF LPPT 010500Z 0106/0212 23013KT 6000 -RA SCT006 BKN012"
    },
    {
      "icao": "LQBK",
      "alert": "OK",
      "vis_m": 9999,
      "fzfg": false,
      "metar_trigger": false,
      "taf_trigger": false,
      "metar": "METAR LQBK 010830Z 36005KT 330V040 9999 FEW023 BKN047 04/02 Q1011 NOSIG",
      "taf": "TAF LQBK 010500Z 0106/0206 06005KT 7000 SCT015 BKN030 TX04/0113Z TN00/0205Z"
    },
    {
      "icao": "LQSA",
      "alert": "OK",
      "vis_m": 9999,
      "fzfg": false,
      "metar_trigger": false,
      "taf_trigger": false,
      "metar": "METAR LQSA 010830Z 29005KT 9999 SCT025 BKN035 03/03 Q1006 NOSIG",
      "taf": "TAF LQSA 010500Z 0106/0206 29006KT 9999 BKN025 TX05/0113Z TNM01/0205Z"
    },
    {
      "icao": "LQTZ",
      "alert": "OK",
      "vis_m": 9999,
      "fzfg": false,
      "metar_trigger": false,
      "taf_trigger": false,
      "metar": "METAR LQTZ 010830Z VRB02KT 9999 -RA BKN014 OVC028 04/03 Q1009",
      "taf": "TAF LQTZ 010500Z 0106/0206 04005KT 6000 SCT012 OVC025 TX04/0113Z TNM01/0205Z"
    },
    {
      "icao": "LRBC",
      "alert": "OK",
      "vis_m": 9999,
      "fzfg": false,
      "metar_trigger": false,
      "taf_trigger": false,
      "metar": "METAR LRBC 010830Z 35010KT 9999 FEW022 OVC054 M08/M11 Q1020",
      "taf": "TAF LRBC 010800Z 0109/0118 35010KT 9999 BKN050"
    },
    {
      "icao": "LRBS",
      "alert": "OK",
      "vis_m": 9999,
      "fzfg": false,
      "metar_trigger": false,
      "taf_trigger": false,
      "metar": "METAR LRBS 010830Z 06018KT 9999 OVC040 M04/M08 Q1018 NOSIG",
      "taf": "TAF LRBS 010500Z 0106/0206 08016KT 9999 OVC040"
    },
    {
      "icao": "LRBV",
      "alert": "OK",
      "vis_m": 9999,
      "fzfg": false,
      "metar_trigger": false,
      "taf_trigger": false,
      "metar": "METAR LRBV 010830Z 08007KT 9999 FEW062 M01/M06 Q1012",
      "taf": "TAF LRBV 010800Z 0109/0118 08010KT 9999 SCT055"
    },
    {
      "icao": "LRCL",
      "alert": "OK",
      "vis_m": 1500,
      "fzfg": false,
      "metar_trigger": false,
      "taf_trigger": false,
      "metar": "METAR LRCL 010830Z 09005KT 1500 BR OVC002 02/02 Q1011",
      "taf": "TAF LRCL 010800Z 0109/0118 VRB04KT 0600 FG VV002"
    },
    {
      "icao": "LRCV",
      "alert": "OK",
      "vis_m": 9999,
      "fzfg": false,
      "metar_trigger": false,
      "taf_trigger": false,
      "metar": "METAR LRCV 010830Z 09017KT 9999 SCT014 BKN022 OVC027 M03/M05 Q1015 RESG",
      "taf": "TAF LRCV 010800Z 0109/0118 10018KT 9999 OVC030"
    },
    {
      "icao": "LRIA",
      "alert": "OK",
      "vis_m": 9999,
      "fzfg": false,
      "metar_trigger": false,
      "taf_trigger": false,
      "metar": "METAR LRIA 010830Z 31005KT 240V350 CAVOK M10/M15 Q1022",
      "taf": "TAF LRIA 010800Z 0109/0118 34008KT CAVOK"
    },
    {
      "icao": "LROP",
      "alert": "OK",
      "vis_m": 9999,
      "fzfg": false,
      "metar_trigger": false,
      "taf_trigger": false,
      "metar": "METAR LROP 010830Z 08020KT 9999 OVC045 M03/M09 Q1018 NOSIG",
      "taf": "TAF LROP 010500Z 0106/0206 08016KT 9999 OVC040"
    },
    {
      "icao": "LRSB",
      "alert": "OK",
      "vis_m": 9999,
      "fzfg": false,
      "metar_trigger": false,
      "taf_trigger": false,
      "metar": "METAR LRSB 010830Z VRB01KT 9999 FEW008 SCT060 05/M00 Q1010",
      "taf": "TAF LRSB 010500Z 0106/0206 VRB04KT 9999 BKN045"
    },
    {
      "icao": "LRSM",
      "alert": "OK",
      "vis_m": 9999,
      "fzfg": false,
      "metar_trigger": false,
      "taf_trigger": false,
      "metar": "METAR LRSM 010830Z 34003KT 290V360 9999 BKN021 BKN037 M00/M03 Q1013",
      "taf": "TAF LRSM 010800Z 0109/0118 VRB04KT 9999 BKN045"
    },
    {
      "icao": "LRSV",
      "alert": "OK",
      "vis_m": 9999,
      "fzfg": false,
      "metar_trigger": false,
      "taf_trigger": false,
      "metar": "METAR LRSV 010830Z 00000KT 9999 -SN SCT020 M12/M14 Q1018",
      "taf": "TAF LRSV 010800Z 0109/0118 VRB03KT 9999 SCT025"
    },
    {
      "icao": "LRTM",
      "alert": "OK",
      "vis_m": 9999,
      "fzfg": false,
      "metar_trigger": false,
      "taf_trigger": false,
      "metar": "METAR LRTM 010830Z 07004KT 9999 FEW021 SCT029 03/01 Q1012",
      "taf": "TAF LRTM 010800Z 0109/0118 VRB04KT 9999 SCT030"
    },
    {
      "icao": "LRTR",
      "alert": "OK",
      "vis_m": 9999,
      "fzfg": false,
      "metar_trigger": false,
      "taf_trigger": false,
      "metar": "METAR LRTR 010830Z 10004KT 9999 -RA BKN006 BKN030 03/03 Q1011",
      "taf": "TAF LRTR 010500Z 0106/0206 VRB04KT 9999 OVC035"
    },
    {
      "icao": "LTAC",
      "alert": "OK",
      "vis_m": 9999,
      "fzfg": false,
      "metar_trigger": false,
      "taf_trigger": false,
      "metar": "METAR LTAC 010820Z 04003KT 350V090 9999 FEW040 SCT100 08/04 Q1012 NOSIG RMK RWY21C VRB02KT RWY03L VRB02KT RWY21R VRB02KT RWY03R 05003KT 360V090 RWY21L 03003KT 330V060",
      "taf": "TAF LTAC 010440Z 0106/0206 VRB02KT 9999 SCT040"
    },
    {
      "icao": "LTFM",
      "alert": "OK",
      "vis_m": 9999,
      "fzfg": false,
      "metar_trigger": false,
      "taf_trigger": false,
      "metar": "METAR LTFM 010820Z 06020KT 9999 BKN011 BKN025 06/04 Q1012 NOSIG RMK RWY17L 06019KT RWY34L 06015KT RWY16R 06021KT RWY36 06019KT RWY18 07017KT",
      "taf": "TAF LTFM 010440Z 0106/0212 05015KT 9999 BKN011 BKN025"
    },
    {
      "icao": "LUKK",
      "alert": "OK",
      "vis_m": 9999,
      "fzfg": false,
      "metar_trigger": false,
      "taf_trigger": false,
      "metar": "METAR LUKK 010830Z 35007KT 320V030 CAVOK M10/M14 Q1020 NOSIG",
      "taf": "TAF LUKK 010518Z 0106/0206 01012KT 9999 SCT025"
    },
    {
      "icao": "LWOH",
      "alert": "OK",
      "vis_m": 9999,
      "fzfg": false,
      "metar_trigger": false,
      "taf_trigger": false,
      "metar": "METAR LWOH 010820Z 34008KT 300V020 9999 BKN040 OVC090 05/02 Q1002",
      "taf": "TAF LWOH 010830Z 0109/0209 33010KT 9999 RA BKN015 OVC040"
    },
    {
      "icao": "LWSK",
      "alert": "OK",
      "vis_m": 5000,
      "fzfg": false,
      "metar_trigger": false,
      "taf_trigger": false,
      "metar": "METAR LWSK 010820Z VRB02KT 5000 -RA SCT005 BKN020 OVC030 06/05 Q1006 NOSIG",
      "taf": "TAF LWSK 010830Z 0109/0209 VRB02KT 6000 RA SCT005 BKN020 OVC030"
    },
    {
      "icao": "LYBE",
      "alert": "OK",
      "vis_m": 9999,
      "fzfg": false,
      "metar_trigger": false,
      "taf_trigger": false,
      "metar": "METAR LYBE 010830Z 11015KT 9999 BKN040 03/M03 Q1011 NOSIG",
      "taf": "TAF LYBE 010500Z 0106/0206 11013KT 9999 BKN045 TX05/0113Z TNM01/0206Z"
    },
    {
      "icao": "LYNI",
      "alert": "OK",
      "vis_m": 9999,
      "fzfg": false,
      "metar_trigger": false,
      "taf_trigger": false,
      "metar": "METAR LYNI 010830Z 05011KT 020V080 9999 FEW017 SCT040 OVC090 02/M02 Q1009 NOSIG",
      "taf": "TAF LYNI 010500Z 0106/0206 05012KT 9999 BKN033 TX04/0112Z TNM03/0206Z"
    },
    {
      "icao": "LYPG",
      "alert": "OK",
      "vis_m": 9999,
      "fzfg": false,
      "metar_trigger": false,
      "taf_trigger": false,
      "metar": "METAR LYPG 010830Z VRB01KT 9999 OVC070 07/05 Q1003 NOSIG",
      "taf": "TAF LYPG 010500Z 0106/0206 36005KT 9999 SCT040 BKN090 TX10/0112Z TN03/0205Z"
    },
    {
      "icao": "LZIB",
      "alert": "OK",
      "vis_m": 4500,
      "fzfg": false,
      "metar_trigger": false,
      "taf_trigger": false,
      "metar": "METAR LZIB 010830Z 28006KT 4500 BR FEW004 BKN006 OVC007 M01/M02 Q1012 BECMG BKN012",
      "taf": "TAF LZIB 010515Z 0106/0206 28004KT 7000 SCT009 OVC013"
    },
    {
      "icao": "LZKZ",
      "alert": "OK",
      "vis_m": 9999,
      "fzfg": false,
      "metar_trigger": false,
      "taf_trigger": false,
      "metar": "METAR LZKZ 010830Z 03012KT 9999 OVC035 M05/M09 Q1013 NOSIG",
      "taf": "TAF LZKZ 010515Z 0106/0206 01018KT 9999 SCT030"
    },
    {
      "icao": "LZTT",
      "alert": "OK",
      "vis_m": 7000,
      "fzfg": false,
      "metar_trigger": false,
      "taf_trigger": false,
      "metar": "METAR LZTT 010830Z VRB02KT 7000 OVC005 M11/M12 Q1011 TEMPO BKN010",
      "taf": ""
    },
    {
      "icao": "OEJN",
      "alert": "OK",
      "vis_m": 9999,
      "fzfg": false,
      "metar_trigger": false,
      "taf_trigger": false,
      "metar": "METAR OEJN 010800Z VRB02KT CAVOK 30/14 Q1015 NOSIG",
      "taf": "TAF OEJN 010500Z 0106/0212 26010KT CAVOK"
    },
    {
      "icao": "OEMA",
      "alert": "OK",
      "vis_m": 9999,
      "fzfg": false,
      "metar_trigger": false,
      "taf_trigger": false,
      "metar": "METAR OEMA 010800Z VRB02KT CAVOK 26/02 Q1020 NOSIG",
      "taf": "TAF OEMA 010500Z 0106/0212 11010KT CAVOK"
    },
    {
      "icao": "OJAI",
      "alert": "OK",
      "vis_m": 5000,
      "fzfg": false,
      "metar_trigger": false,
      "taf_trigger": false,
      "metar": "METAR OJAI 010800Z 13003KT 5000 HZ NSC 18/06 Q1019 NOSIG",
      "taf": "TAF OJAI 010500Z 0106/0212 20010KT 5000 HZ NSC"
    },
    {
      "icao": "OMAA",
      "alert": "OK",
      "vis_m": 9999,
      "fzfg": false,
      "metar_trigger": false,
      "taf_trigger": false,
      "metar": "METAR OMAA 010830Z 30002KT CAVOK 24/15 Q1019 BECMG 33010KT",
      "taf": "TAF OMAA 010500Z 0106/0212 VRB02KT 8000 NSC"
    },
    {
      "icao": "OMDB",
      "alert": "OK",
      "vis_m": 9999,
      "fzfg": false,
      "metar_trigger": false,
      "taf_trigger": false,
      "metar": "METAR OMDB 010830Z VRB03KT CAVOK 24/13 Q1019 NOSIG",
      "taf": "TAF OMDB 010500Z 0106/0212 19005KT 8000 FEW025"
    },
    {
      "icao": "UAAA",
      "alert": "OK",
      "vis_m": 4500,
      "fzfg": false,
      "metar_trigger": false,
      "taf_trigger": false,
      "metar": "METAR UAAA 010830Z 05002MPS 020V080 4500 FU SCT200 04/M03 Q1019 NOSIG",
      "taf": "TAF UAAA 010503Z 0106/0206 02003MPS 6000 SCT100 TX04/0109Z TNM03/0202Z"
    },
    {
      "icao": "UBBB",
      "alert": "OK",
      "vis_m": 9999,
      "fzfg": false,
      "metar_trigger": false,
      "taf_trigger": false,
      "metar": "METAR UBBB 010830Z 36004KT 330V030 CAVOK 08/04 Q1010 NOSIG",
      "taf": "TAF UBBB 010513Z 0106/0206 31006KT 9999 BKN010 BKN030 TX10/0110Z TN04/0200Z"
    },
    {
      "icao": "UDSG",
      "alert": "OK",
      "vis_m": 5000,
      "fzfg": false,
      "metar_trigger": false,
      "taf_trigger": false,
      "metar": "METAR UDSG 010830Z 36003KT 5000 -SN BR OVC036 02/M01 Q1015 NOSIG",
      "taf": "TAF UDSG 010500Z 0106/0206 VRB06KT 1500 BR BKN010"
    },
    {
      "icao": "UDYZ",
      "alert": "OK",
      "vis_m": 1500,
      "fzfg": false,
      "metar_trigger": false,
      "taf_trigger": false,
      "metar": "METAR UDYZ 010830Z VRB01KT 1500 1200W R08/1200N BR SCT046 01/M01 Q1017 NOSIG",
      "taf": "TAF UDYZ 010500Z 0106/0206 VRB06KT 2000 BR BKN020"
    },
    {
      "icao": "UGKO",
      "alert": "OK",
      "vis_m": 9999,
      "fzfg": false,
      "metar_trigger": false,
      "taf_trigger": false,
      "metar": "METAR UGKO 010830Z 09007KT 9999 BKN076 12/08 Q1012 NOSIG",
      "taf": "TAF UGKO 010500Z 0106/0206 08007KT 9999 BKN050 TX11/0111Z TN06/0202Z"
    }
  ]
}