{
  "ts_utc": "2026-04-29T07:12:17Z",
  "threshold_m": 150,
  "source": "stations_override.txt (ICAO list) + aviationweather.gov (METAR/TAF raw)",
  "station_count": 159,
  "stations": [
    {
      "icao": "BIKF",
      "alert": "OK",
      "vis_m": 9999,
      "fzfg": false,
      "metar_trigger": false,
      "taf_trigger": false,
      "metar": "METAR BIKF 290700Z 20024KT 9999 BKN039 05/M01 Q1009",
      "taf": "TAF BIKF 290437Z 2906/3006 21022G32KT 9999 -SHRA BKN025 TX06/2915Z TN04/3005Z"
    },
    {
      "icao": "BKPR",
      "alert": "OK",
      "vis_m": 9999,
      "fzfg": false,
      "metar_trigger": false,
      "taf_trigger": false,
      "metar": "METAR BKPR 290700Z 04003KT 360V070 9999 SCT085 14/06 Q1018 NOSIG",
      "taf": "TAF BKPR 290530Z 2906/3006 VRB05KT 9999 SCT050 BKN070"
    },
    {
      "icao": "EBCI",
      "alert": "OK",
      "vis_m": 9999,
      "fzfg": false,
      "metar_trigger": false,
      "taf_trigger": false,
      "metar": "METAR EBCI 290650Z 06015KT CAVOK 10/M01 Q1022 NOSIG",
      "taf": "TAF EBCI 290503Z 2906/3012 07012KT CAVOK"
    },
    {
      "icao": "EDDB",
      "alert": "OK",
      "vis_m": 9999,
      "fzfg": false,
      "metar_trigger": false,
      "taf_trigger": false,
      "metar": "METAR EDDB 290650Z AUTO 09009KT CAVOK 08/M04 Q1030 NOSIG",
      "taf": "TAF EDDB 290500Z 2906/3006 07006KT CAVOK"
    },
    {
      "icao": "EDDH",
      "alert": "OK",
      "vis_m": 9999,
      "fzfg": false,
      "metar_trigger": false,
      "taf_trigger": false,
      "metar": "METAR EDDH 290650Z AUTO 07003KT 310V120 CAVOK 10/02 Q1030 NOSIG",
      "taf": "TAF EDDH 290500Z 2906/3012 VRB02KT CAVOK"
    },
    {
      "icao": "EDDK",
      "alert": "OK",
      "vis_m": 9999,
      "fzfg": false,
      "metar_trigger": false,
      "taf_trigger": false,
      "metar": "METAR EDDK 290650Z AUTO 09007KT 060V150 CAVOK 12/M02 Q1024 NOSIG",
      "taf": "TAF EDDK 290500Z 2906/3012 VRB03KT CAVOK"
    },
    {
      "icao": "EDDN",
      "alert": "OK",
      "vis_m": 9999,
      "fzfg": false,
      "metar_trigger": false,
      "taf_trigger": false,
      "metar": "METAR EDDN 290650Z AUTO 10008KT 060V120 CAVOK 11/M03 Q1023 NOSIG",
      "taf": "TAF EDDN 290500Z 2906/3006 03004KT CAVOK"
    },
    {
      "icao": "EDDS",
      "alert": "OK",
      "vis_m": 9999,
      "fzfg": false,
      "metar_trigger": false,
      "taf_trigger": false,
      "metar": "METAR EDDS 290650Z AUTO 06007KT 020V090 CAVOK 12/01 Q1020 NOSIG",
      "taf": "TAF EDDS 290500Z 2906/3006 04007KT CAVOK"
    },
    {
      "icao": "EDFH",
      "alert": "OK",
      "vis_m": 9999,
      "fzfg": false,
      "metar_trigger": false,
      "taf_trigger": false,
      "metar": "METAR EDFH 290650Z 09006KT 030V190 CAVOK 09/M03 Q1022",
      "taf": "TAF EDFH 290500Z 2906/3006 09006KT CAVOK"
    },
    {
      "icao": "EDJA",
      "alert": "OK",
      "vis_m": 9999,
      "fzfg": false,
      "metar_trigger": false,
      "taf_trigger": false,
      "metar": "METAR EDJA 290650Z 06012KT CAVOK 09/01 Q1020",
      "taf": "TAF EDJA 290500Z 2906/2915 06008KT CAVOK"
    },
    {
      "icao": "EDLW",
      "alert": "OK",
      "vis_m": 9999,
      "fzfg": false,
      "metar_trigger": false,
      "taf_trigger": false,
      "metar": "METAR EDLW 290650Z 06009KT 020V080 CAVOK 08/M00 Q1026",
      "taf": "TAF EDLW 290500Z 2906/3006 05007KT CAVOK"
    },
    {
      "icao": "EDNY",
      "alert": "OK",
      "vis_m": 9999,
      "fzfg": false,
      "metar_trigger": false,
      "taf_trigger": false,
      "metar": "METAR EDNY 290650Z 03010KT CAVOK 12/02 Q1019",
      "taf": "TAF EDNY 290500Z 2906/2915 04008KT CAVOK"
    },
    {
      "icao": "EDSB",
      "alert": "OK",
      "vis_m": 9999,
      "fzfg": false,
      "metar_trigger": false,
      "taf_trigger": false,
      "metar": "METAR EDSB 290650Z 02011KT CAVOK 11/M00 Q1020",
      "taf": "TAF EDSB 290500Z 2906/3006 03015G25KT CAVOK"
    },
    {
      "icao": "EETN",
      "alert": "OK",
      "vis_m": 9999,
      "fzfg": false,
      "metar_trigger": false,
      "taf_trigger": false,
      "metar": "METAR EETN 290650Z 35009KT 320V040 9999 FEW049 04/M04 Q1025 NOSIG",
      "taf": "TAF EETN 290530Z 2906/3006 34010KT 9999 FEW045"
    },
    {
      "icao": "EFTU",
      "alert": "OK",
      "vis_m": 9999,
      "fzfg": false,
      "metar_trigger": false,
      "taf_trigger": false,
      "metar": "METAR EFTU 290650Z AUTO 36008KT 310V070 CAVOK 05/M08 Q1027",
      "taf": "TAF EFTU 290527Z 2906/3006 36007KT CAVOK"
    },
    {
      "icao": "EGBB",
      "alert": "OK",
      "vis_m": 9999,
      "fzfg": false,
      "metar_trigger": false,
      "taf_trigger": false,
      "metar": "METAR EGBB 290650Z 05009KT CAVOK 09/05 Q1027",
      "taf": "TAF EGBB 290459Z 2906/3006 04012KT CAVOK"
    },
    {
      "icao": "EGGP",
      "alert": "OK",
      "vis_m": 9999,
      "fzfg": false,
      "metar_trigger": false,
      "taf_trigger": false,
      "metar": "METAR EGGP 290650Z 06007KT 030V090 CAVOK 08/03 Q1029",
      "taf": "TAF EGGP 290500Z 2906/3006 04004KT CAVOK"
    },
    {
      "icao": "EGGW",
      "alert": "OK",
      "vis_m": 9999,
      "fzfg": false,
      "metar_trigger": false,
      "taf_trigger": false,
      "metar": "METAR EGGW 290650Z AUTO 04010KT 9999 NCD 08/05 Q1025",
      "taf": "TAF EGGW 290459Z 2906/3006 05012KT CAVOK"
    },
    {
      "icao": "EGKK",
      "alert": "OK",
      "vis_m": 9999,
      "fzfg": false,
      "metar_trigger": false,
      "taf_trigger": false,
      "metar": "METAR EGKK 290650Z 06014KT CAVOK 12/05 Q1022",
      "taf": "TAF EGKK 290455Z 2906/3012 06011KT CAVOK"
    },
    {
      "icao": "EGNM",
      "alert": "OK",
      "vis_m": 9999,
      "fzfg": false,
      "metar_trigger": false,
      "taf_trigger": false,
      "metar": "METAR EGNM 290650Z 04008KT CAVOK 06/03 Q1030",
      "taf": "TAF EGNM 290500Z 2906/3006 04008KT CAVOK"
    },
    {
      "icao": "EGPD",
      "alert": "OK",
      "vis_m": 9999,
      "fzfg": false,
      "metar_trigger": false,
      "taf_trigger": false,
      "metar": "METAR EGPD 290650Z COR AUTO 17008KT 9999 NCD 08/05 Q1031 NOSIG",
      "taf": "TAF EGPD 290456Z 2906/3006 VRB03KT CAVOK"
    },
    {
      "icao": "EGPF",
      "alert": "OK",
      "vis_m": 9999,
      "fzfg": false,
      "metar_trigger": false,
      "taf_trigger": false,
      "metar": "METAR EGPF 290650Z AUTO 05007KT 9999 OVC008 06/05 Q1032",
      "taf": ""
    },
    {
      "icao": "EHBK",
      "alert": "OK",
      "vis_m": 9999,
      "fzfg": false,
      "metar_trigger": false,
      "taf_trigger": false,
      "metar": "METAR EHBK 290655Z AUTO 06012KT 9999 NCD 10/01 Q1024 NOSIG",
      "taf": "TAF EHBK 290443Z 2906/3012 06010KT CAVOK"
    },
    {
      "icao": "EHEH",
      "alert": "OK",
      "vis_m": 9999,
      "fzfg": false,
      "metar_trigger": false,
      "taf_trigger": false,
      "metar": "METAR EHEH 290655Z AUTO 06011KT 030V090 9999 NCD 11/M00 Q1025 BLU NOSIG RMK TREND REMOTE BY EHWX",
      "taf": "TAF EHEH 290516Z 2906/3012 06008KT CAVOK"
    },
    {
      "icao": "EKBI",
      "alert": "OK",
      "vis_m": 9999,
      "fzfg": false,
      "metar_trigger": false,
      "taf_trigger": false,
      "metar": "METAR EKBI 290650Z AUTO 29002KT 9999 NCD 10/M02 Q1032",
      "taf": "TAF EKBI 290527Z 2906/3006 02005KT CAVOK"
    },
    {
      "icao": "EKCH",
      "alert": "OK",
      "vis_m": 9999,
      "fzfg": false,
      "metar_trigger": false,
      "taf_trigger": false,
      "metar": "METAR EKCH 290650Z AUTO 13002KT 9999 NCD 08/02 Q1031 NOSIG",
      "taf": "TAF EKCH 290527Z 2906/3006 35012KT CAVOK"
    },
    {
      "icao": "ENAL",
      "alert": "OK",
      "vis_m": 9999,
      "fzfg": false,
      "metar_trigger": false,
      "taf_trigger": false,
      "metar": "METAR ENAL 290650Z 26016KT 9999 FEW015 09/05 Q1030",
      "taf": "TAF ENAL 290500Z 2906/2915 25015KT 9999 FEW010"
    },
    {
      "icao": "ENBR",
      "alert": "OK",
      "vis_m": 9999,
      "fzfg": false,
      "metar_trigger": false,
      "taf_trigger": false,
      "metar": "METAR ENBR 290650Z 32006KT 9999 BKN005 06/05 Q1032 TEMPO SCT006 BKN012 RMK WIND 1200FT 34008KT",
      "taf": "TAF ENBR 290500Z 2906/3006 33007KT 9999 SCT006 BKN012"
    },
    {
      "icao": "ENGM",
      "alert": "OK",
      "vis_m": 9999,
      "fzfg": false,
      "metar_trigger": false,
      "taf_trigger": false,
      "metar": "METAR ENGM 290650Z VRB03KT CAVOK 10/M01 Q1029 NOSIG",
      "taf": "TAF ENGM 290500Z 2906/3006 33003KT CAVOK"
    },
    {
      "icao": "ENHD",
      "alert": "OK",
      "vis_m": 9999,
      "fzfg": false,
      "metar_trigger": false,
      "taf_trigger": false,
      "metar": "METAR ENHD 290650Z 34013KT 9999 FEW006 BKN008 08/06 Q1032",
      "taf": "TAF ENHD 290500Z 2906/2915 34012KT 9999 SCT008 BKN012"
    },
    {
      "icao": "ENTC",
      "alert": "OK",
      "vis_m": 9999,
      "fzfg": false,
      "metar_trigger": false,
      "taf_trigger": false,
      "metar": "METAR ENTC 290650Z 20017KT 9999 BKN050 03/M04 Q1020 NOSIG RMK WIND 2600FT 17015KT",
      "taf": "TAF ENTC 290500Z 2906/3006 20010KT 9999 BKN030"
    },
    {
      "icao": "ENTO",
      "alert": "OK",
      "vis_m": 9999,
      "fzfg": false,
      "metar_trigger": false,
      "taf_trigger": false,
      "metar": "METAR ENTO 290650Z VRB01KT CAVOK 09/01 Q1030 NOSIG",
      "taf": "TAF ENTO 290500Z 2906/3006 36003KT CAVOK"
    },
    {
      "icao": "ENVA",
      "alert": "OK",
      "vis_m": 9999,
      "fzfg": false,
      "metar_trigger": false,
      "taf_trigger": false,
      "metar": "METAR ENVA 290650Z 28003KT 9999 -DZRA FEW004 SCT011 BKN014 07/07 Q1028 TEMPO 3000 DZRA BR OVC006 RMK WIND 670FT 30005KT",
      "taf": "TAF ENVA 290500Z 2906/3006 VRB03KT 9999 SCT008 BKN015"
    },
    {
      "icao": "ENZV",
      "alert": "OK",
      "vis_m": 9000,
      "fzfg": false,
      "metar_trigger": false,
      "taf_trigger": false,
      "metar": "METAR ENZV 290650Z 36004KT 9000 BKN005 07/06 Q1032 BECMG SCT007 BKN012",
      "taf": "TAF ENZV 290500Z 2906/3006 34008KT 9999 SCT004 BKN010"
    },
    {
      "icao": "EPGD",
      "alert": "OK",
      "vis_m": 9999,
      "fzfg": false,
      "metar_trigger": false,
      "taf_trigger": false,
      "metar": "METAR EPGD 290700Z 34012KT 9999 FEW046 06/M03 Q1029",
      "taf": "TAF EPGD 290530Z 2906/3006 31005KT CAVOK"
    },
    {
      "icao": "EPKK",
      "alert": "OK",
      "vis_m": 9999,
      "fzfg": false,
      "metar_trigger": false,
      "taf_trigger": false,
      "metar": "METAR EPKK 290700Z 03009KT CAVOK 07/M04 Q1025",
      "taf": "TAF EPKK 290530Z 2906/3006 06010KT CAVOK"
    },
    {
      "icao": "EPKT",
      "alert": "OK",
      "vis_m": 9999,
      "fzfg": false,
      "metar_trigger": false,
      "taf_trigger": false,
      "metar": "METAR EPKT 290700Z 04013KT CAVOK 05/M07 Q1026",
      "taf": "TAF EPKT 290530Z 2906/3006 04010KT CAVOK"
    },
    {
      "icao": "EPLB",
      "alert": "OK",
      "vis_m": 9999,
      "fzfg": false,
      "metar_trigger": false,
      "taf_trigger": false,
      "metar": "METAR EPLB 290700Z 32004KT 240V050 CAVOK 04/M04 Q1025",
      "taf": "TAF EPLB 290530Z 2906/3006 33010KT CAVOK"
    },
    {
      "icao": "EPMO",
      "alert": "OK",
      "vis_m": 9999,
      "fzfg": false,
      "metar_trigger": false,
      "taf_trigger": false,
      "metar": "METAR EPMO 290700Z 02011KT 330V040 9999 SCT037 05/M04 Q1027",
      "taf": "TAF EPMO 290530Z 2906/3006 35010KT CAVOK"
    },
    {
      "icao": "EPPO",
      "alert": "OK",
      "vis_m": 9999,
      "fzfg": false,
      "metar_trigger": false,
      "taf_trigger": false,
      "metar": "METAR EPPO 290700Z 05007KT 010V070 CAVOK 07/M06 Q1030",
      "taf": "TAF EPPO 290530Z 2906/3006 01006KT CAVOK"
    },
    {
      "icao": "EPRA",
      "alert": "OK",
      "vis_m": 9999,
      "fzfg": false,
      "metar_trigger": false,
      "taf_trigger": false,
      "metar": "METAR EPRA 290700Z 36010KT 320V040 CAVOK 04/M05 Q1026",
      "taf": "TAF EPRA 290530Z 2906/2915 35010KT CAVOK"
    },
    {
      "icao": "EPRZ",
      "alert": "OK",
      "vis_m": 9999,
      "fzfg": false,
      "metar_trigger": false,
      "taf_trigger": false,
      "metar": "METAR EPRZ 290700Z 03004KT 330V070 CAVOK 05/M03 Q1024",
      "taf": "TAF EPRZ 290530Z 2906/3006 VRB02KT CAVOK"
    },
    {
      "icao": "EPSC",
      "alert": "OK",
      "vis_m": 9999,
      "fzfg": false,
      "metar_trigger": false,
      "taf_trigger": false,
      "metar": "METAR EPSC 290700Z 20004KT 160V260 CAVOK 07/M06 Q1030",
      "taf": "TAF EPSC 290530Z 2906/3006 VRB02KT CAVOK"
    },
    {
      "icao": "EPSY",
      "alert": "OK",
      "vis_m": 9999,
      "fzfg": false,
      "metar_trigger": false,
      "taf_trigger": false,
      "metar": "METAR EPSY 290700Z 36017KT 320V020 9999 -SHRA SCT025CB 04/M02 Q1027",
      "taf": "TAF EPSY 290530Z 2906/2915 34010KT CAVOK"
    },
    {
      "icao": "EPWA",
      "alert": "OK",
      "vis_m": 9999,
      "fzfg": false,
      "metar_trigger": false,
      "taf_trigger": false,
      "metar": "METAR EPWA 290700Z 36012KT 320V030 9999 BKN038 05/M05 Q1027 NOSIG",
      "taf": "TAF EPWA 290530Z 2906/3006 35010KT CAVOK"
    },
    {
      "icao": "EPWR",
      "alert": "OK",
      "vis_m": 9999,
      "fzfg": false,
      "metar_trigger": false,
      "taf_trigger": false,
      "metar": "METAR EPWR 290700Z 05009KT 020V090 CAVOK 07/M08 Q1028",
      "taf": "TAF EPWR 290530Z 2906/3006 03005KT CAVOK"
    },
    {
      "icao": "ESGG",
      "alert": "OK",
      "vis_m": 9999,
      "fzfg": false,
      "metar_trigger": false,
      "taf_trigger": false,
      "metar": "METAR ESGG 290650Z 32005KT CAVOK 08/03 Q1030",
      "taf": "TAF ESGG 290530Z 2906/3006 29005KT CAVOK"
    },
    {
      "icao": "ESKN",
      "alert": "OK",
      "vis_m": 9999,
      "fzfg": false,
      "metar_trigger": false,
      "taf_trigger": false,
      "metar": "METAR ESKN 290650Z 15006KT CAVOK 08/M04 Q1029",
      "taf": "TAF ESKN 290530Z 2906/3006 VRB03KT CAVOK"
    },
    {
      "icao": "ESMS",
      "alert": "OK",
      "vis_m": 9999,
      "fzfg": false,
      "metar_trigger": false,
      "taf_trigger": false,
      "metar": "METAR ESMS 290650Z 21003KT 170V240 CAVOK 08/01 Q1030",
      "taf": "TAF ESMS 290527Z 2906/3006 13004KT CAVOK"
    },
    {
      "icao": "ESSA",
      "alert": "OK",
      "vis_m": 9999,
      "fzfg": false,
      "metar_trigger": false,
      "taf_trigger": false,
      "metar": "METAR ESSA 290650Z 23005KT 190V250 CAVOK 07/M08 Q1028 NOSIG",
      "taf": "TAF ESSA 290530Z 2906/3006 VRB03KT CAVOK"
    },
    {
      "icao": "EYKA",
      "alert": "OK",
      "vis_m": 9999,
      "fzfg": false,
      "metar_trigger": false,
      "taf_trigger": false,
      "metar": "METAR EYKA 290650Z 02003KT 270V070 CAVOK 03/M02 Q1025",
      "taf": "TAF EYKA 290500Z 2906/3006 33008KT 9000 NSC"
    },
    {
      "icao": "EYPA",
      "alert": "OK",
      "vis_m": 9999,
      "fzfg": false,
      "metar_trigger": false,
      "taf_trigger": false,
      "metar": "METAR EYPA 290650Z 01011KT 330V040 CAVOK 06/M03 Q1027",
      "taf": "TAF EYPA 290500Z 2906/3006 33010KT 9000 SCT030"
    },
    {
      "icao": "EYVI",
      "alert": "OK",
      "vis_m": 9999,
      "fzfg": false,
      "metar_trigger": false,
      "taf_trigger": false,
      "metar": "METAR EYVI 290650Z 34006KT 310V020 CAVOK 03/M03 Q1023 NOSIG",
      "taf": "TAF EYVI 290500Z 2906/3006 33008KT 9000 NSC"
    },
    {
      "icao": "GCFV",
      "alert": "OK",
      "vis_m": 9999,
      "fzfg": false,
      "metar_trigger": false,
      "taf_trigger": false,
      "metar": "METAR GCFV 290700Z 36006KT 9999 BKN030 17/13 Q1013",
      "taf": "TAF GCFV 290200Z 2903/3003 01006KT 9999 BKN020 TX21/2914Z TN17/2906Z"
    },
    {
      "icao": "GCLP",
      "alert": "OK",
      "vis_m": 9999,
      "fzfg": false,
      "metar_trigger": false,
      "taf_trigger": false,
      "metar": "METAR GCLP 290700Z 02010KT 9999 BKN043 19/13 Q1013 NOSIG",
      "taf": "TAF GCLP 290200Z 2903/3003 35006KT 9999 BKN030 TX23/2914Z TN16/2906Z"
    },
    {
      "icao": "GCTS",
      "alert": "OK",
      "vis_m": 9999,
      "fzfg": false,
      "metar_trigger": false,
      "taf_trigger": false,
      "metar": "METAR GCTS 290700Z 02004KT 360V060 9999 BKN030 18/13 Q1013 NOSIG",
      "taf": "TAF GCTS 290200Z 2903/3003 04005KT 9999 BKN030 TX23/2914Z TN15/2906Z"
    },
    {
      "icao": "GMAD",
      "alert": "OK",
      "vis_m": 6000,
      "fzfg": false,
      "metar_trigger": false,
      "taf_trigger": false,
      "metar": "METAR GMAD 290700Z 19004KT 160V220 6000 BKN006 SCT016 17/16 Q1011 NOSIG",
      "taf": "TAF GMAD 290500Z 2906/3012 18004KT 8000 SCT026"
    },
    {
      "icao": "GMMN",
      "alert": "OK",
      "vis_m": 8000,
      "fzfg": false,
      "metar_trigger": false,
      "taf_trigger": false,
      "metar": "METAR GMMN 290700Z VRB01KT 8000 BKN013 17/14 Q1011 NOSIG",
      "taf": "TAF GMMN 290500Z 2906/3012 28004KT 9999 BKN013"
    },
    {
      "icao": "GMMX",
      "alert": "OK",
      "vis_m": 8000,
      "fzfg": false,
      "metar_trigger": false,
      "taf_trigger": false,
      "metar": "METAR GMMX 290700Z 27005KT 8000 SCT013 BKN020 16/14 Q1011 NOSIG",
      "taf": "TAF GMMX 290500Z 2906/3012 26006KT 8000 SCT016 BKN023"
    },
    {
      "icao": "HEGN",
      "alert": "OK",
      "vis_m": 9999,
      "fzfg": false,
      "metar_trigger": false,
      "taf_trigger": false,
      "metar": "METAR HEGN 290700Z 32013KT CAVOK 28/06 Q1013 NOSIG",
      "taf": "TAF HEGN 290500Z 2906/3012 33008G18KT CAVOK"
    },
    {
      "icao": "HEMA",
      "alert": "OK",
      "vis_m": 9999,
      "fzfg": false,
      "metar_trigger": false,
      "taf_trigger": false,
      "metar": "METAR HEMA 290700Z 34024KT CAVOK 27/10 Q1012 NOSIG",
      "taf": "TAF HEMA 290500Z 2906/3012 33008G18KT CAVOK"
    },
    {
      "icao": "HESH",
      "alert": "OK",
      "vis_m": 9999,
      "fzfg": false,
      "metar_trigger": false,
      "taf_trigger": false,
      "metar": "METAR HESH 290700Z 36016KT CAVOK 26/13 Q1012 NOSIG",
      "taf": "TAF HESH 290500Z 2906/3012 01012KT CAVOK"
    },
    {
      "icao": "HESX",
      "alert": "OK",
      "vis_m": 4000,
      "fzfg": false,
      "metar_trigger": false,
      "taf_trigger": false,
      "metar": "METAR HESX 290700Z 29006KT 4000 BR NSC 18/14 Q1015 NOSIG",
      "taf": "TAF HESX 290500Z 2906/3012 33010KT CAVOK"
    },
    {
      "icao": "LATI",
      "alert": "OK",
      "vis_m": 9999,
      "fzfg": false,
      "metar_trigger": false,
      "taf_trigger": false,
      "metar": "METAR LATI 290650Z 00000KT CAVOK 19/10 Q1017 NOSIG",
      "taf": "TAF LATI 290500Z 2906/3006 VRB04KT CAVOK TX27/2912Z TN09/3004Z"
    },
    {
      "icao": "LBPD",
      "alert": "OK",
      "vis_m": 9999,
      "fzfg": false,
      "metar_trigger": false,
      "taf_trigger": false,
      "metar": "METAR LBPD 290700Z AUTO VRB02KT 9999 BKN100/// OVC150/// 11/06 Q1019 NOSIG",
      "taf": "TAF LBPD 290500Z 2906/3006 VRB04KT 9999 SCT060"
    },
    {
      "icao": "LBSF",
      "alert": "OK",
      "vis_m": 9999,
      "fzfg": false,
      "metar_trigger": false,
      "taf_trigger": false,
      "metar": "METAR LBSF 290700Z VRB02KT 9999 FEW065 SCT089 15/09 Q1018 NOSIG",
      "taf": "TAF LBSF 290500Z 2906/3006 VRB04KT 9999 SCT040 BKN060"
    },
    {
      "icao": "LBWN",
      "alert": "OK",
      "vis_m": 9999,
      "fzfg": false,
      "metar_trigger": false,
      "taf_trigger": false,
      "metar": "METAR LBWN 290700Z 12006KT 090V160 CAVOK 14/08 Q1019 NOSIG",
      "taf": "TAF LBWN 290500Z 2906/3006 VRB04KT CAVOK"
    },
    {
      "icao": "LCLK",
      "alert": "OK",
      "vis_m": 9999,
      "fzfg": false,
      "metar_trigger": false,
      "taf_trigger": false,
      "metar": "METAR LCLK 290700Z 07005KT 9999 FEW018 22/18 Q1013 NOSIG",
      "taf": "TAF LCLK 290530Z 2906/3006 02005KT 9999 FEW020"
    },
    {
      "icao": "LCPH",
      "alert": "OK",
      "vis_m": 9999,
      "fzfg": false,
      "metar_trigger": false,
      "taf_trigger": false,
      "metar": "METAR LCPH 290700Z 25006KT 230V290 CAVOK 21/16 Q1013 NOSIG",
      "taf": "TAF LCPH 290530Z 2906/3006 02007KT 9999 FEW020"
    },
    {
      "icao": "LEAL",
      "alert": "OK",
      "vis_m": 9999,
      "fzfg": false,
      "metar_trigger": false,
      "taf_trigger": false,
      "metar": "METAR LEAL 290700Z 27007KT CAVOK 19/11 Q1010 NOSIG",
      "taf": "TAF LEAL 290500Z 2906/3006 VRB05KT CAVOK TX25/2912Z TN13/2906Z"
    },
    {
      "icao": "LEBB",
      "alert": "OK",
      "vis_m": 6000,
      "fzfg": false,
      "metar_trigger": false,
      "taf_trigger": false,
      "metar": "METAR LEBB 290700Z 00000KT 6000 -RA FEW008 OVC016 16/15 Q1008 TEMPO 3000 RA",
      "taf": "TAF LEBB 290500Z 2906/3006 VRB03KT 9999 SCT015 BKN030 TX24/2913Z TN12/3006Z"
    },
    {
      "icao": "LEBL",
      "alert": "OK",
      "vis_m": 9000,
      "fzfg": false,
      "metar_trigger": false,
      "taf_trigger": false,
      "metar": "METAR LEBL 290700Z 07012KT 9000 SCT014 18/16 Q1012 NOSIG",
      "taf": "TAF LEBL 290500Z 2906/3006 07012KT 9999 FEW020 TX21/2912Z TN16/3005Z"
    },
    {
      "icao": "LECH",
      "alert": "OK",
      "vis_m": 9000,
      "fzfg": false,
      "metar_trigger": false,
      "taf_trigger": false,
      "metar": "METAR LECH 290700Z AUTO 03006KT 360V070 9000 OVC019 15/13 Q1012",
      "taf": "TAF LECH 290500Z 2906/3006 VRB04KT CAVOK TX24/2913Z TN10/2906Z"
    },
    {
      "icao": "LEMD",
      "alert": "OK",
      "vis_m": 9999,
      "fzfg": false,
      "metar_trigger": false,
      "taf_trigger": false,
      "metar": "METAR LEMD 290700Z 15007KT 9999 -RA FEW035TCU BKN070 14/13 Q1010 NOSIG",
      "taf": ""
    },
    {
      "icao": "LEMG",
      "alert": "OK",
      "vis_m": 9999,
      "fzfg": false,
      "metar_trigger": false,
      "taf_trigger": false,
      "metar": "METAR LEMG 290700Z VRB02KT 9999 FEW015 BKN035 15/13 Q1011 NOSIG",
      "taf": "TAF LEMG 290500Z 2906/3006 VRB03KT 9999 BKN020 TX21/2914Z TN16/2906Z"
    },
    {
      "icao": "LEVC",
      "alert": "OK",
      "vis_m": 9999,
      "fzfg": false,
      "metar_trigger": false,
      "taf_trigger": false,
      "metar": "METAR LEVC 290700Z 32006KT 9999 FEW017 BKN034 17/09 Q1011 NOSIG",
      "taf": "TAF LEVC 290500Z 2906/3006 VRB04KT CAVOK TX24/2912Z TN13/2906Z"
    },
    {
      "icao": "LEXJ",
      "alert": "OK",
      "vis_m": 7000,
      "fzfg": false,
      "metar_trigger": false,
      "taf_trigger": false,
      "metar": "METAR LEXJ 290700Z VRB02KT 7000 -RA FEW015 OVC023 14/12 Q1008",
      "taf": ""
    },
    {
      "icao": "LEZG",
      "alert": "OK",
      "vis_m": 9999,
      "fzfg": false,
      "metar_trigger": false,
      "taf_trigger": false,
      "metar": "METAR LEZG 290700Z 13007KT 9999 -RA FEW030 BKN080 16/12 Q1011 NOSIG",
      "taf": "TAF LEZG 290500Z 2906/3006 11010KT 9999 SCT060 TX25/2914Z TN14/2906Z"
    },
    {
      "icao": "LEZL",
      "alert": "OK",
      "vis_m": 9000,
      "fzfg": false,
      "metar_trigger": false,
      "taf_trigger": false,
      "metar": "METAR LEZL 290700Z 19004KT 150V240 9000 FEW010 OVC020 17/17 Q1010 NOSIG",
      "taf": ""
    },
    {
      "icao": "LFBD",
      "alert": "OK",
      "vis_m": 9999,
      "fzfg": false,
      "metar_trigger": false,
      "taf_trigger": false,
      "metar": "METAR LFBD 290700Z AUTO 09007KT 9999 -DZ FEW010/// SCT030/// BKN040/// ///TCU 16/14 Q1010 TEMPO 4000 -SHRA BKN010",
      "taf": "TAF LFBD 290500Z 2906/3012 07005KT CAVOK TX24/2915Z TN15/2906Z"
    },
    {
      "icao": "LFLL",
      "alert": "OK",
      "vis_m": 9999,
      "fzfg": false,
      "metar_trigger": false,
      "taf_trigger": false,
      "metar": "METAR LFLL 290700Z 00000KT 8000 0600N R35L/P2000 R17R/1500U R35R/P2000 R17L/0800N BCFG BKN001 BKN043 12/12 Q1015 BECMG CAVOK",
      "taf": ""
    },
    {
      "icao": "LFLS",
      "alert": "OK",
      "vis_m": 9999,
      "fzfg": false,
      "metar_trigger": false,
      "taf_trigger": false,
      "metar": "METAR LFLS 290700Z AUTO 09008KT CAVOK 15/13 Q1015 TEMPO 4000 BR BKN004",
      "taf": "TAF LFLS 290200Z 2903/3003 24005KT CAVOK"
    },
    {
      "icao": "LFMN",
      "alert": "OK",
      "vis_m": 9999,
      "fzfg": false,
      "metar_trigger": false,
      "taf_trigger": false,
      "metar": "METAR LFMN 290700Z 04004KT 010V070 CAVOK 19/10 Q1015 NOSIG",
      "taf": "TAF LFMN 290200Z 2903/3009 33010KT CAVOK"
    },
    {
      "icao": "LFOB",
      "alert": "OK",
      "vis_m": 9999,
      "fzfg": false,
      "metar_trigger": false,
      "taf_trigger": false,
      "metar": "METAR LFOB 290700Z AUTO 06012KT 040V100 CAVOK 12/04 Q1019 NOSIG",
      "taf": "TAF LFOB 290500Z 2906/3006 05012KT CAVOK"
    },
    {
      "icao": "LFPO",
      "alert": "OK",
      "vis_m": 9999,
      "fzfg": false,
      "metar_trigger": false,
      "taf_trigger": false,
      "metar": "METAR LFPO 290700Z 06012KT CAVOK 14/04 Q1017 NOSIG",
      "taf": "TAF LFPO 290500Z 2906/3012 01010KT CAVOK"
    },
    {
      "icao": "LFSB",
      "alert": "OK",
      "vis_m": 9999,
      "fzfg": false,
      "metar_trigger": false,
      "taf_trigger": false,
      "metar": "METAR LFSB 290700Z AUTO 34008KT CAVOK 11/05 Q1018 NOSIG",
      "taf": "TAF LFSB 290500Z 2906/3006 35005KT CAVOK"
    },
    {
      "icao": "LGAV",
      "alert": "OK",
      "vis_m": 9999,
      "fzfg": false,
      "metar_trigger": false,
      "taf_trigger": false,
      "metar": "METAR LGAV 290650Z VRB03KT CAVOK 20/06 Q1017 NOSIG",
      "taf": "TAF LGAV 290500Z 2906/3006 VRB05KT 9999 FEW030"
    },
    {
      "icao": "LGTS",
      "alert": "OK",
      "vis_m": 9999,
      "fzfg": false,
      "metar_trigger": false,
      "taf_trigger": false,
      "metar": "METAR LGTS 290650Z VRB03KT 9999 FEW016 16/12 Q1018 NOSIG",
      "taf": "TAF LGTS 290500Z 2906/3006 17010KT 9999 FEW030"
    },
    {
      "icao": "LHBP",
      "alert": "OK",
      "vis_m": 9999,
      "fzfg": false,
      "metar_trigger": false,
      "taf_trigger": false,
      "metar": "METAR LHBP 290700Z 06010KT 020V100 CAVOK 12/M07 Q1022 NOSIG",
      "taf": "TAF LHBP 290515Z 2906/3006 01006KT CAVOK"
    },
    {
      "icao": "LHDC",
      "alert": "OK",
      "vis_m": 9999,
      "fzfg": false,
      "metar_trigger": false,
      "taf_trigger": false,
      "metar": "METAR LHDC 290645Z AUTO 03013KT 360V070 CAVOK 10/M06 Q1021 NOSIG",
      "taf": "TAF LHDC 290515Z 2906/2915 03010KT CAVOK"
    },
    {
      "icao": "LIBD",
      "alert": "OK",
      "vis_m": 9999,
      "fzfg": false,
      "metar_trigger": false,
      "taf_trigger": false,
      "metar": "METAR LIBD 290650Z VRB02KT CAVOK 20/13 Q1015",
      "taf": "TAF LIBD 290500Z 2906/3006 VRB05KT 9999 FEW040"
    },
    {
      "icao": "LIBG",
      "alert": "OK",
      "vis_m": 9999,
      "fzfg": false,
      "metar_trigger": false,
      "taf_trigger": false,
      "metar": "SPECI LIBG 290553Z 00000KT CAVOK 16/16 Q1016",
      "taf": "TAF LIBG 290600Z 2907/2915 VRB05KT 9999 FEW030"
    },
    {
      "icao": "LIBP",
      "alert": "OK",
      "vis_m": 9999,
      "fzfg": false,
      "metar_trigger": false,
      "taf_trigger": false,
      "metar": "METAR LIBP 290650Z AUTO VRB02KT 9999 NCD 18/13 Q1015",
      "taf": "TAF LIBP 290500Z 2906/3006 VRB05KT CAVOK"
    },
    {
      "icao": "LIBR",
      "alert": "OK",
      "vis_m": 9999,
      "fzfg": false,
      "metar_trigger": false,
      "taf_trigger": false,
      "metar": "METAR LIBR 290650Z 18007KT CAVOK 19/16 Q1016",
      "taf": "TAF LIBR 290500Z 2906/3006 19010KT CAVOK"
    },
    {
      "icao": "LICA",
      "alert": "OK",
      "vis_m": 9999,
      "fzfg": false,
      "metar_trigger": false,
      "taf_trigger": false,
      "metar": "METAR LICA 290650Z AUTO 11004KT 9999 NCD 21/12 Q1016",
      "taf": "TAF LICA 290500Z 2906/3006 VRB05KT 9999 SCT040"
    },
    {
      "icao": "LICC",
      "alert": "OK",
      "vis_m": 9999,
      "fzfg": false,
      "metar_trigger": false,
      "taf_trigger": false,
      "metar": "METAR LICC 290650Z 24004KT CAVOK 17/13 Q1017",
      "taf": "TAF LICC 290500Z 2906/3006 VRB05KT 9999 SCT040"
    },
    {
      "icao": "LICJ",
      "alert": "OK",
      "vis_m": 9999,
      "fzfg": false,
      "metar_trigger": false,
      "taf_trigger": false,
      "metar": "METAR LICJ 290650Z 02004KT CAVOK 18/13 Q1015",
      "taf": "TAF LICJ 290500Z 2906/3006 VRB05KT 9999 SCT040"
    },
    {
      "icao": "LIMC",
      "alert": "OK",
      "vis_m": 9999,
      "fzfg": false,
      "metar_trigger": false,
      "taf_trigger": false,
      "metar": "METAR LIMC 290650Z 35003KT 320V030 9999 BKN060 16/13 Q1017 NOSIG",
      "taf": "TAF LIMC 290500Z 2906/3012 VRB05KT 9999 SCT060 SCT100"
    },
    {
      "icao": "LIME",
      "alert": "OK",
      "vis_m": 9999,
      "fzfg": false,
      "metar_trigger": false,
      "taf_trigger": false,
      "metar": "METAR LIME 290650Z 04002KT 9999 SCT050 SCT100 17/13 Q1017 NOSIG",
      "taf": "TAF LIME 290500Z 2906/3006 VRB05KT 9999 SCT050"
    },
    {
      "icao": "LIMF",
      "alert": "OK",
      "vis_m": 9999,
      "fzfg": false,
      "metar_trigger": false,
      "taf_trigger": false,
      "metar": "METAR LIMF 290650Z 31007KT 9999 FEW035 BKN070 16/13 Q1017",
      "taf": "TAF LIMF 290500Z 2906/3006 VRB05KT 9999 FEW030 SCT090"
    },
    {
      "icao": "LIMJ",
      "alert": "OK",
      "vis_m": 9999,
      "fzfg": false,
      "metar_trigger": false,
      "taf_trigger": false,
      "metar": "METAR LIMJ 290650Z 06004KT 340V100 CAVOK 19/10 Q1016",
      "taf": "TAF LIMJ 290500Z 2906/3006 VRB06KT CAVOK"
    },
    {
      "icao": "LIPE",
      "alert": "OK",
      "vis_m": 6000,
      "fzfg": false,
      "metar_trigger": false,
      "taf_trigger": false,
      "metar": "METAR LIPE 290650Z 27006KT 6000 BKN015 15/13 Q1016",
      "taf": "TAF LIPE 290500Z 2906/3006 VRB05KT CAVOK"
    },
    {
      "icao": "LIPH",
      "alert": "OK",
      "vis_m": 9999,
      "fzfg": false,
      "metar_trigger": false,
      "taf_trigger": false,
      "metar": "METAR LIPH 290650Z 05010KT 010V080 9999 FEW070 18/10 Q1017",
      "taf": "TAF LIPH 290500Z 2906/3006 05008KT 9999 SCT050"
    },
    {
      "icao": "LIPQ",
      "alert": "OK",
      "vis_m": 9999,
      "fzfg": false,
      "metar_trigger": false,
      "taf_trigger": false,
      "metar": "METAR LIPQ 290650Z AUTO 07005KT 030V110 9999 BKN092/// 18/08 Q1017",
      "taf": "TAF LIPQ 290500Z 2906/3006 VRB05KT 9999 BKN050"
    },
    {
      "icao": "LIPR",
      "alert": "OK",
      "vis_m": 9999,
      "fzfg": false,
      "metar_trigger": false,
      "taf_trigger": false,
      "metar": "METAR LIPR 290650Z 26004KT 230V290 CAVOK 18/15 Q1015",
      "taf": "TAF LIPR 290500Z 2906/3006 VRB05KT CAVOK"
    },
    {
      "icao": "LIPX",
      "alert": "OK",
      "vis_m": 9999,
      "fzfg": false,
      "metar_trigger": false,
      "taf_trigger": false,
      "metar": "METAR LIPX 290650Z VRB01KT 9999 FEW070 19/10 Q1016",
      "taf": "TAF LIPX 290500Z 2906/3006 VRB05KT 9999 SCT080"
    },
    {
      "icao": "LIPY",
      "alert": "OK",
      "vis_m": 9999,
      "fzfg": false,
      "metar_trigger": false,
      "taf_trigger": false,
      "metar": "METAR LIPY 290650Z AUTO VRB02KT 9999 NCD 18/14 Q1015",
      "taf": "TAF LIPY 290500Z 2906/3006 VRB05KT CAVOK"
    },
    {
      "icao": "LIPZ",
      "alert": "OK",
      "vis_m": 9999,
      "fzfg": false,
      "metar_trigger": false,
      "taf_trigger": false,
      "metar": "METAR LIPZ 290650Z 06010KT 9999 -RA SCT070 17/10 Q1016 NOSIG",
      "taf": "TAF LIPZ 290500Z 2906/3012 06005KT 9999 FEW030"
    },
    {
      "icao": "LIRF",
      "alert": "OK",
      "vis_m": 9999,
      "fzfg": false,
      "metar_trigger": false,
      "taf_trigger": false,
      "metar": "METAR LIRF 290650Z 07006KT 060V120 CAVOK 16/09 Q1016 NOSIG",
      "taf": "TAF LIRF 290500Z 2906/3012 VRB05KT 9999 NSC"
    },
    {
      "icao": "LIRN",
      "alert": "OK",
      "vis_m": 9999,
      "fzfg": false,
      "metar_trigger": false,
      "taf_trigger": false,
      "metar": "METAR LIRN 290650Z 02003KT CAVOK 18/08 Q1016 NOSIG",
      "taf": "TAF LIRN 290500Z 2906/3006 VRB05KT 9999 SCT030"
    },
    {
      "icao": "LIRP",
      "alert": "OK",
      "vis_m": 9999,
      "fzfg": false,
      "metar_trigger": false,
      "taf_trigger": false,
      "metar": "METAR LIRP 290645Z 11004KT 9999 FEW001 13/09 Q1016 NOSIG",
      "taf": "TAF LIRP 290500Z 2906/3006 11005KT CAVOK"
    },
    {
      "icao": "LIRZ",
      "alert": "OK",
      "vis_m": 9999,
      "fzfg": false,
      "metar_trigger": false,
      "taf_trigger": false,
      "metar": "METAR LIRZ 290650Z AUTO VRB02KT 9999 NCD 14/09 Q1017",
      "taf": "TAF LIRZ 290500Z 2906/3006 VRB05KT CAVOK"
    },
    {
      "icao": "LJLJ",
      "alert": "OK",
      "vis_m": 9999,
      "fzfg": false,
      "metar_trigger": false,
      "taf_trigger": false,
      "metar": "METAR LJLJ 290700Z 14004KT 110V170 9999 -RA FEW002 SCT010 BKN045 11/10 Q1020 NOSIG",
      "taf": "TAF LJLJ 290500Z 2906/3006 10005KT 9999 FEW003 SCT010 BKN060"
    },
    {
      "icao": "LKMT",
      "alert": "OK",
      "vis_m": 9999,
      "fzfg": false,
      "metar_trigger": false,
      "taf_trigger": false,
      "metar": "METAR LKMT 290700Z 02004KT 340V050 CAVOK 07/M03 Q1025 NOSIG",
      "taf": "TAF LKMT 290500Z 2906/3006 04008KT CAVOK"
    },
    {
      "icao": "LKPR",
      "alert": "OK",
      "vis_m": 9999,
      "fzfg": false,
      "metar_trigger": false,
      "taf_trigger": false,
      "metar": "METAR LKPR 290700Z 07006KT 050V110 CAVOK 08/M05 Q1025 NOSIG",
      "taf": "TAF LKPR 290500Z 2906/3012 04008KT CAVOK"
    },
    {
      "icao": "LLBG",
      "alert": "OK",
      "vis_m": 9999,
      "fzfg": false,
      "metar_trigger": false,
      "taf_trigger": false,
      "metar": "METAR LLBG 290650Z VRB02KT CAVOK 22/14 Q1014 NOSIG",
      "taf": "TAF LLBG 290501Z 2906/3006 VRB04KT 9999 SCT018 TX24/2910Z TN13/3004Z"
    },
    {
      "icao": "LMML",
      "alert": "OK",
      "vis_m": 9999,
      "fzfg": false,
      "metar_trigger": false,
      "taf_trigger": false,
      "metar": "METAR LMML 290645Z 09013KT CAVOK 20/14 Q1015 NOSIG",
      "taf": "TAF LMML 290500Z 2906/3006 11013KT 9999 FEW025"
    },
    {
      "icao": "LOWW",
      "alert": "OK",
      "vis_m": 9999,
      "fzfg": false,
      "metar_trigger": false,
      "taf_trigger": false,
      "metar": "METAR LOWW 290650Z 01008KT CAVOK 09/M03 Q1023 NOSIG",
      "taf": "TAF LOWW 290515Z 2906/3012 02010KT CAVOK TX15/2914Z TNM01/3004Z"
    },
    {
      "icao": "LPFR",
      "alert": "OK",
      "vis_m": 9999,
      "fzfg": false,
      "metar_trigger": false,
      "taf_trigger": false,
      "metar": "METAR LPFR 290700Z 27007KT 9999 FEW012 BKN025 16/13 Q1009",
      "taf": "TAF LPFR 290500Z 2906/3006 26013KT 9999 SCT008 BKN015"
    },
    {
      "icao": "LPMA",
      "alert": "OK",
      "vis_m": 9999,
      "fzfg": false,
      "metar_trigger": false,
      "taf_trigger": false,
      "metar": "METAR LPMA 290700Z 34005KT 300V030 9999 SCT016 BKN030 16/10 Q1013",
      "taf": "TAF LPMA 290500Z 2906/3006 VRB05KT 9999 SCT015 BKN030"
    },
    {
      "icao": "LPPR",
      "alert": "OK",
      "vis_m": 5000,
      "fzfg": false,
      "metar_trigger": false,
      "taf_trigger": false,
      "metar": "METAR LPPR 290700Z 23008KT 190V250 5000 -DZRA BR BKN005 BKN010 FEW025CB 16/15 Q1007",
      "taf": "TAF LPPR 290500Z 2906/3006 18008KT 9999 SCT005 SCT010"
    },
    {
      "icao": "LPPS",
      "alert": "OK",
      "vis_m": 9999,
      "fzfg": false,
      "metar_trigger": false,
      "taf_trigger": false,
      "metar": "METAR LPPS 290700Z 32003KT 9999 SCT015 BKN030 16/09 Q1013",
      "taf": "TAF LPPS 290500Z 2906/3012 34007KT 9999 SCT015 BKN030"
    },
    {
      "icao": "LPPT",
      "alert": "OK",
      "vis_m": 9999,
      "fzfg": false,
      "metar_trigger": false,
      "taf_trigger": false,
      "metar": "METAR LPPT 290700Z 24005KT 9999 FEW008 SCT011 BKN022 15/13 Q1008",
      "taf": "TAF LPPT 290500Z 2906/3012 26007KT 9999 SCT006 SCT012"
    },
    {
      "icao": "LQBK",
      "alert": "OK",
      "vis_m": 9999,
      "fzfg": false,
      "metar_trigger": false,
      "taf_trigger": false,
      "metar": "METAR LQBK 290630Z VRB02KT CAVOK 12/06 Q1019 NOSIG",
      "taf": "TAF LQBK 290500Z 2906/3006 35005KT CAVOK TX14/2910Z TN04/3005Z"
    },
    {
      "icao": "LQSA",
      "alert": "OK",
      "vis_m": 9999,
      "fzfg": false,
      "metar_trigger": false,
      "taf_trigger": false,
      "metar": "METAR LQSA 290700Z VRB02KT CAVOK 11/06 Q1019 NOSIG",
      "taf": "TAF LQSA 290500Z 2906/3006 29005KT 9999 SCT050 TX17/2913Z TN05/3004Z"
    },
    {
      "icao": "LQTZ",
      "alert": "OK",
      "vis_m": 9999,
      "fzfg": false,
      "metar_trigger": false,
      "taf_trigger": false,
      "metar": "METAR LQTZ 290700Z VRB02KT 9999 SCT070 11/09 Q1019",
      "taf": "TAF LQTZ 290500Z 2906/3006 03006KT 9999 SCT060 TX17/2818Z TN02/3005Z"
    },
    {
      "icao": "LRBC",
      "alert": "OK",
      "vis_m": 9999,
      "fzfg": false,
      "metar_trigger": false,
      "taf_trigger": false,
      "metar": "METAR LRBC 290700Z 35007KT 310V020 CAVOK 11/M02 Q1021",
      "taf": "TAF LRBC 290500Z 2906/2915 36006KT CAVOK"
    },
    {
      "icao": "LRBS",
      "alert": "OK",
      "vis_m": 9999,
      "fzfg": false,
      "metar_trigger": false,
      "taf_trigger": false,
      "metar": "METAR LRBS 290700Z 05013KT 020V080 CAVOK 12/02 Q1019 NOSIG",
      "taf": "TAF LRBS 290500Z 2906/3006 06014KT CAVOK"
    },
    {
      "icao": "LRBV",
      "alert": "OK",
      "vis_m": 9999,
      "fzfg": false,
      "metar_trigger": false,
      "taf_trigger": false,
      "metar": "METAR LRBV 290700Z 09006KT 9999 BKN063 08/M02 Q1019",
      "taf": "TAF LRBV 290500Z 2906/2915 VRB04KT 9999 BKN050"
    },
    {
      "icao": "LRCL",
      "alert": "OK",
      "vis_m": 9999,
      "fzfg": false,
      "metar_trigger": false,
      "taf_trigger": false,
      "metar": "METAR LRCL 290700Z VRB01KT CAVOK 11/00 Q1019",
      "taf": "TAF LRCL 290500Z 2906/2915 VRB04KT CAVOK"
    },
    {
      "icao": "LRCV",
      "alert": "OK",
      "vis_m": 9999,
      "fzfg": false,
      "metar_trigger": false,
      "taf_trigger": false,
      "metar": "METAR LRCV 290700Z 11012KT CAVOK 13/05 Q1018",
      "taf": "TAF LRCV 290500Z 2906/2915 10010KT CAVOK"
    },
    {
      "icao": "LRIA",
      "alert": "OK",
      "vis_m": 9999,
      "fzfg": false,
      "metar_trigger": false,
      "taf_trigger": false,
      "metar": "METAR LRIA 290700Z 03007KT 360V060 CAVOK 10/M07 Q1022",
      "taf": "TAF LRIA 290500Z 2906/2915 34006KT CAVOK"
    },
    {
      "icao": "LROP",
      "alert": "OK",
      "vis_m": 9999,
      "fzfg": false,
      "metar_trigger": false,
      "taf_trigger": false,
      "metar": "METAR LROP 290700Z 07015KT CAVOK 12/01 Q1019 NOSIG",
      "taf": "TAF LROP 290500Z 2906/3006 07014KT CAVOK"
    },
    {
      "icao": "LRSB",
      "alert": "OK",
      "vis_m": 9999,
      "fzfg": false,
      "metar_trigger": false,
      "taf_trigger": false,
      "metar": "METAR LRSB 290700Z VRB02KT CAVOK 12/02 Q1018",
      "taf": "TAF LRSB 290500Z 2906/3006 VRB04KT CAVOK"
    },
    {
      "icao": "LRSM",
      "alert": "OK",
      "vis_m": 9999,
      "fzfg": false,
      "metar_trigger": false,
      "taf_trigger": false,
      "metar": "METAR LRSM 290700Z 03008KT CAVOK 11/M07 Q1021",
      "taf": "TAF LRSM 290500Z 2906/2915 01008KT CAVOK"
    },
    {
      "icao": "LRSV",
      "alert": "OK",
      "vis_m": 9999,
      "fzfg": false,
      "metar_trigger": false,
      "taf_trigger": false,
      "metar": "METAR LRSV 290700Z 01003KT 330V100 CAVOK 07/M06 Q1021",
      "taf": "TAF LRSV 290500Z 2906/2915 34006KT CAVOK"
    },
    {
      "icao": "LRTM",
      "alert": "OK",
      "vis_m": 9999,
      "fzfg": false,
      "metar_trigger": false,
      "taf_trigger": false,
      "metar": "METAR LRTM 290700Z VRB02KT CAVOK 11/01 Q1019",
      "taf": "TAF LRTM 290500Z 2906/2915 VRB04KT CAVOK"
    },
    {
      "icao": "LRTR",
      "alert": "OK",
      "vis_m": 9999,
      "fzfg": false,
      "metar_trigger": false,
      "taf_trigger": false,
      "metar": "METAR LRTR 290700Z 36007KT CAVOK 10/01 Q1019",
      "taf": "TAF LRTR 290500Z 2906/3006 01012KT CAVOK"
    },
    {
      "icao": "LTAC",
      "alert": "OK",
      "vis_m": 9999,
      "fzfg": false,
      "metar_trigger": false,
      "taf_trigger": false,
      "metar": "METAR LTAC 290650Z VRB03KT 9999 FEW040 13/06 Q1016 NOSIG RMK RWY21C VRB03KT RWY03L VRB02KT RWY21R VRB03KT RWY03R VRB01KT RWY21L VRB02KT",
      "taf": "TAF LTAC 290440Z 2906/3006 VRB02KT CAVOK"
    },
    {
      "icao": "LTFM",
      "alert": "OK",
      "vis_m": 9999,
      "fzfg": false,
      "metar_trigger": false,
      "taf_trigger": false,
      "metar": "METAR LTFM 290650Z 06010KT 9999 FEW020 13/06 Q1020 NOSIG RMK RWY17L 07009KT 040V100 RWY34L 06010KT RWY16R 07008KT 030V100 RWY36 08009KT RWY18 08008KT 040V110",
      "taf": "TAF LTFM 290440Z 2906/3012 06012KT 9999 SCT020"
    },
    {
      "icao": "LUKK",
      "alert": "OK",
      "vis_m": 9999,
      "fzfg": false,
      "metar_trigger": false,
      "taf_trigger": false,
      "metar": "METAR LUKK 290700Z 03007KT 360V060 CAVOK 11/M04 Q1021 NOSIG",
      "taf": "TAF LUKK 290515Z 2906/3006 36008KT CAVOK"
    },
    {
      "icao": "LWOH",
      "alert": "OK",
      "vis_m": 9999,
      "fzfg": false,
      "metar_trigger": false,
      "taf_trigger": false,
      "metar": "METAR LWOH 290650Z 16005KT 130V190 CAVOK 14/09 Q1019",
      "taf": "TAF LWOH 290515Z 2906/3006 VRB02KT 9999 FEW050"
    },
    {
      "icao": "LWSK",
      "alert": "OK",
      "vis_m": 9999,
      "fzfg": false,
      "metar_trigger": false,
      "taf_trigger": false,
      "metar": "METAR LWSK 290650Z VRB02KT CAVOK 15/09 Q1018 NOSIG",
      "taf": "TAF LWSK 290515Z 2906/3006 VRB02KT 9999 FEW050 SCT100"
    },
    {
      "icao": "LYBE",
      "alert": "OK",
      "vis_m": 9999,
      "fzfg": false,
      "metar_trigger": false,
      "taf_trigger": false,
      "metar": "METAR LYBE 290700Z 36003KT 330V030 CAVOK 14/04 Q1019 NOSIG",
      "taf": "TAF LYBE 290500Z 2906/3006 34008KT CAVOK TX15/2911Z TN08/3004Z"
    },
    {
      "icao": "LYNI",
      "alert": "OK",
      "vis_m": 9999,
      "fzfg": false,
      "metar_trigger": false,
      "taf_trigger": false,
      "metar": "METAR LYNI 290700Z 30003KT 260V340 9999 SCT080 16/07 Q1018 NOSIG",
      "taf": "TAF LYNI 290500Z 2906/3006 34005KT CAVOK TX21/2913Z TN08/3004Z"
    },
    {
      "icao": "LYPG",
      "alert": "OK",
      "vis_m": 9999,
      "fzfg": false,
      "metar_trigger": false,
      "taf_trigger": false,
      "metar": "METAR LYPG 290700Z VRB02KT 9999 FEW050 18/09 Q1018 NOSIG",
      "taf": "TAF LYPG 290500Z 2906/3006 16007KT 9999 FEW050 SCT090 TX25/2914Z TN13/3004Z"
    },
    {
      "icao": "LZIB",
      "alert": "OK",
      "vis_m": 9999,
      "fzfg": false,
      "metar_trigger": false,
      "taf_trigger": false,
      "metar": "METAR LZIB 290700Z 05008KT 010V100 CAVOK 11/M05 Q1023 NOSIG",
      "taf": "TAF LZIB 290515Z 2906/3006 03009KT CAVOK"
    },
    {
      "icao": "LZKZ",
      "alert": "OK",
      "vis_m": 9999,
      "fzfg": false,
      "metar_trigger": false,
      "taf_trigger": false,
      "metar": "METAR LZKZ 290700Z 01009KT 330V030 CAVOK 09/M06 Q1023 NOSIG",
      "taf": "TAF LZKZ 290515Z 2906/3006 02012KT CAVOK"
    },
    {
      "icao": "LZTT",
      "alert": "OK",
      "vis_m": 9999,
      "fzfg": false,
      "metar_trigger": false,
      "taf_trigger": false,
      "metar": "METAR LZTT 290700Z 18003KT 110V250 CAVOK 05/M07 Q1021 NOSIG",
      "taf": "TAF LZTT 290515Z 2906/3006 09009KT 9999 FEW060"
    },
    {
      "icao": "OEJN",
      "alert": "OK",
      "vis_m": 9999,
      "fzfg": false,
      "metar_trigger": false,
      "taf_trigger": false,
      "metar": "METAR OEJN 290700Z 35010KT CAVOK 30/12 Q1011 NOSIG",
      "taf": "TAF OEJN 290500Z 2906/3012 02005KT CAVOK"
    },
    {
      "icao": "OEMA",
      "alert": "OK",
      "vis_m": 9999,
      "fzfg": false,
      "metar_trigger": false,
      "taf_trigger": false,
      "metar": "METAR OEMA 290700Z VRB03KT CAVOK 27/02 Q1014 NOSIG",
      "taf": "TAF OEMA 290500Z 2906/3012 VRB03KT 7000 NSC"
    },
    {
      "icao": "OJAI",
      "alert": "OK",
      "vis_m": 5000,
      "fzfg": false,
      "metar_trigger": false,
      "taf_trigger": false,
      "metar": "METAR OJAI 290700Z 32006KT 5000 HZ NSC 21/08 Q1016 NOSIG",
      "taf": "TAF OJAI 290449Z 2906/3012 VRB02KT 5000 HZ NSC"
    },
    {
      "icao": "OMAA",
      "alert": "OK",
      "vis_m": 9999,
      "fzfg": false,
      "metar_trigger": false,
      "taf_trigger": false,
      "metar": "METAR OMAA 290700Z 01007KT CAVOK 41/07 Q1006 NOSIG",
      "taf": "TAF OMAA 290500Z 2906/3012 10007KT 8000 NSC"
    },
    {
      "icao": "OMDB",
      "alert": "OK",
      "vis_m": 9999,
      "fzfg": false,
      "metar_trigger": false,
      "taf_trigger": false,
      "metar": "METAR OMDB 290700Z 33010KT 290V010 CAVOK 39/10 Q1007 NOSIG",
      "taf": "TAF OMDB 290500Z 2906/3012 24005KT 8000 NSC"
    },
    {
      "icao": "UAAA",
      "alert": "OK",
      "vis_m": 9999,
      "fzfg": false,
      "metar_trigger": false,
      "taf_trigger": false,
      "metar": "METAR UAAA 290700Z 06004MPS 020V100 9999 FEW050 SCT200 24/12 Q1015 NOSIG",
      "taf": "TAF UAAA 290507Z 2906/3006 07005G10MPS 9999 FEW050CB SCT100 TX25/2909Z TN10/3001Z"
    },
    {
      "icao": "UBBB",
      "alert": "OK",
      "vis_m": 9999,
      "fzfg": false,
      "metar_trigger": false,
      "taf_trigger": false,
      "metar": "METAR UBBB 290700Z 32016KT 9999 -SHRA FEW012 SCT042CB OVC042 09/07 Q1017 NOSIG",
      "taf": "TAF UBBB 290500Z 2906/3006 32018G28KT 9999 SCT012 FEW040CB BKN100 TX11/2910Z TN09/3001Z"
    },
    {
      "icao": "UDSG",
      "alert": "OK",
      "vis_m": 9999,
      "fzfg": false,
      "metar_trigger": false,
      "taf_trigger": false,
      "metar": "METAR UDSG 290700Z 12001KT 9999 FEW049 11/01 Q1015 NOSIG",
      "taf": "TAF UDSG 290458Z 2906/3006 24006KT 9999 FEW050"
    },
    {
      "icao": "UDYZ",
      "alert": "OK",
      "vis_m": 9999,
      "fzfg": false,
      "metar_trigger": false,
      "taf_trigger": false,
      "metar": "METAR UDYZ 290700Z 19005KT 150V230 9999 SCT033 16/08 Q1013 NOSIG",
      "taf": "TAF UDYZ 290500Z 2906/3006 20006KT 9999 SCT040"
    },
    {
      "icao": "UGKO",
      "alert": "OK",
      "vis_m": 9999,
      "fzfg": false,
      "metar_trigger": false,
      "taf_trigger": false,
      "metar": "METAR UGKO 290700Z 21003KT 160V260 9999 BKN050 13/07 Q1018 NOSIG",
      "taf": "TAF UGKO 290500Z 2906/3006 VRB02KT 9999 OVC045 TX17/2911Z TN04/3002Z"
    }
  ]
}