{
  "ts_utc": "2026-02-09T18:35:02Z",
  "threshold_m": 150,
  "source": "stations_override.txt (ICAO list) + aviationweather.gov (METAR/TAF raw)",
  "station_count": 159,
  "stations": [
    {
      "icao": "BIKF",
      "alert": "OK",
      "vis_m": 9999,
      "fzfg": false,
      "metar_trigger": false,
      "taf_trigger": false,
      "metar": "METAR BIKF 091801Z 03011KT CAVOK 03/M01 Q1006",
      "taf": "TAF BIKF 091629Z 0918/1018 04014KT 9999 FEW030 SCT040 TX04/1013Z TN02/1018Z"
    },
    {
      "icao": "BKPR",
      "alert": "OK",
      "vis_m": 9999,
      "fzfg": false,
      "metar_trigger": false,
      "taf_trigger": false,
      "metar": "METAR BKPR 091830Z 36015KT 9999 -RA SCT014 BKN030 04/03 Q1008 NOSIG",
      "taf": ""
    },
    {
      "icao": "EBCI",
      "alert": "OK",
      "vis_m": 9999,
      "fzfg": false,
      "metar_trigger": false,
      "taf_trigger": false,
      "metar": "METAR EBCI 091820Z 15007KT 120V190 9999 FEW016 05/03 Q1001 NOSIG",
      "taf": "TAF EBCI 091700Z 0918/1024 15009KT CAVOK"
    },
    {
      "icao": "EDDB",
      "alert": "OK",
      "vis_m": 4500,
      "fzfg": false,
      "metar_trigger": false,
      "taf_trigger": false,
      "metar": "METAR EDDB 091820Z AUTO 12007KT 4500 BR OVC004 00/M00 Q1010 NOSIG",
      "taf": "TAF EDDB 091700Z 0918/1018 11007KT 5000 BR OVC005"
    },
    {
      "icao": "EDDH",
      "alert": "OK",
      "vis_m": 6000,
      "fzfg": false,
      "metar_trigger": false,
      "taf_trigger": false,
      "metar": "METAR EDDH 091820Z AUTO 13007KT 6000 OVC006 01/M00 Q1008 TEMPO 4500 BR",
      "taf": "TAF EDDH 091700Z 0918/1024 12005KT 6000 OVC006"
    },
    {
      "icao": "EDDK",
      "alert": "OK",
      "vis_m": 9999,
      "fzfg": false,
      "metar_trigger": false,
      "taf_trigger": false,
      "metar": "METAR EDDK 091820Z AUTO 12008KT 090V160 CAVOK 04/00 Q1004 NOSIG",
      "taf": "TAF EDDK 091700Z 0918/1024 13009KT CAVOK"
    },
    {
      "icao": "EDDN",
      "alert": "OK",
      "vis_m": 9999,
      "fzfg": false,
      "metar_trigger": false,
      "taf_trigger": false,
      "metar": "METAR EDDN 091820Z AUTO 15007KT 9999 OVC020 04/M00 Q1006 NOSIG",
      "taf": "TAF EDDN 091700Z 0918/1018 12006KT 9999 BKN035"
    },
    {
      "icao": "EDDS",
      "alert": "OK",
      "vis_m": 9999,
      "fzfg": false,
      "metar_trigger": false,
      "taf_trigger": false,
      "metar": "METAR EDDS 091820Z AUTO 09003KT 060V120 CAVOK 01/M00 Q1004 NOSIG",
      "taf": "TAF EDDS 091700Z 0918/1018 09004KT CAVOK"
    },
    {
      "icao": "EDFH",
      "alert": "OK",
      "vis_m": 7000,
      "fzfg": false,
      "metar_trigger": false,
      "taf_trigger": false,
      "metar": "METAR EDFH 091820Z 14009G19KT 7000 SCT004 01/01 Q1003",
      "taf": "TAF EDFH 091700Z 0918/1018 15012KT 9999 BKN007"
    },
    {
      "icao": "EDJA",
      "alert": "OK",
      "vis_m": 9000,
      "fzfg": false,
      "metar_trigger": false,
      "taf_trigger": false,
      "metar": "METAR EDJA 091820Z 04005KT 9000 NSC 00/M01 Q1005",
      "taf": "TAF EDJA 091700Z 0918/1003 05003KT CAVOK"
    },
    {
      "icao": "EDLW",
      "alert": "OK",
      "vis_m": 9999,
      "fzfg": false,
      "metar_trigger": false,
      "taf_trigger": false,
      "metar": "METAR EDLW 091820Z 11006KT 9999 FEW023 04/00 Q1003",
      "taf": "TAF EDLW 091700Z 0918/1018 14007KT CAVOK"
    },
    {
      "icao": "EDNY",
      "alert": "OK",
      "vis_m": 9999,
      "fzfg": false,
      "metar_trigger": false,
      "taf_trigger": false,
      "metar": "METAR EDNY 091820Z VRB01KT CAVOK 02/01 Q1005",
      "taf": "TAF EDNY 091700Z 0918/1003 VRB03KT CAVOK"
    },
    {
      "icao": "EDSB",
      "alert": "OK",
      "vis_m": 9999,
      "fzfg": false,
      "metar_trigger": false,
      "taf_trigger": false,
      "metar": "METAR EDSB 091820Z VRB02KT CAVOK 03/02 Q1005",
      "taf": "TAF EDSB 091700Z 0918/1018 VRB03KT CAVOK"
    },
    {
      "icao": "EETN",
      "alert": "OK",
      "vis_m": 9999,
      "fzfg": false,
      "metar_trigger": false,
      "taf_trigger": false,
      "metar": "METAR EETN 091820Z 24009KT 9999 OVC017 M05/M06 Q1011 NOSIG",
      "taf": ""
    },
    {
      "icao": "EFTU",
      "alert": "OK",
      "vis_m": 9999,
      "fzfg": false,
      "metar_trigger": false,
      "taf_trigger": false,
      "metar": "METAR EFTU 091820Z AUTO 25008KT 9999 OVC011 M06/M08 Q1010",
      "taf": "TAF EFTU 091731Z 0918/1018 25011KT 9999 BKN011"
    },
    {
      "icao": "EGBB",
      "alert": "OK",
      "vis_m": 9999,
      "fzfg": false,
      "metar_trigger": false,
      "taf_trigger": false,
      "metar": "METAR EGBB 091820Z 12013KT 9999 BKN012 08/06 Q0994",
      "taf": "TAF EGBB 091657Z 0918/1018 15010KT 9999 SCT010 BKN020"
    },
    {
      "icao": "EGGP",
      "alert": "OK",
      "vis_m": 9999,
      "fzfg": false,
      "metar_trigger": false,
      "taf_trigger": false,
      "metar": "METAR EGGP 091820Z 11012KT CAVOK 08/05 Q0994",
      "taf": "TAF EGGP 091656Z 0918/1018 12010KT 9999 SCT040"
    },
    {
      "icao": "EGGW",
      "alert": "OK",
      "vis_m": 9000,
      "fzfg": false,
      "metar_trigger": false,
      "taf_trigger": false,
      "metar": "METAR EGGW 091820Z AUTO 12012KT 9000 OVC005 06/05 Q0995",
      "taf": "TAF EGGW 091702Z 0918/1018 15007KT 9999 FEW008 SCT020"
    },
    {
      "icao": "EGKK",
      "alert": "OK",
      "vis_m": 9999,
      "fzfg": false,
      "metar_trigger": false,
      "taf_trigger": false,
      "metar": "METAR EGKK 091820Z 11010KT 9999 BKN011 08/06 Q0995",
      "taf": "TAF EGKK 091705Z 0918/1024 12010KT 9999 BKN010"
    },
    {
      "icao": "EGNM",
      "alert": "OK",
      "vis_m": 9999,
      "fzfg": false,
      "metar_trigger": false,
      "taf_trigger": false,
      "metar": "METAR EGNM 091820Z 11008KT 9999 SCT012 BKN025 07/06 Q0996",
      "taf": "TAF EGNM 091658Z 0918/1018 11005KT 9999 SCT016"
    },
    {
      "icao": "EGPD",
      "alert": "OK",
      "vis_m": 6000,
      "fzfg": false,
      "metar_trigger": false,
      "taf_trigger": false,
      "metar": "METAR EGPD 091820Z AUTO 15007KT 6000 BKN006 OVC013 07/06 Q0998 TEMPO 4000 RA",
      "taf": ""
    },
    {
      "icao": "EGPF",
      "alert": "OK",
      "vis_m": 9999,
      "fzfg": false,
      "metar_trigger": false,
      "taf_trigger": false,
      "metar": "METAR EGPF 091820Z AUTO 07007KT 9999 OVC043 08/07 Q0996",
      "taf": "TAF EGPF 091657Z 0918/1018 06008KT 9999 FEW015 BKN030"
    },
    {
      "icao": "EHBK",
      "alert": "OK",
      "vis_m": 9999,
      "fzfg": false,
      "metar_trigger": false,
      "taf_trigger": false,
      "metar": "METAR EHBK 091825Z AUTO 14006KT 110V190 9999 NSC 05/02 Q1002 NOSIG",
      "taf": "TAF EHBK 091700Z 0918/1024 15006KT CAVOK"
    },
    {
      "icao": "EHEH",
      "alert": "OK",
      "vis_m": 9999,
      "fzfg": false,
      "metar_trigger": false,
      "taf_trigger": false,
      "metar": "METAR EHEH 091825Z AUTO 12005KT 9999 OVC140 06/03 Q1002 BLU NOSIG",
      "taf": "TAF EHEH 091746Z 0918/1024 12004KT CAVOK"
    },
    {
      "icao": "EKBI",
      "alert": "OK",
      "vis_m": 4700,
      "fzfg": false,
      "metar_trigger": false,
      "taf_trigger": false,
      "metar": "METAR EKBI 091820Z AUTO 09008KT 4700 BR OVC005/// M01/M02 Q1009",
      "taf": "TAF EKBI 091727Z 0918/1018 10008KT 6000 BKN008"
    },
    {
      "icao": "EKCH",
      "alert": "OK",
      "vis_m": 7000,
      "fzfg": false,
      "metar_trigger": false,
      "taf_trigger": false,
      "metar": "METAR EKCH 091820Z 09007KT 7000 -SG SCT006 BKN007 M01/M02 Q1011 TEMPO 4000 BKN012",
      "taf": "TAF EKCH 091727Z 0918/1018 12008KT 9999 OVC010"
    },
    {
      "icao": "ENAL",
      "alert": "OK",
      "vis_m": 9999,
      "fzfg": false,
      "metar_trigger": false,
      "taf_trigger": false,
      "metar": "METAR ENAL 091820Z 13006KT 9999 SCT023 00/M03 Q1010",
      "taf": "TAF ENAL 091700Z 0918/1003 15005KT 9999 SCT025"
    },
    {
      "icao": "ENBR",
      "alert": "OK",
      "vis_m": 9999,
      "fzfg": false,
      "metar_trigger": false,
      "taf_trigger": false,
      "metar": "METAR ENBR 091820Z VRB01KT 9999 FEW036 M01/M06 Q1009 NOSIG RMK WIND 1200FT 20003KT",
      "taf": "TAF ENBR 091700Z 0918/1018 VRB03KT 9999 FEW040"
    },
    {
      "icao": "ENGM",
      "alert": "OK",
      "vis_m": 9999,
      "fzfg": false,
      "metar_trigger": false,
      "taf_trigger": false,
      "metar": "METAR ENGM 091820Z 02002KT 9999 OVC015 M09/M11 Q1011 TEMPO BKN014",
      "taf": "TAF ENGM 091700Z 0918/1018 03005KT 9999 SCT010 BKN018"
    },
    {
      "icao": "ENHD",
      "alert": "OK",
      "vis_m": 9999,
      "fzfg": false,
      "metar_trigger": false,
      "taf_trigger": false,
      "metar": "METAR ENHD 091820Z 14010KT 9999 FEW024 BKN032 01/M05 Q1009",
      "taf": "TAF ENHD 091400Z 0915/0923 13010KT 9999 BKN045"
    },
    {
      "icao": "ENTC",
      "alert": "OK",
      "vis_m": 5000,
      "fzfg": false,
      "metar_trigger": false,
      "taf_trigger": false,
      "metar": "METAR ENTC 091820Z 04005KT 5000 -SHSN VV011 M05/M06 Q1011 TEMPO 4000 -SHSN VV014 RMK WIND 2600FT 36012KT",
      "taf": "TAF ENTC 091700Z 0918/1018 05004KT 9999 FEW020 SCT050"
    },
    {
      "icao": "ENTO",
      "alert": "OK",
      "vis_m": 9999,
      "fzfg": false,
      "metar_trigger": false,
      "taf_trigger": false,
      "metar": "METAR ENTO 091820Z 36003KT 9999 FEW027 OVC032 M06/M08 Q1012 NOSIG",
      "taf": "TAF ENTO 091700Z 0918/1018 01005KT 9999 SCT010 BKN025"
    },
    {
      "icao": "ENVA",
      "alert": "OK",
      "vis_m": 9999,
      "fzfg": false,
      "metar_trigger": false,
      "taf_trigger": false,
      "metar": "METAR ENVA 091820Z 07003KT 9999 BKN026 M03/M05 Q1010 NOSIG RMK WIND 670FT 14004KT",
      "taf": "TAF ENVA 091700Z 0918/1018 09005KT 9999 BKN020"
    },
    {
      "icao": "ENZV",
      "alert": "OK",
      "vis_m": 9999,
      "fzfg": false,
      "metar_trigger": false,
      "taf_trigger": false,
      "metar": "METAR ENZV 091820Z 12010KT 9999 FEW025 BKN032 01/M05 Q1009 NOSIG",
      "taf": "TAF ENZV 091700Z 0918/1018 12010KT 9999 BKN025"
    },
    {
      "icao": "EPGD",
      "alert": "OK",
      "vis_m": 8000,
      "fzfg": false,
      "metar_trigger": false,
      "taf_trigger": false,
      "metar": "METAR EPGD 091830Z 16007KT 8000 FEW008 M10/M11 Q1013",
      "taf": "TAF EPGD 091730Z 0918/1018 17007KT 5000 BR BKN004"
    },
    {
      "icao": "EPKK",
      "alert": "OK",
      "vis_m": 9999,
      "fzfg": false,
      "metar_trigger": false,
      "taf_trigger": false,
      "metar": "METAR EPKK 091830Z 06009KT 9999 OVC012 M03/M06 Q1012",
      "taf": "TAF EPKK 091730Z 0918/1018 07012KT 9999 OVC013"
    },
    {
      "icao": "EPKT",
      "alert": "OK",
      "vis_m": 9999,
      "fzfg": false,
      "metar_trigger": false,
      "taf_trigger": false,
      "metar": "METAR EPKT 091830Z 11008KT 9999 FEW010 BKN015 M04/M06 Q1011",
      "taf": "TAF EPKT 091730Z 0918/1018 10010KT 9999 OVC010"
    },
    {
      "icao": "EPLB",
      "alert": "OK",
      "vis_m": 9999,
      "fzfg": false,
      "metar_trigger": false,
      "taf_trigger": false,
      "metar": "METAR EPLB 091830Z 10007KT CAVOK M11/M12 Q1016",
      "taf": "TAF EPLB 091730Z 0918/1018 12010KT 9999 SCT014"
    },
    {
      "icao": "EPMO",
      "alert": "OK",
      "vis_m": 9999,
      "fzfg": false,
      "metar_trigger": false,
      "taf_trigger": false,
      "metar": "METAR EPMO 091830Z 11007KT CAVOK M09/M10 Q1015",
      "taf": "TAF EPMO 091730Z 0918/1018 12010KT 9999 SCT014"
    },
    {
      "icao": "EPPO",
      "alert": "OK",
      "vis_m": 9999,
      "fzfg": false,
      "metar_trigger": false,
      "taf_trigger": false,
      "metar": "METAR EPPO 091830Z 11009KT 9999 OVC017 M02/M04 Q1012",
      "taf": "TAF EPPO 091730Z 0918/1018 11008KT 9999 OVC020"
    },
    {
      "icao": "EPRA",
      "alert": "OK",
      "vis_m": 9999,
      "fzfg": false,
      "metar_trigger": false,
      "taf_trigger": false,
      "metar": "METAR EPRA 091830Z 11010KT CAVOK M09/M12 Q1014",
      "taf": "TAF EPRA 091730Z 0918/1003 11006KT CAVOK"
    },
    {
      "icao": "EPRZ",
      "alert": "OK",
      "vis_m": 9999,
      "fzfg": false,
      "metar_trigger": false,
      "taf_trigger": false,
      "metar": "METAR EPRZ 091830Z 10013KT 9999 OVC013 M04/M07 Q1014",
      "taf": "TAF EPRZ 091730Z 0918/1018 10015KT 9999 OVC014"
    },
    {
      "icao": "EPSC",
      "alert": "OK",
      "vis_m": 9999,
      "fzfg": false,
      "metar_trigger": false,
      "taf_trigger": false,
      "metar": "METAR EPSC 091830Z 14008KT 9999 OVC012 M00/M03 Q1011",
      "taf": "TAF EPSC 091730Z 0918/1018 13010KT 7000 OVC012"
    },
    {
      "icao": "EPSY",
      "alert": "OK",
      "vis_m": 9999,
      "fzfg": false,
      "metar_trigger": false,
      "taf_trigger": false,
      "metar": "METAR EPSY 091830Z 15004KT 110V190 CAVOK M12/M13 Q1016",
      "taf": "TAF EPSY 091730Z 0918/1003 14006KT CAVOK"
    },
    {
      "icao": "EPWA",
      "alert": "OK",
      "vis_m": 9999,
      "fzfg": false,
      "metar_trigger": false,
      "taf_trigger": false,
      "metar": "METAR EPWA 091830Z 11009KT CAVOK M08/M11 Q1015 NOSIG",
      "taf": "TAF EPWA 091730Z 0918/1018 11011KT 9999 SCT014"
    },
    {
      "icao": "EPWR",
      "alert": "OK",
      "vis_m": 9999,
      "fzfg": false,
      "metar_trigger": false,
      "taf_trigger": false,
      "metar": "METAR EPWR 091830Z 13013KT 9999 BKN017 M00/M03 Q1011",
      "taf": "TAF EPWR 091730Z 0918/1018 12010KT 9999 OVC015"
    },
    {
      "icao": "ESGG",
      "alert": "OK",
      "vis_m": 9999,
      "fzfg": false,
      "metar_trigger": false,
      "taf_trigger": false,
      "metar": "METAR ESGG 091820Z 07004KT 9999 BKN057 M05/M08 Q1011",
      "taf": "TAF ESGG 091730Z 0918/1018 10004KT CAVOK"
    },
    {
      "icao": "ESKN",
      "alert": "OK",
      "vis_m": 9999,
      "fzfg": false,
      "metar_trigger": false,
      "taf_trigger": false,
      "metar": "METAR ESKN 091820Z 25002KT 9999 FEW011 M12/M12 Q1013",
      "taf": "TAF ESKN 091730Z 0918/1018 29003KT CAVOK"
    },
    {
      "icao": "ESMS",
      "alert": "OK",
      "vis_m": 4500,
      "fzfg": false,
      "metar_trigger": false,
      "taf_trigger": false,
      "metar": "METAR ESMS 091820Z 10007KT 4500 -SG OVC004 M02/M02 Q1010",
      "taf": "TAF ESMS 091727Z 0918/1018 11006KT 4000 BR OVC003"
    },
    {
      "icao": "ESSA",
      "alert": "OK",
      "vis_m": 9999,
      "fzfg": false,
      "metar_trigger": false,
      "taf_trigger": false,
      "metar": "METAR ESSA 091820Z 23008KT 9999 BKN013 M09/M11 Q1012 NOSIG",
      "taf": "TAF ESSA 091730Z 0918/1018 24008KT 9999 BKN012"
    },
    {
      "icao": "EYKA",
      "alert": "OK",
      "vis_m": 9999,
      "fzfg": false,
      "metar_trigger": false,
      "taf_trigger": false,
      "metar": "METAR EYKA 091820Z 15004KT 9999 SCT002 M15/M17 Q1018",
      "taf": "TAF EYKA 091700Z 0918/1018 VRB04KT 5000 BR NSC"
    },
    {
      "icao": "EYPA",
      "alert": "OK",
      "vis_m": 9999,
      "fzfg": false,
      "metar_trigger": false,
      "taf_trigger": false,
      "metar": "METAR EYPA 091820Z 18010KT CAVOK M11/M15 Q1016",
      "taf": "TAF EYPA 091700Z 0918/1018 16008KT 5000 BR SCT005"
    },
    {
      "icao": "EYVI",
      "alert": "OK",
      "vis_m": 8000,
      "fzfg": false,
      "metar_trigger": false,
      "taf_trigger": false,
      "metar": "METAR EYVI 091820Z 17008KT 8000 NSC M17/M18 Q1017 NOSIG",
      "taf": ""
    },
    {
      "icao": "GCFV",
      "alert": "OK",
      "vis_m": 9999,
      "fzfg": false,
      "metar_trigger": false,
      "taf_trigger": false,
      "metar": "METAR GCFV 091800Z 35011KT 9999 FEW025 21/13 Q1022",
      "taf": ""
    },
    {
      "icao": "GCLP",
      "alert": "OK",
      "vis_m": 9999,
      "fzfg": false,
      "metar_trigger": false,
      "taf_trigger": false,
      "metar": "METAR GCLP 091800Z 01017KT 9999 FEW025 20/13 Q1022 NOSIG",
      "taf": "TAF GCLP 091400Z 0915/1015 02018KT 9999 FEW025 TX22/1014Z TN17/1006Z"
    },
    {
      "icao": "GCTS",
      "alert": "OK",
      "vis_m": 9999,
      "fzfg": false,
      "metar_trigger": false,
      "taf_trigger": false,
      "metar": "METAR GCTS 091800Z 19004KT 140V240 9999 FEW035 20/13 Q1023 NOSIG",
      "taf": ""
    },
    {
      "icao": "GMAD",
      "alert": "OK",
      "vis_m": 9999,
      "fzfg": false,
      "metar_trigger": false,
      "taf_trigger": false,
      "metar": "METAR GMAD 091830Z 19008KT 9999 FEW026 18/16 Q1020 NOSIG",
      "taf": "TAF GMAD 091700Z 0918/1024 22005KT 8000 SCT020"
    },
    {
      "icao": "GMMN",
      "alert": "OK",
      "vis_m": 9999,
      "fzfg": false,
      "metar_trigger": false,
      "taf_trigger": false,
      "metar": "METAR GMMN 091830Z 23008KT 210V270 9999 BKN016 17/15 Q1022 NOSIG",
      "taf": "TAF GMMN 091700Z 0918/1024 24010KT 8000 BKN013"
    },
    {
      "icao": "GMMX",
      "alert": "OK",
      "vis_m": 9999,
      "fzfg": false,
      "metar_trigger": false,
      "taf_trigger": false,
      "metar": "METAR GMMX 091830Z 35006KT 9999 SCT030 20/14 Q1022 NOSIG",
      "taf": "TAF GMMX 091700Z 0918/1024 24008KT 8000 SCT023"
    },
    {
      "icao": "HEGN",
      "alert": "OK",
      "vis_m": 9999,
      "fzfg": false,
      "metar_trigger": false,
      "taf_trigger": false,
      "metar": "METAR HEGN 091800Z 15005KT CAVOK 23/20 Q1013 NOSIG",
      "taf": "TAF HEGN 091700Z 0918/1024 14012KT CAVOK"
    },
    {
      "icao": "HEMA",
      "alert": "OK",
      "vis_m": 9999,
      "fzfg": false,
      "metar_trigger": false,
      "taf_trigger": false,
      "metar": "METAR HEMA 091800Z 16006KT CAVOK 22/19 Q1013 NOSIG",
      "taf": "TAF HEMA 091700Z 0918/1024 16015KT 6000 NSC"
    },
    {
      "icao": "HESH",
      "alert": "OK",
      "vis_m": 9999,
      "fzfg": false,
      "metar_trigger": false,
      "taf_trigger": false,
      "metar": "METAR HESH 091800Z 00000KT CAVOK 22/15 Q1013 NOSIG",
      "taf": "TAF HESH 091700Z 0918/1024 26012KT CAVOK"
    },
    {
      "icao": "HESX",
      "alert": "OK",
      "vis_m": 9999,
      "fzfg": false,
      "metar_trigger": false,
      "taf_trigger": false,
      "metar": "METAR HESX 091800Z 01006KT CAVOK 18/12 Q1011 NOSIG",
      "taf": "TAF HESX 091700Z 0918/1024 27008KT CAVOK"
    },
    {
      "icao": "LATI",
      "alert": "OK",
      "vis_m": 9999,
      "fzfg": false,
      "metar_trigger": false,
      "taf_trigger": false,
      "metar": "METAR LATI 091820Z VRB01KT 9999 SCT057 BKN090 11/08 Q1005 NOSIG",
      "taf": "TAF LATI 091700Z 0918/1018 VRB05KT 9999 SCT030 BKN070 TX13/1012Z TN06/1005Z"
    },
    {
      "icao": "LBPD",
      "alert": "OK",
      "vis_m": 5000,
      "fzfg": false,
      "metar_trigger": false,
      "taf_trigger": false,
      "metar": "METAR LBPD 091830Z AUTO 09006KT 5000 -SN FEW004/// OVC022/// 00/00 Q1015 TEMPO 3000 SN SCT006",
      "taf": "TAF LBPD 091700Z 0918/1018 11010KT 8000 RA BKN010 BKN020"
    },
    {
      "icao": "LBSF",
      "alert": "OK",
      "vis_m": 9999,
      "fzfg": false,
      "metar_trigger": false,
      "taf_trigger": false,
      "metar": "METAR LBSF 091830Z AUTO 10017KT 9999 BKN033/// OVC053/// 02/M01 Q1012 NOSIG",
      "taf": "TAF LBSF 091700Z 0918/1018 11012KT 9999 SCT015 BKN020"
    },
    {
      "icao": "LBWN",
      "alert": "OK",
      "vis_m": 8000,
      "fzfg": false,
      "metar_trigger": false,
      "taf_trigger": false,
      "metar": "METAR LBWN 091830Z AUTO 09007KT 020V130 8000 -SHSN FEW014/// OVC036/// M01/M02 Q1018 NOSIG",
      "taf": "TAF LBWN 091700Z 0918/1018 06012KT 9999 SCT015 OVC030"
    },
    {
      "icao": "LCLK",
      "alert": "OK",
      "vis_m": 9999,
      "fzfg": false,
      "metar_trigger": false,
      "taf_trigger": false,
      "metar": "METAR LCLK 091830Z 23006KT 9999 FEW040 15/14 Q1009 NOSIG",
      "taf": "TAF LCLK 091730Z 0918/1018 32006KT 9999 FEW025"
    },
    {
      "icao": "LCPH",
      "alert": "OK",
      "vis_m": 9999,
      "fzfg": false,
      "metar_trigger": false,
      "taf_trigger": false,
      "metar": "METAR LCPH 091830Z 01005KT 9999 SCT025 13/11 Q1010 NOSIG",
      "taf": "TAF LCPH 091730Z 0918/1018 04007KT 9999 SCT013"
    },
    {
      "icao": "LEAL",
      "alert": "OK",
      "vis_m": 9999,
      "fzfg": false,
      "metar_trigger": false,
      "taf_trigger": false,
      "metar": "METAR LEAL 091800Z 26008KT 9999 FEW060 20/10 Q1009 NOSIG",
      "taf": "TAF LEAL 091700Z 0918/1018 27008KT 9999 FEW040 TX23/1012Z TN13/1006Z"
    },
    {
      "icao": "LEBB",
      "alert": "OK",
      "vis_m": 9999,
      "fzfg": false,
      "metar_trigger": false,
      "taf_trigger": false,
      "metar": "METAR LEBB 091800Z 11008KT 9999 -RA FEW015 BKN058 12/11 Q1002 RERA NOSIG",
      "taf": "TAF LEBB 091700Z 0918/1018 20009KT 9999 SCT030 TX19/1014Z TN11/1006Z"
    },
    {
      "icao": "LEBL",
      "alert": "OK",
      "vis_m": 9999,
      "fzfg": false,
      "metar_trigger": false,
      "taf_trigger": false,
      "metar": "METAR LEBL 091800Z 26009KT 240V300 9999 FEW060 13/10 Q1007 NOSIG",
      "taf": "TAF LEBL 091700Z 0918/1018 28007KT 9999 FEW030 TX18/1014Z TN12/1005Z"
    },
    {
      "icao": "LECH",
      "alert": "OK",
      "vis_m": 9000,
      "fzfg": false,
      "metar_trigger": false,
      "taf_trigger": false,
      "metar": "METAR LECH 091800Z AUTO 13003KT 110V170 9000 NSC 11/07 Q1008",
      "taf": ""
    },
    {
      "icao": "LEMD",
      "alert": "OK",
      "vis_m": 9999,
      "fzfg": false,
      "metar_trigger": false,
      "taf_trigger": false,
      "metar": "METAR LEMD 091800Z 21008KT 170V240 9999 FEW010 BKN047 12/12 Q1009 NOSIG",
      "taf": ""
    },
    {
      "icao": "LEMG",
      "alert": "OK",
      "vis_m": 9999,
      "fzfg": false,
      "metar_trigger": false,
      "taf_trigger": false,
      "metar": "METAR LEMG 091800Z 18001KT 9999 SCT055 17/14 Q1014 NOSIG",
      "taf": "TAF LEMG 091700Z 0918/1018 VRB03KT 9999 SCT020 TX22/1014Z TN15/1007Z"
    },
    {
      "icao": "LEVC",
      "alert": "OK",
      "vis_m": 9999,
      "fzfg": false,
      "metar_trigger": false,
      "taf_trigger": false,
      "metar": "METAR LEVC 091800Z 26006KT 9999 FEW040 BKN048 16/08 Q1009 NOSIG",
      "taf": ""
    },
    {
      "icao": "LEXJ",
      "alert": "OK",
      "vis_m": 2900,
      "fzfg": false,
      "metar_trigger": false,
      "taf_trigger": false,
      "metar": "SPECI LEXJ 091822Z 30006KT 260V330 2900 +RA OVC038 12/11 Q1002",
      "taf": "TAF LEXJ 091400Z 0915/1015 21009KT 9999 SCT060 TX19/1013Z TN13/1007Z"
    },
    {
      "icao": "LEZG",
      "alert": "OK",
      "vis_m": 9999,
      "fzfg": false,
      "metar_trigger": false,
      "taf_trigger": false,
      "metar": "METAR LEZG 091800Z 08005KT 9999 -RA BKN040 BKN050 11/11 Q1007 NOSIG",
      "taf": "TAF LEZG 091700Z 0918/1018 25010KT 9999 SCT040 TX21/1012Z TN12/1006Z"
    },
    {
      "icao": "LEZL",
      "alert": "OK",
      "vis_m": 9999,
      "fzfg": false,
      "metar_trigger": false,
      "taf_trigger": false,
      "metar": "METAR LEZL 091800Z 22010KT 9999 BKN010 OVC020 17/16 Q1015 NOSIG",
      "taf": "TAF LEZL 091400Z 0915/1015 24010KT 9999 BKN020 TX20/0915Z TN15/1007Z"
    },
    {
      "icao": "LFBD",
      "alert": "OK",
      "vis_m": 6000,
      "fzfg": false,
      "metar_trigger": false,
      "taf_trigger": false,
      "metar": "METAR LFBD 091830Z AUTO 22012KT 6000 RA FEW020/// SCT031/// BKN052/// ///CB 11/10 Q1002 TEMPO 20015G25KT 2000 SHRA BKN005 BKN010TCU",
      "taf": ""
    },
    {
      "icao": "LFLL",
      "alert": "OK",
      "vis_m": 9999,
      "fzfg": false,
      "metar_trigger": false,
      "taf_trigger": false,
      "metar": "METAR LFLL 091800Z 18015KT CAVOK 11/03 Q1003 BECMG 18015G25KT",
      "taf": "TAF LFLL 091700Z 0918/1024 18015G25KT CAVOK"
    },
    {
      "icao": "LFLS",
      "alert": "OK",
      "vis_m": 9999,
      "fzfg": false,
      "metar_trigger": false,
      "taf_trigger": false,
      "metar": "METAR LFLS 091830Z AUTO 18009KT 150V210 CAVOK 09/02 Q1004 NOSIG",
      "taf": "TAF LFLS 091400Z 0915/1015 08007KT CAVOK"
    },
    {
      "icao": "LFMN",
      "alert": "OK",
      "vis_m": 9999,
      "fzfg": false,
      "metar_trigger": false,
      "taf_trigger": false,
      "metar": "METAR LFMN 091830Z 31003KT 280V360 9999 -RA SCT046TCU BKN060 11/08 Q1007 NOSIG",
      "taf": "TAF LFMN 091400Z 0915/1021 20010KT 9999 SCT020 FEW040TCU"
    },
    {
      "icao": "LFOB",
      "alert": "OK",
      "vis_m": 9999,
      "fzfg": false,
      "metar_trigger": false,
      "taf_trigger": false,
      "metar": "METAR LFOB 091830Z AUTO 12009KT CAVOK 08/06 Q0998 BECMG BKN012 OVC020",
      "taf": "TAF LFOB 091700Z 0918/1018 13010KT 9999 BKN018"
    },
    {
      "icao": "LFPO",
      "alert": "OK",
      "vis_m": 9999,
      "fzfg": false,
      "metar_trigger": false,
      "taf_trigger": false,
      "metar": "METAR LFPO 091830Z 15010KT CAVOK 10/05 Q0998 NOSIG",
      "taf": "TAF LFPO 091700Z 0918/1024 16010KT 9999 SCT025"
    },
    {
      "icao": "LFSB",
      "alert": "OK",
      "vis_m": 9999,
      "fzfg": false,
      "metar_trigger": false,
      "taf_trigger": false,
      "metar": "METAR LFSB 091830Z AUTO 12008KT CAVOK 05/02 Q1004 NOSIG",
      "taf": "TAF LFSB 091700Z 0918/1018 18007KT CAVOK"
    },
    {
      "icao": "LGAV",
      "alert": "OK",
      "vis_m": 9999,
      "fzfg": false,
      "metar_trigger": false,
      "taf_trigger": false,
      "metar": "METAR LGAV 091820Z VRB03KT 9999 FEW020TCU SCT035 BKN070 13/09 Q1006 NOSIG",
      "taf": "TAF LGAV 091700Z 0918/1018 VRB05KT 9999 SCT025 SCT070"
    },
    {
      "icao": "LGTS",
      "alert": "OK",
      "vis_m": 9999,
      "fzfg": false,
      "metar_trigger": false,
      "taf_trigger": false,
      "metar": "METAR LGTS 091820Z VRB03KT 9999 FEW010 SCT025 10/10 Q1008 NOSIG",
      "taf": "TAF LGTS 091700Z 0918/1018 VRB03KT 9999 FEW010 BKN025"
    },
    {
      "icao": "LHBP",
      "alert": "OK",
      "vis_m": 9999,
      "fzfg": false,
      "metar_trigger": false,
      "taf_trigger": false,
      "metar": "METAR LHBP 091830Z 10007KT 9999 OVC010 04/02 Q1011 BECMG OVC008",
      "taf": "TAF LHBP 091715Z 0918/1018 07005KT 9999 OVC015"
    },
    {
      "icao": "LHDC",
      "alert": "OK",
      "vis_m": 9999,
      "fzfg": false,
      "metar_trigger": false,
      "taf_trigger": false,
      "metar": "METAR LHDC 091815Z AUTO 07008KT CAVOK 05/03 Q1011 NOSIG",
      "taf": "TAF LHDC 091715Z 0918/1003 05007KT CAVOK"
    },
    {
      "icao": "LIBD",
      "alert": "OK",
      "vis_m": 9999,
      "fzfg": false,
      "metar_trigger": false,
      "taf_trigger": false,
      "metar": "METAR LIBD 091820Z 26007KT 9999 FEW015 SCT040 09/07 Q1005",
      "taf": "TAF LIBD 091700Z 0918/1018 26007KT 9999 SCT040"
    },
    {
      "icao": "LIBG",
      "alert": "OK",
      "vis_m": 9999,
      "fzfg": false,
      "metar_trigger": false,
      "taf_trigger": false,
      "metar": "METAR LIBG 091750Z 36002KT 9999 FEW010 SCT040 11/09 Q1005",
      "taf": "TAF LIBG 091700Z 0918/1003 32010KT 9999 SCT015 SCT040"
    },
    {
      "icao": "LIBP",
      "alert": "OK",
      "vis_m": 9999,
      "fzfg": false,
      "metar_trigger": false,
      "taf_trigger": false,
      "metar": "METAR LIBP 091820Z AUTO VRB01KT 9999 NCD 10/09 Q1007",
      "taf": "TAF LIBP 091700Z 0918/1018 26006KT 7000 BKN020"
    },
    {
      "icao": "LIBR",
      "alert": "OK",
      "vis_m": 9999,
      "fzfg": false,
      "metar_trigger": false,
      "taf_trigger": false,
      "metar": "METAR LIBR 091820Z VRB01KT 9999 -RA BKN015 12/09 Q1005",
      "taf": "TAF LIBR 091700Z 0918/1018 VRB05KT 9999 SCT020"
    },
    {
      "icao": "LICA",
      "alert": "OK",
      "vis_m": 9999,
      "fzfg": false,
      "metar_trigger": false,
      "taf_trigger": false,
      "metar": "METAR LICA 091820Z AUTO 09003KT 050V130 9999 FEW022/// 09/08 Q1006",
      "taf": "TAF LICA 091700Z 0918/1018 VRB05KT 9999 BKN040"
    },
    {
      "icao": "LICC",
      "alert": "OK",
      "vis_m": 9999,
      "fzfg": false,
      "metar_trigger": false,
      "taf_trigger": false,
      "metar": "METAR LICC 091820Z 27007KT 9999 BKN050 13/09 Q1006",
      "taf": "TAF LICC 091700Z 0918/1018 26005KT 9999 SCT030"
    },
    {
      "icao": "LICJ",
      "alert": "OK",
      "vis_m": 9999,
      "fzfg": false,
      "metar_trigger": false,
      "taf_trigger": false,
      "metar": "METAR LICJ 091820Z AUTO 27017KT 9999 FEW022/// SCT039/// BKN056/// 14/10 Q1007",
      "taf": "TAF LICJ 091700Z 0918/1018 26015KT 9999 FEW020 SCT040"
    },
    {
      "icao": "LIMC",
      "alert": "OK",
      "vis_m": 9999,
      "fzfg": false,
      "metar_trigger": false,
      "taf_trigger": false,
      "metar": "METAR LIMC 091820Z 05005KT 9999 SCT060 08/06 Q1007 NOSIG",
      "taf": "TAF LIMC 091700Z 0918/1024 VRB04KT 9999 SCT030"
    },
    {
      "icao": "LIME",
      "alert": "OK",
      "vis_m": 5000,
      "fzfg": false,
      "metar_trigger": false,
      "taf_trigger": false,
      "metar": "METAR LIME 091820Z 14006KT 5000 RA SCT020 BKN030 09/07 Q1007 NOSIG",
      "taf": "TAF LIME 091700Z 0918/1018 VRB04KT 9999 SCT030"
    },
    {
      "icao": "LIMF",
      "alert": "OK",
      "vis_m": 9999,
      "fzfg": false,
      "metar_trigger": false,
      "taf_trigger": false,
      "metar": "METAR LIMF 091820Z 31003KT 290V020 9999 -RA BKN040 10/06 Q1007",
      "taf": "TAF LIMF 091700Z 0918/1018 VRB04KT 9999 BKN030"
    },
    {
      "icao": "LIMJ",
      "alert": "OK",
      "vis_m": 9999,
      "fzfg": false,
      "metar_trigger": false,
      "taf_trigger": false,
      "metar": "METAR LIMJ 091820Z 04010KT 9999 FEW050 11/05 Q1006",
      "taf": "TAF LIMJ 091700Z 0918/1018 05007KT 9999 FEW020"
    },
    {
      "icao": "LIPE",
      "alert": "OK",
      "vis_m": 3500,
      "fzfg": false,
      "metar_trigger": false,
      "taf_trigger": false,
      "metar": "METAR LIPE 091820Z VRB02KT 3500 BR BKN015 09/08 Q1007",
      "taf": "TAF LIPE 091700Z 0918/1018 VRB05KT 3000 BR SCT020"
    },
    {
      "icao": "LIPH",
      "alert": "OK",
      "vis_m": 9999,
      "fzfg": false,
      "metar_trigger": false,
      "taf_trigger": false,
      "metar": "METAR LIPH 091820Z 00000KT CAVOK 08/06 Q1007",
      "taf": "TAF LIPH 091700Z 0918/1018 VRB05KT 7000 SCT060"
    },
    {
      "icao": "LIPQ",
      "alert": "OK",
      "vis_m": 9999,
      "fzfg": false,
      "metar_trigger": false,
      "taf_trigger": false,
      "metar": "METAR LIPQ 091820Z AUTO VRB01KT 9999 OVC085/// 08/05 Q1007",
      "taf": "TAF LIPQ 091700Z 0918/1018 VRB05KT 9999 BKN050"
    },
    {
      "icao": "LIPR",
      "alert": "OK",
      "vis_m": 9999,
      "fzfg": false,
      "metar_trigger": false,
      "taf_trigger": false,
      "metar": "METAR LIPR 091820Z 26003KT 9999 -RA SCT010 BKN035 09/09 Q1007",
      "taf": "TAF LIPR 091700Z 0918/1018 VRB05KT 6000 SCT010 BKN020"
    },
    {
      "icao": "LIPX",
      "alert": "OK",
      "vis_m": 9999,
      "fzfg": false,
      "metar_trigger": false,
      "taf_trigger": false,
      "metar": "METAR LIPX 091820Z 21001KT 9999 SCT070 07/06 Q1007",
      "taf": "TAF LIPX 091700Z 0918/1018 VRB04KT 9999 SCT050"
    },
    {
      "icao": "LIPY",
      "alert": "OK",
      "vis_m": 9999,
      "fzfg": false,
      "metar_trigger": false,
      "taf_trigger": false,
      "metar": "METAR LIPY 091820Z AUTO VRB02KT 9999 BKN019/// BKN100/// 10/09 Q1007",
      "taf": "TAF LIPY 091700Z 0918/1018 31007KT 7000 BKN020"
    },
    {
      "icao": "LIPZ",
      "alert": "OK",
      "vis_m": 9999,
      "fzfg": false,
      "metar_trigger": false,
      "taf_trigger": false,
      "metar": "METAR LIPZ 091820Z 30003KT 290V360 CAVOK 08/06 Q1007 NOSIG",
      "taf": "TAF LIPZ 091700Z 0918/1024 05006KT 9999 SCT060"
    },
    {
      "icao": "LIRF",
      "alert": "OK",
      "vis_m": 9999,
      "fzfg": false,
      "metar_trigger": false,
      "taf_trigger": false,
      "metar": "METAR LIRF 091820Z 30002KT CAVOK 12/09 Q1005 NOSIG",
      "taf": "TAF LIRF 091700Z 0918/1024 08005KT 9999 FEW050"
    },
    {
      "icao": "LIRN",
      "alert": "OK",
      "vis_m": 9999,
      "fzfg": false,
      "metar_trigger": false,
      "taf_trigger": false,
      "metar": "METAR LIRN 091820Z VRB01KT 9999 FEW060 11/08 Q1005 NOSIG",
      "taf": "TAF LIRN 091700Z 0918/1018 VRB05KT 9999 SCT040"
    },
    {
      "icao": "LIRP",
      "alert": "OK",
      "vis_m": 9999,
      "fzfg": false,
      "metar_trigger": false,
      "taf_trigger": false,
      "metar": "METAR LIRP 091815Z VRB01KT 9999 SCT040 SCT070 12/09 Q1007 NOSIG",
      "taf": "TAF LIRP 091700Z 0918/1018 VRB03KT 9999 FEW030 SCT060"
    },
    {
      "icao": "LIRZ",
      "alert": "OK",
      "vis_m": 9999,
      "fzfg": false,
      "metar_trigger": false,
      "taf_trigger": false,
      "metar": "METAR LIRZ 091820Z AUTO 35007KT 9999 FEW032/// BKN057/// BKN069/// 10/08 Q1006",
      "taf": "TAF LIRZ 091700Z 0918/1018 02008KT 9999 SCT050"
    },
    {
      "icao": "LJLJ",
      "alert": "OK",
      "vis_m": 9999,
      "fzfg": false,
      "metar_trigger": false,
      "taf_trigger": false,
      "metar": "METAR LJLJ 091800Z 24002KT 9999 -RA FEW003 SCT023 OVC040 05/05 Q1008 NOSIG",
      "taf": "TAF LJLJ 091700Z 0918/1018 VRB02KT 9999 FEW005 SCT013 OVC035"
    },
    {
      "icao": "LKMT",
      "alert": "OK",
      "vis_m": 6000,
      "fzfg": false,
      "metar_trigger": false,
      "taf_trigger": false,
      "metar": "METAR LKMT 091830Z 03004KT 6000 BKN022 OVC042 M01/M02 Q1011 NOSIG",
      "taf": "TAF LKMT 091700Z 0918/1018 02006KT 5000 BR OVC010"
    },
    {
      "icao": "LKPR",
      "alert": "OK",
      "vis_m": 8000,
      "fzfg": false,
      "metar_trigger": false,
      "taf_trigger": false,
      "metar": "METAR LKPR 091830Z 05004KT 8000 FEW010 SCT018 OVC028 01/01 Q1008 NOSIG",
      "taf": "TAF LKPR 091700Z 0918/1024 07004KT 7000 SCT008 BKN012"
    },
    {
      "icao": "LLBG",
      "alert": "OK",
      "vis_m": 9000,
      "fzfg": false,
      "metar_trigger": false,
      "taf_trigger": false,
      "metar": "METAR LLBG 091820Z VRB03KT 9000 NSC 19/15 Q1010 NOSIG",
      "taf": "TAF LLBG 091710Z 0918/1018 VRB04KT CAVOK"
    },
    {
      "icao": "LMML",
      "alert": "OK",
      "vis_m": 9999,
      "fzfg": false,
      "metar_trigger": false,
      "taf_trigger": false,
      "metar": "METAR LMML 091815Z 28017KT 9999 FEW020TCU BKN049 13/11 Q1009 NOSIG",
      "taf": "TAF LMML 091700Z 0918/1018 28017KT 9999 SCT020"
    },
    {
      "icao": "LOWW",
      "alert": "OK",
      "vis_m": 9000,
      "fzfg": false,
      "metar_trigger": false,
      "taf_trigger": false,
      "metar": "METAR LOWW 091820Z 13009KT 9000 FEW009 BKN011 06/04 Q1009 NOSIG",
      "taf": "TAF LOWW 091715Z 0918/1024 13012KT 8000 FEW007 BKN012 TX05/1013Z TN03/1006Z"
    },
    {
      "icao": "LPFR",
      "alert": "OK",
      "vis_m": 5000,
      "fzfg": false,
      "metar_trigger": false,
      "taf_trigger": false,
      "metar": "METAR LPFR 091800Z 25014KT 5000 BR OVC003 15/15 Q1016",
      "taf": "TAF LPFR 091700Z 0918/1018 25013KT 8000 SCT004 BKN008"
    },
    {
      "icao": "LPMA",
      "alert": "OK",
      "vis_m": 9999,
      "fzfg": false,
      "metar_trigger": false,
      "taf_trigger": false,
      "metar": "METAR LPMA 091800Z 02003KT 340V060 9999 BKN015 19/15 Q1023",
      "taf": "TAF LPMA 091700Z 0918/1018 VRB05KT 9999 SCT015"
    },
    {
      "icao": "LPPR",
      "alert": "OK",
      "vis_m": 600,
      "fzfg": false,
      "metar_trigger": false,
      "taf_trigger": false,
      "metar": "METAR LPPR 091800Z 23008KT 190V270 0600 R17/1700D FG VV002 14/14 Q1010",
      "taf": "TAF LPPR 091700Z 0918/1018 22010KT 6000 SCT004 BKN008"
    },
    {
      "icao": "LPPS",
      "alert": "OK",
      "vis_m": 9999,
      "fzfg": false,
      "metar_trigger": false,
      "taf_trigger": false,
      "metar": "METAR LPPS 091800Z 28011KT 9999 FEW005 18/16 Q1023",
      "taf": "TAF LPPS 091700Z 0918/1024 28010KT 9999 SCT008 SCT015"
    },
    {
      "icao": "LPPT",
      "alert": "OK",
      "vis_m": 9000,
      "fzfg": false,
      "metar_trigger": false,
      "taf_trigger": false,
      "metar": "METAR LPPT 091800Z 28010KT 230V320 9000 4000N VCSH FEW002 BKN005 15/15 Q1014",
      "taf": "TAF LPPT 091700Z 0918/1024 25010KT 6000 SCT004 BKN008"
    },
    {
      "icao": "LQBK",
      "alert": "OK",
      "vis_m": 7000,
      "fzfg": false,
      "metar_trigger": false,
      "taf_trigger": false,
      "metar": "METAR LQBK 091830Z 32004KT 7000 -DZ BKN013 OVC027 08/07 Q1008 NOSIG",
      "taf": "TAF LQBK 091700Z 0918/1018 34005KT 9999 BKN015 OVC025 TX08/1013Z TN05/1005Z"
    },
    {
      "icao": "LQSA",
      "alert": "OK",
      "vis_m": 9999,
      "fzfg": false,
      "metar_trigger": false,
      "taf_trigger": false,
      "metar": "METAR LQSA 091830Z 33003KT 300V360 9999 SCT030 BKN040 08/05 Q1006 NOSIG",
      "taf": "TAF LQSA 091700Z 0918/1018 VRB02KT 9999 SCT035 TX09/1013Z TN03/1005Z"
    },
    {
      "icao": "LQTZ",
      "alert": "OK",
      "vis_m": 9999,
      "fzfg": false,
      "metar_trigger": false,
      "taf_trigger": false,
      "metar": "METAR LQTZ 091830Z 13004KT 9999 SCT019 OVC040 08/06 Q1008",
      "taf": "TAF LQTZ 091700Z 0918/1018 09005KT 9999 SCT025 BKN045 TX11/1012Z TN03/1005Z"
    },
    {
      "icao": "LRBC",
      "alert": "OK",
      "vis_m": 9999,
      "fzfg": false,
      "metar_trigger": false,
      "taf_trigger": false,
      "metar": "METAR LRBC 091800Z 29006KT 9999 OVC020 M06/M08 Q1021",
      "taf": "TAF LRBC 091700Z 0918/1003 VRB04KT 9999 BKN020"
    },
    {
      "icao": "LRBS",
      "alert": "OK",
      "vis_m": 9999,
      "fzfg": false,
      "metar_trigger": false,
      "taf_trigger": false,
      "metar": "METAR LRBS 091800Z 07015KT 9999 FEW013 OVC040 M03/M06 Q1020 NOSIG",
      "taf": "TAF LRBS 091700Z 0918/1018 07016KT 9999 SCT015 BKN035"
    },
    {
      "icao": "LRBV",
      "alert": "OK",
      "vis_m": 9999,
      "fzfg": false,
      "metar_trigger": false,
      "taf_trigger": false,
      "metar": "METAR LRBV 091800Z 07010KT 9999 FEW015 BKN058 M03/M05 Q1014",
      "taf": "TAF LRBV 091700Z 0918/1003 10010KT 9999 BKN030"
    },
    {
      "icao": "LRCL",
      "alert": "OK",
      "vis_m": 9999,
      "fzfg": false,
      "metar_trigger": false,
      "taf_trigger": false,
      "metar": "METAR LRCL 091800Z 11007KT 9999 OVC025 02/M00 Q1013",
      "taf": "TAF LRCL 091700Z 0918/1003 10008KT 9999 SCT015 OVC025"
    },
    {
      "icao": "LRCV",
      "alert": "OK",
      "vis_m": 8000,
      "fzfg": false,
      "metar_trigger": false,
      "taf_trigger": false,
      "metar": "METAR LRCV 091800Z 09014KT 8000 -SN OVC014 M02/M04 Q1018",
      "taf": "TAF LRCV 091700Z 0918/1003 10018KT 9999 -SN BKN015 OVC035"
    },
    {
      "icao": "LRIA",
      "alert": "OK",
      "vis_m": 9999,
      "fzfg": false,
      "metar_trigger": false,
      "taf_trigger": false,
      "metar": "METAR LRIA 091800Z VRB02KT 9999 OVC015 M07/M10 Q1022",
      "taf": "TAF LRIA 091700Z 0918/1003 VRB04KT 9999 BKN015"
    },
    {
      "icao": "LROP",
      "alert": "OK",
      "vis_m": 9999,
      "fzfg": false,
      "metar_trigger": false,
      "taf_trigger": false,
      "metar": "METAR LROP 091800Z 08015KT 9999 FEW013 OVC042 M03/M06 Q1020 NOSIG",
      "taf": "TAF LROP 091700Z 0918/1018 07016KT 9999 SCT015 BKN035"
    },
    {
      "icao": "LRSB",
      "alert": "OK",
      "vis_m": 9999,
      "fzfg": false,
      "metar_trigger": false,
      "taf_trigger": false,
      "metar": "METAR LRSB 091800Z 12006KT 9999 BKN049 02/M02 Q1011",
      "taf": "TAF LRSB 091700Z 0918/1018 10012KT 9999 BKN050"
    },
    {
      "icao": "LRSM",
      "alert": "OK",
      "vis_m": 9999,
      "fzfg": false,
      "metar_trigger": false,
      "taf_trigger": false,
      "metar": "METAR LRSM 091800Z AUTO 12006KT 9999 OVC065/// 05/00 Q1013",
      "taf": "TAF LRSM 091400Z 0915/0924 13008KT 9999 BKN045"
    },
    {
      "icao": "LRSV",
      "alert": "OK",
      "vis_m": 9999,
      "fzfg": false,
      "metar_trigger": false,
      "taf_trigger": false,
      "metar": "METAR LRSV 091800Z 13009KT 9999 BKN011 M10/M11 Q1018",
      "taf": "TAF LRSV 091700Z 0918/1003 12006KT 9999 BKN010"
    },
    {
      "icao": "LRTM",
      "alert": "OK",
      "vis_m": 9999,
      "fzfg": false,
      "metar_trigger": false,
      "taf_trigger": false,
      "metar": "METAR LRTM 091800Z AUTO 09005KT 9999 -SN FEW027/// OVC033/// 02/M02 Q1014",
      "taf": "TAF LRTM 091700Z 0918/1003 10008KT 9999 BKN025"
    },
    {
      "icao": "LRTR",
      "alert": "OK",
      "vis_m": 9999,
      "fzfg": false,
      "metar_trigger": false,
      "taf_trigger": false,
      "metar": "METAR LRTR 091800Z 22005KT 9999 BKN026 BKN035 06/01 Q1012",
      "taf": "TAF LRTR 091700Z 0918/1018 VRB04KT 9999 BKN030"
    },
    {
      "icao": "LTAC",
      "alert": "OK",
      "vis_m": 9999,
      "fzfg": false,
      "metar_trigger": false,
      "taf_trigger": false,
      "metar": "METAR LTAC 091820Z 04011KT 9999 -SHRA BKN030 BKN080 05/02 Q1010 NOSIG RMK RWY21C 04011KT RWY03L 04009KT RWY21R 03009KT RWY03R 02012KT RWY21L 02011KT",
      "taf": "TAF LTAC 091640Z 0918/1018 VRB02KT 9999 SCT040 BKN100"
    },
    {
      "icao": "LTFM",
      "alert": "OK",
      "vis_m": 9999,
      "fzfg": false,
      "metar_trigger": false,
      "taf_trigger": false,
      "metar": "METAR LTFM 091820Z 07019KT 9999 -RA BKN008 BKN022 06/04 Q1014 NOSIG RMK RWY17L 07021KT RWY34L 07021KT RWY16R 07022KT RWY36 08020G30KT RWY18 08020KT",
      "taf": "TAF LTFM 091640Z 0918/1024 06020G30KT 9999 -RA BKN007 BKN022"
    },
    {
      "icao": "LUKK",
      "alert": "OK",
      "vis_m": 9999,
      "fzfg": false,
      "metar_trigger": false,
      "taf_trigger": false,
      "metar": "METAR LUKK 091830Z VRB03KT CAVOK M11/M13 Q1022 NOSIG",
      "taf": "TAF LUKK 091727Z 0918/1018 VRB05KT CAVOK"
    },
    {
      "icao": "LWOH",
      "alert": "OK",
      "vis_m": 9999,
      "fzfg": false,
      "metar_trigger": false,
      "taf_trigger": false,
      "metar": "METAR LWOH 091820Z 32009KT 9999 SCT040 BKN080 07/04 Q1006",
      "taf": "TAF LWOH 091725Z 0918/1018 VRB03KT 9999 SCT045 BKN080"
    },
    {
      "icao": "LWSK",
      "alert": "OK",
      "vis_m": 9999,
      "fzfg": false,
      "metar_trigger": false,
      "taf_trigger": false,
      "metar": "METAR LWSK 091820Z 11003KT 070V130 9999 -RA FEW030 OVC050 10/07 Q1008 NOSIG",
      "taf": ""
    },
    {
      "icao": "LYBE",
      "alert": "OK",
      "vis_m": 9999,
      "fzfg": false,
      "metar_trigger": false,
      "taf_trigger": false,
      "metar": "METAR LYBE 091830Z 11013KT CAVOK 03/M03 Q1012 NOSIG",
      "taf": "TAF LYBE 091700Z 0918/1018 11018KT 9999 SCT045 TX04/1013Z TNM01/1006Z"
    },
    {
      "icao": "LYNI",
      "alert": "OK",
      "vis_m": 9999,
      "fzfg": false,
      "metar_trigger": false,
      "taf_trigger": false,
      "metar": "METAR LYNI 091830Z 05008KT 020V110 9999 FEW020 SCT027 BKN090 03/M01 Q1011 NOSIG",
      "taf": "TAF LYNI 091700Z 0918/1018 06009KT 9999 SCT017 BKN045 OVC080 TX03/1012Z TNM01/1005Z"
    },
    {
      "icao": "LYPG",
      "alert": "OK",
      "vis_m": 8000,
      "fzfg": false,
      "metar_trigger": false,
      "taf_trigger": false,
      "metar": "METAR LYPG 091830Z 30002KT 8000 -RA FEW030 SCT050 OVC070 10/10 Q1007 TEMPO 5000 BR",
      "taf": "TAF LYPG 091700Z 0918/1018 VRB02KT 9999 FEW015 SCT040 BKN070 TX12/1012Z TN08/1005Z"
    },
    {
      "icao": "LZIB",
      "alert": "OK",
      "vis_m": 9999,
      "fzfg": false,
      "metar_trigger": false,
      "taf_trigger": false,
      "metar": "METAR LZIB 091830Z 09006KT 9999 FEW010 BKN026 BKN046 05/04 Q1010 NOSIG",
      "taf": "TAF LZIB 091715Z 0918/1018 12008KT 7000 FEW010 BKN025"
    },
    {
      "icao": "LZKZ",
      "alert": "OK",
      "vis_m": 9999,
      "fzfg": false,
      "metar_trigger": false,
      "taf_trigger": false,
      "metar": "METAR LZKZ 091830Z 02005KT 9999 BKN019 03/M02 Q1012 NOSIG",
      "taf": "TAF LZKZ 091715Z 0918/1018 01016KT 9999 BKN035"
    },
    {
      "icao": "LZTT",
      "alert": "OK",
      "vis_m": 5000,
      "fzfg": false,
      "metar_trigger": false,
      "taf_trigger": false,
      "metar": "METAR LZTT 091830Z 00000KT 5000 BR OVC004 M01/M02 Q1010",
      "taf": "TAF LZTT 091715Z 0918/1018 14005KT 9999 SCT002 OVC011"
    },
    {
      "icao": "OEJN",
      "alert": "OK",
      "vis_m": 9999,
      "fzfg": false,
      "metar_trigger": false,
      "taf_trigger": false,
      "metar": "METAR OEJN 091800Z 32005KT CAVOK 27/13 Q1013 NOSIG",
      "taf": "TAF OEJN 091700Z 0918/1024 VRB03KT CAVOK"
    },
    {
      "icao": "OEMA",
      "alert": "OK",
      "vis_m": 9999,
      "fzfg": false,
      "metar_trigger": false,
      "taf_trigger": false,
      "metar": "METAR OEMA 091800Z 09003KT CAVOK 26/M04 Q1016 NOSIG",
      "taf": "TAF OEMA 091700Z 0918/1024 VRB03KT CAVOK"
    },
    {
      "icao": "OJAI",
      "alert": "OK",
      "vis_m": 3000,
      "fzfg": false,
      "metar_trigger": false,
      "taf_trigger": false,
      "metar": "METAR OJAI 091800Z 00000KT 3000 DU NSC 14/05 Q1013 NOSIG",
      "taf": "TAF OJAI 091700Z 0918/1024 25012KT 3000 DU NSC"
    },
    {
      "icao": "OMAA",
      "alert": "OK",
      "vis_m": 9999,
      "fzfg": false,
      "metar_trigger": false,
      "taf_trigger": false,
      "metar": "METAR OMAA 091830Z 32003KT CAVOK 22/14 Q1015 NOSIG",
      "taf": "TAF OMAA 091700Z 0918/1100 VRB02KT 8000 NSC"
    },
    {
      "icao": "OMDB",
      "alert": "OK",
      "vis_m": 9999,
      "fzfg": false,
      "metar_trigger": false,
      "taf_trigger": false,
      "metar": "METAR OMDB 091830Z 26005KT CAVOK 23/19 Q1015 NOSIG",
      "taf": "TAF OMDB 091700Z 0918/1100 22005KT 8000 NSC"
    },
    {
      "icao": "UAAA",
      "alert": "OK",
      "vis_m": 2800,
      "fzfg": false,
      "metar_trigger": false,
      "taf_trigger": false,
      "metar": "METAR UAAA 091800Z 26002MPS 210V290 2800 BR FU SCT100 BKN200 M00/M02 Q1004 NOSIG",
      "taf": "TAF UAAA 091711Z 0918/1018 21003MPS 3100 BR FU SCT050CB BKN100 TX07/1009Z TNM03/1002Z"
    },
    {
      "icao": "UBBB",
      "alert": "OK",
      "vis_m": 9999,
      "fzfg": false,
      "metar_trigger": false,
      "taf_trigger": false,
      "metar": "METAR UBBB 091830Z 14004KT CAVOK 06/04 Q1008 NOSIG",
      "taf": "TAF UBBB 091705Z 0918/1018 VRB04KT 6000 BKN012 BKN020 TX04/1006Z TN02/1002Z"
    },
    {
      "icao": "UDSG",
      "alert": "OK",
      "vis_m": 9000,
      "fzfg": false,
      "metar_trigger": false,
      "taf_trigger": false,
      "metar": "METAR UDSG 091800Z 14001KT 9000 SCT016 OVC033 M00/M00 Q1009 NOSIG",
      "taf": "TAF UDSG 091700Z 0918/1018 VRB04KT 1500 BR OVC008"
    },
    {
      "icao": "UDYZ",
      "alert": "OK",
      "vis_m": 2600,
      "fzfg": false,
      "metar_trigger": false,
      "taf_trigger": false,
      "metar": "METAR UDYZ 091800Z 34003KT 2600 BR FEW046 02/02 Q1009 NOSIG",
      "taf": "TAF UDYZ 091700Z 0918/1018 VRB06KT 2000 BR SCT040"
    },
    {
      "icao": "UGKO",
      "alert": "OK",
      "vis_m": 4500,
      "fzfg": false,
      "metar_trigger": false,
      "taf_trigger": false,
      "metar": "METAR UGKO 091800Z 27012KT 4500 SHRA SCT006 BKN013CB OVC026 07/07 Q1010 NOSIG",
      "taf": ""
    }
  ]
}