{
  "ts_utc": "2026-05-18T23:45:00Z",
  "threshold_m": 150,
  "source": "stations_override.txt (ICAO list) + aviationweather.gov (METAR/TAF raw)",
  "station_count": 159,
  "stations": [
    {
      "icao": "BIKF",
      "alert": "OK",
      "vis_m": 9999,
      "fzfg": false,
      "metar_trigger": false,
      "taf_trigger": false,
      "metar": "METAR BIKF 182330Z 01009KT 9999 FEW025 07/04 Q1008",
      "taf": "TAF BIKF 182251Z 1900/2000 02008KT 9999 FEW015 BKN030 TX10/1915Z TN03/1904Z"
    },
    {
      "icao": "BKPR",
      "alert": "OK",
      "vis_m": 9999,
      "fzfg": false,
      "metar_trigger": false,
      "taf_trigger": false,
      "metar": "METAR BKPR 182330Z 32003KT CAVOK 10/06 Q1017 NOSIG",
      "taf": "TAF BKPR 182330Z 1900/1924 35008KT 9999 SCT050"
    },
    {
      "icao": "EBCI",
      "alert": "OK",
      "vis_m": 9999,
      "fzfg": false,
      "metar_trigger": false,
      "taf_trigger": false,
      "metar": "METAR EBCI 182320Z 18005KT CAVOK 10/07 Q1016 NOSIG",
      "taf": "TAF EBCI 182301Z 1900/2006 18005KT CAVOK"
    },
    {
      "icao": "EDDB",
      "alert": "OK",
      "vis_m": 9999,
      "fzfg": false,
      "metar_trigger": false,
      "taf_trigger": false,
      "metar": "METAR EDDB 182320Z AUTO 09004KT CAVOK 09/06 Q1015 NOSIG",
      "taf": "TAF EDDB 182300Z 1900/1924 07004KT CAVOK"
    },
    {
      "icao": "EDDH",
      "alert": "OK",
      "vis_m": 8000,
      "fzfg": false,
      "metar_trigger": false,
      "taf_trigger": false,
      "metar": "METAR EDDH 182320Z AUTO 14004KT 8000 2100 BR BKN018 12/11 Q1015 TEMPO 3000 BR",
      "taf": "TAF EDDH 182300Z 1900/2006 VRB03KT CAVOK"
    },
    {
      "icao": "EDDK",
      "alert": "OK",
      "vis_m": 9999,
      "fzfg": false,
      "metar_trigger": false,
      "taf_trigger": false,
      "metar": "METAR EDDK 182320Z AUTO VRB02KT CAVOK 08/08 Q1017 NOSIG",
      "taf": "TAF EDDK 182300Z 1900/2006 VRB03KT CAVOK"
    },
    {
      "icao": "EDDN",
      "alert": "OK",
      "vis_m": 9999,
      "fzfg": false,
      "metar_trigger": false,
      "taf_trigger": false,
      "metar": "METAR EDDN 182320Z AUTO 25002KT 9999 FEW036 10/07 Q1017 NOSIG",
      "taf": "TAF EDDN 182300Z 1900/1924 VRB02KT CAVOK"
    },
    {
      "icao": "EDDS",
      "alert": "OK",
      "vis_m": 9999,
      "fzfg": false,
      "metar_trigger": false,
      "taf_trigger": false,
      "metar": "METAR EDDS 182320Z AUTO VRB02KT CAVOK 08/07 Q1018",
      "taf": "TAF EDDS 182300Z 1900/1924 VRB03KT CAVOK"
    },
    {
      "icao": "EDFH",
      "alert": "OK",
      "vis_m": 9999,
      "fzfg": false,
      "metar_trigger": false,
      "taf_trigger": false,
      "metar": "METAR EDFH 182320Z 23005KT CAVOK 07/04 Q1017",
      "taf": "TAF EDFH 182300Z 1900/1924 20007KT 9999 FEW030"
    },
    {
      "icao": "EDJA",
      "alert": "OK",
      "vis_m": 9999,
      "fzfg": false,
      "metar_trigger": false,
      "taf_trigger": false,
      "metar": "METAR EDJA 182320Z AUTO 20003KT 170V240 9999 // SCT150/// 05/04 Q1018",
      "taf": "TAF EDJA 181700Z 1818/1903 22008KT 9999 SCT030"
    },
    {
      "icao": "EDLW",
      "alert": "OK",
      "vis_m": 9999,
      "fzfg": false,
      "metar_trigger": false,
      "taf_trigger": false,
      "metar": "METAR EDLW 182320Z AUTO 12003KT 090V160 9999 // OVC078/// 10/08 Q1016",
      "taf": "TAF EDLW 181700Z 1818/1918 23005KT 9999 SCT030"
    },
    {
      "icao": "EDNY",
      "alert": "OK",
      "vis_m": 9999,
      "fzfg": false,
      "metar_trigger": false,
      "taf_trigger": false,
      "metar": "METAR EDNY 182320Z AUTO 00000KT 9999 // NCD 06/06 Q1019",
      "taf": "TAF EDNY 181700Z 1818/1903 20004KT 9999 BKN035"
    },
    {
      "icao": "EDSB",
      "alert": "OK",
      "vis_m": 9999,
      "fzfg": false,
      "metar_trigger": false,
      "taf_trigger": false,
      "metar": "METAR EDSB 182320Z AUTO 19003KT 9999 2700 BKN065/// 11/09 Q1018",
      "taf": "TAF EDSB 182300Z 1900/1924 19004KT CAVOK"
    },
    {
      "icao": "EETN",
      "alert": "OK",
      "vis_m": 9999,
      "fzfg": false,
      "metar_trigger": false,
      "taf_trigger": false,
      "metar": "METAR EETN 182320Z 05010KT 020V080 CAVOK 13/07 Q1015",
      "taf": "TAF EETN 182330Z 1900/1924 04012KT 9999 SCT015 SCT030CB"
    },
    {
      "icao": "EFTU",
      "alert": "OK",
      "vis_m": 9999,
      "fzfg": false,
      "metar_trigger": false,
      "taf_trigger": false,
      "metar": "METAR EFTU 182320Z AUTO 06003KT 020V080 9999 -RA NSC 11/09 Q1019",
      "taf": "TAF EFTU 182330Z 1900/1924 06003KT 9999 -RA NSC"
    },
    {
      "icao": "EGBB",
      "alert": "OK",
      "vis_m": 9999,
      "fzfg": false,
      "metar_trigger": false,
      "taf_trigger": false,
      "metar": "METAR EGBB 182320Z 16010KT 9999 -RA BKN018 BKN045 10/08 Q1009",
      "taf": "TAF EGBB 182259Z 1900/1924 16010KT 9999 BKN012"
    },
    {
      "icao": "EGGP",
      "alert": "OK",
      "vis_m": 9999,
      "fzfg": false,
      "metar_trigger": false,
      "taf_trigger": false,
      "metar": "METAR EGGP 182320Z 15013G24KT 9999 -RA SCT035 BKN042 10/09 Q1005",
      "taf": "TAF EGGP 182304Z 1900/1924 16012KT 9999 SCT035"
    },
    {
      "icao": "EGGW",
      "alert": "OK",
      "vis_m": 9999,
      "fzfg": false,
      "metar_trigger": false,
      "taf_trigger": false,
      "metar": "METAR EGGW 182320Z AUTO 16007KT 140V200 9999 FEW018 SCT040 10/07 Q1011",
      "taf": "TAF EGGW 182259Z 1900/1924 16011KT 9999 SCT020"
    },
    {
      "icao": "EGKK",
      "alert": "OK",
      "vis_m": 9999,
      "fzfg": false,
      "metar_trigger": false,
      "taf_trigger": false,
      "metar": "METAR EGKK 182320Z 14005KT 120V180 9999 -RA FEW024 BKN035 11/09 Q1012",
      "taf": "TAF EGKK 182258Z 1900/2006 17005KT 9999 FEW035"
    },
    {
      "icao": "EGNM",
      "alert": "OK",
      "vis_m": 9999,
      "fzfg": false,
      "metar_trigger": false,
      "taf_trigger": false,
      "metar": "METAR EGNM 182320Z 14007KT 9999 -RA FEW020 BKN030 09/08 Q1007",
      "taf": "TAF EGNM 182304Z 1900/1924 15010KT 9999 FEW015 SCT030"
    },
    {
      "icao": "EGPD",
      "alert": "OK",
      "vis_m": 9999,
      "fzfg": false,
      "metar_trigger": false,
      "taf_trigger": false,
      "metar": "METAR EGPD 182320Z COR AUTO 14012KT 9999 OVC006 09/08 Q1007 NOSIG",
      "taf": "TAF EGPD 182253Z 1900/1924 14012KT 9999 BKN010"
    },
    {
      "icao": "EGPF",
      "alert": "OK",
      "vis_m": 9999,
      "fzfg": false,
      "metar_trigger": false,
      "taf_trigger": false,
      "metar": "METAR EGPF 182320Z AUTO 10007KT 9999 -RA BKN028 BKN039 10/04 Q1004",
      "taf": "TAF EGPF 182257Z 1900/1924 10010KT 9999 BKN030"
    },
    {
      "icao": "EHBK",
      "alert": "OK",
      "vis_m": 9999,
      "fzfg": false,
      "metar_trigger": false,
      "taf_trigger": false,
      "metar": "METAR EHBK 182325Z AUTO 19006KT 9999 NCD 07/06 Q1016",
      "taf": "TAF EHBK 182305Z 1900/2006 16004KT CAVOK"
    },
    {
      "icao": "EHEH",
      "alert": "OK",
      "vis_m": 9999,
      "fzfg": false,
      "metar_trigger": false,
      "taf_trigger": false,
      "metar": "METAR EHEH 182325Z AUTO VRB02KT 9999 NCD 07/07 Q1016 BLU",
      "taf": "TAF EHEH 181712Z 1818/1924 22006KT 9999 FEW025CB SCT035"
    },
    {
      "icao": "EKBI",
      "alert": "OK",
      "vis_m": 9999,
      "fzfg": false,
      "metar_trigger": false,
      "taf_trigger": false,
      "metar": "METAR EKBI 182320Z AUTO 36002KT 9999 -RA BKN057/// OVC086/// 10/09 Q1016",
      "taf": "TAF EKBI 182327Z 1900/1924 11005KT 9999 BKN030"
    },
    {
      "icao": "EKCH",
      "alert": "OK",
      "vis_m": 9999,
      "fzfg": false,
      "metar_trigger": false,
      "taf_trigger": false,
      "metar": "METAR EKCH 182320Z AUTO 12006KT 9999 NCD 10/05 Q1018 NOSIG",
      "taf": "TAF EKCH 182327Z 1900/1924 15008KT CAVOK"
    },
    {
      "icao": "ENAL",
      "alert": "OK",
      "vis_m": 9999,
      "fzfg": false,
      "metar_trigger": false,
      "taf_trigger": false,
      "metar": "METAR ENAL 182320Z AUTO 06005KT 360V080 9999 NCD 08/07 Q1015",
      "taf": "TAF ENAL 182300Z 1900/1909 13008KT CAVOK"
    },
    {
      "icao": "ENBR",
      "alert": "OK",
      "vis_m": 3500,
      "fzfg": false,
      "metar_trigger": false,
      "taf_trigger": false,
      "metar": "METAR ENBR 182320Z AUTO VRB02KT 3500 +RA OVC043/// 08/08 Q1014 RMK WIND 1200FT 14010KT",
      "taf": "TAF ENBR 182300Z 1900/1924 13008KT 9999 FEW005 BKN035"
    },
    {
      "icao": "ENGM",
      "alert": "OK",
      "vis_m": 9999,
      "fzfg": false,
      "metar_trigger": false,
      "taf_trigger": false,
      "metar": "METAR ENGM 182320Z 03003KT CAVOK 09/05 Q1018",
      "taf": "TAF ENGM 182300Z 1900/1924 06003KT CAVOK"
    },
    {
      "icao": "ENHD",
      "alert": "OK",
      "vis_m": 6000,
      "fzfg": false,
      "metar_trigger": false,
      "taf_trigger": false,
      "metar": "METAR ENHD 182320Z AUTO 12010KT 6000 RA SCT026/// SCT033/// BKN043/// 10/09 Q1013",
      "taf": "TAF ENHD 181400Z 1815/1822 12009KT 9999 FEW020 BKN040"
    },
    {
      "icao": "ENTC",
      "alert": "OK",
      "vis_m": 9999,
      "fzfg": false,
      "metar_trigger": false,
      "taf_trigger": false,
      "metar": "METAR ENTC 182320Z 02009KT 9999 SCT012 BKN016 05/03 Q1026 RMK WIND 2600FT 19009KT",
      "taf": "TAF ENTC 182300Z 1900/1924 02009KT 9999 SCT010 BKN020"
    },
    {
      "icao": "ENTO",
      "alert": "OK",
      "vis_m": 9999,
      "fzfg": false,
      "metar_trigger": false,
      "taf_trigger": false,
      "metar": "METAR ENTO 182320Z AUTO 35003KT 9999 NCD 10/07 Q1018",
      "taf": "TAF ENTO 182300Z 1900/1924 04005KT CAVOK"
    },
    {
      "icao": "ENVA",
      "alert": "OK",
      "vis_m": 9999,
      "fzfg": false,
      "metar_trigger": false,
      "taf_trigger": false,
      "metar": "METAR ENVA 182320Z AUTO 11006KT 9999 NCD 10/04 Q1018 RMK WIND 670FT 15010KT",
      "taf": "TAF ENVA 182300Z 1900/1924 13008KT CAVOK"
    },
    {
      "icao": "ENZV",
      "alert": "OK",
      "vis_m": 7000,
      "fzfg": false,
      "metar_trigger": false,
      "taf_trigger": false,
      "metar": "METAR ENZV 182320Z 13005KT 7000 RA OVC043 11/09 Q1014",
      "taf": "TAF ENZV 182300Z 1900/1924 14008KT 9999 -RA FEW020 BKN040"
    },
    {
      "icao": "EPGD",
      "alert": "OK",
      "vis_m": 9999,
      "fzfg": false,
      "metar_trigger": false,
      "taf_trigger": false,
      "metar": "METAR EPGD 182330Z 29008KT CAVOK 07/06 Q1014",
      "taf": "TAF EPGD 182330Z 1900/1924 31007KT CAVOK"
    },
    {
      "icao": "EPKK",
      "alert": "OK",
      "vis_m": 3500,
      "fzfg": false,
      "metar_trigger": false,
      "taf_trigger": false,
      "metar": "METAR EPKK 182330Z 23002KT 3500 BR FEW020 09/08 Q1016",
      "taf": "TAF EPKK 182330Z 1900/1924 24002KT 3000 BR NSC"
    },
    {
      "icao": "EPKT",
      "alert": "OK",
      "vis_m": 5000,
      "fzfg": false,
      "metar_trigger": false,
      "taf_trigger": false,
      "metar": "METAR EPKT 182330Z 19003KT 5000 BR NSC 05/05 Q1016",
      "taf": "TAF EPKT 182330Z 1900/1924 VRB02KT 5000 BR NSC"
    },
    {
      "icao": "EPLB",
      "alert": "OK",
      "vis_m": 9999,
      "fzfg": false,
      "metar_trigger": false,
      "taf_trigger": false,
      "metar": "METAR EPLB 182330Z 27007KT CAVOK 11/10 Q1014",
      "taf": "TAF EPLB 182330Z 1900/1924 26008KT 7000 SCT045"
    },
    {
      "icao": "EPMO",
      "alert": "OK",
      "vis_m": 4000,
      "fzfg": false,
      "metar_trigger": false,
      "taf_trigger": false,
      "metar": "METAR EPMO 182330Z 24006KT 4000 BR OVC005 11/11 Q1014",
      "taf": "TAF EPMO 182330Z 1900/1924 24005KT 6000 OVC005"
    },
    {
      "icao": "EPPO",
      "alert": "OK",
      "vis_m": 9999,
      "fzfg": false,
      "metar_trigger": false,
      "taf_trigger": false,
      "metar": "METAR EPPO 182330Z 28003KT 9999 BKN026 10/09 Q1016",
      "taf": "TAF EPPO 182330Z 1900/1924 VRB02KT 9999 BKN025"
    },
    {
      "icao": "EPRA",
      "alert": "OK",
      "vis_m": 9999,
      "fzfg": false,
      "metar_trigger": false,
      "taf_trigger": false,
      "metar": "METAR EPRA 182330Z 26006KT 9999 BKN039 11/09 Q1015",
      "taf": "TAF EPRA 182330Z 1900/1909 26008KT 9999 BKN035"
    },
    {
      "icao": "EPRZ",
      "alert": "OK",
      "vis_m": 8000,
      "fzfg": false,
      "metar_trigger": false,
      "taf_trigger": false,
      "metar": "METAR EPRZ 182330Z 23004KT 8000 BKN023 OVC046 09/09 Q1016",
      "taf": "TAF EPRZ 182330Z 1900/1924 25004KT 9999 SCT023"
    },
    {
      "icao": "EPSC",
      "alert": "OK",
      "vis_m": 9999,
      "fzfg": false,
      "metar_trigger": false,
      "taf_trigger": false,
      "metar": "METAR EPSC 182330Z VRB01KT CAVOK 05/04 Q1016",
      "taf": "TAF EPSC 182330Z 1900/1924 VRB02KT CAVOK"
    },
    {
      "icao": "EPSY",
      "alert": "OK",
      "vis_m": 9999,
      "fzfg": false,
      "metar_trigger": false,
      "taf_trigger": false,
      "metar": "METAR EPSY 182330Z VRB01KT CAVOK 08/08 Q1014",
      "taf": "TAF EPSY 182030Z 1821/1906 35004KT CAVOK"
    },
    {
      "icao": "EPWA",
      "alert": "OK",
      "vis_m": 9999,
      "fzfg": false,
      "metar_trigger": false,
      "taf_trigger": false,
      "metar": "METAR EPWA 182330Z 27006KT 9999 BKN011 11/10 Q1014 TEMPO BKN009",
      "taf": "TAF EPWA 182330Z 1900/1924 25006KT 9999 BKN008"
    },
    {
      "icao": "EPWR",
      "alert": "OK",
      "vis_m": 9999,
      "fzfg": false,
      "metar_trigger": false,
      "taf_trigger": false,
      "metar": "METAR EPWR 182330Z VRB01KT 9999 MIFG NSC 05/04 Q1016",
      "taf": "TAF EPWR 182330Z 1900/1924 VRB02KT CAVOK"
    },
    {
      "icao": "ESGG",
      "alert": "OK",
      "vis_m": 9999,
      "fzfg": false,
      "metar_trigger": false,
      "taf_trigger": false,
      "metar": "METAR ESGG 182320Z 06003KT CAVOK 09/05 Q1017",
      "taf": "TAF ESGG 182330Z 1900/1924 04004KT CAVOK"
    },
    {
      "icao": "ESKN",
      "alert": "OK",
      "vis_m": 9999,
      "fzfg": false,
      "metar_trigger": false,
      "taf_trigger": false,
      "metar": "METAR ESKN 182320Z 00000KT CAVOK 05/04 Q1019",
      "taf": "TAF ESKN 182330Z 1900/1924 VRB02KT CAVOK"
    },
    {
      "icao": "ESMS",
      "alert": "OK",
      "vis_m": 9999,
      "fzfg": false,
      "metar_trigger": false,
      "taf_trigger": false,
      "metar": "METAR ESMS 182320Z 08001KT CAVOK 05/01 Q1017",
      "taf": "TAF ESMS 182327Z 1900/1924 13006KT CAVOK"
    },
    {
      "icao": "ESSA",
      "alert": "OK",
      "vis_m": 9999,
      "fzfg": false,
      "metar_trigger": false,
      "taf_trigger": false,
      "metar": "METAR ESSA 182320Z 03006KT CAVOK 10/05 Q1019 NOSIG",
      "taf": "TAF ESSA 182330Z 1900/1924 01006KT CAVOK"
    },
    {
      "icao": "EYKA",
      "alert": "OK",
      "vis_m": 2900,
      "fzfg": false,
      "metar_trigger": false,
      "taf_trigger": false,
      "metar": "METAR EYKA 182320Z AUTO 26005KT 2900 BR OVC002/// 11/11 Q1010",
      "taf": "TAF EYKA 182304Z 1900/1924 VRB03KT 1500 BR OVC002"
    },
    {
      "icao": "EYPA",
      "alert": "OK",
      "vis_m": 9999,
      "fzfg": false,
      "metar_trigger": false,
      "taf_trigger": false,
      "metar": "METAR EYPA 182320Z AUTO 35006KT 300V030 9999 OVC012/// 10/08 Q1012",
      "taf": "TAF EYPA 182305Z 1900/1924 VRB04KT 9000 OVC010"
    },
    {
      "icao": "EYVI",
      "alert": "OK",
      "vis_m": 1800,
      "fzfg": false,
      "metar_trigger": false,
      "taf_trigger": false,
      "metar": "METAR EYVI 182320Z 20005KT 1800 BR OVC002 12/12 Q1010 NOSIG",
      "taf": "TAF EYVI 182303Z 1900/1924 VRB03KT 1500 BR OVC002"
    },
    {
      "icao": "GCFV",
      "alert": "OK",
      "vis_m": 9999,
      "fzfg": false,
      "metar_trigger": false,
      "taf_trigger": false,
      "metar": "METAR GCFV 182330Z AUTO 36014KT 9999 SCT030 18/12 Q1021",
      "taf": "TAF GCFV 182000Z 1821/1921 36015KT 9999 SCT030 TX24/1914Z TN18/1906Z"
    },
    {
      "icao": "GCLP",
      "alert": "OK",
      "vis_m": 9999,
      "fzfg": false,
      "metar_trigger": false,
      "taf_trigger": false,
      "metar": "METAR GCLP 182330Z 01019KT 9999 FEW025 19/13 Q1022 NOSIG",
      "taf": "TAF GCLP 182000Z 1821/1921 36018KT 9999 SCT035 TX24/1914Z TN18/1906Z"
    },
    {
      "icao": "GCTS",
      "alert": "OK",
      "vis_m": 9999,
      "fzfg": false,
      "metar_trigger": false,
      "taf_trigger": false,
      "metar": "METAR GCTS 182330Z 02007KT 9999 FEW035 18/11 Q1022 NOSIG",
      "taf": "TAF GCTS 182000Z 1821/1921 06008KT 9999 SCT040 TX24/1914Z TN17/1906Z"
    },
    {
      "icao": "GMAD",
      "alert": "OK",
      "vis_m": 9999,
      "fzfg": false,
      "metar_trigger": false,
      "taf_trigger": false,
      "metar": "METAR GMAD 182330Z 00000KT CAVOK 17/13 Q1016 NOSIG",
      "taf": "TAF GMAD 182300Z 1900/2006 07006KT CAVOK"
    },
    {
      "icao": "GMMN",
      "alert": "OK",
      "vis_m": 9999,
      "fzfg": false,
      "metar_trigger": false,
      "taf_trigger": false,
      "metar": "METAR GMMN 182330Z 04005KT 9999 SCT012 14/11 Q1021 NOSIG",
      "taf": "TAF GMMN 182300Z 1900/2006 04003KT 9999 SCT012"
    },
    {
      "icao": "GMMX",
      "alert": "OK",
      "vis_m": 9999,
      "fzfg": false,
      "metar_trigger": false,
      "taf_trigger": false,
      "metar": "METAR GMMX 182330Z 05006KT 360V080 CAVOK 19/10 Q1020 NOSIG",
      "taf": "TAF GMMX 182300Z 1900/2006 04006KT 8000 NSC"
    },
    {
      "icao": "HEGN",
      "alert": "OK",
      "vis_m": 9999,
      "fzfg": false,
      "metar_trigger": false,
      "taf_trigger": false,
      "metar": "METAR HEGN 182300Z 31009KT CAVOK 31/09 Q1008 NOSIG",
      "taf": "TAF HEGN 182300Z 1900/2006 34015KT CAVOK"
    },
    {
      "icao": "HEMA",
      "alert": "OK",
      "vis_m": 9999,
      "fzfg": false,
      "metar_trigger": false,
      "taf_trigger": false,
      "metar": "METAR HEMA 182300Z 22004KT CAVOK 32/05 Q1007 NOSIG",
      "taf": "TAF HEMA 182300Z 1900/2006 30015KT CAVOK"
    },
    {
      "icao": "HESH",
      "alert": "OK",
      "vis_m": 9999,
      "fzfg": false,
      "metar_trigger": false,
      "taf_trigger": false,
      "metar": "METAR HESH 182300Z 34003KT CAVOK 30/08 Q1009 NOSIG",
      "taf": "TAF HESH 182300Z 1900/2006 35010KT CAVOK"
    },
    {
      "icao": "HESX",
      "alert": "OK",
      "vis_m": 9999,
      "fzfg": false,
      "metar_trigger": false,
      "taf_trigger": false,
      "metar": "METAR HESX 182300Z 02008KT CAVOK 22/14 Q1012 NOSIG",
      "taf": "TAF HESX 182300Z 1900/2006 01010KT CAVOK"
    },
    {
      "icao": "LATI",
      "alert": "OK",
      "vis_m": 9999,
      "fzfg": false,
      "metar_trigger": false,
      "taf_trigger": false,
      "metar": "METAR LATI 182320Z VRB01KT 9999 FEW096 13/10 Q1015 NOSIG",
      "taf": "TAF LATI 182300Z 1900/1924 VRB03KT CAVOK TX23/1911Z TN10/1904Z"
    },
    {
      "icao": "LBPD",
      "alert": "OK",
      "vis_m": 9999,
      "fzfg": false,
      "metar_trigger": false,
      "taf_trigger": false,
      "metar": "METAR LBPD 182330Z AUTO 29010KT 9999 OVC100/// 18/08 Q1014",
      "taf": "TAF LBPD 182300Z 1900/1924 27010KT 9999 BKN075"
    },
    {
      "icao": "LBSF",
      "alert": "OK",
      "vis_m": 9999,
      "fzfg": false,
      "metar_trigger": false,
      "taf_trigger": false,
      "metar": "METAR LBSF 182330Z AUTO 00000KT 9999 FEW073/// 09/06 Q1016 NOSIG",
      "taf": "TAF LBSF 182300Z 1900/1924 VRB04KT CAVOK"
    },
    {
      "icao": "LBWN",
      "alert": "OK",
      "vis_m": 9999,
      "fzfg": false,
      "metar_trigger": false,
      "taf_trigger": false,
      "metar": "METAR LBWN 182330Z AUTO 28007KT 9999 NCD 12/12 Q1013 NOSIG",
      "taf": "TAF LBWN 182300Z 1900/1924 VRB04KT CAVOK"
    },
    {
      "icao": "LCLK",
      "alert": "OK",
      "vis_m": 9999,
      "fzfg": false,
      "metar_trigger": false,
      "taf_trigger": false,
      "metar": "METAR LCLK 182330Z 31004KT CAVOK 17/12 Q1008 NOSIG",
      "taf": "TAF LCLK 182330Z 1900/2000 32007KT CAVOK"
    },
    {
      "icao": "LCPH",
      "alert": "OK",
      "vis_m": 9999,
      "fzfg": false,
      "metar_trigger": false,
      "taf_trigger": false,
      "metar": "METAR LCPH 182330Z 02004KT CAVOK 17/14 Q1009 NOSIG",
      "taf": "TAF LCPH 182330Z 1900/2000 35009KT CAVOK"
    },
    {
      "icao": "LEAL",
      "alert": "OK",
      "vis_m": 9999,
      "fzfg": false,
      "metar_trigger": false,
      "taf_trigger": false,
      "metar": "METAR LEAL 182330Z VRB02KT CAVOK 19/17 Q1019 NOSIG",
      "taf": "TAF LEAL 182300Z 1900/1924 VRB04KT CAVOK TX27/1912Z TN14/1905Z"
    },
    {
      "icao": "LEBB",
      "alert": "OK",
      "vis_m": 9999,
      "fzfg": false,
      "metar_trigger": false,
      "taf_trigger": false,
      "metar": "METAR LEBB 182330Z AUTO 10003KT 070V130 CAVOK 14/12 Q1018",
      "taf": "TAF LEBB 182300Z 1900/1924 13006KT 9999 FEW060 TX25/1912Z TN11/1904Z"
    },
    {
      "icao": "LEBL",
      "alert": "OK",
      "vis_m": 9999,
      "fzfg": false,
      "metar_trigger": false,
      "taf_trigger": false,
      "metar": "METAR LEBL 182330Z 22003KT 9999 FEW013 17/17 Q1019 NOSIG",
      "taf": "TAF LEBL 182300Z 1900/1924 34007KT 9999 SCT025 TX22/1912Z TN14/1906Z"
    },
    {
      "icao": "LECH",
      "alert": "OK",
      "vis_m": 9999,
      "fzfg": false,
      "metar_trigger": false,
      "taf_trigger": false,
      "metar": "METAR LECH 182330Z AUTO 21003KT CAVOK 15/13 Q1019",
      "taf": "TAF LECH 182300Z 1900/1924 VRB04KT 9999 FEW040 TX26/1912Z TN11/1905Z"
    },
    {
      "icao": "LEMD",
      "alert": "OK",
      "vis_m": 9999,
      "fzfg": false,
      "metar_trigger": false,
      "taf_trigger": false,
      "metar": "METAR LEMD 182330Z VRB02KT CAVOK 16/06 Q1019 NOSIG",
      "taf": "TAF LEMD 182300Z 1900/2006 VRB04KT CAVOK TX27/1916Z TN11/1905Z"
    },
    {
      "icao": "LEMG",
      "alert": "OK",
      "vis_m": 9999,
      "fzfg": false,
      "metar_trigger": false,
      "taf_trigger": false,
      "metar": "METAR LEMG 182330Z 09004KT 060V120 CAVOK 17/14 Q1019 NOSIG",
      "taf": "TAF LEMG 182300Z 1900/1924 30006KT CAVOK TX27/1914Z TN13/1906Z"
    },
    {
      "icao": "LEVC",
      "alert": "OK",
      "vis_m": 9999,
      "fzfg": false,
      "metar_trigger": false,
      "taf_trigger": false,
      "metar": "METAR LEVC 182330Z 26003KT CAVOK 17/13 Q1018 NOSIG",
      "taf": "TAF LEVC 182300Z 1900/1924 VRB04KT CAVOK TX31/1915Z TN15/1906Z"
    },
    {
      "icao": "LEXJ",
      "alert": "OK",
      "vis_m": 9999,
      "fzfg": false,
      "metar_trigger": false,
      "taf_trigger": false,
      "metar": "METAR LEXJ 182330Z AUTO 00000KT 9999 3700E NSC 13/11 Q1017",
      "taf": "TAF LEXJ 182000Z 1821/1921 VRB03KT 9999 FEW060 TX23/1912Z TN12/1903Z"
    },
    {
      "icao": "LEZG",
      "alert": "OK",
      "vis_m": 9999,
      "fzfg": false,
      "metar_trigger": false,
      "taf_trigger": false,
      "metar": "METAR LEZG 182330Z 15001KT 9999 BKN085 17/11 Q1018 NOSIG",
      "taf": "TAF LEZG 182300Z 1900/1924 VRB04KT CAVOK TX31/1915Z TN14/1906Z"
    },
    {
      "icao": "LEZL",
      "alert": "OK",
      "vis_m": 9999,
      "fzfg": false,
      "metar_trigger": false,
      "taf_trigger": false,
      "metar": "METAR LEZL 182330Z AUTO 19004KT 150V230 CAVOK 17/10 Q1020",
      "taf": "TAF LEZL 182000Z 1821/1921 21011KT CAVOK TX28/1915Z TN13/1906Z"
    },
    {
      "icao": "LFBD",
      "alert": "OK",
      "vis_m": 9999,
      "fzfg": false,
      "metar_trigger": false,
      "taf_trigger": false,
      "metar": "METAR LFBD 182330Z AUTO 19001KT CAVOK 14/10 Q1018 NOSIG",
      "taf": "TAF LFBD 182300Z 1900/2006 VRB03KT CAVOK TX20/1915Z TN12/1900Z"
    },
    {
      "icao": "LFLL",
      "alert": "OK",
      "vis_m": 9999,
      "fzfg": false,
      "metar_trigger": false,
      "taf_trigger": false,
      "metar": "METAR LFLL 182330Z VRB02KT CAVOK 13/07 Q1018 NOSIG",
      "taf": "TAF LFLL 182300Z 1900/2006 18004KT CAVOK"
    },
    {
      "icao": "LFLS",
      "alert": "OK",
      "vis_m": 9999,
      "fzfg": false,
      "metar_trigger": false,
      "taf_trigger": false,
      "metar": "METAR LFLS 182330Z AUTO 09003KT CAVOK 07/06 Q1018",
      "taf": "TAF LFLS 181400Z 1815/1915 10005KT 9999 SCT050"
    },
    {
      "icao": "LFMN",
      "alert": "OK",
      "vis_m": 9999,
      "fzfg": false,
      "metar_trigger": false,
      "taf_trigger": false,
      "metar": "METAR LFMN 182330Z 32005KT CAVOK 13/10 Q1016 NOSIG",
      "taf": "TAF LFMN 182000Z 1821/2003 VRB04KT CAVOK"
    },
    {
      "icao": "LFOB",
      "alert": "OK",
      "vis_m": 9999,
      "fzfg": false,
      "metar_trigger": false,
      "taf_trigger": false,
      "metar": "METAR LFOB 182330Z AUTO 10003KT CAVOK 07/07 Q1016 BECMG 18012KT",
      "taf": "TAF LFOB 182300Z 1900/1924 18012KT 9999 BKN030"
    },
    {
      "icao": "LFPO",
      "alert": "OK",
      "vis_m": 9999,
      "fzfg": false,
      "metar_trigger": false,
      "taf_trigger": false,
      "metar": "METAR LFPO 182330Z AUTO 19004KT CAVOK 10/09 Q1016 NOSIG",
      "taf": "TAF LFPO 182300Z 1900/2006 18005KT CAVOK"
    },
    {
      "icao": "LFSB",
      "alert": "OK",
      "vis_m": 9999,
      "fzfg": false,
      "metar_trigger": false,
      "taf_trigger": false,
      "metar": "METAR LFSB 182330Z AUTO 17004KT CAVOK 07/06 Q1018 NOSIG",
      "taf": "TAF LFSB 182300Z 1900/1924 VRB03KT CAVOK"
    },
    {
      "icao": "LGAV",
      "alert": "OK",
      "vis_m": 9999,
      "fzfg": false,
      "metar_trigger": false,
      "taf_trigger": false,
      "metar": "METAR LGAV 182320Z 27004KT 9999 FEW030 15/09 Q1014 NOSIG",
      "taf": "TAF LGAV 182300Z 1900/1924 VRB05KT 9999 FEW030"
    },
    {
      "icao": "LGTS",
      "alert": "OK",
      "vis_m": 9999,
      "fzfg": false,
      "metar_trigger": false,
      "taf_trigger": false,
      "metar": "METAR LGTS 182320Z 10006KT 9999 FEW025 14/12 Q1014 NOSIG",
      "taf": "TAF LGTS 182300Z 1900/1924 VRB03KT 9999 FEW030"
    },
    {
      "icao": "LHBP",
      "alert": "OK",
      "vis_m": 9999,
      "fzfg": false,
      "metar_trigger": false,
      "taf_trigger": false,
      "metar": "METAR LHBP 182330Z 33003KT CAVOK 07/06 Q1015 NOSIG",
      "taf": "TAF LHBP 182315Z 1900/1924 36007KT CAVOK"
    },
    {
      "icao": "LHDC",
      "alert": "OK",
      "vis_m": 9999,
      "fzfg": false,
      "metar_trigger": false,
      "taf_trigger": false,
      "metar": "METAR LHDC 182315Z AUTO 00000KT 9999 OVC035 11/10 Q1015",
      "taf": "TAF LHDC 181415Z 1815/1824 21009KT 9999 BKN015 BKN040"
    },
    {
      "icao": "LIBD",
      "alert": "OK",
      "vis_m": 9999,
      "fzfg": false,
      "metar_trigger": false,
      "taf_trigger": false,
      "metar": "METAR LIBD 182320Z 27004KT CAVOK 16/10 Q1015",
      "taf": "TAF LIBD 182300Z 1900/1924 VRB05KT CAVOK"
    },
    {
      "icao": "LIBG",
      "alert": "OK",
      "vis_m": null,
      "fzfg": false,
      "metar_trigger": false,
      "taf_trigger": false,
      "metar": "",
      "taf": "TAF LIBG 181400Z 1815/1824 02010KT CAVOK"
    },
    {
      "icao": "LIBP",
      "alert": "OK",
      "vis_m": 9999,
      "fzfg": false,
      "metar_trigger": false,
      "taf_trigger": false,
      "metar": "METAR LIBP 182320Z AUTO VRB01KT 9999 -RA OVC077/// 14/12 Q1016",
      "taf": "TAF LIBP 182300Z 1900/1924 VRB05KT 9999 BKN060"
    },
    {
      "icao": "LIBR",
      "alert": "OK",
      "vis_m": 9999,
      "fzfg": false,
      "metar_trigger": false,
      "taf_trigger": false,
      "metar": "METAR LIBR 182320Z 27004KT CAVOK 14/09 Q1015",
      "taf": "TAF LIBR 182300Z 1900/1924 VRB05KT CAVOK"
    },
    {
      "icao": "LICA",
      "alert": "OK",
      "vis_m": 9999,
      "fzfg": false,
      "metar_trigger": false,
      "taf_trigger": false,
      "metar": "METAR LICA 182320Z AUTO 29006KT 9999 NCD 15/12 Q1017",
      "taf": "TAF LICA 182300Z 1900/1924 26006KT 9999 SCT020"
    },
    {
      "icao": "LICC",
      "alert": "OK",
      "vis_m": 9999,
      "fzfg": false,
      "metar_trigger": false,
      "taf_trigger": false,
      "metar": "METAR LICC 182320Z 26005KT 9999 FEW040 15/08 Q1017",
      "taf": "TAF LICC 182300Z 1900/1924 VRB06KT 9999 SCT050"
    },
    {
      "icao": "LICJ",
      "alert": "OK",
      "vis_m": 9999,
      "fzfg": false,
      "metar_trigger": false,
      "taf_trigger": false,
      "metar": "METAR LICJ 182320Z 15005KT 9999 FEW030 15/11 Q1018",
      "taf": "TAF LICJ 182300Z 1900/1924 VRB05KT 9999 FEW030"
    },
    {
      "icao": "LIMC",
      "alert": "OK",
      "vis_m": 9999,
      "fzfg": false,
      "metar_trigger": false,
      "taf_trigger": false,
      "metar": "METAR LIMC 182320Z VRB02KT CAVOK 10/09 Q1016 NOSIG",
      "taf": "TAF LIMC 182300Z 1900/2006 VRB03KT CAVOK"
    },
    {
      "icao": "LIME",
      "alert": "OK",
      "vis_m": 9999,
      "fzfg": false,
      "metar_trigger": false,
      "taf_trigger": false,
      "metar": "METAR LIME 182320Z 12005KT 9999 SCT070 14/10 Q1016 NOSIG",
      "taf": "TAF LIME 182300Z 1900/1924 VRB04KT 9999 SCT060"
    },
    {
      "icao": "LIMF",
      "alert": "OK",
      "vis_m": 9999,
      "fzfg": false,
      "metar_trigger": false,
      "taf_trigger": false,
      "metar": "METAR LIMF 182320Z 29003KT 9999 FEW130 11/10 Q1016",
      "taf": "TAF LIMF 182300Z 1900/1924 VRB04KT 9999 FEW040"
    },
    {
      "icao": "LIMJ",
      "alert": "OK",
      "vis_m": 9999,
      "fzfg": false,
      "metar_trigger": false,
      "taf_trigger": false,
      "metar": "METAR LIMJ 182320Z 06005KT 9999 FEW030 SCT070 14/13 Q1016",
      "taf": "TAF LIMJ 182300Z 1900/1924 VRB06KT 9999 SCT016"
    },
    {
      "icao": "LIPE",
      "alert": "OK",
      "vis_m": 9999,
      "fzfg": false,
      "metar_trigger": false,
      "taf_trigger": false,
      "metar": "METAR LIPE 182320Z VRB02KT CAVOK 14/11 Q1016",
      "taf": "TAF LIPE 182300Z 1900/1924 VRB06KT 9999 SCT050"
    },
    {
      "icao": "LIPH",
      "alert": "OK",
      "vis_m": 9999,
      "fzfg": false,
      "metar_trigger": false,
      "taf_trigger": false,
      "metar": "METAR LIPH 182320Z AUTO 25004KT 9999 BKN065/// 13/11 Q1016",
      "taf": "TAF LIPH 182300Z 1900/1924 05005KT 9999 FEW020 SCT050"
    },
    {
      "icao": "LIPQ",
      "alert": "OK",
      "vis_m": 9999,
      "fzfg": false,
      "metar_trigger": false,
      "taf_trigger": false,
      "metar": "METAR LIPQ 182320Z AUTO VRB01KT 9999 SCT110/// OVC130/// 13/11 Q1016",
      "taf": "TAF LIPQ 182300Z 1900/1924 VRB05KT CAVOK"
    },
    {
      "icao": "LIPR",
      "alert": "OK",
      "vis_m": 9999,
      "fzfg": false,
      "metar_trigger": false,
      "taf_trigger": false,
      "metar": "METAR LIPR 182320Z AUTO 28004KT 9999 FEW110/// 15/09 Q1016",
      "taf": "TAF LIPR 182300Z 1900/1924 23006KT 9999 FEW060"
    },
    {
      "icao": "LIPX",
      "alert": "OK",
      "vis_m": 9999,
      "fzfg": false,
      "metar_trigger": false,
      "taf_trigger": false,
      "metar": "METAR LIPX 182320Z 22004KT 9999 SCT070 12/12 Q1016",
      "taf": "TAF LIPX 182300Z 1900/1924 VRB04KT 9999 FEW050"
    },
    {
      "icao": "LIPY",
      "alert": "OK",
      "vis_m": 9999,
      "fzfg": false,
      "metar_trigger": false,
      "taf_trigger": false,
      "metar": "METAR LIPY 182320Z AUTO 17004KT 140V210 9999 FEW077/// BKN093/// 17/10 Q1015",
      "taf": "TAF LIPY 182300Z 1900/1924 24006KT 9999 SCT060"
    },
    {
      "icao": "LIPZ",
      "alert": "OK",
      "vis_m": 9999,
      "fzfg": false,
      "metar_trigger": false,
      "taf_trigger": false,
      "metar": "METAR LIPZ 182320Z 29007KT 230V300 9999 FEW070 14/11 Q1016 TEMPO 4000 SHRA",
      "taf": "TAF LIPZ 182300Z 1900/2006 04006KT 9999 FEW020 SCT050"
    },
    {
      "icao": "LIRF",
      "alert": "OK",
      "vis_m": 9999,
      "fzfg": false,
      "metar_trigger": false,
      "taf_trigger": false,
      "metar": "METAR LIRF 182320Z VRB02KT CAVOK 11/10 Q1017 NOSIG",
      "taf": "TAF LIRF 182300Z 1900/2006 VRB05KT 9999 SCT030"
    },
    {
      "icao": "LIRN",
      "alert": "OK",
      "vis_m": 9999,
      "fzfg": false,
      "metar_trigger": false,
      "taf_trigger": false,
      "metar": "METAR LIRN 182320Z VRB02KT 9999 FEW040 15/10 Q1017 NOSIG",
      "taf": "TAF LIRN 182300Z 1900/1924 VRB05KT 9999 SCT030"
    },
    {
      "icao": "LIRP",
      "alert": "OK",
      "vis_m": 9999,
      "fzfg": false,
      "metar_trigger": false,
      "taf_trigger": false,
      "metar": "METAR LIRP 182315Z 16004KT 9999 SCT020 12/11 Q1017 NOSIG",
      "taf": "TAF LIRP 182300Z 1900/1924 VRB03KT 9999 RA SCT015 SCT025"
    },
    {
      "icao": "LIRZ",
      "alert": "OK",
      "vis_m": 9999,
      "fzfg": false,
      "metar_trigger": false,
      "taf_trigger": false,
      "metar": "METAR LIRZ 182320Z AUTO 11002KT 9999 NCD 13/11 Q1017",
      "taf": "TAF LIRZ 182300Z 1900/1924 VRB05KT 9999 SCT030"
    },
    {
      "icao": "LJLJ",
      "alert": "OK",
      "vis_m": 9999,
      "fzfg": false,
      "metar_trigger": false,
      "taf_trigger": false,
      "metar": "METAR LJLJ 182330Z 30004KT 9999 FEW070 08/07 Q1016 NOSIG",
      "taf": "TAF LJLJ 182300Z 1900/2000 28005KT 9999 FEW065"
    },
    {
      "icao": "LKMT",
      "alert": "OK",
      "vis_m": 4000,
      "fzfg": false,
      "metar_trigger": false,
      "taf_trigger": false,
      "metar": "METAR LKMT 182330Z 23004KT 4000 BR NSC 05/05 Q1016 TEMPO 2500 BR BCFG",
      "taf": "TAF LKMT 182300Z 1900/1924 VRB02KT 7000 MIFG NSC"
    },
    {
      "icao": "LKPR",
      "alert": "OK",
      "vis_m": 9999,
      "fzfg": false,
      "metar_trigger": false,
      "taf_trigger": false,
      "metar": "METAR LKPR 182330Z 21006KT CAVOK 09/05 Q1015 NOSIG",
      "taf": "TAF LKPR 182300Z 1900/2006 VRB02KT CAVOK"
    },
    {
      "icao": "LLBG",
      "alert": "OK",
      "vis_m": 9999,
      "fzfg": false,
      "metar_trigger": false,
      "taf_trigger": false,
      "metar": "METAR LLBG 182320Z 22005KT CAVOK 21/18 Q1010 NOSIG",
      "taf": "TAF LLBG 182303Z 1900/1924 VRB04KT CAVOK TX27/1911Z TN19/1903Z"
    },
    {
      "icao": "LMML",
      "alert": "OK",
      "vis_m": 9999,
      "fzfg": false,
      "metar_trigger": false,
      "taf_trigger": false,
      "metar": "METAR LMML 182315Z 27008KT CAVOK 15/12 Q1018 NOSIG",
      "taf": "TAF LMML 182300Z 1900/1924 29005KT 9999 FEW025"
    },
    {
      "icao": "LOWW",
      "alert": "OK",
      "vis_m": 9999,
      "fzfg": false,
      "metar_trigger": false,
      "taf_trigger": false,
      "metar": "METAR LOWW 182320Z VRB02KT CAVOK 10/07 Q1016 NOSIG",
      "taf": "TAF LOWW 182315Z 1900/2006 VRB02KT CAVOK TX21/1914Z TN07/1903Z"
    },
    {
      "icao": "LPFR",
      "alert": "OK",
      "vis_m": 9999,
      "fzfg": false,
      "metar_trigger": false,
      "taf_trigger": false,
      "metar": "METAR LPFR 182330Z 31005KT CAVOK 15/09 Q1021",
      "taf": "TAF LPFR 182300Z 1900/1924 30005KT CAVOK"
    },
    {
      "icao": "LPMA",
      "alert": "OK",
      "vis_m": 9999,
      "fzfg": false,
      "metar_trigger": false,
      "taf_trigger": false,
      "metar": "METAR LPMA 182330Z 03007KT 330V070 9999 SCT014 17/13 Q1025",
      "taf": "TAF LPMA 182300Z 1900/1924 01010KT 9999 SCT014"
    },
    {
      "icao": "LPPR",
      "alert": "OK",
      "vis_m": 9999,
      "fzfg": false,
      "metar_trigger": false,
      "taf_trigger": false,
      "metar": "METAR LPPR 182330Z 18006KT 9999 FEW018 BKN025 15/11 Q1021",
      "taf": "TAF LPPR 182300Z 1900/1924 18008KT 9999 SCT020"
    },
    {
      "icao": "LPPS",
      "alert": "OK",
      "vis_m": 9999,
      "fzfg": false,
      "metar_trigger": false,
      "taf_trigger": false,
      "metar": "METAR LPPS 182330Z 35009KT 9999 FEW015 17/14 Q1025",
      "taf": "TAF LPPS 182300Z 1900/2006 36008KT 9999 SCT015"
    },
    {
      "icao": "LPPT",
      "alert": "OK",
      "vis_m": 9999,
      "fzfg": false,
      "metar_trigger": false,
      "taf_trigger": false,
      "metar": "METAR LPPT 182330Z 27003KT 240V310 CAVOK 13/10 Q1022",
      "taf": "TAF LPPT 182300Z 1900/2006 VRB02KT 9999 SCT020"
    },
    {
      "icao": "LQBK",
      "alert": "OK",
      "vis_m": 9999,
      "fzfg": false,
      "metar_trigger": false,
      "taf_trigger": false,
      "metar": "METAR LQBK 182330Z 00000KT CAVOK 09/07 Q1016 NOSIG",
      "taf": "TAF LQBK 182300Z 1900/1924 06005KT CAVOK TX23/1914Z TN06/1904Z"
    },
    {
      "icao": "LQSA",
      "alert": "OK",
      "vis_m": 9999,
      "fzfg": false,
      "metar_trigger": false,
      "taf_trigger": false,
      "metar": "METAR LQSA 182330Z VRB01KT CAVOK 07/06 Q1017",
      "taf": "TAF LQSA 182300Z 1900/1924 VRB02KT CAVOK TX22/1914Z TN06/1904Z"
    },
    {
      "icao": "LQTZ",
      "alert": "OK",
      "vis_m": 9999,
      "fzfg": false,
      "metar_trigger": false,
      "taf_trigger": false,
      "metar": "METAR LQTZ 182330Z VRB01KT CAVOK 07/07 Q1016",
      "taf": "TAF LQTZ 182300Z 1900/1924 VRB02KT CAVOK TX23/1913Z TN04/1904Z"
    },
    {
      "icao": "LRBC",
      "alert": "OK",
      "vis_m": 9999,
      "fzfg": false,
      "metar_trigger": false,
      "taf_trigger": false,
      "metar": "METAR LRBC 182330Z 36003KT CAVOK 13/12 Q1013",
      "taf": "TAF LRBC 182300Z 1900/1909 33008KT CAVOK"
    },
    {
      "icao": "LRBS",
      "alert": "OK",
      "vis_m": 9999,
      "fzfg": false,
      "metar_trigger": false,
      "taf_trigger": false,
      "metar": "METAR LRBS 182330Z 27005KT 240V300 CAVOK 13/10 Q1013 NOSIG",
      "taf": "TAF LRBS 182300Z 1900/1924 26010KT CAVOK"
    },
    {
      "icao": "LRBV",
      "alert": "OK",
      "vis_m": 9999,
      "fzfg": false,
      "metar_trigger": false,
      "taf_trigger": false,
      "metar": "METAR LRBV 182330Z AUTO VRB06KT 9999 FEW062/// SCT110/// 11/08 Q1016",
      "taf": "TAF LRBV 181400Z 1815/1824 29006KT CAVOK"
    },
    {
      "icao": "LRCL",
      "alert": "OK",
      "vis_m": 9999,
      "fzfg": false,
      "metar_trigger": false,
      "taf_trigger": false,
      "metar": "METAR LRCL 182330Z 34001KT CAVOK 11/10 Q1016",
      "taf": "TAF LRCL 182300Z 1900/1909 VRB04KT 9999 SCT040"
    },
    {
      "icao": "LRCV",
      "alert": "OK",
      "vis_m": 9999,
      "fzfg": false,
      "metar_trigger": false,
      "taf_trigger": false,
      "metar": "METAR LRCV 182330Z 25005KT CAVOK 10/07 Q1014",
      "taf": "TAF LRCV 182300Z 1900/1909 VRB04KT CAVOK"
    },
    {
      "icao": "LRIA",
      "alert": "OK",
      "vis_m": 9999,
      "fzfg": false,
      "metar_trigger": false,
      "taf_trigger": false,
      "metar": "METAR LRIA 182330Z 28006KT CAVOK 14/10 Q1013",
      "taf": "TAF LRIA 182300Z 1900/1909 31009KT CAVOK"
    },
    {
      "icao": "LROP",
      "alert": "OK",
      "vis_m": 9999,
      "fzfg": false,
      "metar_trigger": false,
      "taf_trigger": false,
      "metar": "METAR LROP 182330Z 26005KT CAVOK 12/11 Q1013 NOSIG",
      "taf": "TAF LROP 182300Z 1900/1924 25010KT CAVOK"
    },
    {
      "icao": "LRSB",
      "alert": "OK",
      "vis_m": 9999,
      "fzfg": false,
      "metar_trigger": false,
      "taf_trigger": false,
      "metar": "METAR LRSB 182330Z 20002KT 9999 BKN047 12/10 Q1015",
      "taf": "TAF LRSB 182300Z 1900/1924 VRB04KT 9999 SCT045"
    },
    {
      "icao": "LRSM",
      "alert": "OK",
      "vis_m": 9999,
      "fzfg": false,
      "metar_trigger": false,
      "taf_trigger": false,
      "metar": "METAR LRSM 182330Z AUTO 00000KT 9999 FEW075/// 10/09 Q1016",
      "taf": "TAF LRSM 181400Z 1815/1824 26012KT 9999 BKN040"
    },
    {
      "icao": "LRSV",
      "alert": "OK",
      "vis_m": 9999,
      "fzfg": false,
      "metar_trigger": false,
      "taf_trigger": false,
      "metar": "METAR LRSV 182330Z 31011KT CAVOK 12/10 Q1014",
      "taf": "TAF LRSV 182300Z 1900/1909 31010KT CAVOK"
    },
    {
      "icao": "LRTM",
      "alert": "OK",
      "vis_m": 9999,
      "fzfg": false,
      "metar_trigger": false,
      "taf_trigger": false,
      "metar": "METAR LRTM 182330Z 20003KT 170V270 9999 BKN024 13/11 Q1016",
      "taf": "TAF LRTM 182300Z 1900/1909 31006KT 9999 BKN025"
    },
    {
      "icao": "LRTR",
      "alert": "OK",
      "vis_m": 8000,
      "fzfg": false,
      "metar_trigger": false,
      "taf_trigger": false,
      "metar": "METAR LRTR 182330Z 10004KT 8000 NSC 07/07 Q1015",
      "taf": "TAF LRTR 182300Z 1900/1924 VRB04KT CAVOK"
    },
    {
      "icao": "LTAC",
      "alert": "OK",
      "vis_m": 9999,
      "fzfg": false,
      "metar_trigger": false,
      "taf_trigger": false,
      "metar": "METAR LTAC 182320Z 26004KT 220V290 CAVOK 08/05 Q1014 NOSIG RMK RWY21C 26006KT RWY03L 23004KT 200V260 RWY21R 25006KT 220V280 RWY03R 29004KT 240V330 RWY21L 26006KT",
      "taf": "TAF LTAC 182240Z 1900/1924 VRB02KT CAVOK"
    },
    {
      "icao": "LTFM",
      "alert": "OK",
      "vis_m": 9999,
      "fzfg": false,
      "metar_trigger": false,
      "taf_trigger": false,
      "metar": "METAR LTFM 182320Z 20006KT CAVOK 15/10 Q1014 NOSIG RMK RWY17L 21007KT RWY34L 24006KT 190V300 RWY16R 23005KT RWY36 21006KT RWY18 21008KT",
      "taf": "TAF LTFM 182240Z 1900/2006 24006KT CAVOK"
    },
    {
      "icao": "LUKK",
      "alert": "OK",
      "vis_m": 9999,
      "fzfg": false,
      "metar_trigger": false,
      "taf_trigger": false,
      "metar": "METAR LUKK 182330Z 30008KT CAVOK 15/11 Q1011 NOSIG",
      "taf": "TAF LUKK 182318Z 1900/1924 VRB05KT CAVOK"
    },
    {
      "icao": "LWOH",
      "alert": "OK",
      "vis_m": null,
      "fzfg": false,
      "metar_trigger": false,
      "taf_trigger": false,
      "metar": "",
      "taf": "TAF LWOH 182330Z 1900/1924 VRB02KT 9999 SCT040 BKN070"
    },
    {
      "icao": "LWSK",
      "alert": "OK",
      "vis_m": 9999,
      "fzfg": false,
      "metar_trigger": false,
      "taf_trigger": false,
      "metar": "METAR LWSK 182250Z 36004KT 280V060 9999 BKN050 14/08 Q1015 NOSIG",
      "taf": "TAF LWSK 182330Z 1900/1924 VRB02KT BKN060"
    },
    {
      "icao": "LYBE",
      "alert": "OK",
      "vis_m": 9999,
      "fzfg": false,
      "metar_trigger": false,
      "taf_trigger": false,
      "metar": "METAR LYBE 182330Z 19003KT CAVOK 13/08 Q1016 NOSIG",
      "taf": "TAF LYBE 182300Z 1900/1924 18004KT CAVOK TX22/1914Z TN07/1904Z"
    },
    {
      "icao": "LYNI",
      "alert": "OK",
      "vis_m": 9999,
      "fzfg": false,
      "metar_trigger": false,
      "taf_trigger": false,
      "metar": "METAR LYNI 182330Z VRB02KT CAVOK 09/07 Q1016 NOSIG",
      "taf": "TAF LYNI 182300Z 1900/1924 08005KT CAVOK TX21/1914Z TN05/1904Z"
    },
    {
      "icao": "LYPG",
      "alert": "OK",
      "vis_m": 9999,
      "fzfg": false,
      "metar_trigger": false,
      "taf_trigger": false,
      "metar": "METAR LYPG 182330Z 00000KT 9999 FEW080 15/11 Q1014 NOSIG",
      "taf": "TAF LYPG 182300Z 1900/1924 17006KT 9999 SCT040 TX23/1913Z TN13/1903Z"
    },
    {
      "icao": "LZIB",
      "alert": "OK",
      "vis_m": 9999,
      "fzfg": false,
      "metar_trigger": false,
      "taf_trigger": false,
      "metar": "METAR LZIB 182330Z 03004KT CAVOK 10/08 Q1016 NOSIG",
      "taf": "TAF LZIB 182315Z 1900/2000 06004KT CAVOK"
    },
    {
      "icao": "LZKZ",
      "alert": "OK",
      "vis_m": 9999,
      "fzfg": false,
      "metar_trigger": false,
      "taf_trigger": false,
      "metar": "METAR LZKZ 182330Z 36009KT 9999 -RA OVC022 12/10 Q1015 NOSIG",
      "taf": "TAF LZKZ 182315Z 1900/2000 02012KT 9999 BKN020"
    },
    {
      "icao": "LZTT",
      "alert": "OK",
      "vis_m": 9999,
      "fzfg": false,
      "metar_trigger": false,
      "taf_trigger": false,
      "metar": "METAR LZTT 182330Z 35003KT 300V060 9999 -RA BKN007 OVC016 08/08 Q1016",
      "taf": "TAF LZTT 182315Z 1900/2000 28006KT 9999 SCT012 OVC020"
    },
    {
      "icao": "OEJN",
      "alert": "OK",
      "vis_m": 9999,
      "fzfg": false,
      "metar_trigger": false,
      "taf_trigger": false,
      "metar": "METAR OEJN 182300Z 35004KT CAVOK 34/03 Q1005 NOSIG",
      "taf": "TAF OEJN 182300Z 1900/2006 09006KT 7000 NSC"
    },
    {
      "icao": "OEMA",
      "alert": "OK",
      "vis_m": 9999,
      "fzfg": false,
      "metar_trigger": false,
      "taf_trigger": false,
      "metar": "METAR OEMA 182300Z 36004KT CAVOK 33/M01 Q1012 NOSIG",
      "taf": "TAF OEMA 182300Z 1900/2006 VRB03KT CAVOK"
    },
    {
      "icao": "OJAI",
      "alert": "OK",
      "vis_m": 4000,
      "fzfg": false,
      "metar_trigger": false,
      "taf_trigger": false,
      "metar": "METAR OJAI 182300Z 24007KT 4000 DU NSC 21/03 Q1012 NOSIG",
      "taf": "TAF OJAI 182248Z 1900/2006 31010KT 5000 DU NSC"
    },
    {
      "icao": "OMAA",
      "alert": "OK",
      "vis_m": 9999,
      "fzfg": false,
      "metar_trigger": false,
      "taf_trigger": false,
      "metar": "METAR OMAA 182330Z 18005KT CAVOK 26/15 Q1005 NOSIG",
      "taf": "TAF OMAA 182300Z 1900/2006 21007KT 8000 NSC"
    },
    {
      "icao": "OMDB",
      "alert": "OK",
      "vis_m": 9999,
      "fzfg": false,
      "metar_trigger": false,
      "taf_trigger": false,
      "metar": "METAR OMDB 182300Z 19008KT CAVOK 26/17 Q1004 NOSIG",
      "taf": "TAF OMDB 182300Z 1900/2006 21007KT CAVOK"
    },
    {
      "icao": "UAAA",
      "alert": "OK",
      "vis_m": 9999,
      "fzfg": false,
      "metar_trigger": false,
      "taf_trigger": false,
      "metar": "METAR UAAA 182330Z 21002MPS 9999 SCT200 12/06 Q1007 NOSIG",
      "taf": "TAF UAAA 182303Z 1900/1924 26002MPS 9999 SCT050CB BKN100 TX23/1910Z TN11/1901Z"
    },
    {
      "icao": "UBBB",
      "alert": "OK",
      "vis_m": 6000,
      "fzfg": false,
      "metar_trigger": false,
      "taf_trigger": false,
      "metar": "METAR UBBB 182330Z 13006KT 6000 BKN005 17/16 Q0999 TEMPO 3000 BR BKN002",
      "taf": "TAF UBBB 182311Z 1900/1924 VRB04KT 3000 BR BCFG BKN008 TX21/1910Z TN16/1901Z"
    },
    {
      "icao": "UDSG",
      "alert": "OK",
      "vis_m": 9999,
      "fzfg": false,
      "metar_trigger": false,
      "taf_trigger": false,
      "metar": "METAR UDSG 182330Z 31003KT 270V340 9999 BKN040CB 05/03 Q1008 NOSIG",
      "taf": "TAF UDSG 182258Z 1900/1924 24006KT 9999 BKN040"
    },
    {
      "icao": "UDYZ",
      "alert": "OK",
      "vis_m": 9999,
      "fzfg": false,
      "metar_trigger": false,
      "taf_trigger": false,
      "metar": "METAR UDYZ 182330Z VRB01KT 9999 NSC 06/06 Q1005 NOSIG",
      "taf": "TAF UDYZ 182300Z 1900/1924 04006KT 9999 FEW040"
    },
    {
      "icao": "UGKO",
      "alert": "OK",
      "vis_m": 9999,
      "fzfg": false,
      "metar_trigger": false,
      "taf_trigger": false,
      "metar": "METAR UGKO 182330Z 25012KT 9999 -RA SCT060 OVC067 13/11 Q1008 NOSIG",
      "taf": "TAF UGKO 182300Z 1900/1924 26012KT 9999 SCT030 OVC045 TX14/1910Z TN12/1902Z"
    }
  ]
}