{
  "ts_utc": "2026-01-22T23:11:29Z",
  "threshold_m": 150,
  "source": "stations_override.txt (ICAO list) + aviationweather.gov (METAR/TAF raw)",
  "station_count": 159,
  "stations": [
    {
      "icao": "BIKF",
      "alert": "OK",
      "vis_m": 9999,
      "fzfg": false,
      "metar_trigger": false,
      "taf_trigger": false,
      "metar": "METAR BIKF 222300Z 12020KT 9999 SCT017 BKN030 07/05 Q0991",
      "taf": "TAF BIKF 222257Z 2300/2400 13012G22KT 9999 BKN017 TX07/2300Z TN01/2324Z"
    },
    {
      "icao": "BKPR",
      "alert": "OK",
      "vis_m": 4000,
      "fzfg": false,
      "metar_trigger": false,
      "taf_trigger": false,
      "metar": "METAR BKPR 222300Z VRB01KT 4000 BR BKN065 M01/M01 Q1003 TEMPO 1200 BCFG BKN010",
      "taf": "TAF BKPR 221730Z 2218/2318 VRB03KT 9999 BKN040"
    },
    {
      "icao": "EBCI",
      "alert": "OK",
      "vis_m": 9999,
      "fzfg": false,
      "metar_trigger": false,
      "taf_trigger": false,
      "metar": "METAR EBCI 222250Z 19005KT 9999 SCT012 BKN018 07/05 Q0993 NOSIG",
      "taf": "TAF EBCI 221720Z 2218/2324 16007KT 9999 BKN030"
    },
    {
      "icao": "EDDB",
      "alert": "OK",
      "vis_m": 4600,
      "fzfg": false,
      "metar_trigger": false,
      "taf_trigger": false,
      "metar": "METAR EDDB 222250Z AUTO 08006KT 4600 BR NSC M07/M08 Q1003 TEMPO 5000 BR",
      "taf": "TAF EDDB 221700Z 2218/2318 08006KT CAVOK"
    },
    {
      "icao": "EDDH",
      "alert": "OK",
      "vis_m": 7000,
      "fzfg": false,
      "metar_trigger": false,
      "taf_trigger": false,
      "metar": "METAR EDDH 222250Z AUTO 09009KT 7000 NSC M04/M06 Q1002 NOSIG",
      "taf": "TAF EDDH 221700Z 2218/2324 09010KT CAVOK"
    },
    {
      "icao": "EDDK",
      "alert": "OK",
      "vis_m": 9999,
      "fzfg": false,
      "metar_trigger": false,
      "taf_trigger": false,
      "metar": "METAR EDDK 222250Z AUTO 12008KT 090V150 9999 -SHRA OVC046 FEW///TCU 02/M00 Q0997 NOSIG",
      "taf": "TAF EDDK 221700Z 2218/2324 12009KT 9999 BKN030"
    },
    {
      "icao": "EDDN",
      "alert": "OK",
      "vis_m": 7000,
      "fzfg": false,
      "metar_trigger": false,
      "taf_trigger": false,
      "metar": "METAR EDDN 222250Z AUTO 13007KT 7000 OVC009 M07/M10 Q1001",
      "taf": "TAF EDDN 221700Z 2218/2318 13007KT 9999 OVC012"
    },
    {
      "icao": "EDDS",
      "alert": "OK",
      "vis_m": 6000,
      "fzfg": false,
      "metar_trigger": false,
      "taf_trigger": false,
      "metar": "METAR EDDS 222250Z AUTO 09002KT 6000 NSC M02/M04 Q0997",
      "taf": "TAF EDDS 221700Z 2218/2318 VRB03KT CAVOK"
    },
    {
      "icao": "EDFH",
      "alert": "OK",
      "vis_m": 6000,
      "fzfg": false,
      "metar_trigger": false,
      "taf_trigger": false,
      "metar": "METAR EDFH 222250Z 13013KT 6000 OVC032 M01/M03 Q0996",
      "taf": "TAF EDFH 221700Z 2218/2318 14014KT 9999 BKN014"
    },
    {
      "icao": "EDJA",
      "alert": "OK",
      "vis_m": 450,
      "fzfg": true,
      "metar_trigger": false,
      "taf_trigger": false,
      "metar": "METAR EDJA 222250Z AUTO VRB02KT 0450 0400 R06/0450N // VV/// M04/M05 Q0998",
      "taf": "TAF EDJA 221700Z 2218/2303 VRB03KT 0300 FZFG VV001"
    },
    {
      "icao": "EDLW",
      "alert": "OK",
      "vis_m": 9999,
      "fzfg": false,
      "metar_trigger": false,
      "taf_trigger": false,
      "metar": "METAR EDLW 222250Z AUTO 15006KT 9999 // OVC048/// 04/01 Q0996",
      "taf": "TAF EDLW 221700Z 2218/2318 11006KT 9999 SCT040"
    },
    {
      "icao": "EDNY",
      "alert": "OK",
      "vis_m": 900,
      "fzfg": false,
      "metar_trigger": false,
      "taf_trigger": false,
      "metar": "METAR EDNY 222250Z AUTO VRB02KT 0900 0750 R24/0900N // BKN001/// OVC005/// M01/M01 Q0999",
      "taf": "TAF EDNY 221700Z 2218/2303 VRB03KT 5000 BR OVC005"
    },
    {
      "icao": "EDSB",
      "alert": "OK",
      "vis_m": 3700,
      "fzfg": false,
      "metar_trigger": false,
      "taf_trigger": false,
      "metar": "METAR EDSB 222250Z 02004KT 3700 BR FEW003 OVC043 M01/M01 Q0999",
      "taf": "TAF EDSB 221700Z 2218/2318 VRB02KT 3000 BR OVC005"
    },
    {
      "icao": "EETN",
      "alert": "OK",
      "vis_m": 9999,
      "fzfg": false,
      "metar_trigger": false,
      "taf_trigger": false,
      "metar": "METAR EETN 222250Z 08008KT 9999 OVC014 M08/M10 Q1024",
      "taf": "TAF EETN 221730Z 2218/2318 09010KT 9999 BKN012 OVC020"
    },
    {
      "icao": "EFTU",
      "alert": "OK",
      "vis_m": 9999,
      "fzfg": false,
      "metar_trigger": false,
      "taf_trigger": false,
      "metar": "METAR EFTU 222250Z AUTO 07009KT 040V100 9999 -SHSN OVC022 M07/M10 Q1024",
      "taf": "TAF EFTU 222036Z 2221/2321 08007KT 9999 BKN020"
    },
    {
      "icao": "EGBB",
      "alert": "OK",
      "vis_m": 5000,
      "fzfg": false,
      "metar_trigger": false,
      "taf_trigger": false,
      "metar": "METAR EGBB 222250Z 15008KT 5000 -DZ BKN006 OVC030 07/07 Q0983",
      "taf": "TAF EGBB 222304Z 2300/2324 13008KT 9999 BKN006"
    },
    {
      "icao": "EGGP",
      "alert": "OK",
      "vis_m": 9999,
      "fzfg": false,
      "metar_trigger": false,
      "taf_trigger": false,
      "metar": "METAR EGGP 222250Z 09010KT 9999 BKN013 BKN022 06/05 Q0982",
      "taf": "TAF EGGP 222302Z 2300/2324 11012KT 9999 SCT022"
    },
    {
      "icao": "EGGW",
      "alert": "OK",
      "vis_m": 9999,
      "fzfg": false,
      "metar_trigger": false,
      "taf_trigger": false,
      "metar": "METAR EGGW 222250Z AUTO 19012KT 160V220 9999 BKN011 06/05 Q0985",
      "taf": "TAF EGGW 222304Z 2300/2324 18010KT 9999 SCT012"
    },
    {
      "icao": "EGKK",
      "alert": "OK",
      "vis_m": 9999,
      "fzfg": false,
      "metar_trigger": false,
      "taf_trigger": false,
      "metar": "METAR EGKK 222250Z 19009KT 9999 SCT012 SCT030 08/07 Q0987",
      "taf": "TAF EGKK 222254Z 2300/2406 20010KT 9999 SCT015"
    },
    {
      "icao": "EGNM",
      "alert": "OK",
      "vis_m": 900,
      "fzfg": false,
      "metar_trigger": false,
      "taf_trigger": false,
      "metar": "METAR EGNM 222150Z 08017G28KT 0900 R14/P1500N -RA FG OVC002 04/04 Q0985",
      "taf": "TAF EGNM 222301Z 2300/2324 10012KT 1500 BR OVC002"
    },
    {
      "icao": "EGPD",
      "alert": "OK",
      "vis_m": 8000,
      "fzfg": false,
      "metar_trigger": false,
      "taf_trigger": false,
      "metar": "METAR EGPD 222250Z AUTO 11020G34KT 8000 BKN016 OVC024 04/01 Q0996 TEMPO BKN012",
      "taf": "TAF EGPD 222255Z 2300/2324 12018G34KT 9999 BKN016"
    },
    {
      "icao": "EGPF",
      "alert": "OK",
      "vis_m": 9000,
      "fzfg": false,
      "metar_trigger": false,
      "taf_trigger": false,
      "metar": "METAR EGPF 222250Z AUTO 07018KT 9000 -RA BKN019/// BKN023/// OVC041/// //////TCU 05/03 Q0988",
      "taf": "TAF EGPF 222254Z 2300/2324 08011KT 9999 FEW012 BKN025"
    },
    {
      "icao": "EHBK",
      "alert": "OK",
      "vis_m": 9999,
      "fzfg": false,
      "metar_trigger": false,
      "taf_trigger": false,
      "metar": "METAR EHBK 222255Z AUTO 15008KT 120V180 9999 OVC046/// 07/04 Q0994",
      "taf": "TAF EHBK 221719Z 2218/2324 16005KT 9999 BKN045"
    },
    {
      "icao": "EHEH",
      "alert": "OK",
      "vis_m": 9999,
      "fzfg": false,
      "metar_trigger": false,
      "taf_trigger": false,
      "metar": "METAR EHEH 222255Z AUTO 13005KT 9999 OVC045 06/03 Q0994 BLU NOSIG RMK TREND REMOTE BY EHWX",
      "taf": "TAF EHEH 221716Z 2218/2324 11005KT 9999 SCT030"
    },
    {
      "icao": "EKBI",
      "alert": "OK",
      "vis_m": 9999,
      "fzfg": false,
      "metar_trigger": false,
      "taf_trigger": false,
      "metar": "METAR EKBI 222250Z AUTO 08016KT 9999 OVC015/// M00/M03 Q1005",
      "taf": "TAF EKBI 222027Z 2221/2321 09018G32KT 9999 OVC020"
    },
    {
      "icao": "EKCH",
      "alert": "OK",
      "vis_m": 9999,
      "fzfg": false,
      "metar_trigger": false,
      "taf_trigger": false,
      "metar": "METAR EKCH 222250Z AUTO 09020KT 9999 BKN018/// 01/M03 Q1008 NOSIG",
      "taf": "TAF EKCH 222027Z 2221/2321 09020G30KT 9999 BKN020"
    },
    {
      "icao": "ENAL",
      "alert": "OK",
      "vis_m": 9999,
      "fzfg": false,
      "metar_trigger": false,
      "taf_trigger": false,
      "metar": "METAR ENAL 222250Z 11011KT CAVOK 03/M12 Q1011",
      "taf": "TAF ENAL 222000Z 2221/2306 12012KT CAVOK"
    },
    {
      "icao": "ENBR",
      "alert": "OK",
      "vis_m": 9999,
      "fzfg": false,
      "metar_trigger": false,
      "taf_trigger": false,
      "metar": "METAR ENBR 222250Z 30001KT CAVOK M02/M08 Q1010 RMK WIND 1200FT 08004KT",
      "taf": "TAF ENBR 221700Z 2218/2318 07005KT CAVOK"
    },
    {
      "icao": "ENGM",
      "alert": "OK",
      "vis_m": 9999,
      "fzfg": false,
      "metar_trigger": false,
      "taf_trigger": false,
      "metar": "METAR ENGM 222250Z 03010KT 9999 -SN BKN037 M05/M08 Q1020",
      "taf": ""
    },
    {
      "icao": "ENHD",
      "alert": "OK",
      "vis_m": 9999,
      "fzfg": false,
      "metar_trigger": false,
      "taf_trigger": false,
      "metar": "METAR ENHD 222250Z AUTO 06004KT 020V120 9999 NCD M01/M10 Q1010",
      "taf": "TAF ENHD 221400Z 2215/2223 10012KT CAVOK"
    },
    {
      "icao": "ENTC",
      "alert": "OK",
      "vis_m": 9999,
      "fzfg": false,
      "metar_trigger": false,
      "taf_trigger": false,
      "metar": "METAR ENTC 222250Z VRB02KT CAVOK M09/M10 Q1023 RMK WIND 2600FT 08005KT",
      "taf": "TAF ENTC 221700Z 2218/2318 VRB02KT 9999 FEW005"
    },
    {
      "icao": "ENTO",
      "alert": "OK",
      "vis_m": 9999,
      "fzfg": false,
      "metar_trigger": false,
      "taf_trigger": false,
      "metar": "METAR ENTO 222250Z AUTO 04011KT 9999 -SN OVC023/// M03/M07 Q1018",
      "taf": "TAF ENTO 221700Z 2218/2318 04012KT 9999 BKN020"
    },
    {
      "icao": "ENVA",
      "alert": "OK",
      "vis_m": 9999,
      "fzfg": false,
      "metar_trigger": false,
      "taf_trigger": false,
      "metar": "METAR ENVA 222250Z AUTO 08005KT 050V120 9999 NCD M05/M10 Q1021 RMK WIND 670FT 11008KT",
      "taf": "TAF ENVA 221700Z 2218/2318 11010KT CAVOK"
    },
    {
      "icao": "ENZV",
      "alert": "OK",
      "vis_m": 9999,
      "fzfg": false,
      "metar_trigger": false,
      "taf_trigger": false,
      "metar": "METAR ENZV 222250Z 11015KT CAVOK M01/M10 Q1010",
      "taf": ""
    },
    {
      "icao": "EPGD",
      "alert": "OK",
      "vis_m": 3800,
      "fzfg": false,
      "metar_trigger": false,
      "taf_trigger": false,
      "metar": "METAR EPGD 222300Z 11011KT 3800 -SG BR SCT002 BKN006 M13/M14 Q1011",
      "taf": "TAF EPGD 221730Z 2218/2318 09010KT 6000 NSC"
    },
    {
      "icao": "EPKK",
      "alert": "OK",
      "vis_m": 4900,
      "fzfg": false,
      "metar_trigger": false,
      "taf_trigger": false,
      "metar": "METAR EPKK 222300Z 06010KT 4900 BR BKN050 M06/M11 Q1004",
      "taf": "TAF EPKK 222030Z 2221/2321 07004KT 6000 BKN040"
    },
    {
      "icao": "EPKT",
      "alert": "OK",
      "vis_m": 4900,
      "fzfg": false,
      "metar_trigger": false,
      "taf_trigger": false,
      "metar": "METAR EPKT 222300Z 06008KT 4900 BR BKN039 M03/M07 Q1003",
      "taf": "TAF EPKT 221730Z 2218/2318 09004KT 7000 NSC"
    },
    {
      "icao": "EPLB",
      "alert": "OK",
      "vis_m": 5000,
      "fzfg": false,
      "metar_trigger": false,
      "taf_trigger": false,
      "metar": "METAR EPLB 222300Z 07007KT 5000 BR BKN007 OVC009 M09/M09 Q1008",
      "taf": ""
    },
    {
      "icao": "EPMO",
      "alert": "OK",
      "vis_m": 4100,
      "fzfg": false,
      "metar_trigger": false,
      "taf_trigger": false,
      "metar": "METAR EPMO 222300Z 07014KT 4100 -SN BR OVC006 M11/M11 Q1010",
      "taf": "TAF EPMO 221730Z 2218/2318 08012KT 6000 NSC"
    },
    {
      "icao": "EPPO",
      "alert": "OK",
      "vis_m": 7000,
      "fzfg": false,
      "metar_trigger": false,
      "taf_trigger": false,
      "metar": "METAR EPPO 222300Z 09012KT 7000 NSC M07/M11 Q1006",
      "taf": "TAF EPPO 221730Z 2218/2318 09007KT CAVOK"
    },
    {
      "icao": "EPRA",
      "alert": "OK",
      "vis_m": 6000,
      "fzfg": false,
      "metar_trigger": false,
      "taf_trigger": false,
      "metar": "METAR EPRA 222300Z 07008KT 6000 OVC004 M10/M11 Q1008",
      "taf": "TAF EPRA 222030Z 2221/2306 06008KT 5000 BR OVC004"
    },
    {
      "icao": "EPRZ",
      "alert": "OK",
      "vis_m": 4500,
      "fzfg": false,
      "metar_trigger": false,
      "taf_trigger": false,
      "metar": "METAR EPRZ 222300Z 08010KT 4500 -SN BR BKN005 OVC012 M08/M09 Q1006",
      "taf": "TAF EPRZ 221730Z 2218/2318 09009KT 5000 BR NSC"
    },
    {
      "icao": "EPSC",
      "alert": "OK",
      "vis_m": 7000,
      "fzfg": false,
      "metar_trigger": false,
      "taf_trigger": false,
      "metar": "METAR EPSC 222300Z 10007KT 7000 NSC M06/M11 Q1006",
      "taf": "TAF EPSC 221730Z 2218/2318 04004KT 5000 BR NSC"
    },
    {
      "icao": "EPSY",
      "alert": "OK",
      "vis_m": 5000,
      "fzfg": false,
      "metar_trigger": false,
      "taf_trigger": false,
      "metar": "METAR EPSY 222300Z 07006KT 030V110 5000 -SN BR OVC005 M12/M13 Q1011",
      "taf": "TAF EPSY 222030Z 2221/2306 09008KT 6000 BKN010"
    },
    {
      "icao": "EPWA",
      "alert": "OK",
      "vis_m": 6000,
      "fzfg": false,
      "metar_trigger": false,
      "taf_trigger": false,
      "metar": "METAR EPWA 222300Z 08009KT 6000 OVC006 M09/M10 Q1009 NOSIG",
      "taf": "TAF EPWA 222030Z 2221/2321 08010KT 6000 OVC005"
    },
    {
      "icao": "EPWR",
      "alert": "OK",
      "vis_m": 6000,
      "fzfg": false,
      "metar_trigger": false,
      "taf_trigger": false,
      "metar": "METAR EPWR 222300Z 10004KT 6000 NSC M03/M07 Q1003",
      "taf": "TAF EPWR 222030Z 2221/2321 10005KT 8000 NSC"
    },
    {
      "icao": "ESGG",
      "alert": "OK",
      "vis_m": 9999,
      "fzfg": false,
      "metar_trigger": false,
      "taf_trigger": false,
      "metar": "METAR ESGG 222250Z 09015KT 9999 BKN025 M01/M06 Q1012",
      "taf": "TAF ESGG 222030Z 2221/2321 08012G22KT 9999 OVC020"
    },
    {
      "icao": "ESKN",
      "alert": "OK",
      "vis_m": 9999,
      "fzfg": false,
      "metar_trigger": false,
      "taf_trigger": false,
      "metar": "METAR ESKN 222250Z 07011KT 9999 OVC014 M02/M05 Q1019",
      "taf": "TAF ESKN 222030Z 2221/2321 09014KT 9999 -SN SCT009 OVC016"
    },
    {
      "icao": "ESMS",
      "alert": "OK",
      "vis_m": 9999,
      "fzfg": false,
      "metar_trigger": false,
      "taf_trigger": false,
      "metar": "METAR ESMS 222250Z 08021KT 9999 OVC015 M00/M03 Q1008",
      "taf": "TAF ESMS 222027Z 2221/2321 09018G32KT 9000 BKN020"
    },
    {
      "icao": "ESSA",
      "alert": "OK",
      "vis_m": 9999,
      "fzfg": false,
      "metar_trigger": false,
      "taf_trigger": false,
      "metar": "METAR ESSA 222250Z 08011KT 9999 BKN018 M03/M07 Q1021 NOSIG",
      "taf": "TAF ESSA 222030Z 2221/2321 08012KT 9999 OVC018"
    },
    {
      "icao": "EYKA",
      "alert": "OK",
      "vis_m": 9999,
      "fzfg": false,
      "metar_trigger": false,
      "taf_trigger": false,
      "metar": "METAR EYKA 222250Z 10010KT 9999 -SN BKN021 M08/M12 Q1017",
      "taf": "TAF EYKA 222300Z 2300/2324 10008KT 9000 BKN015"
    },
    {
      "icao": "EYPA",
      "alert": "OK",
      "vis_m": 9999,
      "fzfg": false,
      "metar_trigger": false,
      "taf_trigger": false,
      "metar": "METAR EYPA 222250Z 12011G22KT 9999 OVC017 M05/M08 Q1016",
      "taf": "TAF EYPA 222300Z 2300/2324 10011KT 9000 OVC015"
    },
    {
      "icao": "EYVI",
      "alert": "OK",
      "vis_m": 9999,
      "fzfg": false,
      "metar_trigger": false,
      "taf_trigger": false,
      "metar": "METAR EYVI 222250Z 12009KT 080V150 9999 -SN OVC013 M10/M13 Q1016 NOSIG",
      "taf": "TAF EYVI 222300Z 2300/2324 10011KT 9000 BKN015"
    },
    {
      "icao": "GCFV",
      "alert": "OK",
      "vis_m": 9999,
      "fzfg": false,
      "metar_trigger": false,
      "taf_trigger": false,
      "metar": "METAR GCFV 222300Z 30004KT 260V360 9999 FEW020 18/16 Q1019",
      "taf": "TAF GCFV 222000Z 2221/2321 30005KT 9999 SCT025 TX22/2314Z TN16/2306Z"
    },
    {
      "icao": "GCLP",
      "alert": "OK",
      "vis_m": 9999,
      "fzfg": false,
      "metar_trigger": false,
      "taf_trigger": false,
      "metar": "METAR GCLP 222300Z VRB01G11KT 9999 FEW020 17/14 Q1020 NOSIG",
      "taf": "TAF GCLP 222000Z 2221/2321 35008KT 9999 BKN020 TX23/2314Z TN15/2306Z"
    },
    {
      "icao": "GCTS",
      "alert": "OK",
      "vis_m": 9999,
      "fzfg": false,
      "metar_trigger": false,
      "taf_trigger": false,
      "metar": "METAR GCTS 222300Z 04006KT 9999 SCT018 18/13 Q1021 NOSIG",
      "taf": ""
    },
    {
      "icao": "GMAD",
      "alert": "OK",
      "vis_m": 8000,
      "fzfg": false,
      "metar_trigger": false,
      "taf_trigger": false,
      "metar": "METAR GMAD 222300Z 05004KT 8000 OVC006 14/14 Q1017 NOSIG",
      "taf": "TAF GMAD 221700Z 2218/2324 24008KT 8000 SCT008 BKN016"
    },
    {
      "icao": "GMMN",
      "alert": "OK",
      "vis_m": 9999,
      "fzfg": false,
      "metar_trigger": false,
      "taf_trigger": false,
      "metar": "METAR GMMN 222300Z 21010KT 9999 FEW016 BKN030 13/11 Q1015 NOSIG",
      "taf": "TAF GMMN 221700Z 2218/2324 27010KT 8000 BKN020"
    },
    {
      "icao": "GMMX",
      "alert": "OK",
      "vis_m": 9999,
      "fzfg": false,
      "metar_trigger": false,
      "taf_trigger": false,
      "metar": "METAR GMMX 222300Z 24004KT 9999 BKN026 13/11 Q1017 NOSIG",
      "taf": "TAF GMMX 221700Z 2218/2324 24014KT 8000 SCT020 SCT080"
    },
    {
      "icao": "HEGN",
      "alert": "OK",
      "vis_m": 9999,
      "fzfg": false,
      "metar_trigger": false,
      "taf_trigger": false,
      "metar": "METAR HEGN 222300Z 00000KT CAVOK 18/15 Q1012 NOSIG",
      "taf": "TAF HEGN 222300Z 2300/2406 12012KT CAVOK"
    },
    {
      "icao": "HEMA",
      "alert": "OK",
      "vis_m": 9999,
      "fzfg": false,
      "metar_trigger": false,
      "taf_trigger": false,
      "metar": "METAR HEMA 222300Z 23006KT CAVOK 19/16 Q1012 NOSIG",
      "taf": "TAF HEMA 222300Z 2300/2406 15012KT CAVOK"
    },
    {
      "icao": "HESH",
      "alert": "OK",
      "vis_m": 9999,
      "fzfg": false,
      "metar_trigger": false,
      "taf_trigger": false,
      "metar": "METAR HESH 222300Z 36007KT CAVOK 20/11 Q1012 NOSIG",
      "taf": "TAF HESH 222300Z 2300/2406 35012KT CAVOK"
    },
    {
      "icao": "HESX",
      "alert": "OK",
      "vis_m": 9999,
      "fzfg": false,
      "metar_trigger": false,
      "taf_trigger": false,
      "metar": "METAR HESX 222300Z 27005KT CAVOK 12/07 Q1012 NOSIG",
      "taf": "TAF HESX 222300Z 2300/2406 22008KT 8000 NSC"
    },
    {
      "icao": "LATI",
      "alert": "OK",
      "vis_m": 7000,
      "fzfg": false,
      "metar_trigger": false,
      "taf_trigger": false,
      "metar": "METAR LATI 222250Z 15002KT 7000 SCT044 BKN065 09/07 Q1002 NOSIG",
      "taf": "TAF LATI 222300Z 2300/2324 VRB05KT 9999 SCT030 BKN060 TX14/2313Z TN03/2322Z"
    },
    {
      "icao": "LBPD",
      "alert": "OK",
      "vis_m": 9999,
      "fzfg": false,
      "metar_trigger": false,
      "taf_trigger": false,
      "metar": "METAR LBPD 222300Z AUTO 23003KT 9999 OVC015/// M01/M01 Q1004",
      "taf": "TAF LBPD 221700Z 2218/2318 VRB03KT 3000 BR SCT050"
    },
    {
      "icao": "LBSF",
      "alert": "OK",
      "vis_m": 7000,
      "fzfg": false,
      "metar_trigger": false,
      "taf_trigger": false,
      "metar": "METAR LBSF 222300Z AUTO 08004KT 7000 OVC015/// 01/M01 Q1003 TEMPO 4000 BR",
      "taf": "TAF LBSF 221700Z 2218/2318 VRB03KT 6000 SCT010 BKN015 OVC020"
    },
    {
      "icao": "LBWN",
      "alert": "OK",
      "vis_m": 3100,
      "fzfg": false,
      "metar_trigger": false,
      "taf_trigger": false,
      "metar": "METAR LBWN 222300Z AUTO 30003KT 260V340 3100 BR OVC033/// 03/03 Q1004 TEMPO 1500 BR",
      "taf": "TAF LBWN 221700Z 2218/2318 VRB04KT 8000 SCT015 BKN040"
    },
    {
      "icao": "LCLK",
      "alert": "OK",
      "vis_m": 9999,
      "fzfg": false,
      "metar_trigger": false,
      "taf_trigger": false,
      "metar": "METAR LCLK 222300Z 07016KT 9999 -RA FEW010 BKN020 BKN030 13/12 Q1010 NOSIG",
      "taf": "TAF LCLK 221730Z 2218/2318 04015KT 9999 SCT020"
    },
    {
      "icao": "LCPH",
      "alert": "OK",
      "vis_m": 9999,
      "fzfg": false,
      "metar_trigger": false,
      "taf_trigger": false,
      "metar": "METAR LCPH 222300Z VRB03KT 9999 -TSRA SCT030 FEW035CB BKN045 14/11 Q1009 TEMPO 3000 TSRA RMK CB TO SW",
      "taf": "TAF LCPH 221730Z 2218/2318 13015KT 9999 SCT020"
    },
    {
      "icao": "LEAL",
      "alert": "OK",
      "vis_m": 9999,
      "fzfg": false,
      "metar_trigger": false,
      "taf_trigger": false,
      "metar": "METAR LEAL 222300Z 21005KT 180V250 CAVOK 13/03 Q1005 NOSIG",
      "taf": ""
    },
    {
      "icao": "LEBB",
      "alert": "OK",
      "vis_m": 9999,
      "fzfg": false,
      "metar_trigger": false,
      "taf_trigger": false,
      "metar": "METAR LEBB 222300Z AUTO 16009G20KT 090V230 9999 FEW050 14/04 Q0991",
      "taf": "TAF LEBB 221700Z 2218/2318 20009KT 9999 FEW040 TX12/2218Z TN08/2307Z"
    },
    {
      "icao": "LEBL",
      "alert": "OK",
      "vis_m": 9999,
      "fzfg": false,
      "metar_trigger": false,
      "taf_trigger": false,
      "metar": "METAR LEBL 222300Z 30005KT 9999 FEW040 07/05 Q1000 NOSIG",
      "taf": "TAF LEBL 221700Z 2218/2318 34006KT 9999 FEW030 TX15/2313Z TN05/2303Z"
    },
    {
      "icao": "LECH",
      "alert": "OK",
      "vis_m": 9999,
      "fzfg": false,
      "metar_trigger": false,
      "taf_trigger": false,
      "metar": "METAR LECH 222300Z AUTO 21004KT CAVOK 07/00 Q1001",
      "taf": ""
    },
    {
      "icao": "LEMD",
      "alert": "OK",
      "vis_m": 4500,
      "fzfg": false,
      "metar_trigger": false,
      "taf_trigger": false,
      "metar": "SPECI LEMD 222306Z 16005KT 4500 -DZ BR BKN008 04/04 Q1002 NOSIG",
      "taf": ""
    },
    {
      "icao": "LEMG",
      "alert": "OK",
      "vis_m": 9999,
      "fzfg": false,
      "metar_trigger": false,
      "taf_trigger": false,
      "metar": "METAR LEMG 222300Z 28005KT 9999 FEW030 BKN075 11/09 Q1008 NOSIG",
      "taf": "TAF LEMG 221700Z 2218/2318 VRB03KT 9999 SCT040 TX17/2314Z TN10/2307Z"
    },
    {
      "icao": "LEVC",
      "alert": "OK",
      "vis_m": 9999,
      "fzfg": false,
      "metar_trigger": false,
      "taf_trigger": false,
      "metar": "METAR LEVC 222300Z 24014KT 9999 FEW048 11/03 Q1003 NOSIG",
      "taf": "TAF LEVC 221700Z 2218/2318 27010KT 9999 SCT040 TX16/2313Z TN07/2305Z"
    },
    {
      "icao": "LEXJ",
      "alert": "OK",
      "vis_m": 7000,
      "fzfg": false,
      "metar_trigger": false,
      "taf_trigger": false,
      "metar": "METAR LEXJ 222300Z AUTO 21017G30KT 150V250 7000 NSC 12/03 Q0989",
      "taf": "TAF LEXJ 222000Z 2221/2321 24009KT 9999 SCT040 TX14/2312Z TN08/2306Z"
    },
    {
      "icao": "LEZG",
      "alert": "OK",
      "vis_m": 9999,
      "fzfg": false,
      "metar_trigger": false,
      "taf_trigger": false,
      "metar": "METAR LEZG 222300Z 09004KT 9999 BKN080 08/03 Q0999 NOSIG",
      "taf": "TAF LEZG 221700Z 2218/2318 28008KT 9999 FEW040 TX13/2315Z TN05/2306Z"
    },
    {
      "icao": "LEZL",
      "alert": "OK",
      "vis_m": 8000,
      "fzfg": false,
      "metar_trigger": false,
      "taf_trigger": false,
      "metar": "METAR LEZL 222300Z 22016KT 190V250 8000 -RA OVC005 14/14 Q1006 RERA NOSIG",
      "taf": "TAF LEZL 222000Z 2221/2321 22012KT 9999 BKN025 TX15/2315Z TN08/2307Z"
    },
    {
      "icao": "LFBD",
      "alert": "OK",
      "vis_m": 9999,
      "fzfg": false,
      "metar_trigger": false,
      "taf_trigger": false,
      "metar": "METAR LFBD 222300Z AUTO 15011KT CAVOK 06/05 Q0992 NOSIG",
      "taf": "TAF LFBD 221700Z 2218/2324 19005KT CAVOK TX10/2314Z TN06/2223Z"
    },
    {
      "icao": "LFLL",
      "alert": "OK",
      "vis_m": 9999,
      "fzfg": false,
      "metar_trigger": false,
      "taf_trigger": false,
      "metar": "METAR LFLL 222300Z 17009KT CAVOK 05/03 Q0997 NOSIG",
      "taf": "TAF LFLL 221700Z 2218/2324 16005KT CAVOK"
    },
    {
      "icao": "LFLS",
      "alert": "OK",
      "vis_m": 6000,
      "fzfg": false,
      "metar_trigger": false,
      "taf_trigger": false,
      "metar": "METAR LFLS 222300Z AUTO 06006KT 6000 FEW001 BKN043 03/03 Q0998",
      "taf": "TAF LFLS 221400Z 2215/2315 09004KT CAVOK"
    },
    {
      "icao": "LFMN",
      "alert": "OK",
      "vis_m": 9999,
      "fzfg": false,
      "metar_trigger": false,
      "taf_trigger": false,
      "metar": "METAR LFMN 222300Z 33006KT 9999 OVC050 08/05 Q1000 NOSIG",
      "taf": "TAF LFMN 222000Z 2221/2403 34010KT 9999 BKN050"
    },
    {
      "icao": "LFOB",
      "alert": "OK",
      "vis_m": 9999,
      "fzfg": false,
      "metar_trigger": false,
      "taf_trigger": false,
      "metar": "METAR LFOB 222300Z AUTO 17006KT 9999 FEW037 05/05 Q0991 BECMG BKN007 OVC012",
      "taf": "TAF LFOB 221700Z 2218/2318 15010KT 9999 SCT025"
    },
    {
      "icao": "LFPO",
      "alert": "OK",
      "vis_m": 9999,
      "fzfg": false,
      "metar_trigger": false,
      "taf_trigger": false,
      "metar": "METAR LFPO 222300Z 18004KT 9999 FEW008 06/05 Q0992 NOSIG",
      "taf": ""
    },
    {
      "icao": "LFSB",
      "alert": "OK",
      "vis_m": 9999,
      "fzfg": false,
      "metar_trigger": false,
      "taf_trigger": false,
      "metar": "METAR LFSB 222300Z AUTO 18004KT 9999 SCT052 BKN160 BKN190 01/M00 Q0998 TEMPO 4500 BR",
      "taf": "TAF LFSB 221700Z 2218/2318 16005KT CAVOK"
    },
    {
      "icao": "LGAV",
      "alert": "OK",
      "vis_m": 9999,
      "fzfg": false,
      "metar_trigger": false,
      "taf_trigger": false,
      "metar": "METAR LGAV 222250Z 04004KT 330V080 9999 SCT025 SCT040 11/08 Q1002 NOSIG",
      "taf": "TAF LGAV 222300Z 2300/2324 35008KT 9999 FEW015 SCT025"
    },
    {
      "icao": "LGTS",
      "alert": "OK",
      "vis_m": 8000,
      "fzfg": false,
      "metar_trigger": false,
      "taf_trigger": false,
      "metar": "METAR LGTS 222250Z VRB03KT 8000 SCT010 SCT025 07/07 Q1004 NOSIG",
      "taf": "TAF LGTS 222300Z 2300/2324 VRB03KT 4000 BR SCT008"
    },
    {
      "icao": "LHBP",
      "alert": "OK",
      "vis_m": 8000,
      "fzfg": false,
      "metar_trigger": false,
      "taf_trigger": false,
      "metar": "METAR LHBP 222300Z 00000KT 8000 NSC M00/M02 Q1004 NOSIG",
      "taf": ""
    },
    {
      "icao": "LHDC",
      "alert": "OK",
      "vis_m": 6000,
      "fzfg": false,
      "metar_trigger": false,
      "taf_trigger": false,
      "metar": "METAR LHDC 222245Z AUTO VRB02KT 6000 OVC045 00/M03 Q1004",
      "taf": "TAF LHDC 221415Z 2215/2224 03006KT 8000 OVC045"
    },
    {
      "icao": "LIBD",
      "alert": "OK",
      "vis_m": 9999,
      "fzfg": false,
      "metar_trigger": false,
      "taf_trigger": false,
      "metar": "METAR LIBD 222250Z 21004KT 9999 SCT040 09/08 Q1001",
      "taf": "TAF LIBD 221700Z 2218/2318 VRB05KT 9999 SCT030"
    },
    {
      "icao": "LIBG",
      "alert": "OK",
      "vis_m": null,
      "fzfg": false,
      "metar_trigger": false,
      "taf_trigger": false,
      "metar": "",
      "taf": "TAF LIBG 221700Z 2218/2303 VRB05KT 9999 SCT020"
    },
    {
      "icao": "LIBP",
      "alert": "OK",
      "vis_m": 7000,
      "fzfg": false,
      "metar_trigger": false,
      "taf_trigger": false,
      "metar": "METAR LIBP 222250Z AUTO 22003KT 7000 OVC027/// 08/08 Q1002",
      "taf": "TAF LIBP 221700Z 2218/2318 VRB05KT 9999 BKN020"
    },
    {
      "icao": "LIBR",
      "alert": "OK",
      "vis_m": 9999,
      "fzfg": false,
      "metar_trigger": false,
      "taf_trigger": false,
      "metar": "METAR LIBR 222250Z 24005KT CAVOK 09/09 Q1001",
      "taf": "TAF LIBR 221700Z 2218/2318 VRB05KT 9999 FEW020"
    },
    {
      "icao": "LICA",
      "alert": "OK",
      "vis_m": 9999,
      "fzfg": false,
      "metar_trigger": false,
      "taf_trigger": false,
      "metar": "METAR LICA 222250Z AUTO 05003KT 9999 BKN030/// 10/09 Q1002",
      "taf": "TAF LICA 221700Z 2218/2318 VRB05KT 9999 BKN020"
    },
    {
      "icao": "LICC",
      "alert": "OK",
      "vis_m": 9999,
      "fzfg": false,
      "metar_trigger": false,
      "taf_trigger": false,
      "metar": "METAR LICC 222250Z 24006KT CAVOK 08/06 Q1002",
      "taf": "TAF LICC 221700Z 2218/2318 26008KT 7000 SCT030"
    },
    {
      "icao": "LICJ",
      "alert": "OK",
      "vis_m": 9999,
      "fzfg": false,
      "metar_trigger": false,
      "taf_trigger": false,
      "metar": "METAR LICJ 222250Z VRB01KT CAVOK 13/07 Q1000",
      "taf": "TAF LICJ 221700Z 2218/2318 16008KT 9999 FEW030"
    },
    {
      "icao": "LIMC",
      "alert": "OK",
      "vis_m": 200,
      "fzfg": true,
      "metar_trigger": false,
      "taf_trigger": false,
      "metar": "METAR LIMC 222250Z 01002KT 0200 R35R/0600U R17L/0650N R35L/0500N FZFG OVC001 M01/M01 Q1001 NOSIG",
      "taf": ""
    },
    {
      "icao": "LIME",
      "alert": "OK",
      "vis_m": 7000,
      "fzfg": false,
      "metar_trigger": false,
      "taf_trigger": false,
      "metar": "METAR LIME 222250Z VRB01KT 7000 2500S VCFG NSC M01/M01 Q1001 NOSIG",
      "taf": ""
    },
    {
      "icao": "LIMF",
      "alert": "CRITICAL",
      "vis_m": 100,
      "fzfg": true,
      "metar_trigger": true,
      "taf_trigger": false,
      "metar": "METAR LIMF 222250Z 12003KT 0100 R36/0225N FZFG VV001 M01/M02 Q1001",
      "taf": ""
    },
    {
      "icao": "LIMJ",
      "alert": "OK",
      "vis_m": 9999,
      "fzfg": false,
      "metar_trigger": false,
      "taf_trigger": false,
      "metar": "METAR LIMJ 222250Z 04009KT 9999 BKN050 08/M00 Q1000",
      "taf": "TAF LIMJ 221700Z 2218/2318 03014KT 9999 FEW040"
    },
    {
      "icao": "LIPE",
      "alert": "OK",
      "vis_m": 6000,
      "fzfg": false,
      "metar_trigger": false,
      "taf_trigger": false,
      "metar": "METAR LIPE 222250Z 24003KT 6000 NSC 02/00 Q1002",
      "taf": "TAF LIPE 221700Z 2218/2318 VRB05KT 7000 BKN030"
    },
    {
      "icao": "LIPH",
      "alert": "OK",
      "vis_m": 9999,
      "fzfg": false,
      "metar_trigger": false,
      "taf_trigger": false,
      "metar": "METAR LIPH 222250Z AUTO VRB02KT 9999 FEW050/// 02/M04 Q1002",
      "taf": "TAF LIPH 221700Z 2218/2318 VRB05KT 9999 SCT060"
    },
    {
      "icao": "LIPQ",
      "alert": "OK",
      "vis_m": 9999,
      "fzfg": false,
      "metar_trigger": false,
      "taf_trigger": false,
      "metar": "METAR LIPQ 222250Z AUTO VRB01KT 9999 OVC048/// 01/M01 Q1002",
      "taf": "TAF LIPQ 221700Z 2218/2318 VRB05KT 9999 BKN050"
    },
    {
      "icao": "LIPR",
      "alert": "OK",
      "vis_m": 7000,
      "fzfg": false,
      "metar_trigger": false,
      "taf_trigger": false,
      "metar": "METAR LIPR 222250Z AUTO VRB01KT 7000 OVC017/// 05/03 Q1002",
      "taf": "TAF LIPR 221700Z 2218/2318 VRB05KT 9999 BKN020"
    },
    {
      "icao": "LIPX",
      "alert": "OK",
      "vis_m": 1500,
      "fzfg": false,
      "metar_trigger": false,
      "taf_trigger": false,
      "metar": "METAR LIPX 222250Z VRB02KT 1500 R04/1400U BCFG SCT004 BKN060 M02/M03 Q1002",
      "taf": ""
    },
    {
      "icao": "LIPY",
      "alert": "OK",
      "vis_m": 9999,
      "fzfg": false,
      "metar_trigger": false,
      "taf_trigger": false,
      "metar": "METAR LIPY 222250Z AUTO 22002KT 9999 OVC021/// 06/03 Q1002",
      "taf": "TAF LIPY 221700Z 2218/2318 28006KT 9999 SCT030"
    },
    {
      "icao": "LIPZ",
      "alert": "OK",
      "vis_m": 9999,
      "fzfg": false,
      "metar_trigger": false,
      "taf_trigger": false,
      "metar": "METAR LIPZ 222250Z VRB02KT 9999 BKN045 04/00 Q1002 NOSIG",
      "taf": "TAF LIPZ 221700Z 2218/2324 VRB05KT 9999 SCT050"
    },
    {
      "icao": "LIRF",
      "alert": "OK",
      "vis_m": 9999,
      "fzfg": false,
      "metar_trigger": false,
      "taf_trigger": false,
      "metar": "METAR LIRF 222250Z 08005KT CAVOK 04/03 Q1001 NOSIG",
      "taf": "TAF LIRF 221700Z 2218/2324 VRB05KT 9999 FEW040"
    },
    {
      "icao": "LIRN",
      "alert": "OK",
      "vis_m": 9999,
      "fzfg": false,
      "metar_trigger": false,
      "taf_trigger": false,
      "metar": "METAR LIRN 222250Z VRB02KT 9999 SCT040 10/07 Q1001 NOSIG",
      "taf": "TAF LIRN 221700Z 2218/2318 VRB05KT 9999 SCT050"
    },
    {
      "icao": "LIRP",
      "alert": "OK",
      "vis_m": 9999,
      "fzfg": false,
      "metar_trigger": false,
      "taf_trigger": false,
      "metar": "METAR LIRP 222245Z 11003KT 9999 SCT080 05/05 Q1000 NOSIG",
      "taf": "TAF LIRP 221700Z 2218/2318 VRB03KT CAVOK"
    },
    {
      "icao": "LIRZ",
      "alert": "OK",
      "vis_m": 9999,
      "fzfg": false,
      "metar_trigger": false,
      "taf_trigger": false,
      "metar": "METAR LIRZ 222250Z AUTO VRB02KT 9999 FEW047/// 05/04 Q1001",
      "taf": "TAF LIRZ 221700Z 2218/2318 VRB05KT 9999 BKN045"
    },
    {
      "icao": "LJLJ",
      "alert": "OK",
      "vis_m": 9999,
      "fzfg": false,
      "metar_trigger": false,
      "taf_trigger": false,
      "metar": "METAR LJLJ 222300Z 31003KT 9999 FEW045 M06/M07 Q1002 NOSIG",
      "taf": "TAF LJLJ 222300Z 2300/2400 12003KT 9999 SCT045"
    },
    {
      "icao": "LKMT",
      "alert": "OK",
      "vis_m": 9999,
      "fzfg": false,
      "metar_trigger": false,
      "taf_trigger": false,
      "metar": "METAR LKMT 222300Z VRB01KT 9999 OVC038 M01/M04 Q1003 NOSIG",
      "taf": "TAF LKMT 221700Z 2218/2318 VRB02KT 9999 SCT025 OVC035"
    },
    {
      "icao": "LKPR",
      "alert": "OK",
      "vis_m": 9000,
      "fzfg": false,
      "metar_trigger": false,
      "taf_trigger": false,
      "metar": "METAR LKPR 222300Z 15005KT 100V170 9000 OVC013 M07/M09 Q1002 NOSIG",
      "taf": "TAF LKPR 222000Z 2221/2403 14005KT 9999 BKN017"
    },
    {
      "icao": "LLBG",
      "alert": "OK",
      "vis_m": 9999,
      "fzfg": false,
      "metar_trigger": false,
      "taf_trigger": false,
      "metar": "METAR LLBG 222250Z 11005KT 9999 FEW030 15/09 Q1009 NOSIG",
      "taf": "TAF LLBG 221706Z 2218/2318 13010KT CAVOK"
    },
    {
      "icao": "LMML",
      "alert": "OK",
      "vis_m": 9999,
      "fzfg": false,
      "metar_trigger": false,
      "taf_trigger": false,
      "metar": "METAR LMML 222245Z 22012KT 9999 SCT025TCU 14/10 Q1002 TEMPO 8000 SHRA",
      "taf": "TAF LMML 222300Z 2300/2324 24012KT 9999 SCT020"
    },
    {
      "icao": "LOWW",
      "alert": "OK",
      "vis_m": 6000,
      "fzfg": false,
      "metar_trigger": false,
      "taf_trigger": false,
      "metar": "METAR LOWW 222250Z 14007KT 6000 FEW007 BKN008 M04/M06 Q1003 NOSIG",
      "taf": "TAF LOWW 222015Z 2221/2403 13005KT 6000 OVC010 TXM00/2323Z TNM06/2303Z"
    },
    {
      "icao": "LPFR",
      "alert": "OK",
      "vis_m": 4000,
      "fzfg": false,
      "metar_trigger": false,
      "taf_trigger": false,
      "metar": "METAR LPFR 222300Z 23018KT 4000 RADZ BR BKN007 BKN012 16/15 Q1006",
      "taf": ""
    },
    {
      "icao": "LPMA",
      "alert": "OK",
      "vis_m": 9999,
      "fzfg": false,
      "metar_trigger": false,
      "taf_trigger": false,
      "metar": "METAR LPMA 222300Z 29006KT 9999 FEW015 17/11 Q1018",
      "taf": "TAF LPMA 221700Z 2218/2318 VRB05KT 9999 SCT015"
    },
    {
      "icao": "LPPR",
      "alert": "OK",
      "vis_m": 9999,
      "fzfg": false,
      "metar_trigger": false,
      "taf_trigger": false,
      "metar": "METAR LPPR 222300Z 29010KT 250V330 9999 VCSH SCT023 FEW025TCU BKN040 12/07 Q1000",
      "taf": "TAF LPPR 221700Z 2218/2318 17018KT 2000 RADZ BR SCT002 BKN004"
    },
    {
      "icao": "LPPS",
      "alert": "OK",
      "vis_m": 9999,
      "fzfg": false,
      "metar_trigger": false,
      "taf_trigger": false,
      "metar": "METAR LPPS 222300Z 28016KT 9999 FEW014 17/15 Q1017",
      "taf": "TAF LPPS 221700Z 2218/2324 30015KT 9999 SCT015 SCT030"
    },
    {
      "icao": "LPPT",
      "alert": "OK",
      "vis_m": 9999,
      "fzfg": false,
      "metar_trigger": false,
      "taf_trigger": false,
      "metar": "METAR LPPT 222300Z 30017G29KT 260V320 9999 FEW006 13/10 Q1004 WS R20",
      "taf": "TAF LPPT 221700Z 2218/2324 22015KT 5000 -RADZ BR SCT006 BKN012"
    },
    {
      "icao": "LQBK",
      "alert": "OK",
      "vis_m": 7000,
      "fzfg": false,
      "metar_trigger": false,
      "taf_trigger": false,
      "metar": "METAR LQBK 222300Z 33003KT 7000 OVC045 M01/M02 Q1004 NOSIG",
      "taf": "TAF LQBK 222300Z 2300/2324 VRB02KT 7000 SCT045 TX03/2313Z TNM01/2306Z"
    },
    {
      "icao": "LQSA",
      "alert": "OK",
      "vis_m": 2000,
      "fzfg": false,
      "metar_trigger": false,
      "taf_trigger": false,
      "metar": "METAR LQSA 222300Z VRB01KT 2000 BR NSC M01/M01 Q1002",
      "taf": "TAF LQSA 222300Z 2300/2324 VRB02KT 2000 BR FEW010 SCT045 TX04/2314Z TNM02/2305Z"
    },
    {
      "icao": "LQTZ",
      "alert": "OK",
      "vis_m": 1500,
      "fzfg": false,
      "metar_trigger": false,
      "taf_trigger": false,
      "metar": "METAR LQTZ 222300Z 00000KT 1500 R09/1100D BR BKN055 M00/M00 Q1003",
      "taf": "TAF LQTZ 222300Z 2300/2324 VRB02KT 6000 FEW005 BKN040 TX05/2313Z TNM03/2303Z"
    },
    {
      "icao": "LRBC",
      "alert": "OK",
      "vis_m": 4900,
      "fzfg": false,
      "metar_trigger": false,
      "taf_trigger": false,
      "metar": "METAR LRBC 222300Z 17006KT 4900 -RA BR BKN001 OVC008 01/01 Q1006",
      "taf": "TAF LRBC 222000Z 2221/2306 16006KT 1500 -RA BR BKN005 OVC020"
    },
    {
      "icao": "LRBS",
      "alert": "OK",
      "vis_m": 800,
      "fzfg": false,
      "metar_trigger": false,
      "taf_trigger": false,
      "metar": "METAR LRBS 222300Z VRB02KT 0800 R07/2000D -DZ FG VV001 01/01 Q1005 NOSIG",
      "taf": "TAF LRBS 221700Z 2218/2318 VRB04KT 0800 FG OVC002"
    },
    {
      "icao": "LRBV",
      "alert": "OK",
      "vis_m": 3300,
      "fzfg": false,
      "metar_trigger": false,
      "taf_trigger": false,
      "metar": "METAR LRBV 222300Z AUTO VRB02KT 3300 BR BKN006/// OVC050/// 00/M00 Q1002",
      "taf": ""
    },
    {
      "icao": "LRCL",
      "alert": "OK",
      "vis_m": 1500,
      "fzfg": false,
      "metar_trigger": false,
      "taf_trigger": false,
      "metar": "METAR LRCL 222300Z 09003KT 1500 -SN BR BKN006 OVC020 M01/M02 Q1004",
      "taf": "TAF LRCL 222000Z 2221/2306 VRB04KT 3000 -SN BR BKN010 OVC030"
    },
    {
      "icao": "LRCV",
      "alert": "OK",
      "vis_m": 600,
      "fzfg": true,
      "metar_trigger": false,
      "taf_trigger": false,
      "metar": "METAR LRCV 222300Z 03003KT 0600 R26/1500D FG VV002 00/00 Q1005",
      "taf": "TAF LRCV 222000Z 2221/2306 VRB04KT 0350 FZFG VV002"
    },
    {
      "icao": "LRIA",
      "alert": "OK",
      "vis_m": 9000,
      "fzfg": false,
      "metar_trigger": false,
      "taf_trigger": false,
      "metar": "METAR LRIA 222300Z 11008KT 9000 -RA SCT005 BKN010 00/M01 Q1007",
      "taf": "TAF LRIA 222000Z 2221/2306 11010KT 9999 BKN010 OVC020"
    },
    {
      "icao": "LROP",
      "alert": "OK",
      "vis_m": 600,
      "fzfg": false,
      "metar_trigger": false,
      "taf_trigger": false,
      "metar": "METAR LROP 222300Z 22003KT 0600 R08R/0800N R08L/0750N -DZ FG VV003 01/01 Q1005 NOSIG",
      "taf": "TAF LROP 221700Z 2218/2318 VRB04KT 0800 FG OVC002"
    },
    {
      "icao": "LRSB",
      "alert": "OK",
      "vis_m": 8000,
      "fzfg": false,
      "metar_trigger": false,
      "taf_trigger": false,
      "metar": "METAR LRSB 222300Z 33002KT 8000 OVC032 M01/M03 Q1003",
      "taf": "TAF LRSB 221700Z 2218/2318 VRB04KT 9999 BKN070"
    },
    {
      "icao": "LRSM",
      "alert": "OK",
      "vis_m": 5000,
      "fzfg": false,
      "metar_trigger": false,
      "taf_trigger": false,
      "metar": "METAR LRSM 222300Z AUTO VRB01KT 5000 BR OVC033/// M00/M02 Q1004",
      "taf": "TAF LRSM 221400Z 2215/2224 VRB04KT CAVOK"
    },
    {
      "icao": "LRSV",
      "alert": "OK",
      "vis_m": 300,
      "fzfg": true,
      "metar_trigger": false,
      "taf_trigger": false,
      "metar": "METAR LRSV 222300Z 10005KT 050V110 0300 R34/0800N -SN FZFG VV002 M00/M00 Q1004",
      "taf": "TAF LRSV 222000Z 2221/2306 12006KT 0200 -SN FG BKN001 OVC005"
    },
    {
      "icao": "LRTM",
      "alert": "OK",
      "vis_m": 1900,
      "fzfg": false,
      "metar_trigger": false,
      "taf_trigger": false,
      "metar": "METAR LRTM 222300Z AUTO 25003KT 1900 -SN BR SCT008/// BKN013/// OVC023/// M02/M02 Q1004",
      "taf": "TAF LRTM 221400Z 2215/2224 VRB04KT 3000 -SN BR BKN040"
    },
    {
      "icao": "LRTR",
      "alert": "OK",
      "vis_m": 5000,
      "fzfg": false,
      "metar_trigger": false,
      "taf_trigger": false,
      "metar": "METAR LRTR 222300Z 12004KT 5000 BR OVC042 01/00 Q1004 NOSIG",
      "taf": "TAF LRTR 221700Z 2218/2318 VRB04KT 9999 OVC045"
    },
    {
      "icao": "LTAC",
      "alert": "OK",
      "vis_m": 6000,
      "fzfg": false,
      "metar_trigger": false,
      "taf_trigger": false,
      "metar": "METAR LTAC 222250Z VRB02KT 6000 FEW013 BKN025 BKN080 M01/M01 Q1007 RESN TEMPO 4000",
      "taf": "TAF LTAC 222240Z 2300/2324 VRB02KT 9999 SCT035 BKN090"
    },
    {
      "icao": "LTFM",
      "alert": "OK",
      "vis_m": 9999,
      "fzfg": false,
      "metar_trigger": false,
      "taf_trigger": false,
      "metar": "METAR LTFM 222250Z 20010KT 9999 SCT040 BKN100 08/07 Q1003 NOSIG RMK RWY17L 20013KT RWY34L 21008KT RWY16R 20010KT RWY36 20011KT RWY18 20016KT",
      "taf": "TAF LTFM 222240Z 2300/2406 20010KT 9999 SCT040 BKN100"
    },
    {
      "icao": "LUKK",
      "alert": "OK",
      "vis_m": 9999,
      "fzfg": false,
      "metar_trigger": false,
      "taf_trigger": false,
      "metar": "METAR LUKK 222300Z 09011KT 9999 OVC005 M02/M03 Q1008 NOSIG",
      "taf": "TAF LUKK 221721Z 2218/2318 09008KT 9999 BKN008 OVC015"
    },
    {
      "icao": "LWOH",
      "alert": "OK",
      "vis_m": null,
      "fzfg": false,
      "metar_trigger": false,
      "taf_trigger": false,
      "metar": "",
      "taf": "TAF LWOH 222035Z 2221/2321 VRB02KT 9999 BKN040"
    },
    {
      "icao": "LWSK",
      "alert": "OK",
      "vis_m": 4000,
      "fzfg": false,
      "metar_trigger": false,
      "taf_trigger": false,
      "metar": "METAR LWSK 222250Z VRB01KT 4000 BR OVC034 00/M00 Q1005 NOSIG",
      "taf": "TAF LWSK 222035Z 2221/2321 VRB02KT 4000 BR BKN030"
    },
    {
      "icao": "LYBE",
      "alert": "OK",
      "vis_m": 4000,
      "fzfg": false,
      "metar_trigger": false,
      "taf_trigger": false,
      "metar": "METAR LYBE 222300Z 26003KT 4000 BR NSC M02/M04 Q1004 TEMPO 2500",
      "taf": ""
    },
    {
      "icao": "LYNI",
      "alert": "OK",
      "vis_m": 9999,
      "fzfg": false,
      "metar_trigger": false,
      "taf_trigger": false,
      "metar": "METAR LYNI 222300Z 12002KT CAVOK 01/M01 Q1004 NOSIG",
      "taf": "TAF LYNI 221700Z 2218/2318 09007KT 9999 SCT050 BKN090 TX10/2313Z TNM01/2305Z"
    },
    {
      "icao": "LYPG",
      "alert": "OK",
      "vis_m": 6000,
      "fzfg": false,
      "metar_trigger": false,
      "taf_trigger": false,
      "metar": "METAR LYPG 222300Z 00000KT 6000 FEW014 BKN034 OVC070 06/06 Q1003 NOSIG",
      "taf": "TAF LYPG 221700Z 2218/2318 16006KT 9999 FEW013 BKN040 OVC080 TX12/2313Z TN05/2305Z"
    },
    {
      "icao": "LZIB",
      "alert": "OK",
      "vis_m": 3200,
      "fzfg": false,
      "metar_trigger": false,
      "taf_trigger": false,
      "metar": "METAR LZIB 222300Z 07002KT 3200 BR FEW006 BKN014 BKN020 M03/M04 Q1004 TEMPO 2500 BR BKN006",
      "taf": ""
    },
    {
      "icao": "LZKZ",
      "alert": "OK",
      "vis_m": 4000,
      "fzfg": false,
      "metar_trigger": false,
      "taf_trigger": false,
      "metar": "METAR LZKZ 222300Z 35003KT 4000 BR FEW007 M01/M02 Q1004 NOSIG",
      "taf": ""
    },
    {
      "icao": "LZTT",
      "alert": "OK",
      "vis_m": 8000,
      "fzfg": false,
      "metar_trigger": false,
      "taf_trigger": false,
      "metar": "METAR LZTT 222300Z 00000KT 8000 -SN BKN013 M03/M03 Q1001",
      "taf": ""
    },
    {
      "icao": "OEJN",
      "alert": "OK",
      "vis_m": 9999,
      "fzfg": false,
      "metar_trigger": false,
      "taf_trigger": false,
      "metar": "METAR OEJN 222300Z 10004KT CAVOK 26/20 Q1012 NOSIG",
      "taf": "TAF OEJN 221700Z 2218/2324 13004KT 7000 FEW030"
    },
    {
      "icao": "OEMA",
      "alert": "OK",
      "vis_m": 8000,
      "fzfg": false,
      "metar_trigger": false,
      "taf_trigger": false,
      "metar": "METAR OEMA 222300Z 07008KT 8000 NSC 17/M04 Q1019 NOSIG",
      "taf": "TAF OEMA 221700Z 2218/2324 09014KT 7000 NSC"
    },
    {
      "icao": "OJAI",
      "alert": "OK",
      "vis_m": 3000,
      "fzfg": false,
      "metar_trigger": false,
      "taf_trigger": false,
      "metar": "METAR OJAI 222300Z 03005KT 3000 HZ NSC 10/M02 Q1012 NOSIG",
      "taf": "TAF OJAI 221700Z 2218/2324 18012KT 3000 HZ SCT035"
    },
    {
      "icao": "OMAA",
      "alert": "OK",
      "vis_m": 9999,
      "fzfg": false,
      "metar_trigger": false,
      "taf_trigger": false,
      "metar": "METAR OMAA 222300Z 01004KT CAVOK 16/00 Q1021 NOSIG",
      "taf": "TAF OMAA 222300Z 2300/2406 06006KT 8000 NSC"
    },
    {
      "icao": "OMDB",
      "alert": "OK",
      "vis_m": 9999,
      "fzfg": false,
      "metar_trigger": false,
      "taf_trigger": false,
      "metar": "METAR OMDB 222300Z 06005KT 030V090 CAVOK 15/01 Q1021 NOSIG",
      "taf": "TAF OMDB 222300Z 2300/2406 06006KT 8000 NSC"
    },
    {
      "icao": "UAAA",
      "alert": "OK",
      "vis_m": 2700,
      "fzfg": false,
      "metar_trigger": false,
      "taf_trigger": false,
      "metar": "METAR UAAA 222300Z 25003MPS 2700 -SHSN BR BKN034CB OVC100 M03/M04 Q1020 NOSIG",
      "taf": "TAF UAAA 221701Z 2218/2318 32003MPS 3100 -SHSN BR BKN011CB OVC050 TXM04/2308Z TNM10/2302Z"
    },
    {
      "icao": "UBBB",
      "alert": "OK",
      "vis_m": 9999,
      "fzfg": false,
      "metar_trigger": false,
      "taf_trigger": false,
      "metar": "METAR UBBB 222300Z 30006KT CAVOK 02/M00 Q1014 NOSIG",
      "taf": "TAF UBBB 222301Z 2300/2324 31005KT CAVOK TX07/2310Z TNM00/2301Z"
    },
    {
      "icao": "UDSG",
      "alert": "OK",
      "vis_m": 9000,
      "fzfg": false,
      "metar_trigger": false,
      "taf_trigger": false,
      "metar": "METAR UDSG 222300Z 30002KT 9000 BKN046 M11/M13 Q1016 NOSIG",
      "taf": "TAF UDSG 221658Z 2218/2318 VRB06KT 9999 BKN040"
    },
    {
      "icao": "UDYZ",
      "alert": "OK",
      "vis_m": 6000,
      "fzfg": false,
      "metar_trigger": false,
      "taf_trigger": false,
      "metar": "METAR UDYZ 222300Z 25001KT 6000 FEW046 M05/M09 Q1019 NOSIG",
      "taf": "TAF UDYZ 221700Z 2218/2318 VRB04KT 9999 FEW040"
    },
    {
      "icao": "UGKO",
      "alert": "OK",
      "vis_m": 9999,
      "fzfg": false,
      "metar_trigger": false,
      "taf_trigger": false,
      "metar": "METAR UGKO 222300Z 08016KT 9999 BKN079 07/M06 Q1009 NOSIG",
      "taf": "TAF UGKO 221700Z 2218/2318 08017KT CAVOK TX09/2311Z TN05/2303Z"
    }
  ]
}