{
  "ts_utc": "2026-07-07T13:39:04Z",
  "threshold_m": 150,
  "source": "stations_override.txt (ICAO list) + aviationweather.gov (METAR/TAF raw)",
  "station_count": 159,
  "stations": [
    {
      "icao": "BIKF",
      "alert": "OK",
      "vis_m": 9999,
      "fzfg": false,
      "metar_trigger": false,
      "taf_trigger": false,
      "metar": "METAR BIKF 071330Z 12026G36KT 9999 OVC014 11/09 Q0998",
      "taf": "TAF BIKF 071331Z 0715/0815 13025G35KT 9999 -DZRA OVC014 TX11/0718Z TN08/0806Z"
    },
    {
      "icao": "BKPR",
      "alert": "OK",
      "vis_m": 9999,
      "fzfg": false,
      "metar_trigger": false,
      "taf_trigger": false,
      "metar": "METAR BKPR 071330Z 34005KT 320V020 9999 FEW060 27/13 Q1018 NOSIG",
      "taf": "TAF BKPR 071130Z 0712/0812 33008KT 9999 SCT050"
    },
    {
      "icao": "EBCI",
      "alert": "OK",
      "vis_m": 9999,
      "fzfg": false,
      "metar_trigger": false,
      "taf_trigger": false,
      "metar": "METAR EBCI 071320Z 29010KT 260V330 CAVOK 29/08 Q1016 NOSIG",
      "taf": "TAF EBCI 071100Z 0712/0818 28010KT CAVOK"
    },
    {
      "icao": "EDDB",
      "alert": "OK",
      "vis_m": 9999,
      "fzfg": false,
      "metar_trigger": false,
      "taf_trigger": false,
      "metar": "METAR EDDB 071320Z AUTO 26020KT CAVOK 24/12 Q1007 TEMPO 27015G25KT",
      "taf": "TAF EDDB 071100Z 0712/0812 27015G25KT 9999 FEW030 BKN045"
    },
    {
      "icao": "EDDH",
      "alert": "OK",
      "vis_m": 5000,
      "fzfg": false,
      "metar_trigger": false,
      "taf_trigger": false,
      "metar": "METAR EDDH 071320Z AUTO 28015KT 250V320 5000 -RADZ BR SCT007 BKN010 BKN018 16/15 Q1008 RERA TEMPO 28020G30KT 3000 DZ BKN008",
      "taf": "TAF EDDH 071100Z 0712/0818 28015G25KT 9999 BKN020"
    },
    {
      "icao": "EDDK",
      "alert": "OK",
      "vis_m": 9999,
      "fzfg": false,
      "metar_trigger": false,
      "taf_trigger": false,
      "metar": "METAR EDDK 071320Z AUTO 30020KT 260V320 CAVOK 29/10 Q1013 TEMPO 30020G30KT",
      "taf": "TAF EDDK 071100Z 0712/0818 29015G25KT CAVOK"
    },
    {
      "icao": "EDDN",
      "alert": "OK",
      "vis_m": 9999,
      "fzfg": false,
      "metar_trigger": false,
      "taf_trigger": false,
      "metar": "METAR EDDN 071320Z AUTO 27017KT 240V320 CAVOK 29/06 Q1013 TEMPO 27020G35KT",
      "taf": "TAF EDDN 071100Z 0712/0812 27015G25KT CAVOK"
    },
    {
      "icao": "EDDS",
      "alert": "OK",
      "vis_m": 9999,
      "fzfg": false,
      "metar_trigger": false,
      "taf_trigger": false,
      "metar": "METAR EDDS 071320Z AUTO 28018KT 250V310 CAVOK 32/06 Q1016 NOSIG",
      "taf": "TAF EDDS 071100Z 0712/0812 26015G30KT CAVOK"
    },
    {
      "icao": "EDFH",
      "alert": "OK",
      "vis_m": 9999,
      "fzfg": false,
      "metar_trigger": false,
      "taf_trigger": false,
      "metar": "METAR EDFH 071320Z 26017KT 230V290 CAVOK 28/06 Q1016",
      "taf": "TAF EDFH 071100Z 0712/0812 27015G25KT CAVOK"
    },
    {
      "icao": "EDJA",
      "alert": "OK",
      "vis_m": 9999,
      "fzfg": false,
      "metar_trigger": false,
      "taf_trigger": false,
      "metar": "METAR EDJA 071320Z 24018G30KT CAVOK 27/09 Q1018",
      "taf": "TAF EDJA 071100Z 0712/0721 25020G30KT CAVOK"
    },
    {
      "icao": "EDLW",
      "alert": "OK",
      "vis_m": 9999,
      "fzfg": false,
      "metar_trigger": false,
      "taf_trigger": false,
      "metar": "METAR EDLW 071320Z 26011KT 220V300 CAVOK 27/12 Q1012",
      "taf": "TAF EDLW 071100Z 0712/0812 25013KT CAVOK"
    },
    {
      "icao": "EDNY",
      "alert": "OK",
      "vis_m": 9999,
      "fzfg": false,
      "metar_trigger": false,
      "taf_trigger": false,
      "metar": "METAR EDNY 071320Z 24011KT 220V290 CAVOK 30/12 Q1018",
      "taf": "TAF EDNY 071100Z 0712/0721 24010KT CAVOK"
    },
    {
      "icao": "EDSB",
      "alert": "OK",
      "vis_m": 9999,
      "fzfg": false,
      "metar_trigger": false,
      "taf_trigger": false,
      "metar": "METAR EDSB 071320Z 25009KT 210V310 CAVOK 33/08 Q1015",
      "taf": "TAF EDSB 071100Z 0712/0812 24010KT CAVOK"
    },
    {
      "icao": "EETN",
      "alert": "OK",
      "vis_m": 9999,
      "fzfg": false,
      "metar_trigger": false,
      "taf_trigger": false,
      "metar": "METAR EETN 071320Z 26011KT 220V280 9999 SCT041 17/08 Q0996 NOSIG",
      "taf": "TAF EETN 071130Z 0712/0812 27014KT 9999 SCT025"
    },
    {
      "icao": "EFTU",
      "alert": "OK",
      "vis_m": 9999,
      "fzfg": false,
      "metar_trigger": false,
      "taf_trigger": false,
      "metar": "METAR EFTU 071320Z AUTO 28008KT 250V330 9999 FEW025 16/10 Q0995",
      "taf": "TAF EFTU 071134Z 0712/0812 28010KT 9999 FEW024"
    },
    {
      "icao": "EGBB",
      "alert": "OK",
      "vis_m": 9999,
      "fzfg": false,
      "metar_trigger": false,
      "taf_trigger": false,
      "metar": "METAR EGBB 071320Z 29007KT 180V330 CAVOK 28/12 Q1017",
      "taf": "TAF EGBB 071057Z 0712/0812 29007KT 9999 FEW045"
    },
    {
      "icao": "EGGP",
      "alert": "OK",
      "vis_m": 9999,
      "fzfg": false,
      "metar_trigger": false,
      "taf_trigger": false,
      "metar": "METAR EGGP 071320Z 30014KT 9999 SCT041 22/12 Q1018",
      "taf": "TAF EGGP 071055Z 0712/0812 27012KT 9999 SCT045"
    },
    {
      "icao": "EGGW",
      "alert": "OK",
      "vis_m": 9999,
      "fzfg": false,
      "metar_trigger": false,
      "taf_trigger": false,
      "metar": "METAR EGGW 071320Z AUTO 28013KT 9999 NCD 29/11 Q1016",
      "taf": "TAF EGGW 071100Z 0712/0812 26010KT CAVOK"
    },
    {
      "icao": "EGKK",
      "alert": "OK",
      "vis_m": 9999,
      "fzfg": false,
      "metar_trigger": false,
      "taf_trigger": false,
      "metar": "METAR EGKK 071320Z 28010KT 240V320 CAVOK 30/11 Q1016",
      "taf": "TAF EGKK 071058Z 0712/0818 29010KT CAVOK"
    },
    {
      "icao": "EGNM",
      "alert": "OK",
      "vis_m": 9999,
      "fzfg": false,
      "metar_trigger": false,
      "taf_trigger": false,
      "metar": "METAR EGNM 071320Z 26012KT 9999 SCT014 SCT019 18/14 Q1017",
      "taf": ""
    },
    {
      "icao": "EGPD",
      "alert": "OK",
      "vis_m": 9999,
      "fzfg": false,
      "metar_trigger": false,
      "taf_trigger": false,
      "metar": "METAR EGPD 071320Z AUTO 33008KT 9999 -RA BKN021 OVC032 18/14 Q1012",
      "taf": "TAF EGPD 071101Z 0712/0812 31010KT 9999 SCT020 BKN035"
    },
    {
      "icao": "EGPF",
      "alert": "OK",
      "vis_m": 9999,
      "fzfg": false,
      "metar_trigger": false,
      "taf_trigger": false,
      "metar": "METAR EGPF 071320Z AUTO 26009KT 9999 BKN016 BKN023 17/14 Q1015",
      "taf": "TAF EGPF 071055Z 0712/0812 25009KT 9999 BKN018"
    },
    {
      "icao": "EHBK",
      "alert": "OK",
      "vis_m": 9999,
      "fzfg": false,
      "metar_trigger": false,
      "taf_trigger": false,
      "metar": "METAR EHBK 071325Z AUTO 27008KT 210V340 9999 NSC 27/12 Q1014 NOSIG",
      "taf": "TAF EHBK 071110Z 0712/0818 26013KT CAVOK"
    },
    {
      "icao": "EHEH",
      "alert": "OK",
      "vis_m": 9999,
      "fzfg": false,
      "metar_trigger": false,
      "taf_trigger": false,
      "metar": "METAR EHEH 071325Z AUTO 28011G22KT 230V350 9999 OVC160 27/12 Q1014 BLU NOSIG RMK TREND REMOTE BY EHWX",
      "taf": "TAF EHEH 071104Z 0712/0818 28012KT CAVOK"
    },
    {
      "icao": "EKBI",
      "alert": "OK",
      "vis_m": 9999,
      "fzfg": false,
      "metar_trigger": false,
      "taf_trigger": false,
      "metar": "METAR EKBI 071320Z AUTO 29020KT 9999 SCT024/// 17/11 Q1004",
      "taf": "TAF EKBI 071127Z 0712/0812 28016KT 9999 RADZ BKN010"
    },
    {
      "icao": "EKCH",
      "alert": "OK",
      "vis_m": 9999,
      "fzfg": false,
      "metar_trigger": false,
      "taf_trigger": false,
      "metar": "METAR EKCH 071320Z AUTO 28016KT 9999 SCT020/// BKN066/// 17/13 Q1000 TEMPO 28018G28KT",
      "taf": "TAF EKCH 071127Z 0712/0812 28015KT 9999 SCT020"
    },
    {
      "icao": "ENAL",
      "alert": "OK",
      "vis_m": 9999,
      "fzfg": false,
      "metar_trigger": false,
      "taf_trigger": false,
      "metar": "METAR ENAL 071320Z 32008KT 280V360 9999 FEW030 14/08 Q1006",
      "taf": "TAF ENAL 071100Z 0712/0721 04012KT 9999 FEW030 SCT050"
    },
    {
      "icao": "ENBR",
      "alert": "OK",
      "vis_m": 9999,
      "fzfg": false,
      "metar_trigger": false,
      "taf_trigger": false,
      "metar": "METAR ENBR 071320Z 32010KT 9999 SCT030 14/06 Q1005 NOSIG RMK WIND 1200FT 33016KT",
      "taf": "TAF ENBR 071100Z 0712/0812 33005KT 9999 FEW015 SCT040"
    },
    {
      "icao": "ENGM",
      "alert": "OK",
      "vis_m": 9999,
      "fzfg": false,
      "metar_trigger": false,
      "taf_trigger": false,
      "metar": "METAR ENGM 071320Z 01016KT 9999 FEW027 SCT032 14/05 Q0998 NOSIG",
      "taf": "TAF ENGM 071100Z 0712/0812 36012KT CAVOK"
    },
    {
      "icao": "ENHD",
      "alert": "OK",
      "vis_m": 9999,
      "fzfg": false,
      "metar_trigger": false,
      "taf_trigger": false,
      "metar": "METAR ENHD 071320Z 33013KT 9999 FEW024 SCT048 15/08 Q1006",
      "taf": "TAF ENHD 071100Z 0712/0721 33016KT 9999 FEW015 SCT030"
    },
    {
      "icao": "ENTC",
      "alert": "OK",
      "vis_m": 9999,
      "fzfg": false,
      "metar_trigger": false,
      "taf_trigger": false,
      "metar": "METAR ENTC 071320Z 03008KT 9999 -RA BKN031 12/07 Q0993 TEMPO SHRA SCT30CB RMK WIND 2600FT 16007KT",
      "taf": ""
    },
    {
      "icao": "ENTO",
      "alert": "OK",
      "vis_m": 9999,
      "fzfg": false,
      "metar_trigger": false,
      "taf_trigger": false,
      "metar": "METAR ENTO 071320Z 36020G31KT 9999 FEW041 15/06 Q0998 NOSIG",
      "taf": "TAF ENTO 071100Z 0712/0812 35012KT CAVOK"
    },
    {
      "icao": "ENVA",
      "alert": "OK",
      "vis_m": 9999,
      "fzfg": false,
      "metar_trigger": false,
      "taf_trigger": false,
      "metar": "METAR ENVA 071320Z 25017KT 9999 -RA SCT014 BKN021 11/09 Q1001 TEMPO 4000 RADZ BKN010 RMK WIND 670FT 27018KT",
      "taf": "TAF ENVA 071100Z 0712/0812 28018KT 9999 FEW015 BKN025"
    },
    {
      "icao": "ENZV",
      "alert": "OK",
      "vis_m": 9999,
      "fzfg": false,
      "metar_trigger": false,
      "taf_trigger": false,
      "metar": "METAR ENZV 071320Z 32018KT 9999 FEW030 SCT045 16/07 Q1006 NOSIG",
      "taf": "TAF ENZV 071100Z 0712/0812 33018KT 9999 FEW018 SCT025"
    },
    {
      "icao": "EPGD",
      "alert": "OK",
      "vis_m": 9999,
      "fzfg": false,
      "metar_trigger": false,
      "taf_trigger": false,
      "metar": "METAR EPGD 071330Z 27013KT 9999 BKN013 17/14 Q1001",
      "taf": "TAF EPGD 071130Z 0712/0812 25012KT 9999 BKN014"
    },
    {
      "icao": "EPKK",
      "alert": "OK",
      "vis_m": 9999,
      "fzfg": false,
      "metar_trigger": false,
      "taf_trigger": false,
      "metar": "METAR EPKK 071330Z 31010KT 9999 -SHRA SCT046CB SCT064 18/14 Q1011 RESHRA",
      "taf": "TAF EPKK 071130Z 0712/0812 25015KT 9999 SCT040"
    },
    {
      "icao": "EPKT",
      "alert": "OK",
      "vis_m": 9999,
      "fzfg": false,
      "metar_trigger": false,
      "taf_trigger": false,
      "metar": "METAR EPKT 071330Z 26008KT 9999 FEW040CB 19/15 Q1010",
      "taf": "TAF EPKT 071130Z 0712/0812 24012KT 9999 SCT030"
    },
    {
      "icao": "EPLB",
      "alert": "OK",
      "vis_m": 9999,
      "fzfg": false,
      "metar_trigger": false,
      "taf_trigger": false,
      "metar": "METAR EPLB 071330Z 28015KT 9999 FEW040CB 22/13 Q1007",
      "taf": "TAF EPLB 071130Z 0712/0812 24012KT 9999 SCT048"
    },
    {
      "icao": "EPMO",
      "alert": "OK",
      "vis_m": 8000,
      "fzfg": false,
      "metar_trigger": false,
      "taf_trigger": false,
      "metar": "METAR EPMO 071330Z 23008KT 8000 -RA BKN027 OVC038 18/17 Q1005 RESHRA",
      "taf": "TAF EPMO 071130Z 0712/0812 25012KT 9999 SCT040"
    },
    {
      "icao": "EPPO",
      "alert": "OK",
      "vis_m": 9999,
      "fzfg": false,
      "metar_trigger": false,
      "taf_trigger": false,
      "metar": "METAR EPPO 071330Z 25018KT 9999 FEW030 21/14 Q1006",
      "taf": "TAF EPPO 071130Z 0712/0812 27012KT 9999 SCT040"
    },
    {
      "icao": "EPRA",
      "alert": "OK",
      "vis_m": 9999,
      "fzfg": false,
      "metar_trigger": false,
      "taf_trigger": false,
      "metar": "METAR EPRA 071330Z 23008KT 190V270 CAVOK 22/15 Q1006",
      "taf": "TAF EPRA 071130Z 0712/0721 26012KT 9999 BKN040"
    },
    {
      "icao": "EPRZ",
      "alert": "OK",
      "vis_m": 9999,
      "fzfg": false,
      "metar_trigger": false,
      "taf_trigger": false,
      "metar": "METAR EPRZ 071330Z 22013KT CAVOK 24/13 Q1009",
      "taf": "TAF EPRZ 071130Z 0712/0812 25015KT 9999 SCT040"
    },
    {
      "icao": "EPSC",
      "alert": "OK",
      "vis_m": 9999,
      "fzfg": false,
      "metar_trigger": false,
      "taf_trigger": false,
      "metar": "METAR EPSC 071330Z 24009KT 200V280 9999 SCT021 OVC024 18/15 Q1004",
      "taf": "TAF EPSC 071130Z 0712/0812 26012KT 9999 SCT010 BKN016"
    },
    {
      "icao": "EPSY",
      "alert": "OK",
      "vis_m": 7000,
      "fzfg": false,
      "metar_trigger": false,
      "taf_trigger": false,
      "metar": "METAR EPSY 071330Z 23008G18KT 7000 -SHRA BKN018CB BKN031 16/15 Q1003",
      "taf": "TAF EPSY 071130Z 0712/0721 26008KT 9999 BKN016"
    },
    {
      "icao": "EPWA",
      "alert": "OK",
      "vis_m": 9999,
      "fzfg": false,
      "metar_trigger": false,
      "taf_trigger": false,
      "metar": "METAR EPWA 071330Z 24012KT 210V270 9999 FEW031CB BKN041 19/15 Q1005 NOSIG",
      "taf": "TAF EPWA 071130Z 0712/0812 25012KT 9999 SCT040"
    },
    {
      "icao": "EPWR",
      "alert": "OK",
      "vis_m": 9999,
      "fzfg": false,
      "metar_trigger": false,
      "taf_trigger": false,
      "metar": "METAR EPWR 071330Z 30011KT CAVOK 25/13 Q1008",
      "taf": "TAF EPWR 071130Z 0712/0812 26012KT CAVOK"
    },
    {
      "icao": "ESGG",
      "alert": "OK",
      "vis_m": 9999,
      "fzfg": false,
      "metar_trigger": false,
      "taf_trigger": false,
      "metar": "METAR ESGG 071320Z 30017KT 9999 SCT049 16/04 Q0995",
      "taf": "TAF ESGG 071130Z 0712/0812 27013KT 9999 SCT035"
    },
    {
      "icao": "ESKN",
      "alert": "OK",
      "vis_m": 9999,
      "fzfg": false,
      "metar_trigger": false,
      "taf_trigger": false,
      "metar": "METAR ESKN 071320Z 14009KT 9999 FEW060CB BKN078 14/06 Q0995",
      "taf": "TAF ESKN 071130Z 0712/0812 15010KT 9999 SCT045"
    },
    {
      "icao": "ESMS",
      "alert": "OK",
      "vis_m": 9999,
      "fzfg": false,
      "metar_trigger": false,
      "taf_trigger": false,
      "metar": "METAR ESMS 071320Z 28013KT 9999 -RA FEW015 SCT040 16/15 Q0999",
      "taf": "TAF ESMS 071127Z 0712/0812 28015KT 9999 BKN020"
    },
    {
      "icao": "ESSA",
      "alert": "OK",
      "vis_m": 9999,
      "fzfg": false,
      "metar_trigger": false,
      "taf_trigger": false,
      "metar": "METAR ESSA 071320Z 18006KT CAVOK 17/03 Q0994 TEMPO SCT040CB",
      "taf": "TAF ESSA 071130Z 0712/0812 27007KT CAVOK"
    },
    {
      "icao": "EYKA",
      "alert": "OK",
      "vis_m": 9999,
      "fzfg": false,
      "metar_trigger": false,
      "taf_trigger": false,
      "metar": "METAR EYKA 071320Z 26004KT 200V350 9999 SCT043 19/10 Q1001",
      "taf": "TAF EYKA 071100Z 0712/0812 VRB03KT 8000 BKN025"
    },
    {
      "icao": "EYPA",
      "alert": "OK",
      "vis_m": 9999,
      "fzfg": false,
      "metar_trigger": false,
      "taf_trigger": false,
      "metar": "METAR EYPA 071320Z 20011KT 9999 -SHRA FEW017 BKN030CB BKN048 16/13 Q0999",
      "taf": "TAF EYPA 071100Z 0712/0812 VRB03KT 8000 BKN015"
    },
    {
      "icao": "EYVI",
      "alert": "OK",
      "vis_m": 9999,
      "fzfg": false,
      "metar_trigger": false,
      "taf_trigger": false,
      "metar": "METAR EYVI 071320Z 27005KT 220V320 9999 FEW029 SCT036 18/11 Q1002 NOSIG",
      "taf": "TAF EYVI 071100Z 0712/0812 26010KT 9000 BKN020"
    },
    {
      "icao": "GCFV",
      "alert": "OK",
      "vis_m": 9999,
      "fzfg": false,
      "metar_trigger": false,
      "taf_trigger": false,
      "metar": "METAR GCFV 071330Z 05010KT CAVOK 25/21 Q1018",
      "taf": "TAF GCFV 070800Z 0709/0809 04015KT CAVOK TX29/0714Z TN23/0806Z"
    },
    {
      "icao": "GCLP",
      "alert": "OK",
      "vis_m": 9999,
      "fzfg": false,
      "metar_trigger": false,
      "taf_trigger": false,
      "metar": "METAR GCLP 071330Z 03021KT 9999 FEW027 28/21 Q1018 NOSIG",
      "taf": "TAF GCLP 070800Z 0709/0809 02022KT CAVOK TX30/0714Z TN23/0806Z"
    },
    {
      "icao": "GCTS",
      "alert": "OK",
      "vis_m": 9999,
      "fzfg": false,
      "metar_trigger": false,
      "taf_trigger": false,
      "metar": "METAR GCTS 071330Z 21007KT 160V240 CAVOK 27/19 Q1019 NOSIG",
      "taf": "TAF GCTS 070800Z 0709/0809 18007KT CAVOK TX31/0714Z TN23/0806Z"
    },
    {
      "icao": "GMAD",
      "alert": "OK",
      "vis_m": 8000,
      "fzfg": false,
      "metar_trigger": false,
      "taf_trigger": false,
      "metar": "METAR GMAD 071330Z 26012KT 8000 NSC 29/20 Q1016 NOSIG",
      "taf": "TAF GMAD 071100Z 0712/0818 28010KT 8000 NSC"
    },
    {
      "icao": "GMMN",
      "alert": "OK",
      "vis_m": 9999,
      "fzfg": false,
      "metar_trigger": false,
      "taf_trigger": false,
      "metar": "METAR GMMN 071330Z 33012KT CAVOK 35/18 Q1017 NOSIG",
      "taf": "TAF GMMN 071100Z 0712/0818 36012KT CAVOK"
    },
    {
      "icao": "GMMX",
      "alert": "OK",
      "vis_m": 9999,
      "fzfg": false,
      "metar_trigger": false,
      "taf_trigger": false,
      "metar": "METAR GMMX 071330Z VRB04KT CAVOK 43/09 Q1017 NOSIG",
      "taf": "TAF GMMX 071100Z 0712/0818 06006KT CAVOK"
    },
    {
      "icao": "HEGN",
      "alert": "OK",
      "vis_m": 9999,
      "fzfg": false,
      "metar_trigger": false,
      "taf_trigger": false,
      "metar": "METAR HEGN 071300Z 01012KT CAVOK 36/17 Q1006 NOSIG",
      "taf": "TAF HEGN 071100Z 0712/0818 35016KT CAVOK"
    },
    {
      "icao": "HEMA",
      "alert": "OK",
      "vis_m": 9999,
      "fzfg": false,
      "metar_trigger": false,
      "taf_trigger": false,
      "metar": "METAR HEMA 071300Z 36014KT CAVOK 34/20 Q1006 NOSIG",
      "taf": "TAF HEMA 071100Z 0712/0818 36010G20KT CAVOK"
    },
    {
      "icao": "HESH",
      "alert": "OK",
      "vis_m": 9999,
      "fzfg": false,
      "metar_trigger": false,
      "taf_trigger": false,
      "metar": "METAR HESH 071300Z 03006KT CAVOK 38/16 Q1006 NOSIG",
      "taf": "TAF HESH 071100Z 0712/0818 01015KT CAVOK"
    },
    {
      "icao": "HESX",
      "alert": "OK",
      "vis_m": 9999,
      "fzfg": false,
      "metar_trigger": false,
      "taf_trigger": false,
      "metar": "METAR HESX 071300Z 33014KT CAVOK 34/13 Q1010 NOSIG",
      "taf": "TAF HESX 071100Z 0712/0818 34011KT CAVOK"
    },
    {
      "icao": "LATI",
      "alert": "OK",
      "vis_m": 9999,
      "fzfg": false,
      "metar_trigger": false,
      "taf_trigger": false,
      "metar": "METAR LATI 071320Z 25009KT 9999 FEW050 31/16 Q1015 NOSIG",
      "taf": "TAF LATI 071100Z 0712/0812 29012KT CAVOK TX33/0712Z TN17/0804Z"
    },
    {
      "icao": "LBPD",
      "alert": "OK",
      "vis_m": 9999,
      "fzfg": false,
      "metar_trigger": false,
      "taf_trigger": false,
      "metar": "METAR LBPD 071330Z AUTO 34008KT 310V020 9999 NCD 32/12 Q1014 NOSIG",
      "taf": "TAF LBPD 071100Z 0712/0812 30015KT 9999 SCT050"
    },
    {
      "icao": "LBSF",
      "alert": "OK",
      "vis_m": 9999,
      "fzfg": false,
      "metar_trigger": false,
      "taf_trigger": false,
      "metar": "METAR LBSF 071330Z 33008KT 270V040 9999 BKN066 27/12 Q1018 NOSIG",
      "taf": "TAF LBSF 071100Z 0712/0812 32012KT 9999 SCT060"
    },
    {
      "icao": "LBWN",
      "alert": "OK",
      "vis_m": 9999,
      "fzfg": false,
      "metar_trigger": false,
      "taf_trigger": false,
      "metar": "METAR LBWN 071330Z AUTO 11015KT 9999 NSC 26/18 Q1014 TEMPO 3000 TSRA",
      "taf": "TAF LBWN 071100Z 0712/0812 24010KT 9999 SCT040"
    },
    {
      "icao": "LCLK",
      "alert": "OK",
      "vis_m": 9999,
      "fzfg": false,
      "metar_trigger": false,
      "taf_trigger": false,
      "metar": "METAR LCLK 071330Z 22020KT 9999 FEW030 31/23 Q1007 NOSIG",
      "taf": "TAF LCLK 071130Z 0712/0812 21020KT 9999 FEW020"
    },
    {
      "icao": "LCPH",
      "alert": "OK",
      "vis_m": 9999,
      "fzfg": false,
      "metar_trigger": false,
      "taf_trigger": false,
      "metar": "METAR LCPH 071330Z 28011KT 250V320 9999 FEW020 29/23 Q1008 NOSIG",
      "taf": "TAF LCPH 071130Z 0712/0812 25011KT 9999 FEW015"
    },
    {
      "icao": "LEAL",
      "alert": "OK",
      "vis_m": 9999,
      "fzfg": false,
      "metar_trigger": false,
      "taf_trigger": false,
      "metar": "METAR LEAL 071330Z 17009KT 130V220 CAVOK 36/08 Q1018 NOSIG",
      "taf": "TAF LEAL 071100Z 0712/0812 18010KT CAVOK TX37/0712Z TN22/0806Z"
    },
    {
      "icao": "LEBB",
      "alert": "OK",
      "vis_m": 9999,
      "fzfg": false,
      "metar_trigger": false,
      "taf_trigger": false,
      "metar": "METAR LEBB 071330Z 30009KT 270V340 9999 FEW017 SCT022 26/20 Q1019 NOSIG",
      "taf": "TAF LEBB 071100Z 0712/0812 32009KT 9999 FEW010 TX27/0812Z TN19/0803Z"
    },
    {
      "icao": "LEBL",
      "alert": "OK",
      "vis_m": 9999,
      "fzfg": false,
      "metar_trigger": false,
      "taf_trigger": false,
      "metar": "METAR LEBL 071330Z 12008KT 080V170 9999 FEW028 30/23 Q1017 NOSIG",
      "taf": "TAF LEBL 071100Z 0712/0812 16010KT CAVOK TX32/0713Z TN24/0806Z"
    },
    {
      "icao": "LECH",
      "alert": "OK",
      "vis_m": 9999,
      "fzfg": false,
      "metar_trigger": false,
      "taf_trigger": false,
      "metar": "METAR LECH 071330Z AUTO 14008KT 100V210 CAVOK 35/09 Q1018",
      "taf": "TAF LECH 071100Z 0712/0812 17009KT CAVOK TX38/0712Z TN21/0806Z"
    },
    {
      "icao": "LEMD",
      "alert": "OK",
      "vis_m": 9999,
      "fzfg": false,
      "metar_trigger": false,
      "taf_trigger": false,
      "metar": "METAR LEMD 071330Z 21009KT 130V250 9999 FEW100TCU 39/08 Q1019 NOSIG",
      "taf": "TAF LEMD 071100Z 0712/0818 VRB04KT CAVOK TX40/0716Z TN20/0805Z"
    },
    {
      "icao": "LEMG",
      "alert": "OK",
      "vis_m": 9999,
      "fzfg": false,
      "metar_trigger": false,
      "taf_trigger": false,
      "metar": "METAR LEMG 071330Z 12008KT 090V160 CAVOK 31/12 Q1019 NOSIG",
      "taf": "TAF LEMG 071100Z 0712/0812 13010KT CAVOK TX34/0714Z TN23/0805Z"
    },
    {
      "icao": "LEVC",
      "alert": "OK",
      "vis_m": 9999,
      "fzfg": false,
      "metar_trigger": false,
      "taf_trigger": false,
      "metar": "METAR LEVC 071330Z 12012KT CAVOK 38/09 Q1015 NOSIG",
      "taf": "TAF LEVC 071100Z 0712/0812 13010KT CAVOK TX40/0712Z TN24/0806Z"
    },
    {
      "icao": "LEXJ",
      "alert": "OK",
      "vis_m": 9999,
      "fzfg": false,
      "metar_trigger": false,
      "taf_trigger": false,
      "metar": "METAR LEXJ 071330Z 32009KT 270V020 9999 BKN023 24/18 Q1020",
      "taf": "TAF LEXJ 070800Z 0709/0809 28009KT 9999 FEW010 TX26/0714Z TN19/0805Z"
    },
    {
      "icao": "LEZG",
      "alert": "OK",
      "vis_m": 9999,
      "fzfg": false,
      "metar_trigger": false,
      "taf_trigger": false,
      "metar": "METAR LEZG 071330Z 05004KT 340V150 CAVOK 40/05 Q1016 NOSIG",
      "taf": "TAF LEZG 071100Z 0712/0812 VRB03KT CAVOK TX43/0715Z TN26/0806Z"
    },
    {
      "icao": "LEZL",
      "alert": "OK",
      "vis_m": 9999,
      "fzfg": false,
      "metar_trigger": false,
      "taf_trigger": false,
      "metar": "METAR LEZL 071330Z 22004KT CAVOK 40/09 Q1016 NOSIG",
      "taf": "TAF LEZL 070800Z 0709/0809 VRB02KT CAVOK TX42/0715Z TN24/0805Z"
    },
    {
      "icao": "LFBD",
      "alert": "OK",
      "vis_m": 9999,
      "fzfg": false,
      "metar_trigger": false,
      "taf_trigger": false,
      "metar": "METAR LFBD 071330Z AUTO VRB03KT CAVOK 40/02 Q1017 NOSIG",
      "taf": "TAF LFBD 071100Z 0712/0818 10005KT CAVOK TX41/0715Z TN21/0805Z"
    },
    {
      "icao": "LFLL",
      "alert": "OK",
      "vis_m": 9999,
      "fzfg": false,
      "metar_trigger": false,
      "taf_trigger": false,
      "metar": "METAR LFLL 071330Z 02007KT 310V080 CAVOK 35/00 Q1019 NOSIG",
      "taf": "TAF LFLL 071100Z 0712/0818 36006KT CAVOK"
    },
    {
      "icao": "LFLS",
      "alert": "OK",
      "vis_m": 9999,
      "fzfg": false,
      "metar_trigger": false,
      "taf_trigger": false,
      "metar": "METAR LFLS 071330Z AUTO VRB04KT CAVOK 35/00 Q1019 NOSIG",
      "taf": "TAF LFLS 070800Z 0709/0809 07007KT CAVOK"
    },
    {
      "icao": "LFMN",
      "alert": "OK",
      "vis_m": 9999,
      "fzfg": false,
      "metar_trigger": false,
      "taf_trigger": false,
      "metar": "METAR LFMN 071330Z 17005KT 9999 FEW016 BKN260 28/22 Q1017 NOSIG",
      "taf": "TAF LFMN 070800Z 0709/0815 VRB03KT CAVOK"
    },
    {
      "icao": "LFOB",
      "alert": "OK",
      "vis_m": 9999,
      "fzfg": false,
      "metar_trigger": false,
      "taf_trigger": false,
      "metar": "METAR LFOB 071330Z AUTO 26010KT 230V300 CAVOK 30/13 Q1017 NOSIG",
      "taf": "TAF LFOB 071100Z 0712/0812 29012KT CAVOK"
    },
    {
      "icao": "LFPO",
      "alert": "OK",
      "vis_m": 9999,
      "fzfg": false,
      "metar_trigger": false,
      "taf_trigger": false,
      "metar": "METAR LFPO 071330Z 32011KT 270V360 CAVOK 35/08 Q1017 NOSIG",
      "taf": "TAF LFPO 071100Z 0712/0818 31010KT CAVOK"
    },
    {
      "icao": "LFSB",
      "alert": "OK",
      "vis_m": 9999,
      "fzfg": false,
      "metar_trigger": false,
      "taf_trigger": false,
      "metar": "METAR LFSB 071330Z AUTO 28011KT 230V320 CAVOK 34/07 Q1017 TEMPO 29015G25KT",
      "taf": "TAF LFSB 071100Z 0712/0812 28010KT CAVOK"
    },
    {
      "icao": "LGAV",
      "alert": "OK",
      "vis_m": 9999,
      "fzfg": false,
      "metar_trigger": false,
      "taf_trigger": false,
      "metar": "METAR LGAV 071320Z 06013G24KT 9999 FEW025 32/12 Q1014 NOSIG",
      "taf": "TAF LGAV 071100Z 0712/0812 04012KT 9999 FEW025"
    },
    {
      "icao": "LGTS",
      "alert": "OK",
      "vis_m": 9999,
      "fzfg": false,
      "metar_trigger": false,
      "taf_trigger": false,
      "metar": "METAR LGTS 071320Z 27008KT 9999 FEW025 32/14 Q1014 NOSIG",
      "taf": "TAF LGTS 071100Z 0712/0812 VRB03KT 9999 FEW030"
    },
    {
      "icao": "LHBP",
      "alert": "OK",
      "vis_m": 9999,
      "fzfg": false,
      "metar_trigger": false,
      "taf_trigger": false,
      "metar": "METAR LHBP 071330Z 27010G22KT 9999 FEW070CB SCT130 BKN220 29/11 Q1013 NOSIG",
      "taf": ""
    },
    {
      "icao": "LHDC",
      "alert": "OK",
      "vis_m": 9999,
      "fzfg": false,
      "metar_trigger": false,
      "taf_trigger": false,
      "metar": "METAR LHDC 071315Z AUTO 26013KT 210V330 CAVOK 29/13 Q1013 NOSIG",
      "taf": "TAF LHDC 071115Z 0712/0721 26009KT CAVOK"
    },
    {
      "icao": "LIBD",
      "alert": "OK",
      "vis_m": 9999,
      "fzfg": false,
      "metar_trigger": false,
      "taf_trigger": false,
      "metar": "METAR LIBD 071320Z 01008KT 340V050 CAVOK 28/21 Q1017",
      "taf": "TAF LIBD 071100Z 0712/0812 03012KT CAVOK"
    },
    {
      "icao": "LIBG",
      "alert": "OK",
      "vis_m": 9999,
      "fzfg": false,
      "metar_trigger": false,
      "taf_trigger": false,
      "metar": "METAR LIBG 071320Z AUTO VRB04KT 9999 FEW082/// 33/12 Q1016",
      "taf": "TAF LIBG 071100Z 0712/0812 01010KT CAVOK"
    },
    {
      "icao": "LIBP",
      "alert": "OK",
      "vis_m": 9999,
      "fzfg": false,
      "metar_trigger": false,
      "taf_trigger": false,
      "metar": "METAR LIBP 071320Z AUTO 06010KT 9999 NCD 31/15 Q1017",
      "taf": "TAF LIBP 071100Z 0712/0812 08010KT 9999 SCT060"
    },
    {
      "icao": "LIBR",
      "alert": "OK",
      "vis_m": 9999,
      "fzfg": false,
      "metar_trigger": false,
      "taf_trigger": false,
      "metar": "METAR LIBR 071320Z 01009KT CAVOK 28/21 Q1016",
      "taf": "TAF LIBR 071100Z 0712/0812 35014KT CAVOK"
    },
    {
      "icao": "LICA",
      "alert": "OK",
      "vis_m": 9999,
      "fzfg": false,
      "metar_trigger": false,
      "taf_trigger": false,
      "metar": "METAR LICA 071320Z AUTO 25017KT 9999 NCD 29/23 Q1017",
      "taf": "TAF LICA 071100Z 0712/0812 26013KT 9999 SCT030"
    },
    {
      "icao": "LICC",
      "alert": "OK",
      "vis_m": 9999,
      "fzfg": false,
      "metar_trigger": false,
      "taf_trigger": false,
      "metar": "METAR LICC 071320Z 08012KT 9999 FEW040 32/18 Q1017",
      "taf": "TAF LICC 071100Z 0712/0812 09013KT 9999 FEW060"
    },
    {
      "icao": "LICJ",
      "alert": "OK",
      "vis_m": 9999,
      "fzfg": false,
      "metar_trigger": false,
      "taf_trigger": false,
      "metar": "METAR LICJ 071320Z 30007KT CAVOK 28/23 Q1018",
      "taf": "TAF LICJ 071100Z 0712/0812 29012KT CAVOK"
    },
    {
      "icao": "LIMC",
      "alert": "OK",
      "vis_m": 9999,
      "fzfg": false,
      "metar_trigger": false,
      "taf_trigger": false,
      "metar": "METAR LIMC 071320Z 24008KT 200V300 CAVOK 33/14 Q1017 NOSIG",
      "taf": "TAF LIMC 071100Z 0712/0818 VRB05KT CAVOK"
    },
    {
      "icao": "LIME",
      "alert": "OK",
      "vis_m": 9999,
      "fzfg": false,
      "metar_trigger": false,
      "taf_trigger": false,
      "metar": "METAR LIME 071320Z 19008KT 150V260 9999 FEW080 SCT100 32/16 Q1016 NOSIG",
      "taf": "TAF LIME 071100Z 0712/0812 VRB05KT CAVOK"
    },
    {
      "icao": "LIMF",
      "alert": "OK",
      "vis_m": 9999,
      "fzfg": false,
      "metar_trigger": false,
      "taf_trigger": false,
      "metar": "METAR LIMF 071320Z 19004KT 140V240 CAVOK 33/15 Q1017",
      "taf": "TAF LIMF 071100Z 0712/0812 VRB05KT CAVOK"
    },
    {
      "icao": "LIMJ",
      "alert": "OK",
      "vis_m": 9999,
      "fzfg": false,
      "metar_trigger": false,
      "taf_trigger": false,
      "metar": "METAR LIMJ 071320Z 19004KT CAVOK 27/23 Q1017",
      "taf": "TAF LIMJ 071100Z 0712/0812 20010KT CAVOK"
    },
    {
      "icao": "LIPE",
      "alert": "OK",
      "vis_m": 9999,
      "fzfg": false,
      "metar_trigger": false,
      "taf_trigger": false,
      "metar": "METAR LIPE 071320Z 27004KT 220V020 CAVOK 34/13 Q1015",
      "taf": "TAF LIPE 071100Z 0712/0812 VRB05KT CAVOK"
    },
    {
      "icao": "LIPH",
      "alert": "OK",
      "vis_m": 9999,
      "fzfg": false,
      "metar_trigger": false,
      "taf_trigger": false,
      "metar": "METAR LIPH 071320Z 19006KT 120V280 CAVOK 32/20 Q1015",
      "taf": "TAF LIPH 071100Z 0712/0812 VRB05KT CAVOK"
    },
    {
      "icao": "LIPQ",
      "alert": "OK",
      "vis_m": 9999,
      "fzfg": false,
      "metar_trigger": false,
      "taf_trigger": false,
      "metar": "METAR LIPQ 071320Z AUTO 24008KT 190V280 9999 NCD 30/17 Q1016",
      "taf": "TAF LIPQ 071100Z 0712/0812 22010KT CAVOK"
    },
    {
      "icao": "LIPR",
      "alert": "OK",
      "vis_m": 9999,
      "fzfg": false,
      "metar_trigger": false,
      "taf_trigger": false,
      "metar": "METAR LIPR 071320Z 10011KT CAVOK 30/21 Q1015",
      "taf": "TAF LIPR 071100Z 0712/0812 10012KT CAVOK"
    },
    {
      "icao": "LIPX",
      "alert": "OK",
      "vis_m": 9999,
      "fzfg": false,
      "metar_trigger": false,
      "taf_trigger": false,
      "metar": "METAR LIPX 071320Z 22007KT 190V290 CAVOK 33/15 Q1015",
      "taf": "TAF LIPX 071100Z 0712/0812 VRB05KT CAVOK"
    },
    {
      "icao": "LIPY",
      "alert": "OK",
      "vis_m": 9999,
      "fzfg": false,
      "metar_trigger": false,
      "taf_trigger": false,
      "metar": "METAR LIPY 071320Z AUTO 14006KT 080V190 9999 NCD 34/13 Q1015",
      "taf": "TAF LIPY 071100Z 0712/0812 07012KT CAVOK"
    },
    {
      "icao": "LIPZ",
      "alert": "OK",
      "vis_m": 9999,
      "fzfg": false,
      "metar_trigger": false,
      "taf_trigger": false,
      "metar": "METAR LIPZ 071320Z 15007KT 120V180 CAVOK 30/21 Q1016 NOSIG",
      "taf": "TAF LIPZ 071100Z 0712/0818 17011KT CAVOK"
    },
    {
      "icao": "LIRF",
      "alert": "OK",
      "vis_m": 9999,
      "fzfg": false,
      "metar_trigger": false,
      "taf_trigger": false,
      "metar": "METAR LIRF 071320Z 24011KT 210V270 CAVOK 29/22 Q1017 NOSIG",
      "taf": ""
    },
    {
      "icao": "LIRN",
      "alert": "OK",
      "vis_m": 9999,
      "fzfg": false,
      "metar_trigger": false,
      "taf_trigger": false,
      "metar": "METAR LIRN 071320Z 20008KT 140V230 9999 FEW040 30/20 Q1017 NOSIG",
      "taf": "TAF LIRN 071100Z 0712/0812 23010KT 9999 FEW040"
    },
    {
      "icao": "LIRP",
      "alert": "OK",
      "vis_m": 9999,
      "fzfg": false,
      "metar_trigger": false,
      "taf_trigger": false,
      "metar": "METAR LIRP 071315Z 28011KT CAVOK 30/20 Q1017 NOSIG",
      "taf": "TAF LIRP 071100Z 0712/0812 27010KT CAVOK"
    },
    {
      "icao": "LIRZ",
      "alert": "OK",
      "vis_m": 9999,
      "fzfg": false,
      "metar_trigger": false,
      "taf_trigger": false,
      "metar": "METAR LIRZ 071320Z AUTO VRB04KT 9999 NCD 33/10 Q1017",
      "taf": "TAF LIRZ 071100Z 0712/0812 VRB05KT 9999 FEW050"
    },
    {
      "icao": "LJLJ",
      "alert": "OK",
      "vis_m": 9999,
      "fzfg": false,
      "metar_trigger": false,
      "taf_trigger": false,
      "metar": "METAR LJLJ 071330Z 24011KT 200V270 9999 FEW055CB FEW065 31/14 Q1016 NOSIG",
      "taf": "TAF LJLJ 071100Z 0712/0812 VRB02KT CAVOK"
    },
    {
      "icao": "LKMT",
      "alert": "OK",
      "vis_m": 9999,
      "fzfg": false,
      "metar_trigger": false,
      "taf_trigger": false,
      "metar": "METAR LKMT 071330Z 15008KT CAVOK 19/17 Q1011 NOSIG",
      "taf": "TAF LKMT 071100Z 0712/0812 23010KT CAVOK"
    },
    {
      "icao": "LKPR",
      "alert": "OK",
      "vis_m": 9999,
      "fzfg": false,
      "metar_trigger": false,
      "taf_trigger": false,
      "metar": "METAR LKPR 071330Z 27016KT 240V300 CAVOK 27/10 Q1012 NOSIG",
      "taf": "TAF LKPR 071100Z 0712/0818 24016KT CAVOK"
    },
    {
      "icao": "LLBG",
      "alert": "OK",
      "vis_m": 9999,
      "fzfg": false,
      "metar_trigger": false,
      "taf_trigger": false,
      "metar": "METAR LLBG 071320Z 27013KT 9999 SCT033 30/22 Q1009 NOSIG",
      "taf": "TAF LLBG 071101Z 0712/0812 28012KT 9999 SCT035 TX31/0712Z TN25/0803Z"
    },
    {
      "icao": "LMML",
      "alert": "OK",
      "vis_m": 9999,
      "fzfg": false,
      "metar_trigger": false,
      "taf_trigger": false,
      "metar": "METAR LMML 071315Z 29013KT 250V320 CAVOK 33/13 Q1019 NOSIG",
      "taf": "TAF LMML 071100Z 0712/0812 29010KT CAVOK"
    },
    {
      "icao": "LOWW",
      "alert": "OK",
      "vis_m": 9999,
      "fzfg": false,
      "metar_trigger": false,
      "taf_trigger": false,
      "metar": "METAR LOWW 071320Z 28016KT CAVOK 29/09 Q1013 NOSIG",
      "taf": "TAF LOWW 071115Z 0712/0818 29020G32KT CAVOK TX30/0713Z TN22/0806Z"
    },
    {
      "icao": "LPFR",
      "alert": "OK",
      "vis_m": 9999,
      "fzfg": false,
      "metar_trigger": false,
      "taf_trigger": false,
      "metar": "METAR LPFR 071330Z 22009KT CAVOK 30/18 Q1018",
      "taf": "TAF LPFR 071100Z 0712/0812 21010KT CAVOK"
    },
    {
      "icao": "LPMA",
      "alert": "OK",
      "vis_m": 9999,
      "fzfg": false,
      "metar_trigger": false,
      "taf_trigger": false,
      "metar": "METAR LPMA 071330Z 19007KT 150V250 CAVOK 25/19 Q1020",
      "taf": "TAF LPMA 071100Z 0712/0812 VRB05KT 9999 SCT015"
    },
    {
      "icao": "LPPR",
      "alert": "OK",
      "vis_m": 9999,
      "fzfg": false,
      "metar_trigger": false,
      "taf_trigger": false,
      "metar": "METAR LPPR 071330Z 29008KT 250V320 9999 FEW018 21/15 Q1021",
      "taf": "TAF LPPR 071100Z 0712/0812 31010KT 9999 SCT018"
    },
    {
      "icao": "LPPS",
      "alert": "OK",
      "vis_m": 9999,
      "fzfg": false,
      "metar_trigger": false,
      "taf_trigger": false,
      "metar": "METAR LPPS 071330Z 19006KT 120V230 CAVOK 25/19 Q1020",
      "taf": "TAF LPPS 071100Z 0712/0818 34008KT 9999 SCT015"
    },
    {
      "icao": "LPPT",
      "alert": "OK",
      "vis_m": 9999,
      "fzfg": false,
      "metar_trigger": false,
      "taf_trigger": false,
      "metar": "METAR LPPT 071330Z 32009KT 290V350 CAVOK 31/15 Q1019 NOSIG",
      "taf": "TAF LPPT 071100Z 0712/0818 32012KT CAVOK"
    },
    {
      "icao": "LQBK",
      "alert": "OK",
      "vis_m": 9999,
      "fzfg": false,
      "metar_trigger": false,
      "taf_trigger": false,
      "metar": "METAR LQBK 071330Z VRB03KT CAVOK 32/09 Q1016 NOSIG",
      "taf": "TAF LQBK 071100Z 0712/0812 22006KT CAVOK TX33/0714Z TN16/0803Z"
    },
    {
      "icao": "LQSA",
      "alert": "OK",
      "vis_m": 9999,
      "fzfg": false,
      "metar_trigger": false,
      "taf_trigger": false,
      "metar": "METAR LQSA 071330Z 29005KT 220V330 9999 FEW070 29/11 Q1018 NOSIG",
      "taf": "TAF LQSA 071100Z 0712/0812 VRB02KT CAVOK TX30/0714Z TN14/0803Z"
    },
    {
      "icao": "LQTZ",
      "alert": "OK",
      "vis_m": 9999,
      "fzfg": false,
      "metar_trigger": false,
      "taf_trigger": false,
      "metar": "METAR LQTZ 071330Z 34005KT 270V050 9999 FEW050 SCT065 29/12 Q1017",
      "taf": "TAF LQTZ 071100Z 0712/0812 20005KT 9999 FEW050 TX30/0713Z TN15/0803Z"
    },
    {
      "icao": "LRBC",
      "alert": "OK",
      "vis_m": 9999,
      "fzfg": false,
      "metar_trigger": false,
      "taf_trigger": false,
      "metar": "METAR LRBC 071330Z 27011KT 9999 SCT060 29/12 Q1012",
      "taf": "TAF LRBC 071100Z 0712/0721 26010KT CAVOK"
    },
    {
      "icao": "LRBS",
      "alert": "OK",
      "vis_m": 9999,
      "fzfg": false,
      "metar_trigger": false,
      "taf_trigger": false,
      "metar": "METAR LRBS 071330Z 29004KT 220V020 CAVOK 30/14 Q1013 NOSIG",
      "taf": "TAF LRBS 071100Z 0712/0812 26010KT CAVOK"
    },
    {
      "icao": "LRBV",
      "alert": "OK",
      "vis_m": 9999,
      "fzfg": false,
      "metar_trigger": false,
      "taf_trigger": false,
      "metar": "METAR LRBV 071330Z 31010KT 270V350 9999 FEW057 26/12 Q1016",
      "taf": "TAF LRBV 071100Z 0712/0721 30012KT 9999 SCT040 BKN060"
    },
    {
      "icao": "LRCL",
      "alert": "OK",
      "vis_m": 9999,
      "fzfg": false,
      "metar_trigger": false,
      "taf_trigger": false,
      "metar": "METAR LRCL 071330Z 25008KT 190V290 9999 BKN056 24/13 Q1015",
      "taf": "TAF LRCL 071100Z 0712/0721 29008KT 9999 SCT040"
    },
    {
      "icao": "LRCV",
      "alert": "OK",
      "vis_m": 9999,
      "fzfg": false,
      "metar_trigger": false,
      "taf_trigger": false,
      "metar": "METAR LRCV 071330Z 33007KT 280V040 CAVOK 30/12 Q1014",
      "taf": "TAF LRCV 071100Z 0712/0721 30010KT CAVOK"
    },
    {
      "icao": "LRIA",
      "alert": "OK",
      "vis_m": 9999,
      "fzfg": false,
      "metar_trigger": false,
      "taf_trigger": false,
      "metar": "METAR LRIA 071330Z 28004KT CAVOK 27/12 Q1012",
      "taf": "TAF LRIA 071100Z 0712/0721 27008KT CAVOK"
    },
    {
      "icao": "LROP",
      "alert": "OK",
      "vis_m": 9999,
      "fzfg": false,
      "metar_trigger": false,
      "taf_trigger": false,
      "metar": "METAR LROP 071330Z 27010KT 230V310 CAVOK 30/16 Q1013 NOSIG",
      "taf": "TAF LROP 071100Z 0712/0812 26010KT CAVOK"
    },
    {
      "icao": "LRSB",
      "alert": "OK",
      "vis_m": 9999,
      "fzfg": false,
      "metar_trigger": false,
      "taf_trigger": false,
      "metar": "METAR LRSB 071330Z 30015KT 9999 FEW050 SCT075 24/14 Q1016",
      "taf": "TAF LRSB 071100Z 0712/0812 30014KT 9999 SCT040"
    },
    {
      "icao": "LRSM",
      "alert": "OK",
      "vis_m": 9999,
      "fzfg": false,
      "metar_trigger": false,
      "taf_trigger": false,
      "metar": "METAR LRSM 071330Z 24012KT CAVOK 26/14 Q1013",
      "taf": "TAF LRSM 071100Z 0712/0721 27010KT 9999 SCT045"
    },
    {
      "icao": "LRSV",
      "alert": "OK",
      "vis_m": 9999,
      "fzfg": false,
      "metar_trigger": false,
      "taf_trigger": false,
      "metar": "METAR LRSV 071330Z 26008KT 220V290 9999 FEW040CB 24/12 Q1013",
      "taf": "TAF LRSV 071100Z 0712/0721 28009KT CAVOK"
    },
    {
      "icao": "LRTM",
      "alert": "OK",
      "vis_m": 9999,
      "fzfg": false,
      "metar_trigger": false,
      "taf_trigger": false,
      "metar": "METAR LRTM 071330Z 33007KT CAVOK 24/16 Q1016",
      "taf": "TAF LRTM 071100Z 0712/0721 26008KT 9999 SCT040"
    },
    {
      "icao": "LRTR",
      "alert": "OK",
      "vis_m": 9999,
      "fzfg": false,
      "metar_trigger": false,
      "taf_trigger": false,
      "metar": "METAR LRTR 071330Z 26005KT 230V300 9999 FEW055CB 27/13 Q1015 NOSIG",
      "taf": "TAF LRTR 071100Z 0712/0812 27010KT 9999 FEW045"
    },
    {
      "icao": "LTAC",
      "alert": "OK",
      "vis_m": 9999,
      "fzfg": false,
      "metar_trigger": false,
      "taf_trigger": false,
      "metar": "METAR LTAC 071320Z 04010KT 9999 SCT040 SCT100 26/09 Q1014 NOSIG RMK RWY21C 05008KT 360V080 RWY03L 05010KT 010V080 RWY21R 05008KT 360V110 RWY03R 01012KT RWY21L 04009KT 360V060",
      "taf": "TAF LTAC 071040Z 0712/0812 03012KT 9999 SCT040"
    },
    {
      "icao": "LTFM",
      "alert": "OK",
      "vis_m": 9999,
      "fzfg": false,
      "metar_trigger": false,
      "taf_trigger": false,
      "metar": "METAR LTFM 071320Z 08011KT 040V100 CAVOK 27/15 Q1015 NOSIG RMK RWY17L 07011KT RWY34L 07011KT 030V090 RWY16R 07012KT RWY36 08012G22KT 020V100 RWY18 08011KT 050V110",
      "taf": "TAF LTFM 071040Z 0712/0818 06012KT CAVOK"
    },
    {
      "icao": "LUKK",
      "alert": "OK",
      "vis_m": 9999,
      "fzfg": false,
      "metar_trigger": false,
      "taf_trigger": false,
      "metar": "METAR LUKK 071330Z 25007KT 220V290 9999 FEW049CB 28/11 Q1012 NOSIG",
      "taf": "TAF LUKK 071101Z 0712/0812 24009KT 9999 SCT045"
    },
    {
      "icao": "LWOH",
      "alert": "OK",
      "vis_m": 9999,
      "fzfg": false,
      "metar_trigger": false,
      "taf_trigger": false,
      "metar": "METAR LWOH 071320Z 19003KT 150V240 9999 FEW035TCU SCT045 24/16 Q1019",
      "taf": "TAF LWOH 071125Z 0712/0812 16006KT 9999 SCT045"
    },
    {
      "icao": "LWSK",
      "alert": "OK",
      "vis_m": 9999,
      "fzfg": false,
      "metar_trigger": false,
      "taf_trigger": false,
      "metar": "METAR LWSK 071320Z VRB05KT 9999 FEW040 SCT080 32/14 Q1015 NOSIG",
      "taf": "TAF LWSK 071125Z 0712/0812 VRB02KT 9999 SCT050"
    },
    {
      "icao": "LYBE",
      "alert": "OK",
      "vis_m": 9999,
      "fzfg": false,
      "metar_trigger": false,
      "taf_trigger": false,
      "metar": "METAR LYBE 071330Z VRB03KT CAVOK 29/13 Q1016 NOSIG",
      "taf": "TAF LYBE 071100Z 0712/0812 29008KT 9999 SCT045 TX30/0714Z TN19/0803Z"
    },
    {
      "icao": "LYNI",
      "alert": "OK",
      "vis_m": 9999,
      "fzfg": false,
      "metar_trigger": false,
      "taf_trigger": false,
      "metar": "METAR LYNI 071330Z 31007KT 250V350 9999 SCT050 30/14 Q1016 NOSIG",
      "taf": "TAF LYNI 071100Z 0712/0812 32011KT 9999 SCT050 TX30/0714Z TN15/0803Z"
    },
    {
      "icao": "LYPG",
      "alert": "OK",
      "vis_m": 9999,
      "fzfg": false,
      "metar_trigger": false,
      "taf_trigger": false,
      "metar": "METAR LYPG 071330Z 20008KT 120V230 9999 SCT040 34/12 Q1014 NOSIG",
      "taf": "TAF LYPG 071100Z 0712/0812 18008KT 9999 FEW040 TX34/0713Z TN23/0803Z"
    },
    {
      "icao": "LZIB",
      "alert": "OK",
      "vis_m": 9999,
      "fzfg": false,
      "metar_trigger": false,
      "taf_trigger": false,
      "metar": "METAR LZIB 071330Z 26019G29KT CAVOK 30/10 Q1012 NOSIG",
      "taf": ""
    },
    {
      "icao": "LZKZ",
      "alert": "OK",
      "vis_m": 9999,
      "fzfg": false,
      "metar_trigger": false,
      "taf_trigger": false,
      "metar": "METAR LZKZ 071330Z 24013KT CAVOK 27/13 Q1012 NOSIG",
      "taf": "TAF LZKZ 071115Z 0712/0812 22005KT 9999 FEW025"
    },
    {
      "icao": "LZTT",
      "alert": "OK",
      "vis_m": 9999,
      "fzfg": false,
      "metar_trigger": false,
      "taf_trigger": false,
      "metar": "METAR LZTT 071330Z 27011KT 9999 FEW050 SCT056 22/12 Q1013 NOSIG",
      "taf": "TAF LZTT 071115Z 0712/0812 27012KT 9999 FEW020 BKN055"
    },
    {
      "icao": "OEJN",
      "alert": "OK",
      "vis_m": 9999,
      "fzfg": false,
      "metar_trigger": false,
      "taf_trigger": false,
      "metar": "METAR OEJN 071300Z 29010KT CAVOK 36/22 Q1003 NOSIG",
      "taf": "TAF OEJN 071100Z 0712/0818 30012KT CAVOK"
    },
    {
      "icao": "OEMA",
      "alert": "OK",
      "vis_m": 9999,
      "fzfg": false,
      "metar_trigger": false,
      "taf_trigger": false,
      "metar": "METAR OEMA 071300Z 28016KT 9999 FEW045 46/00 Q1008 NOSIG",
      "taf": "TAF OEMA 071100Z 0712/0818 32015KT CAVOK"
    },
    {
      "icao": "OJAI",
      "alert": "OK",
      "vis_m": 4000,
      "fzfg": false,
      "metar_trigger": false,
      "taf_trigger": false,
      "metar": "METAR OJAI 071300Z 27018KT 4000 BLDU FEW030 30/14 Q1013 NOSIG",
      "taf": "TAF OJAI 071100Z 0712/0818 30010KT 5000 HZ FEW035"
    },
    {
      "icao": "OMAA",
      "alert": "OK",
      "vis_m": 9999,
      "fzfg": false,
      "metar_trigger": false,
      "taf_trigger": false,
      "metar": "METAR OMAA 071330Z 31006KT 270V340 CAVOK 37/26 Q0995 NOSIG",
      "taf": "TAF OMAA 071100Z 0712/0818 30012KT 8000 NSC"
    },
    {
      "icao": "OMDB",
      "alert": "OK",
      "vis_m": 9999,
      "fzfg": false,
      "metar_trigger": false,
      "taf_trigger": false,
      "metar": "METAR OMDB 071330Z 28010KT CAVOK 38/25 Q0995 NOSIG",
      "taf": "TAF OMDB 071100Z 0712/0818 27010KT CAVOK"
    },
    {
      "icao": "UAAA",
      "alert": "OK",
      "vis_m": 9999,
      "fzfg": false,
      "metar_trigger": false,
      "taf_trigger": false,
      "metar": "METAR UAAA 071330Z 21004MPS 9999 SCT050CB BKN100 28/11 Q1008 TEMPO 26008G14MPS TS",
      "taf": "TAF UAAA 071103Z 0712/0812 22003MPS 9999 SCT050CB BKN100 TX33/0810Z TN19/0800Z"
    },
    {
      "icao": "UBBB",
      "alert": "OK",
      "vis_m": 9999,
      "fzfg": false,
      "metar_trigger": false,
      "taf_trigger": false,
      "metar": "METAR UBBB 071330Z 34020G30KT 9999 FEW014 25/20 Q1010 NOSIG",
      "taf": "TAF UBBB 071057Z 0712/0812 32020G30KT 9999 FEW060CB TX27/0712Z TN21/0801Z"
    },
    {
      "icao": "UDSG",
      "alert": "OK",
      "vis_m": 9999,
      "fzfg": false,
      "metar_trigger": false,
      "taf_trigger": false,
      "metar": "METAR UDSG 071330Z 06013KT 9999 TS BKN040CB 20/14 Q1016 TEMPO -TSRA",
      "taf": ""
    },
    {
      "icao": "UDYZ",
      "alert": "OK",
      "vis_m": 9999,
      "fzfg": false,
      "metar_trigger": false,
      "taf_trigger": false,
      "metar": "METAR UDYZ 071330Z 03013KT 9999 SCT043CB 31/15 Q1008 NOSIG",
      "taf": ""
    },
    {
      "icao": "UGKO",
      "alert": "OK",
      "vis_m": 9999,
      "fzfg": false,
      "metar_trigger": false,
      "taf_trigger": false,
      "metar": "METAR UGKO 071330Z 25010KT 9999 BKN044 24/19 Q1012 NOSIG",
      "taf": "TAF UGKO 071100Z 0712/0812 26007KT 9999 BKN050 TX26/0712Z TN19/0802Z"
    }
  ]
}