{
  "ts_utc": "2026-03-14T13:07:33Z",
  "threshold_m": 150,
  "source": "stations_override.txt (ICAO list) + aviationweather.gov (METAR/TAF raw)",
  "station_count": 159,
  "stations": [
    {
      "icao": "BIKF",
      "alert": "OK",
      "vis_m": 9999,
      "fzfg": false,
      "metar_trigger": false,
      "taf_trigger": false,
      "metar": "METAR BIKF 141230Z 14001KT 9999 FEW024 SCT310 04/M02 Q0989",
      "taf": "TAF BIKF 141057Z 1412/1512 VRB03KT 9999 FEW025 SCT035 TX04/1415Z TN00/1500Z"
    },
    {
      "icao": "BKPR",
      "alert": "OK",
      "vis_m": 9999,
      "fzfg": false,
      "metar_trigger": false,
      "taf_trigger": false,
      "metar": "METAR BKPR 141300Z 14004KT 130V210 9999 FEW055 16/M00 Q1008 NOSIG",
      "taf": "TAF BKPR 141130Z 1412/1512 16007KT 9999 FEW050"
    },
    {
      "icao": "EBCI",
      "alert": "OK",
      "vis_m": 9999,
      "fzfg": false,
      "metar_trigger": false,
      "taf_trigger": false,
      "metar": "METAR EBCI 141250Z 28008KT 240V350 9999 FEW017TCU BKN025 07/01 Q1003 NOSIG",
      "taf": "TAF EBCI 141108Z 1412/1518 30010KT 9999 SCT012 BKN017"
    },
    {
      "icao": "EDDB",
      "alert": "OK",
      "vis_m": 9999,
      "fzfg": false,
      "metar_trigger": false,
      "taf_trigger": false,
      "metar": "METAR EDDB 141250Z AUTO 29011KT CAVOK 13/07 Q0999 NOSIG",
      "taf": "TAF EDDB 141100Z 1412/1512 20010KT 9999 SCT020"
    },
    {
      "icao": "EDDH",
      "alert": "OK",
      "vis_m": 9999,
      "fzfg": false,
      "metar_trigger": false,
      "taf_trigger": false,
      "metar": "METAR EDDH 141250Z AUTO 30003KT 250V350 9999 -RADZ FEW020 BKN031 BKN037 06/03 Q1001 NOSIG",
      "taf": "TAF EDDH 141100Z 1412/1518 29004KT 9999 SCT015 BKN040"
    },
    {
      "icao": "EDDK",
      "alert": "OK",
      "vis_m": 9999,
      "fzfg": false,
      "metar_trigger": false,
      "taf_trigger": false,
      "metar": "METAR EDDK 141250Z AUTO 28011KT 250V310 9999 BKN013 BKN020 04/01 Q1002 TEMPO SCT013 BKN020",
      "taf": "TAF EDDK 141100Z 1412/1518 29009KT 9999 SCT008 BKN015"
    },
    {
      "icao": "EDDN",
      "alert": "OK",
      "vis_m": 9999,
      "fzfg": false,
      "metar_trigger": false,
      "taf_trigger": false,
      "metar": "METAR EDDN 141250Z AUTO 28012KT 9999 -RADZ BKN017 BKN021 BKN028 07/04 Q1001 TEMPO RA",
      "taf": "TAF EDDN 141100Z 1412/1512 28011KT 9999 OVC020"
    },
    {
      "icao": "EDDS",
      "alert": "OK",
      "vis_m": 9999,
      "fzfg": false,
      "metar_trigger": false,
      "taf_trigger": false,
      "metar": "METAR EDDS 141250Z AUTO VRB06KT 9999 BKN019 BKN037 06/02 Q1002 TEMPO RA",
      "taf": "TAF EDDS 141100Z 1412/1512 27009KT 9999 BKN020"
    },
    {
      "icao": "EDFH",
      "alert": "OK",
      "vis_m": 9999,
      "fzfg": false,
      "metar_trigger": false,
      "taf_trigger": false,
      "metar": "METAR EDFH 141250Z 26013KT 9999 BKN008 OVC013 03/01 Q1001",
      "taf": "TAF EDFH 141100Z 1412/1512 27010KT 9999 BKN020"
    },
    {
      "icao": "EDJA",
      "alert": "OK",
      "vis_m": 9999,
      "fzfg": false,
      "metar_trigger": false,
      "taf_trigger": false,
      "metar": "METAR EDJA 141250Z 30012KT 9999 -RA BKN010 BKN020 OVC035 04/02 Q1002",
      "taf": "TAF EDJA 141100Z 1412/1421 29010KT 9999 FEW015 BKN025"
    },
    {
      "icao": "EDLW",
      "alert": "OK",
      "vis_m": 6000,
      "fzfg": false,
      "metar_trigger": false,
      "taf_trigger": false,
      "metar": "METAR EDLW 141250Z 34007KT 6000 -DZ BKN004 04/03 Q1001",
      "taf": ""
    },
    {
      "icao": "EDNY",
      "alert": "OK",
      "vis_m": 9999,
      "fzfg": false,
      "metar_trigger": false,
      "taf_trigger": false,
      "metar": "METAR EDNY 141250Z 25007KT 220V280 9999 -RA FEW010 SCT012 OVC015 04/03 Q1003",
      "taf": "TAF EDNY 141100Z 1412/1421 26010KT 9999 SCT014 BKN030"
    },
    {
      "icao": "EDSB",
      "alert": "OK",
      "vis_m": 9999,
      "fzfg": false,
      "metar_trigger": false,
      "taf_trigger": false,
      "metar": "METAR EDSB 141250Z 25009KT 210V310 9999 FEW023 SCT031 06/02 Q1004",
      "taf": "TAF EDSB 141100Z 1412/1512 23007KT 9999 BKN020"
    },
    {
      "icao": "EETN",
      "alert": "OK",
      "vis_m": 9999,
      "fzfg": false,
      "metar_trigger": false,
      "taf_trigger": false,
      "metar": "METAR EETN 141250Z 19014KT CAVOK 16/04 Q1006 TEMPO 19016G26KT",
      "taf": "TAF EETN 141130Z 1412/1512 17012KT CAVOK"
    },
    {
      "icao": "EFTU",
      "alert": "OK",
      "vis_m": 9999,
      "fzfg": false,
      "metar_trigger": false,
      "taf_trigger": false,
      "metar": "METAR EFTU 141250Z AUTO 18012KT 150V210 9999 BKN022 08/03 Q1003",
      "taf": "TAF EFTU 141131Z 1412/1512 17009KT 9999 BKN020"
    },
    {
      "icao": "EGBB",
      "alert": "OK",
      "vis_m": 9999,
      "fzfg": false,
      "metar_trigger": false,
      "taf_trigger": false,
      "metar": "METAR EGBB 141250Z 31010KT CAVOK 10/M00 Q1005",
      "taf": "TAF EGBB 141054Z 1412/1512 30008KT 9999 FEW045"
    },
    {
      "icao": "EGGP",
      "alert": "OK",
      "vis_m": 9999,
      "fzfg": false,
      "metar_trigger": false,
      "taf_trigger": false,
      "metar": "METAR EGGP 141250Z 28013KT 9999 FEW034 09/01 Q1006",
      "taf": "TAF EGGP 141056Z 1412/1512 29012KT 9999 FEW025"
    },
    {
      "icao": "EGGW",
      "alert": "OK",
      "vis_m": 9999,
      "fzfg": false,
      "metar_trigger": false,
      "taf_trigger": false,
      "metar": "METAR EGGW 141250Z AUTO 32012KT 9999 SCT039 10/01 Q1005",
      "taf": "TAF EGGW 141108Z 1412/1512 30011KT 9999 SCT040"
    },
    {
      "icao": "EGKK",
      "alert": "OK",
      "vis_m": 9999,
      "fzfg": false,
      "metar_trigger": false,
      "taf_trigger": false,
      "metar": "METAR EGKK 141250Z 30008KT 270V330 9999 FEW043 10/00 Q1005",
      "taf": "TAF EGKK 141053Z 1412/1518 32010KT 9999 FEW030"
    },
    {
      "icao": "EGNM",
      "alert": "OK",
      "vis_m": 9999,
      "fzfg": false,
      "metar_trigger": false,
      "taf_trigger": false,
      "metar": "METAR EGNM 141250Z 30015KT 9999 FEW032 08/M01 Q1004",
      "taf": "TAF EGNM 141056Z 1412/1512 29016KT 9999 FEW015"
    },
    {
      "icao": "EGPD",
      "alert": "OK",
      "vis_m": 9999,
      "fzfg": false,
      "metar_trigger": false,
      "taf_trigger": false,
      "metar": "METAR EGPD 141250Z COR AUTO 22010KT 9999 NCD 07/M00 Q1000 NOSIG",
      "taf": "TAF EGPD 141100Z 1412/1512 25008KT 9999 FEW040"
    },
    {
      "icao": "EGPF",
      "alert": "OK",
      "vis_m": 9999,
      "fzfg": false,
      "metar_trigger": false,
      "taf_trigger": false,
      "metar": "METAR EGPF 141250Z AUTO 24013KT 9999 FEW024/// SCT032/// BKN042/// //////TCU 08/04 Q1003",
      "taf": "TAF EGPF 141058Z 1412/1512 24012KT 9999 SCT025"
    },
    {
      "icao": "EHBK",
      "alert": "OK",
      "vis_m": 9999,
      "fzfg": false,
      "metar_trigger": false,
      "taf_trigger": false,
      "metar": "METAR EHBK 141255Z AUTO 25005KT 210V280 9999 -RA FEW004 SCT007 BKN010 04/02 Q1003 BECMG BKN018 TEMPO SCT003 BKN008",
      "taf": "TAF EHBK 141104Z 1412/1518 25004KT 6000 -RASN -DZRA BKN002"
    },
    {
      "icao": "EHEH",
      "alert": "OK",
      "vis_m": 9999,
      "fzfg": false,
      "metar_trigger": false,
      "taf_trigger": false,
      "metar": "METAR EHEH 141255Z AUTO 21004KT 180V280 9999 DZ SCT009 BKN010 FEW015CB OVC016 06/04 Q1002 GRN TEMPO 4000 SHRAGS FEW010 SCT018CB RMK TREND REMOTE BY EHWX",
      "taf": ""
    },
    {
      "icao": "EKBI",
      "alert": "OK",
      "vis_m": 9999,
      "fzfg": false,
      "metar_trigger": false,
      "taf_trigger": false,
      "metar": "METAR EKBI 141250Z AUTO 24007KT 210V270 9999 SCT017/// 07/03 Q1001",
      "taf": "TAF EKBI 141127Z 1412/1512 19006KT 9000 SCT008 BKN025"
    },
    {
      "icao": "EKCH",
      "alert": "OK",
      "vis_m": 9999,
      "fzfg": false,
      "metar_trigger": false,
      "taf_trigger": false,
      "metar": "METAR EKCH 141250Z AUTO 35007KT 320V040 9999 FEW013/// SCT072/// BKN092/// 05/03 Q1001 NOSIG",
      "taf": "TAF EKCH 141127Z 1412/1512 02007KT 9999 SCT015"
    },
    {
      "icao": "ENAL",
      "alert": "OK",
      "vis_m": 9999,
      "fzfg": false,
      "metar_trigger": false,
      "taf_trigger": false,
      "metar": "METAR ENAL 141250Z 21015KT 9999 FEW038 SCT051 08/01 Q0992",
      "taf": "TAF ENAL 141100Z 1412/1421 21015KT 9999 FEW025 BKN050"
    },
    {
      "icao": "ENBR",
      "alert": "OK",
      "vis_m": 9999,
      "fzfg": false,
      "metar_trigger": false,
      "taf_trigger": false,
      "metar": "METAR ENBR 141250Z 19013KT 9999 -SHRA FEW003 SCT014CB BKN018 04/02 Q0996 TEMPO 4000 SHRA BKN007 SCT014CB RMK WIND 1200FT 21013KT",
      "taf": "TAF ENBR 141100Z 1412/1512 16012KT 9999 FEW007 BKN020"
    },
    {
      "icao": "ENGM",
      "alert": "OK",
      "vis_m": 5000,
      "fzfg": false,
      "metar_trigger": false,
      "taf_trigger": false,
      "metar": "METAR ENGM 141250Z 19009KT 5000 BR OVC003 03/02 Q0998 TEMPO 4000 BR",
      "taf": "TAF ENGM 141100Z 1412/1512 18008KT 8000 BKN004"
    },
    {
      "icao": "ENHD",
      "alert": "OK",
      "vis_m": 9999,
      "fzfg": false,
      "metar_trigger": false,
      "taf_trigger": false,
      "metar": "METAR ENHD 141250Z 19008KT 9999 FEW034 07/04 Q0997",
      "taf": "TAF ENHD 141100Z 1412/1421 18010KT 9999 SCT015 BKN030"
    },
    {
      "icao": "ENTC",
      "alert": "OK",
      "vis_m": 9999,
      "fzfg": false,
      "metar_trigger": false,
      "taf_trigger": false,
      "metar": "METAR ENTC 141250Z 20011KT 9999 SCT035 05/M01 Q0991 NOSIG RMK WIND 2600FT 20026KT",
      "taf": "TAF ENTC 141100Z 1412/1512 21012KT 9999 FEW025 SCT040"
    },
    {
      "icao": "ENTO",
      "alert": "OK",
      "vis_m": 8000,
      "fzfg": false,
      "metar_trigger": false,
      "taf_trigger": false,
      "metar": "METAR ENTO 141250Z 16006KT 8000 BKN003 OVC004 04/04 Q0999 TEMPO 4000 BR",
      "taf": "TAF ENTO 141100Z 1412/1512 20008KT 8000 BKN004"
    },
    {
      "icao": "ENVA",
      "alert": "OK",
      "vis_m": 9999,
      "fzfg": false,
      "metar_trigger": false,
      "taf_trigger": false,
      "metar": "METAR ENVA 141250Z 17012KT 140V200 CAVOK 09/M03 Q0993 NOSIG RMK WIND 670FT 18019KT",
      "taf": "TAF ENVA 141100Z 1412/1512 16015KT CAVOK"
    },
    {
      "icao": "ENZV",
      "alert": "OK",
      "vis_m": 9999,
      "fzfg": false,
      "metar_trigger": false,
      "taf_trigger": false,
      "metar": "METAR ENZV 141250Z 20007KT 9999 FEW024 07/03 Q0998 TEMPO SHRA SCT008 BKN015CB",
      "taf": "TAF ENZV 141100Z 1412/1512 19008KT 9999 SCT015 BKN030"
    },
    {
      "icao": "EPGD",
      "alert": "OK",
      "vis_m": 9999,
      "fzfg": false,
      "metar_trigger": false,
      "taf_trigger": false,
      "metar": "METAR EPGD 141230Z 18014KT CAVOK 17/03 Q1002",
      "taf": "TAF EPGD 141130Z 1412/1512 18010KT CAVOK"
    },
    {
      "icao": "EPKK",
      "alert": "OK",
      "vis_m": 9999,
      "fzfg": false,
      "metar_trigger": false,
      "taf_trigger": false,
      "metar": "METAR EPKK 141230Z 19007KT 140V210 CAVOK 19/M06 Q1004",
      "taf": "TAF EPKK 141130Z 1412/1512 15006KT CAVOK"
    },
    {
      "icao": "EPKT",
      "alert": "OK",
      "vis_m": 9999,
      "fzfg": false,
      "metar_trigger": false,
      "taf_trigger": false,
      "metar": "METAR EPKT 141230Z 15017KT CAVOK 18/M04 Q1003",
      "taf": "TAF EPKT 141130Z 1412/1512 15012KT CAVOK"
    },
    {
      "icao": "EPLB",
      "alert": "OK",
      "vis_m": 9999,
      "fzfg": false,
      "metar_trigger": false,
      "taf_trigger": false,
      "metar": "METAR EPLB 141230Z 13010KT CAVOK 17/02 Q1009",
      "taf": "TAF EPLB 141130Z 1412/1512 15012KT CAVOK"
    },
    {
      "icao": "EPMO",
      "alert": "OK",
      "vis_m": 9999,
      "fzfg": false,
      "metar_trigger": false,
      "taf_trigger": false,
      "metar": "METAR EPMO 141230Z 16014KT 130V190 CAVOK 18/M00 Q1005",
      "taf": "TAF EPMO 141130Z 1412/1512 15015KT CAVOK"
    },
    {
      "icao": "EPPO",
      "alert": "OK",
      "vis_m": 9999,
      "fzfg": false,
      "metar_trigger": false,
      "taf_trigger": false,
      "metar": "METAR EPPO 141230Z 19012KT 130V190 CAVOK 18/04 Q1000",
      "taf": "TAF EPPO 141130Z 1412/1512 17010KT CAVOK"
    },
    {
      "icao": "EPRA",
      "alert": "OK",
      "vis_m": 9999,
      "fzfg": false,
      "metar_trigger": false,
      "taf_trigger": false,
      "metar": "METAR EPRA 141230Z 17016G28KT 140V220 CAVOK 17/M04 Q1006",
      "taf": "TAF EPRA 141130Z 1412/1421 15012KT CAVOK"
    },
    {
      "icao": "EPRZ",
      "alert": "OK",
      "vis_m": 9999,
      "fzfg": false,
      "metar_trigger": false,
      "taf_trigger": false,
      "metar": "METAR EPRZ 141230Z 18016KT CAVOK 17/M02 Q1008",
      "taf": "TAF EPRZ 141130Z 1412/1512 18012KT CAVOK"
    },
    {
      "icao": "EPSC",
      "alert": "OK",
      "vis_m": 9999,
      "fzfg": false,
      "metar_trigger": false,
      "taf_trigger": false,
      "metar": "METAR EPSC 141230Z 16009KT CAVOK 15/05 Q0999",
      "taf": "TAF EPSC 141130Z 1412/1512 16011KT CAVOK"
    },
    {
      "icao": "EPSY",
      "alert": "OK",
      "vis_m": 9999,
      "fzfg": false,
      "metar_trigger": false,
      "taf_trigger": false,
      "metar": "METAR EPSY 141230Z 17015KT 140V210 CAVOK 18/01 Q1005",
      "taf": "TAF EPSY 141130Z 1412/1421 16012KT CAVOK"
    },
    {
      "icao": "EPWA",
      "alert": "OK",
      "vis_m": 9999,
      "fzfg": false,
      "metar_trigger": false,
      "taf_trigger": false,
      "metar": "METAR EPWA 141230Z 17015KT 140V200 CAVOK 19/M00 Q1006 NOSIG",
      "taf": "TAF EPWA 141130Z 1412/1512 16018KT CAVOK"
    },
    {
      "icao": "EPWR",
      "alert": "OK",
      "vis_m": 9999,
      "fzfg": false,
      "metar_trigger": false,
      "taf_trigger": false,
      "metar": "METAR EPWR 141230Z 16018KT 130V190 CAVOK 19/01 Q1000",
      "taf": "TAF EPWR 141130Z 1412/1512 15012KT CAVOK"
    },
    {
      "icao": "ESGG",
      "alert": "OK",
      "vis_m": 9999,
      "fzfg": false,
      "metar_trigger": false,
      "taf_trigger": false,
      "metar": "METAR ESGG 141250Z 21004KT 9999 SCT008 BKN010 OVC015 05/02 Q0999",
      "taf": "TAF ESGG 141130Z 1412/1512 19007KT 9999 OVC010"
    },
    {
      "icao": "ESKN",
      "alert": "OK",
      "vis_m": 9999,
      "fzfg": false,
      "metar_trigger": false,
      "taf_trigger": false,
      "metar": "METAR ESKN 141250Z 34006KT 9999 -DZ BKN004 03/03 Q0999",
      "taf": "TAF ESKN 141130Z 1412/1512 33005KT 9999 -RA BKN010"
    },
    {
      "icao": "ESMS",
      "alert": "OK",
      "vis_m": 9999,
      "fzfg": false,
      "metar_trigger": false,
      "taf_trigger": false,
      "metar": "METAR ESMS 141250Z 36010KT 9999 BKN010 OVC013 05/04 Q1000",
      "taf": "TAF ESMS 141127Z 1412/1512 35012KT 7000 -RADZ BKN006"
    },
    {
      "icao": "ESSA",
      "alert": "OK",
      "vis_m": 9999,
      "fzfg": false,
      "metar_trigger": false,
      "taf_trigger": false,
      "metar": "METAR ESSA 141250Z 02006KT 9999 -RA OVC006 03/03 Q1000 TEMPO 4000 -RA BKN004",
      "taf": "TAF ESSA 141130Z 1412/1512 VRB02KT 9000 -RA BKN008"
    },
    {
      "icao": "EYKA",
      "alert": "OK",
      "vis_m": 9999,
      "fzfg": false,
      "metar_trigger": false,
      "taf_trigger": false,
      "metar": "METAR EYKA 141250Z 15013KT 120V190 CAVOK 16/01 Q1009",
      "taf": "TAF EYKA 141102Z 1412/1512 15011KT 9000 NSC"
    },
    {
      "icao": "EYPA",
      "alert": "OK",
      "vis_m": 9999,
      "fzfg": false,
      "metar_trigger": false,
      "taf_trigger": false,
      "metar": "METAR EYPA 141250Z 17014KT 140V200 CAVOK 17/04 Q1004",
      "taf": "TAF EYPA 141103Z 1412/1512 16014KT 9000 NSC"
    },
    {
      "icao": "EYVI",
      "alert": "OK",
      "vis_m": 9999,
      "fzfg": false,
      "metar_trigger": false,
      "taf_trigger": false,
      "metar": "METAR EYVI 141250Z 14016KT CAVOK 14/M00 Q1012 NOSIG",
      "taf": "TAF EYVI 141100Z 1412/1512 15013KT 9000 NSC"
    },
    {
      "icao": "GCFV",
      "alert": "OK",
      "vis_m": 9999,
      "fzfg": false,
      "metar_trigger": false,
      "taf_trigger": false,
      "metar": "METAR GCFV 141230Z 03020KT 9999 SCT025 19/13 Q1021",
      "taf": "TAF GCFV 140800Z 1409/1509 04018KT 9999 FEW020 TX20/1414Z TN16/1506Z"
    },
    {
      "icao": "GCLP",
      "alert": "OK",
      "vis_m": 9999,
      "fzfg": false,
      "metar_trigger": false,
      "taf_trigger": false,
      "metar": "METAR GCLP 141230Z 01022KT 340V050 9999 BKN025 20/13 Q1021 NOSIG",
      "taf": "TAF GCLP 140800Z 1409/1509 02023KT 9999 FEW025 TX21/1414Z TN16/1506Z"
    },
    {
      "icao": "GCTS",
      "alert": "OK",
      "vis_m": 9999,
      "fzfg": false,
      "metar_trigger": false,
      "taf_trigger": false,
      "metar": "METAR GCTS 141230Z 06030KT 9999 FEW025 22/12 Q1020 NOSIG",
      "taf": "TAF GCTS 140800Z 1409/1509 08027KT 9999 FEW025 TX24/1414Z TN17/1506Z"
    },
    {
      "icao": "GMAD",
      "alert": "OK",
      "vis_m": 6000,
      "fzfg": false,
      "metar_trigger": false,
      "taf_trigger": false,
      "metar": "METAR GMAD 141230Z 25010KT 230V300 6000 NSC 22/14 Q1017 NOSIG",
      "taf": "TAF GMAD 141100Z 1412/1518 28009KT CAVOK"
    },
    {
      "icao": "GMMN",
      "alert": "OK",
      "vis_m": 9999,
      "fzfg": false,
      "metar_trigger": false,
      "taf_trigger": false,
      "metar": "METAR GMMN 141230Z 30007KT 210V020 9999 BKN020 17/12 Q1021 NOSIG",
      "taf": ""
    },
    {
      "icao": "GMMX",
      "alert": "OK",
      "vis_m": 8000,
      "fzfg": false,
      "metar_trigger": false,
      "taf_trigger": false,
      "metar": "METAR GMMX 141230Z VRB03KT 8000 OVC010 15/12 Q1020 NOSIG",
      "taf": "TAF GMMX 141100Z 1412/1518 02006KT 4000 BR BKN006"
    },
    {
      "icao": "HEGN",
      "alert": "OK",
      "vis_m": null,
      "fzfg": false,
      "metar_trigger": false,
      "taf_trigger": false,
      "metar": "",
      "taf": "TAF HEGN 141100Z 1412/1518 17015KT 6000 SCT025"
    },
    {
      "icao": "HEMA",
      "alert": "OK",
      "vis_m": null,
      "fzfg": false,
      "metar_trigger": false,
      "taf_trigger": false,
      "metar": "",
      "taf": "TAF HEMA 141100Z 1412/1518 16015KT 6000 SCT025"
    },
    {
      "icao": "HESH",
      "alert": "OK",
      "vis_m": null,
      "fzfg": false,
      "metar_trigger": false,
      "taf_trigger": false,
      "metar": "",
      "taf": "TAF HESH 141100Z 1412/1518 16015KT 9999 SCT025"
    },
    {
      "icao": "HESX",
      "alert": "OK",
      "vis_m": null,
      "fzfg": false,
      "metar_trigger": false,
      "taf_trigger": false,
      "metar": "",
      "taf": "TAF HESX 141100Z 1412/1518 20020G30KT 6000 BKN025"
    },
    {
      "icao": "LATI",
      "alert": "OK",
      "vis_m": 9999,
      "fzfg": false,
      "metar_trigger": false,
      "taf_trigger": false,
      "metar": "METAR LATI 141250Z 25009KT 220V280 9999 FEW040TCU 18/09 Q1009 NOSIG",
      "taf": "TAF LATI 141100Z 1412/1512 29010KT CAVOK TX20/1412Z TN05/1505Z"
    },
    {
      "icao": "LBPD",
      "alert": "OK",
      "vis_m": 9999,
      "fzfg": false,
      "metar_trigger": false,
      "taf_trigger": false,
      "metar": "METAR LBPD 141300Z AUTO 10010KT 070V130 9999 NCD 13/00 Q1011 NOSIG",
      "taf": "TAF LBPD 141100Z 1412/1512 10010KT CAVOK"
    },
    {
      "icao": "LBSF",
      "alert": "OK",
      "vis_m": 9999,
      "fzfg": false,
      "metar_trigger": false,
      "taf_trigger": false,
      "metar": "METAR LBSF 141300Z 12006KT 060V150 CAVOK 15/M07 Q1009 NOSIG",
      "taf": "TAF LBSF 141100Z 1412/1512 10010KT CAVOK"
    },
    {
      "icao": "LBWN",
      "alert": "OK",
      "vis_m": 9999,
      "fzfg": false,
      "metar_trigger": false,
      "taf_trigger": false,
      "metar": "METAR LBWN 141300Z 12011KT 9999 FEW035 12/05 Q1014 NOSIG",
      "taf": "TAF LBWN 141100Z 1412/1512 12010KT 9999 SCT020"
    },
    {
      "icao": "LCLK",
      "alert": "OK",
      "vis_m": 6000,
      "fzfg": false,
      "metar_trigger": false,
      "taf_trigger": false,
      "metar": "METAR LCLK 141300Z 04033KT 6000 FEW006 SCT023 FEW035TCU BKN050 17/13 Q1001 NOSIG",
      "taf": "TAF LCLK 141130Z 1412/1512 05022KT 9999 SCT025"
    },
    {
      "icao": "LCPH",
      "alert": "OK",
      "vis_m": 8000,
      "fzfg": false,
      "metar_trigger": false,
      "taf_trigger": false,
      "metar": "METAR LCPH 141300Z 13017KT 090V160 8000 FEW025 SCT060 22/10 Q0998 NOSIG",
      "taf": "TAF LCPH 141130Z 1412/1512 06020KT 9999 SCT025"
    },
    {
      "icao": "LEAL",
      "alert": "OK",
      "vis_m": 9999,
      "fzfg": false,
      "metar_trigger": false,
      "taf_trigger": false,
      "metar": "METAR LEAL 141230Z 27015KT 240V300 9999 FEW012 BKN042 18/09 Q1007 NOSIG",
      "taf": "TAF LEAL 141100Z 1412/1512 27015KT 9999 BKN050 TX20/1412Z TN08/1506Z"
    },
    {
      "icao": "LEBB",
      "alert": "OK",
      "vis_m": 6000,
      "fzfg": false,
      "metar_trigger": false,
      "taf_trigger": false,
      "metar": "METAR LEBB 141230Z VRB02KT 6000 -RA FEW014 BKN020 BKN038 08/07 Q1012 TEMPO 3000 RA",
      "taf": "TAF LEBB 141100Z 1412/1512 32009KT 9999 SCT015 BKN025 TX12/1512Z TN08/1506Z"
    },
    {
      "icao": "LEBL",
      "alert": "OK",
      "vis_m": 9999,
      "fzfg": false,
      "metar_trigger": false,
      "taf_trigger": false,
      "metar": "METAR LEBL 141230Z 09013KT 9999 -RA FEW009 FEW020TCU BKN050 10/09 Q1004 NOSIG",
      "taf": "TAF LEBL 141100Z 1412/1512 12013KT 9999 FEW010 BKN045 TX15/1413Z TN07/1506Z"
    },
    {
      "icao": "LECH",
      "alert": "OK",
      "vis_m": 9999,
      "fzfg": false,
      "metar_trigger": false,
      "taf_trigger": false,
      "metar": "METAR LECH 141230Z AUTO 35014G24KT 320V040 9999 OVC060 13/02 Q1005",
      "taf": ""
    },
    {
      "icao": "LEMD",
      "alert": "OK",
      "vis_m": 9999,
      "fzfg": false,
      "metar_trigger": false,
      "taf_trigger": false,
      "metar": "METAR LEMD 141230Z 28017KT 250V310 9999 FEW050 BKN070 12/03 Q1010 NOSIG",
      "taf": ""
    },
    {
      "icao": "LEMG",
      "alert": "OK",
      "vis_m": 9999,
      "fzfg": false,
      "metar_trigger": false,
      "taf_trigger": false,
      "metar": "METAR LEMG 141230Z 29014G25KT 260V330 9999 BKN046 17/08 Q1014 NOSIG",
      "taf": "TAF LEMG 141100Z 1412/1512 31016KT 9999 FEW030 TX19/1415Z TN11/1507Z"
    },
    {
      "icao": "LEVC",
      "alert": "OK",
      "vis_m": 9999,
      "fzfg": false,
      "metar_trigger": false,
      "taf_trigger": false,
      "metar": "METAR LEVC 141230Z 34008KT 260V030 9999 BKN057 18/06 Q1005 NOSIG",
      "taf": "TAF LEVC 141100Z 1412/1512 26015KT CAVOK TX19/1414Z TN08/1506Z"
    },
    {
      "icao": "LEXJ",
      "alert": "OK",
      "vis_m": 9000,
      "fzfg": false,
      "metar_trigger": false,
      "taf_trigger": false,
      "metar": "METAR LEXJ 141230Z 35003KT 290V050 9000 RA SCT036 BKN046 OVC054 07/05 Q1012",
      "taf": "TAF LEXJ 140800Z 1409/1509 29009KT 9999 SCT015 BKN025 TX10/1413Z TN09/1505Z"
    },
    {
      "icao": "LEZG",
      "alert": "OK",
      "vis_m": 9999,
      "fzfg": false,
      "metar_trigger": false,
      "taf_trigger": false,
      "metar": "METAR LEZG 141230Z 31021KT 280V340 9999 BKN030 12/04 Q1008 NOSIG",
      "taf": "TAF LEZG 141100Z 1412/1512 30012KT 9999 SCT020 BKN040 TX12/1414Z TN06/1506Z"
    },
    {
      "icao": "LEZL",
      "alert": "OK",
      "vis_m": 9999,
      "fzfg": false,
      "metar_trigger": false,
      "taf_trigger": false,
      "metar": "METAR LEZL 141230Z 30013KT 260V340 9999 FEW046 19/08 Q1016 NOSIG",
      "taf": "TAF LEZL 140800Z 1409/1509 29011KT 9999 BKN040 TX21/1415Z TN10/1507Z"
    },
    {
      "icao": "LFBD",
      "alert": "OK",
      "vis_m": 9999,
      "fzfg": false,
      "metar_trigger": false,
      "taf_trigger": false,
      "metar": "METAR LFBD 141230Z AUTO 24005KT 190V300 9999 SCT041 BKN054 BKN170 12/05 Q1009 TEMPO 3000 SHRA BKN020TCU",
      "taf": "TAF LFBD 141100Z 1412/1518 30005KT 9999 BKN030 TX12/1413Z TN03/1505Z"
    },
    {
      "icao": "LFLL",
      "alert": "OK",
      "vis_m": 2000,
      "fzfg": false,
      "metar_trigger": false,
      "taf_trigger": false,
      "metar": "METAR LFLL 141245Z COR VRB02KT 2000 -RA BKN012 FEW013TCU BKN018 BKN040 04/02 Q1006 NOSIG",
      "taf": ""
    },
    {
      "icao": "LFLS",
      "alert": "OK",
      "vis_m": 9999,
      "fzfg": false,
      "metar_trigger": false,
      "taf_trigger": false,
      "metar": "METAR LFLS 141230Z AUTO 03006KT 010V070 9999 -RA BKN013 BKN029 OVC034 04/02 Q1005 TEMPO 35015G30KT 4000 SHRA SCT015TCU",
      "taf": ""
    },
    {
      "icao": "LFMN",
      "alert": "OK",
      "vis_m": 9999,
      "fzfg": false,
      "metar_trigger": false,
      "taf_trigger": false,
      "metar": "METAR LFMN 141230Z 34012KT 9999 FEW020 SCT028 BKN073 10/06 Q0998 NOSIG",
      "taf": ""
    },
    {
      "icao": "LFOB",
      "alert": "OK",
      "vis_m": 9999,
      "fzfg": false,
      "metar_trigger": false,
      "taf_trigger": false,
      "metar": "METAR LFOB 141230Z AUTO 28011KT 250V310 9999 SCT030/// SCT035/// BKN058/// ///CB 08/03 Q1005 TEMPO 2000 TSGSRA",
      "taf": "TAF LFOB 141100Z 1412/1512 30009KT 9999 SCT040"
    },
    {
      "icao": "LFPO",
      "alert": "OK",
      "vis_m": 9999,
      "fzfg": false,
      "metar_trigger": false,
      "taf_trigger": false,
      "metar": "METAR LFPO 141230Z 29009KT 240V340 9999 -SHRA BKN036 SCT043TCU 09/01 Q1006 NOSIG",
      "taf": "TAF LFPO 141100Z 1412/1518 29005KT 9999 BKN030"
    },
    {
      "icao": "LFSB",
      "alert": "OK",
      "vis_m": 9999,
      "fzfg": false,
      "metar_trigger": false,
      "taf_trigger": false,
      "metar": "METAR LFSB 141230Z AUTO 23009KT 200V260 9999 -RA SCT014 BKN039 OVC045 04/02 Q1005 TEMPO 4000 SHRA SCT020CB",
      "taf": "TAF LFSB 141100Z 1412/1512 25006KT 9999 SCT030 BKN050"
    },
    {
      "icao": "LGAV",
      "alert": "OK",
      "vis_m": 9999,
      "fzfg": false,
      "metar_trigger": false,
      "taf_trigger": false,
      "metar": "METAR LGAV 141250Z 04014KT 9999 SCT030 14/05 Q1010 NOSIG",
      "taf": "TAF LGAV 141100Z 1412/1512 04012KT 9999 SCT025"
    },
    {
      "icao": "LGTS",
      "alert": "OK",
      "vis_m": 9999,
      "fzfg": false,
      "metar_trigger": false,
      "taf_trigger": false,
      "metar": "METAR LGTS 141250Z 20008KT 9999 SCT020 16/04 Q1011 NOSIG",
      "taf": "TAF LGTS 141100Z 1412/1512 VRB03KT 9999 FEW030"
    },
    {
      "icao": "LHBP",
      "alert": "OK",
      "vis_m": 9999,
      "fzfg": false,
      "metar_trigger": false,
      "taf_trigger": false,
      "metar": "METAR LHBP 141300Z 14010KT 110V180 CAVOK 17/02 Q1007 NOSIG",
      "taf": "TAF LHBP 141115Z 1412/1512 14011KT CAVOK"
    },
    {
      "icao": "LHDC",
      "alert": "OK",
      "vis_m": 9999,
      "fzfg": false,
      "metar_trigger": false,
      "taf_trigger": false,
      "metar": "METAR LHDC 141215Z AUTO 18005KT 090V250 CAVOK 18/M04 Q1009 NOSIG",
      "taf": "TAF LHDC 141115Z 1412/1421 12008KT CAVOK"
    },
    {
      "icao": "LIBD",
      "alert": "OK",
      "vis_m": 9999,
      "fzfg": false,
      "metar_trigger": false,
      "taf_trigger": false,
      "metar": "METAR LIBD 141250Z 07012KT 9999 SCT040 16/11 Q1007",
      "taf": "TAF LIBD 141100Z 1412/1512 08010KT 9999 SCT030"
    },
    {
      "icao": "LIBG",
      "alert": "OK",
      "vis_m": 9999,
      "fzfg": false,
      "metar_trigger": false,
      "taf_trigger": false,
      "metar": "METAR LIBG 141150Z 18007KT 150V220 9999 SCT025 17/10 Q1009",
      "taf": "TAF LIBG 141100Z 1412/1421 17012KT 9999 SCT020"
    },
    {
      "icao": "LIBP",
      "alert": "OK",
      "vis_m": 9999,
      "fzfg": false,
      "metar_trigger": false,
      "taf_trigger": false,
      "metar": "METAR LIBP 141250Z AUTO 11011KT 9999 NCD 18/06 Q1005",
      "taf": "TAF LIBP 141100Z 1412/1512 08010KT 9999 FEW060"
    },
    {
      "icao": "LIBR",
      "alert": "OK",
      "vis_m": 9999,
      "fzfg": false,
      "metar_trigger": false,
      "taf_trigger": false,
      "metar": "METAR LIBR 141250Z 10009KT 9999 BKN025 15/10 Q1008",
      "taf": "TAF LIBR 141100Z 1412/1512 13012KT 9999 SCT030"
    },
    {
      "icao": "LICA",
      "alert": "OK",
      "vis_m": 9999,
      "fzfg": false,
      "metar_trigger": false,
      "taf_trigger": false,
      "metar": "METAR LICA 141250Z AUTO 08011KT 9999 FEW063/// SCT074/// 17/11 Q1008",
      "taf": "TAF LICA 141100Z 1412/1512 27010KT 9999 BKN040"
    },
    {
      "icao": "LICC",
      "alert": "OK",
      "vis_m": 9999,
      "fzfg": false,
      "metar_trigger": false,
      "taf_trigger": false,
      "metar": "METAR LICC 141250Z 14010KT 9999 FEW035 SCT070 16/13 Q1008",
      "taf": "TAF LICC 141100Z 1412/1512 26008KT 9999 SCT030"
    },
    {
      "icao": "LICJ",
      "alert": "OK",
      "vis_m": 9999,
      "fzfg": false,
      "metar_trigger": false,
      "taf_trigger": false,
      "metar": "METAR LICJ 141250Z 05005KT 020V080 9999 SCT045 14/08 Q1008",
      "taf": "TAF LICJ 141100Z 1412/1512 26011KT 9999 FEW040"
    },
    {
      "icao": "LIMC",
      "alert": "OK",
      "vis_m": 5000,
      "fzfg": false,
      "metar_trigger": false,
      "taf_trigger": false,
      "metar": "METAR LIMC 141250Z 12006KT 090V170 5000 RA BKN010 OVC040 10/08 Q1001 NOSIG",
      "taf": "TAF LIMC 141100Z 1412/1518 11010KT 7000 RA BKN030"
    },
    {
      "icao": "LIME",
      "alert": "OK",
      "vis_m": 8000,
      "fzfg": false,
      "metar_trigger": false,
      "taf_trigger": false,
      "metar": "METAR LIME 141250Z 11011KT 8000 -RA SCT030 BKN050 11/08 Q1001 NOSIG",
      "taf": "TAF LIME 141100Z 1412/1512 11011KT 7000 RA BKN040"
    },
    {
      "icao": "LIMF",
      "alert": "OK",
      "vis_m": 7000,
      "fzfg": false,
      "metar_trigger": false,
      "taf_trigger": false,
      "metar": "METAR LIMF 141250Z 35013KT 7000 -RA SCT010 OVC035 08/06 Q0999",
      "taf": "TAF LIMF 141100Z 1412/1512 VRB06KT 3000 RA BR BKN015"
    },
    {
      "icao": "LIMJ",
      "alert": "OK",
      "vis_m": 5000,
      "fzfg": false,
      "metar_trigger": false,
      "taf_trigger": false,
      "metar": "METAR LIMJ 141250Z 16017KT 5000 RA SCT015 SCT025 BKN050 13/10 Q1001",
      "taf": "TAF LIMJ 141100Z 1412/1512 17017KT 9999 RA BKN015"
    },
    {
      "icao": "LIPE",
      "alert": "OK",
      "vis_m": 9999,
      "fzfg": false,
      "metar_trigger": false,
      "taf_trigger": false,
      "metar": "METAR LIPE 141250Z 18010KT 140V210 CAVOK 17/05 Q1002",
      "taf": "TAF LIPE 141100Z 1412/1512 19013KT 9999 FEW060"
    },
    {
      "icao": "LIPH",
      "alert": "OK",
      "vis_m": 9999,
      "fzfg": false,
      "metar_trigger": false,
      "taf_trigger": false,
      "metar": "METAR LIPH 141250Z 09006KT 060V130 9999 SCT030 16/09 Q1004",
      "taf": "TAF LIPH 141100Z 1412/1512 05008KT 9000 SCT040"
    },
    {
      "icao": "LIPQ",
      "alert": "OK",
      "vis_m": 9999,
      "fzfg": false,
      "metar_trigger": false,
      "taf_trigger": false,
      "metar": "METAR LIPQ 141250Z AUTO 20015KT 9999 BKN075/// 15/10 Q1005",
      "taf": "TAF LIPQ 141100Z 1412/1512 20010KT 9999 SCT040"
    },
    {
      "icao": "LIPR",
      "alert": "OK",
      "vis_m": 9999,
      "fzfg": false,
      "metar_trigger": false,
      "taf_trigger": false,
      "metar": "METAR LIPR 141250Z 18007KT 9999 SCT040 17/06 Q1004",
      "taf": "TAF LIPR 141100Z 1412/1512 21012KT 9999 SCT040"
    },
    {
      "icao": "LIPX",
      "alert": "OK",
      "vis_m": 8000,
      "fzfg": false,
      "metar_trigger": false,
      "taf_trigger": false,
      "metar": "METAR LIPX 141250Z 09011KT 8000 FEW025 SCT080 15/09 Q1002",
      "taf": "TAF LIPX 141100Z 1412/1512 10013KT 8000 SCT015"
    },
    {
      "icao": "LIPY",
      "alert": "OK",
      "vis_m": 9999,
      "fzfg": false,
      "metar_trigger": false,
      "taf_trigger": false,
      "metar": "METAR LIPY 141250Z AUTO 14009KT 100V170 9999 BKN085/// 16/10 Q1004",
      "taf": "TAF LIPY 141100Z 1412/1512 14010KT 9999 SCT060"
    },
    {
      "icao": "LIPZ",
      "alert": "OK",
      "vis_m": 9999,
      "fzfg": false,
      "metar_trigger": false,
      "taf_trigger": false,
      "metar": "METAR LIPZ 141250Z 13008KT 9999 FEW030 15/09 Q1004 NOSIG",
      "taf": "TAF LIPZ 141100Z 1412/1518 23007KT 9000 SCT040"
    },
    {
      "icao": "LIRF",
      "alert": "OK",
      "vis_m": 9999,
      "fzfg": false,
      "metar_trigger": false,
      "taf_trigger": false,
      "metar": "METAR LIRF 141250Z 18010KT 9999 BKN020 15/10 Q1006 NOSIG",
      "taf": "TAF LIRF 141100Z 1412/1518 13013KT 9999 FEW040"
    },
    {
      "icao": "LIRN",
      "alert": "OK",
      "vis_m": 9999,
      "fzfg": false,
      "metar_trigger": false,
      "taf_trigger": false,
      "metar": "METAR LIRN 141250Z 22012KT 9999 FEW050 16/10 Q1008 NOSIG",
      "taf": "TAF LIRN 141100Z 1412/1512 20010KT 9999 FEW040"
    },
    {
      "icao": "LIRP",
      "alert": "OK",
      "vis_m": 9999,
      "fzfg": false,
      "metar_trigger": false,
      "taf_trigger": false,
      "metar": "METAR LIRP 141245Z 18012KT 9999 BKN040 15/08 Q1002 NOSIG",
      "taf": "TAF LIRP 141100Z 1412/1512 10012KT 9999 SCT020 SCT050"
    },
    {
      "icao": "LIRZ",
      "alert": "OK",
      "vis_m": 9999,
      "fzfg": false,
      "metar_trigger": false,
      "taf_trigger": false,
      "metar": "METAR LIRZ 141250Z AUTO 21011KT 9999 FEW039/// BKN069/// 15/07 Q1005",
      "taf": "TAF LIRZ 141100Z 1412/1512 19012KT 9999 BKN030"
    },
    {
      "icao": "LJLJ",
      "alert": "OK",
      "vis_m": 9999,
      "fzfg": false,
      "metar_trigger": false,
      "taf_trigger": false,
      "metar": "METAR LJLJ 141230Z 01004KT 340V070 9999 -SHRA FEW020TCU BKN040 12/05 Q1005 NOSIG",
      "taf": "TAF LJLJ 141100Z 1412/1512 VRB02KT 9999 BKN030"
    },
    {
      "icao": "LKMT",
      "alert": "OK",
      "vis_m": 9999,
      "fzfg": false,
      "metar_trigger": false,
      "taf_trigger": false,
      "metar": "METAR LKMT 141230Z 19017G28KT CAVOK 17/M00 Q1003 NOSIG",
      "taf": "TAF LKMT 141100Z 1412/1512 18014KT CAVOK"
    },
    {
      "icao": "LKPR",
      "alert": "OK",
      "vis_m": 9999,
      "fzfg": false,
      "metar_trigger": false,
      "taf_trigger": false,
      "metar": "METAR LKPR 141230Z 15007KT 9999 BKN038 13/05 Q0998 NOSIG",
      "taf": "TAF LKPR 141100Z 1412/1518 13008KT CAVOK"
    },
    {
      "icao": "LLBG",
      "alert": "OK",
      "vis_m": 9999,
      "fzfg": false,
      "metar_trigger": false,
      "taf_trigger": false,
      "metar": "METAR LLBG 141250Z 19019KT CAVOK 25/09 Q1001 NOSIG RMK BKN110",
      "taf": "TAF LLBG 141103Z 1412/1512 17015KT 5000 DU NSC TX26/1412Z TN13/1504Z"
    },
    {
      "icao": "LMML",
      "alert": "OK",
      "vis_m": 9999,
      "fzfg": false,
      "metar_trigger": false,
      "taf_trigger": false,
      "metar": "METAR LMML 141245Z 24012KT 210V270 9999 FEW018 15/10 Q1010 NOSIG",
      "taf": "TAF LMML 141100Z 1412/1512 23010KT 9999 FEW015"
    },
    {
      "icao": "LOWW",
      "alert": "OK",
      "vis_m": 9999,
      "fzfg": false,
      "metar_trigger": false,
      "taf_trigger": false,
      "metar": "METAR LOWW 141250Z 17023KT CAVOK 18/04 Q1001 NOSIG",
      "taf": "TAF LOWW 141115Z 1412/1518 15015G25KT CAVOK TX18/1414Z TN06/1505Z"
    },
    {
      "icao": "LPFR",
      "alert": "OK",
      "vis_m": 9999,
      "fzfg": false,
      "metar_trigger": false,
      "taf_trigger": false,
      "metar": "METAR LPFR 141230Z 30014KT 9999 SCT038 19/09 Q1018",
      "taf": "TAF LPFR 141100Z 1412/1512 32010KT 9999 SCT030"
    },
    {
      "icao": "LPMA",
      "alert": "OK",
      "vis_m": 9999,
      "fzfg": false,
      "metar_trigger": false,
      "taf_trigger": false,
      "metar": "METAR LPMA 141230Z 03016KT 9999 FEW015 18/12 Q1025",
      "taf": "TAF LPMA 141100Z 1412/1512 02012KT 9999 SCT015"
    },
    {
      "icao": "LPPR",
      "alert": "OK",
      "vis_m": 2400,
      "fzfg": false,
      "metar_trigger": false,
      "taf_trigger": false,
      "metar": "METAR LPPR 141230Z 22005KT 170V320 2400 DZRA BR BKN003 BKN008 12/12 Q1015",
      "taf": "TAF LPPR 141100Z 1412/1512 25008KT 6000 -RA SCT006 BKN012"
    },
    {
      "icao": "LPPS",
      "alert": "OK",
      "vis_m": 9999,
      "fzfg": false,
      "metar_trigger": false,
      "taf_trigger": false,
      "metar": "METAR LPPS 141230Z 01012KT 9999 FEW011 BKN030 17/14 Q1025",
      "taf": "TAF LPPS 141100Z 1412/1518 02012KT 9999 SCT015 BKN030"
    },
    {
      "icao": "LPPT",
      "alert": "OK",
      "vis_m": 9999,
      "fzfg": false,
      "metar_trigger": false,
      "taf_trigger": false,
      "metar": "METAR LPPT 141230Z 27009KT 240V310 9999 FEW010 BKN016 14/11 Q1019",
      "taf": "TAF LPPT 141100Z 1412/1518 29010KT 9999 BKN020"
    },
    {
      "icao": "LQBK",
      "alert": "OK",
      "vis_m": 9999,
      "fzfg": false,
      "metar_trigger": false,
      "taf_trigger": false,
      "metar": "METAR LQBK 141230Z VRB04KT CAVOK 20/M03 Q1005 NOSIG",
      "taf": "TAF LQBK 141100Z 1412/1512 16007KT 9999 FEW040 TX21/1413Z TN04/1505Z"
    },
    {
      "icao": "LQSA",
      "alert": "OK",
      "vis_m": 9999,
      "fzfg": false,
      "metar_trigger": false,
      "taf_trigger": false,
      "metar": "METAR LQSA 141230Z 18007KT 140V270 9999 FEW065 17/M06 Q1006 NOSIG",
      "taf": "TAF LQSA 141100Z 1412/1512 16005KT CAVOK TX19/1414Z TN00/1505Z"
    },
    {
      "icao": "LQTZ",
      "alert": "OK",
      "vis_m": 9999,
      "fzfg": false,
      "metar_trigger": false,
      "taf_trigger": false,
      "metar": "METAR LQTZ 141230Z 10005KT 070V130 9999 SCT065 19/M02 Q1005",
      "taf": "TAF LQTZ 141100Z 1412/1512 10007KT CAVOK TX20/1413Z TN00/1505Z"
    },
    {
      "icao": "LRBC",
      "alert": "OK",
      "vis_m": 9999,
      "fzfg": false,
      "metar_trigger": false,
      "taf_trigger": false,
      "metar": "METAR LRBC 141230Z 17012KT CAVOK 08/02 Q1016",
      "taf": "TAF LRBC 141100Z 1412/1421 17015KT CAVOK"
    },
    {
      "icao": "LRBS",
      "alert": "OK",
      "vis_m": 9999,
      "fzfg": false,
      "metar_trigger": false,
      "taf_trigger": false,
      "metar": "METAR LRBS 141230Z 07012KT CAVOK 09/04 Q1015 NOSIG",
      "taf": "TAF LRBS 141100Z 1412/1512 07008KT CAVOK"
    },
    {
      "icao": "LRBV",
      "alert": "OK",
      "vis_m": 9999,
      "fzfg": false,
      "metar_trigger": false,
      "taf_trigger": false,
      "metar": "METAR LRBV 141230Z 16011KT 120V200 CAVOK 15/M12 Q1011",
      "taf": "TAF LRBV 141100Z 1412/1421 VRB04KT CAVOK"
    },
    {
      "icao": "LRCL",
      "alert": "OK",
      "vis_m": 9999,
      "fzfg": false,
      "metar_trigger": false,
      "taf_trigger": false,
      "metar": "METAR LRCL 141230Z 16009KT 120V200 CAVOK 15/M06 Q1010",
      "taf": "TAF LRCL 141100Z 1412/1421 12008KT CAVOK"
    },
    {
      "icao": "LRCV",
      "alert": "OK",
      "vis_m": 9999,
      "fzfg": false,
      "metar_trigger": false,
      "taf_trigger": false,
      "metar": "METAR LRCV 141230Z 08012KT 9999 FEW028 11/04 Q1013",
      "taf": "TAF LRCV 141100Z 1412/1421 07014KT CAVOK"
    },
    {
      "icao": "LRIA",
      "alert": "OK",
      "vis_m": 9999,
      "fzfg": false,
      "metar_trigger": false,
      "taf_trigger": false,
      "metar": "METAR LRIA 141230Z 16010KT 120V180 CAVOK 08/01 Q1017",
      "taf": "TAF LRIA 141100Z 1412/1421 13012KT CAVOK"
    },
    {
      "icao": "LROP",
      "alert": "OK",
      "vis_m": 9999,
      "fzfg": false,
      "metar_trigger": false,
      "taf_trigger": false,
      "metar": "METAR LROP 141230Z 07011KT CAVOK 09/02 Q1015 NOSIG",
      "taf": "TAF LROP 141100Z 1412/1512 07008KT CAVOK"
    },
    {
      "icao": "LRSB",
      "alert": "OK",
      "vis_m": 9999,
      "fzfg": false,
      "metar_trigger": false,
      "taf_trigger": false,
      "metar": "METAR LRSB 141230Z 13017KT CAVOK 15/M08 Q1009",
      "taf": "TAF LRSB 141100Z 1412/1512 12018KT CAVOK"
    },
    {
      "icao": "LRSM",
      "alert": "OK",
      "vis_m": 9999,
      "fzfg": false,
      "metar_trigger": false,
      "taf_trigger": false,
      "metar": "METAR LRSM 141230Z AUTO 19009KT 9999 NCD 18/M08 Q1009",
      "taf": ""
    },
    {
      "icao": "LRSV",
      "alert": "OK",
      "vis_m": 9999,
      "fzfg": false,
      "metar_trigger": false,
      "taf_trigger": false,
      "metar": "METAR LRSV 141230Z 12015KT CAVOK 11/02 Q1014",
      "taf": "TAF LRSV 141100Z 1412/1421 14015KT CAVOK"
    },
    {
      "icao": "LRTM",
      "alert": "OK",
      "vis_m": 9999,
      "fzfg": false,
      "metar_trigger": false,
      "taf_trigger": false,
      "metar": "METAR LRTM 141230Z 18006KT 130V220 CAVOK 17/M10 Q1010",
      "taf": "TAF LRTM 141100Z 1412/1421 16005KT CAVOK"
    },
    {
      "icao": "LRTR",
      "alert": "OK",
      "vis_m": 9999,
      "fzfg": false,
      "metar_trigger": false,
      "taf_trigger": false,
      "metar": "METAR LRTR 141230Z 15008KT 110V200 CAVOK 18/M02 Q1008",
      "taf": "TAF LRTR 141100Z 1412/1512 17010KT CAVOK"
    },
    {
      "icao": "LTAC",
      "alert": "OK",
      "vis_m": 9999,
      "fzfg": false,
      "metar_trigger": false,
      "taf_trigger": false,
      "metar": "METAR LTAC 141250Z 11010KT 9999 FEW040 BKN200 12/M09 Q1008 NOSIG RMK RWY21C 10010KT RWY03L 10009KT RWY21R 08010KT 030V100 RWY03R 09009KT RWY21L 10011KT",
      "taf": "TAF LTAC 141040Z 1412/1512 03008KT 9999 SCT040 BKN100"
    },
    {
      "icao": "LTFM",
      "alert": "OK",
      "vis_m": 9999,
      "fzfg": false,
      "metar_trigger": false,
      "taf_trigger": false,
      "metar": "METAR LTFM 141250Z 02016KT 9999 BKN032 08/04 Q1012 NOSIG RMK RWY17L 02014KT RWY34L 01014KT RWY16R 01012KT RWY36 02016KT RWY18 03013KT",
      "taf": "TAF LTFM 141040Z 1412/1518 03012KT 9999 SCT035 BKN120"
    },
    {
      "icao": "LUKK",
      "alert": "OK",
      "vis_m": 9999,
      "fzfg": false,
      "metar_trigger": false,
      "taf_trigger": false,
      "metar": "METAR LUKK 141230Z 17006KT 090V230 CAVOK 12/04 Q1017 NOSIG",
      "taf": "TAF LUKK 141104Z 1412/1512 13009KT CAVOK"
    },
    {
      "icao": "LWOH",
      "alert": "OK",
      "vis_m": 9999,
      "fzfg": false,
      "metar_trigger": false,
      "taf_trigger": false,
      "metar": "METAR LWOH 141250Z 14006KT 9999 FEW040 13/02 Q1009",
      "taf": "TAF LWOH 141115Z 1412/1512 16008KT FEW040"
    },
    {
      "icao": "LWSK",
      "alert": "OK",
      "vis_m": 9999,
      "fzfg": false,
      "metar_trigger": false,
      "taf_trigger": false,
      "metar": "METAR LWSK 141250Z VRB02KT 9999 FEW050 19/05 Q1008 NOSIG",
      "taf": "TAF LWSK 141115Z 1412/1512 VRB02KT 9999 FEW040"
    },
    {
      "icao": "LYBE",
      "alert": "OK",
      "vis_m": 9999,
      "fzfg": false,
      "metar_trigger": false,
      "taf_trigger": false,
      "metar": "METAR LYBE 141230Z 13011KT CAVOK 18/01 Q1007 NOSIG",
      "taf": "TAF LYBE 141100Z 1412/1512 13015KT CAVOK TX20/1413Z TN08/1505Z"
    },
    {
      "icao": "LYNI",
      "alert": "OK",
      "vis_m": 9999,
      "fzfg": false,
      "metar_trigger": false,
      "taf_trigger": false,
      "metar": "METAR LYNI 141230Z VRB02KT 9999 FEW050 18/00 Q1009 NOSIG",
      "taf": "TAF LYNI 141100Z 1412/1512 12006KT CAVOK TX20/1414Z TN03/1505Z"
    },
    {
      "icao": "LYPG",
      "alert": "OK",
      "vis_m": 9999,
      "fzfg": false,
      "metar_trigger": false,
      "taf_trigger": false,
      "metar": "METAR LYPG 141230Z 17005KT 130V220 9999 FEW030 18/06 Q1009 NOSIG",
      "taf": "TAF LYPG 141100Z 1412/1512 16008KT 9999 FEW040 TX19/1413Z TN06/1505Z"
    },
    {
      "icao": "LZIB",
      "alert": "OK",
      "vis_m": 9999,
      "fzfg": false,
      "metar_trigger": false,
      "taf_trigger": false,
      "metar": "METAR LZIB 141300Z 17018KT CAVOK 18/03 Q1002 NOSIG",
      "taf": "TAF LZIB 141115Z 1412/1512 16015KT CAVOK"
    },
    {
      "icao": "LZKZ",
      "alert": "OK",
      "vis_m": 9999,
      "fzfg": false,
      "metar_trigger": false,
      "taf_trigger": false,
      "metar": "METAR LZKZ 141300Z 20008KT 160V240 CAVOK 16/M03 Q1009 NOSIG",
      "taf": "TAF LZKZ 141115Z 1412/1512 20009KT CAVOK"
    },
    {
      "icao": "LZTT",
      "alert": "OK",
      "vis_m": 9999,
      "fzfg": false,
      "metar_trigger": false,
      "taf_trigger": false,
      "metar": "METAR LZTT 141300Z 17011KT 130V220 9999 FEW063 13/M03 Q1007 NOSIG",
      "taf": "TAF LZTT 141115Z 1412/1512 17008KT 9999 FEW055"
    },
    {
      "icao": "OEJN",
      "alert": "OK",
      "vis_m": 8000,
      "fzfg": false,
      "metar_trigger": false,
      "taf_trigger": false,
      "metar": "METAR OEJN 141300Z 21012KT 8000 FEW040 30/19 Q1006 NOSIG",
      "taf": "TAF OEJN 141100Z 1412/1518 22016KT 7000 NSC"
    },
    {
      "icao": "OEMA",
      "alert": "OK",
      "vis_m": 9999,
      "fzfg": false,
      "metar_trigger": false,
      "taf_trigger": false,
      "metar": "METAR OEMA 141300Z 19013KT CAVOK 34/04 Q1008 NOSIG",
      "taf": "TAF OEMA 141100Z 1412/1518 19016KT 7000 NSC"
    },
    {
      "icao": "OJAI",
      "alert": "OK",
      "vis_m": null,
      "fzfg": false,
      "metar_trigger": false,
      "taf_trigger": false,
      "metar": "",
      "taf": "TAF OJAI 140439Z 1406/1512 20008KT 3500 -RA FEW035TCU BKN045 OVC080"
    },
    {
      "icao": "OMAA",
      "alert": "OK",
      "vis_m": null,
      "fzfg": false,
      "metar_trigger": false,
      "taf_trigger": false,
      "metar": "",
      "taf": ""
    },
    {
      "icao": "OMDB",
      "alert": "OK",
      "vis_m": null,
      "fzfg": false,
      "metar_trigger": false,
      "taf_trigger": false,
      "metar": "",
      "taf": ""
    },
    {
      "icao": "UAAA",
      "alert": "OK",
      "vis_m": 9999,
      "fzfg": false,
      "metar_trigger": false,
      "taf_trigger": false,
      "metar": "METAR UAAA 141230Z 36002MPS 9999 NSC 05/M03 Q1024 NOSIG",
      "taf": "TAF UAAA 141103Z 1412/1512 22003MPS 9999 SCT100 TX07/1509Z TNM06/1501Z"
    },
    {
      "icao": "UBBB",
      "alert": "OK",
      "vis_m": 9999,
      "fzfg": false,
      "metar_trigger": false,
      "taf_trigger": false,
      "metar": "METAR UBBB 141300Z 16014KT CAVOK 11/04 Q1022 NOSIG",
      "taf": "TAF UBBB 141053Z 1412/1512 17012KT 9999 SCT030 TX11/1412Z TN04/1502Z"
    },
    {
      "icao": "UDSG",
      "alert": "OK",
      "vis_m": 9000,
      "fzfg": false,
      "metar_trigger": false,
      "taf_trigger": false,
      "metar": "METAR UDSG 141230Z 26004KT 9000 -SN OVC036 02/M01 Q1018 NOSIG",
      "taf": "TAF UDSG 141100Z 1412/1512 VRB06KT 5000 BR BKN030"
    },
    {
      "icao": "UDYZ",
      "alert": "OK",
      "vis_m": 9999,
      "fzfg": false,
      "metar_trigger": false,
      "taf_trigger": false,
      "metar": "METAR UDYZ 141230Z 16003KT 120V240 9999 SCT046 11/00 Q1017 NOSIG",
      "taf": "TAF UDYZ 141100Z 1412/1512 23006KT 9999 SCT040"
    },
    {
      "icao": "UGKO",
      "alert": "OK",
      "vis_m": 9999,
      "fzfg": false,
      "metar_trigger": false,
      "taf_trigger": false,
      "metar": "METAR UGKO 141230Z 08026KT CAVOK 17/M00 Q1014 NOSIG",
      "taf": "TAF UGKO 141100Z 1412/1512 08025G37KT CAVOK TX17/1412Z TN10/1503Z"
    }
  ]
}