{
  "ts_utc": "2026-02-16T08:07:08Z",
  "threshold_m": 150,
  "source": "stations_override.txt (ICAO list) + aviationweather.gov (METAR/TAF raw)",
  "station_count": 159,
  "stations": [
    {
      "icao": "BIKF",
      "alert": "OK",
      "vis_m": 9999,
      "fzfg": false,
      "metar_trigger": false,
      "taf_trigger": false,
      "metar": "METAR BIKF 160800Z 01008KT CAVOK M05/M09 Q1009",
      "taf": "TAF BIKF 160800Z 1609/1709 04008KT CAVOK TXM01/1614Z TNM06/1609Z"
    },
    {
      "icao": "BKPR",
      "alert": "OK",
      "vis_m": 9999,
      "fzfg": false,
      "metar_trigger": false,
      "taf_trigger": false,
      "metar": "METAR BKPR 160800Z 15005KT 9999 SCT020 BKN040 02/M01 Q1007 NOSIG",
      "taf": "TAF BKPR 160530Z 1606/1706 19006KT 9999 SCT040"
    },
    {
      "icao": "EBCI",
      "alert": "OK",
      "vis_m": 9999,
      "fzfg": false,
      "metar_trigger": false,
      "taf_trigger": false,
      "metar": "METAR EBCI 160750Z 22009KT 9999 SCT017 05/03 Q0996 TEMPO 4000 SHRA SCT008 BKN013",
      "taf": "TAF EBCI 160500Z 1606/1712 24010KT 9999 FEW013 BKN025"
    },
    {
      "icao": "EDDB",
      "alert": "OK",
      "vis_m": 9999,
      "fzfg": false,
      "metar_trigger": false,
      "taf_trigger": false,
      "metar": "METAR EDDB 160750Z AUTO 12014KT 090V150 9999 SCT037 M04/M09 Q0999 NOSIG",
      "taf": "TAF EDDB 160500Z 1606/1706 13011KT CAVOK"
    },
    {
      "icao": "EDDH",
      "alert": "OK",
      "vis_m": 6000,
      "fzfg": false,
      "metar_trigger": false,
      "taf_trigger": false,
      "metar": "METAR EDDH 160750Z AUTO 13012KT 6000 -SN SCT013 SCT036 M04/M06 Q0996 TEMPO 4500 BKN012",
      "taf": "TAF EDDH 160500Z 1606/1712 12013KT 6000 BKN015"
    },
    {
      "icao": "EDDK",
      "alert": "OK",
      "vis_m": 9999,
      "fzfg": false,
      "metar_trigger": false,
      "taf_trigger": false,
      "metar": "METAR EDDK 160750Z AUTO 24008KT 9999 -RA FEW014 BKN030 BKN041 04/03 Q0996 NOSIG",
      "taf": "TAF EDDK 160500Z 1606/1712 24008KT 9999 BKN012"
    },
    {
      "icao": "EDDN",
      "alert": "OK",
      "vis_m": 8000,
      "fzfg": false,
      "metar_trigger": false,
      "taf_trigger": false,
      "metar": "METAR EDDN 160750Z AUTO 17006KT 8000 -RA FEW006 OVC012 02/01 Q0996 BECMG 24008KT RA",
      "taf": "TAF EDDN 160500Z 1606/1706 14006KT 9999 FEW012 BKN025"
    },
    {
      "icao": "EDDS",
      "alert": "OK",
      "vis_m": 9999,
      "fzfg": false,
      "metar_trigger": false,
      "taf_trigger": false,
      "metar": "METAR EDDS 160750Z AUTO 24010KT 210V270 9999 -DZ FEW017 05/02 Q0998 NOSIG",
      "taf": "TAF EDDS 160500Z 1606/1706 24008KT 9999 BKN025"
    },
    {
      "icao": "EDFH",
      "alert": "OK",
      "vis_m": 9999,
      "fzfg": false,
      "metar_trigger": false,
      "taf_trigger": false,
      "metar": "METAR EDFH 160750Z 26015KT 9999 FEW007 BKN009 03/02 Q0996",
      "taf": "TAF EDFH 160500Z 1606/1706 26013KT 6000 BKN005"
    },
    {
      "icao": "EDJA",
      "alert": "OK",
      "vis_m": 9999,
      "fzfg": false,
      "metar_trigger": false,
      "taf_trigger": false,
      "metar": "METAR EDJA 160750Z 22013G25KT 9999 FEW022 BKN029 03/01 Q1000",
      "taf": "TAF EDJA 160500Z 1606/1615 23015G25KT 9999 FEW009 BKN030"
    },
    {
      "icao": "EDLW",
      "alert": "OK",
      "vis_m": 2700,
      "fzfg": false,
      "metar_trigger": false,
      "taf_trigger": false,
      "metar": "METAR EDLW 160750Z COR 23009KT 2700 -RA BR SCT002 OVC004 04/04 Q0993",
      "taf": ""
    },
    {
      "icao": "EDNY",
      "alert": "OK",
      "vis_m": 9999,
      "fzfg": false,
      "metar_trigger": false,
      "taf_trigger": false,
      "metar": "METAR EDNY 160720Z 24013KT 9999 SCT058 04/02 Q1002",
      "taf": "TAF EDNY 160500Z 1606/1615 23008KT 9999 FEW010 BKN040"
    },
    {
      "icao": "EDSB",
      "alert": "OK",
      "vis_m": 9999,
      "fzfg": false,
      "metar_trigger": false,
      "taf_trigger": false,
      "metar": "METAR EDSB 160750Z 20009KT 9999 SCT028 OVC035 07/04 Q1000",
      "taf": "TAF EDSB 160500Z 1606/1706 21011KT 9999 BKN020"
    },
    {
      "icao": "EETN",
      "alert": "OK",
      "vis_m": 9999,
      "fzfg": false,
      "metar_trigger": false,
      "taf_trigger": false,
      "metar": "METAR EETN 160750Z 03003KT 9999 OVC020 M05/M08 Q1012 NOSIG",
      "taf": "TAF EETN 160530Z 1606/1706 VRB02KT 9999 BKN025"
    },
    {
      "icao": "EFTU",
      "alert": "OK",
      "vis_m": 9999,
      "fzfg": false,
      "metar_trigger": false,
      "taf_trigger": false,
      "metar": "METAR EFTU 160750Z AUTO 12005KT 9999 OVC004 M09/M10 Q1012",
      "taf": ""
    },
    {
      "icao": "EGBB",
      "alert": "OK",
      "vis_m": 9999,
      "fzfg": false,
      "metar_trigger": false,
      "taf_trigger": false,
      "metar": "METAR EGBB 160750Z 24005KT 210V290 9999 FEW030 04/01 Q0994",
      "taf": "TAF EGBB 160458Z 1606/1706 23009KT 9999 SCT030"
    },
    {
      "icao": "EGGP",
      "alert": "OK",
      "vis_m": 9000,
      "fzfg": false,
      "metar_trigger": false,
      "taf_trigger": false,
      "metar": "METAR EGGP 160750Z 27016KT 9000 -RA FEW016 BKN027 05/03 Q0992",
      "taf": "TAF EGGP 160454Z 1606/1706 26014KT 9999 SCT025"
    },
    {
      "icao": "EGGW",
      "alert": "OK",
      "vis_m": 9999,
      "fzfg": false,
      "metar_trigger": false,
      "taf_trigger": false,
      "metar": "METAR EGGW 160750Z AUTO 28013KT 9999 NCD 04/02 Q0994",
      "taf": "TAF EGGW 160454Z 1606/1706 25014KT 9999 FEW030"
    },
    {
      "icao": "EGKK",
      "alert": "OK",
      "vis_m": 9999,
      "fzfg": false,
      "metar_trigger": false,
      "taf_trigger": false,
      "metar": "METAR EGKK 160750Z 25011KT 9999 FEW022 06/03 Q0996",
      "taf": "TAF EGKK 160454Z 1606/1712 25010KT 9999 FEW040"
    },
    {
      "icao": "EGNM",
      "alert": "OK",
      "vis_m": 9999,
      "fzfg": false,
      "metar_trigger": false,
      "taf_trigger": false,
      "metar": "METAR EGNM 160750Z 30009KT 9999 VCSH SCT014 SCT032 03/02 Q0990",
      "taf": "TAF EGNM 160453Z 1606/1706 28012KT 9999 SCT015"
    },
    {
      "icao": "EGPD",
      "alert": "OK",
      "vis_m": 9999,
      "fzfg": false,
      "metar_trigger": false,
      "taf_trigger": false,
      "metar": "METAR EGPD 160750Z COR AUTO 07002KT 9999 NCD M02/M03 Q0986 NOSIG",
      "taf": ""
    },
    {
      "icao": "EGPF",
      "alert": "OK",
      "vis_m": 9999,
      "fzfg": false,
      "metar_trigger": false,
      "taf_trigger": false,
      "metar": "METAR EGPF 160750Z AUTO 25004KT 9999 SCT036 SCT044 02/01 Q0989",
      "taf": "TAF EGPF 160456Z 1606/1706 26005KT 9999 FEW015 SCT025"
    },
    {
      "icao": "EHBK",
      "alert": "OK",
      "vis_m": 9999,
      "fzfg": false,
      "metar_trigger": false,
      "taf_trigger": false,
      "metar": "METAR EHBK 160755Z AUTO 22011KT 9999 FEW011 BKN016 OVC019 05/04 Q0996 TEMPO BKN014",
      "taf": ""
    },
    {
      "icao": "EHEH",
      "alert": "OK",
      "vis_m": 9999,
      "fzfg": false,
      "metar_trigger": false,
      "taf_trigger": false,
      "metar": "METAR EHEH 160755Z AUTO 22010KT 9999 FEW007 SCT043 BKN048 05/04 Q0994 BLU BECMG SCT012 BKN015 RMK TREND REMOTE BY EHWX",
      "taf": "TAF EHEH 160556Z 1606/1712 24008KT 6000 BKN006"
    },
    {
      "icao": "EKBI",
      "alert": "OK",
      "vis_m": 9999,
      "fzfg": false,
      "metar_trigger": false,
      "taf_trigger": false,
      "metar": "METAR EKBI 160750Z AUTO 12014KT 070V140 9999 -SN FEW018/// FEW062/// BKN080/// M04/M08 Q0996",
      "taf": "TAF EKBI 160527Z 1606/1706 15015KT CAVOK"
    },
    {
      "icao": "EKCH",
      "alert": "OK",
      "vis_m": 9999,
      "fzfg": false,
      "metar_trigger": false,
      "taf_trigger": false,
      "metar": "METAR EKCH 160750Z AUTO 12023G33KT 9999 FEW120/// M03/M09 Q1003 TEMPO 15018G28KT",
      "taf": "TAF EKCH 160527Z 1606/1706 15012KT CAVOK"
    },
    {
      "icao": "ENAL",
      "alert": "OK",
      "vis_m": 9999,
      "fzfg": false,
      "metar_trigger": false,
      "taf_trigger": false,
      "metar": "METAR ENAL 160750Z 19012KT CAVOK 04/M09 Q0991",
      "taf": "TAF ENAL 160500Z 1606/1615 17012KT CAVOK"
    },
    {
      "icao": "ENBR",
      "alert": "OK",
      "vis_m": 9999,
      "fzfg": false,
      "metar_trigger": false,
      "taf_trigger": false,
      "metar": "METAR ENBR 160750Z 13015KT CAVOK 01/M09 Q0993 TEMPO 14015G25KT RMK WIND 1200FT 14036KT",
      "taf": "TAF ENBR 160500Z 1606/1706 14012KT CAVOK"
    },
    {
      "icao": "ENGM",
      "alert": "OK",
      "vis_m": 9999,
      "fzfg": false,
      "metar_trigger": false,
      "taf_trigger": false,
      "metar": "METAR ENGM 160750Z 15006KT 9999 BKN019 M07/M10 Q1003 NOSIG",
      "taf": "TAF ENGM 160500Z 1606/1706 16008KT 9999 -SN BKN020"
    },
    {
      "icao": "ENHD",
      "alert": "OK",
      "vis_m": 9999,
      "fzfg": false,
      "metar_trigger": false,
      "taf_trigger": false,
      "metar": "METAR ENHD 160750Z 11020KT CAVOK 00/M07 Q0993",
      "taf": "TAF ENHD 160500Z 1606/1615 14018KT 9999 SCT008 BKN018"
    },
    {
      "icao": "ENTC",
      "alert": "OK",
      "vis_m": 9999,
      "fzfg": false,
      "metar_trigger": false,
      "taf_trigger": false,
      "metar": "METAR ENTC 160750Z 04002KT 9999 NSC M04/M06 Q0994 RMK WIND 2600FT 17017KT",
      "taf": "TAF ENTC 160500Z 1606/1706 02006KT 9999 SCT015 BKN025"
    },
    {
      "icao": "ENTO",
      "alert": "OK",
      "vis_m": 9999,
      "fzfg": false,
      "metar_trigger": false,
      "taf_trigger": false,
      "metar": "METAR ENTO 160750Z 10007KT 060V130 9999 -SN OVC020 M05/M07 Q1003 NOSIG NOSIG",
      "taf": "TAF ENTO 160500Z 1606/1706 12007KT 9999 OVC018"
    },
    {
      "icao": "ENVA",
      "alert": "OK",
      "vis_m": 9999,
      "fzfg": false,
      "metar_trigger": false,
      "taf_trigger": false,
      "metar": "METAR ENVA 160750Z 15014KT CAVOK M01/M09 Q0995 NOSIG RMK WIND 670FT 17021KT",
      "taf": "TAF ENVA 160500Z 1606/1706 14009KT CAVOK"
    },
    {
      "icao": "ENZV",
      "alert": "OK",
      "vis_m": 9999,
      "fzfg": false,
      "metar_trigger": false,
      "taf_trigger": false,
      "metar": "METAR ENZV 160750Z 13019KT CAVOK 01/M08 Q0993 TEMPO 12018G28KT",
      "taf": "TAF ENZV 160500Z 1606/1706 14015KT 9999 SCT035"
    },
    {
      "icao": "EPGD",
      "alert": "OK",
      "vis_m": 9999,
      "fzfg": false,
      "metar_trigger": false,
      "taf_trigger": false,
      "metar": "METAR EPGD 160800Z 11009KT CAVOK M14/M20 Q1009",
      "taf": "TAF EPGD 160530Z 1606/1706 11012KT CAVOK"
    },
    {
      "icao": "EPKK",
      "alert": "OK",
      "vis_m": 9999,
      "fzfg": false,
      "metar_trigger": false,
      "taf_trigger": false,
      "metar": "METAR EPKK 160800Z 08011KT 9999 OVC011 M07/M10 Q1005",
      "taf": "TAF EPKK 160530Z 1606/1706 08010KT 9999 SCT011 OVC015"
    },
    {
      "icao": "EPKT",
      "alert": "OK",
      "vis_m": 9999,
      "fzfg": false,
      "metar_trigger": false,
      "taf_trigger": false,
      "metar": "METAR EPKT 160800Z 10014KT 9999 FEW008 BKN010 M08/M11 Q1003",
      "taf": "TAF EPKT 160530Z 1606/1706 10010KT 9999 -SN BKN005"
    },
    {
      "icao": "EPLB",
      "alert": "OK",
      "vis_m": 9999,
      "fzfg": false,
      "metar_trigger": false,
      "taf_trigger": false,
      "metar": "METAR EPLB 160800Z 07002KT CAVOK M14/M15 Q1008",
      "taf": "TAF EPLB 160530Z 1606/1706 10010KT CAVOK"
    },
    {
      "icao": "EPMO",
      "alert": "OK",
      "vis_m": 9999,
      "fzfg": false,
      "metar_trigger": false,
      "taf_trigger": false,
      "metar": "METAR EPMO 160800Z 08010KT CAVOK M13/M16 Q1009",
      "taf": "TAF EPMO 160530Z 1606/1706 09010KT CAVOK"
    },
    {
      "icao": "EPPO",
      "alert": "OK",
      "vis_m": 9999,
      "fzfg": false,
      "metar_trigger": false,
      "taf_trigger": false,
      "metar": "METAR EPPO 160800Z 10014KT CAVOK M07/M11 Q1004",
      "taf": "TAF EPPO 160530Z 1606/1706 11010KT CAVOK"
    },
    {
      "icao": "EPRA",
      "alert": "OK",
      "vis_m": 9999,
      "fzfg": false,
      "metar_trigger": false,
      "taf_trigger": false,
      "metar": "METAR EPRA 160800Z 11006KT CAVOK M11/M14 Q1008",
      "taf": "TAF EPRA 160530Z 1606/1615 09006KT CAVOK"
    },
    {
      "icao": "EPRZ",
      "alert": "OK",
      "vis_m": 6000,
      "fzfg": false,
      "metar_trigger": false,
      "taf_trigger": false,
      "metar": "METAR EPRZ 160800Z 09004KT 6000 SCT003 BKN011 M10/M11 Q1007",
      "taf": ""
    },
    {
      "icao": "EPSC",
      "alert": "OK",
      "vis_m": 9999,
      "fzfg": false,
      "metar_trigger": false,
      "taf_trigger": false,
      "metar": "METAR EPSC 160800Z 11014KT CAVOK M07/M12 Q1003",
      "taf": "TAF EPSC 160530Z 1606/1706 13015KT CAVOK"
    },
    {
      "icao": "EPSY",
      "alert": "OK",
      "vis_m": 9999,
      "fzfg": false,
      "metar_trigger": false,
      "taf_trigger": false,
      "metar": "METAR EPSY 160800Z 06004KT 010V090 CAVOK M14/M18 Q1010",
      "taf": "TAF EPSY 160530Z 1606/1615 08007KT CAVOK"
    },
    {
      "icao": "EPWA",
      "alert": "OK",
      "vis_m": 9999,
      "fzfg": false,
      "metar_trigger": false,
      "taf_trigger": false,
      "metar": "METAR EPWA 160800Z 08008KT CAVOK M12/M16 Q1009 NOSIG",
      "taf": "TAF EPWA 160530Z 1606/1706 09008KT CAVOK"
    },
    {
      "icao": "EPWR",
      "alert": "OK",
      "vis_m": 9999,
      "fzfg": false,
      "metar_trigger": false,
      "taf_trigger": false,
      "metar": "METAR EPWR 160800Z 13020KT 9999 SCT016 BKN021 M05/M09 Q1003",
      "taf": "TAF EPWR 160530Z 1606/1706 14010KT 9999 BKN020"
    },
    {
      "icao": "ESGG",
      "alert": "OK",
      "vis_m": 9999,
      "fzfg": false,
      "metar_trigger": false,
      "taf_trigger": false,
      "metar": "METAR ESGG 160750Z 14014KT CAVOK M06/M12 Q1003",
      "taf": "TAF ESGG 160530Z 1606/1706 14012KT CAVOK"
    },
    {
      "icao": "ESKN",
      "alert": "OK",
      "vis_m": 9999,
      "fzfg": false,
      "metar_trigger": false,
      "taf_trigger": false,
      "metar": "METAR ESKN 160750Z VRB02KT CAVOK M13/M14 Q1010",
      "taf": "TAF ESKN 160530Z 1606/1706 VRB03KT CAVOK"
    },
    {
      "icao": "ESMS",
      "alert": "OK",
      "vis_m": 9999,
      "fzfg": false,
      "metar_trigger": false,
      "taf_trigger": false,
      "metar": "METAR ESMS 160750Z 12014KT CAVOK M04/M10 Q1003",
      "taf": "TAF ESMS 160527Z 1606/1706 15008KT CAVOK"
    },
    {
      "icao": "ESSA",
      "alert": "OK",
      "vis_m": 9999,
      "fzfg": false,
      "metar_trigger": false,
      "taf_trigger": false,
      "metar": "METAR ESSA 160750Z 14003KT CAVOK M10/M12 Q1010 NOSIG",
      "taf": "TAF ESSA 160530Z 1606/1706 17007KT CAVOK"
    },
    {
      "icao": "EYKA",
      "alert": "OK",
      "vis_m": 7000,
      "fzfg": false,
      "metar_trigger": false,
      "taf_trigger": false,
      "metar": "METAR EYKA 160750Z 00000KT 7000 FEW019 SCT025 M15/M17 Q1013",
      "taf": "TAF EYKA 160501Z 1606/1706 VRB04KT 9000 NSC"
    },
    {
      "icao": "EYPA",
      "alert": "OK",
      "vis_m": 9999,
      "fzfg": false,
      "metar_trigger": false,
      "taf_trigger": false,
      "metar": "METAR EYPA 160750Z 31002KT 9999 BKN028 M19/M22 Q1013",
      "taf": "TAF EYPA 160500Z 1606/1706 VRB04KT 9000 NSC"
    },
    {
      "icao": "EYVI",
      "alert": "OK",
      "vis_m": 9999,
      "fzfg": false,
      "metar_trigger": false,
      "taf_trigger": false,
      "metar": "METAR EYVI 160750Z 01007KT CAVOK M16/M20 Q1010 NOSIG",
      "taf": "TAF EYVI 160500Z 1606/1706 02008KT 8000 SCT020"
    },
    {
      "icao": "GCFV",
      "alert": "OK",
      "vis_m": 8000,
      "fzfg": false,
      "metar_trigger": false,
      "taf_trigger": false,
      "metar": "METAR GCFV 160800Z 32006KT 8000 SCT010 BKN030 16/14 Q1028",
      "taf": ""
    },
    {
      "icao": "GCLP",
      "alert": "OK",
      "vis_m": 8000,
      "fzfg": false,
      "metar_trigger": false,
      "taf_trigger": false,
      "metar": "METAR GCLP 160800Z 23003KT 8000 NSC 16/08 Q1027 NOSIG",
      "taf": "TAF GCLP 160200Z 1603/1703 36010KT 7000 NSC TX26/1614Z TN16/1606Z"
    },
    {
      "icao": "GCTS",
      "alert": "OK",
      "vis_m": 9999,
      "fzfg": false,
      "metar_trigger": false,
      "taf_trigger": false,
      "metar": "METAR GCTS 160800Z 09014KT 9999 SCT050 18/04 Q1026 NOSIG",
      "taf": "TAF GCTS 160200Z 1603/1703 07014KT 7000 FEW030 TX27/1614Z TN18/1606Z"
    },
    {
      "icao": "GMAD",
      "alert": "OK",
      "vis_m": 9999,
      "fzfg": false,
      "metar_trigger": false,
      "taf_trigger": false,
      "metar": "METAR GMAD 160800Z 09009KT CAVOK 10/08 Q1027 NOSIG",
      "taf": "TAF GMAD 160500Z 1606/1712 06008KT CAVOK"
    },
    {
      "icao": "GMMN",
      "alert": "OK",
      "vis_m": 9999,
      "fzfg": false,
      "metar_trigger": false,
      "taf_trigger": false,
      "metar": "METAR GMMN 160800Z 06009KT CAVOK 09/07 Q1031 NOSIG",
      "taf": "TAF GMMN 160500Z 1606/1712 06008KT CAVOK"
    },
    {
      "icao": "GMMX",
      "alert": "OK",
      "vis_m": 9999,
      "fzfg": false,
      "metar_trigger": false,
      "taf_trigger": false,
      "metar": "METAR GMMX 160800Z 09005KT CAVOK 08/05 Q1029 NOSIG",
      "taf": "TAF GMMX 160500Z 1606/1712 06006KT 8000 NSC"
    },
    {
      "icao": "HEGN",
      "alert": "OK",
      "vis_m": 9999,
      "fzfg": false,
      "metar_trigger": false,
      "taf_trigger": false,
      "metar": "METAR HEGN 160700Z 00000KT CAVOK 22/M01 Q1015 NOSIG",
      "taf": "TAF HEGN 160500Z 1606/1712 27008KT 6000 NSC"
    },
    {
      "icao": "HEMA",
      "alert": "OK",
      "vis_m": 9999,
      "fzfg": false,
      "metar_trigger": false,
      "taf_trigger": false,
      "metar": "METAR HEMA 160700Z 33006KT CAVOK 27/M04 Q1014 NOSIG",
      "taf": "TAF HEMA 160500Z 1606/1712 26008KT 6000 NSC"
    },
    {
      "icao": "HESH",
      "alert": "OK",
      "vis_m": 9999,
      "fzfg": false,
      "metar_trigger": false,
      "taf_trigger": false,
      "metar": "METAR HESH 160700Z 35013KT CAVOK 28/M02 Q1015 NOSIG",
      "taf": "TAF HESH 160500Z 1606/1712 31008KT 6000 NSC"
    },
    {
      "icao": "HESX",
      "alert": "OK",
      "vis_m": 9999,
      "fzfg": false,
      "metar_trigger": false,
      "taf_trigger": false,
      "metar": "METAR HESX 160700Z 09002KT CAVOK 21/M01 Q1014 NOSIG",
      "taf": "TAF HESX 160500Z 1606/1712 18007KT 6000 NSC"
    },
    {
      "icao": "LATI",
      "alert": "OK",
      "vis_m": 9999,
      "fzfg": false,
      "metar_trigger": false,
      "taf_trigger": false,
      "metar": "METAR LATI 160750Z 15005KT 9999 SCT070 10/08 Q1008 NOSIG",
      "taf": "TAF LATI 160500Z 1606/1706 VRB05KT 9999 BKN040 TX13/1612Z TN08/1606Z"
    },
    {
      "icao": "LBPD",
      "alert": "OK",
      "vis_m": 9999,
      "fzfg": false,
      "metar_trigger": false,
      "taf_trigger": false,
      "metar": "METAR LBPD 160800Z AUTO 00000KT 9999 FEW110/// 07/03 Q1006 NOSIG",
      "taf": "TAF LBPD 160500Z 1606/1706 29010KT 9999 BKN040"
    },
    {
      "icao": "LBSF",
      "alert": "OK",
      "vis_m": 9999,
      "fzfg": false,
      "metar_trigger": false,
      "taf_trigger": false,
      "metar": "METAR LBSF 160800Z 30004KT 270V330 9999 FEW010 BKN014 BKN043 02/M01 Q1007 NOSIG",
      "taf": "TAF LBSF 160500Z 1606/1706 29010KT 9999 BKN040"
    },
    {
      "icao": "LBWN",
      "alert": "OK",
      "vis_m": 9999,
      "fzfg": false,
      "metar_trigger": false,
      "taf_trigger": false,
      "metar": "METAR LBWN 160800Z 28014KT 9999 SCT049 06/00 Q1008 NOSIG",
      "taf": "TAF LBWN 160500Z 1606/1706 30010KT 9999 SCT045"
    },
    {
      "icao": "LCLK",
      "alert": "OK",
      "vis_m": 7000,
      "fzfg": false,
      "metar_trigger": false,
      "taf_trigger": false,
      "metar": "METAR LCLK 160800Z 06012KT 7000 FEW050 20/17 Q1016 NOSIG",
      "taf": "TAF LCLK 160530Z 1606/1706 35007KT 9999 FEW025"
    },
    {
      "icao": "LCPH",
      "alert": "OK",
      "vis_m": 6000,
      "fzfg": false,
      "metar_trigger": false,
      "taf_trigger": false,
      "metar": "METAR LCPH 160800Z 10012KT 090V160 6000 FEW030 22/07 Q1014 BECMG 5000 DU",
      "taf": "TAF LCPH 160530Z 1606/1706 08009KT 9999 FEW020"
    },
    {
      "icao": "LEAL",
      "alert": "OK",
      "vis_m": 9999,
      "fzfg": false,
      "metar_trigger": false,
      "taf_trigger": false,
      "metar": "METAR LEAL 160800Z 28013KT 250V320 CAVOK 16/05 Q1022 NOSIG",
      "taf": "TAF LEAL 160500Z 1606/1706 29012KT CAVOK TX22/1613Z TN13/1606Z"
    },
    {
      "icao": "LEBB",
      "alert": "OK",
      "vis_m": 2900,
      "fzfg": false,
      "metar_trigger": false,
      "taf_trigger": false,
      "metar": "METAR LEBB 160800Z 23005KT 170V290 2900 RA FEW012 OVC017 12/11 Q1018 TEMPO 6000 NSW",
      "taf": "TAF LEBB 160500Z 1606/1706 20008KT 9999 FEW015 BKN025 TX14/1609Z TN10/1706Z"
    },
    {
      "icao": "LEBL",
      "alert": "OK",
      "vis_m": 9999,
      "fzfg": false,
      "metar_trigger": false,
      "taf_trigger": false,
      "metar": "METAR LEBL 160800Z 27004KT 240V310 9999 FEW035 14/08 Q1015 NOSIG",
      "taf": "TAF LEBL 160500Z 1606/1706 23012KT 9999 FEW035 TX21/1613Z TN13/1606Z"
    },
    {
      "icao": "LECH",
      "alert": "OK",
      "vis_m": 9999,
      "fzfg": false,
      "metar_trigger": false,
      "taf_trigger": false,
      "metar": "METAR LECH 160800Z AUTO 20004KT 170V230 CAVOK 12/04 Q1018",
      "taf": ""
    },
    {
      "icao": "LEMD",
      "alert": "OK",
      "vis_m": 9999,
      "fzfg": false,
      "metar_trigger": false,
      "taf_trigger": false,
      "metar": "METAR LEMD 160800Z 22013KT 9999 FEW010 08/07 Q1024 NOSIG",
      "taf": "TAF LEMD 160500Z 1606/1712 26010KT 9999 FEW040 TX14/1614Z TN07/1607Z"
    },
    {
      "icao": "LEMG",
      "alert": "OK",
      "vis_m": 9999,
      "fzfg": false,
      "metar_trigger": false,
      "taf_trigger": false,
      "metar": "METAR LEMG 160800Z 30019G29KT 9999 FEW040 12/07 Q1029 NOSIG",
      "taf": "TAF LEMG 160500Z 1606/1706 30012KT 9999 SCT040 TX19/1614Z TN12/1607Z"
    },
    {
      "icao": "LEVC",
      "alert": "OK",
      "vis_m": 9999,
      "fzfg": false,
      "metar_trigger": false,
      "taf_trigger": false,
      "metar": "METAR LEVC 160800Z 26020G31KT CAVOK 14/06 Q1020 NOSIG",
      "taf": "TAF LEVC 160500Z 1606/1706 27014KT CAVOK TX23/1614Z TN13/1606Z"
    },
    {
      "icao": "LEXJ",
      "alert": "OK",
      "vis_m": 1400,
      "fzfg": false,
      "metar_trigger": false,
      "taf_trigger": false,
      "metar": "METAR LEXJ 160800Z 26009KT 220V010 1400 R29/P2000 R11/P2000 +RA SCT007 BKN012 OVC021 12/11 Q1018",
      "taf": ""
    },
    {
      "icao": "LEZG",
      "alert": "OK",
      "vis_m": 9999,
      "fzfg": false,
      "metar_trigger": false,
      "taf_trigger": false,
      "metar": "METAR LEZG 160800Z 25021KT 9999 SCT060 14/07 Q1018 NOSIG",
      "taf": "TAF LEZG 160500Z 1606/1706 27012KT CAVOK TX17/1612Z TN11/1606Z"
    },
    {
      "icao": "LEZL",
      "alert": "OK",
      "vis_m": 9999,
      "fzfg": false,
      "metar_trigger": false,
      "taf_trigger": false,
      "metar": "METAR LEZL 160800Z 25004KT 230V290 9999 BKN035 13/11 Q1032 NOSIG",
      "taf": "TAF LEZL 160200Z 1603/1703 27006KT 9999 SCT040 TX19/1615Z TN06/1607Z"
    },
    {
      "icao": "LFBD",
      "alert": "OK",
      "vis_m": 9999,
      "fzfg": false,
      "metar_trigger": false,
      "taf_trigger": false,
      "metar": "METAR LFBD 160800Z AUTO 29016KT 9999 BKN014 BKN019 OVC094 13/11 Q1012 TEMPO 29020G30KT 4000 SHRA BKN006 BKN015TCU",
      "taf": "TAF LFBD 160500Z 1606/1712 27015KT 9999 BKN012 TX14/1614Z TN12/1621Z"
    },
    {
      "icao": "LFLL",
      "alert": "OK",
      "vis_m": 5000,
      "fzfg": false,
      "metar_trigger": false,
      "taf_trigger": false,
      "metar": "METAR LFLL 160800Z 14005KT 110V170 5000 -SHRA FEW020 SCT030TCU BKN035 07/06 Q1008 TEMPO VRB10KT 4000 SHRA FEW020CB BKN030TCU",
      "taf": "TAF LFLL 160500Z 1606/1712 20010KT 9999 BKN040"
    },
    {
      "icao": "LFLS",
      "alert": "OK",
      "vis_m": 9999,
      "fzfg": false,
      "metar_trigger": false,
      "taf_trigger": false,
      "metar": "METAR LFLS 160800Z AUTO 05004KT 020V080 9999 -RA SCT033/// OVC040/// ///TCU 06/06 Q1008 TEMPO VRB15G30KT 3000 RA",
      "taf": ""
    },
    {
      "icao": "LFMN",
      "alert": "OK",
      "vis_m": 9999,
      "fzfg": false,
      "metar_trigger": false,
      "taf_trigger": false,
      "metar": "METAR LFMN 160800Z 22004KT 140V270 CAVOK 11/08 Q1004 NOSIG",
      "taf": "TAF LFMN 160200Z 1603/1709 33010KT CAVOK"
    },
    {
      "icao": "LFOB",
      "alert": "OK",
      "vis_m": 9999,
      "fzfg": false,
      "metar_trigger": false,
      "taf_trigger": false,
      "metar": "METAR LFOB 160800Z AUTO 26016G26KT 240V300 9999 -RA SCT034/// BKN054/// BKN072/// ///TCU 07/04 Q0999 TEMPO VRB25G45KT 1500 TSRAGS BKN008 BKN012CB",
      "taf": "TAF LFOB 160500Z 1606/1706 24010G20KT 9999 BKN030"
    },
    {
      "icao": "LFPO",
      "alert": "OK",
      "vis_m": 9999,
      "fzfg": false,
      "metar_trigger": false,
      "taf_trigger": false,
      "metar": "METAR LFPO 160800Z 25010KT CAVOK 07/04 Q1001 TEMPO 27015G30KT 4000 -SHRA BKN014TCU",
      "taf": "TAF LFPO 160500Z 1606/1712 26010KT CAVOK"
    },
    {
      "icao": "LFSB",
      "alert": "OK",
      "vis_m": 9999,
      "fzfg": false,
      "metar_trigger": false,
      "taf_trigger": false,
      "metar": "METAR LFSB 160800Z AUTO 27011KT 9999 FEW010 SCT056 07/04 Q1003 TEMPO 4500 -SHRA SCT030TCU BECMG 25015G25KT",
      "taf": "TAF LFSB 160500Z 1606/1706 25015G25KT 9999 FEW030 BKN045"
    },
    {
      "icao": "LGAV",
      "alert": "OK",
      "vis_m": 9999,
      "fzfg": false,
      "metar_trigger": false,
      "taf_trigger": false,
      "metar": "METAR LGAV 160750Z 20014KT 9999 SCT018 16/11 Q1007 NOSIG",
      "taf": "TAF LGAV 160500Z 1606/1706 24010KT 9999 FEW018 SCT025"
    },
    {
      "icao": "LGTS",
      "alert": "OK",
      "vis_m": 9999,
      "fzfg": false,
      "metar_trigger": false,
      "taf_trigger": false,
      "metar": "METAR LGTS 160750Z 28004KT 9999 FEW025 12/09 Q1006 NOSIG",
      "taf": "TAF LGTS 160500Z 1606/1706 VRB03KT 9999 FEW025"
    },
    {
      "icao": "LHBP",
      "alert": "OK",
      "vis_m": 9999,
      "fzfg": false,
      "metar_trigger": false,
      "taf_trigger": false,
      "metar": "METAR LHBP 160800Z 13004KT CAVOK M04/M07 Q1007 NOSIG",
      "taf": "TAF LHBP 160515Z 1606/1706 12005KT CAVOK"
    },
    {
      "icao": "LHDC",
      "alert": "OK",
      "vis_m": 9999,
      "fzfg": false,
      "metar_trigger": false,
      "taf_trigger": false,
      "metar": "METAR LHDC 160745Z AUTO 10005KT 060V150 CAVOK M03/M07 Q1008 NOSIG",
      "taf": "TAF LHDC 160515Z 1606/1615 12004KT CAVOK"
    },
    {
      "icao": "LIBD",
      "alert": "OK",
      "vis_m": 7000,
      "fzfg": false,
      "metar_trigger": false,
      "taf_trigger": false,
      "metar": "METAR LIBD 160750Z 22003KT 7000 BKN045 10/07 Q1008",
      "taf": "TAF LIBD 160500Z 1606/1706 VRB05KT 9999 SCT030"
    },
    {
      "icao": "LIBG",
      "alert": "OK",
      "vis_m": 9999,
      "fzfg": false,
      "metar_trigger": false,
      "taf_trigger": false,
      "metar": "METAR LIBG 160750Z VRB02KT CAVOK 09/07 Q1008",
      "taf": "TAF LIBG 160710Z 1608/1615 VRB05KT CAVOK"
    },
    {
      "icao": "LIBP",
      "alert": "OK",
      "vis_m": 9999,
      "fzfg": false,
      "metar_trigger": false,
      "taf_trigger": false,
      "metar": "METAR LIBP 160750Z AUTO VRB01KT 9999 SCT230/// 05/05 Q1006",
      "taf": "TAF LIBP 160500Z 1606/1706 VRB05KT 9999 FEW030 SCT060"
    },
    {
      "icao": "LIBR",
      "alert": "OK",
      "vis_m": 9999,
      "fzfg": false,
      "metar_trigger": false,
      "taf_trigger": false,
      "metar": "METAR LIBR 160750Z 24007KT CAVOK 09/05 Q1008",
      "taf": "TAF LIBR 160500Z 1606/1706 29013KT 9999 SCT030"
    },
    {
      "icao": "LICA",
      "alert": "OK",
      "vis_m": 9999,
      "fzfg": false,
      "metar_trigger": false,
      "taf_trigger": false,
      "metar": "METAR LICA 160750Z AUTO 27017KT 9999 BKN064/// 14/11 Q1010",
      "taf": "TAF LICA 160500Z 1606/1706 28015KT 9999 FEW030"
    },
    {
      "icao": "LICC",
      "alert": "OK",
      "vis_m": 9999,
      "fzfg": false,
      "metar_trigger": false,
      "taf_trigger": false,
      "metar": "METAR LICC 160750Z 31009KT CAVOK 13/10 Q1012",
      "taf": "TAF LICC 160500Z 1606/1706 27016KT 9999 SCT020"
    },
    {
      "icao": "LICJ",
      "alert": "OK",
      "vis_m": 9999,
      "fzfg": false,
      "metar_trigger": false,
      "taf_trigger": false,
      "metar": "METAR LICJ 160750Z 26019KT 9999 SCT020 15/11 Q1012",
      "taf": "TAF LICJ 160500Z 1606/1706 28017KT 9999 SCT030"
    },
    {
      "icao": "LIMC",
      "alert": "OK",
      "vis_m": 9999,
      "fzfg": false,
      "metar_trigger": false,
      "taf_trigger": false,
      "metar": "METAR LIMC 160750Z 03006KT CAVOK 06/02 Q1003 NOSIG",
      "taf": "TAF LIMC 160500Z 1606/1712 VRB05KT CAVOK"
    },
    {
      "icao": "LIME",
      "alert": "OK",
      "vis_m": 9999,
      "fzfg": false,
      "metar_trigger": false,
      "taf_trigger": false,
      "metar": "METAR LIME 160750Z AUTO VRB02KT 9999 NCD 06/02 Q1002",
      "taf": "TAF LIME 160500Z 1606/1706 VRB05KT CAVOK"
    },
    {
      "icao": "LIMF",
      "alert": "OK",
      "vis_m": null,
      "fzfg": false,
      "metar_trigger": false,
      "taf_trigger": false,
      "metar": "METAR LIMF 160750Z AUTO 34003KT //// // OVC100/// 07/00 Q1003",
      "taf": "TAF LIMF 160500Z 1606/1706 VRB05KT CAVOK"
    },
    {
      "icao": "LIMJ",
      "alert": "OK",
      "vis_m": 9999,
      "fzfg": false,
      "metar_trigger": false,
      "taf_trigger": false,
      "metar": "METAR LIMJ 160750Z 02006KT 9999 BKN025 11/05 Q1003",
      "taf": "TAF LIMJ 160500Z 1606/1706 VRB05KT CAVOK"
    },
    {
      "icao": "LIPE",
      "alert": "OK",
      "vis_m": 9999,
      "fzfg": false,
      "metar_trigger": false,
      "taf_trigger": false,
      "metar": "METAR LIPE 160750Z 28004KT CAVOK 06/04 Q1004",
      "taf": "TAF LIPE 160500Z 1606/1706 VRB05KT 6000 FEW060"
    },
    {
      "icao": "LIPH",
      "alert": "OK",
      "vis_m": 9999,
      "fzfg": false,
      "metar_trigger": false,
      "taf_trigger": false,
      "metar": "METAR LIPH 160750Z 04005KT 360V080 9999 SCT020 06/04 Q1004",
      "taf": "TAF LIPH 160500Z 1606/1706 VRB05KT 9999 FEW020 SCT060"
    },
    {
      "icao": "LIPQ",
      "alert": "OK",
      "vis_m": 9999,
      "fzfg": false,
      "metar_trigger": false,
      "taf_trigger": false,
      "metar": "METAR LIPQ 160750Z AUTO VRB02KT 9999 BKN034/// BKN056/// 07/01 Q1004",
      "taf": "TAF LIPQ 160500Z 1606/1706 07007KT 9999 FEW060"
    },
    {
      "icao": "LIPR",
      "alert": "OK",
      "vis_m": 9999,
      "fzfg": false,
      "metar_trigger": false,
      "taf_trigger": false,
      "metar": "METAR LIPR 160750Z 21008KT 9999 SCT050 10/05 Q1004",
      "taf": "TAF LIPR 160500Z 1606/1706 15007KT CAVOK"
    },
    {
      "icao": "LIPX",
      "alert": "OK",
      "vis_m": 9999,
      "fzfg": false,
      "metar_trigger": false,
      "taf_trigger": false,
      "metar": "METAR LIPX 160750Z 25003KT CAVOK 05/02 Q1004",
      "taf": "TAF LIPX 160500Z 1606/1706 VRB05KT CAVOK"
    },
    {
      "icao": "LIPY",
      "alert": "OK",
      "vis_m": 9999,
      "fzfg": false,
      "metar_trigger": false,
      "taf_trigger": false,
      "metar": "METAR LIPY 160750Z AUTO VRB01KT 9999 FEW069/// BKN160/// 06/05 Q1005",
      "taf": "TAF LIPY 160500Z 1606/1706 VRB05KT 9999 FEW020"
    },
    {
      "icao": "LIPZ",
      "alert": "OK",
      "vis_m": 9999,
      "fzfg": false,
      "metar_trigger": false,
      "taf_trigger": false,
      "metar": "METAR LIPZ 160750Z 04009KT 9999 BKN025 07/03 Q1004 NOSIG",
      "taf": "TAF LIPZ 160500Z 1606/1712 VRB05KT 9999 FEW060"
    },
    {
      "icao": "LIRF",
      "alert": "OK",
      "vis_m": 9999,
      "fzfg": false,
      "metar_trigger": false,
      "taf_trigger": false,
      "metar": "METAR LIRF 160750Z 08003KT CAVOK 08/06 Q1007 NOSIG",
      "taf": "TAF LIRF 160500Z 1606/1712 VRB05KT CAVOK"
    },
    {
      "icao": "LIRN",
      "alert": "OK",
      "vis_m": 9999,
      "fzfg": false,
      "metar_trigger": false,
      "taf_trigger": false,
      "metar": "METAR LIRN 160750Z VRB02KT 9999 FEW040 11/07 Q1008 NOSIG",
      "taf": "TAF LIRN 160500Z 1606/1706 VRB05KT CAVOK"
    },
    {
      "icao": "LIRP",
      "alert": "OK",
      "vis_m": 7000,
      "fzfg": false,
      "metar_trigger": false,
      "taf_trigger": false,
      "metar": "METAR LIRP 160745Z 23007KT 7000 -RA SCT020 BKN040 12/12 Q1004 TEMPO 5000",
      "taf": "TAF LIRP 160500Z 1606/1706 VRB03KT 9999 BKN030"
    },
    {
      "icao": "LIRZ",
      "alert": "OK",
      "vis_m": 9999,
      "fzfg": false,
      "metar_trigger": false,
      "taf_trigger": false,
      "metar": "METAR LIRZ 160750Z AUTO VRB02KT 9999 OVC051/// 04/03 Q1007",
      "taf": "TAF LIRZ 160500Z 1606/1706 VRB05KT CAVOK"
    },
    {
      "icao": "LJLJ",
      "alert": "OK",
      "vis_m": 9999,
      "fzfg": false,
      "metar_trigger": false,
      "taf_trigger": false,
      "metar": "METAR LJLJ 160800Z 00000KT 9999 SCT035 BKN047 00/M02 Q1003 NOSIG",
      "taf": "TAF LJLJ 160500Z 1606/1706 VRB02KT 9999 BKN040"
    },
    {
      "icao": "LKMT",
      "alert": "OK",
      "vis_m": 5000,
      "fzfg": false,
      "metar_trigger": false,
      "taf_trigger": false,
      "metar": "METAR LKMT 160800Z 00000KT 5000 BR NSC M09/M11 Q1003 NOSIG",
      "taf": "TAF LKMT 160500Z 1606/1706 VRB02KT CAVOK"
    },
    {
      "icao": "LKPR",
      "alert": "OK",
      "vis_m": 3000,
      "fzfg": false,
      "metar_trigger": false,
      "taf_trigger": false,
      "metar": "METAR LKPR 160800Z 13008KT 3000 -SN BR FEW007 BKN021 OVC029 M05/M06 Q0997 NOSIG",
      "taf": "TAF LKPR 160500Z 1606/1712 14007KT 6000 -SN OVC011"
    },
    {
      "icao": "LLBG",
      "alert": "OK",
      "vis_m": 9000,
      "fzfg": false,
      "metar_trigger": false,
      "taf_trigger": false,
      "metar": "METAR LLBG 160750Z VRB02KT 9000 NSC 27/06 Q1014 NOSIG",
      "taf": "TAF LLBG 160502Z 1606/1706 VRB04KT 8000 NSC"
    },
    {
      "icao": "LMML",
      "alert": "OK",
      "vis_m": 9999,
      "fzfg": false,
      "metar_trigger": false,
      "taf_trigger": false,
      "metar": "METAR LMML 160745Z 30010KT 9999 SCT026 14/10 Q1015 NOSIG",
      "taf": ""
    },
    {
      "icao": "LOWW",
      "alert": "OK",
      "vis_m": 9999,
      "fzfg": false,
      "metar_trigger": false,
      "taf_trigger": false,
      "metar": "METAR LOWW 160750Z 14013KT 9999 FEW030 SCT032 BKN034 M03/M06 Q1002 NOSIG",
      "taf": "TAF LOWW 160515Z 1606/1712 13012KT 9999 BKN030 TX04/1712Z TNM04/1606Z"
    },
    {
      "icao": "LPFR",
      "alert": "OK",
      "vis_m": 9999,
      "fzfg": false,
      "metar_trigger": false,
      "taf_trigger": false,
      "metar": "METAR LPFR 160800Z 27003KT 9999 BKN032 13/10 Q1033",
      "taf": "TAF LPFR 160500Z 1606/1706 VRB05KT 9999 BKN030"
    },
    {
      "icao": "LPMA",
      "alert": "OK",
      "vis_m": 9999,
      "fzfg": false,
      "metar_trigger": false,
      "taf_trigger": false,
      "metar": "METAR LPMA 160800Z 02008KT 350V070 9999 BKN015 16/12 Q1031",
      "taf": "TAF LPMA 160500Z 1606/1706 02010KT 9999 SCT016"
    },
    {
      "icao": "LPPR",
      "alert": "OK",
      "vis_m": 8000,
      "fzfg": false,
      "metar_trigger": false,
      "taf_trigger": false,
      "metar": "METAR LPPR 160800Z 25006KT 190V310 8000 -DZ BKN008 14/13 Q1027",
      "taf": "TAF LPPR 160500Z 1606/1706 24010KT 9999 SCT006 BKN012"
    },
    {
      "icao": "LPPS",
      "alert": "OK",
      "vis_m": 9999,
      "fzfg": false,
      "metar_trigger": false,
      "taf_trigger": false,
      "metar": "METAR LPPS 160800Z 10013G24KT 9999 SCT012 15/13 Q1030",
      "taf": "TAF LPPS 160500Z 1606/1712 09015KT 9999 SCT015"
    },
    {
      "icao": "LPPT",
      "alert": "OK",
      "vis_m": 9999,
      "fzfg": false,
      "metar_trigger": false,
      "taf_trigger": false,
      "metar": "METAR LPPT 160800Z 23006KT 9999 FEW006 BKN034 12/11 Q1031",
      "taf": "TAF LPPT 160500Z 1606/1712 26010KT 9999 SCT020"
    },
    {
      "icao": "LQBK",
      "alert": "OK",
      "vis_m": 9999,
      "fzfg": false,
      "metar_trigger": false,
      "taf_trigger": false,
      "metar": "METAR LQBK 160800Z 12004KT 080V150 CAVOK M02/M04 Q1007 NOSIG",
      "taf": "TAF LQBK 160500Z 1606/1706 09004KT CAVOK TX07/1613Z TNM05/1606Z"
    },
    {
      "icao": "LQSA",
      "alert": "OK",
      "vis_m": 9999,
      "fzfg": false,
      "metar_trigger": false,
      "taf_trigger": false,
      "metar": "METAR LQSA 160800Z VRB02KT 9999 FEW015 M01/M01 Q1007 NOSIG",
      "taf": "TAF LQSA 160500Z 1606/1706 VRB02KT 9999 SCT035 TX06/1614Z TNM03/1606Z"
    },
    {
      "icao": "LQTZ",
      "alert": "OK",
      "vis_m": 7000,
      "fzfg": false,
      "metar_trigger": false,
      "taf_trigger": false,
      "metar": "METAR LQTZ 160730Z VRB02KT 7000 FEW003 M02/M02 Q1007",
      "taf": "TAF LQTZ 160500Z 1606/1706 09005KT CAVOK TX07/1614Z TNM04/1606Z"
    },
    {
      "icao": "LRBC",
      "alert": "OK",
      "vis_m": 9999,
      "fzfg": false,
      "metar_trigger": false,
      "taf_trigger": false,
      "metar": "METAR LRBC 160800Z 02004KT 310V070 9999 FEW027 BKN054 M02/M07 Q1008",
      "taf": "TAF LRBC 160500Z 1606/1615 35010KT 9999 BKN030"
    },
    {
      "icao": "LRBS",
      "alert": "OK",
      "vis_m": 9999,
      "fzfg": false,
      "metar_trigger": false,
      "taf_trigger": false,
      "metar": "METAR LRBS 160800Z 18003KT 140V240 9999 OVC013 03/00 Q1007 NOSIG",
      "taf": "TAF LRBS 160500Z 1606/1706 VRB04KT 9999 BKN020"
    },
    {
      "icao": "LRBV",
      "alert": "OK",
      "vis_m": 9999,
      "fzfg": false,
      "metar_trigger": false,
      "taf_trigger": false,
      "metar": "METAR LRBV 160800Z 33007KT 290V350 9999 FEW018 BKN037 M00/M03 Q1006",
      "taf": "TAF LRBV 160500Z 1606/1615 30010KT 9999 BKN015 BKN030"
    },
    {
      "icao": "LRCL",
      "alert": "OK",
      "vis_m": 9999,
      "fzfg": false,
      "metar_trigger": false,
      "taf_trigger": false,
      "metar": "METAR LRCL 160800Z 04003KT 360V070 9999 OVC014 M03/M07 Q1008",
      "taf": "TAF LRCL 160500Z 1606/1615 VRB04KT 9999 OVC015"
    },
    {
      "icao": "LRCV",
      "alert": "OK",
      "vis_m": 9999,
      "fzfg": false,
      "metar_trigger": false,
      "taf_trigger": false,
      "metar": "METAR LRCV 160800Z 27012KT CAVOK 03/M00 Q1007",
      "taf": "TAF LRCV 160500Z 1606/1615 27010KT CAVOK"
    },
    {
      "icao": "LRIA",
      "alert": "OK",
      "vis_m": 9999,
      "fzfg": false,
      "metar_trigger": false,
      "taf_trigger": false,
      "metar": "METAR LRIA 160800Z 29008KT 250V340 9999 FEW016 M05/M09 Q1008",
      "taf": "TAF LRIA 160500Z 1606/1615 30012KT 9999 BKN045"
    },
    {
      "icao": "LROP",
      "alert": "OK",
      "vis_m": 9999,
      "fzfg": false,
      "metar_trigger": false,
      "taf_trigger": false,
      "metar": "METAR LROP 160800Z 16003KT 130V190 9999 OVC011 03/M00 Q1007 NOSIG",
      "taf": "TAF LROP 160500Z 1606/1706 VRB04KT 9999 BKN020"
    },
    {
      "icao": "LRSB",
      "alert": "OK",
      "vis_m": 9999,
      "fzfg": false,
      "metar_trigger": false,
      "taf_trigger": false,
      "metar": "METAR LRSB 160800Z 32004KT 290V350 9999 SCT010 BKN025 00/M02 Q1006",
      "taf": "TAF LRSB 160500Z 1606/1706 VRB04KT 9999 SCT040"
    },
    {
      "icao": "LRSM",
      "alert": "OK",
      "vis_m": 9999,
      "fzfg": false,
      "metar_trigger": false,
      "taf_trigger": false,
      "metar": "METAR LRSM 160800Z 20003KT 170V230 9999 FEW013 M04/M07 Q1009",
      "taf": "TAF LRSM 160500Z 1606/1615 VRB04KT CAVOK"
    },
    {
      "icao": "LRSV",
      "alert": "OK",
      "vis_m": 9999,
      "fzfg": false,
      "metar_trigger": false,
      "taf_trigger": false,
      "metar": "METAR LRSV 160800Z 32004KT 9999 SCT014 BKN033 M06/M09 Q1006",
      "taf": "TAF LRSV 160500Z 1606/1615 32014KT 9999 BKN040"
    },
    {
      "icao": "LRTM",
      "alert": "OK",
      "vis_m": 9999,
      "fzfg": false,
      "metar_trigger": false,
      "taf_trigger": false,
      "metar": "METAR LRTM 160800Z 02004KT 350V060 9999 BKN014 OVC035 M02/M05 Q1008",
      "taf": "TAF LRTM 160500Z 1606/1615 VRB04KT 9999 BKN030"
    },
    {
      "icao": "LRTR",
      "alert": "OK",
      "vis_m": 9999,
      "fzfg": false,
      "metar_trigger": false,
      "taf_trigger": false,
      "metar": "METAR LRTR 160800Z 18006KT 9999 FEW009 SCT027 00/M01 Q1008 NOSIG",
      "taf": "TAF LRTR 160500Z 1606/1706 VRB04KT 9999 BKN015 BKN040"
    },
    {
      "icao": "LTAC",
      "alert": "OK",
      "vis_m": 9999,
      "fzfg": false,
      "metar_trigger": false,
      "taf_trigger": false,
      "metar": "METAR LTAC 160750Z 21011KT 9999 SCT040 BKN180 12/M03 Q1013 NOSIG RMK RWY21C 20012KT RWY03L 21011KT RWY21R 20013KT RWY03R 20009KT RWY21L 21012KT",
      "taf": ""
    },
    {
      "icao": "LTFM",
      "alert": "OK",
      "vis_m": 9999,
      "fzfg": false,
      "metar_trigger": false,
      "taf_trigger": false,
      "metar": "METAR LTFM 160750Z 22018KT CAVOK 16/09 Q1008 NOSIG RMK RWY17L 21016KT RWY34L 21016KT RWY16R 22017KT RWY36 21014KT RWY18 22014KT",
      "taf": "TAF LTFM 160440Z 1606/1712 21012KT CAVOK"
    },
    {
      "icao": "LUKK",
      "alert": "OK",
      "vis_m": 9999,
      "fzfg": false,
      "metar_trigger": false,
      "taf_trigger": false,
      "metar": "METAR LUKK 160800Z 32010KT 9999 FEW016 M05/M08 Q1007 NOSIG",
      "taf": "TAF LUKK 160507Z 1606/1706 32010KT 9999 BKN025"
    },
    {
      "icao": "LWOH",
      "alert": "OK",
      "vis_m": 9999,
      "fzfg": false,
      "metar_trigger": false,
      "taf_trigger": false,
      "metar": "METAR LWOH 160720Z 16012KT 9999 SCT010 BKN040 07/06 Q1006",
      "taf": "TAF LWOH 160545Z 1606/1706 VRB02KT 9999 SCT020 BKN040"
    },
    {
      "icao": "LWSK",
      "alert": "OK",
      "vis_m": 9999,
      "fzfg": false,
      "metar_trigger": false,
      "taf_trigger": false,
      "metar": "METAR LWSK 160750Z 06003KT 020V100 9999 FEW015 BKN029 05/00 Q1008 NOSIG",
      "taf": "TAF LWSK 160545Z 1606/1706 VRB02KT 9999 BKN020 OVC040"
    },
    {
      "icao": "LYBE",
      "alert": "OK",
      "vis_m": 9999,
      "fzfg": false,
      "metar_trigger": false,
      "taf_trigger": false,
      "metar": "METAR LYBE 160800Z 14004KT CAVOK 00/M03 Q1008 NOSIG",
      "taf": "TAF LYBE 160500Z 1606/1706 14007KT 9999 SCT020 TX07/1613Z TNM03/1606Z"
    },
    {
      "icao": "LYNI",
      "alert": "OK",
      "vis_m": 9999,
      "fzfg": false,
      "metar_trigger": false,
      "taf_trigger": false,
      "metar": "METAR LYNI 160800Z VRB01KT 9999 FEW020 BKN037 04/01 Q1009 NOSIG",
      "taf": "TAF LYNI 160500Z 1606/1706 19004KT 9999 SCT025 TX08/1613Z TN00/1606Z"
    },
    {
      "icao": "LYPG",
      "alert": "OK",
      "vis_m": 9999,
      "fzfg": false,
      "metar_trigger": false,
      "taf_trigger": false,
      "metar": "METAR LYPG 160800Z VRB01KT 9999 SCT050 09/04 Q1008 NOSIG",
      "taf": "TAF LYPG 160500Z 1606/1706 36005KT 9999 SCT040 SCT070 TX13/1612Z TN05/1606Z"
    },
    {
      "icao": "LZIB",
      "alert": "OK",
      "vis_m": 9999,
      "fzfg": false,
      "metar_trigger": false,
      "taf_trigger": false,
      "metar": "METAR LZIB 160800Z 10010KT 9999 FEW009 SCT010 BKN018 M04/M06 Q1004 NOSIG",
      "taf": "TAF LZIB 160515Z 1606/1706 13008KT 9999 FEW025"
    },
    {
      "icao": "LZKZ",
      "alert": "OK",
      "vis_m": 9999,
      "fzfg": false,
      "metar_trigger": false,
      "taf_trigger": false,
      "metar": "METAR LZKZ 160800Z 17003KT 9999 -SN OVC030 M04/M08 Q1007 NOSIG",
      "taf": "TAF LZKZ 160515Z 1606/1706 02008KT 9999 FEW010 BKN035"
    },
    {
      "icao": "LZTT",
      "alert": "OK",
      "vis_m": 9999,
      "fzfg": false,
      "metar_trigger": false,
      "taf_trigger": false,
      "metar": "METAR LZTT 160800Z VRB02KT 9999 FEW010 M08/M11 Q1001 NOSIG",
      "taf": "TAF LZTT 160515Z 1606/1706 24005KT 9999 FEW012 SCT030"
    },
    {
      "icao": "OEJN",
      "alert": "OK",
      "vis_m": 7000,
      "fzfg": false,
      "metar_trigger": false,
      "taf_trigger": false,
      "metar": "METAR OEJN 160800Z 17006KT 7000 NSC 31/15 Q1014 NOSIG",
      "taf": "TAF OEJN 160500Z 1606/1712 25010KT CAVOK"
    },
    {
      "icao": "OEMA",
      "alert": "OK",
      "vis_m": 5000,
      "fzfg": false,
      "metar_trigger": false,
      "taf_trigger": false,
      "metar": "METAR OEMA 160800Z 10009KT 5000 DU NSC 23/M04 Q1023 NOSIG",
      "taf": "TAF OEMA 160500Z 1606/1712 09010KT 7000 NSC"
    },
    {
      "icao": "OJAI",
      "alert": "OK",
      "vis_m": 3000,
      "fzfg": false,
      "metar_trigger": false,
      "taf_trigger": false,
      "metar": "METAR OJAI 160700Z 09011KT 3000 DU NSC 12/M00 Q1021 NOSIG",
      "taf": "TAF OJAI 160500Z 1606/1712 13010KT 3000 DU NSC"
    },
    {
      "icao": "OMAA",
      "alert": "OK",
      "vis_m": 9999,
      "fzfg": false,
      "metar_trigger": false,
      "taf_trigger": false,
      "metar": "METAR OMAA 160800Z 30016KT 270V330 9999 SCT035 24/14 Q1014 NOSIG",
      "taf": "TAF OMAA 160500Z 1606/1712 30014KT 7000 NSC"
    },
    {
      "icao": "OMDB",
      "alert": "OK",
      "vis_m": 5000,
      "fzfg": false,
      "metar_trigger": false,
      "taf_trigger": false,
      "metar": "METAR OMDB 160800Z 29011KT 260V320 5000 DU SCT030 24/15 Q1013 TEMPO 4000",
      "taf": "TAF OMDB 160500Z 1606/1712 30014KT 7000 NSC"
    },
    {
      "icao": "UAAA",
      "alert": "OK",
      "vis_m": 3500,
      "fzfg": false,
      "metar_trigger": false,
      "taf_trigger": false,
      "metar": "METAR UAAA 160800Z VRB01MPS 3500 FU SCT050CB BKN100 07/01 Q1015 NOSIG",
      "taf": "TAF UAAA 160510Z 1606/1706 03002MPS 6000 SCT030 BKN050 TX07/1609Z TNM01/1702Z"
    },
    {
      "icao": "UBBB",
      "alert": "OK",
      "vis_m": 1800,
      "fzfg": false,
      "metar_trigger": false,
      "taf_trigger": false,
      "metar": "METAR UBBB 160800Z 18020G30KT 1800 BR BKN002 09/09 Q1018 NOSIG",
      "taf": ""
    },
    {
      "icao": "UDSG",
      "alert": "OK",
      "vis_m": 9999,
      "fzfg": false,
      "metar_trigger": false,
      "taf_trigger": false,
      "metar": "METAR UDSG 160800Z 21001KT 9999 NSC M00/M03 Q1025 NOSIG",
      "taf": "TAF UDSG 160458Z 1606/1706 VRB06KT 9999 FEW040"
    },
    {
      "icao": "UDYZ",
      "alert": "OK",
      "vis_m": 9999,
      "fzfg": false,
      "metar_trigger": false,
      "taf_trigger": false,
      "metar": "METAR UDYZ 160800Z VRB01KT 9999 NSC 10/02 Q1025 NOSIG",
      "taf": "TAF UDYZ 160500Z 1606/1706 VRB06KT 9999 NSC"
    },
    {
      "icao": "UGKO",
      "alert": "OK",
      "vis_m": 9999,
      "fzfg": false,
      "metar_trigger": false,
      "taf_trigger": false,
      "metar": "METAR UGKO 160800Z 09022G33KT CAVOK 20/03 Q1013 NOSIG",
      "taf": "TAF UGKO 160500Z 1606/1706 08015KT CAVOK TX23/1611Z TN13/1703Z"
    }
  ]
}