{
  "ts_utc": "2026-02-18T10:01:17Z",
  "threshold_m": 150,
  "source": "stations_override.txt (ICAO list) + aviationweather.gov (METAR/TAF raw)",
  "station_count": 159,
  "stations": [
    {
      "icao": "BIKF",
      "alert": "OK",
      "vis_m": 9999,
      "fzfg": false,
      "metar_trigger": false,
      "taf_trigger": false,
      "metar": "METAR BIKF 180930Z 06021KT 9999 -SN FEW016 BKN044 OVC068 M03/M07 Q1007",
      "taf": "TAF BIKF 180749Z 1809/1909 06017KT 9999 FEW015 BKN045 TXM01/1816Z TNM04/1824Z"
    },
    {
      "icao": "BKPR",
      "alert": "OK",
      "vis_m": 9999,
      "fzfg": false,
      "metar_trigger": false,
      "taf_trigger": false,
      "metar": "METAR BKPR 181000Z 31016KT 9999 BKN040 05/M04 Q1013 NOSIG",
      "taf": "TAF BKPR 180530Z 1806/1906 32015KT 9999 SCT040"
    },
    {
      "icao": "EBCI",
      "alert": "OK",
      "vis_m": 9999,
      "fzfg": false,
      "metar_trigger": false,
      "taf_trigger": false,
      "metar": "METAR EBCI 180950Z 10008KT CAVOK 03/M01 Q1010 NOSIG",
      "taf": "TAF EBCI 180501Z 1806/1912 10008KT CAVOK"
    },
    {
      "icao": "EDDB",
      "alert": "OK",
      "vis_m": 5000,
      "fzfg": false,
      "metar_trigger": false,
      "taf_trigger": false,
      "metar": "METAR EDDB 180950Z AUTO 01006KT 5000 -SN BR SCT013 SCT029 BKN037 M02/M04 Q1013 TEMPO 3000 -SHSN",
      "taf": "TAF EDDB 180500Z 1806/1906 03005KT 9999 BKN012"
    },
    {
      "icao": "EDDH",
      "alert": "OK",
      "vis_m": 9999,
      "fzfg": false,
      "metar_trigger": false,
      "taf_trigger": false,
      "metar": "METAR EDDH 180950Z AUTO 33003KT 300V010 9999 SCT010 BKN021 M02/M04 Q1015 TEMPO BKN009",
      "taf": "TAF EDDH 180500Z 1806/1912 VRB03KT 7000 BKN009"
    },
    {
      "icao": "EDDK",
      "alert": "OK",
      "vis_m": 9999,
      "fzfg": false,
      "metar_trigger": false,
      "taf_trigger": false,
      "metar": "METAR EDDK 180950Z AUTO 10005KT 070V130 9999 SCT033 03/M02 Q1013 NOSIG",
      "taf": "TAF EDDK 180500Z 1806/1912 33006KT 9999 BKN020"
    },
    {
      "icao": "EDDN",
      "alert": "OK",
      "vis_m": 9999,
      "fzfg": false,
      "metar_trigger": false,
      "taf_trigger": false,
      "metar": "METAR EDDN 180950Z AUTO 27007KT 240V300 9999 BKN019 BKN024 03/M02 Q1013 NOSIG",
      "taf": "TAF EDDN 180500Z 1806/1906 25008KT 9999 FEW020 BKN035"
    },
    {
      "icao": "EDDS",
      "alert": "OK",
      "vis_m": 9999,
      "fzfg": false,
      "metar_trigger": false,
      "taf_trigger": false,
      "metar": "METAR EDDS 180950Z AUTO VRB01KT CAVOK 02/M02 Q1013 NOSIG",
      "taf": "TAF EDDS 180500Z 1806/1906 VRB03KT 9999 SCT040"
    },
    {
      "icao": "EDFH",
      "alert": "OK",
      "vis_m": 9999,
      "fzfg": false,
      "metar_trigger": false,
      "taf_trigger": false,
      "metar": "METAR EDFH 180950Z 14007KT 9999 FEW008 01/M01 Q1011",
      "taf": "TAF EDFH 180500Z 1806/1906 20004KT 9999 SCT007 BKN020"
    },
    {
      "icao": "EDJA",
      "alert": "OK",
      "vis_m": 9999,
      "fzfg": false,
      "metar_trigger": false,
      "taf_trigger": false,
      "metar": "METAR EDJA 180950Z 23005KT CAVOK 01/M02 Q1012",
      "taf": "TAF EDJA 180800Z 1809/1818 VRB03KT CAVOK"
    },
    {
      "icao": "EDLW",
      "alert": "OK",
      "vis_m": 9999,
      "fzfg": false,
      "metar_trigger": false,
      "taf_trigger": false,
      "metar": "METAR EDLW 180950Z 02005KT 330V050 9999 BKN010 OVC020 01/M01 Q1013",
      "taf": "TAF EDLW 180500Z 1806/1906 32006KT 9999 BKN010"
    },
    {
      "icao": "EDNY",
      "alert": "OK",
      "vis_m": 9999,
      "fzfg": false,
      "metar_trigger": false,
      "taf_trigger": false,
      "metar": "METAR EDNY 180950Z 03003KT 290V060 9999 SCT032 04/00 Q1013",
      "taf": "TAF EDNY 180800Z 1809/1818 VRB02KT 9999 BKN045"
    },
    {
      "icao": "EDSB",
      "alert": "OK",
      "vis_m": 9999,
      "fzfg": false,
      "metar_trigger": false,
      "taf_trigger": false,
      "metar": "METAR EDSB 180950Z 36003KT 330V030 CAVOK 03/M00 Q1013",
      "taf": "TAF EDSB 180500Z 1806/1906 VRB03KT 9999 SCT040"
    },
    {
      "icao": "EETN",
      "alert": "OK",
      "vis_m": 9999,
      "fzfg": false,
      "metar_trigger": false,
      "taf_trigger": false,
      "metar": "METAR EETN 180950Z 14006KT 120V180 CAVOK M09/M14 Q1015 NOSIG",
      "taf": "TAF EETN 180530Z 1806/1906 13010KT CAVOK"
    },
    {
      "icao": "EFTU",
      "alert": "OK",
      "vis_m": 9999,
      "fzfg": false,
      "metar_trigger": false,
      "taf_trigger": false,
      "metar": "METAR EFTU 180950Z AUTO 12006KT 9999 FEW008 M10/M12 Q1014",
      "taf": "TAF EFTU 180830Z 1809/1909 13008KT 6000 -SN BKN007"
    },
    {
      "icao": "EGBB",
      "alert": "OK",
      "vis_m": 9999,
      "fzfg": false,
      "metar_trigger": false,
      "taf_trigger": false,
      "metar": "METAR EGBB 180950Z 12013KT 9999 SCT024 03/M01 Q1005",
      "taf": "TAF EGBB 180503Z 1806/1906 10010KT 9999 FEW030"
    },
    {
      "icao": "EGGP",
      "alert": "OK",
      "vis_m": 9999,
      "fzfg": false,
      "metar_trigger": false,
      "taf_trigger": false,
      "metar": "METAR EGGP 180950Z 12017KT 9999 SCT047 03/M01 Q1004",
      "taf": "TAF EGGP 180504Z 1806/1906 11012KT 9999 FEW040"
    },
    {
      "icao": "EGGW",
      "alert": "OK",
      "vis_m": 9999,
      "fzfg": false,
      "metar_trigger": false,
      "taf_trigger": false,
      "metar": "METAR EGGW 180950Z AUTO 13017KT 9999 NCD 03/M01 Q1006",
      "taf": ""
    },
    {
      "icao": "EGKK",
      "alert": "OK",
      "vis_m": 9999,
      "fzfg": false,
      "metar_trigger": false,
      "taf_trigger": false,
      "metar": "METAR EGKK 180950Z 11013KT 9999 FEW025 05/00 Q1005",
      "taf": "TAF EGKK 180503Z 1806/1912 09008KT 9999 FEW035"
    },
    {
      "icao": "EGNM",
      "alert": "OK",
      "vis_m": 9999,
      "fzfg": false,
      "metar_trigger": false,
      "taf_trigger": false,
      "metar": "METAR EGNM 180950Z 11015G26KT 9999 5000E -RA SCT022 SCT033 01/M01 Q1007",
      "taf": ""
    },
    {
      "icao": "EGPD",
      "alert": "OK",
      "vis_m": 9999,
      "fzfg": false,
      "metar_trigger": false,
      "taf_trigger": false,
      "metar": "METAR EGPD 180950Z COR AUTO 14013KT 9999 BKN034 OVC040 04/M03 Q1009 NOSIG",
      "taf": "TAF EGPD 180459Z 1806/1906 29005KT 9999 FEW040"
    },
    {
      "icao": "EGPF",
      "alert": "OK",
      "vis_m": 9999,
      "fzfg": false,
      "metar_trigger": false,
      "taf_trigger": false,
      "metar": "METAR EGPF 180950Z AUTO 08009KT 9999 NCD 02/M03 Q1005",
      "taf": "TAF EGPF 180458Z 1806/1906 10006KT CAVOK"
    },
    {
      "icao": "EHBK",
      "alert": "OK",
      "vis_m": 9999,
      "fzfg": false,
      "metar_trigger": false,
      "taf_trigger": false,
      "metar": "METAR EHBK 180955Z AUTO 09009KT 060V130 9999 NSC 02/00 Q1012 NOSIG",
      "taf": "TAF EHBK 180502Z 1806/1912 24005KT 2000 MIFG BR SCT020"
    },
    {
      "icao": "EHEH",
      "alert": "OK",
      "vis_m": 9999,
      "fzfg": false,
      "metar_trigger": false,
      "taf_trigger": false,
      "metar": "METAR EHEH 180925Z AUTO 09007KT 060V130 9999 OVC130 02/M02 Q1013 BLU NOSIG RMK TREND REMOTE BY EHWX",
      "taf": "TAF EHEH 180514Z 1806/1912 06004KT 9999 BKN025"
    },
    {
      "icao": "EKBI",
      "alert": "OK",
      "vis_m": 9999,
      "fzfg": false,
      "metar_trigger": false,
      "taf_trigger": false,
      "metar": "METAR EKBI 180950Z AUTO 21003KT 9999 NCD M05/M06 Q1014",
      "taf": "TAF EKBI 180827Z 1809/1909 23005KT 9999 FEW020 BKN040"
    },
    {
      "icao": "EKCH",
      "alert": "OK",
      "vis_m": 9999,
      "fzfg": false,
      "metar_trigger": false,
      "taf_trigger": false,
      "metar": "METAR EKCH 180950Z AUTO 25004KT 220V280 9999 BKN035/// M02/M08 Q1013 NOSIG",
      "taf": "TAF EKCH 180827Z 1809/1909 30007KT 9999 BKN030"
    },
    {
      "icao": "ENAL",
      "alert": "OK",
      "vis_m": 9999,
      "fzfg": false,
      "metar_trigger": false,
      "taf_trigger": false,
      "metar": "METAR ENAL 180950Z 20013KT 9999 VCSH FEW010TCU SCT015 BKN024 00/M02 Q1008",
      "taf": ""
    },
    {
      "icao": "ENBR",
      "alert": "OK",
      "vis_m": 9999,
      "fzfg": false,
      "metar_trigger": false,
      "taf_trigger": false,
      "metar": "METAR ENBR 180950Z 00000KT 9999 VCSH FEW022 BKN046 00/M00 Q1010 TEMPO 2000 -SHSN VV012 RMK WIND 1200FT 03007KT",
      "taf": ""
    },
    {
      "icao": "ENGM",
      "alert": "OK",
      "vis_m": 9999,
      "fzfg": false,
      "metar_trigger": false,
      "taf_trigger": false,
      "metar": "METAR ENGM 180950Z VRB02KT 9999 FEW048 M07/M11 Q1010 NOSIG",
      "taf": "TAF ENGM 180500Z 1806/1906 VRB03KT 9999 FEW010"
    },
    {
      "icao": "ENHD",
      "alert": "OK",
      "vis_m": 7000,
      "fzfg": false,
      "metar_trigger": false,
      "taf_trigger": false,
      "metar": "METAR ENHD 180950Z 28020KT 7000 RA FEW008 SCT014 BKN020 02/01 Q1010",
      "taf": "TAF ENHD 180800Z 1809/1818 32009KT 9999 -SHSN FEW012 BKN020"
    },
    {
      "icao": "ENTC",
      "alert": "OK",
      "vis_m": 9999,
      "fzfg": false,
      "metar_trigger": false,
      "taf_trigger": false,
      "metar": "METAR ENTC 180950Z 23008KT 9999 FEW014 BKN017 M05/M08 Q1004 NOSIG RMK WIND 2600FT 11008KT",
      "taf": "TAF ENTC 180500Z 1806/1906 21008KT 9999 FEW020 BKN035"
    },
    {
      "icao": "ENTO",
      "alert": "OK",
      "vis_m": 9999,
      "fzfg": false,
      "metar_trigger": false,
      "taf_trigger": false,
      "metar": "METAR ENTO 180950Z 01002KT CAVOK M08/M11 Q1011 NOSIG",
      "taf": "TAF ENTO 180500Z 1806/1906 34005KT CAVOK"
    },
    {
      "icao": "ENVA",
      "alert": "OK",
      "vis_m": 9999,
      "fzfg": false,
      "metar_trigger": false,
      "taf_trigger": false,
      "metar": "METAR ENVA 180950Z 11004KT CAVOK M07/M10 Q1008 NOSIG RMK WIND 670FT 15005KT",
      "taf": "TAF ENVA 180500Z 1806/1906 10007KT 9999 FEW030 BKN050"
    },
    {
      "icao": "ENZV",
      "alert": "OK",
      "vis_m": 9999,
      "fzfg": false,
      "metar_trigger": false,
      "taf_trigger": false,
      "metar": "METAR ENZV 180950Z 07005KT 010V100 9999 -SHSN SCT012CB BKN025 01/M00 Q1011 TEMPO 29015KT 2000 -SHSNRA VV012",
      "taf": "TAF ENZV 180500Z 1806/1906 15008KT 9999 -SHSN FEW012 BKN025"
    },
    {
      "icao": "EPGD",
      "alert": "OK",
      "vis_m": 9999,
      "fzfg": false,
      "metar_trigger": false,
      "taf_trigger": false,
      "metar": "METAR EPGD 180930Z 26004KT 9999 SCT035 M06/M08 Q1008",
      "taf": "TAF EPGD 180530Z 1806/1906 28010KT 9999 BKN020"
    },
    {
      "icao": "EPKK",
      "alert": "OK",
      "vis_m": 4100,
      "fzfg": false,
      "metar_trigger": false,
      "taf_trigger": false,
      "metar": "METAR EPKK 180930Z 23007KT 4100 BR FEW005 BKN007 01/M00 Q1009",
      "taf": "TAF EPKK 180830Z 1809/1909 VRB02KT 3000 BR BKN008"
    },
    {
      "icao": "EPKT",
      "alert": "OK",
      "vis_m": 9999,
      "fzfg": false,
      "metar_trigger": false,
      "taf_trigger": false,
      "metar": "METAR EPKT 180930Z 28007KT 9999 BKN009 01/M01 Q1009",
      "taf": "TAF EPKT 180530Z 1806/1906 22007KT 3000 SN BR BKN015"
    },
    {
      "icao": "EPLB",
      "alert": "OK",
      "vis_m": 9999,
      "fzfg": false,
      "metar_trigger": false,
      "taf_trigger": false,
      "metar": "METAR EPLB 180930Z 15006KT 9999 OVC008 M04/M06 Q1010",
      "taf": "TAF EPLB 180530Z 1806/1906 VRB03KT 9999 BKN011 OVC015"
    },
    {
      "icao": "EPMO",
      "alert": "OK",
      "vis_m": 6000,
      "fzfg": false,
      "metar_trigger": false,
      "taf_trigger": false,
      "metar": "METAR EPMO 180930Z 32005KT 6000 BKN019 M02/M05 Q1010",
      "taf": ""
    },
    {
      "icao": "EPPO",
      "alert": "OK",
      "vis_m": 9999,
      "fzfg": false,
      "metar_trigger": false,
      "taf_trigger": false,
      "metar": "METAR EPPO 180930Z 35003KT CAVOK M03/M08 Q1012",
      "taf": "TAF EPPO 180530Z 1806/1906 33007KT 4000 BR BKN030"
    },
    {
      "icao": "EPRA",
      "alert": "OK",
      "vis_m": 7000,
      "fzfg": false,
      "metar_trigger": false,
      "taf_trigger": false,
      "metar": "METAR EPRA 180930Z 14005KT 7000 -SN BKN023 M01/M03 Q1009",
      "taf": "TAF EPRA 180830Z 1809/1818 19006KT 5000 -SN BR BKN020"
    },
    {
      "icao": "EPRZ",
      "alert": "OK",
      "vis_m": 3500,
      "fzfg": false,
      "metar_trigger": false,
      "taf_trigger": false,
      "metar": "METAR EPRZ 180930Z 11005KT 3500 BR BKN004 M01/M03 Q1009",
      "taf": ""
    },
    {
      "icao": "EPSC",
      "alert": "OK",
      "vis_m": 9999,
      "fzfg": false,
      "metar_trigger": false,
      "taf_trigger": false,
      "metar": "METAR EPSC 180930Z 28005KT 9999 FEW031 BKN041 M03/M05 Q1012",
      "taf": ""
    },
    {
      "icao": "EPSY",
      "alert": "OK",
      "vis_m": 3300,
      "fzfg": false,
      "metar_trigger": false,
      "taf_trigger": false,
      "metar": "METAR EPSY 180930Z 26007KT 230V300 3300 BR BKN005 OVC008 M05/M06 Q1009",
      "taf": "TAF EPSY 180830Z 1809/1818 21006KT 4000 BR BKN005 OVC010"
    },
    {
      "icao": "EPWA",
      "alert": "OK",
      "vis_m": 3200,
      "fzfg": false,
      "metar_trigger": false,
      "taf_trigger": false,
      "metar": "METAR EPWA 180930Z 00000KT 3200 -SN BR BKN007 BKN013 M02/M03 Q1009 TEMPO 1400 SN BR",
      "taf": "TAF EPWA 180830Z 1809/1909 VRB02KT 5000 BR BKN014"
    },
    {
      "icao": "EPWR",
      "alert": "OK",
      "vis_m": 1400,
      "fzfg": false,
      "metar_trigger": false,
      "taf_trigger": false,
      "metar": "METAR EPWR 180930Z 29005KT 1400 R29/1800D SN BR BKN005 00/M00 Q1011",
      "taf": ""
    },
    {
      "icao": "ESGG",
      "alert": "OK",
      "vis_m": 9999,
      "fzfg": false,
      "metar_trigger": false,
      "taf_trigger": false,
      "metar": "METAR ESGG 180950Z 00000KT CAVOK M06/M10 Q1011",
      "taf": "TAF ESGG 180830Z 1809/1909 VRB03KT CAVOK"
    },
    {
      "icao": "ESKN",
      "alert": "OK",
      "vis_m": 9999,
      "fzfg": false,
      "metar_trigger": false,
      "taf_trigger": false,
      "metar": "METAR ESKN 180950Z 01005KT 340V050 9999 SCT032 M04/M09 Q1011",
      "taf": "TAF ESKN 180830Z 1809/1909 03003KT 9999 SCT030"
    },
    {
      "icao": "ESMS",
      "alert": "OK",
      "vis_m": 9999,
      "fzfg": false,
      "metar_trigger": false,
      "taf_trigger": false,
      "metar": "METAR ESMS 180950Z 31006KT CAVOK M04/M10 Q1012",
      "taf": "TAF ESMS 180827Z 1809/1909 31006KT 9999 SCT020"
    },
    {
      "icao": "ESSA",
      "alert": "OK",
      "vis_m": 9999,
      "fzfg": false,
      "metar_trigger": false,
      "taf_trigger": false,
      "metar": "METAR ESSA 180950Z 36005KT 340V060 9999 BKN027 M06/M10 Q1011 NOSIG",
      "taf": "TAF ESSA 180830Z 1809/1909 05005KT 9999 BKN025"
    },
    {
      "icao": "EYKA",
      "alert": "OK",
      "vis_m": 9999,
      "fzfg": false,
      "metar_trigger": false,
      "taf_trigger": false,
      "metar": "METAR EYKA 180950Z 14006KT 100V170 9999 OVC017 M08/M12 Q1011",
      "taf": "TAF EYKA 180500Z 1806/1906 14010KT 3000 SN BR BKN020"
    },
    {
      "icao": "EYPA",
      "alert": "OK",
      "vis_m": 7000,
      "fzfg": false,
      "metar_trigger": false,
      "taf_trigger": false,
      "metar": "METAR EYPA 180950Z 13009KT 7000 -SN SCT027 M07/M09 Q1009",
      "taf": "TAF EYPA 180500Z 1806/1906 VRB05KT 5000 SN BR SCT015 BKN030"
    },
    {
      "icao": "EYVI",
      "alert": "OK",
      "vis_m": 9999,
      "fzfg": false,
      "metar_trigger": false,
      "taf_trigger": false,
      "metar": "METAR EYVI 180950Z 14009KT 9999 OVC045 M09/M15 Q1011 NOSIG",
      "taf": "TAF EYVI 180500Z 1806/1906 14012KT 9000 OVC025"
    },
    {
      "icao": "GCFV",
      "alert": "OK",
      "vis_m": 9999,
      "fzfg": false,
      "metar_trigger": false,
      "taf_trigger": false,
      "metar": "METAR GCFV 180930Z 02012KT 9999 BKN020 17/12 Q1024",
      "taf": "TAF GCFV 180800Z 1809/1909 04011KT 9999 FEW020 TX20/1814Z TN15/1906Z"
    },
    {
      "icao": "GCLP",
      "alert": "OK",
      "vis_m": 9999,
      "fzfg": false,
      "metar_trigger": false,
      "taf_trigger": false,
      "metar": "METAR GCLP 180930Z 03019KT 9999 FEW020 18/13 Q1024 NOSIG",
      "taf": "TAF GCLP 180800Z 1809/1909 02020KT 9999 FEW025 TX20/1814Z TN15/1906Z"
    },
    {
      "icao": "GCTS",
      "alert": "OK",
      "vis_m": 9999,
      "fzfg": false,
      "metar_trigger": false,
      "taf_trigger": false,
      "metar": "METAR GCTS 180930Z 07015KT CAVOK 18/12 Q1023 NOSIG",
      "taf": "TAF GCTS 180800Z 1809/1909 09016KT CAVOK TX23/1814Z TN14/1906Z"
    },
    {
      "icao": "GMAD",
      "alert": "OK",
      "vis_m": 9999,
      "fzfg": false,
      "metar_trigger": false,
      "taf_trigger": false,
      "metar": "METAR GMAD 180930Z 13003KT 110V170 CAVOK 14/10 Q1022 NOSIG",
      "taf": "TAF GMAD 180500Z 1806/1912 09007KT CAVOK"
    },
    {
      "icao": "GMMN",
      "alert": "OK",
      "vis_m": 5000,
      "fzfg": false,
      "metar_trigger": false,
      "taf_trigger": false,
      "metar": "SPECI GMMN 180934Z 10003KT 060V140 5000 BKN005 13/12 Q1025 NOSIG",
      "taf": "TAF GMMN 180500Z 1806/1912 10005KT 0500 FG BKN001"
    },
    {
      "icao": "GMMX",
      "alert": "OK",
      "vis_m": 9999,
      "fzfg": false,
      "metar_trigger": false,
      "taf_trigger": false,
      "metar": "METAR GMMX 180930Z VRB02KT CAVOK 16/09 Q1023 NOSIG",
      "taf": "TAF GMMX 180500Z 1806/1912 06006KT CAVOK"
    },
    {
      "icao": "HEGN",
      "alert": "OK",
      "vis_m": 9999,
      "fzfg": false,
      "metar_trigger": false,
      "taf_trigger": false,
      "metar": "METAR HEGN 180900Z 36015KT CAVOK 24/06 Q1015 NOSIG",
      "taf": "TAF HEGN 180500Z 1806/1912 32012G22KT CAVOK"
    },
    {
      "icao": "HEMA",
      "alert": "OK",
      "vis_m": 9999,
      "fzfg": false,
      "metar_trigger": false,
      "taf_trigger": false,
      "metar": "METAR HEMA 180900Z 35008KT CAVOK 25/M01 Q1014 NOSIG",
      "taf": "TAF HEMA 180500Z 1806/1912 35012G22KT CAVOK"
    },
    {
      "icao": "HESH",
      "alert": "OK",
      "vis_m": 9999,
      "fzfg": false,
      "metar_trigger": false,
      "taf_trigger": false,
      "metar": "METAR HESH 180900Z 03008KT CAVOK 25/10 Q1014 NOSIG",
      "taf": "TAF HESH 180500Z 1806/1912 35015KT CAVOK"
    },
    {
      "icao": "HESX",
      "alert": "OK",
      "vis_m": null,
      "fzfg": false,
      "metar_trigger": false,
      "taf_trigger": false,
      "metar": "",
      "taf": "TAF HESX 180500Z 1806/1912 23010G20KT 9999 FEW030"
    },
    {
      "icao": "LATI",
      "alert": "OK",
      "vis_m": 9999,
      "fzfg": false,
      "metar_trigger": false,
      "taf_trigger": false,
      "metar": "METAR LATI 180950Z VRB03KT CAVOK 11/M04 Q1014 NOSIG",
      "taf": "TAF LATI 180500Z 1806/1906 VRB05KT CAVOK TX14/1812Z TN02/1905Z"
    },
    {
      "icao": "LBPD",
      "alert": "OK",
      "vis_m": 9999,
      "fzfg": false,
      "metar_trigger": false,
      "taf_trigger": false,
      "metar": "METAR LBPD 180930Z AUTO 29031G44KT 9999 BKN069/// BKN210/// 07/M02 Q1004 NOSIG",
      "taf": "TAF LBPD 180500Z 1806/1906 28026G38KT 9999 SCT030 OVC060"
    },
    {
      "icao": "LBSF",
      "alert": "OK",
      "vis_m": 9999,
      "fzfg": false,
      "metar_trigger": false,
      "taf_trigger": false,
      "metar": "METAR LBSF 180930Z 28022G32KT 9999 SCT023 BKN058 03/M03 Q1008 NOSIG",
      "taf": "TAF LBSF 180500Z 1806/1906 28020G30KT 9999 BKN012 OVC030"
    },
    {
      "icao": "LBWN",
      "alert": "OK",
      "vis_m": 4000,
      "fzfg": false,
      "metar_trigger": false,
      "taf_trigger": false,
      "metar": "METAR LBWN 180930Z 35025G38KT 4000 -SN BLSN SCT015 BKN023 OVC045 M01/M03 Q0999 NOSIG",
      "taf": "TAF LBWN 180500Z 1806/1906 34030G46KT 2000 SNRA SCT005 BKN015 OVC030"
    },
    {
      "icao": "LCLK",
      "alert": "OK",
      "vis_m": 9999,
      "fzfg": false,
      "metar_trigger": false,
      "taf_trigger": false,
      "metar": "METAR LCLK 180930Z 24018KT 9999 FEW030 17/13 Q1006 NOSIG",
      "taf": "TAF LCLK 180530Z 1806/1906 21022KT 8000 FEW025 FEW030TCU SCT035"
    },
    {
      "icao": "LCPH",
      "alert": "OK",
      "vis_m": 9999,
      "fzfg": false,
      "metar_trigger": false,
      "taf_trigger": false,
      "metar": "METAR LCPH 180930Z 26020KT 250V310 9999 FEW025TCU SCT037 BKN050 18/10 Q1007 TEMPO 4000 SHRA",
      "taf": "TAF LCPH 180530Z 1806/1906 26026KT 8000 SCT020 FEW025TCU BKN035"
    },
    {
      "icao": "LEAL",
      "alert": "OK",
      "vis_m": 9999,
      "fzfg": false,
      "metar_trigger": false,
      "taf_trigger": false,
      "metar": "METAR LEAL 180930Z 22007KT CAVOK 17/09 Q1018 NOSIG",
      "taf": "TAF LEAL 180500Z 1806/1906 30009KT CAVOK TX21/1813Z TN12/1806Z"
    },
    {
      "icao": "LEBB",
      "alert": "OK",
      "vis_m": 9999,
      "fzfg": false,
      "metar_trigger": false,
      "taf_trigger": false,
      "metar": "METAR LEBB 180930Z 21016G29KT 150V260 CAVOK 16/06 Q1010 NOSIG",
      "taf": ""
    },
    {
      "icao": "LEBL",
      "alert": "OK",
      "vis_m": 9000,
      "fzfg": false,
      "metar_trigger": false,
      "taf_trigger": false,
      "metar": "METAR LEBL 180930Z 34008KT 300V010 9000 FEW011 13/09 Q1016 NOSIG",
      "taf": ""
    },
    {
      "icao": "LECH",
      "alert": "OK",
      "vis_m": 9999,
      "fzfg": false,
      "metar_trigger": false,
      "taf_trigger": false,
      "metar": "METAR LECH 180930Z AUTO 21003KT CAVOK 12/05 Q1016",
      "taf": ""
    },
    {
      "icao": "LEMD",
      "alert": "OK",
      "vis_m": 9999,
      "fzfg": false,
      "metar_trigger": false,
      "taf_trigger": false,
      "metar": "METAR LEMD 180930Z 22013G25KT 180V250 9999 BKN021 09/05 Q1018 NOSIG",
      "taf": ""
    },
    {
      "icao": "LEMG",
      "alert": "OK",
      "vis_m": 9999,
      "fzfg": false,
      "metar_trigger": false,
      "taf_trigger": false,
      "metar": "METAR LEMG 180930Z 28011KT 250V310 CAVOK 16/09 Q1020 NOSIG",
      "taf": "TAF LEMG 180500Z 1806/1906 26010KT CAVOK TX23/1814Z TN11/1807Z"
    },
    {
      "icao": "LEVC",
      "alert": "OK",
      "vis_m": 9999,
      "fzfg": false,
      "metar_trigger": false,
      "taf_trigger": false,
      "metar": "METAR LEVC 180930Z 24011KT 9999 FEW038 16/08 Q1017 NOSIG",
      "taf": "TAF LEVC 180500Z 1806/1906 26007KT CAVOK TX23/1814Z TN11/1806Z"
    },
    {
      "icao": "LEXJ",
      "alert": "OK",
      "vis_m": 9999,
      "fzfg": false,
      "metar_trigger": false,
      "taf_trigger": false,
      "metar": "METAR LEXJ 180930Z 21014G26KT 170V260 CAVOK 15/05 Q1008",
      "taf": ""
    },
    {
      "icao": "LEZG",
      "alert": "OK",
      "vis_m": 9999,
      "fzfg": false,
      "metar_trigger": false,
      "taf_trigger": false,
      "metar": "METAR LEZG 180930Z 08005KT CAVOK 08/08 Q1016 NOSIG",
      "taf": ""
    },
    {
      "icao": "LEZL",
      "alert": "OK",
      "vis_m": 4000,
      "fzfg": false,
      "metar_trigger": false,
      "taf_trigger": false,
      "metar": "METAR LEZL 180930Z 22006KT 4000 BR OVC003 11/11 Q1022 NOSIG",
      "taf": "TAF LEZL 180800Z 1809/1909 VRB02KT CAVOK TX21/1815Z TN08/1907Z"
    },
    {
      "icao": "LFBD",
      "alert": "OK",
      "vis_m": 9999,
      "fzfg": false,
      "metar_trigger": false,
      "taf_trigger": false,
      "metar": "METAR LFBD 180930Z AUTO 19009KT 9999 BKN049 OVC190 14/09 Q1010 NOSIG",
      "taf": "TAF LFBD 180500Z 1806/1912 22008KT 9999 BKN040 TX16/1815Z TN09/1903Z"
    },
    {
      "icao": "LFLL",
      "alert": "OK",
      "vis_m": 9999,
      "fzfg": false,
      "metar_trigger": false,
      "taf_trigger": false,
      "metar": "METAR LFLL 180930Z 16012KT 9999 BKN046 BKN056 BKN180 08/04 Q1012 NOSIG",
      "taf": "TAF LFLL 180500Z 1806/1912 17008KT 9999 OVC045"
    },
    {
      "icao": "LFLS",
      "alert": "OK",
      "vis_m": 9999,
      "fzfg": false,
      "metar_trigger": false,
      "taf_trigger": false,
      "metar": "METAR LFLS 180930Z AUTO 07008KT 9999 BKN050 OVC078 07/04 Q1013 NOSIG",
      "taf": "TAF LFLS 180800Z 1809/1909 09005KT 9999 BKN050"
    },
    {
      "icao": "LFMN",
      "alert": "OK",
      "vis_m": 9999,
      "fzfg": false,
      "metar_trigger": false,
      "taf_trigger": false,
      "metar": "METAR LFMN 180930Z 33010KT CAVOK 11/M03 Q1012 NOSIG",
      "taf": "TAF LFMN 180800Z 1809/1915 33012KT CAVOK"
    },
    {
      "icao": "LFOB",
      "alert": "OK",
      "vis_m": 4900,
      "fzfg": false,
      "metar_trigger": false,
      "taf_trigger": false,
      "metar": "METAR LFOB 180930Z AUTO 10014KT 4900 BR OVC006 02/02 Q1007 TEMPO 2000 RADZ OVC003",
      "taf": "TAF LFOB 180500Z 1806/1906 10012KT 7000 OVC007"
    },
    {
      "icao": "LFPO",
      "alert": "OK",
      "vis_m": 3500,
      "fzfg": false,
      "metar_trigger": false,
      "taf_trigger": false,
      "metar": "METAR LFPO 180930Z 10008KT 3500 -DZ BR OVC004 04/04 Q1006 TEMPO 2500",
      "taf": ""
    },
    {
      "icao": "LFSB",
      "alert": "OK",
      "vis_m": 9999,
      "fzfg": false,
      "metar_trigger": false,
      "taf_trigger": false,
      "metar": "METAR LFSB 180930Z AUTO VRB03KT 9999 -RA SCT019 BKN029 OVC039 02/01 Q1012 TEMPO 2000 -RA BKN004",
      "taf": "TAF LFSB 180500Z 1806/1906 17004KT 9999 FEW010 BKN070"
    },
    {
      "icao": "LGAV",
      "alert": "OK",
      "vis_m": 9999,
      "fzfg": false,
      "metar_trigger": false,
      "taf_trigger": false,
      "metar": "METAR LGAV 180950Z 30013G23KT 9999 FEW025 14/M03 Q1008 WS R03L NOSIG",
      "taf": "TAF LGAV 180500Z 1806/1906 30015KT 9999 SCT020 SCT070"
    },
    {
      "icao": "LGTS",
      "alert": "OK",
      "vis_m": 9999,
      "fzfg": false,
      "metar_trigger": false,
      "taf_trigger": false,
      "metar": "METAR LGTS 180950Z 32030G42KT 9999 FEW020 11/00 Q1008 NOSIG",
      "taf": "TAF LGTS 180500Z 1806/1906 33025G35KT 9999 FEW030"
    },
    {
      "icao": "LHBP",
      "alert": "OK",
      "vis_m": 9999,
      "fzfg": false,
      "metar_trigger": false,
      "taf_trigger": false,
      "metar": "METAR LHBP 180930Z 33014KT 9999 SCT027 06/M01 Q1012 NOSIG",
      "taf": "TAF LHBP 180515Z 1806/1906 32009KT CAVOK"
    },
    {
      "icao": "LHDC",
      "alert": "OK",
      "vis_m": 9999,
      "fzfg": false,
      "metar_trigger": false,
      "taf_trigger": false,
      "metar": "METAR LHDC 180915Z AUTO VRB04KT 9999 SCT041 04/M01 Q1011 NOSIG",
      "taf": "TAF LHDC 180815Z 1809/1818 26006KT 9999 BKN045"
    },
    {
      "icao": "LIBD",
      "alert": "OK",
      "vis_m": 9999,
      "fzfg": false,
      "metar_trigger": false,
      "taf_trigger": false,
      "metar": "METAR LIBD 180950Z VRB02KT CAVOK 14/05 Q1015",
      "taf": "TAF LIBD 180500Z 1806/1906 29010KT CAVOK"
    },
    {
      "icao": "LIBG",
      "alert": "OK",
      "vis_m": 9999,
      "fzfg": false,
      "metar_trigger": false,
      "taf_trigger": false,
      "metar": "METAR LIBG 180850Z 30004KT 230V340 CAVOK 13/04 Q1015",
      "taf": "TAF LIBG 180800Z 1808/1815 29010KT CAVOK"
    },
    {
      "icao": "LIBP",
      "alert": "OK",
      "vis_m": 9999,
      "fzfg": false,
      "metar_trigger": false,
      "taf_trigger": false,
      "metar": "METAR LIBP 180950Z AUTO 21009KT 9999 NCD 16/M01 Q1014",
      "taf": "TAF LIBP 180500Z 1806/1906 24006KT CAVOK"
    },
    {
      "icao": "LIBR",
      "alert": "OK",
      "vis_m": 9999,
      "fzfg": false,
      "metar_trigger": false,
      "taf_trigger": false,
      "metar": "METAR LIBR 180950Z 32012KT 300V360 CAVOK 13/06 Q1015",
      "taf": "TAF LIBR 180500Z 1806/1906 32016KT CAVOK"
    },
    {
      "icao": "LICA",
      "alert": "OK",
      "vis_m": 9999,
      "fzfg": false,
      "metar_trigger": false,
      "taf_trigger": false,
      "metar": "METAR LICA 180950Z AUTO 25008KT 9999 NCD 15/07 Q1017",
      "taf": "TAF LICA 180500Z 1806/1906 VRB05KT 9999 FEW025"
    },
    {
      "icao": "LICC",
      "alert": "OK",
      "vis_m": 9999,
      "fzfg": false,
      "metar_trigger": false,
      "taf_trigger": false,
      "metar": "METAR LICC 180950Z 24012KT CAVOK 16/12 Q1018",
      "taf": "TAF LICC 180500Z 1806/1906 26013KT CAVOK"
    },
    {
      "icao": "LICJ",
      "alert": "OK",
      "vis_m": 9999,
      "fzfg": false,
      "metar_trigger": false,
      "taf_trigger": false,
      "metar": "METAR LICJ 180950Z 22011KT 9999 FEW040 15/08 Q1019",
      "taf": "TAF LICJ 180500Z 1806/1906 32012KT 9999 SCT035"
    },
    {
      "icao": "LIMC",
      "alert": "OK",
      "vis_m": 9999,
      "fzfg": false,
      "metar_trigger": false,
      "taf_trigger": false,
      "metar": "METAR LIMC 180950Z 08005KT 020V140 CAVOK 11/M05 Q1013 NOSIG",
      "taf": "TAF LIMC 180500Z 1806/1912 VRB06KT CAVOK"
    },
    {
      "icao": "LIME",
      "alert": "OK",
      "vis_m": 9999,
      "fzfg": false,
      "metar_trigger": false,
      "taf_trigger": false,
      "metar": "METAR LIME 180950Z 03003KT 330V120 CAVOK 11/M09 Q1013 NOSIG",
      "taf": "TAF LIME 180500Z 1806/1906 VRB05KT CAVOK"
    },
    {
      "icao": "LIMF",
      "alert": "OK",
      "vis_m": 9999,
      "fzfg": false,
      "metar_trigger": false,
      "taf_trigger": false,
      "metar": "METAR LIMF 180950Z VRB02KT CAVOK 10/M05 Q1013",
      "taf": "TAF LIMF 180500Z 1806/1906 VRB04KT CAVOK"
    },
    {
      "icao": "LIMJ",
      "alert": "OK",
      "vis_m": 9999,
      "fzfg": false,
      "metar_trigger": false,
      "taf_trigger": false,
      "metar": "METAR LIMJ 180950Z 12009KT 9999 SCT029 14/06 Q1012",
      "taf": "TAF LIMJ 180500Z 1806/1906 02008KT CAVOK"
    },
    {
      "icao": "LIPE",
      "alert": "OK",
      "vis_m": 9999,
      "fzfg": false,
      "metar_trigger": false,
      "taf_trigger": false,
      "metar": "METAR LIPE 180950Z VRB01KT CAVOK 12/M02 Q1013",
      "taf": "TAF LIPE 180500Z 1806/1906 VRB05KT CAVOK"
    },
    {
      "icao": "LIPH",
      "alert": "OK",
      "vis_m": 9999,
      "fzfg": false,
      "metar_trigger": false,
      "taf_trigger": false,
      "metar": "METAR LIPH 180950Z 06006KT 030V090 CAVOK 11/M05 Q1014",
      "taf": "TAF LIPH 180500Z 1806/1906 VRB05KT CAVOK"
    },
    {
      "icao": "LIPQ",
      "alert": "OK",
      "vis_m": 9999,
      "fzfg": false,
      "metar_trigger": false,
      "taf_trigger": false,
      "metar": "METAR LIPQ 180950Z AUTO 35004KT 310V030 9999 NCD 11/M02 Q1013",
      "taf": "TAF LIPQ 180500Z 1806/1906 VRB05KT CAVOK"
    },
    {
      "icao": "LIPR",
      "alert": "OK",
      "vis_m": 9999,
      "fzfg": false,
      "metar_trigger": false,
      "taf_trigger": false,
      "metar": "METAR LIPR 180950Z 09003KT 030V200 CAVOK 12/01 Q1013",
      "taf": "TAF LIPR 180500Z 1806/1906 VRB05KT CAVOK"
    },
    {
      "icao": "LIPX",
      "alert": "OK",
      "vis_m": 9999,
      "fzfg": false,
      "metar_trigger": false,
      "taf_trigger": false,
      "metar": "METAR LIPX 180950Z 11006KT 070V140 CAVOK 11/M03 Q1013",
      "taf": "TAF LIPX 180500Z 1806/1906 04010KT CAVOK"
    },
    {
      "icao": "LIPY",
      "alert": "OK",
      "vis_m": 9999,
      "fzfg": false,
      "metar_trigger": false,
      "taf_trigger": false,
      "metar": "METAR LIPY 180950Z AUTO 23008KT 9999 SCT230/// 14/05 Q1013",
      "taf": "TAF LIPY 180500Z 1806/1906 VRB05KT CAVOK"
    },
    {
      "icao": "LIPZ",
      "alert": "OK",
      "vis_m": 9999,
      "fzfg": false,
      "metar_trigger": false,
      "taf_trigger": false,
      "metar": "METAR LIPZ 180950Z 02005KT 350V050 CAVOK 10/M02 Q1014 NOSIG",
      "taf": "TAF LIPZ 180500Z 1806/1912 04006KT CAVOK"
    },
    {
      "icao": "LIRF",
      "alert": "OK",
      "vis_m": 9999,
      "fzfg": false,
      "metar_trigger": false,
      "taf_trigger": false,
      "metar": "METAR LIRF 180950Z 11006KT 070V150 9999 SCT030 13/06 Q1015 NOSIG",
      "taf": "TAF LIRF 180500Z 1806/1912 08007KT 9999 SCT025"
    },
    {
      "icao": "LIRN",
      "alert": "OK",
      "vis_m": 9999,
      "fzfg": false,
      "metar_trigger": false,
      "taf_trigger": false,
      "metar": "METAR LIRN 180950Z 18006KT 140V240 CAVOK 13/06 Q1016 NOSIG",
      "taf": "TAF LIRN 180500Z 1806/1906 VRB04KT 9999 FEW030"
    },
    {
      "icao": "LIRP",
      "alert": "OK",
      "vis_m": 9999,
      "fzfg": false,
      "metar_trigger": false,
      "taf_trigger": false,
      "metar": "METAR LIRP 180945Z 11005KT 9999 FEW030 SCT040 10/08 Q1014 NOSIG",
      "taf": "TAF LIRP 180500Z 1806/1906 12005KT CAVOK"
    },
    {
      "icao": "LIRZ",
      "alert": "OK",
      "vis_m": 9999,
      "fzfg": false,
      "metar_trigger": false,
      "taf_trigger": false,
      "metar": "METAR LIRZ 180950Z AUTO VRB01KT 9999 NCD 09/04 Q1016",
      "taf": "TAF LIRZ 180500Z 1806/1906 VRB05KT 9999 SCT035"
    },
    {
      "icao": "LJLJ",
      "alert": "OK",
      "vis_m": 9999,
      "fzfg": false,
      "metar_trigger": false,
      "taf_trigger": false,
      "metar": "METAR LJLJ 180930Z VRB01KT 9999 FEW050 03/M03 Q1014 NOSIG",
      "taf": "TAF LJLJ 180500Z 1806/1906 VRB02KT CAVOK"
    },
    {
      "icao": "LKMT",
      "alert": "OK",
      "vis_m": 9999,
      "fzfg": false,
      "metar_trigger": false,
      "taf_trigger": false,
      "metar": "METAR LKMT 180930Z 22014KT CAVOK 02/M01 Q1010 NOSIG",
      "taf": "TAF LKMT 180500Z 1806/1906 22012KT 9999 SCT016 BKN030"
    },
    {
      "icao": "LKPR",
      "alert": "OK",
      "vis_m": 9999,
      "fzfg": false,
      "metar_trigger": false,
      "taf_trigger": false,
      "metar": "METAR LKPR 180930Z 28005KT 260V320 9999 4000NE -SHSN FEW003 SCT013TCU BKN016 01/M01 Q1011 NOSIG",
      "taf": "TAF LKPR 180800Z 1809/1915 26010KT 9999 BKN025"
    },
    {
      "icao": "LLBG",
      "alert": "OK",
      "vis_m": 9999,
      "fzfg": false,
      "metar_trigger": false,
      "taf_trigger": false,
      "metar": "METAR LLBG 180950Z 23020KT CAVOK 21/04 Q1013 TEMPO 20020G35KT",
      "taf": "TAF LLBG 180512Z 1806/1906 17008KT CAVOK"
    },
    {
      "icao": "LMML",
      "alert": "OK",
      "vis_m": 9999,
      "fzfg": false,
      "metar_trigger": false,
      "taf_trigger": false,
      "metar": "METAR LMML 180945Z 29012KT 250V310 9999 FEW030 16/08 Q1020 NOSIG",
      "taf": "TAF LMML 180500Z 1806/1906 29015KT 9999 FEW020"
    },
    {
      "icao": "LOWW",
      "alert": "OK",
      "vis_m": 9999,
      "fzfg": false,
      "metar_trigger": false,
      "taf_trigger": false,
      "metar": "METAR LOWW 180950Z 28020KT CAVOK 06/M04 Q1014 NOSIG",
      "taf": "TAF LOWW 180822Z 1809/1915 28010KT 9999 FEW050 TX06/1811Z TNM02/1902Z"
    },
    {
      "icao": "LPFR",
      "alert": "OK",
      "vis_m": 9999,
      "fzfg": false,
      "metar_trigger": false,
      "taf_trigger": false,
      "metar": "METAR LPFR 180930Z VRB02KT 9999 FEW025 BKN030 13/08 Q1023",
      "taf": "TAF LPFR 180500Z 1806/1906 31007KT 9999 SCT012 BKN020"
    },
    {
      "icao": "LPMA",
      "alert": "OK",
      "vis_m": 9999,
      "fzfg": false,
      "metar_trigger": false,
      "taf_trigger": false,
      "metar": "METAR LPMA 180930Z VRB02KT 9999 FEW014 17/09 Q1026",
      "taf": "TAF LPMA 180500Z 1806/1906 VRB05KT 9999 SCT014"
    },
    {
      "icao": "LPPR",
      "alert": "OK",
      "vis_m": 9999,
      "fzfg": false,
      "metar_trigger": false,
      "taf_trigger": false,
      "metar": "METAR LPPR 180930Z 19018KT 9999 SCT002 BKN004 12/12 Q1016",
      "taf": "TAF LPPR 180500Z 1806/1906 19015KT 8000 SCT006 BKN012"
    },
    {
      "icao": "LPPS",
      "alert": "OK",
      "vis_m": 9999,
      "fzfg": false,
      "metar_trigger": false,
      "taf_trigger": false,
      "metar": "METAR LPPS 180930Z 33005KT 280V350 9999 FEW012 17/14 Q1026",
      "taf": "TAF LPPS 180500Z 1806/1912 33005KT 9999 SCT015"
    },
    {
      "icao": "LPPT",
      "alert": "OK",
      "vis_m": 6000,
      "fzfg": false,
      "metar_trigger": false,
      "taf_trigger": false,
      "metar": "METAR LPPT 180930Z 22012KT 6000 -RADZ FEW009 SCT012 BKN034 13/12 Q1021",
      "taf": "TAF LPPT 180500Z 1806/1912 22005KT 9999 BKN020"
    },
    {
      "icao": "LQBK",
      "alert": "OK",
      "vis_m": 9999,
      "fzfg": false,
      "metar_trigger": false,
      "taf_trigger": false,
      "metar": "METAR LQBK 180930Z 33007KT CAVOK 05/02 Q1016 NOSIG",
      "taf": "TAF LQBK 180500Z 1806/1906 16005KT CAVOK TX08/1813Z TN00/1824Z"
    },
    {
      "icao": "LQSA",
      "alert": "OK",
      "vis_m": 9999,
      "fzfg": false,
      "metar_trigger": false,
      "taf_trigger": false,
      "metar": "METAR LQSA 180930Z VRB03KT 9999 FEW015 SCT040 02/00 Q1015 NOSIG",
      "taf": "TAF LQSA 180500Z 1806/1906 VRB02KT 9999 SCT045 TX06/1813Z TNM02/1902Z"
    },
    {
      "icao": "LQTZ",
      "alert": "OK",
      "vis_m": 9999,
      "fzfg": false,
      "metar_trigger": false,
      "taf_trigger": false,
      "metar": "METAR LQTZ 180930Z 28004KT 260V330 9999 SCT045 BKN061 05/02 Q1015",
      "taf": "TAF LQTZ 180500Z 1806/1906 28005KT 3000 BR SCT035 TX08/1814Z TNM01/1824Z"
    },
    {
      "icao": "LRBC",
      "alert": "OK",
      "vis_m": 2500,
      "fzfg": false,
      "metar_trigger": false,
      "taf_trigger": false,
      "metar": "METAR LRBC 180930Z 34012KT 2500 -SN BR FEW010 OVC025 M03/M05 Q1007",
      "taf": "TAF LRBC 180800Z 1809/1818 35010KT 3000 -SN BR BKN008 OVC025"
    },
    {
      "icao": "LRBS",
      "alert": "OK",
      "vis_m": 3000,
      "fzfg": false,
      "metar_trigger": false,
      "taf_trigger": false,
      "metar": "METAR LRBS 180930Z 24004KT 3000 -SN BR BKN003 OVC014 01/01 Q1005 BECMG 5000 -RASN BR BKN005 OVC020",
      "taf": "TAF LRBS 180500Z 1806/1906 VRB04KT 3000 -SN BR BKN005 OVC015"
    },
    {
      "icao": "LRBV",
      "alert": "OK",
      "vis_m": 1700,
      "fzfg": false,
      "metar_trigger": false,
      "taf_trigger": false,
      "metar": "METAR LRBV 180930Z 30011KT 1700 R21/1100N -SN BR FEW009 BKN017 BKN024 M00/M02 Q1005",
      "taf": "TAF LRBV 180800Z 1809/1818 30010KT 3000 SN BR OVC010"
    },
    {
      "icao": "LRCL",
      "alert": "OK",
      "vis_m": 9999,
      "fzfg": false,
      "metar_trigger": false,
      "taf_trigger": false,
      "metar": "METAR LRCL 180930Z 30013KT 270V330 9999 FEW049 02/M03 Q1008",
      "taf": "TAF LRCL 180800Z 1809/1818 30012KT 9999 SCT035"
    },
    {
      "icao": "LRCV",
      "alert": "OK",
      "vis_m": 9999,
      "fzfg": false,
      "metar_trigger": false,
      "taf_trigger": false,
      "metar": "METAR LRCV 180930Z 29013KT CAVOK 05/M00 Q1006",
      "taf": "TAF LRCV 180800Z 1809/1818 29012KT CAVOK"
    },
    {
      "icao": "LRIA",
      "alert": "OK",
      "vis_m": 3000,
      "fzfg": false,
      "metar_trigger": false,
      "taf_trigger": false,
      "metar": "METAR LRIA 180930Z 31016KT 3000 -SN BR BKN008 OVC030 M05/M06 Q1008",
      "taf": "TAF LRIA 180800Z 1809/1818 32012KT 1500 -SN BR BKN005 OVC015"
    },
    {
      "icao": "LROP",
      "alert": "OK",
      "vis_m": 3000,
      "fzfg": false,
      "metar_trigger": false,
      "taf_trigger": false,
      "metar": "METAR LROP 180930Z 22005KT 3000 -SNRA FEW002 OVC013 00/00 Q1005 BECMG 5000 -RA BR SCT010 BKN020",
      "taf": "TAF LROP 180500Z 1806/1906 VRB04KT 3000 -SN BR BKN005 OVC015"
    },
    {
      "icao": "LRSB",
      "alert": "OK",
      "vis_m": 9999,
      "fzfg": false,
      "metar_trigger": false,
      "taf_trigger": false,
      "metar": "METAR LRSB 180930Z 35010KT 9999 BKN045 SCT070 01/M00 Q1007",
      "taf": "TAF LRSB 180500Z 1806/1906 VRB04KT 3000 -SN BR BKN005 OVC010"
    },
    {
      "icao": "LRSM",
      "alert": "OK",
      "vis_m": 9999,
      "fzfg": false,
      "metar_trigger": false,
      "taf_trigger": false,
      "metar": "METAR LRSM 180930Z 25004KT 210V280 CAVOK 03/M02 Q1010",
      "taf": "TAF LRSM 180800Z 1809/1818 VRB04KT CAVOK"
    },
    {
      "icao": "LRSV",
      "alert": "OK",
      "vis_m": 3000,
      "fzfg": false,
      "metar_trigger": false,
      "taf_trigger": false,
      "metar": "METAR LRSV 180930Z 31015KT 3000 -SN BR BKN026 M05/M06 Q1007",
      "taf": "TAF LRSV 180800Z 1809/1818 31011KT 3000 -SN BR BKN045"
    },
    {
      "icao": "LRTM",
      "alert": "OK",
      "vis_m": 9999,
      "fzfg": false,
      "metar_trigger": false,
      "taf_trigger": false,
      "metar": "METAR LRTM 180930Z 29010KT 9999 SCT011 BKN014 OVC027 01/M02 Q1008",
      "taf": "TAF LRTM 180800Z 1809/1818 26008KT 9999 SCT015 BKN030"
    },
    {
      "icao": "LRTR",
      "alert": "OK",
      "vis_m": 9999,
      "fzfg": false,
      "metar_trigger": false,
      "taf_trigger": false,
      "metar": "METAR LRTR 180930Z 29008KT 9999 FEW009 SCT037 03/02 Q1012 NOSIG",
      "taf": "TAF LRTR 180500Z 1806/1906 VRB04KT 3000 BR NSC"
    },
    {
      "icao": "LTAC",
      "alert": "OK",
      "vis_m": 9999,
      "fzfg": false,
      "metar_trigger": false,
      "taf_trigger": false,
      "metar": "METAR LTAC 180950Z 25013KT 9999 -SHRA FEW013 BKN030 BKN080 07/04 Q0997 NOSIG RMK RWY21C 24014KT RWY03L 24012KT RWY21R 22014KT RWY03R 21011KT RWY21L 23010KT",
      "taf": "TAF LTAC 180440Z 1806/1906 20012KT 9999 SCT040 BKN100"
    },
    {
      "icao": "LTFM",
      "alert": "OK",
      "vis_m": 8000,
      "fzfg": false,
      "metar_trigger": false,
      "taf_trigger": false,
      "metar": "METAR LTFM 180950Z 31019KT 8000 -SHSNRA BKN005 BKN025 02/00 Q1002 NOSIG RMK RWY17L 31016KT RWY34L 31016G26KT RWY16R 31016KT RWY36 32019KT RWY18 32017KT",
      "taf": ""
    },
    {
      "icao": "LUKK",
      "alert": "OK",
      "vis_m": 2200,
      "fzfg": false,
      "metar_trigger": false,
      "taf_trigger": false,
      "metar": "METAR LUKK 180930Z 36018KT 2200 SN BLSN SCT009 OVC018 M04/M06 Q1004 TEMPO 35018G28KT 0800 +SN BLSN VV006",
      "taf": "TAF LUKK 180517Z 1806/1906 36014KT 9999 OVC010"
    },
    {
      "icao": "LWOH",
      "alert": "OK",
      "vis_m": 9999,
      "fzfg": false,
      "metar_trigger": false,
      "taf_trigger": false,
      "metar": "METAR LWOH 180920Z 31011KT 260V350 9999 FEW040 06/M04 Q1011",
      "taf": "TAF LWOH 180830Z 1809/1909 32015KT 9999 FEW040"
    },
    {
      "icao": "LWSK",
      "alert": "OK",
      "vis_m": 9999,
      "fzfg": false,
      "metar_trigger": false,
      "taf_trigger": false,
      "metar": "METAR LWSK 180950Z 29016G27KT 250V350 9999 SCT060 09/M02 Q1012 NOSIG",
      "taf": "TAF LWSK 180830Z 1809/1909 31015KT 9999 SCT060"
    },
    {
      "icao": "LYBE",
      "alert": "OK",
      "vis_m": 9999,
      "fzfg": false,
      "metar_trigger": false,
      "taf_trigger": false,
      "metar": "METAR LYBE 180930Z 31013KT 290V360 9999 BKN025 05/02 Q1014 NOSIG",
      "taf": "TAF LYBE 180500Z 1806/1906 30012KT 9999 SCT025 TX09/1813Z TN00/1806Z"
    },
    {
      "icao": "LYNI",
      "alert": "OK",
      "vis_m": 9999,
      "fzfg": false,
      "metar_trigger": false,
      "taf_trigger": false,
      "metar": "METAR LYNI 180930Z 32018KT 9999 FEW017 SCT027 BKN033 04/01 Q1012 NOSIG",
      "taf": "TAF LYNI 180500Z 1806/1906 32016KT 9999 BKN015 BKN030 TX07/1813Z TNM01/1905Z"
    },
    {
      "icao": "LYPG",
      "alert": "OK",
      "vis_m": 9999,
      "fzfg": false,
      "metar_trigger": false,
      "taf_trigger": false,
      "metar": "METAR LYPG 180930Z 36012KT 320V030 CAVOK 11/M05 Q1014 NOSIG",
      "taf": "TAF LYPG 180500Z 1806/1906 32010KT CAVOK TX13/1812Z TN02/1905Z"
    },
    {
      "icao": "LZIB",
      "alert": "OK",
      "vis_m": 9999,
      "fzfg": false,
      "metar_trigger": false,
      "taf_trigger": false,
      "metar": "METAR LZIB 180930Z 26010KT 9999 FEW025 BKN030 05/M01 Q1013 NOSIG",
      "taf": "TAF LZIB 180515Z 1806/1906 28009KT 9999 SCT030"
    },
    {
      "icao": "LZKZ",
      "alert": "OK",
      "vis_m": 9999,
      "fzfg": false,
      "metar_trigger": false,
      "taf_trigger": false,
      "metar": "METAR LZKZ 180930Z 14005KT 9999 FEW025 05/M00 Q1009 NOSIG",
      "taf": "TAF LZKZ 180515Z 1806/1906 22005KT CAVOK"
    },
    {
      "icao": "LZTT",
      "alert": "OK",
      "vis_m": 9999,
      "fzfg": false,
      "metar_trigger": false,
      "taf_trigger": false,
      "metar": "METAR LZTT 180930Z 27013KT 9999 FEW016 BKN020 01/M02 Q1007 NOSIG",
      "taf": "TAF LZTT 180515Z 1806/1906 26005KT 9999 FEW020"
    },
    {
      "icao": "OEJN",
      "alert": "OK",
      "vis_m": 9999,
      "fzfg": false,
      "metar_trigger": false,
      "taf_trigger": false,
      "metar": "METAR OEJN 180900Z 33008KT CAVOK 31/15 Q1011 NOSIG",
      "taf": "TAF OEJN 180500Z 1806/1912 32015KT CAVOK"
    },
    {
      "icao": "OEMA",
      "alert": "OK",
      "vis_m": 9999,
      "fzfg": false,
      "metar_trigger": false,
      "taf_trigger": false,
      "metar": "METAR OEMA 180900Z 13004KT CAVOK 29/M02 Q1016 NOSIG",
      "taf": "TAF OEMA 180500Z 1806/1912 VRB03KT CAVOK"
    },
    {
      "icao": "OJAI",
      "alert": "OK",
      "vis_m": 4000,
      "fzfg": false,
      "metar_trigger": false,
      "taf_trigger": false,
      "metar": "METAR OJAI 180900Z 25020KT 4000 BLDU NSC 15/05 Q1015 NOSIG",
      "taf": "TAF OJAI 180446Z 1806/1912 25010KT 4000 HZ NSC"
    },
    {
      "icao": "OMAA",
      "alert": "OK",
      "vis_m": 9999,
      "fzfg": false,
      "metar_trigger": false,
      "taf_trigger": false,
      "metar": "METAR OMAA 180930Z 08008KT 050V110 CAVOK 29/04 Q1015 BECMG 36010KT",
      "taf": "TAF OMAA 180500Z 1806/1912 10006KT 8000 NSC"
    },
    {
      "icao": "OMDB",
      "alert": "OK",
      "vis_m": 9999,
      "fzfg": false,
      "metar_trigger": false,
      "taf_trigger": false,
      "metar": "SPECI OMDB 180939Z 34010KT 300V040 CAVOK 28/13 Q1015 NOSIG",
      "taf": "TAF OMDB 180500Z 1806/1912 08005KT CAVOK"
    },
    {
      "icao": "UAAA",
      "alert": "OK",
      "vis_m": 9999,
      "fzfg": false,
      "metar_trigger": false,
      "taf_trigger": false,
      "metar": "METAR UAAA 180930Z VRB01MPS 9999 BKN200 16/04 Q1018 NOSIG",
      "taf": "TAF UAAA 180505Z 1806/1906 06003MPS 3100 BR SCT020 BKN050 TX12/1809Z TN02/1903Z"
    },
    {
      "icao": "UBBB",
      "alert": "OK",
      "vis_m": 9999,
      "fzfg": false,
      "metar_trigger": false,
      "taf_trigger": false,
      "metar": "METAR UBBB 180930Z 35012KT 310V010 CAVOK 12/07 Q1009 NOSIG",
      "taf": "TAF UBBB 180455Z 1806/1906 32010KT 8000 BKN009 TX09/1810Z TN04/1800Z"
    },
    {
      "icao": "UDSG",
      "alert": "OK",
      "vis_m": 9999,
      "fzfg": false,
      "metar_trigger": false,
      "taf_trigger": false,
      "metar": "METAR UDSG 180930Z 22007KT 9999 SCT046 07/01 Q1013 NOSIG",
      "taf": "TAF UDSG 180500Z 1806/1906 VRB06KT 9999 BKN040"
    },
    {
      "icao": "UDYZ",
      "alert": "OK",
      "vis_m": null,
      "fzfg": false,
      "metar_trigger": false,
      "taf_trigger": false,
      "metar": "",
      "taf": "TAF UDYZ 180500Z 1806/1906 24006KT 9999 SCT040"
    },
    {
      "icao": "UGKO",
      "alert": "OK",
      "vis_m": 9999,
      "fzfg": false,
      "metar_trigger": false,
      "taf_trigger": false,
      "metar": "METAR UGKO 180930Z 06021KT CAVOK 21/02 Q1001 NOSIG",
      "taf": "TAF UGKO 180500Z 1806/1906 09010KT CAVOK TX24/1812Z TN09/1904Z"
    }
  ]
}