{
  "ts_utc": "2026-03-02T18:06:26Z",
  "threshold_m": 150,
  "source": "stations_override.txt (ICAO list) + aviationweather.gov (METAR/TAF raw)",
  "station_count": 159,
  "stations": [
    {
      "icao": "BIKF",
      "alert": "OK",
      "vis_m": 9999,
      "fzfg": false,
      "metar_trigger": false,
      "taf_trigger": false,
      "metar": "METAR BIKF 021800Z 33010KT 9999 BKN032 M03/M08 Q1007",
      "taf": "TAF BIKF 021623Z 0218/0318 35015KT 9999 BKN030 TX07/0317Z TNM08/0300Z"
    },
    {
      "icao": "BKPR",
      "alert": "OK",
      "vis_m": 9999,
      "fzfg": false,
      "metar_trigger": false,
      "taf_trigger": false,
      "metar": "METAR BKPR 021800Z 28003KT 190V360 CAVOK 10/03 Q1024 NOSIG",
      "taf": "TAF BKPR 021730Z 0218/0318 34007KT 9999 SCT040"
    },
    {
      "icao": "EBCI",
      "alert": "OK",
      "vis_m": 9999,
      "fzfg": false,
      "metar_trigger": false,
      "taf_trigger": false,
      "metar": "METAR EBCI 021750Z 18004KT CAVOK 14/04 Q1020 NOSIG",
      "taf": "TAF EBCI 021700Z 0218/0324 17005KT CAVOK"
    },
    {
      "icao": "EDDB",
      "alert": "OK",
      "vis_m": 9999,
      "fzfg": false,
      "metar_trigger": false,
      "taf_trigger": false,
      "metar": "METAR EDDB 021750Z AUTO 15004KT CAVOK 09/M00 Q1025 NOSIG",
      "taf": "TAF EDDB 021700Z 0218/0318 17005KT CAVOK"
    },
    {
      "icao": "EDDH",
      "alert": "OK",
      "vis_m": 9999,
      "fzfg": false,
      "metar_trigger": false,
      "taf_trigger": false,
      "metar": "METAR EDDH 021750Z AUTO 11004KT 080V170 CAVOK 11/03 Q1022 NOSIG",
      "taf": "TAF EDDH 021700Z 0218/0324 16004KT CAVOK"
    },
    {
      "icao": "EDDK",
      "alert": "OK",
      "vis_m": 9999,
      "fzfg": false,
      "metar_trigger": false,
      "taf_trigger": false,
      "metar": "METAR EDDK 021750Z AUTO 11005KT CAVOK 13/03 Q1021 NOSIG",
      "taf": "TAF EDDK 021700Z 0218/0324 13005KT CAVOK"
    },
    {
      "icao": "EDDN",
      "alert": "OK",
      "vis_m": 9999,
      "fzfg": false,
      "metar_trigger": false,
      "taf_trigger": false,
      "metar": "METAR EDDN 021750Z AUTO 09004KT CAVOK 10/03 Q1023 NOSIG",
      "taf": "TAF EDDN 021700Z 0218/0318 VRB03KT CAVOK"
    },
    {
      "icao": "EDDS",
      "alert": "OK",
      "vis_m": 9999,
      "fzfg": false,
      "metar_trigger": false,
      "taf_trigger": false,
      "metar": "METAR EDDS 021750Z AUTO 09004KT 060V120 CAVOK 08/04 Q1022 NOSIG",
      "taf": "TAF EDDS 021700Z 0218/0318 VRB03KT CAVOK"
    },
    {
      "icao": "EDFH",
      "alert": "OK",
      "vis_m": 9999,
      "fzfg": false,
      "metar_trigger": false,
      "taf_trigger": false,
      "metar": "METAR EDFH 021750Z 13008KT CAVOK 09/04 Q1022",
      "taf": "TAF EDFH 021700Z 0218/0318 14008KT CAVOK"
    },
    {
      "icao": "EDJA",
      "alert": "OK",
      "vis_m": 9999,
      "fzfg": false,
      "metar_trigger": false,
      "taf_trigger": false,
      "metar": "METAR EDJA 021750Z 03006KT CAVOK 06/04 Q1022",
      "taf": "TAF EDJA 021700Z 0218/0303 05006KT CAVOK"
    },
    {
      "icao": "EDLW",
      "alert": "OK",
      "vis_m": 9999,
      "fzfg": false,
      "metar_trigger": false,
      "taf_trigger": false,
      "metar": "METAR EDLW 021750Z 16004KT CAVOK 12/01 Q1021",
      "taf": "TAF EDLW 021700Z 0218/0318 16006KT CAVOK"
    },
    {
      "icao": "EDNY",
      "alert": "OK",
      "vis_m": 9999,
      "fzfg": false,
      "metar_trigger": false,
      "taf_trigger": false,
      "metar": "METAR EDNY 021750Z VRB02KT CAVOK 04/03 Q1022",
      "taf": "TAF EDNY 021700Z 0218/0303 VRB02KT CAVOK"
    },
    {
      "icao": "EDSB",
      "alert": "OK",
      "vis_m": 9999,
      "fzfg": false,
      "metar_trigger": false,
      "taf_trigger": false,
      "metar": "METAR EDSB 021750Z 02003KT CAVOK 12/03 Q1022",
      "taf": "TAF EDSB 021700Z 0218/0318 02004KT CAVOK"
    },
    {
      "icao": "EETN",
      "alert": "OK",
      "vis_m": 9999,
      "fzfg": false,
      "metar_trigger": false,
      "taf_trigger": false,
      "metar": "METAR EETN 021750Z 33005KT 9999 OVC014 01/00 Q1019 NOSIG",
      "taf": "TAF EETN 021730Z 0218/0318 33012KT 9999 OVC010"
    },
    {
      "icao": "EFTU",
      "alert": "OK",
      "vis_m": 9999,
      "fzfg": false,
      "metar_trigger": false,
      "taf_trigger": false,
      "metar": "METAR EFTU 021750Z AUTO 01003KT 310V050 9999 OVC008 00/M01 Q1021",
      "taf": "TAF EFTU 021732Z 0218/0318 30003KT 9999 BKN007"
    },
    {
      "icao": "EGBB",
      "alert": "OK",
      "vis_m": 9999,
      "fzfg": false,
      "metar_trigger": false,
      "taf_trigger": false,
      "metar": "METAR EGBB 021750Z 19004KT 9999 FEW041 13/06 Q1014",
      "taf": "TAF EGBB 021700Z 0218/0318 18010KT 9999 FEW035"
    },
    {
      "icao": "EGGP",
      "alert": "OK",
      "vis_m": 9999,
      "fzfg": false,
      "metar_trigger": false,
      "taf_trigger": false,
      "metar": "METAR EGGP 021750Z 13003KT 080V150 9999 FEW039 BKN048 09/08 Q1015",
      "taf": "TAF EGGP 021655Z 0218/0318 VRB04KT 9999 SCT030"
    },
    {
      "icao": "EGGW",
      "alert": "OK",
      "vis_m": 9999,
      "fzfg": false,
      "metar_trigger": false,
      "taf_trigger": false,
      "metar": "METAR EGGW 021750Z AUTO 18008KT 9999 NCD 12/07 Q1015",
      "taf": "TAF EGGW 021657Z 0218/0318 18010KT 9999 SCT025"
    },
    {
      "icao": "EGKK",
      "alert": "OK",
      "vis_m": 9999,
      "fzfg": false,
      "metar_trigger": false,
      "taf_trigger": false,
      "metar": "METAR EGKK 021750Z 19003KT CAVOK 12/06 Q1017",
      "taf": "TAF EGKK 021654Z 0218/0324 19010KT 9999 FEW030"
    },
    {
      "icao": "EGNM",
      "alert": "OK",
      "vis_m": 9999,
      "fzfg": false,
      "metar_trigger": false,
      "taf_trigger": false,
      "metar": "METAR EGNM 021750Z 24007KT 210V270 9999 -DZ FEW007 BKN029 07/06 Q1014",
      "taf": "TAF EGNM 021655Z 0218/0318 26005KT 9999 SCT040"
    },
    {
      "icao": "EGPD",
      "alert": "OK",
      "vis_m": 9999,
      "fzfg": false,
      "metar_trigger": false,
      "taf_trigger": false,
      "metar": "METAR EGPD 021750Z COR AUTO 21011KT 9999 SCT046 09/01 Q1005 NOSIG",
      "taf": "TAF EGPD 021654Z 0218/0318 20015KT 9999 FEW040"
    },
    {
      "icao": "EGPF",
      "alert": "OK",
      "vis_m": 9999,
      "fzfg": false,
      "metar_trigger": false,
      "taf_trigger": false,
      "metar": "METAR EGPF 021750Z AUTO 22022KT 9999 -RA FEW018 BKN023 BKN030 08/06 Q1008",
      "taf": "TAF EGPF 021652Z 0218/0318 21015G25KT 9999 FEW016 SCT030"
    },
    {
      "icao": "EHBK",
      "alert": "OK",
      "vis_m": 9999,
      "fzfg": false,
      "metar_trigger": false,
      "taf_trigger": false,
      "metar": "METAR EHBK 021755Z AUTO 16004KT 9999 NCD 13/05 Q1020 NOSIG",
      "taf": "TAF EHBK 021714Z 0218/0324 15005KT CAVOK"
    },
    {
      "icao": "EHEH",
      "alert": "OK",
      "vis_m": 9999,
      "fzfg": false,
      "metar_trigger": false,
      "taf_trigger": false,
      "metar": "METAR EHEH 021755Z AUTO 15003KT 130V200 9999 NCD 13/04 Q1020 BLU NOSIG RMK TREND REMOTE BY EHWX",
      "taf": "TAF EHEH 021719Z 0218/0324 15007KT CAVOK"
    },
    {
      "icao": "EKBI",
      "alert": "OK",
      "vis_m": 9999,
      "fzfg": false,
      "metar_trigger": false,
      "taf_trigger": false,
      "metar": "METAR EKBI 021750Z AUTO 15004KT 9999 NCD 09/04 Q1021",
      "taf": "TAF EKBI 021727Z 0218/0318 19010KT CAVOK"
    },
    {
      "icao": "EKCH",
      "alert": "OK",
      "vis_m": 9999,
      "fzfg": false,
      "metar_trigger": false,
      "taf_trigger": false,
      "metar": "METAR EKCH 021750Z AUTO 18007KT 9999 BKN220/// 04/03 Q1023 NOSIG",
      "taf": "TAF EKCH 021727Z 0218/0318 17005KT CAVOK"
    },
    {
      "icao": "ENAL",
      "alert": "OK",
      "vis_m": 9999,
      "fzfg": false,
      "metar_trigger": false,
      "taf_trigger": false,
      "metar": "METAR ENAL 021750Z 21015KT 9999 BKN054 11/04 Q1002",
      "taf": "TAF ENAL 021700Z 0218/0303 20015KT 9999 BKN050"
    },
    {
      "icao": "ENBR",
      "alert": "OK",
      "vis_m": 5000,
      "fzfg": false,
      "metar_trigger": false,
      "taf_trigger": false,
      "metar": "METAR ENBR 021750Z 16024KT 5000 RA SCT004 BKN008 06/05 Q1008 TEMPO 2000 RADZ BR BKN003 RMK WIND 1200FT 16031KT",
      "taf": "TAF ENBR 021700Z 0218/0318 16020G30KT 8000 -RA SCT005 BKN010"
    },
    {
      "icao": "ENGM",
      "alert": "OK",
      "vis_m": 2600,
      "fzfg": false,
      "metar_trigger": false,
      "taf_trigger": false,
      "metar": "METAR ENGM 021750Z 24004KT 200V260 2600 1400SW -DZRA BR BKN002 00/M00 Q1016 TEMPO 1200 -DZ BR",
      "taf": "TAF ENGM 021700Z 0218/0318 VRB03KT 3000 BR SCT003 BKN005"
    },
    {
      "icao": "ENHD",
      "alert": "OK",
      "vis_m": 8000,
      "fzfg": false,
      "metar_trigger": false,
      "taf_trigger": false,
      "metar": "METAR ENHD 021750Z 16015G25KT 8000 OVC006 07/05 Q1011",
      "taf": "TAF ENHD 021400Z 0215/0223 16020KT 9000 SCT005 BKN010"
    },
    {
      "icao": "ENTC",
      "alert": "OK",
      "vis_m": 9999,
      "fzfg": false,
      "metar_trigger": false,
      "taf_trigger": false,
      "metar": "METAR ENTC 021750Z 00000KT CAVOK M00/M02 Q1013 NOSIG RMK WIND 2600FT 17014KT",
      "taf": "TAF ENTC 021700Z 0218/0318 19007KT 9999 FEW035"
    },
    {
      "icao": "ENTO",
      "alert": "OK",
      "vis_m": 150,
      "fzfg": false,
      "metar_trigger": false,
      "taf_trigger": false,
      "metar": "METAR ENTO 021750Z 20010KT 0150 R18/0650N R36/0650N FG VV000 02/02 Q1017 TEMPO 0400 FG VV002",
      "taf": "TAF ENTO 021700Z 0218/0318 19012KT 0200 FG VV001"
    },
    {
      "icao": "ENVA",
      "alert": "OK",
      "vis_m": 9999,
      "fzfg": false,
      "metar_trigger": false,
      "taf_trigger": false,
      "metar": "METAR ENVA 021750Z 08008KT 040V120 9999 -SHRA BKN041 05/02 Q1007 TEMPO 17015G25KT RMK WIND 670FT 15021KT",
      "taf": "TAF ENVA 021700Z 0218/0318 14008KT 9999 SCT045"
    },
    {
      "icao": "ENZV",
      "alert": "OK",
      "vis_m": 9000,
      "fzfg": false,
      "metar_trigger": false,
      "taf_trigger": false,
      "metar": "METAR ENZV 021750Z 16018KT 9000 OVC008 07/05 Q1012 TEMPO 16020G30KT",
      "taf": "TAF ENZV 021700Z 0218/0318 16020G30KT 9000 BKN010"
    },
    {
      "icao": "EPGD",
      "alert": "OK",
      "vis_m": 9999,
      "fzfg": false,
      "metar_trigger": false,
      "taf_trigger": false,
      "metar": "METAR EPGD 021800Z 29004KT 9999 BKN020 07/02 Q1024",
      "taf": "TAF EPGD 021730Z 0218/0318 28005KT CAVOK"
    },
    {
      "icao": "EPKK",
      "alert": "OK",
      "vis_m": 9999,
      "fzfg": false,
      "metar_trigger": false,
      "taf_trigger": false,
      "metar": "METAR EPKK 021800Z 04002KT CAVOK 07/00 Q1026",
      "taf": "TAF EPKK 021730Z 0218/0318 03003KT CAVOK"
    },
    {
      "icao": "EPKT",
      "alert": "OK",
      "vis_m": 9999,
      "fzfg": false,
      "metar_trigger": false,
      "taf_trigger": false,
      "metar": "METAR EPKT 021800Z 05003KT CAVOK 02/M01 Q1026",
      "taf": "TAF EPKT 021730Z 0218/0318 VRB02KT CAVOK"
    },
    {
      "icao": "EPLB",
      "alert": "OK",
      "vis_m": 9999,
      "fzfg": false,
      "metar_trigger": false,
      "taf_trigger": false,
      "metar": "METAR EPLB 021800Z 26005KT CAVOK 04/M01 Q1026",
      "taf": "TAF EPLB 021730Z 0218/0318 26006KT CAVOK"
    },
    {
      "icao": "EPMO",
      "alert": "OK",
      "vis_m": 9999,
      "fzfg": false,
      "metar_trigger": false,
      "taf_trigger": false,
      "metar": "METAR EPMO 021800Z 21007KT CAVOK 08/01 Q1025",
      "taf": "TAF EPMO 021730Z 0218/0318 26004KT CAVOK"
    },
    {
      "icao": "EPPO",
      "alert": "OK",
      "vis_m": 9999,
      "fzfg": false,
      "metar_trigger": false,
      "taf_trigger": false,
      "metar": "METAR EPPO 021800Z 20002KT CAVOK 06/M01 Q1025",
      "taf": "TAF EPPO 021730Z 0218/0318 VRB02KT CAVOK"
    },
    {
      "icao": "EPRA",
      "alert": "OK",
      "vis_m": 9999,
      "fzfg": false,
      "metar_trigger": false,
      "taf_trigger": false,
      "metar": "METAR EPRA 021800Z VRB02KT CAVOK 07/00 Q1026",
      "taf": "TAF EPRA 021730Z 0218/0303 VRB03KT CAVOK"
    },
    {
      "icao": "EPRZ",
      "alert": "OK",
      "vis_m": 9999,
      "fzfg": false,
      "metar_trigger": false,
      "taf_trigger": false,
      "metar": "METAR EPRZ 021800Z 27002KT CAVOK 04/M00 Q1026",
      "taf": "TAF EPRZ 021730Z 0218/0318 27003KT CAVOK"
    },
    {
      "icao": "EPSC",
      "alert": "OK",
      "vis_m": 9999,
      "fzfg": false,
      "metar_trigger": false,
      "taf_trigger": false,
      "metar": "METAR EPSC 021800Z 12005KT CAVOK 06/03 Q1024",
      "taf": "TAF EPSC 021730Z 0218/0318 14004KT CAVOK"
    },
    {
      "icao": "EPSY",
      "alert": "OK",
      "vis_m": 9999,
      "fzfg": false,
      "metar_trigger": false,
      "taf_trigger": false,
      "metar": "METAR EPSY 021800Z 23003KT CAVOK 05/00 Q1024",
      "taf": "TAF EPSY 021730Z 0218/0303 24005KT CAVOK"
    },
    {
      "icao": "EPWA",
      "alert": "OK",
      "vis_m": 9999,
      "fzfg": false,
      "metar_trigger": false,
      "taf_trigger": false,
      "metar": "METAR EPWA 021800Z 23003KT CAVOK 04/M00 Q1026 NOSIG",
      "taf": "TAF EPWA 021730Z 0218/0318 26003KT CAVOK"
    },
    {
      "icao": "EPWR",
      "alert": "OK",
      "vis_m": 9999,
      "fzfg": false,
      "metar_trigger": false,
      "taf_trigger": false,
      "metar": "METAR EPWR 021800Z 11004KT CAVOK 06/M00 Q1026",
      "taf": "TAF EPWR 021730Z 0218/0318 VRB02KT CAVOK"
    },
    {
      "icao": "ESGG",
      "alert": "OK",
      "vis_m": 400,
      "fzfg": false,
      "metar_trigger": false,
      "taf_trigger": false,
      "metar": "METAR ESGG 021750Z 17007KT 0400 R03/1300U R21/1700N FG VV003 05/05 Q1021",
      "taf": "TAF ESGG 021730Z 0218/0318 17006KT 0300 -RA FG VV002"
    },
    {
      "icao": "ESKN",
      "alert": "OK",
      "vis_m": 9999,
      "fzfg": false,
      "metar_trigger": false,
      "taf_trigger": false,
      "metar": "METAR ESKN 021750Z 16004KT CAVOK 02/M01 Q1022",
      "taf": "TAF ESKN 021730Z 0218/0318 11003KT CAVOK"
    },
    {
      "icao": "ESMS",
      "alert": "OK",
      "vis_m": 9999,
      "fzfg": false,
      "metar_trigger": false,
      "taf_trigger": false,
      "metar": "METAR ESMS 021750Z 13001KT 9999 BKN046 06/05 Q1023",
      "taf": "TAF ESMS 021727Z 0218/0318 14005KT CAVOK"
    },
    {
      "icao": "ESSA",
      "alert": "OK",
      "vis_m": 9999,
      "fzfg": false,
      "metar_trigger": false,
      "taf_trigger": false,
      "metar": "METAR ESSA 021750Z 17003KT CAVOK 00/M01 Q1022 NOSIG",
      "taf": "TAF ESSA 021730Z 0218/0318 27005KT CAVOK"
    },
    {
      "icao": "EYKA",
      "alert": "OK",
      "vis_m": 9999,
      "fzfg": false,
      "metar_trigger": false,
      "taf_trigger": false,
      "metar": "METAR EYKA 021750Z 27005KT CAVOK 02/M02 Q1022",
      "taf": "TAF EYKA 021700Z 0218/0318 VRB04KT 5000 BR SCT005"
    },
    {
      "icao": "EYPA",
      "alert": "OK",
      "vis_m": 700,
      "fzfg": true,
      "metar_trigger": false,
      "taf_trigger": false,
      "metar": "METAR EYPA 021750Z 20001KT 0700 R01/0750N FZFG VV001 M01/M02 Q1024",
      "taf": "TAF EYPA 021700Z 0218/0318 VRB02KT 3000 BR BKN002"
    },
    {
      "icao": "EYVI",
      "alert": "OK",
      "vis_m": 9999,
      "fzfg": false,
      "metar_trigger": false,
      "taf_trigger": false,
      "metar": "METAR EYVI 021750Z 29007KT 270V340 9999 OVC031 03/M01 Q1021 NOSIG",
      "taf": "TAF EYVI 021711Z 0218/0318 VRB04KT 5000 BR SCT030"
    },
    {
      "icao": "GCFV",
      "alert": "OK",
      "vis_m": 9999,
      "fzfg": false,
      "metar_trigger": false,
      "taf_trigger": false,
      "metar": "METAR GCFV 021800Z 28016G26KT 9999 FEW033 BKN038 19/09 Q1015",
      "taf": "TAF GCFV 021400Z 0215/0315 30010KT 9999 BKN038 TX19/0314Z TN13/0306Z"
    },
    {
      "icao": "GCLP",
      "alert": "OK",
      "vis_m": 9999,
      "fzfg": false,
      "metar_trigger": false,
      "taf_trigger": false,
      "metar": "METAR GCLP 021800Z 15007KT 100V180 9999 FEW050 19/11 Q1016 NOSIG",
      "taf": "TAF GCLP 021400Z 0215/0315 18005KT 9999 SCT040 TX20/0314Z TN14/0306Z"
    },
    {
      "icao": "GCTS",
      "alert": "OK",
      "vis_m": 9999,
      "fzfg": false,
      "metar_trigger": false,
      "taf_trigger": false,
      "metar": "METAR GCTS 021800Z 06006KT 360V130 9999 FEW045 20/10 Q1015 NOSIG",
      "taf": ""
    },
    {
      "icao": "GMAD",
      "alert": "OK",
      "vis_m": 6000,
      "fzfg": false,
      "metar_trigger": false,
      "taf_trigger": false,
      "metar": "METAR GMAD 021800Z 26015KT 6000 SCT013 BKN100 16/12 Q1011 NOSIG",
      "taf": "TAF GMAD 021700Z 0218/0324 24010KT 8000 SCT016 BKN080"
    },
    {
      "icao": "GMMN",
      "alert": "OK",
      "vis_m": 9999,
      "fzfg": false,
      "metar_trigger": false,
      "taf_trigger": false,
      "metar": "METAR GMMN 021800Z 28006KT 9999 BKN016 15/11 Q1010 NOSIG",
      "taf": "TAF GMMN 021700Z 0218/0324 28008KT 9999 BKN016"
    },
    {
      "icao": "GMMX",
      "alert": "OK",
      "vis_m": 8000,
      "fzfg": false,
      "metar_trigger": false,
      "taf_trigger": false,
      "metar": "METAR GMMX 021800Z 29010KT 8000 SCT030 SCT200 17/10 Q1010 NOSIG",
      "taf": "TAF GMMX 021700Z 0218/0324 06006KT 8000 SCT030 SCT200"
    },
    {
      "icao": "HEGN",
      "alert": "OK",
      "vis_m": 9999,
      "fzfg": false,
      "metar_trigger": false,
      "taf_trigger": false,
      "metar": "METAR HEGN 021700Z 34010KT CAVOK 15/05 Q1016 NOSIG",
      "taf": "TAF HEGN 021700Z 0218/0324 32008G18KT CAVOK"
    },
    {
      "icao": "HEMA",
      "alert": "OK",
      "vis_m": 9999,
      "fzfg": false,
      "metar_trigger": false,
      "taf_trigger": false,
      "metar": "METAR HEMA 021700Z 01010KT CAVOK 18/05 Q1015 NOSIG",
      "taf": "TAF HEMA 021700Z 0218/0324 33008G18KT CAVOK"
    },
    {
      "icao": "HESH",
      "alert": "OK",
      "vis_m": 9999,
      "fzfg": false,
      "metar_trigger": false,
      "taf_trigger": false,
      "metar": "METAR HESH 021700Z 13006KT CAVOK 20/06 Q1014 NOSIG",
      "taf": "TAF HESH 021700Z 0218/0324 36012KT CAVOK"
    },
    {
      "icao": "HESX",
      "alert": "OK",
      "vis_m": 9999,
      "fzfg": false,
      "metar_trigger": false,
      "taf_trigger": false,
      "metar": "METAR HESX 021700Z 01012KT 9999 SCT025 SCT100 14/06 Q1021 NOSIG",
      "taf": "TAF HESX 021700Z 0218/0324 02010KT 9999 SCT025"
    },
    {
      "icao": "LATI",
      "alert": "OK",
      "vis_m": 9999,
      "fzfg": false,
      "metar_trigger": false,
      "taf_trigger": false,
      "metar": "METAR LATI 021750Z VRB02KT CAVOK 12/07 Q1026 NOSIG",
      "taf": "TAF LATI 021700Z 0218/0318 VRB03KT CAVOK TX19/0312Z TN06/0304Z"
    },
    {
      "icao": "LBPD",
      "alert": "OK",
      "vis_m": 9999,
      "fzfg": false,
      "metar_trigger": false,
      "taf_trigger": false,
      "metar": "METAR LBPD 021800Z AUTO VRB02KT 9999 NCD 08/02 Q1024 NOSIG",
      "taf": "TAF LBPD 021700Z 0218/0318 VRB03KT CAVOK"
    },
    {
      "icao": "LBSF",
      "alert": "OK",
      "vis_m": 9999,
      "fzfg": false,
      "metar_trigger": false,
      "taf_trigger": false,
      "metar": "METAR LBSF 021800Z AUTO 16003KT 9999 NSC 08/00 Q1024 NOSIG",
      "taf": "TAF LBSF 021700Z 0218/0318 VRB04KT CAVOK"
    },
    {
      "icao": "LBWN",
      "alert": "OK",
      "vis_m": 9999,
      "fzfg": false,
      "metar_trigger": false,
      "taf_trigger": false,
      "metar": "METAR LBWN 021800Z AUTO 00000KT 9999 NSC 05/03 Q1024 NOSIG",
      "taf": "TAF LBWN 021700Z 0218/0318 VRB04KT 9999 SCT045"
    },
    {
      "icao": "LCLK",
      "alert": "OK",
      "vis_m": 9999,
      "fzfg": false,
      "metar_trigger": false,
      "taf_trigger": false,
      "metar": "METAR LCLK 021800Z 32005KT 9999 FEW060 09/03 Q1022 NOSIG",
      "taf": "TAF LCLK 021730Z 0218/0318 32006KT 9999 FEW040"
    },
    {
      "icao": "LCPH",
      "alert": "OK",
      "vis_m": 9999,
      "fzfg": false,
      "metar_trigger": false,
      "taf_trigger": false,
      "metar": "METAR LCPH 021800Z 02005KT CAVOK 11/04 Q1022 NOSIG",
      "taf": "TAF LCPH 021730Z 0218/0318 02008KT 9999 FEW040"
    },
    {
      "icao": "LEAL",
      "alert": "OK",
      "vis_m": 9999,
      "fzfg": false,
      "metar_trigger": false,
      "taf_trigger": false,
      "metar": "METAR LEAL 021800Z 07017KT 9999 FEW020 OVC060 16/12 Q1015 NOSIG",
      "taf": "TAF LEAL 021700Z 0218/0318 05014KT 9999 SCT020 TX21/0312Z TN13/0307Z"
    },
    {
      "icao": "LEBB",
      "alert": "OK",
      "vis_m": 9999,
      "fzfg": false,
      "metar_trigger": false,
      "taf_trigger": false,
      "metar": "METAR LEBB 021800Z 14009KT CAVOK 17/07 Q1012 NOSIG",
      "taf": "TAF LEBB 021700Z 0218/0318 14009KT CAVOK TX20/0315Z TN08/0306Z"
    },
    {
      "icao": "LEBL",
      "alert": "OK",
      "vis_m": 9999,
      "fzfg": false,
      "metar_trigger": false,
      "taf_trigger": false,
      "metar": "METAR LEBL 021800Z 11004KT 9999 SCT015 14/10 Q1020 NOSIG",
      "taf": "TAF LEBL 021700Z 0218/0318 11008KT 9999 FEW040 TX17/0312Z TN12/0306Z"
    },
    {
      "icao": "LECH",
      "alert": "OK",
      "vis_m": 3900,
      "fzfg": false,
      "metar_trigger": false,
      "taf_trigger": false,
      "metar": "METAR LECH 021800Z AUTO 06003KT 3900 -RA BR FEW004 BKN010 BKN016 10/10 Q1019",
      "taf": ""
    },
    {
      "icao": "LEMD",
      "alert": "OK",
      "vis_m": 9999,
      "fzfg": false,
      "metar_trigger": false,
      "taf_trigger": false,
      "metar": "METAR LEMD 021800Z 13010KT 090V160 9999 FEW050 12/05 Q1014 NOSIG",
      "taf": "TAF LEMD 021700Z 0218/0324 15010KT CAVOK TX18/0315Z TN07/0307Z"
    },
    {
      "icao": "LEMG",
      "alert": "OK",
      "vis_m": 9999,
      "fzfg": false,
      "metar_trigger": false,
      "taf_trigger": false,
      "metar": "METAR LEMG 021800Z 18006KT 150V230 9999 FEW018 15/11 Q1011 NOSIG",
      "taf": "TAF LEMG 021700Z 0218/0318 18007KT 9999 SCT020 TX19/0314Z TN13/0307Z"
    },
    {
      "icao": "LEVC",
      "alert": "OK",
      "vis_m": 9999,
      "fzfg": false,
      "metar_trigger": false,
      "taf_trigger": false,
      "metar": "METAR LEVC 021800Z 05004KT 020V090 9999 BKN016 OVC024 13/10 Q1018 NOSIG",
      "taf": "TAF LEVC 021700Z 0218/0318 05014KT 9999 BKN020 TX16/0312Z TN12/0307Z"
    },
    {
      "icao": "LEXJ",
      "alert": "OK",
      "vis_m": 9999,
      "fzfg": false,
      "metar_trigger": false,
      "taf_trigger": false,
      "metar": "METAR LEXJ 021800Z 06004KT 030V100 CAVOK 15/06 Q1011",
      "taf": "TAF LEXJ 021400Z 0215/0315 20009KT CAVOK TX21/0215Z TN09/0304Z"
    },
    {
      "icao": "LEZG",
      "alert": "OK",
      "vis_m": 9999,
      "fzfg": false,
      "metar_trigger": false,
      "taf_trigger": false,
      "metar": "METAR LEZG 021800Z 11014KT 090V150 9999 SCT025 14/09 Q1016 NOSIG",
      "taf": "TAF LEZG 021700Z 0218/0318 10014KT 9999 SCT015 TX18/0315Z TN08/0306Z"
    },
    {
      "icao": "LEZL",
      "alert": "OK",
      "vis_m": 9999,
      "fzfg": false,
      "metar_trigger": false,
      "taf_trigger": false,
      "metar": "METAR LEZL 021800Z 22005KT 170V260 CAVOK 20/10 Q1009 NOSIG",
      "taf": "TAF LEZL 021400Z 0215/0315 VRB03KT CAVOK TX22/0215Z TN10/0307Z"
    },
    {
      "icao": "LFBD",
      "alert": "OK",
      "vis_m": 9999,
      "fzfg": false,
      "metar_trigger": false,
      "taf_trigger": false,
      "metar": "METAR LFBD 021800Z AUTO 12010KT CAVOK 16/08 Q1015 NOSIG",
      "taf": "TAF LFBD 021700Z 0218/0324 12010KT CAVOK TX18/0314Z TN06/0305Z"
    },
    {
      "icao": "LFLL",
      "alert": "OK",
      "vis_m": 9999,
      "fzfg": false,
      "metar_trigger": false,
      "taf_trigger": false,
      "metar": "METAR LFLL 021800Z 17003KT 120V250 CAVOK 13/05 Q1020 NOSIG",
      "taf": "TAF LFLL 021700Z 0218/0324 18009KT CAVOK"
    },
    {
      "icao": "LFLS",
      "alert": "OK",
      "vis_m": 9999,
      "fzfg": false,
      "metar_trigger": false,
      "taf_trigger": false,
      "metar": "METAR LFLS 021800Z AUTO 20003KT CAVOK 11/05 Q1021 TEMPO BKN012",
      "taf": "TAF LFLS 021400Z 0215/0315 23008KT CAVOK"
    },
    {
      "icao": "LFMN",
      "alert": "OK",
      "vis_m": 9999,
      "fzfg": false,
      "metar_trigger": false,
      "taf_trigger": false,
      "metar": "METAR LFMN 021800Z 08015KT 9999 FEW020 14/10 Q1023 NOSIG",
      "taf": "TAF LFMN 021400Z 0215/0321 08012KT 9999 FEW026"
    },
    {
      "icao": "LFOB",
      "alert": "OK",
      "vis_m": 9999,
      "fzfg": false,
      "metar_trigger": false,
      "taf_trigger": false,
      "metar": "METAR LFOB 021800Z AUTO 15004KT CAVOK 11/05 Q1018 NOSIG",
      "taf": "TAF LFOB 021700Z 0218/0318 15010KT CAVOK"
    },
    {
      "icao": "LFPO",
      "alert": "OK",
      "vis_m": 9999,
      "fzfg": false,
      "metar_trigger": false,
      "taf_trigger": false,
      "metar": "METAR LFPO 021800Z 14003KT CAVOK 14/04 Q1019 NOSIG",
      "taf": "TAF LFPO 021700Z 0218/0324 14003KT CAVOK"
    },
    {
      "icao": "LFSB",
      "alert": "OK",
      "vis_m": 9999,
      "fzfg": false,
      "metar_trigger": false,
      "taf_trigger": false,
      "metar": "METAR LFSB 021800Z AUTO 05004KT CAVOK 13/05 Q1021 NOSIG",
      "taf": "TAF LFSB 021700Z 0218/0318 19003KT CAVOK"
    },
    {
      "icao": "LGAV",
      "alert": "OK",
      "vis_m": 9999,
      "fzfg": false,
      "metar_trigger": false,
      "taf_trigger": false,
      "metar": "METAR LGAV 021750Z 29003KT CAVOK 10/06 Q1025 NOSIG",
      "taf": "TAF LGAV 021700Z 0218/0318 VRB05KT 9999 FEW025"
    },
    {
      "icao": "LGTS",
      "alert": "OK",
      "vis_m": 9999,
      "fzfg": false,
      "metar_trigger": false,
      "taf_trigger": false,
      "metar": "METAR LGTS 021750Z VRB02KT 9999 FEW030 10/07 Q1025 NOSIG",
      "taf": "TAF LGTS 021700Z 0218/0318 VRB03KT 9999 FEW025"
    },
    {
      "icao": "LHBP",
      "alert": "OK",
      "vis_m": 9999,
      "fzfg": false,
      "metar_trigger": false,
      "taf_trigger": false,
      "metar": "METAR LHBP 021800Z 10003KT CAVOK 07/01 Q1026 NOSIG",
      "taf": "TAF LHBP 021715Z 0218/0318 VRB03KT CAVOK"
    },
    {
      "icao": "LHDC",
      "alert": "OK",
      "vis_m": 9000,
      "fzfg": false,
      "metar_trigger": false,
      "taf_trigger": false,
      "metar": "METAR LHDC 021745Z AUTO 36001KT 9000 NCD 07/03 Q1026 NOSIG",
      "taf": "TAF LHDC 021415Z 0215/0224 VRB01KT CAVOK"
    },
    {
      "icao": "LIBD",
      "alert": "OK",
      "vis_m": 9999,
      "fzfg": false,
      "metar_trigger": false,
      "taf_trigger": false,
      "metar": "METAR LIBD 021750Z 19003KT CAVOK 10/09 Q1026",
      "taf": "TAF LIBD 021700Z 0218/0318 VRB05KT 7000 SCT035"
    },
    {
      "icao": "LIBG",
      "alert": "OK",
      "vis_m": 8000,
      "fzfg": false,
      "metar_trigger": false,
      "taf_trigger": false,
      "metar": "METAR LIBG 021650Z 19002KT 8000 NSC 14/11 Q1025",
      "taf": "TAF LIBG 021700Z 0218/0303 VRB06KT 9999 FEW015"
    },
    {
      "icao": "LIBP",
      "alert": "OK",
      "vis_m": 6000,
      "fzfg": false,
      "metar_trigger": false,
      "taf_trigger": false,
      "metar": "METAR LIBP 021750Z 03002KT 6000 NSC 13/11 Q1026",
      "taf": "TAF LIBP 021700Z 0218/0318 VRB05KT 6000 FEW040"
    },
    {
      "icao": "LIBR",
      "alert": "OK",
      "vis_m": 9999,
      "fzfg": false,
      "metar_trigger": false,
      "taf_trigger": false,
      "metar": "METAR LIBR 021750Z 18002KT CAVOK 13/12 Q1025",
      "taf": "TAF LIBR 021700Z 0218/0318 14006KT 8000 SCT040"
    },
    {
      "icao": "LICA",
      "alert": "OK",
      "vis_m": 9999,
      "fzfg": false,
      "metar_trigger": false,
      "taf_trigger": false,
      "metar": "METAR LICA 021750Z VRB02KT CAVOK 12/10 Q1025",
      "taf": "TAF LICA 021700Z 0218/0318 VRB05KT 8000 SCT040"
    },
    {
      "icao": "LICC",
      "alert": "OK",
      "vis_m": 9999,
      "fzfg": false,
      "metar_trigger": false,
      "taf_trigger": false,
      "metar": "METAR LICC 021750Z 01004KT CAVOK 15/13 Q1025",
      "taf": "TAF LICC 021700Z 0218/0318 VRB05KT 9999 SCT040"
    },
    {
      "icao": "LICJ",
      "alert": "OK",
      "vis_m": 9999,
      "fzfg": false,
      "metar_trigger": false,
      "taf_trigger": false,
      "metar": "METAR LICJ 021750Z 09007KT CAVOK 14/12 Q1024",
      "taf": "TAF LICJ 021700Z 0218/0318 07010KT 9999 FEW020"
    },
    {
      "icao": "LIMC",
      "alert": "OK",
      "vis_m": 8000,
      "fzfg": false,
      "metar_trigger": false,
      "taf_trigger": false,
      "metar": "METAR LIMC 021750Z 35007KT 8000 SCT015 BKN075 10/09 Q1025 NOSIG",
      "taf": "TAF LIMC 021700Z 0218/0324 VRB05KT 7000 SCT010 BKN030"
    },
    {
      "icao": "LIME",
      "alert": "OK",
      "vis_m": 8000,
      "fzfg": false,
      "metar_trigger": false,
      "taf_trigger": false,
      "metar": "METAR LIME 021750Z 36002KT 8000 SCT020 SCT055 11/07 Q1025 NOSIG",
      "taf": "TAF LIME 021700Z 0218/0318 VRB05KT 8000 BKN030"
    },
    {
      "icao": "LIMF",
      "alert": "OK",
      "vis_m": 7000,
      "fzfg": false,
      "metar_trigger": false,
      "taf_trigger": false,
      "metar": "METAR LIMF 021750Z 06004KT 7000 SCT040 11/08 Q1024",
      "taf": "TAF LIMF 021700Z 0218/0318 VRB04KT 6000 BKN030"
    },
    {
      "icao": "LIMJ",
      "alert": "OK",
      "vis_m": 9999,
      "fzfg": false,
      "metar_trigger": false,
      "taf_trigger": false,
      "metar": "METAR LIMJ 021750Z 27002KT CAVOK 13/10 Q1024",
      "taf": "TAF LIMJ 021700Z 0218/0318 VRB04KT 9999 SCT040"
    },
    {
      "icao": "LIPE",
      "alert": "OK",
      "vis_m": 8000,
      "fzfg": false,
      "metar_trigger": false,
      "taf_trigger": false,
      "metar": "METAR LIPE 021750Z 12004KT 8000 BKN020 13/09 Q1025",
      "taf": "TAF LIPE 021700Z 0218/0318 VRB04KT 7000 BKN040"
    },
    {
      "icao": "LIPH",
      "alert": "OK",
      "vis_m": 7000,
      "fzfg": false,
      "metar_trigger": false,
      "taf_trigger": false,
      "metar": "METAR LIPH 021750Z 10003KT 7000 FEW040 11/10 Q1026",
      "taf": "TAF LIPH 021700Z 0218/0318 VRB04KT 6000 BKN040"
    },
    {
      "icao": "LIPQ",
      "alert": "OK",
      "vis_m": 9999,
      "fzfg": false,
      "metar_trigger": false,
      "taf_trigger": false,
      "metar": "METAR LIPQ 021750Z 19002KT 9999 FEW040 11/09 Q1026",
      "taf": "TAF LIPQ 021700Z 0218/0318 VRB05KT 7000 BKN040"
    },
    {
      "icao": "LIPR",
      "alert": "OK",
      "vis_m": 1500,
      "fzfg": false,
      "metar_trigger": false,
      "taf_trigger": false,
      "metar": "METAR LIPR 021750Z 11003KT 080V150 1500 BR VV002 09/09 Q1026",
      "taf": "TAF LIPR 021700Z 0218/0318 VRB05KT 0400 FG OVC001"
    },
    {
      "icao": "LIPX",
      "alert": "OK",
      "vis_m": 8000,
      "fzfg": false,
      "metar_trigger": false,
      "taf_trigger": false,
      "metar": "METAR LIPX 021750Z 20003KT 8000 SCT025 SCT060 12/08 Q1025",
      "taf": "TAF LIPX 021700Z 0218/0318 VRB05KT 6000 BKN030"
    },
    {
      "icao": "LIPY",
      "alert": "OK",
      "vis_m": 4000,
      "fzfg": false,
      "metar_trigger": false,
      "taf_trigger": false,
      "metar": "METAR LIPY 021750Z 18002KT 4000 -RA NSC 12/11 Q1026",
      "taf": "TAF LIPY 021700Z 0218/0318 VRB05KT 5000 BR NSC"
    },
    {
      "icao": "LIPZ",
      "alert": "OK",
      "vis_m": 9999,
      "fzfg": false,
      "metar_trigger": false,
      "taf_trigger": false,
      "metar": "METAR LIPZ 021750Z 12005KT CAVOK 11/09 Q1026 NOSIG",
      "taf": "TAF LIPZ 021700Z 0218/0324 VRB05KT 7000 SCT025"
    },
    {
      "icao": "LIRF",
      "alert": "OK",
      "vis_m": 9999,
      "fzfg": false,
      "metar_trigger": false,
      "taf_trigger": false,
      "metar": "METAR LIRF 021750Z 15008KT 130V190 CAVOK 14/12 Q1025 NOSIG",
      "taf": "TAF LIRF 021700Z 0218/0324 14010KT 9999 SCT030"
    },
    {
      "icao": "LIRN",
      "alert": "OK",
      "vis_m": 8000,
      "fzfg": false,
      "metar_trigger": false,
      "taf_trigger": false,
      "metar": "METAR LIRN 021750Z VRB01KT 8000 FEW040 14/09 Q1026 NOSIG",
      "taf": "TAF LIRN 021700Z 0218/0318 VRB04KT 8000 SCT030"
    },
    {
      "icao": "LIRP",
      "alert": "OK",
      "vis_m": 9999,
      "fzfg": false,
      "metar_trigger": false,
      "taf_trigger": false,
      "metar": "METAR LIRP 021745Z VRB01KT 9999 FEW030 BKN070 14/12 Q1024 NOSIG",
      "taf": "TAF LIRP 021700Z 0218/0318 08005KT 9999 FEW025 BKN070"
    },
    {
      "icao": "LIRZ",
      "alert": "OK",
      "vis_m": 5000,
      "fzfg": false,
      "metar_trigger": false,
      "taf_trigger": false,
      "metar": "METAR LIRZ 021750Z 02004KT 5000 -RA BKN050 10/10 Q1026",
      "taf": "TAF LIRZ 021700Z 0218/0318 VRB05KT 7000 BKN040"
    },
    {
      "icao": "LJLJ",
      "alert": "OK",
      "vis_m": 9999,
      "fzfg": false,
      "metar_trigger": false,
      "taf_trigger": false,
      "metar": "METAR LJLJ 021800Z VRB02KT 9999 FEW040 BKN060 09/06 Q1025 NOSIG",
      "taf": "TAF LJLJ 021700Z 0218/0318 VRB02KT 9999 FEW033 BKN050"
    },
    {
      "icao": "LKMT",
      "alert": "OK",
      "vis_m": 9999,
      "fzfg": false,
      "metar_trigger": false,
      "taf_trigger": false,
      "metar": "METAR LKMT 021800Z 02004KT CAVOK 07/02 Q1026 NOSIG",
      "taf": "TAF LKMT 021700Z 0218/0318 04006KT CAVOK"
    },
    {
      "icao": "LKPR",
      "alert": "OK",
      "vis_m": 300,
      "fzfg": false,
      "metar_trigger": false,
      "taf_trigger": false,
      "metar": "METAR LKPR 021800Z 05003KT 010V080 0300 R24/0400N R30/0500U FG VV001 01/01 Q1025 NOSIG",
      "taf": "TAF LKPR 021700Z 0218/0324 06005KT 0200 FG VV002"
    },
    {
      "icao": "LLBG",
      "alert": "OK",
      "vis_m": 9999,
      "fzfg": false,
      "metar_trigger": false,
      "taf_trigger": false,
      "metar": "METAR LLBG 021750Z 03004KT CAVOK 14/06 Q1021 NOSIG",
      "taf": "TAF LLBG 021705Z 0218/0318 02005KT CAVOK TX21/0311Z TN07/0304Z"
    },
    {
      "icao": "LMML",
      "alert": "OK",
      "vis_m": 9999,
      "fzfg": false,
      "metar_trigger": false,
      "taf_trigger": false,
      "metar": "METAR LMML 021745Z 14007KT 9999 FEW035 14/12 Q1025 NOSIG",
      "taf": "TAF LMML 021700Z 0218/0318 15010KT 9999 FEW017"
    },
    {
      "icao": "LOWW",
      "alert": "OK",
      "vis_m": 9999,
      "fzfg": false,
      "metar_trigger": false,
      "taf_trigger": false,
      "metar": "METAR LOWW 021750Z 12003KT CAVOK 08/02 Q1025 NOSIG",
      "taf": "TAF LOWW 021715Z 0218/0324 VRB04KT 9999 FEW030 BKN040 TX14/0314Z TN03/0306Z"
    },
    {
      "icao": "LPFR",
      "alert": "OK",
      "vis_m": 9000,
      "fzfg": false,
      "metar_trigger": false,
      "taf_trigger": false,
      "metar": "METAR LPFR 021800Z 13014KT 9000 FEW012 SCT020 16/14 Q1008",
      "taf": "TAF LPFR 021700Z 0218/0318 13013KT 9999 SCT015"
    },
    {
      "icao": "LPMA",
      "alert": "OK",
      "vis_m": 9999,
      "fzfg": false,
      "metar_trigger": false,
      "taf_trigger": false,
      "metar": "METAR LPMA 021800Z 35013G28KT 280V040 9999 SCT015 14/05 Q1017",
      "taf": "TAF LPMA 021700Z 0218/0318 VRB10G23KT 9999 SCT015"
    },
    {
      "icao": "LPPR",
      "alert": "OK",
      "vis_m": 9999,
      "fzfg": false,
      "metar_trigger": false,
      "taf_trigger": false,
      "metar": "METAR LPPR 021800Z 31009KT 270V330 9999 FEW008 SCT040 13/11 Q1009",
      "taf": "TAF LPPR 021700Z 0218/0318 VRB05KT 9999 SCT020"
    },
    {
      "icao": "LPPS",
      "alert": "OK",
      "vis_m": 9999,
      "fzfg": false,
      "metar_trigger": false,
      "taf_trigger": false,
      "metar": "METAR LPPS 021800Z 34022KT 9999 FEW015 FEW018TCU 14/05 Q1018",
      "taf": "TAF LPPS 021700Z 0218/0324 34020KT 9999 SCT015 SCT030"
    },
    {
      "icao": "LPPT",
      "alert": "OK",
      "vis_m": 9999,
      "fzfg": false,
      "metar_trigger": false,
      "taf_trigger": false,
      "metar": "METAR LPPT 021800Z VRB03KT 9999 FEW002 SCT010 BKN016 FEW020CB 14/12 Q1008",
      "taf": "TAF LPPT 021700Z 0218/0324 30008KT 9999 BKN025"
    },
    {
      "icao": "LQBK",
      "alert": "OK",
      "vis_m": 9999,
      "fzfg": false,
      "metar_trigger": false,
      "taf_trigger": false,
      "metar": "METAR LQBK 021800Z 28003KT CAVOK 10/05 Q1025 NOSIG",
      "taf": "TAF LQBK 021700Z 0218/0318 15005KT CAVOK TX16/0314Z TN04/0305Z"
    },
    {
      "icao": "LQSA",
      "alert": "OK",
      "vis_m": 9999,
      "fzfg": false,
      "metar_trigger": false,
      "taf_trigger": false,
      "metar": "METAR LQSA 021800Z 12004KT 9999 SCT060 09/05 Q1025 NOSIG",
      "taf": "TAF LQSA 021700Z 0218/0318 VRB02KT 9999 SCT055 TX15/0314Z TN03/0305Z"
    },
    {
      "icao": "LQTZ",
      "alert": "OK",
      "vis_m": 9999,
      "fzfg": false,
      "metar_trigger": false,
      "taf_trigger": false,
      "metar": "METAR LQTZ 021800Z 23001KT 9999 BKN066 09/05 Q1025",
      "taf": ""
    },
    {
      "icao": "LRBC",
      "alert": "OK",
      "vis_m": 9999,
      "fzfg": false,
      "metar_trigger": false,
      "taf_trigger": false,
      "metar": "METAR LRBC 021800Z 34006KT 9999 BKN032 08/05 Q1026",
      "taf": "TAF LRBC 021700Z 0218/0303 34008KT CAVOK"
    },
    {
      "icao": "LRBS",
      "alert": "OK",
      "vis_m": 6000,
      "fzfg": false,
      "metar_trigger": false,
      "taf_trigger": false,
      "metar": "METAR LRBS 021800Z 29001KT 6000 NSC 00/M01 Q1026 BECMG 3000 BR",
      "taf": "TAF LRBS 021700Z 0218/0318 VRB04KT 5000 BR NSC"
    },
    {
      "icao": "LRBV",
      "alert": "OK",
      "vis_m": 9999,
      "fzfg": false,
      "metar_trigger": false,
      "taf_trigger": false,
      "metar": "METAR LRBV 021800Z 23002KT CAVOK 06/M00 Q1024",
      "taf": "TAF LRBV 021700Z 0218/0303 VRB04KT CAVOK"
    },
    {
      "icao": "LRCL",
      "alert": "OK",
      "vis_m": 9999,
      "fzfg": false,
      "metar_trigger": false,
      "taf_trigger": false,
      "metar": "METAR LRCL 021800Z 00000KT CAVOK 05/00 Q1025",
      "taf": "TAF LRCL 021700Z 0218/0303 VRB04KT CAVOK"
    },
    {
      "icao": "LRCV",
      "alert": "OK",
      "vis_m": 5000,
      "fzfg": false,
      "metar_trigger": false,
      "taf_trigger": false,
      "metar": "METAR LRCV 021800Z 17004KT 5000 BR NSC 03/02 Q1025",
      "taf": "TAF LRCV 021700Z 0218/0303 VRB04KT 5000 BR SCT010"
    },
    {
      "icao": "LRIA",
      "alert": "OK",
      "vis_m": 9999,
      "fzfg": false,
      "metar_trigger": false,
      "taf_trigger": false,
      "metar": "METAR LRIA 021800Z 30006KT 280V010 9999 BKN036 04/02 Q1026",
      "taf": "TAF LRIA 021700Z 0218/0303 29006KT 9999 SCT035"
    },
    {
      "icao": "LROP",
      "alert": "OK",
      "vis_m": 4000,
      "fzfg": false,
      "metar_trigger": false,
      "taf_trigger": false,
      "metar": "METAR LROP 021800Z 29003KT 4000 BR NSC M00/M00 Q1026 BECMG 3000 BR",
      "taf": "TAF LROP 021700Z 0218/0318 VRB04KT 5000 BR NSC"
    },
    {
      "icao": "LRSB",
      "alert": "OK",
      "vis_m": 9999,
      "fzfg": false,
      "metar_trigger": false,
      "taf_trigger": false,
      "metar": "METAR LRSB 021800Z 28004KT CAVOK 05/00 Q1025",
      "taf": "TAF LRSB 021700Z 0218/0318 VRB04KT CAVOK"
    },
    {
      "icao": "LRSM",
      "alert": "OK",
      "vis_m": 9999,
      "fzfg": false,
      "metar_trigger": false,
      "taf_trigger": false,
      "metar": "METAR LRSM 021800Z AUTO 24002KT 9999 NCD 05/03 Q1026",
      "taf": "TAF LRSM 021400Z 0215/0224 VRB04KT CAVOK"
    },
    {
      "icao": "LRSV",
      "alert": "OK",
      "vis_m": 9999,
      "fzfg": false,
      "metar_trigger": false,
      "taf_trigger": false,
      "metar": "METAR LRSV 021800Z 29005KT 9999 BKN020 04/02 Q1025",
      "taf": "TAF LRSV 021700Z 0218/0303 30007KT 9999 BKN020"
    },
    {
      "icao": "LRTM",
      "alert": "OK",
      "vis_m": 9999,
      "fzfg": false,
      "metar_trigger": false,
      "taf_trigger": false,
      "metar": "METAR LRTM 021800Z AUTO 00000KT 9999 NCD 06/01 Q1025",
      "taf": "TAF LRTM 021400Z 0215/0224 VRB04KT CAVOK"
    },
    {
      "icao": "LRTR",
      "alert": "OK",
      "vis_m": 9999,
      "fzfg": false,
      "metar_trigger": false,
      "taf_trigger": false,
      "metar": "METAR LRTR 021800Z 31001KT CAVOK 07/05 Q1025",
      "taf": "TAF LRTR 021700Z 0218/0318 VRB04KT CAVOK"
    },
    {
      "icao": "LTAC",
      "alert": "OK",
      "vis_m": 9999,
      "fzfg": false,
      "metar_trigger": false,
      "taf_trigger": false,
      "metar": "METAR LTAC 021750Z 07003KT 030V090 CAVOK 04/M03 Q1024 NOSIG RMK RWY21C 05005KT RWY03L 03004KT RWY21R 05005KT RWY03R 04004KT RWY21L 04004KT",
      "taf": "TAF LTAC 021640Z 0218/0318 VRB02KT CAVOK"
    },
    {
      "icao": "LTFM",
      "alert": "OK",
      "vis_m": 9999,
      "fzfg": false,
      "metar_trigger": false,
      "taf_trigger": false,
      "metar": "METAR LTFM 021750Z 16005KT CAVOK 07/03 Q1025 NOSIG RMK RWY17L 13004KT RWY34L VRB02KT RWY16R 10003KT RWY36 15005KT 100V170 RWY18 13003KT",
      "taf": "TAF LTFM 021640Z 0218/0324 VRB02KT CAVOK"
    },
    {
      "icao": "LUKK",
      "alert": "OK",
      "vis_m": 9999,
      "fzfg": false,
      "metar_trigger": false,
      "taf_trigger": false,
      "metar": "METAR LUKK 021800Z 33006KT 9999 FEW040 04/02 Q1025 NOSIG",
      "taf": "TAF LUKK 021705Z 0218/0318 34008KT 9999 SCT030"
    },
    {
      "icao": "LWOH",
      "alert": "OK",
      "vis_m": 9999,
      "fzfg": false,
      "metar_trigger": false,
      "taf_trigger": false,
      "metar": "METAR LWOH 021750Z 09004KT 9999 FEW040 08/04 Q1025",
      "taf": "TAF LWOH 021730Z 0218/0318 VRB02KT 9999 FEW040"
    },
    {
      "icao": "LWSK",
      "alert": "OK",
      "vis_m": 9999,
      "fzfg": false,
      "metar_trigger": false,
      "taf_trigger": false,
      "metar": "METAR LWSK 021750Z 09002KT CAVOK 08/03 Q1024 NOSIG",
      "taf": "TAF LWSK 021730Z 0218/0318 VRB02KT CAVOK"
    },
    {
      "icao": "LYBE",
      "alert": "OK",
      "vis_m": 8000,
      "fzfg": false,
      "metar_trigger": false,
      "taf_trigger": false,
      "metar": "METAR LYBE 021800Z VRB01KT 8000 NSC 08/03 Q1026 NOSIG",
      "taf": "TAF LYBE 021700Z 0218/0318 22004KT 7000 NSC TX16/0313Z TN03/0305Z"
    },
    {
      "icao": "LYNI",
      "alert": "OK",
      "vis_m": 9999,
      "fzfg": false,
      "metar_trigger": false,
      "taf_trigger": false,
      "metar": "METAR LYNI 021800Z 32009KT CAVOK 12/03 Q1024 NOSIG",
      "taf": "TAF LYNI 021700Z 0218/0318 36003KT CAVOK TX16/0313Z TN04/0305Z"
    },
    {
      "icao": "LYPG",
      "alert": "OK",
      "vis_m": 9999,
      "fzfg": false,
      "metar_trigger": false,
      "taf_trigger": false,
      "metar": "METAR LYPG 021800Z VRB02KT CAVOK 11/08 Q1026 NOSIG",
      "taf": "TAF LYPG 021700Z 0218/0318 35005KT 9999 FEW034 TX19/0314Z TN06/0305Z"
    },
    {
      "icao": "LZIB",
      "alert": "OK",
      "vis_m": 9999,
      "fzfg": false,
      "metar_trigger": false,
      "taf_trigger": false,
      "metar": "METAR LZIB 021800Z 23002KT CAVOK 09/03 Q1025 NOSIG",
      "taf": "TAF LZIB 021715Z 0218/0318 VRB02KT CAVOK"
    },
    {
      "icao": "LZKZ",
      "alert": "OK",
      "vis_m": 9999,
      "fzfg": false,
      "metar_trigger": false,
      "taf_trigger": false,
      "metar": "METAR LZKZ 021800Z 34008KT 9999 FEW042 09/02 Q1026 NOSIG",
      "taf": "TAF LZKZ 021715Z 0218/0318 01006KT CAVOK"
    },
    {
      "icao": "LZTT",
      "alert": "OK",
      "vis_m": 9999,
      "fzfg": false,
      "metar_trigger": false,
      "taf_trigger": false,
      "metar": "METAR LZTT 021800Z 22001KT 9999 BKN028 04/01 Q1025 NOSIG",
      "taf": "TAF LZTT 021715Z 0218/0318 VRB02KT 9999 SCT020"
    },
    {
      "icao": "OEJN",
      "alert": "OK",
      "vis_m": 9999,
      "fzfg": false,
      "metar_trigger": false,
      "taf_trigger": false,
      "metar": "METAR OEJN 021800Z 35010KT CAVOK 22/10 Q1013 NOSIG",
      "taf": "TAF OEJN 021700Z 0218/0324 35005KT CAVOK"
    },
    {
      "icao": "OEMA",
      "alert": "OK",
      "vis_m": 9999,
      "fzfg": false,
      "metar_trigger": false,
      "taf_trigger": false,
      "metar": "METAR OEMA 021800Z 22009KT CAVOK 21/M05 Q1014 NOSIG",
      "taf": "TAF OEMA 021700Z 0218/0324 30008KT CAVOK"
    },
    {
      "icao": "OJAI",
      "alert": "OK",
      "vis_m": 5000,
      "fzfg": false,
      "metar_trigger": false,
      "taf_trigger": false,
      "metar": "METAR OJAI 021700Z 31006KT 5000 HZ NSC 09/00 Q1020 NOSIG",
      "taf": "TAF OJAI 021650Z 0218/0324 VRB02KT 5000 HZ NSC"
    },
    {
      "icao": "OMAA",
      "alert": "OK",
      "vis_m": 9999,
      "fzfg": false,
      "metar_trigger": false,
      "taf_trigger": false,
      "metar": "METAR OMAA 021800Z 06007KT CAVOK 27/10 Q1011 NOSIG",
      "taf": "TAF OMAA 021700Z 0218/0400 04006KT 8000 NSC"
    },
    {
      "icao": "OMDB",
      "alert": "OK",
      "vis_m": 9999,
      "fzfg": false,
      "metar_trigger": false,
      "taf_trigger": false,
      "metar": "METAR OMDB 021800Z 05003KT CAVOK 29/10 Q1011 NOSIG",
      "taf": "TAF OMDB 021700Z 0218/0400 07005KT 8000 NSC"
    },
    {
      "icao": "UAAA",
      "alert": "OK",
      "vis_m": 2800,
      "fzfg": false,
      "metar_trigger": false,
      "taf_trigger": false,
      "metar": "METAR UAAA 021730Z VRB01MPS 2800 BR BKN043CB OVC100 01/M00 Q1019 NOSIG",
      "taf": "TAF UAAA 021701Z 0218/0318 24003MPS 2000 -SHRASN BR BKN011CB OVC050 TX03/0310Z TNM01/0302Z"
    },
    {
      "icao": "UBBB",
      "alert": "OK",
      "vis_m": 9999,
      "fzfg": false,
      "metar_trigger": false,
      "taf_trigger": false,
      "metar": "METAR UBBB 021800Z 18008KT CAVOK 05/03 Q1024 NOSIG",
      "taf": "TAF UBBB 021702Z 0218/0318 18006KT 9999 SCT015 TX10/0310Z TN01/0301Z"
    },
    {
      "icao": "UDSG",
      "alert": "OK",
      "vis_m": 9999,
      "fzfg": false,
      "metar_trigger": false,
      "taf_trigger": false,
      "metar": "METAR UDSG 021730Z 25003KT 9999 NSC M06/M09 Q1022 NOSIG",
      "taf": "TAF UDSG 021700Z 0218/0318 VRB06KT 9999 FEW050"
    },
    {
      "icao": "UDYZ",
      "alert": "OK",
      "vis_m": 9999,
      "fzfg": false,
      "metar_trigger": false,
      "taf_trigger": false,
      "metar": "METAR UDYZ 021730Z 09005KT 9999 NSC 03/M06 Q1022 NOSIG",
      "taf": "TAF UDYZ 021700Z 0218/0318 04006KT 9999 FEW040"
    },
    {
      "icao": "UGKO",
      "alert": "OK",
      "vis_m": 9999,
      "fzfg": false,
      "metar_trigger": false,
      "taf_trigger": false,
      "metar": "METAR UGKO 021800Z 25003KT 9999 BKN028 OVC032 06/04 Q1027 NOSIG",
      "taf": "TAF UGKO 021700Z 0218/0318 25007KT 9999 BKN050 TX12/0311Z TN02/0304Z"
    }
  ]
}