{
  "ts_utc": "2026-02-24T21:29:55Z",
  "threshold_m": 150,
  "source": "stations_override.txt (ICAO list) + aviationweather.gov (METAR/TAF raw)",
  "station_count": 159,
  "stations": [
    {
      "icao": "BIKF",
      "alert": "OK",
      "vis_m": 9999,
      "fzfg": false,
      "metar_trigger": false,
      "taf_trigger": false,
      "metar": "METAR BIKF 242100Z 31015KT 9999 SCT032 M03/M11 Q0996",
      "taf": "TAF BIKF 241944Z 2421/2521 33020KT 9999 -SHSN SCT020 BKN030 TX03/2521Z TNM03/2512Z"
    },
    {
      "icao": "BKPR",
      "alert": "OK",
      "vis_m": null,
      "fzfg": false,
      "metar_trigger": false,
      "taf_trigger": false,
      "metar": "",
      "taf": "TAF BKPR 241730Z 2418/2518 33008KT 9999 BKN040"
    },
    {
      "icao": "EBCI",
      "alert": "OK",
      "vis_m": 9999,
      "fzfg": false,
      "metar_trigger": false,
      "taf_trigger": false,
      "metar": "METAR EBCI 242120Z 17004KT 9999 FEW010 BKN012 12/10 Q1020 NOSIG",
      "taf": "TAF EBCI 241704Z 2418/2524 15004KT 9999 FEW025"
    },
    {
      "icao": "EDDB",
      "alert": "OK",
      "vis_m": 9999,
      "fzfg": false,
      "metar_trigger": false,
      "taf_trigger": false,
      "metar": "METAR EDDB 242120Z AUTO 20005KT 9999 BKN030 05/03 Q1022 NOSIG",
      "taf": "TAF EDDB 241700Z 2418/2518 VRB03KT 9999 BKN030"
    },
    {
      "icao": "EDDH",
      "alert": "OK",
      "vis_m": 9999,
      "fzfg": false,
      "metar_trigger": false,
      "taf_trigger": false,
      "metar": "METAR EDDH 242120Z AUTO 10003KT 050V130 CAVOK 06/05 Q1021 TEMPO 2000 BCFG",
      "taf": ""
    },
    {
      "icao": "EDDK",
      "alert": "OK",
      "vis_m": 9999,
      "fzfg": false,
      "metar_trigger": false,
      "taf_trigger": false,
      "metar": "METAR EDDK 242120Z AUTO 13006KT 9999 SCT020 SCT027 10/09 Q1021 NOSIG",
      "taf": "TAF EDDK 241700Z 2418/2524 12005KT 9999 BKN014"
    },
    {
      "icao": "EDDN",
      "alert": "OK",
      "vis_m": 9999,
      "fzfg": false,
      "metar_trigger": false,
      "taf_trigger": false,
      "metar": "METAR EDDN 242120Z AUTO 10007KT 9999 1100 R10/P2000N BR NCD 04/03 Q1023",
      "taf": "TAF EDDN 241700Z 2418/2518 11004KT 9999 SCT014 BKN035"
    },
    {
      "icao": "EDDS",
      "alert": "OK",
      "vis_m": 200,
      "fzfg": false,
      "metar_trigger": false,
      "taf_trigger": false,
      "metar": "METAR EDDS 242120Z AUTO VRB01KT 0200 R25/0300N FG VV002 09/09 Q1021",
      "taf": ""
    },
    {
      "icao": "EDFH",
      "alert": "OK",
      "vis_m": 300,
      "fzfg": false,
      "metar_trigger": false,
      "taf_trigger": false,
      "metar": "METAR EDFH 242120Z 12006KT 0300 R21/0400N FG VV/// 09/09 Q1021",
      "taf": ""
    },
    {
      "icao": "EDJA",
      "alert": "OK",
      "vis_m": 9999,
      "fzfg": false,
      "metar_trigger": false,
      "taf_trigger": false,
      "metar": "METAR EDJA 242120Z 14002KT 9999 FEW008 OVC053 07/07 Q1022",
      "taf": "TAF EDJA 241700Z 2418/2503 VRB03KT 9999 SCT008 OVC010"
    },
    {
      "icao": "EDLW",
      "alert": "OK",
      "vis_m": 9999,
      "fzfg": false,
      "metar_trigger": false,
      "taf_trigger": false,
      "metar": "METAR EDLW 242120Z 18005KT 9999 OVC024 10/09 Q1020",
      "taf": "TAF EDLW 241700Z 2418/2518 16006KT 9999 BKN020"
    },
    {
      "icao": "EDNY",
      "alert": "OK",
      "vis_m": 9999,
      "fzfg": false,
      "metar_trigger": false,
      "taf_trigger": false,
      "metar": "METAR EDNY 242120Z AUTO 03003KT 360V070 9999 // FEW058/// 08/07 Q1022",
      "taf": "TAF EDNY 241700Z 2418/2503 VRB03KT CAVOK"
    },
    {
      "icao": "EDSB",
      "alert": "OK",
      "vis_m": 400,
      "fzfg": false,
      "metar_trigger": false,
      "taf_trigger": false,
      "metar": "METAR EDSB 242120Z AUTO 00000KT 0400 0350 R21/0500D SCT002/// 09/09 Q1021",
      "taf": "TAF EDSB 241700Z 2418/2518 VRB03KT 9999 BKN030"
    },
    {
      "icao": "EETN",
      "alert": "OK",
      "vis_m": 9999,
      "fzfg": false,
      "metar_trigger": false,
      "taf_trigger": false,
      "metar": "METAR EETN 242120Z 06009KT CAVOK M05/M07 Q1019 NOSIG",
      "taf": "TAF EETN 241730Z 2418/2518 05010KT CAVOK"
    },
    {
      "icao": "EFTU",
      "alert": "OK",
      "vis_m": 9999,
      "fzfg": false,
      "metar_trigger": false,
      "taf_trigger": false,
      "metar": "METAR EFTU 242120Z AUTO 04005KT CAVOK M09/M10 Q1022",
      "taf": "TAF EFTU 242025Z 2421/2521 04003KT CAVOK"
    },
    {
      "icao": "EGBB",
      "alert": "OK",
      "vis_m": 9999,
      "fzfg": false,
      "metar_trigger": false,
      "taf_trigger": false,
      "metar": "METAR EGBB 242120Z 16008KT CAVOK 08/07 Q1013",
      "taf": "TAF EGBB 241654Z 2418/2518 18006KT 9999 FEW025"
    },
    {
      "icao": "EGGP",
      "alert": "OK",
      "vis_m": 9999,
      "fzfg": false,
      "metar_trigger": false,
      "taf_trigger": false,
      "metar": "METAR EGGP 242120Z 17008KT CAVOK 09/06 Q1011",
      "taf": ""
    },
    {
      "icao": "EGGW",
      "alert": "OK",
      "vis_m": 9999,
      "fzfg": false,
      "metar_trigger": false,
      "taf_trigger": false,
      "metar": "METAR EGGW 242120Z AUTO 17007KT 9999 NCD 10/08 Q1014",
      "taf": "TAF EGGW 241708Z 2418/2518 17008KT 9999 FEW025"
    },
    {
      "icao": "EGKK",
      "alert": "OK",
      "vis_m": 9999,
      "fzfg": false,
      "metar_trigger": false,
      "taf_trigger": false,
      "metar": "METAR EGKK 242120Z 15008KT CAVOK 11/10 Q1016",
      "taf": "TAF EGKK 241659Z 2418/2524 14004KT 9999 FEW035"
    },
    {
      "icao": "EGNM",
      "alert": "OK",
      "vis_m": 9999,
      "fzfg": false,
      "metar_trigger": false,
      "taf_trigger": false,
      "metar": "METAR EGNM 242050Z 19007KT CAVOK 09/06 Q1011",
      "taf": "TAF EGNM 241658Z 2418/2518 20012KT 9999 SCT030"
    },
    {
      "icao": "EGPD",
      "alert": "OK",
      "vis_m": 9999,
      "fzfg": false,
      "metar_trigger": false,
      "taf_trigger": false,
      "metar": "METAR EGPD 242120Z COR AUTO 20010KT 9999 BKN028 10/06 Q1005 NOSIG",
      "taf": "TAF EGPD 241656Z 2418/2518 17009KT 9999 SCT025"
    },
    {
      "icao": "EGPF",
      "alert": "OK",
      "vis_m": 9999,
      "fzfg": false,
      "metar_trigger": false,
      "taf_trigger": false,
      "metar": "METAR EGPF 242120Z AUTO 18011KT 9999 FEW017 OVC038 10/07 Q1007",
      "taf": ""
    },
    {
      "icao": "EHBK",
      "alert": "OK",
      "vis_m": 9999,
      "fzfg": false,
      "metar_trigger": false,
      "taf_trigger": false,
      "metar": "METAR EHBK 242125Z AUTO 16003KT 9999 BKN016 OVC019 11/11 Q1020 NOSIG",
      "taf": "TAF EHBK 241720Z 2418/2524 15004KT 9999 BKN012"
    },
    {
      "icao": "EHEH",
      "alert": "OK",
      "vis_m": 4000,
      "fzfg": false,
      "metar_trigger": false,
      "taf_trigger": false,
      "metar": "SPECI EHEH 242105Z AUTO 17003KT 140V240 4000 BR FEW001 OVC010 11/11 Q1020 GRN TEMPO 4000 BR SCT005 BKN008 RMK TREND REMOTE BY EHWX",
      "taf": ""
    },
    {
      "icao": "EKBI",
      "alert": "OK",
      "vis_m": 450,
      "fzfg": false,
      "metar_trigger": false,
      "taf_trigger": false,
      "metar": "METAR EKBI 242120Z AUTO 11007KT 0450 R09/P1500N R27/1300N -RA FG OVC002/// 02/02 Q1021",
      "taf": "TAF EKBI 242027Z 2421/2521 13006KT 0200 FG VV001"
    },
    {
      "icao": "EKCH",
      "alert": "OK",
      "vis_m": 9999,
      "fzfg": false,
      "metar_trigger": false,
      "taf_trigger": false,
      "metar": "METAR EKCH 242120Z 06005KT 020V100 9999 BKN004 M00/M01 Q1023 TEMPO 4000 BR BKN010",
      "taf": "TAF EKCH 242027Z 2421/2521 01005KT 9999 BKN010"
    },
    {
      "icao": "ENAL",
      "alert": "OK",
      "vis_m": 9999,
      "fzfg": false,
      "metar_trigger": false,
      "taf_trigger": false,
      "metar": "METAR ENAL 242120Z 14011KT 9999 -RA BKN030 05/M01 Q1009",
      "taf": "TAF ENAL 242000Z 2421/2506 14015KT 9999 -RA FEW030 BKN050"
    },
    {
      "icao": "ENBR",
      "alert": "OK",
      "vis_m": 9999,
      "fzfg": false,
      "metar_trigger": false,
      "taf_trigger": false,
      "metar": "METAR ENBR 242120Z 15020KT 9999 -DZ FEW007 SCT012 BKN026 06/02 Q1012 RMK WIND 1200FT 14031KT",
      "taf": "TAF ENBR 241700Z 2418/2518 14012KT 9999 SCT030 BKN045"
    },
    {
      "icao": "ENGM",
      "alert": "OK",
      "vis_m": 9999,
      "fzfg": false,
      "metar_trigger": false,
      "taf_trigger": false,
      "metar": "METAR ENGM 242120Z VRB05KT 9999 FEW022 OVC025 M03/M06 Q1022 NOSIG",
      "taf": "TAF ENGM 241700Z 2418/2518 04005KT 9999 BKN020"
    },
    {
      "icao": "ENHD",
      "alert": "OK",
      "vis_m": 9999,
      "fzfg": false,
      "metar_trigger": false,
      "taf_trigger": false,
      "metar": "METAR ENHD 242120Z AUTO 13020KT 9999 -RA FEW006/// SCT011/// OVC023/// 04/01 Q1013",
      "taf": "TAF ENHD 241400Z 2415/2423 14015KT 9999 FEW020"
    },
    {
      "icao": "ENTC",
      "alert": "OK",
      "vis_m": 9999,
      "fzfg": false,
      "metar_trigger": false,
      "taf_trigger": false,
      "metar": "METAR ENTC 242120Z 00000KT CAVOK M08/M10 Q1021 NOSIG RMK WIND 2600FT 15011KT",
      "taf": "TAF ENTC 241700Z 2418/2518 22004KT 9999 FEW040"
    },
    {
      "icao": "ENTO",
      "alert": "OK",
      "vis_m": 650,
      "fzfg": false,
      "metar_trigger": false,
      "taf_trigger": false,
      "metar": "METAR ENTO 242120Z AUTO VRB02KT 0650 R18/P2000N R36/P2000N // SCT030/// M01/M04 Q1023",
      "taf": "TAF ENTO 241700Z 2418/2518 02010KT CAVOK"
    },
    {
      "icao": "ENVA",
      "alert": "OK",
      "vis_m": 9999,
      "fzfg": false,
      "metar_trigger": false,
      "taf_trigger": false,
      "metar": "METAR ENVA 242120Z 12011KT 070V160 CAVOK M01/M10 Q1016 RMK WIND 670FT 15022G36KT",
      "taf": "TAF ENVA 241700Z 2418/2518 12015KT CAVOK"
    },
    {
      "icao": "ENZV",
      "alert": "OK",
      "vis_m": 9999,
      "fzfg": false,
      "metar_trigger": false,
      "taf_trigger": false,
      "metar": "METAR ENZV 242120Z 13020KT 9999 FEW024 BKN032 05/M00 Q1014",
      "taf": ""
    },
    {
      "icao": "EPGD",
      "alert": "OK",
      "vis_m": 9999,
      "fzfg": false,
      "metar_trigger": false,
      "taf_trigger": false,
      "metar": "METAR EPGD 242100Z 28009KT 9999 -SNRA SCT005 BKN029 01/00 Q1019",
      "taf": "TAF EPGD 241730Z 2418/2518 28010KT 9999 OVC005"
    },
    {
      "icao": "EPKK",
      "alert": "OK",
      "vis_m": 9999,
      "fzfg": false,
      "metar_trigger": false,
      "taf_trigger": false,
      "metar": "METAR EPKK 242100Z 32006KT 9999 SCT025 BKN036 04/00 Q1021",
      "taf": "TAF EPKK 242030Z 2421/2521 32004KT 9999 BKN030"
    },
    {
      "icao": "EPKT",
      "alert": "OK",
      "vis_m": 9999,
      "fzfg": false,
      "metar_trigger": false,
      "taf_trigger": false,
      "metar": "METAR EPKT 242100Z 35004KT 320V030 9999 SCT011 BKN020 03/01 Q1021",
      "taf": "TAF EPKT 241730Z 2418/2518 29005KT 9999 SCT016 BKN030"
    },
    {
      "icao": "EPLB",
      "alert": "OK",
      "vis_m": 9999,
      "fzfg": false,
      "metar_trigger": false,
      "taf_trigger": false,
      "metar": "METAR EPLB 242100Z 32010KT 9999 BKN018 OVC023 00/M02 Q1019",
      "taf": "TAF EPLB 241730Z 2418/2518 32012KT 9999 OVC020"
    },
    {
      "icao": "EPMO",
      "alert": "OK",
      "vis_m": 7000,
      "fzfg": false,
      "metar_trigger": false,
      "taf_trigger": false,
      "metar": "METAR EPMO 242100Z 25005KT 7000 -RA BKN021 01/00 Q1020",
      "taf": "TAF EPMO 241730Z 2418/2518 31010KT 9999 BKN020"
    },
    {
      "icao": "EPPO",
      "alert": "OK",
      "vis_m": 9999,
      "fzfg": false,
      "metar_trigger": false,
      "taf_trigger": false,
      "metar": "METAR EPPO 242100Z 33002KT 9999 OVC022 04/02 Q1022",
      "taf": ""
    },
    {
      "icao": "EPRA",
      "alert": "OK",
      "vis_m": 9999,
      "fzfg": false,
      "metar_trigger": false,
      "taf_trigger": false,
      "metar": "METAR EPRA 242100Z 32004KT 9999 BKN019 02/M02 Q1020",
      "taf": "TAF EPRA 242030Z 2421/2506 29008KT 9999 BKN020"
    },
    {
      "icao": "EPRZ",
      "alert": "OK",
      "vis_m": 9999,
      "fzfg": false,
      "metar_trigger": false,
      "taf_trigger": false,
      "metar": "METAR EPRZ 242100Z 32012KT 9999 BKN019 03/M01 Q1019",
      "taf": "TAF EPRZ 241730Z 2418/2518 33010KT 9999 BKN025"
    },
    {
      "icao": "EPSC",
      "alert": "OK",
      "vis_m": 9999,
      "fzfg": false,
      "metar_trigger": false,
      "taf_trigger": false,
      "metar": "METAR EPSC 242100Z 31008KT 9999 FEW003 OVC005 02/02 Q1022",
      "taf": "TAF EPSC 241730Z 2418/2518 28005KT 9999 BKN010 BKN017"
    },
    {
      "icao": "EPSY",
      "alert": "OK",
      "vis_m": 9999,
      "fzfg": false,
      "metar_trigger": false,
      "taf_trigger": false,
      "metar": "METAR EPSY 242100Z 28004KT 240V300 9999 OVC013 00/M00 Q1019",
      "taf": "TAF EPSY 242030Z 2421/2506 30004KT 9999 BKN007 OVC012"
    },
    {
      "icao": "EPWA",
      "alert": "OK",
      "vis_m": 9999,
      "fzfg": false,
      "metar_trigger": false,
      "taf_trigger": false,
      "metar": "METAR EPWA 242100Z 28006KT 9999 -RA BKN023 01/M00 Q1020 NOSIG",
      "taf": "TAF EPWA 242030Z 2421/2521 29007KT 9999 BKN025"
    },
    {
      "icao": "EPWR",
      "alert": "OK",
      "vis_m": 9999,
      "fzfg": false,
      "metar_trigger": false,
      "taf_trigger": false,
      "metar": "METAR EPWR 242100Z 27004KT 9999 -SHRA FEW026CB BKN040 04/03 Q1022",
      "taf": "TAF EPWR 242030Z 2421/2521 29005KT 9999 FEW014 BKN035"
    },
    {
      "icao": "ESGG",
      "alert": "OK",
      "vis_m": 9999,
      "fzfg": false,
      "metar_trigger": false,
      "taf_trigger": false,
      "metar": "METAR ESGG 242120Z 06003KT CAVOK M03/M05 Q1022",
      "taf": "TAF ESGG 242030Z 2421/2521 09005KT CAVOK"
    },
    {
      "icao": "ESKN",
      "alert": "OK",
      "vis_m": 9999,
      "fzfg": false,
      "metar_trigger": false,
      "taf_trigger": false,
      "metar": "METAR ESKN 242120Z 01008KT 330V040 9999 OVC016 M02/M05 Q1022",
      "taf": "TAF ESKN 242030Z 2421/2521 36008KT 9999 BKN020"
    },
    {
      "icao": "ESMS",
      "alert": "OK",
      "vis_m": 5000,
      "fzfg": false,
      "metar_trigger": false,
      "taf_trigger": false,
      "metar": "METAR ESMS 242120Z 00000KT 5000 BR BKN003 OVC010 M00/M00 Q1021",
      "taf": "TAF ESMS 242027Z 2421/2521 VRB04KT 6000 BKN002"
    },
    {
      "icao": "ESSA",
      "alert": "OK",
      "vis_m": 9999,
      "fzfg": false,
      "metar_trigger": false,
      "taf_trigger": false,
      "metar": "METAR ESSA 242120Z 33005KT 9999 FEW006 M06/M06 Q1023 NOSIG",
      "taf": "TAF ESSA 242030Z 2421/2521 36006KT 9999 BKN015"
    },
    {
      "icao": "EYKA",
      "alert": "OK",
      "vis_m": 9999,
      "fzfg": false,
      "metar_trigger": false,
      "taf_trigger": false,
      "metar": "METAR EYKA 242120Z 29004KT 260V340 9999 OVC014 M00/M03 Q1015",
      "taf": "TAF EYKA 241716Z 2418/2518 32005KT 9000 OVC015"
    },
    {
      "icao": "EYPA",
      "alert": "OK",
      "vis_m": 9999,
      "fzfg": false,
      "metar_trigger": false,
      "taf_trigger": false,
      "metar": "METAR EYPA 242120Z 34003KT 290V040 9999 OVC012 M00/M02 Q1018",
      "taf": "TAF EYPA 241715Z 2418/2518 35005KT 6000 BKN015"
    },
    {
      "icao": "EYVI",
      "alert": "OK",
      "vis_m": 9999,
      "fzfg": false,
      "metar_trigger": false,
      "taf_trigger": false,
      "metar": "METAR EYVI 242120Z 33007KT 300V360 9999 OVC004 M02/M03 Q1014 NOSIG",
      "taf": "TAF EYVI 241725Z 2418/2518 33011KT 5000 BR OVC005"
    },
    {
      "icao": "GCFV",
      "alert": "OK",
      "vis_m": 9999,
      "fzfg": false,
      "metar_trigger": false,
      "taf_trigger": false,
      "metar": "METAR GCFV 242100Z 26005KT CAVOK 21/M02 Q1018",
      "taf": "TAF GCFV 242000Z 2421/2521 31010KT 9999 FEW015 TX22/2514Z TN15/2506Z"
    },
    {
      "icao": "GCLP",
      "alert": "OK",
      "vis_m": 9999,
      "fzfg": false,
      "metar_trigger": false,
      "taf_trigger": false,
      "metar": "METAR GCLP 242100Z 00000KT CAVOK 19/13 Q1019 NOSIG",
      "taf": "TAF GCLP 242000Z 2421/2521 36007KT 9999 FEW015 TX23/2514Z TN14/2506Z"
    },
    {
      "icao": "GCTS",
      "alert": "OK",
      "vis_m": 9999,
      "fzfg": false,
      "metar_trigger": false,
      "taf_trigger": false,
      "metar": "METAR GCTS 242100Z 27007KT CAVOK 23/M03 Q1019 NOSIG",
      "taf": "TAF GCTS 242000Z 2421/2521 VRB05KT CAVOK TX24/2514Z TN14/2506Z"
    },
    {
      "icao": "GMAD",
      "alert": "OK",
      "vis_m": 9999,
      "fzfg": false,
      "metar_trigger": false,
      "taf_trigger": false,
      "metar": "METAR GMAD 242100Z 19010KT CAVOK 18/01 Q1018 NOSIG",
      "taf": "TAF GMAD 241700Z 2418/2524 20008KT CAVOK"
    },
    {
      "icao": "GMMN",
      "alert": "OK",
      "vis_m": 9999,
      "fzfg": false,
      "metar_trigger": false,
      "taf_trigger": false,
      "metar": "METAR GMMN 242100Z 22004KT CAVOK 14/11 Q1018 NOSIG",
      "taf": "TAF GMMN 241700Z 2418/2524 02006KT CAVOK"
    },
    {
      "icao": "GMMX",
      "alert": "OK",
      "vis_m": 9999,
      "fzfg": false,
      "metar_trigger": false,
      "taf_trigger": false,
      "metar": "METAR GMMX 242100Z 23004KT 220V280 CAVOK 18/07 Q1019 NOSIG",
      "taf": "TAF GMMX 241700Z 2418/2524 06006KT 8000 NSC"
    },
    {
      "icao": "HEGN",
      "alert": "OK",
      "vis_m": 9999,
      "fzfg": false,
      "metar_trigger": false,
      "taf_trigger": false,
      "metar": "METAR HEGN 242100Z 28009KT CAVOK 16/04 Q1020 NOSIG",
      "taf": "TAF HEGN 241700Z 2418/2524 34015KT CAVOK"
    },
    {
      "icao": "HEMA",
      "alert": "OK",
      "vis_m": 9999,
      "fzfg": false,
      "metar_trigger": false,
      "taf_trigger": false,
      "metar": "METAR HEMA 242100Z 30012KT CAVOK 18/07 Q1018 NOSIG",
      "taf": "TAF HEMA 241700Z 2418/2524 36018KT CAVOK"
    },
    {
      "icao": "HESH",
      "alert": "OK",
      "vis_m": 9999,
      "fzfg": false,
      "metar_trigger": false,
      "taf_trigger": false,
      "metar": "METAR HESH 242100Z 28002KT CAVOK 17/06 Q1019 NOSIG",
      "taf": "TAF HESH 241700Z 2418/2524 36010KT CAVOK"
    },
    {
      "icao": "HESX",
      "alert": "OK",
      "vis_m": 9999,
      "fzfg": false,
      "metar_trigger": false,
      "taf_trigger": false,
      "metar": "METAR HESX 242100Z 08003KT CAVOK 12/07 Q1021 NOSIG",
      "taf": "TAF HESX 241700Z 2418/2524 29009KT 9999 SCT020"
    },
    {
      "icao": "LATI",
      "alert": "OK",
      "vis_m": 3600,
      "fzfg": false,
      "metar_trigger": false,
      "taf_trigger": false,
      "metar": "METAR LATI 242050Z 00000KT 3600 BR NSC 08/06 Q1019 NOSIG",
      "taf": "TAF LATI 241700Z 2418/2518 VRB03KT CAVOK TX17/2512Z TN02/2505Z"
    },
    {
      "icao": "LBPD",
      "alert": "OK",
      "vis_m": 9999,
      "fzfg": false,
      "metar_trigger": false,
      "taf_trigger": false,
      "metar": "METAR LBPD 242100Z AUTO 28016KT 9999 BKN063/// 10/00 Q1015",
      "taf": "TAF LBPD 241700Z 2418/2518 32016KT 9999 SCT050 BKN070"
    },
    {
      "icao": "LBSF",
      "alert": "OK",
      "vis_m": 9999,
      "fzfg": false,
      "metar_trigger": false,
      "taf_trigger": false,
      "metar": "METAR LBSF 242100Z AUTO 28012KT 9999 SCT055/// 05/02 Q1018 NOSIG",
      "taf": "TAF LBSF 241700Z 2418/2518 30015KT 9999 SCT030 BKN060"
    },
    {
      "icao": "LBWN",
      "alert": "OK",
      "vis_m": 9999,
      "fzfg": false,
      "metar_trigger": false,
      "taf_trigger": false,
      "metar": "METAR LBWN 242100Z AUTO 31017KT 9999 SCT019/// BKN039/// BKN046/// 07/04 Q1012 TEMPO 5000 RA BKN020",
      "taf": "TAF LBWN 241700Z 2418/2518 32014KT 9999 SCT025 SCT045"
    },
    {
      "icao": "LCLK",
      "alert": "OK",
      "vis_m": 9999,
      "fzfg": false,
      "metar_trigger": false,
      "taf_trigger": false,
      "metar": "METAR LCLK 242100Z 25006KT CAVOK 10/08 Q1017 NOSIG",
      "taf": "TAF LCLK 241730Z 2418/2518 27007KT 9999 FEW025"
    },
    {
      "icao": "LCPH",
      "alert": "OK",
      "vis_m": 9999,
      "fzfg": false,
      "metar_trigger": false,
      "taf_trigger": false,
      "metar": "METAR LCPH 242100Z 31012KT 260V320 9999 FEW030 SCT040 15/09 Q1018 NOSIG",
      "taf": "TAF LCPH 241730Z 2418/2518 33009KT 9999 FEW020 SCT045"
    },
    {
      "icao": "LEAL",
      "alert": "OK",
      "vis_m": 9999,
      "fzfg": false,
      "metar_trigger": false,
      "taf_trigger": false,
      "metar": "METAR LEAL 242100Z VRB02KT CAVOK 11/09 Q1019 NOSIG",
      "taf": "TAF LEAL 241700Z 2418/2518 VRB04KT CAVOK TX21/2512Z TN07/2506Z"
    },
    {
      "icao": "LEBB",
      "alert": "OK",
      "vis_m": 9999,
      "fzfg": false,
      "metar_trigger": false,
      "taf_trigger": false,
      "metar": "METAR LEBB 242100Z 07006KT 030V100 CAVOK 20/03 Q1014 NOSIG",
      "taf": "TAF LEBB 241700Z 2418/2518 20009KT CAVOK TX25/2514Z TN10/2423Z"
    },
    {
      "icao": "LEBL",
      "alert": "OK",
      "vis_m": 3000,
      "fzfg": false,
      "metar_trigger": false,
      "taf_trigger": false,
      "metar": "METAR LEBL 242100Z 24006KT 3000 BR BCFG SCT004 11/11 Q1018 NOSIG",
      "taf": "TAF LEBL 241700Z 2418/2518 22012KT 9999 FEW015 TX18/2513Z TN07/2506Z"
    },
    {
      "icao": "LECH",
      "alert": "OK",
      "vis_m": 9000,
      "fzfg": false,
      "metar_trigger": false,
      "taf_trigger": false,
      "metar": "METAR LECH 242100Z AUTO 20003KT 9000 NCD 10/05 Q1019",
      "taf": ""
    },
    {
      "icao": "LEMD",
      "alert": "OK",
      "vis_m": 9999,
      "fzfg": false,
      "metar_trigger": false,
      "taf_trigger": false,
      "metar": "METAR LEMD 242100Z VRB02KT CAVOK 11/01 Q1019 NOSIG",
      "taf": "TAF LEMD 241700Z 2418/2524 VRB04KT CAVOK TX23/2515Z TN02/2507Z"
    },
    {
      "icao": "LEMG",
      "alert": "OK",
      "vis_m": 9999,
      "fzfg": false,
      "metar_trigger": false,
      "taf_trigger": false,
      "metar": "METAR LEMG 242100Z 00000KT CAVOK 10/09 Q1019 NOSIG",
      "taf": "TAF LEMG 241700Z 2418/2518 VRB03KT CAVOK TX20/2514Z TN06/2507Z"
    },
    {
      "icao": "LEVC",
      "alert": "OK",
      "vis_m": 9000,
      "fzfg": false,
      "metar_trigger": false,
      "taf_trigger": false,
      "metar": "METAR LEVC 242100Z 14001KT 9000 NSC 11/09 Q1018 NOSIG",
      "taf": "TAF LEVC 241700Z 2418/2518 11007KT CAVOK TX20/2512Z TN07/2506Z"
    },
    {
      "icao": "LEXJ",
      "alert": "OK",
      "vis_m": 9999,
      "fzfg": false,
      "metar_trigger": false,
      "taf_trigger": false,
      "metar": "METAR LEXJ 242100Z 31006KT CAVOK 12/09 Q1013",
      "taf": "TAF LEXJ 242000Z 2421/2521 21009KT 9999 BKN025 TX25/2511Z TN09/2501Z"
    },
    {
      "icao": "LEZG",
      "alert": "OK",
      "vis_m": 9999,
      "fzfg": false,
      "metar_trigger": false,
      "taf_trigger": false,
      "metar": "METAR LEZG 242100Z 13005KT CAVOK 12/07 Q1017 NOSIG",
      "taf": "TAF LEZG 241700Z 2418/2518 11008KT CAVOK TX21/2515Z TN07/2506Z"
    },
    {
      "icao": "LEZL",
      "alert": "OK",
      "vis_m": 9999,
      "fzfg": false,
      "metar_trigger": false,
      "taf_trigger": false,
      "metar": "METAR LEZL 242100Z VRB01KT CAVOK 14/11 Q1018 NOSIG",
      "taf": "TAF LEZL 242000Z 2421/2521 VRB03KT CAVOK TX23/2515Z TN09/2507Z"
    },
    {
      "icao": "LFBD",
      "alert": "OK",
      "vis_m": 9999,
      "fzfg": false,
      "metar_trigger": false,
      "taf_trigger": false,
      "metar": "METAR LFBD 242100Z AUTO 13006KT CAVOK 14/11 Q1014 TEMPO 4000 BR",
      "taf": "TAF LFBD 241700Z 2418/2524 12010KT CAVOK TX20/2515Z TN08/2506Z"
    },
    {
      "icao": "LFLL",
      "alert": "OK",
      "vis_m": 9999,
      "fzfg": false,
      "metar_trigger": false,
      "taf_trigger": false,
      "metar": "METAR LFLL 242100Z 21002KT CAVOK 10/09 Q1019 NOSIG",
      "taf": "TAF LFLL 241700Z 2418/2524 34004KT CAVOK"
    },
    {
      "icao": "LFLS",
      "alert": "OK",
      "vis_m": 9000,
      "fzfg": false,
      "metar_trigger": false,
      "taf_trigger": false,
      "metar": "METAR LFLS 242100Z AUTO 10004KT 9000 NSC 06/05 Q1019",
      "taf": "TAF LFLS 241400Z 2415/2515 02005KT CAVOK"
    },
    {
      "icao": "LFMN",
      "alert": "OK",
      "vis_m": 9999,
      "fzfg": false,
      "metar_trigger": false,
      "taf_trigger": false,
      "metar": "METAR LFMN 242100Z 36004KT 9999 BKN022 14/10 Q1020 NOSIG",
      "taf": "TAF LFMN 242000Z 2421/2603 33010KT 9999 BKN025"
    },
    {
      "icao": "LFOB",
      "alert": "OK",
      "vis_m": 9999,
      "fzfg": false,
      "metar_trigger": false,
      "taf_trigger": false,
      "metar": "METAR LFOB 242100Z AUTO 11006KT CAVOK 08/07 Q1018 BECMG 4000 BR",
      "taf": ""
    },
    {
      "icao": "LFPO",
      "alert": "OK",
      "vis_m": 9999,
      "fzfg": false,
      "metar_trigger": false,
      "taf_trigger": false,
      "metar": "METAR LFPO 242100Z 10005KT CAVOK 11/09 Q1018 NOSIG",
      "taf": "TAF LFPO 241700Z 2418/2524 15004KT 9999 FEW020"
    },
    {
      "icao": "LFSB",
      "alert": "OK",
      "vis_m": 9999,
      "fzfg": false,
      "metar_trigger": false,
      "taf_trigger": false,
      "metar": "METAR LFSB 242100Z AUTO 34004KT CAVOK 09/08 Q1021 BECMG 2500 BR BCFG",
      "taf": ""
    },
    {
      "icao": "LGAV",
      "alert": "OK",
      "vis_m": 9999,
      "fzfg": false,
      "metar_trigger": false,
      "taf_trigger": false,
      "metar": "METAR LGAV 242120Z VRB02KT CAVOK 11/05 Q1015 NOSIG",
      "taf": "TAF LGAV 241700Z 2418/2518 23010KT 9999 FEW020"
    },
    {
      "icao": "LGTS",
      "alert": "OK",
      "vis_m": 9999,
      "fzfg": false,
      "metar_trigger": false,
      "taf_trigger": false,
      "metar": "METAR LGTS 242120Z 32018G28KT 9999 FEW025 14/03 Q1016 NOSIG",
      "taf": "TAF LGTS 241700Z 2418/2518 34015KT 9999 FEW030"
    },
    {
      "icao": "LHBP",
      "alert": "OK",
      "vis_m": 9999,
      "fzfg": false,
      "metar_trigger": false,
      "taf_trigger": false,
      "metar": "METAR LHBP 242100Z 32012KT CAVOK 06/02 Q1020 NOSIG",
      "taf": "TAF LHBP 241715Z 2418/2518 31011KT CAVOK"
    },
    {
      "icao": "LHDC",
      "alert": "OK",
      "vis_m": 9999,
      "fzfg": false,
      "metar_trigger": false,
      "taf_trigger": false,
      "metar": "METAR LHDC 242045Z AUTO VRB02KT CAVOK 04/03 Q1020",
      "taf": "TAF LHDC 241415Z 2415/2424 31005KT 9999 SCT030 SCT070"
    },
    {
      "icao": "LIBD",
      "alert": "OK",
      "vis_m": 8000,
      "fzfg": false,
      "metar_trigger": false,
      "taf_trigger": false,
      "metar": "METAR LIBD 242120Z 26006KT 8000 FEW015 10/10 Q1020",
      "taf": "TAF LIBD 241700Z 2418/2518 26006KT 9999 FEW010"
    },
    {
      "icao": "LIBG",
      "alert": "OK",
      "vis_m": null,
      "fzfg": false,
      "metar_trigger": false,
      "taf_trigger": false,
      "metar": "",
      "taf": "TAF LIBG 241700Z 2418/2503 VRB05KT 9999 FEW040"
    },
    {
      "icao": "LIBP",
      "alert": "OK",
      "vis_m": 3600,
      "fzfg": false,
      "metar_trigger": false,
      "taf_trigger": false,
      "metar": "METAR LIBP 242120Z AUTO 22004KT 3600 BR NCD 07/07 Q1022",
      "taf": "TAF LIBP 241700Z 2418/2518 VRB05KT 7000 FEW010"
    },
    {
      "icao": "LIBR",
      "alert": "OK",
      "vis_m": 9999,
      "fzfg": false,
      "metar_trigger": false,
      "taf_trigger": false,
      "metar": "METAR LIBR 242120Z 29006KT 9999 FEW015 11/10 Q1019",
      "taf": "TAF LIBR 241700Z 2418/2518 28006KT 9999 FEW015"
    },
    {
      "icao": "LICA",
      "alert": "OK",
      "vis_m": 9999,
      "fzfg": false,
      "metar_trigger": false,
      "taf_trigger": false,
      "metar": "METAR LICA 242120Z AUTO 25004KT 9999 NCD 12/10 Q1021",
      "taf": "TAF LICA 241700Z 2418/2518 27012KT 9999 SCT020"
    },
    {
      "icao": "LICC",
      "alert": "OK",
      "vis_m": 9999,
      "fzfg": false,
      "metar_trigger": false,
      "taf_trigger": false,
      "metar": "METAR LICC 242120Z 27006KT CAVOK 10/07 Q1019",
      "taf": "TAF LICC 241700Z 2418/2518 VRB05KT CAVOK"
    },
    {
      "icao": "LICJ",
      "alert": "OK",
      "vis_m": 9999,
      "fzfg": false,
      "metar_trigger": false,
      "taf_trigger": false,
      "metar": "METAR LICJ 242120Z 08006KT CAVOK 13/11 Q1020",
      "taf": "TAF LICJ 241700Z 2418/2518 30010KT CAVOK"
    },
    {
      "icao": "LIMC",
      "alert": "OK",
      "vis_m": 5000,
      "fzfg": false,
      "metar_trigger": false,
      "taf_trigger": false,
      "metar": "METAR LIMC 242120Z 05004KT 5000 BR NSC 08/05 Q1022 NOSIG",
      "taf": "TAF LIMC 241700Z 2418/2524 13008KT 6000 NSC"
    },
    {
      "icao": "LIME",
      "alert": "OK",
      "vis_m": 8000,
      "fzfg": false,
      "metar_trigger": false,
      "taf_trigger": false,
      "metar": "METAR LIME 242120Z AUTO 02004KT 8000 NCD 08/06 Q1022",
      "taf": "TAF LIME 241700Z 2418/2518 14006KT 7000 FEW020"
    },
    {
      "icao": "LIMF",
      "alert": "OK",
      "vis_m": 3000,
      "fzfg": false,
      "metar_trigger": false,
      "taf_trigger": false,
      "metar": "METAR LIMF 242120Z 05007KT 3000 BR BKN005 OVC015 10/08 Q1022",
      "taf": ""
    },
    {
      "icao": "LIMJ",
      "alert": "OK",
      "vis_m": 9999,
      "fzfg": false,
      "metar_trigger": false,
      "taf_trigger": false,
      "metar": "METAR LIMJ 242120Z AUTO 33003KT 9999 BKN025/// 14/09 Q1020",
      "taf": "TAF LIMJ 241700Z 2418/2518 VRB05KT 9999 BKN030"
    },
    {
      "icao": "LIPE",
      "alert": "OK",
      "vis_m": 4000,
      "fzfg": false,
      "metar_trigger": false,
      "taf_trigger": false,
      "metar": "METAR LIPE 242120Z 07004KT 4000 BR BKN010 BKN030 11/09 Q1022",
      "taf": "TAF LIPE 241700Z 2418/2518 08007KT 4000 BR BKN010"
    },
    {
      "icao": "LIPH",
      "alert": "OK",
      "vis_m": 6000,
      "fzfg": false,
      "metar_trigger": false,
      "taf_trigger": false,
      "metar": "METAR LIPH 242120Z VRB01KT 6000 BKN040 09/07 Q1022",
      "taf": "TAF LIPH 241700Z 2418/2518 VRB05KT 6000 SCT030"
    },
    {
      "icao": "LIPQ",
      "alert": "OK",
      "vis_m": 2600,
      "fzfg": false,
      "metar_trigger": false,
      "taf_trigger": false,
      "metar": "METAR LIPQ 242120Z AUTO VRB02KT 2600 BR NCD 07/07 Q1022",
      "taf": "TAF LIPQ 241700Z 2418/2518 VRB05KT 9000 FEW060"
    },
    {
      "icao": "LIPR",
      "alert": "OK",
      "vis_m": 9999,
      "fzfg": false,
      "metar_trigger": false,
      "taf_trigger": false,
      "metar": "METAR LIPR 242120Z 22003KT 9999 SCT040 10/08 Q1021",
      "taf": "TAF LIPR 241700Z 2418/2518 VRB05KT 7000 FEW030"
    },
    {
      "icao": "LIPX",
      "alert": "OK",
      "vis_m": 7000,
      "fzfg": false,
      "metar_trigger": false,
      "taf_trigger": false,
      "metar": "METAR LIPX 242120Z 28002KT 7000 FEW035 05/04 Q1022",
      "taf": "TAF LIPX 241700Z 2418/2518 11007KT 6000 SCT020"
    },
    {
      "icao": "LIPY",
      "alert": "OK",
      "vis_m": 9999,
      "fzfg": false,
      "metar_trigger": false,
      "taf_trigger": false,
      "metar": "METAR LIPY 242120Z AUTO 25003KT 210V280 9999 OVC044/// 12/09 Q1021",
      "taf": "TAF LIPY 241700Z 2418/2518 VRB05KT 7000 FEW030"
    },
    {
      "icao": "LIPZ",
      "alert": "OK",
      "vis_m": 7000,
      "fzfg": false,
      "metar_trigger": false,
      "taf_trigger": false,
      "metar": "METAR LIPZ 242120Z 02004KT 7000 BKN050 10/06 Q1022 NOSIG",
      "taf": "TAF LIPZ 241700Z 2418/2524 VRB05KT 6000 SCT030"
    },
    {
      "icao": "LIRF",
      "alert": "OK",
      "vis_m": 9999,
      "fzfg": false,
      "metar_trigger": false,
      "taf_trigger": false,
      "metar": "METAR LIRF 242120Z 07005KT CAVOK 10/09 Q1020 NOSIG",
      "taf": "TAF LIRF 241700Z 2418/2524 VRB06KT 9999 SCT030"
    },
    {
      "icao": "LIRN",
      "alert": "OK",
      "vis_m": 9999,
      "fzfg": false,
      "metar_trigger": false,
      "taf_trigger": false,
      "metar": "METAR LIRN 242120Z 11002KT 9999 SCT035 13/11 Q1021 NOSIG",
      "taf": "TAF LIRN 241700Z 2418/2518 VRB05KT 9999 BKN030"
    },
    {
      "icao": "LIRP",
      "alert": "OK",
      "vis_m": 1200,
      "fzfg": false,
      "metar_trigger": false,
      "taf_trigger": false,
      "metar": "METAR LIRP 242115Z 20001KT 1200 0800SW BCFG SCT003 09/09 Q1020 NOSIG",
      "taf": "TAF LIRP 241700Z 2418/2518 VRB03KT 9999 SCT030"
    },
    {
      "icao": "LIRZ",
      "alert": "OK",
      "vis_m": 9999,
      "fzfg": false,
      "metar_trigger": false,
      "taf_trigger": false,
      "metar": "METAR LIRZ 242120Z AUTO 36005KT 9999 NCD 07/06 Q1020",
      "taf": "TAF LIRZ 241700Z 2418/2518 VRB05KT 6000 SCT030"
    },
    {
      "icao": "LJLJ",
      "alert": "OK",
      "vis_m": 9999,
      "fzfg": false,
      "metar_trigger": false,
      "taf_trigger": false,
      "metar": "METAR LJLJ 242100Z 29001KT 9999 OVC075 06/05 Q1023 NOSIG",
      "taf": "TAF LJLJ 241700Z 2418/2518 VRB02KT 9999 FEW025 BKN075"
    },
    {
      "icao": "LKMT",
      "alert": "OK",
      "vis_m": 9999,
      "fzfg": false,
      "metar_trigger": false,
      "taf_trigger": false,
      "metar": "METAR LKMT 242100Z VRB02KT 9999 SCT017 OVC043 04/04 Q1022 NOSIG",
      "taf": "TAF LKMT 241700Z 2418/2518 34009KT 9999 SCT030"
    },
    {
      "icao": "LKPR",
      "alert": "OK",
      "vis_m": 9999,
      "fzfg": false,
      "metar_trigger": false,
      "taf_trigger": false,
      "metar": "METAR LKPR 242100Z VRB02KT CAVOK 02/M00 Q1022 NOSIG",
      "taf": "TAF LKPR 242000Z 2421/2603 24003KT CAVOK"
    },
    {
      "icao": "LLBG",
      "alert": "OK",
      "vis_m": 9999,
      "fzfg": false,
      "metar_trigger": false,
      "taf_trigger": false,
      "metar": "METAR LLBG 242120Z 16007KT 9999 SCT035 14/11 Q1020 NOSIG RMK BKN075",
      "taf": "TAF LLBG 241702Z 2418/2518 VRB04KT 9999 SCT035"
    },
    {
      "icao": "LMML",
      "alert": "OK",
      "vis_m": 9999,
      "fzfg": false,
      "metar_trigger": false,
      "taf_trigger": false,
      "metar": "METAR LMML 242115Z 26008KT 230V290 CAVOK 14/11 Q1020 NOSIG",
      "taf": "TAF LMML 241700Z 2418/2518 27013KT 9999 FEW011"
    },
    {
      "icao": "LOWW",
      "alert": "OK",
      "vis_m": 9999,
      "fzfg": false,
      "metar_trigger": false,
      "taf_trigger": false,
      "metar": "METAR LOWW 242120Z 32007KT 9999 FEW038 06/03 Q1023 NOSIG",
      "taf": "TAF LOWW 242015Z 2421/2603 30010KT 9999 FEW030 TX11/2514Z TN00/2603Z"
    },
    {
      "icao": "LPFR",
      "alert": "OK",
      "vis_m": 8000,
      "fzfg": false,
      "metar_trigger": false,
      "taf_trigger": false,
      "metar": "METAR LPFR 242100Z 05006KT 8000 FEW010 14/13 Q1017",
      "taf": "TAF LPFR 241700Z 2418/2518 09010KT 9999 FEW008 SCT015"
    },
    {
      "icao": "LPMA",
      "alert": "OK",
      "vis_m": 9999,
      "fzfg": false,
      "metar_trigger": false,
      "taf_trigger": false,
      "metar": "METAR LPMA 242100Z VRB02KT 9999 FEW015 17/14 Q1017",
      "taf": "TAF LPMA 241700Z 2418/2518 VRB05KT 9999 SCT015 BKN030"
    },
    {
      "icao": "LPPR",
      "alert": "OK",
      "vis_m": 9999,
      "fzfg": false,
      "metar_trigger": false,
      "taf_trigger": false,
      "metar": "METAR LPPR 242100Z 17011KT 9999 BKN030 14/11 Q1014",
      "taf": "TAF LPPR 241700Z 2418/2518 18012KT 9999 SCT012 BKN025"
    },
    {
      "icao": "LPPS",
      "alert": "OK",
      "vis_m": 9999,
      "fzfg": false,
      "metar_trigger": false,
      "taf_trigger": false,
      "metar": "METAR LPPS 242100Z 28013KT 9999 FEW006 SCT010 BKN030 16/15 Q1018",
      "taf": "TAF LPPS 241700Z 2418/2524 27012KT 9999 SCT014 SCT030"
    },
    {
      "icao": "LPPT",
      "alert": "OK",
      "vis_m": 9999,
      "fzfg": false,
      "metar_trigger": false,
      "taf_trigger": false,
      "metar": "METAR LPPT 242100Z 20011KT 9999 FEW010 SCT016 BKN025 14/13 Q1016",
      "taf": "TAF LPPT 241700Z 2418/2524 21010KT 9999 FEW015"
    },
    {
      "icao": "LQBK",
      "alert": "OK",
      "vis_m": 9999,
      "fzfg": false,
      "metar_trigger": false,
      "taf_trigger": false,
      "metar": "METAR LQBK 242100Z VRB02KT CAVOK 02/01 Q1023 NOSIG",
      "taf": "TAF LQBK 241700Z 2418/2518 15005KT CAVOK TX15/2514Z TN02/2505Z"
    },
    {
      "icao": "LQSA",
      "alert": "OK",
      "vis_m": 9999,
      "fzfg": false,
      "metar_trigger": false,
      "taf_trigger": false,
      "metar": "METAR LQSA 242100Z 11003KT 090V150 9999 SCT060 03/03 Q1022 NOSIG",
      "taf": "TAF LQSA 241700Z 2418/2518 VRB02KT CAVOK TX13/2514Z TN00/2505Z"
    },
    {
      "icao": "LQTZ",
      "alert": "OK",
      "vis_m": 4000,
      "fzfg": false,
      "metar_trigger": false,
      "taf_trigger": false,
      "metar": "METAR LQTZ 242100Z VRB02KT 4000 BR NSC 02/02 Q1022",
      "taf": "TAF LQTZ 241700Z 2418/2518 27005KT 9999 SCT040 TX14/2514Z TN01/2505Z"
    },
    {
      "icao": "LRBC",
      "alert": "OK",
      "vis_m": 9999,
      "fzfg": false,
      "metar_trigger": false,
      "taf_trigger": false,
      "metar": "METAR LRBC 242100Z 35008KT 9999 FEW025 BKN040 03/01 Q1015",
      "taf": "TAF LRBC 242000Z 2421/2506 34014KT 9999 BKN050"
    },
    {
      "icao": "LRBS",
      "alert": "OK",
      "vis_m": 8000,
      "fzfg": false,
      "metar_trigger": false,
      "taf_trigger": false,
      "metar": "METAR LRBS 242100Z VRB02KT 8000 NSC 03/03 Q1014 BECMG 5000 BR",
      "taf": "TAF LRBS 241700Z 2418/2518 VRB04KT 9999 BKN045"
    },
    {
      "icao": "LRBV",
      "alert": "OK",
      "vis_m": 9999,
      "fzfg": false,
      "metar_trigger": false,
      "taf_trigger": false,
      "metar": "METAR LRBV 242100Z 30013KT 9999 -RADZ SCT018 04/01 Q1014",
      "taf": "TAF LRBV 242000Z 2421/2506 30012KT 9999 BKN035"
    },
    {
      "icao": "LRCL",
      "alert": "OK",
      "vis_m": 9999,
      "fzfg": false,
      "metar_trigger": false,
      "taf_trigger": false,
      "metar": "METAR LRCL 242100Z 29010KT 9999 BKN066 04/00 Q1017",
      "taf": "TAF LRCL 242000Z 2421/2506 30009KT 9999 BKN040"
    },
    {
      "icao": "LRCV",
      "alert": "OK",
      "vis_m": 9999,
      "fzfg": false,
      "metar_trigger": false,
      "taf_trigger": false,
      "metar": "METAR LRCV 242100Z 27009KT CAVOK 05/02 Q1016",
      "taf": "TAF LRCV 242000Z 2421/2506 27009KT CAVOK"
    },
    {
      "icao": "LRIA",
      "alert": "OK",
      "vis_m": 9999,
      "fzfg": false,
      "metar_trigger": false,
      "taf_trigger": false,
      "metar": "METAR LRIA 242100Z 30009KT 9999 FEW009 03/02 Q1014",
      "taf": "TAF LRIA 242000Z 2421/2506 32012KT 9999 BKN030"
    },
    {
      "icao": "LROP",
      "alert": "OK",
      "vis_m": 5000,
      "fzfg": false,
      "metar_trigger": false,
      "taf_trigger": false,
      "metar": "METAR LROP 242100Z 20004KT 5000 BR NSC 03/03 Q1014 BECMG 3000 BR",
      "taf": "TAF LROP 241700Z 2418/2518 VRB04KT 9999 BKN045"
    },
    {
      "icao": "LRSB",
      "alert": "OK",
      "vis_m": 9999,
      "fzfg": false,
      "metar_trigger": false,
      "taf_trigger": false,
      "metar": "METAR LRSB 242100Z 34004KT 300V010 9999 SCT045 BKN055 05/02 Q1016",
      "taf": "TAF LRSB 241700Z 2418/2518 28008KT 9999 BKN020 BKN070"
    },
    {
      "icao": "LRSM",
      "alert": "OK",
      "vis_m": 9999,
      "fzfg": false,
      "metar_trigger": false,
      "taf_trigger": false,
      "metar": "METAR LRSM 242100Z AUTO 29005KT 9999 FEW045/// 02/00 Q1018",
      "taf": "TAF LRSM 241400Z 2415/2424 32015KT 9999 SCT040"
    },
    {
      "icao": "LRSV",
      "alert": "OK",
      "vis_m": 9999,
      "fzfg": false,
      "metar_trigger": false,
      "taf_trigger": false,
      "metar": "METAR LRSV 242100Z 30009KT 9999 SCT020 02/00 Q1014",
      "taf": "TAF LRSV 242000Z 2421/2506 32015KT 9999 BKN035"
    },
    {
      "icao": "LRTM",
      "alert": "OK",
      "vis_m": 9999,
      "fzfg": false,
      "metar_trigger": false,
      "taf_trigger": false,
      "metar": "METAR LRTM 242100Z AUTO 28008KT 260V320 9999 NCD 04/01 Q1016",
      "taf": "TAF LRTM 241400Z 2415/2424 29010KT 9999 BKN020 BKN040"
    },
    {
      "icao": "LRTR",
      "alert": "OK",
      "vis_m": 9999,
      "fzfg": false,
      "metar_trigger": false,
      "taf_trigger": false,
      "metar": "METAR LRTR 242100Z 25005KT 9999 FEW042 04/04 Q1019",
      "taf": "TAF LRTR 241700Z 2418/2518 VRB04KT 9999 SCT045"
    },
    {
      "icao": "LTAC",
      "alert": "OK",
      "vis_m": 9999,
      "fzfg": false,
      "metar_trigger": false,
      "taf_trigger": false,
      "metar": "METAR LTAC 242120Z 03004KT 9999 BKN040 BKN100 03/00 Q1012 NOSIG RMK RWY21C VRB01KT RWY03L 03002KT RWY21R 35002KT RWY03R 00000KT RWY21L 00000KT",
      "taf": "TAF LTAC 241640Z 2418/2518 VRB02KT 9999 SCT040 BKN100"
    },
    {
      "icao": "LTFM",
      "alert": "OK",
      "vis_m": 9999,
      "fzfg": false,
      "metar_trigger": false,
      "taf_trigger": false,
      "metar": "METAR LTFM 242120Z 30004KT 250V330 9999 -SHRA FEW006 BKN028 BKN080 08/06 Q1013 NOSIG RMK RWY17L 25004KT 210V290 RWY34L 28003KT 230V360 RWY16R 24005KT 210V280 RWY36 VRB01KT RWY18 23005KT 200V260",
      "taf": "TAF LTFM 241640Z 2418/2524 24018G28KT 9999 -SHRA BKN020 BKN080"
    },
    {
      "icao": "LUKK",
      "alert": "OK",
      "vis_m": 9999,
      "fzfg": false,
      "metar_trigger": false,
      "taf_trigger": false,
      "metar": "METAR LUKK 242100Z 33011KT 9999 -RA OVC007 03/03 Q1012 BECMG OVC010",
      "taf": "TAF LUKK 241711Z 2418/2518 01008KT 9999 BKN015"
    },
    {
      "icao": "LWOH",
      "alert": "OK",
      "vis_m": null,
      "fzfg": false,
      "metar_trigger": false,
      "taf_trigger": false,
      "metar": "",
      "taf": "TAF LWOH 242030Z 2421/2521 31010KT 9999 BKN040"
    },
    {
      "icao": "LWSK",
      "alert": "OK",
      "vis_m": null,
      "fzfg": false,
      "metar_trigger": false,
      "taf_trigger": false,
      "metar": "",
      "taf": "TAF LWSK 242030Z 2421/2521 35010KT 9999 FEW040 BKN060"
    },
    {
      "icao": "LYBE",
      "alert": "OK",
      "vis_m": 9999,
      "fzfg": false,
      "metar_trigger": false,
      "taf_trigger": false,
      "metar": "METAR LYBE 242100Z 27008KT CAVOK 04/02 Q1021 NOSIG",
      "taf": "TAF LYBE 241700Z 2418/2518 28007KT CAVOK TX12/2513Z TN01/2506Z"
    },
    {
      "icao": "LYNI",
      "alert": "OK",
      "vis_m": 9999,
      "fzfg": false,
      "metar_trigger": false,
      "taf_trigger": false,
      "metar": "METAR LYNI 242100Z 09002KT 9999 BKN033 06/04 Q1020 NOSIG",
      "taf": "TAF LYNI 241700Z 2418/2518 27006KT 9999 FEW017 BKN027 TX12/2514Z TN03/2506Z"
    },
    {
      "icao": "LYPG",
      "alert": "OK",
      "vis_m": 9999,
      "fzfg": false,
      "metar_trigger": false,
      "taf_trigger": false,
      "metar": "METAR LYPG 242100Z 30007KT CAVOK 09/05 Q1019 NOSIG",
      "taf": "TAF LYPG 241700Z 2418/2518 34010KT CAVOK TX16/2513Z TN07/2420Z"
    },
    {
      "icao": "LZIB",
      "alert": "OK",
      "vis_m": 9999,
      "fzfg": false,
      "metar_trigger": false,
      "taf_trigger": false,
      "metar": "METAR LZIB 242100Z 32007KT CAVOK 07/02 Q1022 NOSIG",
      "taf": "TAF LZIB 241715Z 2418/2518 28005KT 9999 FEW030"
    },
    {
      "icao": "LZKZ",
      "alert": "OK",
      "vis_m": 9999,
      "fzfg": false,
      "metar_trigger": false,
      "taf_trigger": false,
      "metar": "METAR LZKZ 242100Z 01005KT 9999 SCT036 SCT042 06/00 Q1019 NOSIG",
      "taf": "TAF LZKZ 241715Z 2418/2518 01011KT 9999 FEW030"
    },
    {
      "icao": "LZTT",
      "alert": "OK",
      "vis_m": 9999,
      "fzfg": false,
      "metar_trigger": false,
      "taf_trigger": false,
      "metar": "METAR LZTT 242100Z VRB02KT 9999 FEW010 SCT033 01/M02 Q1018",
      "taf": "TAF LZTT 241715Z 2418/2518 27008KT 9999 SCT005 BKN025"
    },
    {
      "icao": "OEJN",
      "alert": "OK",
      "vis_m": 9999,
      "fzfg": false,
      "metar_trigger": false,
      "taf_trigger": false,
      "metar": "METAR OEJN 242100Z 35010KT CAVOK 23/12 Q1014 NOSIG",
      "taf": "TAF OEJN 241700Z 2418/2524 36010KT CAVOK"
    },
    {
      "icao": "OEMA",
      "alert": "OK",
      "vis_m": 9999,
      "fzfg": false,
      "metar_trigger": false,
      "taf_trigger": false,
      "metar": "METAR OEMA 242100Z 01006KT CAVOK 18/M06 Q1019 NOSIG",
      "taf": "TAF OEMA 241700Z 2418/2524 34008KT CAVOK"
    },
    {
      "icao": "OJAI",
      "alert": "OK",
      "vis_m": 6000,
      "fzfg": false,
      "metar_trigger": false,
      "taf_trigger": false,
      "metar": "METAR OJAI 242100Z 25004KT 6000 BKN025 06/05 Q1021 NOSIG",
      "taf": "TAF OJAI 241639Z 2418/2524 27012KT 5000 HZ SCT035"
    },
    {
      "icao": "OMAA",
      "alert": "OK",
      "vis_m": null,
      "fzfg": false,
      "metar_trigger": false,
      "taf_trigger": false,
      "metar": "",
      "taf": "TAF OMAA 241700Z 2418/2600 07006KT 8000 NSC"
    },
    {
      "icao": "OMDB",
      "alert": "OK",
      "vis_m": null,
      "fzfg": false,
      "metar_trigger": false,
      "taf_trigger": false,
      "metar": "",
      "taf": "TAF OMDB 241700Z 2418/2600 07005KT 7000 NSC"
    },
    {
      "icao": "UAAA",
      "alert": "OK",
      "vis_m": 800,
      "fzfg": true,
      "metar_trigger": false,
      "taf_trigger": false,
      "metar": "METAR UAAA 242100Z 00000MPS 0800 R23L/2000 SHSN FZFG BKN015CB OVC100 M03/M04 Q1022 NOSIG",
      "taf": "TAF UAAA 241700Z 2418/2518 22003MPS 1300 -SHSN BR FEW005 BKN011CB OVC050 TXM01/2509Z TNM06/2502Z"
    },
    {
      "icao": "UBBB",
      "alert": "OK",
      "vis_m": 9999,
      "fzfg": false,
      "metar_trigger": false,
      "taf_trigger": false,
      "metar": "METAR UBBB 242100Z 31002KT 9999 OVC012 06/04 Q1015 NOSIG",
      "taf": "TAF UBBB 241700Z 2418/2518 34005KT 9999 BKN012 BKN030 TX07/2510Z TN04/2501Z"
    },
    {
      "icao": "UDSG",
      "alert": "OK",
      "vis_m": 9999,
      "fzfg": false,
      "metar_trigger": false,
      "taf_trigger": false,
      "metar": "METAR UDSG 242100Z 23001KT 9999 NSC M03/M03 Q1013 NOSIG",
      "taf": "TAF UDSG 241658Z 2418/2518 VRB06KT 9999 FEW040"
    },
    {
      "icao": "UDYZ",
      "alert": "OK",
      "vis_m": 8000,
      "fzfg": false,
      "metar_trigger": false,
      "taf_trigger": false,
      "metar": "METAR UDYZ 242100Z 10003KT 8000 NSC 02/M01 Q1013 NOSIG",
      "taf": "TAF UDYZ 241700Z 2418/2518 03006KT 9999 FEW040"
    },
    {
      "icao": "UGKO",
      "alert": "OK",
      "vis_m": 9999,
      "fzfg": false,
      "metar_trigger": false,
      "taf_trigger": false,
      "metar": "METAR UGKO 242100Z VRB02KT CAVOK 04/03 Q1014 NOSIG",
      "taf": "TAF UGKO 241700Z 2418/2518 26007KT CAVOK TX17/2511Z TN03/2502Z"
    }
  ]
}