{
  "ts_utc": "2025-12-20T13:26:59Z",
  "threshold_m": 150,
  "source": "stations_override.txt (ICAO list) + aviationweather.gov (METAR/TAF raw)",
  "station_count": 114,
  "stations": [
    {
      "icao": "BIKF",
      "alert": "OK",
      "vis_m": 9999,
      "fzfg": false,
      "metar_trigger": false,
      "taf_trigger": false,
      "metar": "METAR BIKF 201300Z 09024KT 9999 -DZ OVC014 09/07 Q0987",
      "taf": "TAF BIKF 201047Z 2012/2112 12022G38KT 9999 -RA BKN015 OVC025 TX09/2012Z TN04/2020Z"
    },
    {
      "icao": "BKPR",
      "alert": "OK",
      "vis_m": null,
      "fzfg": false,
      "metar_trigger": false,
      "taf_trigger": false,
      "metar": "",
      "taf": "TAF BKPR 201130Z 2012/2112 VRB03KT 0250 FG BKN002"
    },
    {
      "icao": "EBBR",
      "alert": "OK",
      "vis_m": 9999,
      "fzfg": false,
      "metar_trigger": false,
      "taf_trigger": false,
      "metar": "METAR EBBR 201320Z 09004KT CAVOK 06/05 Q1014 NOSIG",
      "taf": "TAF EBBR 201103Z 2012/2118 08005KT 6000 FEW018"
    },
    {
      "icao": "EBCI",
      "alert": "OK",
      "vis_m": 5000,
      "fzfg": false,
      "metar_trigger": false,
      "taf_trigger": false,
      "metar": "METAR EBCI 201320Z 07006KT 5000 -RA BKN036 06/05 Q1013 TEMPO 4000 -RA",
      "taf": "TAF EBCI 201103Z 2012/2118 11004KT 8000 FEW018"
    },
    {
      "icao": "EDDB",
      "alert": "OK",
      "vis_m": 9999,
      "fzfg": false,
      "metar_trigger": false,
      "taf_trigger": false,
      "metar": "METAR EDDB 201320Z AUTO VRB01KT CAVOK 09/07 Q1019 BECMG 08005KT",
      "taf": "TAF EDDB 201100Z 2012/2112 VRB02KT CAVOK"
    },
    {
      "icao": "EDDH",
      "alert": "OK",
      "vis_m": 300,
      "fzfg": false,
      "metar_trigger": false,
      "taf_trigger": false,
      "metar": "METAR EDDH 201320Z AUTO 08003KT 0300 0200 R23/0400N R15/0450N FG VV003 05/05 Q1019 TEMPO 0400 VV000",
      "taf": "TAF EDDH 201124Z 2012/2118 VRB03KT 0500 FG VV003"
    },
    {
      "icao": "EDDK",
      "alert": "OK",
      "vis_m": 9999,
      "fzfg": false,
      "metar_trigger": false,
      "taf_trigger": false,
      "metar": "METAR EDDK 201320Z AUTO VRB02KT 9999 -DZ BKN024 BKN028 BKN039 08/08 Q1015 BECMG 12007KT",
      "taf": "TAF EDDK 201100Z 2012/2118 11007KT 9999 BKN020"
    },
    {
      "icao": "EDDN",
      "alert": "OK",
      "vis_m": 9999,
      "fzfg": false,
      "metar_trigger": false,
      "taf_trigger": false,
      "metar": "METAR EDDN 201320Z AUTO 30004KT CAVOK 09/04 Q1016 NOSIG",
      "taf": "TAF EDDN 201100Z 2012/2112 10003KT CAVOK"
    },
    {
      "icao": "EDFH",
      "alert": "OK",
      "vis_m": 700,
      "fzfg": false,
      "metar_trigger": false,
      "taf_trigger": false,
      "metar": "METAR EDFH 201320Z 14010KT 0700 R21/2000N FG OVC001 07/07 Q1014",
      "taf": "TAF EDFH 201100Z 2012/2112 12007KT 0800 FG BKN003"
    },
    {
      "icao": "EDJA",
      "alert": "OK",
      "vis_m": 9999,
      "fzfg": false,
      "metar_trigger": false,
      "taf_trigger": false,
      "metar": "METAR EDJA 201320Z 32003KT 280V040 CAVOK 06/02 Q1015",
      "taf": "TAF EDJA 201100Z 2012/2021 VRB03KT 5000 BR SCT002"
    },
    {
      "icao": "EDLW",
      "alert": "OK",
      "vis_m": 9999,
      "fzfg": false,
      "metar_trigger": false,
      "taf_trigger": false,
      "metar": "METAR EDLW 201320Z 01003KT 340V040 CAVOK 06/05 Q1015",
      "taf": "TAF EDLW 201100Z 2012/2112 VRB03KT 9999 BKN030"
    },
    {
      "icao": "EDSB",
      "alert": "OK",
      "vis_m": 9999,
      "fzfg": false,
      "metar_trigger": false,
      "taf_trigger": false,
      "metar": "METAR EDSB 201320Z VRB01KT CAVOK 10/08 Q1015",
      "taf": "TAF EDSB 201100Z 2012/2112 VRB03KT 9999 SCT004 BKN045"
    },
    {
      "icao": "EETN",
      "alert": "OK",
      "vis_m": 9999,
      "fzfg": false,
      "metar_trigger": false,
      "taf_trigger": false,
      "metar": "METAR EETN 201320Z 23009KT 9999 OVC011 07/05 Q1007 NOSIG",
      "taf": "TAF EETN 201130Z 2012/2112 22012KT 9999 BKN012 BKN035"
    },
    {
      "icao": "EFHK",
      "alert": "OK",
      "vis_m": 9999,
      "fzfg": false,
      "metar_trigger": false,
      "taf_trigger": false,
      "metar": "METAR EFHK 201320Z 21010KT 9999 -RA FEW011 BKN015 BKN040 06/05 Q1005 TEMPO BKN014",
      "taf": "TAF EFHK 201125Z 2012/2112 22009KT 9999 FEW010 BKN035"
    },
    {
      "icao": "EFTU",
      "alert": "OK",
      "vis_m": 9999,
      "fzfg": false,
      "metar_trigger": false,
      "taf_trigger": false,
      "metar": "METAR EFTU 201320Z AUTO 25011KT 9999 BKN011 OVC035 06/05 Q1004",
      "taf": "TAF EFTU 201125Z 2012/2112 24010KT 9999 -RA BKN014"
    },
    {
      "icao": "EGGW",
      "alert": "OK",
      "vis_m": 9999,
      "fzfg": false,
      "metar_trigger": false,
      "taf_trigger": false,
      "metar": "METAR EGGW 201320Z AUTO 14010KT 9999 FEW016 08/06 Q1011",
      "taf": "TAF EGGW 201104Z 2012/2112 13007KT 9999 FEW025"
    },
    {
      "icao": "EGKK",
      "alert": "OK",
      "vis_m": 9999,
      "fzfg": false,
      "metar_trigger": false,
      "taf_trigger": false,
      "metar": "METAR EGKK 201320Z 13008KT 100V170 9999 FEW019 10/06 Q1011",
      "taf": "TAF EGKK 201055Z 2012/2118 13007KT 9999 FEW025"
    },
    {
      "icao": "EHEH",
      "alert": "OK",
      "vis_m": 9999,
      "fzfg": false,
      "metar_trigger": false,
      "taf_trigger": false,
      "metar": "METAR EHEH 201255Z AUTO 06005KT 020V090 9999 BKN064 OVC071 08/05 Q1015 BLU NOSIG RMK TREND REMOTE BY EHWX",
      "taf": "TAF EHEH 201114Z 2012/2118 08007KT CAVOK"
    },
    {
      "icao": "EKBI",
      "alert": "OK",
      "vis_m": 9999,
      "fzfg": false,
      "metar_trigger": false,
      "taf_trigger": false,
      "metar": "METAR EKBI 201320Z AUTO 23005KT 200V260 9999 NCD 08/06 Q1017",
      "taf": "TAF EKBI 201127Z 2012/2112 24008KT 9999 BKN017"
    },
    {
      "icao": "EKCH",
      "alert": "OK",
      "vis_m": 9999,
      "fzfg": false,
      "metar_trigger": false,
      "taf_trigger": false,
      "metar": "METAR EKCH 201320Z 22006KT 9999 FEW016 BKN018 07/06 Q1018 TEMPO BKN012",
      "taf": "TAF EKCH 201127Z 2012/2112 24010KT 9999 SCT010 BKN020"
    },
    {
      "icao": "ENTO",
      "alert": "OK",
      "vis_m": 9999,
      "fzfg": false,
      "metar_trigger": false,
      "taf_trigger": false,
      "metar": "METAR ENTO 201320Z 26005KT 230V290 CAVOK 07/03 Q1011 NOSIG",
      "taf": "TAF ENTO 201100Z 2012/2112 24010KT CAVOK"
    },
    {
      "icao": "EPGD",
      "alert": "OK",
      "vis_m": 9999,
      "fzfg": false,
      "metar_trigger": false,
      "taf_trigger": false,
      "metar": "METAR EPGD 201300Z 27011KT 9999 BKN014 06/04 Q1018",
      "taf": "TAF EPGD 201130Z 2012/2112 29012KT 9999 BKN015"
    },
    {
      "icao": "EPKK",
      "alert": "OK",
      "vis_m": 1800,
      "fzfg": false,
      "metar_trigger": false,
      "taf_trigger": false,
      "metar": "METAR EPKK 201300Z 21003KT 1800 BR OVC003 03/03 Q1020",
      "taf": ""
    },
    {
      "icao": "EPKT",
      "alert": "OK",
      "vis_m": 3500,
      "fzfg": false,
      "metar_trigger": false,
      "taf_trigger": false,
      "metar": "METAR EPKT 201300Z 14003KT 110V180 3500 BR OVC002 04/04 Q1020",
      "taf": "TAF EPKT 201130Z 2012/2112 18005KT 0300 FG OVC001"
    },
    {
      "icao": "EPWA",
      "alert": "OK",
      "vis_m": 5000,
      "fzfg": false,
      "metar_trigger": false,
      "taf_trigger": false,
      "metar": "METAR EPWA 201300Z 18003KT 5000 BR BKN006 04/04 Q1019 TEMPO 4000 BR BKN004",
      "taf": ""
    },
    {
      "icao": "EPWR",
      "alert": "OK",
      "vis_m": 5000,
      "fzfg": false,
      "metar_trigger": false,
      "taf_trigger": false,
      "metar": "METAR EPWR 201300Z 12002KT 5000 BR BKN002 OVC003 05/04 Q1020",
      "taf": "TAF EPWR 201130Z 2012/2112 VRB02KT 9999 BKN006"
    },
    {
      "icao": "ESGG",
      "alert": "OK",
      "vis_m": 9999,
      "fzfg": false,
      "metar_trigger": false,
      "taf_trigger": false,
      "metar": "METAR ESGG 201320Z 26014KT 9999 BKN010 07/06 Q1013",
      "taf": "TAF ESGG 201130Z 2012/2112 23014KT 9999 BKN012"
    },
    {
      "icao": "ESKN",
      "alert": "OK",
      "vis_m": 9999,
      "fzfg": false,
      "metar_trigger": false,
      "taf_trigger": false,
      "metar": "METAR ESKN 201320Z 24011KT 9999 FEW025 BKN031 07/06 Q1008",
      "taf": "TAF ESKN 201130Z 2012/2112 24012KT 9999 BKN030"
    },
    {
      "icao": "ESMX",
      "alert": "OK",
      "vis_m": 9999,
      "fzfg": false,
      "metar_trigger": false,
      "taf_trigger": false,
      "metar": "METAR ESMX 201320Z 25011KT 220V290 9999 SCT018 BKN028 07/06 Q1014",
      "taf": "TAF ESMX 201130Z 2012/2015 23011KT 9999 OVC035"
    },
    {
      "icao": "EVRA",
      "alert": "OK",
      "vis_m": 9999,
      "fzfg": false,
      "metar_trigger": false,
      "taf_trigger": false,
      "metar": "METAR EVRA 201320Z 20006KT 9999 FEW022 06/05 Q1013 NOSIG",
      "taf": "TAF EVRA 201102Z 2012/2112 21007KT 7000 OVC006"
    },
    {
      "icao": "EYKA",
      "alert": "OK",
      "vis_m": 4300,
      "fzfg": false,
      "metar_trigger": false,
      "taf_trigger": false,
      "metar": "METAR EYKA 201320Z 23005KT 4300 -RA BR OVC003 04/04 Q1017",
      "taf": "TAF EYKA 201105Z 2012/2112 VRB04KT 3000 RA BR OVC002"
    },
    {
      "icao": "EYVI",
      "alert": "OK",
      "vis_m": 750,
      "fzfg": false,
      "metar_trigger": false,
      "taf_trigger": false,
      "metar": "METAR EYVI 201320Z 20006KT 0750 R01/1200N FG VV001 01/01 Q1017 NOSIG",
      "taf": "TAF EYVI 201100Z 2012/2112 21010KT 0600 DZ FG OVC002"
    },
    {
      "icao": "GCLP",
      "alert": "OK",
      "vis_m": 9999,
      "fzfg": false,
      "metar_trigger": false,
      "taf_trigger": false,
      "metar": "METAR GCLP 201300Z 03017KT 9999 BKN045 19/12 Q1023 NOSIG",
      "taf": "TAF GCLP 200800Z 2009/2109 02018KT 9999 SCT030 TX21/2014Z TN15/2106Z"
    },
    {
      "icao": "GCTS",
      "alert": "OK",
      "vis_m": 9999,
      "fzfg": false,
      "metar_trigger": false,
      "taf_trigger": false,
      "metar": "METAR GCTS 201300Z 09019KT 9999 SCT035 22/10 Q1023 NOSIG",
      "taf": "TAF GCTS 200800Z 2009/2109 09015KT 9999 SCT030 TX23/2014Z TN14/2106Z"
    },
    {
      "icao": "HECA",
      "alert": "OK",
      "vis_m": 9999,
      "fzfg": false,
      "metar_trigger": false,
      "taf_trigger": false,
      "metar": "METAR HECA 201300Z 05007KT CAVOK 22/05 Q1015 NOSIG",
      "taf": "TAF HECA 201100Z 2012/2118 08010KT 9999 SCT020"
    },
    {
      "icao": "HEGN",
      "alert": "OK",
      "vis_m": 9999,
      "fzfg": false,
      "metar_trigger": false,
      "taf_trigger": false,
      "metar": "METAR HEGN 201300Z 08004KT CAVOK 22/13 Q1016 NOSIG",
      "taf": "TAF HEGN 201100Z 2012/2118 35010KT CAVOK"
    },
    {
      "icao": "HESH",
      "alert": "OK",
      "vis_m": 9999,
      "fzfg": false,
      "metar_trigger": false,
      "taf_trigger": false,
      "metar": "METAR HESH 201300Z 02009KT CAVOK 22/10 Q1016 NOSIG",
      "taf": "TAF HESH 201100Z 2012/2118 02010KT CAVOK"
    },
    {
      "icao": "HESX",
      "alert": "OK",
      "vis_m": 9999,
      "fzfg": false,
      "metar_trigger": false,
      "taf_trigger": false,
      "metar": "METAR HESX 201300Z 12004KT CAVOK 20/07 Q1016 NOSIG",
      "taf": "TAF HESX 201100Z 2012/2118 05008KT 9999 SCT020"
    },
    {
      "icao": "LATI",
      "alert": "OK",
      "vis_m": 9999,
      "fzfg": false,
      "metar_trigger": false,
      "taf_trigger": false,
      "metar": "METAR LATI 201320Z VRB03KT CAVOK 17/07 Q1015 NOSIG",
      "taf": "TAF LATI 201100Z 2012/2112 VRB05KT CAVOK TX17/2012Z TN02/2105Z"
    },
    {
      "icao": "LBSF",
      "alert": "OK",
      "vis_m": 9000,
      "fzfg": false,
      "metar_trigger": false,
      "taf_trigger": false,
      "metar": "METAR LBSF 201300Z VRB02KT 9000 SCT035 10/02 Q1019 NOSIG",
      "taf": "TAF LBSF 201100Z 2012/2112 10010KT 7000 SCT030"
    },
    {
      "icao": "LBWN",
      "alert": "OK",
      "vis_m": 3800,
      "fzfg": false,
      "metar_trigger": false,
      "taf_trigger": false,
      "metar": "METAR LBWN 201300Z AUTO 27004KT 3800 BR OVC010/// 08/08 Q1021 TEMPO 5000 BR",
      "taf": "TAF LBWN 201100Z 2012/2112 VRB03KT 4000 BR OVC009"
    },
    {
      "icao": "LCLK",
      "alert": "OK",
      "vis_m": 9999,
      "fzfg": false,
      "metar_trigger": false,
      "taf_trigger": false,
      "metar": "METAR LCLK 201300Z 18004KT 100V240 9999 FEW025 20/13 Q1017 NOSIG",
      "taf": "TAF LCLK 201130Z 2012/2112 19010KT 9999 FEW030"
    },
    {
      "icao": "LDDU",
      "alert": "OK",
      "vis_m": 9999,
      "fzfg": false,
      "metar_trigger": false,
      "taf_trigger": false,
      "metar": "METAR LDDU 201300Z 19004KT 150V240 CAVOK 15/08 Q1016 NOSIG",
      "taf": "TAF LDDU 201125Z 2012/2112 19006KT 9999 FEW040 TX16/2012Z TN09/2103Z"
    },
    {
      "icao": "LDSP",
      "alert": "OK",
      "vis_m": 9999,
      "fzfg": false,
      "metar_trigger": false,
      "taf_trigger": false,
      "metar": "METAR LDSP 201300Z 23005KT 9999 FEW030 16/09 Q1016 NOSIG",
      "taf": "TAF LDSP 201125Z 2012/2112 32005KT CAVOK TX17/2012Z TN07/2106Z"
    },
    {
      "icao": "LDZA",
      "alert": "OK",
      "vis_m": 4000,
      "fzfg": false,
      "metar_trigger": false,
      "taf_trigger": false,
      "metar": "METAR LDZA 201300Z VRB02KT 4000 BR OVC003 03/02 Q1021 TEMPO 1500 BCFG",
      "taf": "TAF LDZA 201125Z 2012/2112 VRB02KT 0600 FG VV002 TX04/2111Z TN02/2012Z"
    },
    {
      "icao": "LEAL",
      "alert": "OK",
      "vis_m": 9999,
      "fzfg": false,
      "metar_trigger": false,
      "taf_trigger": false,
      "metar": "METAR LEAL 201300Z 22006KT 170V280 9999 FEW025 18/09 Q1013 NOSIG",
      "taf": "TAF LEAL 201100Z 2012/2112 22008KT 9999 FEW015 TX17/2012Z TN08/2106Z"
    },
    {
      "icao": "LEBL",
      "alert": "OK",
      "vis_m": 4000,
      "fzfg": false,
      "metar_trigger": false,
      "taf_trigger": false,
      "metar": "SPECI LEBL 201315Z 32008KT 290V360 4000 SHRA BR FEW015TCU SCT020 BKN030 13/12 Q1013 NOSIG",
      "taf": "TAF LEBL 201100Z 2012/2112 33009KT 8000 FEW030 BKN040 TX12/2012Z TN09/2106Z"
    },
    {
      "icao": "LECH",
      "alert": "OK",
      "vis_m": 9000,
      "fzfg": false,
      "metar_trigger": false,
      "taf_trigger": false,
      "metar": "METAR LECH 201300Z AUTO 18001KT 9000 NCD 15/05 Q1013",
      "taf": ""
    },
    {
      "icao": "LEMD",
      "alert": "OK",
      "vis_m": 9999,
      "fzfg": false,
      "metar_trigger": false,
      "taf_trigger": false,
      "metar": "METAR LEMD 201300Z 19007KT 150V230 9999 SCT030 BKN040 10/07 Q1014 NOSIG",
      "taf": "TAF LEMD 201100Z 2012/2118 VRB04KT 9999 SCT045 TX11/2014Z TN05/2107Z"
    },
    {
      "icao": "LEMG",
      "alert": "OK",
      "vis_m": 9999,
      "fzfg": false,
      "metar_trigger": false,
      "taf_trigger": false,
      "metar": "METAR LEMG 201300Z 31009KT 9999 FEW030 SCT050 15/07 Q1017 NOSIG",
      "taf": "TAF LEMG 201100Z 2012/2112 30009KT 9999 FEW030 TX16/2014Z TN08/2106Z"
    },
    {
      "icao": "LERS",
      "alert": "OK",
      "vis_m": 9999,
      "fzfg": false,
      "metar_trigger": false,
      "taf_trigger": false,
      "metar": "METAR LERS 201300Z 00000KT CAVOK 15/08 Q1013",
      "taf": "TAF LERS 200800Z 2009/2109 VRB03KT 9999 FEW040 TX16/2012Z TN04/2106Z"
    },
    {
      "icao": "LEVC",
      "alert": "OK",
      "vis_m": 9999,
      "fzfg": false,
      "metar_trigger": false,
      "taf_trigger": false,
      "metar": "METAR LEVC 201300Z VRB01KT CAVOK 16/08 Q1013 NOSIG",
      "taf": "TAF LEVC 201100Z 2012/2112 VRB04KT 9999 FEW015 TX17/2012Z TN06/2107Z"
    },
    {
      "icao": "LFLL",
      "alert": "OK",
      "vis_m": 9999,
      "fzfg": false,
      "metar_trigger": false,
      "taf_trigger": false,
      "metar": "METAR LFLL 201300Z 14007KT 9999 SCT024 BKN100 14/10 Q1014 NOSIG",
      "taf": "TAF LFLL 201100Z 2012/2118 16008KT CAVOK"
    },
    {
      "icao": "LFMN",
      "alert": "OK",
      "vis_m": 9999,
      "fzfg": false,
      "metar_trigger": false,
      "taf_trigger": false,
      "metar": "METAR LFMN 201300Z VRB03KT 9999 SCT040 BKN083 BKN100 16/10 Q1016 NOSIG",
      "taf": "TAF LFMN 200800Z 2009/2115 33010KT 9999 BKN045"
    },
    {
      "icao": "LFOB",
      "alert": "OK",
      "vis_m": 9999,
      "fzfg": false,
      "metar_trigger": false,
      "taf_trigger": false,
      "metar": "METAR LFOB 201300Z AUTO 10006KT 9999 OVC008 09/08 Q1012 TEMPO 4000 -RA OVC004",
      "taf": "TAF LFOB 201100Z 2012/2112 11008KT 9999 OVC015"
    },
    {
      "icao": "LFPO",
      "alert": "OK",
      "vis_m": 8000,
      "fzfg": false,
      "metar_trigger": false,
      "taf_trigger": false,
      "metar": "METAR LFPO 201300Z 12006KT 8000 OVC005 09/09 Q1011 TEMPO 4000 -RADZ",
      "taf": "TAF LFPO 201100Z 2012/2118 10005KT 9999 BKN008"
    },
    {
      "icao": "LFSB",
      "alert": "OK",
      "vis_m": 9999,
      "fzfg": false,
      "metar_trigger": false,
      "taf_trigger": false,
      "metar": "METAR LFSB 201300Z AUTO 12004KT 070V140 CAVOK 13/04 Q1015 NOSIG",
      "taf": "TAF LFSB 201100Z 2012/2112 15005KT CAVOK"
    },
    {
      "icao": "LGAV",
      "alert": "OK",
      "vis_m": 9999,
      "fzfg": false,
      "metar_trigger": false,
      "taf_trigger": false,
      "metar": "METAR LGAV 201320Z VRB03KT 9999 FEW025 14/09 Q1017 NOSIG",
      "taf": "TAF LGAV 201100Z 2012/2112 02012KT 9999 SCT020 BKN070"
    },
    {
      "icao": "LGIR",
      "alert": "OK",
      "vis_m": 9999,
      "fzfg": false,
      "metar_trigger": false,
      "taf_trigger": false,
      "metar": "METAR LGIR 201320Z 06006KT 9999 FEW018 SCT080 16/12 Q1016 NOSIG",
      "taf": "TAF LGIR 201100Z 2012/2112 09010KT 9999 SCT020 BKN080"
    },
    {
      "icao": "LGKR",
      "alert": "OK",
      "vis_m": 9999,
      "fzfg": false,
      "metar_trigger": false,
      "taf_trigger": false,
      "metar": "METAR LGKR 201320Z 00000KT 9999 FEW018 15/09 Q1015 NOSIG",
      "taf": "TAF LGKR 201100Z 2012/2112 VRB05KT 9999 SCT020"
    },
    {
      "icao": "LGRP",
      "alert": "OK",
      "vis_m": 9999,
      "fzfg": false,
      "metar_trigger": false,
      "taf_trigger": false,
      "metar": "METAR LGRP 201320Z VRB01KT 9999 FEW015 SCT020 17/13 Q1016 NOSIG",
      "taf": "TAF LGRP 201100Z 2012/2112 VRB05KT 9999 SCT020"
    },
    {
      "icao": "LGTS",
      "alert": "OK",
      "vis_m": 9999,
      "fzfg": false,
      "metar_trigger": false,
      "taf_trigger": false,
      "metar": "METAR LGTS 201320Z VRB02KT 9999 FEW010 11/08 Q1019 NOSIG",
      "taf": "TAF LGTS 201100Z 2012/2112 VRB03KT 9999 FEW020"
    },
    {
      "icao": "LGZA",
      "alert": "OK",
      "vis_m": 9999,
      "fzfg": false,
      "metar_trigger": false,
      "taf_trigger": false,
      "metar": "METAR LGZA 201250Z 00000KT 9999 FEW020 BKN080 15/11 Q1015",
      "taf": "TAF LGZA 201100Z 2012/2021 08010KT 9999 SCT020 BKN080"
    },
    {
      "icao": "LHBP",
      "alert": "OK",
      "vis_m": 9999,
      "fzfg": false,
      "metar_trigger": false,
      "taf_trigger": false,
      "metar": "METAR LHBP 201300Z VRB02KT 9999 OVC012 06/04 Q1020 NOSIG",
      "taf": "TAF LHBP 201115Z 2012/2112 VRB03KT 9000 OVC016"
    },
    {
      "icao": "LHDC",
      "alert": "OK",
      "vis_m": 300,
      "fzfg": false,
      "metar_trigger": false,
      "taf_trigger": false,
      "metar": "METAR LHDC 201245Z AUTO 23004KT 190V250 0300 -DZ FG VV002 06/06 Q1020 NOSIG",
      "taf": "TAF LHDC 201115Z 2012/2021 22004KT 0200 FG VV001"
    },
    {
      "icao": "LIBD",
      "alert": "OK",
      "vis_m": 9999,
      "fzfg": false,
      "metar_trigger": false,
      "taf_trigger": false,
      "metar": "METAR LIBD 201320Z 31005KT 9999 SCT030 14/11 Q1016",
      "taf": "TAF LIBD 201100Z 2012/2112 VRB04KT 9999 SCT040"
    },
    {
      "icao": "LICC",
      "alert": "OK",
      "vis_m": 9999,
      "fzfg": false,
      "metar_trigger": false,
      "taf_trigger": false,
      "metar": "METAR LICC 201320Z 07009KT 9999 FEW030 16/16 Q1013",
      "taf": "TAF LICC 201100Z 2012/2112 08008KT 9999 SCT015 BKN040"
    },
    {
      "icao": "LICJ",
      "alert": "OK",
      "vis_m": 9999,
      "fzfg": false,
      "metar_trigger": false,
      "taf_trigger": false,
      "metar": "METAR LICJ 201320Z 05008KT CAVOK 18/12 Q1012",
      "taf": "TAF LICJ 201100Z 2012/2112 VRB05KT 9999 SCT040"
    },
    {
      "icao": "LIEO",
      "alert": "OK",
      "vis_m": 9999,
      "fzfg": false,
      "metar_trigger": false,
      "taf_trigger": false,
      "metar": "METAR LIEO 201320Z 05008KT 9999 SCT020 16/15 Q1014",
      "taf": "TAF LIEO 201100Z 2012/2112 06010KT 9999 SCT012"
    },
    {
      "icao": "LIMC",
      "alert": "OK",
      "vis_m": 6000,
      "fzfg": false,
      "metar_trigger": false,
      "taf_trigger": false,
      "metar": "METAR LIMC 201320Z 28003KT 230V330 6000 SCT010 SCT090 10/07 Q1019 NOSIG",
      "taf": "TAF LIMC 201100Z 2012/2118 VRB03KT 4000 -RA BR SCT012"
    },
    {
      "icao": "LIME",
      "alert": "OK",
      "vis_m": 9999,
      "fzfg": false,
      "metar_trigger": false,
      "taf_trigger": false,
      "metar": "METAR LIME 201320Z 24005KT 9999 SCT010 BKN070 10/07 Q1018 NOSIG",
      "taf": "TAF LIME 201100Z 2012/2112 VRB03KT 7000 BKN070"
    },
    {
      "icao": "LIPH",
      "alert": "OK",
      "vis_m": 9999,
      "fzfg": false,
      "metar_trigger": false,
      "taf_trigger": false,
      "metar": "METAR LIPH 201320Z 24004KT 190V300 CAVOK 11/07 Q1018",
      "taf": "TAF LIPH 201100Z 2012/2112 VRB04KT CAVOK"
    },
    {
      "icao": "LIPQ",
      "alert": "OK",
      "vis_m": 9999,
      "fzfg": false,
      "metar_trigger": false,
      "taf_trigger": false,
      "metar": "METAR LIPQ 201320Z AUTO 01005KT 9999 FEW240/// 13/07 Q1018",
      "taf": "TAF LIPQ 201100Z 2012/2112 VRB04KT CAVOK"
    },
    {
      "icao": "LIPX",
      "alert": "OK",
      "vis_m": 9999,
      "fzfg": false,
      "metar_trigger": false,
      "taf_trigger": false,
      "metar": "METAR LIPX 201320Z VRB02KT 9999 FEW065 11/06 Q1018",
      "taf": "TAF LIPX 201100Z 2012/2112 VRB03KT 6000 BKN060"
    },
    {
      "icao": "LIPY",
      "alert": "OK",
      "vis_m": 9999,
      "fzfg": false,
      "metar_trigger": false,
      "taf_trigger": false,
      "metar": "METAR LIPY 201320Z AUTO 33005KT 9999 OVC009/// 11/10 Q1018",
      "taf": "TAF LIPY 201100Z 2012/2112 VRB05KT 8000 OVC013"
    },
    {
      "icao": "LIPZ",
      "alert": "OK",
      "vis_m": 9999,
      "fzfg": false,
      "metar_trigger": false,
      "taf_trigger": false,
      "metar": "METAR LIPZ 201320Z 21006KT CAVOK 11/08 Q1018 NOSIG",
      "taf": "TAF LIPZ 201100Z 2012/2118 VRB04KT CAVOK"
    },
    {
      "icao": "LIRA",
      "alert": "OK",
      "vis_m": 9999,
      "fzfg": false,
      "metar_trigger": false,
      "taf_trigger": false,
      "metar": "METAR LIRA 201320Z 31003KT 280V360 CAVOK 16/05 Q1015",
      "taf": "TAF LIRA 201100Z 2012/2112 VRB05KT CAVOK"
    },
    {
      "icao": "LIRN",
      "alert": "OK",
      "vis_m": 9999,
      "fzfg": false,
      "metar_trigger": false,
      "taf_trigger": false,
      "metar": "METAR LIRN 201320Z 04006KT 010V080 CAVOK 17/07 Q1015 NOSIG",
      "taf": "TAF LIRN 201100Z 2012/2112 05007KT CAVOK"
    },
    {
      "icao": "LLBG",
      "alert": "OK",
      "vis_m": 9999,
      "fzfg": false,
      "metar_trigger": false,
      "taf_trigger": false,
      "metar": "METAR LLBG 201320Z VRB03KT 9999 FEW045 21/09 Q1017 NOSIG",
      "taf": "TAF LLBG 201103Z 2012/2112 33006KT 9999 SCT040"
    },
    {
      "icao": "LMML",
      "alert": "OK",
      "vis_m": 9999,
      "fzfg": false,
      "metar_trigger": false,
      "taf_trigger": false,
      "metar": "METAR LMML 201315Z 12007KT 9999 FEW015 17/13 Q1012 TEMPO 9000 SHRA FEW014TCU",
      "taf": "TAF LMML 201100Z 2012/2112 09010KT 9999 SCT015"
    },
    {
      "icao": "LOWW",
      "alert": "OK",
      "vis_m": 3200,
      "fzfg": false,
      "metar_trigger": false,
      "taf_trigger": false,
      "metar": "METAR LOWW 201320Z 10003KT 060V120 3200 BR FEW000 SCT001 BKN003 02/02 Q1020 TEMPO 6000",
      "taf": "TAF LOWW 201115Z 2012/2118 VRB03KT 4000 BR SCT002 BKN003 TX03/2118Z TN02/2106Z"
    },
    {
      "icao": "LPFR",
      "alert": "OK",
      "vis_m": 9999,
      "fzfg": false,
      "metar_trigger": false,
      "taf_trigger": false,
      "metar": "METAR LPFR 201300Z 25007KT 9999 FEW025 SCT048 15/10 Q1019",
      "taf": "TAF LPFR 201100Z 2012/2112 VRB02KT 9999 SCT030"
    },
    {
      "icao": "LPPR",
      "alert": "OK",
      "vis_m": 8000,
      "fzfg": false,
      "metar_trigger": false,
      "taf_trigger": false,
      "metar": "METAR LPPR 201300Z 17009KT 8000 RA FEW002 SCT014 BKN018 11/10 Q1013",
      "taf": "TAF LPPR 201100Z 2012/2112 21010KT 9999 SCT030"
    },
    {
      "icao": "LPPT",
      "alert": "OK",
      "vis_m": 8000,
      "fzfg": false,
      "metar_trigger": false,
      "taf_trigger": false,
      "metar": "METAR LPPT 201300Z 22011KT 8000 -RA SCT006 SCT022 BKN028 13/12 Q1016 RERA",
      "taf": "TAF LPPT 201100Z 2012/2118 23010KT 9999 BKN030"
    },
    {
      "icao": "LQSA",
      "alert": "OK",
      "vis_m": 3500,
      "fzfg": false,
      "metar_trigger": false,
      "taf_trigger": false,
      "metar": "METAR LQSA 201300Z VRB01KT 3500 BR BKN005 BKN025 03/03 Q1019 NOSIG",
      "taf": "TAF LQSA 201100Z 2012/2112 VRB02KT 2000 BR BKN004 BKN020 TX05/2013Z TNM01/2105Z"
    },
    {
      "icao": "LQTZ",
      "alert": "OK",
      "vis_m": 150,
      "fzfg": false,
      "metar_trigger": false,
      "taf_trigger": false,
      "metar": "METAR LQTZ 201300Z VRB03KT 0150 R09/0275N FG OVC001 03/03 Q1019",
      "taf": "TAF LQTZ 201100Z 2012/2112 VRB02KT 0400 FG VV002 TX05/2112Z TNM02/2106Z"
    },
    {
      "icao": "LRCL",
      "alert": "OK",
      "vis_m": 9999,
      "fzfg": false,
      "metar_trigger": false,
      "taf_trigger": false,
      "metar": "METAR LRCL 201300Z 06003KT CAVOK 07/04 Q1021",
      "taf": "TAF LRCL 201100Z 2012/2021 08007KT CAVOK"
    },
    {
      "icao": "LRCV",
      "alert": "OK",
      "vis_m": 9999,
      "fzfg": false,
      "metar_trigger": false,
      "taf_trigger": false,
      "metar": "METAR LRCV 201300Z 10008KT 9999 FEW043 07/04 Q1022",
      "taf": "TAF LRCV 201100Z 2012/2021 10007KT 9999 SCT040"
    },
    {
      "icao": "LRIA",
      "alert": "OK",
      "vis_m": 200,
      "fzfg": true,
      "metar_trigger": false,
      "taf_trigger": false,
      "metar": "METAR LRIA 201300Z 13008KT 0200 R14/0600D FG VV001 01/01 Q1023",
      "taf": "TAF LRIA 201100Z 2012/2021 12006KT 0150 FZFG VV001"
    },
    {
      "icao": "LROP",
      "alert": "OK",
      "vis_m": 3000,
      "fzfg": false,
      "metar_trigger": false,
      "taf_trigger": false,
      "metar": "METAR LROP 201300Z 05004KT 3000 BR BKN004 OVC007 05/04 Q1023 TEMPO 5000 OVC010",
      "taf": "TAF LROP 201100Z 2012/2112 VRB04KT 0800 FG OVC002"
    },
    {
      "icao": "LRSB",
      "alert": "OK",
      "vis_m": 9999,
      "fzfg": false,
      "metar_trigger": false,
      "taf_trigger": false,
      "metar": "METAR LRSB 201300Z VRB01KT CAVOK 09/03 Q1020 NOSIG",
      "taf": "TAF LRSB 201100Z 2012/2112 VRB04KT CAVOK"
    },
    {
      "icao": "LRTR",
      "alert": "OK",
      "vis_m": 9999,
      "fzfg": false,
      "metar_trigger": false,
      "taf_trigger": false,
      "metar": "METAR LRTR 201300Z 31003KT 280V340 CAVOK 12/05 Q1020 NOSIG",
      "taf": "TAF LRTR 201100Z 2012/2112 10005KT CAVOK"
    },
    {
      "icao": "LTAF",
      "alert": "OK",
      "vis_m": 9999,
      "fzfg": false,
      "metar_trigger": false,
      "taf_trigger": false,
      "metar": "METAR LTAF 201250Z VRB02KT CAVOK 19/09 Q1018 NOSIG RMK RWY23 VRB01KT 4CI200",
      "taf": "TAF LTAF 201040Z 2012/2112 01008KT CAVOK"
    },
    {
      "icao": "LTAI",
      "alert": "OK",
      "vis_m": 9999,
      "fzfg": false,
      "metar_trigger": false,
      "taf_trigger": false,
      "metar": "METAR LTAI 201250Z 08004KT 9999 FEW025 BKN180 17/09 Q1018 NOSIG RMK RWY18C 07003KT 020V100 RWY36R 05004KT 010V080 RWY18L 06003KT 020V090",
      "taf": "TAF LTAI 201040Z 2012/2112 12008KT 9999 SCT030 BKN100"
    },
    {
      "icao": "LTFM",
      "alert": "OK",
      "vis_m": 9999,
      "fzfg": false,
      "metar_trigger": false,
      "taf_trigger": false,
      "metar": "METAR LTFM 201250Z 03013KT 9999 BKN026 12/07 Q1019 NOSIG RMK RWY17L 03011KT RWY34L 02011KT RWY16R 03011KT RWY36 03014KT RWY18 04012KT",
      "taf": "TAF LTFM 201040Z 2012/2118 04012KT 9999 BKN026"
    },
    {
      "icao": "LUBL",
      "alert": "OK",
      "vis_m": null,
      "fzfg": false,
      "metar_trigger": false,
      "taf_trigger": false,
      "metar": "",
      "taf": ""
    },
    {
      "icao": "LUKK",
      "alert": "OK",
      "vis_m": 3400,
      "fzfg": false,
      "metar_trigger": false,
      "taf_trigger": false,
      "metar": "METAR LUKK 201300Z 11004KT 080V140 3400 BR OVC003 01/01 Q1024 NOSIG",
      "taf": "TAF LUKK 201122Z 2012/2112 VRB05KT 3000 BR OVC004"
    },
    {
      "icao": "LWSK",
      "alert": "OK",
      "vis_m": 200,
      "fzfg": false,
      "metar_trigger": false,
      "taf_trigger": false,
      "metar": "METAR LWSK 201320Z VRB01KT 0200 R34/0325N FG VV002 02/01 Q1019 NOSIG",
      "taf": ""
    },
    {
      "icao": "LYBE",
      "alert": "OK",
      "vis_m": 250,
      "fzfg": false,
      "metar_trigger": false,
      "taf_trigger": false,
      "metar": "METAR LYBE 201300Z 26004KT 200V300 0250 R12L/0350N R30R/0450N FG VV002 04/04 Q1020 NOSIG",
      "taf": "TAF LYBE 201100Z 2012/2112 26004KT 1500 BR NSC TX05/2013Z TN03/2106Z"
    },
    {
      "icao": "LZIB",
      "alert": "OK",
      "vis_m": 8000,
      "fzfg": false,
      "metar_trigger": false,
      "taf_trigger": false,
      "metar": "METAR LZIB 201300Z 14003KT 100V180 8000 FEW005 OVC006 05/04 Q1020 NOSIG",
      "taf": "TAF LZIB 201115Z 2012/2112 22004KT 4000 BR BKN008 OVC014"
    },
    {
      "icao": "LZKZ",
      "alert": "OK",
      "vis_m": 9999,
      "fzfg": false,
      "metar_trigger": false,
      "taf_trigger": false,
      "metar": "METAR LZKZ 201300Z 13003KT 9999 SCT013 BKN026 08/06 Q1020 NOSIG",
      "taf": ""
    },
    {
      "icao": "LZTT",
      "alert": "OK",
      "vis_m": 8000,
      "fzfg": false,
      "metar_trigger": false,
      "taf_trigger": false,
      "metar": "METAR LZTT 201300Z 01003KT 8000 OVC004 02/01 Q1019 NOSIG",
      "taf": "TAF LZTT 201115Z 2012/2112 VRB02KT 7000 BKN008 OVC014"
    },
    {
      "icao": "OEJN",
      "alert": "OK",
      "vis_m": 9999,
      "fzfg": false,
      "metar_trigger": false,
      "taf_trigger": false,
      "metar": "METAR OEJN 201300Z 03006KT CAVOK 30/02 Q1011 NOSIG",
      "taf": "TAF OEJN 201100Z 2012/2118 09014KT 7000 NSC"
    },
    {
      "icao": "OEMA",
      "alert": "OK",
      "vis_m": 9999,
      "fzfg": false,
      "metar_trigger": false,
      "taf_trigger": false,
      "metar": "METAR OEMA 201300Z 11006KT CAVOK 20/M12 Q1019 NOSIG",
      "taf": "TAF OEMA 201100Z 2012/2118 10008KT CAVOK"
    },
    {
      "icao": "OERK",
      "alert": "OK",
      "vis_m": 9999,
      "fzfg": false,
      "metar_trigger": false,
      "taf_trigger": false,
      "metar": "METAR OERK 201300Z 29009KT CAVOK 16/M03 Q1019 NOSIG",
      "taf": "TAF OERK 201100Z 2012/2118 33014KT 7000 NSC"
    },
    {
      "icao": "OJAI",
      "alert": "OK",
      "vis_m": 5000,
      "fzfg": false,
      "metar_trigger": false,
      "taf_trigger": false,
      "metar": "METAR OJAI 201300Z 16008KT 5000 HZ NSC 15/05 Q1019 NOSIG",
      "taf": "TAF OJAI 201100Z 2012/2118 13010KT 5000 HZ FEW035"
    },
    {
      "icao": "OKBK",
      "alert": "OK",
      "vis_m": null,
      "fzfg": false,
      "metar_trigger": false,
      "taf_trigger": false,
      "metar": "",
      "taf": ""
    },
    {
      "icao": "OMAA",
      "alert": "OK",
      "vis_m": 9999,
      "fzfg": false,
      "metar_trigger": false,
      "taf_trigger": false,
      "metar": "METAR OMAA 201300Z 24008KT 9999 FEW045 19/08 Q1016 NOSIG",
      "taf": "TAF OMAA 201100Z 2012/2118 27012KT 9999 FEW040"
    },
    {
      "icao": "UAAA",
      "alert": "OK",
      "vis_m": 5000,
      "fzfg": false,
      "metar_trigger": false,
      "taf_trigger": false,
      "metar": "METAR UAAA 201300Z 27002MPS 5000 BR OVC100 M02/M04 Q1014 NOSIG",
      "taf": "TAF UAAA 201105Z 2012/2112 32003MPS 1200 BR FU SCT005 BKN011 OVC050 TXM01/2100Z TNM05/2102Z"
    },
    {
      "icao": "UCFM",
      "alert": "OK",
      "vis_m": 1000,
      "fzfg": false,
      "metar_trigger": false,
      "taf_trigger": false,
      "metar": "METAR UCFM 201300Z 09003MPS 1000 0750E R07/P1500N BCFG NSC M03/M03 Q1015 NOSIG",
      "taf": "TAF UCFM 201046Z 2012/2112 25003MPS 1000 BR BKN003"
    },
    {
      "icao": "UDYZ",
      "alert": "OK",
      "vis_m": 9000,
      "fzfg": false,
      "metar_trigger": false,
      "taf_trigger": false,
      "metar": "METAR UDYZ 201300Z VRB01KT 9000 NSC 06/M05 Q1024 NOSIG",
      "taf": "TAF UDYZ 201100Z 2012/2112 VRB04KT 6000 NSC"
    },
    {
      "icao": "UGTB",
      "alert": "OK",
      "vis_m": 9999,
      "fzfg": false,
      "metar_trigger": false,
      "taf_trigger": false,
      "metar": "METAR UGTB 201300Z 17004KT CAVOK 07/M02 Q1022 NOSIG",
      "taf": "TAF UGTB 201100Z 2012/2112 VRB02KT CAVOK TX09/2012Z TNM03/2102Z"
    },
    {
      "icao": "UKKK",
      "alert": "OK",
      "vis_m": null,
      "fzfg": false,
      "metar_trigger": false,
      "taf_trigger": false,
      "metar": "",
      "taf": ""
    },
    {
      "icao": "UTTT",
      "alert": "OK",
      "vis_m": null,
      "fzfg": false,
      "metar_trigger": false,
      "taf_trigger": false,
      "metar": "",
      "taf": ""
    }
  ]
}