{
  "ts_utc": "2026-01-15T21:58:21Z",
  "threshold_m": 150,
  "source": "stations_override.txt (ICAO list) + aviationweather.gov (METAR/TAF raw)",
  "station_count": 159,
  "stations": [
    {
      "icao": "BIKF",
      "alert": "OK",
      "vis_m": 9999,
      "fzfg": false,
      "metar_trigger": false,
      "taf_trigger": false,
      "metar": "METAR BIKF 152130Z 01017KT CAVOK 01/M02 Q0992",
      "taf": "TAF BIKF 151953Z 1521/1621 02020KT 9999 FEW025 SCT040 TX02/1614Z TNM00/1621Z"
    },
    {
      "icao": "BKPR",
      "alert": "OK",
      "vis_m": null,
      "fzfg": false,
      "metar_trigger": false,
      "taf_trigger": false,
      "metar": "",
      "taf": "TAF BKPR 151730Z 1518/1618 VRB05KT 9999 SCT050"
    },
    {
      "icao": "EBCI",
      "alert": "OK",
      "vis_m": 9999,
      "fzfg": false,
      "metar_trigger": false,
      "taf_trigger": false,
      "metar": "METAR EBCI 152150Z 17012KT 130V190 9999 BKN040 11/06 Q1005 NOSIG",
      "taf": "TAF EBCI 151710Z 1518/1624 18012KT 9999 SCT030"
    },
    {
      "icao": "EDDB",
      "alert": "OK",
      "vis_m": 6000,
      "fzfg": false,
      "metar_trigger": false,
      "taf_trigger": false,
      "metar": "METAR EDDB 152150Z AUTO 15008KT 6000 2500 BR NCD 03/03 Q1016 TEMPO 2500 BR",
      "taf": "TAF EDDB 151700Z 1518/1618 14006KT 3000 BR SCT002"
    },
    {
      "icao": "EDDH",
      "alert": "OK",
      "vis_m": 9999,
      "fzfg": false,
      "metar_trigger": false,
      "taf_trigger": false,
      "metar": "METAR EDDH 152150Z AUTO 14010KT CAVOK 06/05 Q1010 NOSIG",
      "taf": "TAF EDDH 151700Z 1518/1624 15010KT 9999 BKN025"
    },
    {
      "icao": "EDDK",
      "alert": "OK",
      "vis_m": 9999,
      "fzfg": false,
      "metar_trigger": false,
      "taf_trigger": false,
      "metar": "METAR EDDK 152150Z AUTO 14011KT 9999 FEW047 10/06 Q1009 NOSIG",
      "taf": "TAF EDDK 151700Z 1518/1624 15011KT 9999 SCT030"
    },
    {
      "icao": "EDDN",
      "alert": "OK",
      "vis_m": 9999,
      "fzfg": false,
      "metar_trigger": false,
      "taf_trigger": false,
      "metar": "METAR EDDN 152150Z AUTO 11005KT CAVOK 02/00 Q1015",
      "taf": "TAF EDDN 151700Z 1518/1618 12007KT CAVOK"
    },
    {
      "icao": "EDDS",
      "alert": "OK",
      "vis_m": 9999,
      "fzfg": false,
      "metar_trigger": false,
      "taf_trigger": false,
      "metar": "METAR EDDS 152150Z AUTO 29006KT CAVOK 04/02 Q1013",
      "taf": "TAF EDDS 151700Z 1518/1618 VRB02KT CAVOK"
    },
    {
      "icao": "EDFH",
      "alert": "OK",
      "vis_m": 9999,
      "fzfg": false,
      "metar_trigger": false,
      "taf_trigger": false,
      "metar": "METAR EDFH 152150Z 16010KT 9999 FEW039 OVC045 06/05 Q1010",
      "taf": "TAF EDFH 151700Z 1518/1618 16011KT 9999 SCT030"
    },
    {
      "icao": "EDJA",
      "alert": "OK",
      "vis_m": 9999,
      "fzfg": false,
      "metar_trigger": false,
      "taf_trigger": false,
      "metar": "METAR EDJA 152150Z 09004KT CAVOK M01/M02 Q1013",
      "taf": "TAF EDJA 151700Z 1518/1603 VRB03KT CAVOK"
    },
    {
      "icao": "EDLW",
      "alert": "OK",
      "vis_m": 9999,
      "fzfg": false,
      "metar_trigger": false,
      "taf_trigger": false,
      "metar": "METAR EDLW 152150Z 17013KT CAVOK 10/05 Q1008",
      "taf": "TAF EDLW 151700Z 1518/1618 17012KT 9999 SCT030"
    },
    {
      "icao": "EDNY",
      "alert": "OK",
      "vis_m": 9999,
      "fzfg": false,
      "metar_trigger": false,
      "taf_trigger": false,
      "metar": "METAR EDNY 152150Z AUTO VRB01KT 9999 // NCD M00/M01 Q1013",
      "taf": "TAF EDNY 151700Z 1518/1603 05003KT CAVOK"
    },
    {
      "icao": "EDSB",
      "alert": "OK",
      "vis_m": 9999,
      "fzfg": false,
      "metar_trigger": false,
      "taf_trigger": false,
      "metar": "METAR EDSB 152150Z 18004KT CAVOK 04/03 Q1013",
      "taf": "TAF EDSB 151700Z 1518/1618 VRB02KT CAVOK"
    },
    {
      "icao": "EETN",
      "alert": "OK",
      "vis_m": 9999,
      "fzfg": false,
      "metar_trigger": false,
      "taf_trigger": false,
      "metar": "METAR EETN 152150Z 18012KT 9999 FEW008 OVC029 M07/M09 Q1024 TEMPO BKN008",
      "taf": "TAF EETN 151730Z 1518/1618 17012KT 9999 SCT008 BKN035"
    },
    {
      "icao": "EFTU",
      "alert": "OK",
      "vis_m": 8000,
      "fzfg": false,
      "metar_trigger": false,
      "taf_trigger": false,
      "metar": "METAR EFTU 152150Z AUTO 18009KT 8000 OVC002 01/01 Q1019 REDZ",
      "taf": "TAF EFTU 152139Z 1521/1621 17007KT 9000 -DZRA OVC003"
    },
    {
      "icao": "EGBB",
      "alert": "OK",
      "vis_m": 9999,
      "fzfg": false,
      "metar_trigger": false,
      "taf_trigger": false,
      "metar": "METAR EGBB 152150Z 27004KT 9999 BKN014 04/04 Q0998",
      "taf": ""
    },
    {
      "icao": "EGGP",
      "alert": "OK",
      "vis_m": 100,
      "fzfg": false,
      "metar_trigger": false,
      "taf_trigger": false,
      "metar": "METAR EGGP 152150Z VRB02KT 0100 R27/0500N FG VV/// 03/02 Q0998",
      "taf": "TAF EGGP 151659Z 1518/1618 VRB03KT 9999 FEW040"
    },
    {
      "icao": "EGGW",
      "alert": "OK",
      "vis_m": 9999,
      "fzfg": false,
      "metar_trigger": false,
      "taf_trigger": false,
      "metar": "METAR EGGW 152150Z AUTO 28009KT 9999 OVC007 05/04 Q0997",
      "taf": ""
    },
    {
      "icao": "EGKK",
      "alert": "OK",
      "vis_m": 9999,
      "fzfg": false,
      "metar_trigger": false,
      "taf_trigger": false,
      "metar": "METAR EGKK 152150Z 24005KT 9999 BKN010 07/06 Q0998",
      "taf": "TAF EGKK 151654Z 1518/1624 18015KT 9999 BKN015"
    },
    {
      "icao": "EGNM",
      "alert": "OK",
      "vis_m": 200,
      "fzfg": false,
      "metar_trigger": false,
      "taf_trigger": false,
      "metar": "METAR EGNM 152150Z 32002KT 0200 R32/0250N -DZ FG VV/// 04/04 Q0997",
      "taf": "TAF EGNM 151657Z 1518/1618 VRB03KT 9999 FEW010"
    },
    {
      "icao": "EGPD",
      "alert": "OK",
      "vis_m": 9999,
      "fzfg": false,
      "metar_trigger": false,
      "taf_trigger": false,
      "metar": "METAR EGPD 152150Z COR AUTO VRB01KT 9999 NCD M00/M01 Q0997 NOSIG",
      "taf": ""
    },
    {
      "icao": "EGPF",
      "alert": "OK",
      "vis_m": 9999,
      "fzfg": false,
      "metar_trigger": false,
      "taf_trigger": false,
      "metar": "METAR EGPF 152150Z AUTO 04004KT 9999 BKN026 00/M00 Q0998",
      "taf": "TAF EGPF 151656Z 1518/1618 21010KT 9999 FEW045"
    },
    {
      "icao": "EHBK",
      "alert": "OK",
      "vis_m": 9999,
      "fzfg": false,
      "metar_trigger": false,
      "taf_trigger": false,
      "metar": "METAR EHBK 152125Z AUTO 16012KT 9999 NSC 11/07 Q1007 NOSIG",
      "taf": "TAF EHBK 151707Z 1518/1624 16010KT CAVOK"
    },
    {
      "icao": "EHEH",
      "alert": "OK",
      "vis_m": 9999,
      "fzfg": false,
      "metar_trigger": false,
      "taf_trigger": false,
      "metar": "METAR EHEH 152125Z AUTO 16012KT 130V190 9999 FEW054 BKN065 BKN074 11/06 Q1005 BLU BECMG 17012G22KT RMK TREND REMOTE BY EHWX",
      "taf": "TAF EHEH 151736Z 1518/1624 16008KT CAVOK"
    },
    {
      "icao": "EKBI",
      "alert": "OK",
      "vis_m": 800,
      "fzfg": false,
      "metar_trigger": false,
      "taf_trigger": false,
      "metar": "METAR EKBI 152150Z AUTO 14008KT 0800 R09/P1500N R27/P1500D -DZ BCFG OVC002/// 05/05 Q1008",
      "taf": "TAF EKBI 152027Z 1521/1621 14008KT 0300 -RADZ FG OVC002"
    },
    {
      "icao": "EKCH",
      "alert": "OK",
      "vis_m": 4200,
      "fzfg": false,
      "metar_trigger": false,
      "taf_trigger": false,
      "metar": "METAR EKCH 152150Z 14009KT 4200 BR OVC004 04/03 Q1013 TEMPO 2000",
      "taf": "TAF EKCH 152027Z 1521/1621 15015KT 5000 OVC002"
    },
    {
      "icao": "ENAL",
      "alert": "OK",
      "vis_m": 9999,
      "fzfg": false,
      "metar_trigger": false,
      "taf_trigger": false,
      "metar": "METAR ENAL 152150Z AUTO 20011KT 9999 NCD 08/01 Q0999",
      "taf": "TAF ENAL 152000Z 1521/1606 17012KT 9999 SCT050"
    },
    {
      "icao": "ENBR",
      "alert": "OK",
      "vis_m": 9999,
      "fzfg": false,
      "metar_trigger": false,
      "taf_trigger": false,
      "metar": "METAR ENBR 152150Z 13011KT 9999 -SHRA BKN018 06/04 Q1002 RMK WIND 1200FT 15023KT",
      "taf": ""
    },
    {
      "icao": "ENGM",
      "alert": "OK",
      "vis_m": 3800,
      "fzfg": false,
      "metar_trigger": false,
      "taf_trigger": false,
      "metar": "METAR ENGM 152150Z 03004KT 360V090 3800 1400E -FZDZ BR OVC003 M01/M02 Q1009 TEMPO 1500 BR",
      "taf": ""
    },
    {
      "icao": "ENHD",
      "alert": "OK",
      "vis_m": 9999,
      "fzfg": false,
      "metar_trigger": false,
      "taf_trigger": false,
      "metar": "METAR ENHD 152150Z 14013KT 9999 SCT013 BKN020 OVC024 06/04 Q1003",
      "taf": "TAF ENHD 151400Z 1515/1523 13018KT 9999 -RA FEW015 BKN030"
    },
    {
      "icao": "ENTC",
      "alert": "OK",
      "vis_m": 9999,
      "fzfg": false,
      "metar_trigger": false,
      "taf_trigger": false,
      "metar": "METAR ENTC 152150Z 20017KT 9999 BKN044 M01/M07 Q1008 NOSIG RMK WIND 2600FT 17012KT",
      "taf": ""
    },
    {
      "icao": "ENTO",
      "alert": "OK",
      "vis_m": 1200,
      "fzfg": false,
      "metar_trigger": false,
      "taf_trigger": false,
      "metar": "METAR ENTO 152150Z AUTO 36003KT 1200 R18/P2000N R36/P2000N -SN VV002 00/00 Q1008",
      "taf": ""
    },
    {
      "icao": "ENVA",
      "alert": "OK",
      "vis_m": 9999,
      "fzfg": false,
      "metar_trigger": false,
      "taf_trigger": false,
      "metar": "METAR ENVA 152150Z 15011G24KT 110V210 CAVOK 04/M03 Q1002 RMK WIND 670FT 17027G40KT",
      "taf": "TAF ENVA 151700Z 1518/1618 12015KT 9999 FEW050"
    },
    {
      "icao": "ENZV",
      "alert": "OK",
      "vis_m": 9999,
      "fzfg": false,
      "metar_trigger": false,
      "taf_trigger": false,
      "metar": "METAR ENZV 152150Z 15012KT 9999 FEW033 05/03 Q1003",
      "taf": "TAF ENZV 151700Z 1518/1618 14015KT 9999 FEW020 BKN030"
    },
    {
      "icao": "EPGD",
      "alert": "OK",
      "vis_m": 3100,
      "fzfg": false,
      "metar_trigger": false,
      "taf_trigger": false,
      "metar": "METAR EPGD 152130Z 15010KT 3100 BR VV001 M02/M03 Q1020",
      "taf": ""
    },
    {
      "icao": "EPKK",
      "alert": "OK",
      "vis_m": 3500,
      "fzfg": false,
      "metar_trigger": false,
      "taf_trigger": false,
      "metar": "METAR EPKK 152130Z 06008KT 3500 BR OVC010 01/M00 Q1021",
      "taf": "TAF EPKK 152030Z 1521/1621 05005KT 4000 BR BKN010"
    },
    {
      "icao": "EPKT",
      "alert": "OK",
      "vis_m": 4800,
      "fzfg": false,
      "metar_trigger": false,
      "taf_trigger": false,
      "metar": "METAR EPKT 152130Z 11005KT 4800 BR SCT036 SCT045 01/00 Q1020",
      "taf": ""
    },
    {
      "icao": "EPLB",
      "alert": "OK",
      "vis_m": 3600,
      "fzfg": false,
      "metar_trigger": false,
      "taf_trigger": false,
      "metar": "METAR EPLB 152130Z 09006KT 3600 BR BKN005 OVC014 M04/M04 Q1025",
      "taf": ""
    },
    {
      "icao": "EPMO",
      "alert": "OK",
      "vis_m": 1600,
      "fzfg": false,
      "metar_trigger": false,
      "taf_trigger": false,
      "metar": "METAR EPMO 152130Z 09007KT 070V130 1600 BR OVC002 M02/M02 Q1023",
      "taf": ""
    },
    {
      "icao": "EPPO",
      "alert": "OK",
      "vis_m": 300,
      "fzfg": false,
      "metar_trigger": false,
      "taf_trigger": false,
      "metar": "METAR EPPO 152130Z 12008KT 0300 R28/1600U FG OVC001 01/01 Q1019",
      "taf": "TAF EPPO 151730Z 1518/1618 13007KT 2500 BR BKN003"
    },
    {
      "icao": "EPRA",
      "alert": "OK",
      "vis_m": 6000,
      "fzfg": false,
      "metar_trigger": false,
      "taf_trigger": false,
      "metar": "METAR EPRA 152130Z 13006KT 6000 BKN003 OVC023 M00/M01 Q1023",
      "taf": "TAF EPRA 152030Z 1521/1606 12006KT 7000 OVC006"
    },
    {
      "icao": "EPRZ",
      "alert": "OK",
      "vis_m": 150,
      "fzfg": true,
      "metar_trigger": false,
      "taf_trigger": false,
      "metar": "METAR EPRZ 152130Z 09008KT 0150 R27/0650N FZFG OVC002 M00/M00 Q1023",
      "taf": ""
    },
    {
      "icao": "EPSC",
      "alert": "OK",
      "vis_m": 3500,
      "fzfg": false,
      "metar_trigger": false,
      "taf_trigger": false,
      "metar": "METAR EPSC 152130Z 13011KT 3500 BR OVC004 02/02 Q1017",
      "taf": "TAF EPSC 151730Z 1518/1618 14010KT 6000 OVC005"
    },
    {
      "icao": "EPSY",
      "alert": "OK",
      "vis_m": 4000,
      "fzfg": false,
      "metar_trigger": false,
      "taf_trigger": false,
      "metar": "METAR EPSY 152130Z VRB02KT 4000 BR OVC028 M06/M07 Q1024",
      "taf": "TAF EPSY 152030Z 1521/1606 14006KT 3500 BR BKN030"
    },
    {
      "icao": "EPWA",
      "alert": "OK",
      "vis_m": 3900,
      "fzfg": false,
      "metar_trigger": false,
      "taf_trigger": false,
      "metar": "METAR EPWA 152130Z 11010KT 3900 BR OVC004 M02/M03 Q1023 NOSIG",
      "taf": "TAF EPWA 152030Z 1521/1621 12010KT 4500 BR BKN005"
    },
    {
      "icao": "EPWR",
      "alert": "OK",
      "vis_m": 3500,
      "fzfg": false,
      "metar_trigger": false,
      "taf_trigger": false,
      "metar": "METAR EPWR 152130Z 13005KT 3500 BR BKN049 02/02 Q1019",
      "taf": "TAF EPWR 152030Z 1521/1621 12006KT 4000 BR OVC035"
    },
    {
      "icao": "ESGG",
      "alert": "OK",
      "vis_m": 6000,
      "fzfg": false,
      "metar_trigger": false,
      "taf_trigger": false,
      "metar": "METAR ESGG 152150Z 16010KT 6000 OVC002 02/02 Q1011",
      "taf": ""
    },
    {
      "icao": "ESKN",
      "alert": "OK",
      "vis_m": 9999,
      "fzfg": false,
      "metar_trigger": false,
      "taf_trigger": false,
      "metar": "METAR ESKN 152150Z 16011KT 9999 -RA OVC008 02/01 Q1016",
      "taf": "TAF ESKN 152030Z 1521/1621 17014KT 9999 BKN005"
    },
    {
      "icao": "ESMS",
      "alert": "OK",
      "vis_m": 250,
      "fzfg": false,
      "metar_trigger": false,
      "taf_trigger": false,
      "metar": "METAR ESMS 152150Z 13008KT 0250 R17/1000N R35/0900N FG VV002 03/03 Q1014",
      "taf": "TAF ESMS 152027Z 1521/1621 14010KT 0200 FG OVC002"
    },
    {
      "icao": "ESSA",
      "alert": "OK",
      "vis_m": 9999,
      "fzfg": false,
      "metar_trigger": false,
      "taf_trigger": false,
      "metar": "METAR ESSA 152150Z 16009KT 9999 FEW014 BKN098 01/M00 Q1016 NOSIG",
      "taf": "TAF ESSA 152030Z 1521/1621 18014KT 9999 SCT003 OVC005"
    },
    {
      "icao": "EYKA",
      "alert": "OK",
      "vis_m": 7000,
      "fzfg": false,
      "metar_trigger": false,
      "taf_trigger": false,
      "metar": "METAR EYKA 152150Z 15007KT 7000 OVC019 M09/M11 Q1027",
      "taf": "TAF EYKA 151705Z 1518/1618 16010KT 9000 SCT010 OVC020"
    },
    {
      "icao": "EYPA",
      "alert": "OK",
      "vis_m": 8000,
      "fzfg": false,
      "metar_trigger": false,
      "taf_trigger": false,
      "metar": "METAR EYPA 152150Z 14012KT 8000 OVC034 M04/M06 Q1024",
      "taf": "TAF EYPA 151704Z 1518/1618 17012KT 8000 SCT010 OVC020"
    },
    {
      "icao": "EYVI",
      "alert": "OK",
      "vis_m": 9000,
      "fzfg": false,
      "metar_trigger": false,
      "taf_trigger": false,
      "metar": "METAR EYVI 152150Z 17008KT 9000 NSC M17/M19 Q1028 NOSIG",
      "taf": ""
    },
    {
      "icao": "GCFV",
      "alert": "OK",
      "vis_m": 9999,
      "fzfg": false,
      "metar_trigger": false,
      "taf_trigger": false,
      "metar": "METAR GCFV 152130Z 02014KT 9999 BKN035 18/09 Q1025",
      "taf": "TAF GCFV 152000Z 1521/1621 34006KT 9999 SCT030 TX22/1614Z TN14/1606Z"
    },
    {
      "icao": "GCLP",
      "alert": "OK",
      "vis_m": 9999,
      "fzfg": false,
      "metar_trigger": false,
      "taf_trigger": false,
      "metar": "METAR GCLP 152130Z 02015KT 9999 BKN038 18/09 Q1025 NOSIG",
      "taf": "TAF GCLP 152000Z 1521/1621 36013KT 9999 BKN030 TX22/1614Z TN15/1606Z"
    },
    {
      "icao": "GCTS",
      "alert": "OK",
      "vis_m": 9999,
      "fzfg": false,
      "metar_trigger": false,
      "taf_trigger": false,
      "metar": "METAR GCTS 152130Z 06011KT 9999 FEW040 17/09 Q1025 NOSIG",
      "taf": "TAF GCTS 152000Z 1521/1621 02005KT 9999 BKN030 TX22/1614Z TN13/1606Z"
    },
    {
      "icao": "GMAD",
      "alert": "OK",
      "vis_m": 9999,
      "fzfg": false,
      "metar_trigger": false,
      "taf_trigger": false,
      "metar": "METAR GMAD 152130Z 17007KT CAVOK 12/11 Q1022 NOSIG",
      "taf": "TAF GMAD 151700Z 1518/1624 26010KT 9999 FEW030"
    },
    {
      "icao": "GMMN",
      "alert": "OK",
      "vis_m": 9999,
      "fzfg": false,
      "metar_trigger": false,
      "taf_trigger": false,
      "metar": "METAR GMMN 152130Z 20005KT 9999 SCT020 SCT200 10/09 Q1023 NOSIG",
      "taf": "TAF GMMN 151700Z 1518/1624 32008KT 9999 BKN020 SCT200"
    },
    {
      "icao": "GMMX",
      "alert": "OK",
      "vis_m": 9999,
      "fzfg": false,
      "metar_trigger": false,
      "taf_trigger": false,
      "metar": "METAR GMMX 152130Z VRB02KT 9999 FEW030 11/08 Q1023 NOSIG",
      "taf": "TAF GMMX 151700Z 1518/1624 06006KT 8000 SCT026"
    },
    {
      "icao": "HEGN",
      "alert": "OK",
      "vis_m": 9999,
      "fzfg": false,
      "metar_trigger": false,
      "taf_trigger": false,
      "metar": "METAR HEGN 152100Z 29010KT CAVOK 15/05 Q1023 NOSIG",
      "taf": "TAF HEGN 151700Z 1518/1624 33010G20KT CAVOK"
    },
    {
      "icao": "HEMA",
      "alert": "OK",
      "vis_m": 9999,
      "fzfg": false,
      "metar_trigger": false,
      "taf_trigger": false,
      "metar": "METAR HEMA 152100Z 33008KT CAVOK 16/09 Q1021 NOSIG",
      "taf": "TAF HEMA 151700Z 1518/1624 34010G20KT 6000 SCT025"
    },
    {
      "icao": "HESH",
      "alert": "OK",
      "vis_m": 9999,
      "fzfg": false,
      "metar_trigger": false,
      "taf_trigger": false,
      "metar": "METAR HESH 152100Z 35014KT CAVOK 18/04 Q1022 NOSIG",
      "taf": "TAF HESH 151700Z 1518/1624 36015KT CAVOK"
    },
    {
      "icao": "HESX",
      "alert": "OK",
      "vis_m": 9999,
      "fzfg": false,
      "metar_trigger": false,
      "taf_trigger": false,
      "metar": "METAR HESX 152100Z 01005KT CAVOK 12/08 Q1025 NOSIG",
      "taf": "TAF HESX 151700Z 1518/1624 36006KT 9999 SCT020 BKN030"
    },
    {
      "icao": "LATI",
      "alert": "OK",
      "vis_m": 9999,
      "fzfg": false,
      "metar_trigger": false,
      "taf_trigger": false,
      "metar": "METAR LATI 152150Z 16003KT 9999 BKN068 09/05 Q1024 NOSIG",
      "taf": "TAF LATI 151700Z 1518/1618 VRB05KT 9999 SCT025 BKN070 TX16/1612Z TN07/1604Z"
    },
    {
      "icao": "LBPD",
      "alert": "OK",
      "vis_m": 9999,
      "fzfg": false,
      "metar_trigger": false,
      "taf_trigger": false,
      "metar": "METAR LBPD 152130Z AUTO 07004KT 9999 FEW240/// 04/01 Q1023",
      "taf": "TAF LBPD 151700Z 1518/1618 28010KT 9999 SCT070"
    },
    {
      "icao": "LBSF",
      "alert": "OK",
      "vis_m": 8000,
      "fzfg": false,
      "metar_trigger": false,
      "taf_trigger": false,
      "metar": "METAR LBSF 152130Z AUTO 17004KT 160V220 8000 BKN056/// 01/M01 Q1024 NOSIG",
      "taf": "TAF LBSF 151700Z 1518/1618 VRB03KT 9999 SCT060"
    },
    {
      "icao": "LBWN",
      "alert": "OK",
      "vis_m": 9000,
      "fzfg": false,
      "metar_trigger": false,
      "taf_trigger": false,
      "metar": "METAR LBWN 152130Z AUTO 08003KT 9000 -SHRA OVC031/// 04/01 Q1024 NOSIG",
      "taf": ""
    },
    {
      "icao": "LCLK",
      "alert": "OK",
      "vis_m": 9999,
      "fzfg": false,
      "metar_trigger": false,
      "taf_trigger": false,
      "metar": "METAR LCLK 152130Z 32005KT CAVOK 08/07 Q1024 NOSIG",
      "taf": "TAF LCLK 151730Z 1518/1618 31006KT 9999 FEW040 SCT050"
    },
    {
      "icao": "LCPH",
      "alert": "OK",
      "vis_m": 9999,
      "fzfg": false,
      "metar_trigger": false,
      "taf_trigger": false,
      "metar": "METAR LCPH 152130Z 02008KT 010V080 9999 FEW025 09/05 Q1024 NOSIG",
      "taf": "TAF LCPH 151730Z 1518/1618 02007KT 9999 FEW025 SCT040"
    },
    {
      "icao": "LEAL",
      "alert": "OK",
      "vis_m": 9999,
      "fzfg": false,
      "metar_trigger": false,
      "taf_trigger": false,
      "metar": "METAR LEAL 152130Z VRB01KT CAVOK 11/10 Q1017 NOSIG",
      "taf": "TAF LEAL 151700Z 1518/1618 VRB04KT CAVOK TX17/1613Z TN07/1606Z"
    },
    {
      "icao": "LEBB",
      "alert": "OK",
      "vis_m": 9999,
      "fzfg": false,
      "metar_trigger": false,
      "taf_trigger": false,
      "metar": "METAR LEBB 152130Z 23003KT 160V290 9999 FEW045 BKN058 12/06 Q1013 NOSIG",
      "taf": "TAF LEBB 151700Z 1518/1618 19009KT 9999 FEW025 BKN060 TX16/1612Z TN05/1607Z"
    },
    {
      "icao": "LEBL",
      "alert": "OK",
      "vis_m": 9000,
      "fzfg": false,
      "metar_trigger": false,
      "taf_trigger": false,
      "metar": "METAR LEBL 152130Z VRB02KT 9000 FEW015 09/06 Q1016 NOSIG",
      "taf": "TAF LEBL 151700Z 1518/1618 21010KT 9999 SCT015 TX14/1612Z TN06/1606Z"
    },
    {
      "icao": "LECH",
      "alert": "OK",
      "vis_m": 9000,
      "fzfg": false,
      "metar_trigger": false,
      "taf_trigger": false,
      "metar": "METAR LECH 152130Z AUTO 26004KT 9000 NCD 06/04 Q1016",
      "taf": ""
    },
    {
      "icao": "LEMD",
      "alert": "OK",
      "vis_m": 9999,
      "fzfg": false,
      "metar_trigger": false,
      "taf_trigger": false,
      "metar": "METAR LEMD 152130Z 17004KT 150V220 9999 RA FEW015 BKN028 OVC040 07/07 Q1016 NOSIG",
      "taf": "TAF LEMD 151700Z 1518/1624 22010KT 9999 SCT020 TX11/1615Z TN05/1607Z"
    },
    {
      "icao": "LEMG",
      "alert": "OK",
      "vis_m": 9999,
      "fzfg": false,
      "metar_trigger": false,
      "taf_trigger": false,
      "metar": "METAR LEMG 152130Z 30002KT 9999 FEW070 11/09 Q1019 NOSIG",
      "taf": "TAF LEMG 151700Z 1518/1618 29005KT 9999 FEW040 TX18/1614Z TN11/1607Z"
    },
    {
      "icao": "LEVC",
      "alert": "OK",
      "vis_m": 9999,
      "fzfg": false,
      "metar_trigger": false,
      "taf_trigger": false,
      "metar": "METAR LEVC 152130Z 23005KT CAVOK 10/05 Q1017 NOSIG",
      "taf": "TAF LEVC 151700Z 1518/1618 26005KT CAVOK TX15/1612Z TN06/1606Z"
    },
    {
      "icao": "LEXJ",
      "alert": "OK",
      "vis_m": 8000,
      "fzfg": false,
      "metar_trigger": false,
      "taf_trigger": false,
      "metar": "METAR LEXJ 152130Z 19004KT 8000 OVC040 11/09 Q1013",
      "taf": "TAF LEXJ 152000Z 1521/1621 20009KT 9999 SCT020 TX15/1614Z TN08/1608Z"
    },
    {
      "icao": "LEZG",
      "alert": "OK",
      "vis_m": 9999,
      "fzfg": false,
      "metar_trigger": false,
      "taf_trigger": false,
      "metar": "METAR LEZG 152130Z 24004KT 9999 -RA BKN040 09/08 Q1016 NOSIG",
      "taf": "TAF LEZG 151700Z 1518/1618 VRB04KT 9999 FEW020 TX13/1614Z TN05/1606Z"
    },
    {
      "icao": "LEZL",
      "alert": "OK",
      "vis_m": 8000,
      "fzfg": false,
      "metar_trigger": false,
      "taf_trigger": false,
      "metar": "METAR LEZL 152130Z 19005KT 8000 FEW035 BKN045 13/12 Q1019 NOSIG",
      "taf": "TAF LEZL 152000Z 1521/1621 VRB03KT CAVOK TX17/1614Z TN08/1607Z"
    },
    {
      "icao": "LFBD",
      "alert": "OK",
      "vis_m": 9999,
      "fzfg": false,
      "metar_trigger": false,
      "taf_trigger": false,
      "metar": "METAR LFBD 152130Z AUTO 20011KT 9999 SCT043 BKN058 OVC072 10/08 Q1011 TEMPO 4000 -RA BKN010 BKN040TCU",
      "taf": "TAF LFBD 151700Z 1518/1624 21010KT 9999 BKN040 TX11/1615Z TN05/1624Z"
    },
    {
      "icao": "LFLL",
      "alert": "OK",
      "vis_m": 9999,
      "fzfg": false,
      "metar_trigger": false,
      "taf_trigger": false,
      "metar": "METAR LFLL 152130Z 18015KT CAVOK 12/04 Q1013 NOSIG",
      "taf": "TAF LFLL 151700Z 1518/1624 18015G25KT 9999 FEW030"
    },
    {
      "icao": "LFLS",
      "alert": "OK",
      "vis_m": 9999,
      "fzfg": false,
      "metar_trigger": false,
      "taf_trigger": false,
      "metar": "METAR LFLS 152130Z AUTO 29005KT 230V320 9999 OVC058 08/04 Q1015",
      "taf": "TAF LFLS 151400Z 1515/1615 20010KT CAVOK"
    },
    {
      "icao": "LFMN",
      "alert": "OK",
      "vis_m": 9999,
      "fzfg": false,
      "metar_trigger": false,
      "taf_trigger": false,
      "metar": "METAR LFMN 152130Z 33006KT 9999 SCT020 BKN030 11/08 Q1020 NOSIG",
      "taf": "TAF LFMN 152000Z 1521/1703 VRB03KT 9999 SCT020 BKN030"
    },
    {
      "icao": "LFOB",
      "alert": "OK",
      "vis_m": 9999,
      "fzfg": false,
      "metar_trigger": false,
      "taf_trigger": false,
      "metar": "METAR LFOB 152130Z AUTO 18015KT 9999 -RA BKN021 BKN027 OVC033 10/08 Q1003 TEMPO 21020G30KT 3500 SHRA BKN009 OVC013",
      "taf": "TAF LFOB 151700Z 1518/1618 17010G20KT 9999 BKN030"
    },
    {
      "icao": "LFPO",
      "alert": "OK",
      "vis_m": 9999,
      "fzfg": false,
      "metar_trigger": false,
      "taf_trigger": false,
      "metar": "METAR LFPO 152130Z 20014KT 9999 -RA SCT031 BKN040 11/07 Q1006 TEMPO 21015G30KT",
      "taf": "TAF LFPO 151700Z 1518/1624 18010KT CAVOK"
    },
    {
      "icao": "LFSB",
      "alert": "OK",
      "vis_m": 9999,
      "fzfg": false,
      "metar_trigger": false,
      "taf_trigger": false,
      "metar": "METAR LFSB 152130Z AUTO 17006KT CAVOK 06/04 Q1013 NOSIG",
      "taf": "TAF LFSB 151700Z 1518/1618 12006KT CAVOK"
    },
    {
      "icao": "LGAV",
      "alert": "OK",
      "vis_m": 9999,
      "fzfg": false,
      "metar_trigger": false,
      "taf_trigger": false,
      "metar": "METAR LGAV 152150Z 29003KT 9999 FEW030 05/04 Q1024 NOSIG",
      "taf": "TAF LGAV 151700Z 1518/1618 VRB03KT 9999 SCT025"
    },
    {
      "icao": "LGTS",
      "alert": "OK",
      "vis_m": 9999,
      "fzfg": false,
      "metar_trigger": false,
      "taf_trigger": false,
      "metar": "METAR LGTS 152150Z 11006KT CAVOK 03/02 Q1024 NOSIG",
      "taf": "TAF LGTS 151700Z 1518/1618 VRB03KT 9999 FEW030"
    },
    {
      "icao": "LHBP",
      "alert": "OK",
      "vis_m": 6000,
      "fzfg": false,
      "metar_trigger": false,
      "taf_trigger": false,
      "metar": "METAR LHBP 152130Z 06003KT 010V080 6000 OVC015 M01/M02 Q1023 TEMPO OVC014",
      "taf": ""
    },
    {
      "icao": "LHDC",
      "alert": "OK",
      "vis_m": 3600,
      "fzfg": false,
      "metar_trigger": false,
      "taf_trigger": false,
      "metar": "METAR LHDC 152115Z AUTO 07005KT 3600 BR OVC003 01/00 Q1024",
      "taf": "TAF LHDC 151415Z 1515/1524 VRB03KT 5000 BR SCT004 OVC040"
    },
    {
      "icao": "LIBD",
      "alert": "OK",
      "vis_m": 9999,
      "fzfg": false,
      "metar_trigger": false,
      "taf_trigger": false,
      "metar": "METAR LIBD 152150Z 21007KT CAVOK 06/05 Q1022",
      "taf": "TAF LIBD 151700Z 1518/1618 VRB05KT 9999 FEW030"
    },
    {
      "icao": "LIBG",
      "alert": "OK",
      "vis_m": null,
      "fzfg": false,
      "metar_trigger": false,
      "taf_trigger": false,
      "metar": "",
      "taf": "TAF LIBG 151700Z 1518/1603 VRB05KT 8000 FEW025"
    },
    {
      "icao": "LIBP",
      "alert": "OK",
      "vis_m": 9999,
      "fzfg": false,
      "metar_trigger": false,
      "taf_trigger": false,
      "metar": "METAR LIBP 152150Z AUTO VRB01KT 9999 NCD 04/04 Q1022",
      "taf": "TAF LIBP 151700Z 1518/1618 VRB05KT CAVOK"
    },
    {
      "icao": "LIBR",
      "alert": "OK",
      "vis_m": 7000,
      "fzfg": false,
      "metar_trigger": false,
      "taf_trigger": false,
      "metar": "METAR LIBR 152150Z 24003KT 7000 SCT030 09/08 Q1022",
      "taf": "TAF LIBR 151700Z 1518/1618 VRB05KT 9999 FEW025"
    },
    {
      "icao": "LICA",
      "alert": "OK",
      "vis_m": 9999,
      "fzfg": false,
      "metar_trigger": false,
      "taf_trigger": false,
      "metar": "METAR LICA 152150Z AUTO 08007KT 9999 NCD 07/06 Q1022",
      "taf": "TAF LICA 151700Z 1518/1618 VRB05KT CAVOK"
    },
    {
      "icao": "LICC",
      "alert": "OK",
      "vis_m": 9999,
      "fzfg": false,
      "metar_trigger": false,
      "taf_trigger": false,
      "metar": "METAR LICC 152150Z VRB02KT CAVOK 11/07 Q1022",
      "taf": "TAF LICC 151700Z 1518/1618 VRB05KT 9999 SCT040"
    },
    {
      "icao": "LICJ",
      "alert": "OK",
      "vis_m": 9999,
      "fzfg": false,
      "metar_trigger": false,
      "taf_trigger": false,
      "metar": "METAR LICJ 152150Z 15003KT CAVOK 11/08 Q1020",
      "taf": "TAF LICJ 151700Z 1518/1618 05010KT CAVOK"
    },
    {
      "icao": "LIMC",
      "alert": "OK",
      "vis_m": 1500,
      "fzfg": false,
      "metar_trigger": false,
      "taf_trigger": false,
      "metar": "METAR LIMC 152150Z VRB01KT 1500 -RA BCFG OVC004 06/06 Q1022 NOSIG",
      "taf": ""
    },
    {
      "icao": "LIME",
      "alert": "OK",
      "vis_m": 1000,
      "fzfg": false,
      "metar_trigger": false,
      "taf_trigger": false,
      "metar": "METAR LIME 152150Z 02004KT 1000 R28/1700U BR BKN015 04/04 Q1022 NOSIG",
      "taf": "TAF LIME 151700Z 1518/1618 VRB04KT 2000 BR BKN013"
    },
    {
      "icao": "LIMF",
      "alert": "OK",
      "vis_m": 6000,
      "fzfg": false,
      "metar_trigger": false,
      "taf_trigger": false,
      "metar": "METAR LIMF 152150Z 04001KT 6000 SCT025 BKN055 05/02 Q1022",
      "taf": "TAF LIMF 151700Z 1518/1618 VRB03KT 6000 SCT020"
    },
    {
      "icao": "LIMJ",
      "alert": "OK",
      "vis_m": 9999,
      "fzfg": false,
      "metar_trigger": false,
      "taf_trigger": false,
      "metar": "METAR LIMJ 152150Z 07011KT 9999 -DZ SCT024 BKN030 11/07 Q1020",
      "taf": "TAF LIMJ 151700Z 1518/1618 04010KT 9999 SCT020 SCT050"
    },
    {
      "icao": "LIPE",
      "alert": "OK",
      "vis_m": 1500,
      "fzfg": false,
      "metar_trigger": false,
      "taf_trigger": false,
      "metar": "METAR LIPE 152150Z 13002KT 1500 BR BKN015 06/06 Q1022",
      "taf": "TAF LIPE 151700Z 1518/1618 VRB04KT 3000 BR BKN040"
    },
    {
      "icao": "LIPH",
      "alert": "OK",
      "vis_m": 8000,
      "fzfg": false,
      "metar_trigger": false,
      "taf_trigger": false,
      "metar": "METAR LIPH 152150Z VRB02KT 8000 FEW020 04/03 Q1022",
      "taf": "TAF LIPH 151700Z 1518/1618 VRB04KT 6000 SCT040"
    },
    {
      "icao": "LIPQ",
      "alert": "OK",
      "vis_m": 2200,
      "fzfg": false,
      "metar_trigger": false,
      "taf_trigger": false,
      "metar": "METAR LIPQ 152150Z AUTO 31003KT 2200 BR OVC018/// 08/07 Q1022",
      "taf": "TAF LIPQ 151700Z 1518/1618 VRB04KT 3000 BR BKN035"
    },
    {
      "icao": "LIPR",
      "alert": "OK",
      "vis_m": 2500,
      "fzfg": false,
      "metar_trigger": false,
      "taf_trigger": false,
      "metar": "METAR LIPR 152150Z 29002KT 2500 BR BKN004 07/06 Q1022",
      "taf": "TAF LIPR 151700Z 1518/1618 VRB04KT 3000 BR SCT020"
    },
    {
      "icao": "LIPX",
      "alert": "OK",
      "vis_m": 5000,
      "fzfg": false,
      "metar_trigger": false,
      "taf_trigger": false,
      "metar": "METAR LIPX 152150Z 01004KT 5000 BR FEW020 BKN060 05/04 Q1022",
      "taf": "TAF LIPX 151700Z 1518/1618 VRB04KT 4000 BR BKN040"
    },
    {
      "icao": "LIPY",
      "alert": "OK",
      "vis_m": 1900,
      "fzfg": false,
      "metar_trigger": false,
      "taf_trigger": false,
      "metar": "METAR LIPY 152150Z AUTO VRB01KT 1900 BR BKN004/// OVC085/// 08/08 Q1022",
      "taf": "TAF LIPY 151700Z 1518/1618 VRB05KT 7000 SCT060"
    },
    {
      "icao": "LIPZ",
      "alert": "OK",
      "vis_m": 8000,
      "fzfg": false,
      "metar_trigger": false,
      "taf_trigger": false,
      "metar": "METAR LIPZ 152150Z VRB02KT 8000 SCT025 07/05 Q1022 NOSIG",
      "taf": "TAF LIPZ 151700Z 1518/1624 VRB04KT 6000 SCT040"
    },
    {
      "icao": "LIRF",
      "alert": "OK",
      "vis_m": 9999,
      "fzfg": false,
      "metar_trigger": false,
      "taf_trigger": false,
      "metar": "METAR LIRF 152150Z 09007KT CAVOK 11/09 Q1022 NOSIG",
      "taf": "TAF LIRF 151700Z 1518/1624 15012KT 9999 SCT050"
    },
    {
      "icao": "LIRN",
      "alert": "OK",
      "vis_m": 9999,
      "fzfg": false,
      "metar_trigger": false,
      "taf_trigger": false,
      "metar": "METAR LIRN 152150Z VRB01KT CAVOK 09/06 Q1022 NOSIG",
      "taf": "TAF LIRN 151700Z 1518/1618 VRB05KT CAVOK"
    },
    {
      "icao": "LIRP",
      "alert": "OK",
      "vis_m": 9999,
      "fzfg": false,
      "metar_trigger": false,
      "taf_trigger": false,
      "metar": "METAR LIRP 152145Z VRB03KT 9999 BKN020 08/08 Q1021 NOSIG",
      "taf": "TAF LIRP 151700Z 1518/1618 12005KT 9999 SCT020 SCT030"
    },
    {
      "icao": "LIRZ",
      "alert": "OK",
      "vis_m": 9999,
      "fzfg": false,
      "metar_trigger": false,
      "taf_trigger": false,
      "metar": "METAR LIRZ 152150Z AUTO VRB01KT 9999 OVC034/// 10/08 Q1022",
      "taf": "TAF LIRZ 151700Z 1518/1618 VRB05KT 9999 SCT040 BKN070"
    },
    {
      "icao": "LJLJ",
      "alert": "OK",
      "vis_m": 9999,
      "fzfg": false,
      "metar_trigger": false,
      "taf_trigger": false,
      "metar": "METAR LJLJ 152130Z 30005KT 9999 FEW003 BKN047 02/01 Q1021 NOSIG",
      "taf": "TAF LJLJ 151700Z 1518/1618 30003KT 9999 FEW030 BKN045"
    },
    {
      "icao": "LKMT",
      "alert": "OK",
      "vis_m": 4500,
      "fzfg": false,
      "metar_trigger": false,
      "taf_trigger": false,
      "metar": "METAR LKMT 152130Z 23010KT 4500 BR BKN043 01/01 Q1020 NOSIG",
      "taf": "TAF LKMT 151700Z 1518/1618 22008KT 4500 BR BKN045"
    },
    {
      "icao": "LKPR",
      "alert": "OK",
      "vis_m": 150,
      "fzfg": false,
      "metar_trigger": false,
      "taf_trigger": false,
      "metar": "METAR LKPR 152130Z 31004KT 270V350 0150 R24/0400N R30/0375N FG VV001 00/00 Q1018 NOSIG",
      "taf": "TAF LKPR 152000Z 1521/1703 VRB02KT 0200 FG VV001"
    },
    {
      "icao": "LLBG",
      "alert": "OK",
      "vis_m": 9999,
      "fzfg": false,
      "metar_trigger": false,
      "taf_trigger": false,
      "metar": "METAR LLBG 152150Z VRB01KT CAVOK 10/07 Q1024 NOSIG",
      "taf": "TAF LLBG 151704Z 1518/1618 VRB03KT 9999 SCT045"
    },
    {
      "icao": "LMML",
      "alert": "OK",
      "vis_m": 9999,
      "fzfg": false,
      "metar_trigger": false,
      "taf_trigger": false,
      "metar": "METAR LMML 152145Z 13012KT CAVOK 15/13 Q1021 NOSIG",
      "taf": "TAF LMML 151700Z 1518/1618 14010KT 9999 FEW017"
    },
    {
      "icao": "LOWW",
      "alert": "OK",
      "vis_m": 550,
      "fzfg": true,
      "metar_trigger": false,
      "taf_trigger": false,
      "metar": "METAR LOWW 152150Z 15005KT 0550 R16/0600N R29/0600N FZFG VV001 M01/M01 Q1022 TEMPO 0600 FZFG TEMPO FM2300 -FZDZ",
      "taf": "TAF LOWW 152015Z 1521/1703 14006KT 0800 BCFG FEW001 BKN002 TX01/1702Z TNM01/1521Z"
    },
    {
      "icao": "LPFR",
      "alert": "OK",
      "vis_m": 9999,
      "fzfg": false,
      "metar_trigger": false,
      "taf_trigger": false,
      "metar": "METAR LPFR 152130Z 22015KT 9999 FEW008 BKN018 15/13 Q1017",
      "taf": "TAF LPFR 151700Z 1518/1618 24013KT 9999 SCT012 BKN025"
    },
    {
      "icao": "LPMA",
      "alert": "OK",
      "vis_m": 9999,
      "fzfg": false,
      "metar_trigger": false,
      "taf_trigger": false,
      "metar": "METAR LPMA 152130Z 27005KT 9999 FEW015 16/10 Q1025",
      "taf": "TAF LPMA 151700Z 1518/1618 18005KT 9999 SCT012 BKN025"
    },
    {
      "icao": "LPPR",
      "alert": "OK",
      "vis_m": 6000,
      "fzfg": false,
      "metar_trigger": false,
      "taf_trigger": false,
      "metar": "METAR LPPR 152130Z 12003KT 6000 FEW030 SCT035 09/09 Q1015",
      "taf": ""
    },
    {
      "icao": "LPPS",
      "alert": "OK",
      "vis_m": 9999,
      "fzfg": false,
      "metar_trigger": false,
      "taf_trigger": false,
      "metar": "METAR LPPS 152130Z 28011KT 9999 SCT014 17/14 Q1024",
      "taf": "TAF LPPS 151700Z 1518/1624 27012KT 9999 SCT015 BKN030"
    },
    {
      "icao": "LPPT",
      "alert": "OK",
      "vis_m": 9999,
      "fzfg": false,
      "metar_trigger": false,
      "taf_trigger": false,
      "metar": "METAR LPPT 152130Z 32007KT 290V350 9999 FEW010 12/11 Q1016",
      "taf": "TAF LPPT 151700Z 1518/1624 22015KT 2000 RADZ BR SCT002 BKN004"
    },
    {
      "icao": "LQBK",
      "alert": "OK",
      "vis_m": 9999,
      "fzfg": false,
      "metar_trigger": false,
      "taf_trigger": false,
      "metar": "METAR LQBK 152130Z 12004KT CAVOK 04/02 Q1021 NOSIG",
      "taf": "TAF LQBK 151700Z 1518/1618 15005KT 9999 SCT047 TX08/1613Z TN02/1605Z"
    },
    {
      "icao": "LQSA",
      "alert": "OK",
      "vis_m": 2500,
      "fzfg": true,
      "metar_trigger": false,
      "taf_trigger": false,
      "metar": "METAR LQSA 152130Z VRB01KT 2500 BR BKN055 01/01 Q1023 TEMPO 0800 FZFG",
      "taf": "TAF LQSA 151700Z 1518/1618 VRB02KT 8000 FEW012 SCT050 TX04/1614Z TNM03/1605Z"
    },
    {
      "icao": "LQTZ",
      "alert": "OK",
      "vis_m": 5000,
      "fzfg": false,
      "metar_trigger": false,
      "taf_trigger": false,
      "metar": "METAR LQTZ 152130Z VRB02KT 5000 BR SCT060 02/02 Q1022",
      "taf": "TAF LQTZ 151700Z 1518/1618 VRB02KT 6000 BKN050 TX09/1613Z TN00/1605Z"
    },
    {
      "icao": "LRBC",
      "alert": "OK",
      "vis_m": 5000,
      "fzfg": false,
      "metar_trigger": false,
      "taf_trigger": false,
      "metar": "METAR LRBC 152130Z 34006KT 5000 BR OVC011 M04/M06 Q1026",
      "taf": "TAF LRBC 152000Z 1521/1606 VRB04KT 5000 BR OVC010"
    },
    {
      "icao": "LRBS",
      "alert": "OK",
      "vis_m": 3000,
      "fzfg": false,
      "metar_trigger": false,
      "taf_trigger": false,
      "metar": "METAR LRBS 152130Z 05007KT 3000 BR NSC M01/M02 Q1025 NOSIG",
      "taf": "TAF LRBS 151700Z 1518/1618 06007KT 5000 BR NSC"
    },
    {
      "icao": "LRBV",
      "alert": "OK",
      "vis_m": 1100,
      "fzfg": false,
      "metar_trigger": false,
      "taf_trigger": false,
      "metar": "METAR LRBV 152130Z AUTO 17001KT 1100 0900 R21/1200N UP OVC005/// 01/00 Q1023",
      "taf": "TAF LRBV 152000Z 1521/1606 VRB04KT 5000 BR BKN005 OVC010"
    },
    {
      "icao": "LRCL",
      "alert": "OK",
      "vis_m": 3500,
      "fzfg": false,
      "metar_trigger": false,
      "taf_trigger": false,
      "metar": "METAR LRCL 152130Z 02001KT 3500 BR OVC005 01/00 Q1024",
      "taf": "TAF LRCL 152000Z 1521/1606 VRB04KT 2000 -DZ BR OVC005"
    },
    {
      "icao": "LRCV",
      "alert": "OK",
      "vis_m": 4000,
      "fzfg": false,
      "metar_trigger": false,
      "taf_trigger": false,
      "metar": "METAR LRCV 152130Z 09008KT 4000 BR NSC M01/M01 Q1024",
      "taf": "TAF LRCV 152000Z 1521/1606 10010KT 5000 BR NSC"
    },
    {
      "icao": "LRIA",
      "alert": "OK",
      "vis_m": 9000,
      "fzfg": false,
      "metar_trigger": false,
      "taf_trigger": false,
      "metar": "METAR LRIA 152130Z 02006KT 9000 -SN SCT009 OVC037 M06/M08 Q1028",
      "taf": "TAF LRIA 152000Z 1521/1606 02006KT 5000 BR SCT010 OVC035"
    },
    {
      "icao": "LROP",
      "alert": "OK",
      "vis_m": 3500,
      "fzfg": false,
      "metar_trigger": false,
      "taf_trigger": false,
      "metar": "METAR LROP 152130Z 05010KT 3500 BR NSC M01/M02 Q1025 NOSIG",
      "taf": "TAF LROP 151700Z 1518/1618 06007KT 5000 BR NSC"
    },
    {
      "icao": "LRSB",
      "alert": "OK",
      "vis_m": 550,
      "fzfg": false,
      "metar_trigger": false,
      "taf_trigger": false,
      "metar": "METAR LRSB 152130Z VRB02KT 0550 R27/0900D FG OVC002 01/01 Q1023",
      "taf": "TAF LRSB 151700Z 1518/1618 VRB04KT 1500 BR BKN005 OVC010"
    },
    {
      "icao": "LRSM",
      "alert": "OK",
      "vis_m": 6000,
      "fzfg": false,
      "metar_trigger": false,
      "taf_trigger": false,
      "metar": "METAR LRSM 152130Z AUTO 09002KT 6000 BKN014/// BKN050/// 00/M01 Q1024",
      "taf": "TAF LRSM 151400Z 1515/1524 VRB04KT 5000 BR BKN005"
    },
    {
      "icao": "LRSV",
      "alert": "OK",
      "vis_m": 2000,
      "fzfg": false,
      "metar_trigger": false,
      "taf_trigger": false,
      "metar": "METAR LRSV 152130Z 07007KT 2000 BR OVC002 M08/M09 Q1024",
      "taf": "TAF LRSV 152000Z 1521/1606 08007KT 1500 BR BKN002"
    },
    {
      "icao": "LRTM",
      "alert": "OK",
      "vis_m": 2500,
      "fzfg": false,
      "metar_trigger": false,
      "taf_trigger": false,
      "metar": "METAR LRTM 152130Z AUTO 07003KT 2500 BR FEW006/// SCT010/// BKN015/// 00/M00 Q1024",
      "taf": "TAF LRTM 151400Z 1515/1524 VRB04KT 3000 BR SCT010 BKN030"
    },
    {
      "icao": "LRTR",
      "alert": "OK",
      "vis_m": 4000,
      "fzfg": false,
      "metar_trigger": false,
      "taf_trigger": false,
      "metar": "METAR LRTR 152130Z 11007KT 4000 BR BKN042 01/01 Q1023",
      "taf": "TAF LRTR 151700Z 1518/1618 10006KT 5000 BR NSC"
    },
    {
      "icao": "LTAC",
      "alert": "OK",
      "vis_m": 9999,
      "fzfg": false,
      "metar_trigger": false,
      "taf_trigger": false,
      "metar": "METAR LTAC 152150Z 23007KT 9999 SCT015 SCT030 BKN080 02/M01 Q1022 NOSIG",
      "taf": "TAF LTAC 151640Z 1518/1618 22008KT 9999 SCT035 BKN100"
    },
    {
      "icao": "LTFM",
      "alert": "OK",
      "vis_m": 9999,
      "fzfg": false,
      "metar_trigger": false,
      "taf_trigger": false,
      "metar": "METAR LTFM 152150Z 22008KT 9999 SCT025 BKN070 09/07 Q1023 NOSIG",
      "taf": "TAF LTFM 151640Z 1518/1624 23012KT 9999 FEW025 BKN070"
    },
    {
      "icao": "LUKK",
      "alert": "OK",
      "vis_m": 9999,
      "fzfg": false,
      "metar_trigger": false,
      "taf_trigger": false,
      "metar": "METAR LUKK 152130Z 02008KT CAVOK M12/M15 Q1028 NOSIG",
      "taf": "TAF LUKK 151717Z 1518/1618 01009KT CAVOK"
    },
    {
      "icao": "LWOH",
      "alert": "OK",
      "vis_m": null,
      "fzfg": false,
      "metar_trigger": false,
      "taf_trigger": false,
      "metar": "",
      "taf": "TAF LWOH 152025Z 1521/1621 VRB02KT 9999 FEW040"
    },
    {
      "icao": "LWSK",
      "alert": "OK",
      "vis_m": 7000,
      "fzfg": false,
      "metar_trigger": false,
      "taf_trigger": false,
      "metar": "METAR LWSK 152150Z 01003KT 7000 NSC M01/M02 Q1025 NOSIG",
      "taf": "TAF LWSK 152025Z 1521/1621 VRB02KT CAVOK"
    },
    {
      "icao": "LYBE",
      "alert": "OK",
      "vis_m": 8000,
      "fzfg": false,
      "metar_trigger": false,
      "taf_trigger": false,
      "metar": "METAR LYBE 152130Z 34003KT 330V030 8000 NSC 04/02 Q1022 NOSIG",
      "taf": "TAF LYBE 151700Z 1518/1618 06004KT 8000 NSC TX08/1613Z TN02/1606Z"
    },
    {
      "icao": "LYNI",
      "alert": "OK",
      "vis_m": 9999,
      "fzfg": false,
      "metar_trigger": false,
      "taf_trigger": false,
      "metar": "METAR LYNI 152130Z 11003KT 9999 BKN067 06/04 Q1024 NOSIG",
      "taf": "TAF LYNI 151700Z 1518/1618 11004KT 6000 BKN060 TX07/1612Z TN01/1606Z"
    },
    {
      "icao": "LYPG",
      "alert": "OK",
      "vis_m": 9999,
      "fzfg": false,
      "metar_trigger": false,
      "taf_trigger": false,
      "metar": "METAR LYPG 152130Z 04003KT 9999 SCT050 SCT070 08/06 Q1024 NOSIG",
      "taf": "TAF LYPG 151700Z 1518/1618 VRB02KT 9999 SCT040 BKN080 TX14/1613Z TN05/1605Z"
    },
    {
      "icao": "LZIB",
      "alert": "OK",
      "vis_m": 1400,
      "fzfg": true,
      "metar_trigger": false,
      "taf_trigger": false,
      "metar": "METAR LZIB 152130Z 04007KT 1400 R31/1800U R22/P2000N -FZDZ BR SCT001 OVC002 M00/M01 Q1022 TEMPO 0500 FZFG",
      "taf": ""
    },
    {
      "icao": "LZKZ",
      "alert": "OK",
      "vis_m": 5000,
      "fzfg": false,
      "metar_trigger": false,
      "taf_trigger": false,
      "metar": "METAR LZKZ 152130Z 07001KT 5000 BR OVC024 M00/M02 Q1023 NOSIG",
      "taf": "TAF LZKZ 151715Z 1518/1618 VRB02KT 9999 BKN022"
    },
    {
      "icao": "LZTT",
      "alert": "OK",
      "vis_m": 8000,
      "fzfg": false,
      "metar_trigger": false,
      "taf_trigger": false,
      "metar": "METAR LZTT 152130Z VRB01KT 8000 FEW007 BKN013 00/M01 Q1020",
      "taf": "TAF LZTT 151715Z 1518/1618 VRB02KT 9999 SCT010 OVC025"
    },
    {
      "icao": "OEJN",
      "alert": "OK",
      "vis_m": 9999,
      "fzfg": false,
      "metar_trigger": false,
      "taf_trigger": false,
      "metar": "METAR OEJN 152100Z 35003KT 9999 FEW040 23/12 Q1015 NOSIG",
      "taf": "TAF OEJN 151700Z 1518/1624 34010KT 7000 FEW040"
    },
    {
      "icao": "OEMA",
      "alert": "OK",
      "vis_m": 9999,
      "fzfg": false,
      "metar_trigger": false,
      "taf_trigger": false,
      "metar": "METAR OEMA 152100Z VRB02KT CAVOK 16/M04 Q1023 NOSIG",
      "taf": "TAF OEMA 151700Z 1518/1624 09012KT 7000 NSC"
    },
    {
      "icao": "OJAI",
      "alert": "OK",
      "vis_m": 3000,
      "fzfg": false,
      "metar_trigger": false,
      "taf_trigger": false,
      "metar": "METAR OJAI 152100Z 05002KT 3000 BR NSC 04/03 Q1025 NOSIG",
      "taf": "TAF OJAI 151653Z 1518/1624 29008KT 5000 HZ FEW030"
    },
    {
      "icao": "OMAA",
      "alert": "OK",
      "vis_m": 9999,
      "fzfg": false,
      "metar_trigger": false,
      "taf_trigger": false,
      "metar": "METAR OMAA 152100Z 30007KT CAVOK 20/12 Q1018 NOSIG",
      "taf": "TAF OMAA 151700Z 1518/1700 32012KT 8000 FEW030"
    },
    {
      "icao": "OMDB",
      "alert": "OK",
      "vis_m": 9999,
      "fzfg": false,
      "metar_trigger": false,
      "taf_trigger": false,
      "metar": "METAR OMDB 152130Z 28010KT 240V320 CAVOK 22/11 Q1017 NOSIG",
      "taf": "TAF OMDB 151700Z 1518/1700 29015KT 8000 FEW025"
    },
    {
      "icao": "UAAA",
      "alert": "OK",
      "vis_m": 2600,
      "fzfg": false,
      "metar_trigger": false,
      "taf_trigger": false,
      "metar": "METAR UAAA 152130Z 34002MPS 2600 BR OVC004 M08/M09 Q1020 NOSIG RMK QBB120",
      "taf": "TAF UAAA 151703Z 1518/1618 32003G08MPS 1600 BR FU FEW004 BKN011CB OVC020 TXM08/1608Z TNM11/1603Z"
    },
    {
      "icao": "UBBB",
      "alert": "OK",
      "vis_m": 9999,
      "fzfg": false,
      "metar_trigger": false,
      "taf_trigger": false,
      "metar": "METAR UBBB 152130Z 15004KT 9999 SCT030 M00/M02 Q1022 NOSIG",
      "taf": "TAF UBBB 151701Z 1518/1618 VRB04KT CAVOK TX07/1512Z TNM01/1602Z"
    },
    {
      "icao": "UDSG",
      "alert": "OK",
      "vis_m": 9999,
      "fzfg": false,
      "metar_trigger": false,
      "taf_trigger": false,
      "metar": "METAR UDSG 152130Z 11005KT 9999 NSC M20/M22 Q1019 NOSIG",
      "taf": "TAF UDSG 151658Z 1518/1618 VRB06KT 9999 FEW040"
    },
    {
      "icao": "UDYZ",
      "alert": "OK",
      "vis_m": 9999,
      "fzfg": false,
      "metar_trigger": false,
      "taf_trigger": false,
      "metar": "METAR UDYZ 152130Z 05003KT 9999 NSC M06/M11 Q1022 NOSIG",
      "taf": "TAF UDYZ 151700Z 1518/1618 VRB04KT 6000 NSC"
    },
    {
      "icao": "UGKO",
      "alert": "OK",
      "vis_m": 9999,
      "fzfg": false,
      "metar_trigger": false,
      "taf_trigger": false,
      "metar": "METAR UGKO 152130Z 09012KT CAVOK 01/M03 Q1021 NOSIG",
      "taf": "TAF UGKO 151700Z 1518/1618 08007KT 9999 BKN050 TX02/1612Z TNM01/1518Z"
    }
  ]
}