{
  "ts_utc": "2026-04-13T15:56:57Z",
  "threshold_m": 150,
  "source": "stations_override.txt (ICAO list) + aviationweather.gov (METAR/TAF raw)",
  "station_count": 159,
  "stations": [
    {
      "icao": "BIKF",
      "alert": "OK",
      "vis_m": 9999,
      "fzfg": false,
      "metar_trigger": false,
      "taf_trigger": false,
      "metar": "METAR BIKF 131530Z 02007KT 9999 -RA FEW010 BKN014 OVC028 04/03 Q0997",
      "taf": "TAF BIKF 131331Z 1315/1415 03010KT 9999 -SHRA SCT018 BKN028 TX07/1412Z TN03/1322Z"
    },
    {
      "icao": "BKPR",
      "alert": "OK",
      "vis_m": null,
      "fzfg": false,
      "metar_trigger": false,
      "taf_trigger": false,
      "metar": "",
      "taf": "TAF BKPR 131130Z 1312/1412 15008KT 9999 FEW040"
    },
    {
      "icao": "EBCI",
      "alert": "OK",
      "vis_m": 9999,
      "fzfg": false,
      "metar_trigger": false,
      "taf_trigger": false,
      "metar": "METAR EBCI 131550Z 29005KT 250V330 CAVOK 12/04 Q1012 NOSIG",
      "taf": "TAF EBCI 131115Z 1312/1418 32006KT 9999 SCT035"
    },
    {
      "icao": "EDDB",
      "alert": "OK",
      "vis_m": 9999,
      "fzfg": false,
      "metar_trigger": false,
      "taf_trigger": false,
      "metar": "METAR EDDB 131550Z AUTO 09013KT 9999 -RA NSC 14/02 Q1013 TEMPO 09015G25KT",
      "taf": "TAF EDDB 131100Z 1312/1412 09014KT CAVOK"
    },
    {
      "icao": "EDDH",
      "alert": "OK",
      "vis_m": 9999,
      "fzfg": false,
      "metar_trigger": false,
      "taf_trigger": false,
      "metar": "METAR EDDH 131550Z AUTO 07011KT 040V100 9999 FEW020 10/07 Q1013 NOSIG",
      "taf": "TAF EDDH 131100Z 1312/1418 08007KT 9999 BKN025"
    },
    {
      "icao": "EDDK",
      "alert": "OK",
      "vis_m": 9999,
      "fzfg": false,
      "metar_trigger": false,
      "taf_trigger": false,
      "metar": "METAR EDDK 131550Z AUTO 32006KT 9999 FEW014 BKN027 OVC036 09/07 Q1012 NOSIG",
      "taf": "TAF EDDK 131100Z 1312/1418 VRB03KT 9999 BKN030"
    },
    {
      "icao": "EDDN",
      "alert": "OK",
      "vis_m": 9999,
      "fzfg": false,
      "metar_trigger": false,
      "taf_trigger": false,
      "metar": "METAR EDDN 131550Z AUTO 35004KT CAVOK 14/07 Q1009 BECMG 29005KT",
      "taf": "TAF EDDN 131100Z 1312/1412 06005KT CAVOK"
    },
    {
      "icao": "EDDS",
      "alert": "OK",
      "vis_m": 9999,
      "fzfg": false,
      "metar_trigger": false,
      "taf_trigger": false,
      "metar": "METAR EDDS 131550Z AUTO 34005KT 9999 -RA OVC007 09/07 Q1010 NOSIG",
      "taf": "TAF EDDS 131100Z 1312/1412 36004KT 9000 SCT005 OVC015"
    },
    {
      "icao": "EDFH",
      "alert": "OK",
      "vis_m": 9999,
      "fzfg": false,
      "metar_trigger": false,
      "taf_trigger": false,
      "metar": "METAR EDFH 131550Z 33004KT 310V010 9999 -RA SCT002 BKN004 OVC008 07/06 Q1011",
      "taf": "TAF EDFH 131100Z 1312/1412 01005KT 9999 SCT004 BKN015"
    },
    {
      "icao": "EDJA",
      "alert": "OK",
      "vis_m": 9999,
      "fzfg": false,
      "metar_trigger": false,
      "taf_trigger": false,
      "metar": "METAR EDJA 131550Z 30005KT 9999 FEW007 SCT009 OVC011 09/07 Q1009",
      "taf": "TAF EDJA 131400Z 1315/1324 28006KT 9999 SCT004 OVC007"
    },
    {
      "icao": "EDLW",
      "alert": "OK",
      "vis_m": 9999,
      "fzfg": false,
      "metar_trigger": false,
      "taf_trigger": false,
      "metar": "METAR EDLW 131550Z COR 02003KT 340V040 9999 SCT038 09/05 Q1012",
      "taf": "TAF EDLW 131100Z 1312/1412 04005KT 9999 BKN035"
    },
    {
      "icao": "EDNY",
      "alert": "OK",
      "vis_m": 8000,
      "fzfg": false,
      "metar_trigger": false,
      "taf_trigger": false,
      "metar": "METAR EDNY 131550Z 24003KT 8000 -DZ OVC014 10/08 Q1010",
      "taf": "TAF EDNY 131400Z 1315/1324 24005KT 9999 SCT008 OVC015"
    },
    {
      "icao": "EDSB",
      "alert": "OK",
      "vis_m": 5000,
      "fzfg": false,
      "metar_trigger": false,
      "taf_trigger": false,
      "metar": "METAR EDSB 131550Z 22004KT 5000 BR SCT004 BKN010 OVC014 09/09 Q1011",
      "taf": ""
    },
    {
      "icao": "EETN",
      "alert": "OK",
      "vis_m": 9999,
      "fzfg": false,
      "metar_trigger": false,
      "taf_trigger": false,
      "metar": "METAR EETN 131550Z 06009KT CAVOK 10/00 Q1030 NOSIG",
      "taf": "TAF EETN 131130Z 1312/1412 04010KT CAVOK"
    },
    {
      "icao": "EFTU",
      "alert": "OK",
      "vis_m": 9999,
      "fzfg": false,
      "metar_trigger": false,
      "taf_trigger": false,
      "metar": "METAR EFTU 131550Z AUTO 23006KT 190V250 CAVOK 11/M03 Q1030",
      "taf": "TAF EFTU 131422Z 1315/1415 23006KT CAVOK"
    },
    {
      "icao": "EGBB",
      "alert": "OK",
      "vis_m": 9999,
      "fzfg": false,
      "metar_trigger": false,
      "taf_trigger": false,
      "metar": "METAR EGBB 131550Z VRB03KT 9999 SCT048TCU 12/00 Q1012",
      "taf": "TAF EGBB 131056Z 1312/1412 18007KT 9999 SCT030"
    },
    {
      "icao": "EGGP",
      "alert": "OK",
      "vis_m": 9999,
      "fzfg": false,
      "metar_trigger": false,
      "taf_trigger": false,
      "metar": "METAR EGGP 131550Z 30010KT 9999 VCSH SCT049 08/04 Q1012 RESHRA",
      "taf": ""
    },
    {
      "icao": "EGGW",
      "alert": "OK",
      "vis_m": 9999,
      "fzfg": false,
      "metar_trigger": false,
      "taf_trigger": false,
      "metar": "METAR EGGW 131550Z AUTO 26011KT 9999 FEW039 12/05 Q1013",
      "taf": "TAF EGGW 131055Z 1312/1412 23004KT 9999 SCT035"
    },
    {
      "icao": "EGKK",
      "alert": "OK",
      "vis_m": 9999,
      "fzfg": false,
      "metar_trigger": false,
      "taf_trigger": false,
      "metar": "METAR EGKK 131550Z 34005KT 310V020 9999 SCT041 11/05 Q1013",
      "taf": "TAF EGKK 131053Z 1312/1418 VRB04KT 9999 SCT030"
    },
    {
      "icao": "EGNM",
      "alert": "OK",
      "vis_m": 9999,
      "fzfg": false,
      "metar_trigger": false,
      "taf_trigger": false,
      "metar": "METAR EGNM 131550Z 11004KT 080V140 9999 FEW025 SCT045CB 10/01 Q1012",
      "taf": "TAF EGNM 131059Z 1312/1412 VRB03KT 9999 FEW040"
    },
    {
      "icao": "EGPD",
      "alert": "OK",
      "vis_m": 9999,
      "fzfg": false,
      "metar_trigger": false,
      "taf_trigger": false,
      "metar": "METAR EGPD 131550Z COR AUTO 17017KT 9999 NCD 10/02 Q1012 NOSIG",
      "taf": "TAF EGPD 131056Z 1312/1412 19010KT 9999 FEW040"
    },
    {
      "icao": "EGPF",
      "alert": "OK",
      "vis_m": 9999,
      "fzfg": false,
      "metar_trigger": false,
      "taf_trigger": false,
      "metar": "METAR EGPF 131550Z AUTO 06003KT 020V150 9999 BKN035/// BKN043/// //////CB 08/05 Q1011",
      "taf": "TAF EGPF 131055Z 1312/1412 19008KT 9999 FEW020"
    },
    {
      "icao": "EHBK",
      "alert": "OK",
      "vis_m": 9999,
      "fzfg": false,
      "metar_trigger": false,
      "taf_trigger": false,
      "metar": "METAR EHBK 131525Z AUTO 07004KT 030V110 9999 NSC 11/05 Q1012 NOSIG",
      "taf": "TAF EHBK 131112Z 1312/1418 34003KT CAVOK"
    },
    {
      "icao": "EHEH",
      "alert": "OK",
      "vis_m": 9999,
      "fzfg": false,
      "metar_trigger": false,
      "taf_trigger": false,
      "metar": "METAR EHEH 131525Z AUTO 13003KT 9999 DZ FEW037 OVC057 12/04 Q1012 BLU BECMG VRB02KT",
      "taf": ""
    },
    {
      "icao": "EKBI",
      "alert": "OK",
      "vis_m": 9999,
      "fzfg": false,
      "metar_trigger": false,
      "taf_trigger": false,
      "metar": "METAR EKBI 131550Z AUTO 08010KT 9999 OVC038/// 09/04 Q1016",
      "taf": "TAF EKBI 131427Z 1315/1415 10008KT 9999 BKN035"
    },
    {
      "icao": "EKCH",
      "alert": "OK",
      "vis_m": 9999,
      "fzfg": false,
      "metar_trigger": false,
      "taf_trigger": false,
      "metar": "METAR EKCH 131550Z AUTO 07012KT 9999 OVC091/// 08/02 Q1019 NOSIG",
      "taf": "TAF EKCH 131427Z 1315/1415 12014KT CAVOK"
    },
    {
      "icao": "ENAL",
      "alert": "OK",
      "vis_m": 9999,
      "fzfg": false,
      "metar_trigger": false,
      "taf_trigger": false,
      "metar": "METAR ENAL 131550Z 15010KT CAVOK 13/M02 Q1018",
      "taf": "TAF ENAL 131400Z 1315/1324 15010KT CAVOK"
    },
    {
      "icao": "ENBR",
      "alert": "OK",
      "vis_m": 9999,
      "fzfg": false,
      "metar_trigger": false,
      "taf_trigger": false,
      "metar": "METAR ENBR 131550Z 13010KT 9999 -SHRA SCT043 09/01 Q1019 TEMPO 15015G25KT SHRA SCT035CB RMK WIND 1200FT 13023KT",
      "taf": ""
    },
    {
      "icao": "ENGM",
      "alert": "OK",
      "vis_m": 9999,
      "fzfg": false,
      "metar_trigger": false,
      "taf_trigger": false,
      "metar": "METAR ENGM 131550Z 13005KT 100V170 CAVOK 10/M00 Q1024 NOSIG",
      "taf": "TAF ENGM 131100Z 1312/1412 10005KT CAVOK"
    },
    {
      "icao": "ENHD",
      "alert": "OK",
      "vis_m": 9999,
      "fzfg": false,
      "metar_trigger": false,
      "taf_trigger": false,
      "metar": "METAR ENHD 131550Z 07007KT 9999 -RA BKN033 08/05 Q1018",
      "taf": "TAF ENHD 131400Z 1315/1322 14012KT 9999 -SHRA FEW030 SCT040"
    },
    {
      "icao": "ENTC",
      "alert": "OK",
      "vis_m": 9999,
      "fzfg": false,
      "metar_trigger": false,
      "taf_trigger": false,
      "metar": "METAR ENTC 131550Z 00000KT CAVOK 11/M05 Q1026 NOSIG RMK WIND 2600FT 19010KT",
      "taf": "TAF ENTC 131100Z 1312/1412 02004KT CAVOK"
    },
    {
      "icao": "ENTO",
      "alert": "OK",
      "vis_m": 9999,
      "fzfg": false,
      "metar_trigger": false,
      "taf_trigger": false,
      "metar": "METAR ENTO 131550Z 01007KT CAVOK 09/03 Q1023 NOSIG",
      "taf": "TAF ENTO 131100Z 1312/1412 02005KT CAVOK"
    },
    {
      "icao": "ENVA",
      "alert": "OK",
      "vis_m": 9999,
      "fzfg": false,
      "metar_trigger": false,
      "taf_trigger": false,
      "metar": "METAR ENVA 131550Z 15011KT 120V180 CAVOK 12/M00 Q1023 NOSIG RMK WIND 670FT 16018KT",
      "taf": ""
    },
    {
      "icao": "ENZV",
      "alert": "OK",
      "vis_m": 9999,
      "fzfg": false,
      "metar_trigger": false,
      "taf_trigger": false,
      "metar": "METAR ENZV 131550Z 11010KT CAVOK 11/00 Q1018 NOSIG",
      "taf": "TAF ENZV 131100Z 1312/1412 14015KT 9999 SCT030"
    },
    {
      "icao": "EPGD",
      "alert": "OK",
      "vis_m": 9999,
      "fzfg": false,
      "metar_trigger": false,
      "taf_trigger": false,
      "metar": "METAR EPGD 131530Z 04008KT CAVOK 11/M00 Q1021",
      "taf": "TAF EPGD 131130Z 1312/1412 11015KT CAVOK"
    },
    {
      "icao": "EPKK",
      "alert": "OK",
      "vis_m": 9999,
      "fzfg": false,
      "metar_trigger": false,
      "taf_trigger": false,
      "metar": "METAR EPKK 131530Z 08016KT CAVOK 12/M01 Q1017",
      "taf": "TAF EPKK 131430Z 1315/1415 07014KT CAVOK"
    },
    {
      "icao": "EPKT",
      "alert": "OK",
      "vis_m": 9999,
      "fzfg": false,
      "metar_trigger": false,
      "taf_trigger": false,
      "metar": "METAR EPKT 131530Z 09020KT CAVOK 11/M02 Q1017",
      "taf": "TAF EPKT 131130Z 1312/1412 09016KT CAVOK"
    },
    {
      "icao": "EPLB",
      "alert": "OK",
      "vis_m": 9999,
      "fzfg": false,
      "metar_trigger": false,
      "taf_trigger": false,
      "metar": "METAR EPLB 131530Z 11015KT CAVOK 12/M02 Q1022",
      "taf": "TAF EPLB 131130Z 1312/1412 10015KT CAVOK"
    },
    {
      "icao": "EPMO",
      "alert": "OK",
      "vis_m": 9999,
      "fzfg": false,
      "metar_trigger": false,
      "taf_trigger": false,
      "metar": "METAR EPMO 131530Z 11013KT 070V140 CAVOK 12/M02 Q1021",
      "taf": "TAF EPMO 131130Z 1312/1412 11016KT CAVOK"
    },
    {
      "icao": "EPPO",
      "alert": "OK",
      "vis_m": 9999,
      "fzfg": false,
      "metar_trigger": false,
      "taf_trigger": false,
      "metar": "METAR EPPO 131530Z 10015KT CAVOK 14/M02 Q1017",
      "taf": "TAF EPPO 131130Z 1312/1412 11018KT CAVOK"
    },
    {
      "icao": "EPRA",
      "alert": "OK",
      "vis_m": 9999,
      "fzfg": false,
      "metar_trigger": false,
      "taf_trigger": false,
      "metar": "METAR EPRA 131530Z 11012KT CAVOK 12/M02 Q1020",
      "taf": "TAF EPRA 131430Z 1315/1324 12012KT CAVOK"
    },
    {
      "icao": "EPRZ",
      "alert": "OK",
      "vis_m": 9999,
      "fzfg": false,
      "metar_trigger": false,
      "taf_trigger": false,
      "metar": "METAR EPRZ 131530Z 10016KT CAVOK 13/M02 Q1019",
      "taf": "TAF EPRZ 131130Z 1312/1412 11014KT CAVOK"
    },
    {
      "icao": "EPSC",
      "alert": "OK",
      "vis_m": 9999,
      "fzfg": false,
      "metar_trigger": false,
      "taf_trigger": false,
      "metar": "METAR EPSC 131530Z 09016KT CAVOK 13/M01 Q1017",
      "taf": "TAF EPSC 131130Z 1312/1412 11014KT CAVOK"
    },
    {
      "icao": "EPSY",
      "alert": "OK",
      "vis_m": 9999,
      "fzfg": false,
      "metar_trigger": false,
      "taf_trigger": false,
      "metar": "METAR EPSY 131530Z 12008KT 070V180 CAVOK 12/M02 Q1023",
      "taf": "TAF EPSY 131430Z 1315/1324 11010KT CAVOK"
    },
    {
      "icao": "EPWA",
      "alert": "OK",
      "vis_m": 9999,
      "fzfg": false,
      "metar_trigger": false,
      "taf_trigger": false,
      "metar": "METAR EPWA 131530Z 10016KT CAVOK 13/M01 Q1021 NOSIG",
      "taf": "TAF EPWA 131430Z 1315/1415 10015KT CAVOK"
    },
    {
      "icao": "EPWR",
      "alert": "OK",
      "vis_m": 9999,
      "fzfg": false,
      "metar_trigger": false,
      "taf_trigger": false,
      "metar": "METAR EPWR 131530Z 12015KT CAVOK 15/M01 Q1015",
      "taf": "TAF EPWR 131430Z 1315/1415 10017KT CAVOK"
    },
    {
      "icao": "ESGG",
      "alert": "OK",
      "vis_m": 9999,
      "fzfg": false,
      "metar_trigger": false,
      "taf_trigger": false,
      "metar": "METAR ESGG 131550Z 11010KT 080V140 CAVOK 12/M02 Q1021",
      "taf": "TAF ESGG 131430Z 1315/1415 12011KT CAVOK"
    },
    {
      "icao": "ESKN",
      "alert": "OK",
      "vis_m": 9999,
      "fzfg": false,
      "metar_trigger": false,
      "taf_trigger": false,
      "metar": "METAR ESKN 131550Z 11011KT CAVOK 08/M00 Q1028",
      "taf": "TAF ESKN 131430Z 1315/1415 12011KT CAVOK"
    },
    {
      "icao": "ESMS",
      "alert": "OK",
      "vis_m": 9999,
      "fzfg": false,
      "metar_trigger": false,
      "taf_trigger": false,
      "metar": "METAR ESMS 131550Z 07014KT CAVOK 07/02 Q1019",
      "taf": "TAF ESMS 131427Z 1315/1415 11014KT CAVOK"
    },
    {
      "icao": "ESSA",
      "alert": "OK",
      "vis_m": 9999,
      "fzfg": false,
      "metar_trigger": false,
      "taf_trigger": false,
      "metar": "METAR ESSA 131550Z 13011KT CAVOK 11/M01 Q1028 NOSIG",
      "taf": "TAF ESSA 131430Z 1315/1415 15011KT CAVOK"
    },
    {
      "icao": "EYKA",
      "alert": "OK",
      "vis_m": 9999,
      "fzfg": false,
      "metar_trigger": false,
      "taf_trigger": false,
      "metar": "METAR EYKA 131550Z 12009KT 080V140 CAVOK 12/M00 Q1026",
      "taf": "TAF EYKA 131100Z 1312/1412 12011KT 9000 SCT045"
    },
    {
      "icao": "EYPA",
      "alert": "OK",
      "vis_m": 9999,
      "fzfg": false,
      "metar_trigger": false,
      "taf_trigger": false,
      "metar": "METAR EYPA 131550Z 11009KT CAVOK 12/M02 Q1026",
      "taf": "TAF EYPA 131100Z 1312/1412 12009KT 9000 NSC"
    },
    {
      "icao": "EYVI",
      "alert": "OK",
      "vis_m": 9999,
      "fzfg": false,
      "metar_trigger": false,
      "taf_trigger": false,
      "metar": "METAR EYVI 131550Z 13006KT CAVOK 11/M02 Q1026 NOSIG",
      "taf": "TAF EYVI 131100Z 1312/1412 11010KT 9000 SCT045"
    },
    {
      "icao": "GCFV",
      "alert": "OK",
      "vis_m": 9999,
      "fzfg": false,
      "metar_trigger": false,
      "taf_trigger": false,
      "metar": "METAR GCFV 131530Z 02021KT 9999 FEW030 21/12 Q1020",
      "taf": "TAF GCFV 131400Z 1315/1415 03020KT 9999 FEW030 TX22/1414Z TN16/1406Z"
    },
    {
      "icao": "GCLP",
      "alert": "OK",
      "vis_m": 9999,
      "fzfg": false,
      "metar_trigger": false,
      "taf_trigger": false,
      "metar": "METAR GCLP 131530Z 02028KT 9999 FEW030 21/10 Q1021 NOSIG",
      "taf": "TAF GCLP 131400Z 1315/1415 02024KT 9999 SCT030 TX22/1414Z TN16/1406Z"
    },
    {
      "icao": "GCTS",
      "alert": "OK",
      "vis_m": 9999,
      "fzfg": false,
      "metar_trigger": false,
      "taf_trigger": false,
      "metar": "METAR GCTS 131530Z 07025KT 9999 FEW035 22/10 Q1020 NOSIG",
      "taf": "TAF GCTS 131400Z 1315/1415 08028KT 9999 FEW035 TX23/1414Z TN15/1406Z"
    },
    {
      "icao": "GMAD",
      "alert": "OK",
      "vis_m": 9999,
      "fzfg": false,
      "metar_trigger": false,
      "taf_trigger": false,
      "metar": "METAR GMAD 131530Z 22009KT 190V250 CAVOK 26/09 Q1013 NOSIG",
      "taf": "TAF GMAD 131100Z 1312/1418 28008KT 8000 NSC"
    },
    {
      "icao": "GMMN",
      "alert": "OK",
      "vis_m": 9999,
      "fzfg": false,
      "metar_trigger": false,
      "taf_trigger": false,
      "metar": "METAR GMMN 131530Z 01011KT 330V050 9999 SCT030 18/10 Q1022 NOSIG",
      "taf": "TAF GMMN 131100Z 1312/1418 36012KT 9999 BKN030"
    },
    {
      "icao": "GMMX",
      "alert": "OK",
      "vis_m": 9999,
      "fzfg": false,
      "metar_trigger": false,
      "taf_trigger": false,
      "metar": "METAR GMMX 131530Z 04011KT 010V090 CAVOK 20/08 Q1019 NOSIG",
      "taf": "TAF GMMX 131100Z 1312/1418 08006KT CAVOK"
    },
    {
      "icao": "HEGN",
      "alert": "OK",
      "vis_m": 9999,
      "fzfg": false,
      "metar_trigger": false,
      "taf_trigger": false,
      "metar": "METAR HEGN 131500Z 02005KT CAVOK 27/09 Q1014 NOSIG",
      "taf": "TAF HEGN 131100Z 1312/1418 01014KT CAVOK"
    },
    {
      "icao": "HEMA",
      "alert": "OK",
      "vis_m": 9999,
      "fzfg": false,
      "metar_trigger": false,
      "taf_trigger": false,
      "metar": "METAR HEMA 131500Z 36014KT CAVOK 27/05 Q1013 NOSIG",
      "taf": "TAF HEMA 131100Z 1312/1418 35010G22KT CAVOK"
    },
    {
      "icao": "HESH",
      "alert": "OK",
      "vis_m": 9999,
      "fzfg": false,
      "metar_trigger": false,
      "taf_trigger": false,
      "metar": "METAR HESH 131500Z 01004KT CAVOK 29/03 Q1013 NOSIG",
      "taf": "TAF HESH 131100Z 1312/1418 08011KT CAVOK"
    },
    {
      "icao": "HESX",
      "alert": "OK",
      "vis_m": 9999,
      "fzfg": false,
      "metar_trigger": false,
      "taf_trigger": false,
      "metar": "METAR HESX 131500Z 01008KT CAVOK 24/09 Q1016 NOSIG",
      "taf": "TAF HESX 131100Z 1312/1418 04009KT CAVOK"
    },
    {
      "icao": "LATI",
      "alert": "OK",
      "vis_m": 9999,
      "fzfg": false,
      "metar_trigger": false,
      "taf_trigger": false,
      "metar": "METAR LATI 131550Z 27006KT 240V330 9999 SCT160 21/10 Q1010 NOSIG",
      "taf": "TAF LATI 131100Z 1312/1412 VRB05KT 9999 SCT100 TX27/1312Z TN12/1404Z"
    },
    {
      "icao": "LBPD",
      "alert": "OK",
      "vis_m": 9999,
      "fzfg": false,
      "metar_trigger": false,
      "taf_trigger": false,
      "metar": "METAR LBPD 131530Z AUTO 08007KT 9999 FEW048/// 16/07 Q1018 NOSIG",
      "taf": "TAF LBPD 131100Z 1312/1412 08010KT 9999 SCT060"
    },
    {
      "icao": "LBSF",
      "alert": "OK",
      "vis_m": 9999,
      "fzfg": false,
      "metar_trigger": false,
      "taf_trigger": false,
      "metar": "METAR LBSF 131530Z AUTO 11016KT 9999 NCD 15/05 Q1017 NOSIG",
      "taf": "TAF LBSF 131100Z 1312/1412 10014KT 9999 SCT050"
    },
    {
      "icao": "LBWN",
      "alert": "OK",
      "vis_m": 9999,
      "fzfg": false,
      "metar_trigger": false,
      "taf_trigger": false,
      "metar": "METAR LBWN 131530Z AUTO 12011KT 9999 NSC 10/04 Q1022 NOSIG",
      "taf": "TAF LBWN 131100Z 1312/1412 12010KT 9999 SCT040"
    },
    {
      "icao": "LCLK",
      "alert": "OK",
      "vis_m": 9999,
      "fzfg": false,
      "metar_trigger": false,
      "taf_trigger": false,
      "metar": "METAR LCLK 131530Z 20009KT 9999 FEW040 19/10 Q1019 NOSIG",
      "taf": "TAF LCLK 131130Z 1312/1412 17012KT 9999 FEW035"
    },
    {
      "icao": "LCPH",
      "alert": "OK",
      "vis_m": 9999,
      "fzfg": false,
      "metar_trigger": false,
      "taf_trigger": false,
      "metar": "METAR LCPH 131530Z 16004KT 9999 BKN025 18/12 Q1019 NOSIG",
      "taf": "TAF LCPH 131130Z 1312/1412 16012KT 9999 FEW035"
    },
    {
      "icao": "LEAL",
      "alert": "OK",
      "vis_m": 9999,
      "fzfg": false,
      "metar_trigger": false,
      "taf_trigger": false,
      "metar": "METAR LEAL 131530Z 11010KT 080V150 9999 FEW040 BKN065 18/06 Q1012 WS R10 NOSIG",
      "taf": "TAF LEAL 131100Z 1312/1412 33009KT 9999 FEW040 TX20/1313Z TN10/1406Z"
    },
    {
      "icao": "LEBB",
      "alert": "OK",
      "vis_m": 9999,
      "fzfg": false,
      "metar_trigger": false,
      "taf_trigger": false,
      "metar": "METAR LEBB 131530Z 31010KT 280V360 9999 FEW028 SCT065 15/09 Q1018 NOSIG",
      "taf": "TAF LEBB 131100Z 1312/1412 31009KT 9999 FEW030 BKN045 TX14/1314Z TN06/1400Z"
    },
    {
      "icao": "LEBL",
      "alert": "OK",
      "vis_m": 9999,
      "fzfg": false,
      "metar_trigger": false,
      "taf_trigger": false,
      "metar": "METAR LEBL 131530Z 19010KT 150V220 9999 FEW030 16/10 Q1009 NOSIG",
      "taf": ""
    },
    {
      "icao": "LECH",
      "alert": "OK",
      "vis_m": 9999,
      "fzfg": false,
      "metar_trigger": false,
      "taf_trigger": false,
      "metar": "METAR LECH 131530Z AUTO 32012G22KT 260V350 CAVOK 17/M01 Q1011",
      "taf": "TAF LECH 131100Z 1312/1412 33019KT 9999 FEW030 TX20/1314Z TN07/1406Z"
    },
    {
      "icao": "LEMD",
      "alert": "OK",
      "vis_m": 9999,
      "fzfg": false,
      "metar_trigger": false,
      "taf_trigger": false,
      "metar": "METAR LEMD 131530Z 32013KT 290V360 9999 SCT070 14/M03 Q1016 NOSIG",
      "taf": ""
    },
    {
      "icao": "LEMG",
      "alert": "OK",
      "vis_m": 9999,
      "fzfg": false,
      "metar_trigger": false,
      "taf_trigger": false,
      "metar": "METAR LEMG 131530Z 33016G28KT 300V360 9999 SCT075 20/03 Q1017 NOSIG",
      "taf": "TAF LEMG 131100Z 1312/1412 31014KT CAVOK TX21/1314Z TN13/1407Z"
    },
    {
      "icao": "LEVC",
      "alert": "OK",
      "vis_m": 9999,
      "fzfg": false,
      "metar_trigger": false,
      "taf_trigger": false,
      "metar": "METAR LEVC 131530Z 12010KT 090V150 9999 FEW068 18/04 Q1011 WS ALL RWY NOSIG",
      "taf": "TAF LEVC 131100Z 1312/1412 33009KT 9999 FEW060 TX22/1313Z TN09/1406Z"
    },
    {
      "icao": "LEXJ",
      "alert": "OK",
      "vis_m": 9999,
      "fzfg": false,
      "metar_trigger": false,
      "taf_trigger": false,
      "metar": "METAR LEXJ 131530Z 01005KT 320V080 9999 FEW036 14/05 Q1018",
      "taf": "TAF LEXJ 131400Z 1315/1415 24009KT 9999 FEW030 BKN060 TX17/1412Z TN08/1321Z"
    },
    {
      "icao": "LEZG",
      "alert": "OK",
      "vis_m": 9999,
      "fzfg": false,
      "metar_trigger": false,
      "taf_trigger": false,
      "metar": "METAR LEZG 131530Z 30026G36KT 280V340 9999 FEW045 15/04 Q1013 NOSIG",
      "taf": "TAF LEZG 131100Z 1312/1412 31022KT 9999 FEW040 TX17/1313Z TN07/1406Z"
    },
    {
      "icao": "LEZL",
      "alert": "OK",
      "vis_m": 9999,
      "fzfg": false,
      "metar_trigger": false,
      "taf_trigger": false,
      "metar": "METAR LEZL 131530Z 32015KT 280V350 CAVOK 20/06 Q1019 NOSIG",
      "taf": "TAF LEZL 131400Z 1315/1415 33012KT CAVOK TX25/1415Z TN10/1407Z"
    },
    {
      "icao": "LFBD",
      "alert": "OK",
      "vis_m": 9999,
      "fzfg": false,
      "metar_trigger": false,
      "taf_trigger": false,
      "metar": "METAR LFBD 131530Z AUTO 30016KT 9999 SCT044/// SCT074/// ///TCU 15/05 Q1016 BECMG NSC",
      "taf": "TAF LFBD 131100Z 1312/1418 01005KT 9999 BKN040 TX19/1414Z TN03/1406Z"
    },
    {
      "icao": "LFLL",
      "alert": "OK",
      "vis_m": 9999,
      "fzfg": false,
      "metar_trigger": false,
      "taf_trigger": false,
      "metar": "METAR LFLL 131530Z 35010KT 9999 -RA SCT013 BKN025 08/07 Q1013 NOSIG",
      "taf": "TAF LFLL 131100Z 1312/1418 34012KT 9999 -RA BKN018"
    },
    {
      "icao": "LFLS",
      "alert": "OK",
      "vis_m": 9999,
      "fzfg": false,
      "metar_trigger": false,
      "taf_trigger": false,
      "metar": "METAR LFLS 131530Z AUTO 34006KT 310V010 9999 -RA BKN014 BKN020 OVC028 07/05 Q1013 NOSIG",
      "taf": "TAF LFLS 131400Z 1315/1415 35007KT 9999 -RA SCT013 OVC020"
    },
    {
      "icao": "LFMN",
      "alert": "OK",
      "vis_m": 9999,
      "fzfg": false,
      "metar_trigger": false,
      "taf_trigger": false,
      "metar": "METAR LFMN 131530Z VRB02KT 9999 BKN100 BKN260 21/11 Q1002 NOSIG",
      "taf": "TAF LFMN 131400Z 1315/1421 06010KT 9999 BKN090"
    },
    {
      "icao": "LFOB",
      "alert": "OK",
      "vis_m": 9999,
      "fzfg": false,
      "metar_trigger": false,
      "taf_trigger": false,
      "metar": "METAR LFOB 131530Z AUTO 30008KT 9999 -RA FEW035/// BKN041/// BKN047/// ///CB 10/07 Q1014 TEMPO 3500 SHRA",
      "taf": "TAF LFOB 131100Z 1312/1412 VRB05KT 9999 SCT030TCU OVC050"
    },
    {
      "icao": "LFPO",
      "alert": "OK",
      "vis_m": 9999,
      "fzfg": false,
      "metar_trigger": false,
      "taf_trigger": false,
      "metar": "METAR LFPO 131530Z 32015KT 9999 -SHRA SCT033TCU BKN050 BKN090 10/05 Q1013 NOSIG",
      "taf": ""
    },
    {
      "icao": "LFSB",
      "alert": "OK",
      "vis_m": 9999,
      "fzfg": false,
      "metar_trigger": false,
      "taf_trigger": false,
      "metar": "METAR LFSB 131530Z AUTO 26005KT 210V290 9999 -RA SCT015 BKN021 OVC029 09/07 Q1011 TEMPO BKN012",
      "taf": "TAF LFSB 131100Z 1312/1412 28007KT 9999 FEW010 BKN020"
    },
    {
      "icao": "LGAV",
      "alert": "OK",
      "vis_m": 9999,
      "fzfg": false,
      "metar_trigger": false,
      "taf_trigger": false,
      "metar": "METAR LGAV 131550Z 12006KT 080V150 9999 FEW025 17/07 Q1019 NOSIG",
      "taf": "TAF LGAV 131100Z 1312/1412 VRB05KT 9999 FEW020"
    },
    {
      "icao": "LGTS",
      "alert": "OK",
      "vis_m": 9999,
      "fzfg": false,
      "metar_trigger": false,
      "taf_trigger": false,
      "metar": "METAR LGTS 131550Z 20009KT 9999 SCT025 17/08 Q1019 NOSIG",
      "taf": "TAF LGTS 131100Z 1312/1412 12010KT 9999 FEW025"
    },
    {
      "icao": "LHBP",
      "alert": "OK",
      "vis_m": 9999,
      "fzfg": false,
      "metar_trigger": false,
      "taf_trigger": false,
      "metar": "METAR LHBP 131530Z 09012KT CAVOK 16/01 Q1015 NOSIG",
      "taf": "TAF LHBP 131115Z 1312/1412 09012KT CAVOK"
    },
    {
      "icao": "LHDC",
      "alert": "OK",
      "vis_m": 9999,
      "fzfg": false,
      "metar_trigger": false,
      "taf_trigger": false,
      "metar": "METAR LHDC 131515Z AUTO 07012KT CAVOK 16/M03 Q1016 NOSIG",
      "taf": "TAF LHDC 131415Z 1315/1324 08012KT CAVOK"
    },
    {
      "icao": "LIBD",
      "alert": "OK",
      "vis_m": 9999,
      "fzfg": false,
      "metar_trigger": false,
      "taf_trigger": false,
      "metar": "METAR LIBD 131550Z 17014G27KT 9999 BKN025 18/14 Q1005",
      "taf": "TAF LIBD 131100Z 1312/1412 15025G40KT 9999 FEW030"
    },
    {
      "icao": "LIBG",
      "alert": "OK",
      "vis_m": 8000,
      "fzfg": false,
      "metar_trigger": false,
      "taf_trigger": false,
      "metar": "METAR LIBG 131450Z 15020G31KT 8000 SCT010 BKN020 18/14 Q1007",
      "taf": "TAF LIBG 131400Z 1315/1324 16020G30KT 9999 BKN015"
    },
    {
      "icao": "LIBP",
      "alert": "OK",
      "vis_m": 9999,
      "fzfg": false,
      "metar_trigger": false,
      "taf_trigger": false,
      "metar": "METAR LIBP 131550Z AUTO 03007KT 9999 FEW140/// 19/15 Q1002",
      "taf": "TAF LIBP 131100Z 1312/1412 11012KT 9999 OVC012"
    },
    {
      "icao": "LIBR",
      "alert": "OK",
      "vis_m": 9999,
      "fzfg": false,
      "metar_trigger": false,
      "taf_trigger": false,
      "metar": "METAR LIBR 131550Z 19021G33KT 9999 SCT040 20/12 Q1008",
      "taf": "TAF LIBR 131100Z 1312/1412 16020G35KT CAVOK"
    },
    {
      "icao": "LICA",
      "alert": "OK",
      "vis_m": 9999,
      "fzfg": false,
      "metar_trigger": false,
      "taf_trigger": false,
      "metar": "METAR LICA 131550Z AUTO 07021KT 9999 SCT031/// 19/15 Q1005",
      "taf": "TAF LICA 131100Z 1312/1412 08020G30KT CAVOK"
    },
    {
      "icao": "LICC",
      "alert": "OK",
      "vis_m": 6000,
      "fzfg": false,
      "metar_trigger": false,
      "taf_trigger": false,
      "metar": "METAR LICC 131550Z 07014KT 6000 FEW030 18/14 Q1005",
      "taf": "TAF LICC 131100Z 1312/1412 07013KT 7000 FEW020"
    },
    {
      "icao": "LICJ",
      "alert": "OK",
      "vis_m": 9999,
      "fzfg": false,
      "metar_trigger": false,
      "taf_trigger": false,
      "metar": "METAR LICJ 131550Z 25014KT 9999 FEW050 19/13 Q1004",
      "taf": "TAF LICJ 131100Z 1312/1412 22014KT 7000 SCT030"
    },
    {
      "icao": "LIMC",
      "alert": "OK",
      "vis_m": 9999,
      "fzfg": false,
      "metar_trigger": false,
      "taf_trigger": false,
      "metar": "METAR LIMC 131550Z 34009KT 9999 BKN070 13/11 Q1007 NOSIG",
      "taf": "TAF LIMC 131100Z 1312/1418 35009KT 9999 BKN040"
    },
    {
      "icao": "LIME",
      "alert": "OK",
      "vis_m": 9999,
      "fzfg": false,
      "metar_trigger": false,
      "taf_trigger": false,
      "metar": "METAR LIME 131550Z 30005KT 9999 SCT060 17/10 Q1006 NOSIG",
      "taf": "TAF LIME 131100Z 1312/1412 VRB05KT 9999 BKN040"
    },
    {
      "icao": "LIMF",
      "alert": "OK",
      "vis_m": 5000,
      "fzfg": false,
      "metar_trigger": false,
      "taf_trigger": false,
      "metar": "METAR LIMF 131550Z 31012KT 5000 RA BR BKN025 OVC030 12/09 Q1008",
      "taf": "TAF LIMF 131100Z 1312/1412 36009KT 7000 OVC020"
    },
    {
      "icao": "LIMJ",
      "alert": "OK",
      "vis_m": 9999,
      "fzfg": false,
      "metar_trigger": false,
      "taf_trigger": false,
      "metar": "METAR LIMJ 131550Z AUTO 31011KT 9999 OVC087/// 18/11 Q1003",
      "taf": "TAF LIMJ 131100Z 1312/1412 02013KT 9999 SCT060"
    },
    {
      "icao": "LIPE",
      "alert": "OK",
      "vis_m": 7000,
      "fzfg": false,
      "metar_trigger": false,
      "taf_trigger": false,
      "metar": "METAR LIPE 131550Z 07005KT 7000 -RA SCT015 BKN040 16/14 Q1004",
      "taf": "TAF LIPE 131100Z 1312/1412 07012KT 7000 BKN014"
    },
    {
      "icao": "LIPH",
      "alert": "OK",
      "vis_m": 9999,
      "fzfg": false,
      "metar_trigger": false,
      "taf_trigger": false,
      "metar": "METAR LIPH 131550Z 14010KT 110V170 9999 BKN060 18/11 Q1007",
      "taf": "TAF LIPH 131100Z 1312/1412 10012KT 9999 BKN060"
    },
    {
      "icao": "LIPQ",
      "alert": "OK",
      "vis_m": 9999,
      "fzfg": false,
      "metar_trigger": false,
      "taf_trigger": false,
      "metar": "METAR LIPQ 131550Z AUTO 10012KT 9999 OVC080/// 20/05 Q1007",
      "taf": "TAF LIPQ 131100Z 1312/1412 10012KT 9999 FEW060"
    },
    {
      "icao": "LIPR",
      "alert": "OK",
      "vis_m": 7000,
      "fzfg": false,
      "metar_trigger": false,
      "taf_trigger": false,
      "metar": "METAR LIPR 131550Z 11010KT 7000 BKN045 15/13 Q1004",
      "taf": "TAF LIPR 131100Z 1312/1412 10012KT 8000 SCT012 BKN030"
    },
    {
      "icao": "LIPX",
      "alert": "OK",
      "vis_m": 9999,
      "fzfg": false,
      "metar_trigger": false,
      "taf_trigger": false,
      "metar": "METAR LIPX 131550Z 07016KT 9999 BKN070 19/09 Q1006",
      "taf": "TAF LIPX 131100Z 1312/1412 09010KT 9999 SCT040"
    },
    {
      "icao": "LIPY",
      "alert": "OK",
      "vis_m": 9999,
      "fzfg": false,
      "metar_trigger": false,
      "taf_trigger": false,
      "metar": "METAR LIPY 131550Z AUTO 10009KT 9999 BKN015/// BKN110/// 17/14 Q1003",
      "taf": "TAF LIPY 131100Z 1312/1412 13012KT 8000 SCT012 BKN030"
    },
    {
      "icao": "LIPZ",
      "alert": "OK",
      "vis_m": 9999,
      "fzfg": false,
      "metar_trigger": false,
      "taf_trigger": false,
      "metar": "METAR LIPZ 131550Z 10009KT 9999 FEW030 BKN060 17/12 Q1007 NOSIG",
      "taf": "TAF LIPZ 131100Z 1312/1418 10012KT 9999 BKN050"
    },
    {
      "icao": "LIRF",
      "alert": "OK",
      "vis_m": 8000,
      "fzfg": false,
      "metar_trigger": false,
      "taf_trigger": false,
      "metar": "METAR LIRF 131550Z 15015KT 8000 SCT035 18/14 Q1001 NOSIG",
      "taf": "TAF LIRF 131100Z 1312/1418 14018G28KT 9999 SCT020"
    },
    {
      "icao": "LIRN",
      "alert": "OK",
      "vis_m": 8000,
      "fzfg": false,
      "metar_trigger": false,
      "taf_trigger": false,
      "metar": "METAR LIRN 131550Z 18007KT 120V220 8000 FEW030 SCT040 18/13 Q1004 NOSIG",
      "taf": "TAF LIRN 131100Z 1312/1412 17012KT 9999 SCT050"
    },
    {
      "icao": "LIRP",
      "alert": "OK",
      "vis_m": 9999,
      "fzfg": false,
      "metar_trigger": false,
      "taf_trigger": false,
      "metar": "METAR LIRP 131545Z 10008KT 9999 SCT050 BKN070 17/13 Q1003 NOSIG",
      "taf": "TAF LIRP 131100Z 1312/1412 09010KT 9999 RA BKN080"
    },
    {
      "icao": "LIRZ",
      "alert": "OK",
      "vis_m": 9999,
      "fzfg": false,
      "metar_trigger": false,
      "taf_trigger": false,
      "metar": "METAR LIRZ 131550Z AUTO VRB01KT 9999 BKN070/// 18/13 Q1002",
      "taf": "TAF LIRZ 131100Z 1312/1412 02011KT 9999 SCT040"
    },
    {
      "icao": "LJLJ",
      "alert": "OK",
      "vis_m": 9999,
      "fzfg": false,
      "metar_trigger": false,
      "taf_trigger": false,
      "metar": "METAR LJLJ 131530Z 15010KT 9999 FEW070 BKN120 BKN200 16/04 Q1010 NOSIG",
      "taf": ""
    },
    {
      "icao": "LKMT",
      "alert": "OK",
      "vis_m": 9999,
      "fzfg": false,
      "metar_trigger": false,
      "taf_trigger": false,
      "metar": "METAR LKMT 131530Z 04007KT CAVOK 14/02 Q1015 NOSIG",
      "taf": "TAF LKMT 131100Z 1312/1412 05012KT CAVOK"
    },
    {
      "icao": "LKPR",
      "alert": "OK",
      "vis_m": 9999,
      "fzfg": false,
      "metar_trigger": false,
      "taf_trigger": false,
      "metar": "METAR LKPR 131530Z 13016KT CAVOK 14/01 Q1011 NOSIG",
      "taf": "TAF LKPR 131400Z 1315/1421 11012KT CAVOK"
    },
    {
      "icao": "LLBG",
      "alert": "OK",
      "vis_m": 9999,
      "fzfg": false,
      "metar_trigger": false,
      "taf_trigger": false,
      "metar": "METAR LLBG 131550Z 34009KT CAVOK 19/11 Q1018 NOSIG",
      "taf": "TAF LLBG 131105Z 1312/1412 30010KT CAVOK TX21/1312Z TN10/1403Z"
    },
    {
      "icao": "LMML",
      "alert": "OK",
      "vis_m": 5000,
      "fzfg": false,
      "metar_trigger": false,
      "taf_trigger": false,
      "metar": "METAR LMML 131545Z 19007KT 160V220 5000 DU NSC 21/15 Q1005 BECMG 6000 NSW",
      "taf": "TAF LMML 131100Z 1312/1412 21011KT 5000 DU NSC"
    },
    {
      "icao": "LOWW",
      "alert": "OK",
      "vis_m": 9999,
      "fzfg": false,
      "metar_trigger": false,
      "taf_trigger": false,
      "metar": "METAR LOWW 131550Z 14010KT CAVOK 15/03 Q1013 NOSIG",
      "taf": "TAF LOWW 131415Z 1315/1421 14012KT 9999 SCT050 TX17/1413Z TN09/1404Z"
    },
    {
      "icao": "LPFR",
      "alert": "OK",
      "vis_m": 9999,
      "fzfg": false,
      "metar_trigger": false,
      "taf_trigger": false,
      "metar": "METAR LPFR 131530Z 32010KT 280V360 9999 SCT030 18/08 Q1021",
      "taf": "TAF LPFR 131100Z 1312/1412 32015KT 9999 SCT030"
    },
    {
      "icao": "LPMA",
      "alert": "OK",
      "vis_m": 9999,
      "fzfg": false,
      "metar_trigger": false,
      "taf_trigger": false,
      "metar": "METAR LPMA 131530Z 02010KT 340V060 9999 SCT015 18/08 Q1026",
      "taf": "TAF LPMA 131100Z 1312/1412 02012KT 9999 SCT015 SCT030"
    },
    {
      "icao": "LPPR",
      "alert": "OK",
      "vis_m": 9999,
      "fzfg": false,
      "metar_trigger": false,
      "taf_trigger": false,
      "metar": "METAR LPPR 131530Z 22006KT 190V250 9999 -SHRA SCT012 SCT027 BKN042 13/11 Q1021",
      "taf": "TAF LPPR 131100Z 1312/1412 21008KT 9999 SCT008 BKN016"
    },
    {
      "icao": "LPPS",
      "alert": "OK",
      "vis_m": 9999,
      "fzfg": false,
      "metar_trigger": false,
      "taf_trigger": false,
      "metar": "METAR LPPS 131530Z 03011KT 360V070 9999 FEW015 SCT030 16/08 Q1026",
      "taf": "TAF LPPS 131100Z 1312/1418 05010KT 9999 SCT015 BKN030"
    },
    {
      "icao": "LPPT",
      "alert": "OK",
      "vis_m": 9999,
      "fzfg": false,
      "metar_trigger": false,
      "taf_trigger": false,
      "metar": "METAR LPPT 131530Z 29011KT 260V330 9999 FEW030 BKN044 15/08 Q1022",
      "taf": "TAF LPPT 131100Z 1312/1418 32010KT 9999 SCT030"
    },
    {
      "icao": "LQBK",
      "alert": "OK",
      "vis_m": 9999,
      "fzfg": false,
      "metar_trigger": false,
      "taf_trigger": false,
      "metar": "METAR LQBK 131530Z 04007KT 360V070 CAVOK 18/06 Q1010 NOSIG",
      "taf": ""
    },
    {
      "icao": "LQSA",
      "alert": "OK",
      "vis_m": 9999,
      "fzfg": false,
      "metar_trigger": false,
      "taf_trigger": false,
      "metar": "METAR LQSA 131530Z 17012KT 150V210 9999 FEW050 22/M00 Q1009 NOSIG",
      "taf": "TAF LQSA 131100Z 1312/1412 11007KT CAVOK TX25/1313Z TN06/1404Z"
    },
    {
      "icao": "LQTZ",
      "alert": "OK",
      "vis_m": 9999,
      "fzfg": false,
      "metar_trigger": false,
      "taf_trigger": false,
      "metar": "METAR LQTZ 131530Z VRB02KT CAVOK 20/09 Q1009",
      "taf": "TAF LQTZ 131100Z 1312/1412 17006KT CAVOK TX23/1313Z TN08/1404Z"
    },
    {
      "icao": "LRBC",
      "alert": "OK",
      "vis_m": 9999,
      "fzfg": false,
      "metar_trigger": false,
      "taf_trigger": false,
      "metar": "METAR LRBC 131530Z 11007KT 080V140 9999 SCT049 12/01 Q1022",
      "taf": "TAF LRBC 131400Z 1315/1324 16008KT CAVOK"
    },
    {
      "icao": "LRBS",
      "alert": "OK",
      "vis_m": 9999,
      "fzfg": false,
      "metar_trigger": false,
      "taf_trigger": false,
      "metar": "METAR LRBS 131530Z 06012KT CAVOK 15/02 Q1020 NOSIG",
      "taf": "TAF LRBS 131100Z 1312/1412 08012KT CAVOK"
    },
    {
      "icao": "LRBV",
      "alert": "OK",
      "vis_m": 9999,
      "fzfg": false,
      "metar_trigger": false,
      "taf_trigger": false,
      "metar": "METAR LRBV 131530Z 19010KT 160V220 9999 SCT059 13/01 Q1018",
      "taf": "TAF LRBV 131400Z 1315/1324 10010KT CAVOK"
    },
    {
      "icao": "LRCL",
      "alert": "OK",
      "vis_m": 9999,
      "fzfg": false,
      "metar_trigger": false,
      "taf_trigger": false,
      "metar": "METAR LRCL 131530Z 11008KT CAVOK 14/M01 Q1017",
      "taf": "TAF LRCL 131400Z 1315/1324 12008KT CAVOK"
    },
    {
      "icao": "LRCV",
      "alert": "OK",
      "vis_m": 9999,
      "fzfg": false,
      "metar_trigger": false,
      "taf_trigger": false,
      "metar": "METAR LRCV 131530Z 10014KT CAVOK 15/05 Q1018",
      "taf": "TAF LRCV 131400Z 1315/1324 09014KT CAVOK"
    },
    {
      "icao": "LRIA",
      "alert": "OK",
      "vis_m": 9999,
      "fzfg": false,
      "metar_trigger": false,
      "taf_trigger": false,
      "metar": "METAR LRIA 131530Z 06007KT 030V100 CAVOK 13/M02 Q1022",
      "taf": "TAF LRIA 131400Z 1315/1324 11006KT CAVOK"
    },
    {
      "icao": "LROP",
      "alert": "OK",
      "vis_m": 9999,
      "fzfg": false,
      "metar_trigger": false,
      "taf_trigger": false,
      "metar": "METAR LROP 131530Z 07013KT CAVOK 15/M00 Q1020 NOSIG",
      "taf": "TAF LROP 131100Z 1312/1412 08012KT CAVOK"
    },
    {
      "icao": "LRSB",
      "alert": "OK",
      "vis_m": 9999,
      "fzfg": false,
      "metar_trigger": false,
      "taf_trigger": false,
      "metar": "METAR LRSB 131530Z 14013KT 9999 FEW080 14/00 Q1016",
      "taf": "TAF LRSB 131100Z 1312/1412 12014KT CAVOK"
    },
    {
      "icao": "LRSM",
      "alert": "OK",
      "vis_m": 9999,
      "fzfg": false,
      "metar_trigger": false,
      "taf_trigger": false,
      "metar": "METAR LRSM 131530Z 12007KT CAVOK 16/M03 Q1017",
      "taf": "TAF LRSM 131400Z 1315/1324 13008KT CAVOK"
    },
    {
      "icao": "LRSV",
      "alert": "OK",
      "vis_m": 9999,
      "fzfg": false,
      "metar_trigger": false,
      "taf_trigger": false,
      "metar": "METAR LRSV 131530Z 10007KT CAVOK 10/M01 Q1021",
      "taf": "TAF LRSV 131400Z 1315/1324 08006KT CAVOK"
    },
    {
      "icao": "LRTM",
      "alert": "OK",
      "vis_m": 9999,
      "fzfg": false,
      "metar_trigger": false,
      "taf_trigger": false,
      "metar": "METAR LRTM 131530Z 09007KT 9999 FEW045 15/M03 Q1017",
      "taf": "TAF LRTM 131400Z 1315/1324 10008KT CAVOK"
    },
    {
      "icao": "LRTR",
      "alert": "OK",
      "vis_m": 9999,
      "fzfg": false,
      "metar_trigger": false,
      "taf_trigger": false,
      "metar": "METAR LRTR 131530Z 09008KT CAVOK 18/03 Q1014",
      "taf": "TAF LRTR 131100Z 1312/1412 10010KT CAVOK"
    },
    {
      "icao": "LTAC",
      "alert": "OK",
      "vis_m": 9999,
      "fzfg": false,
      "metar_trigger": false,
      "taf_trigger": false,
      "metar": "METAR LTAC 131550Z 27010KT CAVOK 10/M05 Q1019 NOSIG",
      "taf": "TAF LTAC 131040Z 1312/1412 VRB02KT 9999 FEW040 SCT200"
    },
    {
      "icao": "LTFM",
      "alert": "OK",
      "vis_m": 9999,
      "fzfg": false,
      "metar_trigger": false,
      "taf_trigger": false,
      "metar": "METAR LTFM 131550Z 09014KT CAVOK 10/05 Q1022 NOSIG",
      "taf": "TAF LTFM 131040Z 1312/1418 07014KT CAVOK"
    },
    {
      "icao": "LUKK",
      "alert": "OK",
      "vis_m": 9999,
      "fzfg": false,
      "metar_trigger": false,
      "taf_trigger": false,
      "metar": "METAR LUKK 131530Z 18007KT CAVOK 09/04 Q1023 NOSIG",
      "taf": "TAF LUKK 131119Z 1312/1412 VRB05KT CAVOK"
    },
    {
      "icao": "LWOH",
      "alert": "OK",
      "vis_m": 9999,
      "fzfg": false,
      "metar_trigger": false,
      "taf_trigger": false,
      "metar": "METAR LWOH 131550Z 16005KT 120V220 9999 FEW035 SCT090 15/09 Q1015",
      "taf": "TAF LWOH 131430Z 1315/1415 18010KT 9999 SCT040"
    },
    {
      "icao": "LWSK",
      "alert": "OK",
      "vis_m": 9999,
      "fzfg": false,
      "metar_trigger": false,
      "taf_trigger": false,
      "metar": "METAR LWSK 131550Z 14013KT 9999 FEW044 16/08 Q1016 NOSIG",
      "taf": "TAF LWSK 131430Z 1315/1415 14012KT 9999 SCT040"
    },
    {
      "icao": "LYBE",
      "alert": "OK",
      "vis_m": 9999,
      "fzfg": false,
      "metar_trigger": false,
      "taf_trigger": false,
      "metar": "METAR LYBE 131530Z 10016KT CAVOK 18/05 Q1012 NOSIG",
      "taf": "TAF LYBE 131100Z 1312/1412 11018KT CAVOK TX20/1313Z TN08/1404Z"
    },
    {
      "icao": "LYNI",
      "alert": "OK",
      "vis_m": 9999,
      "fzfg": false,
      "metar_trigger": false,
      "taf_trigger": false,
      "metar": "METAR LYNI 131530Z 05010KT CAVOK 20/06 Q1013 NOSIG",
      "taf": "TAF LYNI 131100Z 1312/1412 11007KT CAVOK TX22/1313Z TN08/1404Z"
    },
    {
      "icao": "LYPG",
      "alert": "OK",
      "vis_m": 9999,
      "fzfg": false,
      "metar_trigger": false,
      "taf_trigger": false,
      "metar": "METAR LYPG 131530Z 21012KT 190V260 CAVOK 23/07 Q1009 NOSIG",
      "taf": "TAF LYPG 131100Z 1312/1412 16005KT CAVOK TX22/1313Z TN10/1404Z"
    },
    {
      "icao": "LZIB",
      "alert": "OK",
      "vis_m": 9999,
      "fzfg": false,
      "metar_trigger": false,
      "taf_trigger": false,
      "metar": "METAR LZIB 131530Z 12013KT CAVOK 16/02 Q1014 NOSIG",
      "taf": "TAF LZIB 131115Z 1312/1412 12011KT CAVOK"
    },
    {
      "icao": "LZKZ",
      "alert": "OK",
      "vis_m": 9999,
      "fzfg": false,
      "metar_trigger": false,
      "taf_trigger": false,
      "metar": "METAR LZKZ 131530Z 08006KT CAVOK 14/M04 Q1017 NOSIG",
      "taf": "TAF LZKZ 131115Z 1312/1412 08007KT CAVOK"
    },
    {
      "icao": "LZTT",
      "alert": "OK",
      "vis_m": 9999,
      "fzfg": false,
      "metar_trigger": false,
      "taf_trigger": false,
      "metar": "METAR LZTT 131530Z 12007KT 090V160 CAVOK 12/M04 Q1017 NOSIG",
      "taf": "TAF LZTT 131115Z 1312/1412 10007KT 9999 SCT055"
    },
    {
      "icao": "OEJN",
      "alert": "OK",
      "vis_m": 9999,
      "fzfg": false,
      "metar_trigger": false,
      "taf_trigger": false,
      "metar": "METAR OEJN 131500Z 31010KT CAVOK 28/16 Q1009 NOSIG",
      "taf": "TAF OEJN 131100Z 1312/1418 30012KT 9999 FEW040"
    },
    {
      "icao": "OEMA",
      "alert": "OK",
      "vis_m": 9999,
      "fzfg": false,
      "metar_trigger": false,
      "taf_trigger": false,
      "metar": "METAR OEMA 131500Z VRB03KT CAVOK 33/M14 Q1013 NOSIG",
      "taf": "TAF OEMA 131100Z 1312/1418 30010KT CAVOK"
    },
    {
      "icao": "OJAI",
      "alert": "OK",
      "vis_m": 5000,
      "fzfg": false,
      "metar_trigger": false,
      "taf_trigger": false,
      "metar": "METAR OJAI 131500Z 28008KT 5000 HZ NSC 18/07 Q1019 NOSIG",
      "taf": "TAF OJAI 131100Z 1312/1418 30010KT 5000 HZ SCT035"
    },
    {
      "icao": "OMAA",
      "alert": "OK",
      "vis_m": null,
      "fzfg": false,
      "metar_trigger": false,
      "taf_trigger": false,
      "metar": "",
      "taf": ""
    },
    {
      "icao": "OMDB",
      "alert": "OK",
      "vis_m": null,
      "fzfg": false,
      "metar_trigger": false,
      "taf_trigger": false,
      "metar": "",
      "taf": ""
    },
    {
      "icao": "UAAA",
      "alert": "OK",
      "vis_m": 9999,
      "fzfg": false,
      "metar_trigger": false,
      "taf_trigger": false,
      "metar": "METAR UAAA 131530Z 32002MPS 9999 FEW050CB SCT100 15/03 Q1018 NOSIG",
      "taf": "TAF UAAA 131104Z 1312/1412 19002G07MPS 9999 FEW050CB SCT100 TX22/1409Z TN07/1401Z"
    },
    {
      "icao": "UBBB",
      "alert": "OK",
      "vis_m": 9999,
      "fzfg": false,
      "metar_trigger": false,
      "taf_trigger": false,
      "metar": "METAR UBBB 131530Z 34010KT 9999 -SHRA SCT010 SCT035CB OVC035 10/08 Q1015 NOSIG",
      "taf": "TAF UBBB 131051Z 1312/1412 36010KT 9999 SCT012 BKN020 TX12/1312Z TN08/1401Z"
    },
    {
      "icao": "UDSG",
      "alert": "OK",
      "vis_m": 9999,
      "fzfg": false,
      "metar_trigger": false,
      "taf_trigger": false,
      "metar": "METAR UDSG 131530Z 35005KT 320V070 9999 SCT036CB BKN046 02/M04 Q1016 NOSIG",
      "taf": "TAF UDSG 131058Z 1312/1412 36010KT 9999 BKN050"
    },
    {
      "icao": "UDYZ",
      "alert": "OK",
      "vis_m": 9999,
      "fzfg": false,
      "metar_trigger": false,
      "taf_trigger": false,
      "metar": "METAR UDYZ 131530Z 25003KT 9999 BKN043CB 10/01 Q1014 NOSIG",
      "taf": "TAF UDYZ 131100Z 1312/1412 12006KT 9999 BKN030"
    },
    {
      "icao": "UGKO",
      "alert": "OK",
      "vis_m": 9999,
      "fzfg": false,
      "metar_trigger": false,
      "taf_trigger": false,
      "metar": "METAR UGKO 131530Z 28015KT 250V340 9999 BKN021CB OVC038 09/05 Q1021 NOSIG",
      "taf": "TAF UGKO 131100Z 1312/1412 25007KT 9999 SCT023 OVC045 TX13/1411Z TN05/1403Z"
    }
  ]
}