{
  "ts_utc": "2026-01-03T17:40:18Z",
  "threshold_m": 150,
  "source": "stations_override.txt (ICAO list) + aviationweather.gov (METAR/TAF raw)",
  "station_count": 159,
  "stations": [
    {
      "icao": "BIKF",
      "alert": "OK",
      "vis_m": 9999,
      "fzfg": false,
      "metar_trigger": false,
      "taf_trigger": false,
      "metar": "METAR BIKF 031730Z 01007KT CAVOK M03/M10 Q1029",
      "taf": "TAF BIKF 031630Z 0318/0418 01008KT CAVOK TXM01/0415Z TNM07/0318Z"
    },
    {
      "icao": "BKPR",
      "alert": "OK",
      "vis_m": 9999,
      "fzfg": false,
      "metar_trigger": false,
      "taf_trigger": false,
      "metar": "METAR BKPR 031730Z 34013KT 9999 -RA FEW015 BKN040 01/00 Q1008 NOSIG",
      "taf": "TAF BKPR 031730Z 0318/0418 35010KT 9999 FEW020 BKN040"
    },
    {
      "icao": "EBCI",
      "alert": "OK",
      "vis_m": 9999,
      "fzfg": false,
      "metar_trigger": false,
      "taf_trigger": false,
      "metar": "METAR EBCI 031720Z 25013KT 9999 BKN006 M01/M02 Q1007 TEMPO 1200 SHSN BKN004",
      "taf": "TAF EBCI 031720Z 0318/0424 27008KT 9999 SCT015"
    },
    {
      "icao": "EDDB",
      "alert": "OK",
      "vis_m": 8000,
      "fzfg": false,
      "metar_trigger": false,
      "taf_trigger": false,
      "metar": "METAR EDDB 031720Z AUTO 23017KT 8000 -SN FEW004 SCT019 BKN025 M00/M02 Q0996 RESHSN TEMPO 24015G25KT 3000 SN",
      "taf": "TAF EDDB 031700Z 0318/0418 23014KT 9999 SCT015 BKN025"
    },
    {
      "icao": "EDDH",
      "alert": "OK",
      "vis_m": 9999,
      "fzfg": false,
      "metar_trigger": false,
      "taf_trigger": false,
      "metar": "METAR EDDH 031720Z AUTO 23008KT 9999 -SHSN BKN007 BKN021 BKN044 FEW///CB M01/M01 Q0994 RESHSN TEMPO 2000 SN BKN004",
      "taf": "TAF EDDH 031700Z 0318/0424 24010KT 9999 BKN015"
    },
    {
      "icao": "EDDK",
      "alert": "OK",
      "vis_m": 9999,
      "fzfg": false,
      "metar_trigger": false,
      "taf_trigger": false,
      "metar": "METAR EDDK 031720Z AUTO 27011KT 240V300 9999 OVC013 00/M02 Q1005 NOSIG",
      "taf": "TAF EDDK 031700Z 0318/0424 27012KT 9999 BKN020"
    },
    {
      "icao": "EDDN",
      "alert": "OK",
      "vis_m": 9999,
      "fzfg": false,
      "metar_trigger": false,
      "taf_trigger": false,
      "metar": "METAR EDDN 031720Z AUTO 22007KT 9999 FEW014 SCT033 OVC042 M02/M05 Q1005 NOSIG",
      "taf": "TAF EDDN 031700Z 0318/0418 24009KT 9999 BKN015"
    },
    {
      "icao": "EDDS",
      "alert": "OK",
      "vis_m": 9999,
      "fzfg": false,
      "metar_trigger": false,
      "taf_trigger": false,
      "metar": "METAR EDDS 031720Z AUTO 24006KT 190V270 9999 OVC036 M02/M05 Q1006 NOSIG",
      "taf": "TAF EDDS 031700Z 0318/0418 22006KT 9999 FEW020 BKN040"
    },
    {
      "icao": "EDFH",
      "alert": "OK",
      "vis_m": 9999,
      "fzfg": false,
      "metar_trigger": false,
      "taf_trigger": false,
      "metar": "METAR EDFH 031720Z 26014KT 9999 FEW023 BKN030 M03/M07 Q1004",
      "taf": "TAF EDFH 031700Z 0318/0418 27011KT 9999 BKN030"
    },
    {
      "icao": "EDJA",
      "alert": "OK",
      "vis_m": 9999,
      "fzfg": false,
      "metar_trigger": false,
      "taf_trigger": false,
      "metar": "METAR EDJA 031720Z 23013KT CAVOK M03/M08 Q1006",
      "taf": "TAF EDJA 031700Z 0318/0403 24010KT 9999 BKN040"
    },
    {
      "icao": "EDLW",
      "alert": "OK",
      "vis_m": 9999,
      "fzfg": false,
      "metar_trigger": false,
      "taf_trigger": false,
      "metar": "METAR EDLW 031720Z 23012KT 9999 FEW011 SCT013 BKN048 M00/M02 Q1002",
      "taf": "TAF EDLW 031700Z 0318/0418 25009KT 9999 SCT010 BKN015"
    },
    {
      "icao": "EDNY",
      "alert": "OK",
      "vis_m": 9999,
      "fzfg": false,
      "metar_trigger": false,
      "taf_trigger": false,
      "metar": "METAR EDNY 031720Z VRB02KT 9999 BKN060 M02/M06 Q1008",
      "taf": "TAF EDNY 031700Z 0318/0403 25005KT 9999 BKN030"
    },
    {
      "icao": "EDSB",
      "alert": "OK",
      "vis_m": 9999,
      "fzfg": false,
      "metar_trigger": false,
      "taf_trigger": false,
      "metar": "METAR EDSB 031720Z 21007KT 9999 -SN FEW035 BKN046 M00/M03 Q1009",
      "taf": "TAF EDSB 031700Z 0318/0418 21008KT 9999 FEW020 BKN030"
    },
    {
      "icao": "EETN",
      "alert": "OK",
      "vis_m": 9999,
      "fzfg": false,
      "metar_trigger": false,
      "taf_trigger": false,
      "metar": "METAR EETN 031720Z 08009KT 9999 -SN FEW017 BKN028 OVC047 M03/M04 Q0990 TEMPO 2000 SN",
      "taf": "TAF EETN 031730Z 0318/0418 08012KT 3000 SN SCT008 OVC015"
    },
    {
      "icao": "EFTU",
      "alert": "OK",
      "vis_m": 9999,
      "fzfg": false,
      "metar_trigger": false,
      "taf_trigger": false,
      "metar": "METAR EFTU 031720Z AUTO 07011KT 040V100 9999 BKN015 OVC030 M09/M11 Q0993",
      "taf": "TAF EFTU 031434Z 0315/0415 06007KT 9999 OVC011"
    },
    {
      "icao": "EGBB",
      "alert": "OK",
      "vis_m": 9999,
      "fzfg": false,
      "metar_trigger": false,
      "taf_trigger": false,
      "metar": "METAR EGBB 031720Z 31009KT CAVOK M00/M05 Q1013",
      "taf": "TAF EGBB 031659Z 0318/0418 32009KT CAVOK"
    },
    {
      "icao": "EGGP",
      "alert": "OK",
      "vis_m": 9999,
      "fzfg": false,
      "metar_trigger": false,
      "taf_trigger": false,
      "metar": "METAR EGGP 031720Z 35007KT 310V010 9999 FEW038 01/M05 Q1014",
      "taf": "TAF EGGP 031658Z 0318/0418 31009KT 9999 SCT035"
    },
    {
      "icao": "EGGW",
      "alert": "OK",
      "vis_m": 9999,
      "fzfg": false,
      "metar_trigger": false,
      "taf_trigger": false,
      "metar": "METAR EGGW 031720Z AUTO 31009KT 9999 NCD M01/M05 Q1011",
      "taf": "TAF EGGW 031659Z 0318/0418 30012KT 9999 FEW025"
    },
    {
      "icao": "EGKK",
      "alert": "OK",
      "vis_m": 9999,
      "fzfg": false,
      "metar_trigger": false,
      "taf_trigger": false,
      "metar": "METAR EGKK 031720Z 32006KT CAVOK 01/M05 Q1012",
      "taf": "TAF EGKK 031655Z 0318/0424 30010KT CAVOK"
    },
    {
      "icao": "EGNM",
      "alert": "OK",
      "vis_m": 9999,
      "fzfg": false,
      "metar_trigger": false,
      "taf_trigger": false,
      "metar": "METAR EGNM 031720Z 30014KT CAVOK M01/M07 Q1011",
      "taf": "TAF EGNM 031657Z 0318/0418 30015KT 9999 FEW045"
    },
    {
      "icao": "EGPD",
      "alert": "OK",
      "vis_m": 5000,
      "fzfg": false,
      "metar_trigger": false,
      "taf_trigger": false,
      "metar": "METAR EGPD 031720Z 32017KT 5000 R34/1200U SHSN SCT006 BKN024 M01/M03 Q1010 RESHSN TEMPO 1800 BKN006",
      "taf": "TAF EGPD 031658Z 0318/0418 31012KT 9999 FEW012"
    },
    {
      "icao": "EGPF",
      "alert": "OK",
      "vis_m": 9999,
      "fzfg": false,
      "metar_trigger": false,
      "taf_trigger": false,
      "metar": "METAR EGPF 031720Z AUTO 20007KT 9999 SCT047 M02/M05 Q1015",
      "taf": "TAF EGPF 031704Z 0318/0418 30007KT 9999 FEW030"
    },
    {
      "icao": "EHBK",
      "alert": "OK",
      "vis_m": 9999,
      "fzfg": false,
      "metar_trigger": false,
      "taf_trigger": false,
      "metar": "METAR EHBK 031725Z AUTO 25008KT 200V280 9999 BKN005 OVC006 M00/M00 Q1006 NOSIG",
      "taf": "TAF EHBK 031710Z 0318/0424 24011KT 9999 BKN006"
    },
    {
      "icao": "EHEH",
      "alert": "OK",
      "vis_m": 9000,
      "fzfg": false,
      "metar_trigger": false,
      "taf_trigger": false,
      "metar": "METAR EHEH 031725Z AUTO 23008KT 9000 BR NCD M01/M02 Q1005 BLU NOSIG RMK TREND REMOTE BY EHWX",
      "taf": ""
    },
    {
      "icao": "EKBI",
      "alert": "OK",
      "vis_m": 9999,
      "fzfg": false,
      "metar_trigger": false,
      "taf_trigger": false,
      "metar": "METAR EKBI 031720Z AUTO 33007KT 9999 NCD M06/M08 Q0995",
      "taf": "TAF EKBI 031727Z 0318/0418 26005KT 9999 FEW030"
    },
    {
      "icao": "EKCH",
      "alert": "OK",
      "vis_m": 9999,
      "fzfg": false,
      "metar_trigger": false,
      "taf_trigger": false,
      "metar": "METAR EKCH 031719Z 26009KT 9999 -SHSN BKN024 M04/M07 Q0993 NOSIG",
      "taf": "TAF EKCH 031727Z 0318/0418 28010KT 9999 -SHSN BKN040"
    },
    {
      "icao": "ENAL",
      "alert": "OK",
      "vis_m": 9999,
      "fzfg": false,
      "metar_trigger": false,
      "taf_trigger": false,
      "metar": "METAR ENAL 031720Z 13009KT CAVOK M05/M09 Q1002",
      "taf": "TAF ENAL 031700Z 0318/0403 14009KT CAVOK"
    },
    {
      "icao": "ENBR",
      "alert": "OK",
      "vis_m": 9999,
      "fzfg": false,
      "metar_trigger": false,
      "taf_trigger": false,
      "metar": "METAR ENBR 031720Z 09003KT CAVOK M08/M12 Q1000 NOSIG RMK WIND 1200FT 07003KT",
      "taf": "TAF ENBR 031700Z 0318/0418 08005KT CAVOK"
    },
    {
      "icao": "ENGM",
      "alert": "OK",
      "vis_m": 9000,
      "fzfg": false,
      "metar_trigger": false,
      "taf_trigger": false,
      "metar": "METAR ENGM 031720Z 36014KT 9000 -SHSN FEW041 SCT049 M09/M12 Q0996 TEMPO 4000",
      "taf": "TAF ENGM 031700Z 0318/0418 36015KT 9000 -SN BKN040"
    },
    {
      "icao": "ENHD",
      "alert": "OK",
      "vis_m": 9999,
      "fzfg": false,
      "metar_trigger": false,
      "taf_trigger": false,
      "metar": "METAR ENHD 031720Z 08005KT CAVOK M09/M13 Q1000",
      "taf": "TAF ENHD 031400Z 0315/0323 06009KT CAVOK"
    },
    {
      "icao": "ENTC",
      "alert": "OK",
      "vis_m": 9999,
      "fzfg": false,
      "metar_trigger": false,
      "taf_trigger": false,
      "metar": "METAR ENTC 031720Z 19010KT CAVOK M06/M10 Q1003 NOSIG RMK WIND 2600FT 18014KT",
      "taf": "TAF ENTC 031700Z 0318/0418 19009KT 9999 FEW040"
    },
    {
      "icao": "ENTO",
      "alert": "OK",
      "vis_m": 8000,
      "fzfg": false,
      "metar_trigger": false,
      "taf_trigger": false,
      "metar": "METAR ENTO 031720Z 36013KT 8000 -SN OVC027 M07/M10 Q0996 TEMPO 4000",
      "taf": "TAF ENTO 031700Z 0318/0418 01012KT 8000 -SN BKN025"
    },
    {
      "icao": "ENVA",
      "alert": "OK",
      "vis_m": 9999,
      "fzfg": false,
      "metar_trigger": false,
      "taf_trigger": false,
      "metar": "METAR ENVA 031720Z 12008KT CAVOK M15/M17 Q1005 RMK WIND 670FT 16009KT",
      "taf": "TAF ENVA 031700Z 0318/0418 12009KT CAVOK"
    },
    {
      "icao": "ENZV",
      "alert": "OK",
      "vis_m": 9999,
      "fzfg": false,
      "metar_trigger": false,
      "taf_trigger": false,
      "metar": "METAR ENZV 031720Z 03006KT CAVOK M04/M12 Q0999 NOSIG",
      "taf": "TAF ENZV 031700Z 0318/0418 07005KT CAVOK"
    },
    {
      "icao": "EPGD",
      "alert": "OK",
      "vis_m": 9999,
      "fzfg": false,
      "metar_trigger": false,
      "taf_trigger": false,
      "metar": "METAR EPGD 031730Z 23009KT CAVOK M04/M10 Q0992",
      "taf": "TAF EPGD 031730Z 0318/0418 23010KT CAVOK"
    },
    {
      "icao": "EPKK",
      "alert": "OK",
      "vis_m": 9999,
      "fzfg": false,
      "metar_trigger": false,
      "taf_trigger": false,
      "metar": "METAR EPKK 031730Z 25006KT CAVOK M03/M08 Q1002",
      "taf": "TAF EPKK 031730Z 0318/0418 24010KT CAVOK"
    },
    {
      "icao": "EPKT",
      "alert": "OK",
      "vis_m": 9999,
      "fzfg": false,
      "metar_trigger": false,
      "taf_trigger": false,
      "metar": "METAR EPKT 031730Z 21015KT 9999 BKN043 M00/M07 Q1001",
      "taf": "TAF EPKT 031730Z 0318/0418 22012KT CAVOK"
    },
    {
      "icao": "EPLB",
      "alert": "OK",
      "vis_m": 9999,
      "fzfg": false,
      "metar_trigger": false,
      "taf_trigger": false,
      "metar": "METAR EPLB 031730Z 23015KT 9999 DRSN FEW038 SCT048 M00/M06 Q1000",
      "taf": "TAF EPLB 031730Z 0318/0418 21013KT CAVOK"
    },
    {
      "icao": "EPMO",
      "alert": "OK",
      "vis_m": 4500,
      "fzfg": false,
      "metar_trigger": false,
      "taf_trigger": false,
      "metar": "METAR EPMO 031730Z 22014KT 190V250 4500 -SHSN DRSN BKN010 BKN020CB M00/M01 Q0997 RESHSN REBLSN",
      "taf": "TAF EPMO 031730Z 0318/0418 21012KT 9999 BKN030"
    },
    {
      "icao": "EPPO",
      "alert": "OK",
      "vis_m": 3700,
      "fzfg": false,
      "metar_trigger": false,
      "taf_trigger": false,
      "metar": "METAR EPPO 031730Z 23014KT 3700 -SN BR BKN011 M01/M02 Q0997",
      "taf": "TAF EPPO 031730Z 0318/0418 23014KT 9999 FEW017"
    },
    {
      "icao": "EPRA",
      "alert": "OK",
      "vis_m": 9999,
      "fzfg": false,
      "metar_trigger": false,
      "taf_trigger": false,
      "metar": "METAR EPRA 031730Z 23010KT 9999 SCT044 00/M06 Q1000",
      "taf": "TAF EPRA 031730Z 0318/0403 24010KT 9999 SCT040"
    },
    {
      "icao": "EPRZ",
      "alert": "OK",
      "vis_m": 9999,
      "fzfg": false,
      "metar_trigger": false,
      "taf_trigger": false,
      "metar": "METAR EPRZ 031730Z 21011KT CAVOK M01/M09 Q1003",
      "taf": "TAF EPRZ 031730Z 0318/0418 20011KT CAVOK"
    },
    {
      "icao": "EPSC",
      "alert": "OK",
      "vis_m": 9999,
      "fzfg": false,
      "metar_trigger": false,
      "taf_trigger": false,
      "metar": "METAR EPSC 031730Z 20002KT CAVOK M03/M07 Q0995",
      "taf": "TAF EPSC 031730Z 0318/0418 20003KT CAVOK"
    },
    {
      "icao": "EPSY",
      "alert": "OK",
      "vis_m": 9999,
      "fzfg": false,
      "metar_trigger": false,
      "taf_trigger": false,
      "metar": "METAR EPSY 031730Z 19008KT 9999 -SN SCT045 M04/M05 Q0995",
      "taf": "TAF EPSY 031730Z 0318/0403 21010KT 9999 SCT040"
    },
    {
      "icao": "EPWA",
      "alert": "OK",
      "vis_m": 6000,
      "fzfg": false,
      "metar_trigger": false,
      "taf_trigger": false,
      "metar": "METAR EPWA 031730Z 22010KT 6000 -SHSN BKN028CB M00/M01 Q0998 TEMPO 3000 SHSN BKN014",
      "taf": "TAF EPWA 031730Z 0318/0418 22011KT 9999 BKN035"
    },
    {
      "icao": "EPWR",
      "alert": "OK",
      "vis_m": 9999,
      "fzfg": false,
      "metar_trigger": false,
      "taf_trigger": false,
      "metar": "METAR EPWR 031730Z 23010KT CAVOK 00/M07 Q1000",
      "taf": "TAF EPWR 031730Z 0318/0418 24009KT CAVOK"
    },
    {
      "icao": "ESGG",
      "alert": "OK",
      "vis_m": 8000,
      "fzfg": false,
      "metar_trigger": false,
      "taf_trigger": false,
      "metar": "METAR ESGG 031720Z 34009KT 8000 -SN OVC011 M08/M09 Q0991",
      "taf": "TAF ESGG 031730Z 0318/0418 35009KT 6000 -SN SCT012 BKN020"
    },
    {
      "icao": "ESKN",
      "alert": "OK",
      "vis_m": 2500,
      "fzfg": false,
      "metar_trigger": false,
      "taf_trigger": false,
      "metar": "METAR ESKN 031720Z 01008KT 2500 -SHSN SCT007 BKN017 BKN024CB M02/M03 Q0987",
      "taf": "TAF ESKN 031730Z 0318/0418 01008KT 7000 -SN SCT008 BKN020"
    },
    {
      "icao": "ESMS",
      "alert": "OK",
      "vis_m": 9999,
      "fzfg": false,
      "metar_trigger": false,
      "taf_trigger": false,
      "metar": "METAR ESMS 031720Z 26011KT 9999 -SN OVC043 M03/M05 Q0991",
      "taf": "TAF ESMS 031727Z 0318/0418 30010KT 9999 -SN BKN016"
    },
    {
      "icao": "ESSA",
      "alert": "OK",
      "vis_m": 7000,
      "fzfg": false,
      "metar_trigger": false,
      "taf_trigger": false,
      "metar": "METAR ESSA 031720Z 02015KT 7000 -SN OVC005 M03/M04 Q0990 TEMPO 2000 SN VV015",
      "taf": "TAF ESSA 031730Z 0318/0418 02015KT 9000 -SN BKN007"
    },
    {
      "icao": "EYKA",
      "alert": "OK",
      "vis_m": 2700,
      "fzfg": false,
      "metar_trigger": false,
      "taf_trigger": false,
      "metar": "METAR EYKA 031720Z 23008KT 190V250 2700 SN BR BKN008 BKN013 OVC038 M02/M03 Q0993",
      "taf": "TAF EYKA 031700Z 0318/0418 22010KT 8000 SCT010 BKN020"
    },
    {
      "icao": "EYPA",
      "alert": "OK",
      "vis_m": 9999,
      "fzfg": false,
      "metar_trigger": false,
      "taf_trigger": false,
      "metar": "METAR EYPA 031720Z 22009KT 190V260 9999 -SHSNRA FEW020CB 00/M02 Q0987",
      "taf": "TAF EYPA 031700Z 0318/0418 23010KT 8000 BKN020"
    },
    {
      "icao": "EYVI",
      "alert": "OK",
      "vis_m": 9999,
      "fzfg": false,
      "metar_trigger": false,
      "taf_trigger": false,
      "metar": "METAR EYVI 031720Z 22011KT 9999 -SHSN SCT010CB BKN038 M02/M04 Q0993 TEMPO 1500 SHSN BKN010CB",
      "taf": "TAF EYVI 031700Z 0318/0418 21010KT 8000 SCT010 BKN020"
    },
    {
      "icao": "GCFV",
      "alert": "OK",
      "vis_m": 9999,
      "fzfg": false,
      "metar_trigger": false,
      "taf_trigger": false,
      "metar": "METAR GCFV 031730Z 27023KT 9999 SCT025 BKN035 20/12 Q1006",
      "taf": "TAF GCFV 031400Z 0315/0415 27020KT 9999 SCT025 TX23/0414Z TN17/0406Z"
    },
    {
      "icao": "GCLP",
      "alert": "OK",
      "vis_m": 9999,
      "fzfg": false,
      "metar_trigger": false,
      "taf_trigger": false,
      "metar": "METAR GCLP 031730Z 10006KT 050V140 9999 SCT040 21/15 Q1007 NOSIG",
      "taf": "TAF GCLP 031400Z 0315/0415 VRB08KT 9999 SCT030 TX22/0414Z TN16/0406Z"
    },
    {
      "icao": "GCTS",
      "alert": "OK",
      "vis_m": 9999,
      "fzfg": false,
      "metar_trigger": false,
      "taf_trigger": false,
      "metar": "METAR GCTS 031730Z 30014KT 9999 FEW041 21/13 Q1007 WS R25 NOSIG",
      "taf": "TAF GCTS 031400Z 0315/0415 28024KT 9999 SCT025 TX24/0414Z TN18/0406Z"
    },
    {
      "icao": "GMAD",
      "alert": "OK",
      "vis_m": 6000,
      "fzfg": false,
      "metar_trigger": false,
      "taf_trigger": false,
      "metar": "METAR GMAD 031730Z 21014KT 6000 SCT016 SCT026TCU BKN080 18/15 Q1004 TEMPO 4000 RA",
      "taf": "TAF GMAD 031700Z 0318/0424 20016KT 6000 SCT030TCU SCT080"
    },
    {
      "icao": "GMMN",
      "alert": "OK",
      "vis_m": 9999,
      "fzfg": false,
      "metar_trigger": false,
      "taf_trigger": false,
      "metar": "METAR GMMN 031730Z 21012KT 170V240 9999 SCT005 BKN025TCU 15/12 Q0999 RERA NOSIG",
      "taf": "TAF GMMN 031700Z 0318/0424 22018KT 9999 SCT016 BKN030"
    },
    {
      "icao": "GMMX",
      "alert": "OK",
      "vis_m": 9999,
      "fzfg": false,
      "metar_trigger": false,
      "taf_trigger": false,
      "metar": "METAR GMMX 031730Z 33004KT 290V360 9999 SCT016 BKN080 17/11 Q1000 NOSIG",
      "taf": "TAF GMMX 031700Z 0318/0424 12006KT 8000 SCT016 BKN023"
    },
    {
      "icao": "HEGN",
      "alert": "OK",
      "vis_m": 9999,
      "fzfg": false,
      "metar_trigger": false,
      "taf_trigger": false,
      "metar": "METAR HEGN 031700Z 33006KT CAVOK 19/09 Q1022 NOSIG",
      "taf": "TAF HEGN 031700Z 0318/0424 30010KT CAVOK"
    },
    {
      "icao": "HEMA",
      "alert": "OK",
      "vis_m": 9999,
      "fzfg": false,
      "metar_trigger": false,
      "taf_trigger": false,
      "metar": "METAR HEMA 031700Z 32016KT CAVOK 18/12 Q1021 NOSIG",
      "taf": "TAF HEMA 031700Z 0318/0424 34018KT CAVOK"
    },
    {
      "icao": "HESH",
      "alert": "OK",
      "vis_m": 9999,
      "fzfg": false,
      "metar_trigger": false,
      "taf_trigger": false,
      "metar": "METAR HESH 031700Z 35008KT CAVOK 20/11 Q1021 NOSIG",
      "taf": "TAF HESH 031700Z 0318/0424 33010KT CAVOK"
    },
    {
      "icao": "HESX",
      "alert": "OK",
      "vis_m": 9999,
      "fzfg": false,
      "metar_trigger": false,
      "taf_trigger": false,
      "metar": "METAR HESX 031700Z 03010KT CAVOK 13/06 Q1025 NOSIG",
      "taf": "TAF HESX 031700Z 0318/0424 04012KT CAVOK"
    },
    {
      "icao": "LATI",
      "alert": "OK",
      "vis_m": 9999,
      "fzfg": false,
      "metar_trigger": false,
      "taf_trigger": false,
      "metar": "METAR LATI 031720Z 13008KT 9999 OVC064 15/09 Q1010 NOSIG",
      "taf": "TAF LATI 031700Z 0318/0418 15010KT 9999 SCT020 OVC070 TX16/0412Z TN09/0403Z"
    },
    {
      "icao": "LBPD",
      "alert": "OK",
      "vis_m": 9999,
      "fzfg": false,
      "metar_trigger": false,
      "taf_trigger": false,
      "metar": "METAR LBPD 031730Z AUTO VRB03KT 9999 FEW085/// OVC100/// 09/02 Q1008 NOSIG",
      "taf": "TAF LBPD 031700Z 0318/0418 VRB03KT 9999 SCT020 BKN080"
    },
    {
      "icao": "LBSF",
      "alert": "OK",
      "vis_m": 9999,
      "fzfg": false,
      "metar_trigger": false,
      "taf_trigger": false,
      "metar": "METAR LBSF 031730Z AUTO 29009KT 9999 BKN043/// OVC073/// 04/02 Q1008 NOSIG",
      "taf": "TAF LBSF 031700Z 0318/0418 30012KT 9999 SCT025 BKN050"
    },
    {
      "icao": "LBWN",
      "alert": "OK",
      "vis_m": 9999,
      "fzfg": false,
      "metar_trigger": false,
      "taf_trigger": false,
      "metar": "METAR LBWN 031730Z AUTO 29010KT 260V340 9999 FEW046/// 10/03 Q1009 TEMPO RA",
      "taf": "TAF LBWN 031700Z 0318/0418 32010KT 9999 SCT045"
    },
    {
      "icao": "LCLK",
      "alert": "OK",
      "vis_m": 9999,
      "fzfg": false,
      "metar_trigger": false,
      "taf_trigger": false,
      "metar": "METAR LCLK 031730Z 32004KT 9999 FEW035 SCT050 12/08 Q1028 NOSIG",
      "taf": "TAF LCLK 031730Z 0318/0418 35007KT 9999 SCT050"
    },
    {
      "icao": "LCPH",
      "alert": "OK",
      "vis_m": 9999,
      "fzfg": false,
      "metar_trigger": false,
      "taf_trigger": false,
      "metar": "METAR LCPH 031730Z 07005KT 010V160 9999 BKN040 BKN047 14/07 Q1027 NOSIG",
      "taf": "TAF LCPH 031730Z 0318/0418 06008KT 9999 SCT050"
    },
    {
      "icao": "LEAL",
      "alert": "OK",
      "vis_m": 9999,
      "fzfg": false,
      "metar_trigger": false,
      "taf_trigger": false,
      "metar": "METAR LEAL 031730Z 29005KT 260V330 9999 BKN050 16/12 Q1002 NOSIG",
      "taf": "TAF LEAL 031700Z 0318/0418 30003KT 9999 SCT020 TX15/0414Z TN11/0406Z"
    },
    {
      "icao": "LEBB",
      "alert": "OK",
      "vis_m": 9999,
      "fzfg": false,
      "metar_trigger": false,
      "taf_trigger": false,
      "metar": "METAR LEBB 031730Z 07004KT 9999 -RA SCT024 BKN032 07/04 Q1011 NOSIG",
      "taf": "TAF LEBB 031700Z 0318/0418 VRB03KT 9000 SCT015 BKN030 TX07/0318Z TNM00/0406Z"
    },
    {
      "icao": "LEBL",
      "alert": "OK",
      "vis_m": 9999,
      "fzfg": false,
      "metar_trigger": false,
      "taf_trigger": false,
      "metar": "METAR LEBL 031700Z 09009KT 9999 BKN027 11/07 Q1006 NOSIG",
      "taf": "TAF LEBL 031700Z 0318/0418 07010KT 9999 SCT025 BKN055 TX11/0412Z TN08/0406Z"
    },
    {
      "icao": "LECH",
      "alert": "OK",
      "vis_m": 9000,
      "fzfg": false,
      "metar_trigger": false,
      "taf_trigger": false,
      "metar": "METAR LECH 031730Z AUTO 05006KT 9000 OVC011 10/09 Q1005",
      "taf": ""
    },
    {
      "icao": "LEMD",
      "alert": "OK",
      "vis_m": 9999,
      "fzfg": false,
      "metar_trigger": false,
      "taf_trigger": false,
      "metar": "METAR LEMD 031730Z 33002KT CAVOK 11/07 Q1003 NOSIG",
      "taf": "TAF LEMD 031700Z 0318/0424 VRB04KT 9999 FEW045 TX09/0414Z TN03/0407Z"
    },
    {
      "icao": "LEMG",
      "alert": "OK",
      "vis_m": 9999,
      "fzfg": false,
      "metar_trigger": false,
      "taf_trigger": false,
      "metar": "METAR LEMG 031730Z 11006KT 9999 FEW015 BKN080 15/13 Q1001 NOSIG",
      "taf": "TAF LEMG 031700Z 0318/0418 11009KT 9999 SCT020 TX18/0414Z TN11/0407Z"
    },
    {
      "icao": "LEVC",
      "alert": "OK",
      "vis_m": 9999,
      "fzfg": false,
      "metar_trigger": false,
      "taf_trigger": false,
      "metar": "METAR LEVC 031730Z 07006KT 040V100 9999 FEW020 SCT038 13/11 Q1005 NOSIG",
      "taf": "TAF LEVC 031700Z 0318/0418 03010KT 9999 SCT020 TX12/0414Z TN08/0406Z"
    },
    {
      "icao": "LEXJ",
      "alert": "OK",
      "vis_m": 7000,
      "fzfg": false,
      "metar_trigger": false,
      "taf_trigger": false,
      "metar": "METAR LEXJ 031730Z 09007KT 050V130 7000 -RA BKN018 OVC025 07/04 Q1011",
      "taf": "TAF LEXJ 031400Z 0315/0415 08009KT 9000 SCT010 BKN020 TX08/0315Z TN03/0408Z"
    },
    {
      "icao": "LEZG",
      "alert": "OK",
      "vis_m": 7000,
      "fzfg": false,
      "metar_trigger": false,
      "taf_trigger": false,
      "metar": "METAR LEZG 031730Z 23005KT 7000 SCT015 SCT070 08/07 Q1006 NOSIG",
      "taf": "TAF LEZG 031700Z 0318/0418 VRB04KT 9999 BKN050 TX06/0415Z TN02/0406Z"
    },
    {
      "icao": "LEZL",
      "alert": "OK",
      "vis_m": 9000,
      "fzfg": false,
      "metar_trigger": false,
      "taf_trigger": false,
      "metar": "METAR LEZL 031730Z 09007KT 9000 -DZ FEW038 SCT048 14/13 Q1000 NOSIG",
      "taf": "TAF LEZL 031400Z 0315/0415 08011KT 9999 SCT030 TX19/0315Z TN09/0407Z"
    },
    {
      "icao": "LFBD",
      "alert": "OK",
      "vis_m": 9999,
      "fzfg": false,
      "metar_trigger": false,
      "taf_trigger": false,
      "metar": "METAR LFBD 031730Z AUTO 35002KT CAVOK M01/M03 Q1012",
      "taf": ""
    },
    {
      "icao": "LFLL",
      "alert": "OK",
      "vis_m": 9999,
      "fzfg": false,
      "metar_trigger": false,
      "taf_trigger": false,
      "metar": "METAR LFLL 031730Z 01008KT CAVOK M01/M05 Q1011 NOSIG",
      "taf": "TAF LFLL 031700Z 0318/0424 35007KT CAVOK"
    },
    {
      "icao": "LFLS",
      "alert": "OK",
      "vis_m": 9999,
      "fzfg": false,
      "metar_trigger": false,
      "taf_trigger": false,
      "metar": "METAR LFLS 031730Z AUTO 36006KT CAVOK M01/M07 Q1010 NOSIG",
      "taf": "TAF LFLS 031400Z 0315/0415 35009KT CAVOK"
    },
    {
      "icao": "LFMN",
      "alert": "OK",
      "vis_m": 9999,
      "fzfg": false,
      "metar_trigger": false,
      "taf_trigger": false,
      "metar": "METAR LFMN 031730Z 32008KT 9999 FEW033 BKN200 08/05 Q1002 NOSIG",
      "taf": "TAF LFMN 031400Z 0315/0421 VRB02KT 9999 FEW033"
    },
    {
      "icao": "LFOB",
      "alert": "OK",
      "vis_m": 9999,
      "fzfg": false,
      "metar_trigger": false,
      "taf_trigger": false,
      "metar": "METAR LFOB 031730Z AUTO 26004KT 9999 FEW035 OVC041 01/M03 Q1011 NOSIG",
      "taf": "TAF LFOB 031700Z 0318/0418 28004KT CAVOK"
    },
    {
      "icao": "LFPO",
      "alert": "OK",
      "vis_m": 9999,
      "fzfg": false,
      "metar_trigger": false,
      "taf_trigger": false,
      "metar": "METAR LFPO 031730Z AUTO 27003KT CAVOK 00/M05 Q1011",
      "taf": ""
    },
    {
      "icao": "LFSB",
      "alert": "OK",
      "vis_m": 9999,
      "fzfg": false,
      "metar_trigger": false,
      "taf_trigger": false,
      "metar": "METAR LFSB 031730Z AUTO 25009KT 9999 FEW027 BKN039 OVC045 00/M04 Q1010 TEMPO FEW025TCU",
      "taf": "TAF LFSB 031700Z 0318/0418 27012KT 9999 SCT030 BKN090"
    },
    {
      "icao": "LGAV",
      "alert": "OK",
      "vis_m": 9999,
      "fzfg": false,
      "metar_trigger": false,
      "taf_trigger": false,
      "metar": "METAR LGAV 031720Z 23010KT 9999 FEW025 16/09 Q1017 NOSIG",
      "taf": "TAF LGAV 031700Z 0318/0418 21019KT 9999 FEW025 SCT060"
    },
    {
      "icao": "LGTS",
      "alert": "OK",
      "vis_m": 9999,
      "fzfg": false,
      "metar_trigger": false,
      "taf_trigger": false,
      "metar": "METAR LGTS 031720Z VRB02KT 9999 FEW025 08/05 Q1011 NOSIG",
      "taf": "TAF LGTS 031700Z 0318/0418 VRB03KT 9999 FEW025"
    },
    {
      "icao": "LHBP",
      "alert": "OK",
      "vis_m": 9999,
      "fzfg": false,
      "metar_trigger": false,
      "taf_trigger": false,
      "metar": "METAR LHBP 031730Z VRB02KT CAVOK M02/M07 Q1008 NOSIG",
      "taf": "TAF LHBP 031715Z 0318/0418 VRB03KT CAVOK"
    },
    {
      "icao": "LHDC",
      "alert": "OK",
      "vis_m": 9999,
      "fzfg": false,
      "metar_trigger": false,
      "taf_trigger": false,
      "metar": "METAR LHDC 031715Z AUTO 19005KT CAVOK M02/M04 Q1009 NOSIG",
      "taf": "TAF LHDC 031415Z 0315/0324 25010KT CAVOK"
    },
    {
      "icao": "LIBD",
      "alert": "OK",
      "vis_m": 9999,
      "fzfg": false,
      "metar_trigger": false,
      "taf_trigger": false,
      "metar": "METAR LIBD 031720Z 19007KT CAVOK 16/10 Q1006",
      "taf": "TAF LIBD 031700Z 0318/0418 19010KT 9999 FEW040"
    },
    {
      "icao": "LIBG",
      "alert": "OK",
      "vis_m": 9999,
      "fzfg": false,
      "metar_trigger": false,
      "taf_trigger": false,
      "metar": "METAR LIBG 031650Z 21006KT CAVOK 17/11 Q1008",
      "taf": "TAF LIBG 031700Z 0318/0403 21006KT 9999 FEW040"
    },
    {
      "icao": "LIBP",
      "alert": "OK",
      "vis_m": 5000,
      "fzfg": false,
      "metar_trigger": false,
      "taf_trigger": false,
      "metar": "METAR LIBP 031720Z AUTO VRB02KT 5000 BR OVC100/// 10/09 Q1004",
      "taf": "TAF LIBP 031700Z 0318/0418 VRB05KT 9999 BKN070"
    },
    {
      "icao": "LIBR",
      "alert": "OK",
      "vis_m": 9999,
      "fzfg": false,
      "metar_trigger": false,
      "taf_trigger": false,
      "metar": "METAR LIBR 031720Z 20012KT CAVOK 16/11 Q1008",
      "taf": "TAF LIBR 031700Z 0318/0418 19012KT 9999 FEW030"
    },
    {
      "icao": "LICA",
      "alert": "OK",
      "vis_m": 9999,
      "fzfg": false,
      "metar_trigger": false,
      "taf_trigger": false,
      "metar": "METAR LICA 031720Z AUTO 08005KT 9999 NCD 11/09 Q1010",
      "taf": "TAF LICA 031700Z 0318/0418 07010KT 9999 SCT040"
    },
    {
      "icao": "LICC",
      "alert": "OK",
      "vis_m": 9999,
      "fzfg": false,
      "metar_trigger": false,
      "taf_trigger": false,
      "metar": "METAR LICC 031720Z 24012KT CAVOK 15/11 Q1012",
      "taf": "TAF LICC 031100Z 0312/0412 26015KT 9999 SCT030"
    },
    {
      "icao": "LICJ",
      "alert": "OK",
      "vis_m": 9999,
      "fzfg": false,
      "metar_trigger": false,
      "taf_trigger": false,
      "metar": "METAR LICJ 031720Z AUTO 21017KT 9999 NCD 17/07 Q1009",
      "taf": "TAF LICJ 031100Z 0312/0412 19015G30KT CAVOK"
    },
    {
      "icao": "LIMC",
      "alert": "OK",
      "vis_m": 200,
      "fzfg": true,
      "metar_trigger": false,
      "taf_trigger": false,
      "metar": "METAR LIMC 031720Z VRB01KT 0200 R35R/0275N R17L/0275N R35L/0275N FZFG OVC001 M01/M01 Q1003 NOSIG",
      "taf": "TAF LIMC 031700Z 0318/0424 VRB04KT 6000 BKN014"
    },
    {
      "icao": "LIME",
      "alert": "CRITICAL",
      "vis_m": 100,
      "fzfg": true,
      "metar_trigger": true,
      "taf_trigger": false,
      "metar": "METAR LIME 031720Z VRB02KT 0100 R28/0450N FZFG VV001 M01/M01 Q1004 NOSIG",
      "taf": "TAF LIME 031700Z 0318/0418 VRB04KT 3000 BR BKN015"
    },
    {
      "icao": "LIMF",
      "alert": "OK",
      "vis_m": 9999,
      "fzfg": false,
      "metar_trigger": false,
      "taf_trigger": false,
      "metar": "METAR LIMF 031720Z 02003KT CAVOK 03/M01 Q1003",
      "taf": "TAF LIMF 031700Z 0318/0418 VRB04KT CAVOK"
    },
    {
      "icao": "LIMJ",
      "alert": "OK",
      "vis_m": 9999,
      "fzfg": false,
      "metar_trigger": false,
      "taf_trigger": false,
      "metar": "METAR LIMJ 031720Z 04011KT 9999 SCT046 09/M02 Q1002",
      "taf": "TAF LIMJ 031700Z 0318/0418 03015KT 9999 FEW030"
    },
    {
      "icao": "LIPE",
      "alert": "OK",
      "vis_m": 3000,
      "fzfg": false,
      "metar_trigger": false,
      "taf_trigger": false,
      "metar": "METAR LIPE 031720Z VRB02KT 3000 BR FEW003 BKN004 02/02 Q1004",
      "taf": "TAF LIPE 031700Z 0318/0418 VRB05KT 2000 BR OVC008"
    },
    {
      "icao": "LIPH",
      "alert": "OK",
      "vis_m": 9999,
      "fzfg": false,
      "metar_trigger": false,
      "taf_trigger": false,
      "metar": "METAR LIPH 031720Z VRB01KT CAVOK 04/01 Q1004",
      "taf": "TAF LIPH 031700Z 0318/0418 VRB05KT 9000 SCT030"
    },
    {
      "icao": "LIPQ",
      "alert": "OK",
      "vis_m": 9999,
      "fzfg": false,
      "metar_trigger": false,
      "taf_trigger": false,
      "metar": "METAR LIPQ 031720Z AUTO 11006KT 070V140 9999 -RA OVC031/// 07/01 Q1004",
      "taf": "TAF LIPQ 031700Z 0318/0418 VRB05KT 9999 SCT050"
    },
    {
      "icao": "LIPR",
      "alert": "OK",
      "vis_m": 400,
      "fzfg": false,
      "metar_trigger": false,
      "taf_trigger": false,
      "metar": "METAR LIPR 031720Z 34002KT 0400 R30/0800N FG OVC002 03/03 Q1004",
      "taf": "TAF LIPR 031700Z 0318/0418 VRB05KT 1500 BR OVC006"
    },
    {
      "icao": "LIPX",
      "alert": "OK",
      "vis_m": 1800,
      "fzfg": false,
      "metar_trigger": false,
      "taf_trigger": false,
      "metar": "METAR LIPX 031720Z 24005KT 210V270 1800 BR BKN004 02/01 Q1004",
      "taf": "TAF LIPX 031700Z 0318/0418 VRB04KT 2000 BR SCT008"
    },
    {
      "icao": "LIPY",
      "alert": "OK",
      "vis_m": 1700,
      "fzfg": false,
      "metar_trigger": false,
      "taf_trigger": false,
      "metar": "METAR LIPY 031720Z AUTO VRB01KT 1700 BR SCT057/// SCT066/// 06/06 Q1004",
      "taf": "TAF LIPY 031700Z 0318/0418 VRB05KT 2000 BR FEW008 SCT040"
    },
    {
      "icao": "LIPZ",
      "alert": "OK",
      "vis_m": 5000,
      "fzfg": false,
      "metar_trigger": false,
      "taf_trigger": false,
      "metar": "METAR LIPZ 031720Z 25005KT 5000 BR FEW045 02/01 Q1004 NOSIG",
      "taf": "TAF LIPZ 031700Z 0318/0424 VRB05KT 8000 SCT030"
    },
    {
      "icao": "LIRF",
      "alert": "OK",
      "vis_m": 9999,
      "fzfg": false,
      "metar_trigger": false,
      "taf_trigger": false,
      "metar": "METAR LIRF 031720Z 23008KT 9999 FEW015 BKN030 15/12 Q1005 NOSIG",
      "taf": "TAF LIRF 031700Z 0318/0424 24015KT 9999 SCT030"
    },
    {
      "icao": "LIRN",
      "alert": "OK",
      "vis_m": 9999,
      "fzfg": false,
      "metar_trigger": false,
      "taf_trigger": false,
      "metar": "METAR LIRN 031720Z 22009KT 180V240 9999 SCT020 15/12 Q1007 NOSIG",
      "taf": "TAF LIRN 031700Z 0318/0418 22014KT 9999 SCT030"
    },
    {
      "icao": "LIRP",
      "alert": "OK",
      "vis_m": 9999,
      "fzfg": false,
      "metar_trigger": false,
      "taf_trigger": false,
      "metar": "METAR LIRP 031715Z 25011KT 9999 SCT040 10/04 Q1003 NOSIG",
      "taf": "TAF LIRP 031700Z 0318/0418 22012KT 9999 FEW020 SCT040"
    },
    {
      "icao": "LIRZ",
      "alert": "OK",
      "vis_m": 9999,
      "fzfg": false,
      "metar_trigger": false,
      "taf_trigger": false,
      "metar": "METAR LIRZ 031720Z AUTO 23006KT 9999 BKN024/// BKN056/// 11/08 Q1004",
      "taf": "TAF LIRZ 031700Z 0318/0418 19013KT 9999 SCT030"
    },
    {
      "icao": "LJLJ",
      "alert": "OK",
      "vis_m": 9999,
      "fzfg": false,
      "metar_trigger": false,
      "taf_trigger": false,
      "metar": "METAR LJLJ 031730Z 14003KT 080V160 9999 FEW027 BKN046 01/M01 Q1005 NOSIG",
      "taf": "TAF LJLJ 031700Z 0318/0418 VRB02KT 9999 FEW025 BKN040"
    },
    {
      "icao": "LKMT",
      "alert": "OK",
      "vis_m": 9999,
      "fzfg": false,
      "metar_trigger": false,
      "taf_trigger": false,
      "metar": "METAR LKMT 031730Z 21012KT 9999 SCT048 M01/M06 Q1003 NOSIG",
      "taf": "TAF LKMT 031700Z 0318/0418 21012KT CAVOK"
    },
    {
      "icao": "LKPR",
      "alert": "OK",
      "vis_m": 9999,
      "fzfg": false,
      "metar_trigger": false,
      "taf_trigger": false,
      "metar": "METAR LKPR 031730Z 21020KT 9999 -SHSN FEW023 SCT040 M02/M07 Q1001 TEMPO 21025KT 5000 SHSN BKN017",
      "taf": "TAF LKPR 031700Z 0318/0424 22016KT 9999 BKN030"
    },
    {
      "icao": "LLBG",
      "alert": "OK",
      "vis_m": 9999,
      "fzfg": false,
      "metar_trigger": false,
      "taf_trigger": false,
      "metar": "METAR LLBG 031720Z 02007KT CAVOK 13/07 Q1026 NOSIG",
      "taf": "TAF LLBG 031705Z 0318/0418 05005KT CAVOK"
    },
    {
      "icao": "LMML",
      "alert": "OK",
      "vis_m": 9999,
      "fzfg": false,
      "metar_trigger": false,
      "taf_trigger": false,
      "metar": "METAR LMML 031715Z 20011KT 160V230 CAVOK 15/11 Q1014 NOSIG",
      "taf": "TAF LMML 031700Z 0318/0418 21015KT 9999 FEW020"
    },
    {
      "icao": "LOWW",
      "alert": "OK",
      "vis_m": 9999,
      "fzfg": false,
      "metar_trigger": false,
      "taf_trigger": false,
      "metar": "METAR LOWW 031720Z 17009KT CAVOK M01/M03 Q1006 NOSIG",
      "taf": "TAF LOWW 031715Z 0318/0424 18008KT 9999 FEW050 TX02/0413Z TNM05/0424Z"
    },
    {
      "icao": "LPFR",
      "alert": "OK",
      "vis_m": 9999,
      "fzfg": false,
      "metar_trigger": false,
      "taf_trigger": false,
      "metar": "METAR LPFR 031730Z 10009KT 9999 FEW015 FEW018TCU SCT020 15/14 Q0996",
      "taf": "TAF LPFR 031700Z 0318/0418 10010KT 9999 SCT015 SCT030"
    },
    {
      "icao": "LPMA",
      "alert": "OK",
      "vis_m": 9999,
      "fzfg": false,
      "metar_trigger": false,
      "taf_trigger": false,
      "metar": "METAR LPMA 031730Z 34013G24KT 300V010 9999 SCT015 19/11 Q1001",
      "taf": "TAF LPMA 031700Z 0318/0418 34010KT 9999 SCT015"
    },
    {
      "icao": "LPPR",
      "alert": "OK",
      "vis_m": 9999,
      "fzfg": false,
      "metar_trigger": false,
      "taf_trigger": false,
      "metar": "METAR LPPR 031730Z 07005KT 040V110 CAVOK 16/09 Q1001",
      "taf": "TAF LPPR 031700Z 0318/0418 08007KT 9999 SCT045"
    },
    {
      "icao": "LPPS",
      "alert": "OK",
      "vis_m": 9999,
      "fzfg": false,
      "metar_trigger": false,
      "taf_trigger": false,
      "metar": "METAR LPPS 031730Z 31025G35KT 9999 SCT014 18/13 Q1000",
      "taf": "TAF LPPS 031700Z 0318/0424 31020KT 9999 SCT015"
    },
    {
      "icao": "LPPT",
      "alert": "OK",
      "vis_m": 9999,
      "fzfg": false,
      "metar_trigger": false,
      "taf_trigger": false,
      "metar": "METAR LPPT 031730Z 09008G24KT 040V190 9999 VCSH FEW008 BKN012 FEW020CB 14/13 Q0997",
      "taf": "TAF LPPT 031700Z 0318/0424 10010KT 9999 SCT012 SCT018"
    },
    {
      "icao": "LQBK",
      "alert": "OK",
      "vis_m": 6000,
      "fzfg": false,
      "metar_trigger": false,
      "taf_trigger": false,
      "metar": "METAR LQBK 031730Z 34003KT 310V020 6000 -SG SCT007 BKN045 00/00 Q1007 NOSIG",
      "taf": "TAF LQBK 031700Z 0318/0418 06005KT 9999 SCT015 BKN040 TX01/0411Z TNM01/0418Z"
    },
    {
      "icao": "LQSA",
      "alert": "OK",
      "vis_m": 4000,
      "fzfg": false,
      "metar_trigger": false,
      "taf_trigger": false,
      "metar": "METAR LQSA 031730Z VRB02KT 4000 -RA BR SCT004 BKN030 01/01 Q1006 NOSIG",
      "taf": ""
    },
    {
      "icao": "LQTZ",
      "alert": "OK",
      "vis_m": 9999,
      "fzfg": false,
      "metar_trigger": false,
      "taf_trigger": false,
      "metar": "METAR LQTZ 031730Z 12010KT 9999 FEW025 SCT045 02/01 Q1007",
      "taf": "TAF LQTZ 031700Z 0318/0418 27005KT 8000 SCT015 BKN045 TX02/0318Z TNM01/0418Z"
    },
    {
      "icao": "LRBC",
      "alert": "OK",
      "vis_m": 9999,
      "fzfg": false,
      "metar_trigger": false,
      "taf_trigger": false,
      "metar": "METAR LRBC 031730Z 26010KT CAVOK 02/M05 Q1008",
      "taf": "TAF LRBC 031700Z 0318/0403 VRB04KT CAVOK"
    },
    {
      "icao": "LRBS",
      "alert": "OK",
      "vis_m": 9999,
      "fzfg": false,
      "metar_trigger": false,
      "taf_trigger": false,
      "metar": "METAR LRBS 031730Z 26004KT CAVOK 03/02 Q1010 NOSIG",
      "taf": "TAF LRBS 031700Z 0318/0418 VRB04KT 9999 BKN045"
    },
    {
      "icao": "LRBV",
      "alert": "OK",
      "vis_m": 9999,
      "fzfg": false,
      "metar_trigger": false,
      "taf_trigger": false,
      "metar": "METAR LRBV 031730Z 22005KT 9999 OVC010 00/M02 Q1009",
      "taf": "TAF LRBV 031700Z 0318/0403 VRB04KT 9999 BKN020"
    },
    {
      "icao": "LRCL",
      "alert": "OK",
      "vis_m": 5000,
      "fzfg": false,
      "metar_trigger": false,
      "taf_trigger": false,
      "metar": "METAR LRCL 031730Z 12003KT 5000 BR NSC M06/M07 Q1010",
      "taf": "TAF LRCL 031700Z 0318/0403 VRB04KT 5000 BR NSC"
    },
    {
      "icao": "LRCV",
      "alert": "OK",
      "vis_m": 9999,
      "fzfg": false,
      "metar_trigger": false,
      "taf_trigger": false,
      "metar": "METAR LRCV 031730Z 23004KT CAVOK 02/01 Q1010",
      "taf": "TAF LRCV 031700Z 0318/0403 VRB04KT 9999 SCT040"
    },
    {
      "icao": "LRIA",
      "alert": "OK",
      "vis_m": 9999,
      "fzfg": false,
      "metar_trigger": false,
      "taf_trigger": false,
      "metar": "METAR LRIA 031730Z 27008KT 240V310 CAVOK 03/M05 Q1008",
      "taf": "TAF LRIA 031700Z 0318/0403 26006KT CAVOK"
    },
    {
      "icao": "LROP",
      "alert": "OK",
      "vis_m": 9999,
      "fzfg": false,
      "metar_trigger": false,
      "taf_trigger": false,
      "metar": "METAR LROP 031730Z 22005KT CAVOK 02/02 Q1010 NOSIG",
      "taf": "TAF LROP 031700Z 0318/0418 VRB04KT 9999 BKN045"
    },
    {
      "icao": "LRSB",
      "alert": "OK",
      "vis_m": 9999,
      "fzfg": false,
      "metar_trigger": false,
      "taf_trigger": false,
      "metar": "METAR LRSB 031730Z 02005KT 340V040 CAVOK M02/M02 Q1009",
      "taf": "TAF LRSB 031700Z 0318/0418 24006KT CAVOK"
    },
    {
      "icao": "LRSM",
      "alert": "OK",
      "vis_m": 9999,
      "fzfg": false,
      "metar_trigger": false,
      "taf_trigger": false,
      "metar": "METAR LRSM 031730Z AUTO 22007KT 9999 NCD M01/M04 Q1009",
      "taf": ""
    },
    {
      "icao": "LRSV",
      "alert": "OK",
      "vis_m": 9999,
      "fzfg": false,
      "metar_trigger": false,
      "taf_trigger": false,
      "metar": "METAR LRSV 031730Z 27012KT CAVOK 00/M07 Q1006",
      "taf": "TAF LRSV 031700Z 0318/0403 27010KT CAVOK"
    },
    {
      "icao": "LRTM",
      "alert": "OK",
      "vis_m": 2300,
      "fzfg": false,
      "metar_trigger": false,
      "taf_trigger": false,
      "metar": "METAR LRTM 031730Z AUTO 00000KT 2300 BR BKN130/// M02/M02 Q1010",
      "taf": "TAF LRTM 031400Z 0315/0324 VRB04KT 9999 SCT010 BKN025"
    },
    {
      "icao": "LRTR",
      "alert": "OK",
      "vis_m": 5000,
      "fzfg": false,
      "metar_trigger": false,
      "taf_trigger": false,
      "metar": "METAR LRTR 031730Z 15004KT 5000 BR NSC M00/M00 Q1010",
      "taf": "TAF LRTR 031700Z 0318/0418 VRB04KT 5000 BR NSC"
    },
    {
      "icao": "LTAC",
      "alert": "OK",
      "vis_m": 7000,
      "fzfg": false,
      "metar_trigger": false,
      "taf_trigger": false,
      "metar": "METAR LTAC 031720Z VRB01KT 7000 BKN035 BKN080 M01/M05 Q1022 NOSIG RMK RWY21C VRB02KT RWY03L 00000KT RWY21R VRB02KT RWY03R 00000KT RWY21L 10002KT",
      "taf": "TAF LTAC 031640Z 0318/0418 VRB02KT 8000 SCT035 BKN100"
    },
    {
      "icao": "LTFM",
      "alert": "OK",
      "vis_m": 9999,
      "fzfg": false,
      "metar_trigger": false,
      "taf_trigger": false,
      "metar": "METAR LTFM 031720Z 21024G35KT 9999 SCT035 BKN080 13/08 Q1012 NOSIG RMK RWY17L 21024KT RWY34L 20023G33KT RWY16R 21023G35KT RWY36 21022G36KT RWY18 21025KT",
      "taf": "TAF LTFM 031640Z 0318/0424 21025G37KT 9999 -SHRA SCT035 BKN080"
    },
    {
      "icao": "LUKK",
      "alert": "OK",
      "vis_m": 9999,
      "fzfg": false,
      "metar_trigger": false,
      "taf_trigger": false,
      "metar": "METAR LUKK 031730Z VRB02KT CAVOK M01/M03 Q1007 NOSIG",
      "taf": "TAF LUKK 031717Z 0318/0418 VRB06KT CAVOK"
    },
    {
      "icao": "LWOH",
      "alert": "OK",
      "vis_m": 9999,
      "fzfg": false,
      "metar_trigger": false,
      "taf_trigger": false,
      "metar": "METAR LWOH 031720Z 13011KT 090V150 9999 SCT010 SCT035TCU BKN045 11/06 Q1010",
      "taf": "TAF LWOH 031125Z 0312/0412 14012KT 9999 SCT020 OVC035"
    },
    {
      "icao": "LWSK",
      "alert": "OK",
      "vis_m": 9999,
      "fzfg": false,
      "metar_trigger": false,
      "taf_trigger": false,
      "metar": "METAR LWSK 031720Z 10004KT 060V160 9999 FEW040 BKN060 08/04 Q1008 NOSIG",
      "taf": "TAF LWSK 031450Z 0315/0415 VRB02KT 9999 FEW040 BKN060"
    },
    {
      "icao": "LYBE",
      "alert": "OK",
      "vis_m": 9999,
      "fzfg": false,
      "metar_trigger": false,
      "taf_trigger": false,
      "metar": "METAR LYBE 031730Z 11006KT CAVOK 01/M00 Q1010 NOSIG",
      "taf": "TAF LYBE 031700Z 0318/0418 14008KT 9999 SCT040 TX02/0405Z TNM01/0418Z"
    },
    {
      "icao": "LYNI",
      "alert": "OK",
      "vis_m": 9999,
      "fzfg": false,
      "metar_trigger": false,
      "taf_trigger": false,
      "metar": "METAR LYNI 031730Z 00000KT 9999 SCT015 BKN037 02/01 Q1011 NOSIG",
      "taf": "TAF LYNI 031700Z 0318/0418 02006KT 9999 SCT017 BKN035 OVC070 TX13/0411Z TN00/0418Z"
    },
    {
      "icao": "LYPG",
      "alert": "OK",
      "vis_m": 7000,
      "fzfg": false,
      "metar_trigger": false,
      "taf_trigger": false,
      "metar": "METAR LYPG 031730Z VRB02KT 7000 +RA FEW020 SCT034 OVC070 12/11 Q1008 TEMPO 4000",
      "taf": "TAF LYPG 031700Z 0318/0418 15007KT 9999 FEW020 BKN040 OVC070 TX11/0413Z TN08/0406Z"
    },
    {
      "icao": "LZIB",
      "alert": "OK",
      "vis_m": 9999,
      "fzfg": false,
      "metar_trigger": false,
      "taf_trigger": false,
      "metar": "METAR LZIB 031730Z 19014KT CAVOK 02/M01 Q1006 NOSIG",
      "taf": "TAF LZIB 031715Z 0318/0418 19009KT 9999 FEW045"
    },
    {
      "icao": "LZKZ",
      "alert": "OK",
      "vis_m": 9999,
      "fzfg": false,
      "metar_trigger": false,
      "taf_trigger": false,
      "metar": "METAR LZKZ 031730Z 23008KT CAVOK M00/M08 Q1006 NOSIG",
      "taf": "TAF LZKZ 031715Z 0318/0418 22007KT CAVOK"
    },
    {
      "icao": "LZTT",
      "alert": "OK",
      "vis_m": 9999,
      "fzfg": false,
      "metar_trigger": false,
      "taf_trigger": false,
      "metar": "METAR LZTT 031730Z 26012KT CAVOK M05/M11 Q1003 NOSIG",
      "taf": "TAF LZTT 031715Z 0318/0418 26011KT CAVOK"
    },
    {
      "icao": "OEJN",
      "alert": "OK",
      "vis_m": 9999,
      "fzfg": false,
      "metar_trigger": false,
      "taf_trigger": false,
      "metar": "METAR OEJN 031700Z 34010KT CAVOK 26/16 Q1016 NOSIG",
      "taf": "TAF OEJN 031700Z 0318/0424 02005KT CAVOK"
    },
    {
      "icao": "OEMA",
      "alert": "OK",
      "vis_m": 9999,
      "fzfg": false,
      "metar_trigger": false,
      "taf_trigger": false,
      "metar": "METAR OEMA 031700Z 35003KT CAVOK 23/02 Q1021 NOSIG",
      "taf": "TAF OEMA 031700Z 0318/0424 05020KT 7000 NSC"
    },
    {
      "icao": "OJAI",
      "alert": "OK",
      "vis_m": 5000,
      "fzfg": false,
      "metar_trigger": false,
      "taf_trigger": false,
      "metar": "METAR OJAI 031700Z 06005KT 5000 HZ NSC 07/02 Q1029 NOSIG",
      "taf": "TAF OJAI 031700Z 0318/0424 12006KT 6000 NSC"
    },
    {
      "icao": "OMAA",
      "alert": "OK",
      "vis_m": 9999,
      "fzfg": false,
      "metar_trigger": false,
      "taf_trigger": false,
      "metar": "METAR OMAA 031700Z 28006KT CAVOK 21/17 Q1019 NOSIG",
      "taf": "TAF OMAA 031700Z 0318/0500 25005KT 8000 NSC"
    },
    {
      "icao": "OMDB",
      "alert": "OK",
      "vis_m": 9999,
      "fzfg": false,
      "metar_trigger": false,
      "taf_trigger": false,
      "metar": "METAR OMDB 031730Z 25005KT 120V280 9999 FEW025 23/16 Q1019 NOSIG",
      "taf": "TAF OMDB 031700Z 0318/0500 18005KT 8000 NSC"
    },
    {
      "icao": "UAAA",
      "alert": "CRITICAL",
      "vis_m": 50,
      "fzfg": true,
      "metar_trigger": true,
      "taf_trigger": false,
      "metar": "METAR UAAA 031730Z VRB01MPS 0050 R23L/0175N FZFG VV002 M01/M02 Q1023 NOSIG RMK QBB060",
      "taf": "TAF UAAA 031702Z 0318/0418 16003MPS 0200 FZFG VV001 TX05/0409Z TNM03/0402Z"
    },
    {
      "icao": "UBBB",
      "alert": "OK",
      "vis_m": 9999,
      "fzfg": false,
      "metar_trigger": false,
      "taf_trigger": false,
      "metar": "METAR UBBB 031730Z 18016KT CAVOK 04/00 Q1024 NOSIG",
      "taf": "TAF UBBB 031705Z 0318/0418 18018G28KT CAVOK TX07/0409Z TN01/0401Z"
    },
    {
      "icao": "UDSG",
      "alert": "OK",
      "vis_m": 6000,
      "fzfg": false,
      "metar_trigger": false,
      "taf_trigger": false,
      "metar": "METAR UDSG 031730Z 06004KT 6000 NSC M24/M27 Q1027 NOSIG",
      "taf": "TAF UDSG 031658Z 0318/0418 VRB06KT 5000 BR FEW040"
    },
    {
      "icao": "UDYZ",
      "alert": "OK",
      "vis_m": 9999,
      "fzfg": false,
      "metar_trigger": false,
      "taf_trigger": false,
      "metar": "METAR UDYZ 031730Z 01002KT 9999 NSC M12/M15 Q1031 NOSIG",
      "taf": "TAF UDYZ 031700Z 0318/0418 VRB04KT 6000 NSC"
    },
    {
      "icao": "UGKO",
      "alert": "OK",
      "vis_m": 9999,
      "fzfg": false,
      "metar_trigger": false,
      "taf_trigger": false,
      "metar": "METAR UGKO 031730Z 09009KT CAVOK 01/M07 Q1022 NOSIG",
      "taf": "TAF UGKO 031700Z 0318/0418 08008KT CAVOK TX08/0412Z TNM02/0402Z"
    }
  ]
}