{
  "ts_utc": "2026-02-10T18:40:34Z",
  "threshold_m": 150,
  "source": "stations_override.txt (ICAO list) + aviationweather.gov (METAR/TAF raw)",
  "station_count": 159,
  "stations": [
    {
      "icao": "BIKF",
      "alert": "OK",
      "vis_m": 9999,
      "fzfg": false,
      "metar_trigger": false,
      "taf_trigger": false,
      "metar": "METAR BIKF 101830Z 08015KT CAVOK 03/M05 Q1006",
      "taf": "TAF BIKF 101610Z 1018/1118 05012KT CAVOK TX02/1018Z TNM03/1118Z"
    },
    {
      "icao": "BKPR",
      "alert": "OK",
      "vis_m": 9999,
      "fzfg": false,
      "metar_trigger": false,
      "taf_trigger": false,
      "metar": "METAR BKPR 101830Z 17010KT 9999 SCT020 BKN030 06/04 Q1007 NOSIG",
      "taf": "TAF BKPR 101730Z 1018/1118 16008KT 9999 SCT012 BKN030"
    },
    {
      "icao": "EBCI",
      "alert": "OK",
      "vis_m": 9999,
      "fzfg": false,
      "metar_trigger": false,
      "taf_trigger": false,
      "metar": "METAR EBCI 101820Z 16008KT 9999 SCT011 BKN025 09/07 Q0987 NOSIG",
      "taf": "TAF EBCI 101700Z 1018/1124 15006KT 9999 SCT015 BKN020"
    },
    {
      "icao": "EDDB",
      "alert": "OK",
      "vis_m": 7000,
      "fzfg": false,
      "metar_trigger": false,
      "taf_trigger": false,
      "metar": "METAR EDDB 101820Z AUTO 11009KT 7000 NSC 01/00 Q0995 NOSIG",
      "taf": ""
    },
    {
      "icao": "EDDH",
      "alert": "OK",
      "vis_m": 5000,
      "fzfg": false,
      "metar_trigger": false,
      "taf_trigger": false,
      "metar": "METAR EDDH 101820Z AUTO 11009KT 5000 -SHRA BR FEW007 BKN022 OVC035 FEW///TCU 03/02 Q0992 RESHRA TEMPO 4500 RADZ",
      "taf": "TAF EDDH 101700Z 1018/1124 09007KT 9999 BKN020"
    },
    {
      "icao": "EDDK",
      "alert": "OK",
      "vis_m": 9999,
      "fzfg": false,
      "metar_trigger": false,
      "taf_trigger": false,
      "metar": "METAR EDDK 101820Z AUTO 14010KT 9999 SCT029 BKN035 08/05 Q0990 NOSIG",
      "taf": "TAF EDDK 101700Z 1018/1124 13008KT 9999 BKN020"
    },
    {
      "icao": "EDDN",
      "alert": "OK",
      "vis_m": 9999,
      "fzfg": false,
      "metar_trigger": false,
      "taf_trigger": false,
      "metar": "METAR EDDN 101820Z AUTO 14009KT 9999 FEW026 BKN045 05/01 Q0995 NOSIG",
      "taf": "TAF EDDN 101700Z 1018/1118 15008KT 9999 OVC035"
    },
    {
      "icao": "EDDS",
      "alert": "OK",
      "vis_m": 9999,
      "fzfg": false,
      "metar_trigger": false,
      "taf_trigger": false,
      "metar": "METAR EDDS 101820Z AUTO 19005KT 9999 BKN033 OVC039 07/03 Q0993 NOSIG",
      "taf": "TAF EDDS 101700Z 1018/1118 15004KT 9999 BKN020"
    },
    {
      "icao": "EDFH",
      "alert": "OK",
      "vis_m": 8000,
      "fzfg": false,
      "metar_trigger": false,
      "taf_trigger": false,
      "metar": "METAR EDFH 101820Z 16008KT 8000 FEW001 SCT015 07/07 Q0990 REDZ",
      "taf": "TAF EDFH 101700Z 1018/1118 17010KT 9999 BKN010"
    },
    {
      "icao": "EDJA",
      "alert": "OK",
      "vis_m": 9999,
      "fzfg": false,
      "metar_trigger": false,
      "taf_trigger": false,
      "metar": "METAR EDJA 101820Z 20007KT 9999 -RA FEW062 05/03 Q0995",
      "taf": "TAF EDJA 101700Z 1018/1103 21006KT 9999 FEW045"
    },
    {
      "icao": "EDLW",
      "alert": "OK",
      "vis_m": 9999,
      "fzfg": false,
      "metar_trigger": false,
      "taf_trigger": false,
      "metar": "METAR EDLW 101820Z 18010KT 9999 FEW039 08/05 Q0989",
      "taf": "TAF EDLW 101700Z 1018/1118 16008KT 9999 BKN020"
    },
    {
      "icao": "EDNY",
      "alert": "OK",
      "vis_m": 8000,
      "fzfg": false,
      "metar_trigger": false,
      "taf_trigger": false,
      "metar": "METAR EDNY 101820Z VRB01KT 8000 NSC 04/03 Q0996",
      "taf": "TAF EDNY 101700Z 1018/1103 VRB03KT 8000 BKN050"
    },
    {
      "icao": "EDSB",
      "alert": "OK",
      "vis_m": 9999,
      "fzfg": false,
      "metar_trigger": false,
      "taf_trigger": false,
      "metar": "METAR EDSB 101820Z 21007KT 9999 BKN042 10/07 Q0993",
      "taf": "TAF EDSB 101700Z 1018/1118 20010KT 9999 BKN030"
    },
    {
      "icao": "EETN",
      "alert": "OK",
      "vis_m": 9999,
      "fzfg": false,
      "metar_trigger": false,
      "taf_trigger": false,
      "metar": "METAR EETN 101820Z 19008KT 9999 OVC028 M08/M09 Q1002 TEMPO BKN008",
      "taf": "TAF EETN 101730Z 1018/1118 19008KT 9999 SCT008 OVC020"
    },
    {
      "icao": "EFTU",
      "alert": "OK",
      "vis_m": 9999,
      "fzfg": false,
      "metar_trigger": false,
      "taf_trigger": false,
      "metar": "METAR EFTU 101820Z AUTO 13003KT 9999 OVC012 M07/M09 Q1000",
      "taf": "TAF EFTU 101724Z 1018/1118 VRB02KT 9999 BKN014"
    },
    {
      "icao": "EGBB",
      "alert": "OK",
      "vis_m": 5000,
      "fzfg": false,
      "metar_trigger": false,
      "taf_trigger": false,
      "metar": "METAR EGBB 101820Z 10005KT 5000 RADZ BKN005 08/08 Q0981",
      "taf": "TAF EGBB 101700Z 1018/1118 14006KT 9999 SCT009"
    },
    {
      "icao": "EGGP",
      "alert": "OK",
      "vis_m": 9999,
      "fzfg": false,
      "metar_trigger": false,
      "taf_trigger": false,
      "metar": "METAR EGGP 101820Z 10009KT 9999 -RA BKN011 BKN022 07/06 Q0981",
      "taf": "TAF EGGP 101658Z 1018/1118 12010KT 9999 BKN012"
    },
    {
      "icao": "EGGW",
      "alert": "OK",
      "vis_m": 9999,
      "fzfg": false,
      "metar_trigger": false,
      "taf_trigger": false,
      "metar": "METAR EGGW 101820Z AUTO 15006KT 120V190 9999 -RA BKN003/// //////CB 08/08 Q0982",
      "taf": "TAF EGGW 101703Z 1018/1118 14006KT 9999 BKN004"
    },
    {
      "icao": "EGKK",
      "alert": "OK",
      "vis_m": 5000,
      "fzfg": false,
      "metar_trigger": false,
      "taf_trigger": false,
      "metar": "METAR EGKK 101820Z 14004KT 090V180 5000 -RADZ BKN003 09/09 Q0982",
      "taf": ""
    },
    {
      "icao": "EGNM",
      "alert": "OK",
      "vis_m": 50,
      "fzfg": false,
      "metar_trigger": false,
      "taf_trigger": false,
      "metar": "METAR EGNM 101820Z 08008KT 0050 R14/0250N -DZ FG VV/// 05/05 Q0983",
      "taf": "TAF EGNM 101658Z 1018/1118 08009KT 0100 -RADZ FG VV///"
    },
    {
      "icao": "EGPD",
      "alert": "OK",
      "vis_m": 9000,
      "fzfg": false,
      "metar_trigger": false,
      "taf_trigger": false,
      "metar": "METAR EGPD 101820Z 10014KT 070V140 9000 BKN009 04/03 Q0990 TEMPO 4000 RA BKN006",
      "taf": "TAF EGPD 101657Z 1018/1118 10012KT 9999 SCT015 BKN030"
    },
    {
      "icao": "EGPF",
      "alert": "OK",
      "vis_m": 9999,
      "fzfg": false,
      "metar_trigger": false,
      "taf_trigger": false,
      "metar": "METAR EGPF 101820Z AUTO 07015KT 9999 BKN010 OVC015 06/05 Q0985",
      "taf": "TAF EGPF 101656Z 1018/1118 06012KT 9999 SCT020"
    },
    {
      "icao": "EHBK",
      "alert": "OK",
      "vis_m": 9999,
      "fzfg": false,
      "metar_trigger": false,
      "taf_trigger": false,
      "metar": "METAR EHBK 101825Z AUTO 17006KT 9999 NSC 08/07 Q0988 NOSIG",
      "taf": "TAF EHBK 101712Z 1018/1124 15005KT 9999 BKN016"
    },
    {
      "icao": "EHEH",
      "alert": "OK",
      "vis_m": 6000,
      "fzfg": false,
      "metar_trigger": false,
      "taf_trigger": false,
      "metar": "METAR EHEH 101825Z AUTO 17005KT 140V200 6000 -SHRA FEW007 SCT008 BKN010 FEW015CB 09/09 Q0988 RERA REDZ GRN BECMG 4000 BR TEMPO BKN008",
      "taf": "TAF EHEH 101742Z 1018/1124 16006KT 9999 OVC035"
    },
    {
      "icao": "EKBI",
      "alert": "OK",
      "vis_m": 4900,
      "fzfg": false,
      "metar_trigger": false,
      "taf_trigger": false,
      "metar": "METAR EKBI 101820Z AUTO 08011KT 4900 BR OVC004/// M00/M01 Q0994",
      "taf": "TAF EKBI 101737Z 1018/1118 09010KT 5000 BR OVC005"
    },
    {
      "icao": "EKCH",
      "alert": "OK",
      "vis_m": 6000,
      "fzfg": false,
      "metar_trigger": false,
      "taf_trigger": false,
      "metar": "METAR EKCH 101820Z 10008KT 6000 OVC005 M01/M02 Q0998 TEMPO 4000 BR BKN004",
      "taf": "TAF EKCH 101727Z 1018/1118 11008KT 7000 BKN008"
    },
    {
      "icao": "ENAL",
      "alert": "OK",
      "vis_m": 9999,
      "fzfg": false,
      "metar_trigger": false,
      "taf_trigger": false,
      "metar": "METAR ENAL 101820Z 07010KT 9999 -RADZ FEW009 BKN015 02/00 Q0999",
      "taf": "TAF ENAL 101700Z 1018/1103 06008KT 9999 FEW020 SCT040"
    },
    {
      "icao": "ENBR",
      "alert": "OK",
      "vis_m": 9999,
      "fzfg": false,
      "metar_trigger": false,
      "taf_trigger": false,
      "metar": "METAR ENBR 101820Z VRB02KT CAVOK M02/M07 Q0998 NOSIG RMK WIND 1200FT 01005KT",
      "taf": "TAF ENBR 101700Z 1018/1118 VRB03KT CAVOK"
    },
    {
      "icao": "ENGM",
      "alert": "OK",
      "vis_m": 9999,
      "fzfg": false,
      "metar_trigger": false,
      "taf_trigger": false,
      "metar": "METAR ENGM 101820Z VRB01KT 9999 BKN023 M10/M12 Q1000 NOSIG",
      "taf": ""
    },
    {
      "icao": "ENHD",
      "alert": "OK",
      "vis_m": 9999,
      "fzfg": false,
      "metar_trigger": false,
      "taf_trigger": false,
      "metar": "METAR ENHD 101820Z 11005KT CAVOK M04/M07 Q0998",
      "taf": "TAF ENHD 101400Z 1015/1023 09005KT 9999 FEW040"
    },
    {
      "icao": "ENTC",
      "alert": "OK",
      "vis_m": 9999,
      "fzfg": false,
      "metar_trigger": false,
      "taf_trigger": false,
      "metar": "METAR ENTC 101820Z 23009KT 9999 FEW011 SCT050 M06/M08 Q1002 NOSIG RMK WIND 2600FT 16002KT",
      "taf": "TAF ENTC 101700Z 1018/1118 21008KT 9999 FEW010 SCT040"
    },
    {
      "icao": "ENTO",
      "alert": "OK",
      "vis_m": 9999,
      "fzfg": false,
      "metar_trigger": false,
      "taf_trigger": false,
      "metar": "METAR ENTO 101820Z 36006KT 9999 FEW017 M09/M12 Q1000 NOSIG",
      "taf": "TAF ENTO 101700Z 1018/1118 02005KT 9999 SCT010 SCT025"
    },
    {
      "icao": "ENVA",
      "alert": "OK",
      "vis_m": 9999,
      "fzfg": false,
      "metar_trigger": false,
      "taf_trigger": false,
      "metar": "METAR ENVA 101820Z 08003KT 9999 BKN054 M06/M07 Q1001 NOSIG RMK WIND 670FT 30003KT",
      "taf": "TAF ENVA 101700Z 1018/1118 09005KT 9999 FEW001"
    },
    {
      "icao": "ENZV",
      "alert": "OK",
      "vis_m": 9999,
      "fzfg": false,
      "metar_trigger": false,
      "taf_trigger": false,
      "metar": "METAR ENZV 101820Z 09006KT 9999 SCT039 M01/M10 Q0998 NOSIG",
      "taf": "TAF ENZV 101700Z 1018/1118 10008KT CAVOK"
    },
    {
      "icao": "EPGD",
      "alert": "OK",
      "vis_m": 3100,
      "fzfg": false,
      "metar_trigger": false,
      "taf_trigger": false,
      "metar": "METAR EPGD 101830Z 15006KT 3100 BR OVC023 M05/M05 Q1000",
      "taf": "TAF EPGD 101730Z 1018/1118 16004KT 3000 BR OVC020"
    },
    {
      "icao": "EPKK",
      "alert": "OK",
      "vis_m": 6000,
      "fzfg": false,
      "metar_trigger": false,
      "taf_trigger": false,
      "metar": "METAR EPKK 101830Z VRB01KT 6000 NSC 00/M01 Q1001",
      "taf": "TAF EPKK 101730Z 1018/1118 VRB02KT 6000 NSC"
    },
    {
      "icao": "EPKT",
      "alert": "OK",
      "vis_m": 9999,
      "fzfg": false,
      "metar_trigger": false,
      "taf_trigger": false,
      "metar": "METAR EPKT 101830Z 21008KT 9999 BKN026 02/00 Q1000",
      "taf": "TAF EPKT 101730Z 1018/1118 20006KT 9999 BKN030"
    },
    {
      "icao": "EPLB",
      "alert": "OK",
      "vis_m": 7000,
      "fzfg": false,
      "metar_trigger": false,
      "taf_trigger": false,
      "metar": "METAR EPLB 101830Z 13005KT 7000 NSC M03/M05 Q1003",
      "taf": "TAF EPLB 101730Z 1018/1118 14010KT CAVOK"
    },
    {
      "icao": "EPMO",
      "alert": "OK",
      "vis_m": 4500,
      "fzfg": false,
      "metar_trigger": false,
      "taf_trigger": false,
      "metar": "METAR EPMO 101830Z 10004KT 060V120 4500 BR FEW006 OVC012 M02/M02 Q1001",
      "taf": "TAF EPMO 101730Z 1018/1118 11006KT 4000 BR BKN010"
    },
    {
      "icao": "EPPO",
      "alert": "OK",
      "vis_m": 2500,
      "fzfg": false,
      "metar_trigger": false,
      "taf_trigger": false,
      "metar": "METAR EPPO 101830Z 11007KT 2500 BR OVC005 M00/M01 Q0998",
      "taf": "TAF EPPO 101730Z 1018/1118 11005KT 2500 BR BKN005"
    },
    {
      "icao": "EPRA",
      "alert": "OK",
      "vis_m": 9999,
      "fzfg": false,
      "metar_trigger": false,
      "taf_trigger": false,
      "metar": "METAR EPRA 101830Z 15008KT 9999 SCT047 00/M02 Q1001",
      "taf": "TAF EPRA 101730Z 1018/1103 14008KT 9999 BKN040"
    },
    {
      "icao": "EPRZ",
      "alert": "OK",
      "vis_m": 9999,
      "fzfg": false,
      "metar_trigger": false,
      "taf_trigger": false,
      "metar": "METAR EPRZ 101830Z 18007KT CAVOK 03/M00 Q1003",
      "taf": "TAF EPRZ 101730Z 1018/1118 18010KT 9999 SCT020"
    },
    {
      "icao": "EPSC",
      "alert": "OK",
      "vis_m": 8000,
      "fzfg": false,
      "metar_trigger": false,
      "taf_trigger": false,
      "metar": "METAR EPSC 101830Z 12009KT 8000 FEW011 OVC032 00/M02 Q0997",
      "taf": "TAF EPSC 101730Z 1018/1118 14010KT 8000 OVC028"
    },
    {
      "icao": "EPSY",
      "alert": "OK",
      "vis_m": 2300,
      "fzfg": false,
      "metar_trigger": false,
      "taf_trigger": false,
      "metar": "METAR EPSY 101830Z 14004KT 100V170 2300 BR OVC002 M07/M07 Q1001",
      "taf": "TAF EPSY 101730Z 1018/1103 14005KT 3000 BR OVC004"
    },
    {
      "icao": "EPWA",
      "alert": "OK",
      "vis_m": 6000,
      "fzfg": false,
      "metar_trigger": false,
      "taf_trigger": false,
      "metar": "METAR EPWA 101830Z 14008KT 6000 BKN023 M01/M01 Q1001 NOSIG",
      "taf": "TAF EPWA 101730Z 1018/1118 15008KT 6000 BKN020"
    },
    {
      "icao": "EPWR",
      "alert": "OK",
      "vis_m": 9999,
      "fzfg": false,
      "metar_trigger": false,
      "taf_trigger": false,
      "metar": "METAR EPWR 101830Z 16009KT CAVOK 02/00 Q0998",
      "taf": "TAF EPWR 101730Z 1018/1118 17007KT CAVOK"
    },
    {
      "icao": "ESGG",
      "alert": "OK",
      "vis_m": 9999,
      "fzfg": false,
      "metar_trigger": false,
      "taf_trigger": false,
      "metar": "METAR ESGG 101820Z 10005KT 9999 BKN016 M03/M04 Q0998",
      "taf": "TAF ESGG 101730Z 1018/1118 09005KT 9999 FEW008 OVC012"
    },
    {
      "icao": "ESKN",
      "alert": "OK",
      "vis_m": 9999,
      "fzfg": false,
      "metar_trigger": false,
      "taf_trigger": false,
      "metar": "METAR ESKN 101820Z VRB01KT 9999 BKN035 M10/M11 Q1000",
      "taf": "TAF ESKN 101730Z 1018/1118 26005KT 9999 SCT020"
    },
    {
      "icao": "ESMS",
      "alert": "OK",
      "vis_m": 1600,
      "fzfg": false,
      "metar_trigger": false,
      "taf_trigger": false,
      "metar": "METAR ESMS 101820Z 10009KT 1600 BR OVC002 M01/M01 Q0997",
      "taf": ""
    },
    {
      "icao": "ESSA",
      "alert": "OK",
      "vis_m": 9999,
      "fzfg": false,
      "metar_trigger": false,
      "taf_trigger": false,
      "metar": "METAR ESSA 101820Z 18004KT 9999 BKN012 M09/M12 Q0999 NOSIG",
      "taf": "TAF ESSA 101730Z 1018/1118 21005KT 9999 BKN012"
    },
    {
      "icao": "EYKA",
      "alert": "OK",
      "vis_m": 3400,
      "fzfg": false,
      "metar_trigger": false,
      "taf_trigger": false,
      "metar": "METAR EYKA 101820Z VRB02KT 3400 BR OVC003 M10/M11 Q1003",
      "taf": "TAF EYKA 101717Z 1018/1118 VRB04KT 5000 BR OVC005"
    },
    {
      "icao": "EYPA",
      "alert": "OK",
      "vis_m": 9999,
      "fzfg": false,
      "metar_trigger": false,
      "taf_trigger": false,
      "metar": "METAR EYPA 101820Z 15006KT 9999 OVC007 M10/M12 Q1002",
      "taf": "TAF EYPA 101716Z 1018/1118 VRB04KT 5000 BR OVC005"
    },
    {
      "icao": "EYVI",
      "alert": "OK",
      "vis_m": 6000,
      "fzfg": false,
      "metar_trigger": false,
      "taf_trigger": false,
      "metar": "METAR EYVI 101820Z 19009KT 6000 -SN OVC007 M09/M11 Q1003 TEMPO 1500 BR",
      "taf": ""
    },
    {
      "icao": "GCFV",
      "alert": "OK",
      "vis_m": 9999,
      "fzfg": false,
      "metar_trigger": false,
      "taf_trigger": false,
      "metar": "METAR GCFV 101830Z 03014KT 9999 FEW006 BKN010 19/17 Q1023",
      "taf": ""
    },
    {
      "icao": "GCLP",
      "alert": "OK",
      "vis_m": 9999,
      "fzfg": false,
      "metar_trigger": false,
      "taf_trigger": false,
      "metar": "METAR GCLP 101830Z 02019KT 9999 FEW030 19/16 Q1023 NOSIG",
      "taf": "TAF GCLP 101400Z 1015/1115 02020KT 9999 FEW030 TX23/1114Z TN17/1106Z"
    },
    {
      "icao": "GCTS",
      "alert": "OK",
      "vis_m": 9999,
      "fzfg": false,
      "metar_trigger": false,
      "taf_trigger": false,
      "metar": "METAR GCTS 101830Z 09014KT 9999 FEW025 20/16 Q1023 NOSIG",
      "taf": "TAF GCTS 101400Z 1015/1115 10015KT 9999 FEW025 TX25/1114Z TN17/1106Z"
    },
    {
      "icao": "GMAD",
      "alert": "OK",
      "vis_m": 6000,
      "fzfg": false,
      "metar_trigger": false,
      "taf_trigger": false,
      "metar": "METAR GMAD 101830Z 27008KT 6000 SCT016 16/15 Q1021 NOSIG",
      "taf": "TAF GMAD 101700Z 1018/1124 20008KT 8000 SCT016"
    },
    {
      "icao": "GMMN",
      "alert": "OK",
      "vis_m": 800,
      "fzfg": false,
      "metar_trigger": false,
      "taf_trigger": false,
      "metar": "METAR GMMN 101830Z 32006KT 0800 FG SCT002 16/15 Q1024 NOSIG",
      "taf": "TAF GMMN 101700Z 1018/1124 32006KT 9999 SCT015"
    },
    {
      "icao": "GMMX",
      "alert": "OK",
      "vis_m": 9999,
      "fzfg": false,
      "metar_trigger": false,
      "taf_trigger": false,
      "metar": "METAR GMMX 101830Z 04006KT 9999 FEW030 21/15 Q1023 NOSIG",
      "taf": "TAF GMMX 101700Z 1018/1124 24008KT 8000 SCT030"
    },
    {
      "icao": "HEGN",
      "alert": "OK",
      "vis_m": 9999,
      "fzfg": false,
      "metar_trigger": false,
      "taf_trigger": false,
      "metar": "METAR HEGN 101800Z 00000KT CAVOK 23/20 Q1013 NOSIG",
      "taf": "TAF HEGN 101700Z 1018/1124 21008KT 9999 FEW025"
    },
    {
      "icao": "HEMA",
      "alert": "OK",
      "vis_m": 9999,
      "fzfg": false,
      "metar_trigger": false,
      "taf_trigger": false,
      "metar": "METAR HEMA 101800Z 12007KT CAVOK 24/15 Q1012 NOSIG",
      "taf": "TAF HEMA 101700Z 1018/1124 20008KT CAVOK"
    },
    {
      "icao": "HESH",
      "alert": "OK",
      "vis_m": 9999,
      "fzfg": false,
      "metar_trigger": false,
      "taf_trigger": false,
      "metar": "METAR HESH 101800Z 19006KT CAVOK 23/20 Q1013 NOSIG",
      "taf": "TAF HESH 101700Z 1018/1124 34008KT 9999 SCT025"
    },
    {
      "icao": "HESX",
      "alert": "OK",
      "vis_m": 9999,
      "fzfg": false,
      "metar_trigger": false,
      "taf_trigger": false,
      "metar": "METAR HESX 101800Z 25009KT CAVOK 20/06 Q1012 NOSIG",
      "taf": "TAF HESX 101700Z 1018/1124 26010KT 6000"
    },
    {
      "icao": "LATI",
      "alert": "OK",
      "vis_m": 9999,
      "fzfg": false,
      "metar_trigger": false,
      "taf_trigger": false,
      "metar": "METAR LATI 101820Z 11005KT 9999 OVC070 12/08 Q1008 NOSIG",
      "taf": "TAF LATI 101700Z 1018/1118 14008KT 9999 SCT030 BKN070 TX16/1112Z TN09/1104Z"
    },
    {
      "icao": "LBPD",
      "alert": "OK",
      "vis_m": 9999,
      "fzfg": false,
      "metar_trigger": false,
      "taf_trigger": false,
      "metar": "METAR LBPD 101830Z AUTO 14002KT 9999 OVC018/// 02/02 Q1013 NOSIG",
      "taf": "TAF LBPD 101700Z 1018/1118 VRB04KT 9999 SCT012 BKN025"
    },
    {
      "icao": "LBSF",
      "alert": "OK",
      "vis_m": 9999,
      "fzfg": false,
      "metar_trigger": false,
      "taf_trigger": false,
      "metar": "METAR LBSF 101830Z AUTO 10013KT 9999 BKN050/// 00/M02 Q1010 NOSIG",
      "taf": "TAF LBSF 101700Z 1018/1118 11012KT 9999 BKN015 OVC025"
    },
    {
      "icao": "LBWN",
      "alert": "OK",
      "vis_m": 9999,
      "fzfg": false,
      "metar_trigger": false,
      "taf_trigger": false,
      "metar": "METAR LBWN 101830Z AUTO 07006KT 9999 FEW024/// OVC029/// 04/M00 Q1013 NOSIG",
      "taf": "TAF LBWN 101700Z 1018/1118 06010KT 9999 BKN025"
    },
    {
      "icao": "LCLK",
      "alert": "OK",
      "vis_m": 9999,
      "fzfg": false,
      "metar_trigger": false,
      "taf_trigger": false,
      "metar": "METAR LCLK 101830Z 22011KT 9999 FEW025 SCT050 15/13 Q1009 NOSIG",
      "taf": "TAF LCLK 101730Z 1018/1118 25010KT 9999 FEW025"
    },
    {
      "icao": "LCPH",
      "alert": "OK",
      "vis_m": 9999,
      "fzfg": false,
      "metar_trigger": false,
      "taf_trigger": false,
      "metar": "METAR LCPH 101830Z 32003KT 250V340 9999 BKN020 FEW030TCU SCT040 14/13 Q1009 RERA NOSIG",
      "taf": "TAF LCPH 101730Z 1018/1118 28013KT 9999 FEW025 SCT040"
    },
    {
      "icao": "LEAL",
      "alert": "OK",
      "vis_m": 9999,
      "fzfg": false,
      "metar_trigger": false,
      "taf_trigger": false,
      "metar": "METAR LEAL 101830Z 25011KT CAVOK 21/12 Q1010 NOSIG",
      "taf": "TAF LEAL 101700Z 1018/1118 24015KT 9999 FEW030 TX24/1112Z TN15/1106Z"
    },
    {
      "icao": "LEBB",
      "alert": "OK",
      "vis_m": 9999,
      "fzfg": false,
      "metar_trigger": false,
      "taf_trigger": false,
      "metar": "METAR LEBB 101830Z 07003KT 030V120 9999 FEW025 BKN059 15/15 Q1002 NOSIG",
      "taf": "TAF LEBB 101700Z 1018/1118 20009KT 9999 FEW030 SCT070 TX21/1114Z TN09/1106Z"
    },
    {
      "icao": "LEBL",
      "alert": "OK",
      "vis_m": 9999,
      "fzfg": false,
      "metar_trigger": false,
      "taf_trigger": false,
      "metar": "METAR LEBL 101830Z 21008KT 9999 FEW050 17/13 Q1002 NOSIG",
      "taf": "TAF LEBL 101700Z 1018/1118 24010KT 9999 FEW040 TX20/1112Z TN14/1106Z"
    },
    {
      "icao": "LECH",
      "alert": "OK",
      "vis_m": 9999,
      "fzfg": false,
      "metar_trigger": false,
      "taf_trigger": false,
      "metar": "METAR LECH 101830Z AUTO 26013G23KT 220V290 CAVOK 19/08 Q1004",
      "taf": ""
    },
    {
      "icao": "LEMD",
      "alert": "OK",
      "vis_m": 9999,
      "fzfg": false,
      "metar_trigger": false,
      "taf_trigger": false,
      "metar": "METAR LEMD 101830Z 23012KT 9999 -RA FEW011 SCT042 BKN060 14/14 Q1010 RERA NOSIG",
      "taf": "TAF LEMD 101700Z 1018/1124 24012KT 9999 SCT020 TX15/1114Z TN10/1107Z"
    },
    {
      "icao": "LEMG",
      "alert": "OK",
      "vis_m": 9999,
      "fzfg": false,
      "metar_trigger": false,
      "taf_trigger": false,
      "metar": "METAR LEMG 101830Z VRB02KT 9999 FEW025 SCT050 BKN075 19/14 Q1018 NOSIG",
      "taf": "TAF LEMG 101700Z 1018/1118 28005KT 9999 FEW020 TX22/1114Z TN16/1107Z"
    },
    {
      "icao": "LEVC",
      "alert": "OK",
      "vis_m": 9999,
      "fzfg": false,
      "metar_trigger": false,
      "taf_trigger": false,
      "metar": "METAR LEVC 101830Z 26016KT 9999 FEW040 19/13 Q1007 NOSIG",
      "taf": "TAF LEVC 101700Z 1018/1118 28017KT 9999 FEW045 TX24/1114Z TN17/1106Z"
    },
    {
      "icao": "LEXJ",
      "alert": "OK",
      "vis_m": 9999,
      "fzfg": false,
      "metar_trigger": false,
      "taf_trigger": false,
      "metar": "METAR LEXJ 101830Z 26003KT 220V310 9999 FEW022 BKN068 15/13 Q1002",
      "taf": "TAF LEXJ 101400Z 1015/1115 22009KT 9999 FEW050 SCT070 TX20/1113Z TN11/1107Z"
    },
    {
      "icao": "LEZG",
      "alert": "OK",
      "vis_m": 9999,
      "fzfg": false,
      "metar_trigger": false,
      "taf_trigger": false,
      "metar": "METAR LEZG 101830Z 24016G26KT 9999 BKN060 19/12 Q1004 NOSIG",
      "taf": "TAF LEZG 101700Z 1018/1118 25015KT 9999 BKN040 TX19/1112Z TN13/1108Z"
    },
    {
      "icao": "LEZL",
      "alert": "OK",
      "vis_m": 9999,
      "fzfg": false,
      "metar_trigger": false,
      "taf_trigger": false,
      "metar": "METAR LEZL 101830Z 22013KT 9999 FEW008 17/16 Q1018 NOSIG",
      "taf": "TAF LEZL 101400Z 1015/1115 24010KT 9999 BKN015 TX18/1015Z TN15/1107Z"
    },
    {
      "icao": "LFBD",
      "alert": "OK",
      "vis_m": 9999,
      "fzfg": false,
      "metar_trigger": false,
      "taf_trigger": false,
      "metar": "METAR LFBD 101830Z AUTO 27019KT 9999 BKN014 OVC019 14/12 Q0998 TEMPO 26020G40KT 2500 SHRA BKN014 BKN020TCU SCT025CB",
      "taf": "TAF LFBD 101700Z 1018/1124 27010KT 9999 BKN015 TX15/1123Z TN12/1109Z"
    },
    {
      "icao": "LFLL",
      "alert": "OK",
      "vis_m": 9999,
      "fzfg": false,
      "metar_trigger": false,
      "taf_trigger": false,
      "metar": "METAR LFLL 101830Z 18021G35KT 9999 SCT014 BKN060 10/08 Q0996 TEMPO 18025G45KT 4000 SHRA",
      "taf": ""
    },
    {
      "icao": "LFLS",
      "alert": "OK",
      "vis_m": 9999,
      "fzfg": false,
      "metar_trigger": false,
      "taf_trigger": false,
      "metar": "METAR LFLS 101830Z AUTO 05005KT 360V110 9999 SCT020/// SCT030/// BKN049/// ///TCU 09/06 Q0997 TEMPO 22018G30KT 4000 SHRA",
      "taf": ""
    },
    {
      "icao": "LFMN",
      "alert": "OK",
      "vis_m": 9999,
      "fzfg": false,
      "metar_trigger": false,
      "taf_trigger": false,
      "metar": "METAR LFMN 101830Z 36003KT 310V030 9999 -RA SCT018 SCT030 BKN050 11/10 Q1002 NOSIG",
      "taf": ""
    },
    {
      "icao": "LFOB",
      "alert": "OK",
      "vis_m": 4700,
      "fzfg": false,
      "metar_trigger": false,
      "taf_trigger": false,
      "metar": "METAR LFOB 101830Z AUTO 18003KT 140V220 4700 -RA BR OVC004/// ///TCU 11/11 Q0985 TEMPO 2500 RADZ OVC003",
      "taf": ""
    },
    {
      "icao": "LFPO",
      "alert": "OK",
      "vis_m": 4000,
      "fzfg": false,
      "metar_trigger": false,
      "taf_trigger": false,
      "metar": "METAR LFPO 101830Z 20009KT 4000 -RA OVC004 12/11 Q0986 NOSIG",
      "taf": "TAF LFPO 101700Z 1018/1124 20010KT 4000 -RA BKN004"
    },
    {
      "icao": "LFSB",
      "alert": "OK",
      "vis_m": 9999,
      "fzfg": false,
      "metar_trigger": false,
      "taf_trigger": false,
      "metar": "METAR LFSB 101830Z AUTO 14005KT 9999 FEW043 BKN054 OVC120 09/06 Q0994 TEMPO 4000 RA",
      "taf": "TAF LFSB 101700Z 1018/1118 13004KT 9999 SCT050"
    },
    {
      "icao": "LGAV",
      "alert": "OK",
      "vis_m": 9999,
      "fzfg": false,
      "metar_trigger": false,
      "taf_trigger": false,
      "metar": "METAR LGAV 101820Z 06004KT 9999 FEW040 SCT070 09/05 Q1011 NOSIG",
      "taf": "TAF LGAV 101700Z 1018/1118 03012KT 9999 SCT025 SCT070"
    },
    {
      "icao": "LGTS",
      "alert": "OK",
      "vis_m": 9999,
      "fzfg": false,
      "metar_trigger": false,
      "taf_trigger": false,
      "metar": "METAR LGTS 101820Z VRB03KT 9999 FEW010 BKN025 10/05 Q1011 NOSIG",
      "taf": "TAF LGTS 101700Z 1018/1118 VRB03KT 9999 FEW010 BKN025"
    },
    {
      "icao": "LHBP",
      "alert": "OK",
      "vis_m": 9999,
      "fzfg": false,
      "metar_trigger": false,
      "taf_trigger": false,
      "metar": "METAR LHBP 101830Z 15006KT 9999 BKN019 02/M02 Q1006 NOSIG",
      "taf": "TAF LHBP 101715Z 1018/1118 13007KT 9999 BKN025"
    },
    {
      "icao": "LHDC",
      "alert": "OK",
      "vis_m": 9999,
      "fzfg": false,
      "metar_trigger": false,
      "taf_trigger": false,
      "metar": "METAR LHDC 101815Z AUTO 10002KT 9999 OVC036 04/02 Q1007 NOSIG",
      "taf": "TAF LHDC 101415Z 1015/1024 21006KT 9999 BKN025 OVC040"
    },
    {
      "icao": "LIBD",
      "alert": "OK",
      "vis_m": 9999,
      "fzfg": false,
      "metar_trigger": false,
      "taf_trigger": false,
      "metar": "METAR LIBD 101820Z 22007KT 9999 FEW045 11/09 Q1006",
      "taf": "TAF LIBD 101700Z 1018/1118 20005KT 9999 FEW040"
    },
    {
      "icao": "LIBG",
      "alert": "OK",
      "vis_m": 9999,
      "fzfg": false,
      "metar_trigger": false,
      "taf_trigger": false,
      "metar": "METAR LIBG 101750Z 04003KT CAVOK 10/08 Q1006",
      "taf": "TAF LIBG 101700Z 1018/1103 VRB05KT CAVOK"
    },
    {
      "icao": "LIBP",
      "alert": "OK",
      "vis_m": 9999,
      "fzfg": false,
      "metar_trigger": false,
      "taf_trigger": false,
      "metar": "METAR LIBP 101820Z AUTO 34003KT 9999 SCT080/// BKN180/// 09/08 Q1005",
      "taf": "TAF LIBP 101700Z 1018/1118 VRB05KT 9999 FEW015 BKN070"
    },
    {
      "icao": "LIBR",
      "alert": "OK",
      "vis_m": 9999,
      "fzfg": false,
      "metar_trigger": false,
      "taf_trigger": false,
      "metar": "METAR LIBR 101820Z 21009KT CAVOK 13/09 Q1007",
      "taf": "TAF LIBR 101700Z 1018/1118 22010KT 9999 FEW040"
    },
    {
      "icao": "LICA",
      "alert": "OK",
      "vis_m": 9999,
      "fzfg": false,
      "metar_trigger": false,
      "taf_trigger": false,
      "metar": "METAR LICA 101820Z AUTO 29006KT 9999 SCT025/// BKN071/// 12/10 Q1008",
      "taf": "TAF LICA 101700Z 1018/1118 VRB05KT 9999 BKN020"
    },
    {
      "icao": "LICC",
      "alert": "OK",
      "vis_m": 9999,
      "fzfg": false,
      "metar_trigger": false,
      "taf_trigger": false,
      "metar": "METAR LICC 101820Z 27006KT 9999 SCT040 SCT100 13/09 Q1009",
      "taf": "TAF LICC 101700Z 1018/1118 26013KT 9999 SCT030"
    },
    {
      "icao": "LICJ",
      "alert": "OK",
      "vis_m": 9999,
      "fzfg": false,
      "metar_trigger": false,
      "taf_trigger": false,
      "metar": "METAR LICJ 101820Z 19006KT 9999 -RA SCT030 12/10 Q1008",
      "taf": "TAF LICJ 101700Z 1018/1118 21015KT 9999 SCT020"
    },
    {
      "icao": "LIMC",
      "alert": "OK",
      "vis_m": 9999,
      "fzfg": false,
      "metar_trigger": false,
      "taf_trigger": false,
      "metar": "METAR LIMC 101820Z 03002KT 9999 -RA FEW030 BKN055 07/06 Q1003 NOSIG",
      "taf": "TAF LIMC 101700Z 1018/1124 VRB04KT 7000 SCT015"
    },
    {
      "icao": "LIME",
      "alert": "OK",
      "vis_m": 3500,
      "fzfg": false,
      "metar_trigger": false,
      "taf_trigger": false,
      "metar": "METAR LIME 101820Z 19003KT 140V230 3500 -RA BR SCT007 BKN030 08/08 Q1003 NOSIG",
      "taf": ""
    },
    {
      "icao": "LIMF",
      "alert": "OK",
      "vis_m": 8000,
      "fzfg": false,
      "metar_trigger": false,
      "taf_trigger": false,
      "metar": "METAR LIMF 101820Z 03002KT 8000 FEW040 BKN110 08/05 Q1002",
      "taf": "TAF LIMF 101700Z 1018/1118 VRB03KT 8000 BKN035"
    },
    {
      "icao": "LIMJ",
      "alert": "OK",
      "vis_m": 9999,
      "fzfg": false,
      "metar_trigger": false,
      "taf_trigger": false,
      "metar": "METAR LIMJ 101820Z COR 18016KT 9999 SCT014 BKN020 14/10 Q1002 RERA",
      "taf": "TAF LIMJ 101700Z 1018/1118 19012KT 8000 BKN020"
    },
    {
      "icao": "LIPE",
      "alert": "OK",
      "vis_m": 8000,
      "fzfg": false,
      "metar_trigger": false,
      "taf_trigger": false,
      "metar": "METAR LIPE 101820Z 09004KT 8000 FEW010 BKN070 10/09 Q1003",
      "taf": "TAF LIPE 101700Z 1018/1118 VRB05KT 9999 FEW040"
    },
    {
      "icao": "LIPH",
      "alert": "OK",
      "vis_m": 9999,
      "fzfg": false,
      "metar_trigger": false,
      "taf_trigger": false,
      "metar": "METAR LIPH 101820Z 16003KT 9999 SCT070 09/08 Q1003",
      "taf": "TAF LIPH 101700Z 1018/1118 VRB05KT 9999 SCT030 SCT080"
    },
    {
      "icao": "LIPQ",
      "alert": "OK",
      "vis_m": 9999,
      "fzfg": false,
      "metar_trigger": false,
      "taf_trigger": false,
      "metar": "METAR LIPQ 101820Z AUTO 14004KT 100V160 9999 OVC078/// 08/08 Q1004",
      "taf": "TAF LIPQ 101700Z 1018/1118 VRB05KT 9999 SCT040 BKN070"
    },
    {
      "icao": "LIPR",
      "alert": "OK",
      "vis_m": 9999,
      "fzfg": false,
      "metar_trigger": false,
      "taf_trigger": false,
      "metar": "METAR LIPR 101820Z 14003KT 9999 SCT070 10/09 Q1004",
      "taf": "TAF LIPR 101700Z 1018/1118 VRB05KT 9999 FEW050 BKN070"
    },
    {
      "icao": "LIPX",
      "alert": "OK",
      "vis_m": 6000,
      "fzfg": false,
      "metar_trigger": false,
      "taf_trigger": false,
      "metar": "METAR LIPX 101820Z 22002KT 6000 BKN050 09/08 Q1003",
      "taf": "TAF LIPX 101700Z 1018/1118 VRB04KT 7000 BKN006"
    },
    {
      "icao": "LIPY",
      "alert": "OK",
      "vis_m": 9999,
      "fzfg": false,
      "metar_trigger": false,
      "taf_trigger": false,
      "metar": "METAR LIPY 101820Z AUTO 19003KT 150V220 9999 BKN095/// 11/08 Q1004",
      "taf": "TAF LIPY 101700Z 1018/1118 13006KT 9999 FEW020 SCT070"
    },
    {
      "icao": "LIPZ",
      "alert": "OK",
      "vis_m": 9999,
      "fzfg": false,
      "metar_trigger": false,
      "taf_trigger": false,
      "metar": "METAR LIPZ 101820Z 17003KT 9999 SCT060 09/08 Q1003 NOSIG",
      "taf": "TAF LIPZ 101700Z 1018/1124 VRB05KT 9999 SCT050"
    },
    {
      "icao": "LIRF",
      "alert": "OK",
      "vis_m": 9999,
      "fzfg": false,
      "metar_trigger": false,
      "taf_trigger": false,
      "metar": "METAR LIRF 101820Z 18002KT 9999 FEW020 12/09 Q1006 NOSIG",
      "taf": "TAF LIRF 101700Z 1018/1124 22007KT 9999 SCT020"
    },
    {
      "icao": "LIRN",
      "alert": "OK",
      "vis_m": 9999,
      "fzfg": false,
      "metar_trigger": false,
      "taf_trigger": false,
      "metar": "METAR LIRN 101820Z VRB01KT 9999 SCT035 11/10 Q1007 NOSIG",
      "taf": "TAF LIRN 101700Z 1018/1118 19007KT 9999 SCT015"
    },
    {
      "icao": "LIRP",
      "alert": "OK",
      "vis_m": 9999,
      "fzfg": false,
      "metar_trigger": false,
      "taf_trigger": false,
      "metar": "METAR LIRP 101815Z 20003KT 9999 FEW025 SCT070 10/09 Q1004 NOSIG",
      "taf": "TAF LIRP 101700Z 1018/1118 30007KT 9999 BKN070"
    },
    {
      "icao": "LIRZ",
      "alert": "OK",
      "vis_m": 9999,
      "fzfg": false,
      "metar_trigger": false,
      "taf_trigger": false,
      "metar": "METAR LIRZ 101820Z AUTO 16003KT 9999 BKN052/// 10/08 Q1005",
      "taf": "TAF LIRZ 101700Z 1018/1118 19008KT 9999 BKN030"
    },
    {
      "icao": "LJLJ",
      "alert": "OK",
      "vis_m": 9999,
      "fzfg": false,
      "metar_trigger": false,
      "taf_trigger": false,
      "metar": "METAR LJLJ 101830Z VRB01KT 9999 -RA MIFG FEW003 SCT040 BKN055 05/05 Q1002 NOSIG",
      "taf": "TAF LJLJ 101700Z 1018/1118 20003KT 9999 FEW020 BKN030"
    },
    {
      "icao": "LKMT",
      "alert": "OK",
      "vis_m": 9999,
      "fzfg": false,
      "metar_trigger": false,
      "taf_trigger": false,
      "metar": "METAR LKMT 101830Z 23013KT 9999 SCT024 02/00 Q1001 NOSIG",
      "taf": "TAF LKMT 101700Z 1018/1118 21012KT 9999 BKN025"
    },
    {
      "icao": "LKPR",
      "alert": "OK",
      "vis_m": 8000,
      "fzfg": false,
      "metar_trigger": false,
      "taf_trigger": false,
      "metar": "METAR LKPR 101830Z 07005KT 8000 NSC 01/00 Q0997 NOSIG",
      "taf": "TAF LKPR 101700Z 1018/1124 17006KT CAVOK"
    },
    {
      "icao": "LLBG",
      "alert": "OK",
      "vis_m": 9999,
      "fzfg": false,
      "metar_trigger": false,
      "taf_trigger": false,
      "metar": "METAR LLBG 101820Z 12005KT 9999 FEW025 16/11 Q1013 NOSIG",
      "taf": "TAF LLBG 101707Z 1018/1118 VRB03KT 9999 FEW035"
    },
    {
      "icao": "LMML",
      "alert": "OK",
      "vis_m": 9999,
      "fzfg": false,
      "metar_trigger": false,
      "taf_trigger": false,
      "metar": "METAR LMML 101815Z 23006KT 9999 -RA FEW015 BKN049 14/11 Q1010 NOSIG",
      "taf": "TAF LMML 101700Z 1018/1118 26010KT 9999 FEW015"
    },
    {
      "icao": "LOWW",
      "alert": "OK",
      "vis_m": 9999,
      "fzfg": false,
      "metar_trigger": false,
      "taf_trigger": false,
      "metar": "METAR LOWW 101820Z 14013KT 9999 FEW009 BKN010 03/01 Q1002 TEMPO BKN009",
      "taf": "TAF LOWW 101715Z 1018/1124 13015KT 9999 OVC010 TX07/1115Z TN03/1105Z"
    },
    {
      "icao": "LPFR",
      "alert": "OK",
      "vis_m": 2000,
      "fzfg": false,
      "metar_trigger": false,
      "taf_trigger": false,
      "metar": "METAR LPFR 101830Z 24011KT 2000 -DZ BR OVC003 15/15 Q1020",
      "taf": "TAF LPFR 101700Z 1018/1118 25012KT 8000 SCT004 BKN008"
    },
    {
      "icao": "LPMA",
      "alert": "OK",
      "vis_m": 9999,
      "fzfg": false,
      "metar_trigger": false,
      "taf_trigger": false,
      "metar": "METAR LPMA 101830Z 02005KT 360V060 9999 SCT015 18/14 Q1024",
      "taf": "TAF LPMA 101700Z 1018/1118 VRB05KT 9999 SCT015"
    },
    {
      "icao": "LPPR",
      "alert": "OK",
      "vis_m": 8000,
      "fzfg": false,
      "metar_trigger": false,
      "taf_trigger": false,
      "metar": "METAR LPPR 101830Z 21008KT 8000 BKN007 15/14 Q1013",
      "taf": "TAF LPPR 101700Z 1018/1118 22010KT 6000 SCT004 BKN008"
    },
    {
      "icao": "LPPS",
      "alert": "OK",
      "vis_m": 9999,
      "fzfg": false,
      "metar_trigger": false,
      "taf_trigger": false,
      "metar": "METAR LPPS 101830Z 28008KT 9999 SCT008 18/16 Q1024",
      "taf": "TAF LPPS 101700Z 1018/1124 27008KT 9999 SCT012"
    },
    {
      "icao": "LPPT",
      "alert": "OK",
      "vis_m": 5000,
      "fzfg": false,
      "metar_trigger": false,
      "taf_trigger": false,
      "metar": "METAR LPPT 101830Z 24015KT 5000 -RADZ BR FEW003 BKN005 16/16 Q1016",
      "taf": "TAF LPPT 101700Z 1018/1124 23013KT 6000 SCT004 BKN008"
    },
    {
      "icao": "LQBK",
      "alert": "OK",
      "vis_m": 7000,
      "fzfg": false,
      "metar_trigger": false,
      "taf_trigger": false,
      "metar": "METAR LQBK 101830Z 30003KT 270V330 7000 -RA BKN010 OVC027 05/05 Q1005 NOSIG",
      "taf": "TAF LQBK 101700Z 1018/1118 VRB03KT 7000 SCT045 TX12/1113Z TN03/1105Z"
    },
    {
      "icao": "LQSA",
      "alert": "OK",
      "vis_m": 9999,
      "fzfg": false,
      "metar_trigger": false,
      "taf_trigger": false,
      "metar": "METAR LQSA 101830Z VRB03KT 9999 -RA SCT030 BKN040 09/06 Q1004 NOSIG",
      "taf": "TAF LQSA 101700Z 1018/1118 10006KT 9999 SCT050 TX13/1113Z TN03/1104Z"
    },
    {
      "icao": "LQTZ",
      "alert": "OK",
      "vis_m": 9999,
      "fzfg": false,
      "metar_trigger": false,
      "taf_trigger": false,
      "metar": "METAR LQTZ 101830Z 09005KT 9999 BKN045 BKN065 06/06 Q1004",
      "taf": "TAF LQTZ 101700Z 1018/1118 12005KT 9999 SCT050 TX15/1113Z TN01/1105Z"
    },
    {
      "icao": "LRBC",
      "alert": "OK",
      "vis_m": 9999,
      "fzfg": false,
      "metar_trigger": false,
      "taf_trigger": false,
      "metar": "METAR LRBC 101830Z 15015KT CAVOK M01/M03 Q1010",
      "taf": "TAF LRBC 101700Z 1018/1103 16017KT 9999 BKN050"
    },
    {
      "icao": "LRBS",
      "alert": "OK",
      "vis_m": 2800,
      "fzfg": false,
      "metar_trigger": false,
      "taf_trigger": false,
      "metar": "METAR LRBS 101830Z 05003KT 010V070 2800 -SN BR FEW007 SCT016 OVC022 M01/M02 Q1014 RESN NOSIG",
      "taf": "TAF LRBS 101700Z 1018/1118 VRB04KT 9999 OVC020"
    },
    {
      "icao": "LRBV",
      "alert": "OK",
      "vis_m": 9999,
      "fzfg": false,
      "metar_trigger": false,
      "taf_trigger": false,
      "metar": "METAR LRBV 101830Z 17007KT 110V220 9999 OVC040 01/M04 Q1008",
      "taf": "TAF LRBV 101700Z 1018/1103 21015KT 9999 BKN030 OVC060"
    },
    {
      "icao": "LRCL",
      "alert": "OK",
      "vis_m": 9999,
      "fzfg": false,
      "metar_trigger": false,
      "taf_trigger": false,
      "metar": "METAR LRCL 101830Z 07005KT 9999 OVC051 03/M01 Q1007",
      "taf": "TAF LRCL 101700Z 1018/1103 VRB04KT 9999 OVC050"
    },
    {
      "icao": "LRCV",
      "alert": "OK",
      "vis_m": 3500,
      "fzfg": false,
      "metar_trigger": false,
      "taf_trigger": false,
      "metar": "METAR LRCV 101830Z COR 07007KT 3500 -SN BR FEW020 SCT030 OVC042 M02/M02 Q1013",
      "taf": "TAF LRCV 101700Z 1018/1103 08010KT 3000 -SN BR BKN010 OVC020"
    },
    {
      "icao": "LRIA",
      "alert": "OK",
      "vis_m": 9999,
      "fzfg": false,
      "metar_trigger": false,
      "taf_trigger": false,
      "metar": "METAR LRIA 101830Z 14009KT 110V170 9999 BKN017 M00/M04 Q1011",
      "taf": "TAF LRIA 101700Z 1018/1103 14012KT 9999 BKN020"
    },
    {
      "icao": "LROP",
      "alert": "OK",
      "vis_m": 3500,
      "fzfg": false,
      "metar_trigger": false,
      "taf_trigger": false,
      "metar": "METAR LROP 101830Z 07005KT 3500 -SN BR OVC016 M01/M02 Q1013 NOSIG",
      "taf": "TAF LROP 101700Z 1018/1118 VRB04KT 9999 OVC020"
    },
    {
      "icao": "LRSB",
      "alert": "OK",
      "vis_m": 9999,
      "fzfg": false,
      "metar_trigger": false,
      "taf_trigger": false,
      "metar": "METAR LRSB 101830Z 21003KT 9999 BKN078 02/M02 Q1006",
      "taf": "TAF LRSB 101700Z 1018/1118 VRB04KT 9999 BKN060"
    },
    {
      "icao": "LRSM",
      "alert": "OK",
      "vis_m": 9999,
      "fzfg": false,
      "metar_trigger": false,
      "taf_trigger": false,
      "metar": "METAR LRSM 101830Z AUTO 15002KT 9999 FEW028/// BKN033/// 04/01 Q1007",
      "taf": "TAF LRSM 101400Z 1015/1024 VRB04KT 9999 SCT010 OVC025"
    },
    {
      "icao": "LRSV",
      "alert": "OK",
      "vis_m": 9999,
      "fzfg": false,
      "metar_trigger": false,
      "taf_trigger": false,
      "metar": "METAR LRSV 101830Z 18009KT CAVOK M03/M05 Q1006",
      "taf": "TAF LRSV 101700Z 1018/1103 17010KT CAVOK"
    },
    {
      "icao": "LRTM",
      "alert": "OK",
      "vis_m": 9999,
      "fzfg": false,
      "metar_trigger": false,
      "taf_trigger": false,
      "metar": "METAR LRTM 101830Z AUTO VRB01KT 9999 NCD 02/00 Q1007",
      "taf": "TAF LRTM 101700Z 1018/1103 VRB04KT 9999 BKN040"
    },
    {
      "icao": "LRTR",
      "alert": "OK",
      "vis_m": 9999,
      "fzfg": false,
      "metar_trigger": false,
      "taf_trigger": false,
      "metar": "METAR LRTR 101830Z 16004KT 9999 FEW033 BKN047 03/00 Q1007",
      "taf": "TAF LRTR 101700Z 1018/1118 VRB04KT 9999 OVC040"
    },
    {
      "icao": "LTAC",
      "alert": "OK",
      "vis_m": 9999,
      "fzfg": false,
      "metar_trigger": false,
      "taf_trigger": false,
      "metar": "METAR LTAC 101820Z 04005KT 9999 -SHRA BKN023 BKN100 04/02 Q1007 NOSIG RMK RWY21C 04004KT RWY03L 03004KT RWY21R 04003KT RWY03R 01004KT RWY21L 05006KT",
      "taf": "TAF LTAC 101640Z 1018/1118 VRB02KT 9999 SCT040 BKN100"
    },
    {
      "icao": "LTFM",
      "alert": "OK",
      "vis_m": 9999,
      "fzfg": false,
      "metar_trigger": false,
      "taf_trigger": false,
      "metar": "METAR LTFM 101820Z 04016KT 9999 SCT010 BKN025 06/04 Q1010 NOSIG RMK RWY17L 05013KT RWY34L 03013KT RWY16R 05015KT RWY36 05014KT RWY18 05014KT",
      "taf": "TAF LTFM 101640Z 1018/1124 05012KT 9999 SCT012 BKN025"
    },
    {
      "icao": "LUKK",
      "alert": "OK",
      "vis_m": 9999,
      "fzfg": false,
      "metar_trigger": false,
      "taf_trigger": false,
      "metar": "METAR LUKK 101830Z 16012KT CAVOK M04/M06 Q1013 NOSIG",
      "taf": "TAF LUKK 101716Z 1018/1118 15010KT 9999 BKN020"
    },
    {
      "icao": "LWOH",
      "alert": "OK",
      "vis_m": 9999,
      "fzfg": false,
      "metar_trigger": false,
      "taf_trigger": false,
      "metar": "METAR LWOH 101820Z 15005KT 110V200 9999 -RASN SCT040 BKN090 07/05 Q1007",
      "taf": "TAF LWOH 101730Z 1018/1118 17010KT 9999 BKN040"
    },
    {
      "icao": "LWSK",
      "alert": "OK",
      "vis_m": 9999,
      "fzfg": false,
      "metar_trigger": false,
      "taf_trigger": false,
      "metar": "METAR LWSK 101820Z 14003KT 100V180 9999 SCT035 07/04 Q1008 NOSIG",
      "taf": "TAF LWSK 101730Z 1018/1118 16008KT 9999 BKN030"
    },
    {
      "icao": "LYBE",
      "alert": "OK",
      "vis_m": 9999,
      "fzfg": false,
      "metar_trigger": false,
      "taf_trigger": false,
      "metar": "METAR LYBE 101830Z 13010KT CAVOK 03/M03 Q1007 NOSIG",
      "taf": "TAF LYBE 101700Z 1018/1118 13010KT CAVOK TX14/1112Z TN00/1105Z"
    },
    {
      "icao": "LYNI",
      "alert": "OK",
      "vis_m": 9999,
      "fzfg": false,
      "metar_trigger": false,
      "taf_trigger": false,
      "metar": "METAR LYNI 101830Z 12003KT 090V160 9999 -RA BKN040 BKN073 04/M00 Q1008 TEMPO 5000 RA",
      "taf": "TAF LYNI 101700Z 1018/1118 10004KT 9999 SCT015 BKN030 OVC080 TX12/1113Z TN01/1105Z"
    },
    {
      "icao": "LYPG",
      "alert": "OK",
      "vis_m": 9999,
      "fzfg": false,
      "metar_trigger": false,
      "taf_trigger": false,
      "metar": "METAR LYPG 101830Z VRB01KT 9999 FEW015 BKN040 OVC070 09/09 Q1007 NOSIG",
      "taf": "TAF LYPG 101700Z 1018/1118 36006KT 8000 FEW007 BKN034 BKN070 TX11/1113Z TN08/1106Z"
    },
    {
      "icao": "LZIB",
      "alert": "OK",
      "vis_m": 9999,
      "fzfg": false,
      "metar_trigger": false,
      "taf_trigger": false,
      "metar": "METAR LZIB 101830Z 12010KT 9999 SCT012 OVC015 02/00 Q1003 NOSIG",
      "taf": ""
    },
    {
      "icao": "LZKZ",
      "alert": "OK",
      "vis_m": 9999,
      "fzfg": false,
      "metar_trigger": false,
      "taf_trigger": false,
      "metar": "METAR LZKZ 101830Z 18010KT 9999 SCT012 BKN035 02/01 Q1006 NOSIG",
      "taf": "TAF LZKZ 101715Z 1018/1118 21008KT 9999 SCT009 BKN030"
    },
    {
      "icao": "LZTT",
      "alert": "OK",
      "vis_m": 9999,
      "fzfg": false,
      "metar_trigger": false,
      "taf_trigger": false,
      "metar": "METAR LZTT 101830Z 17004KT 130V220 9999 FEW016 BKN036 01/M02 Q1002",
      "taf": "TAF LZTT 101715Z 1018/1118 18007KT 9999 FEW015 BKN025"
    },
    {
      "icao": "OEJN",
      "alert": "OK",
      "vis_m": 9999,
      "fzfg": false,
      "metar_trigger": false,
      "taf_trigger": false,
      "metar": "METAR OEJN 101800Z 33005KT CAVOK 27/18 Q1012 NOSIG",
      "taf": "TAF OEJN 101700Z 1018/1124 36006KT CAVOK"
    },
    {
      "icao": "OEMA",
      "alert": "OK",
      "vis_m": 9999,
      "fzfg": false,
      "metar_trigger": false,
      "taf_trigger": false,
      "metar": "METAR OEMA 101800Z 23008KT CAVOK 28/07 Q1016 NOSIG",
      "taf": "TAF OEMA 101700Z 1018/1124 VRB03KT CAVOK"
    },
    {
      "icao": "OJAI",
      "alert": "OK",
      "vis_m": 5000,
      "fzfg": false,
      "metar_trigger": false,
      "taf_trigger": false,
      "metar": "METAR OJAI 101800Z 29011KT 5000 HZ NSC 12/06 Q1013 NOSIG",
      "taf": "TAF OJAI 101634Z 1018/1124 25016KT 4000 BLDU FEW035"
    },
    {
      "icao": "OMAA",
      "alert": "OK",
      "vis_m": 9999,
      "fzfg": false,
      "metar_trigger": false,
      "taf_trigger": false,
      "metar": "METAR OMAA 101830Z 30006KT CAVOK 21/19 Q1017 NOSIG",
      "taf": "TAF OMAA 101700Z 1018/1200 VRB02KT 8000 NSC"
    },
    {
      "icao": "OMDB",
      "alert": "OK",
      "vis_m": 9999,
      "fzfg": false,
      "metar_trigger": false,
      "taf_trigger": false,
      "metar": "METAR OMDB 101830Z 36006KT 340V050 CAVOK 23/19 Q1017 NOSIG",
      "taf": "TAF OMDB 101700Z 1018/1200 10005KT 8000 NSC"
    },
    {
      "icao": "UAAA",
      "alert": "OK",
      "vis_m": 5000,
      "fzfg": false,
      "metar_trigger": false,
      "taf_trigger": false,
      "metar": "METAR UAAA 101830Z 34003MPS 5000 BR FU FEW100 BKN200 00/M02 Q1007 NOSIG",
      "taf": "TAF UAAA 101700Z 1018/1118 10003MPS 3100 BR FU SCT050CB BKN100 TX08/1109Z TNM02/1102Z"
    },
    {
      "icao": "UBBB",
      "alert": "OK",
      "vis_m": 9999,
      "fzfg": false,
      "metar_trigger": false,
      "taf_trigger": false,
      "metar": "METAR UBBB 101830Z 35008KT 9999 OVC034 02/M04 Q1023 NOSIG",
      "taf": "TAF UBBB 101659Z 1018/1118 01010KT 9999 SCT012 OVC025 TX04/1110Z TN00/1101Z"
    },
    {
      "icao": "UDSG",
      "alert": "OK",
      "vis_m": 9000,
      "fzfg": false,
      "metar_trigger": false,
      "taf_trigger": false,
      "metar": "METAR UDSG 101830Z 14001KT 9000 OVC036 M03/M03 Q1012 NOSIG",
      "taf": "TAF UDSG 101700Z 1018/1118 VRB06KT 3000 BR OVC020"
    },
    {
      "icao": "UDYZ",
      "alert": "OK",
      "vis_m": 9000,
      "fzfg": false,
      "metar_trigger": false,
      "taf_trigger": false,
      "metar": "METAR UDYZ 101830Z VRB01KT 9000 -RA SCT004 OVC023 02/01 Q1013 NOSIG",
      "taf": "TAF UDYZ 101700Z 1018/1118 14006KT 6000 BKN020"
    },
    {
      "icao": "UGKO",
      "alert": "OK",
      "vis_m": 9999,
      "fzfg": false,
      "metar_trigger": false,
      "taf_trigger": false,
      "metar": "METAR UGKO 101830Z 09010KT CAVOK 03/00 Q1012 NOSIG",
      "taf": "TAF UGKO 101700Z 1018/1118 08010KT CAVOK TX09/1111Z TN03/1020Z"
    }
  ]
}