{
  "ts_utc": "2026-04-09T18:15:45Z",
  "threshold_m": 150,
  "source": "stations_override.txt (ICAO list) + aviationweather.gov (METAR/TAF raw)",
  "station_count": 159,
  "stations": [
    {
      "icao": "BIKF",
      "alert": "OK",
      "vis_m": 9999,
      "fzfg": false,
      "metar_trigger": false,
      "taf_trigger": false,
      "metar": "METAR BIKF 091800Z 22034KT 9999 -RA BKN011 OVC021 03/02 Q0984",
      "taf": "TAF BIKF 091624Z 0918/1018 23030G40KT 9999 SCT020 BKN030 TX05/1015Z TN00/1006Z"
    },
    {
      "icao": "BKPR",
      "alert": "OK",
      "vis_m": 9999,
      "fzfg": false,
      "metar_trigger": false,
      "taf_trigger": false,
      "metar": "METAR BKPR 091800Z 36008KT CAVOK 08/M01 Q1015 NOSIG",
      "taf": "TAF BKPR 091730Z 0918/1018 01007KT CAVOK"
    },
    {
      "icao": "EBCI",
      "alert": "OK",
      "vis_m": 9999,
      "fzfg": false,
      "metar_trigger": false,
      "taf_trigger": false,
      "metar": "METAR EBCI 091750Z 25008KT CAVOK 21/11 Q1015 NOSIG",
      "taf": "TAF EBCI 091703Z 0918/1024 25005KT CAVOK"
    },
    {
      "icao": "EDDB",
      "alert": "OK",
      "vis_m": 9999,
      "fzfg": false,
      "metar_trigger": false,
      "taf_trigger": false,
      "metar": "METAR EDDB 091750Z AUTO 08007KT CAVOK 08/M07 Q1021 NOSIG",
      "taf": "TAF EDDB 091700Z 0918/1018 09006KT CAVOK"
    },
    {
      "icao": "EDDH",
      "alert": "OK",
      "vis_m": 9999,
      "fzfg": false,
      "metar_trigger": false,
      "taf_trigger": false,
      "metar": "METAR EDDH 091750Z AUTO 11010KT CAVOK 11/M05 Q1019 NOSIG",
      "taf": "TAF EDDH 091700Z 0918/1024 11012KT 9999 SCT030"
    },
    {
      "icao": "EDDK",
      "alert": "OK",
      "vis_m": 9999,
      "fzfg": false,
      "metar_trigger": false,
      "taf_trigger": false,
      "metar": "METAR EDDK 091750Z AUTO 13004KT CAVOK 20/02 Q1015 NOSIG",
      "taf": "TAF EDDK 091700Z 0918/1024 16006KT CAVOK"
    },
    {
      "icao": "EDDN",
      "alert": "OK",
      "vis_m": 9999,
      "fzfg": false,
      "metar_trigger": false,
      "taf_trigger": false,
      "metar": "METAR EDDN 091750Z AUTO 29003KT CAVOK 14/00 Q1017 NOSIG",
      "taf": "TAF EDDN 091700Z 0918/1018 10003KT CAVOK"
    },
    {
      "icao": "EDDS",
      "alert": "OK",
      "vis_m": 9999,
      "fzfg": false,
      "metar_trigger": false,
      "taf_trigger": false,
      "metar": "METAR EDDS 091750Z AUTO 35004KT CAVOK 16/M01 Q1016 NOSIG",
      "taf": "TAF EDDS 091700Z 0918/1018 01007KT CAVOK"
    },
    {
      "icao": "EDFH",
      "alert": "OK",
      "vis_m": 9999,
      "fzfg": false,
      "metar_trigger": false,
      "taf_trigger": false,
      "metar": "METAR EDFH 091750Z 16008KT CAVOK 16/01 Q1016",
      "taf": "TAF EDFH 091700Z 0918/1018 24005KT CAVOK"
    },
    {
      "icao": "EDJA",
      "alert": "OK",
      "vis_m": 9999,
      "fzfg": false,
      "metar_trigger": false,
      "taf_trigger": false,
      "metar": "METAR EDJA 091750Z 04006KT CAVOK 13/03 Q1017",
      "taf": "TAF EDJA 091700Z 0918/1003 04004KT CAVOK"
    },
    {
      "icao": "EDLW",
      "alert": "OK",
      "vis_m": 9999,
      "fzfg": false,
      "metar_trigger": false,
      "taf_trigger": false,
      "metar": "METAR EDLW 091750Z COR 11006KT CAVOK 16/04 Q1015",
      "taf": "TAF EDLW 091700Z 0918/1018 09007KT CAVOK"
    },
    {
      "icao": "EDNY",
      "alert": "OK",
      "vis_m": 9999,
      "fzfg": false,
      "metar_trigger": false,
      "taf_trigger": false,
      "metar": "METAR EDNY 091750Z 07002KT CAVOK 19/04 Q1016",
      "taf": "TAF EDNY 091700Z 0918/1003 VRB03KT CAVOK"
    },
    {
      "icao": "EDSB",
      "alert": "OK",
      "vis_m": 9999,
      "fzfg": false,
      "metar_trigger": false,
      "taf_trigger": false,
      "metar": "METAR EDSB 091750Z 36002KT CAVOK 19/02 Q1016",
      "taf": "TAF EDSB 091700Z 0918/1018 35003KT CAVOK"
    },
    {
      "icao": "EETN",
      "alert": "OK",
      "vis_m": 9999,
      "fzfg": false,
      "metar_trigger": false,
      "taf_trigger": false,
      "metar": "METAR EETN 091750Z 08010KT CAVOK 02/M05 Q1028 NOSIG",
      "taf": "TAF EETN 091730Z 0918/1018 07012KT CAVOK"
    },
    {
      "icao": "EFTU",
      "alert": "OK",
      "vis_m": 9999,
      "fzfg": false,
      "metar_trigger": false,
      "taf_trigger": false,
      "metar": "METAR EFTU 091750Z AUTO VRB02KT CAVOK 03/M10 Q1028",
      "taf": "TAF EFTU 091722Z 0918/1018 09006KT CAVOK"
    },
    {
      "icao": "EGBB",
      "alert": "OK",
      "vis_m": 9999,
      "fzfg": false,
      "metar_trigger": false,
      "taf_trigger": false,
      "metar": "METAR EGBB 091750Z 30010KT 250V320 9999 SCT037 10/02 Q1017",
      "taf": "TAF EGBB 091702Z 0918/1018 28009KT 9999 FEW045"
    },
    {
      "icao": "EGGP",
      "alert": "OK",
      "vis_m": 9999,
      "fzfg": false,
      "metar_trigger": false,
      "taf_trigger": false,
      "metar": "METAR EGGP 091750Z 27014KT 9999 VCSH FEW034 SCT041CB 08/02 Q1017",
      "taf": "TAF EGGP 091657Z 0918/1018 28014KT 9999 SCT025"
    },
    {
      "icao": "EGGW",
      "alert": "OK",
      "vis_m": 9999,
      "fzfg": false,
      "metar_trigger": false,
      "taf_trigger": false,
      "metar": "METAR EGGW 091750Z AUTO 29018KT 9999 BKN037 12/04 Q1016",
      "taf": ""
    },
    {
      "icao": "EGKK",
      "alert": "OK",
      "vis_m": 9999,
      "fzfg": false,
      "metar_trigger": false,
      "taf_trigger": false,
      "metar": "METAR EGKK 091750Z 27016KT 9999 SCT036 13/03 Q1017",
      "taf": "TAF EGKK 091656Z 0918/1024 24015KT CAVOK"
    },
    {
      "icao": "EGNM",
      "alert": "OK",
      "vis_m": 9999,
      "fzfg": false,
      "metar_trigger": false,
      "taf_trigger": false,
      "metar": "METAR EGNM 091750Z 26015KT 9999 -SHRA SCT025 05/02 Q1014",
      "taf": "TAF EGNM 091657Z 0918/1018 28018G28KT 9999 SCT025"
    },
    {
      "icao": "EGPD",
      "alert": "OK",
      "vis_m": 9999,
      "fzfg": false,
      "metar_trigger": false,
      "taf_trigger": false,
      "metar": "METAR EGPD 091750Z AUTO 32009KT 9999 FEW036/// BKN045/// //////CB 08/04 Q1007 TEMPO SHRA",
      "taf": "TAF EGPD 091655Z 0918/1018 29008KT 9999 FEW040"
    },
    {
      "icao": "EGPF",
      "alert": "OK",
      "vis_m": 3800,
      "fzfg": false,
      "metar_trigger": false,
      "taf_trigger": false,
      "metar": "METAR EGPF 091750Z AUTO 27014KT 3800 RA SCT022/// BKN026/// BKN031/// //////TCU 05/03 Q1012",
      "taf": "TAF EGPF 091654Z 0918/1018 26012KT 9999 FEW020"
    },
    {
      "icao": "EHBK",
      "alert": "OK",
      "vis_m": 9999,
      "fzfg": false,
      "metar_trigger": false,
      "taf_trigger": false,
      "metar": "METAR EHBK 091755Z AUTO 14004KT 9999 NSC 21/08 Q1014 NOSIG",
      "taf": "TAF EHBK 091719Z 0918/1024 19005KT CAVOK"
    },
    {
      "icao": "EHEH",
      "alert": "OK",
      "vis_m": 9999,
      "fzfg": false,
      "metar_trigger": false,
      "taf_trigger": false,
      "metar": "METAR EHEH 091755Z AUTO 20003KT 9999 SCT082 BKN087 BKN092 20/09 Q1013 BLU TEMPO VRB02KT FEW040CB RMK TREND REMOTE BY EHWX",
      "taf": ""
    },
    {
      "icao": "EKBI",
      "alert": "OK",
      "vis_m": 9999,
      "fzfg": false,
      "metar_trigger": false,
      "taf_trigger": false,
      "metar": "METAR EKBI 091750Z AUTO 12013KT 9999 FEW120/// 07/M05 Q1020",
      "taf": "TAF EKBI 091727Z 0918/1018 13015KT 9999 FEW040"
    },
    {
      "icao": "EKCH",
      "alert": "OK",
      "vis_m": 9999,
      "fzfg": false,
      "metar_trigger": false,
      "taf_trigger": false,
      "metar": "METAR EKCH 091750Z AUTO 13015KT 9999 NCD 05/M07 Q1025 NOSIG",
      "taf": "TAF EKCH 091727Z 0918/1018 14014KT CAVOK"
    },
    {
      "icao": "ENAL",
      "alert": "OK",
      "vis_m": 9999,
      "fzfg": false,
      "metar_trigger": false,
      "taf_trigger": false,
      "metar": "METAR ENAL 091750Z 17004KT 140V210 9999 BKN054 10/04 Q1011",
      "taf": "TAF ENAL 091700Z 0918/1003 VRB07KT 9999 -RA BKN050"
    },
    {
      "icao": "ENBR",
      "alert": "OK",
      "vis_m": 9999,
      "fzfg": false,
      "metar_trigger": false,
      "taf_trigger": false,
      "metar": "METAR ENBR 091750Z 15019KT CAVOK 10/M05 Q1012 TEMPO 15025G35KT RMK WIND 1200FT 14037KT",
      "taf": "TAF ENBR 091700Z 0918/1018 15020KT 9999 FEW040 SCT050"
    },
    {
      "icao": "ENGM",
      "alert": "OK",
      "vis_m": 9999,
      "fzfg": false,
      "metar_trigger": false,
      "taf_trigger": false,
      "metar": "METAR ENGM 091750Z 21005KT CAVOK 07/M02 Q1022 NOSIG",
      "taf": "TAF ENGM 091700Z 0918/1018 16007KT 9999 SCT040"
    },
    {
      "icao": "ENHD",
      "alert": "OK",
      "vis_m": 9999,
      "fzfg": false,
      "metar_trigger": false,
      "taf_trigger": false,
      "metar": "METAR ENHD 091750Z 14020G30KT CAVOK 10/M02 Q1013",
      "taf": "TAF ENHD 091400Z 0915/0922 14018KT 9999 -RA SCT050"
    },
    {
      "icao": "ENTC",
      "alert": "OK",
      "vis_m": 9999,
      "fzfg": false,
      "metar_trigger": false,
      "taf_trigger": false,
      "metar": "METAR ENTC 091750Z 19011KT CAVOK 08/M02 Q1016 NOSIG RMK WIND 2600FT 17017KT",
      "taf": "TAF ENTC 091700Z 0918/1018 18012KT 9999 BKN060"
    },
    {
      "icao": "ENTO",
      "alert": "OK",
      "vis_m": 9999,
      "fzfg": false,
      "metar_trigger": false,
      "taf_trigger": false,
      "metar": "METAR ENTO 091750Z 17007KT CAVOK 07/02 Q1022 NOSIG",
      "taf": "TAF ENTO 091700Z 0918/1018 15008KT CAVOK"
    },
    {
      "icao": "ENVA",
      "alert": "OK",
      "vis_m": 9999,
      "fzfg": false,
      "metar_trigger": false,
      "taf_trigger": false,
      "metar": "METAR ENVA 091750Z 15013KT 120V180 CAVOK 10/M00 Q1014 TEMPO 16020G32KT RMK WIND 670FT 16026G37KT",
      "taf": "TAF ENVA 091700Z 0918/1018 14015KT CAVOK"
    },
    {
      "icao": "ENZV",
      "alert": "OK",
      "vis_m": 9999,
      "fzfg": false,
      "metar_trigger": false,
      "taf_trigger": false,
      "metar": "METAR ENZV 091750Z 15030G41KT 9999 -RA FEW039 10/M02 Q1013 WS R18 NOSIG",
      "taf": "TAF ENZV 091700Z 0918/1018 14022KT CAVOK"
    },
    {
      "icao": "EPGD",
      "alert": "OK",
      "vis_m": 9999,
      "fzfg": false,
      "metar_trigger": false,
      "taf_trigger": false,
      "metar": "METAR EPGD 091800Z 03006KT 9999 SCT046 01/M02 Q1024",
      "taf": "TAF EPGD 091730Z 0918/1018 04010KT CAVOK"
    },
    {
      "icao": "EPKK",
      "alert": "OK",
      "vis_m": 9999,
      "fzfg": false,
      "metar_trigger": false,
      "taf_trigger": false,
      "metar": "METAR EPKK 091800Z 25003KT CAVOK 01/M04 Q1020",
      "taf": "TAF EPKK 091730Z 0918/1018 31007KT 9999 SCT030"
    },
    {
      "icao": "EPKT",
      "alert": "OK",
      "vis_m": 9999,
      "fzfg": false,
      "metar_trigger": false,
      "taf_trigger": false,
      "metar": "METAR EPKT 091800Z 26004KT CAVOK M02/M05 Q1020",
      "taf": "TAF EPKT 091730Z 0918/1018 26007KT 9999 SCT030"
    },
    {
      "icao": "EPLB",
      "alert": "OK",
      "vis_m": 9999,
      "fzfg": false,
      "metar_trigger": false,
      "taf_trigger": false,
      "metar": "METAR EPLB 091800Z 32004KT 9999 FEW020CB 01/00 Q1020",
      "taf": "TAF EPLB 091730Z 0918/1018 VRB05KT 9999 BKN020"
    },
    {
      "icao": "EPMO",
      "alert": "OK",
      "vis_m": 9999,
      "fzfg": false,
      "metar_trigger": false,
      "taf_trigger": false,
      "metar": "METAR EPMO 091800Z 05007KT CAVOK 04/M04 Q1022",
      "taf": "TAF EPMO 091730Z 0918/1018 04007KT CAVOK"
    },
    {
      "icao": "EPPO",
      "alert": "OK",
      "vis_m": 9999,
      "fzfg": false,
      "metar_trigger": false,
      "taf_trigger": false,
      "metar": "METAR EPPO 091800Z 05005KT CAVOK 05/M08 Q1021",
      "taf": "TAF EPPO 091730Z 0918/1018 09008KT CAVOK"
    },
    {
      "icao": "EPRA",
      "alert": "OK",
      "vis_m": 9999,
      "fzfg": false,
      "metar_trigger": false,
      "taf_trigger": false,
      "metar": "METAR EPRA 091800Z 04007KT CAVOK 04/M03 Q1020",
      "taf": "TAF EPRA 091730Z 0918/1003 04006KT 9999 SCT040"
    },
    {
      "icao": "EPRZ",
      "alert": "OK",
      "vis_m": 9999,
      "fzfg": false,
      "metar_trigger": false,
      "taf_trigger": false,
      "metar": "METAR EPRZ 091800Z 32003KT 9999 FEW005 BKN033 02/01 Q1020",
      "taf": "TAF EPRZ 091730Z 0918/1018 30010KT 9999 BKN030"
    },
    {
      "icao": "EPSC",
      "alert": "OK",
      "vis_m": 9999,
      "fzfg": false,
      "metar_trigger": false,
      "taf_trigger": false,
      "metar": "METAR EPSC 091800Z 03009KT CAVOK 05/M04 Q1022",
      "taf": "TAF EPSC 091730Z 0918/1018 03010KT CAVOK"
    },
    {
      "icao": "EPSY",
      "alert": "OK",
      "vis_m": 9999,
      "fzfg": false,
      "metar_trigger": false,
      "taf_trigger": false,
      "metar": "METAR EPSY 091800Z 03004KT CAVOK 03/M05 Q1022",
      "taf": "TAF EPSY 091730Z 0918/1003 04006KT CAVOK"
    },
    {
      "icao": "EPWA",
      "alert": "OK",
      "vis_m": 9999,
      "fzfg": false,
      "metar_trigger": false,
      "taf_trigger": false,
      "metar": "METAR EPWA 091800Z 03009KT 9999 FEW045 05/M05 Q1021 NOSIG",
      "taf": "TAF EPWA 091730Z 0918/1018 05007KT CAVOK"
    },
    {
      "icao": "EPWR",
      "alert": "OK",
      "vis_m": 9999,
      "fzfg": false,
      "metar_trigger": false,
      "taf_trigger": false,
      "metar": "METAR EPWR 091800Z 26003KT CAVOK 04/M04 Q1021",
      "taf": "TAF EPWR 091730Z 0918/1018 VRB02KT CAVOK"
    },
    {
      "icao": "ESGG",
      "alert": "OK",
      "vis_m": 9999,
      "fzfg": false,
      "metar_trigger": false,
      "taf_trigger": false,
      "metar": "METAR ESGG 091750Z 22005KT CAVOK 07/M01 Q1023",
      "taf": "TAF ESGG 091730Z 0918/1018 24006KT CAVOK"
    },
    {
      "icao": "ESKN",
      "alert": "OK",
      "vis_m": 9999,
      "fzfg": false,
      "metar_trigger": false,
      "taf_trigger": false,
      "metar": "METAR ESKN 091750Z 13009KT CAVOK 02/M03 Q1027",
      "taf": "TAF ESKN 091730Z 0918/1018 15008KT CAVOK"
    },
    {
      "icao": "ESMS",
      "alert": "OK",
      "vis_m": 9999,
      "fzfg": false,
      "metar_trigger": false,
      "taf_trigger": false,
      "metar": "METAR ESMS 091750Z 12009KT CAVOK 03/M08 Q1024",
      "taf": "TAF ESMS 091727Z 0918/1018 13012KT CAVOK"
    },
    {
      "icao": "ESSA",
      "alert": "OK",
      "vis_m": 9999,
      "fzfg": false,
      "metar_trigger": false,
      "taf_trigger": false,
      "metar": "METAR ESSA 091750Z 13008KT CAVOK 02/M09 Q1027 NOSIG",
      "taf": "TAF ESSA 091730Z 0918/1018 13009KT CAVOK"
    },
    {
      "icao": "EYKA",
      "alert": "OK",
      "vis_m": 9999,
      "fzfg": false,
      "metar_trigger": false,
      "taf_trigger": false,
      "metar": "METAR EYKA 091750Z 04006KT 9999 OVC046 03/M05 Q1024",
      "taf": "TAF EYKA 091700Z 0918/1018 VRB04KT 9000 BKN040"
    },
    {
      "icao": "EYPA",
      "alert": "OK",
      "vis_m": 9999,
      "fzfg": false,
      "metar_trigger": false,
      "taf_trigger": false,
      "metar": "METAR EYPA 091750Z 07003KT 9999 BKN044 04/M05 Q1025",
      "taf": "TAF EYPA 091700Z 0918/1018 08010KT 9000 SCT040"
    },
    {
      "icao": "EYVI",
      "alert": "OK",
      "vis_m": 9999,
      "fzfg": false,
      "metar_trigger": false,
      "taf_trigger": false,
      "metar": "METAR EYVI 091750Z 01007KT 9999 OVC037 02/M04 Q1022 NOSIG",
      "taf": "TAF EYVI 091700Z 0918/1018 VRB04KT 9000 BKN035"
    },
    {
      "icao": "GCFV",
      "alert": "OK",
      "vis_m": 9999,
      "fzfg": false,
      "metar_trigger": false,
      "taf_trigger": false,
      "metar": "METAR GCFV 091800Z 31021G32KT 9999 FEW027 SCT030 19/11 Q1014",
      "taf": "TAF GCFV 091400Z 0915/1015 30020KT 9999 SCT030 TX21/1014Z TN15/1006Z"
    },
    {
      "icao": "GCLP",
      "alert": "OK",
      "vis_m": 9999,
      "fzfg": false,
      "metar_trigger": false,
      "taf_trigger": false,
      "metar": "METAR GCLP 091800Z 33019G29KT 300V360 9999 SCT030 19/11 Q1017 WS R03 NOSIG",
      "taf": "TAF GCLP 091400Z 0915/1015 33020KT 9999 SCT030 TX22/1014Z TN15/1006Z"
    },
    {
      "icao": "GCTS",
      "alert": "OK",
      "vis_m": 9999,
      "fzfg": false,
      "metar_trigger": false,
      "taf_trigger": false,
      "metar": "METAR GCTS 091800Z 18008KT 9999 FEW030 20/11 Q1017 NOSIG",
      "taf": "TAF GCTS 091400Z 0915/1015 18010KT 9999 SCT030 TX23/1014Z TN15/1006Z"
    },
    {
      "icao": "GMAD",
      "alert": "OK",
      "vis_m": 9999,
      "fzfg": false,
      "metar_trigger": false,
      "taf_trigger": false,
      "metar": "METAR GMAD 091730Z 27007KT 9999 SCT030TCU FEW040CB 18/10 Q1012 NOSIG",
      "taf": "TAF GMAD 091700Z 0918/1024 18006KT 6000 SCT020 SCT080"
    },
    {
      "icao": "GMMN",
      "alert": "OK",
      "vis_m": 9999,
      "fzfg": false,
      "metar_trigger": false,
      "taf_trigger": false,
      "metar": "METAR GMMN 091800Z 02010KT 9999 SCT030 15/10 Q1013 NOSIG",
      "taf": "TAF GMMN 091700Z 0918/1024 03009KT 9999 SCT030"
    },
    {
      "icao": "GMMX",
      "alert": "OK",
      "vis_m": 9999,
      "fzfg": false,
      "metar_trigger": false,
      "taf_trigger": false,
      "metar": "METAR GMMX 091800Z 33006KT 280V010 9999 BKN023 16/08 Q1012 NOSIG",
      "taf": "TAF GMMX 091700Z 0918/1024 24015KT 8000 ST015 BKN023"
    },
    {
      "icao": "HEGN",
      "alert": "OK",
      "vis_m": 9999,
      "fzfg": false,
      "metar_trigger": false,
      "taf_trigger": false,
      "metar": "METAR HEGN 091700Z 00000KT CAVOK 24/05 Q1015 NOSIG",
      "taf": "TAF HEGN 091700Z 0918/1024 24010KT CAVOK"
    },
    {
      "icao": "HEMA",
      "alert": "OK",
      "vis_m": 9999,
      "fzfg": false,
      "metar_trigger": false,
      "taf_trigger": false,
      "metar": "METAR HEMA 091700Z 36006KT CAVOK 22/10 Q1015 NOSIG",
      "taf": "TAF HEMA 091700Z 0918/1024 23010KT CAVOK"
    },
    {
      "icao": "HESH",
      "alert": "OK",
      "vis_m": 9999,
      "fzfg": false,
      "metar_trigger": false,
      "taf_trigger": false,
      "metar": "METAR HESH 091700Z 16016KT CAVOK 24/10 Q1013 NOSIG",
      "taf": "TAF HESH 091700Z 0918/1024 26010KT CAVOK"
    },
    {
      "icao": "HESX",
      "alert": "OK",
      "vis_m": 9999,
      "fzfg": false,
      "metar_trigger": false,
      "taf_trigger": false,
      "metar": "METAR HESX 091700Z 26010KT CAVOK 23/M01 Q1015 NOSIG",
      "taf": "TAF HESX 091700Z 0918/1024 27012KT CAVOK"
    },
    {
      "icao": "LATI",
      "alert": "OK",
      "vis_m": 9999,
      "fzfg": false,
      "metar_trigger": false,
      "taf_trigger": false,
      "metar": "METAR LATI 091750Z VRB02KT CAVOK 13/02 Q1015 NOSIG",
      "taf": "TAF LATI 091700Z 0918/1018 VRB03KT CAVOK TX21/1013Z TN04/1003Z"
    },
    {
      "icao": "LBPD",
      "alert": "OK",
      "vis_m": 9999,
      "fzfg": false,
      "metar_trigger": false,
      "taf_trigger": false,
      "metar": "METAR LBPD 091800Z AUTO 31009KT 290V020 9999 OVC084/// 10/00 Q1015 NOSIG",
      "taf": "TAF LBPD 091700Z 0918/1018 32010KT 9999 SCT060"
    },
    {
      "icao": "LBSF",
      "alert": "OK",
      "vis_m": 9999,
      "fzfg": false,
      "metar_trigger": false,
      "taf_trigger": false,
      "metar": "METAR LBSF 091800Z AUTO 33004KT 9999 BKN069/// 06/M04 Q1015 NOSIG",
      "taf": "TAF LBSF 091700Z 0918/1018 31012KT 9999 SCT060"
    },
    {
      "icao": "LBWN",
      "alert": "OK",
      "vis_m": 9999,
      "fzfg": false,
      "metar_trigger": false,
      "taf_trigger": false,
      "metar": "METAR LBWN 091800Z AUTO VRB01KT 9999 -SHRA SCT023/// SCT028/// OVC033/// 06/04 Q1016 TEMPO RA",
      "taf": "TAF LBWN 091700Z 0918/1018 13010KT 7000 RA BKN040"
    },
    {
      "icao": "LCLK",
      "alert": "OK",
      "vis_m": 9999,
      "fzfg": false,
      "metar_trigger": false,
      "taf_trigger": false,
      "metar": "METAR LCLK 091800Z 24007KT CAVOK 16/15 Q1011 NOSIG",
      "taf": "TAF LCLK 091730Z 0918/1018 25009KT 9999 FEW020 SCT050"
    },
    {
      "icao": "LCPH",
      "alert": "OK",
      "vis_m": 9999,
      "fzfg": false,
      "metar_trigger": false,
      "taf_trigger": false,
      "metar": "METAR LCPH 091800Z 26011KT 9999 FEW015 SCT020 BKN033 17/14 Q1012 NOSIG",
      "taf": "TAF LCPH 091730Z 0918/1018 26010KT 9999 SCT018"
    },
    {
      "icao": "LEAL",
      "alert": "OK",
      "vis_m": 9999,
      "fzfg": false,
      "metar_trigger": false,
      "taf_trigger": false,
      "metar": "METAR LEAL 091800Z 06008KT 020V080 CAVOK 20/10 Q1017 NOSIG",
      "taf": "TAF LEAL 091700Z 0918/1018 08010KT CAVOK TX26/1013Z TN15/1006Z"
    },
    {
      "icao": "LEBB",
      "alert": "OK",
      "vis_m": 9999,
      "fzfg": false,
      "metar_trigger": false,
      "taf_trigger": false,
      "metar": "METAR LEBB 091800Z 32009KT 290V350 9999 FEW025 17/12 Q1023 NOSIG",
      "taf": "TAF LEBB 091700Z 0918/1018 31009KT 9999 FEW010 TX30/1014Z TN11/1006Z"
    },
    {
      "icao": "LEBL",
      "alert": "OK",
      "vis_m": 9999,
      "fzfg": false,
      "metar_trigger": false,
      "taf_trigger": false,
      "metar": "METAR LEBL 091800Z 22006KT CAVOK 17/14 Q1017 NOSIG",
      "taf": "TAF LEBL 091700Z 0918/1018 20008KT 9999 FEW035 TX23/1012Z TN12/1006Z"
    },
    {
      "icao": "LECH",
      "alert": "OK",
      "vis_m": 9999,
      "fzfg": false,
      "metar_trigger": false,
      "taf_trigger": false,
      "metar": "METAR LECH 091800Z AUTO 21004KT CAVOK 22/02 Q1018",
      "taf": "TAF LECH 091700Z 0918/1018 VRB04KT CAVOK TX26/1014Z TN09/1006Z"
    },
    {
      "icao": "LEMD",
      "alert": "OK",
      "vis_m": 9999,
      "fzfg": false,
      "metar_trigger": false,
      "taf_trigger": false,
      "metar": "METAR LEMD 091800Z VRB02KT CAVOK 24/01 Q1017 NOSIG",
      "taf": "TAF LEMD 091700Z 0918/1024 01006KT CAVOK TX29/1015Z TN09/1006Z"
    },
    {
      "icao": "LEMG",
      "alert": "OK",
      "vis_m": 9999,
      "fzfg": false,
      "metar_trigger": false,
      "taf_trigger": false,
      "metar": "METAR LEMG 091800Z 17004KT 130V210 9999 FEW055 SCT075 18/12 Q1011 NOSIG",
      "taf": "TAF LEMG 091700Z 0918/1018 29005KT 9999 FEW015 SCT025 TX24/1014Z TN14/1007Z"
    },
    {
      "icao": "LEVC",
      "alert": "OK",
      "vis_m": 9999,
      "fzfg": false,
      "metar_trigger": false,
      "taf_trigger": false,
      "metar": "METAR LEVC 091800Z 14004KT CAVOK 21/07 Q1018 NOSIG",
      "taf": "TAF LEVC 091700Z 0918/1018 VRB04KT 9999 FEW010 TX26/1013Z TN13/1006Z"
    },
    {
      "icao": "LEXJ",
      "alert": "OK",
      "vis_m": 9999,
      "fzfg": false,
      "metar_trigger": false,
      "taf_trigger": false,
      "metar": "METAR LEXJ 091800Z 29010KT 260V320 9999 OVC009 14/12 Q1023",
      "taf": "TAF LEXJ 091400Z 0915/1015 29009KT 9000 SCT005 TX26/1014Z TN12/1007Z"
    },
    {
      "icao": "LEZG",
      "alert": "OK",
      "vis_m": 9999,
      "fzfg": false,
      "metar_trigger": false,
      "taf_trigger": false,
      "metar": "METAR LEZG 091800Z 33002KT CAVOK 26/05 Q1017 NOSIG",
      "taf": "TAF LEZG 091700Z 0918/1018 VRB03KT CAVOK TX31/1015Z TN12/1006Z"
    },
    {
      "icao": "LEZL",
      "alert": "OK",
      "vis_m": 9999,
      "fzfg": false,
      "metar_trigger": false,
      "taf_trigger": false,
      "metar": "METAR LEZL 091800Z 26006KT CAVOK 23/13 Q1011 NOSIG",
      "taf": "TAF LEZL 091400Z 0915/1015 26008KT CAVOK TX26/1015Z TN11/1007Z"
    },
    {
      "icao": "LFBD",
      "alert": "OK",
      "vis_m": 9999,
      "fzfg": false,
      "metar_trigger": false,
      "taf_trigger": false,
      "metar": "METAR LFBD 091800Z AUTO 31009KT CAVOK 23/09 Q1019 NOSIG",
      "taf": "TAF LFBD 091700Z 0918/1024 30010KT CAVOK TX26/1015Z TN13/1001Z"
    },
    {
      "icao": "LFLL",
      "alert": "OK",
      "vis_m": 9999,
      "fzfg": false,
      "metar_trigger": false,
      "taf_trigger": false,
      "metar": "METAR LFLL 091800Z 03006KT CAVOK 22/10 Q1016 NOSIG",
      "taf": "TAF LFLL 091700Z 0918/1024 VRB02KT CAVOK"
    },
    {
      "icao": "LFLS",
      "alert": "OK",
      "vis_m": 9999,
      "fzfg": false,
      "metar_trigger": false,
      "taf_trigger": false,
      "metar": "METAR LFLS 091800Z AUTO 02005KT CAVOK 19/10 Q1017 NOSIG",
      "taf": "TAF LFLS 091400Z 0915/1015 09005KT CAVOK"
    },
    {
      "icao": "LFMN",
      "alert": "OK",
      "vis_m": 9999,
      "fzfg": false,
      "metar_trigger": false,
      "taf_trigger": false,
      "metar": "METAR LFMN 091800Z 15004KT 9999 FEW012 16/14 Q1014 NOSIG",
      "taf": "TAF LFMN 091400Z 0915/1021 18006KT 9999 FEW013"
    },
    {
      "icao": "LFOB",
      "alert": "OK",
      "vis_m": 9999,
      "fzfg": false,
      "metar_trigger": false,
      "taf_trigger": false,
      "metar": "METAR LFOB 091800Z AUTO 30016KT CAVOK 18/12 Q1017 BECMG 31015G25KT",
      "taf": "TAF LFOB 091700Z 0918/1018 31015G25KT CAVOK"
    },
    {
      "icao": "LFPO",
      "alert": "OK",
      "vis_m": 9999,
      "fzfg": false,
      "metar_trigger": false,
      "taf_trigger": false,
      "metar": "METAR LFPO 091800Z 27009KT 9999 SCT066CB BKN130 BKN200 23/12 Q1016 TEMPO 4000 -TSRA BKN050CB",
      "taf": "TAF LFPO 091700Z 0918/1024 27008KT CAVOK"
    },
    {
      "icao": "LFSB",
      "alert": "OK",
      "vis_m": 9999,
      "fzfg": false,
      "metar_trigger": false,
      "taf_trigger": false,
      "metar": "METAR LFSB 091800Z AUTO 34005KT CAVOK 18/06 Q1016 NOSIG",
      "taf": "TAF LFSB 091700Z 0918/1018 VRB03KT CAVOK"
    },
    {
      "icao": "LGAV",
      "alert": "OK",
      "vis_m": 9999,
      "fzfg": false,
      "metar_trigger": false,
      "taf_trigger": false,
      "metar": "METAR LGAV 091750Z 01003KT 9999 FEW030 12/06 Q1014 NOSIG",
      "taf": "TAF LGAV 091700Z 0918/1018 VRB05KT 9999 SCT030"
    },
    {
      "icao": "LGTS",
      "alert": "OK",
      "vis_m": 9999,
      "fzfg": false,
      "metar_trigger": false,
      "taf_trigger": false,
      "metar": "METAR LGTS 091750Z 11005KT 9999 FEW030 14/06 Q1013 NOSIG",
      "taf": "TAF LGTS 091700Z 0918/1018 VRB03KT 9999 FEW025"
    },
    {
      "icao": "LHBP",
      "alert": "OK",
      "vis_m": 9999,
      "fzfg": false,
      "metar_trigger": false,
      "taf_trigger": false,
      "metar": "METAR LHBP 091800Z 31009KT CAVOK 08/M08 Q1016 NOSIG",
      "taf": "TAF LHBP 091715Z 0918/1018 30009KT CAVOK"
    },
    {
      "icao": "LHDC",
      "alert": "OK",
      "vis_m": 9999,
      "fzfg": false,
      "metar_trigger": false,
      "taf_trigger": false,
      "metar": "METAR LHDC 091745Z AUTO 03009KT 350V060 CAVOK 08/M05 Q1018 NOSIG",
      "taf": "TAF LHDC 091415Z 0915/0924 03008KT CAVOK"
    },
    {
      "icao": "LIBD",
      "alert": "OK",
      "vis_m": 9999,
      "fzfg": false,
      "metar_trigger": false,
      "taf_trigger": false,
      "metar": "METAR LIBD 091750Z 23003KT CAVOK 14/04 Q1015",
      "taf": "TAF LIBD 091700Z 0918/1018 22006KT CAVOK"
    },
    {
      "icao": "LIBG",
      "alert": "OK",
      "vis_m": 9999,
      "fzfg": false,
      "metar_trigger": false,
      "taf_trigger": false,
      "metar": "METAR LIBG 091750Z VRB02KT CAVOK 16/01 Q1015",
      "taf": "TAF LIBG 091400Z 0915/0924 01012KT CAVOK"
    },
    {
      "icao": "LIBP",
      "alert": "OK",
      "vis_m": 9999,
      "fzfg": false,
      "metar_trigger": false,
      "taf_trigger": false,
      "metar": "METAR LIBP 091750Z AUTO 06003KT 030V100 9999 NCD 14/08 Q1015",
      "taf": "TAF LIBP 091700Z 0918/1018 VRB05KT CAVOK"
    },
    {
      "icao": "LIBR",
      "alert": "OK",
      "vis_m": 9999,
      "fzfg": false,
      "metar_trigger": false,
      "taf_trigger": false,
      "metar": "METAR LIBR 091750Z 29006KT CAVOK 13/06 Q1015",
      "taf": "TAF LIBR 091700Z 0918/1018 33011KT CAVOK"
    },
    {
      "icao": "LICA",
      "alert": "OK",
      "vis_m": 9999,
      "fzfg": false,
      "metar_trigger": false,
      "taf_trigger": false,
      "metar": "METAR LICA 091750Z AUTO 24006KT 9999 NCD 15/12 Q1017",
      "taf": "TAF LICA 091700Z 0918/1018 26012KT 9999 FEW020"
    },
    {
      "icao": "LICC",
      "alert": "OK",
      "vis_m": 9999,
      "fzfg": false,
      "metar_trigger": false,
      "taf_trigger": false,
      "metar": "METAR LICC 091750Z 09003KT CAVOK 18/12 Q1017",
      "taf": "TAF LICC 091700Z 0918/1018 VRB05KT CAVOK"
    },
    {
      "icao": "LICJ",
      "alert": "OK",
      "vis_m": 9999,
      "fzfg": false,
      "metar_trigger": false,
      "taf_trigger": false,
      "metar": "METAR LICJ 091750Z VRB01KT CAVOK 18/13 Q1017",
      "taf": "TAF LICJ 091700Z 0918/1018 VRB05KT CAVOK"
    },
    {
      "icao": "LIMC",
      "alert": "OK",
      "vis_m": 9999,
      "fzfg": false,
      "metar_trigger": false,
      "taf_trigger": false,
      "metar": "METAR LIMC 091750Z 15003KT CAVOK 20/10 Q1013 NOSIG",
      "taf": "TAF LIMC 091700Z 0918/1024 VRB05KT CAVOK"
    },
    {
      "icao": "LIME",
      "alert": "OK",
      "vis_m": 9999,
      "fzfg": false,
      "metar_trigger": false,
      "taf_trigger": false,
      "metar": "METAR LIME 091750Z 15005KT 120V210 CAVOK 19/08 Q1014 NOSIG",
      "taf": "TAF LIME 091700Z 0918/1018 VRB05KT CAVOK"
    },
    {
      "icao": "LIMF",
      "alert": "OK",
      "vis_m": 9999,
      "fzfg": false,
      "metar_trigger": false,
      "taf_trigger": false,
      "metar": "METAR LIMF 091750Z 03002KT CAVOK 21/09 Q1013",
      "taf": "TAF LIMF 091700Z 0918/1018 VRB05KT CAVOK"
    },
    {
      "icao": "LIMJ",
      "alert": "OK",
      "vis_m": 9999,
      "fzfg": false,
      "metar_trigger": false,
      "taf_trigger": false,
      "metar": "METAR LIMJ 091750Z 16002KT CAVOK 16/13 Q1015",
      "taf": "TAF LIMJ 091700Z 0918/1018 VRB05KT 9999 FEW015"
    },
    {
      "icao": "LIPE",
      "alert": "OK",
      "vis_m": 9999,
      "fzfg": false,
      "metar_trigger": false,
      "taf_trigger": false,
      "metar": "METAR LIPE 091750Z 08008KT CAVOK 17/04 Q1014",
      "taf": "TAF LIPE 091700Z 0918/1018 10010KT CAVOK"
    },
    {
      "icao": "LIPH",
      "alert": "OK",
      "vis_m": 9999,
      "fzfg": false,
      "metar_trigger": false,
      "taf_trigger": false,
      "metar": "METAR LIPH 091750Z 15004KT CAVOK 14/07 Q1015",
      "taf": "TAF LIPH 091700Z 0918/1018 VRB05KT CAVOK"
    },
    {
      "icao": "LIPQ",
      "alert": "OK",
      "vis_m": 9999,
      "fzfg": false,
      "metar_trigger": false,
      "taf_trigger": false,
      "metar": "METAR LIPQ 091750Z AUTO 18002KT 9999 NCD 13/06 Q1015",
      "taf": "TAF LIPQ 091700Z 0918/1018 VRB05KT CAVOK"
    },
    {
      "icao": "LIPR",
      "alert": "OK",
      "vis_m": 9999,
      "fzfg": false,
      "metar_trigger": false,
      "taf_trigger": false,
      "metar": "METAR LIPR 091750Z 10007KT CAVOK 14/10 Q1014",
      "taf": "TAF LIPR 091700Z 0918/1018 VRB05KT CAVOK"
    },
    {
      "icao": "LIPX",
      "alert": "OK",
      "vis_m": 9999,
      "fzfg": false,
      "metar_trigger": false,
      "taf_trigger": false,
      "metar": "METAR LIPX 091750Z 11004KT CAVOK 18/07 Q1014",
      "taf": "TAF LIPX 091700Z 0918/1018 10006KT CAVOK"
    },
    {
      "icao": "LIPY",
      "alert": "OK",
      "vis_m": 9999,
      "fzfg": false,
      "metar_trigger": false,
      "taf_trigger": false,
      "metar": "METAR LIPY 091750Z AUTO 15006KT 120V190 9999 NCD 15/06 Q1014",
      "taf": "TAF LIPY 091700Z 0918/1018 VRB05KT CAVOK"
    },
    {
      "icao": "LIPZ",
      "alert": "OK",
      "vis_m": 9999,
      "fzfg": false,
      "metar_trigger": false,
      "taf_trigger": false,
      "metar": "METAR LIPZ 091750Z 15005KT CAVOK 14/07 Q1016 NOSIG",
      "taf": "TAF LIPZ 091700Z 0918/1024 VRB05KT CAVOK"
    },
    {
      "icao": "LIRF",
      "alert": "OK",
      "vis_m": 9999,
      "fzfg": false,
      "metar_trigger": false,
      "taf_trigger": false,
      "metar": "METAR LIRF 091750Z 25004KT CAVOK 15/12 Q1015 NOSIG",
      "taf": ""
    },
    {
      "icao": "LIRN",
      "alert": "OK",
      "vis_m": 9999,
      "fzfg": false,
      "metar_trigger": false,
      "taf_trigger": false,
      "metar": "METAR LIRN 091750Z 19005KT 150V210 9999 FEW020 15/13 Q1016 NOSIG",
      "taf": "TAF LIRN 091700Z 0918/1018 VRB05KT 9999 FEW020"
    },
    {
      "icao": "LIRP",
      "alert": "OK",
      "vis_m": 9999,
      "fzfg": false,
      "metar_trigger": false,
      "taf_trigger": false,
      "metar": "METAR LIRP 091745Z 25005KT 9999 FEW040 16/12 Q1015 NOSIG",
      "taf": "TAF LIRP 091700Z 0918/1018 25005KT CAVOK"
    },
    {
      "icao": "LIRZ",
      "alert": "OK",
      "vis_m": 9999,
      "fzfg": false,
      "metar_trigger": false,
      "taf_trigger": false,
      "metar": "METAR LIRZ 091750Z AUTO 28008KT 9999 NCD 21/06 Q1014",
      "taf": "TAF LIRZ 091700Z 0918/1018 VRB05KT CAVOK"
    },
    {
      "icao": "LJLJ",
      "alert": "OK",
      "vis_m": 9999,
      "fzfg": false,
      "metar_trigger": false,
      "taf_trigger": false,
      "metar": "METAR LJLJ 091800Z 12004KT CAVOK 10/02 Q1015 NOSIG",
      "taf": "TAF LJLJ 091700Z 0918/1018 VRB02KT CAVOK"
    },
    {
      "icao": "LKMT",
      "alert": "OK",
      "vis_m": 9999,
      "fzfg": false,
      "metar_trigger": false,
      "taf_trigger": false,
      "metar": "METAR LKMT 091800Z 03006KT CAVOK 00/M03 Q1020 NOSIG",
      "taf": "TAF LKMT 091700Z 0918/1018 01008KT CAVOK"
    },
    {
      "icao": "LKPR",
      "alert": "OK",
      "vis_m": 9999,
      "fzfg": false,
      "metar_trigger": false,
      "taf_trigger": false,
      "metar": "METAR LKPR 091800Z 06005KT CAVOK 08/M07 Q1018 NOSIG",
      "taf": "TAF LKPR 091700Z 0918/1024 02009KT CAVOK"
    },
    {
      "icao": "LLBG",
      "alert": "OK",
      "vis_m": 9999,
      "fzfg": false,
      "metar_trigger": false,
      "taf_trigger": false,
      "metar": "METAR LLBG 091750Z VRB03KT CAVOK 17/12 Q1015 NOSIG",
      "taf": "TAF LLBG 091704Z 0918/1018 VRB04KT CAVOK TX22/1010Z TN13/1003Z"
    },
    {
      "icao": "LMML",
      "alert": "OK",
      "vis_m": 9999,
      "fzfg": false,
      "metar_trigger": false,
      "taf_trigger": false,
      "metar": "METAR LMML 091745Z 32004KT 280V350 CAVOK 17/13 Q1017 NOSIG",
      "taf": "TAF LMML 091700Z 0918/1018 VRB05KT CAVOK"
    },
    {
      "icao": "LOWW",
      "alert": "OK",
      "vis_m": 9999,
      "fzfg": false,
      "metar_trigger": false,
      "taf_trigger": false,
      "metar": "METAR LOWW 091750Z 35008KT CAVOK 10/M05 Q1017 NOSIG",
      "taf": "TAF LOWW 091715Z 0918/1024 36008KT CAVOK TX11/0918Z TNM00/1004Z"
    },
    {
      "icao": "LPFR",
      "alert": "OK",
      "vis_m": 9999,
      "fzfg": false,
      "metar_trigger": false,
      "taf_trigger": false,
      "metar": "METAR LPFR 091800Z 26010KT 9999 FEW022 16/12 Q1013",
      "taf": "TAF LPFR 091700Z 0918/1018 29007KT 9999 SCT030"
    },
    {
      "icao": "LPMA",
      "alert": "OK",
      "vis_m": 9999,
      "fzfg": false,
      "metar_trigger": false,
      "taf_trigger": false,
      "metar": "METAR LPMA 091800Z VRB07KT 9999 SCT013 FEW018CB 16/10 Q1019",
      "taf": "TAF LPMA 091700Z 0918/1018 36015KT 9999 SCT015"
    },
    {
      "icao": "LPPR",
      "alert": "OK",
      "vis_m": 9999,
      "fzfg": false,
      "metar_trigger": false,
      "taf_trigger": false,
      "metar": "METAR LPPR 091800Z 34005KT 320V020 CAVOK 24/18 Q1014",
      "taf": "TAF LPPR 091700Z 0918/1018 35008KT CAVOK"
    },
    {
      "icao": "LPPS",
      "alert": "OK",
      "vis_m": 9999,
      "fzfg": false,
      "metar_trigger": false,
      "taf_trigger": false,
      "metar": "METAR LPPS 091800Z 36018KT 9999 FEW015 16/10 Q1019",
      "taf": "TAF LPPS 091700Z 0918/1024 01015KT 9999 SCT012 SCT030"
    },
    {
      "icao": "LPPT",
      "alert": "OK",
      "vis_m": 9999,
      "fzfg": false,
      "metar_trigger": false,
      "taf_trigger": false,
      "metar": "METAR LPPT 091800Z 33011KT CAVOK 20/13 Q1013",
      "taf": "TAF LPPT 091700Z 0918/1024 34012KT 9999 SCT030"
    },
    {
      "icao": "LQBK",
      "alert": "OK",
      "vis_m": 9999,
      "fzfg": false,
      "metar_trigger": false,
      "taf_trigger": false,
      "metar": "METAR LQBK 091800Z VRB01KT CAVOK 08/M00 Q1017 NOSIG",
      "taf": "TAF LQBK 091700Z 0918/1018 29005KT CAVOK TX15/1013Z TN00/1004Z"
    },
    {
      "icao": "LQSA",
      "alert": "OK",
      "vis_m": 9999,
      "fzfg": false,
      "metar_trigger": false,
      "taf_trigger": false,
      "metar": "METAR LQSA 091800Z 34005KT 310V010 CAVOK 10/M08 Q1016 NOSIG",
      "taf": "TAF LQSA 091700Z 0918/1018 32006KT CAVOK TX17/1014Z TNM02/1005Z"
    },
    {
      "icao": "LQTZ",
      "alert": "OK",
      "vis_m": 9999,
      "fzfg": false,
      "metar_trigger": false,
      "taf_trigger": false,
      "metar": "METAR LQTZ 091800Z 04006KT 020V090 CAVOK 09/M02 Q1017",
      "taf": "TAF LQTZ 091700Z 0918/1018 VRB03KT CAVOK TX14/1013Z TNM01/1004Z"
    },
    {
      "icao": "LRBC",
      "alert": "OK",
      "vis_m": 9999,
      "fzfg": false,
      "metar_trigger": false,
      "taf_trigger": false,
      "metar": "METAR LRBC 091800Z 35013KT 9999 FEW028 FEW033CB 04/M01 Q1017",
      "taf": "TAF LRBC 091700Z 0918/1003 34008KT 9999 SCT025"
    },
    {
      "icao": "LRBS",
      "alert": "OK",
      "vis_m": 9999,
      "fzfg": false,
      "metar_trigger": false,
      "taf_trigger": false,
      "metar": "METAR LRBS 091800Z 06003KT 030V090 CAVOK 06/02 Q1016 NOSIG",
      "taf": "TAF LRBS 091700Z 0918/1018 VRB04KT CAVOK"
    },
    {
      "icao": "LRBV",
      "alert": "OK",
      "vis_m": 9999,
      "fzfg": false,
      "metar_trigger": false,
      "taf_trigger": false,
      "metar": "METAR LRBV 091800Z 28006KT 230V330 9999 4000NW -SHRASN FEW018 SCT033 FEW035CB BKN052 02/M00 Q1016",
      "taf": "TAF LRBV 091700Z 0918/1003 29009KT 9999 BKN040"
    },
    {
      "icao": "LRCL",
      "alert": "OK",
      "vis_m": 9999,
      "fzfg": false,
      "metar_trigger": false,
      "taf_trigger": false,
      "metar": "METAR LRCL 091800Z 29004KT CAVOK 03/M04 Q1016",
      "taf": "TAF LRCL 091700Z 0918/1003 30006KT 9999 BKN040"
    },
    {
      "icao": "LRCV",
      "alert": "OK",
      "vis_m": 9999,
      "fzfg": false,
      "metar_trigger": false,
      "taf_trigger": false,
      "metar": "METAR LRCV 091800Z 30006KT CAVOK 08/00 Q1015",
      "taf": "TAF LRCV 091700Z 0918/1003 30006KT CAVOK"
    },
    {
      "icao": "LRIA",
      "alert": "OK",
      "vis_m": 9999,
      "fzfg": false,
      "metar_trigger": false,
      "taf_trigger": false,
      "metar": "METAR LRIA 091800Z 31013KT CAVOK 03/M00 Q1017",
      "taf": "TAF LRIA 091700Z 0918/1003 31011KT 9999 SCT040"
    },
    {
      "icao": "LROP",
      "alert": "OK",
      "vis_m": 9999,
      "fzfg": false,
      "metar_trigger": false,
      "taf_trigger": false,
      "metar": "METAR LROP 091800Z 09004KT CAVOK 06/00 Q1017 NOSIG",
      "taf": "TAF LROP 091700Z 0918/1018 VRB04KT CAVOK"
    },
    {
      "icao": "LRSB",
      "alert": "OK",
      "vis_m": 9999,
      "fzfg": false,
      "metar_trigger": false,
      "taf_trigger": false,
      "metar": "METAR LRSB 091800Z 10006KT 9999 SCT048 BKN088 03/01 Q1016",
      "taf": "TAF LRSB 091700Z 0918/1018 VRB04KT 9999 SCT045"
    },
    {
      "icao": "LRSM",
      "alert": "OK",
      "vis_m": 9999,
      "fzfg": false,
      "metar_trigger": false,
      "taf_trigger": false,
      "metar": "METAR LRSM 091800Z 01007KT CAVOK 04/M05 Q1017",
      "taf": "TAF LRSM 091700Z 0918/1003 35006KT CAVOK"
    },
    {
      "icao": "LRSV",
      "alert": "OK",
      "vis_m": 9999,
      "fzfg": false,
      "metar_trigger": false,
      "taf_trigger": false,
      "metar": "METAR LRSV 091800Z 31009KT 9999 -SN FEW029 SCT041 01/M02 Q1017",
      "taf": "TAF LRSV 091700Z 0918/1003 32010KT 9999 SCT025"
    },
    {
      "icao": "LRTM",
      "alert": "OK",
      "vis_m": 9999,
      "fzfg": false,
      "metar_trigger": false,
      "taf_trigger": false,
      "metar": "METAR LRTM 091800Z VRB02KT 9999 FEW042CB SCT044 05/M00 Q1016",
      "taf": "TAF LRTM 091700Z 0918/1003 30006KT 9999 BKN035"
    },
    {
      "icao": "LRTR",
      "alert": "OK",
      "vis_m": 9999,
      "fzfg": false,
      "metar_trigger": false,
      "taf_trigger": false,
      "metar": "METAR LRTR 091800Z 26003KT CAVOK 08/M00 Q1017 NOSIG",
      "taf": "TAF LRTR 091700Z 0918/1018 09007KT CAVOK"
    },
    {
      "icao": "LTAC",
      "alert": "OK",
      "vis_m": 9999,
      "fzfg": false,
      "metar_trigger": false,
      "taf_trigger": false,
      "metar": "METAR LTAC 091750Z 25003KT 210V270 9999 SCT040 BKN080 05/M04 Q1012 NOSIG RMK RWY21C 33003KT RWY03L VRB02KT RWY21R 31002KT RWY03R 25003KT RWY21L VRB02KT",
      "taf": "TAF LTAC 091640Z 0918/1018 30008KT 9999 SCT040 BKN100"
    },
    {
      "icao": "LTFM",
      "alert": "OK",
      "vis_m": 9999,
      "fzfg": false,
      "metar_trigger": false,
      "taf_trigger": false,
      "metar": "METAR LTFM 091750Z 04005KT 350V050 9999 SCT035 BKN090 09/03 Q1015 NOSIG RMK RWY17L 05003KT 360V080 RWY34L 03004KT RWY16R 04003KT RWY36 03007KT RWY18 03003KT",
      "taf": "TAF LTFM 091640Z 0918/1024 VRB02KT 9999 SCT035 BKN090"
    },
    {
      "icao": "LUKK",
      "alert": "OK",
      "vis_m": 9999,
      "fzfg": false,
      "metar_trigger": false,
      "taf_trigger": false,
      "metar": "METAR LUKK 091800Z 34009KT 310V010 CAVOK 05/M00 Q1015 NOSIG",
      "taf": "TAF LUKK 091702Z 0918/1018 32009KT 9999 SCT040"
    },
    {
      "icao": "LWOH",
      "alert": "OK",
      "vis_m": 9999,
      "fzfg": false,
      "metar_trigger": false,
      "taf_trigger": false,
      "metar": "METAR LWOH 091750Z 32005KT 290V360 9999 FEW040 10/M01 Q1013",
      "taf": "TAF LWOH 091710Z 0918/1018 27006KT 9999 FEW040 SCT090"
    },
    {
      "icao": "LWSK",
      "alert": "OK",
      "vis_m": 9999,
      "fzfg": false,
      "metar_trigger": false,
      "taf_trigger": false,
      "metar": "METAR LWSK 091750Z 01010KT CAVOK 11/M01 Q1014 NOSIG",
      "taf": "TAF LWSK 091710Z 0918/1018 02015KT CAVOK"
    },
    {
      "icao": "LYBE",
      "alert": "OK",
      "vis_m": 9999,
      "fzfg": false,
      "metar_trigger": false,
      "taf_trigger": false,
      "metar": "METAR LYBE 091800Z 04003KT CAVOK 08/00 Q1018 NOSIG",
      "taf": "TAF LYBE 091700Z 0918/1018 24005KT CAVOK TX13/1013Z TN01/1004Z"
    },
    {
      "icao": "LYNI",
      "alert": "OK",
      "vis_m": 9999,
      "fzfg": false,
      "metar_trigger": false,
      "taf_trigger": false,
      "metar": "METAR LYNI 091800Z 30006KT 9999 SCT075 07/M02 Q1017 NOSIG",
      "taf": "TAF LYNI 091700Z 0918/1018 32006KT 9999 SCT060 TX15/1012Z TN00/1004Z"
    },
    {
      "icao": "LYPG",
      "alert": "OK",
      "vis_m": 9999,
      "fzfg": false,
      "metar_trigger": false,
      "taf_trigger": false,
      "metar": "METAR LYPG 091800Z 17003KT 100V190 CAVOK 15/01 Q1014 NOSIG",
      "taf": "TAF LYPG 091700Z 0918/1018 32008KT CAVOK TX22/1013Z TN06/1004Z"
    },
    {
      "icao": "LZIB",
      "alert": "OK",
      "vis_m": 9999,
      "fzfg": false,
      "metar_trigger": false,
      "taf_trigger": false,
      "metar": "METAR LZIB 091800Z 04010KT CAVOK 10/M04 Q1017 NOSIG",
      "taf": "TAF LZIB 091715Z 0918/1018 34009KT CAVOK"
    },
    {
      "icao": "LZKZ",
      "alert": "OK",
      "vis_m": 9999,
      "fzfg": false,
      "metar_trigger": false,
      "taf_trigger": false,
      "metar": "METAR LZKZ 091800Z 02013KT CAVOK 04/M05 Q1019 NOSIG",
      "taf": "TAF LZKZ 091715Z 0918/1018 36007KT CAVOK"
    },
    {
      "icao": "LZTT",
      "alert": "OK",
      "vis_m": 9999,
      "fzfg": false,
      "metar_trigger": false,
      "taf_trigger": false,
      "metar": "METAR LZTT 091800Z 07009KT 9999 FEW040 M01/M05 Q1016",
      "taf": "TAF LZTT 091715Z 0918/1018 07007KT 9999 FEW050"
    },
    {
      "icao": "OEJN",
      "alert": "OK",
      "vis_m": 9999,
      "fzfg": false,
      "metar_trigger": false,
      "taf_trigger": false,
      "metar": "METAR OEJN 091800Z 34009KT CAVOK 24/08 Q1012 NOSIG",
      "taf": "TAF OEJN 091700Z 0918/1024 33010KT CAVOK"
    },
    {
      "icao": "OEMA",
      "alert": "OK",
      "vis_m": 9999,
      "fzfg": false,
      "metar_trigger": false,
      "taf_trigger": false,
      "metar": "METAR OEMA 091800Z 30004KT CAVOK 26/M11 Q1015 NOSIG",
      "taf": "TAF OEMA 091700Z 0918/1024 VRB03KT CAVOK"
    },
    {
      "icao": "OJAI",
      "alert": "OK",
      "vis_m": 5000,
      "fzfg": false,
      "metar_trigger": false,
      "taf_trigger": false,
      "metar": "METAR OJAI 091800Z 36008KT 5000 HZ NSC 11/04 Q1017 NOSIG",
      "taf": "TAF OJAI 091700Z 0918/1024 28010KT 5000 HZ NSC"
    },
    {
      "icao": "OMAA",
      "alert": "OK",
      "vis_m": null,
      "fzfg": false,
      "metar_trigger": false,
      "taf_trigger": false,
      "metar": "",
      "taf": ""
    },
    {
      "icao": "OMDB",
      "alert": "OK",
      "vis_m": null,
      "fzfg": false,
      "metar_trigger": false,
      "taf_trigger": false,
      "metar": "",
      "taf": ""
    },
    {
      "icao": "UAAA",
      "alert": "OK",
      "vis_m": 9000,
      "fzfg": false,
      "metar_trigger": false,
      "taf_trigger": false,
      "metar": "METAR UAAA 091800Z 23004MPS 9000 -SHRA BKN050CB OVC100 11/10 Q1020 NOSIG",
      "taf": "TAF UAAA 091704Z 0918/1018 17003G08MPS 5000 -SHRA BR BKN020CB OVC050 TX18/1008Z TN08/1001Z"
    },
    {
      "icao": "UBBB",
      "alert": "OK",
      "vis_m": 9999,
      "fzfg": false,
      "metar_trigger": false,
      "taf_trigger": false,
      "metar": "METAR UBBB 091800Z 36008KT 9999 BKN034 09/06 Q1016 NOSIG",
      "taf": "TAF UBBB 091704Z 0918/1018 36008KT 9999 BKN020 TX15/1010Z TN07/1001Z"
    },
    {
      "icao": "UDSG",
      "alert": "OK",
      "vis_m": 9999,
      "fzfg": false,
      "metar_trigger": false,
      "taf_trigger": false,
      "metar": "METAR UDSG 091800Z 30002KT 9999 FEW046CB 02/M03 Q1013 NOSIG",
      "taf": "TAF UDSG 091658Z 0918/1018 24006KT 9999 BKN040"
    },
    {
      "icao": "UDYZ",
      "alert": "OK",
      "vis_m": 9999,
      "fzfg": false,
      "metar_trigger": false,
      "taf_trigger": false,
      "metar": "METAR UDYZ 091800Z 14004KT 9999 SCT043CB 11/03 Q1011 NOSIG",
      "taf": "TAF UDYZ 091700Z 0918/1018 14006KT 9999 BKN040"
    },
    {
      "icao": "UGKO",
      "alert": "OK",
      "vis_m": 9999,
      "fzfg": false,
      "metar_trigger": false,
      "taf_trigger": false,
      "metar": "METAR UGKO 091800Z 06007KT 9999 BKN085 06/04 Q1017 NOSIG",
      "taf": "TAF UGKO 091700Z 0918/1018 08010KT 9999 SCT020 OVC050 TX12/1011Z TN05/1003Z"
    }
  ]
}