{
  "ts_utc": "2026-01-29T11:23:16Z",
  "threshold_m": 150,
  "source": "stations_override.txt (ICAO list) + aviationweather.gov (METAR/TAF raw)",
  "station_count": 159,
  "stations": [
    {
      "icao": "BIKF",
      "alert": "OK",
      "vis_m": 9999,
      "fzfg": false,
      "metar_trigger": false,
      "taf_trigger": false,
      "metar": "METAR BIKF 291100Z 08020KT 9999 BKN040 03/M01 Q0998",
      "taf": "TAF BIKF 291030Z 2912/3012 06013KT 9999 FEW025 TX05/2915Z TN01/3009Z"
    },
    {
      "icao": "BKPR",
      "alert": "OK",
      "vis_m": 9999,
      "fzfg": false,
      "metar_trigger": false,
      "taf_trigger": false,
      "metar": "METAR BKPR 291100Z 13004KT 9999 BKN075 09/05 Q0995 NOSIG",
      "taf": ""
    },
    {
      "icao": "EBCI",
      "alert": "OK",
      "vis_m": 3000,
      "fzfg": false,
      "metar_trigger": false,
      "taf_trigger": false,
      "metar": "METAR EBCI 291050Z VRB02KT 3000 BR BKN004 BKN005 01/01 Q0999 BECMG 6000 BKN007",
      "taf": "TAF EBCI 290505Z 2906/3012 02003KT 2500 -SG BR BKN003"
    },
    {
      "icao": "EDDB",
      "alert": "OK",
      "vis_m": 7000,
      "fzfg": false,
      "metar_trigger": false,
      "taf_trigger": false,
      "metar": "METAR EDDB 291050Z AUTO 08010KT 7000 OVC009 M01/M03 Q1004 NOSIG",
      "taf": "TAF EDDB 290500Z 2906/3006 07010KT 9999 OVC012"
    },
    {
      "icao": "EDDH",
      "alert": "OK",
      "vis_m": 9999,
      "fzfg": false,
      "metar_trigger": false,
      "taf_trigger": false,
      "metar": "METAR EDDH 291050Z AUTO 09013KT 9999 OVC011 00/M02 Q1004 TEMPO OVC009",
      "taf": "TAF EDDH 290500Z 2906/3012 08010KT 9999 OVC015"
    },
    {
      "icao": "EDDK",
      "alert": "OK",
      "vis_m": 8000,
      "fzfg": false,
      "metar_trigger": false,
      "taf_trigger": false,
      "metar": "METAR EDDK 291050Z AUTO VRB02KT 8000 OVC013 01/01 Q0999 TEMPO 4000 BKN008",
      "taf": "TAF EDDK 290500Z 2906/3012 12003KT 6000 OVC006"
    },
    {
      "icao": "EDDN",
      "alert": "OK",
      "vis_m": 7000,
      "fzfg": false,
      "metar_trigger": false,
      "taf_trigger": false,
      "metar": "METAR EDDN 291050Z AUTO 35005KT 7000 -SN BKN003 BKN006 OVC013 01/M00 Q0997 NOSIG",
      "taf": ""
    },
    {
      "icao": "EDDS",
      "alert": "OK",
      "vis_m": 4700,
      "fzfg": false,
      "metar_trigger": false,
      "taf_trigger": false,
      "metar": "METAR EDDS 291050Z AUTO VRB01KT 4700 -SN BR BKN004 BKN015 01/01 Q0997 TEMPO 2000 SN",
      "taf": "TAF EDDS 290500Z 2906/3006 VRB03KT 6000 SCT002 BKN010"
    },
    {
      "icao": "EDFH",
      "alert": "OK",
      "vis_m": 4000,
      "fzfg": false,
      "metar_trigger": false,
      "taf_trigger": false,
      "metar": "METAR EDFH 291050Z 26003KT 4000 -DZ BR SCT001 OVC003 00/00 Q0997",
      "taf": "TAF EDFH 290500Z 2906/3006 16005KT 3000 BR SCT001 BKN005"
    },
    {
      "icao": "EDJA",
      "alert": "OK",
      "vis_m": 6000,
      "fzfg": false,
      "metar_trigger": false,
      "taf_trigger": false,
      "metar": "METAR EDJA 291050Z 23010KT 6000 BKN005 BKN031 OVC035 01/M00 Q0997",
      "taf": "TAF EDJA 290800Z 2909/2918 25008KT 4000 -SN OVC005"
    },
    {
      "icao": "EDLW",
      "alert": "OK",
      "vis_m": 5000,
      "fzfg": false,
      "metar_trigger": false,
      "taf_trigger": false,
      "metar": "METAR EDLW 291050Z 04006KT 5000 BR BKN004 00/M01 Q0999",
      "taf": "TAF EDLW 290500Z 2906/3006 07006KT 6000 OVC007"
    },
    {
      "icao": "EDNY",
      "alert": "OK",
      "vis_m": 9999,
      "fzfg": false,
      "metar_trigger": false,
      "taf_trigger": false,
      "metar": "METAR EDNY 291050Z 25006KT 210V290 9999 BKN010 OVC040 03/02 Q0999",
      "taf": "TAF EDNY 290800Z 2909/2918 25006KT 9999 BKN011"
    },
    {
      "icao": "EDSB",
      "alert": "OK",
      "vis_m": 3800,
      "fzfg": false,
      "metar_trigger": false,
      "taf_trigger": false,
      "metar": "METAR EDSB 291050Z 21007KT 3800 -DZ BR BKN003 OVC023 04/03 Q0999",
      "taf": "TAF EDSB 290500Z 2906/3006 VRB03KT 6000 SCT003 BKN015"
    },
    {
      "icao": "EETN",
      "alert": "OK",
      "vis_m": 9999,
      "fzfg": false,
      "metar_trigger": false,
      "taf_trigger": false,
      "metar": "METAR EETN 291120Z 09008KT CAVOK M09/M12 Q1020 NOSIG",
      "taf": "TAF EETN 290530Z 2906/3006 09010KT 9999 SCT012"
    },
    {
      "icao": "EFTU",
      "alert": "OK",
      "vis_m": 9999,
      "fzfg": false,
      "metar_trigger": false,
      "taf_trigger": false,
      "metar": "METAR EFTU 291120Z AUTO 08006KT CAVOK M11/M14 Q1021",
      "taf": "TAF EFTU 290834Z 2909/3009 07006KT 9999 BKN015"
    },
    {
      "icao": "EGBB",
      "alert": "OK",
      "vis_m": 7000,
      "fzfg": false,
      "metar_trigger": false,
      "taf_trigger": false,
      "metar": "METAR EGBB 291050Z 12010KT 7000 BKN008 05/04 Q0997",
      "taf": "TAF EGBB 291058Z 2912/3012 12008KT 9999 BKN008"
    },
    {
      "icao": "EGGP",
      "alert": "OK",
      "vis_m": 9000,
      "fzfg": false,
      "metar_trigger": false,
      "taf_trigger": false,
      "metar": "METAR EGGP 291050Z 13014KT 9000 BKN012 BKN016 05/03 Q0996",
      "taf": "TAF EGGP 291058Z 2912/3012 14012KT 9999 FEW012 SCT020"
    },
    {
      "icao": "EGGW",
      "alert": "OK",
      "vis_m": 6000,
      "fzfg": false,
      "metar_trigger": false,
      "taf_trigger": false,
      "metar": "METAR EGGW 291050Z AUTO 11009KT 6000 BKN005 04/03 Q0997",
      "taf": "TAF EGGW 291056Z 2912/3012 12008KT 9999 BKN020"
    },
    {
      "icao": "EGKK",
      "alert": "OK",
      "vis_m": 7000,
      "fzfg": false,
      "metar_trigger": false,
      "taf_trigger": false,
      "metar": "METAR EGKK 291050Z 13005KT 080V180 7000 BKN012 BKN019 05/05 Q0997",
      "taf": "TAF EGKK 291058Z 2912/3018 12007KT 9999 SCT012"
    },
    {
      "icao": "EGNM",
      "alert": "OK",
      "vis_m": 5000,
      "fzfg": false,
      "metar_trigger": false,
      "taf_trigger": false,
      "metar": "METAR EGNM 291050Z 10009KT 5000 -RA BR SCT006 BKN008 02/02 Q0998",
      "taf": "TAF EGNM 291058Z 2912/3012 11009KT 6000 BKN005"
    },
    {
      "icao": "EGPD",
      "alert": "OK",
      "vis_m": 9999,
      "fzfg": false,
      "metar_trigger": false,
      "taf_trigger": false,
      "metar": "METAR EGPD 291050Z AUTO 14016KT 9999 SCT018/// BKN022/// BKN027/// //////TCU 05/02 Q1001 TEMPO BKN014",
      "taf": "TAF EGPD 291100Z 2912/3012 13012KT 9999 SCT015 BKN030"
    },
    {
      "icao": "EGPF",
      "alert": "OK",
      "vis_m": 9999,
      "fzfg": false,
      "metar_trigger": false,
      "taf_trigger": false,
      "metar": "METAR EGPF 291050Z AUTO 07008KT 9999 OVC027 06/03 Q0997",
      "taf": "TAF EGPF 291056Z 2912/3012 07007KT 9999 FEW018 SCT040"
    },
    {
      "icao": "EHBK",
      "alert": "OK",
      "vis_m": 6000,
      "fzfg": false,
      "metar_trigger": false,
      "taf_trigger": false,
      "metar": "METAR EHBK 291055Z AUTO 30003KT 260V350 6000 SCT006/// SCT008/// BKN009/// 01/M01 Q0999 NOSIG",
      "taf": "TAF EHBK 290509Z 2906/3012 30003KT 3000 BR BKN004"
    },
    {
      "icao": "EHEH",
      "alert": "OK",
      "vis_m": null,
      "fzfg": false,
      "metar_trigger": false,
      "taf_trigger": false,
      "metar": "",
      "taf": "TAF EHEH 290513Z 2906/3012 02006KT 4000 BR -SN BKN006 OVC008"
    },
    {
      "icao": "EKBI",
      "alert": "OK",
      "vis_m": 9999,
      "fzfg": false,
      "metar_trigger": false,
      "taf_trigger": false,
      "metar": "METAR EKBI 291050Z AUTO 07015KT 9999 OVC024/// M02/M06 Q1009",
      "taf": "TAF EKBI 290832Z 2909/3009 08015KT 9999 BKN020"
    },
    {
      "icao": "EKCH",
      "alert": "OK",
      "vis_m": 9999,
      "fzfg": false,
      "metar_trigger": false,
      "taf_trigger": false,
      "metar": "METAR EKCH 291050Z AUTO 09015KT 9999 OVC022/// M01/M06 Q1011 NOSIG",
      "taf": "TAF EKCH 290827Z 2909/3009 08008KT 9999 BKN022"
    },
    {
      "icao": "ENAL",
      "alert": "OK",
      "vis_m": 9999,
      "fzfg": false,
      "metar_trigger": false,
      "taf_trigger": false,
      "metar": "METAR ENAL 291050Z 14011KT 9999 SCT031 M01/M06 Q1012",
      "taf": "TAF ENAL 290800Z 2909/2918 14008KT 9999 BKN030"
    },
    {
      "icao": "ENBR",
      "alert": "OK",
      "vis_m": 9999,
      "fzfg": false,
      "metar_trigger": false,
      "taf_trigger": false,
      "metar": "METAR ENBR 291050Z 12003KT 9999 SCT033 M02/M07 Q1012 NOSIG RMK WIND 1200FT 16008KT",
      "taf": "TAF ENBR 290500Z 2906/3006 VRB03KT 9999 SCT030"
    },
    {
      "icao": "ENGM",
      "alert": "OK",
      "vis_m": 9999,
      "fzfg": false,
      "metar_trigger": false,
      "taf_trigger": false,
      "metar": "METAR ENGM 291050Z 03006KT 9999 SCT017 M12/M15 Q1018",
      "taf": ""
    },
    {
      "icao": "ENHD",
      "alert": "OK",
      "vis_m": 9999,
      "fzfg": false,
      "metar_trigger": false,
      "taf_trigger": false,
      "metar": "METAR ENHD 291050Z 10005KT CAVOK M03/M13 Q1013",
      "taf": "TAF ENHD 290800Z 2909/2918 10008KT CAVOK"
    },
    {
      "icao": "ENTC",
      "alert": "OK",
      "vis_m": 9999,
      "fzfg": false,
      "metar_trigger": false,
      "taf_trigger": false,
      "metar": "METAR ENTC 291050Z 23006KT 9999 SCT008 BKN036 M07/M09 Q1021 NOSIG RMK WIND 2600FT 27007KT",
      "taf": "TAF ENTC 290500Z 2906/3006 22005KT 9999 FEW007 SCT025"
    },
    {
      "icao": "ENTO",
      "alert": "OK",
      "vis_m": 9999,
      "fzfg": false,
      "metar_trigger": false,
      "taf_trigger": false,
      "metar": "METAR ENTO 291050Z 01010KT 9999 -SN BKN015 M08/M11 Q1017",
      "taf": "TAF ENTO 290500Z 2906/3006 02008KT 9999 -SN BKN025"
    },
    {
      "icao": "ENVA",
      "alert": "OK",
      "vis_m": 9999,
      "fzfg": false,
      "metar_trigger": false,
      "taf_trigger": false,
      "metar": "METAR ENVA 291050Z 13008KT CAVOK M13/M19 Q1017 NOSIG RMK WIND 670FT 11009KT",
      "taf": "TAF ENVA 290500Z 2906/3006 10008KT CAVOK"
    },
    {
      "icao": "ENZV",
      "alert": "OK",
      "vis_m": 9999,
      "fzfg": false,
      "metar_trigger": false,
      "taf_trigger": false,
      "metar": "METAR ENZV 291050Z 15011KT CAVOK M03/M13 Q1013 NOSIG",
      "taf": ""
    },
    {
      "icao": "EPGD",
      "alert": "OK",
      "vis_m": 9999,
      "fzfg": false,
      "metar_trigger": false,
      "taf_trigger": false,
      "metar": "METAR EPGD 291100Z 06010KT 9999 -SG OVC004 M07/M08 Q1008",
      "taf": "TAF EPGD 290530Z 2906/3006 08010KT 9999 OVC007"
    },
    {
      "icao": "EPKK",
      "alert": "OK",
      "vis_m": 9999,
      "fzfg": false,
      "metar_trigger": false,
      "taf_trigger": false,
      "metar": "METAR EPKK 291100Z 06012KT 9999 BKN008 M00/M02 Q1001",
      "taf": "TAF EPKK 290830Z 2909/3009 06010KT 3500 -FZDZ OVC005"
    },
    {
      "icao": "EPKT",
      "alert": "OK",
      "vis_m": 9999,
      "fzfg": false,
      "metar_trigger": false,
      "taf_trigger": false,
      "metar": "METAR EPKT 291100Z 07012KT 9999 OVC010 M01/M03 Q1001",
      "taf": "TAF EPKT 290530Z 2906/3006 06010KT 9999 -SN OVC008"
    },
    {
      "icao": "EPLB",
      "alert": "OK",
      "vis_m": 8000,
      "fzfg": false,
      "metar_trigger": false,
      "taf_trigger": false,
      "metar": "METAR EPLB 291100Z 01005KT 8000 SCT013 OVC016 00/M01 Q1003",
      "taf": "TAF EPLB 290530Z 2906/3006 02007KT 7000 BKN018"
    },
    {
      "icao": "EPMO",
      "alert": "OK",
      "vis_m": 7000,
      "fzfg": false,
      "metar_trigger": false,
      "taf_trigger": false,
      "metar": "METAR EPMO 291100Z 02008KT 7000 FEW010 BKN028 M05/M07 Q1005",
      "taf": "TAF EPMO 290530Z 2906/3006 04010KT 7000 SCT008 BKN020"
    },
    {
      "icao": "EPPO",
      "alert": "OK",
      "vis_m": 9999,
      "fzfg": false,
      "metar_trigger": false,
      "taf_trigger": false,
      "metar": "METAR EPPO 291100Z 06008KT 9999 BKN009 OVC024 M05/M07 Q1005",
      "taf": ""
    },
    {
      "icao": "EPRA",
      "alert": "OK",
      "vis_m": 7000,
      "fzfg": false,
      "metar_trigger": false,
      "taf_trigger": false,
      "metar": "METAR EPRA 291100Z 01006KT 7000 BKN006 OVC016 M01/M02 Q1003",
      "taf": "TAF EPRA 290830Z 2909/2918 05008KT 5000 BR BKN005"
    },
    {
      "icao": "EPRZ",
      "alert": "OK",
      "vis_m": 9999,
      "fzfg": false,
      "metar_trigger": false,
      "taf_trigger": false,
      "metar": "METAR EPRZ 291100Z 07010KT 9999 OVC006 M01/M02 Q1001",
      "taf": ""
    },
    {
      "icao": "EPSC",
      "alert": "OK",
      "vis_m": 9999,
      "fzfg": false,
      "metar_trigger": false,
      "taf_trigger": false,
      "metar": "METAR EPSC 291100Z 06007KT 020V090 9999 FEW007 OVC009 M04/M06 Q1006",
      "taf": ""
    },
    {
      "icao": "EPSY",
      "alert": "OK",
      "vis_m": 5000,
      "fzfg": false,
      "metar_trigger": false,
      "taf_trigger": false,
      "metar": "METAR EPSY 291100Z 03009KT 5000 -SG BR OVC006 M08/M09 Q1007",
      "taf": ""
    },
    {
      "icao": "EPWA",
      "alert": "OK",
      "vis_m": 8000,
      "fzfg": false,
      "metar_trigger": false,
      "taf_trigger": false,
      "metar": "METAR EPWA 291100Z 05007KT 8000 OVC010 M04/M06 Q1005 TEMPO BKN009",
      "taf": "TAF EPWA 290830Z 2909/3009 03008KT 7000 SCT008 BKN025"
    },
    {
      "icao": "EPWR",
      "alert": "OK",
      "vis_m": 9999,
      "fzfg": false,
      "metar_trigger": false,
      "taf_trigger": false,
      "metar": "METAR EPWR 291100Z 08008KT 9999 BKN014 01/M02 Q1002",
      "taf": "TAF EPWR 290830Z 2909/3009 08010KT 9999 OVC012"
    },
    {
      "icao": "ESGG",
      "alert": "OK",
      "vis_m": 9999,
      "fzfg": false,
      "metar_trigger": false,
      "taf_trigger": false,
      "metar": "METAR ESGG 291050Z 08011KT 050V110 9999 BKN027 M04/M10 Q1013",
      "taf": "TAF ESGG 290830Z 2909/3009 08008KT 9999 OVC030"
    },
    {
      "icao": "ESKN",
      "alert": "OK",
      "vis_m": 9999,
      "fzfg": false,
      "metar_trigger": false,
      "taf_trigger": false,
      "metar": "METAR ESKN 291050Z 04007KT 9999 BKN035 M03/M07 Q1016",
      "taf": "TAF ESKN 290830Z 2909/3009 02009KT 9999 -SN BKN025"
    },
    {
      "icao": "ESMS",
      "alert": "OK",
      "vis_m": 9999,
      "fzfg": false,
      "metar_trigger": false,
      "taf_trigger": false,
      "metar": "METAR ESMS 291050Z 09016KT 9999 OVC022 M02/M06 Q1010",
      "taf": "TAF ESMS 290827Z 2909/3009 08016KT 9999 OVC020"
    },
    {
      "icao": "ESSA",
      "alert": "OK",
      "vis_m": 9999,
      "fzfg": false,
      "metar_trigger": false,
      "taf_trigger": false,
      "metar": "METAR ESSA 291050Z 03010KT 9999 BKN029 M06/M08 Q1018 NOSIG",
      "taf": "TAF ESSA 290830Z 2909/3009 02009KT 9999 -SHSN BKN020"
    },
    {
      "icao": "EYKA",
      "alert": "OK",
      "vis_m": 9999,
      "fzfg": false,
      "metar_trigger": false,
      "taf_trigger": false,
      "metar": "METAR EYKA 291120Z 02007KT 340V060 9999 SCT013 OVC024 M10/M13 Q1010",
      "taf": "TAF EYKA 291102Z 2912/3012 VRB04KT 9000 OVC015"
    },
    {
      "icao": "EYPA",
      "alert": "OK",
      "vis_m": 9999,
      "fzfg": false,
      "metar_trigger": false,
      "taf_trigger": false,
      "metar": "METAR EYPA 291120Z 06010KT CAVOK M09/M14 Q1012",
      "taf": "TAF EYPA 291100Z 2912/3012 07013KT 9000 NSC"
    },
    {
      "icao": "EYVI",
      "alert": "OK",
      "vis_m": 9999,
      "fzfg": false,
      "metar_trigger": false,
      "taf_trigger": false,
      "metar": "METAR EYVI 291120Z 05009KT 9999 -SN SCT011 OVC022 M10/M12 Q1008 NOSIG",
      "taf": "TAF EYVI 291100Z 2912/3012 06011KT 7000 BKN010"
    },
    {
      "icao": "GCFV",
      "alert": "OK",
      "vis_m": 9999,
      "fzfg": false,
      "metar_trigger": false,
      "taf_trigger": false,
      "metar": "METAR GCFV 291100Z 32008KT 290V350 9999 SCT025 BKN030 20/13 Q1025",
      "taf": "TAF GCFV 290800Z 2909/3009 33008KT 9999 BKN030 TX23/2914Z TN15/3006Z"
    },
    {
      "icao": "GCLP",
      "alert": "OK",
      "vis_m": 9999,
      "fzfg": false,
      "metar_trigger": false,
      "taf_trigger": false,
      "metar": "METAR GCLP 291100Z 35009KT 9999 BKN030 21/14 Q1025 NOSIG",
      "taf": ""
    },
    {
      "icao": "GCTS",
      "alert": "OK",
      "vis_m": 9999,
      "fzfg": false,
      "metar_trigger": false,
      "taf_trigger": false,
      "metar": "METAR GCTS 291100Z 13005KT 080V150 9999 FEW020 BKN035 20/15 Q1026 NOSIG",
      "taf": "TAF GCTS 290800Z 2909/3009 26008KT 9999 BKN030 TX23/2914Z TN15/3006Z"
    },
    {
      "icao": "GMAD",
      "alert": "OK",
      "vis_m": 8000,
      "fzfg": false,
      "metar_trigger": false,
      "taf_trigger": false,
      "metar": "METAR GMAD 291100Z 12004KT 090V150 8000 FEW006 SCT020 18/17 Q1023 NOSIG",
      "taf": "TAF GMAD 291100Z 2912/3018 28012KT 8000 SCT020 BKN080"
    },
    {
      "icao": "GMMN",
      "alert": "OK",
      "vis_m": 9999,
      "fzfg": false,
      "metar_trigger": false,
      "taf_trigger": false,
      "metar": "METAR GMMN 291100Z 23013KT 9999 BKN007 17/15 Q1022 NOSIG",
      "taf": "TAF GMMN 291100Z 2912/3018 23013KT 9999 BKN008"
    },
    {
      "icao": "GMMX",
      "alert": "OK",
      "vis_m": 8000,
      "fzfg": false,
      "metar_trigger": false,
      "taf_trigger": false,
      "metar": "METAR GMMX 291100Z 14003KT 080V170 8000 SCT010 BKN016 15/13 Q1023 NOSIG",
      "taf": "TAF GMMX 291100Z 2912/3018 24010KT 8000 SCT020 SCT080"
    },
    {
      "icao": "HEGN",
      "alert": "OK",
      "vis_m": 9999,
      "fzfg": false,
      "metar_trigger": false,
      "taf_trigger": false,
      "metar": "METAR HEGN 291000Z 15003KT CAVOK 22/03 Q1020 NOSIG",
      "taf": "TAF HEGN 291100Z 2912/3018 06008KT CAVOK"
    },
    {
      "icao": "HEMA",
      "alert": "OK",
      "vis_m": 4000,
      "fzfg": false,
      "metar_trigger": false,
      "taf_trigger": false,
      "metar": "METAR HEMA 291000Z 03009KT 4000 DU NSC 21/09 Q1020 NOSIG",
      "taf": "TAF HEMA 291100Z 2912/3018 05008KT 6000 NSC"
    },
    {
      "icao": "HESH",
      "alert": "OK",
      "vis_m": 9999,
      "fzfg": false,
      "metar_trigger": false,
      "taf_trigger": false,
      "metar": "METAR HESH 291000Z 06007KT CAVOK 22/07 Q1019 NOSIG",
      "taf": "TAF HESH 291100Z 2912/3018 35008KT CAVOK"
    },
    {
      "icao": "HESX",
      "alert": "OK",
      "vis_m": 9999,
      "fzfg": false,
      "metar_trigger": false,
      "taf_trigger": false,
      "metar": "METAR HESX 291000Z 28008KT CAVOK 18/04 Q1019 NOSIG",
      "taf": "TAF HESX 291100Z 2912/3018 19012KT 9999 SCT025"
    },
    {
      "icao": "LATI",
      "alert": "OK",
      "vis_m": 9999,
      "fzfg": false,
      "metar_trigger": false,
      "taf_trigger": false,
      "metar": "METAR LATI 291120Z 34003KT 9999 SCT070 BKN100 14/07 Q0992 NOSIG",
      "taf": "TAF LATI 291100Z 2912/3012 VRB05KT 9999 SCT040 BKN070 TX15/2912Z TN08/3005Z"
    },
    {
      "icao": "LBPD",
      "alert": "OK",
      "vis_m": 9999,
      "fzfg": false,
      "metar_trigger": false,
      "taf_trigger": false,
      "metar": "METAR LBPD 291100Z AUTO 30005KT 9999 -SHRA SCT019/// BKN022/// OVC041/// 07/07 Q0997 NOSIG",
      "taf": "TAF LBPD 291100Z 2912/3012 VRB04KT 9999 -RA SCT020 BKN030"
    },
    {
      "icao": "LBSF",
      "alert": "OK",
      "vis_m": 9999,
      "fzfg": false,
      "metar_trigger": false,
      "taf_trigger": false,
      "metar": "METAR LBSF 291100Z 14006KT 9999 FEW032 OVC082 09/04 Q0996 NOSIG",
      "taf": "TAF LBSF 291100Z 2912/3012 12010KT 9999 SCT030 BKN050"
    },
    {
      "icao": "LBWN",
      "alert": "OK",
      "vis_m": 9000,
      "fzfg": false,
      "metar_trigger": false,
      "taf_trigger": false,
      "metar": "METAR LBWN 291100Z AUTO 11007KT 9000 RA NSC 11/11 Q0998 TEMPO 5000 RA",
      "taf": "TAF LBWN 291100Z 2912/3012 09010KT 4000 RA BKN010 OVC030"
    },
    {
      "icao": "LCLK",
      "alert": "OK",
      "vis_m": 9999,
      "fzfg": false,
      "metar_trigger": false,
      "taf_trigger": false,
      "metar": "METAR LCLK 291100Z 21014KT 9999 FEW020 19/14 Q1015 NOSIG",
      "taf": "TAF LCLK 290530Z 2906/3006 26010KT 9999 FEW030 SCT040"
    },
    {
      "icao": "LCPH",
      "alert": "OK",
      "vis_m": 9999,
      "fzfg": false,
      "metar_trigger": false,
      "taf_trigger": false,
      "metar": "METAR LCPH 291100Z 18007KT 160V240 9999 SCT036 BKN060 19/13 Q1015 NOSIG",
      "taf": "TAF LCPH 290530Z 2906/3006 07007KT 9999 FEW030 SCT040"
    },
    {
      "icao": "LEAL",
      "alert": "OK",
      "vis_m": 9999,
      "fzfg": false,
      "metar_trigger": false,
      "taf_trigger": false,
      "metar": "METAR LEAL 291100Z 21003KT 150V280 9999 SCT068 19/08 Q1005 NOSIG",
      "taf": "TAF LEAL 290500Z 2906/3006 VRB04KT 9999 FEW040 TX22/2914Z TN11/2906Z"
    },
    {
      "icao": "LEBB",
      "alert": "OK",
      "vis_m": 9999,
      "fzfg": false,
      "metar_trigger": false,
      "taf_trigger": false,
      "metar": "METAR LEBB 291100Z 22011KT 170V290 9999 BKN060 14/07 Q0999 NOSIG",
      "taf": "TAF LEBB 290500Z 2906/3006 22009KT 9999 FEW030 TX16/2914Z TN08/3002Z"
    },
    {
      "icao": "LEBL",
      "alert": "OK",
      "vis_m": 9999,
      "fzfg": false,
      "metar_trigger": false,
      "taf_trigger": false,
      "metar": "METAR LEBL 291100Z 27009KT 9999 FEW045 13/06 Q1002 NOSIG",
      "taf": "TAF LEBL 290500Z 2906/3006 VRB04KT 9999 FEW020 TX14/2912Z TN07/2906Z"
    },
    {
      "icao": "LECH",
      "alert": "OK",
      "vis_m": 9999,
      "fzfg": false,
      "metar_trigger": false,
      "taf_trigger": false,
      "metar": "METAR LECH 291100Z AUTO 01005KT 320V040 CAVOK 11/04 Q1003",
      "taf": ""
    },
    {
      "icao": "LEMD",
      "alert": "OK",
      "vis_m": 9999,
      "fzfg": false,
      "metar_trigger": false,
      "taf_trigger": false,
      "metar": "METAR LEMD 291100Z 16004KT 130V200 9999 SCT065 BKN075 12/12 Q1003 NOSIG",
      "taf": ""
    },
    {
      "icao": "LEMG",
      "alert": "OK",
      "vis_m": 9999,
      "fzfg": false,
      "metar_trigger": false,
      "taf_trigger": false,
      "metar": "METAR LEMG 291100Z 29003KT 260V330 9999 FEW025 21/14 Q1012 NOSIG",
      "taf": "TAF LEMG 290500Z 2906/3006 29006KT 9999 FEW020 BKN025 TX19/2914Z TN11/3006Z"
    },
    {
      "icao": "LEVC",
      "alert": "OK",
      "vis_m": 9999,
      "fzfg": false,
      "metar_trigger": false,
      "taf_trigger": false,
      "metar": "METAR LEVC 291100Z 21004KT 160V330 9999 FEW050 19/11 Q1002 NOSIG",
      "taf": "TAF LEVC 290500Z 2906/3006 VRB04KT 9999 FEW030 TX21/2914Z TN10/2906Z"
    },
    {
      "icao": "LEXJ",
      "alert": "OK",
      "vis_m": 9999,
      "fzfg": false,
      "metar_trigger": false,
      "taf_trigger": false,
      "metar": "METAR LEXJ 291100Z 22005KT 170V260 9999 FEW050 SCT078 14/06 Q0998",
      "taf": "TAF LEXJ 290800Z 2909/3009 22009KT 9999 FEW040 TX16/2914Z TN09/3005Z"
    },
    {
      "icao": "LEZG",
      "alert": "OK",
      "vis_m": 9999,
      "fzfg": false,
      "metar_trigger": false,
      "taf_trigger": false,
      "metar": "METAR LEZG 291100Z 09006KT 9999 4000SW BCFG FEW070 08/08 Q1002 NOSIG",
      "taf": ""
    },
    {
      "icao": "LEZL",
      "alert": "OK",
      "vis_m": 9999,
      "fzfg": false,
      "metar_trigger": false,
      "taf_trigger": false,
      "metar": "METAR LEZL 291100Z 24019G30KT 200V260 9999 BKN013 18/16 Q1013 NOSIG",
      "taf": "TAF LEZL 290800Z 2909/3009 24012KT 8000 FEW010 BKN016 TX18/2915Z TN10/3007Z"
    },
    {
      "icao": "LFBD",
      "alert": "OK",
      "vis_m": 9999,
      "fzfg": false,
      "metar_trigger": false,
      "taf_trigger": false,
      "metar": "METAR LFBD 291100Z AUTO 20008KT 9999 -RA FEW045 BKN052 OVC062 10/07 Q0998 TEMPO 4000 SHRA BKN010 BKN030TCU",
      "taf": "TAF LFBD 290500Z 2906/3012 VRB03KT CAVOK TX12/2915Z TN05/2906Z"
    },
    {
      "icao": "LFLL",
      "alert": "OK",
      "vis_m": 9999,
      "fzfg": false,
      "metar_trigger": false,
      "taf_trigger": false,
      "metar": "METAR LFLL 291100Z 07005KT 030V110 3000 1200E R35L/1200U R17R/P2000 R35R/1600U R17L/1500U BR BKN001 06/05 Q1000 BECMG CAVOK",
      "taf": ""
    },
    {
      "icao": "LFLS",
      "alert": "OK",
      "vis_m": 9999,
      "fzfg": false,
      "metar_trigger": false,
      "taf_trigger": false,
      "metar": "METAR LFLS 291100Z AUTO 24003KT 190V290 9999 FEW008 SCT025 06/04 Q1000 NOSIG",
      "taf": "TAF LFLS 290800Z 2909/3009 VRB03KT CAVOK"
    },
    {
      "icao": "LFMN",
      "alert": "OK",
      "vis_m": 9999,
      "fzfg": false,
      "metar_trigger": false,
      "taf_trigger": false,
      "metar": "METAR LFMN 291100Z 33005KT CAVOK 12/02 Q0996 NOSIG",
      "taf": "TAF LFMN 290800Z 2909/3015 33010KT CAVOK"
    },
    {
      "icao": "LFOB",
      "alert": "OK",
      "vis_m": 400,
      "fzfg": false,
      "metar_trigger": false,
      "taf_trigger": false,
      "metar": "METAR LFOB 291100Z AUTO 17006KT 130V200 0400 0350 R30/0400U R12/0550U FG VV/// 01/01 Q0999 BECMG 9999 NSW BKN008 OVC012",
      "taf": "TAF LFOB 290500Z 2906/3006 15005KT 3000 BR OVC003"
    },
    {
      "icao": "LFPO",
      "alert": "OK",
      "vis_m": 2000,
      "fzfg": false,
      "metar_trigger": false,
      "taf_trigger": false,
      "metar": "METAR LFPO 291100Z 17004KT 130V200 2000 BR OVC003 02/02 Q0999 BECMG 4000 BR BKN004",
      "taf": "TAF LFPO 291100Z 2912/3018 16005KT 9999 BKN004"
    },
    {
      "icao": "LFSB",
      "alert": "OK",
      "vis_m": 9999,
      "fzfg": false,
      "metar_trigger": false,
      "taf_trigger": false,
      "metar": "METAR LFSB 291100Z AUTO VRB02KT 9999 OVC017 06/04 Q0999 NOSIG",
      "taf": "TAF LFSB 291100Z 2912/3012 17004KT 9999 SCT015 BKN030"
    },
    {
      "icao": "LGAV",
      "alert": "OK",
      "vis_m": 9999,
      "fzfg": false,
      "metar_trigger": false,
      "taf_trigger": false,
      "metar": "METAR LGAV 291050Z 19018KT 9999 SCT018 BKN030 BKN070 17/11 Q0996 NOSIG",
      "taf": "TAF LGAV 291100Z 2912/3012 19020KT 9999 SCT018 BKN070"
    },
    {
      "icao": "LGTS",
      "alert": "OK",
      "vis_m": 5000,
      "fzfg": false,
      "metar_trigger": false,
      "taf_trigger": false,
      "metar": "METAR LGTS 291050Z 10002KT 5000 -RA SCT005 BKN020 10/10 Q0995 NOSIG",
      "taf": "TAF LGTS 291100Z 2912/3012 34010KT 9999 SCT008 BKN025"
    },
    {
      "icao": "LHBP",
      "alert": "OK",
      "vis_m": 9999,
      "fzfg": false,
      "metar_trigger": false,
      "taf_trigger": false,
      "metar": "METAR LHBP 291100Z 06005KT 010V090 9999 -RA OVC006 05/04 Q0996 NOSIG",
      "taf": "TAF LHBP 290515Z 2906/3006 06009KT 8000 -RA FEW007 OVC025"
    },
    {
      "icao": "LHDC",
      "alert": "OK",
      "vis_m": 9999,
      "fzfg": false,
      "metar_trigger": false,
      "taf_trigger": false,
      "metar": "METAR LHDC 291045Z AUTO 06007KT 9999 -RA BKN037 BKN097 07/05 Q0996 NOSIG",
      "taf": "TAF LHDC 290815Z 2909/2918 06008KT 9999 -RA FEW008 OVC035"
    },
    {
      "icao": "LIBD",
      "alert": "OK",
      "vis_m": 9999,
      "fzfg": false,
      "metar_trigger": false,
      "taf_trigger": false,
      "metar": "METAR LIBD 291050Z 32006KT 280V360 9999 FEW045 11/09 Q0994",
      "taf": "TAF LIBD 291100Z 2912/3012 29012KT 9999 FEW020 SCT050"
    },
    {
      "icao": "LIBG",
      "alert": "OK",
      "vis_m": 9999,
      "fzfg": false,
      "metar_trigger": false,
      "taf_trigger": false,
      "metar": "METAR LIBG 291050Z 02008KT 9999 FEW025 14/07 Q0993",
      "taf": "TAF LIBG 291100Z 2912/2921 33015KT 9999 SCT030"
    },
    {
      "icao": "LIBP",
      "alert": "OK",
      "vis_m": 9999,
      "fzfg": false,
      "metar_trigger": false,
      "taf_trigger": false,
      "metar": "METAR LIBP 291050Z AUTO 22009KT 9999 SCT080/// BKN120/// 13/05 Q0995",
      "taf": "TAF LIBP 291100Z 2912/3012 36010KT 9999 SCT060"
    },
    {
      "icao": "LIBR",
      "alert": "OK",
      "vis_m": 9999,
      "fzfg": false,
      "metar_trigger": false,
      "taf_trigger": false,
      "metar": "METAR LIBR 291050Z 03008KT 9999 -RA FEW020 12/09 Q0993",
      "taf": "TAF LIBR 291100Z 2912/3012 33015KT 9999 SCT020"
    },
    {
      "icao": "LICA",
      "alert": "OK",
      "vis_m": 9999,
      "fzfg": false,
      "metar_trigger": false,
      "taf_trigger": false,
      "metar": "METAR LICA 291050Z AUTO 27026G36KT 9999 SCT017/// 14/12 Q0994 REDZ RERA",
      "taf": "TAF LICA 291100Z 2912/3012 27022G34KT 9999 BKN020"
    },
    {
      "icao": "LICC",
      "alert": "OK",
      "vis_m": 9999,
      "fzfg": false,
      "metar_trigger": false,
      "taf_trigger": false,
      "metar": "METAR LICC 291050Z 27021G34KT 9999 SCT050 16/14 Q0997",
      "taf": "TAF LICC 291100Z 2912/3012 26025G37KT 9999 SCT030"
    },
    {
      "icao": "LICJ",
      "alert": "OK",
      "vis_m": 9999,
      "fzfg": false,
      "metar_trigger": false,
      "taf_trigger": false,
      "metar": "METAR LICJ 291050Z 28020KT 9999 SCT035 14/07 Q1002",
      "taf": "TAF LICJ 291100Z 2912/3012 29026G36KT 9999 SCT040"
    },
    {
      "icao": "LIMC",
      "alert": "OK",
      "vis_m": 800,
      "fzfg": false,
      "metar_trigger": false,
      "taf_trigger": false,
      "metar": "METAR LIMC 291050Z VRB02KT 0800 R35R/1100D R17L/1100D R35L/0800N FG VV002 04/04 Q0996 BECMG 1500 BR",
      "taf": "TAF LIMC 291100Z 2912/3018 VRB05KT 1200 BCFG OVC005"
    },
    {
      "icao": "LIME",
      "alert": "OK",
      "vis_m": 5000,
      "fzfg": false,
      "metar_trigger": false,
      "taf_trigger": false,
      "metar": "METAR LIME 291050Z VRB02KT 5000 BR BKN005 06/05 Q0996 NOSIG",
      "taf": "TAF LIME 291100Z 2912/3012 VRB04KT 6000 SCT015"
    },
    {
      "icao": "LIMF",
      "alert": "OK",
      "vis_m": 5000,
      "fzfg": false,
      "metar_trigger": false,
      "taf_trigger": false,
      "metar": "METAR LIMF 291050Z 22004KT 190V250 5000 BR NSC 07/03 Q0995",
      "taf": "TAF LIMF 291100Z 2912/3012 VRB04KT 7000 SCT020"
    },
    {
      "icao": "LIMJ",
      "alert": "OK",
      "vis_m": 9999,
      "fzfg": false,
      "metar_trigger": false,
      "taf_trigger": false,
      "metar": "METAR LIMJ 291050Z 29009KT 9999 FEW020 13/04 Q0995",
      "taf": "TAF LIMJ 291100Z 2912/3012 04010KT 9999 SCT040"
    },
    {
      "icao": "LIPE",
      "alert": "OK",
      "vis_m": 9999,
      "fzfg": false,
      "metar_trigger": false,
      "taf_trigger": false,
      "metar": "METAR LIPE 291050Z 28004KT 250V340 9999 BKN013 08/05 Q0996",
      "taf": "TAF LIPE 291100Z 2912/3012 VRB05KT 8000 SCT020"
    },
    {
      "icao": "LIPH",
      "alert": "OK",
      "vis_m": 6000,
      "fzfg": false,
      "metar_trigger": false,
      "taf_trigger": false,
      "metar": "METAR LIPH 291050Z 08005KT 6000 BKN004 07/07 Q0996",
      "taf": "TAF LIPH 291100Z 2912/3012 VRB05KT 6000 BKN003"
    },
    {
      "icao": "LIPQ",
      "alert": "OK",
      "vis_m": 9999,
      "fzfg": false,
      "metar_trigger": false,
      "taf_trigger": false,
      "metar": "METAR LIPQ 291050Z AUTO /////KT 9999 // FEW009/// BKN021/// BKN053/// ///// Q////",
      "taf": "TAF LIPQ 291100Z 2912/3012 VRB05KT 9999 OVC010"
    },
    {
      "icao": "LIPR",
      "alert": "OK",
      "vis_m": 1500,
      "fzfg": false,
      "metar_trigger": false,
      "taf_trigger": false,
      "metar": "METAR LIPR 291050Z 34005KT 1500 BR BKN002 06/06 Q0996",
      "taf": "TAF LIPR 291100Z 2912/3012 VRB05KT 2000 BR BKN002"
    },
    {
      "icao": "LIPX",
      "alert": "OK",
      "vis_m": 2300,
      "fzfg": false,
      "metar_trigger": false,
      "taf_trigger": false,
      "metar": "METAR LIPX 291050Z 21003KT 150V240 2300 BR FEW003 BKN004 06/06 Q0996",
      "taf": "TAF LIPX 291100Z 2912/3012 24006KT 4000 BR SCT020"
    },
    {
      "icao": "LIPY",
      "alert": "OK",
      "vis_m": 9999,
      "fzfg": false,
      "metar_trigger": false,
      "taf_trigger": false,
      "metar": "METAR LIPY 291050Z AUTO 22005KT 9999 BKN120/// 12/06 Q0995",
      "taf": "TAF LIPY 291100Z 2912/3012 VRB06KT CAVOK"
    },
    {
      "icao": "LIPZ",
      "alert": "OK",
      "vis_m": 1500,
      "fzfg": false,
      "metar_trigger": false,
      "taf_trigger": false,
      "metar": "METAR LIPZ 291050Z 12004KT 090V150 1500 BR BKN002 06/06 Q0996 BECMG 5000 BR",
      "taf": "TAF LIPZ 291100Z 2912/3018 24006KT 1000 BR BKN003"
    },
    {
      "icao": "LIRF",
      "alert": "OK",
      "vis_m": 9999,
      "fzfg": false,
      "metar_trigger": false,
      "taf_trigger": false,
      "metar": "METAR LIRF 291050Z 18005KT 9999 SCT015 BKN040 13/10 Q0996 NOSIG",
      "taf": "TAF LIRF 291100Z 2912/3018 18009KT 9999 SCT030"
    },
    {
      "icao": "LIRN",
      "alert": "OK",
      "vis_m": 9999,
      "fzfg": false,
      "metar_trigger": false,
      "taf_trigger": false,
      "metar": "METAR LIRN 291050Z 30005KT 9999 FEW030 BKN070 11/08 Q0997 NOSIG",
      "taf": "TAF LIRN 291100Z 2912/3012 32013KT 9999 SCT030"
    },
    {
      "icao": "LIRP",
      "alert": "OK",
      "vis_m": 9999,
      "fzfg": false,
      "metar_trigger": false,
      "taf_trigger": false,
      "metar": "METAR LIRP 291045Z 12002KT 9999 SCT015 12/11 Q0994 NOSIG",
      "taf": "TAF LIRP 291100Z 2912/3012 12005KT 9999 SCT020"
    },
    {
      "icao": "LIRZ",
      "alert": "OK",
      "vis_m": 9999,
      "fzfg": false,
      "metar_trigger": false,
      "taf_trigger": false,
      "metar": "METAR LIRZ 291050Z AUTO 22003KT 150V260 9999 NCD 11/06 Q0995",
      "taf": "TAF LIRZ 291100Z 2912/3012 VRB05KT 7000 BKN025"
    },
    {
      "icao": "LJLJ",
      "alert": "OK",
      "vis_m": 9999,
      "fzfg": false,
      "metar_trigger": false,
      "taf_trigger": false,
      "metar": "METAR LJLJ 291100Z 10004KT 9999 BKN003 OVC010 06/05 Q0995 NOSIG",
      "taf": "TAF LJLJ 291100Z 2912/3012 29005KT 9999 BKN003 OVC010"
    },
    {
      "icao": "LKMT",
      "alert": "OK",
      "vis_m": 4000,
      "fzfg": false,
      "metar_trigger": false,
      "taf_trigger": false,
      "metar": "METAR LKMT 291100Z 04011KT 4000 -SN BR OVC007 M00/M01 Q1000 NOSIG",
      "taf": "TAF LKMT 291100Z 2912/3012 03008KT 4500 BR OVC006"
    },
    {
      "icao": "LKPR",
      "alert": "OK",
      "vis_m": 2700,
      "fzfg": false,
      "metar_trigger": false,
      "taf_trigger": false,
      "metar": "METAR LKPR 291100Z 08008KT 2700 -SN BR BKN003 OVC005 M01/M01 Q0998 NOSIG",
      "taf": "TAF LKPR 291100Z 2912/3018 06009KT 3000 -SN BR OVC005"
    },
    {
      "icao": "LLBG",
      "alert": "OK",
      "vis_m": 9999,
      "fzfg": false,
      "metar_trigger": false,
      "taf_trigger": false,
      "metar": "METAR LLBG 291120Z 23006KT 200V270 9999 FEW045 19/09 Q1018 NOSIG RMK SCT072",
      "taf": "TAF LLBG 291102Z 2912/3012 18010KT 9999 SCT035"
    },
    {
      "icao": "LMML",
      "alert": "OK",
      "vis_m": 9999,
      "fzfg": false,
      "metar_trigger": false,
      "taf_trigger": false,
      "metar": "METAR LMML 291115Z 27028G40KT 9999 FEW013 15/10 Q1004 NOSIG",
      "taf": "TAF LMML 291100Z 2912/3012 27028G38KT 9999 FEW018"
    },
    {
      "icao": "LOWW",
      "alert": "OK",
      "vis_m": 9000,
      "fzfg": false,
      "metar_trigger": false,
      "taf_trigger": false,
      "metar": "METAR LOWW 291050Z 36005KT 9000 -RA FEW002 BKN005 03/02 Q0998 NOSIG",
      "taf": "TAF LOWW 291115Z 2912/3018 34007KT 9999 -RA SCT006 BKN015 TX03/3012Z TNM00/3006Z"
    },
    {
      "icao": "LPFR",
      "alert": "OK",
      "vis_m": 8000,
      "fzfg": false,
      "metar_trigger": false,
      "taf_trigger": false,
      "metar": "METAR LPFR 291100Z 24019KT 8000 SCT005 BKN008 16/15 Q1013",
      "taf": "TAF LPFR 291100Z 2912/3012 25018KT 8000 SCT006 BKN012"
    },
    {
      "icao": "LPMA",
      "alert": "OK",
      "vis_m": 9999,
      "fzfg": false,
      "metar_trigger": false,
      "taf_trigger": false,
      "metar": "METAR LPMA 291100Z 05004KT 010V070 9999 FEW014 20/14 Q1023",
      "taf": "TAF LPMA 291100Z 2912/3012 VRB05KT 9999 SCT015"
    },
    {
      "icao": "LPPR",
      "alert": "OK",
      "vis_m": 9000,
      "fzfg": false,
      "metar_trigger": false,
      "taf_trigger": false,
      "metar": "METAR LPPR 291100Z 21007KT 9000 -RA FEW016 SCT040 13/12 Q1005",
      "taf": "TAF LPPR 291100Z 2912/3012 25013KT 9999 SCT020"
    },
    {
      "icao": "LPPS",
      "alert": "OK",
      "vis_m": 9999,
      "fzfg": false,
      "metar_trigger": false,
      "taf_trigger": false,
      "metar": "METAR LPPS 291100Z 28013KT 9999 SCT011 19/16 Q1023",
      "taf": "TAF LPPS 291100Z 2912/3018 28013KT 9999 SCT012"
    },
    {
      "icao": "LPPT",
      "alert": "OK",
      "vis_m": 1800,
      "fzfg": false,
      "metar_trigger": false,
      "taf_trigger": false,
      "metar": "METAR LPPT 291100Z 24014KT 1800 DZRA BR FEW002 BKN004 16/16 Q1009 WS R20",
      "taf": "TAF LPPT 291100Z 2912/3018 25015KT 6000 -RA SCT004 BKN008"
    },
    {
      "icao": "LQBK",
      "alert": "OK",
      "vis_m": 9999,
      "fzfg": false,
      "metar_trigger": false,
      "taf_trigger": false,
      "metar": "METAR LQBK 291100Z 36004KT 340V040 9999 FEW017 10/08 Q0995 NOSIG",
      "taf": "TAF LQBK 291100Z 2912/3012 VRB03KT 9999 SCT045 TX11/2913Z TN02/3006Z"
    },
    {
      "icao": "LQSA",
      "alert": "OK",
      "vis_m": 9999,
      "fzfg": false,
      "metar_trigger": false,
      "taf_trigger": false,
      "metar": "METAR LQSA 291100Z 31003KT 250V350 CAVOK 11/03 Q0994 NOSIG",
      "taf": "TAF LQSA 291100Z 2912/3012 VRB02KT 9999 SCT050 TX12/2914Z TN03/3005Z"
    },
    {
      "icao": "LQTZ",
      "alert": "OK",
      "vis_m": 9999,
      "fzfg": false,
      "metar_trigger": false,
      "taf_trigger": false,
      "metar": "METAR LQTZ 291100Z 31004KT 260V350 9999 FEW060 13/04 Q0994",
      "taf": "TAF LQTZ 291100Z 2912/3012 27005KT 9999 SCT050 TX15/2913Z TN02/3006Z"
    },
    {
      "icao": "LRBC",
      "alert": "OK",
      "vis_m": 9999,
      "fzfg": false,
      "metar_trigger": false,
      "taf_trigger": false,
      "metar": "METAR LRBC 291100Z 35008KT 9999 OVC005 04/04 Q1000",
      "taf": "TAF LRBC 290800Z 2909/2918 34008KT 7000 OVC005"
    },
    {
      "icao": "LRBS",
      "alert": "OK",
      "vis_m": 9999,
      "fzfg": false,
      "metar_trigger": false,
      "taf_trigger": false,
      "metar": "METAR LRBS 291100Z 11004KT CAVOK 11/05 Q0998 NOSIG",
      "taf": "TAF LRBS 290500Z 2906/3006 VRB04KT 5000 BR NSC"
    },
    {
      "icao": "LRBV",
      "alert": "OK",
      "vis_m": 9999,
      "fzfg": false,
      "metar_trigger": false,
      "taf_trigger": false,
      "metar": "METAR LRBV 291100Z 08006KT 040V110 9999 FEW083 09/02 Q0996",
      "taf": "TAF LRBV 290800Z 2909/2918 VRB04KT 9999 SCT065"
    },
    {
      "icao": "LRCL",
      "alert": "OK",
      "vis_m": 2500,
      "fzfg": false,
      "metar_trigger": false,
      "taf_trigger": false,
      "metar": "METAR LRCL 291100Z 06004KT 030V090 2500 -RA BR BKN004 OVC017 03/02 Q0997",
      "taf": ""
    },
    {
      "icao": "LRCV",
      "alert": "OK",
      "vis_m": 9999,
      "fzfg": false,
      "metar_trigger": false,
      "taf_trigger": false,
      "metar": "METAR LRCV 291100Z 08005KT CAVOK 09/06 Q0997",
      "taf": "TAF LRCV 290800Z 2909/2918 VRB04KT CAVOK"
    },
    {
      "icao": "LRIA",
      "alert": "OK",
      "vis_m": 1700,
      "fzfg": false,
      "metar_trigger": false,
      "taf_trigger": false,
      "metar": "METAR LRIA 291100Z 32007KT 1700 BR OVC001 02/02 Q0999",
      "taf": "TAF LRIA 290800Z 2909/2918 31006KT 0300 FG OVC001"
    },
    {
      "icao": "LROP",
      "alert": "OK",
      "vis_m": 9999,
      "fzfg": false,
      "metar_trigger": false,
      "taf_trigger": false,
      "metar": "METAR LROP 291100Z VRB02KT CAVOK 11/03 Q0998 NOSIG",
      "taf": "TAF LROP 290500Z 2906/3006 VRB04KT 5000 BR NSC"
    },
    {
      "icao": "LRSB",
      "alert": "OK",
      "vis_m": 9999,
      "fzfg": false,
      "metar_trigger": false,
      "taf_trigger": false,
      "metar": "METAR LRSB 291100Z 12005KT 080V160 9999 FEW070 09/04 Q0995 NOSIG",
      "taf": "TAF LRSB 290500Z 2906/3006 VRB04KT 9999 SCT035 BKN060"
    },
    {
      "icao": "LRSM",
      "alert": "OK",
      "vis_m": 9999,
      "fzfg": false,
      "metar_trigger": false,
      "taf_trigger": false,
      "metar": "METAR LRSM 291100Z 19003KT 150V210 9999 -RA FEW032 BKN037 07/05 Q0997",
      "taf": "TAF LRSM 290800Z 2909/2918 VRB04KT 9999 BKN045"
    },
    {
      "icao": "LRSV",
      "alert": "OK",
      "vis_m": 3000,
      "fzfg": true,
      "metar_trigger": false,
      "taf_trigger": false,
      "metar": "METAR LRSV 291100Z VRB02KT 3000 BR OVC003 00/M00 Q0999",
      "taf": "TAF LRSV 290800Z 2909/2918 01006KT 0800 FZFG OVC002"
    },
    {
      "icao": "LRTM",
      "alert": "OK",
      "vis_m": 4800,
      "fzfg": false,
      "metar_trigger": false,
      "taf_trigger": false,
      "metar": "METAR LRTM 291100Z 09004KT 4800 BR FEW012 SCT036 03/02 Q0997",
      "taf": "TAF LRTM 290800Z 2909/2918 VRB04KT 2500 -RA BR SCT010 BKN035"
    },
    {
      "icao": "LRTR",
      "alert": "OK",
      "vis_m": 9999,
      "fzfg": false,
      "metar_trigger": false,
      "taf_trigger": false,
      "metar": "METAR LRTR 291100Z 16007KT CAVOK 09/08 Q0995 NOSIG",
      "taf": "TAF LRTR 290500Z 2906/3006 11010KT 9999 -RA OVC040"
    },
    {
      "icao": "LTAC",
      "alert": "OK",
      "vis_m": 9999,
      "fzfg": false,
      "metar_trigger": false,
      "taf_trigger": false,
      "metar": "METAR LTAC 291050Z 04004KT 340V060 9999 SCT040 BKN100 06/03 Q1010 NOSIG RMK RWY21C 04003KT RWY03L 04004KT RWY21R 02003KT RWY03R 05003KT 020V100 RWY21L 03003KT",
      "taf": "TAF LTAC 291040Z 2912/3012 17013KT 9999 SCT033 BKN090"
    },
    {
      "icao": "LTFM",
      "alert": "OK",
      "vis_m": 9999,
      "fzfg": false,
      "metar_trigger": false,
      "taf_trigger": false,
      "metar": "METAR LTFM 291050Z 19017KT 9999 -SHRA BKN032 BKN100 15/08 Q1000 NOSIG RMK RWY17L 18018KT RWY34L 18017KT RWY16R 19016KT RWY36 19017KT RWY18 19018KT",
      "taf": "TAF LTFM 291040Z 2912/3018 15015G25KT 9999 SCT035 BKN100"
    },
    {
      "icao": "LUKK",
      "alert": "OK",
      "vis_m": 300,
      "fzfg": false,
      "metar_trigger": false,
      "taf_trigger": false,
      "metar": "METAR LUKK 291100Z VRB01KT 0300 0200SW R08/0275N FG VV001 04/04 Q0998 NOSIG",
      "taf": "TAF LUKK 291114Z 2912/3012 VRB04KT 0300 FG VV001"
    },
    {
      "icao": "LWOH",
      "alert": "OK",
      "vis_m": 9999,
      "fzfg": false,
      "metar_trigger": false,
      "taf_trigger": false,
      "metar": "METAR LWOH 291120Z 31007KT 9999 -RA SCT020 OVC037 08/06 Q0993",
      "taf": "TAF LWOH 290900Z 2909/3009 VRB02KT 9999 SCT020 OVC040"
    },
    {
      "icao": "LWSK",
      "alert": "OK",
      "vis_m": 6000,
      "fzfg": false,
      "metar_trigger": false,
      "taf_trigger": false,
      "metar": "METAR LWSK 291120Z VRB01KT 6000 -RA FEW020 SCT035 OVC070 06/04 Q0996 NOSIG",
      "taf": "TAF LWSK 290900Z 2909/3009 VRB02KT 5000 BR SCT020 OVC040"
    },
    {
      "icao": "LYBE",
      "alert": "OK",
      "vis_m": 9999,
      "fzfg": false,
      "metar_trigger": false,
      "taf_trigger": false,
      "metar": "METAR LYBE 291100Z 25004KT CAVOK 14/04 Q0995 NOSIG",
      "taf": "TAF LYBE 291100Z 2912/3012 19005KT CAVOK TX14/2913Z TN04/3006Z"
    },
    {
      "icao": "LYNI",
      "alert": "OK",
      "vis_m": 9999,
      "fzfg": false,
      "metar_trigger": false,
      "taf_trigger": false,
      "metar": "METAR LYNI 291100Z 11003KT 070V170 CAVOK 13/05 Q0995 NOSIG",
      "taf": "TAF LYNI 291100Z 2912/3012 04007KT 9999 BKN080 TX15/2913Z TN04/3006Z"
    },
    {
      "icao": "LYPG",
      "alert": "OK",
      "vis_m": 9999,
      "fzfg": false,
      "metar_trigger": false,
      "taf_trigger": false,
      "metar": "METAR LYPG 291100Z 27003KT 250V320 9999 FEW013 SCT050 OVC080 11/08 Q0994 NOSIG",
      "taf": "TAF LYPG 291100Z 2912/3012 18005KT 9999 FEW020 SCT050 BKN083 TX13/2913Z TN06/3005Z"
    },
    {
      "icao": "LZIB",
      "alert": "OK",
      "vis_m": 9999,
      "fzfg": false,
      "metar_trigger": false,
      "taf_trigger": false,
      "metar": "METAR LZIB 291100Z 32005KT 9999 -RA FEW009 BKN014 BKN020 05/04 Q0997 NOSIG",
      "taf": "TAF LZIB 291115Z 2912/3012 32005KT 9999 -RA FEW010 BKN016 OVC020"
    },
    {
      "icao": "LZKZ",
      "alert": "OK",
      "vis_m": 9999,
      "fzfg": false,
      "metar_trigger": false,
      "taf_trigger": false,
      "metar": "METAR LZKZ 291100Z 01010KT 9999 -RA FEW005 OVC036 04/01 Q0998 NOSIG",
      "taf": "TAF LZKZ 291115Z 2912/3012 01013KT 9999 FEW005 OVC030"
    },
    {
      "icao": "LZTT",
      "alert": "OK",
      "vis_m": 4500,
      "fzfg": false,
      "metar_trigger": false,
      "taf_trigger": false,
      "metar": "METAR LZTT 291100Z 07005KT 4500 -SN FEW003 SCT010 OVC020 01/M00 Q0997 NOSIG",
      "taf": "TAF LZTT 291115Z 2912/3012 07007KT 6000 -SN SCT010 BKN020"
    },
    {
      "icao": "OEJN",
      "alert": "OK",
      "vis_m": 9999,
      "fzfg": false,
      "metar_trigger": false,
      "taf_trigger": false,
      "metar": "METAR OEJN 291100Z 30008KT CAVOK 29/09 Q1014 NOSIG",
      "taf": "TAF OEJN 290500Z 2906/3012 33013KT CAVOK"
    },
    {
      "icao": "OEMA",
      "alert": "OK",
      "vis_m": 9999,
      "fzfg": false,
      "metar_trigger": false,
      "taf_trigger": false,
      "metar": "METAR OEMA 291100Z 13007KT CAVOK 23/M05 Q1020 NOSIG",
      "taf": "TAF OEMA 290500Z 2906/3012 09010KT CAVOK"
    },
    {
      "icao": "OJAI",
      "alert": "OK",
      "vis_m": 4000,
      "fzfg": false,
      "metar_trigger": false,
      "taf_trigger": false,
      "metar": "METAR OJAI 291100Z 24012KT 4000 BR SCT030 12/05 Q1020 NOSIG",
      "taf": "TAF OJAI 290955Z 2912/3018 26012KT 5000 HZ SCT025 SCT030"
    },
    {
      "icao": "OMAA",
      "alert": "OK",
      "vis_m": 9999,
      "fzfg": false,
      "metar_trigger": false,
      "taf_trigger": false,
      "metar": "METAR OMAA 291100Z 29011KT 250V320 CAVOK 27/06 Q1015 NOSIG",
      "taf": "TAF OMAA 291100Z 2912/3018 32010KT 8000 NSC"
    },
    {
      "icao": "OMDB",
      "alert": "OK",
      "vis_m": 9999,
      "fzfg": false,
      "metar_trigger": false,
      "taf_trigger": false,
      "metar": "METAR OMDB 291100Z 28009KT 200V010 CAVOK 26/10 Q1016 NOSIG",
      "taf": "TAF OMDB 291100Z 2912/3018 29012KT 8000 FEW045"
    },
    {
      "icao": "UAAA",
      "alert": "OK",
      "vis_m": 2600,
      "fzfg": false,
      "metar_trigger": false,
      "taf_trigger": false,
      "metar": "METAR UAAA 291100Z VRB01MPS 2600 BR OVC015 M00/M02 Q1028 NOSIG",
      "taf": "TAF UAAA 291105Z 2912/3012 02002MPS 1100 BR BKN004 OVC011 TXM01/3008Z TNM06/3002Z"
    },
    {
      "icao": "UBBB",
      "alert": "OK",
      "vis_m": 9999,
      "fzfg": false,
      "metar_trigger": false,
      "taf_trigger": false,
      "metar": "METAR UBBB 291100Z 14006KT CAVOK 07/04 Q1013 NOSIG",
      "taf": "TAF UBBB 291048Z 2912/3012 17006KT 9999 BKN030 TX07/2912Z TN04/3001Z"
    },
    {
      "icao": "UDSG",
      "alert": "OK",
      "vis_m": 6000,
      "fzfg": false,
      "metar_trigger": false,
      "taf_trigger": false,
      "metar": "METAR UDSG 291100Z 23003KT 190V280 6000 NSC M05/M08 Q1015 NOSIG",
      "taf": "TAF UDSG 291100Z 2912/3012 VRB06KT 5000 BR FEW040"
    },
    {
      "icao": "UDYZ",
      "alert": "OK",
      "vis_m": 4400,
      "fzfg": false,
      "metar_trigger": false,
      "taf_trigger": false,
      "metar": "METAR UDYZ 291100Z VRB01KT 4400 BR FEW019 00/M06 Q1017 NOSIG",
      "taf": "TAF UDYZ 291100Z 2912/3012 VRB04KT 2300 BR FEW020"
    },
    {
      "icao": "UGKO",
      "alert": "OK",
      "vis_m": 9999,
      "fzfg": false,
      "metar_trigger": false,
      "taf_trigger": false,
      "metar": "METAR UGKO 291100Z VRB02KT CAVOK 16/M01 Q1010 NOSIG",
      "taf": "TAF UGKO 291100Z 2912/3012 09007KT CAVOK TX17/2912Z TN05/3003Z"
    }
  ]
}