{
  "ts_utc": "2026-03-16T14:52:01Z",
  "threshold_m": 150,
  "source": "stations_override.txt (ICAO list) + aviationweather.gov (METAR/TAF raw)",
  "station_count": 159,
  "stations": [
    {
      "icao": "BIKF",
      "alert": "OK",
      "vis_m": 9999,
      "fzfg": false,
      "metar_trigger": false,
      "taf_trigger": false,
      "metar": "METAR BIKF 161430Z 04016KT CAVOK 02/M04 Q0982",
      "taf": "TAF BIKF 161330Z 1615/1715 03018KT 9999 FEW035 TX02/1615Z TN00/1712Z"
    },
    {
      "icao": "BKPR",
      "alert": "OK",
      "vis_m": 9999,
      "fzfg": false,
      "metar_trigger": false,
      "taf_trigger": false,
      "metar": "METAR BKPR 161430Z 12003KT 080V150 9999 FEW050 16/M03 Q1013 NOSIG",
      "taf": "TAF BKPR 161130Z 1612/1712 04008KT 9999 FEW050"
    },
    {
      "icao": "EBCI",
      "alert": "OK",
      "vis_m": 9999,
      "fzfg": false,
      "metar_trigger": false,
      "taf_trigger": false,
      "metar": "METAR EBCI 161420Z 26008KT 230V290 9999 SCT037 10/02 Q1018 NOSIG",
      "taf": "TAF EBCI 161115Z 1612/1718 27009KT 9999 SCT030"
    },
    {
      "icao": "EDDB",
      "alert": "OK",
      "vis_m": 9999,
      "fzfg": false,
      "metar_trigger": false,
      "taf_trigger": false,
      "metar": "METAR EDDB 161420Z AUTO 27008KT 9999 SHRA SCT023 BKN033 BKN045 FEW///CB 08/04 Q1011 TEMPO 27020G30KT BKN013",
      "taf": ""
    },
    {
      "icao": "EDDH",
      "alert": "OK",
      "vis_m": 9999,
      "fzfg": false,
      "metar_trigger": false,
      "taf_trigger": false,
      "metar": "METAR EDDH 161420Z AUTO 29018KT 260V320 9999 FEW033 09/01 Q1012 NOSIG",
      "taf": ""
    },
    {
      "icao": "EDDK",
      "alert": "OK",
      "vis_m": 9999,
      "fzfg": false,
      "metar_trigger": false,
      "taf_trigger": false,
      "metar": "METAR EDDK 161420Z AUTO 25015KT 9999 -SHRA FEW///CB 09/02 Q1017 TEMPO 27015G25KT SHRA",
      "taf": "TAF EDDK 161100Z 1612/1718 27011KT 9999 BKN030"
    },
    {
      "icao": "EDDN",
      "alert": "OK",
      "vis_m": 9999,
      "fzfg": false,
      "metar_trigger": false,
      "taf_trigger": false,
      "metar": "METAR EDDN 161420Z AUTO 32009KT 9999 SHRA SCT007 BKN019 BKN040 FEW///CB 03/01 Q1017 TEMPO NSW BKN010",
      "taf": ""
    },
    {
      "icao": "EDDS",
      "alert": "OK",
      "vis_m": 9999,
      "fzfg": false,
      "metar_trigger": false,
      "taf_trigger": false,
      "metar": "METAR EDDS 161420Z AUTO 33008KT 9999 SHRA FEW031 BKN043 FEW///CB 07/03 Q1017 BECMG NSW",
      "taf": "TAF EDDS 161100Z 1612/1712 25011KT 9999 SCT030"
    },
    {
      "icao": "EDFH",
      "alert": "OK",
      "vis_m": 9999,
      "fzfg": false,
      "metar_trigger": false,
      "taf_trigger": false,
      "metar": "METAR EDFH 161420Z 28014KT 250V320 9999 FEW028 SCT033 07/00 Q1016",
      "taf": "TAF EDFH 161100Z 1612/1712 27015G25KT 9999 SCT025"
    },
    {
      "icao": "EDJA",
      "alert": "OK",
      "vis_m": 9999,
      "fzfg": false,
      "metar_trigger": false,
      "taf_trigger": false,
      "metar": "METAR EDJA 161420Z COR 25021G33KT 9999 OVC054 07/M00 Q1018",
      "taf": "TAF EDJA 161400Z 1615/1624 22015G25KT 9999 SCT030"
    },
    {
      "icao": "EDLW",
      "alert": "OK",
      "vis_m": 9999,
      "fzfg": false,
      "metar_trigger": false,
      "taf_trigger": false,
      "metar": "METAR EDLW 161420Z 27011KT 230V310 9999 FEW047 10/M01 Q1015",
      "taf": "TAF EDLW 161100Z 1612/1712 25013KT 9999 BKN020"
    },
    {
      "icao": "EDNY",
      "alert": "OK",
      "vis_m": 9999,
      "fzfg": false,
      "metar_trigger": false,
      "taf_trigger": false,
      "metar": "METAR EDNY 161420Z 25011KT 220V300 9999 FEW038 09/02 Q1020",
      "taf": "TAF EDNY 161400Z 1615/1624 25010KT 9999 SCT045"
    },
    {
      "icao": "EDSB",
      "alert": "OK",
      "vis_m": 9000,
      "fzfg": false,
      "metar_trigger": false,
      "taf_trigger": false,
      "metar": "METAR EDSB 161420Z 26009KT 220V290 9000 -SHRA FEW024 BKN037TCU BKN046 08/04 Q1019",
      "taf": "TAF EDSB 161100Z 1612/1712 22012KT 9999 SCT030"
    },
    {
      "icao": "EETN",
      "alert": "OK",
      "vis_m": 9999,
      "fzfg": false,
      "metar_trigger": false,
      "taf_trigger": false,
      "metar": "METAR EETN 161450Z 11005KT 9999 -RA SCT010 BKN016 OVC043 04/03 Q1015 NOSIG",
      "taf": "TAF EETN 161130Z 1612/1712 13005KT 9999 OVC010"
    },
    {
      "icao": "EFTU",
      "alert": "OK",
      "vis_m": 9999,
      "fzfg": false,
      "metar_trigger": false,
      "taf_trigger": false,
      "metar": "METAR EFTU 161420Z AUTO 18006KT 150V210 9999 OVC008 03/01 Q1014",
      "taf": "TAF EFTU 161431Z 1615/1715 18006KT 9999 BKN008"
    },
    {
      "icao": "EGBB",
      "alert": "OK",
      "vis_m": 9000,
      "fzfg": false,
      "metar_trigger": false,
      "taf_trigger": false,
      "metar": "METAR EGBB 161420Z 22007KT 9000 -RA SCT029 BKN034 10/05 Q1014",
      "taf": "TAF EGBB 161100Z 1612/1712 21009KT 9999 FEW015 SCT025"
    },
    {
      "icao": "EGGP",
      "alert": "OK",
      "vis_m": 9999,
      "fzfg": false,
      "metar_trigger": false,
      "taf_trigger": false,
      "metar": "METAR EGGP 161420Z 22009KT 9999 -RA SCT027 BKN043 10/06 Q1012",
      "taf": "TAF EGGP 161057Z 1612/1712 25012KT 9999 SCT030"
    },
    {
      "icao": "EGGW",
      "alert": "OK",
      "vis_m": 9999,
      "fzfg": false,
      "metar_trigger": false,
      "taf_trigger": false,
      "metar": "METAR EGGW 161420Z AUTO 25017KT 9999 FEW026 BKN040 10/05 Q1015",
      "taf": "TAF EGGW 161102Z 1612/1712 24012KT 9999 FEW020 SCT030"
    },
    {
      "icao": "EGKK",
      "alert": "OK",
      "vis_m": 9999,
      "fzfg": false,
      "metar_trigger": false,
      "taf_trigger": false,
      "metar": "METAR EGKK 161420Z 24012KT 9999 BKN033 12/05 Q1016",
      "taf": "TAF EGKK 161055Z 1612/1718 24012KT 9999 FEW020"
    },
    {
      "icao": "EGNM",
      "alert": "OK",
      "vis_m": 9999,
      "fzfg": false,
      "metar_trigger": false,
      "taf_trigger": false,
      "metar": "METAR EGNM 161420Z 23014KT 9999 FEW020 SCT031 09/04 Q1010",
      "taf": "TAF EGNM 161104Z 1612/1712 23010KT 9999 SCT015"
    },
    {
      "icao": "EGPD",
      "alert": "OK",
      "vis_m": 9999,
      "fzfg": false,
      "metar_trigger": false,
      "taf_trigger": false,
      "metar": "METAR EGPD 161420Z COR AUTO 20013KT 9999 NCD 09/02 Q1002 NOSIG",
      "taf": "TAF EGPD 161058Z 1612/1712 21012KT 9999 FEW030"
    },
    {
      "icao": "EGPF",
      "alert": "OK",
      "vis_m": 8000,
      "fzfg": false,
      "metar_trigger": false,
      "taf_trigger": false,
      "metar": "METAR EGPF 161420Z AUTO 20015KT 8000 -RA BKN012/// OVC026/// //////TCU 08/07 Q1004",
      "taf": "TAF EGPF 161058Z 1612/1712 22012KT 9999 FEW020 SCT030"
    },
    {
      "icao": "EHBK",
      "alert": "OK",
      "vis_m": 9999,
      "fzfg": false,
      "metar_trigger": false,
      "taf_trigger": false,
      "metar": "METAR EHBK 161425Z AUTO 28004KT 230V320 9999 NSC 09/04 Q1017 NOSIG",
      "taf": "TAF EHBK 161118Z 1612/1718 27010KT 9999 SCT030"
    },
    {
      "icao": "EHEH",
      "alert": "OK",
      "vis_m": 9999,
      "fzfg": false,
      "metar_trigger": false,
      "taf_trigger": false,
      "metar": "METAR EHEH 161425Z AUTO 28006KT 240V330 9999 FEW043 10/02 Q1017 BLU NOSIG RMK TREND REMOTE BY EHWX",
      "taf": "TAF EHEH 161107Z 1612/1718 28008KT 9999 SCT028 BKN035"
    },
    {
      "icao": "EKBI",
      "alert": "OK",
      "vis_m": 9999,
      "fzfg": false,
      "metar_trigger": false,
      "taf_trigger": false,
      "metar": "METAR EKBI 161420Z AUTO 27016KT 9999 BKN027/// 08/01 Q1009",
      "taf": "TAF EKBI 161427Z 1615/1715 28012KT 9999 SCT020"
    },
    {
      "icao": "EKCH",
      "alert": "OK",
      "vis_m": 9999,
      "fzfg": false,
      "metar_trigger": false,
      "taf_trigger": false,
      "metar": "METAR EKCH 161420Z 23005KT 9999 -RA BKN008 04/02 Q1009 NOSIG",
      "taf": "TAF EKCH 161427Z 1615/1715 27008KT 9999 BKN008"
    },
    {
      "icao": "ENAL",
      "alert": "OK",
      "vis_m": 9999,
      "fzfg": false,
      "metar_trigger": false,
      "taf_trigger": false,
      "metar": "METAR ENAL 161420Z 22015KT 9999 FEW056 08/00 Q0998",
      "taf": "TAF ENAL 161400Z 1615/1624 19015KT 9999 FEW040 SCT050"
    },
    {
      "icao": "ENBR",
      "alert": "OK",
      "vis_m": 9999,
      "fzfg": false,
      "metar_trigger": false,
      "taf_trigger": false,
      "metar": "METAR ENBR 161420Z 18016KT 9999 FEW010TCU SCT028 06/02 Q1002 NOSIG RMK WIND 1200FT 19020KT",
      "taf": "TAF ENBR 161100Z 1612/1712 16015KT 9999 FEW015TCU BKN025"
    },
    {
      "icao": "ENGM",
      "alert": "OK",
      "vis_m": 4900,
      "fzfg": false,
      "metar_trigger": false,
      "taf_trigger": false,
      "metar": "METAR ENGM 161420Z 19010KT 4900 -DZ BR BKN004 02/01 Q1004 TEMPO 2000",
      "taf": "TAF ENGM 161100Z 1612/1712 16010KT 9000 -RA OVC005"
    },
    {
      "icao": "ENHD",
      "alert": "OK",
      "vis_m": 9999,
      "fzfg": false,
      "metar_trigger": false,
      "taf_trigger": false,
      "metar": "METAR ENHD 161420Z 19013KT 9999 FEW025 07/02 Q1004",
      "taf": "TAF ENHD 161400Z 1615/1623 18012KT 9999 FEW012 SCT030"
    },
    {
      "icao": "ENTC",
      "alert": "OK",
      "vis_m": 9999,
      "fzfg": false,
      "metar_trigger": false,
      "taf_trigger": false,
      "metar": "METAR ENTC 161420Z 18012KT CAVOK 05/M05 Q0999 NOSIG RMK WIND 2600FT 18014KT",
      "taf": ""
    },
    {
      "icao": "ENTO",
      "alert": "OK",
      "vis_m": 4500,
      "fzfg": false,
      "metar_trigger": false,
      "taf_trigger": false,
      "metar": "METAR ENTO 161420Z 20004KT 4500 BR FEW001 BKN002 BKN003 04/04 Q1004 NOSIG",
      "taf": "TAF ENTO 161100Z 1612/1712 18008KT 4000 -DZ BR OVC003"
    },
    {
      "icao": "ENVA",
      "alert": "OK",
      "vis_m": 9999,
      "fzfg": false,
      "metar_trigger": false,
      "taf_trigger": false,
      "metar": "METAR ENVA 161420Z 15011KT CAVOK 09/M01 Q0998 NOSIG RMK WIND 670FT 15017KT",
      "taf": "TAF ENVA 161100Z 1612/1712 13007KT CAVOK"
    },
    {
      "icao": "ENZV",
      "alert": "OK",
      "vis_m": 9999,
      "fzfg": false,
      "metar_trigger": false,
      "taf_trigger": false,
      "metar": "METAR ENZV 161420Z 22012KT 9999 FEW023 07/01 Q1005 NOSIG",
      "taf": "TAF ENZV 161100Z 1612/1712 23010KT 9999 FEW015 BKN020"
    },
    {
      "icao": "EPGD",
      "alert": "OK",
      "vis_m": 9999,
      "fzfg": false,
      "metar_trigger": false,
      "taf_trigger": false,
      "metar": "METAR EPGD 161430Z 16007KT 9999 -RA SCT007 BKN010 05/04 Q1011",
      "taf": "TAF EPGD 161130Z 1612/1712 15008KT 9999 BKN010"
    },
    {
      "icao": "EPKK",
      "alert": "OK",
      "vis_m": 9999,
      "fzfg": false,
      "metar_trigger": false,
      "taf_trigger": false,
      "metar": "METAR EPKK 161430Z 27015KT 9999 FEW025 09/03 Q1014",
      "taf": "TAF EPKK 161430Z 1615/1715 26014KT 9999 SCT025"
    },
    {
      "icao": "EPKT",
      "alert": "OK",
      "vis_m": 9999,
      "fzfg": false,
      "metar_trigger": false,
      "taf_trigger": false,
      "metar": "METAR EPKT 161430Z 24009KT 9999 FEW015 08/03 Q1014",
      "taf": "TAF EPKT 161130Z 1612/1712 23012KT 9999 BKN020"
    },
    {
      "icao": "EPLB",
      "alert": "OK",
      "vis_m": 9999,
      "fzfg": false,
      "metar_trigger": false,
      "taf_trigger": false,
      "metar": "METAR EPLB 161430Z 21006KT CAVOK 14/02 Q1013",
      "taf": ""
    },
    {
      "icao": "EPMO",
      "alert": "OK",
      "vis_m": 9999,
      "fzfg": false,
      "metar_trigger": false,
      "taf_trigger": false,
      "metar": "METAR EPMO 161430Z 27010KT 9999 FEW030 BKN043 10/06 Q1013",
      "taf": "TAF EPMO 161130Z 1612/1712 17007KT 9999 NSC"
    },
    {
      "icao": "EPPO",
      "alert": "OK",
      "vis_m": 9999,
      "fzfg": false,
      "metar_trigger": false,
      "taf_trigger": false,
      "metar": "METAR EPPO 161430Z 25009KT 9999 OVC043 09/02 Q1012",
      "taf": "TAF EPPO 161130Z 1612/1712 22010KT 9999 BKN007"
    },
    {
      "icao": "EPRA",
      "alert": "OK",
      "vis_m": 9999,
      "fzfg": false,
      "metar_trigger": false,
      "taf_trigger": false,
      "metar": "METAR EPRA 161430Z 25012KT CAVOK 12/02 Q1013",
      "taf": "TAF EPRA 161430Z 1615/1624 26010KT 9999 SCT040"
    },
    {
      "icao": "EPRZ",
      "alert": "OK",
      "vis_m": 9999,
      "fzfg": false,
      "metar_trigger": false,
      "taf_trigger": false,
      "metar": "METAR EPRZ 161430Z 25007KT CAVOK 16/M04 Q1013",
      "taf": "TAF EPRZ 161130Z 1612/1712 22010KT CAVOK"
    },
    {
      "icao": "EPSC",
      "alert": "OK",
      "vis_m": 9999,
      "fzfg": false,
      "metar_trigger": false,
      "taf_trigger": false,
      "metar": "METAR EPSC 161430Z 21007KT 170V250 9999 BKN015CB 06/03 Q1010",
      "taf": "TAF EPSC 161130Z 1612/1712 15010KT 9999 BKN030"
    },
    {
      "icao": "EPSY",
      "alert": "OK",
      "vis_m": 9999,
      "fzfg": false,
      "metar_trigger": false,
      "taf_trigger": false,
      "metar": "METAR EPSY 161430Z 20011KT 160V240 CAVOK 12/M01 Q1012",
      "taf": "TAF EPSY 161430Z 1615/1624 22010KT 9999 SCT040"
    },
    {
      "icao": "EPWA",
      "alert": "OK",
      "vis_m": 9999,
      "fzfg": false,
      "metar_trigger": false,
      "taf_trigger": false,
      "metar": "METAR EPWA 161430Z 20006KT 9999 BKN042 12/02 Q1013 NOSIG",
      "taf": "TAF EPWA 161430Z 1615/1715 18006KT 9999 BKN040"
    },
    {
      "icao": "EPWR",
      "alert": "OK",
      "vis_m": 9999,
      "fzfg": false,
      "metar_trigger": false,
      "taf_trigger": false,
      "metar": "METAR EPWR 161430Z 23012KT 200V260 CAVOK 10/01 Q1013",
      "taf": "TAF EPWR 161430Z 1615/1715 22010KT 9999 BKN045"
    },
    {
      "icao": "ESGG",
      "alert": "OK",
      "vis_m": 8000,
      "fzfg": false,
      "metar_trigger": false,
      "taf_trigger": false,
      "metar": "METAR ESGG 161420Z 20011KT 8000 DZ OVC006 03/02 Q1007",
      "taf": "TAF ESGG 161430Z 1615/1715 18010KT 9999 -RA BKN010"
    },
    {
      "icao": "ESKN",
      "alert": "OK",
      "vis_m": 9999,
      "fzfg": false,
      "metar_trigger": false,
      "taf_trigger": false,
      "metar": "METAR ESKN 161420Z 16009KT 140V200 9999 BKN013 05/02 Q1010",
      "taf": "TAF ESKN 161430Z 1615/1715 16010KT 9999 BKN015"
    },
    {
      "icao": "ESMS",
      "alert": "OK",
      "vis_m": 7000,
      "fzfg": false,
      "metar_trigger": false,
      "taf_trigger": false,
      "metar": "METAR ESMS 161420Z 23009KT 7000 -RA SCT007 BKN010 OVC013 03/03 Q1008",
      "taf": "TAF ESMS 161427Z 1615/1715 27008KT 4000 -RADZ BKN005"
    },
    {
      "icao": "ESSA",
      "alert": "OK",
      "vis_m": 9999,
      "fzfg": false,
      "metar_trigger": false,
      "taf_trigger": false,
      "metar": "METAR ESSA 161420Z 18017KT 9999 BKN017 05/01 Q1011 NOSIG",
      "taf": "TAF ESSA 161430Z 1615/1715 17012KT 9999 BKN016"
    },
    {
      "icao": "EYKA",
      "alert": "OK",
      "vis_m": 9999,
      "fzfg": false,
      "metar_trigger": false,
      "taf_trigger": false,
      "metar": "METAR EYKA 161450Z 15010KT 120V190 CAVOK 13/M04 Q1013",
      "taf": "TAF EYKA 161100Z 1612/1712 15010KT 8000 SCT045"
    },
    {
      "icao": "EYPA",
      "alert": "OK",
      "vis_m": 9999,
      "fzfg": false,
      "metar_trigger": false,
      "taf_trigger": false,
      "metar": "METAR EYPA 161450Z 01003KT 9999 -RA OVC010 04/03 Q1013",
      "taf": "TAF EYPA 161100Z 1612/1712 VRB04KT 5000 BR BKN005 OVC010"
    },
    {
      "icao": "EYVI",
      "alert": "OK",
      "vis_m": 9999,
      "fzfg": false,
      "metar_trigger": false,
      "taf_trigger": false,
      "metar": "METAR EYVI 161420Z 14014KT CAVOK 12/M02 Q1015 NOSIG",
      "taf": "TAF EYVI 161100Z 1612/1712 16012KT 9000 NSC"
    },
    {
      "icao": "GCFV",
      "alert": "OK",
      "vis_m": 9999,
      "fzfg": false,
      "metar_trigger": false,
      "taf_trigger": false,
      "metar": "METAR GCFV 161430Z 06006KT 030V100 9999 FEW025 20/12 Q1013",
      "taf": "TAF GCFV 161400Z 1615/1715 04009KT 9999 FEW025 TX23/1714Z TN16/1706Z"
    },
    {
      "icao": "GCLP",
      "alert": "OK",
      "vis_m": 9999,
      "fzfg": false,
      "metar_trigger": false,
      "taf_trigger": false,
      "metar": "METAR GCLP 161430Z 06010KT 9999 BKN023 20/13 Q1013 NOSIG",
      "taf": "TAF GCLP 161400Z 1615/1715 03009KT 9999 FEW025 TX23/1714Z TN16/1706Z"
    },
    {
      "icao": "GCTS",
      "alert": "OK",
      "vis_m": 9999,
      "fzfg": false,
      "metar_trigger": false,
      "taf_trigger": false,
      "metar": "METAR GCTS 161430Z 12011KT 100V160 9999 SCT024 BKN030 21/13 Q1013 NOSIG",
      "taf": "TAF GCTS 161400Z 1615/1715 16008KT 9999 BKN030 TX23/1714Z TN16/1706Z"
    },
    {
      "icao": "GMAD",
      "alert": "OK",
      "vis_m": 9999,
      "fzfg": false,
      "metar_trigger": false,
      "taf_trigger": false,
      "metar": "METAR GMAD 161430Z 27010KT 240V320 CAVOK 23/15 Q1012 NOSIG",
      "taf": "TAF GMAD 161100Z 1612/1718 28012KT 8000 SCT020"
    },
    {
      "icao": "GMMN",
      "alert": "OK",
      "vis_m": 9999,
      "fzfg": false,
      "metar_trigger": false,
      "taf_trigger": false,
      "metar": "METAR GMMN 161430Z 04005KT 330V100 CAVOK 23/18 Q1012 NOSIG",
      "taf": "TAF GMMN 161100Z 1612/1718 04012KT CAVOK"
    },
    {
      "icao": "GMMX",
      "alert": "OK",
      "vis_m": 9999,
      "fzfg": false,
      "metar_trigger": false,
      "taf_trigger": false,
      "metar": "METAR GMMX 161430Z 30007KT 250V340 CAVOK 25/13 Q1012 NOSIG",
      "taf": ""
    },
    {
      "icao": "HEGN",
      "alert": "OK",
      "vis_m": 9999,
      "fzfg": false,
      "metar_trigger": false,
      "taf_trigger": false,
      "metar": "METAR HEGN 161400Z 35010KT CAVOK 22/04 Q1010 NOSIG",
      "taf": "TAF HEGN 161100Z 1612/1718 35015KT CAVOK"
    },
    {
      "icao": "HEMA",
      "alert": "OK",
      "vis_m": 9999,
      "fzfg": false,
      "metar_trigger": false,
      "taf_trigger": false,
      "metar": "METAR HEMA 161400Z 01015KT CAVOK 21/10 Q1014 NOSIG",
      "taf": "TAF HEMA 161100Z 1612/1718 36016KT CAVOK"
    },
    {
      "icao": "HESH",
      "alert": "OK",
      "vis_m": 9999,
      "fzfg": false,
      "metar_trigger": false,
      "taf_trigger": false,
      "metar": "METAR HESH 161400Z 04011KT CAVOK 24/05 Q1012 NOSIG",
      "taf": "TAF HESH 161100Z 1612/1718 01014KT CAVOK"
    },
    {
      "icao": "HESX",
      "alert": "OK",
      "vis_m": 9999,
      "fzfg": false,
      "metar_trigger": false,
      "taf_trigger": false,
      "metar": "METAR HESX 161400Z 02003KT CAVOK 23/00 Q1013 NOSIG",
      "taf": "TAF HESX 161100Z 1612/1718 06009KT CAVOK"
    },
    {
      "icao": "LATI",
      "alert": "OK",
      "vis_m": 9999,
      "fzfg": false,
      "metar_trigger": false,
      "taf_trigger": false,
      "metar": "METAR LATI 161450Z 33009KT 9999 FEW160 18/05 Q1012 NOSIG",
      "taf": "TAF LATI 161100Z 1612/1712 34010KT CAVOK TX21/1612Z TN05/1705Z"
    },
    {
      "icao": "LBPD",
      "alert": "OK",
      "vis_m": 9999,
      "fzfg": false,
      "metar_trigger": false,
      "taf_trigger": false,
      "metar": "METAR LBPD 161430Z AUTO VRB02KT 9999 NCD 15/M02 Q1014 NOSIG",
      "taf": "TAF LBPD 161100Z 1612/1712 VRB03KT CAVOK"
    },
    {
      "icao": "LBSF",
      "alert": "OK",
      "vis_m": 9999,
      "fzfg": false,
      "metar_trigger": false,
      "taf_trigger": false,
      "metar": "METAR LBSF 161430Z 01005KT 300V100 CAVOK 14/M03 Q1014 NOSIG",
      "taf": "TAF LBSF 161100Z 1612/1712 VRB03KT 9999 BKN050"
    },
    {
      "icao": "LBWN",
      "alert": "OK",
      "vis_m": 9999,
      "fzfg": false,
      "metar_trigger": false,
      "taf_trigger": false,
      "metar": "METAR LBWN 161430Z AUTO 13006KT 9999 NSC 10/03 Q1017 NOSIG",
      "taf": "TAF LBWN 161100Z 1612/1712 11010KT 9999 SCT045"
    },
    {
      "icao": "LCLK",
      "alert": "OK",
      "vis_m": 9999,
      "fzfg": false,
      "metar_trigger": false,
      "taf_trigger": false,
      "metar": "METAR LCLK 161430Z 22017KT 9999 FEW025 19/13 Q1011 NOSIG",
      "taf": "TAF LCLK 161130Z 1612/1712 22020KT 9999 FEW025 SCT040"
    },
    {
      "icao": "LCPH",
      "alert": "OK",
      "vis_m": 9999,
      "fzfg": false,
      "metar_trigger": false,
      "taf_trigger": false,
      "metar": "METAR LCPH 161430Z 31013KT 260V330 9999 FEW025 SCT040 17/10 Q1013 NOSIG",
      "taf": "TAF LCPH 161130Z 1612/1712 29016KT 9999 FEW030 SCT040"
    },
    {
      "icao": "LEAL",
      "alert": "OK",
      "vis_m": 9999,
      "fzfg": false,
      "metar_trigger": false,
      "taf_trigger": false,
      "metar": "METAR LEAL 161430Z 18007KT 100V220 CAVOK 18/07 Q1021 NOSIG",
      "taf": "TAF LEAL 161100Z 1612/1712 20010KT CAVOK TX18/1612Z TN07/1706Z"
    },
    {
      "icao": "LEBB",
      "alert": "OK",
      "vis_m": 9999,
      "fzfg": false,
      "metar_trigger": false,
      "taf_trigger": false,
      "metar": "METAR LEBB 161430Z 01007KT 320V050 9999 FEW026 16/10 Q1024 NOSIG",
      "taf": "TAF LEBB 161100Z 1612/1712 11005KT 9999 FEW020 SCT040 TX24/1712Z TN05/1706Z"
    },
    {
      "icao": "LEBL",
      "alert": "OK",
      "vis_m": 9999,
      "fzfg": false,
      "metar_trigger": false,
      "taf_trigger": false,
      "metar": "METAR LEBL 161430Z 22012KT CAVOK 16/05 Q1019 NOSIG",
      "taf": "TAF LEBL 161100Z 1612/1712 22008KT CAVOK TX17/1613Z TN08/1706Z"
    },
    {
      "icao": "LECH",
      "alert": "OK",
      "vis_m": 9999,
      "fzfg": false,
      "metar_trigger": false,
      "taf_trigger": false,
      "metar": "METAR LECH 161430Z AUTO 11010KT 080V140 CAVOK 16/05 Q1020",
      "taf": ""
    },
    {
      "icao": "LEMD",
      "alert": "OK",
      "vis_m": 9999,
      "fzfg": false,
      "metar_trigger": false,
      "taf_trigger": false,
      "metar": "METAR LEMD 161430Z 27003KT 200V350 CAVOK 18/02 Q1020 NOSIG",
      "taf": "TAF LEMD 161100Z 1612/1718 VRB04KT CAVOK TX20/1615Z TN02/1706Z"
    },
    {
      "icao": "LEMG",
      "alert": "OK",
      "vis_m": 9999,
      "fzfg": false,
      "metar_trigger": false,
      "taf_trigger": false,
      "metar": "METAR LEMG 161430Z 10009KT 060V150 CAVOK 17/08 Q1021 NOSIG",
      "taf": "TAF LEMG 161100Z 1612/1712 13012KT CAVOK TX20/1614Z TN10/1707Z"
    },
    {
      "icao": "LEVC",
      "alert": "OK",
      "vis_m": 9999,
      "fzfg": false,
      "metar_trigger": false,
      "taf_trigger": false,
      "metar": "METAR LEVC 161430Z 11009KT CAVOK 19/02 Q1020 NOSIG",
      "taf": "TAF LEVC 161100Z 1612/1712 VRB04KT CAVOK TX20/1612Z TN07/1705Z"
    },
    {
      "icao": "LEXJ",
      "alert": "OK",
      "vis_m": 9999,
      "fzfg": false,
      "metar_trigger": false,
      "taf_trigger": false,
      "metar": "METAR LEXJ 161430Z 06007KT 020V110 9999 FEW021 13/08 Q1024",
      "taf": "TAF LEXJ 161400Z 1615/1715 06010KT 9999 FEW020 TX20/1713Z TN07/1706Z"
    },
    {
      "icao": "LEZG",
      "alert": "OK",
      "vis_m": 9999,
      "fzfg": false,
      "metar_trigger": false,
      "taf_trigger": false,
      "metar": "METAR LEZG 161430Z 29018KT 260V320 CAVOK 18/07 Q1021 NOSIG",
      "taf": "TAF LEZG 161100Z 1612/1712 30015KT CAVOK TX18/1614Z TN05/1706Z"
    },
    {
      "icao": "LEZL",
      "alert": "OK",
      "vis_m": 9999,
      "fzfg": false,
      "metar_trigger": false,
      "taf_trigger": false,
      "metar": "METAR LEZL 161430Z 07011KT 050V110 CAVOK 22/06 Q1018 NOSIG",
      "taf": "TAF LEZL 161400Z 1615/1715 06009KT CAVOK TX25/1715Z TN10/1707Z"
    },
    {
      "icao": "LFBD",
      "alert": "OK",
      "vis_m": 9999,
      "fzfg": false,
      "metar_trigger": false,
      "taf_trigger": false,
      "metar": "METAR LFBD 161430Z AUTO 32004KT 280V360 9999 FEW036 OVC043 15/06 Q1024 NOSIG",
      "taf": "TAF LFBD 161100Z 1612/1718 VRB03KT 9999 BKN030 TX19/1715Z TN04/1706Z"
    },
    {
      "icao": "LFLL",
      "alert": "OK",
      "vis_m": 9999,
      "fzfg": false,
      "metar_trigger": false,
      "taf_trigger": false,
      "metar": "METAR LFLL 161430Z VRB03KT 9999 OVC043 12/04 Q1022 NOSIG",
      "taf": "TAF LFLL 161100Z 1612/1718 35006KT 9999 BKN050"
    },
    {
      "icao": "LFLS",
      "alert": "OK",
      "vis_m": 9999,
      "fzfg": false,
      "metar_trigger": false,
      "taf_trigger": false,
      "metar": "METAR LFLS 161430Z AUTO 33008KT 9999 BKN045 13/04 Q1021 NOSIG",
      "taf": "TAF LFLS 161400Z 1615/1715 35008KT 9999 BKN045"
    },
    {
      "icao": "LFMN",
      "alert": "OK",
      "vis_m": 9999,
      "fzfg": false,
      "metar_trigger": false,
      "taf_trigger": false,
      "metar": "METAR LFMN 161430Z 19005KT CAVOK 17/10 Q1014 NOSIG",
      "taf": "TAF LFMN 161400Z 1615/1721 20008KT CAVOK"
    },
    {
      "icao": "LFOB",
      "alert": "OK",
      "vis_m": 9999,
      "fzfg": false,
      "metar_trigger": false,
      "taf_trigger": false,
      "metar": "METAR LFOB 161430Z AUTO 26010KT 230V300 9999 SCT031 BKN042 OVC049 11/05 Q1020 TEMPO 4000 SHRA BKN014 BKN020TCU",
      "taf": "TAF LFOB 161100Z 1612/1712 27012KT CAVOK"
    },
    {
      "icao": "LFPO",
      "alert": "OK",
      "vis_m": 9999,
      "fzfg": false,
      "metar_trigger": false,
      "taf_trigger": false,
      "metar": "METAR LFPO 161430Z 29009KT 9999 BKN040 BKN050 12/04 Q1021 NOSIG",
      "taf": "TAF LFPO 161100Z 1612/1718 27012KT 9999 FEW026 BKN043 BKN120"
    },
    {
      "icao": "LFSB",
      "alert": "OK",
      "vis_m": 9999,
      "fzfg": false,
      "metar_trigger": false,
      "taf_trigger": false,
      "metar": "METAR LFSB 161430Z AUTO 27010KT 9999 SCT025 SCT031 BKN058 09/05 Q1021 TEMPO FEW030TCU",
      "taf": "TAF LFSB 161100Z 1612/1712 27008KT 9999 FEW020 BKN033"
    },
    {
      "icao": "LGAV",
      "alert": "OK",
      "vis_m": 9999,
      "fzfg": false,
      "metar_trigger": false,
      "taf_trigger": false,
      "metar": "METAR LGAV 161420Z 03011KT 010V070 9999 FEW020 14/06 Q1016 NOSIG",
      "taf": "TAF LGAV 161100Z 1612/1712 03015KT 9999 FEW020 SCT030"
    },
    {
      "icao": "LGTS",
      "alert": "OK",
      "vis_m": 9999,
      "fzfg": false,
      "metar_trigger": false,
      "taf_trigger": false,
      "metar": "METAR LGTS 161420Z 18008KT 9999 FEW025 16/06 Q1015 NOSIG",
      "taf": "TAF LGTS 161100Z 1612/1712 14013KT 9999 SCT025"
    },
    {
      "icao": "LHBP",
      "alert": "OK",
      "vis_m": 9999,
      "fzfg": false,
      "metar_trigger": false,
      "taf_trigger": false,
      "metar": "METAR LHBP 161430Z 31016KT 9999 FEW052TCU SCT064 14/03 Q1015 NOSIG",
      "taf": "TAF LHBP 161115Z 1612/1712 21005KT CAVOK"
    },
    {
      "icao": "LHDC",
      "alert": "OK",
      "vis_m": 9999,
      "fzfg": false,
      "metar_trigger": false,
      "taf_trigger": false,
      "metar": "METAR LHDC 161415Z AUTO 20007KT 160V240 CAVOK 16/M01 Q1015 NOSIG",
      "taf": "TAF LHDC 161415Z 1615/1624 21009KT CAVOK"
    },
    {
      "icao": "LIBD",
      "alert": "OK",
      "vis_m": 9999,
      "fzfg": false,
      "metar_trigger": false,
      "taf_trigger": false,
      "metar": "METAR LIBD 161420Z 10009KT 9999 -RA FEW020 SCT045 14/11 Q1012",
      "taf": "TAF LIBD 161100Z 1612/1712 11010KT 9999 BKN030"
    },
    {
      "icao": "LIBG",
      "alert": "OK",
      "vis_m": 9999,
      "fzfg": false,
      "metar_trigger": false,
      "taf_trigger": false,
      "metar": "METAR LIBG 161350Z 08007KT 9999 SCT040 15/12 Q1011",
      "taf": "TAF LIBG 161400Z 1615/1624 10010KT 9999 BKN030"
    },
    {
      "icao": "LIBP",
      "alert": "OK",
      "vis_m": 9999,
      "fzfg": false,
      "metar_trigger": false,
      "taf_trigger": false,
      "metar": "METAR LIBP 161420Z AUTO 04009KT 9999 OVC120/// 15/12 Q1013",
      "taf": "TAF LIBP 161100Z 1612/1712 05010KT 9999 SCT040"
    },
    {
      "icao": "LIBR",
      "alert": "OK",
      "vis_m": 9999,
      "fzfg": false,
      "metar_trigger": false,
      "taf_trigger": false,
      "metar": "METAR LIBR 161420Z 12007KT CAVOK 16/11 Q1012",
      "taf": "TAF LIBR 161100Z 1612/1712 13012KT 9999 SCT030"
    },
    {
      "icao": "LICA",
      "alert": "OK",
      "vis_m": 9999,
      "fzfg": false,
      "metar_trigger": false,
      "taf_trigger": false,
      "metar": "METAR LICA 161420Z AUTO 08022KT 9999 -RA OVC020/// 15/12 Q1006",
      "taf": "TAF LICA 161100Z 1612/1712 08020G30KT 9999 BKN040"
    },
    {
      "icao": "LICC",
      "alert": "OK",
      "vis_m": 4000,
      "fzfg": false,
      "metar_trigger": false,
      "taf_trigger": false,
      "metar": "METAR LICC 161420Z 03015KT 4000 RA SCT015 BKN035 15/13 Q1002",
      "taf": "TAF LICC 161100Z 1612/1712 06018G30KT 9999 SCT025"
    },
    {
      "icao": "LICJ",
      "alert": "OK",
      "vis_m": 9999,
      "fzfg": false,
      "metar_trigger": false,
      "taf_trigger": false,
      "metar": "METAR LICJ 161420Z 06017KT 9999 SCT020 BKN070 15/10 Q1005",
      "taf": "TAF LICJ 161100Z 1612/1712 04018G30KT 9999 SCT030"
    },
    {
      "icao": "LIMC",
      "alert": "OK",
      "vis_m": 9999,
      "fzfg": false,
      "metar_trigger": false,
      "taf_trigger": false,
      "metar": "METAR LIMC 161420Z 31007KT 280V350 CAVOK 20/M04 Q1013 NOSIG",
      "taf": "TAF LIMC 161100Z 1612/1718 VRB05KT CAVOK"
    },
    {
      "icao": "LIME",
      "alert": "OK",
      "vis_m": 9999,
      "fzfg": false,
      "metar_trigger": false,
      "taf_trigger": false,
      "metar": "METAR LIME 161420Z 19007KT 160V220 9999 FEW045 18/06 Q1013 NOSIG",
      "taf": "TAF LIME 161100Z 1612/1712 VRB05KT CAVOK"
    },
    {
      "icao": "LIMF",
      "alert": "OK",
      "vis_m": 9999,
      "fzfg": false,
      "metar_trigger": false,
      "taf_trigger": false,
      "metar": "METAR LIMF 161420Z 06003KT 010V100 CAVOK 18/03 Q1014",
      "taf": "TAF LIMF 161100Z 1612/1712 VRB05KT CAVOK"
    },
    {
      "icao": "LIMJ",
      "alert": "OK",
      "vis_m": 9999,
      "fzfg": false,
      "metar_trigger": false,
      "taf_trigger": false,
      "metar": "METAR LIMJ 161420Z 05009KT 010V090 CAVOK 21/06 Q1012",
      "taf": "TAF LIMJ 161100Z 1612/1712 04014KT CAVOK"
    },
    {
      "icao": "LIPE",
      "alert": "OK",
      "vis_m": 9999,
      "fzfg": false,
      "metar_trigger": false,
      "taf_trigger": false,
      "metar": "METAR LIPE 161420Z 31004KT 270V340 CAVOK 18/08 Q1013",
      "taf": "TAF LIPE 161100Z 1612/1712 30008KT CAVOK"
    },
    {
      "icao": "LIPH",
      "alert": "OK",
      "vis_m": 9999,
      "fzfg": false,
      "metar_trigger": false,
      "taf_trigger": false,
      "metar": "METAR LIPH 161420Z 21007KT 150V240 CAVOK 19/06 Q1012",
      "taf": "TAF LIPH 161100Z 1612/1712 VRB05KT CAVOK"
    },
    {
      "icao": "LIPQ",
      "alert": "OK",
      "vis_m": 9999,
      "fzfg": false,
      "metar_trigger": false,
      "taf_trigger": false,
      "metar": "METAR LIPQ 161420Z AUTO 18005KT 140V210 9999 NCD 19/08 Q1013",
      "taf": "TAF LIPQ 161100Z 1612/1712 19007KT 9999 FEW060"
    },
    {
      "icao": "LIPR",
      "alert": "OK",
      "vis_m": 9999,
      "fzfg": false,
      "metar_trigger": false,
      "taf_trigger": false,
      "metar": "METAR LIPR 161420Z 03006KT CAVOK 15/10 Q1014",
      "taf": "TAF LIPR 161100Z 1612/1712 02010KT CAVOK"
    },
    {
      "icao": "LIPX",
      "alert": "OK",
      "vis_m": 9999,
      "fzfg": false,
      "metar_trigger": false,
      "taf_trigger": false,
      "metar": "METAR LIPX 161420Z 22009KT 190V250 CAVOK 18/08 Q1013",
      "taf": "TAF LIPX 161100Z 1612/1712 26010KT CAVOK"
    },
    {
      "icao": "LIPY",
      "alert": "OK",
      "vis_m": 9999,
      "fzfg": false,
      "metar_trigger": false,
      "taf_trigger": false,
      "metar": "METAR LIPY 161420Z AUTO 36007KT 9999 FEW008/// 14/12 Q1014",
      "taf": "TAF LIPY 161100Z 1612/1712 01010KT 9999 FEW050"
    },
    {
      "icao": "LIPZ",
      "alert": "OK",
      "vis_m": 9999,
      "fzfg": false,
      "metar_trigger": false,
      "taf_trigger": false,
      "metar": "METAR LIPZ 161420Z 19005KT CAVOK 18/09 Q1013 NOSIG",
      "taf": "TAF LIPZ 161100Z 1612/1718 16007KT CAVOK"
    },
    {
      "icao": "LIRF",
      "alert": "OK",
      "vis_m": 9999,
      "fzfg": false,
      "metar_trigger": false,
      "taf_trigger": false,
      "metar": "METAR LIRF 161420Z 29009KT 260V320 CAVOK 16/12 Q1010 BECMG 34012KT",
      "taf": "TAF LIRF 161100Z 1612/1718 15010KT 9999 SCT030"
    },
    {
      "icao": "LIRN",
      "alert": "OK",
      "vis_m": 9999,
      "fzfg": false,
      "metar_trigger": false,
      "taf_trigger": false,
      "metar": "METAR LIRN 161420Z 05014KT 9999 FEW045 18/08 Q1009 NOSIG",
      "taf": "TAF LIRN 161100Z 1612/1712 04014KT 9999 BKN040"
    },
    {
      "icao": "LIRP",
      "alert": "OK",
      "vis_m": 9999,
      "fzfg": false,
      "metar_trigger": false,
      "taf_trigger": false,
      "metar": "METAR LIRP 161415Z 31011KT 9999 FEW040 19/06 Q1012 NOSIG",
      "taf": "TAF LIRP 161100Z 1612/1712 31008KT 9999 FEW040"
    },
    {
      "icao": "LIRZ",
      "alert": "OK",
      "vis_m": 9999,
      "fzfg": false,
      "metar_trigger": false,
      "taf_trigger": false,
      "metar": "METAR LIRZ 161420Z AUTO 04012KT 9999 BKN060/// 18/06 Q1011",
      "taf": "TAF LIRZ 161100Z 1612/1712 02013KT 9999 FEW030"
    },
    {
      "icao": "LJLJ",
      "alert": "OK",
      "vis_m": 9999,
      "fzfg": false,
      "metar_trigger": false,
      "taf_trigger": false,
      "metar": "METAR LJLJ 161430Z 12005KT 9999 FEW050 BKN070 BKN120 14/02 Q1013 NOSIG",
      "taf": "TAF LJLJ 161100Z 1612/1712 10005KT 9999 FEW040"
    },
    {
      "icao": "LKMT",
      "alert": "OK",
      "vis_m": 9999,
      "fzfg": false,
      "metar_trigger": false,
      "taf_trigger": false,
      "metar": "METAR LKMT 161430Z 22014KT 9999 FEW024 08/02 Q1015 NOSIG",
      "taf": "TAF LKMT 161100Z 1612/1712 23012KT 9999 FEW012 BKN030"
    },
    {
      "icao": "LKPR",
      "alert": "OK",
      "vis_m": 9999,
      "fzfg": false,
      "metar_trigger": false,
      "taf_trigger": false,
      "metar": "METAR LKPR 161430Z 22015KT 9999 FEW025TCU BKN030 07/01 Q1014 NOSIG",
      "taf": "TAF LKPR 161400Z 1615/1721 23012KT 9999 SCT020 OVC030"
    },
    {
      "icao": "LLBG",
      "alert": "OK",
      "vis_m": 9999,
      "fzfg": false,
      "metar_trigger": false,
      "taf_trigger": false,
      "metar": "METAR LLBG 161420Z 29010KT 9999 SCT028 18/12 Q1015 NOSIG",
      "taf": "TAF LLBG 161103Z 1612/1712 28012KT 9999 SCT030 TX20/1612Z TN09/1703Z"
    },
    {
      "icao": "LMML",
      "alert": "OK",
      "vis_m": 9999,
      "fzfg": false,
      "metar_trigger": false,
      "taf_trigger": false,
      "metar": "METAR LMML 161445Z 11020KT 9999 FEW018 15/11 Q0998 NOSIG",
      "taf": ""
    },
    {
      "icao": "LOWW",
      "alert": "OK",
      "vis_m": 9999,
      "fzfg": false,
      "metar_trigger": false,
      "taf_trigger": false,
      "metar": "METAR LOWW 161420Z 22008KT CAVOK 09/03 Q1016 TEMPO 28010KT",
      "taf": "TAF LOWW 161415Z 1615/1721 28010KT 9999 FEW050 TX11/1615Z TN04/1704Z"
    },
    {
      "icao": "LPFR",
      "alert": "OK",
      "vis_m": 9999,
      "fzfg": false,
      "metar_trigger": false,
      "taf_trigger": false,
      "metar": "METAR LPFR 161430Z 10017KT CAVOK 20/06 Q1017",
      "taf": "TAF LPFR 161100Z 1612/1712 09013KT CAVOK"
    },
    {
      "icao": "LPMA",
      "alert": "OK",
      "vis_m": 9999,
      "fzfg": false,
      "metar_trigger": false,
      "taf_trigger": false,
      "metar": "METAR LPMA 161430Z 04006KT 350V080 9999 SCT015 BKN030 18/12 Q1015",
      "taf": "TAF LPMA 161100Z 1612/1712 02010KT 9999 SCT015 SCT030"
    },
    {
      "icao": "LPPR",
      "alert": "OK",
      "vis_m": 9999,
      "fzfg": false,
      "metar_trigger": false,
      "taf_trigger": false,
      "metar": "METAR LPPR 161430Z 26006KT 230V300 CAVOK 21/11 Q1019",
      "taf": "TAF LPPR 161100Z 1612/1712 08008KT CAVOK"
    },
    {
      "icao": "LPPS",
      "alert": "OK",
      "vis_m": 9999,
      "fzfg": false,
      "metar_trigger": false,
      "taf_trigger": false,
      "metar": "METAR LPPS 161430Z 12008KT 9999 FEW014 BKN030 17/12 Q1015",
      "taf": "TAF LPPS 161100Z 1612/1718 06008KT 9999 SCT012 BKN030"
    },
    {
      "icao": "LPPT",
      "alert": "OK",
      "vis_m": 9999,
      "fzfg": false,
      "metar_trigger": false,
      "taf_trigger": false,
      "metar": "METAR LPPT 161430Z 07006KT 030V190 CAVOK 21/10 Q1019",
      "taf": "TAF LPPT 161100Z 1612/1718 06010KT CAVOK"
    },
    {
      "icao": "LQBK",
      "alert": "OK",
      "vis_m": 9999,
      "fzfg": false,
      "metar_trigger": false,
      "taf_trigger": false,
      "metar": "METAR LQBK 161430Z 34004KT 290V040 CAVOK 17/M05 Q1014 NOSIG",
      "taf": "TAF LQBK 161100Z 1612/1712 06007KT CAVOK TX18/1613Z TN04/1706Z"
    },
    {
      "icao": "LQSA",
      "alert": "OK",
      "vis_m": 9999,
      "fzfg": false,
      "metar_trigger": false,
      "taf_trigger": false,
      "metar": "METAR LQSA 161430Z 30007KT 9999 SCT060 16/M02 Q1012 NOSIG",
      "taf": "TAF LQSA 161100Z 1612/1712 VRB02KT 9999 SCT050 TX17/1614Z TN04/1705Z"
    },
    {
      "icao": "LQTZ",
      "alert": "OK",
      "vis_m": 9999,
      "fzfg": false,
      "metar_trigger": false,
      "taf_trigger": false,
      "metar": "METAR LQTZ 161430Z 06007KT 020V100 CAVOK 16/M05 Q1014",
      "taf": "TAF LQTZ 161100Z 1612/1712 12005KT CAVOK TX16/1613Z TN02/1703Z"
    },
    {
      "icao": "LRBC",
      "alert": "OK",
      "vis_m": 9999,
      "fzfg": false,
      "metar_trigger": false,
      "taf_trigger": false,
      "metar": "METAR LRBC 161430Z 14004KT 070V170 9999 FEW063 12/M02 Q1017",
      "taf": "TAF LRBC 161400Z 1615/1624 VRB04KT CAVOK"
    },
    {
      "icao": "LRBS",
      "alert": "OK",
      "vis_m": 9999,
      "fzfg": false,
      "metar_trigger": false,
      "taf_trigger": false,
      "metar": "METAR LRBS 161430Z VRB02KT CAVOK 12/M01 Q1017 NOSIG",
      "taf": "TAF LRBS 161100Z 1612/1712 VRB04KT CAVOK"
    },
    {
      "icao": "LRBV",
      "alert": "OK",
      "vis_m": 9999,
      "fzfg": false,
      "metar_trigger": false,
      "taf_trigger": false,
      "metar": "METAR LRBV 161430Z 02004KT 9999 SCT068 11/M05 Q1015",
      "taf": "TAF LRBV 161400Z 1615/1624 VRB04KT 9999 BKN050"
    },
    {
      "icao": "LRCL",
      "alert": "OK",
      "vis_m": 9999,
      "fzfg": false,
      "metar_trigger": false,
      "taf_trigger": false,
      "metar": "METAR LRCL 161430Z VRB03KT CAVOK 13/M06 Q1015",
      "taf": "TAF LRCL 161400Z 1615/1624 VRB04KT CAVOK"
    },
    {
      "icao": "LRCV",
      "alert": "OK",
      "vis_m": 9999,
      "fzfg": false,
      "metar_trigger": false,
      "taf_trigger": false,
      "metar": "METAR LRCV 161430Z 12004KT 080V150 9999 SCT046 12/02 Q1017",
      "taf": "TAF LRCV 161400Z 1615/1624 VRB04KT CAVOK"
    },
    {
      "icao": "LRIA",
      "alert": "OK",
      "vis_m": 9999,
      "fzfg": false,
      "metar_trigger": false,
      "taf_trigger": false,
      "metar": "METAR LRIA 161430Z 09003KT 010V130 CAVOK 13/M02 Q1017",
      "taf": "TAF LRIA 161400Z 1615/1624 VRB04KT CAVOK"
    },
    {
      "icao": "LROP",
      "alert": "OK",
      "vis_m": 9999,
      "fzfg": false,
      "metar_trigger": false,
      "taf_trigger": false,
      "metar": "METAR LROP 161430Z 28003KT 230V320 CAVOK 12/M04 Q1017 NOSIG",
      "taf": "TAF LROP 161100Z 1612/1712 VRB04KT CAVOK"
    },
    {
      "icao": "LRSB",
      "alert": "OK",
      "vis_m": 9999,
      "fzfg": false,
      "metar_trigger": false,
      "taf_trigger": false,
      "metar": "METAR LRSB 161430Z VRB01KT 9999 FEW060 SCT065 12/M02 Q1015",
      "taf": "TAF LRSB 161100Z 1612/1712 VRB04KT CAVOK"
    },
    {
      "icao": "LRSM",
      "alert": "OK",
      "vis_m": 9999,
      "fzfg": false,
      "metar_trigger": false,
      "taf_trigger": false,
      "metar": "METAR LRSM 161430Z 26003KT 220V310 CAVOK 16/M03 Q1015",
      "taf": "TAF LRSM 161400Z 1615/1624 VRB04KT CAVOK"
    },
    {
      "icao": "LRSV",
      "alert": "OK",
      "vis_m": 9999,
      "fzfg": false,
      "metar_trigger": false,
      "taf_trigger": false,
      "metar": "METAR LRSV 161430Z 11009KT CAVOK 11/M02 Q1016",
      "taf": "TAF LRSV 161400Z 1615/1624 14008KT CAVOK"
    },
    {
      "icao": "LRTM",
      "alert": "OK",
      "vis_m": 9999,
      "fzfg": false,
      "metar_trigger": false,
      "taf_trigger": false,
      "metar": "METAR LRTM 161430Z 09003KT 050V150 CAVOK 13/M03 Q1015",
      "taf": "TAF LRTM 161400Z 1615/1624 VRB04KT CAVOK"
    },
    {
      "icao": "LRTR",
      "alert": "OK",
      "vis_m": 9999,
      "fzfg": false,
      "metar_trigger": false,
      "taf_trigger": false,
      "metar": "METAR LRTR 161430Z 25004KT 150V300 CAVOK 15/M00 Q1015",
      "taf": "TAF LRTR 161100Z 1612/1712 VRB04KT CAVOK"
    },
    {
      "icao": "LTAC",
      "alert": "OK",
      "vis_m": 9999,
      "fzfg": false,
      "metar_trigger": false,
      "taf_trigger": false,
      "metar": "METAR LTAC 161420Z 25008KT 9999 FEW040 13/M05 Q1011 NOSIG RMK RWY21C 23008KT RWY03L 23008KT RWY21R 24008KT 190V260 RWY03R 27006KT 230V300 RWY21L 23008KT",
      "taf": "TAF LTAC 161040Z 1612/1712 25012KT 9999 SCT040"
    },
    {
      "icao": "LTFM",
      "alert": "OK",
      "vis_m": 9999,
      "fzfg": false,
      "metar_trigger": false,
      "taf_trigger": false,
      "metar": "METAR LTFM 161420Z 01011KT 9999 FEW014 SCT020 08/04 Q1017 NOSIG RMK RWY17L 36010KT RWY34L 01010KT RWY16R 01010KT RWY36 01010KT RWY18 01010KT",
      "taf": ""
    },
    {
      "icao": "LUKK",
      "alert": "OK",
      "vis_m": 9999,
      "fzfg": false,
      "metar_trigger": false,
      "taf_trigger": false,
      "metar": "METAR LUKK 161430Z 09007KT CAVOK 12/M03 Q1017 NOSIG",
      "taf": "TAF LUKK 161116Z 1612/1712 08010KT CAVOK"
    },
    {
      "icao": "LWOH",
      "alert": "OK",
      "vis_m": 9999,
      "fzfg": false,
      "metar_trigger": false,
      "taf_trigger": false,
      "metar": "METAR LWOH 161450Z VRB02KT 9999 FEW040 15/00 Q1013",
      "taf": "TAF LWOH 161420Z 1615/1715 VRB02KT 9999 FEW040"
    },
    {
      "icao": "LWSK",
      "alert": "OK",
      "vis_m": 9999,
      "fzfg": false,
      "metar_trigger": false,
      "taf_trigger": false,
      "metar": "METAR LWSK 161420Z VRB03KT 9999 FEW040 18/04 Q1013 NOSIG",
      "taf": "TAF LWSK 161420Z 1615/1715 VRB02KT 9999 FEW040"
    },
    {
      "icao": "LYBE",
      "alert": "OK",
      "vis_m": 9999,
      "fzfg": false,
      "metar_trigger": false,
      "taf_trigger": false,
      "metar": "METAR LYBE 161430Z 09010KT 060V120 CAVOK 16/M02 Q1015 NOSIG",
      "taf": "TAF LYBE 161100Z 1612/1712 10006KT CAVOK TX17/1613Z TN02/1705Z"
    },
    {
      "icao": "LYNI",
      "alert": "OK",
      "vis_m": 9999,
      "fzfg": false,
      "metar_trigger": false,
      "taf_trigger": false,
      "metar": "METAR LYNI 161430Z 29004KT 230V330 9999 FEW050 17/01 Q1014 NOSIG",
      "taf": "TAF LYNI 161100Z 1612/1712 35004KT CAVOK TX18/1614Z TN01/1705Z"
    },
    {
      "icao": "LYPG",
      "alert": "OK",
      "vis_m": 9999,
      "fzfg": false,
      "metar_trigger": false,
      "taf_trigger": false,
      "metar": "METAR LYPG 161430Z 20005KT 170V240 9999 FEW043 20/03 Q1011 TEMPO 20015KT",
      "taf": "TAF LYPG 161100Z 1612/1712 16005KT 9999 FEW040 TX20/1613Z TN10/1622Z"
    },
    {
      "icao": "LZIB",
      "alert": "OK",
      "vis_m": 9999,
      "fzfg": false,
      "metar_trigger": false,
      "taf_trigger": false,
      "metar": "METAR LZIB 161430Z 22004KT 190V250 CAVOK 09/03 Q1017 NOSIG",
      "taf": ""
    },
    {
      "icao": "LZKZ",
      "alert": "OK",
      "vis_m": 9999,
      "fzfg": false,
      "metar_trigger": false,
      "taf_trigger": false,
      "metar": "METAR LZKZ 161430Z 18011KT CAVOK 15/M03 Q1014 NOSIG",
      "taf": "TAF LZKZ 161115Z 1612/1712 21010KT CAVOK"
    },
    {
      "icao": "LZTT",
      "alert": "OK",
      "vis_m": 9999,
      "fzfg": false,
      "metar_trigger": false,
      "taf_trigger": false,
      "metar": "METAR LZTT 161430Z 24010KT 9999 FEW053 12/M02 Q1012 NOSIG",
      "taf": "TAF LZTT 161115Z 1612/1712 24008KT 9999 FEW045 BKN070"
    },
    {
      "icao": "OEJN",
      "alert": "OK",
      "vis_m": 9999,
      "fzfg": false,
      "metar_trigger": false,
      "taf_trigger": false,
      "metar": "METAR OEJN 161400Z 30012KT CAVOK 29/15 Q1008 NOSIG",
      "taf": "TAF OEJN 161100Z 1612/1718 29012KT 7000 NSC"
    },
    {
      "icao": "OEMA",
      "alert": "OK",
      "vis_m": 9999,
      "fzfg": false,
      "metar_trigger": false,
      "taf_trigger": false,
      "metar": "METAR OEMA 161400Z 23016KT CAVOK 30/12 Q1012 NOSIG",
      "taf": "TAF OEMA 161100Z 1612/1718 28012KT 7000 SCT040"
    },
    {
      "icao": "OJAI",
      "alert": "OK",
      "vis_m": 4000,
      "fzfg": false,
      "metar_trigger": false,
      "taf_trigger": false,
      "metar": "METAR OJAI 161400Z 26011KT 4000 DU FEW030 15/05 Q1016 NOSIG",
      "taf": "TAF OJAI 161100Z 1612/1718 24012KT 5000 HZ BKN020"
    },
    {
      "icao": "OMAA",
      "alert": "OK",
      "vis_m": null,
      "fzfg": false,
      "metar_trigger": false,
      "taf_trigger": false,
      "metar": "",
      "taf": ""
    },
    {
      "icao": "OMDB",
      "alert": "OK",
      "vis_m": null,
      "fzfg": false,
      "metar_trigger": false,
      "taf_trigger": false,
      "metar": "",
      "taf": ""
    },
    {
      "icao": "UAAA",
      "alert": "OK",
      "vis_m": 5000,
      "fzfg": false,
      "metar_trigger": false,
      "taf_trigger": false,
      "metar": "METAR UAAA 161430Z 14001MPS 5000 FU SCT100 BKN200 04/M02 Q1022 NOSIG",
      "taf": "TAF UAAA 161102Z 1612/1712 17002MPS 9999 BKN100 TX10/1709Z TN00/1701Z"
    },
    {
      "icao": "UBBB",
      "alert": "OK",
      "vis_m": 9999,
      "fzfg": false,
      "metar_trigger": false,
      "taf_trigger": false,
      "metar": "METAR UBBB 161430Z 30012KT 9999 BKN019 09/06 Q1008 NOSIG",
      "taf": "TAF UBBB 161051Z 1612/1712 18005KT 9999 SCT030 TX12/1612Z TN06/1701Z"
    },
    {
      "icao": "UDSG",
      "alert": "OK",
      "vis_m": 9999,
      "fzfg": false,
      "metar_trigger": false,
      "taf_trigger": false,
      "metar": "METAR UDSG 161430Z 26007KT 9999 -SHRA SCT020CB OVC040 03/03 Q1011 NOSIG",
      "taf": "TAF UDSG 161058Z 1612/1712 VRB06KT 9999 BKN030"
    },
    {
      "icao": "UDYZ",
      "alert": "OK",
      "vis_m": 9999,
      "fzfg": false,
      "metar_trigger": false,
      "taf_trigger": false,
      "metar": "METAR UDYZ 161430Z 28008KT 9999 SCT///CB 13/03 Q1008 NOSIG",
      "taf": "TAF UDYZ 161100Z 1612/1712 24008KT 9999 SCT030"
    },
    {
      "icao": "UGKO",
      "alert": "OK",
      "vis_m": 9999,
      "fzfg": false,
      "metar_trigger": false,
      "taf_trigger": false,
      "metar": "METAR UGKO 161430Z 26009KT 9999 -RA SCT028 OVC051 08/07 Q1013 NOSIG",
      "taf": "TAF UGKO 161100Z 1612/1712 25007KT 9999 SCT023 OVC050 TX12/1711Z TN07/1703Z"
    }
  ]
}