{
  "ts_utc": "2026-04-17T10:43:41Z",
  "threshold_m": 150,
  "source": "stations_override.txt (ICAO list) + aviationweather.gov (METAR/TAF raw)",
  "station_count": 159,
  "stations": [
    {
      "icao": "BIKF",
      "alert": "OK",
      "vis_m": 9999,
      "fzfg": false,
      "metar_trigger": false,
      "taf_trigger": false,
      "metar": "METAR BIKF 171030Z 21006KT 180V240 9999 SCT020TCU 06/01 Q1000",
      "taf": "TAF BIKF 171035Z 1712/1812 22006KT 9999 -SHRA SCT015 BKN030 TX08/1713Z TN01/1806Z"
    },
    {
      "icao": "BKPR",
      "alert": "OK",
      "vis_m": 9999,
      "fzfg": false,
      "metar_trigger": false,
      "taf_trigger": false,
      "metar": "METAR BKPR 171030Z 36017KT 9999 FEW050 20/08 Q1016 NOSIG",
      "taf": "TAF BKPR 170530Z 1706/1806 01009KT 9999 FEW050"
    },
    {
      "icao": "EBCI",
      "alert": "OK",
      "vis_m": 9999,
      "fzfg": false,
      "metar_trigger": false,
      "taf_trigger": false,
      "metar": "METAR EBCI 171020Z 25004KT 180V330 9999 FEW045 18/05 Q1022 NOSIG",
      "taf": "TAF EBCI 170502Z 1706/1812 27004KT 9999 SCT040"
    },
    {
      "icao": "EDDB",
      "alert": "OK",
      "vis_m": 9999,
      "fzfg": false,
      "metar_trigger": false,
      "taf_trigger": false,
      "metar": "METAR EDDB 171020Z AUTO 34006KT 280V040 CAVOK 18/05 Q1023 NOSIG",
      "taf": "TAF EDDB 170500Z 1706/1806 35005KT CAVOK"
    },
    {
      "icao": "EDDH",
      "alert": "OK",
      "vis_m": 9999,
      "fzfg": false,
      "metar_trigger": false,
      "taf_trigger": false,
      "metar": "METAR EDDH 171020Z AUTO VRB03KT CAVOK 17/07 Q1023 BECMG 12006KT",
      "taf": "TAF EDDH 170500Z 1706/1812 VRB02KT 9999 FEW030"
    },
    {
      "icao": "EDDK",
      "alert": "OK",
      "vis_m": 9999,
      "fzfg": false,
      "metar_trigger": false,
      "taf_trigger": false,
      "metar": "METAR EDDK 171020Z AUTO VRB04KT CAVOK 18/10 Q1022 NOSIG",
      "taf": "TAF EDDK 170500Z 1706/1812 12003KT CAVOK"
    },
    {
      "icao": "EDDN",
      "alert": "OK",
      "vis_m": 9999,
      "fzfg": false,
      "metar_trigger": false,
      "taf_trigger": false,
      "metar": "METAR EDDN 171020Z AUTO VRB04KT 9999 FEW048 20/08 Q1022 NOSIG",
      "taf": "TAF EDDN 170500Z 1706/1806 VRB03KT CAVOK"
    },
    {
      "icao": "EDDS",
      "alert": "OK",
      "vis_m": 9999,
      "fzfg": false,
      "metar_trigger": false,
      "taf_trigger": false,
      "metar": "METAR EDDS 171020Z AUTO VRB03KT CAVOK 19/08 Q1021 NOSIG",
      "taf": "TAF EDDS 170500Z 1706/1806 VRB03KT CAVOK"
    },
    {
      "icao": "EDFH",
      "alert": "OK",
      "vis_m": 9999,
      "fzfg": false,
      "metar_trigger": false,
      "taf_trigger": false,
      "metar": "METAR EDFH 171020Z 29006KT 240V320 CAVOK 17/07 Q1022",
      "taf": "TAF EDFH 170500Z 1706/1806 VRB03KT CAVOK"
    },
    {
      "icao": "EDJA",
      "alert": "OK",
      "vis_m": 9999,
      "fzfg": false,
      "metar_trigger": false,
      "taf_trigger": false,
      "metar": "METAR EDJA 171020Z 05007KT 010V090 CAVOK 17/06 Q1022",
      "taf": "TAF EDJA 170800Z 1709/1718 06004KT CAVOK"
    },
    {
      "icao": "EDLW",
      "alert": "OK",
      "vis_m": 9999,
      "fzfg": false,
      "metar_trigger": false,
      "taf_trigger": false,
      "metar": "METAR EDLW 171020Z VRB03KT CAVOK 19/10 Q1021",
      "taf": "TAF EDLW 170500Z 1706/1806 16004KT CAVOK"
    },
    {
      "icao": "EDNY",
      "alert": "OK",
      "vis_m": 9999,
      "fzfg": false,
      "metar_trigger": false,
      "taf_trigger": false,
      "metar": "METAR EDNY 171020Z 23007KT CAVOK 16/09 Q1022",
      "taf": "TAF EDNY 170800Z 1709/1718 VRB02KT CAVOK"
    },
    {
      "icao": "EDSB",
      "alert": "OK",
      "vis_m": 9999,
      "fzfg": false,
      "metar_trigger": false,
      "taf_trigger": false,
      "metar": "METAR EDSB 171020Z 32004KT 260V360 CAVOK 18/11 Q1021",
      "taf": "TAF EDSB 170500Z 1706/1806 VRB03KT CAVOK"
    },
    {
      "icao": "EETN",
      "alert": "OK",
      "vis_m": 9999,
      "fzfg": false,
      "metar_trigger": false,
      "taf_trigger": false,
      "metar": "METAR EETN 171020Z 03011KT CAVOK 13/M00 Q1020 NOSIG",
      "taf": "TAF EETN 170530Z 1706/1806 03010KT 9999 SCT040"
    },
    {
      "icao": "EFTU",
      "alert": "OK",
      "vis_m": 9999,
      "fzfg": false,
      "metar_trigger": false,
      "taf_trigger": false,
      "metar": "METAR EFTU 171020Z AUTO 04007KT 340V090 CAVOK 15/M03 Q1021",
      "taf": "TAF EFTU 170829Z 1709/1809 03008KT CAVOK"
    },
    {
      "icao": "EGBB",
      "alert": "OK",
      "vis_m": 9999,
      "fzfg": false,
      "metar_trigger": false,
      "taf_trigger": false,
      "metar": "METAR EGBB 171020Z 17011KT 150V220 9999 BKN023 14/09 Q1017",
      "taf": "TAF EGBB 170526Z 1706/1806 19009KT 9999 SCT020"
    },
    {
      "icao": "EGGP",
      "alert": "OK",
      "vis_m": 9999,
      "fzfg": false,
      "metar_trigger": false,
      "taf_trigger": false,
      "metar": "METAR EGGP 171020Z 17011KT 150V220 9999 SCT039 13/09 Q1014",
      "taf": "TAF EGGP 170457Z 1706/1806 16012KT 9999 SCT030"
    },
    {
      "icao": "EGGW",
      "alert": "OK",
      "vis_m": 9999,
      "fzfg": false,
      "metar_trigger": false,
      "taf_trigger": false,
      "metar": "METAR EGGW 171020Z AUTO 21014KT 170V230 9999 FEW023 14/08 Q1019",
      "taf": ""
    },
    {
      "icao": "EGKK",
      "alert": "OK",
      "vis_m": 9999,
      "fzfg": false,
      "metar_trigger": false,
      "taf_trigger": false,
      "metar": "METAR EGKK 171020Z 19009KT 140V230 9999 FEW020 SCT023 14/10 Q1020",
      "taf": "TAF EGKK 170454Z 1706/1812 14003KT 9999 SCT035"
    },
    {
      "icao": "EGNM",
      "alert": "OK",
      "vis_m": 9999,
      "fzfg": false,
      "metar_trigger": false,
      "taf_trigger": false,
      "metar": "METAR EGNM 171020Z 19013KT 9999 SCT025 SCT034 12/07 Q1014",
      "taf": "TAF EGNM 170455Z 1706/1806 17006KT 9999 SCT025"
    },
    {
      "icao": "EGPD",
      "alert": "OK",
      "vis_m": 9999,
      "fzfg": false,
      "metar_trigger": false,
      "taf_trigger": false,
      "metar": "METAR EGPD 171020Z COR AUTO 16019KT 9999 OVC035 12/08 Q1009 NOSIG",
      "taf": "TAF EGPD 170459Z 1706/1806 17015G25KT 9999 BKN006"
    },
    {
      "icao": "EGPF",
      "alert": "OK",
      "vis_m": 9999,
      "fzfg": false,
      "metar_trigger": false,
      "taf_trigger": false,
      "metar": "METAR EGPF 171020Z AUTO 19013KT 9999 SCT018 BKN024 OVC033 13/10 Q1008",
      "taf": ""
    },
    {
      "icao": "EHBK",
      "alert": "OK",
      "vis_m": 9999,
      "fzfg": false,
      "metar_trigger": false,
      "taf_trigger": false,
      "metar": "METAR EHBK 171025Z AUTO VRB02KT 9999 SCT043/// 17/07 Q1022 NOSIG",
      "taf": "TAF EHBK 170449Z 1706/1812 24004KT CAVOK"
    },
    {
      "icao": "EHEH",
      "alert": "OK",
      "vis_m": 9999,
      "fzfg": false,
      "metar_trigger": false,
      "taf_trigger": false,
      "metar": "METAR EHEH 171025Z AUTO 28002KT 9999 SCT045 BKN050 BKN057 18/07 Q1022 BLU NOSIG RMK TREND REMOTE BY EHWX",
      "taf": "TAF EHEH 170507Z 1706/1812 VRB01KT CAVOK"
    },
    {
      "icao": "EKBI",
      "alert": "OK",
      "vis_m": 9999,
      "fzfg": false,
      "metar_trigger": false,
      "taf_trigger": false,
      "metar": "METAR EKBI 171020Z AUTO VRB02KT 9999 BKN009/// BKN059/// BKN220/// 10/08 Q1024",
      "taf": "TAF EKBI 170827Z 1709/1809 14007KT 9999 BKN005"
    },
    {
      "icao": "EKCH",
      "alert": "OK",
      "vis_m": 9999,
      "fzfg": false,
      "metar_trigger": false,
      "taf_trigger": false,
      "metar": "METAR EKCH 171020Z AUTO 14005KT 9999 NCD 11/04 Q1025 NOSIG",
      "taf": "TAF EKCH 170827Z 1709/1809 17006KT 9999 FEW030"
    },
    {
      "icao": "ENAL",
      "alert": "OK",
      "vis_m": 9999,
      "fzfg": false,
      "metar_trigger": false,
      "taf_trigger": false,
      "metar": "METAR ENAL 171020Z 06004KT CAVOK 13/01 Q1020",
      "taf": "TAF ENAL 170800Z 1709/1718 06005KT CAVOK"
    },
    {
      "icao": "ENBR",
      "alert": "OK",
      "vis_m": 9999,
      "fzfg": false,
      "metar_trigger": false,
      "taf_trigger": false,
      "metar": "METAR ENBR 171020Z 15014KT 9999 SCT043 12/03 Q1021 NOSIG RMK WIND 1200FT 14023KT",
      "taf": "TAF ENBR 170500Z 1706/1806 16008KT 9999 SCT045"
    },
    {
      "icao": "ENGM",
      "alert": "OK",
      "vis_m": 9999,
      "fzfg": false,
      "metar_trigger": false,
      "taf_trigger": false,
      "metar": "METAR ENGM 171020Z 18007KT 140V210 9999 FEW037 13/01 Q1024 NOSIG",
      "taf": "TAF ENGM 170500Z 1706/1806 01003KT 9999 FEW050"
    },
    {
      "icao": "ENHD",
      "alert": "OK",
      "vis_m": 9999,
      "fzfg": false,
      "metar_trigger": false,
      "taf_trigger": false,
      "metar": "METAR ENHD 171020Z 15012KT 120V190 CAVOK 12/05 Q1021",
      "taf": "TAF ENHD 170800Z 1709/1718 14012KT 9999 FEW040"
    },
    {
      "icao": "ENTC",
      "alert": "OK",
      "vis_m": 9999,
      "fzfg": false,
      "metar_trigger": false,
      "taf_trigger": false,
      "metar": "METAR ENTC 171020Z 21005KT CAVOK 06/M00 Q1025 NOSIG RMK WIND 2600FT 18011KT",
      "taf": "TAF ENTC 170500Z 1706/1806 04007KT CAVOK"
    },
    {
      "icao": "ENTO",
      "alert": "OK",
      "vis_m": 9999,
      "fzfg": false,
      "metar_trigger": false,
      "taf_trigger": false,
      "metar": "METAR ENTO 171020Z 17005KT 110V210 CAVOK 12/02 Q1025 NOSIG",
      "taf": "TAF ENTO 170500Z 1706/1806 VRB03KT 9999 FEW030"
    },
    {
      "icao": "ENVA",
      "alert": "OK",
      "vis_m": 9999,
      "fzfg": false,
      "metar_trigger": false,
      "taf_trigger": false,
      "metar": "METAR ENVA 171020Z 14008KT CAVOK 16/00 Q1022 NOSIG RMK WIND 670FT 15012KT",
      "taf": "TAF ENVA 170500Z 1706/1806 10008KT CAVOK"
    },
    {
      "icao": "ENZV",
      "alert": "OK",
      "vis_m": 9999,
      "fzfg": false,
      "metar_trigger": false,
      "taf_trigger": false,
      "metar": "METAR ENZV 171020Z 14014KT CAVOK 12/05 Q1021 NOSIG",
      "taf": "TAF ENZV 170500Z 1706/1806 16008KT 9999 FEW040"
    },
    {
      "icao": "EPGD",
      "alert": "OK",
      "vis_m": 9999,
      "fzfg": false,
      "metar_trigger": false,
      "taf_trigger": false,
      "metar": "METAR EPGD 171030Z 33008KT 9999 FEW029 11/04 Q1023",
      "taf": "TAF EPGD 170530Z 1706/1806 30008KT CAVOK"
    },
    {
      "icao": "EPKK",
      "alert": "OK",
      "vis_m": 9999,
      "fzfg": false,
      "metar_trigger": false,
      "taf_trigger": false,
      "metar": "METAR EPKK 171030Z 33008KT 310V010 9999 SCT045 BKN056 15/04 Q1021",
      "taf": "TAF EPKK 170830Z 1709/1809 28006KT CAVOK"
    },
    {
      "icao": "EPKT",
      "alert": "OK",
      "vis_m": 9999,
      "fzfg": false,
      "metar_trigger": false,
      "taf_trigger": false,
      "metar": "METAR EPKT 171030Z 30007KT 260V340 9999 SCT039 15/05 Q1021",
      "taf": "TAF EPKT 170530Z 1706/1806 VRB02KT CAVOK"
    },
    {
      "icao": "EPLB",
      "alert": "OK",
      "vis_m": 9999,
      "fzfg": false,
      "metar_trigger": false,
      "taf_trigger": false,
      "metar": "METAR EPLB 171030Z 30009KT 9999 FEW045 13/01 Q1019",
      "taf": "TAF EPLB 170530Z 1706/1806 32010KT CAVOK"
    },
    {
      "icao": "EPMO",
      "alert": "OK",
      "vis_m": 9999,
      "fzfg": false,
      "metar_trigger": false,
      "taf_trigger": false,
      "metar": "METAR EPMO 171030Z 32009KT 280V350 CAVOK 12/02 Q1021",
      "taf": "TAF EPMO 170530Z 1706/1806 33008KT CAVOK"
    },
    {
      "icao": "EPPO",
      "alert": "OK",
      "vis_m": 9999,
      "fzfg": false,
      "metar_trigger": false,
      "taf_trigger": false,
      "metar": "METAR EPPO 171030Z 09006KT 060V130 CAVOK 15/01 Q1023",
      "taf": ""
    },
    {
      "icao": "EPRA",
      "alert": "OK",
      "vis_m": 9999,
      "fzfg": false,
      "metar_trigger": false,
      "taf_trigger": false,
      "metar": "METAR EPRA 171030Z 01010KT 330V040 CAVOK 14/M02 Q1020",
      "taf": "TAF EPRA 170830Z 1709/1718 33012KT CAVOK"
    },
    {
      "icao": "EPRZ",
      "alert": "OK",
      "vis_m": 9999,
      "fzfg": false,
      "metar_trigger": false,
      "taf_trigger": false,
      "metar": "METAR EPRZ 171030Z 30012KT 270V330 CAVOK 16/04 Q1019",
      "taf": "TAF EPRZ 170530Z 1706/1806 26005KT CAVOK"
    },
    {
      "icao": "EPSC",
      "alert": "OK",
      "vis_m": 9999,
      "fzfg": false,
      "metar_trigger": false,
      "taf_trigger": false,
      "metar": "METAR EPSC 171030Z 31005KT 190V330 CAVOK 14/00 Q1024",
      "taf": "TAF EPSC 170530Z 1706/1806 36003KT CAVOK"
    },
    {
      "icao": "EPSY",
      "alert": "OK",
      "vis_m": 9999,
      "fzfg": false,
      "metar_trigger": false,
      "taf_trigger": false,
      "metar": "METAR EPSY 171030Z 33009KT 290V010 9999 BKN010 07/04 Q1021",
      "taf": "TAF EPSY 170830Z 1709/1718 33010KT 9999 BKN010"
    },
    {
      "icao": "EPWA",
      "alert": "OK",
      "vis_m": 9999,
      "fzfg": false,
      "metar_trigger": false,
      "taf_trigger": false,
      "metar": "METAR EPWA 171030Z 33015KT CAVOK 14/M01 Q1020 NOSIG",
      "taf": "TAF EPWA 170830Z 1709/1809 32010KT CAVOK"
    },
    {
      "icao": "EPWR",
      "alert": "OK",
      "vis_m": 9999,
      "fzfg": false,
      "metar_trigger": false,
      "taf_trigger": false,
      "metar": "METAR EPWR 171030Z 33009KT 310V020 9999 FEW042 SCT048 18/06 Q1022",
      "taf": "TAF EPWR 170830Z 1709/1809 29006KT CAVOK"
    },
    {
      "icao": "ESGG",
      "alert": "OK",
      "vis_m": 9999,
      "fzfg": false,
      "metar_trigger": false,
      "taf_trigger": false,
      "metar": "METAR ESGG 171020Z VRB04KT 9999 FEW048 14/02 Q1024",
      "taf": "TAF ESGG 170830Z 1709/1809 11005KT CAVOK"
    },
    {
      "icao": "ESKN",
      "alert": "OK",
      "vis_m": 9999,
      "fzfg": false,
      "metar_trigger": false,
      "taf_trigger": false,
      "metar": "METAR ESKN 171020Z 01004KT 320V080 CAVOK 13/02 Q1024",
      "taf": "TAF ESKN 170830Z 1709/1809 36008KT CAVOK"
    },
    {
      "icao": "ESMS",
      "alert": "OK",
      "vis_m": 9999,
      "fzfg": false,
      "metar_trigger": false,
      "taf_trigger": false,
      "metar": "METAR ESMS 171020Z 21005KT 180V280 CAVOK 14/04 Q1024",
      "taf": "TAF ESMS 170827Z 1709/1809 25005KT 9999 SCT040"
    },
    {
      "icao": "ESSA",
      "alert": "OK",
      "vis_m": 9999,
      "fzfg": false,
      "metar_trigger": false,
      "taf_trigger": false,
      "metar": "METAR ESSA 171020Z 36007KT CAVOK 11/01 Q1024 NOSIG",
      "taf": "TAF ESSA 170830Z 1709/1809 35006KT CAVOK"
    },
    {
      "icao": "EYKA",
      "alert": "OK",
      "vis_m": 9999,
      "fzfg": false,
      "metar_trigger": false,
      "taf_trigger": false,
      "metar": "METAR EYKA 171020Z 33005KT 280V030 9999 OVC013 09/07 Q1018",
      "taf": "TAF EYKA 170512Z 1706/1806 VRB04KT 5000 BR BKN005 OVC010"
    },
    {
      "icao": "EYPA",
      "alert": "OK",
      "vis_m": 9999,
      "fzfg": false,
      "metar_trigger": false,
      "taf_trigger": false,
      "metar": "METAR EYPA 171020Z 32004KT 270V070 9999 BKN014 08/05 Q1021",
      "taf": ""
    },
    {
      "icao": "EYVI",
      "alert": "OK",
      "vis_m": 1700,
      "fzfg": false,
      "metar_trigger": false,
      "taf_trigger": false,
      "metar": "METAR EYVI 171020Z 31007KT 280V340 1700 BR OVC002 07/07 Q1017 NOSIG",
      "taf": ""
    },
    {
      "icao": "GCFV",
      "alert": "OK",
      "vis_m": 8000,
      "fzfg": false,
      "metar_trigger": false,
      "taf_trigger": false,
      "metar": "METAR GCFV 171030Z 04007KT 8000 NSC 20/16 Q1015",
      "taf": "TAF GCFV 170800Z 1709/1809 05010KT 8000 NSC TX25/1714Z TN18/1806Z"
    },
    {
      "icao": "GCLP",
      "alert": "OK",
      "vis_m": 9999,
      "fzfg": false,
      "metar_trigger": false,
      "taf_trigger": false,
      "metar": "METAR GCLP 171030Z 02014KT 9999 FEW017 21/16 Q1015 NOSIG",
      "taf": "TAF GCLP 170800Z 1709/1809 02014KT 8000 NSC TX24/1714Z TN20/1806Z"
    },
    {
      "icao": "GCTS",
      "alert": "OK",
      "vis_m": 9999,
      "fzfg": false,
      "metar_trigger": false,
      "taf_trigger": false,
      "metar": "METAR GCTS 171030Z 08012KT 050V110 CAVOK 23/14 Q1015 NOSIG",
      "taf": "TAF GCTS 170800Z 1709/1809 09018KT 8000 NSC TX26/1714Z TN19/1806Z"
    },
    {
      "icao": "GMAD",
      "alert": "OK",
      "vis_m": 8000,
      "fzfg": false,
      "metar_trigger": false,
      "taf_trigger": false,
      "metar": "METAR GMAD 171030Z 06007KT 020V100 8000 NSC 31/06 Q1014 NOSIG",
      "taf": "TAF GMAD 170500Z 1706/1812 07004KT 8000 SCT010"
    },
    {
      "icao": "GMMN",
      "alert": "OK",
      "vis_m": 9999,
      "fzfg": false,
      "metar_trigger": false,
      "taf_trigger": false,
      "metar": "METAR GMMN 171030Z VRB03KT CAVOK 27/17 Q1016 NOSIG",
      "taf": "TAF GMMN 170500Z 1706/1812 18005KT 5000 NSC"
    },
    {
      "icao": "GMMX",
      "alert": "OK",
      "vis_m": 9999,
      "fzfg": false,
      "metar_trigger": false,
      "taf_trigger": false,
      "metar": "METAR GMMX 171030Z VRB03KT CAVOK 27/13 Q1016 NOSIG",
      "taf": "TAF GMMX 170500Z 1706/1812 06006KT CAVOK"
    },
    {
      "icao": "HEGN",
      "alert": "OK",
      "vis_m": null,
      "fzfg": false,
      "metar_trigger": false,
      "taf_trigger": false,
      "metar": "",
      "taf": "TAF HEGN 170600Z 1706/1812 12008G20KT 6000 SCT025"
    },
    {
      "icao": "HEMA",
      "alert": "OK",
      "vis_m": null,
      "fzfg": false,
      "metar_trigger": false,
      "taf_trigger": false,
      "metar": "",
      "taf": "TAF HEMA 170600Z 1706/1812 12008G20KT 6000 SCT025"
    },
    {
      "icao": "HESH",
      "alert": "OK",
      "vis_m": null,
      "fzfg": false,
      "metar_trigger": false,
      "taf_trigger": false,
      "metar": "",
      "taf": "TAF HESH 170600Z 1706/1812 12008G20KT 6000 SCT025"
    },
    {
      "icao": "HESX",
      "alert": "OK",
      "vis_m": null,
      "fzfg": false,
      "metar_trigger": false,
      "taf_trigger": false,
      "metar": "",
      "taf": "TAF HESX 170600Z 1706/1812 25020KT 6000 NSC"
    },
    {
      "icao": "LATI",
      "alert": "OK",
      "vis_m": 9999,
      "fzfg": false,
      "metar_trigger": false,
      "taf_trigger": false,
      "metar": "METAR LATI 171020Z 30006KT 260V340 CAVOK 27/09 Q1011 NOSIG",
      "taf": "TAF LATI 170500Z 1706/1806 VRB05KT CAVOK TX28/1712Z TN11/1804Z"
    },
    {
      "icao": "LBPD",
      "alert": "OK",
      "vis_m": 9999,
      "fzfg": false,
      "metar_trigger": false,
      "taf_trigger": false,
      "metar": "METAR LBPD 171030Z AUTO 11007KT 060V160 9999 NCD 19/02 Q1015 NOSIG",
      "taf": "TAF LBPD 170500Z 1706/1806 VRB03KT 9999 SCT050 BKN070"
    },
    {
      "icao": "LBSF",
      "alert": "OK",
      "vis_m": 9999,
      "fzfg": false,
      "metar_trigger": false,
      "taf_trigger": false,
      "metar": "METAR LBSF 171030Z VRB05KT 9999 FEW079 21/06 Q1015 NOSIG",
      "taf": "TAF LBSF 170500Z 1706/1806 VRB03KT 9999 SCT050 BKN070"
    },
    {
      "icao": "LBWN",
      "alert": "OK",
      "vis_m": 9999,
      "fzfg": false,
      "metar_trigger": false,
      "taf_trigger": false,
      "metar": "METAR LBWN 171030Z 11010KT CAVOK 17/01 Q1017 NOSIG",
      "taf": "TAF LBWN 170500Z 1706/1806 VRB03KT 9999 SCT020"
    },
    {
      "icao": "LCLK",
      "alert": "OK",
      "vis_m": 9999,
      "fzfg": false,
      "metar_trigger": false,
      "taf_trigger": false,
      "metar": "METAR LCLK 171030Z 04017KT 9999 FEW035CB SCT060 22/17 Q1003 NOSIG RMK CB TO N",
      "taf": ""
    },
    {
      "icao": "LCPH",
      "alert": "OK",
      "vis_m": 9999,
      "fzfg": false,
      "metar_trigger": false,
      "taf_trigger": false,
      "metar": "METAR LCPH 171030Z 15023G34KT 9999 FEW050CB 27/16 Q1001 NOSIG",
      "taf": ""
    },
    {
      "icao": "LEAL",
      "alert": "OK",
      "vis_m": 9999,
      "fzfg": false,
      "metar_trigger": false,
      "taf_trigger": false,
      "metar": "METAR LEAL 171030Z 09008KT 060V120 CAVOK 21/14 Q1020 NOSIG",
      "taf": "TAF LEAL 170500Z 1706/1806 23003KT 9999 FEW030 TX22/1713Z TN11/1706Z"
    },
    {
      "icao": "LEBB",
      "alert": "OK",
      "vis_m": 9999,
      "fzfg": false,
      "metar_trigger": false,
      "taf_trigger": false,
      "metar": "METAR LEBB 171030Z VRB02KT CAVOK 20/15 Q1020 NOSIG",
      "taf": "TAF LEBB 170500Z 1706/1806 31009KT 9999 SCT030 TX20/1710Z TN12/1706Z"
    },
    {
      "icao": "LEBL",
      "alert": "OK",
      "vis_m": 9999,
      "fzfg": false,
      "metar_trigger": false,
      "taf_trigger": false,
      "metar": "METAR LEBL 171030Z 20007KT 170V230 CAVOK 19/12 Q1020 NOSIG",
      "taf": ""
    },
    {
      "icao": "LECH",
      "alert": "OK",
      "vis_m": 9000,
      "fzfg": false,
      "metar_trigger": false,
      "taf_trigger": false,
      "metar": "METAR LECH 171030Z AUTO 11008KT 070V150 9000 NCD 21/11 Q1020",
      "taf": "TAF LECH 170500Z 1706/1806 VRB03KT 9999 FEW030 TX26/1713Z TN10/1706Z"
    },
    {
      "icao": "LEMD",
      "alert": "OK",
      "vis_m": 9999,
      "fzfg": false,
      "metar_trigger": false,
      "taf_trigger": false,
      "metar": "METAR LEMD 171030Z 15001KT CAVOK 21/06 Q1021 NOSIG",
      "taf": "TAF LEMD 170500Z 1706/1812 VRB04KT CAVOK TX27/1716Z TN09/1706Z"
    },
    {
      "icao": "LEMG",
      "alert": "OK",
      "vis_m": 9999,
      "fzfg": false,
      "metar_trigger": false,
      "taf_trigger": false,
      "metar": "METAR LEMG 171030Z 12006KT 080V150 CAVOK 20/11 Q1020 NOSIG",
      "taf": "TAF LEMG 170500Z 1706/1806 29005KT CAVOK TX24/1714Z TN15/1707Z"
    },
    {
      "icao": "LEVC",
      "alert": "OK",
      "vis_m": 9999,
      "fzfg": false,
      "metar_trigger": false,
      "taf_trigger": false,
      "metar": "METAR LEVC 171030Z 15003KT 9999 FEW045 22/11 Q1020 NOSIG",
      "taf": "TAF LEVC 170500Z 1706/1806 10007KT 9999 FEW030 TX24/1713Z TN10/1706Z"
    },
    {
      "icao": "LEXJ",
      "alert": "OK",
      "vis_m": 4000,
      "fzfg": false,
      "metar_trigger": false,
      "taf_trigger": false,
      "metar": "METAR LEXJ 171030Z 07004KT 360V150 4000 BR BKN003 BKN005 15/13 Q1021",
      "taf": ""
    },
    {
      "icao": "LEZG",
      "alert": "OK",
      "vis_m": 9999,
      "fzfg": false,
      "metar_trigger": false,
      "taf_trigger": false,
      "metar": "METAR LEZG 171030Z 33003KT CAVOK 20/12 Q1020 NOSIG",
      "taf": "TAF LEZG 170500Z 1706/1806 28004KT 9999 FEW040 TX30/1713Z TN11/1706Z"
    },
    {
      "icao": "LEZL",
      "alert": "OK",
      "vis_m": 9999,
      "fzfg": false,
      "metar_trigger": false,
      "taf_trigger": false,
      "metar": "METAR LEZL 171030Z 06007KT 030V120 CAVOK 27/12 Q1018 NOSIG",
      "taf": "TAF LEZL 170800Z 1709/1809 08005KT CAVOK TX31/1715Z TN14/1806Z"
    },
    {
      "icao": "LFBD",
      "alert": "OK",
      "vis_m": 9999,
      "fzfg": false,
      "metar_trigger": false,
      "taf_trigger": false,
      "metar": "METAR LFBD 171030Z AUTO 17008KT 140V220 CAVOK 22/11 Q1020 NOSIG",
      "taf": "TAF LFBD 170500Z 1706/1812 VRB03KT CAVOK TX26/1715Z TN10/1706Z"
    },
    {
      "icao": "LFLL",
      "alert": "OK",
      "vis_m": 9999,
      "fzfg": false,
      "metar_trigger": false,
      "taf_trigger": false,
      "metar": "METAR LFLL 171030Z VRB04KT CAVOK 18/11 Q1021 NOSIG",
      "taf": "TAF LFLL 170500Z 1706/1812 VRB02KT CAVOK"
    },
    {
      "icao": "LFLS",
      "alert": "OK",
      "vis_m": 9999,
      "fzfg": false,
      "metar_trigger": false,
      "taf_trigger": false,
      "metar": "METAR LFLS 171030Z AUTO 32005KT 230V020 CAVOK 19/11 Q1020 NOSIG",
      "taf": "TAF LFLS 170800Z 1709/1809 VRB02KT CAVOK"
    },
    {
      "icao": "LFMN",
      "alert": "OK",
      "vis_m": 9999,
      "fzfg": false,
      "metar_trigger": false,
      "taf_trigger": false,
      "metar": "METAR LFMN 171030Z 18005KT CAVOK 21/15 Q1018 NOSIG",
      "taf": "TAF LFMN 170800Z 1709/1815 16005KT CAVOK"
    },
    {
      "icao": "LFOB",
      "alert": "OK",
      "vis_m": 9999,
      "fzfg": false,
      "metar_trigger": false,
      "taf_trigger": false,
      "metar": "METAR LFOB 171030Z AUTO 24006KT 140V280 CAVOK 17/09 Q1022 NOSIG",
      "taf": "TAF LFOB 170500Z 1706/1806 VRB03KT CAVOK"
    },
    {
      "icao": "LFPO",
      "alert": "OK",
      "vis_m": 9999,
      "fzfg": false,
      "metar_trigger": false,
      "taf_trigger": false,
      "metar": "METAR LFPO 171030Z 14003KT 040V190 CAVOK 19/08 Q1022 NOSIG",
      "taf": "TAF LFPO 170500Z 1706/1812 24002KT CAVOK"
    },
    {
      "icao": "LFSB",
      "alert": "OK",
      "vis_m": 9999,
      "fzfg": false,
      "metar_trigger": false,
      "taf_trigger": false,
      "metar": "METAR LFSB 171030Z AUTO 30003KT 250V350 CAVOK 18/09 Q1021 NOSIG",
      "taf": "TAF LFSB 170500Z 1706/1806 VRB03KT CAVOK"
    },
    {
      "icao": "LGAV",
      "alert": "OK",
      "vis_m": 9999,
      "fzfg": false,
      "metar_trigger": false,
      "taf_trigger": false,
      "metar": "METAR LGAV 171020Z 01015KT 330V040 9999 FEW025 20/05 Q1009 NOSIG",
      "taf": "TAF LGAV 170500Z 1706/1806 01015KT 9999 FEW020 SCT040"
    },
    {
      "icao": "LGTS",
      "alert": "OK",
      "vis_m": 9999,
      "fzfg": false,
      "metar_trigger": false,
      "taf_trigger": false,
      "metar": "METAR LGTS 171020Z 28003KT 9999 FEW025 20/13 Q1013 NOSIG",
      "taf": "TAF LGTS 170500Z 1706/1806 VRB03KT 9999 FEW025"
    },
    {
      "icao": "LHBP",
      "alert": "OK",
      "vis_m": 9999,
      "fzfg": false,
      "metar_trigger": false,
      "taf_trigger": false,
      "metar": "METAR LHBP 171030Z 34010KT 310V010 CAVOK 21/02 Q1019 NOSIG",
      "taf": "TAF LHBP 170515Z 1706/1806 33003KT CAVOK"
    },
    {
      "icao": "LHDC",
      "alert": "OK",
      "vis_m": 9999,
      "fzfg": false,
      "metar_trigger": false,
      "taf_trigger": false,
      "metar": "METAR LHDC 171015Z AUTO 36011KT 320V050 CAVOK 20/05 Q1018 NOSIG",
      "taf": "TAF LHDC 170815Z 1709/1718 01009KT CAVOK"
    },
    {
      "icao": "LIBD",
      "alert": "OK",
      "vis_m": 9999,
      "fzfg": false,
      "metar_trigger": false,
      "taf_trigger": false,
      "metar": "METAR LIBD 171020Z 32010KT 290V350 CAVOK 21/13 Q1015",
      "taf": "TAF LIBD 170500Z 1706/1806 28007KT CAVOK"
    },
    {
      "icao": "LIBG",
      "alert": "OK",
      "vis_m": 9999,
      "fzfg": false,
      "metar_trigger": false,
      "taf_trigger": false,
      "metar": "METAR LIBG 170950Z 34009KT CAVOK 23/15 Q1014",
      "taf": "TAF LIBG 170800Z 1709/1718 36014KT 9999 FEW040"
    },
    {
      "icao": "LIBP",
      "alert": "OK",
      "vis_m": 9999,
      "fzfg": false,
      "metar_trigger": false,
      "taf_trigger": false,
      "metar": "METAR LIBP 171020Z AUTO 01009KT 330V050 9999 NCD 22/12 Q1018",
      "taf": "TAF LIBP 170500Z 1706/1806 VRB05KT CAVOK"
    },
    {
      "icao": "LIBR",
      "alert": "OK",
      "vis_m": 9999,
      "fzfg": false,
      "metar_trigger": false,
      "taf_trigger": false,
      "metar": "METAR LIBR 171020Z 32018KT CAVOK 18/14 Q1013",
      "taf": "TAF LIBR 170500Z 1706/1806 33015KT CAVOK"
    },
    {
      "icao": "LICA",
      "alert": "OK",
      "vis_m": 9999,
      "fzfg": false,
      "metar_trigger": false,
      "taf_trigger": false,
      "metar": "METAR LICA 171020Z AUTO 24009KT 9999 OVC032/// 18/16 Q1015",
      "taf": "TAF LICA 170500Z 1706/1806 VRB05KT 9999 SCT020"
    },
    {
      "icao": "LICC",
      "alert": "OK",
      "vis_m": 9999,
      "fzfg": false,
      "metar_trigger": false,
      "taf_trigger": false,
      "metar": "METAR LICC 171020Z VRB02KT CAVOK 22/20 Q1014",
      "taf": "TAF LICC 170500Z 1706/1806 28006KT CAVOK"
    },
    {
      "icao": "LICJ",
      "alert": "OK",
      "vis_m": 9999,
      "fzfg": false,
      "metar_trigger": false,
      "taf_trigger": false,
      "metar": "METAR LICJ 171020Z 31004KT CAVOK 18/15 Q1016",
      "taf": "TAF LICJ 170500Z 1706/1806 VRB05KT CAVOK"
    },
    {
      "icao": "LIMC",
      "alert": "OK",
      "vis_m": 9999,
      "fzfg": false,
      "metar_trigger": false,
      "taf_trigger": false,
      "metar": "METAR LIMC 171020Z VRB04KT 9999 SCT040 21/11 Q1020 NOSIG",
      "taf": "TAF LIMC 170500Z 1706/1812 VRB05KT 9999 FEW040"
    },
    {
      "icao": "LIME",
      "alert": "OK",
      "vis_m": 9999,
      "fzfg": false,
      "metar_trigger": false,
      "taf_trigger": false,
      "metar": "METAR LIME 171020Z 16003KT 080V230 9999 FEW045 21/11 Q1020 NOSIG",
      "taf": "TAF LIME 170500Z 1706/1806 VRB05KT 9999 FEW050"
    },
    {
      "icao": "LIMF",
      "alert": "OK",
      "vis_m": 8000,
      "fzfg": false,
      "metar_trigger": false,
      "taf_trigger": false,
      "metar": "METAR LIMF 171020Z 09006KT 050V120 8000 SCT040 20/14 Q1020",
      "taf": "TAF LIMF 170500Z 1706/1806 VRB05KT 9999 FEW040"
    },
    {
      "icao": "LIMJ",
      "alert": "OK",
      "vis_m": 9999,
      "fzfg": false,
      "metar_trigger": false,
      "taf_trigger": false,
      "metar": "METAR LIMJ 171020Z 13006KT CAVOK 19/15 Q1018",
      "taf": "TAF LIMJ 170500Z 1706/1806 VRB05KT 9999 SCT030"
    },
    {
      "icao": "LIPE",
      "alert": "OK",
      "vis_m": 9999,
      "fzfg": false,
      "metar_trigger": false,
      "taf_trigger": false,
      "metar": "METAR LIPE 171020Z 01005KT 310V050 CAVOK 20/14 Q1019",
      "taf": "TAF LIPE 170500Z 1706/1806 VRB05KT CAVOK"
    },
    {
      "icao": "LIPH",
      "alert": "OK",
      "vis_m": 9999,
      "fzfg": false,
      "metar_trigger": false,
      "taf_trigger": false,
      "metar": "METAR LIPH 171020Z 10006KT 050V150 CAVOK 23/08 Q1019",
      "taf": "TAF LIPH 170500Z 1706/1806 VRB05KT 9999 SCT070"
    },
    {
      "icao": "LIPQ",
      "alert": "OK",
      "vis_m": 9999,
      "fzfg": false,
      "metar_trigger": false,
      "taf_trigger": false,
      "metar": "METAR LIPQ 171020Z AUTO 11005KT 080V140 9999 NCD 24/09 Q1019",
      "taf": "TAF LIPQ 170500Z 1706/1806 VRB05KT 9999 FEW080"
    },
    {
      "icao": "LIPR",
      "alert": "OK",
      "vis_m": 9999,
      "fzfg": false,
      "metar_trigger": false,
      "taf_trigger": false,
      "metar": "METAR LIPR 171020Z AUTO 36009KT 340V040 9999 NCD 20/14 Q1019",
      "taf": "TAF LIPR 170500Z 1706/1806 VRB05KT CAVOK"
    },
    {
      "icao": "LIPX",
      "alert": "OK",
      "vis_m": 9999,
      "fzfg": false,
      "metar_trigger": false,
      "taf_trigger": false,
      "metar": "METAR LIPX 171020Z 10005KT 030V150 CAVOK 22/10 Q1019",
      "taf": "TAF LIPX 170500Z 1706/1806 VRB05KT 9999 FEW040"
    },
    {
      "icao": "LIPY",
      "alert": "OK",
      "vis_m": 9999,
      "fzfg": false,
      "metar_trigger": false,
      "taf_trigger": false,
      "metar": "METAR LIPY 171020Z AUTO 35009KT 9999 NCD 19/13 Q1019",
      "taf": "TAF LIPY 170500Z 1706/1806 VRB05KT CAVOK"
    },
    {
      "icao": "LIPZ",
      "alert": "OK",
      "vis_m": 9999,
      "fzfg": false,
      "metar_trigger": false,
      "taf_trigger": false,
      "metar": "METAR LIPZ 171020Z 09007KT 050V120 CAVOK 21/10 Q1019 NOSIG",
      "taf": "TAF LIPZ 170500Z 1706/1812 05007KT 9999 FEW070"
    },
    {
      "icao": "LIRF",
      "alert": "OK",
      "vis_m": 9999,
      "fzfg": false,
      "metar_trigger": false,
      "taf_trigger": false,
      "metar": "METAR LIRF 171020Z 35003KT 310V040 CAVOK 23/13 Q1016 NOSIG",
      "taf": "TAF LIRF 170500Z 1706/1812 VRB05KT CAVOK"
    },
    {
      "icao": "LIRN",
      "alert": "OK",
      "vis_m": 9999,
      "fzfg": false,
      "metar_trigger": false,
      "taf_trigger": false,
      "metar": "METAR LIRN 171020Z 03011KT 340V060 CAVOK 24/11 Q1015 NOSIG",
      "taf": "TAF LIRN 170500Z 1706/1806 VRB06KT 9999 FEW040"
    },
    {
      "icao": "LIRP",
      "alert": "OK",
      "vis_m": 9999,
      "fzfg": false,
      "metar_trigger": false,
      "taf_trigger": false,
      "metar": "METAR LIRP 171015Z 28006KT CAVOK 24/14 Q1018 NOSIG",
      "taf": "TAF LIRP 170500Z 1706/1806 07004KT CAVOK"
    },
    {
      "icao": "LIRZ",
      "alert": "OK",
      "vis_m": 9999,
      "fzfg": false,
      "metar_trigger": false,
      "taf_trigger": false,
      "metar": "METAR LIRZ 171020Z AUTO 03012KT 9999 NCD 23/09 Q1017",
      "taf": "TAF LIRZ 170500Z 1706/1806 VRB05KT CAVOK"
    },
    {
      "icao": "LJLJ",
      "alert": "OK",
      "vis_m": 9999,
      "fzfg": false,
      "metar_trigger": false,
      "taf_trigger": false,
      "metar": "METAR LJLJ 171030Z 20003KT 9999 FEW040 SCT057 20/08 Q1020 NOSIG",
      "taf": "TAF LJLJ 170500Z 1706/1806 32003KT 9999 FEW060"
    },
    {
      "icao": "LKMT",
      "alert": "OK",
      "vis_m": 9999,
      "fzfg": false,
      "metar_trigger": false,
      "taf_trigger": false,
      "metar": "METAR LKMT 171030Z 05004KT 350V100 9999 FEW039 15/07 Q1021 NOSIG",
      "taf": "TAF LKMT 170500Z 1706/1806 22004KT CAVOK"
    },
    {
      "icao": "LKPR",
      "alert": "OK",
      "vis_m": 9999,
      "fzfg": false,
      "metar_trigger": false,
      "taf_trigger": false,
      "metar": "METAR LKPR 171030Z 01011KT 340V080 CAVOK 17/05 Q1023 NOSIG",
      "taf": "TAF LKPR 170800Z 1709/1815 36006KT CAVOK"
    },
    {
      "icao": "LLBG",
      "alert": "OK",
      "vis_m": 3000,
      "fzfg": false,
      "metar_trigger": false,
      "taf_trigger": false,
      "metar": "METAR LLBG 171020Z 26008KT 230V290 3000 DU NSC 27/16 Q1004 TEMPO 1500 DU",
      "taf": "TAF LLBG 170504Z 1706/1806 12015KT CAVOK TX33/1709Z TN18/1804Z"
    },
    {
      "icao": "LMML",
      "alert": "OK",
      "vis_m": 9999,
      "fzfg": false,
      "metar_trigger": false,
      "taf_trigger": false,
      "metar": "METAR LMML 171015Z 34006KT 300V020 9999 FEW030 23/13 Q1015 NOSIG",
      "taf": ""
    },
    {
      "icao": "LOWW",
      "alert": "OK",
      "vis_m": 9999,
      "fzfg": false,
      "metar_trigger": false,
      "taf_trigger": false,
      "metar": "METAR LOWW 171020Z 35007KT 290V040 9999 FEW050 20/09 Q1021 NOSIG",
      "taf": "TAF LOWW 170815Z 1709/1815 35012KT CAVOK TX21/1713Z TN07/1804Z"
    },
    {
      "icao": "LPFR",
      "alert": "OK",
      "vis_m": 9999,
      "fzfg": false,
      "metar_trigger": false,
      "taf_trigger": false,
      "metar": "METAR LPFR 171030Z 09013KT CAVOK 25/10 Q1017",
      "taf": "TAF LPFR 170500Z 1706/1806 03007KT CAVOK"
    },
    {
      "icao": "LPMA",
      "alert": "OK",
      "vis_m": 9999,
      "fzfg": false,
      "metar_trigger": false,
      "taf_trigger": false,
      "metar": "METAR LPMA 171030Z 02012KT 9999 SCT016 18/12 Q1019",
      "taf": "TAF LPMA 170500Z 1706/1806 02013KT 9999 SCT015"
    },
    {
      "icao": "LPPR",
      "alert": "OK",
      "vis_m": 9999,
      "fzfg": false,
      "metar_trigger": false,
      "taf_trigger": false,
      "metar": "METAR LPPR 171030Z 34005KT 290V030 9999 FEW009 SCT012 15/12 Q1020",
      "taf": ""
    },
    {
      "icao": "LPPS",
      "alert": "OK",
      "vis_m": 9999,
      "fzfg": false,
      "metar_trigger": false,
      "taf_trigger": false,
      "metar": "METAR LPPS 171030Z 06012KT 030V100 9999 FEW015 BKN030 17/11 Q1019",
      "taf": "TAF LPPS 170500Z 1706/1812 05012KT 9999 FEW015 BKN030"
    },
    {
      "icao": "LPPT",
      "alert": "OK",
      "vis_m": 9999,
      "fzfg": false,
      "metar_trigger": false,
      "taf_trigger": false,
      "metar": "METAR LPPT 171030Z VRB05KT CAVOK 19/12 Q1019",
      "taf": "TAF LPPT 170500Z 1706/1812 35007KT CAVOK"
    },
    {
      "icao": "LQBK",
      "alert": "OK",
      "vis_m": 9999,
      "fzfg": false,
      "metar_trigger": false,
      "taf_trigger": false,
      "metar": "METAR LQBK 171030Z VRB03KT 9999 SCT047 20/07 Q1020 NOSIG",
      "taf": "TAF LQBK 170500Z 1706/1806 VRB02KT CAVOK TX21/1713Z TN08/1804Z"
    },
    {
      "icao": "LQSA",
      "alert": "OK",
      "vis_m": 9999,
      "fzfg": false,
      "metar_trigger": false,
      "taf_trigger": false,
      "metar": "METAR LQSA 171030Z 15004KT 100V200 9999 SCT050 SCT070 16/07 Q1019 NOSIG",
      "taf": "TAF LQSA 170500Z 1706/1806 33005KT 9999 SCT050 TX21/1714Z TN08/1804Z"
    },
    {
      "icao": "LQTZ",
      "alert": "OK",
      "vis_m": 9999,
      "fzfg": false,
      "metar_trigger": false,
      "taf_trigger": false,
      "metar": "METAR LQTZ 171030Z VRB04KT 9999 FEW065 19/09 Q1019",
      "taf": "TAF LQTZ 170500Z 1706/1806 33005KT 9999 SCT050 TX21/1713Z TN08/1804Z"
    },
    {
      "icao": "LRBC",
      "alert": "OK",
      "vis_m": 7000,
      "fzfg": false,
      "metar_trigger": false,
      "taf_trigger": false,
      "metar": "METAR LRBC 171030Z 35007KT 7000 -RA FEW008 SCT016 OVC042 12/11 Q1018",
      "taf": "TAF LRBC 170800Z 1709/1718 VRB04KT 9999 SCT015 BKN035"
    },
    {
      "icao": "LRBS",
      "alert": "OK",
      "vis_m": 9999,
      "fzfg": false,
      "metar_trigger": false,
      "taf_trigger": false,
      "metar": "METAR LRBS 171030Z VRB02KT CAVOK 20/M01 Q1017 NOSIG",
      "taf": "TAF LRBS 170500Z 1706/1806 08004KT CAVOK"
    },
    {
      "icao": "LRBV",
      "alert": "OK",
      "vis_m": 9999,
      "fzfg": false,
      "metar_trigger": false,
      "taf_trigger": false,
      "metar": "METAR LRBV 171030Z 05003KT 340V090 9999 FEW040CB BKN042 BKN052 15/10 Q1017",
      "taf": "TAF LRBV 170800Z 1709/1718 VRB04KT 9999 SCT030CB BKN050"
    },
    {
      "icao": "LRCL",
      "alert": "OK",
      "vis_m": 9999,
      "fzfg": false,
      "metar_trigger": false,
      "taf_trigger": false,
      "metar": "METAR LRCL 171030Z 31007KT 270V020 9999 FEW032 19/05 Q1017",
      "taf": "TAF LRCL 170800Z 1709/1718 32008KT CAVOK"
    },
    {
      "icao": "LRCV",
      "alert": "OK",
      "vis_m": 9999,
      "fzfg": false,
      "metar_trigger": false,
      "taf_trigger": false,
      "metar": "METAR LRCV 171030Z 12004KT 090V160 CAVOK 19/10 Q1017",
      "taf": "TAF LRCV 170800Z 1709/1718 08006KT CAVOK"
    },
    {
      "icao": "LRIA",
      "alert": "OK",
      "vis_m": 9999,
      "fzfg": false,
      "metar_trigger": false,
      "taf_trigger": false,
      "metar": "METAR LRIA 171030Z 28003KT 250V330 9999 -RA FEW004 BKN016 BKN026 10/08 Q1018",
      "taf": "TAF LRIA 170800Z 1709/1718 VRB04KT 9999 SCT045"
    },
    {
      "icao": "LROP",
      "alert": "OK",
      "vis_m": 9999,
      "fzfg": false,
      "metar_trigger": false,
      "taf_trigger": false,
      "metar": "METAR LROP 171030Z 11003KT 060V220 CAVOK 19/M07 Q1017 NOSIG",
      "taf": "TAF LROP 170500Z 1706/1806 08004KT CAVOK"
    },
    {
      "icao": "LRSB",
      "alert": "OK",
      "vis_m": 9999,
      "fzfg": false,
      "metar_trigger": false,
      "taf_trigger": false,
      "metar": "METAR LRSB 171030Z 01011KT 9999 VCTS VCSH SCT036 SCT038CB BKN050 15/10 Q1017",
      "taf": "TAF LRSB 170500Z 1706/1806 VRB04KT 9999 BKN035"
    },
    {
      "icao": "LRSM",
      "alert": "OK",
      "vis_m": 9999,
      "fzfg": false,
      "metar_trigger": false,
      "taf_trigger": false,
      "metar": "METAR LRSM 171030Z 34012KT 320V020 CAVOK 21/03 Q1017",
      "taf": "TAF LRSM 170800Z 1709/1718 VRB04KT CAVOK"
    },
    {
      "icao": "LRSV",
      "alert": "OK",
      "vis_m": 9999,
      "fzfg": false,
      "metar_trigger": false,
      "taf_trigger": false,
      "metar": "METAR LRSV 171030Z 27004KT 230V290 9999 -RA BKN045 11/09 Q1018",
      "taf": "TAF LRSV 170800Z 1709/1718 VRB04KT 9999 BKN040"
    },
    {
      "icao": "LRTM",
      "alert": "OK",
      "vis_m": 9999,
      "fzfg": false,
      "metar_trigger": false,
      "taf_trigger": false,
      "metar": "METAR LRTM 171030Z VRB02KT 9999 FEW014 FEW037CB BKN042 13/10 Q1017",
      "taf": "TAF LRTM 170800Z 1709/1718 VRB04KT 9999 BKN040"
    },
    {
      "icao": "LRTR",
      "alert": "OK",
      "vis_m": 9999,
      "fzfg": false,
      "metar_trigger": false,
      "taf_trigger": false,
      "metar": "METAR LRTR 171030Z 36010KT 320V030 CAVOK 21/07 Q1018",
      "taf": "TAF LRTR 170500Z 1706/1806 VRB04KT CAVOK"
    },
    {
      "icao": "LTAC",
      "alert": "OK",
      "vis_m": 9999,
      "fzfg": false,
      "metar_trigger": false,
      "taf_trigger": false,
      "metar": "METAR LTAC 171020Z 08014KT CAVOK 20/00 Q1011 NOSIG RMK RWY21C 08012KT RWY03L 09013KT RWY21R 07012KT RWY03R 06014KT RWY21L 08013KT",
      "taf": "TAF LTAC 170440Z 1706/1806 03008KT CAVOK"
    },
    {
      "icao": "LTFM",
      "alert": "OK",
      "vis_m": 9999,
      "fzfg": false,
      "metar_trigger": false,
      "taf_trigger": false,
      "metar": "METAR LTFM 171020Z 03020KT 9999 BKN016 11/08 Q1013 NOSIG RMK RWY17L 03016KT RWY34L 02017KT RWY16R 02015KT RWY36 03020KT RWY18 04015KT",
      "taf": "TAF LTFM 170440Z 1706/1812 03014KT 9999 BKN016"
    },
    {
      "icao": "LUKK",
      "alert": "OK",
      "vis_m": 9999,
      "fzfg": false,
      "metar_trigger": false,
      "taf_trigger": false,
      "metar": "METAR LUKK 171030Z 35007KT 310V030 CAVOK 17/04 Q1017 TEMPO SCT030CB",
      "taf": "TAF LUKK 170502Z 1706/1806 VRB06KT 9999 SCT040"
    },
    {
      "icao": "LWOH",
      "alert": "OK",
      "vis_m": 9999,
      "fzfg": false,
      "metar_trigger": false,
      "taf_trigger": false,
      "metar": "METAR LWOH 170950Z 34007KT 280V030 9999 SCT040 21/08 Q1014",
      "taf": "TAF LWOH 170835Z 1709/1809 36012KT 9999 FEW050"
    },
    {
      "icao": "LWSK",
      "alert": "OK",
      "vis_m": 9999,
      "fzfg": false,
      "metar_trigger": false,
      "taf_trigger": false,
      "metar": "METAR LWSK 171020Z 27005KT 220V350 9999 FEW050 24/09 Q1014 NOSIG",
      "taf": "TAF LWSK 170835Z 1709/1809 34006KT CAVOK"
    },
    {
      "icao": "LYBE",
      "alert": "OK",
      "vis_m": 9999,
      "fzfg": false,
      "metar_trigger": false,
      "taf_trigger": false,
      "metar": "METAR LYBE 171030Z 34007KT 290V030 9999 SCT040 20/11 Q1018 NOSIG",
      "taf": "TAF LYBE 170500Z 1706/1806 30006KT 9999 SCT040 TX22/1713Z TN08/1804Z"
    },
    {
      "icao": "LYNI",
      "alert": "OK",
      "vis_m": 9999,
      "fzfg": false,
      "metar_trigger": false,
      "taf_trigger": false,
      "metar": "METAR LYNI 171030Z 32015KT 290V350 9999 FEW050 21/10 Q1016 NOSIG",
      "taf": "TAF LYNI 170500Z 1706/1806 02005KT 9999 SCT050 TX22/1711Z TN09/1804Z"
    },
    {
      "icao": "LYPG",
      "alert": "OK",
      "vis_m": 9999,
      "fzfg": false,
      "metar_trigger": false,
      "taf_trigger": false,
      "metar": "METAR LYPG 171030Z 36015KT 330V040 CAVOK 26/07 Q1013 NOSIG",
      "taf": "TAF LYPG 170500Z 1706/1806 34008KT CAVOK TX27/1713Z TN19/1804Z"
    },
    {
      "icao": "LZIB",
      "alert": "OK",
      "vis_m": 9999,
      "fzfg": false,
      "metar_trigger": false,
      "taf_trigger": false,
      "metar": "METAR LZIB 171030Z 35008KT 320V030 CAVOK 21/04 Q1020 NOSIG",
      "taf": "TAF LZIB 170515Z 1706/1806 30008KT CAVOK"
    },
    {
      "icao": "LZKZ",
      "alert": "OK",
      "vis_m": 9999,
      "fzfg": false,
      "metar_trigger": false,
      "taf_trigger": false,
      "metar": "METAR LZKZ 171030Z 02011KT CAVOK 18/04 Q1019 NOSIG",
      "taf": "TAF LZKZ 170515Z 1706/1806 03005KT CAVOK"
    },
    {
      "icao": "LZTT",
      "alert": "OK",
      "vis_m": 9999,
      "fzfg": false,
      "metar_trigger": false,
      "taf_trigger": false,
      "metar": "METAR LZTT 171030Z 04004KT 340V100 9999 FEW046 BKN066 14/01 Q1020 NOSIG",
      "taf": "TAF LZTT 170515Z 1706/1806 27005KT 9999 FEW020"
    },
    {
      "icao": "OEJN",
      "alert": "OK",
      "vis_m": 2000,
      "fzfg": false,
      "metar_trigger": false,
      "taf_trigger": false,
      "metar": "SPECI OEJN 171010Z 20016KT 2000 BLDU NSC 39/14 Q1005 TEMPO 1000",
      "taf": "TAF OEJN 170500Z 1706/1812 16022KT 7000 FEW040"
    },
    {
      "icao": "OEMA",
      "alert": "OK",
      "vis_m": 8000,
      "fzfg": false,
      "metar_trigger": false,
      "taf_trigger": false,
      "metar": "METAR OEMA 171000Z 18005KT 8000 NSC 34/13 Q1012 NOSIG",
      "taf": "TAF OEMA 170500Z 1706/1812 08010KT 7000 SCT040"
    },
    {
      "icao": "OJAI",
      "alert": "OK",
      "vis_m": null,
      "fzfg": false,
      "metar_trigger": false,
      "taf_trigger": false,
      "metar": "",
      "taf": "TAF OJAI 170500Z 1706/1812 12012KT 4000 HZ NSC"
    },
    {
      "icao": "OMAA",
      "alert": "OK",
      "vis_m": null,
      "fzfg": false,
      "metar_trigger": false,
      "taf_trigger": false,
      "metar": "",
      "taf": ""
    },
    {
      "icao": "OMDB",
      "alert": "OK",
      "vis_m": null,
      "fzfg": false,
      "metar_trigger": false,
      "taf_trigger": false,
      "metar": "",
      "taf": ""
    },
    {
      "icao": "UAAA",
      "alert": "OK",
      "vis_m": 5000,
      "fzfg": false,
      "metar_trigger": false,
      "taf_trigger": false,
      "metar": "METAR UAAA 171030Z 19005MPS 5000 -SHRA BR BKN033CB OVC100 09/05 Q1021 NOSIG",
      "taf": "TAF UAAA 170509Z 1706/1806 10003G08MPS 6000 BKN020CB OVC050 TX12/1709Z TN04/1801Z"
    },
    {
      "icao": "UBBB",
      "alert": "OK",
      "vis_m": 9999,
      "fzfg": false,
      "metar_trigger": false,
      "taf_trigger": false,
      "metar": "METAR UBBB 171030Z 17018KT 9999 FEW025 16/07 Q1021 NOSIG",
      "taf": "TAF UBBB 170457Z 1706/1806 18012KT CAVOK TX17/1710Z TN09/1801Z"
    },
    {
      "icao": "UDSG",
      "alert": "OK",
      "vis_m": 9999,
      "fzfg": false,
      "metar_trigger": false,
      "taf_trigger": false,
      "metar": "METAR UDSG 171030Z 25011KT 9999 NSC 13/M03 Q1020 NOSIG",
      "taf": "TAF UDSG 170458Z 1706/1806 VRB06KT 9999 FEW050"
    },
    {
      "icao": "UDYZ",
      "alert": "OK",
      "vis_m": 9999,
      "fzfg": false,
      "metar_trigger": false,
      "taf_trigger": false,
      "metar": "METAR UDYZ 171030Z VRB02KT 9999 NSC 17/M02 Q1018 NOSIG",
      "taf": "TAF UDYZ 170500Z 1706/1806 20006KT 9999 FEW040"
    },
    {
      "icao": "UGKO",
      "alert": "OK",
      "vis_m": 9999,
      "fzfg": false,
      "metar_trigger": false,
      "taf_trigger": false,
      "metar": "METAR UGKO 171030Z 08020G30KT CAVOK 23/02 Q1014 NOSIG",
      "taf": "TAF UGKO 170500Z 1706/1806 08019KT CAVOK TX24/1711Z TN14/1803Z"
    }
  ]
}