{
  "ts_utc": "2026-05-18T22:38:33Z",
  "threshold_m": 150,
  "source": "stations_override.txt (ICAO list) + aviationweather.gov (METAR/TAF raw)",
  "station_count": 159,
  "stations": [
    {
      "icao": "BIKF",
      "alert": "OK",
      "vis_m": 9999,
      "fzfg": false,
      "metar_trigger": false,
      "taf_trigger": false,
      "metar": "METAR BIKF 182230Z 03009KT 9999 FEW025 08/04 Q1008",
      "taf": "TAF BIKF 182002Z 1821/1921 30010KT 9999 FEW015 BKN030 TX10/1915Z TN03/1904Z"
    },
    {
      "icao": "BKPR",
      "alert": "OK",
      "vis_m": 9999,
      "fzfg": false,
      "metar_trigger": false,
      "taf_trigger": false,
      "metar": "METAR BKPR 182230Z VRB02KT CAVOK 10/06 Q1017 NOSIG",
      "taf": "TAF BKPR 181730Z 1818/1918 01007KT 9999 FEW080"
    },
    {
      "icao": "EBCI",
      "alert": "OK",
      "vis_m": 9999,
      "fzfg": false,
      "metar_trigger": false,
      "taf_trigger": false,
      "metar": "METAR EBCI 182220Z 18006KT CAVOK 10/07 Q1016 NOSIG",
      "taf": "TAF EBCI 181711Z 1818/1924 19004KT 9999 SCT035"
    },
    {
      "icao": "EDDB",
      "alert": "OK",
      "vis_m": 9999,
      "fzfg": false,
      "metar_trigger": false,
      "taf_trigger": false,
      "metar": "METAR EDDB 182220Z AUTO 09006KT CAVOK 10/06 Q1015 NOSIG",
      "taf": "TAF EDDB 181700Z 1818/1918 08004KT CAVOK"
    },
    {
      "icao": "EDDH",
      "alert": "OK",
      "vis_m": 9999,
      "fzfg": false,
      "metar_trigger": false,
      "taf_trigger": false,
      "metar": "METAR EDDH 182220Z AUTO 05003KT 9999 -SHRA FEW007 FEW///TCU 11/11 Q1015 RESHRA NOSIG",
      "taf": "TAF EDDH 181700Z 1818/1924 VRB03KT CAVOK"
    },
    {
      "icao": "EDDK",
      "alert": "OK",
      "vis_m": 9999,
      "fzfg": false,
      "metar_trigger": false,
      "taf_trigger": false,
      "metar": "METAR EDDK 182220Z AUTO 13005KT 9999 SCT038 09/08 Q1017 NOSIG",
      "taf": "TAF EDDK 181700Z 1818/1924 26005KT 9999 SCT030"
    },
    {
      "icao": "EDDN",
      "alert": "OK",
      "vis_m": 9999,
      "fzfg": false,
      "metar_trigger": false,
      "taf_trigger": false,
      "metar": "METAR EDDN 182220Z AUTO VRB02KT 9999 SCT038 10/07 Q1017 NOSIG",
      "taf": "TAF EDDN 181700Z 1818/1918 26005KT 9999 FEW040"
    },
    {
      "icao": "EDDS",
      "alert": "OK",
      "vis_m": 9999,
      "fzfg": false,
      "metar_trigger": false,
      "taf_trigger": false,
      "metar": "METAR EDDS 182220Z AUTO VRB02KT CAVOK 09/07 Q1018",
      "taf": "TAF EDDS 181700Z 1818/1918 VRB03KT 9999 SCT035"
    },
    {
      "icao": "EDFH",
      "alert": "OK",
      "vis_m": 9999,
      "fzfg": false,
      "metar_trigger": false,
      "taf_trigger": false,
      "metar": "METAR EDFH 182220Z 23005KT CAVOK 07/04 Q1017",
      "taf": "TAF EDFH 181700Z 1818/1918 23004KT 9999 FEW030"
    },
    {
      "icao": "EDJA",
      "alert": "OK",
      "vis_m": 9999,
      "fzfg": false,
      "metar_trigger": false,
      "taf_trigger": false,
      "metar": "METAR EDJA 182220Z AUTO 19004KT 9999 // FEW067/// BKN150/// 06/05 Q1018",
      "taf": "TAF EDJA 181700Z 1818/1903 22008KT 9999 SCT030"
    },
    {
      "icao": "EDLW",
      "alert": "OK",
      "vis_m": 9999,
      "fzfg": false,
      "metar_trigger": false,
      "taf_trigger": false,
      "metar": "METAR EDLW 182220Z AUTO 19003KT 160V220 9999 // FEW043/// BKN076/// 08/07 Q1016",
      "taf": "TAF EDLW 181700Z 1818/1918 23005KT 9999 SCT030"
    },
    {
      "icao": "EDNY",
      "alert": "OK",
      "vis_m": 9999,
      "fzfg": false,
      "metar_trigger": false,
      "taf_trigger": false,
      "metar": "METAR EDNY 182220Z AUTO 07003KT 040V110 9999 // NCD 08/07 Q1019",
      "taf": "TAF EDNY 181700Z 1818/1903 20004KT 9999 BKN035"
    },
    {
      "icao": "EDSB",
      "alert": "OK",
      "vis_m": 9999,
      "fzfg": false,
      "metar_trigger": false,
      "taf_trigger": false,
      "metar": "METAR EDSB 182220Z AUTO 21003KT 9999 2600 BKN071/// 11/09 Q1018",
      "taf": "TAF EDSB 181700Z 1818/1918 21006KT 9999 FEW045"
    },
    {
      "icao": "EETN",
      "alert": "OK",
      "vis_m": 9999,
      "fzfg": false,
      "metar_trigger": false,
      "taf_trigger": false,
      "metar": "METAR EETN 182220Z 03008KT CAVOK 13/08 Q1016",
      "taf": "TAF EETN 181730Z 1818/1918 03010KT CAVOK"
    },
    {
      "icao": "EFTU",
      "alert": "OK",
      "vis_m": 9999,
      "fzfg": false,
      "metar_trigger": false,
      "taf_trigger": false,
      "metar": "METAR EFTU 182220Z AUTO 12007KT 9999 -SHRA //////CB 14/04 Q1019",
      "taf": "TAF EFTU 182029Z 1821/1921 05005KT CAVOK"
    },
    {
      "icao": "EGBB",
      "alert": "OK",
      "vis_m": 9999,
      "fzfg": false,
      "metar_trigger": false,
      "taf_trigger": false,
      "metar": "METAR EGBB 182220Z 16009KT CAVOK 10/08 Q1009",
      "taf": ""
    },
    {
      "icao": "EGGP",
      "alert": "OK",
      "vis_m": 9999,
      "fzfg": false,
      "metar_trigger": false,
      "taf_trigger": false,
      "metar": "METAR EGGP 182220Z 15012KT 9999 -RA SCT015 OVC043 10/08 Q1006",
      "taf": "TAF EGGP 181700Z 1818/1918 20009KT 9999 SCT035"
    },
    {
      "icao": "EGGW",
      "alert": "OK",
      "vis_m": 9999,
      "fzfg": false,
      "metar_trigger": false,
      "taf_trigger": false,
      "metar": "METAR EGGW 182220Z AUTO 17008KT 9999 FEW023 10/06 Q1011",
      "taf": "TAF EGGW 181659Z 1818/1918 22011KT 9999 SCT040"
    },
    {
      "icao": "EGKK",
      "alert": "OK",
      "vis_m": 9999,
      "fzfg": false,
      "metar_trigger": false,
      "taf_trigger": false,
      "metar": "METAR EGKK 182220Z 18005KT 130V220 9999 -RA FEW037 11/08 Q1013",
      "taf": "TAF EGKK 181659Z 1818/1924 23009KT 9999 SCT040"
    },
    {
      "icao": "EGNM",
      "alert": "OK",
      "vis_m": 9999,
      "fzfg": false,
      "metar_trigger": false,
      "taf_trigger": false,
      "metar": "METAR EGNM 182220Z 16007KT 9999 FEW028 SCT040 10/07 Q1008",
      "taf": ""
    },
    {
      "icao": "EGPD",
      "alert": "OK",
      "vis_m": 9999,
      "fzfg": false,
      "metar_trigger": false,
      "taf_trigger": false,
      "metar": "METAR EGPD 182220Z COR AUTO 14010KT 9999 BKN007 OVC012 09/07 Q1007 NOSIG",
      "taf": "TAF EGPD 181658Z 1818/1918 14010KT 9999 SCT012"
    },
    {
      "icao": "EGPF",
      "alert": "OK",
      "vis_m": 9999,
      "fzfg": false,
      "metar_trigger": false,
      "taf_trigger": false,
      "metar": "METAR EGPF 182220Z AUTO 10007KT 9999 NCD 10/04 Q1005",
      "taf": "TAF EGPF 181700Z 1818/1918 20008KT 9999 FEW040"
    },
    {
      "icao": "EHBK",
      "alert": "OK",
      "vis_m": 9999,
      "fzfg": false,
      "metar_trigger": false,
      "taf_trigger": false,
      "metar": "METAR EHBK 182225Z AUTO 19005KT 9999 NCD 07/06 Q1016",
      "taf": "TAF EHBK 181721Z 1818/1924 16004KT CAVOK"
    },
    {
      "icao": "EHEH",
      "alert": "OK",
      "vis_m": 400,
      "fzfg": false,
      "metar_trigger": false,
      "taf_trigger": false,
      "metar": "METAR EHEH 182225Z AUTO 12001KT 0400 FG NCD 07/06 Q1016 RED",
      "taf": "TAF EHEH 181712Z 1818/1924 22006KT 9999 FEW025CB SCT035"
    },
    {
      "icao": "EKBI",
      "alert": "OK",
      "vis_m": 9999,
      "fzfg": false,
      "metar_trigger": false,
      "taf_trigger": false,
      "metar": "METAR EKBI 182220Z AUTO 07001KT 9999 -RA OVC032/// 10/09 Q1016",
      "taf": "TAF EKBI 182027Z 1821/1921 16005KT 9999 BKN030"
    },
    {
      "icao": "EKCH",
      "alert": "OK",
      "vis_m": 9999,
      "fzfg": false,
      "metar_trigger": false,
      "taf_trigger": false,
      "metar": "METAR EKCH 182220Z AUTO 11006KT 9999 NCD 09/05 Q1018 NOSIG",
      "taf": "TAF EKCH 182027Z 1821/1921 15008KT CAVOK"
    },
    {
      "icao": "ENAL",
      "alert": "OK",
      "vis_m": 9999,
      "fzfg": false,
      "metar_trigger": false,
      "taf_trigger": false,
      "metar": "METAR ENAL 182220Z 07009KT CAVOK 09/08 Q1015",
      "taf": "TAF ENAL 182000Z 1821/1906 06008KT CAVOK"
    },
    {
      "icao": "ENBR",
      "alert": "OK",
      "vis_m": 9999,
      "fzfg": false,
      "metar_trigger": false,
      "taf_trigger": false,
      "metar": "METAR ENBR 182220Z VRB02KT 9999 -RA FEW005 BKN040 08/07 Q1014 RMK WIND 1200FT 10005KT",
      "taf": "TAF ENBR 181700Z 1818/1918 09007KT 9999 FEW030 BKN050"
    },
    {
      "icao": "ENGM",
      "alert": "OK",
      "vis_m": 9999,
      "fzfg": false,
      "metar_trigger": false,
      "taf_trigger": false,
      "metar": "METAR ENGM 182220Z 06003KT 030V110 CAVOK 11/04 Q1018",
      "taf": "TAF ENGM 181700Z 1818/1918 16005KT 9999 SCT040"
    },
    {
      "icao": "ENHD",
      "alert": "OK",
      "vis_m": 8000,
      "fzfg": false,
      "metar_trigger": false,
      "taf_trigger": false,
      "metar": "METAR ENHD 182220Z AUTO 10009KT 8000 RA FEW000/// SCT043/// 10/09 Q1014",
      "taf": "TAF ENHD 181400Z 1815/1822 12009KT 9999 FEW020 BKN040"
    },
    {
      "icao": "ENTC",
      "alert": "OK",
      "vis_m": 9999,
      "fzfg": false,
      "metar_trigger": false,
      "taf_trigger": false,
      "metar": "METAR ENTC 182220Z 01008KT 9999 SCT004 BKN017 05/03 Q1026 RMK WIND 2600FT 18007KT",
      "taf": ""
    },
    {
      "icao": "ENTO",
      "alert": "OK",
      "vis_m": 9999,
      "fzfg": false,
      "metar_trigger": false,
      "taf_trigger": false,
      "metar": "METAR ENTO 182220Z 08002KT CAVOK 11/06 Q1018",
      "taf": "TAF ENTO 181700Z 1818/1918 VRB03KT CAVOK"
    },
    {
      "icao": "ENVA",
      "alert": "OK",
      "vis_m": 9999,
      "fzfg": false,
      "metar_trigger": false,
      "taf_trigger": false,
      "metar": "METAR ENVA 182220Z 13007KT CAVOK 11/04 Q1018 RMK WIND 670FT 15012KT",
      "taf": "TAF ENVA 181700Z 1818/1918 12008KT CAVOK"
    },
    {
      "icao": "ENZV",
      "alert": "OK",
      "vis_m": 7000,
      "fzfg": false,
      "metar_trigger": false,
      "taf_trigger": false,
      "metar": "METAR ENZV 182220Z 11005KT 7000 RA OVC046 10/09 Q1014",
      "taf": "TAF ENZV 181700Z 1818/1918 VRB05KT 9999 -RA FEW020 BKN040"
    },
    {
      "icao": "EPGD",
      "alert": "OK",
      "vis_m": 9999,
      "fzfg": false,
      "metar_trigger": false,
      "taf_trigger": false,
      "metar": "METAR EPGD 182230Z 31007KT CAVOK 09/06 Q1015",
      "taf": "TAF EPGD 181730Z 1818/1918 03010KT CAVOK"
    },
    {
      "icao": "EPKK",
      "alert": "OK",
      "vis_m": 3500,
      "fzfg": false,
      "metar_trigger": false,
      "taf_trigger": false,
      "metar": "METAR EPKK 182230Z 26001KT 3500 BR NSC 09/08 Q1016",
      "taf": "TAF EPKK 182030Z 1821/1921 25005KT 5000 BR NSC"
    },
    {
      "icao": "EPKT",
      "alert": "OK",
      "vis_m": 4500,
      "fzfg": false,
      "metar_trigger": false,
      "taf_trigger": false,
      "metar": "METAR EPKT 182230Z 26003KT 4500 BR NSC 05/04 Q1016",
      "taf": ""
    },
    {
      "icao": "EPLB",
      "alert": "OK",
      "vis_m": 9999,
      "fzfg": false,
      "metar_trigger": false,
      "taf_trigger": false,
      "metar": "METAR EPLB 182230Z 28008KT 9999 FEW046 12/11 Q1014",
      "taf": ""
    },
    {
      "icao": "EPMO",
      "alert": "OK",
      "vis_m": 4000,
      "fzfg": false,
      "metar_trigger": false,
      "taf_trigger": false,
      "metar": "METAR EPMO 182230Z 24007KT 4000 BR OVC004 11/10 Q1014",
      "taf": "TAF EPMO 181730Z 1818/1918 01010KT 9999 BKN025"
    },
    {
      "icao": "EPPO",
      "alert": "OK",
      "vis_m": 9999,
      "fzfg": false,
      "metar_trigger": false,
      "taf_trigger": false,
      "metar": "METAR EPPO 182230Z 29003KT 9999 SCT023 OVC046 09/09 Q1016",
      "taf": "TAF EPPO 181730Z 1818/1918 34004KT 9999 BKN030"
    },
    {
      "icao": "EPRA",
      "alert": "OK",
      "vis_m": 9999,
      "fzfg": false,
      "metar_trigger": false,
      "taf_trigger": false,
      "metar": "METAR EPRA 182230Z 26005KT CAVOK 12/09 Q1015",
      "taf": "TAF EPRA 182030Z 1821/1906 27008KT 9999 BKN040"
    },
    {
      "icao": "EPRZ",
      "alert": "OK",
      "vis_m": 9999,
      "fzfg": false,
      "metar_trigger": false,
      "taf_trigger": false,
      "metar": "METAR EPRZ 182230Z 25007KT 9999 BKN023 10/09 Q1015",
      "taf": "TAF EPRZ 181730Z 1818/1918 25010KT 9999 OVC020"
    },
    {
      "icao": "EPSC",
      "alert": "OK",
      "vis_m": 9999,
      "fzfg": false,
      "metar_trigger": false,
      "taf_trigger": false,
      "metar": "METAR EPSC 182230Z VRB01KT CAVOK 06/03 Q1016",
      "taf": "TAF EPSC 181730Z 1818/1918 04010KT CAVOK"
    },
    {
      "icao": "EPSY",
      "alert": "OK",
      "vis_m": 9999,
      "fzfg": false,
      "metar_trigger": false,
      "taf_trigger": false,
      "metar": "METAR EPSY 182230Z VRB02KT CAVOK 09/08 Q1014",
      "taf": "TAF EPSY 182030Z 1821/1906 35004KT CAVOK"
    },
    {
      "icao": "EPWA",
      "alert": "OK",
      "vis_m": 9999,
      "fzfg": false,
      "metar_trigger": false,
      "taf_trigger": false,
      "metar": "METAR EPWA 182230Z 26007KT 9999 BKN011 11/09 Q1014 BECMG BKN009",
      "taf": "TAF EPWA 182030Z 1821/1921 25006KT 9999 SCT030"
    },
    {
      "icao": "EPWR",
      "alert": "OK",
      "vis_m": 9999,
      "fzfg": false,
      "metar_trigger": false,
      "taf_trigger": false,
      "metar": "METAR EPWR 182230Z VRB01KT 9999 MIFG NSC 06/05 Q1016",
      "taf": "TAF EPWR 182030Z 1821/1921 VRB01KT CAVOK"
    },
    {
      "icao": "ESGG",
      "alert": "OK",
      "vis_m": 9999,
      "fzfg": false,
      "metar_trigger": false,
      "taf_trigger": false,
      "metar": "METAR ESGG 182220Z 04005KT CAVOK 09/05 Q1017",
      "taf": "TAF ESGG 182030Z 1821/1921 VRB03KT CAVOK"
    },
    {
      "icao": "ESKN",
      "alert": "OK",
      "vis_m": 9999,
      "fzfg": false,
      "metar_trigger": false,
      "taf_trigger": false,
      "metar": "METAR ESKN 182220Z 29002KT CAVOK 06/05 Q1019",
      "taf": "TAF ESKN 182030Z 1821/1921 14006KT CAVOK"
    },
    {
      "icao": "ESMS",
      "alert": "OK",
      "vis_m": 9999,
      "fzfg": false,
      "metar_trigger": false,
      "taf_trigger": false,
      "metar": "METAR ESMS 182220Z 09004KT CAVOK 07/01 Q1017",
      "taf": "TAF ESMS 182027Z 1821/1921 13006KT CAVOK"
    },
    {
      "icao": "ESSA",
      "alert": "OK",
      "vis_m": 9999,
      "fzfg": false,
      "metar_trigger": false,
      "taf_trigger": false,
      "metar": "METAR ESSA 182220Z 02005KT CAVOK 09/05 Q1019 NOSIG",
      "taf": "TAF ESSA 182030Z 1821/1921 04004KT CAVOK"
    },
    {
      "icao": "EYKA",
      "alert": "OK",
      "vis_m": 5000,
      "fzfg": false,
      "metar_trigger": false,
      "taf_trigger": false,
      "metar": "METAR EYKA 182220Z AUTO 29003KT 270V330 5000 BR OVC002/// 11/11 Q1009",
      "taf": "TAF EYKA 181723Z 1818/1918 VRB03KT 5000 BR OVC005"
    },
    {
      "icao": "EYPA",
      "alert": "OK",
      "vis_m": 9999,
      "fzfg": false,
      "metar_trigger": false,
      "taf_trigger": false,
      "metar": "METAR EYPA 182220Z AUTO 36006KT 320V040 9999 OVC017/// 10/08 Q1013",
      "taf": "TAF EYPA 181724Z 1818/1918 VRB04KT 9000 SCT010 BKN025"
    },
    {
      "icao": "EYVI",
      "alert": "OK",
      "vis_m": 6000,
      "fzfg": false,
      "metar_trigger": false,
      "taf_trigger": false,
      "metar": "METAR EYVI 182220Z 19006KT 150V210 6000 OVC002 12/12 Q1010 NOSIG",
      "taf": "TAF EYVI 181722Z 1818/1918 VRB03KT 5000 BR OVC005"
    },
    {
      "icao": "GCFV",
      "alert": "OK",
      "vis_m": 9999,
      "fzfg": false,
      "metar_trigger": false,
      "taf_trigger": false,
      "metar": "METAR GCFV 182230Z AUTO 36018KT 9999 BKN032 19/13 Q1021",
      "taf": "TAF GCFV 182000Z 1821/1921 36015KT 9999 SCT030 TX24/1914Z TN18/1906Z"
    },
    {
      "icao": "GCLP",
      "alert": "OK",
      "vis_m": 9999,
      "fzfg": false,
      "metar_trigger": false,
      "taf_trigger": false,
      "metar": "METAR GCLP 182230Z 36016KT 9999 SCT025 19/13 Q1022 NOSIG",
      "taf": "TAF GCLP 182000Z 1821/1921 36018KT 9999 SCT035 TX24/1914Z TN18/1906Z"
    },
    {
      "icao": "GCTS",
      "alert": "OK",
      "vis_m": 9999,
      "fzfg": false,
      "metar_trigger": false,
      "taf_trigger": false,
      "metar": "METAR GCTS 182230Z 05007KT 9999 FEW035 19/12 Q1022 NOSIG",
      "taf": "TAF GCTS 182000Z 1821/1921 06008KT 9999 SCT040 TX24/1914Z TN17/1906Z"
    },
    {
      "icao": "GMAD",
      "alert": "OK",
      "vis_m": 9999,
      "fzfg": false,
      "metar_trigger": false,
      "taf_trigger": false,
      "metar": "METAR GMAD 182230Z 00000KT CAVOK 17/13 Q1017 NOSIG",
      "taf": "TAF GMAD 181700Z 1818/1924 18010KT CAVOK"
    },
    {
      "icao": "GMMN",
      "alert": "OK",
      "vis_m": 9999,
      "fzfg": false,
      "metar_trigger": false,
      "taf_trigger": false,
      "metar": "METAR GMMN 182230Z 03007KT 360V060 9999 SCT018 15/11 Q1022 NOSIG",
      "taf": "TAF GMMN 181700Z 1818/1924 36014KT CAVOK"
    },
    {
      "icao": "GMMX",
      "alert": "OK",
      "vis_m": 9999,
      "fzfg": false,
      "metar_trigger": false,
      "taf_trigger": false,
      "metar": "METAR GMMX 182230Z 06007KT 040V100 CAVOK 20/10 Q1019 NOSIG",
      "taf": "TAF GMMX 181700Z 1818/1924 06006KT 8000 NSC"
    },
    {
      "icao": "HEGN",
      "alert": "OK",
      "vis_m": 9999,
      "fzfg": false,
      "metar_trigger": false,
      "taf_trigger": false,
      "metar": "METAR HEGN 182200Z 33007KT CAVOK 30/10 Q1009 NOSIG",
      "taf": "TAF HEGN 181700Z 1818/1924 11010KT CAVOK"
    },
    {
      "icao": "HEMA",
      "alert": "OK",
      "vis_m": 9999,
      "fzfg": false,
      "metar_trigger": false,
      "taf_trigger": false,
      "metar": "METAR HEMA 182200Z 21006KT CAVOK 33/04 Q1007 NOSIG",
      "taf": "TAF HEMA 181700Z 1818/1924 12015KT CAVOK"
    },
    {
      "icao": "HESH",
      "alert": "OK",
      "vis_m": 9999,
      "fzfg": false,
      "metar_trigger": false,
      "taf_trigger": false,
      "metar": "METAR HESH 182200Z 32003KT CAVOK 30/08 Q1009 NOSIG",
      "taf": "TAF HESH 181700Z 1818/1924 14010KT CAVOK"
    },
    {
      "icao": "HESX",
      "alert": "OK",
      "vis_m": 9999,
      "fzfg": false,
      "metar_trigger": false,
      "taf_trigger": false,
      "metar": "METAR HESX 182200Z 36008KT CAVOK 23/14 Q1012 NOSIG",
      "taf": "TAF HESX 181700Z 1818/1924 01012KT CAVOK"
    },
    {
      "icao": "LATI",
      "alert": "OK",
      "vis_m": 9999,
      "fzfg": false,
      "metar_trigger": false,
      "taf_trigger": false,
      "metar": "METAR LATI 182220Z 16004KT CAVOK 13/09 Q1015 NOSIG",
      "taf": "TAF LATI 181700Z 1818/1918 VRB03KT 9999 SCT050 TX23/1911Z TN10/1904Z"
    },
    {
      "icao": "LBPD",
      "alert": "OK",
      "vis_m": 9999,
      "fzfg": false,
      "metar_trigger": false,
      "taf_trigger": false,
      "metar": "METAR LBPD 182230Z AUTO 28008KT 9999 SCT084/// OVC100/// 18/09 Q1014",
      "taf": "TAF LBPD 181700Z 1818/1918 29010KT 9999 SCT080"
    },
    {
      "icao": "LBSF",
      "alert": "OK",
      "vis_m": 9999,
      "fzfg": false,
      "metar_trigger": false,
      "taf_trigger": false,
      "metar": "METAR LBSF 182230Z AUTO 30004KT 9999 BKN062/// 10/06 Q1016 NOSIG",
      "taf": "TAF LBSF 181700Z 1818/1918 29010KT CAVOK"
    },
    {
      "icao": "LBWN",
      "alert": "OK",
      "vis_m": 9999,
      "fzfg": false,
      "metar_trigger": false,
      "taf_trigger": false,
      "metar": "METAR LBWN 182230Z AUTO 31006KT 9999 NCD 14/10 Q1013 NOSIG",
      "taf": "TAF LBWN 181700Z 1818/1918 VRB03KT CAVOK"
    },
    {
      "icao": "LCLK",
      "alert": "OK",
      "vis_m": 9999,
      "fzfg": false,
      "metar_trigger": false,
      "taf_trigger": false,
      "metar": "METAR LCLK 182230Z 29003KT CAVOK 18/13 Q1008 NOSIG",
      "taf": "TAF LCLK 181730Z 1818/1918 32009KT CAVOK"
    },
    {
      "icao": "LCPH",
      "alert": "OK",
      "vis_m": 9999,
      "fzfg": false,
      "metar_trigger": false,
      "taf_trigger": false,
      "metar": "METAR LCPH 182230Z 35001KT CAVOK 18/15 Q1009 NOSIG",
      "taf": "TAF LCPH 181730Z 1818/1918 35009KT CAVOK"
    },
    {
      "icao": "LEAL",
      "alert": "OK",
      "vis_m": 9999,
      "fzfg": false,
      "metar_trigger": false,
      "taf_trigger": false,
      "metar": "METAR LEAL 182230Z 03003KT 9999 FEW060 19/17 Q1019 NOSIG",
      "taf": "TAF LEAL 181700Z 1818/1918 17008KT 9999 FEW060 TX27/1912Z TN14/1905Z"
    },
    {
      "icao": "LEBB",
      "alert": "OK",
      "vis_m": 9999,
      "fzfg": false,
      "metar_trigger": false,
      "taf_trigger": false,
      "metar": "METAR LEBB 182230Z AUTO 11005KT CAVOK 15/12 Q1018",
      "taf": "TAF LEBB 181700Z 1818/1918 13006KT 9999 FEW040 TX24/1912Z TN10/1904Z"
    },
    {
      "icao": "LEBL",
      "alert": "OK",
      "vis_m": 9999,
      "fzfg": false,
      "metar_trigger": false,
      "taf_trigger": false,
      "metar": "METAR LEBL 182230Z 22004KT 9999 FEW008 SCT014 18/17 Q1019 NOSIG",
      "taf": "TAF LEBL 181700Z 1818/1918 20010KT 9999 BKN025 TX22/1912Z TN14/1906Z"
    },
    {
      "icao": "LECH",
      "alert": "OK",
      "vis_m": 9999,
      "fzfg": false,
      "metar_trigger": false,
      "taf_trigger": false,
      "metar": "METAR LECH 182230Z AUTO VRB02KT CAVOK 15/13 Q1019",
      "taf": "TAF LECH 181700Z 1818/1918 13008KT 9999 FEW040 TX26/1912Z TN11/1905Z"
    },
    {
      "icao": "LEMD",
      "alert": "OK",
      "vis_m": 9999,
      "fzfg": false,
      "metar_trigger": false,
      "taf_trigger": false,
      "metar": "METAR LEMD 182230Z 25007KT 210V310 CAVOK 18/06 Q1019 NOSIG",
      "taf": ""
    },
    {
      "icao": "LEMG",
      "alert": "OK",
      "vis_m": 9999,
      "fzfg": false,
      "metar_trigger": false,
      "taf_trigger": false,
      "metar": "METAR LEMG 182230Z 30004KT CAVOK 19/11 Q1019 NOSIG",
      "taf": "TAF LEMG 181700Z 1818/1918 30006KT 9999 FEW035 TX27/1914Z TN13/1906Z"
    },
    {
      "icao": "LEVC",
      "alert": "OK",
      "vis_m": 9999,
      "fzfg": false,
      "metar_trigger": false,
      "taf_trigger": false,
      "metar": "METAR LEVC 182230Z 23004KT CAVOK 18/14 Q1018 NOSIG",
      "taf": "TAF LEVC 181700Z 1818/1918 08007KT 9999 FEW060 TX31/1915Z TN15/1906Z"
    },
    {
      "icao": "LEXJ",
      "alert": "OK",
      "vis_m": 9999,
      "fzfg": false,
      "metar_trigger": false,
      "taf_trigger": false,
      "metar": "METAR LEXJ 182230Z AUTO VRB02KT 9999 3700E NSC 15/11 Q1017",
      "taf": "TAF LEXJ 182000Z 1821/1921 VRB03KT 9999 FEW060 TX23/1912Z TN12/1903Z"
    },
    {
      "icao": "LEZG",
      "alert": "OK",
      "vis_m": 9999,
      "fzfg": false,
      "metar_trigger": false,
      "taf_trigger": false,
      "metar": "METAR LEZG 182230Z 23004KT 9999 SCT085 17/11 Q1018 NOSIG",
      "taf": "TAF LEZG 181700Z 1818/1918 VRB04KT 9999 FEW070 TX31/1915Z TN14/1906Z"
    },
    {
      "icao": "LEZL",
      "alert": "OK",
      "vis_m": 9999,
      "fzfg": false,
      "metar_trigger": false,
      "taf_trigger": false,
      "metar": "METAR LEZL 182230Z 21005KT CAVOK 18/10 Q1020 NOSIG",
      "taf": "TAF LEZL 182000Z 1821/1921 21011KT CAVOK TX28/1915Z TN13/1906Z"
    },
    {
      "icao": "LFBD",
      "alert": "OK",
      "vis_m": 9999,
      "fzfg": false,
      "metar_trigger": false,
      "taf_trigger": false,
      "metar": "METAR LFBD 182230Z AUTO 00000KT CAVOK 14/09 Q1018 NOSIG",
      "taf": "TAF LFBD 181700Z 1818/1924 26010KT CAVOK TX21/1915Z TN11/1823Z"
    },
    {
      "icao": "LFLL",
      "alert": "OK",
      "vis_m": 9999,
      "fzfg": false,
      "metar_trigger": false,
      "taf_trigger": false,
      "metar": "METAR LFLL 182230Z 03003KT CAVOK 13/07 Q1018 NOSIG",
      "taf": "TAF LFLL 181700Z 1818/1924 32007KT 9999 SCT050"
    },
    {
      "icao": "LFLS",
      "alert": "OK",
      "vis_m": 9999,
      "fzfg": false,
      "metar_trigger": false,
      "taf_trigger": false,
      "metar": "METAR LFLS 182230Z AUTO VRB02KT CAVOK 08/07 Q1018",
      "taf": "TAF LFLS 181400Z 1815/1915 10005KT 9999 SCT050"
    },
    {
      "icao": "LFMN",
      "alert": "OK",
      "vis_m": 9999,
      "fzfg": false,
      "metar_trigger": false,
      "taf_trigger": false,
      "metar": "METAR LFMN 182230Z 32008KT CAVOK 14/11 Q1015 NOSIG",
      "taf": "TAF LFMN 182000Z 1821/2003 VRB04KT CAVOK"
    },
    {
      "icao": "LFOB",
      "alert": "OK",
      "vis_m": 7000,
      "fzfg": false,
      "metar_trigger": false,
      "taf_trigger": false,
      "metar": "METAR LFOB 182230Z AUTO 17001KT 7000 1300 R30/P5000 R12/P5000 NSC 08/08 Q1016 NOSIG",
      "taf": "TAF LFOB 181700Z 1818/1918 26003KT 9999 BKN030"
    },
    {
      "icao": "LFPO",
      "alert": "OK",
      "vis_m": 9999,
      "fzfg": false,
      "metar_trigger": false,
      "taf_trigger": false,
      "metar": "METAR LFPO 182230Z AUTO 19004KT CAVOK 10/09 Q1016 NOSIG",
      "taf": "TAF LFPO 181700Z 1818/1924 23006KT 9999 SCT030"
    },
    {
      "icao": "LFSB",
      "alert": "OK",
      "vis_m": 9999,
      "fzfg": false,
      "metar_trigger": false,
      "taf_trigger": false,
      "metar": "METAR LFSB 182230Z AUTO VRB01KT CAVOK 08/07 Q1019 NOSIG",
      "taf": "TAF LFSB 181700Z 1818/1918 20003KT 9999 FEW040 SCT070"
    },
    {
      "icao": "LGAV",
      "alert": "OK",
      "vis_m": 9999,
      "fzfg": false,
      "metar_trigger": false,
      "taf_trigger": false,
      "metar": "METAR LGAV 182220Z 27004KT 9999 FEW030 15/09 Q1014 NOSIG",
      "taf": "TAF LGAV 181700Z 1818/1918 VRB05KT 9999 FEW030"
    },
    {
      "icao": "LGTS",
      "alert": "OK",
      "vis_m": 9999,
      "fzfg": false,
      "metar_trigger": false,
      "taf_trigger": false,
      "metar": "METAR LGTS 182220Z 11006KT 9999 FEW025 15/14 Q1014 NOSIG",
      "taf": "TAF LGTS 181700Z 1818/1918 VRB03KT 9999 FEW030"
    },
    {
      "icao": "LHBP",
      "alert": "OK",
      "vis_m": 9999,
      "fzfg": false,
      "metar_trigger": false,
      "taf_trigger": false,
      "metar": "METAR LHBP 182230Z 33002KT CAVOK 07/05 Q1015 NOSIG",
      "taf": "TAF LHBP 181715Z 1818/1918 32011KT CAVOK"
    },
    {
      "icao": "LHDC",
      "alert": "OK",
      "vis_m": 9999,
      "fzfg": false,
      "metar_trigger": false,
      "taf_trigger": false,
      "metar": "METAR LHDC 182215Z AUTO 00000KT 9999 OVC032 11/10 Q1015",
      "taf": "TAF LHDC 181415Z 1815/1824 21009KT 9999 BKN015 BKN040"
    },
    {
      "icao": "LIBD",
      "alert": "OK",
      "vis_m": 9999,
      "fzfg": false,
      "metar_trigger": false,
      "taf_trigger": false,
      "metar": "METAR LIBD 182220Z 29004KT 9999 FEW045 15/09 Q1015",
      "taf": "TAF LIBD 181700Z 1818/1918 VRB05KT CAVOK"
    },
    {
      "icao": "LIBG",
      "alert": "OK",
      "vis_m": null,
      "fzfg": false,
      "metar_trigger": false,
      "taf_trigger": false,
      "metar": "",
      "taf": "TAF LIBG 181400Z 1815/1824 02010KT CAVOK"
    },
    {
      "icao": "LIBP",
      "alert": "OK",
      "vis_m": 9999,
      "fzfg": false,
      "metar_trigger": false,
      "taf_trigger": false,
      "metar": "METAR LIBP 182220Z AUTO 24003KT 9999 -RA OVC071/// 15/12 Q1016 REDZ",
      "taf": "TAF LIBP 181700Z 1818/1918 VRB05KT 9999 BKN070"
    },
    {
      "icao": "LIBR",
      "alert": "OK",
      "vis_m": 9999,
      "fzfg": false,
      "metar_trigger": false,
      "taf_trigger": false,
      "metar": "METAR LIBR 182220Z 25003KT CAVOK 15/10 Q1015",
      "taf": "TAF LIBR 181700Z 1818/1918 VRB04KT CAVOK"
    },
    {
      "icao": "LICA",
      "alert": "OK",
      "vis_m": 9999,
      "fzfg": false,
      "metar_trigger": false,
      "taf_trigger": false,
      "metar": "METAR LICA 182220Z AUTO 28006KT 9999 FEW028/// 16/13 Q1018",
      "taf": "TAF LICA 181700Z 1818/1918 26006KT 9999 SCT020"
    },
    {
      "icao": "LICC",
      "alert": "OK",
      "vis_m": 9999,
      "fzfg": false,
      "metar_trigger": false,
      "taf_trigger": false,
      "metar": "METAR LICC 182220Z 22004KT 9999 FEW050 17/09 Q1017",
      "taf": "TAF LICC 181700Z 1818/1918 08010KT 9999 SCT050"
    },
    {
      "icao": "LICJ",
      "alert": "OK",
      "vis_m": 9999,
      "fzfg": false,
      "metar_trigger": false,
      "taf_trigger": false,
      "metar": "METAR LICJ 182220Z 14004KT 090V150 CAVOK 16/11 Q1019",
      "taf": "TAF LICJ 181700Z 1818/1918 VRB05KT 9999 FEW030"
    },
    {
      "icao": "LIMC",
      "alert": "OK",
      "vis_m": 9999,
      "fzfg": false,
      "metar_trigger": false,
      "taf_trigger": false,
      "metar": "METAR LIMC 182220Z 01004KT CAVOK 12/10 Q1016 NOSIG",
      "taf": "TAF LIMC 181700Z 1818/1924 VRB06KT 9999 SCT040"
    },
    {
      "icao": "LIME",
      "alert": "OK",
      "vis_m": 9999,
      "fzfg": false,
      "metar_trigger": false,
      "taf_trigger": false,
      "metar": "METAR LIME 182220Z 06002KT 9999 BKN085 14/10 Q1016 NOSIG",
      "taf": "TAF LIME 181700Z 1818/1918 VRB06KT 9999 FEW055"
    },
    {
      "icao": "LIMF",
      "alert": "OK",
      "vis_m": 9999,
      "fzfg": false,
      "metar_trigger": false,
      "taf_trigger": false,
      "metar": "METAR LIMF 182120Z 19003KT 150V210 9999 BKN100 12/10 Q1016",
      "taf": "TAF LIMF 181700Z 1818/1918 VRB06KT 9999 SCT055"
    },
    {
      "icao": "LIMJ",
      "alert": "OK",
      "vis_m": 9999,
      "fzfg": false,
      "metar_trigger": false,
      "taf_trigger": false,
      "metar": "METAR LIMJ 182220Z 06006KT 030V100 9999 FEW025CB SCT060 15/13 Q1016",
      "taf": ""
    },
    {
      "icao": "LIPE",
      "alert": "OK",
      "vis_m": 9999,
      "fzfg": false,
      "metar_trigger": false,
      "taf_trigger": false,
      "metar": "METAR LIPE 182220Z 25004KT 220V300 CAVOK 14/11 Q1016",
      "taf": "TAF LIPE 181700Z 1818/1918 VRB06KT 9999 SCT060"
    },
    {
      "icao": "LIPH",
      "alert": "OK",
      "vis_m": 9999,
      "fzfg": false,
      "metar_trigger": false,
      "taf_trigger": false,
      "metar": "METAR LIPH 182220Z AUTO 25006KT 9999 SCT071/// BKN095/// 14/10 Q1016",
      "taf": "TAF LIPH 181700Z 1818/1918 05005KT 9999 SCT040"
    },
    {
      "icao": "LIPQ",
      "alert": "OK",
      "vis_m": 9999,
      "fzfg": false,
      "metar_trigger": false,
      "taf_trigger": false,
      "metar": "METAR LIPQ 182220Z AUTO VRB02KT 9999 OVC120/// 13/10 Q1016",
      "taf": "TAF LIPQ 181700Z 1818/1918 VRB05KT CAVOK"
    },
    {
      "icao": "LIPR",
      "alert": "OK",
      "vis_m": 9999,
      "fzfg": false,
      "metar_trigger": false,
      "taf_trigger": false,
      "metar": "METAR LIPR 182220Z AUTO 15004KT 9999 BKN100/// 14/11 Q1015",
      "taf": "TAF LIPR 181700Z 1818/1918 23010KT 9999 FEW060"
    },
    {
      "icao": "LIPX",
      "alert": "OK",
      "vis_m": 9999,
      "fzfg": false,
      "metar_trigger": false,
      "taf_trigger": false,
      "metar": "METAR LIPX 182220Z 06007KT 9999 BKN080 14/12 Q1016",
      "taf": "TAF LIPX 181700Z 1818/1918 VRB05KT 9999 FEW040"
    },
    {
      "icao": "LIPY",
      "alert": "OK",
      "vis_m": 9999,
      "fzfg": false,
      "metar_trigger": false,
      "taf_trigger": false,
      "metar": "METAR LIPY 182220Z AUTO 20004KT 9999 OVC071/// 16/11 Q1015",
      "taf": "TAF LIPY 181700Z 1818/1918 20010KT 9999 SCT060"
    },
    {
      "icao": "LIPZ",
      "alert": "OK",
      "vis_m": 9999,
      "fzfg": false,
      "metar_trigger": false,
      "taf_trigger": false,
      "metar": "METAR LIPZ 182220Z 11004KT 9999 FEW070 15/11 Q1016 TEMPO 4000 SHRA",
      "taf": "TAF LIPZ 181700Z 1818/1924 02006KT 9999 SCT050"
    },
    {
      "icao": "LIRF",
      "alert": "OK",
      "vis_m": 9999,
      "fzfg": false,
      "metar_trigger": false,
      "taf_trigger": false,
      "metar": "METAR LIRF 182220Z 34004KT CAVOK 12/11 Q1017 NOSIG",
      "taf": "TAF LIRF 181700Z 1818/1924 VRB05KT 9999 FEW020"
    },
    {
      "icao": "LIRN",
      "alert": "OK",
      "vis_m": 9999,
      "fzfg": false,
      "metar_trigger": false,
      "taf_trigger": false,
      "metar": "METAR LIRN 182220Z 22002KT 9999 SCT025 16/10 Q1017 NOSIG",
      "taf": "TAF LIRN 181700Z 1818/1918 28010KT CAVOK"
    },
    {
      "icao": "LIRP",
      "alert": "OK",
      "vis_m": 9999,
      "fzfg": false,
      "metar_trigger": false,
      "taf_trigger": false,
      "metar": "METAR LIRP 182215Z 14004KT 9999 FEW020 SCT030 13/11 Q1017 NOSIG",
      "taf": "TAF LIRP 181700Z 1818/1918 28010KT 9999 SCT020"
    },
    {
      "icao": "LIRZ",
      "alert": "OK",
      "vis_m": 9999,
      "fzfg": false,
      "metar_trigger": false,
      "taf_trigger": false,
      "metar": "METAR LIRZ 182220Z AUTO 13004KT 9999 FEW039/// 13/11 Q1017",
      "taf": "TAF LIRZ 181700Z 1818/1918 25010KT 9999 SCT040"
    },
    {
      "icao": "LJLJ",
      "alert": "OK",
      "vis_m": 9999,
      "fzfg": false,
      "metar_trigger": false,
      "taf_trigger": false,
      "metar": "METAR LJLJ 182230Z 29004KT 9999 FEW070 SCT120 10/08 Q1016 NOSIG",
      "taf": "TAF LJLJ 181700Z 1818/1918 30005KT 9999 FEW035 SCT060"
    },
    {
      "icao": "LKMT",
      "alert": "OK",
      "vis_m": 8000,
      "fzfg": false,
      "metar_trigger": false,
      "taf_trigger": false,
      "metar": "METAR LKMT 182230Z 20005KT 8000 NSC 06/06 Q1016 NOSIG",
      "taf": "TAF LKMT 181700Z 1818/1918 VRB02KT CAVOK"
    },
    {
      "icao": "LKPR",
      "alert": "OK",
      "vis_m": 9999,
      "fzfg": false,
      "metar_trigger": false,
      "taf_trigger": false,
      "metar": "METAR LKPR 182230Z 13003KT CAVOK 12/02 Q1015 NOSIG",
      "taf": "TAF LKPR 182000Z 1821/2003 VRB02KT CAVOK"
    },
    {
      "icao": "LLBG",
      "alert": "OK",
      "vis_m": 9999,
      "fzfg": false,
      "metar_trigger": false,
      "taf_trigger": false,
      "metar": "METAR LLBG 182220Z 22004KT 9999 FEW014 22/18 Q1011 TEMPO 7000 BKN012",
      "taf": ""
    },
    {
      "icao": "LMML",
      "alert": "OK",
      "vis_m": 9999,
      "fzfg": false,
      "metar_trigger": false,
      "taf_trigger": false,
      "metar": "METAR LMML 182215Z 28006KT CAVOK 15/12 Q1018 NOSIG",
      "taf": "TAF LMML 181700Z 1818/1918 VRB06KT 9999 FEW020"
    },
    {
      "icao": "LOWW",
      "alert": "OK",
      "vis_m": 9999,
      "fzfg": false,
      "metar_trigger": false,
      "taf_trigger": false,
      "metar": "METAR LOWW 182220Z 14003KT CAVOK 12/07 Q1016 NOSIG",
      "taf": "TAF LOWW 182015Z 1821/2003 VRB05KT 9999 FEW050 TX21/1914Z TN07/1903Z"
    },
    {
      "icao": "LPFR",
      "alert": "OK",
      "vis_m": 9999,
      "fzfg": false,
      "metar_trigger": false,
      "taf_trigger": false,
      "metar": "METAR LPFR 182230Z 30004KT CAVOK 16/10 Q1021",
      "taf": "TAF LPFR 181700Z 1818/1918 26013KT CAVOK"
    },
    {
      "icao": "LPMA",
      "alert": "OK",
      "vis_m": 9999,
      "fzfg": false,
      "metar_trigger": false,
      "taf_trigger": false,
      "metar": "METAR LPMA 182230Z 02009KT 340V070 9999 FEW014 17/13 Q1025",
      "taf": "TAF LPMA 181700Z 1818/1918 01012KT 9999 SCT015"
    },
    {
      "icao": "LPPR",
      "alert": "OK",
      "vis_m": 9999,
      "fzfg": false,
      "metar_trigger": false,
      "taf_trigger": false,
      "metar": "METAR LPPR 182230Z 19008KT 9999 FEW018 BKN028 15/11 Q1022",
      "taf": "TAF LPPR 181700Z 1818/1918 24008KT 9999 SCT020"
    },
    {
      "icao": "LPPS",
      "alert": "OK",
      "vis_m": 9999,
      "fzfg": false,
      "metar_trigger": false,
      "taf_trigger": false,
      "metar": "METAR LPPS 182230Z 35008KT 9999 FEW015 17/14 Q1025",
      "taf": "TAF LPPS 181700Z 1818/1924 36012KT 9999 SCT015"
    },
    {
      "icao": "LPPT",
      "alert": "OK",
      "vis_m": 9999,
      "fzfg": false,
      "metar_trigger": false,
      "taf_trigger": false,
      "metar": "METAR LPPT 182230Z VRB02KT CAVOK 14/10 Q1022",
      "taf": "TAF LPPT 181700Z 1818/1924 30012KT 9999 SCT035"
    },
    {
      "icao": "LQBK",
      "alert": "OK",
      "vis_m": 9999,
      "fzfg": false,
      "metar_trigger": false,
      "taf_trigger": false,
      "metar": "METAR LQBK 182230Z VRB01KT CAVOK 09/08 Q1016 NOSIG",
      "taf": "TAF LQBK 181700Z 1818/1918 06005KT CAVOK TX23/1914Z TN07/1904Z"
    },
    {
      "icao": "LQSA",
      "alert": "OK",
      "vis_m": 9999,
      "fzfg": false,
      "metar_trigger": false,
      "taf_trigger": false,
      "metar": "METAR LQSA 182230Z 20003KT CAVOK 08/06 Q1017",
      "taf": "TAF LQSA 181700Z 1818/1918 VRB02KT CAVOK TX22/1914Z TN07/1904Z"
    },
    {
      "icao": "LQTZ",
      "alert": "OK",
      "vis_m": 9999,
      "fzfg": false,
      "metar_trigger": false,
      "taf_trigger": false,
      "metar": "METAR LQTZ 182230Z VRB02KT CAVOK 07/07 Q1016",
      "taf": "TAF LQTZ 181700Z 1818/1918 VRB02KT CAVOK TX23/1913Z TN05/1904Z"
    },
    {
      "icao": "LRBC",
      "alert": "OK",
      "vis_m": 9999,
      "fzfg": false,
      "metar_trigger": false,
      "taf_trigger": false,
      "metar": "METAR LRBC 182230Z 33004KT CAVOK 13/12 Q1013",
      "taf": "TAF LRBC 182000Z 1821/1906 VRB04KT CAVOK"
    },
    {
      "icao": "LRBS",
      "alert": "OK",
      "vis_m": 9999,
      "fzfg": false,
      "metar_trigger": false,
      "taf_trigger": false,
      "metar": "METAR LRBS 182230Z 28004KT 250V320 CAVOK 14/10 Q1013 NOSIG",
      "taf": "TAF LRBS 181700Z 1818/1918 26010KT CAVOK"
    },
    {
      "icao": "LRBV",
      "alert": "OK",
      "vis_m": 9999,
      "fzfg": false,
      "metar_trigger": false,
      "taf_trigger": false,
      "metar": "METAR LRBV 182230Z AUTO 31007KT 9999 SCT035/// BKN045/// BKN063/// 13/08 Q1015",
      "taf": "TAF LRBV 181400Z 1815/1824 29006KT CAVOK"
    },
    {
      "icao": "LRCL",
      "alert": "OK",
      "vis_m": 9999,
      "fzfg": false,
      "metar_trigger": false,
      "taf_trigger": false,
      "metar": "METAR LRCL 182230Z 03001KT CAVOK 12/10 Q1015",
      "taf": "TAF LRCL 182000Z 1821/1906 31006KT 9999 SCT015"
    },
    {
      "icao": "LRCV",
      "alert": "OK",
      "vis_m": 9999,
      "fzfg": false,
      "metar_trigger": false,
      "taf_trigger": false,
      "metar": "METAR LRCV 182230Z 26005KT CAVOK 10/07 Q1014",
      "taf": "TAF LRCV 182000Z 1821/1906 26008KT CAVOK"
    },
    {
      "icao": "LRIA",
      "alert": "OK",
      "vis_m": 9999,
      "fzfg": false,
      "metar_trigger": false,
      "taf_trigger": false,
      "metar": "METAR LRIA 182230Z 27006KT CAVOK 15/10 Q1012",
      "taf": "TAF LRIA 182000Z 1821/1906 30008KT CAVOK"
    },
    {
      "icao": "LROP",
      "alert": "OK",
      "vis_m": 9999,
      "fzfg": false,
      "metar_trigger": false,
      "taf_trigger": false,
      "metar": "METAR LROP 182230Z 24006KT CAVOK 13/12 Q1013 NOSIG",
      "taf": "TAF LROP 181700Z 1818/1918 26010KT CAVOK"
    },
    {
      "icao": "LRSB",
      "alert": "OK",
      "vis_m": 9999,
      "fzfg": false,
      "metar_trigger": false,
      "taf_trigger": false,
      "metar": "METAR LRSB 182230Z VRB01KT 9999 BKN050 13/10 Q1016",
      "taf": "TAF LRSB 181700Z 1818/1918 30014KT 9999 SCT040"
    },
    {
      "icao": "LRSM",
      "alert": "OK",
      "vis_m": 9999,
      "fzfg": false,
      "metar_trigger": false,
      "taf_trigger": false,
      "metar": "METAR LRSM 182230Z AUTO 00000KT 9999 FEW050/// BKN085/// 11/10 Q1016",
      "taf": "TAF LRSM 181400Z 1815/1824 26012KT 9999 BKN040"
    },
    {
      "icao": "LRSV",
      "alert": "OK",
      "vis_m": 9999,
      "fzfg": false,
      "metar_trigger": false,
      "taf_trigger": false,
      "metar": "METAR LRSV 182230Z 31011KT CAVOK 13/10 Q1013",
      "taf": "TAF LRSV 182000Z 1821/1906 31010KT CAVOK"
    },
    {
      "icao": "LRTM",
      "alert": "OK",
      "vis_m": 9999,
      "fzfg": false,
      "metar_trigger": false,
      "taf_trigger": false,
      "metar": "METAR LRTM 182230Z 29004KT 9999 OVC022 14/11 Q1016",
      "taf": "TAF LRTM 182000Z 1821/1906 30006KT 9999 SCT040"
    },
    {
      "icao": "LRTR",
      "alert": "OK",
      "vis_m": 9999,
      "fzfg": false,
      "metar_trigger": false,
      "taf_trigger": false,
      "metar": "METAR LRTR 182230Z 08005KT CAVOK 08/08 Q1015",
      "taf": "TAF LRTR 181700Z 1818/1918 VRB04KT CAVOK"
    },
    {
      "icao": "LTAC",
      "alert": "OK",
      "vis_m": 9999,
      "fzfg": false,
      "metar_trigger": false,
      "taf_trigger": false,
      "metar": "METAR LTAC 182220Z 27005KT 230V290 CAVOK 09/05 Q1015 NOSIG RMK RWY21C 22004KT 190V260 RWY03L 26005KT RWY21R 21004KT 180V250 RWY03R 00000KT RWY21L 23004KT",
      "taf": "TAF LTAC 181640Z 1818/1918 VRB02KT 9999 SCT040 SCT100"
    },
    {
      "icao": "LTFM",
      "alert": "OK",
      "vis_m": 9999,
      "fzfg": false,
      "metar_trigger": false,
      "taf_trigger": false,
      "metar": "METAR LTFM 182220Z 20008KT 180V240 CAVOK 16/11 Q1014 NOSIG RMK RWY17L 19008KT RWY34L 18005KT 150V240 RWY16R 22005KT RWY36 21008KT RWY18 21009KT",
      "taf": "TAF LTFM 181640Z 1818/1924 22010KT CAVOK"
    },
    {
      "icao": "LUKK",
      "alert": "OK",
      "vis_m": 9999,
      "fzfg": false,
      "metar_trigger": false,
      "taf_trigger": false,
      "metar": "METAR LUKK 182230Z VRB03KT CAVOK 16/12 Q1011 NOSIG",
      "taf": "TAF LUKK 181716Z 1818/1918 33008KT CAVOK"
    },
    {
      "icao": "LWOH",
      "alert": "OK",
      "vis_m": null,
      "fzfg": false,
      "metar_trigger": false,
      "taf_trigger": false,
      "metar": "",
      "taf": "TAF LWOH 182030Z 1821/1921 VRB02KT 9999 SCT040 BKN070"
    },
    {
      "icao": "LWSK",
      "alert": "OK",
      "vis_m": 9999,
      "fzfg": false,
      "metar_trigger": false,
      "taf_trigger": false,
      "metar": "METAR LWSK 182220Z 01006KT 280V040 9999 SCT050 15/08 Q1015 NOSIG",
      "taf": "TAF LWSK 182030Z 1821/1921 VRB02KT 9999 BKN070"
    },
    {
      "icao": "LYBE",
      "alert": "OK",
      "vis_m": 9999,
      "fzfg": false,
      "metar_trigger": false,
      "taf_trigger": false,
      "metar": "METAR LYBE 182230Z 20005KT CAVOK 12/09 Q1016 NOSIG",
      "taf": "TAF LYBE 181700Z 1818/1918 20004KT CAVOK TX22/1914Z TN07/1904Z"
    },
    {
      "icao": "LYNI",
      "alert": "OK",
      "vis_m": 9999,
      "fzfg": false,
      "metar_trigger": false,
      "taf_trigger": false,
      "metar": "METAR LYNI 182230Z 08003KT CAVOK 10/07 Q1016 NOSIG",
      "taf": "TAF LYNI 181700Z 1818/1918 04005KT CAVOK TX21/1914Z TN05/1904Z"
    },
    {
      "icao": "LYPG",
      "alert": "OK",
      "vis_m": 9999,
      "fzfg": false,
      "metar_trigger": false,
      "taf_trigger": false,
      "metar": "METAR LYPG 182230Z VRB01KT 9999 SCT080 16/11 Q1015 NOSIG",
      "taf": "TAF LYPG 181700Z 1818/1918 17006KT 9999 FEW040 TX23/1913Z TN13/1903Z"
    },
    {
      "icao": "LZIB",
      "alert": "OK",
      "vis_m": 9999,
      "fzfg": false,
      "metar_trigger": false,
      "taf_trigger": false,
      "metar": "METAR LZIB 182230Z 33002KT CAVOK 11/08 Q1016 NOSIG",
      "taf": "TAF LZIB 181715Z 1818/1918 35012KT CAVOK"
    },
    {
      "icao": "LZKZ",
      "alert": "OK",
      "vis_m": 9999,
      "fzfg": false,
      "metar_trigger": false,
      "taf_trigger": false,
      "metar": "METAR LZKZ 182230Z 01008KT 9999 -RA OVC020 12/10 Q1015 NOSIG",
      "taf": "TAF LZKZ 181715Z 1818/1918 25007KT 9999 BKN030"
    },
    {
      "icao": "LZTT",
      "alert": "OK",
      "vis_m": 9999,
      "fzfg": false,
      "metar_trigger": false,
      "taf_trigger": false,
      "metar": "METAR LZTT 182230Z 31004KT 9999 -RA BKN008 OVC016 08/08 Q1016",
      "taf": "TAF LZTT 181715Z 1818/1918 VRB02KT 9999 SCT016 BKN040"
    },
    {
      "icao": "OEJN",
      "alert": "OK",
      "vis_m": 9999,
      "fzfg": false,
      "metar_trigger": false,
      "taf_trigger": false,
      "metar": "METAR OEJN 182200Z 35006KT CAVOK 34/05 Q1005 NOSIG",
      "taf": "TAF OEJN 181700Z 1818/1924 01010KT CAVOK"
    },
    {
      "icao": "OEMA",
      "alert": "OK",
      "vis_m": 9999,
      "fzfg": false,
      "metar_trigger": false,
      "taf_trigger": false,
      "metar": "METAR OEMA 182200Z 31005KT CAVOK 35/M01 Q1013 NOSIG",
      "taf": "TAF OEMA 181700Z 1818/1924 27007KT CAVOK"
    },
    {
      "icao": "OJAI",
      "alert": "OK",
      "vis_m": 4000,
      "fzfg": false,
      "metar_trigger": false,
      "taf_trigger": false,
      "metar": "METAR OJAI 182200Z 27008KT 4000 DU NSC 22/04 Q1013 NOSIG",
      "taf": "TAF OJAI 181648Z 1818/1924 31010KT 4000 DU NSC"
    },
    {
      "icao": "OMAA",
      "alert": "OK",
      "vis_m": 9999,
      "fzfg": false,
      "metar_trigger": false,
      "taf_trigger": false,
      "metar": "METAR OMAA 182230Z 21005KT CAVOK 26/15 Q1005 NOSIG",
      "taf": "TAF OMAA 181700Z 1818/2000 22007KT 8000 NSC"
    },
    {
      "icao": "OMDB",
      "alert": "OK",
      "vis_m": 9999,
      "fzfg": false,
      "metar_trigger": false,
      "taf_trigger": false,
      "metar": "METAR OMDB 182230Z 19007KT CAVOK 26/17 Q1004 NOSIG",
      "taf": "TAF OMDB 181700Z 1818/2000 22007KT CAVOK"
    },
    {
      "icao": "UAAA",
      "alert": "OK",
      "vis_m": 9999,
      "fzfg": false,
      "metar_trigger": false,
      "taf_trigger": false,
      "metar": "METAR UAAA 182230Z 19002MPS 9999 NSC 10/07 Q1006 NOSIG",
      "taf": "TAF UAAA 181702Z 1818/1918 25002MPS 9999 SCT100 TX23/1910Z TN11/1901Z"
    },
    {
      "icao": "UBBB",
      "alert": "OK",
      "vis_m": 5000,
      "fzfg": false,
      "metar_trigger": false,
      "taf_trigger": false,
      "metar": "METAR UBBB 182230Z 14004KT 5000 BR BKN003 17/16 Q0999 NOSIG",
      "taf": "TAF UBBB 181704Z 1818/1918 17008KT 9999 SCT009 FEW030CB SCT030 TX21/1910Z TN16/1901Z"
    },
    {
      "icao": "UDSG",
      "alert": "OK",
      "vis_m": 9999,
      "fzfg": false,
      "metar_trigger": false,
      "taf_trigger": false,
      "metar": "METAR UDSG 182230Z 05004KT 9999 BKN040CB 06/03 Q1008 NOSIG",
      "taf": "TAF UDSG 181658Z 1818/1918 VRB06KT 9999 BKN040"
    },
    {
      "icao": "UDYZ",
      "alert": "OK",
      "vis_m": 9999,
      "fzfg": false,
      "metar_trigger": false,
      "taf_trigger": false,
      "metar": "METAR UDYZ 182230Z 31003KT 9999 NSC 07/06 Q1005 NOSIG",
      "taf": "TAF UDYZ 181700Z 1818/1918 06006KT 9999 SCT040"
    },
    {
      "icao": "UGKO",
      "alert": "OK",
      "vis_m": 9999,
      "fzfg": false,
      "metar_trigger": false,
      "taf_trigger": false,
      "metar": "METAR UGKO 182230Z 25015KT 9999 BKN065 13/11 Q1008 NOSIG",
      "taf": "TAF UGKO 181700Z 1818/1918 26010KT 9999 SCT030 OVC045 TX14/1910Z TN12/1902Z"
    }
  ]
}