{
  "ts_utc": "2026-01-05T16:37:15Z",
  "threshold_m": 150,
  "source": "stations_override.txt (ICAO list) + aviationweather.gov (METAR/TAF raw)",
  "station_count": 159,
  "stations": [
    {
      "icao": "BIKF",
      "alert": "OK",
      "vis_m": 9999,
      "fzfg": false,
      "metar_trigger": false,
      "taf_trigger": false,
      "metar": "METAR BIKF 051630Z 02010KT 9999 FEW019 SCT280 M02/M04 Q1015",
      "taf": "TAF BIKF 051612Z 0518/0618 03010KT CAVOK TXM02/0518Z TNM06/0610Z"
    },
    {
      "icao": "BKPR",
      "alert": "OK",
      "vis_m": 9999,
      "fzfg": false,
      "metar_trigger": false,
      "taf_trigger": false,
      "metar": "METAR BKPR 051630Z 17011KT 9999 -RA SCT040 BKN070 10/07 Q1009 NOSIG",
      "taf": ""
    },
    {
      "icao": "EBCI",
      "alert": "OK",
      "vis_m": 6000,
      "fzfg": false,
      "metar_trigger": false,
      "taf_trigger": false,
      "metar": "METAR EBCI 051620Z 22011KT 6000 -SN SCT008 BKN012 M02/M03 Q1012 BECMG 7000 NSW BKN013",
      "taf": "TAF EBCI 051116Z 0512/0618 22009KT 9999 SCT005 BKN011"
    },
    {
      "icao": "EDDB",
      "alert": "OK",
      "vis_m": 9999,
      "fzfg": false,
      "metar_trigger": false,
      "taf_trigger": false,
      "metar": "METAR EDDB 051620Z AUTO 17005KT CAVOK M03/M06 Q1012 NOSIG",
      "taf": "TAF EDDB 051100Z 0512/0612 19006KT 9999 SCT045"
    },
    {
      "icao": "EDDH",
      "alert": "OK",
      "vis_m": 9999,
      "fzfg": false,
      "metar_trigger": false,
      "taf_trigger": false,
      "metar": "METAR EDDH 051620Z AUTO 20009KT 9999 OVC012 M00/M03 Q1009 NOSIG",
      "taf": "TAF EDDH 051100Z 0512/0618 19009KT 9999 BKN015"
    },
    {
      "icao": "EDDK",
      "alert": "OK",
      "vis_m": 2900,
      "fzfg": false,
      "metar_trigger": false,
      "taf_trigger": false,
      "metar": "METAR EDDK 051620Z AUTO 18008KT 2900 -SHSN BR FEW005 BKN020 BKN025 FEW///CB M02/M03 Q1011 TEMPO SHSN BKN008",
      "taf": "TAF EDDK 051100Z 0512/0618 16005KT 9999 BKN035"
    },
    {
      "icao": "EDDN",
      "alert": "OK",
      "vis_m": 9999,
      "fzfg": false,
      "metar_trigger": false,
      "taf_trigger": false,
      "metar": "METAR EDDN 051620Z AUTO 30002KT CAVOK M05/M09 Q1013 NOSIG",
      "taf": "TAF EDDN 051100Z 0512/0612 24005KT 9999 SCT035"
    },
    {
      "icao": "EDDS",
      "alert": "OK",
      "vis_m": 9999,
      "fzfg": false,
      "metar_trigger": false,
      "taf_trigger": false,
      "metar": "METAR EDDS 051620Z AUTO 26003KT CAVOK M04/M10 Q1012 NOSIG",
      "taf": "TAF EDDS 051100Z 0512/0612 19003KT CAVOK"
    },
    {
      "icao": "EDFH",
      "alert": "OK",
      "vis_m": 9999,
      "fzfg": false,
      "metar_trigger": false,
      "taf_trigger": false,
      "metar": "METAR EDFH 051620Z 16007KT 9999 BKN010 M04/M06 Q1010",
      "taf": "TAF EDFH 051100Z 0512/0612 26010KT 9999 BKN005"
    },
    {
      "icao": "EDJA",
      "alert": "OK",
      "vis_m": 9999,
      "fzfg": false,
      "metar_trigger": false,
      "taf_trigger": false,
      "metar": "METAR EDJA 051620Z 20006KT CAVOK M09/M12 Q1011",
      "taf": "TAF EDJA 051400Z 0515/0524 22004KT 9999 SCT030"
    },
    {
      "icao": "EDLW",
      "alert": "OK",
      "vis_m": 9999,
      "fzfg": false,
      "metar_trigger": false,
      "taf_trigger": false,
      "metar": "METAR EDLW 051620Z 18013KT 9999 BKN030 BKN042 M02/M05 Q1010",
      "taf": "TAF EDLW 051100Z 0512/0612 19009KT 9999 SCT020"
    },
    {
      "icao": "EDNY",
      "alert": "OK",
      "vis_m": 9999,
      "fzfg": false,
      "metar_trigger": false,
      "taf_trigger": false,
      "metar": "METAR EDNY 051620Z COR 09002KT CAVOK M06/M10 Q1013",
      "taf": "TAF EDNY 051400Z 0515/0524 VRB03KT 9999 SCT035"
    },
    {
      "icao": "EDSB",
      "alert": "OK",
      "vis_m": 9999,
      "fzfg": false,
      "metar_trigger": false,
      "taf_trigger": false,
      "metar": "METAR EDSB 051620Z 02003KT 330V070 CAVOK M04/M07 Q1014",
      "taf": ""
    },
    {
      "icao": "EETN",
      "alert": "OK",
      "vis_m": 9999,
      "fzfg": false,
      "metar_trigger": false,
      "taf_trigger": false,
      "metar": "METAR EETN 051620Z 00000KT CAVOK M13/M14 Q1018 NOSIG",
      "taf": "TAF EETN 051130Z 0512/0612 17005KT CAVOK"
    },
    {
      "icao": "EFTU",
      "alert": "OK",
      "vis_m": 9999,
      "fzfg": false,
      "metar_trigger": false,
      "taf_trigger": false,
      "metar": "METAR EFTU 051620Z AUTO VRB01KT 9999 3500 NCD M19/M21 Q1017",
      "taf": "TAF EFTU 051423Z 0515/0615 VRB02KT CAVOK"
    },
    {
      "icao": "EGBB",
      "alert": "OK",
      "vis_m": 9999,
      "fzfg": false,
      "metar_trigger": false,
      "taf_trigger": false,
      "metar": "METAR EGBB 051620Z 31007KT CAVOK M01/M05 Q1015",
      "taf": "TAF EGBB 051059Z 0512/0612 31008KT 9999 FEW025"
    },
    {
      "icao": "EGGP",
      "alert": "OK",
      "vis_m": 9999,
      "fzfg": false,
      "metar_trigger": false,
      "taf_trigger": false,
      "metar": "METAR EGGP 051620Z 32003KT CAVOK 00/M05 Q1017",
      "taf": "TAF EGGP 051053Z 0512/0612 31005KT 9999 FEW030"
    },
    {
      "icao": "EGGW",
      "alert": "OK",
      "vis_m": 9999,
      "fzfg": false,
      "metar_trigger": false,
      "taf_trigger": false,
      "metar": "METAR EGGW 051620Z AUTO 31012KT 9999 NCD M01/M05 Q1013",
      "taf": ""
    },
    {
      "icao": "EGKK",
      "alert": "OK",
      "vis_m": 9999,
      "fzfg": false,
      "metar_trigger": false,
      "taf_trigger": false,
      "metar": "METAR EGKK 051620Z 30004KT CAVOK 01/M04 Q1014",
      "taf": "TAF EGKK 051053Z 0512/0618 32006KT 9999 FEW035"
    },
    {
      "icao": "EGNM",
      "alert": "OK",
      "vis_m": 9999,
      "fzfg": false,
      "metar_trigger": false,
      "taf_trigger": false,
      "metar": "METAR EGNM 051620Z 28007KT CAVOK M01/M05 Q1014",
      "taf": ""
    },
    {
      "icao": "EGPD",
      "alert": "OK",
      "vis_m": 9999,
      "fzfg": false,
      "metar_trigger": false,
      "taf_trigger": false,
      "metar": "METAR EGPD 051620Z COR AUTO 28005KT 9999 NCD M03/M04 Q1014 NOSIG",
      "taf": "TAF EGPD 051054Z 0512/0612 30010KT 9999 FEW012"
    },
    {
      "icao": "EGPF",
      "alert": "OK",
      "vis_m": 9999,
      "fzfg": false,
      "metar_trigger": false,
      "taf_trigger": false,
      "metar": "METAR EGPF 051620Z AUTO 25004KT 9999 NCD M02/M05 Q1017",
      "taf": "TAF EGPF 051056Z 0512/0612 28005KT CAVOK"
    },
    {
      "icao": "EHBK",
      "alert": "OK",
      "vis_m": 9999,
      "fzfg": false,
      "metar_trigger": false,
      "taf_trigger": false,
      "metar": "METAR EHBK 051625Z AUTO 23011KT 9999 SCT007/// BKN008/// OVC009/// M02/M02 Q1011 REFZDZ NOSIG",
      "taf": "TAF EHBK 051119Z 0512/0618 21012KT 9999 BKN025"
    },
    {
      "icao": "EHEH",
      "alert": "OK",
      "vis_m": 8000,
      "fzfg": false,
      "metar_trigger": false,
      "taf_trigger": false,
      "metar": "METAR EHEH 051625Z AUTO 21009KT 8000 BR NCD M02/M03 Q1010 BLU BECMG FEW010 RMK TREND REMOTE BY EHWX",
      "taf": "TAF EHEH 051121Z 0512/0618 21008KT 9999 BKN012"
    },
    {
      "icao": "EKBI",
      "alert": "OK",
      "vis_m": 9999,
      "fzfg": false,
      "metar_trigger": false,
      "taf_trigger": false,
      "metar": "METAR EKBI 051620Z AUTO 35002KT 9999 OVC008/// M01/M02 Q1008",
      "taf": "TAF EKBI 051445Z 0515/0615 05005KT 9999 BKN008"
    },
    {
      "icao": "EKCH",
      "alert": "OK",
      "vis_m": 7000,
      "fzfg": false,
      "metar_trigger": false,
      "taf_trigger": false,
      "metar": "METAR EKCH 051620Z 17002KT 7000 -SHSN SCT012 BKN046 M01/M02 Q1010 TEMPO 1200 SHSN BKN010 SCT020CB",
      "taf": "TAF EKCH 051427Z 0515/0615 12010KT 9999 BKN030"
    },
    {
      "icao": "ENAL",
      "alert": "OK",
      "vis_m": 9999,
      "fzfg": false,
      "metar_trigger": false,
      "taf_trigger": false,
      "metar": "METAR ENAL 051620Z 14010KT 9999 SCT033 M04/M11 Q1011",
      "taf": "TAF ENAL 051400Z 0515/0524 14012KT CAVOK"
    },
    {
      "icao": "ENBR",
      "alert": "OK",
      "vis_m": 9999,
      "fzfg": false,
      "metar_trigger": false,
      "taf_trigger": false,
      "metar": "METAR ENBR 051620Z 06004KT 030V090 9999 SCT050 M06/M13 Q1010 NOSIG RMK WIND 1200FT 11012KT",
      "taf": "TAF ENBR 051100Z 0512/0612 10008KT 9999 FEW040"
    },
    {
      "icao": "ENGM",
      "alert": "OK",
      "vis_m": 9999,
      "fzfg": false,
      "metar_trigger": false,
      "taf_trigger": false,
      "metar": "METAR ENGM 051620Z 01005KT 9999 -SN FEW036 BKN046 M09/M11 Q1013 NOSIG",
      "taf": "TAF ENGM 051100Z 0512/0612 02005KT 8000 -SN BKN025"
    },
    {
      "icao": "ENHD",
      "alert": "OK",
      "vis_m": 3400,
      "fzfg": false,
      "metar_trigger": false,
      "taf_trigger": false,
      "metar": "METAR ENHD 051620Z 09015KT 3400 -SN FEW002 BKN008 OVC012 M03/M04 Q1009",
      "taf": "TAF ENHD 051400Z 0515/0523 11015KT 9999 -SHSN FEW015CB BKN025"
    },
    {
      "icao": "ENTC",
      "alert": "OK",
      "vis_m": 9999,
      "fzfg": false,
      "metar_trigger": false,
      "taf_trigger": false,
      "metar": "METAR ENTC 051620Z 04004KT CAVOK M11/M14 Q1011 NOSIG RMK WIND 2600FT 10006KT",
      "taf": "TAF ENTC 051100Z 0512/0612 04010KT 9999 FEW020 SCT035"
    },
    {
      "icao": "ENTO",
      "alert": "OK",
      "vis_m": 9999,
      "fzfg": false,
      "metar_trigger": false,
      "taf_trigger": false,
      "metar": "METAR ENTO 051620Z 36009KT 9999 -SN BKN017 M08/M10 Q1013 NOSIG",
      "taf": ""
    },
    {
      "icao": "ENVA",
      "alert": "OK",
      "vis_m": 9999,
      "fzfg": false,
      "metar_trigger": false,
      "taf_trigger": false,
      "metar": "METAR ENVA 051620Z 09005KT CAVOK M16/M18 Q1013 NOSIG RMK WIND 670FT 11006KT",
      "taf": "TAF ENVA 051100Z 0512/0612 11008KT CAVOK"
    },
    {
      "icao": "ENZV",
      "alert": "OK",
      "vis_m": 800,
      "fzfg": false,
      "metar_trigger": false,
      "taf_trigger": false,
      "metar": "METAR ENZV 051620Z 11003KT 070V150 0800 SN VV008 M03/M04 Q1009 NOSIG",
      "taf": ""
    },
    {
      "icao": "EPGD",
      "alert": "OK",
      "vis_m": 9000,
      "fzfg": false,
      "metar_trigger": false,
      "taf_trigger": false,
      "metar": "METAR EPGD 051630Z 12003KT 9000 BKN003 M04/M04 Q1013",
      "taf": "TAF EPGD 051130Z 0512/0612 20007KT CAVOK"
    },
    {
      "icao": "EPKK",
      "alert": "OK",
      "vis_m": 9999,
      "fzfg": false,
      "metar_trigger": false,
      "taf_trigger": false,
      "metar": "METAR EPKK 051630Z 04004KT 010V070 CAVOK M03/M07 Q1013",
      "taf": "TAF EPKK 051430Z 0515/0615 06006KT CAVOK"
    },
    {
      "icao": "EPKT",
      "alert": "OK",
      "vis_m": 9999,
      "fzfg": false,
      "metar_trigger": false,
      "taf_trigger": false,
      "metar": "METAR EPKT 051630Z 05004KT CAVOK M03/M08 Q1012",
      "taf": "TAF EPKT 051130Z 0512/0612 VRB02KT CAVOK"
    },
    {
      "icao": "EPLB",
      "alert": "OK",
      "vis_m": 9000,
      "fzfg": false,
      "metar_trigger": false,
      "taf_trigger": false,
      "metar": "METAR EPLB 051630Z 07006KT 9000 NSC M06/M08 Q1015",
      "taf": "TAF EPLB 051130Z 0512/0612 18010KT CAVOK"
    },
    {
      "icao": "EPMO",
      "alert": "OK",
      "vis_m": 9999,
      "fzfg": false,
      "metar_trigger": false,
      "taf_trigger": false,
      "metar": "METAR EPMO 051630Z 13005KT CAVOK M04/M06 Q1015",
      "taf": "TAF EPMO 051130Z 0512/0612 14005KT CAVOK"
    },
    {
      "icao": "EPPO",
      "alert": "OK",
      "vis_m": 9999,
      "fzfg": false,
      "metar_trigger": false,
      "taf_trigger": false,
      "metar": "METAR EPPO 051630Z 15003KT CAVOK M05/M07 Q1014",
      "taf": "TAF EPPO 051130Z 0512/0612 20006KT CAVOK"
    },
    {
      "icao": "EPRA",
      "alert": "OK",
      "vis_m": 9999,
      "fzfg": false,
      "metar_trigger": false,
      "taf_trigger": false,
      "metar": "METAR EPRA 051630Z 08005KT CAVOK M05/M09 Q1015",
      "taf": "TAF EPRA 051430Z 0515/0524 10006KT CAVOK"
    },
    {
      "icao": "EPRZ",
      "alert": "OK",
      "vis_m": 9999,
      "fzfg": false,
      "metar_trigger": false,
      "taf_trigger": false,
      "metar": "METAR EPRZ 051630Z 06007KT CAVOK M03/M08 Q1013",
      "taf": "TAF EPRZ 051130Z 0512/0612 06006KT CAVOK"
    },
    {
      "icao": "EPSC",
      "alert": "OK",
      "vis_m": 9999,
      "fzfg": false,
      "metar_trigger": false,
      "taf_trigger": false,
      "metar": "METAR EPSC 051630Z 15006KT 9999 FEW041 M01/M04 Q1012",
      "taf": "TAF EPSC 051130Z 0512/0612 16007KT 9999 BKN025"
    },
    {
      "icao": "EPSY",
      "alert": "OK",
      "vis_m": 4100,
      "fzfg": false,
      "metar_trigger": false,
      "taf_trigger": false,
      "metar": "METAR EPSY 051630Z VRB02KT 4100 BR NSC M06/M07 Q1015",
      "taf": "TAF EPSY 051430Z 0515/0524 19008KT 7000 SCT010"
    },
    {
      "icao": "EPWA",
      "alert": "OK",
      "vis_m": 9999,
      "fzfg": false,
      "metar_trigger": false,
      "taf_trigger": false,
      "metar": "METAR EPWA 051630Z 11004KT CAVOK M04/M07 Q1015 NOSIG",
      "taf": "TAF EPWA 051430Z 0515/0615 12005KT CAVOK"
    },
    {
      "icao": "EPWR",
      "alert": "OK",
      "vis_m": 9999,
      "fzfg": false,
      "metar_trigger": false,
      "taf_trigger": false,
      "metar": "METAR EPWR 051630Z 12004KT CAVOK M04/M07 Q1013",
      "taf": "TAF EPWR 051430Z 0515/0615 12005KT CAVOK"
    },
    {
      "icao": "ESGG",
      "alert": "OK",
      "vis_m": 7000,
      "fzfg": false,
      "metar_trigger": false,
      "taf_trigger": false,
      "metar": "METAR ESGG 051620Z 09004KT 7000 -SN FEW018 SCT024 OVC041 M05/M06 Q1010",
      "taf": "TAF ESGG 051430Z 0515/0615 09006KT CAVOK"
    },
    {
      "icao": "ESKN",
      "alert": "OK",
      "vis_m": 9999,
      "fzfg": false,
      "metar_trigger": false,
      "taf_trigger": false,
      "metar": "METAR ESKN 051620Z 03008KT 9999 SCT032 BKN040 M05/M07 Q1013",
      "taf": "TAF ESKN 051430Z 0515/0615 06008KT 9999 BKN030"
    },
    {
      "icao": "ESMS",
      "alert": "OK",
      "vis_m": 1300,
      "fzfg": false,
      "metar_trigger": false,
      "taf_trigger": false,
      "metar": "METAR ESMS 051620Z 00000KT 1300 R17/P2000N R35/P2000N -SN VV007 M01/M01 Q1009",
      "taf": ""
    },
    {
      "icao": "ESSA",
      "alert": "OK",
      "vis_m": 9999,
      "fzfg": false,
      "metar_trigger": false,
      "taf_trigger": false,
      "metar": "METAR ESSA 051620Z 03010KT 9999 SCT039 M10/M12 Q1015 NOSIG",
      "taf": "TAF ESSA 051430Z 0515/0615 04005KT CAVOK"
    },
    {
      "icao": "EYKA",
      "alert": "OK",
      "vis_m": 9000,
      "fzfg": false,
      "metar_trigger": false,
      "taf_trigger": false,
      "metar": "METAR EYKA 051620Z 21008KT 170V250 9000 BKN018 OVC034 M02/M06 Q1016",
      "taf": "TAF EYKA 051108Z 0512/0612 21012KT 9000 SCT010 OVC015"
    },
    {
      "icao": "EYPA",
      "alert": "OK",
      "vis_m": 9999,
      "fzfg": false,
      "metar_trigger": false,
      "taf_trigger": false,
      "metar": "METAR EYPA 051620Z 10006KT 9999 OVC015 M04/M04 Q1014",
      "taf": "TAF EYPA 051107Z 0512/0612 VRB04KT 9000 SCT005 OVC015"
    },
    {
      "icao": "EYVI",
      "alert": "OK",
      "vis_m": 9999,
      "fzfg": false,
      "metar_trigger": false,
      "taf_trigger": false,
      "metar": "METAR EYVI 051620Z 20011KT 9999 -SN OVC017 M04/M05 Q1016 NOSIG",
      "taf": "TAF EYVI 051100Z 0512/0612 20010KT 8000 BKN015"
    },
    {
      "icao": "GCFV",
      "alert": "OK",
      "vis_m": 9999,
      "fzfg": false,
      "metar_trigger": false,
      "taf_trigger": false,
      "metar": "METAR GCFV 051630Z 02014KT 9999 RA FEW020 FEW025TCU SCT030 19/14 Q1015",
      "taf": "TAF GCFV 051400Z 0515/0615 02014KT 9999 SCT030 TX21/0614Z TN15/0606Z"
    },
    {
      "icao": "GCLP",
      "alert": "OK",
      "vis_m": 9999,
      "fzfg": false,
      "metar_trigger": false,
      "taf_trigger": false,
      "metar": "METAR GCLP 051630Z 35012KT 9999 4000NE FEW020 SCT030 19/14 Q1016 NOSIG",
      "taf": "TAF GCLP 051400Z 0515/0615 35007KT 9999 SCT030 TX20/0614Z TN15/0606Z"
    },
    {
      "icao": "GCTS",
      "alert": "OK",
      "vis_m": 9999,
      "fzfg": false,
      "metar_trigger": false,
      "taf_trigger": false,
      "metar": "METAR GCTS 051630Z VRB02KT 9999 FEW020 BKN080 22/13 Q1016 NOSIG",
      "taf": "TAF GCTS 051400Z 0515/0615 VRB07KT 9999 SCT030 TX22/0614Z TN16/0606Z"
    },
    {
      "icao": "GMAD",
      "alert": "OK",
      "vis_m": 9999,
      "fzfg": false,
      "metar_trigger": false,
      "taf_trigger": false,
      "metar": "METAR GMAD 051630Z 26016KT 9999 SCT026TCU FEW030 18/15 Q1010 NOSIG",
      "taf": "TAF GMAD 051100Z 0512/0618 27010KT 8000 FEW010 SCT023TCU SCT080"
    },
    {
      "icao": "GMMN",
      "alert": "OK",
      "vis_m": 9999,
      "fzfg": false,
      "metar_trigger": false,
      "taf_trigger": false,
      "metar": "METAR GMMN 051630Z 33014KT 9999 BKN020 SCT030TCU 14/11 Q1012 NOSIG",
      "taf": "TAF GMMN 051100Z 0512/0618 32009KT 9999 SCT006 BKN030"
    },
    {
      "icao": "GMMX",
      "alert": "OK",
      "vis_m": 1500,
      "fzfg": false,
      "metar_trigger": false,
      "taf_trigger": false,
      "metar": "SPECI GMMX 051632Z 21008KT 180V240 1500 SHRA SCT010 BKN020 FEW030CB 12/11 Q1012 NOSIG",
      "taf": "TAF GMMX 051100Z 0512/0618 26008KT 8000 SCT023 BKN080"
    },
    {
      "icao": "HEGN",
      "alert": "OK",
      "vis_m": 9999,
      "fzfg": false,
      "metar_trigger": false,
      "taf_trigger": false,
      "metar": "METAR HEGN 051600Z 32004KT CAVOK 22/12 Q1018 NOSIG",
      "taf": "TAF HEGN 051100Z 0512/0618 36016KT CAVOK"
    },
    {
      "icao": "HEMA",
      "alert": "OK",
      "vis_m": 4000,
      "fzfg": false,
      "metar_trigger": false,
      "taf_trigger": false,
      "metar": "METAR HEMA 051600Z 34011KT 4000 SA NSC 22/16 Q1017 NOSIG",
      "taf": "TAF HEMA 051100Z 0512/0618 35016KT CAVOK"
    },
    {
      "icao": "HESH",
      "alert": "OK",
      "vis_m": 9999,
      "fzfg": false,
      "metar_trigger": false,
      "taf_trigger": false,
      "metar": "METAR HESH 051600Z 36004KT CAVOK 23/11 Q1017 NOSIG",
      "taf": "TAF HESH 051100Z 0512/0618 01013KT CAVOK"
    },
    {
      "icao": "HESX",
      "alert": "OK",
      "vis_m": 9999,
      "fzfg": false,
      "metar_trigger": false,
      "taf_trigger": false,
      "metar": "METAR HESX 051600Z 25004KT CAVOK 17/03 Q1019 NOSIG",
      "taf": "TAF HESX 051100Z 0512/0618 26006KT CAVOK"
    },
    {
      "icao": "LATI",
      "alert": "OK",
      "vis_m": 9999,
      "fzfg": false,
      "metar_trigger": false,
      "taf_trigger": false,
      "metar": "METAR LATI 051620Z 15010KT 9999 BKN070 OVC092 16/05 Q1007 NOSIG",
      "taf": "TAF LATI 051100Z 0512/0612 16012KT 9999 SCT035 BKN080 TX18/0512Z TN11/0604Z"
    },
    {
      "icao": "LBPD",
      "alert": "OK",
      "vis_m": 9999,
      "fzfg": false,
      "metar_trigger": false,
      "taf_trigger": false,
      "metar": "METAR LBPD 051630Z AUTO 16003KT 9999 FEW120/// BKN140/// BKN160/// 10/10 Q1012 NOSIG",
      "taf": "TAF LBPD 051100Z 0512/0612 VRB04KT 9999 SCT060"
    },
    {
      "icao": "LBSF",
      "alert": "OK",
      "vis_m": 9999,
      "fzfg": false,
      "metar_trigger": false,
      "taf_trigger": false,
      "metar": "METAR LBSF 051630Z AUTO 14003KT 080V230 9999 SCT053/// 10/06 Q1011 NOSIG",
      "taf": "TAF LBSF 051100Z 0512/0612 11010KT 9999 SCT040 BKN060"
    },
    {
      "icao": "LBWN",
      "alert": "OK",
      "vis_m": 9999,
      "fzfg": false,
      "metar_trigger": false,
      "taf_trigger": false,
      "metar": "METAR LBWN 051630Z AUTO 12006KT 9999 NSC 10/10 Q1014 NOSIG",
      "taf": "TAF LBWN 051100Z 0512/0612 10010KT 9999 SCT010 OVC020"
    },
    {
      "icao": "LCLK",
      "alert": "OK",
      "vis_m": 9999,
      "fzfg": false,
      "metar_trigger": false,
      "taf_trigger": false,
      "metar": "METAR LCLK 051630Z 34007KT CAVOK 13/09 Q1021 NOSIG",
      "taf": "TAF LCLK 051130Z 0512/0612 05014KT CAVOK"
    },
    {
      "icao": "LCPH",
      "alert": "OK",
      "vis_m": 9999,
      "fzfg": false,
      "metar_trigger": false,
      "taf_trigger": false,
      "metar": "METAR LCPH 051630Z 01004KT CAVOK 14/07 Q1020 NOSIG",
      "taf": "TAF LCPH 051130Z 0512/0612 14014KT 9999 FEW040"
    },
    {
      "icao": "LEAL",
      "alert": "OK",
      "vis_m": 9999,
      "fzfg": false,
      "metar_trigger": false,
      "taf_trigger": false,
      "metar": "METAR LEAL 051630Z 07012KT 9999 SCT021 OVC033 11/07 Q1008 NOSIG",
      "taf": "TAF LEAL 051100Z 0512/0612 VRB04KT 9999 SCT020 TX13/0514Z TN04/0606Z"
    },
    {
      "icao": "LEBB",
      "alert": "OK",
      "vis_m": 9999,
      "fzfg": false,
      "metar_trigger": false,
      "taf_trigger": false,
      "metar": "METAR LEBB 051630Z 05002KT 9999 SCT071 07/M01 Q1016 NOSIG",
      "taf": "TAF LEBB 051100Z 0512/0612 13005KT 9999 FEW030 TX07/0514Z TNM00/0521Z"
    },
    {
      "icao": "LEBL",
      "alert": "OK",
      "vis_m": 9999,
      "fzfg": false,
      "metar_trigger": false,
      "taf_trigger": false,
      "metar": "METAR LEBL 051630Z 33012G22KT 290V350 9999 FEW025 05/00 Q1009 NOSIG",
      "taf": "TAF LEBL 051100Z 0512/0612 33013KT 9999 BKN045 TX08/0513Z TN01/0606Z"
    },
    {
      "icao": "LECH",
      "alert": "OK",
      "vis_m": 9000,
      "fzfg": false,
      "metar_trigger": false,
      "taf_trigger": false,
      "metar": "METAR LECH 051630Z AUTO 08003KT 010V120 9000 NSC 05/M01 Q1008",
      "taf": ""
    },
    {
      "icao": "LEMD",
      "alert": "OK",
      "vis_m": 9999,
      "fzfg": false,
      "metar_trigger": false,
      "taf_trigger": false,
      "metar": "METAR LEMD 051630Z 01009KT 330V080 CAVOK 04/M06 Q1009 NOSIG",
      "taf": "TAF LEMD 051100Z 0512/0618 VRB03KT 9999 SCT025 TX06/0514Z TNM03/0608Z"
    },
    {
      "icao": "LEMG",
      "alert": "OK",
      "vis_m": 9999,
      "fzfg": false,
      "metar_trigger": false,
      "taf_trigger": false,
      "metar": "METAR LEMG 051630Z 20004KT 110V240 9999 4000SE -TSRA FEW040CB BKN065 11/08 Q1006 RETSRA NOSIG",
      "taf": ""
    },
    {
      "icao": "LEVC",
      "alert": "OK",
      "vis_m": 9999,
      "fzfg": false,
      "metar_trigger": false,
      "taf_trigger": false,
      "metar": "METAR LEVC 051630Z 07005KT 350V120 9999 SCT026 BKN037 07/04 Q1009 NOSIG",
      "taf": ""
    },
    {
      "icao": "LEXJ",
      "alert": "OK",
      "vis_m": 9999,
      "fzfg": false,
      "metar_trigger": false,
      "taf_trigger": false,
      "metar": "METAR LEXJ 051630Z VRB02KT 9999 BKN070 07/00 Q1015",
      "taf": ""
    },
    {
      "icao": "LEZG",
      "alert": "OK",
      "vis_m": 9999,
      "fzfg": false,
      "metar_trigger": false,
      "taf_trigger": false,
      "metar": "METAR LEZG 051630Z 30019KT 9999 FEW060 05/M11 Q1010 NOSIG",
      "taf": "TAF LEZG 051100Z 0512/0612 31018KT 9999 FEW050 TX04/0515Z TN00/0606Z"
    },
    {
      "icao": "LEZL",
      "alert": "OK",
      "vis_m": 9999,
      "fzfg": false,
      "metar_trigger": false,
      "taf_trigger": false,
      "metar": "METAR LEZL 051630Z 03013KT 9999 VCSH FEW030TCU BKN040 12/07 Q1008 NOSIG",
      "taf": "TAF LEZL 051400Z 0515/0615 VRB03KT CAVOK TX15/0515Z TN02/0607Z"
    },
    {
      "icao": "LFBD",
      "alert": "OK",
      "vis_m": 9999,
      "fzfg": false,
      "metar_trigger": false,
      "taf_trigger": false,
      "metar": "METAR LFBD 051630Z AUTO 22004KT CAVOK 03/M05 Q1015 NOSIG",
      "taf": "TAF LFBD 051100Z 0512/0618 VRB03KT CAVOK TX05/0514Z TNM02/0601Z"
    },
    {
      "icao": "LFLL",
      "alert": "OK",
      "vis_m": 9999,
      "fzfg": false,
      "metar_trigger": false,
      "taf_trigger": false,
      "metar": "METAR LFLL 051630Z 35009KT CAVOK M02/M06 Q1013 NOSIG",
      "taf": "TAF LFLL 051100Z 0512/0618 35010KT CAVOK"
    },
    {
      "icao": "LFLS",
      "alert": "OK",
      "vis_m": 9999,
      "fzfg": false,
      "metar_trigger": false,
      "taf_trigger": false,
      "metar": "METAR LFLS 051630Z AUTO 35006KT 320V020 CAVOK M03/M07 Q1011",
      "taf": ""
    },
    {
      "icao": "LFMN",
      "alert": "OK",
      "vis_m": 9999,
      "fzfg": false,
      "metar_trigger": false,
      "taf_trigger": false,
      "metar": "METAR LFMN 051630Z 18010KT 150V210 9999 SCT050 BKN260 11/04 Q1004 NOSIG",
      "taf": "TAF LFMN 051400Z 0515/0621 24010KT CAVOK"
    },
    {
      "icao": "LFOB",
      "alert": "OK",
      "vis_m": 6000,
      "fzfg": false,
      "metar_trigger": false,
      "taf_trigger": false,
      "metar": "METAR LFOB 051630Z AUTO 29003KT 6000 OVC007 M00/M01 Q1013 BECMG FEW009",
      "taf": ""
    },
    {
      "icao": "LFPO",
      "alert": "OK",
      "vis_m": 3800,
      "fzfg": false,
      "metar_trigger": false,
      "taf_trigger": false,
      "metar": "METAR LFPO 051630Z AUTO 22004KT 190V260 3800 -SN BR BKN008 OVC017 M01/M02 Q1013 TEMPO 0500 FG BKN002",
      "taf": "TAF LFPO 051100Z 0512/0618 22005KT 4000 BR OVC003"
    },
    {
      "icao": "LFSB",
      "alert": "OK",
      "vis_m": 9999,
      "fzfg": false,
      "metar_trigger": false,
      "taf_trigger": false,
      "metar": "METAR LFSB 051630Z AUTO 11003KT CAVOK M03/M09 Q1014 NOSIG",
      "taf": "TAF LFSB 051100Z 0512/0612 19003KT CAVOK"
    },
    {
      "icao": "LGAV",
      "alert": "OK",
      "vis_m": 9999,
      "fzfg": false,
      "metar_trigger": false,
      "taf_trigger": false,
      "metar": "METAR LGAV 051620Z 19009KT 9999 FEW018 BKN030 15/10 Q1016 NOSIG",
      "taf": "TAF LGAV 051100Z 0512/0612 20014KT 9999 SCT025 SCT070"
    },
    {
      "icao": "LGTS",
      "alert": "OK",
      "vis_m": 9999,
      "fzfg": false,
      "metar_trigger": false,
      "taf_trigger": false,
      "metar": "METAR LGTS 051620Z 14008KT 9999 SCT035 15/09 Q1014 NOSIG",
      "taf": "TAF LGTS 051100Z 0512/0612 14010KT 9999 SCT030"
    },
    {
      "icao": "LHBP",
      "alert": "OK",
      "vis_m": 5000,
      "fzfg": false,
      "metar_trigger": false,
      "taf_trigger": false,
      "metar": "METAR LHBP 051630Z 03003KT 5000 -SN BKN006 OVC030 M01/M02 Q1011 NOSIG",
      "taf": "TAF LHBP 051115Z 0512/0612 06007KT CAVOK"
    },
    {
      "icao": "LHDC",
      "alert": "OK",
      "vis_m": 9000,
      "fzfg": false,
      "metar_trigger": false,
      "taf_trigger": false,
      "metar": "METAR LHDC 051615Z AUTO 05007KT 9000 -PL SHSN BKN017 OVC028 M00/M01 Q1011 REFZRA NOSIG",
      "taf": "TAF LHDC 051415Z 0515/0524 06009KT 6000 -SN SCT008 OVC025"
    },
    {
      "icao": "LIBD",
      "alert": "OK",
      "vis_m": 8000,
      "fzfg": false,
      "metar_trigger": false,
      "taf_trigger": false,
      "metar": "METAR LIBD 051620Z 17005KT 130V200 8000 -RA SCT040 15/12 Q1003",
      "taf": "TAF LIBD 051100Z 0512/0612 15008KT 9999 FEW040"
    },
    {
      "icao": "LIBG",
      "alert": "OK",
      "vis_m": 8000,
      "fzfg": false,
      "metar_trigger": false,
      "taf_trigger": false,
      "metar": "METAR LIBG 051550Z 15012KT 8000 FEW015 SCT030 15/15 Q1004",
      "taf": "TAF LIBG 051400Z 0515/0524 17015KT 9999 SCT030"
    },
    {
      "icao": "LIBP",
      "alert": "OK",
      "vis_m": 9999,
      "fzfg": false,
      "metar_trigger": false,
      "taf_trigger": false,
      "metar": "METAR LIBP 051620Z AUTO VRB02KT 9999 OVC012/// 08/06 Q1006",
      "taf": "TAF LIBP 051100Z 0512/0612 34006KT 2000 RA OVC004"
    },
    {
      "icao": "LIBR",
      "alert": "OK",
      "vis_m": 5000,
      "fzfg": false,
      "metar_trigger": false,
      "taf_trigger": false,
      "metar": "METAR LIBR 051620Z 16016G26KT 5000 -TSRA BR FEW015 SCT025CB 15/13 Q1004",
      "taf": "TAF LIBR 051100Z 0512/0612 17015KT 9999 SCT020"
    },
    {
      "icao": "LICA",
      "alert": "OK",
      "vis_m": 9999,
      "fzfg": false,
      "metar_trigger": false,
      "taf_trigger": false,
      "metar": "METAR LICA 051620Z AUTO 05008KT 9999 FEW056/// 16/14 Q1003",
      "taf": "TAF LICA 051100Z 0512/0612 08012KT 9999 SCT050"
    },
    {
      "icao": "LICC",
      "alert": "OK",
      "vis_m": 7000,
      "fzfg": false,
      "metar_trigger": false,
      "taf_trigger": false,
      "metar": "METAR LICC 051620Z 24009KT 7000 NSC 16/13 Q1004",
      "taf": "TAF LICC 051100Z 0512/0612 26013KT 9999 SCT030"
    },
    {
      "icao": "LICJ",
      "alert": "OK",
      "vis_m": 9999,
      "fzfg": false,
      "metar_trigger": false,
      "taf_trigger": false,
      "metar": "METAR LICJ 051620Z 20017KT CAVOK 17/11 Q1002",
      "taf": "TAF LICJ 051100Z 0512/0612 21016KT 9999 FEW030"
    },
    {
      "icao": "LIMC",
      "alert": "OK",
      "vis_m": 9999,
      "fzfg": false,
      "metar_trigger": false,
      "taf_trigger": false,
      "metar": "METAR LIMC 051620Z 16003KT CAVOK 02/M05 Q1007 NOSIG",
      "taf": "TAF LIMC 051100Z 0512/0618 VRB04KT CAVOK"
    },
    {
      "icao": "LIME",
      "alert": "OK",
      "vis_m": 9999,
      "fzfg": false,
      "metar_trigger": false,
      "taf_trigger": false,
      "metar": "METAR LIME 051620Z 27003KT 240V310 CAVOK 01/M06 Q1007 NOSIG",
      "taf": "TAF LIME 051100Z 0512/0612 VRB04KT CAVOK"
    },
    {
      "icao": "LIMF",
      "alert": "OK",
      "vis_m": 9999,
      "fzfg": false,
      "metar_trigger": false,
      "taf_trigger": false,
      "metar": "METAR LIMF 051620Z 17001KT CAVOK 02/M07 Q1007",
      "taf": "TAF LIMF 051100Z 0512/0612 VRB04KT CAVOK"
    },
    {
      "icao": "LIMJ",
      "alert": "OK",
      "vis_m": 9999,
      "fzfg": false,
      "metar_trigger": false,
      "taf_trigger": false,
      "metar": "METAR LIMJ 051620Z AUTO 03015KT 9999 FEW130/// BKN150/// 04/M04 Q1005",
      "taf": "TAF LIMJ 051100Z 0512/0612 04016KT CAVOK"
    },
    {
      "icao": "LIPE",
      "alert": "OK",
      "vis_m": 9999,
      "fzfg": false,
      "metar_trigger": false,
      "taf_trigger": false,
      "metar": "METAR LIPE 051620Z 30002KT 9999 FEW010 BKN050 04/M06 Q1007",
      "taf": "TAF LIPE 051100Z 0512/0612 28007KT 6000 SCT030 SCT060"
    },
    {
      "icao": "LIPH",
      "alert": "OK",
      "vis_m": 9999,
      "fzfg": false,
      "metar_trigger": false,
      "taf_trigger": false,
      "metar": "METAR LIPH 051620Z 02002KT CAVOK 03/M06 Q1007",
      "taf": "TAF LIPH 051100Z 0512/0612 02006KT CAVOK"
    },
    {
      "icao": "LIPQ",
      "alert": "OK",
      "vis_m": 9999,
      "fzfg": false,
      "metar_trigger": false,
      "taf_trigger": false,
      "metar": "METAR LIPQ 051620Z AUTO 02004KT 9999 -RA OVC030/// 03/M01 Q1007",
      "taf": ""
    },
    {
      "icao": "LIPR",
      "alert": "OK",
      "vis_m": 9999,
      "fzfg": false,
      "metar_trigger": false,
      "taf_trigger": false,
      "metar": "METAR LIPR 051620Z 29008KT 9999 -RA BKN020 02/01 Q1007",
      "taf": "TAF LIPR 051100Z 0512/0612 29009KT 4000 -RA OVC020"
    },
    {
      "icao": "LIPX",
      "alert": "OK",
      "vis_m": 9999,
      "fzfg": false,
      "metar_trigger": false,
      "taf_trigger": false,
      "metar": "METAR LIPX 051620Z 20002KT 9999 FEW080 02/M03 Q1007",
      "taf": "TAF LIPX 051100Z 0512/0612 VRB04KT CAVOK"
    },
    {
      "icao": "LIPY",
      "alert": "OK",
      "vis_m": 9999,
      "fzfg": false,
      "metar_trigger": false,
      "taf_trigger": false,
      "metar": "METAR LIPY 051620Z AUTO 29005KT 260V320 9999 DZ OVC005/// 03/03 Q1007",
      "taf": "TAF LIPY 051100Z 0512/0612 32010KT 6000 OVC015"
    },
    {
      "icao": "LIPZ",
      "alert": "OK",
      "vis_m": 9999,
      "fzfg": false,
      "metar_trigger": false,
      "taf_trigger": false,
      "metar": "METAR LIPZ 051620Z 06005KT 9999 FEW070 03/M01 Q1007 NOSIG",
      "taf": "TAF LIPZ 051100Z 0512/0618 02008KT CAVOK"
    },
    {
      "icao": "LIRF",
      "alert": "OK",
      "vis_m": 9999,
      "fzfg": false,
      "metar_trigger": false,
      "taf_trigger": false,
      "metar": "METAR LIRF 051620Z 15004KT 120V200 9999 FEW018 SCT040 14/12 Q1002 NOSIG",
      "taf": "TAF LIRF 051100Z 0512/0618 10010KT 8000 SCT020"
    },
    {
      "icao": "LIRN",
      "alert": "OK",
      "vis_m": 9999,
      "fzfg": false,
      "metar_trigger": false,
      "taf_trigger": false,
      "metar": "METAR LIRN 051620Z 05003KT 9999 SCT070 14/11 Q1002 NOSIG",
      "taf": "TAF LIRN 051100Z 0512/0612 VRB06KT 9999 SCT020 SCT050"
    },
    {
      "icao": "LIRP",
      "alert": "OK",
      "vis_m": 9999,
      "fzfg": false,
      "metar_trigger": false,
      "taf_trigger": false,
      "metar": "METAR LIRP 051615Z 12008KT 9999 SCT040 BKN070 06/00 Q1005 NOSIG",
      "taf": "TAF LIRP 051100Z 0512/0612 13010KT 9999 BKN040 BKN060"
    },
    {
      "icao": "LIRZ",
      "alert": "OK",
      "vis_m": 9999,
      "fzfg": false,
      "metar_trigger": false,
      "taf_trigger": false,
      "metar": "METAR LIRZ 051620Z AUTO 35008KT 9999 -RA BKN012/// 05/04 Q1004",
      "taf": "TAF LIRZ 051100Z 0512/0612 01010KT 6000 RA BKN020"
    },
    {
      "icao": "LJLJ",
      "alert": "OK",
      "vis_m": 3500,
      "fzfg": false,
      "metar_trigger": false,
      "taf_trigger": false,
      "metar": "METAR LJLJ 051630Z 14004KT 3500 -SN FEW005 SCT017 OVC040 M02/M03 Q1009 NOSIG",
      "taf": "TAF LJLJ 051100Z 0512/0612 10004KT 7000 SCT025 OVC040"
    },
    {
      "icao": "LKMT",
      "alert": "OK",
      "vis_m": 9999,
      "fzfg": false,
      "metar_trigger": false,
      "taf_trigger": false,
      "metar": "METAR LKMT 051630Z 29001KT CAVOK M04/M06 Q1012 NOSIG",
      "taf": "TAF LKMT 051100Z 0512/0612 20005KT CAVOK"
    },
    {
      "icao": "LKPR",
      "alert": "OK",
      "vis_m": 9999,
      "fzfg": false,
      "metar_trigger": false,
      "taf_trigger": false,
      "metar": "METAR LKPR 051630Z 21005KT 150V230 9999 BKN042 M03/M09 Q1012 NOSIG",
      "taf": "TAF LKPR 051400Z 0515/0621 23007KT 9999 BKN040"
    },
    {
      "icao": "LLBG",
      "alert": "OK",
      "vis_m": 9999,
      "fzfg": false,
      "metar_trigger": false,
      "taf_trigger": false,
      "metar": "METAR LLBG 051620Z VRB02KT CAVOK 17/06 Q1019 NOSIG",
      "taf": "TAF LLBG 051107Z 0512/0612 13008KT CAVOK"
    },
    {
      "icao": "LMML",
      "alert": "OK",
      "vis_m": 8000,
      "fzfg": false,
      "metar_trigger": false,
      "taf_trigger": false,
      "metar": "METAR LMML 051615Z 21008KT 8000 FEW015 17/15 Q1005 NOSIG",
      "taf": "TAF LMML 051100Z 0512/0612 21015KT 8000 NSC"
    },
    {
      "icao": "LOWW",
      "alert": "OK",
      "vis_m": 9999,
      "fzfg": false,
      "metar_trigger": false,
      "taf_trigger": false,
      "metar": "METAR LOWW 051620Z 34005KT 9999 BKN050 M03/M08 Q1013 NOSIG",
      "taf": "TAF LOWW 051415Z 0515/0621 VRB05KT 9999 FEW050 TXM02/0613Z TNM04/0607Z"
    },
    {
      "icao": "LPFR",
      "alert": "OK",
      "vis_m": 9999,
      "fzfg": false,
      "metar_trigger": false,
      "taf_trigger": false,
      "metar": "METAR LPFR 051630Z 34018KT CAVOK 12/M01 Q1011",
      "taf": "TAF LPFR 051100Z 0512/0612 34015KT CAVOK"
    },
    {
      "icao": "LPMA",
      "alert": "OK",
      "vis_m": 9999,
      "fzfg": false,
      "metar_trigger": false,
      "taf_trigger": false,
      "metar": "METAR LPMA 051630Z 02018G30KT 330V040 9999 SCT015 FEW018CB 16/10 Q1020",
      "taf": "TAF LPMA 051100Z 0512/0612 02017KT 9999 SCT015"
    },
    {
      "icao": "LPPR",
      "alert": "OK",
      "vis_m": 9999,
      "fzfg": false,
      "metar_trigger": false,
      "taf_trigger": false,
      "metar": "METAR LPPR 051630Z 36011KT 9999 SCT042 BKN048 10/01 Q1015",
      "taf": "TAF LPPR 051100Z 0512/0612 01008KT CAVOK"
    },
    {
      "icao": "LPPS",
      "alert": "OK",
      "vis_m": 9999,
      "fzfg": false,
      "metar_trigger": false,
      "taf_trigger": false,
      "metar": "METAR LPPS 051630Z 02018KT 9999 SCT015 SCT030 16/09 Q1021",
      "taf": "TAF LPPS 051100Z 0512/0618 02017KT 9999 SCT015"
    },
    {
      "icao": "LPPT",
      "alert": "OK",
      "vis_m": 9999,
      "fzfg": false,
      "metar_trigger": false,
      "taf_trigger": false,
      "metar": "METAR LPPT 051630Z 35014G29KT 9999 FEW030 09/01 Q1014",
      "taf": "TAF LPPT 051100Z 0512/0618 35017KT CAVOK"
    },
    {
      "icao": "LQBK",
      "alert": "OK",
      "vis_m": 6000,
      "fzfg": false,
      "metar_trigger": false,
      "taf_trigger": false,
      "metar": "METAR LQBK 051630Z 32002KT 6000 -FZRA SCT003 OVC015 M00/M01 Q1010 NOSIG",
      "taf": "TAF LQBK 051100Z 0512/0612 33005KT 7000 BKN007 OVC013 TXM00/0513Z TNM03/0605Z"
    },
    {
      "icao": "LQSA",
      "alert": "OK",
      "vis_m": 4500,
      "fzfg": false,
      "metar_trigger": false,
      "taf_trigger": false,
      "metar": "METAR LQSA 051630Z VRB02KT 4500 RA SCT003 BKN010 BKN040 00/00 Q1006 NOSIG",
      "taf": ""
    },
    {
      "icao": "LQTZ",
      "alert": "OK",
      "vis_m": 5000,
      "fzfg": false,
      "metar_trigger": false,
      "taf_trigger": false,
      "metar": "METAR LQTZ 051630Z 29004KT 5000 -DZ BR OVC005 M00/M00 Q1009",
      "taf": ""
    },
    {
      "icao": "LRBC",
      "alert": "OK",
      "vis_m": 3000,
      "fzfg": false,
      "metar_trigger": false,
      "taf_trigger": false,
      "metar": "METAR LRBC 051630Z 11002KT 3000 -RASN OVC023 M01/M03 Q1018",
      "taf": "TAF LRBC 051400Z 0515/0524 17004KT 3000 -SN OVC010"
    },
    {
      "icao": "LRBS",
      "alert": "OK",
      "vis_m": 9000,
      "fzfg": false,
      "metar_trigger": false,
      "taf_trigger": false,
      "metar": "METAR LRBS 051630Z 04008KT 9000 -DZ OVC003 01/00 Q1016 NOSIG",
      "taf": "TAF LRBS 051100Z 0512/0612 05010KT 1500 -RA BR OVC002"
    },
    {
      "icao": "LRBV",
      "alert": "OK",
      "vis_m": 9999,
      "fzfg": false,
      "metar_trigger": false,
      "taf_trigger": false,
      "metar": "METAR LRBV 051630Z 21003KT 9999 FEW030 BKN059 BKN075 00/M01 Q1011",
      "taf": "TAF LRBV 051400Z 0515/0524 VRB04KT 9999 SCT010 OVC040"
    },
    {
      "icao": "LRCL",
      "alert": "OK",
      "vis_m": 9999,
      "fzfg": false,
      "metar_trigger": false,
      "taf_trigger": false,
      "metar": "METAR LRCL 051630Z 08007KT 9999 -RASN SCT008 BKN017 OVC044 01/M00 Q1011",
      "taf": "TAF LRCL 051400Z 0515/0524 VRB04KT 7000 -RASN BKN010 OVC030"
    },
    {
      "icao": "LRCV",
      "alert": "OK",
      "vis_m": 7000,
      "fzfg": false,
      "metar_trigger": false,
      "taf_trigger": false,
      "metar": "METAR LRCV 051630Z 09007KT 7000 -DZ OVC004 01/01 Q1015",
      "taf": "TAF LRCV 051400Z 0515/0524 08010KT 7000 -RA BKN005 OVC020"
    },
    {
      "icao": "LRIA",
      "alert": "OK",
      "vis_m": 2000,
      "fzfg": false,
      "metar_trigger": false,
      "taf_trigger": false,
      "metar": "METAR LRIA 051630Z 09008KT 2000 -SN BKN002 OVC009 M01/M01 Q1018",
      "taf": "TAF LRIA 051400Z 0515/0524 10008KT 3000 -SN BKN002 OVC020"
    },
    {
      "icao": "LROP",
      "alert": "OK",
      "vis_m": 9999,
      "fzfg": false,
      "metar_trigger": false,
      "taf_trigger": false,
      "metar": "METAR LROP 051630Z 05011KT 9999 -RA OVC004 01/01 Q1016 NOSIG",
      "taf": "TAF LROP 051100Z 0512/0612 05010KT 3000 -RA BR OVC005"
    },
    {
      "icao": "LRSB",
      "alert": "OK",
      "vis_m": 6000,
      "fzfg": false,
      "metar_trigger": false,
      "taf_trigger": false,
      "metar": "METAR LRSB 051630Z 24004KT 6000 SCT006 M02/M02 Q1010",
      "taf": "TAF LRSB 051100Z 0512/0612 VRB04KT 9999 BKN005 BKN025"
    },
    {
      "icao": "LRSM",
      "alert": "OK",
      "vis_m": 9999,
      "fzfg": false,
      "metar_trigger": false,
      "taf_trigger": false,
      "metar": "METAR LRSM 051630Z 05005KT 9999 BKN034 01/M02 Q1011",
      "taf": "TAF LRSM 051400Z 0515/0524 06006KT 9999 BKN035"
    },
    {
      "icao": "LRSV",
      "alert": "OK",
      "vis_m": 600,
      "fzfg": false,
      "metar_trigger": false,
      "taf_trigger": false,
      "metar": "METAR LRSV 051630Z 12009KT 0600 R34/P2000 -SN FG OVC002 M03/M03 Q1015",
      "taf": ""
    },
    {
      "icao": "LRTM",
      "alert": "OK",
      "vis_m": 2700,
      "fzfg": false,
      "metar_trigger": false,
      "taf_trigger": false,
      "metar": "METAR LRTM 051630Z 25001KT 2700 -FZRA BR FEW004 SCT028 BKN048 M00/M01 Q1011",
      "taf": "TAF LRTM 051400Z 0515/0524 VRB04KT 3000 -RASN BR BKN010 OVC025"
    },
    {
      "icao": "LRTR",
      "alert": "OK",
      "vis_m": 9999,
      "fzfg": false,
      "metar_trigger": false,
      "taf_trigger": false,
      "metar": "METAR LRTR 051630Z VRB02KT 9999 -RA OVC027 01/01 Q1009",
      "taf": "TAF LRTR 051100Z 0512/0612 03008KT 5000 -RA BR BKN005 OVC025"
    },
    {
      "icao": "LTAC",
      "alert": "OK",
      "vis_m": 9999,
      "fzfg": false,
      "metar_trigger": false,
      "taf_trigger": false,
      "metar": "METAR LTAC 051620Z 04006KT 9999 FEW040 BKN100 03/00 Q1022 NOSIG RMK RWY21C 03008KT RWY03L 04005KT RWY21R 03008KT RWY03R 04006KT RWY21L 03006KT",
      "taf": "TAF LTAC 051040Z 0512/0612 VRB02KT 9999 SCT040 BKN200"
    },
    {
      "icao": "LTFM",
      "alert": "OK",
      "vis_m": 9999,
      "fzfg": false,
      "metar_trigger": false,
      "taf_trigger": false,
      "metar": "METAR LTFM 051620Z 20009KT CAVOK 13/06 Q1018 NOSIG RMK RWY17L 20012KT RWY34L 20009KT RWY16R 19012KT RWY36 19010KT RWY18 20012KT",
      "taf": "TAF LTFM 051040Z 0512/0618 19014KT CAVOK"
    },
    {
      "icao": "LUKK",
      "alert": "OK",
      "vis_m": 9000,
      "fzfg": false,
      "metar_trigger": false,
      "taf_trigger": false,
      "metar": "METAR LUKK 051630Z 09009KT 9000 -SN OVC006 M01/M01 Q1019 TEMPO 1000 SN",
      "taf": "TAF LUKK 051110Z 0512/0612 11008KT 4000 SN BKN012"
    },
    {
      "icao": "LWOH",
      "alert": "OK",
      "vis_m": 9999,
      "fzfg": false,
      "metar_trigger": false,
      "taf_trigger": false,
      "metar": "METAR LWOH 051620Z 12010KT 090V150 9999 BKN035 OVC050 10/06 Q1011",
      "taf": "TAF LWOH 051430Z 0515/0615 16010KT 9999 RA SCT010 BKN040"
    },
    {
      "icao": "LWSK",
      "alert": "OK",
      "vis_m": 9999,
      "fzfg": false,
      "metar_trigger": false,
      "taf_trigger": false,
      "metar": "METAR LWSK 051620Z 12016KT 9999 SCT050 BKN100 13/07 Q1011 NOSIG",
      "taf": "TAF LWSK 051430Z 0515/0615 13012KT 9999 FEW050 BKN090"
    },
    {
      "icao": "LYBE",
      "alert": "OK",
      "vis_m": 2000,
      "fzfg": false,
      "metar_trigger": false,
      "taf_trigger": false,
      "metar": "METAR LYBE 051630Z 00000KT 2000 RA BR BKN002 BKN020 00/M00 Q1010 NOSIG",
      "taf": "TAF LYBE 051100Z 0512/0612 27005KT 5000 BR SCT010 BKN025 TX01/0512Z TNM02/0606Z"
    },
    {
      "icao": "LYNI",
      "alert": "OK",
      "vis_m": 9999,
      "fzfg": false,
      "metar_trigger": false,
      "taf_trigger": false,
      "metar": "METAR LYNI 051630Z 32003KT 290V010 9999 BKN090 03/02 Q1010 NOSIG",
      "taf": "TAF LYNI 051100Z 0512/0612 06006KT 9999 BKN070 TX05/0513Z TN02/0606Z"
    },
    {
      "icao": "LYPG",
      "alert": "OK",
      "vis_m": 8000,
      "fzfg": false,
      "metar_trigger": false,
      "taf_trigger": false,
      "metar": "METAR LYPG 051630Z 11009KT 080V140 8000 -SHRA FEW026TCU BKN040 13/11 Q1007 TEMPO 4000 SHRA",
      "taf": ""
    },
    {
      "icao": "LZIB",
      "alert": "OK",
      "vis_m": 6000,
      "fzfg": false,
      "metar_trigger": false,
      "taf_trigger": false,
      "metar": "METAR LZIB 051630Z VRB01KT 6000 -SN FEW018 SCT048 M03/M04 Q1013 NOSIG",
      "taf": ""
    },
    {
      "icao": "LZKZ",
      "alert": "OK",
      "vis_m": 9999,
      "fzfg": false,
      "metar_trigger": false,
      "taf_trigger": false,
      "metar": "METAR LZKZ 051630Z 03009KT 9999 FEW034 BKN046 M01/M07 Q1011 NOSIG",
      "taf": "TAF LZKZ 051115Z 0512/0612 02009KT CAVOK"
    },
    {
      "icao": "LZTT",
      "alert": "OK",
      "vis_m": 9999,
      "fzfg": false,
      "metar_trigger": false,
      "taf_trigger": false,
      "metar": "METAR LZTT 051630Z 00000KT 9999 SCT066 BKN080 M05/M09 Q1009 NOSIG",
      "taf": "TAF LZTT 051115Z 0512/0612 VRB02KT CAVOK"
    },
    {
      "icao": "OEJN",
      "alert": "OK",
      "vis_m": 8000,
      "fzfg": false,
      "metar_trigger": false,
      "taf_trigger": false,
      "metar": "METAR OEJN 051600Z 28004KT 8000 FEW040 27/17 Q1015 NOSIG",
      "taf": "TAF OEJN 051100Z 0512/0618 29010KT 7000 FEW040"
    },
    {
      "icao": "OEMA",
      "alert": "OK",
      "vis_m": 9999,
      "fzfg": false,
      "metar_trigger": false,
      "taf_trigger": false,
      "metar": "METAR OEMA 051600Z 03006KT CAVOK 23/01 Q1021 NOSIG",
      "taf": "TAF OEMA 051100Z 0512/0618 11015KT 7000 NSC"
    },
    {
      "icao": "OJAI",
      "alert": "OK",
      "vis_m": 5000,
      "fzfg": false,
      "metar_trigger": false,
      "taf_trigger": false,
      "metar": "METAR OJAI 051600Z 08008KT 5000 HZ NSC 12/01 Q1022 NOSIG",
      "taf": "TAF OJAI 051100Z 0512/0618 14010KT 5000 HZ NSC"
    },
    {
      "icao": "OMAA",
      "alert": "OK",
      "vis_m": 9999,
      "fzfg": false,
      "metar_trigger": false,
      "taf_trigger": false,
      "metar": "METAR OMAA 051600Z 32006KT CAVOK 22/15 Q1021 NOSIG",
      "taf": "TAF OMAA 051100Z 0512/0618 33010KT 8000 FEW040"
    },
    {
      "icao": "OMDB",
      "alert": "OK",
      "vis_m": 9999,
      "fzfg": false,
      "metar_trigger": false,
      "taf_trigger": false,
      "metar": "METAR OMDB 051630Z 05007KT 010V100 9999 FEW035 24/11 Q1021 NOSIG",
      "taf": "TAF OMDB 051100Z 0512/0618 34010KT 8000 NSC"
    },
    {
      "icao": "UAAA",
      "alert": "OK",
      "vis_m": 5000,
      "fzfg": false,
      "metar_trigger": false,
      "taf_trigger": false,
      "metar": "METAR UAAA 051630Z 02003MPS 350V050 5000 BR OVC007 M00/M02 Q1038 NOSIG",
      "taf": "TAF UAAA 051108Z 0512/0612 22002MPS 1200 BR FU BKN011 OVC030 TX01/0609Z TNM03/0602Z"
    },
    {
      "icao": "UBBB",
      "alert": "OK",
      "vis_m": 9999,
      "fzfg": false,
      "metar_trigger": false,
      "taf_trigger": false,
      "metar": "METAR UBBB 051630Z 18010KT CAVOK 09/07 Q1024 NOSIG",
      "taf": "TAF UBBB 051054Z 0512/0612 18014G24KT CAVOK TX12/0512Z TN02/0300Z"
    },
    {
      "icao": "UDSG",
      "alert": "OK",
      "vis_m": 6000,
      "fzfg": false,
      "metar_trigger": false,
      "taf_trigger": false,
      "metar": "METAR UDSG 051630Z 07001KT 6000 NSC M16/M18 Q1030 NOSIG",
      "taf": "TAF UDSG 051100Z 0512/0612 VRB06KT 9999 FEW050"
    },
    {
      "icao": "UDYZ",
      "alert": "OK",
      "vis_m": 3000,
      "fzfg": false,
      "metar_trigger": false,
      "taf_trigger": false,
      "metar": "METAR UDYZ 051630Z 01001KT 3000 BR NSC M09/M12 Q1033 NOSIG",
      "taf": "TAF UDYZ 051100Z 0512/0612 VRB04KT 6000 NSC"
    },
    {
      "icao": "UGKO",
      "alert": "OK",
      "vis_m": 9999,
      "fzfg": false,
      "metar_trigger": false,
      "taf_trigger": false,
      "metar": "METAR UGKO 051630Z 10005KT CAVOK 06/02 Q1023 NOSIG",
      "taf": "TAF UGKO 051100Z 0512/0612 08007KT CAVOK TX15/0512Z TN03/0523Z"
    }
  ]
}