{
  "ts_utc": "2026-06-20T14:35:36Z",
  "threshold_m": 150,
  "source": "stations_override.txt (ICAO list) + aviationweather.gov (METAR/TAF raw)",
  "station_count": 159,
  "stations": [
    {
      "icao": "BIKF",
      "alert": "OK",
      "vis_m": 9999,
      "fzfg": false,
      "metar_trigger": false,
      "taf_trigger": false,
      "metar": "METAR BIKF 201430Z 01014KT CAVOK 13/04 Q1002",
      "taf": "TAF BIKF 201359Z 2015/2115 01014KT 9999 SCT035 TX13/2015Z TN06/2103Z"
    },
    {
      "icao": "BKPR",
      "alert": "OK",
      "vis_m": 9999,
      "fzfg": false,
      "metar_trigger": false,
      "taf_trigger": false,
      "metar": "METAR BKPR 201430Z 01006KT 330V140 9999 FEW050 30/09 Q1023 NOSIG",
      "taf": "TAF BKPR 201130Z 2012/2112 02008KT 9999 FEW050"
    },
    {
      "icao": "EBCI",
      "alert": "OK",
      "vis_m": 9999,
      "fzfg": false,
      "metar_trigger": false,
      "taf_trigger": false,
      "metar": "METAR EBCI 201420Z VRB05KT 9999 FEW045 29/18 Q1021 NOSIG",
      "taf": "TAF EBCI 201114Z 2012/2118 29006KT CAVOK"
    },
    {
      "icao": "EDDB",
      "alert": "OK",
      "vis_m": 9999,
      "fzfg": false,
      "metar_trigger": false,
      "taf_trigger": false,
      "metar": "METAR EDDB 201420Z AUTO VRB03KT 9999 SHRA VCTS SCT049 FEW///CB 25/22 Q1020 TEMPO TSRA",
      "taf": "TAF EDDB 201100Z 2012/2112 36010KT CAVOK"
    },
    {
      "icao": "EDDH",
      "alert": "OK",
      "vis_m": 9999,
      "fzfg": false,
      "metar_trigger": false,
      "taf_trigger": false,
      "metar": "METAR EDDH 201420Z AUTO 25008KT 210V280 CAVOK 32/17 Q1018 BECMG 31004KT",
      "taf": "TAF EDDH 201100Z 2012/2118 22006KT CAVOK"
    },
    {
      "icao": "EDDK",
      "alert": "OK",
      "vis_m": 9999,
      "fzfg": false,
      "metar_trigger": false,
      "taf_trigger": false,
      "metar": "METAR EDDK 201420Z AUTO 32011KT 300V360 CAVOK 32/21 Q1019 NOSIG",
      "taf": "TAF EDDK 201100Z 2012/2118 12005KT CAVOK"
    },
    {
      "icao": "EDDN",
      "alert": "OK",
      "vis_m": 9999,
      "fzfg": false,
      "metar_trigger": false,
      "taf_trigger": false,
      "metar": "METAR EDDN 201420Z AUTO VRB06KT CAVOK 34/13 Q1021 NOSIG",
      "taf": "TAF EDDN 201100Z 2012/2112 VRB03KT CAVOK"
    },
    {
      "icao": "EDDS",
      "alert": "OK",
      "vis_m": 9999,
      "fzfg": false,
      "metar_trigger": false,
      "taf_trigger": false,
      "metar": "METAR EDDS 201420Z AUTO VRB06KT 9999 SHRA FEW///CB 33/12 Q1021 TEMPO 29020G30KT TSRA",
      "taf": "TAF EDDS 201100Z 2012/2112 28006KT CAVOK"
    },
    {
      "icao": "EDFH",
      "alert": "OK",
      "vis_m": 9999,
      "fzfg": false,
      "metar_trigger": false,
      "taf_trigger": false,
      "metar": "METAR EDFH 201420Z 26009KT 220V310 CAVOK 32/11 Q1022",
      "taf": "TAF EDFH 201100Z 2012/2112 28007KT CAVOK"
    },
    {
      "icao": "EDJA",
      "alert": "OK",
      "vis_m": 9999,
      "fzfg": false,
      "metar_trigger": false,
      "taf_trigger": false,
      "metar": "METAR EDJA 201420Z 26010KT CAVOK 31/12 Q1023",
      "taf": "TAF EDJA 201400Z 2015/2024 28010KT CAVOK"
    },
    {
      "icao": "EDLW",
      "alert": "OK",
      "vis_m": 9999,
      "fzfg": false,
      "metar_trigger": false,
      "taf_trigger": false,
      "metar": "METAR EDLW 201420Z 23008KT 200V270 CAVOK 31/21 Q1019",
      "taf": "TAF EDLW 201100Z 2012/2112 20008KT CAVOK"
    },
    {
      "icao": "EDNY",
      "alert": "OK",
      "vis_m": 9999,
      "fzfg": false,
      "metar_trigger": false,
      "taf_trigger": false,
      "metar": "METAR EDNY 201420Z 25007KT 220V310 CAVOK 31/15 Q1022",
      "taf": "TAF EDNY 201400Z 2015/2024 24006KT CAVOK"
    },
    {
      "icao": "EDSB",
      "alert": "OK",
      "vis_m": 9999,
      "fzfg": false,
      "metar_trigger": false,
      "taf_trigger": false,
      "metar": "METAR EDSB 201420Z 27004KT 200V340 CAVOK 34/12 Q1020",
      "taf": "TAF EDSB 201100Z 2012/2112 26006KT CAVOK"
    },
    {
      "icao": "EETN",
      "alert": "OK",
      "vis_m": 9999,
      "fzfg": false,
      "metar_trigger": false,
      "taf_trigger": false,
      "metar": "METAR EETN 201420Z 23011KT 9999 FEW037 25/17 Q1019 NOSIG",
      "taf": ""
    },
    {
      "icao": "EFTU",
      "alert": "OK",
      "vis_m": 9999,
      "fzfg": false,
      "metar_trigger": false,
      "taf_trigger": false,
      "metar": "METAR EFTU 201420Z AUTO 21011KT 180V240 CAVOK 23/17 Q1017",
      "taf": "TAF EFTU 201124Z 2012/2112 20009KT CAVOK"
    },
    {
      "icao": "EGBB",
      "alert": "OK",
      "vis_m": 9999,
      "fzfg": false,
      "metar_trigger": false,
      "taf_trigger": false,
      "metar": "METAR EGBB 201420Z 30006KT 260V350 9999 BKN042 22/14 Q1020",
      "taf": "TAF EGBB 201058Z 2012/2112 25006KT 9999 SCT040"
    },
    {
      "icao": "EGGP",
      "alert": "OK",
      "vis_m": 9999,
      "fzfg": false,
      "metar_trigger": false,
      "taf_trigger": false,
      "metar": "METAR EGGP 201420Z 30011KT CAVOK 19/10 Q1021",
      "taf": "TAF EGGP 201054Z 2012/2112 29010KT 9999 FEW040"
    },
    {
      "icao": "EGGW",
      "alert": "OK",
      "vis_m": 9999,
      "fzfg": false,
      "metar_trigger": false,
      "taf_trigger": false,
      "metar": "METAR EGGW 201420Z AUTO 23009KT 9999 SCT032 SCT038 BKN044 25/17 Q1019",
      "taf": "TAF EGGW 201057Z 2012/2112 23010KT 9999 SCT030"
    },
    {
      "icao": "EGKK",
      "alert": "OK",
      "vis_m": 9999,
      "fzfg": false,
      "metar_trigger": false,
      "taf_trigger": false,
      "metar": "METAR EGKK 201420Z 24007KT 9999 BKN023 22/18 Q1021",
      "taf": "TAF EGKK 201053Z 2012/2118 22010KT 9999 SCT025"
    },
    {
      "icao": "EGNM",
      "alert": "OK",
      "vis_m": 9999,
      "fzfg": false,
      "metar_trigger": false,
      "taf_trigger": false,
      "metar": "METAR EGNM 201420Z 28012KT 9999 SCT046 20/10 Q1020",
      "taf": "TAF EGNM 201056Z 2012/2112 27008KT 9999 FEW035"
    },
    {
      "icao": "EGPD",
      "alert": "OK",
      "vis_m": 9999,
      "fzfg": false,
      "metar_trigger": false,
      "taf_trigger": false,
      "metar": "METAR EGPD 201420Z AUTO 27009KT 9999 NCD 20/07 Q1017",
      "taf": "TAF EGPD 201057Z 2012/2112 27008KT 9999 FEW045"
    },
    {
      "icao": "EGPF",
      "alert": "OK",
      "vis_m": 9999,
      "fzfg": false,
      "metar_trigger": false,
      "taf_trigger": false,
      "metar": "METAR EGPF 201420Z COR 25012KT 9999 SCT045 19/09 Q1019",
      "taf": "TAF EGPF 201054Z 2012/2112 27010KT 9999 SCT030"
    },
    {
      "icao": "EHBK",
      "alert": "OK",
      "vis_m": 9999,
      "fzfg": false,
      "metar_trigger": false,
      "taf_trigger": false,
      "metar": "METAR EHBK 201425Z AUTO 25007KT 190V290 9999 NCD 31/20 Q1019 NOSIG",
      "taf": "TAF EHBK 201112Z 2012/2118 25006KT CAVOK"
    },
    {
      "icao": "EHEH",
      "alert": "OK",
      "vis_m": 9999,
      "fzfg": false,
      "metar_trigger": false,
      "taf_trigger": false,
      "metar": "METAR EHEH 201425Z AUTO 26008KT 220V340 9999 NCD 29/16 Q1019 BLU NOSIG",
      "taf": "TAF EHEH 201113Z 2012/2118 27007KT CAVOK"
    },
    {
      "icao": "EKBI",
      "alert": "OK",
      "vis_m": 9999,
      "fzfg": false,
      "metar_trigger": false,
      "taf_trigger": false,
      "metar": "METAR EKBI 201420Z AUTO 24012KT 200V270 9999 NCD 26/17 Q1017",
      "taf": "TAF EKBI 201427Z 2015/2115 23012KT 9999 SCT025"
    },
    {
      "icao": "EKCH",
      "alert": "OK",
      "vis_m": 9999,
      "fzfg": false,
      "metar_trigger": false,
      "taf_trigger": false,
      "metar": "METAR EKCH 201420Z AUTO 18012KT 9999 FEW120/// 24/17 Q1019 NOSIG",
      "taf": "TAF EKCH 201427Z 2015/2115 18012KT 9999 FEW040"
    },
    {
      "icao": "ENAL",
      "alert": "OK",
      "vis_m": 9999,
      "fzfg": false,
      "metar_trigger": false,
      "taf_trigger": false,
      "metar": "METAR ENAL 201420Z 26013KT 9999 FEW009 13/11 Q1012",
      "taf": "TAF ENAL 201400Z 2015/2024 24015KT 9999 FEW010 BKN040"
    },
    {
      "icao": "ENBR",
      "alert": "OK",
      "vis_m": 9999,
      "fzfg": false,
      "metar_trigger": false,
      "taf_trigger": false,
      "metar": "METAR ENBR 201420Z 20005KT 160V230 9999 OVC003 13/12 Q1014 BECMG 27008KT FEW003 BKN025 RMK WIND 1200FT 28009KT",
      "taf": ""
    },
    {
      "icao": "ENGM",
      "alert": "OK",
      "vis_m": 9999,
      "fzfg": false,
      "metar_trigger": false,
      "taf_trigger": false,
      "metar": "METAR ENGM 201420Z 21011KT 9999 -SHRA FEW030CB 21/17 Q1011 NOSIG",
      "taf": "TAF ENGM 201100Z 2012/2112 20010KT 9999 FEW010 BKN020"
    },
    {
      "icao": "ENHD",
      "alert": "OK",
      "vis_m": 7000,
      "fzfg": false,
      "metar_trigger": false,
      "taf_trigger": false,
      "metar": "METAR ENHD 201420Z 22008KT 7000 -DZ SCT001 BKN003 14/13 Q1015",
      "taf": "TAF ENHD 201400Z 2015/2022 26008KT 8000 FEW003 SCT010"
    },
    {
      "icao": "ENTC",
      "alert": "OK",
      "vis_m": 9999,
      "fzfg": false,
      "metar_trigger": false,
      "taf_trigger": false,
      "metar": "METAR ENTC 201420Z 22024KT 9999 FEW026 BKN032 13/09 Q1005 BECMG 22014KT RMK WIND 2600FT 22019KT",
      "taf": ""
    },
    {
      "icao": "ENTO",
      "alert": "OK",
      "vis_m": 9999,
      "fzfg": false,
      "metar_trigger": false,
      "taf_trigger": false,
      "metar": "METAR ENTO 201420Z 21016KT 9999 SCT022TCU 20/16 Q1013 NOSIG",
      "taf": "TAF ENTO 201100Z 2012/2112 18007KT 9999 SCT009"
    },
    {
      "icao": "ENVA",
      "alert": "OK",
      "vis_m": 9999,
      "fzfg": false,
      "metar_trigger": false,
      "taf_trigger": false,
      "metar": "METAR ENVA 201420Z 26010KT 9999 FEW023 BKN030 15/12 Q1010 RMK WIND 670FT 27010KT",
      "taf": "TAF ENVA 201100Z 2012/2112 27012KT 9999 BKN055"
    },
    {
      "icao": "ENZV",
      "alert": "OK",
      "vis_m": 9999,
      "fzfg": false,
      "metar_trigger": false,
      "taf_trigger": false,
      "metar": "METAR ENZV 201420Z 24010KT 9999 BKN004 15/14 Q1016 BECMG 30008KT FEW004 BKN015",
      "taf": "TAF ENZV 201100Z 2012/2112 21012KT 8000 -RA FEW010 BKN035"
    },
    {
      "icao": "EPGD",
      "alert": "OK",
      "vis_m": 9999,
      "fzfg": false,
      "metar_trigger": false,
      "taf_trigger": false,
      "metar": "METAR EPGD 201430Z 15010KT 110V170 CAVOK 29/18 Q1020",
      "taf": "TAF EPGD 201130Z 2012/2112 17010KT CAVOK"
    },
    {
      "icao": "EPKK",
      "alert": "OK",
      "vis_m": 9999,
      "fzfg": false,
      "metar_trigger": false,
      "taf_trigger": false,
      "metar": "METAR EPKK 201430Z 14005KT 100V200 CAVOK 29/17 Q1021",
      "taf": "TAF EPKK 201430Z 2015/2115 14005KT CAVOK"
    },
    {
      "icao": "EPKT",
      "alert": "OK",
      "vis_m": 9999,
      "fzfg": false,
      "metar_trigger": false,
      "taf_trigger": false,
      "metar": "METAR EPKT 201430Z 12007KT 090V160 CAVOK 29/18 Q1021",
      "taf": "TAF EPKT 201130Z 2012/2112 14010KT CAVOK"
    },
    {
      "icao": "EPLB",
      "alert": "OK",
      "vis_m": 9999,
      "fzfg": false,
      "metar_trigger": false,
      "taf_trigger": false,
      "metar": "METAR EPLB 201430Z 17004KT CAVOK 29/13 Q1022",
      "taf": "TAF EPLB 201130Z 2012/2112 12005KT CAVOK"
    },
    {
      "icao": "EPMO",
      "alert": "OK",
      "vis_m": 9999,
      "fzfg": false,
      "metar_trigger": false,
      "taf_trigger": false,
      "metar": "METAR EPMO 201430Z 13006KT 090V180 CAVOK 30/16 Q1020",
      "taf": "TAF EPMO 201130Z 2012/2112 14008KT CAVOK"
    },
    {
      "icao": "EPPO",
      "alert": "OK",
      "vis_m": 9999,
      "fzfg": false,
      "metar_trigger": false,
      "taf_trigger": false,
      "metar": "METAR EPPO 201430Z VRB01KT CAVOK 32/18 Q1019",
      "taf": "TAF EPPO 201130Z 2012/2112 VRB05KT CAVOK"
    },
    {
      "icao": "EPRA",
      "alert": "OK",
      "vis_m": 9999,
      "fzfg": false,
      "metar_trigger": false,
      "taf_trigger": false,
      "metar": "METAR EPRA 201430Z 13004KT CAVOK 30/14 Q1021",
      "taf": "TAF EPRA 201430Z 2015/2024 12006KT CAVOK"
    },
    {
      "icao": "EPRZ",
      "alert": "OK",
      "vis_m": 9999,
      "fzfg": false,
      "metar_trigger": false,
      "taf_trigger": false,
      "metar": "METAR EPRZ 201430Z 11005KT 070V170 CAVOK 29/15 Q1022",
      "taf": "TAF EPRZ 201130Z 2012/2112 VRB04KT CAVOK"
    },
    {
      "icao": "EPSC",
      "alert": "OK",
      "vis_m": 9999,
      "fzfg": false,
      "metar_trigger": false,
      "taf_trigger": false,
      "metar": "METAR EPSC 201430Z 25004KT 9999 FEW050TCU 28/21 Q1019",
      "taf": "TAF EPSC 201130Z 2012/2112 18005KT CAVOK"
    },
    {
      "icao": "EPSY",
      "alert": "OK",
      "vis_m": 9999,
      "fzfg": false,
      "metar_trigger": false,
      "taf_trigger": false,
      "metar": "METAR EPSY 201430Z 15006KT 100V210 CAVOK 29/14 Q1021",
      "taf": "TAF EPSY 201430Z 2015/2024 17006KT CAVOK"
    },
    {
      "icao": "EPWA",
      "alert": "OK",
      "vis_m": 9999,
      "fzfg": false,
      "metar_trigger": false,
      "taf_trigger": false,
      "metar": "METAR EPWA 201430Z 11007KT 060V140 CAVOK 30/15 Q1020 NOSIG",
      "taf": "TAF EPWA 201430Z 2015/2115 12005KT CAVOK"
    },
    {
      "icao": "EPWR",
      "alert": "OK",
      "vis_m": 9999,
      "fzfg": false,
      "metar_trigger": false,
      "taf_trigger": false,
      "metar": "METAR EPWR 201430Z 23004KT 210V290 CAVOK 33/19 Q1019",
      "taf": "TAF EPWR 201430Z 2015/2115 VRB05KT CAVOK"
    },
    {
      "icao": "ESGG",
      "alert": "OK",
      "vis_m": 9999,
      "fzfg": false,
      "metar_trigger": false,
      "taf_trigger": false,
      "metar": "METAR ESGG 201420Z 20017KT 9999 FEW021 23/17 Q1017",
      "taf": "TAF ESGG 201430Z 2015/2115 20012KT 9999 SCT020"
    },
    {
      "icao": "ESKN",
      "alert": "OK",
      "vis_m": 7000,
      "fzfg": false,
      "metar_trigger": false,
      "taf_trigger": false,
      "metar": "METAR ESKN 201420Z 27007KT 7000 TSRA FEW003 SCT046CB BKN072 19/19 Q1016",
      "taf": "TAF ESKN 201430Z 2015/2115 17012KT CAVOK"
    },
    {
      "icao": "ESMS",
      "alert": "OK",
      "vis_m": 9999,
      "fzfg": false,
      "metar_trigger": false,
      "taf_trigger": false,
      "metar": "METAR ESMS 201420Z 21011KT CAVOK 27/17 Q1019",
      "taf": "TAF ESMS 201427Z 2015/2115 22010KT 9999 FEW040"
    },
    {
      "icao": "ESSA",
      "alert": "OK",
      "vis_m": 9999,
      "fzfg": false,
      "metar_trigger": false,
      "taf_trigger": false,
      "metar": "METAR ESSA 201420Z 18013KT 9999 SCT046CB 25/16 Q1014 TEMPO 3000 SHRA BKN030CB",
      "taf": "TAF ESSA 201430Z 2015/2115 20012KT 9999 SCT045"
    },
    {
      "icao": "EYKA",
      "alert": "OK",
      "vis_m": 9999,
      "fzfg": false,
      "metar_trigger": false,
      "taf_trigger": false,
      "metar": "METAR EYKA 201420Z 20004KT 130V260 CAVOK 27/14 Q1022",
      "taf": "TAF EYKA 201100Z 2012/2112 VRB03KT CAVOK"
    },
    {
      "icao": "EYPA",
      "alert": "OK",
      "vis_m": 9999,
      "fzfg": false,
      "metar_trigger": false,
      "taf_trigger": false,
      "metar": "METAR EYPA 201420Z 24005KT 190V310 CAVOK 25/15 Q1021",
      "taf": "TAF EYPA 201100Z 2012/2112 VRB03KT CAVOK"
    },
    {
      "icao": "EYVI",
      "alert": "OK",
      "vis_m": 9999,
      "fzfg": false,
      "metar_trigger": false,
      "taf_trigger": false,
      "metar": "METAR EYVI 201420Z VRB03KT CAVOK 27/13 Q1022 NOSIG",
      "taf": "TAF EYVI 201100Z 2012/2112 VRB05KT CAVOK"
    },
    {
      "icao": "GCFV",
      "alert": "OK",
      "vis_m": 9999,
      "fzfg": false,
      "metar_trigger": false,
      "taf_trigger": false,
      "metar": "METAR GCFV 201430Z 05010KT 9999 FEW027 23/17 Q1017",
      "taf": "TAF GCFV 201400Z 2015/2115 06012KT 9999 FEW020 TX26/2114Z TN20/2106Z"
    },
    {
      "icao": "GCLP",
      "alert": "OK",
      "vis_m": 9999,
      "fzfg": false,
      "metar_trigger": false,
      "taf_trigger": false,
      "metar": "METAR GCLP 201430Z 03023KT CAVOK 24/16 Q1017 NOSIG",
      "taf": "TAF GCLP 201400Z 2015/2115 02020KT 9999 FEW020 TX26/2114Z TN20/2106Z"
    },
    {
      "icao": "GCTS",
      "alert": "OK",
      "vis_m": 9999,
      "fzfg": false,
      "metar_trigger": false,
      "taf_trigger": false,
      "metar": "METAR GCTS 201430Z 11017KT 080V140 9999 FEW020 25/16 Q1017 NOSIG",
      "taf": "TAF GCTS 201400Z 2015/2115 09015KT 9999 FEW020 TX26/2114Z TN19/2106Z"
    },
    {
      "icao": "GMAD",
      "alert": "OK",
      "vis_m": 8000,
      "fzfg": false,
      "metar_trigger": false,
      "taf_trigger": false,
      "metar": "METAR GMAD 201430Z 23013KT 8000 FEW026 26/18 Q1013 NOSIG",
      "taf": "TAF GMAD 201100Z 2012/2118 28012KT 8000 SCT016"
    },
    {
      "icao": "GMMN",
      "alert": "OK",
      "vis_m": 9999,
      "fzfg": false,
      "metar_trigger": false,
      "taf_trigger": false,
      "metar": "METAR GMMN 201430Z 32010KT 290V360 9999 SCT023 28/20 Q1013 NOSIG",
      "taf": "TAF GMMN 200500Z 2006/2112 24006KT 9999 BKN016"
    },
    {
      "icao": "GMMX",
      "alert": "OK",
      "vis_m": 9999,
      "fzfg": false,
      "metar_trigger": false,
      "taf_trigger": false,
      "metar": "METAR GMMX 201430Z 34007KT 290V010 CAVOK 33/19 Q1013 NOSIG",
      "taf": "TAF GMMX 201100Z 2012/2118 06006KT 8000 NSC"
    },
    {
      "icao": "HEGN",
      "alert": "OK",
      "vis_m": 9999,
      "fzfg": false,
      "metar_trigger": false,
      "taf_trigger": false,
      "metar": "METAR HEGN 201400Z 35013KT CAVOK 33/14 Q1008 NOSIG",
      "taf": "TAF HEGN 201100Z 2012/2118 02018KT CAVOK"
    },
    {
      "icao": "HEMA",
      "alert": "OK",
      "vis_m": 9999,
      "fzfg": false,
      "metar_trigger": false,
      "taf_trigger": false,
      "metar": "METAR HEMA 201400Z 35018KT CAVOK 32/15 Q1008 NOSIG",
      "taf": "TAF HEMA 201100Z 2012/2118 36020KT CAVOK"
    },
    {
      "icao": "HESH",
      "alert": "OK",
      "vis_m": 9999,
      "fzfg": false,
      "metar_trigger": false,
      "taf_trigger": false,
      "metar": "METAR HESH 201400Z 35011KT CAVOK 37/13 Q1008 NOSIG",
      "taf": "TAF HESH 201100Z 2012/2118 02015KT CAVOK"
    },
    {
      "icao": "HESX",
      "alert": "OK",
      "vis_m": 9999,
      "fzfg": false,
      "metar_trigger": false,
      "taf_trigger": false,
      "metar": "METAR HESX 201400Z 36011KT CAVOK 33/11 Q1012 NOSIG",
      "taf": "TAF HESX 201100Z 2012/2118 01010KT CAVOK"
    },
    {
      "icao": "LATI",
      "alert": "OK",
      "vis_m": 9999,
      "fzfg": false,
      "metar_trigger": false,
      "taf_trigger": false,
      "metar": "METAR LATI 201420Z 30007KT 250V360 9999 FEW050 31/15 Q1019 NOSIG",
      "taf": "TAF LATI 201100Z 2012/2112 32012KT CAVOK TX35/2112Z TN19/2104Z"
    },
    {
      "icao": "LBPD",
      "alert": "OK",
      "vis_m": 9999,
      "fzfg": false,
      "metar_trigger": false,
      "taf_trigger": false,
      "metar": "METAR LBPD 201430Z AUTO 09007KT 020V150 9999 NCD 30/08 Q1021 NOSIG",
      "taf": "TAF LBPD 201100Z 2012/2112 08010KT 9999 SCT070"
    },
    {
      "icao": "LBSF",
      "alert": "OK",
      "vis_m": 9999,
      "fzfg": false,
      "metar_trigger": false,
      "taf_trigger": false,
      "metar": "METAR LBSF 201430Z 06010KT 010V100 9999 SCT068 28/13 Q1023 NOSIG",
      "taf": "TAF LBSF 201100Z 2012/2112 05010KT 9999 SCT070"
    },
    {
      "icao": "LBWN",
      "alert": "OK",
      "vis_m": 9999,
      "fzfg": false,
      "metar_trigger": false,
      "taf_trigger": false,
      "metar": "METAR LBWN 201430Z 11009KT 9999 FEW048 27/12 Q1021 NOSIG",
      "taf": "TAF LBWN 201100Z 2012/2112 13010KT 9999 SCT045"
    },
    {
      "icao": "LCLK",
      "alert": "OK",
      "vis_m": 9999,
      "fzfg": false,
      "metar_trigger": false,
      "taf_trigger": false,
      "metar": "METAR LCLK 201430Z 20010KT 9999 FEW025 29/21 Q1012 NOSIG",
      "taf": "TAF LCLK 201130Z 2012/2112 19014KT 9999 FEW025"
    },
    {
      "icao": "LCPH",
      "alert": "OK",
      "vis_m": 9999,
      "fzfg": false,
      "metar_trigger": false,
      "taf_trigger": false,
      "metar": "METAR LCPH 201430Z AUTO 26007KT 240V320 9999 NCD 28/20 Q1013 NOSIG",
      "taf": "TAF LCPH 201130Z 2012/2112 25008KT 9999 FEW020"
    },
    {
      "icao": "LEAL",
      "alert": "OK",
      "vis_m": 9999,
      "fzfg": false,
      "metar_trigger": false,
      "taf_trigger": false,
      "metar": "METAR LEAL 201430Z 08016KT CAVOK 31/20 Q1016 NOSIG",
      "taf": "TAF LEAL 201100Z 2012/2112 08014KT 9999 FEW049 TX32/2012Z TN23/2106Z"
    },
    {
      "icao": "LEBB",
      "alert": "OK",
      "vis_m": 9999,
      "fzfg": false,
      "metar_trigger": false,
      "taf_trigger": false,
      "metar": "METAR LEBB 201430Z 28010KT CAVOK 27/21 Q1018 NOSIG",
      "taf": ""
    },
    {
      "icao": "LEBL",
      "alert": "OK",
      "vis_m": 9999,
      "fzfg": false,
      "metar_trigger": false,
      "taf_trigger": false,
      "metar": "METAR LEBL 201430Z 09011KT CAVOK 31/14 Q1021 NOSIG",
      "taf": "TAF LEBL 201100Z 2012/2112 09009KT CAVOK TX31/2012Z TN23/2105Z"
    },
    {
      "icao": "LECH",
      "alert": "OK",
      "vis_m": 9999,
      "fzfg": false,
      "metar_trigger": false,
      "taf_trigger": false,
      "metar": "METAR LECH 201430Z AUTO 14005KT 100V170 9999 FEW050 28/17 Q1022",
      "taf": "TAF LECH 201100Z 2012/2112 10010KT CAVOK TX34/2012Z TN19/2106Z"
    },
    {
      "icao": "LEMD",
      "alert": "OK",
      "vis_m": 9999,
      "fzfg": false,
      "metar_trigger": false,
      "taf_trigger": false,
      "metar": "METAR LEMD 201430Z 15013KT 110V190 CAVOK 38/10 Q1017 NOSIG",
      "taf": "TAF LEMD 201100Z 2012/2118 VRB04KT CAVOK TX38/2015Z TN21/2105Z"
    },
    {
      "icao": "LEMG",
      "alert": "OK",
      "vis_m": 9999,
      "fzfg": false,
      "metar_trigger": false,
      "taf_trigger": false,
      "metar": "METAR LEMG 201430Z 15009KT 110V200 CAVOK 29/18 Q1014 NOSIG",
      "taf": "TAF LEMG 201100Z 2012/2112 14010KT CAVOK TX31/2014Z TN24/2106Z"
    },
    {
      "icao": "LEVC",
      "alert": "OK",
      "vis_m": 9999,
      "fzfg": false,
      "metar_trigger": false,
      "taf_trigger": false,
      "metar": "METAR LEVC 201430Z 09010KT 030V120 9999 FEW018 31/17 Q1019 NOSIG",
      "taf": "TAF LEVC 201100Z 2012/2112 08012KT CAVOK TX32/2012Z TN21/2106Z"
    },
    {
      "icao": "LEXJ",
      "alert": "OK",
      "vis_m": 9999,
      "fzfg": false,
      "metar_trigger": false,
      "taf_trigger": false,
      "metar": "METAR LEXJ 201430Z 05004KT 330V140 9999 SCT016 BKN027 22/20 Q1018",
      "taf": "TAF LEXJ 201400Z 2015/2115 06009KT 9999 SCT016 TX35/2112Z TN19/2105Z"
    },
    {
      "icao": "LEZG",
      "alert": "OK",
      "vis_m": 9999,
      "fzfg": false,
      "metar_trigger": false,
      "taf_trigger": false,
      "metar": "METAR LEZG 201430Z 10016KT 060V130 CAVOK 38/11 Q1017 NOSIG",
      "taf": "TAF LEZG 201100Z 2012/2112 11012KT 9999 FEW070 TX38/2015Z TN23/2106Z"
    },
    {
      "icao": "LEZL",
      "alert": "OK",
      "vis_m": 9999,
      "fzfg": false,
      "metar_trigger": false,
      "taf_trigger": false,
      "metar": "METAR LEZL 201430Z 21008KT 170V280 CAVOK 38/17 Q1011 NOSIG",
      "taf": "TAF LEZL 201400Z 2015/2115 VRB03KT CAVOK TX38/2015Z TN23/2106Z"
    },
    {
      "icao": "LFBD",
      "alert": "OK",
      "vis_m": 9999,
      "fzfg": false,
      "metar_trigger": false,
      "taf_trigger": false,
      "metar": "METAR LFBD 201430Z AUTO VRB04KT CAVOK 35/19 Q1018 NOSIG",
      "taf": "TAF LFBD 201100Z 2012/2118 VRB03KT CAVOK TX41/2116Z TN23/2104Z"
    },
    {
      "icao": "LFLL",
      "alert": "OK",
      "vis_m": 9999,
      "fzfg": false,
      "metar_trigger": false,
      "taf_trigger": false,
      "metar": "METAR LFLL 201430Z 17009KT 140V200 CAVOK 35/09 Q1020 NOSIG",
      "taf": "TAF LFLL 201100Z 2012/2118 17009KT CAVOK"
    },
    {
      "icao": "LFLS",
      "alert": "OK",
      "vis_m": 9999,
      "fzfg": false,
      "metar_trigger": false,
      "taf_trigger": false,
      "metar": "METAR LFLS 201430Z AUTO 21007KT 170V250 CAVOK 34/10 Q1022 NOSIG",
      "taf": "TAF LFLS 201400Z 2015/2115 08005KT CAVOK"
    },
    {
      "icao": "LFMN",
      "alert": "OK",
      "vis_m": 9999,
      "fzfg": false,
      "metar_trigger": false,
      "taf_trigger": false,
      "metar": "METAR LFMN 201430Z 11004KT CAVOK 28/23 Q1021 NOSIG",
      "taf": "TAF LFMN 201400Z 2015/2121 14004KT CAVOK"
    },
    {
      "icao": "LFOB",
      "alert": "OK",
      "vis_m": 9999,
      "fzfg": false,
      "metar_trigger": false,
      "taf_trigger": false,
      "metar": "METAR LFOB 201430Z AUTO 18005KT 120V230 CAVOK 33/19 Q1019 TEMPO VRB15G25KT 2000 -TSRA SCT015 BKN020CB",
      "taf": "TAF LFOB 201100Z 2012/2112 33006KT CAVOK"
    },
    {
      "icao": "LFPO",
      "alert": "OK",
      "vis_m": 9999,
      "fzfg": false,
      "metar_trigger": false,
      "taf_trigger": false,
      "metar": "METAR LFPO 201430Z 19011KT 140V230 9999 FEW066 FEW073CB 34/16 Q1018 TEMPO VRB15G30KT -TSRA SCT090CB",
      "taf": "TAF LFPO 201100Z 2012/2118 21006KT CAVOK"
    },
    {
      "icao": "LFSB",
      "alert": "OK",
      "vis_m": 9999,
      "fzfg": false,
      "metar_trigger": false,
      "taf_trigger": false,
      "metar": "METAR LFSB 201430Z AUTO 26005KT 210V330 CAVOK 36/11 Q1021 TEMPO FEW090CB",
      "taf": "TAF LFSB 201100Z 2012/2112 25005KT CAVOK"
    },
    {
      "icao": "LGAV",
      "alert": "OK",
      "vis_m": 9999,
      "fzfg": false,
      "metar_trigger": false,
      "taf_trigger": false,
      "metar": "METAR LGAV 201420Z 02018G28KT 9999 FEW018 28/07 Q1019 NOSIG",
      "taf": "TAF LGAV 201100Z 2012/2112 02020G30KT 9999 FEW025"
    },
    {
      "icao": "LGTS",
      "alert": "OK",
      "vis_m": 9999,
      "fzfg": false,
      "metar_trigger": false,
      "taf_trigger": false,
      "metar": "METAR LGTS 201420Z 26006KT 9999 SCT025 31/15 Q1019 NOSIG",
      "taf": "TAF LGTS 201100Z 2012/2112 19013KT 9999 FEW030"
    },
    {
      "icao": "LHBP",
      "alert": "OK",
      "vis_m": 9999,
      "fzfg": false,
      "metar_trigger": false,
      "taf_trigger": false,
      "metar": "METAR LHBP 201430Z VRB04KT CAVOK 35/14 Q1020 NOSIG",
      "taf": "TAF LHBP 201115Z 2012/2112 20007KT CAVOK"
    },
    {
      "icao": "LHDC",
      "alert": "OK",
      "vis_m": 9999,
      "fzfg": false,
      "metar_trigger": false,
      "taf_trigger": false,
      "metar": "METAR LHDC 201415Z AUTO 09007KT 040V130 9999 //////CB 31/16 Q1021 TEMPO VRB20G30KT 4000 TSRA",
      "taf": "TAF LHDC 201415Z 2015/2024 VRB04KT CAVOK"
    },
    {
      "icao": "LIBD",
      "alert": "OK",
      "vis_m": 9999,
      "fzfg": false,
      "metar_trigger": false,
      "taf_trigger": false,
      "metar": "METAR LIBD 201420Z 04005KT 350V080 CAVOK 29/18 Q1020",
      "taf": "TAF LIBD 201100Z 2012/2112 05010KT CAVOK"
    },
    {
      "icao": "LIBG",
      "alert": "OK",
      "vis_m": 9999,
      "fzfg": false,
      "metar_trigger": false,
      "taf_trigger": false,
      "metar": "METAR LIBG 201420Z AUTO VRB05KT 9999 BKN081/// BKN097/// 33/13 Q1019",
      "taf": "TAF LIBG 201100Z 2012/2112 03010KT 9999 SCT030"
    },
    {
      "icao": "LIBP",
      "alert": "OK",
      "vis_m": 9999,
      "fzfg": false,
      "metar_trigger": false,
      "taf_trigger": false,
      "metar": "METAR LIBP 201420Z AUTO 06009KT 9999 NCD 31/17 Q1020",
      "taf": "TAF LIBP 201100Z 2012/2112 07010KT CAVOK"
    },
    {
      "icao": "LIBR",
      "alert": "OK",
      "vis_m": 9999,
      "fzfg": false,
      "metar_trigger": false,
      "taf_trigger": false,
      "metar": "METAR LIBR 201420Z 03006KT CAVOK 26/22 Q1020",
      "taf": "TAF LIBR 201100Z 2012/2112 35012KT CAVOK"
    },
    {
      "icao": "LICA",
      "alert": "OK",
      "vis_m": 9999,
      "fzfg": false,
      "metar_trigger": false,
      "taf_trigger": false,
      "metar": "METAR LICA 201420Z AUTO 26011KT 9999 NCD 29/22 Q1020",
      "taf": "TAF LICA 201100Z 2012/2112 30010KT 9999 SCT015"
    },
    {
      "icao": "LICC",
      "alert": "OK",
      "vis_m": 9999,
      "fzfg": false,
      "metar_trigger": false,
      "taf_trigger": false,
      "metar": "METAR LICC 201420Z 06012KT 9999 FEW060 SCT100 28/20 Q1020",
      "taf": "TAF LICC 201100Z 2012/2112 08014KT 9999 FEW040"
    },
    {
      "icao": "LICJ",
      "alert": "OK",
      "vis_m": 9999,
      "fzfg": false,
      "metar_trigger": false,
      "taf_trigger": false,
      "metar": "METAR LICJ 201420Z 05016KT CAVOK 29/24 Q1020",
      "taf": "TAF LICJ 201100Z 2012/2112 05014KT CAVOK"
    },
    {
      "icao": "LIMC",
      "alert": "OK",
      "vis_m": 9999,
      "fzfg": false,
      "metar_trigger": false,
      "taf_trigger": false,
      "metar": "METAR LIMC 201420Z 24006KT 190V290 CAVOK 34/17 Q1020 NOSIG",
      "taf": "TAF LIMC 201100Z 2012/2118 VRB05KT 9999 FEW050"
    },
    {
      "icao": "LIME",
      "alert": "OK",
      "vis_m": 9999,
      "fzfg": false,
      "metar_trigger": false,
      "taf_trigger": false,
      "metar": "METAR LIME 201420Z 22009KT 180V260 9999 FEW060 33/19 Q1020 NOSIG",
      "taf": "TAF LIME 201100Z 2012/2112 VRB05KT 9999 FEW060"
    },
    {
      "icao": "LIMF",
      "alert": "OK",
      "vis_m": 9999,
      "fzfg": false,
      "metar_trigger": false,
      "taf_trigger": false,
      "metar": "METAR LIMF 201420Z 05005KT 340V130 9999 FEW045CB 34/17 Q1021",
      "taf": "TAF LIMF 201100Z 2012/2112 VRB05KT 9999 FEW060"
    },
    {
      "icao": "LIMJ",
      "alert": "OK",
      "vis_m": 9999,
      "fzfg": false,
      "metar_trigger": false,
      "taf_trigger": false,
      "metar": "METAR LIMJ 201420Z 20004KT CAVOK 27/21 Q1021",
      "taf": "TAF LIMJ 201100Z 2012/2112 VRB05KT CAVOK"
    },
    {
      "icao": "LIPE",
      "alert": "OK",
      "vis_m": 9999,
      "fzfg": false,
      "metar_trigger": false,
      "taf_trigger": false,
      "metar": "METAR LIPE 201420Z VRB03KT CAVOK 37/17 Q1018",
      "taf": "TAF LIPE 201100Z 2012/2112 VRB05KT 9999 FEW030"
    },
    {
      "icao": "LIPH",
      "alert": "OK",
      "vis_m": 9999,
      "fzfg": false,
      "metar_trigger": false,
      "taf_trigger": false,
      "metar": "METAR LIPH 201420Z VRB04KT CAVOK 34/19 Q1018",
      "taf": "TAF LIPH 201100Z 2012/2112 VRB05KT 9999 SCT030"
    },
    {
      "icao": "LIPQ",
      "alert": "OK",
      "vis_m": 9999,
      "fzfg": false,
      "metar_trigger": false,
      "taf_trigger": false,
      "metar": "METAR LIPQ 201420Z AUTO 25005KT 210V290 9999 NCD 33/14 Q1019",
      "taf": "TAF LIPQ 201100Z 2012/2112 20010KT CAVOK"
    },
    {
      "icao": "LIPR",
      "alert": "OK",
      "vis_m": 9999,
      "fzfg": false,
      "metar_trigger": false,
      "taf_trigger": false,
      "metar": "METAR LIPR 201420Z 11010KT 070V130 CAVOK 29/21 Q1020",
      "taf": "TAF LIPR 201100Z 2012/2112 06010KT 9999 FEW030"
    },
    {
      "icao": "LIPX",
      "alert": "OK",
      "vis_m": 9999,
      "fzfg": false,
      "metar_trigger": false,
      "taf_trigger": false,
      "metar": "METAR LIPX 201420Z 22007KT 190V260 9999 FEW060 35/18 Q1019",
      "taf": "TAF LIPX 201100Z 2012/2112 VRB05KT CAVOK"
    },
    {
      "icao": "LIPY",
      "alert": "OK",
      "vis_m": 9999,
      "fzfg": false,
      "metar_trigger": false,
      "taf_trigger": false,
      "metar": "METAR LIPY 201420Z AUTO 06009KT 9999 NCD 31/17 Q1019",
      "taf": "TAF LIPY 201100Z 2012/2112 08010KT CAVOK"
    },
    {
      "icao": "LIPZ",
      "alert": "OK",
      "vis_m": 9999,
      "fzfg": false,
      "metar_trigger": false,
      "taf_trigger": false,
      "metar": "METAR LIPZ 201420Z 15008KT CAVOK 30/21 Q1019 NOSIG",
      "taf": "TAF LIPZ 201100Z 2012/2118 16010KT CAVOK"
    },
    {
      "icao": "LIRF",
      "alert": "OK",
      "vis_m": 9999,
      "fzfg": false,
      "metar_trigger": false,
      "taf_trigger": false,
      "metar": "METAR LIRF 201420Z 23009KT 200V260 CAVOK 32/18 Q1020 NOSIG",
      "taf": "TAF LIRF 201100Z 2012/2118 26010KT CAVOK"
    },
    {
      "icao": "LIRN",
      "alert": "OK",
      "vis_m": 9999,
      "fzfg": false,
      "metar_trigger": false,
      "taf_trigger": false,
      "metar": "METAR LIRN 201420Z 19008KT 140V230 CAVOK 32/18 Q1020 NOSIG",
      "taf": "TAF LIRN 201100Z 2012/2112 24010KT CAVOK"
    },
    {
      "icao": "LIRP",
      "alert": "OK",
      "vis_m": 9999,
      "fzfg": false,
      "metar_trigger": false,
      "taf_trigger": false,
      "metar": "METAR LIRP 201415Z 28010KT CAVOK 32/15 Q1020 NOSIG",
      "taf": "TAF LIRP 201100Z 2012/2112 28010KT CAVOK"
    },
    {
      "icao": "LIRZ",
      "alert": "OK",
      "vis_m": 9999,
      "fzfg": false,
      "metar_trigger": false,
      "taf_trigger": false,
      "metar": "METAR LIRZ 201420Z AUTO VRB04KT 9999 SCT095/// 36/13 Q1019",
      "taf": "TAF LIRZ 201100Z 2012/2112 28010KT 9999 FEW035"
    },
    {
      "icao": "LJLJ",
      "alert": "OK",
      "vis_m": 9999,
      "fzfg": false,
      "metar_trigger": false,
      "taf_trigger": false,
      "metar": "METAR LJLJ 201430Z 12004KT 050V170 9999 FEW050CB FEW060 33/18 Q1020 NOSIG",
      "taf": "TAF LJLJ 201100Z 2012/2112 05008KT 9999 FEW060"
    },
    {
      "icao": "LKMT",
      "alert": "OK",
      "vis_m": 9999,
      "fzfg": false,
      "metar_trigger": false,
      "taf_trigger": false,
      "metar": "METAR LKMT 201430Z 25007KT 210V280 CAVOK 32/19 Q1020 NOSIG",
      "taf": "TAF LKMT 201100Z 2012/2112 25008KT CAVOK"
    },
    {
      "icao": "LKPR",
      "alert": "OK",
      "vis_m": 9999,
      "fzfg": false,
      "metar_trigger": false,
      "taf_trigger": false,
      "metar": "METAR LKPR 201430Z 30009KT 270V330 CAVOK 31/18 Q1020 NOSIG",
      "taf": "TAF LKPR 201400Z 2015/2121 01006KT 9999 SCT049"
    },
    {
      "icao": "LLBG",
      "alert": "OK",
      "vis_m": 9999,
      "fzfg": false,
      "metar_trigger": false,
      "taf_trigger": false,
      "metar": "METAR LLBG 201420Z 31011KT CAVOK 29/19 Q1012 NOSIG",
      "taf": "TAF LLBG 201104Z 2012/2112 31010KT CAVOK TX31/2012Z TN21/2103Z"
    },
    {
      "icao": "LMML",
      "alert": "OK",
      "vis_m": 9999,
      "fzfg": false,
      "metar_trigger": false,
      "taf_trigger": false,
      "metar": "METAR LMML 201415Z 22008KT CAVOK 32/15 Q1020 NOSIG",
      "taf": "TAF LMML 201100Z 2012/2112 28007KT CAVOK"
    },
    {
      "icao": "LOWW",
      "alert": "OK",
      "vis_m": 9999,
      "fzfg": false,
      "metar_trigger": false,
      "taf_trigger": false,
      "metar": "METAR LOWW 201420Z 20013KT 170V230 9999 FEW040 30/16 Q1020 NOSIG",
      "taf": "TAF LOWW 201415Z 2015/2121 VRB05KT CAVOK TX32/2112Z TN21/2103Z"
    },
    {
      "icao": "LPFR",
      "alert": "OK",
      "vis_m": 9999,
      "fzfg": false,
      "metar_trigger": false,
      "taf_trigger": false,
      "metar": "METAR LPFR 201430Z 22006KT 190V250 CAVOK 28/17 Q1013",
      "taf": "TAF LPFR 201100Z 2012/2112 11007KT CAVOK"
    },
    {
      "icao": "LPMA",
      "alert": "OK",
      "vis_m": 9999,
      "fzfg": false,
      "metar_trigger": false,
      "taf_trigger": false,
      "metar": "METAR LPMA 201430Z 21012KT 150V230 9999 FEW015 24/19 Q1018",
      "taf": "TAF LPMA 201100Z 2012/2112 20008KT 9999 SCT015"
    },
    {
      "icao": "LPPR",
      "alert": "OK",
      "vis_m": 9999,
      "fzfg": false,
      "metar_trigger": false,
      "taf_trigger": false,
      "metar": "METAR LPPR 201430Z 32011KT CAVOK 24/18 Q1016",
      "taf": "TAF LPPR 201100Z 2012/2112 32010KT CAVOK"
    },
    {
      "icao": "LPPS",
      "alert": "OK",
      "vis_m": 9999,
      "fzfg": false,
      "metar_trigger": false,
      "taf_trigger": false,
      "metar": "METAR LPPS 201430Z 17009KT 140V200 9999 FEW015 24/18 Q1018",
      "taf": "TAF LPPS 201100Z 2012/2118 18008KT 9999 SCT014"
    },
    {
      "icao": "LPPT",
      "alert": "OK",
      "vis_m": 9999,
      "fzfg": false,
      "metar_trigger": false,
      "taf_trigger": false,
      "metar": "METAR LPPT 201430Z 31009KT 270V340 CAVOK 31/14 Q1014",
      "taf": "TAF LPPT 201100Z 2012/2118 33012KT CAVOK"
    },
    {
      "icao": "LQBK",
      "alert": "OK",
      "vis_m": 9999,
      "fzfg": false,
      "metar_trigger": false,
      "taf_trigger": false,
      "metar": "METAR LQBK 201430Z 05006KT 010V100 CAVOK 32/14 Q1020 NOSIG",
      "taf": "TAF LQBK 201100Z 2012/2112 01005KT CAVOK TX34/2014Z TN17/2103Z"
    },
    {
      "icao": "LQSA",
      "alert": "OK",
      "vis_m": 9999,
      "fzfg": false,
      "metar_trigger": false,
      "taf_trigger": false,
      "metar": "METAR LQSA 201430Z 31003KT 240V050 CAVOK 30/11 Q1022 NOSIG",
      "taf": "TAF LQSA 201100Z 2012/2112 VRB02KT CAVOK TX31/2014Z TN15/2103Z"
    },
    {
      "icao": "LQTZ",
      "alert": "OK",
      "vis_m": 9999,
      "fzfg": false,
      "metar_trigger": false,
      "taf_trigger": false,
      "metar": "METAR LQTZ 201430Z VRB04KT CAVOK 31/14 Q1021",
      "taf": "TAF LQTZ 201100Z 2012/2112 05005KT CAVOK TX32/2014Z TN15/2103Z"
    },
    {
      "icao": "LRBC",
      "alert": "OK",
      "vis_m": 9999,
      "fzfg": false,
      "metar_trigger": false,
      "taf_trigger": false,
      "metar": "METAR LRBC 201430Z 01005KT 330V080 9999 FEW064 29/17 Q1021",
      "taf": "TAF LRBC 201400Z 2015/2024 VRB04KT CAVOK"
    },
    {
      "icao": "LRBS",
      "alert": "OK",
      "vis_m": 9999,
      "fzfg": false,
      "metar_trigger": false,
      "taf_trigger": false,
      "metar": "METAR LRBS 201430Z 08004KT 020V120 CAVOK 30/13 Q1021 NOSIG",
      "taf": "TAF LRBS 201100Z 2012/2112 VRB04KT CAVOK"
    },
    {
      "icao": "LRBV",
      "alert": "OK",
      "vis_m": 9999,
      "fzfg": false,
      "metar_trigger": false,
      "taf_trigger": false,
      "metar": "METAR LRBV 201430Z 32006KT 270V030 9999 FEW060 27/14 Q1023",
      "taf": "TAF LRBV 201400Z 2015/2024 VRB04KT 9999 SCT050"
    },
    {
      "icao": "LRCL",
      "alert": "OK",
      "vis_m": 9999,
      "fzfg": false,
      "metar_trigger": false,
      "taf_trigger": false,
      "metar": "METAR LRCL 201430Z AUTO VRB03KT 9999 NCD 30/13 Q1022",
      "taf": "TAF LRCL 201400Z 2015/2024 VRB04KT CAVOK"
    },
    {
      "icao": "LRCV",
      "alert": "OK",
      "vis_m": 9999,
      "fzfg": false,
      "metar_trigger": false,
      "taf_trigger": false,
      "metar": "METAR LRCV 201430Z 26005KT 210V300 CAVOK 31/14 Q1021",
      "taf": "TAF LRCV 201400Z 2015/2024 VRB04KT 9999 SCT040"
    },
    {
      "icao": "LRIA",
      "alert": "OK",
      "vis_m": 9999,
      "fzfg": false,
      "metar_trigger": false,
      "taf_trigger": false,
      "metar": "METAR LRIA 201430Z 35009KT 320V040 CAVOK 29/14 Q1021",
      "taf": "TAF LRIA 201400Z 2015/2024 VRB04KT CAVOK"
    },
    {
      "icao": "LROP",
      "alert": "OK",
      "vis_m": 9999,
      "fzfg": false,
      "metar_trigger": false,
      "taf_trigger": false,
      "metar": "METAR LROP 201430Z VRB04KT CAVOK 31/10 Q1021 NOSIG",
      "taf": "TAF LROP 201100Z 2012/2112 VRB04KT CAVOK"
    },
    {
      "icao": "LRSB",
      "alert": "OK",
      "vis_m": 9999,
      "fzfg": false,
      "metar_trigger": false,
      "taf_trigger": false,
      "metar": "METAR LRSB 201430Z 35006KT 310V040 9999 FEW052 29/13 Q1023",
      "taf": "TAF LRSB 201100Z 2012/2112 VRB04KT 9999 SCT050"
    },
    {
      "icao": "LRSM",
      "alert": "OK",
      "vis_m": 9999,
      "fzfg": false,
      "metar_trigger": false,
      "taf_trigger": false,
      "metar": "METAR LRSM 201430Z 32004KT 280V360 CAVOK 31/16 Q1021",
      "taf": "TAF LRSM 201400Z 2015/2024 VRB04KT CAVOK"
    },
    {
      "icao": "LRSV",
      "alert": "OK",
      "vis_m": 9999,
      "fzfg": false,
      "metar_trigger": false,
      "taf_trigger": false,
      "metar": "METAR LRSV 201430Z 33009KT 300V360 CAVOK 27/14 Q1023",
      "taf": "TAF LRSV 201400Z 2015/2024 30008KT CAVOK"
    },
    {
      "icao": "LRTM",
      "alert": "OK",
      "vis_m": 9999,
      "fzfg": false,
      "metar_trigger": false,
      "taf_trigger": false,
      "metar": "METAR LRTM 201430Z 29005KT 240V350 CAVOK 29/18 Q1022",
      "taf": "TAF LRTM 201400Z 2015/2024 VRB04KT CAVOK"
    },
    {
      "icao": "LRTR",
      "alert": "OK",
      "vis_m": 9999,
      "fzfg": false,
      "metar_trigger": false,
      "taf_trigger": false,
      "metar": "METAR LRTR 201430Z 10007KT 030V130 CAVOK 33/14 Q1020",
      "taf": "TAF LRTR 201100Z 2012/2112 03008KT CAVOK"
    },
    {
      "icao": "LTAC",
      "alert": "OK",
      "vis_m": 9999,
      "fzfg": false,
      "metar_trigger": false,
      "taf_trigger": false,
      "metar": "METAR LTAC 201420Z 05009KT 9999 SCT040 SCT080 23/08 Q1020 NOSIG RMK RWY21C 03009KT RWY03L 04008KT 360V070 RWY21R 02009KT RWY03R 02009KT 340V050 RWY21L 02007KT 350V050",
      "taf": "TAF LTAC 201040Z 2012/2112 03009KT 9999 SCT040 SCT100"
    },
    {
      "icao": "LTFM",
      "alert": "OK",
      "vis_m": 9999,
      "fzfg": false,
      "metar_trigger": false,
      "taf_trigger": false,
      "metar": "METAR LTFM 201420Z 02014KT 9999 SCT020 24/15 Q1021 NOSIG RMK RWY17L 01011KT RWY34L 01012KT RWY16R 36012KT RWY36 02014KT RWY18 02011KT",
      "taf": "TAF LTFM 201040Z 2012/2118 04014KT 9999 SCT025"
    },
    {
      "icao": "LUKK",
      "alert": "OK",
      "vis_m": 9999,
      "fzfg": false,
      "metar_trigger": false,
      "taf_trigger": false,
      "metar": "METAR LUKK 201430Z 02007KT 340V040 CAVOK 28/14 Q1020 NOSIG",
      "taf": "TAF LUKK 201057Z 2012/2112 VRB06KT CAVOK"
    },
    {
      "icao": "LWOH",
      "alert": "OK",
      "vis_m": 9999,
      "fzfg": false,
      "metar_trigger": false,
      "taf_trigger": false,
      "metar": "METAR LWOH 201420Z 20004KT 150V240 9999 SCT050 27/12 Q1023",
      "taf": "TAF LWOH 201425Z 2015/2115 18006KT 9999 SCT050"
    },
    {
      "icao": "LWSK",
      "alert": "OK",
      "vis_m": 9999,
      "fzfg": false,
      "metar_trigger": false,
      "taf_trigger": false,
      "metar": "METAR LWSK 201420Z 33008KT 290V010 9999 FEW050 BKN088 32/12 Q1020 NOSIG",
      "taf": "TAF LWSK 201425Z 2015/2115 32008KT 9999 SCT050 BKN090"
    },
    {
      "icao": "LYBE",
      "alert": "OK",
      "vis_m": 9999,
      "fzfg": false,
      "metar_trigger": false,
      "taf_trigger": false,
      "metar": "METAR LYBE 201430Z 36006KT 290V070 CAVOK 32/15 Q1021 NOSIG",
      "taf": "TAF LYBE 201100Z 2012/2112 02006KT CAVOK TX33/2014Z TN20/2103Z"
    },
    {
      "icao": "LYNI",
      "alert": "OK",
      "vis_m": 9999,
      "fzfg": false,
      "metar_trigger": false,
      "taf_trigger": false,
      "metar": "METAR LYNI 201430Z 35004KT 290V060 9999 FEW040 32/12 Q1021 NOSIG",
      "taf": "TAF LYNI 201100Z 2012/2112 05005KT CAVOK TX32/2014Z TN15/2103Z"
    },
    {
      "icao": "LYPG",
      "alert": "OK",
      "vis_m": 9999,
      "fzfg": false,
      "metar_trigger": false,
      "taf_trigger": false,
      "metar": "METAR LYPG 201400Z 20006KT 150V230 9999 FEW050 34/10 Q1019 NOSIG",
      "taf": "TAF LYPG 201100Z 2012/2112 18008KT 9999 FEW050 TX35/2014Z TN21/2103Z"
    },
    {
      "icao": "LZIB",
      "alert": "OK",
      "vis_m": 9999,
      "fzfg": false,
      "metar_trigger": false,
      "taf_trigger": false,
      "metar": "METAR LZIB 201430Z 22018KT CAVOK 33/17 Q1020 NOSIG",
      "taf": "TAF LZIB 201115Z 2012/2112 18008KT CAVOK"
    },
    {
      "icao": "LZKZ",
      "alert": "OK",
      "vis_m": 9999,
      "fzfg": false,
      "metar_trigger": false,
      "taf_trigger": false,
      "metar": "METAR LZKZ 201430Z VRB03KT CAVOK 26/19 Q1022 NOSIG",
      "taf": "TAF LZKZ 201115Z 2012/2112 VRB02KT CAVOK"
    },
    {
      "icao": "LZTT",
      "alert": "OK",
      "vis_m": 9999,
      "fzfg": false,
      "metar_trigger": false,
      "taf_trigger": false,
      "metar": "METAR LZTT 201430Z VRB02KT 9999 FEW040 23/17 Q1025 NOSIG",
      "taf": "TAF LZTT 201115Z 2012/2112 07008KT CAVOK"
    },
    {
      "icao": "OEJN",
      "alert": "OK",
      "vis_m": 9999,
      "fzfg": false,
      "metar_trigger": false,
      "taf_trigger": false,
      "metar": "METAR OEJN 201400Z 33012KT CAVOK 37/16 Q1005 NOSIG",
      "taf": "TAF OEJN 201100Z 2012/2118 34018KT 7000 NSC"
    },
    {
      "icao": "OEMA",
      "alert": "OK",
      "vis_m": 9999,
      "fzfg": false,
      "metar_trigger": false,
      "taf_trigger": false,
      "metar": "METAR OEMA 201400Z 21006KT CAVOK 44/M07 Q1009 NOSIG",
      "taf": "TAF OEMA 201100Z 2012/2118 33010KT CAVOK"
    },
    {
      "icao": "OJAI",
      "alert": "OK",
      "vis_m": 5000,
      "fzfg": false,
      "metar_trigger": false,
      "taf_trigger": false,
      "metar": "METAR OJAI 201400Z 28010KT 5000 DU NSC 30/09 Q1015 NOSIG",
      "taf": "TAF OJAI 201100Z 2012/2118 31006KT 5000 HZ NSC"
    },
    {
      "icao": "OMAA",
      "alert": "OK",
      "vis_m": 9999,
      "fzfg": false,
      "metar_trigger": false,
      "taf_trigger": false,
      "metar": "METAR OMAA 201430Z 33011KT CAVOK 39/19 Q1003 NOSIG",
      "taf": "TAF OMAA 201100Z 2012/2118 33013KT 8000 NSC"
    },
    {
      "icao": "OMDB",
      "alert": "OK",
      "vis_m": 9999,
      "fzfg": false,
      "metar_trigger": false,
      "taf_trigger": false,
      "metar": "METAR OMDB 201430Z 26007KT 140V310 CAVOK 40/15 Q1002 NOSIG",
      "taf": "TAF OMDB 201100Z 2012/2118 30012KT CAVOK"
    },
    {
      "icao": "UAAA",
      "alert": "OK",
      "vis_m": 9999,
      "fzfg": false,
      "metar_trigger": false,
      "taf_trigger": false,
      "metar": "METAR UAAA 201400Z 19002MPS 9999 SCT050CB OVC100 27/13 Q1012 NOSIG",
      "taf": "TAF UAAA 201102Z 2012/2112 22002MPS 9999 SCT050CB BKN100 TX32/2110Z TN18/2101Z"
    },
    {
      "icao": "UBBB",
      "alert": "OK",
      "vis_m": 9999,
      "fzfg": false,
      "metar_trigger": false,
      "taf_trigger": false,
      "metar": "METAR UBBB 201430Z 08004KT CAVOK 31/16 Q1009 NOSIG",
      "taf": "TAF UBBB 201055Z 2012/2112 36005KT 9999 SCT040 TX30/2012Z TN20/2101Z"
    },
    {
      "icao": "UDSG",
      "alert": "OK",
      "vis_m": 9999,
      "fzfg": false,
      "metar_trigger": false,
      "taf_trigger": false,
      "metar": "METAR UDSG 201400Z 29004KT 9999 SCT049CB 28/11 Q1018 NOSIG",
      "taf": "TAF UDSG 201058Z 2012/2112 24006KT 9999 SCT050"
    },
    {
      "icao": "UDYZ",
      "alert": "OK",
      "vis_m": 9999,
      "fzfg": false,
      "metar_trigger": false,
      "taf_trigger": false,
      "metar": "METAR UDYZ 201400Z 22004KT 9999 FEW043CB 36/07 Q1011 NOSIG",
      "taf": "TAF UDYZ 201100Z 2012/2112 04006KT 9999 FEW040"
    },
    {
      "icao": "UGKO",
      "alert": "OK",
      "vis_m": 9999,
      "fzfg": false,
      "metar_trigger": false,
      "taf_trigger": false,
      "metar": "METAR UGKO 201430Z 24012KT 9999 SCT021 OVC034 21/18 Q1017 NOSIG",
      "taf": "TAF UGKO 201100Z 2012/2112 25007KT 9999 SCT030 OVC050 TX25/2111Z TN19/2102Z"
    }
  ]
}