{
  "ts_utc": "2026-02-07T02:03:07Z",
  "threshold_m": 150,
  "source": "stations_override.txt (ICAO list) + aviationweather.gov (METAR/TAF raw)",
  "station_count": 159,
  "stations": [
    {
      "icao": "BIKF",
      "alert": "OK",
      "vis_m": 9999,
      "fzfg": false,
      "metar_trigger": false,
      "taf_trigger": false,
      "metar": "METAR BIKF 070130Z 08007KT CAVOK 02/M01 Q1008",
      "taf": "TAF BIKF 070140Z 0703/0803 09008KT CAVOK TX03/0714Z TNM03/0800Z"
    },
    {
      "icao": "BKPR",
      "alert": "OK",
      "vis_m": 9999,
      "fzfg": false,
      "metar_trigger": false,
      "taf_trigger": false,
      "metar": "METAR BKPR 070200Z 36004KT 340V050 9999 -RA SCT025 BKN050 05/05 Q1000 NOSIG",
      "taf": "TAF BKPR 062330Z 0700/0724 24008KT 9999 SCT020 BKN040"
    },
    {
      "icao": "EBCI",
      "alert": "OK",
      "vis_m": 9999,
      "fzfg": false,
      "metar_trigger": false,
      "taf_trigger": false,
      "metar": "METAR EBCI 070150Z 19008KT 9999 FEW013 SCT035 07/06 Q0999 NOSIG",
      "taf": "TAF EBCI 062320Z 0700/0806 19006KT 9999 FEW020"
    },
    {
      "icao": "EDDB",
      "alert": "OK",
      "vis_m": 400,
      "fzfg": false,
      "metar_trigger": false,
      "taf_trigger": false,
      "metar": "METAR EDDB 070150Z AUTO 09003KT 0400 0350 R06L/0550N R06R/0400N FG VV003 01/01 Q1001 NOSIG",
      "taf": "TAF EDDB 062300Z 0700/0724 08004KT 1200 BR OVC003"
    },
    {
      "icao": "EDDH",
      "alert": "OK",
      "vis_m": 3600,
      "fzfg": false,
      "metar_trigger": false,
      "taf_trigger": false,
      "metar": "METAR EDDH 070150Z AUTO 09006KT 3600 BR OVC003 01/01 Q1001 TEMPO 2500",
      "taf": ""
    },
    {
      "icao": "EDDK",
      "alert": "OK",
      "vis_m": 9999,
      "fzfg": false,
      "metar_trigger": false,
      "taf_trigger": false,
      "metar": "METAR EDDK 070150Z AUTO 13004KT 100V160 9999 SCT038 06/05 Q0999 NOSIG",
      "taf": "TAF EDDK 062300Z 0700/0806 12005KT 9999 BKN030"
    },
    {
      "icao": "EDDN",
      "alert": "OK",
      "vis_m": 1400,
      "fzfg": false,
      "metar_trigger": false,
      "taf_trigger": false,
      "metar": "METAR EDDN 070150Z AUTO 11006KT 1400 1200 R28/1600N DZ BR BKN008 02/02 Q1001",
      "taf": "TAF EDDN 062300Z 0700/0724 VRB03KT 6000 SCT020 BKN035"
    },
    {
      "icao": "EDDS",
      "alert": "OK",
      "vis_m": 9999,
      "fzfg": false,
      "metar_trigger": false,
      "taf_trigger": false,
      "metar": "METAR EDDS 070150Z AUTO 26003KT 220V290 9999 BKN041 06/04 Q1001",
      "taf": "TAF EDDS 062300Z 0700/0724 VRB02KT 9999 SCT035"
    },
    {
      "icao": "EDFH",
      "alert": "OK",
      "vis_m": 9999,
      "fzfg": false,
      "metar_trigger": false,
      "taf_trigger": false,
      "metar": "METAR EDFH 070150Z 24004KT 9999 SCT005 BKN007 06/06 Q0999",
      "taf": "TAF EDFH 062300Z 0700/0724 23006KT 6000 BKN005"
    },
    {
      "icao": "EDJA",
      "alert": "OK",
      "vis_m": 9999,
      "fzfg": false,
      "metar_trigger": false,
      "taf_trigger": false,
      "metar": "METAR EDJA 070150Z AUTO 21009KT 9999 // FEW064/// BKN077/// 04/03 Q1002",
      "taf": "TAF EDJA 061700Z 0618/0703 24013KT 9999 FEW015 BKN035"
    },
    {
      "icao": "EDLW",
      "alert": "OK",
      "vis_m": 9999,
      "fzfg": false,
      "metar_trigger": false,
      "taf_trigger": false,
      "metar": "METAR EDLW 070150Z AUTO 16010KT 9999 // FEW029/// SCT062/// BKN086/// 07/05 Q0998",
      "taf": "TAF EDLW 061700Z 0618/0718 VRB03KT 9999 BKN020"
    },
    {
      "icao": "EDNY",
      "alert": "OK",
      "vis_m": 9999,
      "fzfg": false,
      "metar_trigger": false,
      "taf_trigger": false,
      "metar": "METAR EDNY 070150Z AUTO 00000KT 9999 // OVC026/// 04/03 Q1003",
      "taf": "TAF EDNY 061700Z 0618/0703 VRB03KT 9999 BKN035"
    },
    {
      "icao": "EDSB",
      "alert": "OK",
      "vis_m": 9999,
      "fzfg": false,
      "metar_trigger": false,
      "taf_trigger": false,
      "metar": "METAR EDSB 070150Z AUTO 20008KT 9999 BKN025/// BKN031/// OVC049/// 08/06 Q1002",
      "taf": "TAF EDSB 062300Z 0700/0724 22007KT 9999 OVC030"
    },
    {
      "icao": "EETN",
      "alert": "OK",
      "vis_m": 6000,
      "fzfg": false,
      "metar_trigger": false,
      "taf_trigger": false,
      "metar": "METAR EETN 070150Z 05008KT 6000 SCT005 OVC015 M06/M07 Q1013",
      "taf": "TAF EETN 062330Z 0700/0724 08010KT 8000 SCT008 OVC020"
    },
    {
      "icao": "EFTU",
      "alert": "OK",
      "vis_m": 9999,
      "fzfg": false,
      "metar_trigger": false,
      "taf_trigger": false,
      "metar": "METAR EFTU 070150Z AUTO 05003KT CAVOK M19/M21 Q1015",
      "taf": "TAF EFTU 062328Z 0700/0724 04005KT CAVOK"
    },
    {
      "icao": "EGBB",
      "alert": "OK",
      "vis_m": 7000,
      "fzfg": false,
      "metar_trigger": false,
      "taf_trigger": false,
      "metar": "METAR EGBB 070150Z 15005KT 7000 SCT015 05/05 Q0991",
      "taf": ""
    },
    {
      "icao": "EGGP",
      "alert": "OK",
      "vis_m": 9999,
      "fzfg": false,
      "metar_trigger": false,
      "taf_trigger": false,
      "metar": "METAR EGGP 070150Z AUTO 09007KT 9999 OVC004/// 05/04 Q0990",
      "taf": ""
    },
    {
      "icao": "EGGW",
      "alert": "OK",
      "vis_m": 9000,
      "fzfg": false,
      "metar_trigger": false,
      "taf_trigger": false,
      "metar": "METAR EGGW 070150Z AUTO 18006KT 150V220 9000 FEW024 06/06 Q0992",
      "taf": ""
    },
    {
      "icao": "EGKK",
      "alert": "OK",
      "vis_m": 9999,
      "fzfg": false,
      "metar_trigger": false,
      "taf_trigger": false,
      "metar": "METAR EGKK 070150Z 16004KT 120V210 9999 FEW020 08/07 Q0993",
      "taf": "TAF EGKK 062300Z 0700/0806 18008KT 9999 FEW030"
    },
    {
      "icao": "EGNM",
      "alert": "OK",
      "vis_m": null,
      "fzfg": false,
      "metar_trigger": false,
      "taf_trigger": false,
      "metar": "",
      "taf": "TAF EGNM 061702Z 0618/0718 08008KT 2000 -RA BR SCT002 BKN003"
    },
    {
      "icao": "EGPD",
      "alert": "OK",
      "vis_m": 2200,
      "fzfg": false,
      "metar_trigger": false,
      "taf_trigger": false,
      "metar": "METAR EGPD 070150Z AUTO 09011KT 2200 RADZ BKN003 OVC020 04/03 Q0997 TEMPO 6000 -RADZ BKN006",
      "taf": ""
    },
    {
      "icao": "EGPF",
      "alert": "OK",
      "vis_m": 9999,
      "fzfg": false,
      "metar_trigger": false,
      "taf_trigger": false,
      "metar": "METAR EGPF 070150Z AUTO 07013KT 9999 OVC012 05/04 Q0993",
      "taf": ""
    },
    {
      "icao": "EHBK",
      "alert": "OK",
      "vis_m": 9999,
      "fzfg": false,
      "metar_trigger": false,
      "taf_trigger": false,
      "metar": "METAR EHBK 070155Z AUTO 20007KT 9999 SCT026 OVC044 08/07 Q0999",
      "taf": "TAF EHBK 062317Z 0700/0806 18007KT CAVOK"
    },
    {
      "icao": "EHEH",
      "alert": "OK",
      "vis_m": 7000,
      "fzfg": false,
      "metar_trigger": false,
      "taf_trigger": false,
      "metar": "METAR EHEH 070155Z AUTO 18005KT 7000 BR BKN140 BKN250 06/06 Q0998 WHT",
      "taf": "TAF EHEH 062351Z 0700/0806 19007KT 9999 SCT025"
    },
    {
      "icao": "EKBI",
      "alert": "OK",
      "vis_m": 3800,
      "fzfg": false,
      "metar_trigger": false,
      "taf_trigger": false,
      "metar": "METAR EKBI 070150Z AUTO 08013KT 3800 BR OVC004/// 00/M00 Q1003",
      "taf": "TAF EKBI 062334Z 0700/0724 09014KT 5000 OVC003"
    },
    {
      "icao": "EKCH",
      "alert": "OK",
      "vis_m": 9999,
      "fzfg": false,
      "metar_trigger": false,
      "taf_trigger": false,
      "metar": "METAR EKCH 070150Z 07008KT 9999 -SHRA BKN011 01/M01 Q1005 TEMPO BKN008",
      "taf": "TAF EKCH 062327Z 0700/0724 08012KT 9999 BKN012"
    },
    {
      "icao": "ENAL",
      "alert": "OK",
      "vis_m": 9999,
      "fzfg": false,
      "metar_trigger": false,
      "taf_trigger": false,
      "metar": "METAR ENAL 070150Z AUTO 13013KT 9999 NCD 04/M13 Q1007",
      "taf": "TAF ENAL 062300Z 0700/0709 13009KT CAVOK"
    },
    {
      "icao": "ENBR",
      "alert": "OK",
      "vis_m": 9999,
      "fzfg": false,
      "metar_trigger": false,
      "taf_trigger": false,
      "metar": "METAR ENBR 070150Z AUTO VRB01KT 9999 NCD 00/M04 Q1007 RMK WIND 1200FT 06002KT",
      "taf": "TAF ENBR 062300Z 0700/0724 05003KT CAVOK"
    },
    {
      "icao": "ENGM",
      "alert": "OK",
      "vis_m": 6000,
      "fzfg": false,
      "metar_trigger": false,
      "taf_trigger": false,
      "metar": "METAR ENGM 070150Z 01009KT 6000 -SN FEW037 OVC049 M09/M11 Q1015",
      "taf": "TAF ENGM 062300Z 0700/0724 02008KT 9999 BKN020"
    },
    {
      "icao": "ENHD",
      "alert": "OK",
      "vis_m": 9999,
      "fzfg": false,
      "metar_trigger": false,
      "taf_trigger": false,
      "metar": "METAR ENHD 070150Z AUTO 09003KT 9999 OVC047/// 01/M09 Q1006",
      "taf": ""
    },
    {
      "icao": "ENTC",
      "alert": "OK",
      "vis_m": 9999,
      "fzfg": false,
      "metar_trigger": false,
      "taf_trigger": false,
      "metar": "METAR ENTC 070150Z AUTO VRB02KT 9999 NCD M04/M07 Q1019 RMK WIND 2600FT 01004KT",
      "taf": "TAF ENTC 062300Z 0700/0724 04005KT 9999 SCT020 BKN040"
    },
    {
      "icao": "ENTO",
      "alert": "OK",
      "vis_m": 9999,
      "fzfg": false,
      "metar_trigger": false,
      "taf_trigger": false,
      "metar": "METAR ENTO 070150Z AUTO 02013KT 9999 -FZDZ BKN017/// OVC022/// M06/M09 Q1013",
      "taf": ""
    },
    {
      "icao": "ENVA",
      "alert": "OK",
      "vis_m": 9999,
      "fzfg": false,
      "metar_trigger": false,
      "taf_trigger": false,
      "metar": "METAR ENVA 070150Z AUTO 11007KT 9999 NCD M13/M20 Q1015 RMK WIND 670FT 12007KT",
      "taf": "TAF ENVA 062300Z 0700/0724 12008KT CAVOK"
    },
    {
      "icao": "ENZV",
      "alert": "OK",
      "vis_m": 9999,
      "fzfg": false,
      "metar_trigger": false,
      "taf_trigger": false,
      "metar": "METAR ENZV 070150Z AUTO 00000KT 9999 OVC044/// M01/M08 Q1006",
      "taf": "TAF ENZV 062300Z 0700/0724 11005KT CAVOK"
    },
    {
      "icao": "EPGD",
      "alert": "OK",
      "vis_m": 4000,
      "fzfg": false,
      "metar_trigger": false,
      "taf_trigger": false,
      "metar": "METAR EPGD 070130Z 05005KT 4000 BR OVC002 M02/M02 Q1003",
      "taf": "TAF EPGD 062330Z 0700/0724 06006KT 3500 BR OVC002"
    },
    {
      "icao": "EPKK",
      "alert": "OK",
      "vis_m": 2500,
      "fzfg": false,
      "metar_trigger": false,
      "taf_trigger": false,
      "metar": "METAR EPKK 070130Z 03003KT 2500 BR BKN004 OVC040 01/01 Q0999",
      "taf": "TAF EPKK 062330Z 0700/0724 VRB02KT 1500 BR BKN040"
    },
    {
      "icao": "EPKT",
      "alert": "OK",
      "vis_m": 3400,
      "fzfg": false,
      "metar_trigger": false,
      "taf_trigger": false,
      "metar": "METAR EPKT 070130Z VRB02KT 3400 BR OVC035 01/M00 Q0999",
      "taf": "TAF EPKT 062330Z 0700/0724 VRB02KT 4000 BR BKN040"
    },
    {
      "icao": "EPLB",
      "alert": "OK",
      "vis_m": 2500,
      "fzfg": false,
      "metar_trigger": false,
      "taf_trigger": false,
      "metar": "METAR EPLB 070130Z 08005KT 2500 -RA BR OVC003 00/00 Q1000",
      "taf": "TAF EPLB 062330Z 0700/0724 09005KT 2500 BR OVC006"
    },
    {
      "icao": "EPMO",
      "alert": "OK",
      "vis_m": 700,
      "fzfg": true,
      "metar_trigger": false,
      "taf_trigger": false,
      "metar": "METAR EPMO 070130Z 05007KT 0700 R08/0750N FZFG VV001 M00/M00 Q1001",
      "taf": "TAF EPMO 062330Z 0700/0724 06007KT 0500 FG OVC002"
    },
    {
      "icao": "EPPO",
      "alert": "OK",
      "vis_m": 2500,
      "fzfg": false,
      "metar_trigger": false,
      "taf_trigger": false,
      "metar": "METAR EPPO 070130Z 07005KT 2500 BR OVC002 00/M00 Q1001",
      "taf": ""
    },
    {
      "icao": "EPRA",
      "alert": "OK",
      "vis_m": 5000,
      "fzfg": false,
      "metar_trigger": false,
      "taf_trigger": false,
      "metar": "METAR EPRA 070130Z 04004KT 5000 BR OVC003 01/M00 Q1000",
      "taf": "TAF EPRA 062330Z 0700/0709 09006KT 5000 BR OVC004"
    },
    {
      "icao": "EPRZ",
      "alert": "OK",
      "vis_m": 1600,
      "fzfg": false,
      "metar_trigger": false,
      "taf_trigger": false,
      "metar": "METAR EPRZ 070130Z 07005KT 1600 BR OVC002 01/00 Q0999",
      "taf": "TAF EPRZ 062330Z 0700/0724 07006KT 2000 BR OVC002"
    },
    {
      "icao": "EPSC",
      "alert": "OK",
      "vis_m": 5000,
      "fzfg": false,
      "metar_trigger": false,
      "taf_trigger": false,
      "metar": "METAR EPSC 070130Z 06004KT 030V090 5000 BR OVC011 00/M00 Q1002",
      "taf": "TAF EPSC 062330Z 0700/0724 08004KT 4500 BR BKN011"
    },
    {
      "icao": "EPSY",
      "alert": "OK",
      "vis_m": 1800,
      "fzfg": false,
      "metar_trigger": false,
      "taf_trigger": false,
      "metar": "METAR EPSY 070130Z 06005KT 030V110 1800 BR OVC001 M02/M02 Q1002",
      "taf": "TAF EPSY 062330Z 0700/0709 07006KT 2500 BR OVC004"
    },
    {
      "icao": "EPWA",
      "alert": "OK",
      "vis_m": 6000,
      "fzfg": false,
      "metar_trigger": false,
      "taf_trigger": false,
      "metar": "METAR EPWA 070130Z 06005KT 6000 -DZ OVC005 01/00 Q1001 TEMPO 4000 BR BKN004",
      "taf": "TAF EPWA 062330Z 0700/0724 07006KT 7000 OVC006"
    },
    {
      "icao": "EPWR",
      "alert": "OK",
      "vis_m": 2100,
      "fzfg": false,
      "metar_trigger": false,
      "taf_trigger": false,
      "metar": "METAR EPWR 070130Z 27001KT 2100 BR SCT004 BKN040 01/01 Q1000",
      "taf": ""
    },
    {
      "icao": "ESGG",
      "alert": "OK",
      "vis_m": 9999,
      "fzfg": false,
      "metar_trigger": false,
      "taf_trigger": false,
      "metar": "METAR ESGG 070150Z 05013KT 9999 BKN010 M05/M06 Q1008",
      "taf": "TAF ESGG 062330Z 0700/0724 05012KT 7000 -SN BKN030"
    },
    {
      "icao": "ESKN",
      "alert": "OK",
      "vis_m": 9999,
      "fzfg": false,
      "metar_trigger": false,
      "taf_trigger": false,
      "metar": "METAR ESKN 070150Z 02009KT 9999 OVC004 M05/M05 Q1012",
      "taf": ""
    },
    {
      "icao": "ESMS",
      "alert": "OK",
      "vis_m": 9999,
      "fzfg": false,
      "metar_trigger": false,
      "taf_trigger": false,
      "metar": "METAR ESMS 070150Z 09017KT 9999 OVC009 01/M01 Q1004",
      "taf": "TAF ESMS 062328Z 0700/0724 09017KT 9999 OVC008"
    },
    {
      "icao": "ESSA",
      "alert": "OK",
      "vis_m": 9999,
      "fzfg": false,
      "metar_trigger": false,
      "taf_trigger": false,
      "metar": "METAR ESSA 070150Z 04009KT 9999 SCT013 BKN039 M04/M08 Q1014 NOSIG",
      "taf": "TAF ESSA 062330Z 0700/0724 05008KT 9999 BKN017"
    },
    {
      "icao": "EYKA",
      "alert": "OK",
      "vis_m": 2600,
      "fzfg": false,
      "metar_trigger": false,
      "taf_trigger": false,
      "metar": "METAR EYKA 070150Z 05004KT 2600 SN BR OVC027 M04/M05 Q1005",
      "taf": "TAF EYKA 062318Z 0700/0724 05005KT 5000 SN SCT005 OVC015"
    },
    {
      "icao": "EYPA",
      "alert": "OK",
      "vis_m": 9999,
      "fzfg": false,
      "metar_trigger": false,
      "taf_trigger": false,
      "metar": "METAR EYPA 070150Z 07007KT 9999 FEW033 M05/M08 Q1007",
      "taf": "TAF EYPA 062308Z 0700/0724 07007KT 6000 SCT010 OVC020"
    },
    {
      "icao": "EYVI",
      "alert": "OK",
      "vis_m": 7000,
      "fzfg": false,
      "metar_trigger": false,
      "taf_trigger": false,
      "metar": "METAR EYVI 070150Z 08004KT 7000 -SN OVC045 M04/M06 Q1004 NOSIG",
      "taf": "TAF EYVI 062326Z 0700/0724 09005KT 5000 SN SCT010 OVC015"
    },
    {
      "icao": "GCFV",
      "alert": "OK",
      "vis_m": 9999,
      "fzfg": false,
      "metar_trigger": false,
      "taf_trigger": false,
      "metar": "METAR GCFV 070130Z AUTO 30006KT CAVOK 15/09 Q1025",
      "taf": "TAF GCFV 062000Z 0621/0721 33005KT 9999 FEW025 TX22/0714Z TN16/0706Z"
    },
    {
      "icao": "GCLP",
      "alert": "OK",
      "vis_m": 9999,
      "fzfg": false,
      "metar_trigger": false,
      "taf_trigger": false,
      "metar": "METAR GCLP 070130Z 33007KT 9999 FEW035 16/09 Q1025 NOSIG",
      "taf": "TAF GCLP 062000Z 0621/0721 34009KT CAVOK TX22/0714Z TN16/0706Z"
    },
    {
      "icao": "GCTS",
      "alert": "OK",
      "vis_m": 9999,
      "fzfg": false,
      "metar_trigger": false,
      "taf_trigger": false,
      "metar": "METAR GCTS 070130Z 03003KT 330V070 9999 BKN030 18/11 Q1025 NOSIG",
      "taf": "TAF GCTS 062000Z 0621/0721 05007KT 9999 FEW035 TX24/0714Z TN16/0706Z"
    },
    {
      "icao": "GMAD",
      "alert": "OK",
      "vis_m": 8000,
      "fzfg": false,
      "metar_trigger": false,
      "taf_trigger": false,
      "metar": "METAR GMAD 070130Z 20008KT 8000 NSC 11/09 Q1021 NOSIG",
      "taf": "TAF GMAD 062300Z 0700/0806 06008KT 8000 BKN016"
    },
    {
      "icao": "GMMN",
      "alert": "OK",
      "vis_m": 9999,
      "fzfg": false,
      "metar_trigger": false,
      "taf_trigger": false,
      "metar": "METAR GMMN 070130Z 20009KT 9999 SCT016 09/08 Q1021 NOSIG",
      "taf": "TAF GMMN 062300Z 0700/0806 22008KT 9999 SCT016"
    },
    {
      "icao": "GMMX",
      "alert": "OK",
      "vis_m": 8000,
      "fzfg": false,
      "metar_trigger": false,
      "taf_trigger": false,
      "metar": "METAR GMMX 070130Z 24004KT 8000 SCT026 10/08 Q1022 NOSIG",
      "taf": "TAF GMMX 062300Z 0700/0806 26006KT 8000 SCT026 SCT080"
    },
    {
      "icao": "HEGN",
      "alert": "OK",
      "vis_m": 9999,
      "fzfg": false,
      "metar_trigger": false,
      "taf_trigger": false,
      "metar": "METAR HEGN 070200Z 00000KT CAVOK 16/12 Q1014 NOSIG",
      "taf": "TAF HEGN 062300Z 0700/0806 29008KT CAVOK"
    },
    {
      "icao": "HEMA",
      "alert": "OK",
      "vis_m": 9999,
      "fzfg": false,
      "metar_trigger": false,
      "taf_trigger": false,
      "metar": "METAR HEMA 070200Z 32005KT CAVOK 19/M02 Q1014 NOSIG",
      "taf": "TAF HEMA 062300Z 0700/0806 27008KT CAVOK"
    },
    {
      "icao": "HESH",
      "alert": "OK",
      "vis_m": 9999,
      "fzfg": false,
      "metar_trigger": false,
      "taf_trigger": false,
      "metar": "METAR HESH 070200Z 29004KT CAVOK 17/14 Q1015 NOSIG",
      "taf": "TAF HESH 062300Z 0700/0806 31008KT CAVOK"
    },
    {
      "icao": "HESX",
      "alert": "OK",
      "vis_m": 9999,
      "fzfg": false,
      "metar_trigger": false,
      "taf_trigger": false,
      "metar": "METAR HESX 070200Z 19004KT CAVOK 14/01 Q1014 NOSIG",
      "taf": "TAF HESX 062300Z 0700/0806 25008KT CAVOK"
    },
    {
      "icao": "LATI",
      "alert": "OK",
      "vis_m": 9999,
      "fzfg": false,
      "metar_trigger": false,
      "taf_trigger": false,
      "metar": "METAR LATI 070150Z 25005KT 9999 FEW018 SCT022 BKN046 14/11 Q1002 NOSIG",
      "taf": "TAF LATI 062300Z 0700/0724 14006KT 9999 SCT030 BKN080 TX17/0712Z TN11/0705Z"
    },
    {
      "icao": "LBPD",
      "alert": "OK",
      "vis_m": 9999,
      "fzfg": false,
      "metar_trigger": false,
      "taf_trigger": false,
      "metar": "METAR LBPD 070200Z AUTO 12004KT 9999 BKN061/// OVC069/// 07/07 Q1000",
      "taf": "TAF LBPD 062300Z 0700/0724 VRB04KT 3000 BR SCT015 BKN030"
    },
    {
      "icao": "LBSF",
      "alert": "OK",
      "vis_m": 5000,
      "fzfg": false,
      "metar_trigger": false,
      "taf_trigger": false,
      "metar": "METAR LBSF 070200Z AUTO 04004KT 350V070 5000 BR BKN040/// OVC047/// 05/04 Q1000 TEMPO 2000 BR",
      "taf": "TAF LBSF 062300Z 0700/0724 VRB04KT 3000 BR SCT020 OVC040"
    },
    {
      "icao": "LBWN",
      "alert": "OK",
      "vis_m": 3700,
      "fzfg": false,
      "metar_trigger": false,
      "taf_trigger": false,
      "metar": "METAR LBWN 070200Z AUTO 27004KT 3700 BR OVC007/// 07/07 Q0999 NOSIG",
      "taf": "TAF LBWN 062300Z 0700/0724 VRB04KT 0350 FG VV001"
    },
    {
      "icao": "LCLK",
      "alert": "OK",
      "vis_m": 8000,
      "fzfg": false,
      "metar_trigger": false,
      "taf_trigger": false,
      "metar": "METAR LCLK 070130Z 32006KT 8000 FEW070 12/12 Q1011 NOSIG",
      "taf": "TAF LCLK 062330Z 0700/0800 28006KT 8000 BR DU FEW010"
    },
    {
      "icao": "LCPH",
      "alert": "OK",
      "vis_m": 9999,
      "fzfg": false,
      "metar_trigger": false,
      "taf_trigger": false,
      "metar": "METAR LCPH 070130Z AUTO 34003KT 9999 BKN080 16/14 Q1010 TEMPO BKN015",
      "taf": "TAF LCPH 062330Z 0700/0800 01006KT 9999 FEW012 SCT018"
    },
    {
      "icao": "LEAL",
      "alert": "OK",
      "vis_m": 9999,
      "fzfg": false,
      "metar_trigger": false,
      "taf_trigger": false,
      "metar": "METAR LEAL 070130Z 27007KT CAVOK 11/06 Q1008 NOSIG",
      "taf": "TAF LEAL 062300Z 0700/0724 26010KT 9999 FEW040 TX15/0714Z TN08/0706Z"
    },
    {
      "icao": "LEBB",
      "alert": "OK",
      "vis_m": 9999,
      "fzfg": false,
      "metar_trigger": false,
      "taf_trigger": false,
      "metar": "METAR LEBB 070130Z AUTO 20009KT 110V260 CAVOK 12/02 Q1002",
      "taf": "TAF LEBB 062300Z 0700/0724 21010KT CAVOK TX14/0713Z TN09/0707Z"
    },
    {
      "icao": "LEBL",
      "alert": "OK",
      "vis_m": 9999,
      "fzfg": false,
      "metar_trigger": false,
      "taf_trigger": false,
      "metar": "METAR LEBL 070130Z 28003KT 240V320 9999 FEW042 11/06 Q1002 NOSIG",
      "taf": "TAF LEBL 062300Z 0700/0724 31009KT 9999 FEW025 TX15/0713Z TN09/0706Z"
    },
    {
      "icao": "LECH",
      "alert": "OK",
      "vis_m": 9999,
      "fzfg": false,
      "metar_trigger": false,
      "taf_trigger": false,
      "metar": "METAR LECH 070130Z AUTO 24004KT CAVOK 08/01 Q1004",
      "taf": ""
    },
    {
      "icao": "LEMD",
      "alert": "OK",
      "vis_m": 9999,
      "fzfg": false,
      "metar_trigger": false,
      "taf_trigger": false,
      "metar": "METAR LEMD 070130Z 24013KT 9999 FEW015 05/03 Q1008 NOSIG",
      "taf": "TAF LEMD 062300Z 0700/0806 22010KT 9999 SCT015 BKN030 TX07/0712Z TN03/0706Z"
    },
    {
      "icao": "LEMG",
      "alert": "OK",
      "vis_m": 9999,
      "fzfg": false,
      "metar_trigger": false,
      "taf_trigger": false,
      "metar": "METAR LEMG 070130Z 29004KT 9999 VCSH FEW033 FEW035TCU BKN045 09/08 Q1015 NOSIG",
      "taf": "TAF LEMG 062300Z 0700/0724 26005KT 9999 FEW040 TX16/0714Z TN10/0707Z"
    },
    {
      "icao": "LEVC",
      "alert": "OK",
      "vis_m": 9999,
      "fzfg": false,
      "metar_trigger": false,
      "taf_trigger": false,
      "metar": "METAR LEVC 070130Z 26008KT 210V300 9999 FEW050 11/04 Q1007 NOSIG",
      "taf": "TAF LEVC 062300Z 0700/0724 25009KT 9999 FEW040 TX16/0714Z TN08/0706Z"
    },
    {
      "icao": "LEXJ",
      "alert": "OK",
      "vis_m": 9999,
      "fzfg": false,
      "metar_trigger": false,
      "taf_trigger": false,
      "metar": "METAR LEXJ 070130Z AUTO 22006KT 160V260 CAVOK 10/01 Q1001",
      "taf": "TAF LEXJ 062000Z 0621/0721 20009KT CAVOK TX14/0712Z TN09/0706Z"
    },
    {
      "icao": "LEZG",
      "alert": "OK",
      "vis_m": 9999,
      "fzfg": false,
      "metar_trigger": false,
      "taf_trigger": false,
      "metar": "METAR LEZG 070130Z 25013KT CAVOK 10/02 Q1005 NOSIG",
      "taf": "TAF LEZG 062300Z 0700/0724 25010KT 9999 FEW050 TX14/0715Z TN07/0706Z"
    },
    {
      "icao": "LEZL",
      "alert": "OK",
      "vis_m": 9999,
      "fzfg": false,
      "metar_trigger": false,
      "taf_trigger": false,
      "metar": "METAR LEZL 070130Z AUTO 24006KT CAVOK 10/07 Q1014",
      "taf": "TAF LEZL 062000Z 0621/0721 23008KT 9999 SCT030 SCT040 TX15/0715Z TN12/0707Z"
    },
    {
      "icao": "LFBD",
      "alert": "OK",
      "vis_m": 9999,
      "fzfg": false,
      "metar_trigger": false,
      "taf_trigger": false,
      "metar": "METAR LFBD 070130Z AUTO 18007KT CAVOK 08/07 Q1001 NOSIG",
      "taf": "TAF LFBD 062300Z 0700/0806 20010KT CAVOK TX13/0714Z TN06/0704Z"
    },
    {
      "icao": "LFLL",
      "alert": "OK",
      "vis_m": 9999,
      "fzfg": false,
      "metar_trigger": false,
      "taf_trigger": false,
      "metar": "METAR LFLL 070130Z 17006KT CAVOK 04/03 Q1002 NOSIG",
      "taf": "TAF LFLL 062300Z 0700/0806 15004KT CAVOK"
    },
    {
      "icao": "LFLS",
      "alert": "OK",
      "vis_m": 9999,
      "fzfg": false,
      "metar_trigger": false,
      "taf_trigger": false,
      "metar": "METAR LFLS 070130Z AUTO 07007KT 9999 SCT049 BKN068 BKN200 06/05 Q1002",
      "taf": ""
    },
    {
      "icao": "LFMN",
      "alert": "OK",
      "vis_m": 9999,
      "fzfg": false,
      "metar_trigger": false,
      "taf_trigger": false,
      "metar": "METAR LFMN 070130Z 31008KT 9999 FEW016 SCT210 09/06 Q1001 NOSIG",
      "taf": "TAF LFMN 062000Z 0621/0803 33010KT CAVOK"
    },
    {
      "icao": "LFOB",
      "alert": "OK",
      "vis_m": 9999,
      "fzfg": false,
      "metar_trigger": false,
      "taf_trigger": false,
      "metar": "METAR LFOB 070130Z AUTO 15005KT CAVOK 05/04 Q0998 NOSIG",
      "taf": "TAF LFOB 062300Z 0700/0724 20007KT 9999 BKN020"
    },
    {
      "icao": "LFPO",
      "alert": "OK",
      "vis_m": 9999,
      "fzfg": false,
      "metar_trigger": false,
      "taf_trigger": false,
      "metar": "METAR LFPO 070130Z AUTO 18006KT CAVOK 07/06 Q0999 TEMPO BKN006",
      "taf": "TAF LFPO 062300Z 0700/0806 19008KT CAVOK"
    },
    {
      "icao": "LFSB",
      "alert": "OK",
      "vis_m": 9999,
      "fzfg": false,
      "metar_trigger": false,
      "taf_trigger": false,
      "metar": "METAR LFSB 070130Z AUTO 00000KT 9999 BKN033/// BKN039/// OVC052/// ///TCU 06/05 Q1003 BECMG BKN035",
      "taf": "TAF LFSB 062300Z 0700/0724 VRB03KT 9999 BKN035"
    },
    {
      "icao": "LGAV",
      "alert": "OK",
      "vis_m": 9999,
      "fzfg": false,
      "metar_trigger": false,
      "taf_trigger": false,
      "metar": "METAR LGAV 070150Z 15008KT 120V190 9999 FEW020 15/07 Q1004 NOSIG",
      "taf": "TAF LGAV 062300Z 0700/0724 27012KT 9999 FEW020"
    },
    {
      "icao": "LGTS",
      "alert": "OK",
      "vis_m": 1200,
      "fzfg": false,
      "metar_trigger": false,
      "taf_trigger": false,
      "metar": "METAR LGTS 070150Z VRB03KT 1200 R10/1400 R28/1400 BR OVC003 10/10 Q1001 NOSIG",
      "taf": "TAF LGTS 062300Z 0700/0724 VRB03KT 7000 FEW008 SCT025"
    },
    {
      "icao": "LHBP",
      "alert": "OK",
      "vis_m": 4800,
      "fzfg": false,
      "metar_trigger": false,
      "taf_trigger": false,
      "metar": "METAR LHBP 070200Z 00000KT 4800 MIFG BR FEW010 SCT058 06/05 Q1001 NOSIG",
      "taf": "TAF LHBP 062315Z 0700/0724 VRB03KT 6000 SCT020 BKN040"
    },
    {
      "icao": "LHDC",
      "alert": "OK",
      "vis_m": 2800,
      "fzfg": false,
      "metar_trigger": false,
      "taf_trigger": false,
      "metar": "METAR LHDC 070115Z AUTO VRB02KT 2800 BR OVC023 06/06 Q1000",
      "taf": "TAF LHDC 061415Z 0615/0624 VRB02KT CAVOK"
    },
    {
      "icao": "LIBD",
      "alert": "OK",
      "vis_m": 9999,
      "fzfg": false,
      "metar_trigger": false,
      "taf_trigger": false,
      "metar": "METAR LIBD 070150Z 22005KT CAVOK 07/06 Q1003",
      "taf": "TAF LIBD 062300Z 0700/0724 VRB06KT 9999 FEW030"
    },
    {
      "icao": "LIBG",
      "alert": "OK",
      "vis_m": null,
      "fzfg": false,
      "metar_trigger": false,
      "taf_trigger": false,
      "metar": "",
      "taf": "TAF LIBG 061700Z 0618/0703 25010KT CAVOK"
    },
    {
      "icao": "LIBP",
      "alert": "OK",
      "vis_m": 9999,
      "fzfg": false,
      "metar_trigger": false,
      "taf_trigger": false,
      "metar": "METAR LIBP 070150Z AUTO VRB02KT 9999 FEW091/// 07/07 Q1003",
      "taf": "TAF LIBP 062300Z 0700/0724 VRB05KT 9999 FEW060"
    },
    {
      "icao": "LIBR",
      "alert": "OK",
      "vis_m": 9999,
      "fzfg": false,
      "metar_trigger": false,
      "taf_trigger": false,
      "metar": "METAR LIBR 070120Z 28006KT CAVOK 11/07 Q1003",
      "taf": "TAF LIBR 062300Z 0700/0724 24010KT 9999 FEW040"
    },
    {
      "icao": "LICA",
      "alert": "OK",
      "vis_m": 8000,
      "fzfg": false,
      "metar_trigger": false,
      "taf_trigger": false,
      "metar": "METAR LICA 070150Z AUTO 27017KT 8000 BKN014/// 15/13 Q1008",
      "taf": "TAF LICA 062300Z 0700/0724 27015KT 9999 SCT020"
    },
    {
      "icao": "LICC",
      "alert": "OK",
      "vis_m": 9999,
      "fzfg": false,
      "metar_trigger": false,
      "taf_trigger": false,
      "metar": "METAR LICC 070150Z 27011KT CAVOK 10/07 Q1009",
      "taf": "TAF LICC 062300Z 0700/0724 26012KT 9999 FEW040"
    },
    {
      "icao": "LICJ",
      "alert": "OK",
      "vis_m": 9999,
      "fzfg": false,
      "metar_trigger": false,
      "taf_trigger": false,
      "metar": "METAR LICJ 070150Z 22010KT CAVOK 14/09 Q1009",
      "taf": "TAF LICJ 062300Z 0700/0724 22012KT 9999 FEW030"
    },
    {
      "icao": "LIMC",
      "alert": "OK",
      "vis_m": 9999,
      "fzfg": false,
      "metar_trigger": false,
      "taf_trigger": false,
      "metar": "METAR LIMC 070150Z 05006KT 010V130 CAVOK 02/02 Q1001 NOSIG",
      "taf": "TAF LIMC 062300Z 0700/0806 VRB05KT 9999 SCT030"
    },
    {
      "icao": "LIME",
      "alert": "OK",
      "vis_m": 9999,
      "fzfg": false,
      "metar_trigger": false,
      "taf_trigger": false,
      "metar": "METAR LIME 070150Z 01005KT CAVOK 05/05 Q1001 NOSIG",
      "taf": "TAF LIME 062300Z 0700/0724 VRB05KT 9999 SCT040"
    },
    {
      "icao": "LIMF",
      "alert": "OK",
      "vis_m": 9999,
      "fzfg": false,
      "metar_trigger": false,
      "taf_trigger": false,
      "metar": "METAR LIMF 070150Z 19004KT CAVOK 03/01 Q1001",
      "taf": "TAF LIMF 062300Z 0700/0724 VRB05KT CAVOK"
    },
    {
      "icao": "LIMJ",
      "alert": "OK",
      "vis_m": 9999,
      "fzfg": false,
      "metar_trigger": false,
      "taf_trigger": false,
      "metar": "METAR LIMJ 070150Z AUTO 01003KT 350V070 9999 FEW027/// OVC038/// 10/07 Q1001",
      "taf": "TAF LIMJ 062300Z 0700/0724 VRB05KT 9999 SCT040"
    },
    {
      "icao": "LIPE",
      "alert": "OK",
      "vis_m": 9999,
      "fzfg": false,
      "metar_trigger": false,
      "taf_trigger": false,
      "metar": "METAR LIPE 070150Z 21003KT 190V250 CAVOK 06/05 Q1002",
      "taf": "TAF LIPE 062300Z 0700/0724 VRB05KT 9000 FEW060"
    },
    {
      "icao": "LIPH",
      "alert": "OK",
      "vis_m": 2600,
      "fzfg": false,
      "metar_trigger": false,
      "taf_trigger": false,
      "metar": "METAR LIPH 070150Z AUTO 35002KT 2600 0500W R07/1000U BCFG BKN130/// BKN170/// 06/06 Q1001",
      "taf": "TAF LIPH 062300Z 0700/0724 VRB05KT 7000 SCT060"
    },
    {
      "icao": "LIPQ",
      "alert": "OK",
      "vis_m": 9999,
      "fzfg": false,
      "metar_trigger": false,
      "taf_trigger": false,
      "metar": "METAR LIPQ 070150Z AUTO 06002KT 9999 FEW085/// BKN120/// 08/07 Q1001",
      "taf": "TAF LIPQ 062300Z 0700/0724 VRB04KT 7000 SCT070"
    },
    {
      "icao": "LIPR",
      "alert": "OK",
      "vis_m": 9999,
      "fzfg": false,
      "metar_trigger": false,
      "taf_trigger": false,
      "metar": "METAR LIPR 070150Z AUTO 20004KT 9999 FEW062/// 04/04 Q1002",
      "taf": "TAF LIPR 062300Z 0700/0724 VRB05KT 9999 SCT060"
    },
    {
      "icao": "LIPX",
      "alert": "OK",
      "vis_m": 9999,
      "fzfg": false,
      "metar_trigger": false,
      "taf_trigger": false,
      "metar": "METAR LIPX 070150Z 35006KT 9999 FEW010 05/05 Q1001",
      "taf": "TAF LIPX 062300Z 0700/0724 VRB05KT 9999 SCT050"
    },
    {
      "icao": "LIPY",
      "alert": "OK",
      "vis_m": 9999,
      "fzfg": false,
      "metar_trigger": false,
      "taf_trigger": false,
      "metar": "METAR LIPY 070150Z AUTO 18003KT 9999 BKN052/// 06/06 Q1002",
      "taf": "TAF LIPY 062300Z 0700/0724 VRB05KT 9999 SCT050"
    },
    {
      "icao": "LIPZ",
      "alert": "OK",
      "vis_m": 9999,
      "fzfg": false,
      "metar_trigger": false,
      "taf_trigger": false,
      "metar": "METAR LIPZ 070150Z 30002KT CAVOK 07/07 Q1001 NOSIG",
      "taf": "TAF LIPZ 062300Z 0700/0806 VRB05KT 7000 FEW060"
    },
    {
      "icao": "LIRF",
      "alert": "OK",
      "vis_m": 9999,
      "fzfg": false,
      "metar_trigger": false,
      "taf_trigger": false,
      "metar": "METAR LIRF 070150Z VRB01KT 9999 SCT015 09/08 Q1004 NOSIG",
      "taf": "TAF LIRF 062300Z 0700/0806 VRB05KT 9999 FEW030"
    },
    {
      "icao": "LIRN",
      "alert": "OK",
      "vis_m": 9999,
      "fzfg": false,
      "metar_trigger": false,
      "taf_trigger": false,
      "metar": "METAR LIRN 070150Z 23006KT 190V250 9999 FEW030 14/11 Q1005 NOSIG",
      "taf": "TAF LIRN 062300Z 0700/0724 VRB05KT 9999 FEW030"
    },
    {
      "icao": "LIRP",
      "alert": "OK",
      "vis_m": 9999,
      "fzfg": false,
      "metar_trigger": false,
      "taf_trigger": false,
      "metar": "METAR LIRP 070145Z 24009KT 9999 SCT020 SCT030 12/11 Q1003 NOSIG",
      "taf": "TAF LIRP 062300Z 0700/0724 24010KT 9999 SCT015 BKN030"
    },
    {
      "icao": "LIRZ",
      "alert": "OK",
      "vis_m": 9999,
      "fzfg": false,
      "metar_trigger": false,
      "taf_trigger": false,
      "metar": "METAR LIRZ 070150Z AUTO 25003KT 220V290 9999 FEW025/// BKN029/// 06/05 Q1004",
      "taf": "TAF LIRZ 062300Z 0700/0724 VRB05KT 9999 SCT030"
    },
    {
      "icao": "LJLJ",
      "alert": "OK",
      "vis_m": 800,
      "fzfg": false,
      "metar_trigger": false,
      "taf_trigger": false,
      "metar": "METAR LJLJ 070130Z 24001KT 0800 R30/P2000N FG FEW001 SCT080 BKN110 03/02 Q1001 NOSIG",
      "taf": "TAF LJLJ 062300Z 0700/0800 VRB02KT 9999 FEW007"
    },
    {
      "icao": "LKMT",
      "alert": "OK",
      "vis_m": 1200,
      "fzfg": false,
      "metar_trigger": false,
      "taf_trigger": false,
      "metar": "METAR LKMT 070130Z VRB02KT 1200 R22/0450N R04/P2000N BR SCT003 OVC006 02/02 Q1000 TEMPO 0500 FG BKN003",
      "taf": "TAF LKMT 062300Z 0700/0724 22005KT 2500 BR BKN025"
    },
    {
      "icao": "LKPR",
      "alert": "OK",
      "vis_m": 9000,
      "fzfg": false,
      "metar_trigger": false,
      "taf_trigger": false,
      "metar": "METAR LKPR 070130Z 21006KT 9000 BKN006 OVC008 01/00 Q1000 NOSIG",
      "taf": "TAF LKPR 062300Z 0700/0806 22006KT 9999 OVC011"
    },
    {
      "icao": "LLBG",
      "alert": "OK",
      "vis_m": 9999,
      "fzfg": false,
      "metar_trigger": false,
      "taf_trigger": false,
      "metar": "METAR LLBG 070150Z 14004KT CAVOK 14/08 Q1013 NOSIG RMK SCT130",
      "taf": "TAF LLBG 062313Z 0700/0724 VRB04KT CAVOK"
    },
    {
      "icao": "LMML",
      "alert": "OK",
      "vis_m": 9999,
      "fzfg": false,
      "metar_trigger": false,
      "taf_trigger": false,
      "metar": "METAR LMML 070145Z 26008KT CAVOK 13/11 Q1011 NOSIG",
      "taf": "TAF LMML 062300Z 0700/0724 28007KT CAVOK"
    },
    {
      "icao": "LOWW",
      "alert": "OK",
      "vis_m": 9999,
      "fzfg": false,
      "metar_trigger": false,
      "taf_trigger": false,
      "metar": "METAR LOWW 070150Z 01003KT 9999 FEW018 BKN024 04/02 Q1002 NOSIG",
      "taf": "TAF LOWW 062315Z 0700/0806 31006KT 9999 BKN030 TX07/0714Z TN03/0802Z"
    },
    {
      "icao": "LPFR",
      "alert": "OK",
      "vis_m": 9999,
      "fzfg": false,
      "metar_trigger": false,
      "taf_trigger": false,
      "metar": "METAR LPFR 070130Z 28003KT 9999 SCT035 09/07 Q1015",
      "taf": "TAF LPFR 062300Z 0700/0724 26010KT 9999 SCT025"
    },
    {
      "icao": "LPMA",
      "alert": "OK",
      "vis_m": 9999,
      "fzfg": false,
      "metar_trigger": false,
      "taf_trigger": false,
      "metar": "METAR LPMA 070130Z 24010KT 200V260 9999 FEW015 16/09 Q1021",
      "taf": "TAF LPMA 062300Z 0700/0724 VRB05KT 9999 SCT015"
    },
    {
      "icao": "LPPR",
      "alert": "OK",
      "vis_m": 9999,
      "fzfg": false,
      "metar_trigger": false,
      "taf_trigger": false,
      "metar": "METAR LPPR 070130Z 24011KT 9999 -SHRA FEW018 FEW020CB BKN030 11/05 Q1006",
      "taf": "TAF LPPR 062300Z 0700/0724 23010KT 9999 SCT020 FEW025TCU"
    },
    {
      "icao": "LPPS",
      "alert": "OK",
      "vis_m": 9999,
      "fzfg": false,
      "metar_trigger": false,
      "taf_trigger": false,
      "metar": "METAR LPPS 070130Z 27017KT 9999 FEW014 17/11 Q1021",
      "taf": "TAF LPPS 062300Z 0700/0806 26015KT 9999 SCT015"
    },
    {
      "icao": "LPPT",
      "alert": "OK",
      "vis_m": 9999,
      "fzfg": false,
      "metar_trigger": false,
      "taf_trigger": false,
      "metar": "METAR LPPT 070130Z 24005KT 9999 FEW035 10/07 Q1011",
      "taf": "TAF LPPT 062300Z 0700/0806 23008KT 9999 SCT025"
    },
    {
      "icao": "LQBK",
      "alert": "OK",
      "vis_m": 7000,
      "fzfg": false,
      "metar_trigger": false,
      "taf_trigger": false,
      "metar": "METAR LQBK 070130Z 12001KT 7000 -RA BKN047 06/06 Q1001 NOSIG",
      "taf": "TAF LQBK 062300Z 0700/0724 VRB02KT 6000 SCT012 BKN025 TX08/0713Z TN03/0723Z"
    },
    {
      "icao": "LQSA",
      "alert": "OK",
      "vis_m": 6000,
      "fzfg": false,
      "metar_trigger": false,
      "taf_trigger": false,
      "metar": "METAR LQSA 070130Z 12003KT 6000 SCT008 BKN025 05/05 Q1000",
      "taf": "TAF LQSA 062300Z 0700/0724 VRB02KT 9999 SCT030 BKN050 TX10/0713Z TN03/0705Z"
    },
    {
      "icao": "LQTZ",
      "alert": "OK",
      "vis_m": 1200,
      "fzfg": false,
      "metar_trigger": false,
      "taf_trigger": false,
      "metar": "METAR LQTZ 070130Z 22002KT 1200 R09/1000D -RA BR BKN009 OVC026 06/06 Q1001",
      "taf": "TAF LQTZ 062300Z 0700/0724 VRB02KT 6000 SCT012 BKN035 TX10/0713Z TN05/0705Z"
    },
    {
      "icao": "LRBC",
      "alert": "OK",
      "vis_m": 5000,
      "fzfg": false,
      "metar_trigger": false,
      "taf_trigger": false,
      "metar": "METAR LRBC 070130Z 00000KT 5000 BR OVC003 M00/M00 Q1001",
      "taf": "TAF LRBC 062300Z 0700/0709 VRB04KT 3000 BR OVC002"
    },
    {
      "icao": "LRBS",
      "alert": "OK",
      "vis_m": 4500,
      "fzfg": false,
      "metar_trigger": false,
      "taf_trigger": false,
      "metar": "METAR LRBS 070130Z 08003KT 4500 BR BKN004 OVC007 01/01 Q1002 NOSIG",
      "taf": "TAF LRBS 062300Z 0700/0724 06008KT 5000 BR OVC003"
    },
    {
      "icao": "LRBV",
      "alert": "OK",
      "vis_m": 7000,
      "fzfg": false,
      "metar_trigger": false,
      "taf_trigger": false,
      "metar": "METAR LRBV 070130Z AUTO 00000KT 7000 SCT036/// BKN060/// OVC170/// M01/M01 Q1000",
      "taf": "TAF LRBV 062000Z 0621/0706 VRB04KT CAVOK"
    },
    {
      "icao": "LRCL",
      "alert": "OK",
      "vis_m": 9999,
      "fzfg": false,
      "metar_trigger": false,
      "taf_trigger": false,
      "metar": "METAR LRCL 070130Z 28004KT 9999 SCT034 OVC053 05/04 Q0999",
      "taf": "TAF LRCL 062300Z 0700/0709 VRB04KT 9999 SCT040"
    },
    {
      "icao": "LRCV",
      "alert": "OK",
      "vis_m": 300,
      "fzfg": false,
      "metar_trigger": false,
      "taf_trigger": false,
      "metar": "METAR LRCV 070130Z COR 23004KT 0300 R26/0400N FG VV002 03/03 Q1001",
      "taf": "TAF LRCV 062300Z 0700/0709 VRB04KT 0300 FG OVC002"
    },
    {
      "icao": "LRIA",
      "alert": "OK",
      "vis_m": 9999,
      "fzfg": false,
      "metar_trigger": false,
      "taf_trigger": false,
      "metar": "METAR LRIA 070130Z 03002KT 9999 FEW005 SCT007 BKN008 M02/M03 Q1002",
      "taf": "TAF LRIA 062300Z 0700/0709 VRB04KT 5000 BR BKN010"
    },
    {
      "icao": "LROP",
      "alert": "OK",
      "vis_m": 4000,
      "fzfg": false,
      "metar_trigger": false,
      "taf_trigger": false,
      "metar": "METAR LROP 070130Z 13006KT 4000 BR OVC003 01/01 Q1002 NOSIG",
      "taf": "TAF LROP 062300Z 0700/0724 06008KT 5000 BR OVC003"
    },
    {
      "icao": "LRSB",
      "alert": "OK",
      "vis_m": 9999,
      "fzfg": false,
      "metar_trigger": false,
      "taf_trigger": false,
      "metar": "METAR LRSB 070130Z VRB01KT 9999 SCT035 BKN055 04/03 Q0999",
      "taf": "TAF LRSB 062300Z 0700/0724 VRB04KT 9999 SCT050"
    },
    {
      "icao": "LRSM",
      "alert": "OK",
      "vis_m": 600,
      "fzfg": false,
      "metar_trigger": false,
      "taf_trigger": false,
      "metar": "METAR LRSM 070130Z AUTO 23004KT 0600 R19/0700N FG BKN049/// 06/05 Q1000",
      "taf": ""
    },
    {
      "icao": "LRSV",
      "alert": "OK",
      "vis_m": 400,
      "fzfg": true,
      "metar_trigger": false,
      "taf_trigger": false,
      "metar": "METAR LRSV 070130Z 04003KT 0400 R34/0650N FZFG VV001 M03/M03 Q0999",
      "taf": "TAF LRSV 062300Z 0700/0709 VRB04KT 0200 FZFG OVC001"
    },
    {
      "icao": "LRTM",
      "alert": "OK",
      "vis_m": 5000,
      "fzfg": false,
      "metar_trigger": false,
      "taf_trigger": false,
      "metar": "METAR LRTM 070130Z AUTO 06002KT 5000 NCD 02/01 Q0999",
      "taf": "TAF LRTM 062300Z 0700/0709 VRB04KT 5000 BR SCT040"
    },
    {
      "icao": "LRTR",
      "alert": "OK",
      "vis_m": 9999,
      "fzfg": false,
      "metar_trigger": false,
      "taf_trigger": false,
      "metar": "METAR LRTR 070130Z 01002KT 9999 SCT036 05/05 Q1000",
      "taf": "TAF LRTR 062300Z 0700/0724 VRB04KT 9999 SCT045"
    },
    {
      "icao": "LTAC",
      "alert": "OK",
      "vis_m": 9999,
      "fzfg": false,
      "metar_trigger": false,
      "taf_trigger": false,
      "metar": "METAR LTAC 070150Z 22004KT 9999 -SHRA SCT010 BKN025 BKN080 06/04 Q1003 NOSIG RMK RWY21C 18004KT RWY03L 20003KT 160V220 RWY21R 18004KT 140V210 RWY03R 16006KT RWY21L 17006KT",
      "taf": "TAF LTAC 062240Z 0700/0724 19007KT 9999 -SHRA BKN030 BKN080"
    },
    {
      "icao": "LTFM",
      "alert": "OK",
      "vis_m": 7000,
      "fzfg": false,
      "metar_trigger": false,
      "taf_trigger": false,
      "metar": "METAR LTFM 070150Z 22013KT 7000 -SHRA FEW005 BKN028 BKN080 11/10 Q1000 NOSIG RMK RWY17L 21015KT RWY34L 21012KT RWY16R 21011KT RWY36 22010KT RWY18 21014KT",
      "taf": "TAF LTFM 062240Z 0700/0806 22012KT 9999 SCT032 BKN090"
    },
    {
      "icao": "LUKK",
      "alert": "OK",
      "vis_m": 3900,
      "fzfg": false,
      "metar_trigger": false,
      "taf_trigger": false,
      "metar": "METAR LUKK 070130Z 01003KT 340V060 3900 BR OVC002 M02/M02 Q1001 TEMPO 1000 BR",
      "taf": "TAF LUKK 062321Z 0700/0724 35006KT 5000 BR OVC005"
    },
    {
      "icao": "LWOH",
      "alert": "OK",
      "vis_m": null,
      "fzfg": false,
      "metar_trigger": false,
      "taf_trigger": false,
      "metar": "",
      "taf": ""
    },
    {
      "icao": "LWSK",
      "alert": "OK",
      "vis_m": 6000,
      "fzfg": false,
      "metar_trigger": false,
      "taf_trigger": false,
      "metar": "METAR LWSK 070150Z 01004KT 340V040 6000 BKN014 OVC035 06/06 Q1001 NOSIG",
      "taf": ""
    },
    {
      "icao": "LYBE",
      "alert": "OK",
      "vis_m": 9999,
      "fzfg": false,
      "metar_trigger": false,
      "taf_trigger": false,
      "metar": "METAR LYBE 070130Z 16007KT CAVOK 07/04 Q1000 NOSIG",
      "taf": "TAF LYBE 062300Z 0700/0724 27004KT CAVOK TX11/0713Z TN04/0706Z"
    },
    {
      "icao": "LYNI",
      "alert": "OK",
      "vis_m": 4000,
      "fzfg": false,
      "metar_trigger": false,
      "taf_trigger": false,
      "metar": "METAR LYNI 070130Z VRB01KT 4000 BR FEW005 BKN060 06/06 Q1000 NOSIG",
      "taf": "TAF LYNI 062300Z 0700/0724 10003KT 9999 SCT012 BKN040 OVC070 TX10/0713Z TN05/0706Z"
    },
    {
      "icao": "LYPG",
      "alert": "OK",
      "vis_m": 3000,
      "fzfg": false,
      "metar_trigger": false,
      "taf_trigger": false,
      "metar": "METAR LYPG 070130Z 05003KT 340V100 3000 BR FEW007 SCT050 BKN080 09/09 Q1002 NOSIG",
      "taf": "TAF LYPG 062300Z 0700/0724 36005KT 9999 FEW007 SCT030 BKN070 TX14/0712Z TN06/0706Z"
    },
    {
      "icao": "LZIB",
      "alert": "OK",
      "vis_m": 9999,
      "fzfg": false,
      "metar_trigger": false,
      "taf_trigger": false,
      "metar": "METAR LZIB 070200Z 25005KT 220V280 9999 BKN033 05/02 Q1001 NOSIG",
      "taf": "TAF LZIB 062315Z 0700/0800 28006KT 9999 SCT013 BKN020"
    },
    {
      "icao": "LZKZ",
      "alert": "OK",
      "vis_m": 6000,
      "fzfg": false,
      "metar_trigger": false,
      "taf_trigger": false,
      "metar": "METAR LZKZ 070200Z 00000KT 6000 2500E BCFG OVC013 03/03 Q0999 NOSIG",
      "taf": "TAF LZKZ 062315Z 0700/0800 VRB02KT 9999 SCT020 BKN030"
    },
    {
      "icao": "LZTT",
      "alert": "OK",
      "vis_m": 900,
      "fzfg": false,
      "metar_trigger": false,
      "taf_trigger": false,
      "metar": "METAR LZTT 070200Z 27001KT 0900 R27/P2000N -RA FG BKN003 BKN040 01/00 Q0998",
      "taf": ""
    },
    {
      "icao": "OEJN",
      "alert": "OK",
      "vis_m": 9999,
      "fzfg": false,
      "metar_trigger": false,
      "taf_trigger": false,
      "metar": "METAR OEJN 070200Z 24003KT CAVOK 24/17 Q1014 NOSIG",
      "taf": "TAF OEJN 062300Z 0700/0806 36006KT 7000 NSC"
    },
    {
      "icao": "OEMA",
      "alert": "OK",
      "vis_m": 9999,
      "fzfg": false,
      "metar_trigger": false,
      "taf_trigger": false,
      "metar": "METAR OEMA 070200Z 36004KT CAVOK 17/09 Q1018 NOSIG",
      "taf": "TAF OEMA 062300Z 0700/0806 VRB03KT CAVOK"
    },
    {
      "icao": "OJAI",
      "alert": "OK",
      "vis_m": 5000,
      "fzfg": false,
      "metar_trigger": false,
      "taf_trigger": false,
      "metar": "METAR OJAI 070100Z 25004KT 5000 HZ NSC 12/03 Q1015 NOSIG",
      "taf": "TAF OJAI 062248Z 0700/0806 23006KT 5000 HZ FEW040"
    },
    {
      "icao": "OMAA",
      "alert": "OK",
      "vis_m": 6000,
      "fzfg": false,
      "metar_trigger": false,
      "taf_trigger": false,
      "metar": "METAR OMAA 070200Z 10004KT 6000 NSC 18/16 Q1018 BECMG 4000 HZ",
      "taf": "TAF OMAA 062300Z 0700/0806 14008KT 8000 NSC"
    },
    {
      "icao": "OMDB",
      "alert": "OK",
      "vis_m": 6000,
      "fzfg": false,
      "metar_trigger": false,
      "taf_trigger": false,
      "metar": "METAR OMDB 070200Z 09005KT 6000 NSC 20/18 Q1018 BECMG 4000 HZ",
      "taf": "TAF OMDB 062300Z 0700/0806 09005KT 8000 NSC"
    },
    {
      "icao": "UAAA",
      "alert": "OK",
      "vis_m": 9999,
      "fzfg": false,
      "metar_trigger": false,
      "taf_trigger": false,
      "metar": "METAR UAAA 070130Z 07002MPS 9999 SCT100 BKN200 M02/M04 Q1027 NOSIG",
      "taf": "TAF UAAA 062301Z 0700/0724 04003G08MPS 3100 BR BKN011CB OVC020 TX02/0707Z TNM04/0702Z"
    },
    {
      "icao": "UBBB",
      "alert": "OK",
      "vis_m": 9999,
      "fzfg": false,
      "metar_trigger": false,
      "taf_trigger": false,
      "metar": "METAR UBBB 070200Z 16008KT 9999 BKN022 07/05 Q1015 NOSIG",
      "taf": "TAF UBBB 062257Z 0700/0724 16010KT 9999 SCT010 BKN030 TX08/0710Z TN04/0700Z"
    },
    {
      "icao": "UDSG",
      "alert": "OK",
      "vis_m": 1900,
      "fzfg": false,
      "metar_trigger": false,
      "taf_trigger": false,
      "metar": "METAR UDSG 070130Z 11001KT 1900 SN BR OVC023 M03/M03 Q1016 NOSIG",
      "taf": "TAF UDSG 062300Z 0700/0724 VRB06KT 2000 BR OVC020"
    },
    {
      "icao": "UDYZ",
      "alert": "OK",
      "vis_m": 7000,
      "fzfg": false,
      "metar_trigger": false,
      "taf_trigger": false,
      "metar": "METAR UDYZ 070130Z VRB02KT 7000 BKN046 01/M01 Q1016 NOSIG",
      "taf": "TAF UDYZ 062300Z 0700/0724 14006KT 6000 SCT040"
    },
    {
      "icao": "UGKO",
      "alert": "OK",
      "vis_m": 9999,
      "fzfg": false,
      "metar_trigger": false,
      "taf_trigger": false,
      "metar": "METAR UGKO 070130Z 09019KT 9999 BKN088 12/M02 Q1008 NOSIG",
      "taf": "TAF UGKO 062300Z 0700/0724 08020KT CAVOK TX18/0711Z TN09/0703Z"
    }
  ]
}