{
  "ts_utc": "2026-01-03T08:24:16Z",
  "threshold_m": 150,
  "source": "stations_override.txt (ICAO list) + aviationweather.gov (METAR/TAF raw)",
  "station_count": 159,
  "stations": [
    {
      "icao": "BIKF",
      "alert": "OK",
      "vis_m": 9999,
      "fzfg": false,
      "metar_trigger": false,
      "taf_trigger": false,
      "metar": "METAR BIKF 030800Z 02007KT CAVOK M06/M09 Q1029",
      "taf": "TAF BIKF 030748Z 0309/0409 01008KT 9999 FEW030 TXM02/0403Z TNM08/0312Z"
    },
    {
      "icao": "BKPR",
      "alert": "OK",
      "vis_m": null,
      "fzfg": false,
      "metar_trigger": false,
      "taf_trigger": false,
      "metar": "",
      "taf": "TAF BKPR 030530Z 0306/0406 17008KT 9999 BKN030"
    },
    {
      "icao": "EBCI",
      "alert": "OK",
      "vis_m": 9999,
      "fzfg": false,
      "metar_trigger": false,
      "taf_trigger": false,
      "metar": "METAR EBCI 030750Z COR 24011KT 9999 SCT015 BKN035 M01/M03 Q1004 TEMPO 1200 SHSN BKN004 BKN010CB",
      "taf": "TAF EBCI 030515Z 0306/0412 26010KT 9999 FEW015 SCT035"
    },
    {
      "icao": "EDDB",
      "alert": "OK",
      "vis_m": 9999,
      "fzfg": false,
      "metar_trigger": false,
      "taf_trigger": false,
      "metar": "METAR EDDB 030750Z COR AUTO 25012KT 9999 BKN026 00/M02 Q0996 TEMPO 3000 SN BKN008",
      "taf": "TAF EDDB 030500Z 0306/0406 27012G22KT 9999 BKN015"
    },
    {
      "icao": "EDDH",
      "alert": "OK",
      "vis_m": 9999,
      "fzfg": false,
      "metar_trigger": false,
      "taf_trigger": false,
      "metar": "METAR EDDH 030750Z AUTO 35005KT 320V020 9999 FEW006 SCT043 M01/M01 Q0994 RESHSN NOSIG",
      "taf": "TAF EDDH 030500Z 0306/0412 24008KT 4500 -SN BKN012"
    },
    {
      "icao": "EDDK",
      "alert": "OK",
      "vis_m": 9999,
      "fzfg": false,
      "metar_trigger": false,
      "taf_trigger": false,
      "metar": "METAR EDDK 030750Z AUTO 21006KT CAVOK 01/M04 Q1003 NOSIG",
      "taf": "TAF EDDK 030500Z 0306/0412 22006KT 9999 BKN030"
    },
    {
      "icao": "EDDN",
      "alert": "OK",
      "vis_m": 9999,
      "fzfg": false,
      "metar_trigger": false,
      "taf_trigger": false,
      "metar": "METAR EDDN 030750Z AUTO 22008KT 190V250 9999 SCT017 BKN021 OVC040 M02/M05 Q1005 NOSIG",
      "taf": "TAF EDDN 030500Z 0306/0406 25010KT 9999 BKN020"
    },
    {
      "icao": "EDDS",
      "alert": "OK",
      "vis_m": 9999,
      "fzfg": false,
      "metar_trigger": false,
      "taf_trigger": false,
      "metar": "METAR EDDS 030750Z AUTO 23004KT 170V300 9999 BKN028 M03/M07 Q1006 NOSIG",
      "taf": "TAF EDDS 030500Z 0306/0406 22005KT 9999 SCT025"
    },
    {
      "icao": "EDFH",
      "alert": "OK",
      "vis_m": 9999,
      "fzfg": false,
      "metar_trigger": false,
      "taf_trigger": false,
      "metar": "METAR EDFH 030750Z 25010KT 9999 SCT035 M04/M07 Q1002",
      "taf": "TAF EDFH 030500Z 0306/0406 26012KT 9999 BKN015"
    },
    {
      "icao": "EDJA",
      "alert": "OK",
      "vis_m": 9999,
      "fzfg": false,
      "metar_trigger": false,
      "taf_trigger": false,
      "metar": "METAR EDJA 030750Z 20008KT 9999 BKN035 M07/M09 Q1005",
      "taf": "TAF EDJA 030500Z 0306/0315 23010KT 9999 FEW025"
    },
    {
      "icao": "EDLW",
      "alert": "OK",
      "vis_m": 9999,
      "fzfg": false,
      "metar_trigger": false,
      "taf_trigger": false,
      "metar": "METAR EDLW 030750Z 22017KT 9999 SCT016 00/M02 Q1000",
      "taf": "TAF EDLW 030500Z 0306/0406 24014KT 9999 SCT006 BKN015"
    },
    {
      "icao": "EDNY",
      "alert": "OK",
      "vis_m": 9999,
      "fzfg": false,
      "metar_trigger": false,
      "taf_trigger": false,
      "metar": "METAR EDNY 030750Z 07002KT 9999 FEW021 M07/M08 Q1008",
      "taf": "TAF EDNY 030500Z 0306/0315 02003KT 9999 FEW025"
    },
    {
      "icao": "EDSB",
      "alert": "OK",
      "vis_m": 9999,
      "fzfg": false,
      "metar_trigger": false,
      "taf_trigger": false,
      "metar": "METAR EDSB 030750Z 21008KT 9999 BKN038 M03/M05 Q1008",
      "taf": "TAF EDSB 030500Z 0306/0406 20007KT 9999 SCT025"
    },
    {
      "icao": "EETN",
      "alert": "OK",
      "vis_m": 9999,
      "fzfg": false,
      "metar_trigger": false,
      "taf_trigger": false,
      "metar": "METAR EETN 030820Z 08010KT 9999 -SN OVC008 M05/M07 Q0988 TEMPO 3000 SN",
      "taf": "TAF EETN 030530Z 0306/0406 09008KT 9000 SCT007 BKN015"
    },
    {
      "icao": "EFTU",
      "alert": "OK",
      "vis_m": 9999,
      "fzfg": false,
      "metar_trigger": false,
      "taf_trigger": false,
      "metar": "METAR EFTU 030820Z AUTO 07012KT 9999 OVC008 M08/M10 Q0989",
      "taf": ""
    },
    {
      "icao": "EGBB",
      "alert": "OK",
      "vis_m": 9999,
      "fzfg": false,
      "metar_trigger": false,
      "taf_trigger": false,
      "metar": "METAR EGBB 030750Z 30010KT CAVOK M01/M06 Q1009",
      "taf": "TAF EGBB 030453Z 0306/0406 30008KT CAVOK"
    },
    {
      "icao": "EGGP",
      "alert": "OK",
      "vis_m": 9999,
      "fzfg": false,
      "metar_trigger": false,
      "taf_trigger": false,
      "metar": "METAR EGGP 030750Z 33012KT 9999 FEW044 01/M06 Q1010",
      "taf": "TAF EGGP 030455Z 0306/0406 32009KT 9999 SCT030"
    },
    {
      "icao": "EGGW",
      "alert": "OK",
      "vis_m": 9999,
      "fzfg": false,
      "metar_trigger": false,
      "taf_trigger": false,
      "metar": "METAR EGGW 030750Z AUTO 30014KT 9999 NCD M02/M06 Q1007",
      "taf": "TAF EGGW 030454Z 0306/0406 30009KT 9999 FEW025"
    },
    {
      "icao": "EGKK",
      "alert": "OK",
      "vis_m": 9999,
      "fzfg": false,
      "metar_trigger": false,
      "taf_trigger": false,
      "metar": "METAR EGKK 030750Z 30010KT CAVOK M00/M03 Q1009",
      "taf": "TAF EGKK 030459Z 0306/0412 30010KT 9999 FEW030"
    },
    {
      "icao": "EGNM",
      "alert": "OK",
      "vis_m": 9999,
      "fzfg": false,
      "metar_trigger": false,
      "taf_trigger": false,
      "metar": "METAR EGNM 030750Z 30014KT CAVOK M03/M07 Q1007",
      "taf": "TAF EGNM 030604Z 0306/0406 30015KT 9999 FEW030"
    },
    {
      "icao": "EGPD",
      "alert": "OK",
      "vis_m": 9000,
      "fzfg": false,
      "metar_trigger": false,
      "taf_trigger": false,
      "metar": "METAR EGPD 030750Z AUTO 32016KT 9000 -RASN SCT027/// BKN041/// //////TCU 01/M02 Q1007 TEMPO 1800 SHSN",
      "taf": ""
    },
    {
      "icao": "EGPF",
      "alert": "OK",
      "vis_m": 9999,
      "fzfg": false,
      "metar_trigger": false,
      "taf_trigger": false,
      "metar": "METAR EGPF 030750Z AUTO 26005KT 240V320 9999 NCD M01/M04 Q1012",
      "taf": "TAF EGPF 030456Z 0306/0406 30009KT 9999 FEW030"
    },
    {
      "icao": "EHBK",
      "alert": "OK",
      "vis_m": 9999,
      "fzfg": false,
      "metar_trigger": false,
      "taf_trigger": false,
      "metar": "METAR EHBK 030755Z AUTO 22012KT 9999 OVC018/// M00/M02 Q1002 NOSIG",
      "taf": "TAF EHBK 030509Z 0306/0412 22010KT 9999 SCT022"
    },
    {
      "icao": "EHEH",
      "alert": "OK",
      "vis_m": 3400,
      "fzfg": false,
      "metar_trigger": false,
      "taf_trigger": false,
      "metar": "SPECI EHEH 030741Z AUTO 24012KT 200V330 3400 R21/P3000N -SN FEW000 SCT012 FEW015CB BKN017 M00/M02 Q1002 YLO TEMPO 1500 -SHSN SCT006 SCT015CB BKN018 RMK TREND REMOTE BY EHWX",
      "taf": "TAF EHEH 030540Z 0306/0412 24010KT SCT020 BKN025"
    },
    {
      "icao": "EKBI",
      "alert": "OK",
      "vis_m": 9999,
      "fzfg": false,
      "metar_trigger": false,
      "taf_trigger": false,
      "metar": "METAR EKBI 030750Z AUTO 00000KT 9999 NCD M12/M13 Q0993",
      "taf": "TAF EKBI 030528Z 0306/0406 VRB03KT 9999 FEW020"
    },
    {
      "icao": "EKCH",
      "alert": "OK",
      "vis_m": 7000,
      "fzfg": false,
      "metar_trigger": false,
      "taf_trigger": false,
      "metar": "METAR EKCH 030750Z 27013KT 7000 SHSN SCT007 BKN043 M02/M04 Q0990 TEMPO 3000 BKN012",
      "taf": "TAF EKCH 030528Z 0306/0406 30010KT 9999 BKN020"
    },
    {
      "icao": "ENAL",
      "alert": "OK",
      "vis_m": 9999,
      "fzfg": false,
      "metar_trigger": false,
      "taf_trigger": false,
      "metar": "METAR ENAL 030750Z 10010KT CAVOK M04/M10 Q1002",
      "taf": "TAF ENAL 030500Z 0306/0315 06015KT CAVOK"
    },
    {
      "icao": "ENBR",
      "alert": "OK",
      "vis_m": 9999,
      "fzfg": false,
      "metar_trigger": false,
      "taf_trigger": false,
      "metar": "METAR ENBR 030750Z 36006KT 330V070 CAVOK M06/M14 Q0998 NOSIG RMK WIND 1200FT 03013KT",
      "taf": "TAF ENBR 030500Z 0306/0406 01008KT CAVOK"
    },
    {
      "icao": "ENGM",
      "alert": "OK",
      "vis_m": 6000,
      "fzfg": false,
      "metar_trigger": false,
      "taf_trigger": false,
      "metar": "METAR ENGM 030750Z 01016KT 6000 -SN FEW029 BKN048 M08/M12 Q0994 TEMPO 4000",
      "taf": "TAF ENGM 030500Z 0306/0406 36015KT 9000 -SN FEW025 BKN040"
    },
    {
      "icao": "ENHD",
      "alert": "OK",
      "vis_m": 9999,
      "fzfg": false,
      "metar_trigger": false,
      "taf_trigger": false,
      "metar": "METAR ENHD 030750Z 01013KT CAVOK M05/M13 Q0997",
      "taf": "TAF ENHD 030500Z 0306/0315 07008KT CAVOK"
    },
    {
      "icao": "ENTC",
      "alert": "OK",
      "vis_m": 9999,
      "fzfg": false,
      "metar_trigger": false,
      "taf_trigger": false,
      "metar": "METAR ENTC 030750Z 20008KT 170V230 9999 FEW018 SCT049 M06/M09 Q1000 NOSIG RMK WIND 2600FT 25010KT",
      "taf": "TAF ENTC 030500Z 0306/0406 29010KT 9999 -SHSN FEW020 BKN025"
    },
    {
      "icao": "ENTO",
      "alert": "OK",
      "vis_m": 9999,
      "fzfg": false,
      "metar_trigger": false,
      "taf_trigger": false,
      "metar": "METAR ENTO 030750Z 36014KT 9999 -SN OVC023 M06/M10 Q0994 NOSIG",
      "taf": ""
    },
    {
      "icao": "ENVA",
      "alert": "OK",
      "vis_m": 9999,
      "fzfg": false,
      "metar_trigger": false,
      "taf_trigger": false,
      "metar": "METAR ENVA 030750Z 12008KT CAVOK M12/M13 Q1004 NOSIG RMK WIND 670FT 16009KT",
      "taf": "TAF ENVA 030500Z 0306/0406 11008KT CAVOK"
    },
    {
      "icao": "ENZV",
      "alert": "OK",
      "vis_m": 9999,
      "fzfg": false,
      "metar_trigger": false,
      "taf_trigger": false,
      "metar": "METAR ENZV 030750Z 03008KT CAVOK M05/M12 Q0996 NOSIG",
      "taf": "TAF ENZV 030500Z 0306/0406 10005KT CAVOK"
    },
    {
      "icao": "EPGD",
      "alert": "OK",
      "vis_m": 1800,
      "fzfg": false,
      "metar_trigger": false,
      "taf_trigger": false,
      "metar": "METAR EPGD 030800Z 24011KT 1800 SN VV016 M02/M03 Q0986",
      "taf": "TAF EPGD 030530Z 0306/0406 24015KT 6000 -SN BKN015"
    },
    {
      "icao": "EPKK",
      "alert": "OK",
      "vis_m": 9999,
      "fzfg": false,
      "metar_trigger": false,
      "taf_trigger": false,
      "metar": "METAR EPKK 030800Z 24017KT 9999 FEW017TCU SCT050 00/M06 Q0999",
      "taf": ""
    },
    {
      "icao": "EPKT",
      "alert": "OK",
      "vis_m": 9999,
      "fzfg": false,
      "metar_trigger": false,
      "taf_trigger": false,
      "metar": "METAR EPKT 030800Z 24013KT 9999 FEW017CB SCT040 M01/M05 Q0998 RESHSN",
      "taf": "TAF EPKT 030530Z 0306/0406 24015KT 9999 SCT040"
    },
    {
      "icao": "EPLB",
      "alert": "OK",
      "vis_m": 2000,
      "fzfg": false,
      "metar_trigger": false,
      "taf_trigger": false,
      "metar": "METAR EPLB 030800Z 23014KT 2000 SHSN FEW010 SCT013 BKN016CB M02/M04 Q0996",
      "taf": "TAF EPLB 030530Z 0306/0406 22010KT 9999 BKN030"
    },
    {
      "icao": "EPMO",
      "alert": "OK",
      "vis_m": 9999,
      "fzfg": false,
      "metar_trigger": false,
      "taf_trigger": false,
      "metar": "METAR EPMO 030800Z 24014KT 210V270 9999 -SHSN DRSN FEW006 SCT021CB BKN037 M01/M03 Q0993 RESHSN",
      "taf": "TAF EPMO 030530Z 0306/0406 23010KT 9999 BKN030"
    },
    {
      "icao": "EPPO",
      "alert": "OK",
      "vis_m": 9999,
      "fzfg": false,
      "metar_trigger": false,
      "taf_trigger": false,
      "metar": "METAR EPPO 030800Z 25010KT 9999 FEW020 M02/M06 Q0995",
      "taf": "TAF EPPO 030530Z 0306/0406 26014KT 9999 FEW017"
    },
    {
      "icao": "EPRA",
      "alert": "OK",
      "vis_m": 9999,
      "fzfg": false,
      "metar_trigger": false,
      "taf_trigger": false,
      "metar": "METAR EPRA 030800Z 25013KT 9999 BKN026 OVC033 M01/M04 Q0996",
      "taf": "TAF EPRA 030530Z 0306/0315 25012KT 9999 BKN035"
    },
    {
      "icao": "EPRZ",
      "alert": "OK",
      "vis_m": 9999,
      "fzfg": false,
      "metar_trigger": false,
      "taf_trigger": false,
      "metar": "METAR EPRZ 030800Z 20011KT 9999 BKN043 M01/M07 Q0998",
      "taf": "TAF EPRZ 030530Z 0306/0406 20010KT 9999 SCT040"
    },
    {
      "icao": "EPSC",
      "alert": "OK",
      "vis_m": 9999,
      "fzfg": false,
      "metar_trigger": false,
      "taf_trigger": false,
      "metar": "METAR EPSC 030800Z 24007KT CAVOK M03/M06 Q0993",
      "taf": "TAF EPSC 030530Z 0306/0406 26012KT 9999 SCT035"
    },
    {
      "icao": "EPSY",
      "alert": "OK",
      "vis_m": 9999,
      "fzfg": false,
      "metar_trigger": false,
      "taf_trigger": false,
      "metar": "METAR EPSY 030800Z 23012KT 200V260 9999 BKN012 BKN032 M01/M03 Q0990",
      "taf": "TAF EPSY 030530Z 0306/0315 21012KT 9999 BKN014"
    },
    {
      "icao": "EPWA",
      "alert": "OK",
      "vis_m": 9999,
      "fzfg": false,
      "metar_trigger": false,
      "taf_trigger": false,
      "metar": "METAR EPWA 030800Z 24011KT 210V270 9999 -SHSN SCT025CB BKN039 M01/M04 Q0994 TEMPO 3000 SHSN",
      "taf": "TAF EPWA 030530Z 0306/0406 23010KT 9999 BKN030"
    },
    {
      "icao": "EPWR",
      "alert": "OK",
      "vis_m": 9999,
      "fzfg": false,
      "metar_trigger": false,
      "taf_trigger": false,
      "metar": "METAR EPWR 030800Z 27014KT 9999 FEW040 M01/M05 Q0999",
      "taf": "TAF EPWR 030530Z 0306/0406 27015KT 9999 FEW030"
    },
    {
      "icao": "ESGG",
      "alert": "OK",
      "vis_m": 2400,
      "fzfg": false,
      "metar_trigger": false,
      "taf_trigger": false,
      "metar": "METAR ESGG 030750Z 34009KT 2400 -SN FEW015 BKN024 M07/M09 Q0989",
      "taf": "TAF ESGG 030530Z 0306/0406 34009KT 9000 -SN OVC009"
    },
    {
      "icao": "ESKN",
      "alert": "OK",
      "vis_m": 9999,
      "fzfg": false,
      "metar_trigger": false,
      "taf_trigger": false,
      "metar": "METAR ESKN 030750Z COR 36010KT 330V030 9999 DRSN OVC010 M03/M04 Q0983",
      "taf": "TAF ESKN 030530Z 0306/0406 01012G22KT 9999 -SN OVC009"
    },
    {
      "icao": "ESMS",
      "alert": "OK",
      "vis_m": 9999,
      "fzfg": false,
      "metar_trigger": false,
      "taf_trigger": false,
      "metar": "METAR ESMS 030750Z 32010KT 9999 -SN BKN021 M03/M05 Q0988",
      "taf": "TAF ESMS 030528Z 0306/0406 32012KT 9999 BKN020"
    },
    {
      "icao": "ESSA",
      "alert": "OK",
      "vis_m": 2100,
      "fzfg": false,
      "metar_trigger": false,
      "taf_trigger": false,
      "metar": "METAR ESSA 030750Z 02018KT 2100 SN VV008 M03/M04 Q0984 TEMPO 0700 SN VV015",
      "taf": "TAF ESSA 030530Z 0306/0406 02015KT 6000 -SN BKN007"
    },
    {
      "icao": "EYKA",
      "alert": "OK",
      "vis_m": 4700,
      "fzfg": false,
      "metar_trigger": false,
      "taf_trigger": false,
      "metar": "METAR EYKA 030820Z 23007KT 4700 SHSNRA BKN010CB OVC020 00/M01 Q0989",
      "taf": "TAF EYKA 030500Z 0306/0406 VRB04KT 8000 BKN010 OVC015"
    },
    {
      "icao": "EYPA",
      "alert": "OK",
      "vis_m": 1400,
      "fzfg": false,
      "metar_trigger": false,
      "taf_trigger": false,
      "metar": "METAR EYPA 030820Z 19011KT 1400 R19/P2000N +SHSNRA SCT005 BKN009 BKN013CB 00/M00 Q0985",
      "taf": ""
    },
    {
      "icao": "EYVI",
      "alert": "OK",
      "vis_m": 8000,
      "fzfg": false,
      "metar_trigger": false,
      "taf_trigger": false,
      "metar": "METAR EYVI 030820Z 19008KT 8000 -SHSN BKN005CB M01/M01 Q0989 TEMPO 0800 +SHSN",
      "taf": "TAF EYVI 030510Z 0306/0406 21010KT 9000 BKN005"
    },
    {
      "icao": "GCFV",
      "alert": "OK",
      "vis_m": 9999,
      "fzfg": false,
      "metar_trigger": false,
      "taf_trigger": false,
      "metar": "METAR GCFV 030800Z 23007KT 180V280 9999 FEW025 SCT045 17/13 Q1006",
      "taf": "TAF GCFV 030200Z 0303/0403 27008KT 9999 SCT025 TX22/0314Z TN17/0306Z"
    },
    {
      "icao": "GCLP",
      "alert": "OK",
      "vis_m": 9999,
      "fzfg": false,
      "metar_trigger": false,
      "taf_trigger": false,
      "metar": "METAR GCLP 030800Z 28005KT 240V310 9999 FEW025 SCT040 17/12 Q1006 NOSIG",
      "taf": ""
    },
    {
      "icao": "GCTS",
      "alert": "OK",
      "vis_m": 9999,
      "fzfg": false,
      "metar_trigger": false,
      "taf_trigger": false,
      "metar": "METAR GCTS 030800Z 31016KT 290V350 9999 FEW050 19/09 Q1007 NOSIG",
      "taf": "TAF GCTS 030200Z 0303/0403 28015KT 9999 FEW030 TX24/0314Z TN18/0306Z"
    },
    {
      "icao": "GMAD",
      "alert": "OK",
      "vis_m": 8000,
      "fzfg": false,
      "metar_trigger": false,
      "taf_trigger": false,
      "metar": "METAR GMAD 030800Z 06003KT 8000 SCT020 BKN030 14/14 Q1005 NOSIG",
      "taf": "TAF GMAD 030500Z 0306/0412 24008KT 6000 BKN20TCU BKN080"
    },
    {
      "icao": "GMMN",
      "alert": "OK",
      "vis_m": 9999,
      "fzfg": false,
      "metar_trigger": false,
      "taf_trigger": false,
      "metar": "METAR GMMN 030800Z 17017KT 9999 SCT020 BKN040 13/10 Q1002 RERA NOSIG",
      "taf": "TAF GMMN 030500Z 0306/0412 18020KT 9999 SCT030 SCT100"
    },
    {
      "icao": "GMMX",
      "alert": "OK",
      "vis_m": 6000,
      "fzfg": false,
      "metar_trigger": false,
      "taf_trigger": false,
      "metar": "METAR GMMX 030800Z 12011KT 6000 SCT016 BKN023 12/11 Q1003 TEMPO 3000 SHRA",
      "taf": "TAF GMMX 030500Z 0306/0412 22004KT 6000 RA SCT016 BKN023"
    },
    {
      "icao": "HEGN",
      "alert": "OK",
      "vis_m": 9999,
      "fzfg": false,
      "metar_trigger": false,
      "taf_trigger": false,
      "metar": "METAR HEGN 030800Z 33015KT CAVOK 18/07 Q1024 NOSIG",
      "taf": "TAF HEGN 030500Z 0306/0412 34018KT CAVOK"
    },
    {
      "icao": "HEMA",
      "alert": "OK",
      "vis_m": 8000,
      "fzfg": false,
      "metar_trigger": false,
      "taf_trigger": false,
      "metar": "METAR HEMA 030800Z 34018KT 8000 SCT025 21/12 Q1022 NOSIG",
      "taf": "TAF HEMA 030500Z 0306/0412 36018KT CAVOK"
    },
    {
      "icao": "HESH",
      "alert": "OK",
      "vis_m": 9999,
      "fzfg": false,
      "metar_trigger": false,
      "taf_trigger": false,
      "metar": "METAR HESH 030800Z 36015KT CAVOK 20/06 Q1023 NOSIG",
      "taf": "TAF HESH 030500Z 0306/0412 03012KT CAVOK"
    },
    {
      "icao": "HESX",
      "alert": "OK",
      "vis_m": 9999,
      "fzfg": false,
      "metar_trigger": false,
      "taf_trigger": false,
      "metar": "METAR HESX 030800Z 00000KT CAVOK 12/04 Q1026 NOSIG",
      "taf": "TAF HESX 030500Z 0306/0412 02008KT 9999 SCT020"
    },
    {
      "icao": "LATI",
      "alert": "OK",
      "vis_m": 9999,
      "fzfg": false,
      "metar_trigger": false,
      "taf_trigger": false,
      "metar": "METAR LATI 030820Z 16013KT 9999 -RA FEW007 SCT026 OVC055 13/08 Q1010 NOSIG",
      "taf": "TAF LATI 030500Z 0306/0406 14013KT 9999 SCT025 BKN070 TX14/0318Z TN12/0403Z"
    },
    {
      "icao": "LBPD",
      "alert": "OK",
      "vis_m": 9999,
      "fzfg": false,
      "metar_trigger": false,
      "taf_trigger": false,
      "metar": "METAR LBPD 030800Z AUTO 28004KT 230V320 9999 BKN082/// M02/M05 Q1008 NOSIG",
      "taf": "TAF LBPD 030500Z 0306/0406 VRB03KT 9999 SCT020 BKN080"
    },
    {
      "icao": "LBSF",
      "alert": "OK",
      "vis_m": 9999,
      "fzfg": false,
      "metar_trigger": false,
      "taf_trigger": false,
      "metar": "METAR LBSF 030800Z VRB05KT 9999 FEW055 SCT066 12/M00 Q1004 TEMPO 21016G28KT",
      "taf": "TAF LBSF 030500Z 0306/0406 08012KT 9999 SCT025 SCT050"
    },
    {
      "icao": "LBWN",
      "alert": "OK",
      "vis_m": 9999,
      "fzfg": false,
      "metar_trigger": false,
      "taf_trigger": false,
      "metar": "METAR LBWN 030800Z 32006KT CAVOK 11/04 Q1006 NOSIG",
      "taf": "TAF LBWN 030500Z 0306/0406 30010KT CAVOK"
    },
    {
      "icao": "LCLK",
      "alert": "OK",
      "vis_m": 9999,
      "fzfg": false,
      "metar_trigger": false,
      "taf_trigger": false,
      "metar": "METAR LCLK 030800Z VRB03KT 9999 FEW030 BKN060 14/06 Q1028 NOSIG",
      "taf": "TAF LCLK 030530Z 0306/0406 33007KT 9999 FEW040"
    },
    {
      "icao": "LCPH",
      "alert": "OK",
      "vis_m": 9999,
      "fzfg": false,
      "metar_trigger": false,
      "taf_trigger": false,
      "metar": "METAR LCPH 030800Z 08004KT 9999 BKN050 14/05 Q1028 NOSIG",
      "taf": "TAF LCPH 030530Z 0306/0406 04006KT 9999 SCT045"
    },
    {
      "icao": "LEAL",
      "alert": "OK",
      "vis_m": 9999,
      "fzfg": false,
      "metar_trigger": false,
      "taf_trigger": false,
      "metar": "METAR LEAL 030800Z 03004KT 350V120 9999 FEW020 13/08 Q1005 NOSIG",
      "taf": "TAF LEAL 030500Z 0306/0406 VRB05KT CAVOK TX17/0314Z TN09/0306Z"
    },
    {
      "icao": "LEBB",
      "alert": "OK",
      "vis_m": 9999,
      "fzfg": false,
      "metar_trigger": false,
      "taf_trigger": false,
      "metar": "METAR LEBB 030800Z 10003KT 050V140 9999 -RA BKN012 BKN019 07/06 Q1010 TEMPO 3000 RA",
      "taf": "TAF LEBB 030500Z 0306/0406 VRB03KT 9999 SCT010 BKN020 TX07/0314Z TN00/0406Z"
    },
    {
      "icao": "LEBL",
      "alert": "OK",
      "vis_m": 9999,
      "fzfg": false,
      "metar_trigger": false,
      "taf_trigger": false,
      "metar": "METAR LEBL 030800Z 05010KT 340V120 9999 BKN018 08/05 Q1007 NOSIG",
      "taf": ""
    },
    {
      "icao": "LECH",
      "alert": "OK",
      "vis_m": 9000,
      "fzfg": false,
      "metar_trigger": false,
      "taf_trigger": false,
      "metar": "METAR LECH 030800Z AUTO 09004KT 9000 NSC 08/06 Q1006",
      "taf": ""
    },
    {
      "icao": "LEMD",
      "alert": "OK",
      "vis_m": 9999,
      "fzfg": false,
      "metar_trigger": false,
      "taf_trigger": false,
      "metar": "METAR LEMD 030800Z VRB02KT CAVOK 06/06 Q1005 NOSIG",
      "taf": "TAF LEMD 030500Z 0306/0412 VRB03KT CAVOK TX13/0314Z TN05/0307Z"
    },
    {
      "icao": "LEMG",
      "alert": "OK",
      "vis_m": 9999,
      "fzfg": false,
      "metar_trigger": false,
      "taf_trigger": false,
      "metar": "METAR LEMG 030800Z 29008KT 9999 OVC055 11/09 Q1004 NOSIG",
      "taf": "TAF LEMG 030500Z 0306/0406 29005KT 9999 FEW015 TX18/0314Z TN10/0307Z"
    },
    {
      "icao": "LEVC",
      "alert": "OK",
      "vis_m": 7000,
      "fzfg": false,
      "metar_trigger": false,
      "taf_trigger": false,
      "metar": "METAR LEVC 030800Z 29003KT 240V310 7000 SCT003 BKN004 09/08 Q1006 NOSIG",
      "taf": ""
    },
    {
      "icao": "LEXJ",
      "alert": "OK",
      "vis_m": 9000,
      "fzfg": false,
      "metar_trigger": false,
      "taf_trigger": false,
      "metar": "METAR LEXJ 030800Z 09006KT 030V140 9000 -RA OVC016 08/06 Q1009",
      "taf": "TAF LEXJ 030200Z 0303/0403 08009KT 8000 SCT010 BKN020 TX10/0313Z TN05/0403Z"
    },
    {
      "icao": "LEZG",
      "alert": "OK",
      "vis_m": 200,
      "fzfg": false,
      "metar_trigger": false,
      "taf_trigger": false,
      "metar": "METAR LEZG 030800Z 00000KT 0200 R30R/0500N R12R/0375U R30L/0275N R12L/0325N FG VV001 04/04 Q1008 NOSIG",
      "taf": "TAF LEZG 030500Z 0306/0406 VRB04KT CAVOK TX11/0315Z TN05/0306Z"
    },
    {
      "icao": "LEZL",
      "alert": "OK",
      "vis_m": 9999,
      "fzfg": false,
      "metar_trigger": false,
      "taf_trigger": false,
      "metar": "METAR LEZL 030800Z 14007KT 100V170 CAVOK 14/13 Q1003 NOSIG",
      "taf": "TAF LEZL 030200Z 0303/0403 08008KT 9999 SCT030 TX19/0315Z TN12/0307Z"
    },
    {
      "icao": "LFBD",
      "alert": "OK",
      "vis_m": 4600,
      "fzfg": true,
      "metar_trigger": false,
      "taf_trigger": false,
      "metar": "METAR LFBD 030800Z AUTO 04005KT 340V070 4600 BR OVC004 M02/M02 Q1012",
      "taf": "TAF LFBD 030500Z 0306/0412 VRB03KT 0500 FZFG VV/// TX03/0313Z TNM04/0406Z"
    },
    {
      "icao": "LFLL",
      "alert": "OK",
      "vis_m": 9999,
      "fzfg": false,
      "metar_trigger": false,
      "taf_trigger": false,
      "metar": "METAR LFLL 030800Z VRB02KT 9999 FEW006 M01/M02 Q1010 NOSIG",
      "taf": ""
    },
    {
      "icao": "LFLS",
      "alert": "OK",
      "vis_m": 9999,
      "fzfg": false,
      "metar_trigger": false,
      "taf_trigger": false,
      "metar": "METAR LFLS 030800Z AUTO 35004KT 330V030 9999 OVC012 M00/M02 Q1009 TEMPO 4000 -SN OVC006",
      "taf": "TAF LFLS 030800Z 0309/0409 35006KT 9999 OVC013"
    },
    {
      "icao": "LFMN",
      "alert": "OK",
      "vis_m": 9999,
      "fzfg": false,
      "metar_trigger": false,
      "taf_trigger": false,
      "metar": "METAR LFMN 030800Z 33015KT 9999 SCT031 OVC260 04/M06 Q1002 NOSIG",
      "taf": "TAF LFMN 030800Z 0309/0415 33012KT 9999 SCT030"
    },
    {
      "icao": "LFOB",
      "alert": "OK",
      "vis_m": 9999,
      "fzfg": false,
      "metar_trigger": false,
      "taf_trigger": false,
      "metar": "METAR LFOB 030800Z AUTO 25008KT 9999 BKN007 BKN013 BKN026 00/M00 Q1008 TEMPO 2000 -SNRA BECMG NSC",
      "taf": "TAF LFOB 030500Z 0306/0406 28008KT CAVOK"
    },
    {
      "icao": "LFPO",
      "alert": "OK",
      "vis_m": 9999,
      "fzfg": false,
      "metar_trigger": false,
      "taf_trigger": false,
      "metar": "METAR LFPO 030800Z AUTO 25009KT CAVOK M01/M03 Q1009",
      "taf": ""
    },
    {
      "icao": "LFSB",
      "alert": "OK",
      "vis_m": 9999,
      "fzfg": false,
      "metar_trigger": false,
      "taf_trigger": false,
      "metar": "METAR LFSB 030800Z AUTO 27006KT 9999 FEW018 M03/M04 Q1009 TEMPO BKN008",
      "taf": "TAF LFSB 030511Z 0306/0406 26010KT 9999 FEW010"
    },
    {
      "icao": "LGAV",
      "alert": "OK",
      "vis_m": 9999,
      "fzfg": false,
      "metar_trigger": false,
      "taf_trigger": false,
      "metar": "METAR LGAV 030750Z 23013KT 9999 FEW025 17/08 Q1016 NOSIG",
      "taf": "TAF LGAV 030500Z 0306/0406 21018G30KT 9999 FEW025"
    },
    {
      "icao": "LGTS",
      "alert": "OK",
      "vis_m": 9999,
      "fzfg": false,
      "metar_trigger": false,
      "taf_trigger": false,
      "metar": "METAR LGTS 030750Z VRB03KT 9999 FEW015 SCT025 06/04 Q1011 NOSIG",
      "taf": "TAF LGTS 030500Z 0306/0406 VRB03KT 9999 SCT025"
    },
    {
      "icao": "LHBP",
      "alert": "OK",
      "vis_m": 9999,
      "fzfg": false,
      "metar_trigger": false,
      "taf_trigger": false,
      "metar": "METAR LHBP 030800Z 31010KT CAVOK 02/M04 Q1006 NOSIG",
      "taf": "TAF LHBP 030515Z 0306/0406 25007KT 9999 OVC005"
    },
    {
      "icao": "LHDC",
      "alert": "OK",
      "vis_m": 9999,
      "fzfg": false,
      "metar_trigger": false,
      "taf_trigger": false,
      "metar": "METAR LHDC 030745Z AUTO 20004KT 160V250 CAVOK 01/M01 Q1004 NOSIG",
      "taf": "TAF LHDC 030515Z 0306/0315 20006KT CAVOK"
    },
    {
      "icao": "LIBD",
      "alert": "OK",
      "vis_m": 9999,
      "fzfg": false,
      "metar_trigger": false,
      "taf_trigger": false,
      "metar": "METAR LIBD 030750Z 14007KT 9999 -RA NSC 13/08 Q1006",
      "taf": "TAF LIBD 030500Z 0306/0406 23011KT 9999 SCT035"
    },
    {
      "icao": "LIBG",
      "alert": "OK",
      "vis_m": 9999,
      "fzfg": false,
      "metar_trigger": false,
      "taf_trigger": false,
      "metar": "METAR LIBG 030750Z 22009KT 9999 SCT040 15/12 Q1008",
      "taf": "TAF LIBG 030800Z 0309/0318 22012KT 9999 SCT040"
    },
    {
      "icao": "LIBP",
      "alert": "OK",
      "vis_m": 9999,
      "fzfg": false,
      "metar_trigger": false,
      "taf_trigger": false,
      "metar": "METAR LIBP 030750Z AUTO 24010KT 9999 SCT230/// 16/02 Q1003",
      "taf": "TAF LIBP 030500Z 0306/0406 23012KT 9999 SCT020"
    },
    {
      "icao": "LIBR",
      "alert": "OK",
      "vis_m": 9999,
      "fzfg": false,
      "metar_trigger": false,
      "taf_trigger": false,
      "metar": "METAR LIBR 030750Z 20010KT CAVOK 14/08 Q1008",
      "taf": "TAF LIBR 030500Z 0306/0406 21015KT 9999 SCT030"
    },
    {
      "icao": "LICA",
      "alert": "OK",
      "vis_m": 9999,
      "fzfg": false,
      "metar_trigger": false,
      "taf_trigger": false,
      "metar": "METAR LICA 030750Z AUTO VRB03KT 9999 OVC077/// 12/09 Q1011",
      "taf": "TAF LICA 030500Z 0306/0406 07010KT 9999 SCT040"
    },
    {
      "icao": "LICC",
      "alert": "OK",
      "vis_m": 9999,
      "fzfg": false,
      "metar_trigger": false,
      "taf_trigger": false,
      "metar": "METAR LICC 030750Z 27009KT 9999 FEW030 15/12 Q1013",
      "taf": "TAF LICC 030500Z 0306/0406 25013KT 9999 SCT030"
    },
    {
      "icao": "LICJ",
      "alert": "OK",
      "vis_m": 9999,
      "fzfg": false,
      "metar_trigger": false,
      "taf_trigger": false,
      "metar": "METAR LICJ 030750Z AUTO 19017G27KT 9999 NCD 16/09 Q1010",
      "taf": "TAF LICJ 030500Z 0306/0406 19018G30KT CAVOK"
    },
    {
      "icao": "LIMC",
      "alert": "OK",
      "vis_m": 7000,
      "fzfg": false,
      "metar_trigger": false,
      "taf_trigger": false,
      "metar": "METAR LIMC 030750Z 12003KT 7000 MIFG NSC M03/M04 Q1004 NOSIG",
      "taf": "TAF LIMC 030500Z 0306/0412 VRB04KT CAVOK"
    },
    {
      "icao": "LIME",
      "alert": "OK",
      "vis_m": 200,
      "fzfg": true,
      "metar_trigger": false,
      "taf_trigger": false,
      "metar": "METAR LIME 030750Z 13004KT 090V180 0200 R28/0700N FZFG VV002 M01/M01 Q1004 NOSIG",
      "taf": "TAF LIME 030500Z 0306/0406 VRB04KT 0300 FZFG NSC"
    },
    {
      "icao": "LIMF",
      "alert": "OK",
      "vis_m": 9999,
      "fzfg": false,
      "metar_trigger": false,
      "taf_trigger": false,
      "metar": "METAR LIMF 030750Z 30003KT CAVOK M02/M05 Q1003",
      "taf": "TAF LIMF 030500Z 0306/0406 VRB04KT CAVOK"
    },
    {
      "icao": "LIMJ",
      "alert": "OK",
      "vis_m": 9999,
      "fzfg": false,
      "metar_trigger": false,
      "taf_trigger": false,
      "metar": "METAR LIMJ 030750Z 04018KT CAVOK 06/M00 Q1002",
      "taf": "TAF LIMJ 030500Z 0306/0406 03013KT CAVOK"
    },
    {
      "icao": "LIPE",
      "alert": "OK",
      "vis_m": 500,
      "fzfg": false,
      "metar_trigger": false,
      "taf_trigger": false,
      "metar": "METAR LIPE 030750Z VRB02KT 0500 R12/0600U R30/1900U FG VV001 00/00 Q1005",
      "taf": "TAF LIPE 030500Z 0306/0406 VRB05KT 0600 FG BKN002"
    },
    {
      "icao": "LIPH",
      "alert": "OK",
      "vis_m": 9999,
      "fzfg": false,
      "metar_trigger": false,
      "taf_trigger": false,
      "metar": "METAR LIPH 030750Z 26002KT CAVOK M01/M02 Q1004",
      "taf": "TAF LIPH 030500Z 0306/0406 VRB04KT 9999 SCT040"
    },
    {
      "icao": "LIPQ",
      "alert": "OK",
      "vis_m": 7000,
      "fzfg": false,
      "metar_trigger": false,
      "taf_trigger": false,
      "metar": "METAR LIPQ 030750Z AUTO 01004KT 7000 FEW100/// 02/01 Q1004",
      "taf": "TAF LIPQ 030500Z 0306/0406 VRB05KT 9999 SCT020"
    },
    {
      "icao": "LIPR",
      "alert": "OK",
      "vis_m": 1200,
      "fzfg": false,
      "metar_trigger": false,
      "taf_trigger": false,
      "metar": "METAR LIPR 030750Z VRB02KT 1200 R30/1600U BR SCT008 M01/M01 Q1005",
      "taf": "TAF LIPR 030500Z 0306/0406 VRB06KT 7000 SCT050"
    },
    {
      "icao": "LIPX",
      "alert": "OK",
      "vis_m": 100,
      "fzfg": false,
      "metar_trigger": false,
      "taf_trigger": false,
      "metar": "METAR LIPX 030750Z 14003KT 100V160 0100 R04/0225N FG VV002 00/00 Q1004",
      "taf": "TAF LIPX 030500Z 0306/0406 VRB04KT 3000 BR FEW020"
    },
    {
      "icao": "LIPY",
      "alert": "OK",
      "vis_m": 1900,
      "fzfg": false,
      "metar_trigger": false,
      "taf_trigger": false,
      "metar": "METAR LIPY 030750Z AUTO 36005KT 320V030 1900 BR OVC002/// 05/05 Q1005",
      "taf": ""
    },
    {
      "icao": "LIPZ",
      "alert": "OK",
      "vis_m": 9999,
      "fzfg": false,
      "metar_trigger": false,
      "taf_trigger": false,
      "metar": "METAR LIPZ 030750Z VRB02KT CAVOK M00/M03 Q1005 NOSIG",
      "taf": "TAF LIPZ 030500Z 0306/0412 VRB05KT 9999 FEW020"
    },
    {
      "icao": "LIRF",
      "alert": "OK",
      "vis_m": 9000,
      "fzfg": false,
      "metar_trigger": false,
      "taf_trigger": false,
      "metar": "METAR LIRF 030750Z 24008KT 9000 -RA SCT020 BKN035 15/11 Q1005 NOSIG",
      "taf": "TAF LIRF 030500Z 0306/0412 24014KT 9999 SCT020"
    },
    {
      "icao": "LIRN",
      "alert": "OK",
      "vis_m": 9999,
      "fzfg": false,
      "metar_trigger": false,
      "taf_trigger": false,
      "metar": "METAR LIRN 030750Z 22011KT 9999 FEW030 15/12 Q1007 NOSIG",
      "taf": "TAF LIRN 030500Z 0306/0406 23013KT 9999 BKN030"
    },
    {
      "icao": "LIRP",
      "alert": "OK",
      "vis_m": 9999,
      "fzfg": false,
      "metar_trigger": false,
      "taf_trigger": false,
      "metar": "METAR LIRP 030745Z 24013KT 9999 BKN030 11/06 Q1002 NOSIG",
      "taf": "TAF LIRP 030500Z 0306/0406 23012KT 9999 BKN040"
    },
    {
      "icao": "LIRZ",
      "alert": "OK",
      "vis_m": 9999,
      "fzfg": false,
      "metar_trigger": false,
      "taf_trigger": false,
      "metar": "METAR LIRZ 030750Z AUTO VRB02KT 9999 FEW035/// 07/07 Q1004",
      "taf": "TAF LIRZ 030500Z 0306/0406 VRB05KT 9999 SCT030"
    },
    {
      "icao": "LJLJ",
      "alert": "OK",
      "vis_m": 9999,
      "fzfg": false,
      "metar_trigger": false,
      "taf_trigger": false,
      "metar": "METAR LJLJ 030800Z 32001KT 9999 FEW005 BKN012 00/M00 Q1006 NOSIG",
      "taf": ""
    },
    {
      "icao": "LKMT",
      "alert": "OK",
      "vis_m": 9999,
      "fzfg": false,
      "metar_trigger": false,
      "taf_trigger": false,
      "metar": "METAR LKMT 030800Z 22017KT 9999 -SHSN FEW019 SCT044 M01/M05 Q1002 NOSIG",
      "taf": "TAF LKMT 030500Z 0306/0406 22015KT 9999 SCT040"
    },
    {
      "icao": "LKPR",
      "alert": "OK",
      "vis_m": 9999,
      "fzfg": false,
      "metar_trigger": false,
      "taf_trigger": false,
      "metar": "METAR LKPR 030800Z 20016KT 9999 SCT034 M02/M04 Q1001 NOSIG",
      "taf": "TAF LKPR 030800Z 0309/0415 23012KT 9999 BKN035"
    },
    {
      "icao": "LLBG",
      "alert": "OK",
      "vis_m": 9999,
      "fzfg": false,
      "metar_trigger": false,
      "taf_trigger": false,
      "metar": "METAR LLBG 030820Z 04007KT 9999 FEW050 16/04 Q1027 NOSIG",
      "taf": "TAF LLBG 030508Z 0306/0406 VRB03KT CAVOK"
    },
    {
      "icao": "LMML",
      "alert": "OK",
      "vis_m": 9999,
      "fzfg": false,
      "metar_trigger": false,
      "taf_trigger": false,
      "metar": "METAR LMML 030815Z 22017KT CAVOK 17/10 Q1015 NOSIG",
      "taf": "TAF LMML 030500Z 0306/0406 24020KT 9999 FEW020"
    },
    {
      "icao": "LOWW",
      "alert": "OK",
      "vis_m": 9999,
      "fzfg": false,
      "metar_trigger": false,
      "taf_trigger": false,
      "metar": "METAR LOWW 030750Z 29021KT 9999 FEW050 02/M07 Q1006 TEMPO 28022G32KT",
      "taf": "TAF LOWW 030815Z 0309/0415 27015KT 9999 FEW050 TX04/0312Z TNM01/0406Z"
    },
    {
      "icao": "LPFR",
      "alert": "OK",
      "vis_m": 6000,
      "fzfg": false,
      "metar_trigger": false,
      "taf_trigger": false,
      "metar": "METAR LPFR 030800Z 17014KT 6000 -RA SCT014 FEW018CB BKN025 16/14 Q0998 RESHRA",
      "taf": "TAF LPFR 030500Z 0306/0406 18015KT 9999 SCT015 SCT030"
    },
    {
      "icao": "LPMA",
      "alert": "OK",
      "vis_m": 9999,
      "fzfg": false,
      "metar_trigger": false,
      "taf_trigger": false,
      "metar": "METAR LPMA 030800Z 33013G26KT 270V020 9999 SCT015 FEW018CB 16/10 Q0998",
      "taf": ""
    },
    {
      "icao": "LPPR",
      "alert": "OK",
      "vis_m": 9999,
      "fzfg": false,
      "metar_trigger": false,
      "taf_trigger": false,
      "metar": "METAR LPPR 030800Z 11007KT 060V160 9999 BKN045 15/09 Q1000",
      "taf": "TAF LPPR 030500Z 0306/0406 08010KT 9999 FEW035"
    },
    {
      "icao": "LPPS",
      "alert": "OK",
      "vis_m": 9999,
      "fzfg": false,
      "metar_trigger": false,
      "taf_trigger": false,
      "metar": "METAR LPPS 030800Z 31026G36KT 9999 SCT014 16/11 Q0997",
      "taf": ""
    },
    {
      "icao": "LPPT",
      "alert": "OK",
      "vis_m": 9999,
      "fzfg": false,
      "metar_trigger": false,
      "taf_trigger": false,
      "metar": "METAR LPPT 030800Z 11009KT 080V190 9999 FEW002 BKN004 13/13 Q0998",
      "taf": "TAF LPPT 030500Z 0306/0412 13012KT 9999 SCT015 SCT025"
    },
    {
      "icao": "LQBK",
      "alert": "OK",
      "vis_m": 2000,
      "fzfg": false,
      "metar_trigger": false,
      "taf_trigger": false,
      "metar": "METAR LQBK 030800Z VRB03KT 2000 +SN BR SCT005 BKN010 OVC018 00/00 Q1008 TEMPO SN",
      "taf": ""
    },
    {
      "icao": "LQSA",
      "alert": "OK",
      "vis_m": 9999,
      "fzfg": false,
      "metar_trigger": false,
      "taf_trigger": false,
      "metar": "METAR LQSA 030800Z VRB03KT 9999 FEW018 SCT040 06/05 Q1003 NOSIG",
      "taf": "TAF LQSA 030500Z 0306/0406 16006KT 9999 BKN045 TX08/0312Z TN01/0319Z"
    },
    {
      "icao": "LQTZ",
      "alert": "OK",
      "vis_m": 7000,
      "fzfg": false,
      "metar_trigger": false,
      "taf_trigger": false,
      "metar": "METAR LQTZ 030800Z 24003KT 7000 -RASN SCT014 BKN025 02/01 Q1008",
      "taf": "TAF LQTZ 030500Z 0306/0406 27005KT 9999 SCT015 BKN030 TX03/0313Z TNM00/0406Z"
    },
    {
      "icao": "LRBC",
      "alert": "OK",
      "vis_m": 9999,
      "fzfg": false,
      "metar_trigger": false,
      "taf_trigger": false,
      "metar": "METAR LRBC 030800Z 08004KT 9999 -RASN OVC034 01/M01 Q1002",
      "taf": "TAF LRBC 030500Z 0306/0315 VRB04KT 9999 BKN040"
    },
    {
      "icao": "LRBS",
      "alert": "OK",
      "vis_m": 9999,
      "fzfg": false,
      "metar_trigger": false,
      "taf_trigger": false,
      "metar": "METAR LRBS 030800Z 33003KT CAVOK 02/M01 Q1002 NOSIG",
      "taf": "TAF LRBS 030500Z 0306/0406 VRB04KT 9999 SCT045"
    },
    {
      "icao": "LRBV",
      "alert": "OK",
      "vis_m": 600,
      "fzfg": false,
      "metar_trigger": false,
      "taf_trigger": false,
      "metar": "METAR LRBV 030800Z 22006KT 190V270 0600 R21/0900N SN VV008 M01/M01 Q1003",
      "taf": "TAF LRBV 030500Z 0306/0315 26008KT 5000 -SN BKN010 BKN025"
    },
    {
      "icao": "LRCL",
      "alert": "OK",
      "vis_m": 2000,
      "fzfg": false,
      "metar_trigger": false,
      "taf_trigger": false,
      "metar": "METAR LRCL 030800Z 00000KT 2000 -SN BR SCT016 OVC028 00/M00 Q1004",
      "taf": "TAF LRCL 030500Z 0306/0315 24006KT 9999 SCT030 BKN055"
    },
    {
      "icao": "LRCV",
      "alert": "OK",
      "vis_m": 9999,
      "fzfg": false,
      "metar_trigger": false,
      "taf_trigger": false,
      "metar": "METAR LRCV 030800Z 01007KT CAVOK 02/01 Q1002",
      "taf": "TAF LRCV 030500Z 0306/0315 VRB04KT 9999 SCT045"
    },
    {
      "icao": "LRIA",
      "alert": "OK",
      "vis_m": 9999,
      "fzfg": false,
      "metar_trigger": false,
      "taf_trigger": false,
      "metar": "METAR LRIA 030800Z 18008KT 9999 -RA FEW021 04/00 Q1001",
      "taf": "TAF LRIA 030500Z 0306/0315 VRB04KT 9999 BKN045"
    },
    {
      "icao": "LROP",
      "alert": "OK",
      "vis_m": 9999,
      "fzfg": false,
      "metar_trigger": false,
      "taf_trigger": false,
      "metar": "METAR LROP 030800Z 35005KT CAVOK 02/M01 Q1002 NOSIG",
      "taf": "TAF LROP 030500Z 0306/0406 VRB04KT 9999 SCT045"
    },
    {
      "icao": "LRSB",
      "alert": "OK",
      "vis_m": 1800,
      "fzfg": false,
      "metar_trigger": false,
      "taf_trigger": false,
      "metar": "METAR LRSB 030800Z 20002KT 1800 -SN BR SCT003 BKN010 OVC019 01/01 Q1003 NOSIG",
      "taf": "TAF LRSB 030500Z 0306/0406 VRB04KT 1500 SN BKN005 OVC015"
    },
    {
      "icao": "LRSM",
      "alert": "OK",
      "vis_m": 9999,
      "fzfg": false,
      "metar_trigger": false,
      "taf_trigger": false,
      "metar": "METAR LRSM 030800Z AUTO 22007KT 9999 FEW055/// SCT075/// BKN130/// 01/M01 Q1004",
      "taf": ""
    },
    {
      "icao": "LRSV",
      "alert": "OK",
      "vis_m": 9999,
      "fzfg": false,
      "metar_trigger": false,
      "taf_trigger": false,
      "metar": "METAR LRSV 030800Z 23005KT CAVOK 02/M05 Q1000",
      "taf": "TAF LRSV 030500Z 0306/0315 22010KT CAVOK"
    },
    {
      "icao": "LRTM",
      "alert": "OK",
      "vis_m": 1700,
      "fzfg": false,
      "metar_trigger": false,
      "taf_trigger": false,
      "metar": "METAR LRTM 030800Z 24004KT 1700 -SN BR FEW002 SCT006 BKN013 00/M00 Q1004",
      "taf": "TAF LRTM 030500Z 0306/0315 24006KT 5000 -SN BKN005 OVC015"
    },
    {
      "icao": "LRTR",
      "alert": "OK",
      "vis_m": 9999,
      "fzfg": false,
      "metar_trigger": false,
      "taf_trigger": false,
      "metar": "METAR LRTR 030800Z 12007KT 9999 FEW017 BKN036 01/01 Q1006",
      "taf": "TAF LRTR 030500Z 0306/0406 05007KT 5000 -SN SCT005 OVC015"
    },
    {
      "icao": "LTAC",
      "alert": "OK",
      "vis_m": 7000,
      "fzfg": false,
      "metar_trigger": false,
      "taf_trigger": false,
      "metar": "METAR LTAC 030750Z VRB02KT 7000 NSC M07/M12 Q1023 NOSIG RMK RWY21C VRB01KT RWY03L VRB01KT RWY21R VRB01KT RWY03R VRB01KT RWY21L VRB01KT",
      "taf": "TAF LTAC 030440Z 0306/0406 VRB02KT CAVOK"
    },
    {
      "icao": "LTFM",
      "alert": "OK",
      "vis_m": 9999,
      "fzfg": false,
      "metar_trigger": false,
      "taf_trigger": false,
      "metar": "METAR LTFM 030750Z 21031G42KT 9999 -SHRA BKN025 11/05 Q1011 NOSIG RMK RWY17L 21027G38KT RWY34L 20026KT RWY16R 21023KT RWY36 21031G43KT RWY18 22034G44KT",
      "taf": "TAF LTFM 030440Z 0306/0412 20026G38KT 9999 SCT035 BKN090"
    },
    {
      "icao": "LUKK",
      "alert": "OK",
      "vis_m": 9999,
      "fzfg": false,
      "metar_trigger": false,
      "taf_trigger": false,
      "metar": "METAR LUKK 030800Z 19004KT CAVOK 02/M03 Q1001 NOSIG",
      "taf": "TAF LUKK 030508Z 0306/0406 VRB06KT 9999 SCT035"
    },
    {
      "icao": "LWOH",
      "alert": "OK",
      "vis_m": 9999,
      "fzfg": false,
      "metar_trigger": false,
      "taf_trigger": false,
      "metar": "METAR LWOH 030820Z 14015KT 9999 BKN035 10/04 Q1009",
      "taf": "TAF LWOH 030820Z 0309/0409 16014KT 9999 BKN035"
    },
    {
      "icao": "LWSK",
      "alert": "OK",
      "vis_m": 9999,
      "fzfg": false,
      "metar_trigger": false,
      "taf_trigger": false,
      "metar": "METAR LWSK 030820Z 03002KT 9999 BKN040 02/M02 Q1007 NOSIG",
      "taf": "TAF LWSK 030820Z 0309/0409 VRB03KT 9999 BKN040"
    },
    {
      "icao": "LYBE",
      "alert": "OK",
      "vis_m": 8000,
      "fzfg": false,
      "metar_trigger": false,
      "taf_trigger": false,
      "metar": "METAR LYBE 030800Z 36004KT 8000 -SN BKN003 BKN016 00/M00 Q1007 RESN NOSIG",
      "taf": "TAF LYBE 030500Z 0306/0406 02012KT 9999 BKN006 TX02/0313Z TN01/0307Z"
    },
    {
      "icao": "LYNI",
      "alert": "OK",
      "vis_m": 9999,
      "fzfg": false,
      "metar_trigger": false,
      "taf_trigger": false,
      "metar": "METAR LYNI 030800Z 18006KT 130V230 9999 BKN043 09/01 Q1004 NOSIG",
      "taf": "TAF LYNI 030500Z 0306/0406 16008KT 9999 BKN040 TX08/0309Z TN01/0318Z"
    },
    {
      "icao": "LYPG",
      "alert": "OK",
      "vis_m": 9999,
      "fzfg": false,
      "metar_trigger": false,
      "taf_trigger": false,
      "metar": "METAR LYPG 030800Z 11007KT 9999 -RA FEW020 SCT040 OVC070 11/09 Q1007 NOSIG",
      "taf": "TAF LYPG 030500Z 0306/0406 15008KT 9999 FEW020 BKN040 OVC080 TX13/0315Z TN10/0306Z"
    },
    {
      "icao": "LZIB",
      "alert": "OK",
      "vis_m": 9999,
      "fzfg": false,
      "metar_trigger": false,
      "taf_trigger": false,
      "metar": "METAR LZIB 030800Z 28012KT CAVOK 02/M06 Q1006 NOSIG",
      "taf": "TAF LZIB 030515Z 0306/0406 29013KT CAVOK"
    },
    {
      "icao": "LZKZ",
      "alert": "OK",
      "vis_m": 9999,
      "fzfg": false,
      "metar_trigger": false,
      "taf_trigger": false,
      "metar": "METAR LZKZ 030800Z VRB03KT 9999 FEW040 M03/M06 Q1001 NOSIG",
      "taf": "TAF LZKZ 030515Z 0306/0406 24008KT CAVOK"
    },
    {
      "icao": "LZTT",
      "alert": "OK",
      "vis_m": 8000,
      "fzfg": false,
      "metar_trigger": false,
      "taf_trigger": false,
      "metar": "METAR LZTT 030800Z 28017KT 8000 -SHSN FEW013 BKN030 M03/M08 Q0998 NOSIG",
      "taf": "TAF LZTT 030515Z 0306/0406 25010KT 9999 FEW040"
    },
    {
      "icao": "OEJN",
      "alert": "OK",
      "vis_m": 9999,
      "fzfg": false,
      "metar_trigger": false,
      "taf_trigger": false,
      "metar": "METAR OEJN 030800Z 34004KT CAVOK 28/15 Q1017 NOSIG",
      "taf": "TAF OEJN 030500Z 0306/0412 32010KT CAVOK"
    },
    {
      "icao": "OEMA",
      "alert": "OK",
      "vis_m": 9999,
      "fzfg": false,
      "metar_trigger": false,
      "taf_trigger": false,
      "metar": "METAR OEMA 030800Z VRB02KT CAVOK 22/M02 Q1022 NOSIG",
      "taf": "TAF OEMA 030500Z 0306/0412 06008KT CAVOK"
    },
    {
      "icao": "OJAI",
      "alert": "OK",
      "vis_m": 3000,
      "fzfg": false,
      "metar_trigger": false,
      "taf_trigger": false,
      "metar": "METAR OJAI 030800Z 10002KT 3000 BR NSC 08/06 Q1028 NOSIG",
      "taf": "TAF OJAI 030443Z 0306/0412 VRB02KT 3000 BR SCT035"
    },
    {
      "icao": "OMAA",
      "alert": "OK",
      "vis_m": 9999,
      "fzfg": false,
      "metar_trigger": false,
      "taf_trigger": false,
      "metar": "METAR OMAA 030800Z 32008KT 9999 FEW030 23/16 Q1020 NOSIG",
      "taf": "TAF OMAA 030500Z 0306/0412 VRB02KT 7000 NSC"
    },
    {
      "icao": "OMDB",
      "alert": "OK",
      "vis_m": 9999,
      "fzfg": false,
      "metar_trigger": false,
      "taf_trigger": false,
      "metar": "METAR OMDB 030800Z 31006KT 210V010 9999 FEW030 24/14 Q1019 NOSIG",
      "taf": "TAF OMDB 030500Z 0306/0412 19005KT 3000 HZ NSC"
    },
    {
      "icao": "UAAA",
      "alert": "OK",
      "vis_m": 200,
      "fzfg": false,
      "metar_trigger": false,
      "taf_trigger": false,
      "metar": "METAR UAAA 030800Z 01002MPS 290V050 0200 R23L/0300N FG VV002 00/M00 Q1021 NOSIG RMK QBB060",
      "taf": ""
    },
    {
      "icao": "UBBB",
      "alert": "OK",
      "vis_m": 9999,
      "fzfg": false,
      "metar_trigger": false,
      "taf_trigger": false,
      "metar": "METAR UBBB 030800Z 20012KT 9999 SCT033 05/00 Q1027 NOSIG",
      "taf": "TAF UBBB 030501Z 0306/0406 18012KT 9999 SCT030 TX07/0310Z TN02/0401Z"
    },
    {
      "icao": "UDSG",
      "alert": "OK",
      "vis_m": 9999,
      "fzfg": false,
      "metar_trigger": false,
      "taf_trigger": false,
      "metar": "METAR UDSG 030800Z 12001KT 9999 NSC M19/M21 Q1027 NOSIG",
      "taf": "TAF UDSG 030458Z 0306/0406 VRB06KT 9999 FEW040"
    },
    {
      "icao": "UDYZ",
      "alert": "OK",
      "vis_m": 9999,
      "fzfg": false,
      "metar_trigger": false,
      "taf_trigger": false,
      "metar": "METAR UDYZ 030800Z 25002KT 9999 NSC M09/M15 Q1030 NOSIG",
      "taf": "TAF UDYZ 030500Z 0306/0406 VRB06KT 9999 NSC"
    },
    {
      "icao": "UGKO",
      "alert": "OK",
      "vis_m": 9999,
      "fzfg": false,
      "metar_trigger": false,
      "taf_trigger": false,
      "metar": "METAR UGKO 030800Z 09020G30KT CAVOK 03/M06 Q1023 NOSIG",
      "taf": "TAF UGKO 030500Z 0306/0406 08017KT CAVOK TX05/0311Z TNM02/0402Z"
    }
  ]
}