{
  "ts_utc": "2026-01-22T11:14:00Z",
  "threshold_m": 150,
  "source": "stations_override.txt (ICAO list) + aviationweather.gov (METAR/TAF raw)",
  "station_count": 159,
  "stations": [
    {
      "icao": "BIKF",
      "alert": "OK",
      "vis_m": 9999,
      "fzfg": false,
      "metar_trigger": false,
      "taf_trigger": false,
      "metar": "METAR BIKF 221100Z 07023KT 9999 FEW040 OVC070 07/01 Q0986",
      "taf": "TAF BIKF 221030Z 2212/2312 07018G28KT 9999 SCT020 BKN030 TX08/2216Z TN04/2312Z"
    },
    {
      "icao": "BKPR",
      "alert": "OK",
      "vis_m": 9999,
      "fzfg": false,
      "metar_trigger": false,
      "taf_trigger": false,
      "metar": "METAR BKPR 221100Z 14004KT 9999 FEW065 04/00 Q1002 NOSIG",
      "taf": ""
    },
    {
      "icao": "EBCI",
      "alert": "OK",
      "vis_m": 9999,
      "fzfg": false,
      "metar_trigger": false,
      "taf_trigger": false,
      "metar": "METAR EBCI 221050Z 16010KT CAVOK 07/02 Q0993 NOSIG",
      "taf": "TAF EBCI 220504Z 2206/2312 15008KT CAVOK"
    },
    {
      "icao": "EDDB",
      "alert": "OK",
      "vis_m": 9999,
      "fzfg": false,
      "metar_trigger": false,
      "taf_trigger": false,
      "metar": "METAR EDDB 221050Z AUTO 09007KT CAVOK M02/M06 Q1003 NOSIG",
      "taf": "TAF EDDB 220500Z 2206/2306 08007KT CAVOK"
    },
    {
      "icao": "EDDH",
      "alert": "OK",
      "vis_m": 9999,
      "fzfg": false,
      "metar_trigger": false,
      "taf_trigger": false,
      "metar": "METAR EDDH 221050Z AUTO 09011KT 060V120 CAVOK M00/M05 Q1004 NOSIG",
      "taf": "TAF EDDH 220500Z 2206/2312 09010KT CAVOK"
    },
    {
      "icao": "EDDK",
      "alert": "OK",
      "vis_m": 9999,
      "fzfg": false,
      "metar_trigger": false,
      "taf_trigger": false,
      "metar": "METAR EDDK 221050Z AUTO 13011KT CAVOK 04/M05 Q0997 NOSIG",
      "taf": "TAF EDDK 220500Z 2206/2312 12008KT CAVOK"
    },
    {
      "icao": "EDDN",
      "alert": "OK",
      "vis_m": 9999,
      "fzfg": false,
      "metar_trigger": false,
      "taf_trigger": false,
      "metar": "METAR EDDN 221050Z AUTO 14007KT 9999 OVC010 M06/M09 Q1000 NOSIG",
      "taf": ""
    },
    {
      "icao": "EDDS",
      "alert": "OK",
      "vis_m": 9999,
      "fzfg": false,
      "metar_trigger": false,
      "taf_trigger": false,
      "metar": "METAR EDDS 221050Z AUTO 11003KT 070V160 CAVOK 00/M04 Q0997 NOSIG",
      "taf": "TAF EDDS 220500Z 2206/2306 VRB02KT CAVOK"
    },
    {
      "icao": "EDFH",
      "alert": "OK",
      "vis_m": 9999,
      "fzfg": false,
      "metar_trigger": false,
      "taf_trigger": false,
      "metar": "METAR EDFH 221050Z 14015KT CAVOK M02/M03 Q0996",
      "taf": "TAF EDFH 220500Z 2206/2306 14013KT CAVOK"
    },
    {
      "icao": "EDJA",
      "alert": "OK",
      "vis_m": 700,
      "fzfg": true,
      "metar_trigger": false,
      "taf_trigger": false,
      "metar": "METAR EDJA 221050Z 29003KT 250V350 0700 R06/1700U FZFG SCT002 OVC004 M04/M05 Q0997",
      "taf": ""
    },
    {
      "icao": "EDLW",
      "alert": "OK",
      "vis_m": 9999,
      "fzfg": false,
      "metar_trigger": false,
      "taf_trigger": false,
      "metar": "METAR EDLW 221050Z 01003KT CAVOK 02/M03 Q0996",
      "taf": "TAF EDLW 220500Z 2206/2306 VRB03KT CAVOK"
    },
    {
      "icao": "EDNY",
      "alert": "OK",
      "vis_m": 3200,
      "fzfg": false,
      "metar_trigger": false,
      "taf_trigger": false,
      "metar": "METAR EDNY 221050Z 10002KT 3200 BR OVC002 M02/M02 Q0999",
      "taf": ""
    },
    {
      "icao": "EDSB",
      "alert": "OK",
      "vis_m": 2800,
      "fzfg": false,
      "metar_trigger": false,
      "taf_trigger": false,
      "metar": "METAR EDSB 221050Z 00000KT 2800 BR OVC002 M01/M02 Q0999",
      "taf": "TAF EDSB 220500Z 2206/2306 VRB03KT 3000 BR OVC005"
    },
    {
      "icao": "EETN",
      "alert": "OK",
      "vis_m": 9999,
      "fzfg": false,
      "metar_trigger": false,
      "taf_trigger": false,
      "metar": "METAR EETN 221050Z 11010KT 9999 -SN OVC014 M07/M09 Q1024 NOSIG",
      "taf": "TAF EETN 220530Z 2206/2306 09014KT 9999 OVC015"
    },
    {
      "icao": "EFTU",
      "alert": "OK",
      "vis_m": 9999,
      "fzfg": false,
      "metar_trigger": false,
      "taf_trigger": false,
      "metar": "METAR EFTU 221050Z AUTO 10010KT 9999 -SHSN OVC012 M06/M08 Q1025",
      "taf": "TAF EFTU 220823Z 2209/2309 09011KT 9999 OVC014"
    },
    {
      "icao": "EGBB",
      "alert": "OK",
      "vis_m": 8000,
      "fzfg": false,
      "metar_trigger": false,
      "taf_trigger": false,
      "metar": "METAR EGBB 221050Z 12009KT 8000 -RA BKN006 08/07 Q0987",
      "taf": "TAF EGBB 221056Z 2212/2312 12012KT 9999 SCT006 BKN010"
    },
    {
      "icao": "EGGP",
      "alert": "OK",
      "vis_m": 5000,
      "fzfg": false,
      "metar_trigger": false,
      "taf_trigger": false,
      "metar": "METAR EGGP 221050Z 11011KT 5000 -RADZ SCT008 OVC013 08/06 Q0987",
      "taf": "TAF EGGP 221054Z 2212/2312 12012KT 9999 BKN020"
    },
    {
      "icao": "EGGW",
      "alert": "OK",
      "vis_m": 5000,
      "fzfg": false,
      "metar_trigger": false,
      "taf_trigger": false,
      "metar": "METAR EGGW 221050Z AUTO 12009KT 5000 BR OVC002 07/06 Q0988",
      "taf": "TAF EGGW 221100Z 2212/2312 12010KT 9999 SCT020"
    },
    {
      "icao": "EGKK",
      "alert": "OK",
      "vis_m": 9999,
      "fzfg": false,
      "metar_trigger": false,
      "taf_trigger": false,
      "metar": "METAR EGKK 221050Z 13008KT 090V150 9999 BKN009 09/08 Q0988",
      "taf": "TAF EGKK 221054Z 2212/2318 13008KT 9999 SCT015"
    },
    {
      "icao": "EGNM",
      "alert": "OK",
      "vis_m": 1000,
      "fzfg": false,
      "metar_trigger": false,
      "taf_trigger": false,
      "metar": "METAR EGNM 221050Z 09013KT 1000 R14/P1500N -RA FG OVC001 05/05 Q0989",
      "taf": "TAF EGNM 221100Z 2212/2312 12012KT 6000 BKN008"
    },
    {
      "icao": "EGPD",
      "alert": "OK",
      "vis_m": 6000,
      "fzfg": false,
      "metar_trigger": false,
      "taf_trigger": false,
      "metar": "METAR EGPD 221050Z AUTO 13019G32KT 6000 OVC011 06/03 Q0997 TEMPO BKN015",
      "taf": "TAF EGPD 221054Z 2212/2312 13020G35KT 9999 BKN016"
    },
    {
      "icao": "EGPF",
      "alert": "OK",
      "vis_m": 9999,
      "fzfg": false,
      "metar_trigger": false,
      "taf_trigger": false,
      "metar": "METAR EGPF 221050Z AUTO 08011KT 9999 -RA SCT016/// OVC021/// //////TCU 08/06 Q0989",
      "taf": "TAF EGPF 221057Z 2212/2312 08011KT 9999 FEW012 BKN025"
    },
    {
      "icao": "EHBK",
      "alert": "OK",
      "vis_m": 9999,
      "fzfg": false,
      "metar_trigger": false,
      "taf_trigger": false,
      "metar": "METAR EHBK 221055Z AUTO 10005KT 070V130 9999 NSC 04/M01 Q0995 NOSIG",
      "taf": "TAF EHBK 220504Z 2206/2312 09007KT CAVOK"
    },
    {
      "icao": "EHEH",
      "alert": "OK",
      "vis_m": 9999,
      "fzfg": false,
      "metar_trigger": false,
      "taf_trigger": false,
      "metar": "METAR EHEH 221055Z AUTO 11005KT 080V220 9999 OVC220 04/M02 Q0995 BLU NOSIG RMK TREND REMOTE BY EHWX",
      "taf": "TAF EHEH 220547Z 2206/2312 09006KT CAVOK"
    },
    {
      "icao": "EKBI",
      "alert": "OK",
      "vis_m": 9999,
      "fzfg": false,
      "metar_trigger": false,
      "taf_trigger": false,
      "metar": "METAR EKBI 221050Z AUTO 07014KT 9999 -SN OVC021/// M02/M05 Q1008",
      "taf": ""
    },
    {
      "icao": "EKCH",
      "alert": "OK",
      "vis_m": 7000,
      "fzfg": false,
      "metar_trigger": false,
      "taf_trigger": false,
      "metar": "METAR EKCH 221050Z 07014KT 7000 -SN SCT015 BKN018 M00/M04 Q1009 TEMPO BKN014",
      "taf": ""
    },
    {
      "icao": "ENAL",
      "alert": "OK",
      "vis_m": 9999,
      "fzfg": false,
      "metar_trigger": false,
      "taf_trigger": false,
      "metar": "METAR ENAL 221050Z 13012KT CAVOK 05/M07 Q1012",
      "taf": "TAF ENAL 220800Z 2209/2218 12008KT CAVOK"
    },
    {
      "icao": "ENBR",
      "alert": "OK",
      "vis_m": 9999,
      "fzfg": false,
      "metar_trigger": false,
      "taf_trigger": false,
      "metar": "METAR ENBR 221050Z 00000KT CAVOK M00/M07 Q1010 NOSIG RMK WIND 1200FT VRB01KT",
      "taf": "TAF ENBR 220500Z 2206/2306 07005KT CAVOK"
    },
    {
      "icao": "ENGM",
      "alert": "OK",
      "vis_m": 9999,
      "fzfg": false,
      "metar_trigger": false,
      "taf_trigger": false,
      "metar": "METAR ENGM 221050Z 08009KT 9999 OVC021 M03/M07 Q1020 NOSIG",
      "taf": "TAF ENGM 220500Z 2206/2306 02008KT 9999 OVC020"
    },
    {
      "icao": "ENHD",
      "alert": "OK",
      "vis_m": 9999,
      "fzfg": false,
      "metar_trigger": false,
      "taf_trigger": false,
      "metar": "METAR ENHD 221050Z 10011KT CAVOK 03/M08 Q1010",
      "taf": "TAF ENHD 220800Z 2209/2218 10012KT CAVOK"
    },
    {
      "icao": "ENTC",
      "alert": "OK",
      "vis_m": 9999,
      "fzfg": false,
      "metar_trigger": false,
      "taf_trigger": false,
      "metar": "METAR ENTC 221050Z VRB02KT 9999 FEW005 M09/M10 Q1024 NOSIG RMK WIND 2600FT 09008KT",
      "taf": "TAF ENTC 220500Z 2206/2306 VRB02KT 9999 FEW001"
    },
    {
      "icao": "ENTO",
      "alert": "OK",
      "vis_m": 9999,
      "fzfg": false,
      "metar_trigger": false,
      "taf_trigger": false,
      "metar": "METAR ENTO 221050Z 04013KT 9999 OVC025 M01/M05 Q1018 NOSIG",
      "taf": "TAF ENTO 220500Z 2206/2306 04012KT 9999 OVC020"
    },
    {
      "icao": "ENVA",
      "alert": "OK",
      "vis_m": 9999,
      "fzfg": false,
      "metar_trigger": false,
      "taf_trigger": false,
      "metar": "METAR ENVA 221050Z 11010KT CAVOK M01/M08 Q1020 NOSIG RMK WIND 670FT 15018KT",
      "taf": "TAF ENVA 220500Z 2206/2306 11010KT CAVOK"
    },
    {
      "icao": "ENZV",
      "alert": "OK",
      "vis_m": 9999,
      "fzfg": false,
      "metar_trigger": false,
      "taf_trigger": false,
      "metar": "METAR ENZV 221050Z 08008KT 050V110 CAVOK 02/M08 Q1010 NOSIG",
      "taf": "TAF ENZV 220500Z 2206/2306 10009KT CAVOK"
    },
    {
      "icao": "EPGD",
      "alert": "OK",
      "vis_m": 4500,
      "fzfg": false,
      "metar_trigger": false,
      "taf_trigger": false,
      "metar": "METAR EPGD 221100Z 11006KT 4500 BR NSC M09/M11 Q1007",
      "taf": ""
    },
    {
      "icao": "EPKK",
      "alert": "OK",
      "vis_m": 5000,
      "fzfg": false,
      "metar_trigger": false,
      "taf_trigger": false,
      "metar": "METAR EPKK 221100Z 08003KT 5000 HZ NSC M05/M10 Q1003",
      "taf": "TAF EPKK 220830Z 2209/2309 05005KT 4000 BR NSC"
    },
    {
      "icao": "EPKT",
      "alert": "OK",
      "vis_m": 7000,
      "fzfg": false,
      "metar_trigger": false,
      "taf_trigger": false,
      "metar": "METAR EPKT 221100Z VRB01KT 7000 NSC M02/M09 Q1002",
      "taf": "TAF EPKT 220530Z 2206/2306 05004KT 7000 NSC"
    },
    {
      "icao": "EPLB",
      "alert": "OK",
      "vis_m": 3900,
      "fzfg": false,
      "metar_trigger": false,
      "taf_trigger": false,
      "metar": "METAR EPLB 221100Z 07009KT 3900 BR NSC M14/M15 Q1007",
      "taf": ""
    },
    {
      "icao": "EPMO",
      "alert": "OK",
      "vis_m": 6000,
      "fzfg": false,
      "metar_trigger": false,
      "taf_trigger": false,
      "metar": "METAR EPMO 221100Z 07012KT 6000 NSC M08/M11 Q1006",
      "taf": ""
    },
    {
      "icao": "EPPO",
      "alert": "OK",
      "vis_m": 9999,
      "fzfg": false,
      "metar_trigger": false,
      "taf_trigger": false,
      "metar": "METAR EPPO 221100Z 10004KT CAVOK 02/M07 Q1004",
      "taf": "TAF EPPO 220530Z 2206/2306 09010KT CAVOK"
    },
    {
      "icao": "EPRA",
      "alert": "OK",
      "vis_m": 5000,
      "fzfg": false,
      "metar_trigger": false,
      "taf_trigger": false,
      "metar": "METAR EPRA 221100Z 06007KT 5000 BR NSC M11/M15 Q1005",
      "taf": "TAF EPRA 220830Z 2209/2218 09006KT 7000 NSC"
    },
    {
      "icao": "EPRZ",
      "alert": "OK",
      "vis_m": 3400,
      "fzfg": false,
      "metar_trigger": false,
      "taf_trigger": false,
      "metar": "METAR EPRZ 221100Z 09008KT 3400 BR NSC M10/M14 Q1005",
      "taf": "TAF EPRZ 220530Z 2206/2306 08003KT 4000 BR NSC"
    },
    {
      "icao": "EPSC",
      "alert": "OK",
      "vis_m": 5000,
      "fzfg": false,
      "metar_trigger": false,
      "taf_trigger": false,
      "metar": "METAR EPSC 221100Z 08005KT 010V110 5000 BR NSC M03/M07 Q1005",
      "taf": ""
    },
    {
      "icao": "EPSY",
      "alert": "OK",
      "vis_m": 6000,
      "fzfg": false,
      "metar_trigger": false,
      "taf_trigger": false,
      "metar": "METAR EPSY 221100Z 07005KT 030V120 6000 NSC M09/M11 Q1009",
      "taf": "TAF EPSY 220830Z 2209/2218 07006KT 7000 NSC"
    },
    {
      "icao": "EPWA",
      "alert": "OK",
      "vis_m": 9999,
      "fzfg": false,
      "metar_trigger": false,
      "taf_trigger": false,
      "metar": "METAR EPWA 221100Z 10009KT CAVOK M05/M11 Q1006 NOSIG",
      "taf": "TAF EPWA 220830Z 2209/2309 09010KT 6000 NSC"
    },
    {
      "icao": "EPWR",
      "alert": "OK",
      "vis_m": 9999,
      "fzfg": false,
      "metar_trigger": false,
      "taf_trigger": false,
      "metar": "METAR EPWR 221100Z 12006KT CAVOK 01/M08 Q1003",
      "taf": "TAF EPWR 220830Z 2209/2309 12007KT CAVOK"
    },
    {
      "icao": "ESGG",
      "alert": "OK",
      "vis_m": 9999,
      "fzfg": false,
      "metar_trigger": false,
      "taf_trigger": false,
      "metar": "METAR ESGG 221050Z 07012KT 9999 BKN028 M00/M04 Q1012",
      "taf": "TAF ESGG 220830Z 2209/2309 06013G25KT 9999 BKN025"
    },
    {
      "icao": "ESKN",
      "alert": "OK",
      "vis_m": 9999,
      "fzfg": false,
      "metar_trigger": false,
      "taf_trigger": false,
      "metar": "METAR ESKN 221050Z 06014KT 9999 BKN018 M02/M04 Q1019",
      "taf": "TAF ESKN 220830Z 2209/2309 07012KT 9000 -SN SCT012 OVC020"
    },
    {
      "icao": "ESMS",
      "alert": "OK",
      "vis_m": 7000,
      "fzfg": false,
      "metar_trigger": false,
      "taf_trigger": false,
      "metar": "METAR ESMS 221050Z 07015KT 7000 OVC015 M00/M03 Q1007",
      "taf": "TAF ESMS 220827Z 2209/2309 07015KT 9000 BKN020"
    },
    {
      "icao": "ESSA",
      "alert": "OK",
      "vis_m": 9999,
      "fzfg": false,
      "metar_trigger": false,
      "taf_trigger": false,
      "metar": "METAR ESSA 221050Z 08011KT 9999 -SN BKN016 M03/M05 Q1021 NOSIG",
      "taf": "TAF ESSA 220830Z 2209/2309 08012KT 9000 -SN SCT008 OVC015"
    },
    {
      "icao": "EYKA",
      "alert": "OK",
      "vis_m": 9999,
      "fzfg": false,
      "metar_trigger": false,
      "taf_trigger": false,
      "metar": "METAR EYKA 221050Z VRB13KT 9999 -SN OVC011 M09/M11 Q1015",
      "taf": "TAF EYKA 221100Z 2212/2312 09012KT 8000 OVC015"
    },
    {
      "icao": "EYPA",
      "alert": "OK",
      "vis_m": 9999,
      "fzfg": false,
      "metar_trigger": false,
      "taf_trigger": false,
      "metar": "METAR EYPA 221050Z 09015KT 9999 BKN012 M06/M10 Q1014",
      "taf": "TAF EYPA 221100Z 2212/2312 10012KT 9000 OVC015"
    },
    {
      "icao": "EYVI",
      "alert": "OK",
      "vis_m": 9999,
      "fzfg": false,
      "metar_trigger": false,
      "taf_trigger": false,
      "metar": "METAR EYVI 221050Z 08008KT 9999 -SN OVC009 M10/M12 Q1014 NOSIG",
      "taf": "TAF EYVI 221100Z 2212/2312 08010KT 8000 BKN010"
    },
    {
      "icao": "GCFV",
      "alert": "OK",
      "vis_m": 9999,
      "fzfg": false,
      "metar_trigger": false,
      "taf_trigger": false,
      "metar": "METAR GCFV 221100Z 27007G19KT 240V320 9999 SCT025 BKN032 20/15 Q1021",
      "taf": ""
    },
    {
      "icao": "GCLP",
      "alert": "OK",
      "vis_m": 9999,
      "fzfg": false,
      "metar_trigger": false,
      "taf_trigger": false,
      "metar": "METAR GCLP 221100Z 22006KT 180V250 9999 FEW025 20/14 Q1021 NOSIG",
      "taf": "TAF GCLP 220800Z 2209/2309 36007KT 9999 FEW025 SCT040 TX21/2214Z TN15/2306Z"
    },
    {
      "icao": "GCTS",
      "alert": "OK",
      "vis_m": 9999,
      "fzfg": false,
      "metar_trigger": false,
      "taf_trigger": false,
      "metar": "METAR GCTS 221100Z 10007KT 070V140 9999 BKN025 19/13 Q1022 NOSIG",
      "taf": "TAF GCTS 220800Z 2209/2309 VRB06KT 9999 SCT030 TX22/2214Z TN14/2306Z"
    },
    {
      "icao": "GMAD",
      "alert": "OK",
      "vis_m": 6000,
      "fzfg": false,
      "metar_trigger": false,
      "taf_trigger": false,
      "metar": "METAR GMAD 221100Z 26005KT 230V300 6000 BKN006 SCT016 15/15 Q1017 NOSIG",
      "taf": "TAF GMAD 220500Z 2206/2312 24006KT 6000 SCT008 SCT026"
    },
    {
      "icao": "GMMN",
      "alert": "OK",
      "vis_m": 9999,
      "fzfg": false,
      "metar_trigger": false,
      "taf_trigger": false,
      "metar": "METAR GMMN 221100Z 22007KT 9999 SCT012 BKN018 15/14 Q1017 NOSIG",
      "taf": "TAF GMMN 220500Z 2206/2312 26008KT 8000 BKN004"
    },
    {
      "icao": "GMMX",
      "alert": "OK",
      "vis_m": 8000,
      "fzfg": false,
      "metar_trigger": false,
      "taf_trigger": false,
      "metar": "METAR GMMX 221100Z VRB02KT 8000 SCT006 BKN020 14/13 Q1018 NOSIG",
      "taf": "TAF GMMX 220500Z 2206/2312 24006KT 8000 BKN026 SCT080"
    },
    {
      "icao": "HEGN",
      "alert": "OK",
      "vis_m": 9999,
      "fzfg": false,
      "metar_trigger": false,
      "taf_trigger": false,
      "metar": "METAR HEGN 221100Z 12010KT CAVOK 25/15 Q1012 NOSIG",
      "taf": "TAF HEGN 221100Z 2212/2318 12012KT CAVOK"
    },
    {
      "icao": "HEMA",
      "alert": "OK",
      "vis_m": 9999,
      "fzfg": false,
      "metar_trigger": false,
      "taf_trigger": false,
      "metar": "METAR HEMA 221100Z 36010KT CAVOK 26/15 Q1014 NOSIG",
      "taf": "TAF HEMA 221100Z 2212/2318 13014KT CAVOK"
    },
    {
      "icao": "HESH",
      "alert": "OK",
      "vis_m": 9999,
      "fzfg": false,
      "metar_trigger": false,
      "taf_trigger": false,
      "metar": "METAR HESH 221100Z 01006KT CAVOK 26/11 Q1013 NOSIG",
      "taf": "TAF HESH 221100Z 2212/2318 15012KT CAVOK"
    },
    {
      "icao": "HESX",
      "alert": "OK",
      "vis_m": 9999,
      "fzfg": false,
      "metar_trigger": false,
      "taf_trigger": false,
      "metar": "METAR HESX 221100Z 15003KT CAVOK 19/03 Q1011 NOSIG",
      "taf": "TAF HESX 221100Z 2212/2318 25008KT 6000 SCT020 OVC070"
    },
    {
      "icao": "LATI",
      "alert": "OK",
      "vis_m": 9999,
      "fzfg": false,
      "metar_trigger": false,
      "taf_trigger": false,
      "metar": "METAR LATI 221050Z 00000KT 9999 SCT066 OVC090 12/05 Q1001 NOSIG",
      "taf": "TAF LATI 221100Z 2212/2312 VRB05KT 9999 -RA SCT035 BKN070 TX15/2312Z TN07/2304Z"
    },
    {
      "icao": "LBPD",
      "alert": "OK",
      "vis_m": 7000,
      "fzfg": false,
      "metar_trigger": false,
      "taf_trigger": false,
      "metar": "METAR LBPD 221100Z AUTO VRB02KT 7000 OVC014/// 01/00 Q1005 NOSIG",
      "taf": "TAF LBPD 220500Z 2206/2306 VRB03KT 6000 BKN015 OVC025"
    },
    {
      "icao": "LBSF",
      "alert": "OK",
      "vis_m": 9999,
      "fzfg": false,
      "metar_trigger": false,
      "taf_trigger": false,
      "metar": "METAR LBSF 221100Z 09007KT 9999 FEW019 BKN032 OVC040 02/M01 Q1004 NOSIG",
      "taf": "TAF LBSF 220500Z 2206/2306 12010KT 8000 SCT020 BKN030 OVC040"
    },
    {
      "icao": "LBWN",
      "alert": "OK",
      "vis_m": 5000,
      "fzfg": false,
      "metar_trigger": false,
      "taf_trigger": false,
      "metar": "METAR LBWN 221100Z 08007KT 5000 -RA BKN035 OVC044 06/06 Q1005 TEMPO 4000 RA",
      "taf": "TAF LBWN 220500Z 2206/2306 11010KT 9999 BKN020 OVC040"
    },
    {
      "icao": "LCLK",
      "alert": "OK",
      "vis_m": 9999,
      "fzfg": false,
      "metar_trigger": false,
      "taf_trigger": false,
      "metar": "METAR LCLK 221100Z 05021KT 9999 -RA SCT020 13/10 Q1016 NOSIG",
      "taf": "TAF LCLK 220530Z 2206/2306 05020KT 9999 BKN070"
    },
    {
      "icao": "LCPH",
      "alert": "OK",
      "vis_m": 9000,
      "fzfg": false,
      "metar_trigger": false,
      "taf_trigger": false,
      "metar": "METAR LCPH 221100Z 10019KT 9000 -RA FEW030 BKN080 16/05 Q1012 NOSIG",
      "taf": "TAF LCPH 220530Z 2206/2306 13020G30KT 9999 BKN070"
    },
    {
      "icao": "LEAL",
      "alert": "OK",
      "vis_m": 9999,
      "fzfg": false,
      "metar_trigger": false,
      "taf_trigger": false,
      "metar": "METAR LEAL 221100Z 29019G30KT 250V330 CAVOK 15/03 Q1003 NOSIG",
      "taf": "TAF LEAL 220500Z 2206/2306 VRB04KT 9999 BKN040 TX18/2213Z TN09/2306Z"
    },
    {
      "icao": "LEBB",
      "alert": "OK",
      "vis_m": 9999,
      "fzfg": false,
      "metar_trigger": false,
      "taf_trigger": false,
      "metar": "METAR LEBB 221100Z 22007KT 170V260 9999 FEW045 13/05 Q1002 NOSIG",
      "taf": ""
    },
    {
      "icao": "LEBL",
      "alert": "OK",
      "vis_m": 9999,
      "fzfg": false,
      "metar_trigger": false,
      "taf_trigger": false,
      "metar": "METAR LEBL 221100Z 27004KT 240V310 9999 -RA FEW020 SCT064 11/09 Q0997 NOSIG",
      "taf": ""
    },
    {
      "icao": "LECH",
      "alert": "OK",
      "vis_m": 9000,
      "fzfg": false,
      "metar_trigger": false,
      "taf_trigger": false,
      "metar": "METAR LECH 221100Z AUTO 29014G24KT 240V010 9000 FEW068 13/00 Q1000",
      "taf": ""
    },
    {
      "icao": "LEMD",
      "alert": "OK",
      "vis_m": 9999,
      "fzfg": false,
      "metar_trigger": false,
      "taf_trigger": false,
      "metar": "METAR LEMD 221100Z 27010KT 220V290 CAVOK 09/01 Q1005 NOSIG",
      "taf": ""
    },
    {
      "icao": "LEMG",
      "alert": "OK",
      "vis_m": 9999,
      "fzfg": false,
      "metar_trigger": false,
      "taf_trigger": false,
      "metar": "METAR LEMG 221100Z 30010KT 250V330 9999 FEW040 15/06 Q1011 NOSIG",
      "taf": "TAF LEMG 220500Z 2206/2306 30010KT 9999 FEW050 TX17/2214Z TN11/2207Z"
    },
    {
      "icao": "LEVC",
      "alert": "OK",
      "vis_m": 9999,
      "fzfg": false,
      "metar_trigger": false,
      "taf_trigger": false,
      "metar": "METAR LEVC 221100Z 28014KT 9999 FEW040 15/02 Q1002 NOSIG",
      "taf": "TAF LEVC 220500Z 2206/2306 27010KT 9999 BKN040 TX18/2213Z TN07/2305Z"
    },
    {
      "icao": "LEXJ",
      "alert": "OK",
      "vis_m": 9999,
      "fzfg": false,
      "metar_trigger": false,
      "taf_trigger": false,
      "metar": "METAR LEXJ 221100Z 23008KT 200V260 9999 FEW048 12/03 Q1002",
      "taf": ""
    },
    {
      "icao": "LEZG",
      "alert": "OK",
      "vis_m": 9999,
      "fzfg": false,
      "metar_trigger": false,
      "taf_trigger": false,
      "metar": "METAR LEZG 221100Z 30009KT 270V340 CAVOK 10/06 Q1002 NOSIG",
      "taf": "TAF LEZG 220500Z 2206/2306 28008KT 9999 FEW040 TX13/2215Z TN05/2306Z"
    },
    {
      "icao": "LEZL",
      "alert": "OK",
      "vis_m": 9999,
      "fzfg": false,
      "metar_trigger": false,
      "taf_trigger": false,
      "metar": "METAR LEZL 221100Z 26008KT 9999 FEW049 14/09 Q1012 NOSIG",
      "taf": "TAF LEZL 220800Z 2209/2309 23009KT 9999 FEW030 TX15/2215Z TN08/2307Z"
    },
    {
      "icao": "LFBD",
      "alert": "OK",
      "vis_m": 9999,
      "fzfg": false,
      "metar_trigger": false,
      "taf_trigger": false,
      "metar": "METAR LFBD 221100Z AUTO 26013KT 9999 FEW026 SCT035 BKN052 11/08 Q0997 TEMPO 25015G25KT 3000 SHRA BKN035TCU",
      "taf": ""
    },
    {
      "icao": "LFLL",
      "alert": "OK",
      "vis_m": 9999,
      "fzfg": false,
      "metar_trigger": false,
      "taf_trigger": false,
      "metar": "METAR LFLL 221100Z 14009KT 9999 FEW043 BKN056 07/06 Q0998 NOSIG",
      "taf": "TAF LFLL 220500Z 2206/2312 17008KT CAVOK"
    },
    {
      "icao": "LFLS",
      "alert": "OK",
      "vis_m": 9999,
      "fzfg": false,
      "metar_trigger": false,
      "taf_trigger": false,
      "metar": "METAR LFLS 221100Z AUTO 09006KT 9999 -RA FEW044/// BKN056/// ///TCU 06/06 Q0998 TEMPO 2000 RA BKN014",
      "taf": ""
    },
    {
      "icao": "LFMN",
      "alert": "OK",
      "vis_m": 9999,
      "fzfg": false,
      "metar_trigger": false,
      "taf_trigger": false,
      "metar": "METAR LFMN 221100Z 07010KT 9999 BKN053 11/01 Q0999 NOSIG",
      "taf": "TAF LFMN 220800Z 2209/2315 33010KT 9999 BKN060"
    },
    {
      "icao": "LFOB",
      "alert": "OK",
      "vis_m": 9999,
      "fzfg": false,
      "metar_trigger": false,
      "taf_trigger": false,
      "metar": "METAR LFOB 221100Z AUTO 17011KT 9999 BKN021 OVC026 10/07 Q0991 TEMPO 4000 -SHRA BKN009 BKN014TCU",
      "taf": "TAF LFOB 220500Z 2206/2306 15012KT 9999 BKN015"
    },
    {
      "icao": "LFPO",
      "alert": "OK",
      "vis_m": 9999,
      "fzfg": false,
      "metar_trigger": false,
      "taf_trigger": false,
      "metar": "METAR LFPO 221100Z 19014KT 9999 SCT016 BKN026 11/06 Q0992 NOSIG",
      "taf": "TAF LFPO 220500Z 2206/2312 15008KT 9999 SCT026 BKN040"
    },
    {
      "icao": "LFSB",
      "alert": "OK",
      "vis_m": 9999,
      "fzfg": false,
      "metar_trigger": false,
      "taf_trigger": false,
      "metar": "METAR LFSB 221100Z AUTO 17004KT 120V210 CAVOK 02/M01 Q0998 NOSIG",
      "taf": ""
    },
    {
      "icao": "LGAV",
      "alert": "OK",
      "vis_m": 9999,
      "fzfg": false,
      "metar_trigger": false,
      "taf_trigger": false,
      "metar": "METAR LGAV 221050Z VRB02KT 9999 FEW010 SCT025 13/10 Q1003 NOSIG",
      "taf": "TAF LGAV 221100Z 2212/2312 22010KT 9999 FEW015 SCT025 BKN070"
    },
    {
      "icao": "LGTS",
      "alert": "OK",
      "vis_m": 9000,
      "fzfg": false,
      "metar_trigger": false,
      "taf_trigger": false,
      "metar": "METAR LGTS 221050Z VRB03KT 9000 FEW010 BKN025 08/07 Q1004 NOSIG",
      "taf": "TAF LGTS 221100Z 2212/2312 VRB03KT 9999 FEW010 BKN030"
    },
    {
      "icao": "LHBP",
      "alert": "OK",
      "vis_m": 7000,
      "fzfg": false,
      "metar_trigger": false,
      "taf_trigger": false,
      "metar": "METAR LHBP 221100Z 11006KT 7000 FEW015 OVC030 M00/M03 Q1005 NOSIG",
      "taf": "TAF LHBP 220515Z 2206/2306 09005KT CAVOK"
    },
    {
      "icao": "LHDC",
      "alert": "OK",
      "vis_m": 9999,
      "fzfg": false,
      "metar_trigger": false,
      "taf_trigger": false,
      "metar": "METAR LHDC 221045Z AUTO 03010KT CAVOK 02/M04 Q1005 NOSIG",
      "taf": "TAF LHDC 220815Z 2209/2218 02006KT 9999 -SN OVC045"
    },
    {
      "icao": "LIBD",
      "alert": "OK",
      "vis_m": 9999,
      "fzfg": false,
      "metar_trigger": false,
      "taf_trigger": false,
      "metar": "METAR LIBD 221050Z 26006KT 230V290 9999 SCT015 11/08 Q0999",
      "taf": "TAF LIBD 220500Z 2206/2306 25006KT 7000 SCT005 BKN014"
    },
    {
      "icao": "LIBG",
      "alert": "OK",
      "vis_m": 9999,
      "fzfg": false,
      "metar_trigger": false,
      "taf_trigger": false,
      "metar": "METAR LIBG 221050Z 22003KT 190V250 9999 SCT020 SCT030 13/09 Q0999",
      "taf": "TAF LIBG 220800Z 2209/2218 VRB05KT 9999 SCT020"
    },
    {
      "icao": "LIBP",
      "alert": "OK",
      "vis_m": 9999,
      "fzfg": false,
      "metar_trigger": false,
      "taf_trigger": false,
      "metar": "METAR LIBP 221050Z AUTO 07003KT 030V090 9999 OVC020/// 10/07 Q1000",
      "taf": "TAF LIBP 220500Z 2206/2306 VRB05KT 9999 BKN040"
    },
    {
      "icao": "LIBR",
      "alert": "OK",
      "vis_m": 9999,
      "fzfg": false,
      "metar_trigger": false,
      "taf_trigger": false,
      "metar": "METAR LIBR 221050Z 33007KT 310V010 9999 BKN010 12/09 Q0999",
      "taf": "TAF LIBR 220500Z 2206/2306 VRB05KT 9999 SCT040"
    },
    {
      "icao": "LICA",
      "alert": "OK",
      "vis_m": 9999,
      "fzfg": false,
      "metar_trigger": false,
      "taf_trigger": false,
      "metar": "METAR LICA 221050Z AUTO 24005KT 200V260 9999 SCT027/// 15/09 Q1000",
      "taf": "TAF LICA 220500Z 2206/2306 08012KT 9999 SCT040"
    },
    {
      "icao": "LICC",
      "alert": "OK",
      "vis_m": 9999,
      "fzfg": false,
      "metar_trigger": false,
      "taf_trigger": false,
      "metar": "METAR LICC 221050Z 28011KT 9999 SCT090 15/14 Q1000",
      "taf": "TAF LICC 220500Z 2206/2306 26012KT 7000 FEW050"
    },
    {
      "icao": "LICJ",
      "alert": "OK",
      "vis_m": 9999,
      "fzfg": false,
      "metar_trigger": false,
      "taf_trigger": false,
      "metar": "METAR LICJ 221050Z 25006KT 9999 FEW025 14/08 Q1001",
      "taf": "TAF LICJ 220500Z 2206/2306 34015KT 9999 SCT025"
    },
    {
      "icao": "LIMC",
      "alert": "OK",
      "vis_m": 200,
      "fzfg": false,
      "metar_trigger": false,
      "taf_trigger": false,
      "metar": "METAR LIMC 221050Z 24003KT 0200 R35R/0400N R17L/0600U R35L/0250N FG VV001 01/01 Q1001 NOSIG",
      "taf": ""
    },
    {
      "icao": "LIME",
      "alert": "OK",
      "vis_m": 9999,
      "fzfg": false,
      "metar_trigger": false,
      "taf_trigger": false,
      "metar": "METAR LIME 221050Z VRB01KT CAVOK 05/M02 Q1001 NOSIG",
      "taf": "TAF LIME 220500Z 2206/2306 VRB04KT CAVOK"
    },
    {
      "icao": "LIMF",
      "alert": "OK",
      "vis_m": 300,
      "fzfg": false,
      "metar_trigger": false,
      "taf_trigger": false,
      "metar": "METAR LIMF 221050Z 23003KT 190V270 0300 R36/0800U FG BKN002 00/M01 Q1001",
      "taf": "TAF LIMF 220500Z 2206/2306 VRB04KT 4000 BR NSC"
    },
    {
      "icao": "LIMJ",
      "alert": "OK",
      "vis_m": 9999,
      "fzfg": false,
      "metar_trigger": false,
      "taf_trigger": false,
      "metar": "METAR LIMJ 221050Z 04011KT CAVOK 09/M00 Q1000",
      "taf": "TAF LIMJ 220500Z 2206/2306 04013KT 9999 FEW040"
    },
    {
      "icao": "LIPE",
      "alert": "OK",
      "vis_m": 7000,
      "fzfg": false,
      "metar_trigger": false,
      "taf_trigger": false,
      "metar": "METAR LIPE 221050Z 29003KT 250V320 7000 BKN035 05/01 Q1001",
      "taf": "TAF LIPE 220500Z 2206/2306 VRB05KT 9999 SCT040 BKN060"
    },
    {
      "icao": "LIPH",
      "alert": "OK",
      "vis_m": 9999,
      "fzfg": false,
      "metar_trigger": false,
      "taf_trigger": false,
      "metar": "METAR LIPH 221050Z 29003KT 230V340 9999 BKN060 05/M05 Q1001",
      "taf": "TAF LIPH 220500Z 2206/2306 VRB05KT CAVOK"
    },
    {
      "icao": "LIPQ",
      "alert": "OK",
      "vis_m": 9999,
      "fzfg": false,
      "metar_trigger": false,
      "taf_trigger": false,
      "metar": "METAR LIPQ 221050Z AUTO VRB02KT 9999 FEW049/// 08/M03 Q1001",
      "taf": "TAF LIPQ 220500Z 2206/2306 VRB05KT CAVOK"
    },
    {
      "icao": "LIPR",
      "alert": "OK",
      "vis_m": 8000,
      "fzfg": false,
      "metar_trigger": false,
      "taf_trigger": false,
      "metar": "METAR LIPR 221050Z 29007KT 8000 BKN015 05/01 Q1002",
      "taf": "TAF LIPR 220500Z 2206/2306 VRB05KT 9999 BKN020"
    },
    {
      "icao": "LIPX",
      "alert": "OK",
      "vis_m": 9999,
      "fzfg": false,
      "metar_trigger": false,
      "taf_trigger": false,
      "metar": "METAR LIPX 221050Z VRB01KT 9999 FEW055 05/M03 Q1001",
      "taf": "TAF LIPX 220500Z 2206/2306 VRB04KT 9999 SCT050"
    },
    {
      "icao": "LIPY",
      "alert": "OK",
      "vis_m": 9999,
      "fzfg": false,
      "metar_trigger": false,
      "taf_trigger": false,
      "metar": "METAR LIPY 221050Z AUTO 27005KT 9999 OVC015/// 06/02 Q1001",
      "taf": "TAF LIPY 220500Z 2206/2306 25008KT 9999 BKN014 OVC015"
    },
    {
      "icao": "LIPZ",
      "alert": "OK",
      "vis_m": 9999,
      "fzfg": false,
      "metar_trigger": false,
      "taf_trigger": false,
      "metar": "METAR LIPZ 221050Z 23004KT 200V290 9999 BKN050 05/M02 Q1001 NOSIG",
      "taf": "TAF LIPZ 220500Z 2206/2312 VRB05KT CAVOK"
    },
    {
      "icao": "LIRF",
      "alert": "OK",
      "vis_m": 9999,
      "fzfg": false,
      "metar_trigger": false,
      "taf_trigger": false,
      "metar": "METAR LIRF 221050Z 27003KT 210V340 CAVOK 13/05 Q1000 NOSIG",
      "taf": "TAF LIRF 220500Z 2206/2312 34007KT 9999 SCT050"
    },
    {
      "icao": "LIRN",
      "alert": "OK",
      "vis_m": 9999,
      "fzfg": false,
      "metar_trigger": false,
      "taf_trigger": false,
      "metar": "METAR LIRN 221050Z VRB02KT 9999 R06/1400N R24/P2000N FEW040 13/07 Q0999 NOSIG",
      "taf": "TAF LIRN 220500Z 2206/2306 VRB05KT 9999 SCT050"
    },
    {
      "icao": "LIRP",
      "alert": "OK",
      "vis_m": 9999,
      "fzfg": false,
      "metar_trigger": false,
      "taf_trigger": false,
      "metar": "METAR LIRP 221045Z 08004KT CAVOK 07/02 Q1000 NOSIG",
      "taf": "TAF LIRP 220500Z 2206/2306 11004KT 9999 FEW020 SCT040"
    },
    {
      "icao": "LIRZ",
      "alert": "OK",
      "vis_m": 9999,
      "fzfg": false,
      "metar_trigger": false,
      "taf_trigger": false,
      "metar": "METAR LIRZ 221050Z AUTO VRB01KT 9999 BKN052/// 08/04 Q0999",
      "taf": "TAF LIRZ 220500Z 2206/2306 VRB05KT 9999 BKN045"
    },
    {
      "icao": "LJLJ",
      "alert": "OK",
      "vis_m": 9999,
      "fzfg": false,
      "metar_trigger": false,
      "taf_trigger": false,
      "metar": "METAR LJLJ 221100Z 00000KT 9999 BKN060 M02/M07 Q1001 NOSIG",
      "taf": "TAF LJLJ 221100Z 2212/2312 12003KT 9999 FEW010 BKN060"
    },
    {
      "icao": "LKMT",
      "alert": "OK",
      "vis_m": 9999,
      "fzfg": false,
      "metar_trigger": false,
      "taf_trigger": false,
      "metar": "METAR LKMT 221100Z VRB01KT CAVOK M01/M08 Q1002 NOSIG",
      "taf": "TAF LKMT 220500Z 2206/2306 VRB02KT CAVOK"
    },
    {
      "icao": "LKPR",
      "alert": "OK",
      "vis_m": 9999,
      "fzfg": false,
      "metar_trigger": false,
      "taf_trigger": false,
      "metar": "METAR LKPR 221100Z 14006KT 100V170 9999 BKN014 M06/M08 Q1001 NOSIG",
      "taf": "TAF LKPR 220800Z 2209/2315 13006KT 5000 BR BKN015"
    },
    {
      "icao": "LLBG",
      "alert": "OK",
      "vis_m": 9999,
      "fzfg": false,
      "metar_trigger": false,
      "taf_trigger": false,
      "metar": "METAR LLBG 221050Z 07006KT CAVOK 22/03 Q1013 NOSIG RMK OVC100",
      "taf": "TAF LLBG 221105Z 2212/2312 10012KT CAVOK"
    },
    {
      "icao": "LMML",
      "alert": "OK",
      "vis_m": 9999,
      "fzfg": false,
      "metar_trigger": false,
      "taf_trigger": false,
      "metar": "METAR LMML 221045Z 28012KT 9999 FEW024 15/11 Q1002 NOSIG",
      "taf": "TAF LMML 221100Z 2212/2312 29015KT 9999 FEW025"
    },
    {
      "icao": "LOWW",
      "alert": "OK",
      "vis_m": 5000,
      "fzfg": false,
      "metar_trigger": false,
      "taf_trigger": false,
      "metar": "METAR LOWW 221050Z 13009KT 5000 BR FEW004 BKN006 M05/M07 Q1003 TEMPO 4000 BR",
      "taf": ""
    },
    {
      "icao": "LPFR",
      "alert": "OK",
      "vis_m": 9999,
      "fzfg": false,
      "metar_trigger": false,
      "taf_trigger": false,
      "metar": "METAR LPFR 221100Z 28005KT 9999 FEW020 BKN045 14/11 Q1013",
      "taf": "TAF LPFR 220500Z 2206/2306 29010KT 9999 SCT035"
    },
    {
      "icao": "LPMA",
      "alert": "OK",
      "vis_m": 9999,
      "fzfg": false,
      "metar_trigger": false,
      "taf_trigger": false,
      "metar": "METAR LPMA 221100Z 12004KT 090V150 9999 SCT013 20/16 Q1020",
      "taf": "TAF LPMA 220500Z 2206/2306 VRB05KT 9999 SCT015"
    },
    {
      "icao": "LPPR",
      "alert": "OK",
      "vis_m": 6000,
      "fzfg": false,
      "metar_trigger": false,
      "taf_trigger": false,
      "metar": "METAR LPPR 221100Z 23012KT 190V250 6000 -RA BKN025 10/08 Q1006",
      "taf": "TAF LPPR 220500Z 2206/2306 32010KT 9999 BKN035"
    },
    {
      "icao": "LPPS",
      "alert": "OK",
      "vis_m": 9999,
      "fzfg": false,
      "metar_trigger": false,
      "taf_trigger": false,
      "metar": "METAR LPPS 221100Z 30014KT 9999 SCT004 BKN010 17/17 Q1019",
      "taf": "TAF LPPS 220500Z 2206/2312 30015KT 9999 SCT015"
    },
    {
      "icao": "LPPT",
      "alert": "OK",
      "vis_m": 9999,
      "fzfg": false,
      "metar_trigger": false,
      "taf_trigger": false,
      "metar": "METAR LPPT 221100Z 23009KT 9999 FEW022 SCT040 13/10 Q1009",
      "taf": "TAF LPPT 220500Z 2206/2312 25008KT 9999 SCT020"
    },
    {
      "icao": "LQBK",
      "alert": "OK",
      "vis_m": 4000,
      "fzfg": false,
      "metar_trigger": false,
      "taf_trigger": false,
      "metar": "METAR LQBK 221100Z VRB01KT 4000 BR OVC007 M03/M05 Q1004 NOSIG",
      "taf": "TAF LQBK 221100Z 2212/2312 VRB02KT 4000 BR OVC008 TX01/2312Z TNM04/2224Z"
    },
    {
      "icao": "LQSA",
      "alert": "OK",
      "vis_m": 4000,
      "fzfg": false,
      "metar_trigger": false,
      "taf_trigger": false,
      "metar": "METAR LQSA 221100Z VRB01KT 4000 BR FEW012 SCT070 01/M05 Q1001 NOSIG",
      "taf": "TAF LQSA 221100Z 2212/2312 VRB02KT 4000 BR FEW010 SCT045 TX05/2312Z TNM02/2305Z"
    },
    {
      "icao": "LQTZ",
      "alert": "OK",
      "vis_m": 4500,
      "fzfg": false,
      "metar_trigger": false,
      "taf_trigger": false,
      "metar": "METAR LQTZ 221100Z VRB02KT 4500 BR SCT005 M01/M04 Q1002",
      "taf": "TAF LQTZ 221100Z 2212/2312 VRB02KT 6000 SCT007 BKN045 TX04/2312Z TNM03/2303Z"
    },
    {
      "icao": "LRBC",
      "alert": "OK",
      "vis_m": 9999,
      "fzfg": false,
      "metar_trigger": false,
      "taf_trigger": false,
      "metar": "METAR LRBC 221100Z 16011KT 9999 OVC015 03/M00 Q1006",
      "taf": "TAF LRBC 220800Z 2209/2218 15012KT 9999 BKN015"
    },
    {
      "icao": "LRBS",
      "alert": "OK",
      "vis_m": 2000,
      "fzfg": false,
      "metar_trigger": false,
      "taf_trigger": false,
      "metar": "METAR LRBS 221100Z 06006KT 2000 -RADZ BR OVC002 01/01 Q1006 NOSIG",
      "taf": ""
    },
    {
      "icao": "LRBV",
      "alert": "OK",
      "vis_m": 9999,
      "fzfg": false,
      "metar_trigger": false,
      "taf_trigger": false,
      "metar": "METAR LRBV 221100Z 31003KT 9999 SCT039 SCT087 02/M02 Q1002",
      "taf": "TAF LRBV 220800Z 2209/2218 VRB04KT 9999 SCT040"
    },
    {
      "icao": "LRCL",
      "alert": "OK",
      "vis_m": 6000,
      "fzfg": false,
      "metar_trigger": false,
      "taf_trigger": false,
      "metar": "METAR LRCL 221100Z COR 00000KT 6000 OVC051 M02/M07 Q1004",
      "taf": "TAF LRCL 220800Z 2209/2218 VRB04KT 5000 BR BKN065"
    },
    {
      "icao": "LRCV",
      "alert": "OK",
      "vis_m": 4500,
      "fzfg": false,
      "metar_trigger": false,
      "taf_trigger": false,
      "metar": "METAR LRCV 221100Z 00000KT 4500 -SN BR OVC004 01/01 Q1005",
      "taf": "TAF LRCV 220800Z 2209/2218 VRB04KT 1500 SN BR OVC002"
    },
    {
      "icao": "LRIA",
      "alert": "OK",
      "vis_m": 9999,
      "fzfg": false,
      "metar_trigger": false,
      "taf_trigger": false,
      "metar": "METAR LRIA 221100Z 12009KT 9999 BKN023 03/M00 Q1007",
      "taf": "TAF LRIA 220800Z 2209/2218 12012KT CAVOK"
    },
    {
      "icao": "LROP",
      "alert": "OK",
      "vis_m": 2000,
      "fzfg": false,
      "metar_trigger": false,
      "taf_trigger": false,
      "metar": "METAR LROP 221100Z 06008KT 2000 RADZ BR BKN002 OVC010 01/01 Q1005 NOSIG",
      "taf": ""
    },
    {
      "icao": "LRSB",
      "alert": "OK",
      "vis_m": 9999,
      "fzfg": false,
      "metar_trigger": false,
      "taf_trigger": false,
      "metar": "METAR LRSB 221100Z VRB01KT 9999 BKN050 00/M06 Q1003",
      "taf": "TAF LRSB 220500Z 2206/2306 VRB04KT 9999 SCT075"
    },
    {
      "icao": "LRSM",
      "alert": "OK",
      "vis_m": 9999,
      "fzfg": false,
      "metar_trigger": false,
      "taf_trigger": false,
      "metar": "METAR LRSM 221100Z 06005KT CAVOK M00/M07 Q1005",
      "taf": "TAF LRSM 220800Z 2209/2218 VRB04KT CAVOK"
    },
    {
      "icao": "LRSV",
      "alert": "OK",
      "vis_m": 9999,
      "fzfg": false,
      "metar_trigger": false,
      "taf_trigger": false,
      "metar": "METAR LRSV 221100Z 16009KT 9999 BKN010 00/00 Q1004",
      "taf": "TAF LRSV 220800Z 2209/2218 15008KT 9999 BKN010"
    },
    {
      "icao": "LRTM",
      "alert": "OK",
      "vis_m": 4000,
      "fzfg": false,
      "metar_trigger": false,
      "taf_trigger": false,
      "metar": "METAR LRTM 221100Z 25004KT 4000 BR FEW047 M04/M08 Q1004",
      "taf": "TAF LRTM 220800Z 2209/2218 VRB04KT 3000 BR NSC"
    },
    {
      "icao": "LRTR",
      "alert": "OK",
      "vis_m": 9999,
      "fzfg": false,
      "metar_trigger": false,
      "taf_trigger": false,
      "metar": "METAR LRTR 221100Z 36006KT 9999 BKN046 02/M03 Q1004",
      "taf": "TAF LRTR 220500Z 2206/2306 VRB04KT 9999 BKN045"
    },
    {
      "icao": "LTAC",
      "alert": "OK",
      "vis_m": 1500,
      "fzfg": false,
      "metar_trigger": false,
      "taf_trigger": false,
      "metar": "METAR LTAC 221050Z 04010KT 1500 R03C/P1500D R21C/P1500N R03L/P1500N R03R/P1500N -SN BR SCT009 BKN021 BKN080 M02/M03 Q1011 BECMG 4000",
      "taf": "TAF LTAC 221040Z 2212/2312 VRB02KT 9999 SCT035 BKN090"
    },
    {
      "icao": "LTFM",
      "alert": "OK",
      "vis_m": 9999,
      "fzfg": false,
      "metar_trigger": false,
      "taf_trigger": false,
      "metar": "METAR LTFM 221050Z 18012KT 9999 SCT040 BKN100 10/04 Q1004 NOSIG RMK RWY17L 18011KT RWY34L 17012KT RWY16R 19010KT RWY36 18014KT RWY18 19016KT",
      "taf": "TAF LTFM 221040Z 2212/2318 20012KT 9999 SCT040 BKN100"
    },
    {
      "icao": "LUKK",
      "alert": "OK",
      "vis_m": 9999,
      "fzfg": false,
      "metar_trigger": false,
      "taf_trigger": false,
      "metar": "METAR LUKK 221100Z 11008KT 9999 FEW005 OVC011 02/01 Q1008 TEMPO BKN006",
      "taf": "TAF LUKK 220521Z 2206/2306 13009KT 9999 BKN015"
    },
    {
      "icao": "LWOH",
      "alert": "OK",
      "vis_m": 9999,
      "fzfg": false,
      "metar_trigger": false,
      "taf_trigger": false,
      "metar": "METAR LWOH 221050Z 16005KT 130V200 9999 FEW020 SCT040 07/02 Q1001",
      "taf": "TAF LWOH 220805Z 2209/2309 VRB02KT 9999 BKN040"
    },
    {
      "icao": "LWSK",
      "alert": "OK",
      "vis_m": 4000,
      "fzfg": false,
      "metar_trigger": false,
      "taf_trigger": false,
      "metar": "METAR LWSK 221050Z VRB02KT 4000 BR SCT007 BKN013 03/01 Q1004 NOSIG",
      "taf": "TAF LWSK 220805Z 2209/2309 VRB02KT 1500 BR FEW010 BKN010 OVC015"
    },
    {
      "icao": "LYBE",
      "alert": "OK",
      "vis_m": 2500,
      "fzfg": false,
      "metar_trigger": false,
      "taf_trigger": false,
      "metar": "METAR LYBE 221100Z 28004KT 260V330 2500 BR SCT004 M03/M04 Q1004 BECMG 3500",
      "taf": ""
    },
    {
      "icao": "LYNI",
      "alert": "OK",
      "vis_m": 9999,
      "fzfg": false,
      "metar_trigger": false,
      "taf_trigger": false,
      "metar": "METAR LYNI 221100Z VRB01KT 9999 BKN033 BKN085 05/M01 Q1003 NOSIG",
      "taf": "TAF LYNI 220500Z 2206/2306 10015KT 9999 BKN040 BKN080 TX05/2213Z TNM02/2305Z"
    },
    {
      "icao": "LYPG",
      "alert": "OK",
      "vis_m": 9999,
      "fzfg": false,
      "metar_trigger": false,
      "taf_trigger": false,
      "metar": "METAR LYPG 221100Z VRB01KT 9999 FEW013 BKN050 BKN070 09/05 Q1001 NOSIG",
      "taf": "TAF LYPG 220500Z 2206/2306 12005KT 8000 FEW010 BKN050 OVC073 TX11/2213Z TN04/2305Z"
    },
    {
      "icao": "LZIB",
      "alert": "OK",
      "vis_m": 4500,
      "fzfg": false,
      "metar_trigger": false,
      "taf_trigger": false,
      "metar": "METAR LZIB 221100Z 09006KT 4500 BR SCT008 BKN011 M04/M06 Q1003 BECMG FEW008",
      "taf": ""
    },
    {
      "icao": "LZKZ",
      "alert": "OK",
      "vis_m": 8000,
      "fzfg": false,
      "metar_trigger": false,
      "taf_trigger": false,
      "metar": "METAR LZKZ 221100Z 14003KT 8000 SCT039 M03/M05 Q1005 NOSIG",
      "taf": ""
    },
    {
      "icao": "LZTT",
      "alert": "OK",
      "vis_m": 9999,
      "fzfg": false,
      "metar_trigger": false,
      "taf_trigger": false,
      "metar": "METAR LZTT 221100Z VRB02KT 9999 BKN046 M02/M07 Q1001 TEMPO 5000 -SN BKN020",
      "taf": ""
    },
    {
      "icao": "OEJN",
      "alert": "OK",
      "vis_m": 9999,
      "fzfg": false,
      "metar_trigger": false,
      "taf_trigger": false,
      "metar": "METAR OEJN 221100Z 21007KT CAVOK 32/13 Q1011 NOSIG",
      "taf": "TAF OEJN 221100Z 2212/2318 22010KT 7000 FEW040"
    },
    {
      "icao": "OEMA",
      "alert": "OK",
      "vis_m": 9999,
      "fzfg": false,
      "metar_trigger": false,
      "taf_trigger": false,
      "metar": "METAR OEMA 221100Z 10011KT CAVOK 21/M05 Q1020 NOSIG",
      "taf": "TAF OEMA 221100Z 2212/2318 10015KT 7000 NSC"
    },
    {
      "icao": "OJAI",
      "alert": "OK",
      "vis_m": 4000,
      "fzfg": false,
      "metar_trigger": false,
      "taf_trigger": false,
      "metar": "METAR OJAI 221100Z 07012KT 4000 HZ NSC 09/M04 Q1019 NOSIG",
      "taf": "TAF OJAI 221003Z 2212/2318 08012KT 4000 -RA SCT035 BKN035"
    },
    {
      "icao": "OMAA",
      "alert": "OK",
      "vis_m": 9999,
      "fzfg": false,
      "metar_trigger": false,
      "taf_trigger": false,
      "metar": "METAR OMAA 221100Z 34016KT CAVOK 20/M01 Q1020 NOSIG",
      "taf": "TAF OMAA 221100Z 2212/2318 33015KT 8000 NSC"
    },
    {
      "icao": "OMDB",
      "alert": "OK",
      "vis_m": 9999,
      "fzfg": false,
      "metar_trigger": false,
      "taf_trigger": false,
      "metar": "METAR OMDB 221100Z 01012KT 340V050 CAVOK 20/01 Q1020 NOSIG",
      "taf": "TAF OMDB 221100Z 2212/2318 36014KT 8000 NSC"
    },
    {
      "icao": "UAAA",
      "alert": "OK",
      "vis_m": 4700,
      "fzfg": false,
      "metar_trigger": false,
      "taf_trigger": false,
      "metar": "METAR UAAA 221100Z VRB01MPS 4700 BR SCT100 BKN200 M06/M10 Q1011 NOSIG",
      "taf": "TAF UAAA 220501Z 2206/2306 32003MPS 3100 BR FU SCT011 BKN050 TXM04/2208Z TNM10/2302Z"
    },
    {
      "icao": "UBBB",
      "alert": "OK",
      "vis_m": 9999,
      "fzfg": false,
      "metar_trigger": false,
      "taf_trigger": false,
      "metar": "METAR UBBB 221100Z 21018KT CAVOK 07/M03 Q1019 NOSIG",
      "taf": "TAF UBBB 221054Z 2212/2312 21014KT CAVOK TX07/2212Z TNM02/2300Z"
    },
    {
      "icao": "UDSG",
      "alert": "OK",
      "vis_m": 9999,
      "fzfg": false,
      "metar_trigger": false,
      "taf_trigger": false,
      "metar": "METAR UDSG 221100Z 26003KT 9999 FEW049 M12/M17 Q1022 NOSIG",
      "taf": "TAF UDSG 220458Z 2206/2306 VRB06KT 9999 FEW050"
    },
    {
      "icao": "UDYZ",
      "alert": "OK",
      "vis_m": 9999,
      "fzfg": false,
      "metar_trigger": false,
      "taf_trigger": false,
      "metar": "METAR UDYZ 221100Z 18003KT 130V220 9999 NSC M03/M09 Q1025 NOSIG",
      "taf": "TAF UDYZ 220500Z 2206/2306 20006KT 6000 FEW040"
    },
    {
      "icao": "UGKO",
      "alert": "OK",
      "vis_m": 9999,
      "fzfg": false,
      "metar_trigger": false,
      "taf_trigger": false,
      "metar": "METAR UGKO 221100Z 09018KT CAVOK 08/M06 Q1014 NOSIG",
      "taf": "TAF UGKO 221100Z 2212/2312 08017KT CAVOK TX10/2311Z TN05/2303Z"
    }
  ]
}