{
  "ts_utc": "2026-01-01T17:01:47Z",
  "threshold_m": 150,
  "source": "stations_override.txt (ICAO list) + aviationweather.gov (METAR/TAF raw)",
  "station_count": 159,
  "stations": [
    {
      "icao": "BIKF",
      "alert": "OK",
      "vis_m": 9999,
      "fzfg": false,
      "metar_trigger": false,
      "taf_trigger": false,
      "metar": "METAR BIKF 011630Z 06005KT 9999 FEW007 BKN380 01/01 Q1021",
      "taf": "TAF BIKF 011606Z 0118/0218 07006KT 9999 FEW006 SCT025 TXM00/0118Z TNM05/0218Z"
    },
    {
      "icao": "BKPR",
      "alert": "OK",
      "vis_m": 9999,
      "fzfg": false,
      "metar_trigger": false,
      "taf_trigger": false,
      "metar": "METAR BKPR 011630Z 19007KT CAVOK M01/M10 Q1018 NOSIG",
      "taf": "TAF BKPR 011130Z 0112/0212 19009KT CAVOK"
    },
    {
      "icao": "EBCI",
      "alert": "OK",
      "vis_m": 9999,
      "fzfg": false,
      "metar_trigger": false,
      "taf_trigger": false,
      "metar": "METAR EBCI 011650Z 25010KT 230V290 9999 FEW009 BKN011 03/02 Q1004 TEMPO SCT011",
      "taf": "TAF EBCI 011100Z 0112/0218 25012KT 9999 SCT012 BKN020"
    },
    {
      "icao": "EDDB",
      "alert": "OK",
      "vis_m": 9999,
      "fzfg": false,
      "metar_trigger": false,
      "taf_trigger": false,
      "metar": "METAR EDDB 011650Z AUTO 24019KT 9999 BKN026 04/M01 Q0992 TEMPO 23020G30KT",
      "taf": "TAF EDDB 011100Z 0112/0212 23020G30KT 9999 BKN025"
    },
    {
      "icao": "EDDH",
      "alert": "OK",
      "vis_m": 7000,
      "fzfg": false,
      "metar_trigger": false,
      "taf_trigger": false,
      "metar": "METAR EDDH 011650Z AUTO 25018G29KT 210V300 7000 -SHRA SCT011 BKN017 OVC039 FEW///CB 04/02 Q0988 RESHRA TEMPO 3000 SHSNRA BKN009",
      "taf": "TAF EDDH 011100Z 0112/0218 24020G35KT 9999 SCT020TCU"
    },
    {
      "icao": "EDDK",
      "alert": "OK",
      "vis_m": 9999,
      "fzfg": false,
      "metar_trigger": false,
      "taf_trigger": false,
      "metar": "METAR EDDK 011650Z AUTO 25017KT 9999 -RA BKN016 03/01 Q1002 TEMPO 25015G25KT BKN013",
      "taf": "TAF EDDK 011100Z 0112/0218 25011KT 9999 BKN025"
    },
    {
      "icao": "EDDN",
      "alert": "OK",
      "vis_m": 9999,
      "fzfg": false,
      "metar_trigger": false,
      "taf_trigger": false,
      "metar": "METAR EDDN 011650Z AUTO 24015G27KT 9999 OVC021 01/M04 Q1004 NOSIG",
      "taf": "TAF EDDN 011100Z 0112/0212 25015KT 9999 BKN020"
    },
    {
      "icao": "EDDS",
      "alert": "OK",
      "vis_m": 9999,
      "fzfg": false,
      "metar_trigger": false,
      "taf_trigger": false,
      "metar": "METAR EDDS 011650Z AUTO 21004KT 180V240 CAVOK M01/M06 Q1006 NOSIG",
      "taf": ""
    },
    {
      "icao": "EDFH",
      "alert": "OK",
      "vis_m": 9999,
      "fzfg": false,
      "metar_trigger": false,
      "taf_trigger": false,
      "metar": "METAR EDFH 011650Z 26016G27KT 9999 -SN OVC005 M01/M02 Q1003",
      "taf": "TAF EDFH 011100Z 0112/0212 26015G25KT 9999 OVC007"
    },
    {
      "icao": "EDJA",
      "alert": "OK",
      "vis_m": 9999,
      "fzfg": false,
      "metar_trigger": false,
      "taf_trigger": false,
      "metar": "METAR EDJA 011650Z 24020KT CAVOK 00/M06 Q1006",
      "taf": ""
    },
    {
      "icao": "EDLW",
      "alert": "OK",
      "vis_m": 9999,
      "fzfg": false,
      "metar_trigger": false,
      "taf_trigger": false,
      "metar": "METAR EDLW 011650Z 23016G26KT 9999 SCT012 BKN015 OVC025 03/01 Q0999",
      "taf": "TAF EDLW 011100Z 0112/0212 24015G25KT 9999 BKN020"
    },
    {
      "icao": "EDNY",
      "alert": "OK",
      "vis_m": 9999,
      "fzfg": false,
      "metar_trigger": false,
      "taf_trigger": false,
      "metar": "METAR EDNY 011650Z AUTO 23013KT 9999 // NCD 01/M04 Q1008",
      "taf": "TAF EDNY 010800Z 0109/0118 VRB03KT CAVOK"
    },
    {
      "icao": "EDSB",
      "alert": "OK",
      "vis_m": 9999,
      "fzfg": false,
      "metar_trigger": false,
      "taf_trigger": false,
      "metar": "METAR EDSB 011650Z 22006KT 9999 BKN039 OVC045 00/M05 Q1008",
      "taf": "TAF EDSB 011100Z 0112/0212 22012KT 9999 BKN025"
    },
    {
      "icao": "EETN",
      "alert": "OK",
      "vis_m": 9999,
      "fzfg": false,
      "metar_trigger": false,
      "taf_trigger": false,
      "metar": "METAR EETN 011650Z 11011KT 9999 SCT018 M10/M12 Q0988 TEMPO BKN014",
      "taf": "TAF EETN 011130Z 0112/0212 13008KT 9999 SCT025"
    },
    {
      "icao": "EFTU",
      "alert": "OK",
      "vis_m": 9999,
      "fzfg": false,
      "metar_trigger": false,
      "taf_trigger": false,
      "metar": "METAR EFTU 011650Z AUTO 10015KT 9999 FEW020 M07/M12 Q0985",
      "taf": "TAF EFTU 011438Z 0115/0215 11014KT CAVOK"
    },
    {
      "icao": "EGBB",
      "alert": "OK",
      "vis_m": 9999,
      "fzfg": false,
      "metar_trigger": false,
      "taf_trigger": false,
      "metar": "METAR EGBB 011650Z 30010KT 9999 VCSH FEW021 BKN027 04/02 Q1007",
      "taf": ""
    },
    {
      "icao": "EGGP",
      "alert": "OK",
      "vis_m": 9999,
      "fzfg": false,
      "metar_trigger": false,
      "taf_trigger": false,
      "metar": "METAR EGGP 011650Z 32022G36KT 9999 SHRA FEW018 BKN027 BKN035 04/00 Q1007 RESHRA",
      "taf": "TAF EGGP 011057Z 0112/0212 32012KT 9999 SCT035"
    },
    {
      "icao": "EGGW",
      "alert": "OK",
      "vis_m": 9999,
      "fzfg": false,
      "metar_trigger": false,
      "taf_trigger": false,
      "metar": "METAR EGGW 011650Z AUTO 29016KT 9999 FEW026 SCT037 04/01 Q1006",
      "taf": "TAF EGGW 011100Z 0112/0212 27014KT 9999 SCT030"
    },
    {
      "icao": "EGKK",
      "alert": "OK",
      "vis_m": 9999,
      "fzfg": false,
      "metar_trigger": false,
      "taf_trigger": false,
      "metar": "METAR EGKK 011650Z 26010KT 9999 BKN043 05/03 Q1007",
      "taf": "TAF EGKK 011054Z 0112/0218 26012KT 9999 SCT030"
    },
    {
      "icao": "EGNM",
      "alert": "OK",
      "vis_m": 9999,
      "fzfg": false,
      "metar_trigger": false,
      "taf_trigger": false,
      "metar": "METAR EGNM 011650Z 29015KT 9999 FEW014 03/M00 Q1003",
      "taf": ""
    },
    {
      "icao": "EGPD",
      "alert": "OK",
      "vis_m": 9999,
      "fzfg": false,
      "metar_trigger": false,
      "taf_trigger": false,
      "metar": "METAR EGPD 011650Z AUTO 31019G29KT 9999 -RA FEW016 00/M01 Q1000 TEMPO 1500 SHSN",
      "taf": "TAF EGPD 011053Z 0112/0212 30015KT 9999 SCT012"
    },
    {
      "icao": "EGPF",
      "alert": "OK",
      "vis_m": 9999,
      "fzfg": false,
      "metar_trigger": false,
      "taf_trigger": false,
      "metar": "METAR EGPF 011650Z AUTO 28007KT 9999 NCD 02/M03 Q1006",
      "taf": "TAF EGPF 011056Z 0112/0212 29012KT 9999 FEW035"
    },
    {
      "icao": "EHBK",
      "alert": "OK",
      "vis_m": 9999,
      "fzfg": false,
      "metar_trigger": false,
      "taf_trigger": false,
      "metar": "METAR EHBK 011655Z AUTO 24011KT 210V280 9999 SCT008 BKN009 OVC010 03/02 Q1002 NOSIG",
      "taf": "TAF EHBK 011119Z 0112/0218 24015G25KT 9999 BKN018"
    },
    {
      "icao": "EHEH",
      "alert": "OK",
      "vis_m": 9999,
      "fzfg": false,
      "metar_trigger": false,
      "taf_trigger": false,
      "metar": "METAR EHEH 011655Z AUTO 23014KT 210V280 9999 FEW013 SCT019 BKN023 04/02 Q1001 WHT NOSIG RMK TREND REMOTE BY EHWX",
      "taf": "TAF EHEH 011114Z 0112/0218 25018G30KT 9999 OVC017"
    },
    {
      "icao": "EKBI",
      "alert": "OK",
      "vis_m": 9999,
      "fzfg": false,
      "metar_trigger": false,
      "taf_trigger": false,
      "metar": "METAR EKBI 011650Z 27011KT 9999 BKN018 03/01 Q0981",
      "taf": "TAF EKBI 011427Z 0115/0215 25013KT 9999 BKN015"
    },
    {
      "icao": "EKCH",
      "alert": "OK",
      "vis_m": 9999,
      "fzfg": false,
      "metar_trigger": false,
      "taf_trigger": false,
      "metar": "METAR EKCH 011651Z 24017KT 9999 SHRA BKN018 04/01 Q0979 TEMPO SCT015CB",
      "taf": "TAF EKCH 011427Z 0115/0215 25016KT 9999 BKN015"
    },
    {
      "icao": "ENAL",
      "alert": "OK",
      "vis_m": 9999,
      "fzfg": false,
      "metar_trigger": false,
      "taf_trigger": false,
      "metar": "METAR ENAL 011650Z 04025KT 9999 SCT025 BKN032 01/M04 Q0985",
      "taf": "TAF ENAL 011400Z 0115/0124 04025KT 9999 FEW015 SCT035"
    },
    {
      "icao": "ENBR",
      "alert": "OK",
      "vis_m": 9999,
      "fzfg": false,
      "metar_trigger": false,
      "taf_trigger": false,
      "metar": "METAR ENBR 011650Z 34010KT 9999 FEW010 02/M00 Q0978 NOSIG RMK WIND 1200FT 35023G33KT",
      "taf": "TAF ENBR 011100Z 0112/0212 VRB05KT 9999 -SHSNRA BKN009 SCT020CB"
    },
    {
      "icao": "ENGM",
      "alert": "OK",
      "vis_m": 9999,
      "fzfg": false,
      "metar_trigger": false,
      "taf_trigger": false,
      "metar": "METAR ENGM 011650Z 35006KT 320V020 9999 FEW024 SCT027 BKN034 M04/M08 Q0974 NOSIG",
      "taf": "TAF ENGM 011100Z 0112/0212 36012KT 9999 -SN BKN020"
    },
    {
      "icao": "ENHD",
      "alert": "OK",
      "vis_m": 9999,
      "fzfg": false,
      "metar_trigger": false,
      "taf_trigger": false,
      "metar": "METAR ENHD 011650Z 36024KT 9999 FEW018 04/01 Q0976",
      "taf": "TAF ENHD 011400Z 0115/0123 34020KT 9999 FEW020 SCT040"
    },
    {
      "icao": "ENTC",
      "alert": "OK",
      "vis_m": 9999,
      "fzfg": false,
      "metar_trigger": false,
      "taf_trigger": false,
      "metar": "METAR ENTC 011650Z 13003KT 100V160 CAVOK M14/M18 Q1000 NOSIG RMK WIND 2600FT 19006KT",
      "taf": "TAF ENTC 011100Z 0112/0212 24006KT CAVOK"
    },
    {
      "icao": "ENTO",
      "alert": "OK",
      "vis_m": 9999,
      "fzfg": false,
      "metar_trigger": false,
      "taf_trigger": false,
      "metar": "METAR ENTO 011650Z 36009KT 9999 FEW022 M03/M04 Q0974 NOSIG",
      "taf": "TAF ENTO 011100Z 0112/0212 35008KT CAVOK"
    },
    {
      "icao": "ENVA",
      "alert": "OK",
      "vis_m": 2500,
      "fzfg": false,
      "metar_trigger": false,
      "taf_trigger": false,
      "metar": "METAR ENVA 011650Z 07004KT 020V110 2500 -SN VV018 M03/M05 Q0986 TEMPO 1200 SN VV012 RMK WIND 670FT 05008KT",
      "taf": ""
    },
    {
      "icao": "ENZV",
      "alert": "OK",
      "vis_m": 9999,
      "fzfg": false,
      "metar_trigger": false,
      "taf_trigger": false,
      "metar": "METAR ENZV 011650Z 35014KT 9999 FEW015 03/M00 Q0975 NOSIG",
      "taf": "TAF ENZV 011100Z 0112/0212 34018KT 9999 -SHRA FEW015CB BKN035"
    },
    {
      "icao": "EPGD",
      "alert": "OK",
      "vis_m": 4200,
      "fzfg": false,
      "metar_trigger": false,
      "taf_trigger": false,
      "metar": "METAR EPGD 011630Z 22017KT 4200 -SN BR SCT008 BKN015 00/M00 Q0984",
      "taf": ""
    },
    {
      "icao": "EPKK",
      "alert": "OK",
      "vis_m": 9999,
      "fzfg": false,
      "metar_trigger": false,
      "taf_trigger": false,
      "metar": "METAR EPKK 011630Z 22007KT CAVOK 01/M05 Q0999",
      "taf": "TAF EPKK 011430Z 0115/0215 24012KT 8000 BKN030"
    },
    {
      "icao": "EPKT",
      "alert": "OK",
      "vis_m": 9999,
      "fzfg": false,
      "metar_trigger": false,
      "taf_trigger": false,
      "metar": "METAR EPKT 011630Z 23017KT CAVOK M01/M05 Q0998",
      "taf": "TAF EPKT 011130Z 0112/0212 24007KT 8000 BKN025"
    },
    {
      "icao": "EPLB",
      "alert": "OK",
      "vis_m": 9999,
      "fzfg": false,
      "metar_trigger": false,
      "taf_trigger": false,
      "metar": "METAR EPLB 011630Z 22015KT 9999 OVC022 M01/M03 Q0998 REFZRA",
      "taf": ""
    },
    {
      "icao": "EPMO",
      "alert": "OK",
      "vis_m": 9999,
      "fzfg": false,
      "metar_trigger": false,
      "taf_trigger": false,
      "metar": "METAR EPMO 011630Z 22018G28KT 9999 -SN BKN022 BKN038 01/M02 Q0993",
      "taf": "TAF EPMO 011130Z 0112/0212 21012KT 4000 -SN BR BKN010"
    },
    {
      "icao": "EPPO",
      "alert": "OK",
      "vis_m": 5000,
      "fzfg": false,
      "metar_trigger": false,
      "taf_trigger": false,
      "metar": "METAR EPPO 011630Z 23011G21KT 5000 -SN OVC020 01/M02 Q0992",
      "taf": ""
    },
    {
      "icao": "EPRA",
      "alert": "OK",
      "vis_m": 8000,
      "fzfg": false,
      "metar_trigger": false,
      "taf_trigger": false,
      "metar": "METAR EPRA 011630Z 23016KT 8000 -SN BKN015 01/M02 Q0997",
      "taf": "TAF EPRA 011430Z 0115/0124 24015KT 9999 BKN014 OVC030"
    },
    {
      "icao": "EPRZ",
      "alert": "OK",
      "vis_m": 9999,
      "fzfg": false,
      "metar_trigger": false,
      "taf_trigger": false,
      "metar": "METAR EPRZ 011630Z 20022KT 9999 BKN015 OVC043 M00/M03 Q1000",
      "taf": "TAF EPRZ 011130Z 0112/0212 21010KT 9999 OVC020"
    },
    {
      "icao": "EPSC",
      "alert": "OK",
      "vis_m": 9999,
      "fzfg": false,
      "metar_trigger": false,
      "taf_trigger": false,
      "metar": "METAR EPSC 011630Z 21012KT 170V240 9999 -RA OVC010 02/00 Q0987",
      "taf": "TAF EPSC 011130Z 0112/0212 22015KT 9999 BKN018"
    },
    {
      "icao": "EPSY",
      "alert": "OK",
      "vis_m": 3000,
      "fzfg": false,
      "metar_trigger": false,
      "taf_trigger": false,
      "metar": "METAR EPSY 011630Z 22017KT 3000 -SNRA BR BKN002 OVC006 00/M01 Q0989",
      "taf": "TAF EPSY 011430Z 0115/0124 23014KT 4000 -SNRA BR OVC005"
    },
    {
      "icao": "EPWA",
      "alert": "OK",
      "vis_m": 9999,
      "fzfg": false,
      "metar_trigger": false,
      "taf_trigger": false,
      "metar": "METAR EPWA 011630Z 21012KT 9999 SCT017 BKN046 01/M01 Q0994 NOSIG",
      "taf": "TAF EPWA 011430Z 0115/0215 23012KT 9999 BKN020"
    },
    {
      "icao": "EPWR",
      "alert": "OK",
      "vis_m": 9999,
      "fzfg": false,
      "metar_trigger": false,
      "taf_trigger": false,
      "metar": "METAR EPWR 011630Z 22012KT 9999 OVC035 02/M03 Q0997",
      "taf": "TAF EPWR 011430Z 0115/0215 25015G25KT 9999 FEW020 BKN030"
    },
    {
      "icao": "ESGG",
      "alert": "OK",
      "vis_m": 9999,
      "fzfg": false,
      "metar_trigger": false,
      "taf_trigger": false,
      "metar": "METAR ESGG 011650Z 23003KT 9999 NSC M00/M01 Q0973",
      "taf": ""
    },
    {
      "icao": "ESKN",
      "alert": "OK",
      "vis_m": 9999,
      "fzfg": false,
      "metar_trigger": false,
      "taf_trigger": false,
      "metar": "METAR ESKN 011650Z 17004KT 9999 FEW027 SCT051 M00/M00 Q0973",
      "taf": "TAF ESKN 011430Z 0115/0215 19006KT 9999 SCT025"
    },
    {
      "icao": "ESMS",
      "alert": "OK",
      "vis_m": 9999,
      "fzfg": false,
      "metar_trigger": false,
      "taf_trigger": false,
      "metar": "METAR ESMS 011650Z 24017KT 9999 FEW013 SCT021 BKN035 03/02 Q0978",
      "taf": "TAF ESMS 011427Z 0115/0215 24016KT 9999 SCT008 BKN015"
    },
    {
      "icao": "ESSA",
      "alert": "OK",
      "vis_m": 2500,
      "fzfg": false,
      "metar_trigger": false,
      "taf_trigger": false,
      "metar": "METAR ESSA 011650Z 10005KT 2500 -SN VV006 M00/M00 Q0974 BECMG 9999 NSW BKN020",
      "taf": ""
    },
    {
      "icao": "EYKA",
      "alert": "OK",
      "vis_m": 1300,
      "fzfg": false,
      "metar_trigger": false,
      "taf_trigger": false,
      "metar": "METAR EYKA 011650Z 17013G23KT 120V210 1300 R08/P2000N -SN DRSN SCT008 OVC012 M04/M05 Q0989",
      "taf": "TAF EYKA 011105Z 0112/0212 18015G25KT 1500 SN BLSN BKN005 OVC010"
    },
    {
      "icao": "EYPA",
      "alert": "OK",
      "vis_m": 9999,
      "fzfg": false,
      "metar_trigger": false,
      "taf_trigger": false,
      "metar": "METAR EYPA 011650Z 21012KT 180V250 9999 -RA BKN010 OVC017 02/01 Q0982",
      "taf": "TAF EYPA 011104Z 0112/0212 17015G30KT 0600 +SN BLSN BKN005 OVC012"
    },
    {
      "icao": "EYVI",
      "alert": "OK",
      "vis_m": 1000,
      "fzfg": false,
      "metar_trigger": false,
      "taf_trigger": false,
      "metar": "METAR EYVI 011650Z 16017KT 1000 R19/P2000N SN BLSN OVC014 M07/M09 Q0991 TEMPO 17018G28KT 0800 +SN BLSN OVC010",
      "taf": "TAF EYVI 011101Z 0112/0212 17014KT 9000 BKN020"
    },
    {
      "icao": "GCFV",
      "alert": "OK",
      "vis_m": 9999,
      "fzfg": false,
      "metar_trigger": false,
      "taf_trigger": false,
      "metar": "METAR GCFV 011630Z 21014G24KT 180V240 9999 FEW025 23/09 Q1009",
      "taf": "TAF GCFV 011400Z 0115/0215 20015KT 9999 FEW020 TX23/0214Z TN17/0206Z"
    },
    {
      "icao": "GCLP",
      "alert": "OK",
      "vis_m": 9999,
      "fzfg": false,
      "metar_trigger": false,
      "taf_trigger": false,
      "metar": "METAR GCLP 011630Z 21019KT 9999 SCT030 BKN045 22/15 Q1008 NOSIG",
      "taf": "TAF GCLP 011400Z 0115/0215 21023KT 9999 SCT025 TX23/0214Z TN17/0206Z"
    },
    {
      "icao": "GCTS",
      "alert": "OK",
      "vis_m": 9999,
      "fzfg": false,
      "metar_trigger": false,
      "taf_trigger": false,
      "metar": "METAR GCTS 011630Z 23015KT 9999 FEW015 OVC040 18/17 Q1008 RERA TEMPO 4000 SHRA BKN020TCU",
      "taf": "TAF GCTS 011400Z 0115/0215 27012KT 9999 OVC020 TX25/0214Z TN18/0206Z"
    },
    {
      "icao": "GMAD",
      "alert": "OK",
      "vis_m": 9999,
      "fzfg": false,
      "metar_trigger": false,
      "taf_trigger": false,
      "metar": "METAR GMAD 011630Z 08003KT CAVOK 25/11 Q1011 NOSIG",
      "taf": "TAF GMAD 011100Z 0112/0218 04005KT CAVOK"
    },
    {
      "icao": "GMMN",
      "alert": "OK",
      "vis_m": 9999,
      "fzfg": false,
      "metar_trigger": false,
      "taf_trigger": false,
      "metar": "METAR GMMN 011630Z 18004KT CAVOK 20/14 Q1011 NOSIG",
      "taf": "TAF GMMN 011100Z 0112/0218 16008KT CAVOK"
    },
    {
      "icao": "GMMX",
      "alert": "OK",
      "vis_m": 8000,
      "fzfg": false,
      "metar_trigger": false,
      "taf_trigger": false,
      "metar": "METAR GMMX 011630Z 05005KT 8000 SCT100 SCT200 22/09 Q1011 NOSIG",
      "taf": "TAF GMMX 011100Z 0112/0218 24008KT 8000 NSC"
    },
    {
      "icao": "HEGN",
      "alert": "OK",
      "vis_m": 9999,
      "fzfg": false,
      "metar_trigger": false,
      "taf_trigger": false,
      "metar": "METAR HEGN 011600Z 36006KT CAVOK 21/06 Q1016 NOSIG",
      "taf": "TAF HEGN 011700Z 0118/0224 30008KT CAVOK"
    },
    {
      "icao": "HEMA",
      "alert": "OK",
      "vis_m": 9999,
      "fzfg": false,
      "metar_trigger": false,
      "taf_trigger": false,
      "metar": "METAR HEMA 011600Z 11008KT CAVOK 23/10 Q1015 NOSIG",
      "taf": "TAF HEMA 011700Z 0118/0224 11008KT CAVOK"
    },
    {
      "icao": "HESH",
      "alert": "OK",
      "vis_m": 9999,
      "fzfg": false,
      "metar_trigger": false,
      "taf_trigger": false,
      "metar": "METAR HESH 011600Z 22009KT CAVOK 24/M04 Q1014 NOSIG",
      "taf": "TAF HESH 011700Z 0118/0224 24008KT CAVOK"
    },
    {
      "icao": "HESX",
      "alert": "OK",
      "vis_m": 9999,
      "fzfg": false,
      "metar_trigger": false,
      "taf_trigger": false,
      "metar": "METAR HESX 011600Z 28008KT CAVOK 17/05 Q1015 NOSIG",
      "taf": "TAF HESX 011700Z 0118/0224 27008KT 6000 FEW025 SCT070"
    },
    {
      "icao": "LATI",
      "alert": "OK",
      "vis_m": 9999,
      "fzfg": false,
      "metar_trigger": false,
      "taf_trigger": false,
      "metar": "METAR LATI 011650Z VRB02KT CAVOK 01/M09 Q1021 NOSIG",
      "taf": "TAF LATI 011100Z 0112/0212 VRB05KT CAVOK TX10/0212Z TN00/0205Z"
    },
    {
      "icao": "LBPD",
      "alert": "OK",
      "vis_m": 9999,
      "fzfg": false,
      "metar_trigger": false,
      "taf_trigger": false,
      "metar": "METAR LBPD 011700Z AUTO 15005KT 9999 NCD M01/M09 Q1020 NOSIG",
      "taf": "TAF LBPD 011100Z 0112/0212 28014KT CAVOK"
    },
    {
      "icao": "LBSF",
      "alert": "OK",
      "vis_m": 9999,
      "fzfg": false,
      "metar_trigger": false,
      "taf_trigger": false,
      "metar": "METAR LBSF 011700Z AUTO VRB02KT 9999 NCD M05/M10 Q1018 NOSIG",
      "taf": "TAF LBSF 011100Z 0112/0212 28010KT 9999 SCT070"
    },
    {
      "icao": "LBWN",
      "alert": "OK",
      "vis_m": 9999,
      "fzfg": false,
      "metar_trigger": false,
      "taf_trigger": false,
      "metar": "METAR LBWN 011700Z AUTO 31004KT 9999 NCD M03/M09 Q1020 NOSIG",
      "taf": "TAF LBWN 011100Z 0112/0212 27014KT CAVOK"
    },
    {
      "icao": "LCLK",
      "alert": "OK",
      "vis_m": 9999,
      "fzfg": false,
      "metar_trigger": false,
      "taf_trigger": false,
      "metar": "METAR LCLK 011630Z 29011KT 260V330 9999 FEW025 11/04 Q1012 NOSIG",
      "taf": "TAF LCLK 011130Z 0112/0212 29018KT 9999 FEW025 SCT050"
    },
    {
      "icao": "LCPH",
      "alert": "OK",
      "vis_m": 9999,
      "fzfg": false,
      "metar_trigger": false,
      "taf_trigger": false,
      "metar": "METAR LCPH 011630Z 31021KT 9999 FEW030 SCT050 13/03 Q1013 NOSIG",
      "taf": "TAF LCPH 011130Z 0112/0212 31020G30KT 9999 FEW025 SCT040"
    },
    {
      "icao": "LEAL",
      "alert": "OK",
      "vis_m": 9999,
      "fzfg": false,
      "metar_trigger": false,
      "taf_trigger": false,
      "metar": "METAR LEAL 011630Z 19003KT 160V220 9999 BKN032 14/09 Q1016 NOSIG",
      "taf": "TAF LEAL 011100Z 0112/0212 16004KT 9999 FEW030 TX15/0114Z TN07/0206Z"
    },
    {
      "icao": "LEBB",
      "alert": "OK",
      "vis_m": 9999,
      "fzfg": false,
      "metar_trigger": false,
      "taf_trigger": false,
      "metar": "METAR LEBB 011630Z VRB03KT CAVOK 09/02 Q1013 NOSIG",
      "taf": "TAF LEBB 011100Z 0112/0212 14006KT CAVOK TX12/0114Z TN03/0122Z"
    },
    {
      "icao": "LEBL",
      "alert": "OK",
      "vis_m": 9999,
      "fzfg": false,
      "metar_trigger": false,
      "taf_trigger": false,
      "metar": "METAR LEBL 011630Z 25009KT 9999 FEW015 11/07 Q1014 NOSIG",
      "taf": "TAF LEBL 011100Z 0112/0212 24012KT 9999 FEW020 TX13/0112Z TN05/0206Z"
    },
    {
      "icao": "LECH",
      "alert": "OK",
      "vis_m": 9000,
      "fzfg": false,
      "metar_trigger": false,
      "taf_trigger": false,
      "metar": "METAR LECH 011630Z AUTO VRB01KT 9000 NSC 10/06 Q1014",
      "taf": ""
    },
    {
      "icao": "LEMD",
      "alert": "OK",
      "vis_m": 9999,
      "fzfg": false,
      "metar_trigger": false,
      "taf_trigger": false,
      "metar": "METAR LEMD 011630Z 00000KT 9999 BKN056 05/03 Q1015 NOSIG",
      "taf": "TAF LEMD 011100Z 0112/0218 VRB03KT 9999 SCT040 TX06/0115Z TN04/0208Z"
    },
    {
      "icao": "LEMG",
      "alert": "OK",
      "vis_m": 9999,
      "fzfg": false,
      "metar_trigger": false,
      "taf_trigger": false,
      "metar": "METAR LEMG 011630Z 12005KT 9999 FEW020 OVC040 14/11 Q1016 NOSIG",
      "taf": "TAF LEMG 011100Z 0112/0212 11006KT 9999 BKN020 TX17/0114Z TN09/0207Z"
    },
    {
      "icao": "LEVC",
      "alert": "OK",
      "vis_m": 9999,
      "fzfg": false,
      "metar_trigger": false,
      "taf_trigger": false,
      "metar": "METAR LEVC 011630Z 18003KT 150V210 CAVOK 11/07 Q1015 NOSIG",
      "taf": "TAF LEVC 011100Z 0112/0212 26004KT 9999 FEW035 TX15/0114Z TN04/0206Z"
    },
    {
      "icao": "LEXJ",
      "alert": "OK",
      "vis_m": 9999,
      "fzfg": false,
      "metar_trigger": false,
      "taf_trigger": false,
      "metar": "METAR LEXJ 011630Z VRB01KT CAVOK 08/04 Q1013",
      "taf": "TAF LEXJ 011400Z 0115/0215 10007KT CAVOK TX12/0214Z TN06/0121Z"
    },
    {
      "icao": "LEZG",
      "alert": "OK",
      "vis_m": 2000,
      "fzfg": false,
      "metar_trigger": false,
      "taf_trigger": false,
      "metar": "METAR LEZG 011630Z 00000KT 2000 BR OVC004 02/02 Q1016 NOSIG",
      "taf": ""
    },
    {
      "icao": "LEZL",
      "alert": "OK",
      "vis_m": 9999,
      "fzfg": false,
      "metar_trigger": false,
      "taf_trigger": false,
      "metar": "METAR LEZL 011630Z 05006KT 9999 FEW045 14/10 Q1013 NOSIG",
      "taf": "TAF LEZL 011400Z 0115/0215 05007KT 9999 BKN040 TX15/0115Z TN09/0207Z"
    },
    {
      "icao": "LFBD",
      "alert": "OK",
      "vis_m": 1500,
      "fzfg": false,
      "metar_trigger": false,
      "taf_trigger": false,
      "metar": "METAR LFBD 011630Z AUTO 12005KT 1500 1000 R23/2000N R05/1300D R29/1600U BR VV/// 00/00 Q1015 BECMG 0400 FG",
      "taf": ""
    },
    {
      "icao": "LFLL",
      "alert": "OK",
      "vis_m": 9000,
      "fzfg": false,
      "metar_trigger": false,
      "taf_trigger": false,
      "metar": "METAR LFLL 011630Z 11001KT 9000 NSC 00/M03 Q1013 NOSIG",
      "taf": "TAF LFLL 011100Z 0112/0218 VRB03KT CAVOK"
    },
    {
      "icao": "LFLS",
      "alert": "OK",
      "vis_m": 9999,
      "fzfg": false,
      "metar_trigger": false,
      "taf_trigger": false,
      "metar": "METAR LFLS 011630Z AUTO 08005KT 060V130 CAVOK M00/M03 Q1012 TEMPO 24010KT",
      "taf": "TAF LFLS 011400Z 0115/0215 VRB03KT CAVOK"
    },
    {
      "icao": "LFMN",
      "alert": "OK",
      "vis_m": 9999,
      "fzfg": false,
      "metar_trigger": false,
      "taf_trigger": false,
      "metar": "METAR LFMN 011630Z 24017KT 9999 FEW050 BKN260 12/04 Q1013 NOSIG",
      "taf": "TAF LFMN 011400Z 0115/0221 24015G30KT CAVOK"
    },
    {
      "icao": "LFOB",
      "alert": "OK",
      "vis_m": 9999,
      "fzfg": false,
      "metar_trigger": false,
      "taf_trigger": false,
      "metar": "METAR LFOB 011630Z AUTO 24010KT 9999 SCT013 BKN018 BKN027 04/02 Q1009 TEMPO 4000 -RADZ BKN009",
      "taf": "TAF LFOB 011100Z 0112/0212 24009KT 9999 BKN020"
    },
    {
      "icao": "LFPO",
      "alert": "OK",
      "vis_m": 9999,
      "fzfg": false,
      "metar_trigger": false,
      "taf_trigger": false,
      "metar": "METAR LFPO 011630Z AUTO 23010KT 9999 BKN021 BKN034 OVC047 03/01 Q1010",
      "taf": ""
    },
    {
      "icao": "LFSB",
      "alert": "OK",
      "vis_m": 9999,
      "fzfg": false,
      "metar_trigger": false,
      "taf_trigger": false,
      "metar": "METAR LFSB 011630Z AUTO VRB03KT CAVOK 00/M06 Q1010 NOSIG",
      "taf": "TAF LFSB 011101Z 0112/0212 16005KT CAVOK"
    },
    {
      "icao": "LGAV",
      "alert": "OK",
      "vis_m": 9999,
      "fzfg": false,
      "metar_trigger": false,
      "taf_trigger": false,
      "metar": "METAR LGAV 011650Z VRB02KT 9999 FEW025 04/M06 Q1023 NOSIG",
      "taf": "TAF LGAV 011100Z 0112/0212 36012KT 9999 FEW020"
    },
    {
      "icao": "LGTS",
      "alert": "OK",
      "vis_m": 9999,
      "fzfg": false,
      "metar_trigger": false,
      "taf_trigger": false,
      "metar": "METAR LGTS 011650Z 10004KT CAVOK 00/M07 Q1023 NOSIG",
      "taf": "TAF LGTS 011100Z 0112/0212 VRB03KT 9999 FEW030"
    },
    {
      "icao": "LHBP",
      "alert": "OK",
      "vis_m": 9999,
      "fzfg": false,
      "metar_trigger": false,
      "taf_trigger": false,
      "metar": "METAR LHBP 011630Z 18006KT CAVOK 02/M03 Q1009 NOSIG",
      "taf": "TAF LHBP 011115Z 0112/0212 19006KT CAVOK"
    },
    {
      "icao": "LHDC",
      "alert": "OK",
      "vis_m": 9999,
      "fzfg": false,
      "metar_trigger": false,
      "taf_trigger": false,
      "metar": "METAR LHDC 011615Z AUTO 18013KT CAVOK M02/M04 Q1011 NOSIG",
      "taf": "TAF LHDC 011415Z 0115/0124 18014KT 8000 SN BKN005 BKN025"
    },
    {
      "icao": "LIBD",
      "alert": "OK",
      "vis_m": 9999,
      "fzfg": false,
      "metar_trigger": false,
      "taf_trigger": false,
      "metar": "METAR LIBD 011650Z 17004KT CAVOK 05/M02 Q1019",
      "taf": "TAF LIBD 011100Z 0112/0212 17010KT 9999 FEW050"
    },
    {
      "icao": "LIBG",
      "alert": "OK",
      "vis_m": 9999,
      "fzfg": false,
      "metar_trigger": false,
      "taf_trigger": false,
      "metar": "METAR LIBG 011550Z 19001KT CAVOK 06/00 Q1020",
      "taf": "TAF LIBG 011400Z 0115/0124 VRB05KT CAVOK"
    },
    {
      "icao": "LIBP",
      "alert": "OK",
      "vis_m": 9999,
      "fzfg": false,
      "metar_trigger": false,
      "taf_trigger": false,
      "metar": "METAR LIBP 011650Z AUTO VRB02KT 9999 FEW068/// 05/M02 Q1016",
      "taf": "TAF LIBP 011100Z 0112/0212 VRB05KT CAVOK"
    },
    {
      "icao": "LIBR",
      "alert": "OK",
      "vis_m": 9999,
      "fzfg": false,
      "metar_trigger": false,
      "taf_trigger": false,
      "metar": "METAR LIBR 011650Z 19005KT CAVOK 06/01 Q1020",
      "taf": "TAF LIBR 011100Z 0112/0212 VRB05KT 9999 FEW030"
    },
    {
      "icao": "LICA",
      "alert": "OK",
      "vis_m": 9999,
      "fzfg": false,
      "metar_trigger": false,
      "taf_trigger": false,
      "metar": "METAR LICA 011650Z AUTO 05011KT 9999 FEW042/// 07/02 Q1021",
      "taf": "TAF LICA 011100Z 0112/0212 07015KT CAVOK"
    },
    {
      "icao": "LICC",
      "alert": "OK",
      "vis_m": 9999,
      "fzfg": false,
      "metar_trigger": false,
      "taf_trigger": false,
      "metar": "METAR LICC 011650Z VRB02KT 9999 FEW025 BKN060 12/09 Q1022",
      "taf": "TAF LICC 011100Z 0112/0212 VRB05KT 9999 SCT030"
    },
    {
      "icao": "LICJ",
      "alert": "OK",
      "vis_m": 9999,
      "fzfg": false,
      "metar_trigger": false,
      "taf_trigger": false,
      "metar": "METAR LICJ 011650Z 19007KT 9999 BKN060 14/07 Q1019",
      "taf": "TAF LICJ 011100Z 0112/0212 VRB06KT CAVOK"
    },
    {
      "icao": "LIMC",
      "alert": "OK",
      "vis_m": 8000,
      "fzfg": false,
      "metar_trigger": false,
      "taf_trigger": false,
      "metar": "METAR LIMC 011650Z 27003KT 240V320 8000 BKN040 04/01 Q1013 NOSIG",
      "taf": "TAF LIMC 011100Z 0112/0218 VRB04KT 8000 BKN030"
    },
    {
      "icao": "LIME",
      "alert": "OK",
      "vis_m": 6000,
      "fzfg": false,
      "metar_trigger": false,
      "taf_trigger": false,
      "metar": "METAR LIME 011650Z 15003KT 110V200 6000 BKN050 02/01 Q1013 NOSIG",
      "taf": "TAF LIME 011100Z 0112/0212 VRB04KT 9999 SCT040"
    },
    {
      "icao": "LIMF",
      "alert": "OK",
      "vis_m": 4000,
      "fzfg": false,
      "metar_trigger": false,
      "taf_trigger": false,
      "metar": "METAR LIMF 011650Z 13002KT 4000 BR SCT010 SCT020 03/00 Q1013",
      "taf": "TAF LIMF 011100Z 0112/0212 VRB04KT 8000 BKN040"
    },
    {
      "icao": "LIMJ",
      "alert": "OK",
      "vis_m": 9999,
      "fzfg": false,
      "metar_trigger": false,
      "taf_trigger": false,
      "metar": "METAR LIMJ 011650Z 18011KT 9999 FEW016 SCT027 BKN060 13/06 Q1012",
      "taf": "TAF LIMJ 011100Z 0112/0212 14014KT 9999 BKN030"
    },
    {
      "icao": "LIPE",
      "alert": "OK",
      "vis_m": 9999,
      "fzfg": false,
      "metar_trigger": false,
      "taf_trigger": false,
      "metar": "METAR LIPE 011650Z 35004KT 9999 FEW070 03/01 Q1014",
      "taf": "TAF LIPE 011100Z 0112/0212 VRB05KT CAVOK"
    },
    {
      "icao": "LIPH",
      "alert": "OK",
      "vis_m": 9999,
      "fzfg": false,
      "metar_trigger": false,
      "taf_trigger": false,
      "metar": "METAR LIPH 011650Z AUTO 29002KT 9999 SCT049/// OVC069/// 03/M02 Q1014",
      "taf": "TAF LIPH 011100Z 0112/0212 VRB04KT CAVOK"
    },
    {
      "icao": "LIPQ",
      "alert": "OK",
      "vis_m": 9999,
      "fzfg": false,
      "metar_trigger": false,
      "taf_trigger": false,
      "metar": "METAR LIPQ 011650Z AUTO VRB01KT 9999 OVC045/// 04/M00 Q1014",
      "taf": "TAF LIPQ 011100Z 0112/0212 VRB05KT 9999 BKN060"
    },
    {
      "icao": "LIPR",
      "alert": "OK",
      "vis_m": 9999,
      "fzfg": false,
      "metar_trigger": false,
      "taf_trigger": false,
      "metar": "METAR LIPR 011650Z 19011KT 9999 BKN060 08/03 Q1014",
      "taf": "TAF LIPR 011100Z 0112/0212 VRB05KT CAVOK"
    },
    {
      "icao": "LIPX",
      "alert": "OK",
      "vis_m": 6000,
      "fzfg": false,
      "metar_trigger": false,
      "taf_trigger": false,
      "metar": "METAR LIPX 011650Z VRB01KT 6000 OVC060 02/M00 Q1014",
      "taf": "TAF LIPX 011100Z 0112/0212 VRB04KT 9999 BKN040"
    },
    {
      "icao": "LIPY",
      "alert": "OK",
      "vis_m": 9999,
      "fzfg": false,
      "metar_trigger": false,
      "taf_trigger": false,
      "metar": "METAR LIPY 011650Z AUTO VRB01KT 9999 OVC037/// 08/M00 Q1015",
      "taf": "TAF LIPY 011100Z 0112/0212 VRB05KT CAVOK"
    },
    {
      "icao": "LIPZ",
      "alert": "OK",
      "vis_m": 9999,
      "fzfg": false,
      "metar_trigger": false,
      "taf_trigger": false,
      "metar": "METAR LIPZ 011650Z VRB02KT 9999 BKN050 BKN070 03/M02 Q1014 NOSIG",
      "taf": "TAF LIPZ 011100Z 0112/0218 VRB05KT CAVOK"
    },
    {
      "icao": "LIRF",
      "alert": "OK",
      "vis_m": 9999,
      "fzfg": false,
      "metar_trigger": false,
      "taf_trigger": false,
      "metar": "METAR LIRF 011650Z 12010KT 9999 -RA FEW020 SCT055 09/02 Q1017 NOSIG",
      "taf": "TAF LIRF 011100Z 0112/0218 15015KT 9999 FEW040"
    },
    {
      "icao": "LIRN",
      "alert": "OK",
      "vis_m": 9999,
      "fzfg": false,
      "metar_trigger": false,
      "taf_trigger": false,
      "metar": "METAR LIRN 011650Z 19004KT 160V250 9999 FEW040 SCT080 10/02 Q1019 NOSIG",
      "taf": "TAF LIRN 011100Z 0112/0212 VRB06KT CAVOK"
    },
    {
      "icao": "LIRP",
      "alert": "OK",
      "vis_m": 9999,
      "fzfg": false,
      "metar_trigger": false,
      "taf_trigger": false,
      "metar": "METAR LIRP 011645Z 10004KT 9999 FEW040 SCT070 04/M01 Q1015 NOSIG",
      "taf": "TAF LIRP 011100Z 0112/0212 12006KT 9999 BKN050"
    },
    {
      "icao": "LIRZ",
      "alert": "OK",
      "vis_m": 9999,
      "fzfg": false,
      "metar_trigger": false,
      "taf_trigger": false,
      "metar": "METAR LIRZ 011650Z AUTO VRB01KT 9999 OVC028/// 01/M00 Q1016",
      "taf": "TAF LIRZ 011100Z 0112/0212 VRB03KT 9999 FEW035"
    },
    {
      "icao": "LJLJ",
      "alert": "OK",
      "vis_m": 9999,
      "fzfg": false,
      "metar_trigger": false,
      "taf_trigger": false,
      "metar": "METAR LJLJ 011630Z 25005KT 9999 SCT038 BKN053 03/M04 Q1011 NOSIG",
      "taf": "TAF LJLJ 011700Z 0118/0218 VRB02KT 9999 SCT035 BKN055"
    },
    {
      "icao": "LKMT",
      "alert": "OK",
      "vis_m": 9999,
      "fzfg": false,
      "metar_trigger": false,
      "taf_trigger": false,
      "metar": "METAR LKMT 011630Z 21019KT CAVOK 01/M05 Q1000 NOSIG",
      "taf": "TAF LKMT 011100Z 0112/0212 22020KT 9999 BKN018"
    },
    {
      "icao": "LKPR",
      "alert": "OK",
      "vis_m": 9999,
      "fzfg": false,
      "metar_trigger": false,
      "taf_trigger": false,
      "metar": "METAR LKPR 011630Z 22019KT 9999 BKN023 00/M04 Q1000 NOSIG",
      "taf": "TAF LKPR 011400Z 0115/0221 22018KT 9999 BKN023"
    },
    {
      "icao": "LLBG",
      "alert": "OK",
      "vis_m": 9999,
      "fzfg": false,
      "metar_trigger": false,
      "taf_trigger": false,
      "metar": "METAR LLBG 011650Z 22004KT 180V260 9999 FEW030 15/13 Q1015 RERA TEMPO 5000 TSRA FEW025CB RMK SCT065",
      "taf": "TAF LLBG 011111Z 0112/0212 22012KT 9999 SCT030 BKN040"
    },
    {
      "icao": "LMML",
      "alert": "OK",
      "vis_m": 9999,
      "fzfg": false,
      "metar_trigger": false,
      "taf_trigger": false,
      "metar": "METAR LMML 011645Z 12009KT 090V150 9999 -RA SCT024 13/09 Q1021 NOSIG",
      "taf": "TAF LMML 011100Z 0112/0212 10015KT 9999 BKN023"
    },
    {
      "icao": "LOWW",
      "alert": "OK",
      "vis_m": 9999,
      "fzfg": false,
      "metar_trigger": false,
      "taf_trigger": false,
      "metar": "METAR LOWW 011650Z 17007KT CAVOK M01/M05 Q1005 TEMPO FM1800 24010KT",
      "taf": "TAF LOWW 011415Z 0115/0221 20007KT CAVOK TX06/0212Z TNM00/0122Z"
    },
    {
      "icao": "LPFR",
      "alert": "OK",
      "vis_m": 9999,
      "fzfg": false,
      "metar_trigger": false,
      "taf_trigger": false,
      "metar": "METAR LPFR 011630Z 13010KT 9999 FEW010 BKN035 17/15 Q1010",
      "taf": "TAF LPFR 011100Z 0112/0212 07012KT 9999 BKN020"
    },
    {
      "icao": "LPMA",
      "alert": "OK",
      "vis_m": 9999,
      "fzfg": false,
      "metar_trigger": false,
      "taf_trigger": false,
      "metar": "METAR LPMA 011630Z 21010KT 160V230 9999 FEW014 FEW015CB SCT033 18/13 Q1000",
      "taf": "TAF LPMA 011100Z 0112/0212 22018KT 9999 SCT015 SCT030"
    },
    {
      "icao": "LPPR",
      "alert": "OK",
      "vis_m": 9999,
      "fzfg": false,
      "metar_trigger": false,
      "taf_trigger": false,
      "metar": "METAR LPPR 011630Z 11012KT 080V140 9999 FEW040 11/07 Q1008",
      "taf": "TAF LPPR 011100Z 0112/0212 11015KT CAVOK"
    },
    {
      "icao": "LPPS",
      "alert": "OK",
      "vis_m": 9999,
      "fzfg": false,
      "metar_trigger": false,
      "taf_trigger": false,
      "metar": "METAR LPPS 011630Z 27009KT 9999 SCT011 18/15 Q1000",
      "taf": "TAF LPPS 011100Z 0112/0218 21017KT 9999 SCT012 SCT030"
    },
    {
      "icao": "LPPT",
      "alert": "OK",
      "vis_m": 9000,
      "fzfg": false,
      "metar_trigger": false,
      "taf_trigger": false,
      "metar": "METAR LPPT 011630Z 08007KT 9000 BKN006 12/12 Q1008",
      "taf": "TAF LPPT 011100Z 0112/0218 09008KT 9999 BKN030"
    },
    {
      "icao": "LQBK",
      "alert": "OK",
      "vis_m": 9999,
      "fzfg": false,
      "metar_trigger": false,
      "taf_trigger": false,
      "metar": "METAR LQBK 011630Z VRB01KT CAVOK 03/M03 Q1012 NOSIG",
      "taf": "TAF LQBK 011100Z 0112/0212 15005KT CAVOK TX11/0211Z TN00/0123Z"
    },
    {
      "icao": "LQSA",
      "alert": "OK",
      "vis_m": 9999,
      "fzfg": false,
      "metar_trigger": false,
      "taf_trigger": false,
      "metar": "METAR LQSA 011630Z 07007KT 040V110 CAVOK 03/M06 Q1015 NOSIG",
      "taf": "TAF LQSA 011100Z 0112/0212 VRB02KT CAVOK TX06/0212Z TNM01/0112Z"
    },
    {
      "icao": "LQTZ",
      "alert": "OK",
      "vis_m": 9999,
      "fzfg": false,
      "metar_trigger": false,
      "taf_trigger": false,
      "metar": "METAR LQTZ 011630Z VRB01KT CAVOK 04/M07 Q1013",
      "taf": ""
    },
    {
      "icao": "LRBC",
      "alert": "OK",
      "vis_m": 9999,
      "fzfg": false,
      "metar_trigger": false,
      "taf_trigger": false,
      "metar": "METAR LRBC 011630Z 17007KT 150V210 CAVOK M02/M11 Q1013",
      "taf": "TAF LRBC 011400Z 0115/0124 25012KT CAVOK"
    },
    {
      "icao": "LRBS",
      "alert": "OK",
      "vis_m": 9999,
      "fzfg": false,
      "metar_trigger": false,
      "taf_trigger": false,
      "metar": "METAR LRBS 011630Z 26005KT CAVOK M01/M08 Q1018 NOSIG",
      "taf": "TAF LRBS 011100Z 0112/0212 25012KT CAVOK"
    },
    {
      "icao": "LRBV",
      "alert": "OK",
      "vis_m": 9999,
      "fzfg": false,
      "metar_trigger": false,
      "taf_trigger": false,
      "metar": "METAR LRBV 011630Z 00000KT 9999 -SN SCT032 OVC057 M06/M08 Q1013",
      "taf": "TAF LRBV 011400Z 0115/0124 VRB04KT 9999 BKN030"
    },
    {
      "icao": "LRCL",
      "alert": "OK",
      "vis_m": 9999,
      "fzfg": false,
      "metar_trigger": false,
      "taf_trigger": false,
      "metar": "METAR LRCL 011630Z VRB02KT 9999 OVC039 M01/M05 Q1012",
      "taf": "TAF LRCL 011400Z 0115/0124 VRB04KT 9999 SCT040"
    },
    {
      "icao": "LRCV",
      "alert": "OK",
      "vis_m": 9999,
      "fzfg": false,
      "metar_trigger": false,
      "taf_trigger": false,
      "metar": "METAR LRCV 011630Z 19005KT 9999 SCT031 M01/M06 Q1017",
      "taf": "TAF LRCV 011400Z 0115/0124 21008KT 9999 SCT040"
    },
    {
      "icao": "LRIA",
      "alert": "OK",
      "vis_m": 9999,
      "fzfg": false,
      "metar_trigger": false,
      "taf_trigger": false,
      "metar": "METAR LRIA 011630Z 21005KT CAVOK M01/M10 Q1012",
      "taf": "TAF LRIA 011400Z 0115/0124 21008KT CAVOK"
    },
    {
      "icao": "LROP",
      "alert": "OK",
      "vis_m": 9999,
      "fzfg": false,
      "metar_trigger": false,
      "taf_trigger": false,
      "metar": "METAR LROP 011630Z 24006KT CAVOK M02/M10 Q1018 NOSIG",
      "taf": "TAF LROP 011100Z 0112/0212 25012KT CAVOK"
    },
    {
      "icao": "LRSB",
      "alert": "OK",
      "vis_m": 9999,
      "fzfg": false,
      "metar_trigger": false,
      "taf_trigger": false,
      "metar": "METAR LRSB 011630Z VRB02KT 9999 SCT037 OVC065 M03/M05 Q1013 NOSIG",
      "taf": "TAF LRSB 011100Z 0112/0212 VRB04KT 9999 BKN045"
    },
    {
      "icao": "LRSM",
      "alert": "OK",
      "vis_m": 9999,
      "fzfg": false,
      "metar_trigger": false,
      "taf_trigger": false,
      "metar": "METAR LRSM 011630Z AUTO 15005KT 9999 FEW029/// OVC080/// M02/M05 Q1011",
      "taf": ""
    },
    {
      "icao": "LRSV",
      "alert": "OK",
      "vis_m": 9999,
      "fzfg": false,
      "metar_trigger": false,
      "taf_trigger": false,
      "metar": "METAR LRSV 011630Z 22012KT CAVOK M04/M10 Q1008",
      "taf": "TAF LRSV 011400Z 0115/0124 23010KT CAVOK"
    },
    {
      "icao": "LRTM",
      "alert": "OK",
      "vis_m": 9999,
      "fzfg": false,
      "metar_trigger": false,
      "taf_trigger": false,
      "metar": "METAR LRTM 011630Z 20006KT 9999 SCT035 M01/M05 Q1013",
      "taf": "TAF LRTM 011400Z 0115/0124 21006KT 9999 BKN035"
    },
    {
      "icao": "LRTR",
      "alert": "OK",
      "vis_m": 9999,
      "fzfg": false,
      "metar_trigger": false,
      "taf_trigger": false,
      "metar": "METAR LRTR 011630Z 12006KT CAVOK M04/M06 Q1014",
      "taf": "TAF LRTR 011100Z 0112/0212 19012KT 9999 BKN030"
    },
    {
      "icao": "LTAC",
      "alert": "OK",
      "vis_m": 9999,
      "fzfg": false,
      "metar_trigger": false,
      "taf_trigger": false,
      "metar": "METAR LTAC 011650Z 22007KT 9999 SCT040 M05/M10 Q1017 NOSIG",
      "taf": "TAF LTAC 011640Z 0118/0218 29012KT 9999 SCT040"
    },
    {
      "icao": "LTFM",
      "alert": "OK",
      "vis_m": 9999,
      "fzfg": false,
      "metar_trigger": false,
      "taf_trigger": false,
      "metar": "METAR LTFM 011650Z 24006KT 160V310 9999 FEW040 M00/M08 Q1023 NOSIG",
      "taf": "TAF LTFM 011640Z 0118/0224 21008KT CAVOK"
    },
    {
      "icao": "LUKK",
      "alert": "OK",
      "vis_m": 9999,
      "fzfg": false,
      "metar_trigger": false,
      "taf_trigger": false,
      "metar": "METAR LUKK 011630Z 23006KT CAVOK M03/M11 Q1013 NOSIG",
      "taf": "TAF LUKK 011109Z 0112/0212 25012KT CAVOK"
    },
    {
      "icao": "LWOH",
      "alert": "OK",
      "vis_m": 9999,
      "fzfg": false,
      "metar_trigger": false,
      "taf_trigger": false,
      "metar": "METAR LWOH 011650Z 36003KT 280V050 CAVOK M03/M09 Q1019",
      "taf": "TAF LWOH 011425Z 0115/0215 VRB03KT CAVOK"
    },
    {
      "icao": "LWSK",
      "alert": "OK",
      "vis_m": 9999,
      "fzfg": false,
      "metar_trigger": false,
      "taf_trigger": false,
      "metar": "METAR LWSK 011650Z VRB02KT CAVOK M03/M11 Q1021 NOSIG",
      "taf": "TAF LWSK 011425Z 0115/0215 VRB02KT CAVOK"
    },
    {
      "icao": "LYBE",
      "alert": "OK",
      "vis_m": 9999,
      "fzfg": false,
      "metar_trigger": false,
      "taf_trigger": false,
      "metar": "METAR LYBE 011630Z 16008KT CAVOK 04/M07 Q1014 NOSIG",
      "taf": "TAF LYBE 011100Z 0112/0212 19008KT CAVOK TX11/0212Z TN00/0118Z"
    },
    {
      "icao": "LYNI",
      "alert": "OK",
      "vis_m": 9999,
      "fzfg": false,
      "metar_trigger": false,
      "taf_trigger": false,
      "metar": "METAR LYNI 011630Z 11006KT 080V140 CAVOK M00/M09 Q1018 NOSIG",
      "taf": "TAF LYNI 011100Z 0112/0212 18005KT 9999 SCT040 TX08/0212Z TNM02/0122Z"
    },
    {
      "icao": "LYPG",
      "alert": "OK",
      "vis_m": 9999,
      "fzfg": false,
      "metar_trigger": false,
      "taf_trigger": false,
      "metar": "METAR LYPG 011630Z VRB02KT CAVOK 00/M11 Q1022 NOSIG",
      "taf": "TAF LYPG 011100Z 0112/0212 18005KT CAVOK TX07/0113Z TNM02/0121Z"
    },
    {
      "icao": "LZIB",
      "alert": "OK",
      "vis_m": 9999,
      "fzfg": false,
      "metar_trigger": false,
      "taf_trigger": false,
      "metar": "METAR LZIB 011630Z 02003KT CAVOK M01/M04 Q1006 NOSIG",
      "taf": ""
    },
    {
      "icao": "LZKZ",
      "alert": "OK",
      "vis_m": 9999,
      "fzfg": false,
      "metar_trigger": false,
      "taf_trigger": false,
      "metar": "METAR LZKZ 011630Z 22008KT 9999 FEW012 M01/M03 Q1007 NOSIG",
      "taf": ""
    },
    {
      "icao": "LZTT",
      "alert": "OK",
      "vis_m": 9999,
      "fzfg": false,
      "metar_trigger": false,
      "taf_trigger": false,
      "metar": "METAR LZTT 011630Z 22010KT 9999 SCT030 M02/M06 Q1001 NOSIG",
      "taf": ""
    },
    {
      "icao": "OEJN",
      "alert": "OK",
      "vis_m": 9999,
      "fzfg": false,
      "metar_trigger": false,
      "taf_trigger": false,
      "metar": "METAR OEJN 011700Z 34007KT CAVOK 25/13 Q1015 NOSIG",
      "taf": "TAF OEJN 011100Z 0112/0218 33010KT CAVOK"
    },
    {
      "icao": "OEMA",
      "alert": "OK",
      "vis_m": 9999,
      "fzfg": false,
      "metar_trigger": false,
      "taf_trigger": false,
      "metar": "METAR OEMA 011700Z 20006KT CAVOK 21/M03 Q1019 NOSIG",
      "taf": "TAF OEMA 011100Z 0112/0218 30008KT CAVOK"
    },
    {
      "icao": "OJAI",
      "alert": "OK",
      "vis_m": 4000,
      "fzfg": false,
      "metar_trigger": false,
      "taf_trigger": false,
      "metar": "METAR OJAI 011600Z 25014KT 4000 HZ NSC 11/04 Q1014 NOSIG",
      "taf": ""
    },
    {
      "icao": "OMAA",
      "alert": "OK",
      "vis_m": 9999,
      "fzfg": false,
      "metar_trigger": false,
      "taf_trigger": false,
      "metar": "METAR OMAA 011600Z 30006KT 9999 SCT035 20/13 Q1018 NOSIG",
      "taf": "TAF OMAA 011700Z 0118/0300 VRB02KT 8000 FEW035"
    },
    {
      "icao": "OMDB",
      "alert": "OK",
      "vis_m": 9999,
      "fzfg": false,
      "metar_trigger": false,
      "taf_trigger": false,
      "metar": "METAR OMDB 011630Z 29007KT CAVOK 21/10 Q1018 NOSIG",
      "taf": "TAF OMDB 011700Z 0118/0300 18005KT 8000 NSC"
    },
    {
      "icao": "UAAA",
      "alert": "OK",
      "vis_m": 5000,
      "fzfg": false,
      "metar_trigger": false,
      "taf_trigger": false,
      "metar": "METAR UAAA 011630Z VRB01MPS 5000 BR OVC005 M00/M01 Q1020 NOSIG RMK QBB170",
      "taf": "TAF UAAA 011106Z 0112/0212 02003MPS 1200 BR BKN004 OVC011 TX02/0209Z TNM03/0202Z"
    },
    {
      "icao": "UBBB",
      "alert": "OK",
      "vis_m": 9999,
      "fzfg": false,
      "metar_trigger": false,
      "taf_trigger": false,
      "metar": "METAR UBBB 011630Z 32012KT 9999 SCT029 05/02 Q1011 NOSIG",
      "taf": "TAF UBBB 011045Z 0112/0212 35018KT 9999 BKN025 TX05/0112Z TN04/0203Z"
    },
    {
      "icao": "UDSG",
      "alert": "OK",
      "vis_m": 1900,
      "fzfg": false,
      "metar_trigger": false,
      "taf_trigger": false,
      "metar": "METAR UDSG 011630Z 23004KT 1900 R02/P2000U SN BR OVC020 M04/M04 Q1003 NOSIG",
      "taf": ""
    },
    {
      "icao": "UDYZ",
      "alert": "OK",
      "vis_m": 1500,
      "fzfg": false,
      "metar_trigger": false,
      "taf_trigger": false,
      "metar": "METAR UDYZ 011630Z 24005KT 1500 1400N R08/P2000U BR BKN046 M02/M02 Q1005 NOSIG",
      "taf": "TAF UDYZ 011100Z 0112/0212 24006KT 3500 BR BKN020"
    },
    {
      "icao": "UGKO",
      "alert": "OK",
      "vis_m": 8000,
      "fzfg": false,
      "metar_trigger": false,
      "taf_trigger": false,
      "metar": "METAR UGKO 011630Z 25010KT 8000 -RASN SCT006 BKN019 OVC021 01/00 Q1009 NOSIG",
      "taf": "TAF UGKO 011100Z 0112/0212 26007KT 9999 BKN050 TX03/0211Z TNM03/0204Z"
    }
  ]
}