{
  "ts_utc": "2026-06-11T09:18:36Z",
  "threshold_m": 150,
  "source": "stations_override.txt (ICAO list) + aviationweather.gov (METAR/TAF raw)",
  "station_count": 159,
  "stations": [
    {
      "icao": "BIKF",
      "alert": "OK",
      "vis_m": 9999,
      "fzfg": false,
      "metar_trigger": false,
      "taf_trigger": false,
      "metar": "METAR BIKF 110900Z 07009KT 9999 FEW015 SCT230 11/07 Q1000",
      "taf": "TAF BIKF 110714Z 1109/1209 09007KT 9999 FEW024 SCT036 TX15/1115Z TN08/1204Z"
    },
    {
      "icao": "BKPR",
      "alert": "OK",
      "vis_m": 9999,
      "fzfg": false,
      "metar_trigger": false,
      "taf_trigger": false,
      "metar": "METAR BKPR 110900Z 34007KT 310V010 CAVOK 26/11 Q1017 NOSIG",
      "taf": "TAF BKPR 110530Z 1106/1206 03008KT 9999 FEW050"
    },
    {
      "icao": "EBCI",
      "alert": "OK",
      "vis_m": 9999,
      "fzfg": false,
      "metar_trigger": false,
      "taf_trigger": false,
      "metar": "METAR EBCI 110850Z 24009KT 9999 SCT027 15/08 Q1022 NOSIG",
      "taf": "TAF EBCI 110510Z 1106/1212 24010KT 9999 FEW025 SCT045"
    },
    {
      "icao": "EDDB",
      "alert": "OK",
      "vis_m": 9999,
      "fzfg": false,
      "metar_trigger": false,
      "taf_trigger": false,
      "metar": "METAR EDDB 110850Z AUTO 28010KT 250V350 9999 SCT034 SCT041 18/08 Q1017 NOSIG",
      "taf": "TAF EDDB 110500Z 1106/1206 28010KT 9999 SCT020 BKN030"
    },
    {
      "icao": "EDDH",
      "alert": "OK",
      "vis_m": 9999,
      "fzfg": false,
      "metar_trigger": false,
      "taf_trigger": false,
      "metar": "METAR EDDH 110850Z AUTO 27005KT 240V300 9999 SHRA FEW010 SCT047 FEW///CB 12/10 Q1018 BECMG NSW",
      "taf": ""
    },
    {
      "icao": "EDDK",
      "alert": "OK",
      "vis_m": 9999,
      "fzfg": false,
      "metar_trigger": false,
      "taf_trigger": false,
      "metar": "METAR EDDK 110850Z AUTO 25009KT 220V280 9999 SCT023 SCT031 15/09 Q1021 NOSIG",
      "taf": "TAF EDDK 110500Z 1106/1212 21005KT 9999 SCT040"
    },
    {
      "icao": "EDDN",
      "alert": "OK",
      "vis_m": 9999,
      "fzfg": false,
      "metar_trigger": false,
      "taf_trigger": false,
      "metar": "METAR EDDN 110850Z AUTO 28009KT 250V310 9999 SHRA FEW018 SCT027 FEW///CB 14/08 Q1021 TEMPO NSW",
      "taf": ""
    },
    {
      "icao": "EDDS",
      "alert": "OK",
      "vis_m": 9999,
      "fzfg": false,
      "metar_trigger": false,
      "taf_trigger": false,
      "metar": "METAR EDDS 110850Z AUTO VRB05KT 9999 -SHRA FEW021 SCT032 FEW///TCU 12/10 Q1021 RESHRA",
      "taf": "TAF EDDS 110500Z 1106/1206 VRB03KT 9999 SCT030"
    },
    {
      "icao": "EDFH",
      "alert": "OK",
      "vis_m": 9999,
      "fzfg": false,
      "metar_trigger": false,
      "taf_trigger": false,
      "metar": "METAR EDFH 110850Z 26008KT 230V310 9999 FEW009 SCT011 OVC015 10/08 Q1022",
      "taf": ""
    },
    {
      "icao": "EDJA",
      "alert": "OK",
      "vis_m": 9999,
      "fzfg": false,
      "metar_trigger": false,
      "taf_trigger": false,
      "metar": "METAR EDJA 110850Z 28012KT 9999 FEW021 SCT027 BKN035 12/08 Q1023",
      "taf": "TAF EDJA 110800Z 1109/1118 25010KT 9999 SCT015 BKN020"
    },
    {
      "icao": "EDLW",
      "alert": "OK",
      "vis_m": 9999,
      "fzfg": false,
      "metar_trigger": false,
      "taf_trigger": false,
      "metar": "METAR EDLW 110850Z 23009KT 9999 FEW023 BKN029 13/09 Q1020",
      "taf": "TAF EDLW 110500Z 1106/1206 24008KT 9999 SCT045"
    },
    {
      "icao": "EDNY",
      "alert": "OK",
      "vis_m": 9999,
      "fzfg": false,
      "metar_trigger": false,
      "taf_trigger": false,
      "metar": "METAR EDNY 110850Z 24014KT 210V270 9999 SCT023 13/08 Q1024",
      "taf": "TAF EDNY 110800Z 1109/1118 24010KT 9999 SCT020"
    },
    {
      "icao": "EDSB",
      "alert": "OK",
      "vis_m": 9999,
      "fzfg": false,
      "metar_trigger": false,
      "taf_trigger": false,
      "metar": "METAR EDSB 110850Z 26003KT 220V300 9999 BKN027 15/09 Q1023",
      "taf": "TAF EDSB 110500Z 1106/1206 23007KT 9999 FEW030"
    },
    {
      "icao": "EETN",
      "alert": "OK",
      "vis_m": 9999,
      "fzfg": false,
      "metar_trigger": false,
      "taf_trigger": false,
      "metar": "METAR EETN 110850Z VRB02KT 9999 FEW039 18/09 Q1017 NOSIG",
      "taf": "TAF EETN 110530Z 1106/1206 16006KT CAVOK"
    },
    {
      "icao": "EFTU",
      "alert": "OK",
      "vis_m": 9999,
      "fzfg": false,
      "metar_trigger": false,
      "taf_trigger": false,
      "metar": "METAR EFTU 110850Z AUTO 18006KT 090V250 9999 SCT032 17/08 Q1016",
      "taf": "TAF EFTU 110838Z 1109/1209 17005KT CAVOK"
    },
    {
      "icao": "EGBB",
      "alert": "OK",
      "vis_m": 6000,
      "fzfg": false,
      "metar_trigger": false,
      "taf_trigger": false,
      "metar": "METAR EGBB 110850Z 20007KT 170V240 6000 RA BKN009 11/10 Q1017",
      "taf": "TAF EGBB 110455Z 1106/1206 20007KT 9999 SCT045"
    },
    {
      "icao": "EGGP",
      "alert": "OK",
      "vis_m": 9000,
      "fzfg": false,
      "metar_trigger": false,
      "taf_trigger": false,
      "metar": "METAR EGGP 110850Z 16010KT 9000 -RA SCT008 OVC040 11/10 Q1014",
      "taf": "TAF EGGP 110500Z 1106/1206 19006KT 9999 FEW030"
    },
    {
      "icao": "EGGW",
      "alert": "OK",
      "vis_m": 9999,
      "fzfg": false,
      "metar_trigger": false,
      "taf_trigger": false,
      "metar": "METAR EGGW 110850Z 22007KT 9999 -RA FEW005 11/10 Q1019",
      "taf": ""
    },
    {
      "icao": "EGKK",
      "alert": "OK",
      "vis_m": 9999,
      "fzfg": false,
      "metar_trigger": false,
      "taf_trigger": false,
      "metar": "METAR EGKK 110850Z 21007KT 180V240 9999 -RA FEW016 13/11 Q1021",
      "taf": "TAF EGKK 110455Z 1106/1212 22009KT 9999 FEW040"
    },
    {
      "icao": "EGNM",
      "alert": "OK",
      "vis_m": 9000,
      "fzfg": false,
      "metar_trigger": false,
      "taf_trigger": false,
      "metar": "METAR EGNM 110850Z 17007KT 9000 -RA SCT007 BKN016 10/09 Q1015",
      "taf": "TAF EGNM 110459Z 1106/1206 19005KT 9999 FEW020"
    },
    {
      "icao": "EGPD",
      "alert": "OK",
      "vis_m": 9999,
      "fzfg": false,
      "metar_trigger": false,
      "taf_trigger": false,
      "metar": "METAR EGPD 110850Z COR AUTO 19011KT 9999 NCD 13/07 Q1010 NOSIG",
      "taf": "TAF EGPD 110453Z 1106/1206 VRB03KT 9999 FEW045"
    },
    {
      "icao": "EGPF",
      "alert": "OK",
      "vis_m": 9999,
      "fzfg": false,
      "metar_trigger": false,
      "taf_trigger": false,
      "metar": "METAR EGPF 110850Z AUTO 09006KT 070V130 9999 -RA BKN018/// OVC022/// //////TCU 11/09 Q1010",
      "taf": ""
    },
    {
      "icao": "EHBK",
      "alert": "OK",
      "vis_m": 9999,
      "fzfg": false,
      "metar_trigger": false,
      "taf_trigger": false,
      "metar": "METAR EHBK 110855Z AUTO 24007KT 200V300 9999 SCT022 BKN025 BKN032 14/09 Q1021 NOSIG",
      "taf": "TAF EHBK 110507Z 1106/1212 22005KT 9999 BKN035"
    },
    {
      "icao": "EHEH",
      "alert": "OK",
      "vis_m": 9999,
      "fzfg": false,
      "metar_trigger": false,
      "taf_trigger": false,
      "metar": "METAR EHEH 110855Z AUTO 24007KT 170V290 9999 FEW024 SCT027 OVC076 15/09 Q1020 BLU NOSIG RMK TREND REMOTE BY EHWX",
      "taf": "TAF EHEH 110506Z 1106/1212 21003KT CAVOK"
    },
    {
      "icao": "EKBI",
      "alert": "OK",
      "vis_m": 9999,
      "fzfg": false,
      "metar_trigger": false,
      "taf_trigger": false,
      "metar": "METAR EKBI 110851Z 13003KT 9999 VCSH SCT020CB BKN050 13/09 Q1017",
      "taf": "TAF EKBI 110827Z 1109/1209 VRB03KT 9999 SCT030"
    },
    {
      "icao": "EKCH",
      "alert": "OK",
      "vis_m": 9999,
      "fzfg": false,
      "metar_trigger": false,
      "taf_trigger": false,
      "metar": "METAR EKCH 110850Z AUTO 23008KT 190V260 9999 FEW100/// 16/06 Q1016 TEMPO SCT020CB",
      "taf": "TAF EKCH 110827Z 1109/1209 VRB03KT 9999 SCT030"
    },
    {
      "icao": "ENAL",
      "alert": "OK",
      "vis_m": 9999,
      "fzfg": false,
      "metar_trigger": false,
      "taf_trigger": false,
      "metar": "METAR ENAL 110850Z 19013KT 150V220 9999 BKN047 13/06 Q1010",
      "taf": "TAF ENAL 110800Z 1109/1118 20009KT 9999 SCT040"
    },
    {
      "icao": "ENBR",
      "alert": "OK",
      "vis_m": 9999,
      "fzfg": false,
      "metar_trigger": false,
      "taf_trigger": false,
      "metar": "METAR ENBR 110850Z 14014KT 9999 FEW021CB SCT047 12/07 Q1013 NOSIG RMK WIND 1200FT 15013KT",
      "taf": "TAF ENBR 110500Z 1106/1206 14008KT 9999 FEW010 BKN020"
    },
    {
      "icao": "ENGM",
      "alert": "OK",
      "vis_m": 9999,
      "fzfg": false,
      "metar_trigger": false,
      "taf_trigger": false,
      "metar": "METAR ENGM 110850Z 18008KT 150V220 9999 FEW030 15/07 Q1012 NOSIG",
      "taf": "TAF ENGM 110500Z 1106/1206 17005KT 9999 FEW020"
    },
    {
      "icao": "ENHD",
      "alert": "OK",
      "vis_m": 9999,
      "fzfg": false,
      "metar_trigger": false,
      "taf_trigger": false,
      "metar": "METAR ENHD 110850Z 20012KT 9999 FEW015TCU SCT025 12/07 Q1013",
      "taf": "TAF ENHD 110800Z 1109/1118 16008KT 9999 SCT035"
    },
    {
      "icao": "ENTC",
      "alert": "OK",
      "vis_m": 9999,
      "fzfg": false,
      "metar_trigger": false,
      "taf_trigger": false,
      "metar": "METAR ENTC 110850Z 29014KT 9999 -RA FEW006 SCT015 BKN020 11/09 Q1006 TEMPO SHRA FEW020CB BKN030 RMK WIND 2600FT 26007KT",
      "taf": ""
    },
    {
      "icao": "ENTO",
      "alert": "OK",
      "vis_m": 9999,
      "fzfg": false,
      "metar_trigger": false,
      "taf_trigger": false,
      "metar": "METAR ENTO 110850Z 21007KT 180V250 CAVOK 15/03 Q1014 NOSIG",
      "taf": "TAF ENTO 110500Z 1106/1206 24005KT CAVOK"
    },
    {
      "icao": "ENVA",
      "alert": "OK",
      "vis_m": 9999,
      "fzfg": false,
      "metar_trigger": false,
      "taf_trigger": false,
      "metar": "METAR ENVA 110850Z 05002KT 9999 SCT047 15/07 Q1012 NOSIG RMK WIND 670FT 07006KT",
      "taf": ""
    },
    {
      "icao": "ENZV",
      "alert": "OK",
      "vis_m": 9999,
      "fzfg": false,
      "metar_trigger": false,
      "taf_trigger": false,
      "metar": "METAR ENZV 110850Z 19011KT 9999 FEW026CB SCT034 14/08 Q1014 NOSIG",
      "taf": "TAF ENZV 110500Z 1106/1206 15008KT 9999 FEW030 SCT045"
    },
    {
      "icao": "EPGD",
      "alert": "OK",
      "vis_m": 9999,
      "fzfg": false,
      "metar_trigger": false,
      "taf_trigger": false,
      "metar": "METAR EPGD 110900Z 35010KT 9999 -RA SCT007 BKN045 11/10 Q1014",
      "taf": "TAF EPGD 110530Z 1106/1206 30010KT 9999 BKN040"
    },
    {
      "icao": "EPKK",
      "alert": "OK",
      "vis_m": 9999,
      "fzfg": false,
      "metar_trigger": false,
      "taf_trigger": false,
      "metar": "METAR EPKK 110900Z 25007KT 9999 BKN021 13/10 Q1017",
      "taf": "TAF EPKK 110830Z 1109/1209 28006KT 9999 BKN026"
    },
    {
      "icao": "EPKT",
      "alert": "OK",
      "vis_m": 9999,
      "fzfg": false,
      "metar_trigger": false,
      "taf_trigger": false,
      "metar": "METAR EPKT 110900Z 29011KT 260V320 9999 SCT016 14/09 Q1016",
      "taf": "TAF EPKT 110530Z 1106/1206 32010KT 9999 BKN005 OVC008"
    },
    {
      "icao": "EPLB",
      "alert": "OK",
      "vis_m": 9999,
      "fzfg": false,
      "metar_trigger": false,
      "taf_trigger": false,
      "metar": "METAR EPLB 110900Z 25014KT 9999 SCT010 BKN013 OVC023 15/13 Q1013",
      "taf": ""
    },
    {
      "icao": "EPMO",
      "alert": "OK",
      "vis_m": 3100,
      "fzfg": false,
      "metar_trigger": false,
      "taf_trigger": false,
      "metar": "METAR EPMO 110900Z 28017KT 3100 -DZ BR BKN005 12/12 Q1012 REDZ",
      "taf": ""
    },
    {
      "icao": "EPPO",
      "alert": "OK",
      "vis_m": 9999,
      "fzfg": false,
      "metar_trigger": false,
      "taf_trigger": false,
      "metar": "METAR EPPO 110900Z 25007KT 9999 -SHRA BKN020CB 14/11 Q1016",
      "taf": ""
    },
    {
      "icao": "EPRA",
      "alert": "OK",
      "vis_m": 9999,
      "fzfg": false,
      "metar_trigger": false,
      "taf_trigger": false,
      "metar": "METAR EPRA 110900Z 29012KT 260V330 9999 BKN012 13/10 Q1014",
      "taf": "TAF EPRA 110830Z 1109/1118 27010KT 9999 BKN012"
    },
    {
      "icao": "EPRZ",
      "alert": "OK",
      "vis_m": 9999,
      "fzfg": false,
      "metar_trigger": false,
      "taf_trigger": false,
      "metar": "METAR EPRZ 110900Z 27014G24KT 9999 BKN016 14/11 Q1015",
      "taf": ""
    },
    {
      "icao": "EPSC",
      "alert": "OK",
      "vis_m": 9999,
      "fzfg": false,
      "metar_trigger": false,
      "taf_trigger": false,
      "metar": "METAR EPSC 110900Z 30006KT 270V330 9999 FEW018 SCT026TCU BKN044 17/11 Q1016",
      "taf": ""
    },
    {
      "icao": "EPSY",
      "alert": "OK",
      "vis_m": 2800,
      "fzfg": false,
      "metar_trigger": false,
      "taf_trigger": false,
      "metar": "METAR EPSY 110900Z 32012G22KT 290V360 2800 -RA BR SCT001 OVC005 12/11 Q1009",
      "taf": "TAF EPSY 110830Z 1109/1118 33010KT 7000 -RA BKN005 BKN015"
    },
    {
      "icao": "EPWA",
      "alert": "OK",
      "vis_m": 3500,
      "fzfg": false,
      "metar_trigger": false,
      "taf_trigger": false,
      "metar": "METAR EPWA 110900Z 28015KT 3500 -RA BR BKN006 OVC013 12/12 Q1012 BECMG 7000 BKN012",
      "taf": ""
    },
    {
      "icao": "EPWR",
      "alert": "OK",
      "vis_m": 9999,
      "fzfg": false,
      "metar_trigger": false,
      "taf_trigger": false,
      "metar": "METAR EPWR 110900Z 28010KT 9999 BKN013 BKN043 14/11 Q1017",
      "taf": "TAF EPWR 110830Z 1109/1209 30010KT 9999 BKN017"
    },
    {
      "icao": "ESGG",
      "alert": "OK",
      "vis_m": 9999,
      "fzfg": false,
      "metar_trigger": false,
      "taf_trigger": false,
      "metar": "METAR ESGG 110850Z 27003KT 220V330 9999 FEW034 14/06 Q1015",
      "taf": "TAF ESGG 110830Z 1109/1209 28010KT 9999 SCT030"
    },
    {
      "icao": "ESKN",
      "alert": "OK",
      "vis_m": 9999,
      "fzfg": false,
      "metar_trigger": false,
      "taf_trigger": false,
      "metar": "METAR ESKN 110850Z VRB02KT 9999 SCT037 BKN062 16/08 Q1015",
      "taf": "TAF ESKN 110830Z 1109/1209 20005KT 9999 SCT040"
    },
    {
      "icao": "ESMS",
      "alert": "OK",
      "vis_m": 9999,
      "fzfg": false,
      "metar_trigger": false,
      "taf_trigger": false,
      "metar": "METAR ESMS 110850Z VRB03KT 9999 SCT036CB 16/08 Q1015",
      "taf": "TAF ESMS 110827Z 1109/1209 VRB04KT 9999 SCT030"
    },
    {
      "icao": "ESSA",
      "alert": "OK",
      "vis_m": 9999,
      "fzfg": false,
      "metar_trigger": false,
      "taf_trigger": false,
      "metar": "METAR ESSA 110850Z 22006KT 160V260 9999 SCT046 16/06 Q1015 NOSIG",
      "taf": "TAF ESSA 110830Z 1109/1209 24007KT 9999 SCT045"
    },
    {
      "icao": "EYKA",
      "alert": "OK",
      "vis_m": 9999,
      "fzfg": false,
      "metar_trigger": false,
      "taf_trigger": false,
      "metar": "METAR EYKA 110850Z 09011KT 9999 -SHRA BKN007CB 16/15 Q1009",
      "taf": ""
    },
    {
      "icao": "EYPA",
      "alert": "OK",
      "vis_m": 9999,
      "fzfg": false,
      "metar_trigger": false,
      "taf_trigger": false,
      "metar": "METAR EYPA 110850Z 01008KT 9999 -SHRA FEW060CB 11/09 Q1012",
      "taf": "TAF EYPA 110500Z 1106/1206 VRB03KT 5000 RA BKN045"
    },
    {
      "icao": "EYVI",
      "alert": "OK",
      "vis_m": 9999,
      "fzfg": false,
      "metar_trigger": false,
      "taf_trigger": false,
      "metar": "METAR EYVI 110850Z 10009KT 050V120 9999 FEW010 20/17 Q1010 NOSIG",
      "taf": "TAF EYVI 110520Z 1106/1206 08010KT 8000 SCT045"
    },
    {
      "icao": "GCFV",
      "alert": "OK",
      "vis_m": 9999,
      "fzfg": false,
      "metar_trigger": false,
      "taf_trigger": false,
      "metar": "METAR GCFV 110900Z 02010KT 350V050 9999 FEW017 BKN020 21/15 Q1017",
      "taf": "TAF GCFV 110800Z 1109/1209 04015KT 9999 FEW020 TX25/1114Z TN18/1206Z"
    },
    {
      "icao": "GCLP",
      "alert": "OK",
      "vis_m": 9999,
      "fzfg": false,
      "metar_trigger": false,
      "taf_trigger": false,
      "metar": "METAR GCLP 110900Z 02015KT 9999 FEW020 21/15 Q1018 NOSIG",
      "taf": "TAF GCLP 110800Z 1109/1209 03020KT 9999 FEW025 TX26/1114Z TN19/1206Z"
    },
    {
      "icao": "GCTS",
      "alert": "OK",
      "vis_m": 9999,
      "fzfg": false,
      "metar_trigger": false,
      "taf_trigger": false,
      "metar": "METAR GCTS 110900Z 09011KT 9999 FEW020 22/15 Q1018 NOSIG",
      "taf": "TAF GCTS 110800Z 1109/1209 VRB05KT 9999 FEW020 TX26/1114Z TN18/1206Z"
    },
    {
      "icao": "GMAD",
      "alert": "OK",
      "vis_m": 8000,
      "fzfg": false,
      "metar_trigger": false,
      "taf_trigger": false,
      "metar": "METAR GMAD 110900Z 23005KT 200V280 8000 SCT006 21/16 Q1015 NOSIG",
      "taf": "TAF GMAD 110500Z 1106/1212 18004KT 8000 SCT005"
    },
    {
      "icao": "GMMN",
      "alert": "OK",
      "vis_m": 9999,
      "fzfg": false,
      "metar_trigger": false,
      "taf_trigger": false,
      "metar": "METAR GMMN 110900Z 27006KT 190V320 9999 SCT016 25/19 Q1015 NOSIG",
      "taf": ""
    },
    {
      "icao": "GMMX",
      "alert": "OK",
      "vis_m": 9999,
      "fzfg": false,
      "metar_trigger": false,
      "taf_trigger": false,
      "metar": "METAR GMMX 110900Z VRB03KT CAVOK 27/17 Q1016 NOSIG",
      "taf": "TAF GMMX 110500Z 1106/1212 24006KT 8000 NSC"
    },
    {
      "icao": "HEGN",
      "alert": "OK",
      "vis_m": 9999,
      "fzfg": false,
      "metar_trigger": false,
      "taf_trigger": false,
      "metar": "METAR HEGN 110800Z 36017KT CAVOK 33/18 Q1011 NOSIG",
      "taf": "TAF HEGN 110500Z 1106/1212 35014KT CAVOK"
    },
    {
      "icao": "HEMA",
      "alert": "OK",
      "vis_m": 9999,
      "fzfg": false,
      "metar_trigger": false,
      "taf_trigger": false,
      "metar": "METAR HEMA 110800Z 33020KT CAVOK 35/15 Q1010 NOSIG",
      "taf": "TAF HEMA 110500Z 1106/1212 36014KT CAVOK"
    },
    {
      "icao": "HESH",
      "alert": "OK",
      "vis_m": 9999,
      "fzfg": false,
      "metar_trigger": false,
      "taf_trigger": false,
      "metar": "METAR HESH 110800Z 34012KT CAVOK 34/15 Q1010 NOSIG",
      "taf": "TAF HESH 110500Z 1106/1212 01012KT CAVOK"
    },
    {
      "icao": "HESX",
      "alert": "OK",
      "vis_m": 9999,
      "fzfg": false,
      "metar_trigger": false,
      "taf_trigger": false,
      "metar": "METAR HESX 110800Z 01006KT CAVOK 29/16 Q1013 NOSIG",
      "taf": "TAF HESX 110500Z 1106/1212 36008KT CAVOK"
    },
    {
      "icao": "LATI",
      "alert": "OK",
      "vis_m": null,
      "fzfg": false,
      "metar_trigger": false,
      "taf_trigger": false,
      "metar": "",
      "taf": "TAF LATI 110500Z 1106/1206 VRB05KT CAVOK TX33/1112Z TN16/1204Z"
    },
    {
      "icao": "LBPD",
      "alert": "OK",
      "vis_m": 9999,
      "fzfg": false,
      "metar_trigger": false,
      "taf_trigger": false,
      "metar": "METAR LBPD 110900Z AUTO VRB04KT 9999 NCD 26/16 Q1015 NOSIG",
      "taf": "TAF LBPD 110500Z 1106/1206 VRB04KT 9999 SCT060"
    },
    {
      "icao": "LBSF",
      "alert": "OK",
      "vis_m": 9999,
      "fzfg": false,
      "metar_trigger": false,
      "taf_trigger": false,
      "metar": "METAR LBSF 110900Z VRB04KT CAVOK 25/14 Q1016 NOSIG",
      "taf": "TAF LBSF 110500Z 1106/1206 11008KT 9999 SCT060"
    },
    {
      "icao": "LBWN",
      "alert": "OK",
      "vis_m": 9999,
      "fzfg": false,
      "metar_trigger": false,
      "taf_trigger": false,
      "metar": "METAR LBWN 110900Z 11009KT 070V130 CAVOK 25/19 Q1015 NOSIG",
      "taf": "TAF LBWN 110500Z 1106/1206 VRB04KT CAVOK"
    },
    {
      "icao": "LCLK",
      "alert": "OK",
      "vis_m": 9999,
      "fzfg": false,
      "metar_trigger": false,
      "taf_trigger": false,
      "metar": "METAR LCLK 110900Z 19012KT 9999 FEW030CB 29/23 Q1011 NOSIG RMK CB TO W",
      "taf": "TAF LCLK 110530Z 1106/1206 08005KT 9999 FEW030"
    },
    {
      "icao": "LCPH",
      "alert": "OK",
      "vis_m": 9999,
      "fzfg": false,
      "metar_trigger": false,
      "taf_trigger": false,
      "metar": "METAR LCPH 110900Z 27010KT 250V320 9999 FEW025 FEW030TCU 27/21 Q1012 NOSIG",
      "taf": "TAF LCPH 110530Z 1106/1206 36007KT 9999 FEW015"
    },
    {
      "icao": "LEAL",
      "alert": "OK",
      "vis_m": 9999,
      "fzfg": false,
      "metar_trigger": false,
      "taf_trigger": false,
      "metar": "METAR LEAL 110900Z 08010KT 9999 SCT022 BKN025 26/17 Q1023 NOSIG",
      "taf": "TAF LEAL 110500Z 1106/1206 08010KT 9999 SCT020 TX27/1112Z TN19/1205Z"
    },
    {
      "icao": "LEBB",
      "alert": "OK",
      "vis_m": 9999,
      "fzfg": false,
      "metar_trigger": false,
      "taf_trigger": false,
      "metar": "METAR LEBB 110900Z VRB02KT 9999 FEW035 BKN046 20/13 Q1028 NOSIG",
      "taf": "TAF LEBB 110500Z 1106/1206 VRB03KT 9999 SCT050 TX23/1113Z TN11/1204Z"
    },
    {
      "icao": "LEBL",
      "alert": "OK",
      "vis_m": 9999,
      "fzfg": false,
      "metar_trigger": false,
      "taf_trigger": false,
      "metar": "METAR LEBL 110900Z 06006KT 010V100 9999 FEW025 23/13 Q1023 NOSIG",
      "taf": ""
    },
    {
      "icao": "LECH",
      "alert": "OK",
      "vis_m": 9999,
      "fzfg": false,
      "metar_trigger": false,
      "taf_trigger": false,
      "metar": "METAR LECH 110900Z AUTO 23003KT CAVOK 22/13 Q1024",
      "taf": "TAF LECH 110500Z 1106/1206 VRB04KT 9999 FEW040 TX28/1113Z TN14/1205Z"
    },
    {
      "icao": "LEMD",
      "alert": "OK",
      "vis_m": 9999,
      "fzfg": false,
      "metar_trigger": false,
      "taf_trigger": false,
      "metar": "METAR LEMD 110900Z 07002KT CAVOK 23/10 Q1023 NOSIG",
      "taf": "TAF LEMD 110500Z 1106/1212 01006KT CAVOK TX33/1116Z TN15/1106Z"
    },
    {
      "icao": "LEMG",
      "alert": "OK",
      "vis_m": 9999,
      "fzfg": false,
      "metar_trigger": false,
      "taf_trigger": false,
      "metar": "METAR LEMG 110900Z 12007KT 100V160 9999 FEW016 SCT024 BKN032 23/19 Q1021 NOSIG",
      "taf": "TAF LEMG 110500Z 1106/1206 13010KT 9999 SCT025 TX27/1114Z TN19/1206Z"
    },
    {
      "icao": "LEVC",
      "alert": "OK",
      "vis_m": 9999,
      "fzfg": false,
      "metar_trigger": false,
      "taf_trigger": false,
      "metar": "METAR LEVC 110900Z 08005KT 020V130 9999 FEW024 BKN048 23/16 Q1023 NOSIG",
      "taf": "TAF LEVC 110500Z 1106/1206 VRB04KT 9999 SCT020 TX26/1112Z TN17/1205Z"
    },
    {
      "icao": "LEXJ",
      "alert": "OK",
      "vis_m": 9999,
      "fzfg": false,
      "metar_trigger": false,
      "taf_trigger": false,
      "metar": "METAR LEXJ 110900Z 03004KT 330V080 9999 FEW030 18/12 Q1028",
      "taf": "TAF LEXJ 110800Z 1109/1209 05009KT CAVOK TX21/1115Z TN13/1205Z"
    },
    {
      "icao": "LEZG",
      "alert": "OK",
      "vis_m": 9999,
      "fzfg": false,
      "metar_trigger": false,
      "taf_trigger": false,
      "metar": "METAR LEZG 110900Z 30017KT 270V330 CAVOK 19/07 Q1025 NOSIG",
      "taf": "TAF LEZG 110500Z 1106/1206 31015KT CAVOK TX29/1115Z TN15/1205Z"
    },
    {
      "icao": "LEZL",
      "alert": "OK",
      "vis_m": 9999,
      "fzfg": false,
      "metar_trigger": false,
      "taf_trigger": false,
      "metar": "METAR LEZL 110900Z 04006KT 350V080 CAVOK 28/18 Q1018 NOSIG",
      "taf": "TAF LEZL 110800Z 1109/1209 08007KT CAVOK TX38/1115Z TN23/1206Z"
    },
    {
      "icao": "LFBD",
      "alert": "OK",
      "vis_m": 9999,
      "fzfg": false,
      "metar_trigger": false,
      "taf_trigger": false,
      "metar": "METAR LFBD 110900Z AUTO VRB02KT 9999 SCT032 SCT043 BKN050 19/11 Q1027 NOSIG",
      "taf": "TAF LFBD 110500Z 1106/1212 20005KT 9999 SCT040 TX24/1212Z TN10/1106Z"
    },
    {
      "icao": "LFLL",
      "alert": "OK",
      "vis_m": 9999,
      "fzfg": false,
      "metar_trigger": false,
      "taf_trigger": false,
      "metar": "METAR LFLL 110900Z 36007KT 310V040 9999 SCT043 18/07 Q1024 NOSIG",
      "taf": "TAF LFLL 110500Z 1106/1212 VRB02KT CAVOK"
    },
    {
      "icao": "LFLS",
      "alert": "OK",
      "vis_m": 9999,
      "fzfg": false,
      "metar_trigger": false,
      "taf_trigger": false,
      "metar": "METAR LFLS 110900Z AUTO 35010KT 310V020 9999 SCT052 BKN072 17/05 Q1024 NOSIG",
      "taf": "TAF LFLS 110800Z 1109/1209 36010KT CAVOK"
    },
    {
      "icao": "LFMN",
      "alert": "OK",
      "vis_m": 9999,
      "fzfg": false,
      "metar_trigger": false,
      "taf_trigger": false,
      "metar": "METAR LFMN 110900Z 14007KT CAVOK 23/11 Q1015 NOSIG",
      "taf": "TAF LFMN 110800Z 1109/1215 18010KT CAVOK"
    },
    {
      "icao": "LFOB",
      "alert": "OK",
      "vis_m": 9999,
      "fzfg": false,
      "metar_trigger": false,
      "taf_trigger": false,
      "metar": "METAR LFOB 110900Z AUTO 24008KT 210V280 9999 FEW021 OVC056 16/10 Q1024 NOSIG",
      "taf": "TAF LFOB 110500Z 1106/1206 26005KT 9999 SCT025"
    },
    {
      "icao": "LFPO",
      "alert": "OK",
      "vis_m": 9999,
      "fzfg": false,
      "metar_trigger": false,
      "taf_trigger": false,
      "metar": "METAR LFPO 110900Z 27008G19KT 230V330 9999 FEW030 16/08 Q1024 NOSIG",
      "taf": "TAF LFPO 110500Z 1106/1212 25005KT CAVOK"
    },
    {
      "icao": "LFSB",
      "alert": "OK",
      "vis_m": 9999,
      "fzfg": false,
      "metar_trigger": false,
      "taf_trigger": false,
      "metar": "METAR LFSB 110900Z AUTO 27011KT 240V320 9999 SCT045 BKN052 BKN062 17/07 Q1024 TEMPO FEW040TCU",
      "taf": "TAF LFSB 110500Z 1106/1206 27006KT 9999 FEW030 BKN070"
    },
    {
      "icao": "LGAV",
      "alert": "OK",
      "vis_m": 9999,
      "fzfg": false,
      "metar_trigger": false,
      "taf_trigger": false,
      "metar": "METAR LGAV 110850Z 07009KT 030V100 CAVOK 30/10 Q1014 NOSIG",
      "taf": "TAF LGAV 110500Z 1106/1206 VRB03KT 9999 FEW025"
    },
    {
      "icao": "LGTS",
      "alert": "OK",
      "vis_m": 9999,
      "fzfg": false,
      "metar_trigger": false,
      "taf_trigger": false,
      "metar": "METAR LGTS 110850Z 31005KT 9999 FEW020 27/17 Q1014 NOSIG",
      "taf": "TAF LGTS 110500Z 1106/1206 VRB03KT 9999 FEW030"
    },
    {
      "icao": "LHBP",
      "alert": "OK",
      "vis_m": 9999,
      "fzfg": false,
      "metar_trigger": false,
      "taf_trigger": false,
      "metar": "METAR LHBP 110900Z 31014KT 9999 BKN034 18/09 Q1017 NOSIG",
      "taf": "TAF LHBP 110515Z 1106/1206 31015G25KT 9999 BKN020"
    },
    {
      "icao": "LHDC",
      "alert": "OK",
      "vis_m": 9999,
      "fzfg": false,
      "metar_trigger": false,
      "taf_trigger": false,
      "metar": "METAR LHDC 110845Z AUTO 23010KT 190V250 9999 BKN013 17/14 Q1015 BECMG SCT020",
      "taf": ""
    },
    {
      "icao": "LIBD",
      "alert": "OK",
      "vis_m": 9999,
      "fzfg": false,
      "metar_trigger": false,
      "taf_trigger": false,
      "metar": "METAR LIBD 110850Z 01005KT 340V050 CAVOK 30/12 Q1013",
      "taf": "TAF LIBD 110500Z 1106/1206 23006KT 9999 FEW040"
    },
    {
      "icao": "LIBG",
      "alert": "OK",
      "vis_m": 9999,
      "fzfg": false,
      "metar_trigger": false,
      "taf_trigger": false,
      "metar": "METAR LIBG 110850Z AUTO 19005KT 150V230 9999 NCD 31/17 Q1013",
      "taf": "TAF LIBG 110500Z 1106/1206 VRB05KT CAVOK"
    },
    {
      "icao": "LIBP",
      "alert": "OK",
      "vis_m": 9999,
      "fzfg": false,
      "metar_trigger": false,
      "taf_trigger": false,
      "metar": "METAR LIBP 110850Z AUTO 05006KT 350V080 9999 FEW084/// 26/16 Q1014",
      "taf": "TAF LIBP 110500Z 1106/1206 VRB05KT 9999 FEW070"
    },
    {
      "icao": "LIBR",
      "alert": "OK",
      "vis_m": 9999,
      "fzfg": false,
      "metar_trigger": false,
      "taf_trigger": false,
      "metar": "METAR LIBR 110850Z 10009KT CAVOK 27/21 Q1013",
      "taf": "TAF LIBR 110500Z 1106/1206 VRB05KT 9999 FEW040"
    },
    {
      "icao": "LICA",
      "alert": "OK",
      "vis_m": 9999,
      "fzfg": false,
      "metar_trigger": false,
      "taf_trigger": false,
      "metar": "METAR LICA 110850Z AUTO 23009KT 9999 NCD 26/22 Q1015",
      "taf": "TAF LICA 110500Z 1106/1206 VRB05KT 9999 SCT018"
    },
    {
      "icao": "LICC",
      "alert": "OK",
      "vis_m": 9999,
      "fzfg": false,
      "metar_trigger": false,
      "taf_trigger": false,
      "metar": "METAR LICC 110850Z 08010KT CAVOK 27/17 Q1014",
      "taf": "TAF LICC 110500Z 1106/1206 VRB05KT CAVOK"
    },
    {
      "icao": "LICJ",
      "alert": "OK",
      "vis_m": 9999,
      "fzfg": false,
      "metar_trigger": false,
      "taf_trigger": false,
      "metar": "METAR LICJ 110850Z AUTO 31007KT 9999 NCD 25/20 Q1015",
      "taf": "TAF LICJ 110500Z 1106/1206 VRB05KT CAVOK"
    },
    {
      "icao": "LIMC",
      "alert": "OK",
      "vis_m": 9999,
      "fzfg": false,
      "metar_trigger": false,
      "taf_trigger": false,
      "metar": "METAR LIMC 110850Z 02010KT 350V050 CAVOK 23/02 Q1017 NOSIG",
      "taf": "TAF LIMC 110500Z 1106/1212 03008KT 9999 FEW030"
    },
    {
      "icao": "LIME",
      "alert": "OK",
      "vis_m": 9999,
      "fzfg": false,
      "metar_trigger": false,
      "taf_trigger": false,
      "metar": "METAR LIME 110850Z VRB02KT CAVOK 21/04 Q1016 NOSIG",
      "taf": "TAF LIME 110500Z 1106/1206 VRB05KT 9999 FEW040"
    },
    {
      "icao": "LIMF",
      "alert": "OK",
      "vis_m": 9999,
      "fzfg": false,
      "metar_trigger": false,
      "taf_trigger": false,
      "metar": "METAR LIMF 110850Z 25003KT 150V320 CAVOK 22/03 Q1017",
      "taf": "TAF LIMF 110500Z 1106/1206 VRB05KT CAVOK"
    },
    {
      "icao": "LIMJ",
      "alert": "OK",
      "vis_m": 9999,
      "fzfg": false,
      "metar_trigger": false,
      "taf_trigger": false,
      "metar": "METAR LIMJ 110850Z 03016KT CAVOK 25/02 Q1015",
      "taf": "TAF LIMJ 110500Z 1106/1206 01016KT 9999 SCT040"
    },
    {
      "icao": "LIPE",
      "alert": "OK",
      "vis_m": 9999,
      "fzfg": false,
      "metar_trigger": false,
      "taf_trigger": false,
      "metar": "METAR LIPE 110850Z 30005KT 270V010 CAVOK 22/09 Q1016",
      "taf": "TAF LIPE 110500Z 1106/1206 29008KT 9999 FEW050"
    },
    {
      "icao": "LIPH",
      "alert": "OK",
      "vis_m": 9999,
      "fzfg": false,
      "metar_trigger": false,
      "taf_trigger": false,
      "metar": "METAR LIPH 110850Z 05008KT 010V080 CAVOK 25/07 Q1016",
      "taf": "TAF LIPH 110500Z 1106/1206 VRB05KT 9999 FEW030"
    },
    {
      "icao": "LIPQ",
      "alert": "OK",
      "vis_m": 9999,
      "fzfg": false,
      "metar_trigger": false,
      "taf_trigger": false,
      "metar": "METAR LIPQ 110850Z 10009KT 9999 BKN060 21/10 Q1016",
      "taf": "TAF LIPQ 110500Z 1106/1206 07012KT 9999 SCT040"
    },
    {
      "icao": "LIPR",
      "alert": "OK",
      "vis_m": 9999,
      "fzfg": false,
      "metar_trigger": false,
      "taf_trigger": false,
      "metar": "METAR LIPR 110850Z 31012KT 9999 SCT050 22/12 Q1015",
      "taf": "TAF LIPR 110500Z 1106/1206 28010KT 9999 FEW060"
    },
    {
      "icao": "LIPX",
      "alert": "OK",
      "vis_m": 9999,
      "fzfg": false,
      "metar_trigger": false,
      "taf_trigger": false,
      "metar": "METAR LIPX 110850Z VRB03KT CAVOK 24/07 Q1016",
      "taf": "TAF LIPX 110500Z 1106/1206 01007KT 9999 SCT030"
    },
    {
      "icao": "LIPY",
      "alert": "OK",
      "vis_m": 9999,
      "fzfg": false,
      "metar_trigger": false,
      "taf_trigger": false,
      "metar": "METAR LIPY 110850Z AUTO 33011KT 9999 SCT070/// 22/17 Q1014",
      "taf": "TAF LIPY 110500Z 1106/1206 24006KT 9999 SCT060"
    },
    {
      "icao": "LIPZ",
      "alert": "OK",
      "vis_m": 9999,
      "fzfg": false,
      "metar_trigger": false,
      "taf_trigger": false,
      "metar": "METAR LIPZ 110850Z 05012KT CAVOK 22/09 Q1016 NOSIG",
      "taf": ""
    },
    {
      "icao": "LIRF",
      "alert": "OK",
      "vis_m": 9999,
      "fzfg": false,
      "metar_trigger": false,
      "taf_trigger": false,
      "metar": "METAR LIRF 110850Z 21010KT 170V250 9999 FEW030 24/15 Q1014 NOSIG",
      "taf": "TAF LIRF 110500Z 1106/1212 22010KT CAVOK"
    },
    {
      "icao": "LIRN",
      "alert": "OK",
      "vis_m": 9999,
      "fzfg": false,
      "metar_trigger": false,
      "taf_trigger": false,
      "metar": "METAR LIRN 110850Z 19006KT 120V260 9999 FEW030 26/19 Q1015 NOSIG",
      "taf": "TAF LIRN 110500Z 1106/1206 VRB05KT CAVOK"
    },
    {
      "icao": "LIRP",
      "alert": "OK",
      "vis_m": 9999,
      "fzfg": false,
      "metar_trigger": false,
      "taf_trigger": false,
      "metar": "METAR LIRP 110845Z VRB03KT CAVOK 21/14 Q1015 NOSIG",
      "taf": "TAF LIRP 110500Z 1106/1206 11005KT CAVOK"
    },
    {
      "icao": "LIRZ",
      "alert": "OK",
      "vis_m": 9999,
      "fzfg": false,
      "metar_trigger": false,
      "taf_trigger": false,
      "metar": "METAR LIRZ 110850Z AUTO 02004KT 330V110 9999 FEW035/// 23/14 Q1014",
      "taf": ""
    },
    {
      "icao": "LJLJ",
      "alert": "OK",
      "vis_m": 9999,
      "fzfg": false,
      "metar_trigger": false,
      "taf_trigger": false,
      "metar": "METAR LJLJ 110900Z 07005KT 040V150 9999 FEW017 BKN070 14/10 Q1020 NOSIG",
      "taf": "TAF LJLJ 110500Z 1106/1206 30004KT 9999 BKN070"
    },
    {
      "icao": "LKMT",
      "alert": "OK",
      "vis_m": 9999,
      "fzfg": false,
      "metar_trigger": false,
      "taf_trigger": false,
      "metar": "METAR LKMT 110900Z 26008KT 230V290 9999 BKN024 15/09 Q1018 NOSIG",
      "taf": "TAF LKMT 110500Z 1106/1206 20006KT 9999 BKN040"
    },
    {
      "icao": "LKPR",
      "alert": "OK",
      "vis_m": 9999,
      "fzfg": false,
      "metar_trigger": false,
      "taf_trigger": false,
      "metar": "METAR LKPR 110900Z 28012KT 9999 FEW017TCU SCT019 BKN043 13/09 Q1019 NOSIG",
      "taf": "TAF LKPR 110800Z 1109/1215 25008KT 9999 BKN025"
    },
    {
      "icao": "LLBG",
      "alert": "OK",
      "vis_m": 9999,
      "fzfg": false,
      "metar_trigger": false,
      "taf_trigger": false,
      "metar": "METAR LLBG 110850Z VRB07KT 9999 FEW025 28/18 Q1012 NOSIG",
      "taf": "TAF LLBG 110509Z 1106/1206 VRB03KT 9999 SCT025 TX29/1110Z TN20/1203Z"
    },
    {
      "icao": "LMML",
      "alert": "OK",
      "vis_m": 9999,
      "fzfg": false,
      "metar_trigger": false,
      "taf_trigger": false,
      "metar": "METAR LMML 110915Z 27007KT 230V310 9999 FEW015 29/19 Q1016 NOSIG",
      "taf": "TAF LMML 110500Z 1106/1206 27007KT 9999 FEW015"
    },
    {
      "icao": "LOWW",
      "alert": "OK",
      "vis_m": 9999,
      "fzfg": false,
      "metar_trigger": false,
      "taf_trigger": false,
      "metar": "METAR LOWW 110850Z 31015KT 290V350 9999 SCT036 17/08 Q1020 TEMPO SHRA",
      "taf": ""
    },
    {
      "icao": "LPFR",
      "alert": "OK",
      "vis_m": 9999,
      "fzfg": false,
      "metar_trigger": false,
      "taf_trigger": false,
      "metar": "METAR LPFR 110900Z 10011KT CAVOK 25/17 Q1018",
      "taf": "TAF LPFR 110500Z 1106/1206 06007KT CAVOK"
    },
    {
      "icao": "LPMA",
      "alert": "OK",
      "vis_m": 9999,
      "fzfg": false,
      "metar_trigger": false,
      "taf_trigger": false,
      "metar": "METAR LPMA 110900Z 01014KT 330V040 9999 FEW015 24/08 Q1020",
      "taf": "TAF LPMA 110500Z 1106/1206 01015KT 9999 SCT015"
    },
    {
      "icao": "LPPR",
      "alert": "OK",
      "vis_m": 9999,
      "fzfg": false,
      "metar_trigger": false,
      "taf_trigger": false,
      "metar": "METAR LPPR 110900Z 09008KT 060V130 CAVOK 26/11 Q1021",
      "taf": "TAF LPPR 110500Z 1106/1206 07005KT CAVOK"
    },
    {
      "icao": "LPPS",
      "alert": "OK",
      "vis_m": 9999,
      "fzfg": false,
      "metar_trigger": false,
      "taf_trigger": false,
      "metar": "METAR LPPS 110900Z 02014KT 9999 FEW013 21/16 Q1021",
      "taf": "TAF LPPS 110500Z 1106/1212 02013KT 9999 SCT012"
    },
    {
      "icao": "LPPT",
      "alert": "OK",
      "vis_m": 9999,
      "fzfg": false,
      "metar_trigger": false,
      "taf_trigger": false,
      "metar": "METAR LPPT 110900Z 06006G17KT 010V110 CAVOK 27/13 Q1019",
      "taf": "TAF LPPT 110500Z 1106/1212 05007KT CAVOK"
    },
    {
      "icao": "LQBK",
      "alert": "OK",
      "vis_m": 9999,
      "fzfg": false,
      "metar_trigger": false,
      "taf_trigger": false,
      "metar": "METAR LQBK 110900Z 30003KT 240V350 9999 FEW035 BKN045 15/10 Q1020 NOSIG",
      "taf": "TAF LQBK 110500Z 1106/1206 15005KT 9999 SCT015 OVC035 TX16/1110Z TN12/1203Z"
    },
    {
      "icao": "LQSA",
      "alert": "OK",
      "vis_m": 9999,
      "fzfg": false,
      "metar_trigger": false,
      "taf_trigger": false,
      "metar": "METAR LQSA 110900Z 32007KT 280V350 9999 FEW022 SCT050 18/16 Q1017 NOSIG",
      "taf": ""
    },
    {
      "icao": "LQTZ",
      "alert": "OK",
      "vis_m": 9999,
      "fzfg": false,
      "metar_trigger": false,
      "taf_trigger": false,
      "metar": "METAR LQTZ 110900Z 30006KT 9999 FEW010 BKN015 OVC030 14/14 Q1020",
      "taf": ""
    },
    {
      "icao": "LRBC",
      "alert": "OK",
      "vis_m": 9999,
      "fzfg": false,
      "metar_trigger": false,
      "taf_trigger": false,
      "metar": "METAR LRBC 110900Z 15012KT CAVOK 26/18 Q1013",
      "taf": "TAF LRBC 110800Z 1109/1118 16010KT CAVOK"
    },
    {
      "icao": "LRBS",
      "alert": "OK",
      "vis_m": 9999,
      "fzfg": false,
      "metar_trigger": false,
      "taf_trigger": false,
      "metar": "METAR LRBS 110900Z 03004KT 350V090 CAVOK 27/17 Q1013 NOSIG",
      "taf": "TAF LRBS 110500Z 1106/1206 07010KT CAVOK"
    },
    {
      "icao": "LRBV",
      "alert": "OK",
      "vis_m": 9999,
      "fzfg": false,
      "metar_trigger": false,
      "taf_trigger": false,
      "metar": "METAR LRBV 110900Z 33001KT 9999 FEW040 26/14 Q1015",
      "taf": "TAF LRBV 110800Z 1109/1118 VRB04KT 9999 SCT045CB"
    },
    {
      "icao": "LRCL",
      "alert": "OK",
      "vis_m": 9999,
      "fzfg": false,
      "metar_trigger": false,
      "taf_trigger": false,
      "metar": "METAR LRCL 110900Z 16005KT 9999 FEW018 FEW040CB 20/17 Q1015",
      "taf": "TAF LRCL 110800Z 1109/1118 32009KT 9999 SCT045CB"
    },
    {
      "icao": "LRCV",
      "alert": "OK",
      "vis_m": 9999,
      "fzfg": false,
      "metar_trigger": false,
      "taf_trigger": false,
      "metar": "METAR LRCV 110900Z VRB02KT CAVOK 28/17 Q1014",
      "taf": "TAF LRCV 110800Z 1109/1118 VRB04KT CAVOK"
    },
    {
      "icao": "LRIA",
      "alert": "OK",
      "vis_m": 9999,
      "fzfg": false,
      "metar_trigger": false,
      "taf_trigger": false,
      "metar": "METAR LRIA 110900Z 16009KT 130V200 9999 SCT043 27/16 Q1014",
      "taf": "TAF LRIA 110800Z 1109/1118 10005KT CAVOK"
    },
    {
      "icao": "LROP",
      "alert": "OK",
      "vis_m": 9999,
      "fzfg": false,
      "metar_trigger": false,
      "taf_trigger": false,
      "metar": "METAR LROP 110900Z 10005KT 020V150 CAVOK 28/18 Q1014 NOSIG",
      "taf": "TAF LROP 110500Z 1106/1206 07010KT CAVOK"
    },
    {
      "icao": "LRSB",
      "alert": "OK",
      "vis_m": 9999,
      "fzfg": false,
      "metar_trigger": false,
      "taf_trigger": false,
      "metar": "METAR LRSB 110900Z 31010KT 9999 VCSH FEW040 FEW045CB 25/16 Q1015",
      "taf": "TAF LRSB 110500Z 1106/1206 VRB04KT CAVOK"
    },
    {
      "icao": "LRSM",
      "alert": "OK",
      "vis_m": 9999,
      "fzfg": false,
      "metar_trigger": false,
      "taf_trigger": false,
      "metar": "METAR LRSM 110900Z 20004KT 170V240 9999 FEW010 BKN029 20/16 Q1015",
      "taf": "TAF LRSM 110800Z 1109/1118 VRB04KT CAVOK"
    },
    {
      "icao": "LRSV",
      "alert": "OK",
      "vis_m": 9999,
      "fzfg": false,
      "metar_trigger": false,
      "taf_trigger": false,
      "metar": "METAR LRSV 110900Z 16011KT 130V210 CAVOK 26/17 Q1013",
      "taf": "TAF LRSV 110800Z 1109/1118 16012KT CAVOK"
    },
    {
      "icao": "LRTM",
      "alert": "OK",
      "vis_m": 9999,
      "fzfg": false,
      "metar_trigger": false,
      "taf_trigger": false,
      "metar": "METAR LRTM 110900Z 32010KT 270V350 9999 SCT042CB BKN045 25/17 Q1015",
      "taf": "TAF LRTM 110800Z 1109/1118 30010KT 9999 SCT045CB"
    },
    {
      "icao": "LRTR",
      "alert": "OK",
      "vis_m": 9999,
      "fzfg": false,
      "metar_trigger": false,
      "taf_trigger": false,
      "metar": "METAR LRTR 110900Z 29009KT 9999 SCT006 BKN008 OVC011 17/15 Q1017",
      "taf": ""
    },
    {
      "icao": "LTAC",
      "alert": "OK",
      "vis_m": 9999,
      "fzfg": false,
      "metar_trigger": false,
      "taf_trigger": false,
      "metar": "METAR LTAC 110850Z VRB05KT 9999 SCT040 24/10 Q1016 NOSIG RMK RWY21C VRB04KT RWY03L VRB04KT RWY21R 10004KT 030V190 RWY03R 28003KT 220V350 RWY21L VRB03KT",
      "taf": "TAF LTAC 110440Z 1106/1206 VRB02KT CAVOK"
    },
    {
      "icao": "LTFM",
      "alert": "OK",
      "vis_m": 9999,
      "fzfg": false,
      "metar_trigger": false,
      "taf_trigger": false,
      "metar": "METAR LTFM 110850Z 04009KT 350V060 9999 SCT014 24/17 Q1015 NOSIG RMK RWY17L 02009KT 340V040 RWY34L 04009KT 350V070 RWY16R 03008KT 340V070 RWY36 03009KT RWY18 04008KT 360V080",
      "taf": "TAF LTFM 110440Z 1106/1212 07004KT 9999 BKN011"
    },
    {
      "icao": "LUKK",
      "alert": "OK",
      "vis_m": 9999,
      "fzfg": false,
      "metar_trigger": false,
      "taf_trigger": false,
      "metar": "METAR LUKK 110900Z 24006KT 190V260 9999 FEW049CB OVC090 23/18 Q1014 TEMPO VRB18G28KT SCT040CB",
      "taf": ""
    },
    {
      "icao": "LWOH",
      "alert": "OK",
      "vis_m": 9999,
      "fzfg": false,
      "metar_trigger": false,
      "taf_trigger": false,
      "metar": "METAR LWOH 110850Z 17005KT 130V230 9999 FEW040 22/16 Q1018",
      "taf": ""
    },
    {
      "icao": "LWSK",
      "alert": "OK",
      "vis_m": null,
      "fzfg": false,
      "metar_trigger": false,
      "taf_trigger": false,
      "metar": "",
      "taf": "TAF LWSK 110850Z 1109/1209 VRB02KT 9999 FEW050"
    },
    {
      "icao": "LYBE",
      "alert": "OK",
      "vis_m": 9999,
      "fzfg": false,
      "metar_trigger": false,
      "taf_trigger": false,
      "metar": "METAR LYBE 110900Z 31008KT 9999 SCT015 BKN020 16/13 Q1019 NOSIG",
      "taf": "TAF LYBE 110500Z 1106/1206 33014KT 9999 SCT040 TX21/1113Z TN12/1204Z"
    },
    {
      "icao": "LYNI",
      "alert": "OK",
      "vis_m": 9999,
      "fzfg": false,
      "metar_trigger": false,
      "taf_trigger": false,
      "metar": "METAR LYNI 110900Z 31012KT 270V340 9999 SCT033 26/18 Q1015 NOSIG",
      "taf": "TAF LYNI 110500Z 1106/1206 24008KT CAVOK TX28/1113Z TN12/1206Z"
    },
    {
      "icao": "LYPG",
      "alert": "OK",
      "vis_m": 9999,
      "fzfg": false,
      "metar_trigger": false,
      "taf_trigger": false,
      "metar": "METAR LYPG 110900Z VRB04KT CAVOK 28/16 Q1014 NOSIG",
      "taf": "TAF LYPG 110500Z 1106/1206 16007KT 9999 FEW040 TX31/1114Z TN18/1203Z"
    },
    {
      "icao": "LZIB",
      "alert": "OK",
      "vis_m": 9999,
      "fzfg": false,
      "metar_trigger": false,
      "taf_trigger": false,
      "metar": "METAR LZIB 110900Z 31014KT 9999 BKN033 17/08 Q1019 NOSIG",
      "taf": "TAF LZIB 110515Z 1106/1206 32011KT 9999 SCT025"
    },
    {
      "icao": "LZKZ",
      "alert": "OK",
      "vis_m": 9999,
      "fzfg": false,
      "metar_trigger": false,
      "taf_trigger": false,
      "metar": "METAR LZKZ 110900Z VRB03KT 9999 FEW009 SCT025 BKN035 18/14 Q1014 NOSIG",
      "taf": ""
    },
    {
      "icao": "LZTT",
      "alert": "OK",
      "vis_m": 9999,
      "fzfg": false,
      "metar_trigger": false,
      "taf_trigger": false,
      "metar": "METAR LZTT 110900Z 03008KT 9999 BKN027 13/10 Q1015 NOSIG",
      "taf": ""
    },
    {
      "icao": "OEJN",
      "alert": "OK",
      "vis_m": 9999,
      "fzfg": false,
      "metar_trigger": false,
      "taf_trigger": false,
      "metar": "METAR OEJN 110900Z 21007KT CAVOK 38/17 Q1008 NOSIG",
      "taf": "TAF OEJN 110500Z 1106/1212 26012KT CAVOK"
    },
    {
      "icao": "OEMA",
      "alert": "OK",
      "vis_m": 9999,
      "fzfg": false,
      "metar_trigger": false,
      "taf_trigger": false,
      "metar": "METAR OEMA 110900Z 08008KT CAVOK 42/M06 Q1013 NOSIG",
      "taf": "TAF OEMA 110500Z 1106/1212 27010KT CAVOK"
    },
    {
      "icao": "OJAI",
      "alert": "OK",
      "vis_m": 5000,
      "fzfg": false,
      "metar_trigger": false,
      "taf_trigger": false,
      "metar": "METAR OJAI 110900Z 28010KT 5000 HZ NSC 29/05 Q1016 NOSIG",
      "taf": "TAF OJAI 110500Z 1106/1212 29012KT 5000 HZ NSC"
    },
    {
      "icao": "OMAA",
      "alert": "OK",
      "vis_m": 9999,
      "fzfg": false,
      "metar_trigger": false,
      "taf_trigger": false,
      "metar": "METAR OMAA 110900Z 28009KT CAVOK 41/17 Q1001 NOSIG",
      "taf": "TAF OMAA 110500Z 1106/1212 24008KT 8000 NSC"
    },
    {
      "icao": "OMDB",
      "alert": "OK",
      "vis_m": 9999,
      "fzfg": false,
      "metar_trigger": false,
      "taf_trigger": false,
      "metar": "METAR OMDB 110900Z 28009KT CAVOK 40/22 Q1000 NOSIG",
      "taf": "TAF OMDB 110500Z 1106/1212 28010KT CAVOK"
    },
    {
      "icao": "UAAA",
      "alert": "OK",
      "vis_m": 9999,
      "fzfg": false,
      "metar_trigger": false,
      "taf_trigger": false,
      "metar": "METAR UAAA 110900Z 01002MPS 350V060 9999 SCT050CB OVC100 25/14 Q1014 NOSIG",
      "taf": "TAF UAAA 110506Z 1106/1206 25003G08MPS 9999 SCT050CB BKN100 TX26/1110Z TN16/1202Z"
    },
    {
      "icao": "UBBB",
      "alert": "OK",
      "vis_m": 9999,
      "fzfg": false,
      "metar_trigger": false,
      "taf_trigger": false,
      "metar": "METAR UBBB 110900Z 18010KT 9999 FEW060CB 31/11 Q1011 NOSIG",
      "taf": "TAF UBBB 110501Z 1106/1206 19008KT CAVOK TX31/1110Z TN19/1200Z"
    },
    {
      "icao": "UDSG",
      "alert": "OK",
      "vis_m": 9999,
      "fzfg": false,
      "metar_trigger": false,
      "taf_trigger": false,
      "metar": "METAR UDSG 110900Z 05011KT 9999 BKN043CB 20/10 Q1020 NOSIG",
      "taf": "TAF UDSG 110458Z 1106/1206 04006KT 9999 SCT040"
    },
    {
      "icao": "UDYZ",
      "alert": "OK",
      "vis_m": 9999,
      "fzfg": false,
      "metar_trigger": false,
      "taf_trigger": false,
      "metar": "METAR UDYZ 110900Z VRB02KT 9999 FEW043CB 29/12 Q1013 NOSIG",
      "taf": "TAF UDYZ 110500Z 1106/1206 19006KT 9999 FEW040"
    },
    {
      "icao": "UGKO",
      "alert": "OK",
      "vis_m": 9999,
      "fzfg": false,
      "metar_trigger": false,
      "taf_trigger": false,
      "metar": "METAR UGKO 110900Z 23006KT 190V290 CAVOK 26/17 Q1013 NOSIG",
      "taf": "TAF UGKO 110500Z 1106/1206 26007KT CAVOK TX26/1111Z TN19/1202Z"
    }
  ]
}