{
  "ts_utc": "2026-01-26T13:29:27Z",
  "threshold_m": 150,
  "source": "stations_override.txt (ICAO list) + aviationweather.gov (METAR/TAF raw)",
  "station_count": 159,
  "stations": [
    {
      "icao": "BIKF",
      "alert": "OK",
      "vis_m": 9999,
      "fzfg": false,
      "metar_trigger": false,
      "taf_trigger": false,
      "metar": "METAR BIKF 261300Z 07021KT 9999 FEW045 SCT190 BKN240 05/M01 Q0998",
      "taf": "TAF BIKF 261033Z 2612/2712 08017KT 9999 FEW025 TX05/2615Z TN02/2612Z"
    },
    {
      "icao": "BKPR",
      "alert": "OK",
      "vis_m": null,
      "fzfg": false,
      "metar_trigger": false,
      "taf_trigger": false,
      "metar": "",
      "taf": "TAF BKPR 261130Z 2612/2712 15008KT 9999 SCT020 BKN060"
    },
    {
      "icao": "EBCI",
      "alert": "OK",
      "vis_m": 3500,
      "fzfg": false,
      "metar_trigger": false,
      "taf_trigger": false,
      "metar": "METAR EBCI 261320Z 33003KT 300V010 3500 BR SCT003 OVC004 00/M00 Q1003 BECMG BKN005",
      "taf": "TAF EBCI 261110Z 2612/2718 VRB03KT 2000 BR BKN003"
    },
    {
      "icao": "EDDB",
      "alert": "OK",
      "vis_m": 9999,
      "fzfg": false,
      "metar_trigger": false,
      "taf_trigger": false,
      "metar": "METAR EDDB 261320Z AUTO 20007KT 9999 BKN012 00/M02 Q0997 TEMPO 4000 -SN BKN009",
      "taf": ""
    },
    {
      "icao": "EDDH",
      "alert": "OK",
      "vis_m": 9000,
      "fzfg": false,
      "metar_trigger": false,
      "taf_trigger": false,
      "metar": "METAR EDDH 261320Z AUTO 02006KT 9000 -SN OVC006 01/00 Q0999 TEMPO 4500 OVC004",
      "taf": "TAF EDDH 261100Z 2612/2718 06007KT 8000 OVC007"
    },
    {
      "icao": "EDDK",
      "alert": "OK",
      "vis_m": 2300,
      "fzfg": false,
      "metar_trigger": false,
      "taf_trigger": false,
      "metar": "METAR EDDK 261320Z AUTO 28011KT 2300 BR BKN004 M01/M01 Q1002 REFZDZ TEMPO 3500 BKN005",
      "taf": "TAF EDDK 261100Z 2612/2718 29008KT 2900 BR BKN005"
    },
    {
      "icao": "EDDN",
      "alert": "OK",
      "vis_m": 2600,
      "fzfg": false,
      "metar_trigger": false,
      "taf_trigger": false,
      "metar": "METAR EDDN 261320Z AUTO 24005KT 2600 SN BR BKN004 00/M00 Q0998 TEMPO 1200 SN OVC001",
      "taf": "TAF EDDN 261100Z 2612/2712 25005KT 2000 -SN BR OVC003"
    },
    {
      "icao": "EDDS",
      "alert": "OK",
      "vis_m": 9999,
      "fzfg": false,
      "metar_trigger": false,
      "taf_trigger": false,
      "metar": "METAR EDDS 261320Z AUTO 25012KT 220V280 9999 FEW037 05/01 Q0999 NOSIG",
      "taf": "TAF EDDS 261100Z 2612/2712 24006KT 9999 BKN020"
    },
    {
      "icao": "EDFH",
      "alert": "OK",
      "vis_m": 9999,
      "fzfg": false,
      "metar_trigger": false,
      "taf_trigger": false,
      "metar": "METAR EDFH 261320Z 28013G23KT 250V310 9999 BKN013 02/M00 Q0999",
      "taf": "TAF EDFH 261100Z 2612/2712 27010KT 8000 BKN006"
    },
    {
      "icao": "EDJA",
      "alert": "OK",
      "vis_m": 9999,
      "fzfg": false,
      "metar_trigger": false,
      "taf_trigger": false,
      "metar": "METAR EDJA 261320Z COR 23012KT 9999 OVC010 03/01 Q1000",
      "taf": "TAF EDJA 261100Z 2612/2621 24010KT 9999 OVC008"
    },
    {
      "icao": "EDLW",
      "alert": "OK",
      "vis_m": 2500,
      "fzfg": false,
      "metar_trigger": false,
      "taf_trigger": false,
      "metar": "METAR EDLW 261320Z 26007KT 230V290 2500 -SN BR OVC005 M00/M01 Q1000",
      "taf": "TAF EDLW 261100Z 2612/2712 27006KT 6000 OVC006"
    },
    {
      "icao": "EDNY",
      "alert": "OK",
      "vis_m": 9999,
      "fzfg": false,
      "metar_trigger": false,
      "taf_trigger": false,
      "metar": "METAR EDNY 261320Z 25013KT 9999 OVC024 06/02 Q1002",
      "taf": "TAF EDNY 261100Z 2612/2621 25010KT 9999 OVC015"
    },
    {
      "icao": "EDSB",
      "alert": "OK",
      "vis_m": 9999,
      "fzfg": false,
      "metar_trigger": false,
      "taf_trigger": false,
      "metar": "METAR EDSB 261320Z 21008KT 9999 FEW013 BKN015 BKN020 06/04 Q1002",
      "taf": "TAF EDSB 261100Z 2612/2712 21007KT 6000 BKN020"
    },
    {
      "icao": "EETN",
      "alert": "OK",
      "vis_m": 9999,
      "fzfg": false,
      "metar_trigger": false,
      "taf_trigger": false,
      "metar": "METAR EETN 261320Z VRB01KT 9999 SCT017 M07/M09 Q1010 NOSIG",
      "taf": "TAF EETN 261130Z 2612/2712 VRB02KT 9999 OVC012"
    },
    {
      "icao": "EFTU",
      "alert": "OK",
      "vis_m": 9999,
      "fzfg": false,
      "metar_trigger": false,
      "taf_trigger": false,
      "metar": "METAR EFTU 261320Z AUTO 30004KT 9999 OVC032 M05/M08 Q1011",
      "taf": "TAF EFTU 261136Z 2612/2712 VRB02KT 9999 BKN040"
    },
    {
      "icao": "EGBB",
      "alert": "OK",
      "vis_m": 5000,
      "fzfg": false,
      "metar_trigger": false,
      "taf_trigger": false,
      "metar": "METAR EGBB 261320Z 13009KT 5000 BR OVC011 04/02 Q1000",
      "taf": "TAF EGBB 261100Z 2612/2712 12009KT 4000 BR BKN008"
    },
    {
      "icao": "EGGP",
      "alert": "OK",
      "vis_m": 9000,
      "fzfg": false,
      "metar_trigger": false,
      "taf_trigger": false,
      "metar": "METAR EGGP 261320Z 13012KT 9000 BKN014 OVC029 04/01 Q0999",
      "taf": "TAF EGGP 261057Z 2612/2712 12010KT 9999 SCT025"
    },
    {
      "icao": "EGGW",
      "alert": "OK",
      "vis_m": 5000,
      "fzfg": false,
      "metar_trigger": false,
      "taf_trigger": false,
      "metar": "METAR EGGW 261320Z AUTO 10007KT 5000 HZ BKN006 OVC030 04/03 Q1001",
      "taf": ""
    },
    {
      "icao": "EGKK",
      "alert": "OK",
      "vis_m": 8000,
      "fzfg": false,
      "metar_trigger": false,
      "taf_trigger": false,
      "metar": "METAR EGKK 261320Z 10007KT 070V140 8000 BKN013 BKN041 06/04 Q1001",
      "taf": "TAF EGKK 261101Z 2612/2718 06005KT 4000 BR BKN009"
    },
    {
      "icao": "EGNM",
      "alert": "OK",
      "vis_m": 3500,
      "fzfg": false,
      "metar_trigger": false,
      "taf_trigger": false,
      "metar": "METAR EGNM 261320Z 11008KT 3500 BR SCT008 BKN012 01/00 Q1000",
      "taf": "TAF EGNM 261056Z 2612/2712 11008KT 7000 BKN010"
    },
    {
      "icao": "EGPD",
      "alert": "OK",
      "vis_m": 9999,
      "fzfg": false,
      "metar_trigger": false,
      "taf_trigger": false,
      "metar": "METAR EGPD 261320Z 14013KT 9999 SCT012 BKN016 05/03 Q1002 TEMPO BKN012",
      "taf": "TAF EGPD 261056Z 2612/2712 12009KT 9999 SCT016 BKN030"
    },
    {
      "icao": "EGPF",
      "alert": "OK",
      "vis_m": 9999,
      "fzfg": false,
      "metar_trigger": false,
      "taf_trigger": false,
      "metar": "METAR EGPF 261320Z AUTO 09011KT 9999 BKN022 OVC029 05/01 Q0999",
      "taf": "TAF EGPF 261058Z 2612/2712 08011KT 9999 FEW018 SCT030"
    },
    {
      "icao": "EHBK",
      "alert": "OK",
      "vis_m": 900,
      "fzfg": true,
      "metar_trigger": false,
      "taf_trigger": false,
      "metar": "METAR EHBK 261325Z AUTO 25006KT 210V290 0900 R21/1100N FZFG VV001 M01/M02 Q1003 TEMPO 1200 BR OVC002",
      "taf": "TAF EHBK 261114Z 2612/2718 30003KT 2000 BR BKN003"
    },
    {
      "icao": "EHEH",
      "alert": "OK",
      "vis_m": null,
      "fzfg": false,
      "metar_trigger": false,
      "taf_trigger": false,
      "metar": "",
      "taf": "TAF EHEH 261150Z 2612/2718 29006KT 2500 BR BKN007"
    },
    {
      "icao": "EKBI",
      "alert": "OK",
      "vis_m": 9999,
      "fzfg": false,
      "metar_trigger": false,
      "taf_trigger": false,
      "metar": "METAR EKBI 261320Z AUTO 03010KT 9999 OVC021/// M02/M06 Q1004",
      "taf": "TAF EKBI 261127Z 2612/2712 05015KT 9999 BKN018"
    },
    {
      "icao": "EKCH",
      "alert": "OK",
      "vis_m": 9999,
      "fzfg": false,
      "metar_trigger": false,
      "taf_trigger": false,
      "metar": "METAR EKCH 261320Z 04016KT 9999 OVC011 00/M02 Q1003 TEMPO BKN008",
      "taf": "TAF EKCH 261127Z 2612/2712 05020KT 9999 OVC015"
    },
    {
      "icao": "ENAL",
      "alert": "OK",
      "vis_m": 9999,
      "fzfg": false,
      "metar_trigger": false,
      "taf_trigger": false,
      "metar": "METAR ENAL 261320Z 21004KT CAVOK M00/M07 Q1011",
      "taf": "TAF ENAL 261100Z 2612/2621 16005KT CAVOK"
    },
    {
      "icao": "ENBR",
      "alert": "OK",
      "vis_m": 9999,
      "fzfg": false,
      "metar_trigger": false,
      "taf_trigger": false,
      "metar": "METAR ENBR 261320Z 00000KT CAVOK M01/M11 Q1010 NOSIG RMK WIND 1200FT 35003KT",
      "taf": "TAF ENBR 261100Z 2612/2712 VRB03KT CAVOK"
    },
    {
      "icao": "ENGM",
      "alert": "OK",
      "vis_m": 9999,
      "fzfg": false,
      "metar_trigger": false,
      "taf_trigger": false,
      "metar": "METAR ENGM 261320Z VRB02KT CAVOK M10/M14 Q1013 NOSIG",
      "taf": "TAF ENGM 261100Z 2612/2712 36008KT CAVOK"
    },
    {
      "icao": "ENHD",
      "alert": "OK",
      "vis_m": 9999,
      "fzfg": false,
      "metar_trigger": false,
      "taf_trigger": false,
      "metar": "METAR ENHD 261320Z /////KT CAVOK M01/M10 Q1010 RMK WIND RWY 31 11003KT",
      "taf": "TAF ENHD 261100Z 2612/2621 12004KT CAVOK"
    },
    {
      "icao": "ENTC",
      "alert": "OK",
      "vis_m": 9999,
      "fzfg": false,
      "metar_trigger": false,
      "taf_trigger": false,
      "metar": "METAR ENTC 261320Z 08003KT 9999 FEW034 SCT061 M04/M07 Q1013 NOSIG RMK WIND 2600FT 36018KT",
      "taf": "TAF ENTC 261100Z 2612/2712 04006KT 9999 FEW012 BKN030"
    },
    {
      "icao": "ENTO",
      "alert": "OK",
      "vis_m": 9999,
      "fzfg": false,
      "metar_trigger": false,
      "taf_trigger": false,
      "metar": "METAR ENTO 261320Z 01010KT CAVOK M08/M12 Q1013 NOSIG",
      "taf": "TAF ENTO 261100Z 2612/2712 01010KT CAVOK"
    },
    {
      "icao": "ENVA",
      "alert": "OK",
      "vis_m": 9999,
      "fzfg": false,
      "metar_trigger": false,
      "taf_trigger": false,
      "metar": "METAR ENVA 261320Z 10005KT CAVOK M10/M13 Q1015 NOSIG RMK WIND 670FT 10007KT",
      "taf": "TAF ENVA 261100Z 2612/2712 11008KT CAVOK"
    },
    {
      "icao": "ENZV",
      "alert": "OK",
      "vis_m": 9999,
      "fzfg": false,
      "metar_trigger": false,
      "taf_trigger": false,
      "metar": "METAR ENZV 261320Z 16006KT CAVOK M00/M16 Q1010 NOSIG",
      "taf": "TAF ENZV 261100Z 2612/2712 12006KT CAVOK"
    },
    {
      "icao": "EPGD",
      "alert": "OK",
      "vis_m": 5000,
      "fzfg": false,
      "metar_trigger": false,
      "taf_trigger": false,
      "metar": "METAR EPGD 261300Z 08007KT 5000 -SN BR OVC004 M03/M04 Q1000 REFZRA",
      "taf": "TAF EPGD 261130Z 2612/2712 09010KT 6000 -FZRA OVC005"
    },
    {
      "icao": "EPKK",
      "alert": "OK",
      "vis_m": 8000,
      "fzfg": false,
      "metar_trigger": false,
      "taf_trigger": false,
      "metar": "METAR EPKK 261300Z 21003KT 200V260 8000 NSC 04/01 Q0999",
      "taf": "TAF EPKK 261130Z 2612/2712 22004KT 9999 SCT040"
    },
    {
      "icao": "EPKT",
      "alert": "OK",
      "vis_m": 9000,
      "fzfg": false,
      "metar_trigger": false,
      "taf_trigger": false,
      "metar": "METAR EPKT 261300Z 21006KT 9000 NSC 06/04 Q0999",
      "taf": "TAF EPKT 261130Z 2612/2712 22007KT 9999 BKN030"
    },
    {
      "icao": "EPLB",
      "alert": "OK",
      "vis_m": 9999,
      "fzfg": false,
      "metar_trigger": false,
      "taf_trigger": false,
      "metar": "METAR EPLB 261300Z 10006KT 9999 BKN039 OVC047 02/00 Q1001",
      "taf": "TAF EPLB 261130Z 2612/2712 11012KT 9999 BKN035"
    },
    {
      "icao": "EPMO",
      "alert": "OK",
      "vis_m": 5000,
      "fzfg": false,
      "metar_trigger": false,
      "taf_trigger": false,
      "metar": "METAR EPMO 261300Z 10006KT 5000 BR BKN007 M00/M01 Q1001",
      "taf": "TAF EPMO 261130Z 2612/2712 10012KT 4000 -RA BR BKN008"
    },
    {
      "icao": "EPPO",
      "alert": "OK",
      "vis_m": 1700,
      "fzfg": false,
      "metar_trigger": false,
      "taf_trigger": false,
      "metar": "METAR EPPO 261300Z 10006KT 1700 BR OVC002 00/M00 Q0998",
      "taf": ""
    },
    {
      "icao": "EPRA",
      "alert": "OK",
      "vis_m": 9999,
      "fzfg": false,
      "metar_trigger": false,
      "taf_trigger": false,
      "metar": "METAR EPRA 261300Z 13006KT 9999 SCT035 02/M00 Q1000",
      "taf": "TAF EPRA 261130Z 2612/2621 15008KT 9999 BKN040"
    },
    {
      "icao": "EPRZ",
      "alert": "OK",
      "vis_m": 9999,
      "fzfg": false,
      "metar_trigger": false,
      "taf_trigger": false,
      "metar": "METAR EPRZ 261300Z 07007KT 9999 SCT043 02/00 Q1000",
      "taf": "TAF EPRZ 261130Z 2612/2712 10012KT 9999 BKN040"
    },
    {
      "icao": "EPSC",
      "alert": "OK",
      "vis_m": 3400,
      "fzfg": false,
      "metar_trigger": false,
      "taf_trigger": false,
      "metar": "METAR EPSC 261300Z 09005KT 3400 BR OVC003 M01/M01 Q0998",
      "taf": "TAF EPSC 261130Z 2612/2712 09005KT 6000 OVC005"
    },
    {
      "icao": "EPSY",
      "alert": "OK",
      "vis_m": 3500,
      "fzfg": false,
      "metar_trigger": false,
      "taf_trigger": false,
      "metar": "METAR EPSY 261300Z 10003KT 060V150 3500 -FZDZ BR OVC004 M03/M03 Q1001",
      "taf": "TAF EPSY 261130Z 2612/2621 12008KT 7000 BKN006"
    },
    {
      "icao": "EPWA",
      "alert": "OK",
      "vis_m": 8000,
      "fzfg": false,
      "metar_trigger": false,
      "taf_trigger": false,
      "metar": "METAR EPWA 261300Z 12007KT 8000 SCT008 BKN022 01/M01 Q1001 NOSIG",
      "taf": "TAF EPWA 261130Z 2612/2712 11012KT 8000 SCT008 BKN025"
    },
    {
      "icao": "EPWR",
      "alert": "OK",
      "vis_m": 9999,
      "fzfg": false,
      "metar_trigger": false,
      "taf_trigger": false,
      "metar": "METAR EPWR 261300Z 21011KT 9999 FEW032 07/M00 Q0998",
      "taf": "TAF EPWR 261130Z 2612/2712 24010KT 9999 SCT030"
    },
    {
      "icao": "ESGG",
      "alert": "OK",
      "vis_m": 9999,
      "fzfg": false,
      "metar_trigger": false,
      "taf_trigger": false,
      "metar": "METAR ESGG 261320Z 05010KT 9999 OVC019 M05/M09 Q1008",
      "taf": "TAF ESGG 261130Z 2612/2712 04013KT 9999 BKN020"
    },
    {
      "icao": "ESKN",
      "alert": "OK",
      "vis_m": 9999,
      "fzfg": false,
      "metar_trigger": false,
      "taf_trigger": false,
      "metar": "METAR ESKN 261320Z 02008KT 350V060 9999 BKN025 M04/M06 Q1011",
      "taf": "TAF ESKN 261130Z 2612/2712 01009KT 9999 FEW012 BKN030"
    },
    {
      "icao": "ESMS",
      "alert": "OK",
      "vis_m": 9999,
      "fzfg": false,
      "metar_trigger": false,
      "taf_trigger": false,
      "metar": "METAR ESMS 261320Z 07018KT 9999 OVC007 01/M01 Q1001",
      "taf": "TAF ESMS 261127Z 2612/2712 06012KT 9999 BKN006"
    },
    {
      "icao": "ESSA",
      "alert": "OK",
      "vis_m": 9999,
      "fzfg": false,
      "metar_trigger": false,
      "taf_trigger": false,
      "metar": "METAR ESSA 261320Z 01010KT CAVOK M06/M12 Q1012 NOSIG",
      "taf": "TAF ESSA 261130Z 2612/2712 02008KT 9999 SCT020"
    },
    {
      "icao": "EYKA",
      "alert": "OK",
      "vis_m": 8000,
      "fzfg": false,
      "metar_trigger": false,
      "taf_trigger": false,
      "metar": "METAR EYKA 261320Z 10006KT 070V130 8000 -FZRA OVC012 M06/M08 Q1006",
      "taf": "TAF EYKA 261105Z 2612/2712 10008KT 9000 OVC015"
    },
    {
      "icao": "EYPA",
      "alert": "OK",
      "vis_m": 9999,
      "fzfg": false,
      "metar_trigger": false,
      "taf_trigger": false,
      "metar": "METAR EYPA 261320Z 09007KT 060V120 9999 OVC014 M05/M09 Q1005",
      "taf": "TAF EYPA 261105Z 2612/2712 08008KT 9000 OVC015"
    },
    {
      "icao": "EYVI",
      "alert": "OK",
      "vis_m": 9000,
      "fzfg": false,
      "metar_trigger": false,
      "taf_trigger": false,
      "metar": "METAR EYVI 261320Z 14007KT 9000 OVC007 M07/M08 Q1006 BECMG 5000 FZRA BR",
      "taf": "TAF EYVI 261102Z 2612/2712 14010KT 8000 OVC005"
    },
    {
      "icao": "GCFV",
      "alert": "OK",
      "vis_m": 9999,
      "fzfg": false,
      "metar_trigger": false,
      "taf_trigger": false,
      "metar": "METAR GCFV 261300Z 06007KT 020V100 CAVOK 19/10 Q1024",
      "taf": "TAF GCFV 260800Z 2609/2709 09006KT 9999 FEW035 TX20/2614Z TN12/2706Z"
    },
    {
      "icao": "GCLP",
      "alert": "OK",
      "vis_m": 9999,
      "fzfg": false,
      "metar_trigger": false,
      "taf_trigger": false,
      "metar": "METAR GCLP 261300Z 13006KT 090V170 9999 SCT035 19/11 Q1025 NOSIG",
      "taf": "TAF GCLP 260800Z 2609/2709 10005KT 9999 FEW035 TX20/2614Z TN14/2706Z"
    },
    {
      "icao": "GCTS",
      "alert": "OK",
      "vis_m": 9999,
      "fzfg": false,
      "metar_trigger": false,
      "taf_trigger": false,
      "metar": "METAR GCTS 261300Z 22011KT 180V250 9999 SCT035 20/10 Q1025 NOSIG",
      "taf": "TAF GCTS 260800Z 2609/2709 24010KT 9999 SCT035 TX22/2614Z TN14/2706Z"
    },
    {
      "icao": "GMAD",
      "alert": "OK",
      "vis_m": 9999,
      "fzfg": false,
      "metar_trigger": false,
      "taf_trigger": false,
      "metar": "METAR GMAD 261300Z 06004KT 010V150 9999 FEW020 18/13 Q1023 NOSIG",
      "taf": "TAF GMAD 261100Z 2612/2718 06005KT 8000 NSC"
    },
    {
      "icao": "GMMN",
      "alert": "OK",
      "vis_m": 9999,
      "fzfg": false,
      "metar_trigger": false,
      "taf_trigger": false,
      "metar": "METAR GMMN 261300Z 23009KT 200V260 9999 SCT030 17/13 Q1022 NOSIG",
      "taf": "TAF GMMN 261100Z 2612/2718 20012KT 9999 SCT030"
    },
    {
      "icao": "GMMX",
      "alert": "OK",
      "vis_m": 9999,
      "fzfg": false,
      "metar_trigger": false,
      "taf_trigger": false,
      "metar": "METAR GMMX 261300Z 35005KT 280V040 CAVOK 16/08 Q1022 NOSIG",
      "taf": "TAF GMMX 261100Z 2612/2718 24006KT 8000 NSC"
    },
    {
      "icao": "HEGN",
      "alert": "OK",
      "vis_m": 9999,
      "fzfg": false,
      "metar_trigger": false,
      "taf_trigger": false,
      "metar": "METAR HEGN 261300Z 10007KT CAVOK 23/13 Q1014 NOSIG",
      "taf": "TAF HEGN 261100Z 2612/2718 12012KT CAVOK"
    },
    {
      "icao": "HEMA",
      "alert": "OK",
      "vis_m": 9999,
      "fzfg": false,
      "metar_trigger": false,
      "taf_trigger": false,
      "metar": "METAR HEMA 261300Z 05008KT CAVOK 23/12 Q1013 NOSIG",
      "taf": "TAF HEMA 261100Z 2612/2718 13012KT CAVOK"
    },
    {
      "icao": "HESH",
      "alert": "OK",
      "vis_m": 9999,
      "fzfg": false,
      "metar_trigger": false,
      "taf_trigger": false,
      "metar": "METAR HESH 261300Z 15006KT CAVOK 24/10 Q1014 NOSIG",
      "taf": "TAF HESH 261100Z 2612/2718 18012KT CAVOK"
    },
    {
      "icao": "HESX",
      "alert": "OK",
      "vis_m": 9999,
      "fzfg": false,
      "metar_trigger": false,
      "taf_trigger": false,
      "metar": "METAR HESX 261300Z 20017KT CAVOK 21/M00 Q1012 NOSIG",
      "taf": "TAF HESX 261100Z 2612/2718 18011KT 9999 FEW030 SCT100"
    },
    {
      "icao": "LATI",
      "alert": "OK",
      "vis_m": 9999,
      "fzfg": false,
      "metar_trigger": false,
      "taf_trigger": false,
      "metar": "METAR LATI 261320Z VRB02KT 9999 SCT030 BKN060 12/06 Q0999 NOSIG",
      "taf": "TAF LATI 261100Z 2612/2712 VRB05KT 9999 SCT012 BKN060 TX14/2712Z TN05/2704Z"
    },
    {
      "icao": "LBPD",
      "alert": "OK",
      "vis_m": 5000,
      "fzfg": false,
      "metar_trigger": false,
      "taf_trigger": false,
      "metar": "METAR LBPD 261300Z AUTO 28009KT 5000 -SHRA BR FEW004/// OVC050/// 07/07 Q0999 NOSIG",
      "taf": "TAF LBPD 261100Z 2612/2712 VRB04KT 5000 BR BKN004 OVC050"
    },
    {
      "icao": "LBSF",
      "alert": "OK",
      "vis_m": 6000,
      "fzfg": false,
      "metar_trigger": false,
      "taf_trigger": false,
      "metar": "METAR LBSF 261300Z 18005KT 130V200 6000 RA SCT020 OVC025 08/06 Q0999 TEMPO 3000 RA",
      "taf": "TAF LBSF 261100Z 2612/2712 14010KT 9999 SCT012 OVC025"
    },
    {
      "icao": "LBWN",
      "alert": "OK",
      "vis_m": 9999,
      "fzfg": false,
      "metar_trigger": false,
      "taf_trigger": false,
      "metar": "METAR LBWN 261300Z 13007KT 100V160 9999 BKN049 12/08 Q1004 NOSIG",
      "taf": "TAF LBWN 261100Z 2612/2712 10010KT 9999 SCT040"
    },
    {
      "icao": "LCLK",
      "alert": "OK",
      "vis_m": 9999,
      "fzfg": false,
      "metar_trigger": false,
      "taf_trigger": false,
      "metar": "METAR LCLK 261300Z 09010KT 9999 FEW020 18/14 Q1014 NOSIG",
      "taf": "TAF LCLK 261130Z 2612/2712 10013KT 9999 FEW020"
    },
    {
      "icao": "LCPH",
      "alert": "OK",
      "vis_m": 9999,
      "fzfg": false,
      "metar_trigger": false,
      "taf_trigger": false,
      "metar": "METAR LCPH 261300Z 11020KT 090V160 9999 FEW025 19/12 Q1012 NOSIG",
      "taf": "TAF LCPH 261130Z 2612/2712 11020KT 9999 FEW030"
    },
    {
      "icao": "LEAL",
      "alert": "OK",
      "vis_m": 9999,
      "fzfg": false,
      "metar_trigger": false,
      "taf_trigger": false,
      "metar": "METAR LEAL 261300Z 20005KT 140V260 9999 SCT060 21/08 Q1010 NOSIG",
      "taf": ""
    },
    {
      "icao": "LEBB",
      "alert": "OK",
      "vis_m": 9999,
      "fzfg": false,
      "metar_trigger": false,
      "taf_trigger": false,
      "metar": "METAR LEBB 261300Z VRB06KT 9999 -RA FEW027 SCT060 12/08 Q1004 NOSIG",
      "taf": "TAF LEBB 261100Z 2612/2712 20009KT 9999 FEW020 BKN035 TX18/2623Z TN05/2710Z"
    },
    {
      "icao": "LEBL",
      "alert": "OK",
      "vis_m": 9999,
      "fzfg": false,
      "metar_trigger": false,
      "taf_trigger": false,
      "metar": "METAR LEBL 261300Z 29013KT 9999 FEW025 14/05 Q1007 NOSIG",
      "taf": "TAF LEBL 261100Z 2612/2712 28010KT 9999 FEW050 TX16/2612Z TN09/2706Z"
    },
    {
      "icao": "LECH",
      "alert": "OK",
      "vis_m": 9000,
      "fzfg": false,
      "metar_trigger": false,
      "taf_trigger": false,
      "metar": "METAR LECH 261300Z AUTO 16006KT 120V190 9000 NSC 15/M01 Q1008",
      "taf": ""
    },
    {
      "icao": "LEMD",
      "alert": "OK",
      "vis_m": 9000,
      "fzfg": false,
      "metar_trigger": false,
      "taf_trigger": false,
      "metar": "METAR LEMD 261300Z 19008KT 170V230 9000 -RA FEW003 BKN005 08/08 Q1010 TEMPO BKN010",
      "taf": ""
    },
    {
      "icao": "LEMG",
      "alert": "OK",
      "vis_m": 9999,
      "fzfg": false,
      "metar_trigger": false,
      "taf_trigger": false,
      "metar": "METAR LEMG 261300Z 30005KT 250V330 9999 BKN055 18/12 Q1015 NOSIG",
      "taf": "TAF LEMG 261100Z 2612/2712 30009KT 9999 FEW040 TX20/2614Z TN10/2707Z"
    },
    {
      "icao": "LEVC",
      "alert": "OK",
      "vis_m": 9999,
      "fzfg": false,
      "metar_trigger": false,
      "taf_trigger": false,
      "metar": "METAR LEVC 261300Z 31006KT 9999 FEW065 16/04 Q1009 NOSIG",
      "taf": "TAF LEVC 261100Z 2612/2712 27010KT 9999 FEW040 TX18/2612Z TN11/2706Z"
    },
    {
      "icao": "LEXJ",
      "alert": "OK",
      "vis_m": 9999,
      "fzfg": false,
      "metar_trigger": false,
      "taf_trigger": false,
      "metar": "METAR LEXJ 261300Z 21013G24KT 170V260 9999 -RA SCT065 12/06 Q1001",
      "taf": ""
    },
    {
      "icao": "LEZG",
      "alert": "OK",
      "vis_m": 9999,
      "fzfg": false,
      "metar_trigger": false,
      "taf_trigger": false,
      "metar": "METAR LEZG 261300Z 25018KT 9999 BKN070 12/04 Q1008 NOSIG",
      "taf": "TAF LEZG 261100Z 2612/2712 25010KT 9999 FEW040 TX12/2614Z TN08/2706Z"
    },
    {
      "icao": "LEZL",
      "alert": "OK",
      "vis_m": 9999,
      "fzfg": false,
      "metar_trigger": false,
      "taf_trigger": false,
      "metar": "METAR LEZL 261300Z 24008KT 210V280 9999 BKN020 OVC030 18/15 Q1015 NOSIG",
      "taf": "TAF LEZL 260800Z 2609/2709 24010KT 9999 SCT025 TX19/2615Z TN11/2707Z"
    },
    {
      "icao": "LFBD",
      "alert": "OK",
      "vis_m": 9999,
      "fzfg": false,
      "metar_trigger": false,
      "taf_trigger": false,
      "metar": "METAR LFBD 261300Z AUTO 17008KT 9999 SCT010 BKN016 OVC039 11/10 Q1004 TEMPO 4000 -RADZ BKN010",
      "taf": ""
    },
    {
      "icao": "LFLL",
      "alert": "OK",
      "vis_m": 9999,
      "fzfg": false,
      "metar_trigger": false,
      "taf_trigger": false,
      "metar": "METAR LFLL 261300Z VRB02KT 9999 SCT026 09/03 Q1005 NOSIG",
      "taf": "TAF LFLL 261100Z 2612/2718 VRB03KT 9999 BKN045"
    },
    {
      "icao": "LFLS",
      "alert": "OK",
      "vis_m": 9999,
      "fzfg": false,
      "metar_trigger": false,
      "taf_trigger": false,
      "metar": "METAR LFLS 261300Z AUTO VRB03KT 9999 FEW026 BKN041 08/02 Q1005 NOSIG",
      "taf": "TAF LFLS 260800Z 2609/2709 VRB02KT 9999 BKN020"
    },
    {
      "icao": "LFMN",
      "alert": "OK",
      "vis_m": 9999,
      "fzfg": false,
      "metar_trigger": false,
      "taf_trigger": false,
      "metar": "METAR LFMN 261300Z 20009KT 9999 FEW040 13/05 Q1001 NOSIG",
      "taf": "TAF LFMN 260800Z 2609/2715 33010KT CAVOK"
    },
    {
      "icao": "LFOB",
      "alert": "OK",
      "vis_m": 8000,
      "fzfg": false,
      "metar_trigger": false,
      "taf_trigger": false,
      "metar": "METAR LFOB 261300Z AUTO VRB03KT 8000 FEW003 BKN007 BKN016 07/06 Q1003 TEMPO 0800 FG VV///",
      "taf": "TAF LFOB 261100Z 2612/2712 16010KT 2000 BR OVC002"
    },
    {
      "icao": "LFPO",
      "alert": "OK",
      "vis_m": 9999,
      "fzfg": false,
      "metar_trigger": false,
      "taf_trigger": false,
      "metar": "METAR LFPO 261300Z 17006KT 140V200 9999 FEW010 BKN040 07/05 Q1003 NOSIG",
      "taf": ""
    },
    {
      "icao": "LFSB",
      "alert": "OK",
      "vis_m": 9999,
      "fzfg": false,
      "metar_trigger": false,
      "taf_trigger": false,
      "metar": "METAR LFSB 261300Z AUTO 25009KT 9999 FEW027 SCT035 BKN041 07/03 Q1003 NOSIG",
      "taf": "TAF LFSB 261100Z 2612/2712 25011KT 9999 BKN020"
    },
    {
      "icao": "LGAV",
      "alert": "OK",
      "vis_m": 9999,
      "fzfg": false,
      "metar_trigger": false,
      "taf_trigger": false,
      "metar": "METAR LGAV 261320Z 22009KT 9999 FEW015TCU SCT025 BKN070 14/09 Q0996 NOSIG",
      "taf": "TAF LGAV 261100Z 2612/2712 20012KT 9999 SCT020 BKN070"
    },
    {
      "icao": "LGTS",
      "alert": "OK",
      "vis_m": 9999,
      "fzfg": false,
      "metar_trigger": false,
      "taf_trigger": false,
      "metar": "METAR LGTS 261320Z 10011KT 9999 -RA SCT010 FEW018TCU BKN025 11/11 Q0996 NOSIG",
      "taf": "TAF LGTS 261100Z 2612/2712 14005KT 9999 FEW008 BKN025"
    },
    {
      "icao": "LHBP",
      "alert": "OK",
      "vis_m": 5000,
      "fzfg": false,
      "metar_trigger": false,
      "taf_trigger": false,
      "metar": "SPECI LHBP 261316Z 01004KT 340V060 5000 BR OVC004 06/05 Q1001 TEMPO OVC005",
      "taf": "TAF LHBP 261115Z 2612/2712 35005KT 8000 BKN012"
    },
    {
      "icao": "LHDC",
      "alert": "OK",
      "vis_m": 6000,
      "fzfg": false,
      "metar_trigger": false,
      "taf_trigger": false,
      "metar": "METAR LHDC 261245Z AUTO VRB02KT 6000 RA OVC050 //////TCU 07/06 Q1000 NOSIG",
      "taf": "TAF LHDC 261115Z 2612/2621 02004KT 8000 -RA SCT020 OVC040"
    },
    {
      "icao": "LIBD",
      "alert": "OK",
      "vis_m": 9999,
      "fzfg": false,
      "metar_trigger": false,
      "taf_trigger": false,
      "metar": "METAR LIBD 261320Z 32007KT 290V360 9999 FEW030 13/06 Q0998",
      "taf": "TAF LIBD 261100Z 2612/2712 34008KT 9999 SCT025"
    },
    {
      "icao": "LIBG",
      "alert": "OK",
      "vis_m": 9999,
      "fzfg": false,
      "metar_trigger": false,
      "taf_trigger": false,
      "metar": "METAR LIBG 261250Z 24004KT 210V280 9999 FEW030 14/07 Q0998",
      "taf": "TAF LIBG 261100Z 2612/2621 VRB06KT 9999 SCT020"
    },
    {
      "icao": "LIBP",
      "alert": "OK",
      "vis_m": 9999,
      "fzfg": false,
      "metar_trigger": false,
      "taf_trigger": false,
      "metar": "METAR LIBP 261320Z AUTO 03009KT 9999 NCD 11/07 Q1000",
      "taf": "TAF LIBP 261100Z 2612/2712 33010KT CAVOK"
    },
    {
      "icao": "LIBR",
      "alert": "OK",
      "vis_m": 9999,
      "fzfg": false,
      "metar_trigger": false,
      "taf_trigger": false,
      "metar": "METAR LIBR 261320Z 02005KT 340V040 CAVOK 13/07 Q0998",
      "taf": "TAF LIBR 261100Z 2612/2712 VRB06KT 9999 SCT025"
    },
    {
      "icao": "LICA",
      "alert": "OK",
      "vis_m": 9999,
      "fzfg": false,
      "metar_trigger": false,
      "taf_trigger": false,
      "metar": "METAR LICA 261320Z AUTO 25008KT 9999 NCD 15/10 Q0998",
      "taf": "TAF LICA 261100Z 2612/2712 26012KT 9999 BKN030"
    },
    {
      "icao": "LICC",
      "alert": "OK",
      "vis_m": 9000,
      "fzfg": false,
      "metar_trigger": false,
      "taf_trigger": false,
      "metar": "METAR LICC 261320Z 35005KT 310V010 9000 -RA FEW015 BKN065 12/09 Q0998",
      "taf": "TAF LICC 261100Z 2612/2712 26012KT 9999 SCT030"
    },
    {
      "icao": "LICJ",
      "alert": "OK",
      "vis_m": 7000,
      "fzfg": false,
      "metar_trigger": false,
      "taf_trigger": false,
      "metar": "METAR LICJ 261320Z 31020KT 7000 RA SCT020 BKN040 11/08 Q0999",
      "taf": "TAF LICJ 261100Z 2612/2712 22013KT 9999 BKN030"
    },
    {
      "icao": "LIMC",
      "alert": "OK",
      "vis_m": 9999,
      "fzfg": false,
      "metar_trigger": false,
      "taf_trigger": false,
      "metar": "METAR LIMC 261320Z VRB02KT 9999 SCT030 10/02 Q1001 NOSIG",
      "taf": "TAF LIMC 261100Z 2612/2718 VRB04KT 9999 SCT015"
    },
    {
      "icao": "LIME",
      "alert": "OK",
      "vis_m": 9999,
      "fzfg": false,
      "metar_trigger": false,
      "taf_trigger": false,
      "metar": "METAR LIME 261320Z VRB05KT 9999 FEW020 09/03 Q1001 NOSIG",
      "taf": "TAF LIME 261100Z 2612/2712 VRB05KT 7000 FEW020"
    },
    {
      "icao": "LIMF",
      "alert": "OK",
      "vis_m": 9999,
      "fzfg": false,
      "metar_trigger": false,
      "taf_trigger": false,
      "metar": "METAR LIMF 261320Z 14003KT 080V200 CAVOK 09/02 Q1002",
      "taf": "TAF LIMF 261100Z 2612/2712 VRB04KT 6000 SCT020"
    },
    {
      "icao": "LIMJ",
      "alert": "OK",
      "vis_m": 9999,
      "fzfg": false,
      "metar_trigger": false,
      "taf_trigger": false,
      "metar": "METAR LIMJ 261320Z 04011KT CAVOK 11/02 Q1001",
      "taf": "TAF LIMJ 261100Z 2612/2712 03010KT 9999 BKN040"
    },
    {
      "icao": "LIPE",
      "alert": "OK",
      "vis_m": 7000,
      "fzfg": false,
      "metar_trigger": false,
      "taf_trigger": false,
      "metar": "METAR LIPE 261320Z 28008KT 7000 BKN018 08/04 Q1002",
      "taf": "TAF LIPE 261100Z 2612/2712 VRB04KT 6000 SCT015"
    },
    {
      "icao": "LIPH",
      "alert": "OK",
      "vis_m": 9999,
      "fzfg": false,
      "metar_trigger": false,
      "taf_trigger": false,
      "metar": "METAR LIPH 261320Z 26005KT 230V310 9999 FEW010 09/05 Q1001",
      "taf": "TAF LIPH 261100Z 2612/2712 VRB04KT 9999 FEW025"
    },
    {
      "icao": "LIPQ",
      "alert": "OK",
      "vis_m": 9999,
      "fzfg": false,
      "metar_trigger": false,
      "taf_trigger": false,
      "metar": "METAR LIPQ 261320Z AUTO 33005KT 9999 BKN022/// 11/06 Q1000",
      "taf": "TAF LIPQ 261100Z 2612/2712 VRB04KT 9999 SCT020"
    },
    {
      "icao": "LIPR",
      "alert": "OK",
      "vis_m": 9999,
      "fzfg": false,
      "metar_trigger": false,
      "taf_trigger": false,
      "metar": "METAR LIPR 261320Z 31011KT 9999 BKN014 07/04 Q1001",
      "taf": "TAF LIPR 261100Z 2612/2712 30010KT 9999 SCT025"
    },
    {
      "icao": "LIPX",
      "alert": "OK",
      "vis_m": 9999,
      "fzfg": false,
      "metar_trigger": false,
      "taf_trigger": false,
      "metar": "METAR LIPX 261320Z 26010KT 9999 FEW025 10/05 Q1001",
      "taf": "TAF LIPX 261100Z 2612/2712 27010KT 8000 SCT020"
    },
    {
      "icao": "LIPY",
      "alert": "OK",
      "vis_m": 9999,
      "fzfg": false,
      "metar_trigger": false,
      "taf_trigger": false,
      "metar": "METAR LIPY 261320Z AUTO 33010KT 9999 OVC012/// 07/05 Q1001",
      "taf": "TAF LIPY 261100Z 2612/2712 34010KT 9999 SCT020"
    },
    {
      "icao": "LIPZ",
      "alert": "OK",
      "vis_m": 9999,
      "fzfg": false,
      "metar_trigger": false,
      "taf_trigger": false,
      "metar": "METAR LIPZ 261320Z 26006KT 230V300 9999 FEW015 09/05 Q1001 NOSIG",
      "taf": "TAF LIPZ 261100Z 2612/2718 VRB04KT 7000 FEW020"
    },
    {
      "icao": "LIRF",
      "alert": "OK",
      "vis_m": 9999,
      "fzfg": false,
      "metar_trigger": false,
      "taf_trigger": false,
      "metar": "METAR LIRF 261320Z 03003KT 360V060 9999 FEW020 10/07 Q0999 NOSIG",
      "taf": "TAF LIRF 261100Z 2612/2718 36006KT 9999 SCT030"
    },
    {
      "icao": "LIRN",
      "alert": "OK",
      "vis_m": 8000,
      "fzfg": false,
      "metar_trigger": false,
      "taf_trigger": false,
      "metar": "METAR LIRN 261320Z 20004KT 180V240 8000 -RA FEW015 BKN040 10/09 Q0998 NOSIG",
      "taf": "TAF LIRN 261100Z 2612/2712 VRB05KT 9999 SCT040"
    },
    {
      "icao": "LIRP",
      "alert": "OK",
      "vis_m": 9999,
      "fzfg": false,
      "metar_trigger": false,
      "taf_trigger": false,
      "metar": "METAR LIRP 261315Z 12007KT 9999 FEW030 11/08 Q1000 NOSIG",
      "taf": "TAF LIRP 261100Z 2612/2712 12004KT 9999 FEW020 SCT040"
    },
    {
      "icao": "LIRZ",
      "alert": "OK",
      "vis_m": 9999,
      "fzfg": false,
      "metar_trigger": false,
      "taf_trigger": false,
      "metar": "METAR LIRZ 261320Z AUTO 31005KT 280V350 9999 NCD 11/03 Q0999",
      "taf": "TAF LIRZ 261100Z 2612/2712 VRB05KT 9999 FEW040"
    },
    {
      "icao": "LJLJ",
      "alert": "OK",
      "vis_m": 9999,
      "fzfg": false,
      "metar_trigger": false,
      "taf_trigger": false,
      "metar": "METAR LJLJ 261300Z VRB02KT 9999 BKN004 04/03 Q1000 BECMG SCT005",
      "taf": "TAF LJLJ 261100Z 2612/2712 VRB02KT 3500 BR BKN002"
    },
    {
      "icao": "LKMT",
      "alert": "OK",
      "vis_m": 9999,
      "fzfg": false,
      "metar_trigger": false,
      "taf_trigger": false,
      "metar": "METAR LKMT 261300Z 24008KT 9999 FEW009 06/03 Q1000 NOSIG",
      "taf": "TAF LKMT 261100Z 2612/2712 23008KT 9999 SCT008 BKN016"
    },
    {
      "icao": "LKPR",
      "alert": "OK",
      "vis_m": 9999,
      "fzfg": false,
      "metar_trigger": false,
      "taf_trigger": false,
      "metar": "METAR LKPR 261300Z 19011KT 9999 SCT020 BKN029 03/M00 Q0997 NOSIG",
      "taf": "TAF LKPR 261100Z 2612/2718 20010KT 9999 BKN017"
    },
    {
      "icao": "LLBG",
      "alert": "OK",
      "vis_m": 9999,
      "fzfg": false,
      "metar_trigger": false,
      "taf_trigger": false,
      "metar": "METAR LLBG 261320Z 21006KT CAVOK 23/03 Q1013 NOSIG",
      "taf": "TAF LLBG 261104Z 2612/2712 20008KT CAVOK"
    },
    {
      "icao": "LMML",
      "alert": "OK",
      "vis_m": 9999,
      "fzfg": false,
      "metar_trigger": false,
      "taf_trigger": false,
      "metar": "METAR LMML 261315Z 28011KT 9999 -RA FEW016TCU SCT045 12/10 Q1000 NOSIG",
      "taf": "TAF LMML 261100Z 2612/2712 25020G30KT 9999 SCT015"
    },
    {
      "icao": "LOWW",
      "alert": "OK",
      "vis_m": 9999,
      "fzfg": false,
      "metar_trigger": false,
      "taf_trigger": false,
      "metar": "METAR LOWW 261320Z 12003KT 060V150 9999 FEW005 04/02 Q1001 NOSIG",
      "taf": "TAF LOWW 261115Z 2612/2718 VRB04KT 9999 FEW010 TX04/2613Z TNM01/2706Z"
    },
    {
      "icao": "LPFR",
      "alert": "OK",
      "vis_m": 8000,
      "fzfg": false,
      "metar_trigger": false,
      "taf_trigger": false,
      "metar": "METAR LPFR 261300Z 25011KT 8000 FEW010 BKN046 17/15 Q1017",
      "taf": "TAF LPFR 261100Z 2612/2712 25015KT 9999 SCT012 BKN025"
    },
    {
      "icao": "LPMA",
      "alert": "OK",
      "vis_m": 9999,
      "fzfg": false,
      "metar_trigger": false,
      "taf_trigger": false,
      "metar": "METAR LPMA 261300Z 20016KT 9999 FEW016 SCT033 19/11 Q1021",
      "taf": "TAF LPMA 261100Z 2612/2712 22018KT 9999 SCT015"
    },
    {
      "icao": "LPPR",
      "alert": "OK",
      "vis_m": 6000,
      "fzfg": false,
      "metar_trigger": false,
      "taf_trigger": false,
      "metar": "METAR LPPR 261300Z 20017G28KT 6000 -RA FEW004 BKN007 15/14 Q1007",
      "taf": "TAF LPPR 261100Z 2612/2712 19015KT 9999 SCT012 BKN025"
    },
    {
      "icao": "LPPS",
      "alert": "OK",
      "vis_m": 9999,
      "fzfg": false,
      "metar_trigger": false,
      "taf_trigger": false,
      "metar": "METAR LPPS 261300Z 20010KT 160V230 9999 FEW015 SCT030 19/10 Q1020",
      "taf": "TAF LPPS 261100Z 2612/2718 VRB05KT 9999 SCT015 SCT030"
    },
    {
      "icao": "LPPT",
      "alert": "OK",
      "vis_m": 7000,
      "fzfg": false,
      "metar_trigger": false,
      "taf_trigger": false,
      "metar": "METAR LPPT 261300Z 22019G31KT 200V260 7000 VCSH FEW005 BKN007 16/14 Q1013",
      "taf": ""
    },
    {
      "icao": "LQBK",
      "alert": "OK",
      "vis_m": 7000,
      "fzfg": false,
      "metar_trigger": false,
      "taf_trigger": false,
      "metar": "METAR LQBK 261300Z VRB02KT 7000 SCT003 BKN047 06/06 Q1000 NOSIG",
      "taf": "TAF LQBK 261100Z 2612/2712 30005KT 6000 NSC TX06/2613Z TN02/2706Z"
    },
    {
      "icao": "LQSA",
      "alert": "OK",
      "vis_m": 9999,
      "fzfg": false,
      "metar_trigger": false,
      "taf_trigger": false,
      "metar": "METAR LQSA 261300Z VRB01KT 9999 BKN040 08/04 Q0998 NOSIG",
      "taf": "TAF LQSA 261100Z 2612/2712 VRB02KT 9999 SCT050 TX09/2613Z TN01/2704Z"
    },
    {
      "icao": "LQTZ",
      "alert": "OK",
      "vis_m": 9999,
      "fzfg": false,
      "metar_trigger": false,
      "taf_trigger": false,
      "metar": "METAR LQTZ 261300Z 26006KT 240V300 CAVOK 12/04 Q0998",
      "taf": "TAF LQTZ 261100Z 2612/2712 28006KT 9999 SCT040 TX11/2613Z TN01/2706Z"
    },
    {
      "icao": "LRBC",
      "alert": "OK",
      "vis_m": 400,
      "fzfg": false,
      "metar_trigger": false,
      "taf_trigger": false,
      "metar": "METAR LRBC 261300Z 15004KT 0400 R16/1000U -RA FG OVC002 04/04 Q1006",
      "taf": "TAF LRBC 261100Z 2612/2621 15006KT 0150 FG VV002"
    },
    {
      "icao": "LRBS",
      "alert": "OK",
      "vis_m": 3800,
      "fzfg": false,
      "metar_trigger": false,
      "taf_trigger": false,
      "metar": "METAR LRBS 261300Z 06009KT 3800 BR OVC002 06/06 Q1003 NOSIG",
      "taf": "TAF LRBS 261100Z 2612/2712 06012KT 1500 BR OVC001"
    },
    {
      "icao": "LRBV",
      "alert": "OK",
      "vis_m": 9999,
      "fzfg": false,
      "metar_trigger": false,
      "taf_trigger": false,
      "metar": "METAR LRBV 261300Z 11012KT 9999 SCT044 10/06 Q1001",
      "taf": "TAF LRBV 261100Z 2612/2621 13010KT 9999 SCT055"
    },
    {
      "icao": "LRCL",
      "alert": "OK",
      "vis_m": 9999,
      "fzfg": false,
      "metar_trigger": false,
      "taf_trigger": false,
      "metar": "METAR LRCL 261300Z 02007KT CAVOK 06/02 Q1000",
      "taf": "TAF LRCL 261100Z 2612/2621 08005KT 9999 BKN045"
    },
    {
      "icao": "LRCV",
      "alert": "OK",
      "vis_m": 200,
      "fzfg": false,
      "metar_trigger": false,
      "taf_trigger": false,
      "metar": "METAR LRCV 261300Z 15004KT 0200 R26/0500N FG VV002 05/05 Q1001",
      "taf": "TAF LRCV 261100Z 2612/2621 08010KT 0250 -RA FG VV002"
    },
    {
      "icao": "LRIA",
      "alert": "OK",
      "vis_m": 100,
      "fzfg": false,
      "metar_trigger": false,
      "taf_trigger": false,
      "metar": "METAR LRIA 261300Z 10013KT 0100 R14/0400N FG VV001 03/03 Q1007",
      "taf": "TAF LRIA 261100Z 2612/2621 11016KT 0100 -DZ FG VV001"
    },
    {
      "icao": "LROP",
      "alert": "OK",
      "vis_m": 3000,
      "fzfg": false,
      "metar_trigger": false,
      "taf_trigger": false,
      "metar": "METAR LROP 261300Z 07013KT 3000 -RADZ BR BKN002 OVC003 06/06 Q1003 NOSIG",
      "taf": "TAF LROP 261100Z 2612/2712 06012KT 1500 BR OVC001"
    },
    {
      "icao": "LRSB",
      "alert": "OK",
      "vis_m": 9999,
      "fzfg": false,
      "metar_trigger": false,
      "taf_trigger": false,
      "metar": "METAR LRSB 261300Z 10013KT 9999 SCT042 11/06 Q0999",
      "taf": "TAF LRSB 261100Z 2612/2712 15017KT CAVOK"
    },
    {
      "icao": "LRSM",
      "alert": "OK",
      "vis_m": 9999,
      "fzfg": false,
      "metar_trigger": false,
      "taf_trigger": false,
      "metar": "METAR LRSM 261300Z 32006KT 9999 -RA NSC 05/04 Q1000",
      "taf": "TAF LRSM 261100Z 2612/2621 17010KT CAVOK"
    },
    {
      "icao": "LRSV",
      "alert": "OK",
      "vis_m": 100,
      "fzfg": false,
      "metar_trigger": false,
      "taf_trigger": false,
      "metar": "METAR LRSV 261300Z 12006KT 0100 R34/0225N FG VV001 01/01 Q1004",
      "taf": "TAF LRSV 261100Z 2612/2621 13012KT 0150 FG VV001"
    },
    {
      "icao": "LRTM",
      "alert": "OK",
      "vis_m": 7000,
      "fzfg": false,
      "metar_trigger": false,
      "taf_trigger": false,
      "metar": "METAR LRTM 261300Z VRB02KT 7000 -RA SCT015 03/02 Q1000",
      "taf": "TAF LRTM 261100Z 2612/2621 VRB04KT 9999 SCT020"
    },
    {
      "icao": "LRTR",
      "alert": "OK",
      "vis_m": 3500,
      "fzfg": false,
      "metar_trigger": false,
      "taf_trigger": false,
      "metar": "METAR LRTR 261300Z 28010KT 3500 -RA BR FEW003 SCT005 OVC040 06/06 Q1000 TEMPO 5000",
      "taf": "TAF LRTR 261100Z 2612/2712 VRB04KT 9999 SCT045"
    },
    {
      "icao": "LTAC",
      "alert": "OK",
      "vis_m": 9999,
      "fzfg": false,
      "metar_trigger": false,
      "taf_trigger": false,
      "metar": "METAR LTAC 261320Z 14006KT 080V180 9999 SCT035 BKN100 10/03 Q1010 NOSIG",
      "taf": "TAF LTAC 261040Z 2612/2712 17008KT 9999 SCT035 BKN090"
    },
    {
      "icao": "LTFM",
      "alert": "OK",
      "vis_m": 9999,
      "fzfg": false,
      "metar_trigger": false,
      "taf_trigger": false,
      "metar": "METAR LTFM 261320Z 08006KT CAVOK 16/09 Q1003 NOSIG",
      "taf": "TAF LTFM 261040Z 2612/2718 12009KT CAVOK"
    },
    {
      "icao": "LUKK",
      "alert": "OK",
      "vis_m": 4200,
      "fzfg": false,
      "metar_trigger": false,
      "taf_trigger": false,
      "metar": "METAR LUKK 261300Z 12013KT 4200 -RA BR OVC002 01/01 Q1010 NOSIG",
      "taf": "TAF LUKK 261126Z 2612/2712 11014KT 0500 DZ FG VV002"
    },
    {
      "icao": "LWOH",
      "alert": "OK",
      "vis_m": 9999,
      "fzfg": false,
      "metar_trigger": false,
      "taf_trigger": false,
      "metar": "METAR LWOH 261320Z 14008KT 9999 FEW015 BKN035 08/06 Q0997",
      "taf": "TAF LWOH 261130Z 2612/2712 VRB02KT 9999 SCT020 OVC050"
    },
    {
      "icao": "LWSK",
      "alert": "OK",
      "vis_m": 4000,
      "fzfg": false,
      "metar_trigger": false,
      "taf_trigger": false,
      "metar": "METAR LWSK 261250Z VRB02KT 4000 RA BKN003 BKN031 OVC080 10/09 Q0997 NOSIG",
      "taf": "TAF LWSK 261130Z 2612/2712 VRB02KT 5000 RA SCT010 BKN033 OVC070"
    },
    {
      "icao": "LYBE",
      "alert": "OK",
      "vis_m": 9999,
      "fzfg": false,
      "metar_trigger": false,
      "taf_trigger": false,
      "metar": "METAR LYBE 261300Z 11005KT CAVOK 09/04 Q0999 NOSIG",
      "taf": "TAF LYBE 261100Z 2612/2712 14010KT 9999 SCT040 TX10/2712Z TN03/2706Z"
    },
    {
      "icao": "LYNI",
      "alert": "OK",
      "vis_m": 9999,
      "fzfg": false,
      "metar_trigger": false,
      "taf_trigger": false,
      "metar": "METAR LYNI 261300Z 09011KT 9999 SCT050 OVC080 11/07 Q0997 NOSIG",
      "taf": "TAF LYNI 261100Z 2612/2712 05013KT 9999 SCT020 BKN050 TX11/2612Z TN03/2706Z"
    },
    {
      "icao": "LYPG",
      "alert": "OK",
      "vis_m": 9999,
      "fzfg": false,
      "metar_trigger": false,
      "taf_trigger": false,
      "metar": "METAR LYPG 261300Z VRB02KT 9999 FEW016 SCT034 13/06 Q0999 NOSIG",
      "taf": "TAF LYPG 261100Z 2612/2712 34006KT 9999 FEW013 SCT040 BKN080 TX11/2613Z TN04/2704Z"
    },
    {
      "icao": "LZIB",
      "alert": "OK",
      "vis_m": 9999,
      "fzfg": false,
      "metar_trigger": false,
      "taf_trigger": false,
      "metar": "METAR LZIB 261300Z 12005KT 9999 SCT011 06/03 Q1001 NOSIG",
      "taf": ""
    },
    {
      "icao": "LZKZ",
      "alert": "OK",
      "vis_m": 3100,
      "fzfg": false,
      "metar_trigger": false,
      "taf_trigger": false,
      "metar": "METAR LZKZ 261300Z 31002KT 3100 0600NE -RA BR BCFG FEW045 06/05 Q1000 TEMPO 2500 -RA BR BCFG",
      "taf": "TAF LZKZ 261115Z 2612/2712 27005KT 9999 FEW015 BKN030"
    },
    {
      "icao": "LZTT",
      "alert": "OK",
      "vis_m": 5000,
      "fzfg": false,
      "metar_trigger": false,
      "taf_trigger": false,
      "metar": "METAR LZTT 261300Z 01003KT 5000 BR BKN003 BKN023 04/03 Q0999 BECMG FEW004",
      "taf": "TAF LZTT 261115Z 2612/2712 16005KT 9999 FEW008 BKN035"
    },
    {
      "icao": "OEJN",
      "alert": "OK",
      "vis_m": 8000,
      "fzfg": false,
      "metar_trigger": false,
      "taf_trigger": false,
      "metar": "METAR OEJN 261300Z 26008KT 8000 NSC 31/08 Q1011 NOSIG",
      "taf": "TAF OEJN 261100Z 2612/2718 27010KT 7000 NSC"
    },
    {
      "icao": "OEMA",
      "alert": "OK",
      "vis_m": 9999,
      "fzfg": false,
      "metar_trigger": false,
      "taf_trigger": false,
      "metar": "METAR OEMA 261300Z 11007KT CAVOK 22/M02 Q1019 NOSIG",
      "taf": "TAF OEMA 261100Z 2612/2718 09012KT 7000 NSC"
    },
    {
      "icao": "OJAI",
      "alert": "OK",
      "vis_m": 4500,
      "fzfg": false,
      "metar_trigger": false,
      "taf_trigger": false,
      "metar": "METAR OJAI 261300Z 15015KT 4500 BLDU NSC 17/M00 Q1017 NOSIG",
      "taf": "TAF OJAI 261034Z 2612/2718 13008KT 5000 HZ NSC"
    },
    {
      "icao": "OMAA",
      "alert": "OK",
      "vis_m": 9999,
      "fzfg": false,
      "metar_trigger": false,
      "taf_trigger": false,
      "metar": "METAR OMAA 261300Z 30014KT 9999 SCT035 21/13 Q1016 NOSIG",
      "taf": "TAF OMAA 261100Z 2612/2718 33014KT 8000 SCT040"
    },
    {
      "icao": "OMDB",
      "alert": "OK",
      "vis_m": 9999,
      "fzfg": false,
      "metar_trigger": false,
      "taf_trigger": false,
      "metar": "METAR OMDB 261300Z 31010KT 280V340 9999 BKN030 22/14 Q1015 NOSIG",
      "taf": "TAF OMDB 261100Z 2612/2718 31013KT 8000 SCT035"
    },
    {
      "icao": "UAAA",
      "alert": "OK",
      "vis_m": 9000,
      "fzfg": false,
      "metar_trigger": false,
      "taf_trigger": false,
      "metar": "METAR UAAA 261300Z 36001MPS 9000 SCT200 M01/M06 Q1021 NOSIG",
      "taf": "TAF UAAA 261102Z 2612/2712 23003MPS 3100 BR FU SCT050 BKN100 TX03/2708Z TNM11/2702Z"
    },
    {
      "icao": "UBBB",
      "alert": "OK",
      "vis_m": 9999,
      "fzfg": false,
      "metar_trigger": false,
      "taf_trigger": false,
      "metar": "METAR UBBB 261300Z 31020G30KT 9999 BKN008 OVC026 05/03 Q1022 NOSIG",
      "taf": "TAF UBBB 261055Z 2612/2712 34016KT 9999 SCT012 BKN030 TX07/2612Z TN02/2701Z"
    },
    {
      "icao": "UDSG",
      "alert": "OK",
      "vis_m": 6000,
      "fzfg": false,
      "metar_trigger": false,
      "taf_trigger": false,
      "metar": "METAR UDSG 261300Z 25006KT 6000 FEW036 M08/M08 Q1022 NOSIG",
      "taf": "TAF UDSG 261058Z 2612/2712 VRB06KT 3000 BR BKN030"
    },
    {
      "icao": "UDYZ",
      "alert": "OK",
      "vis_m": 3200,
      "fzfg": false,
      "metar_trigger": false,
      "taf_trigger": false,
      "metar": "METAR UDYZ 261300Z 23005KT 3200 BR BKN008 M04/M06 Q1025 NOSIG",
      "taf": "TAF UDYZ 261100Z 2612/2712 VRB04KT 2300 BR BKN005"
    },
    {
      "icao": "UGKO",
      "alert": "OK",
      "vis_m": 9999,
      "fzfg": false,
      "metar_trigger": false,
      "taf_trigger": false,
      "metar": "METAR UGKO 261300Z 10008KT CAVOK 15/04 Q1015 NOSIG",
      "taf": "TAF UGKO 261100Z 2612/2712 08020KT CAVOK TX16/2612Z TN07/2618Z"
    }
  ]
}