{
  "ts_utc": "2026-04-06T04:15:37Z",
  "threshold_m": 150,
  "source": "stations_override.txt (ICAO list) + aviationweather.gov (METAR/TAF raw)",
  "station_count": 159,
  "stations": [
    {
      "icao": "BIKF",
      "alert": "OK",
      "vis_m": 6000,
      "fzfg": false,
      "metar_trigger": false,
      "taf_trigger": false,
      "metar": "METAR BIKF 060400Z 09016KT 6000 -SN SCT003 BKN011 00/M01 Q1007",
      "taf": "TAF BIKF 060111Z 0603/0703 09020KT 9999 BKN025 TX06/0624Z TN00/0603Z"
    },
    {
      "icao": "BKPR",
      "alert": "OK",
      "vis_m": 9999,
      "fzfg": false,
      "metar_trigger": false,
      "taf_trigger": false,
      "metar": "METAR BKPR 060400Z 35002KT CAVOK 03/03 Q1024 NOSIG",
      "taf": "TAF BKPR 052330Z 0600/0624 34006KT 9999 FEW040"
    },
    {
      "icao": "EBCI",
      "alert": "OK",
      "vis_m": 9999,
      "fzfg": false,
      "metar_trigger": false,
      "taf_trigger": false,
      "metar": "METAR EBCI 060350Z 20005KT CAVOK 04/02 Q1027 NOSIG",
      "taf": "TAF EBCI 052315Z 0600/0706 23010KT CAVOK"
    },
    {
      "icao": "EDDB",
      "alert": "OK",
      "vis_m": 9999,
      "fzfg": false,
      "metar_trigger": false,
      "taf_trigger": false,
      "metar": "METAR EDDB 060350Z AUTO 26013KT CAVOK 06/02 Q1021 NOSIG",
      "taf": "TAF EDDB 052300Z 0600/0624 27015KT 9999 FEW035"
    },
    {
      "icao": "EDDH",
      "alert": "OK",
      "vis_m": 9999,
      "fzfg": false,
      "metar_trigger": false,
      "taf_trigger": false,
      "metar": "METAR EDDH 060350Z AUTO 26009KT 9999 FEW031 SCT048 06/02 Q1020 NOSIG",
      "taf": "TAF EDDH 052300Z 0600/0706 26011KT 9999 SCT030"
    },
    {
      "icao": "EDDK",
      "alert": "OK",
      "vis_m": 9999,
      "fzfg": false,
      "metar_trigger": false,
      "taf_trigger": false,
      "metar": "METAR EDDK 060350Z AUTO VRB01KT 9999 BKN021 05/03 Q1026 NOSIG",
      "taf": "TAF EDDK 052300Z 0600/0706 VRB03KT CAVOK"
    },
    {
      "icao": "EDDN",
      "alert": "OK",
      "vis_m": 9999,
      "fzfg": false,
      "metar_trigger": false,
      "taf_trigger": false,
      "metar": "METAR EDDN 060350Z AUTO 26004KT CAVOK 07/01 Q1026",
      "taf": "TAF EDDN 052300Z 0600/0624 29007KT CAVOK"
    },
    {
      "icao": "EDDS",
      "alert": "OK",
      "vis_m": 9999,
      "fzfg": false,
      "metar_trigger": false,
      "taf_trigger": false,
      "metar": "METAR EDDS 060350Z AUTO VRB03KT CAVOK 08/03 Q1026",
      "taf": "TAF EDDS 052300Z 0600/0624 29005KT CAVOK"
    },
    {
      "icao": "EDFH",
      "alert": "OK",
      "vis_m": 9999,
      "fzfg": false,
      "metar_trigger": false,
      "taf_trigger": false,
      "metar": "METAR EDFH 060350Z 24005KT CAVOK 03/00 Q1026",
      "taf": "TAF EDFH 052300Z 0600/0624 28005KT CAVOK"
    },
    {
      "icao": "EDJA",
      "alert": "OK",
      "vis_m": 9999,
      "fzfg": false,
      "metar_trigger": false,
      "taf_trigger": false,
      "metar": "METAR EDJA 060350Z 28006KT 9999 OVC041 09/07 Q1026",
      "taf": "TAF EDJA 060200Z 0603/0612 23005KT 9999 BKN045"
    },
    {
      "icao": "EDLW",
      "alert": "OK",
      "vis_m": 9999,
      "fzfg": false,
      "metar_trigger": false,
      "taf_trigger": false,
      "metar": "METAR EDLW 060350Z COR 22008KT CAVOK 04/01 Q1025",
      "taf": "TAF EDLW 060320Z 0604/0624 22006KT CAVOK"
    },
    {
      "icao": "EDNY",
      "alert": "OK",
      "vis_m": 9999,
      "fzfg": false,
      "metar_trigger": false,
      "taf_trigger": false,
      "metar": "METAR EDNY 060350Z AUTO 08003KT 9999 // FEW071/// SCT082/// 07/07 Q1026",
      "taf": "TAF EDNY 060200Z 0603/0612 VRB03KT CAVOK"
    },
    {
      "icao": "EDSB",
      "alert": "OK",
      "vis_m": 9999,
      "fzfg": false,
      "metar_trigger": false,
      "taf_trigger": false,
      "metar": "METAR EDSB 060350Z 20002KT CAVOK 08/03 Q1027",
      "taf": "TAF EDSB 052300Z 0600/0624 VRB03KT CAVOK"
    },
    {
      "icao": "EETN",
      "alert": "OK",
      "vis_m": 9999,
      "fzfg": false,
      "metar_trigger": false,
      "taf_trigger": false,
      "metar": "METAR EETN 060350Z 19013KT 9999 -RA BKN022 OVC029 04/00 Q0991 NOSIG",
      "taf": ""
    },
    {
      "icao": "EFTU",
      "alert": "OK",
      "vis_m": 6000,
      "fzfg": false,
      "metar_trigger": false,
      "taf_trigger": false,
      "metar": "METAR EFTU 060350Z AUTO 20007KT 6000 DZRA OVC005 03/02 Q0985",
      "taf": "TAF EFTU 060238Z 0603/0703 20010KT 9999 BKN008"
    },
    {
      "icao": "EGBB",
      "alert": "OK",
      "vis_m": 9999,
      "fzfg": false,
      "metar_trigger": false,
      "taf_trigger": false,
      "metar": "METAR EGBB 060350Z 15003KT CAVOK 01/M01 Q1025",
      "taf": "TAF EGBB 052255Z 0600/0624 23003KT 9999 FEW030"
    },
    {
      "icao": "EGGP",
      "alert": "OK",
      "vis_m": 9999,
      "fzfg": false,
      "metar_trigger": false,
      "taf_trigger": false,
      "metar": "METAR EGGP 060350Z 15006KT CAVOK 03/02 Q1024",
      "taf": "TAF EGGP 052256Z 0600/0624 VRB03KT 9999 FEW040"
    },
    {
      "icao": "EGGW",
      "alert": "OK",
      "vis_m": 9999,
      "fzfg": false,
      "metar_trigger": false,
      "taf_trigger": false,
      "metar": "METAR EGGW 060350Z AUTO VRB01KT 9999 NCD 02/00 Q1025",
      "taf": "TAF EGGW 052255Z 0600/0624 25005KT 9999 FEW035"
    },
    {
      "icao": "EGKK",
      "alert": "OK",
      "vis_m": 9999,
      "fzfg": false,
      "metar_trigger": false,
      "taf_trigger": false,
      "metar": "METAR EGKK 060350Z VRB01KT CAVOK 01/M01 Q1026",
      "taf": "TAF EGKK 052300Z 0600/0706 VRB03KT 9999 FEW045"
    },
    {
      "icao": "EGNM",
      "alert": "OK",
      "vis_m": 9999,
      "fzfg": false,
      "metar_trigger": false,
      "taf_trigger": false,
      "metar": "METAR EGNM 060350Z 18004KT CAVOK 01/M00 Q1024",
      "taf": "TAF EGNM 052255Z 0600/0624 23010KT 9999 FEW035"
    },
    {
      "icao": "EGPD",
      "alert": "OK",
      "vis_m": 9999,
      "fzfg": false,
      "metar_trigger": false,
      "taf_trigger": false,
      "metar": "METAR EGPD 060350Z COR AUTO 25009KT 9999 NCD 04/M03 Q1019 NOSIG",
      "taf": "TAF EGPD 052253Z 0600/0624 24008KT CAVOK"
    },
    {
      "icao": "EGPF",
      "alert": "OK",
      "vis_m": 9999,
      "fzfg": false,
      "metar_trigger": false,
      "taf_trigger": false,
      "metar": "METAR EGPF 060350Z AUTO 02004KT 9999 NCD M00/M01 Q1022",
      "taf": "TAF EGPF 052256Z 0600/0624 VRB03KT 9999 FEW030"
    },
    {
      "icao": "EHBK",
      "alert": "OK",
      "vis_m": 9999,
      "fzfg": false,
      "metar_trigger": false,
      "taf_trigger": false,
      "metar": "METAR EHBK 060355Z COR AUTO 21008KT 9999 NSC 04/02 Q1026 NOSIG",
      "taf": "TAF EHBK 052252Z 0600/0706 22005KT CAVOK"
    },
    {
      "icao": "EHEH",
      "alert": "OK",
      "vis_m": 9999,
      "fzfg": false,
      "metar_trigger": false,
      "taf_trigger": false,
      "metar": "METAR EHEH 060355Z AUTO 20002KT 9999 BKN260 OVC310 00/M00 Q1026 BLU",
      "taf": "TAF EHEH 052322Z 0600/0706 23003KT 9999 CAVOK"
    },
    {
      "icao": "EKBI",
      "alert": "OK",
      "vis_m": 9999,
      "fzfg": false,
      "metar_trigger": false,
      "taf_trigger": false,
      "metar": "METAR EKBI 060350Z AUTO 26015KT 9999 FEW021/// SCT026/// 04/02 Q1015",
      "taf": "TAF EKBI 060227Z 0603/0703 25018KT 9999 BKN035"
    },
    {
      "icao": "EKCH",
      "alert": "OK",
      "vis_m": 9999,
      "fzfg": false,
      "metar_trigger": false,
      "taf_trigger": false,
      "metar": "METAR EKCH 060350Z AUTO 27020KT 9999 BKN027/// 05/01 Q1012 TEMPO 26018G30KT",
      "taf": "TAF EKCH 060227Z 0603/0703 25020G35KT 9999 FEW045"
    },
    {
      "icao": "ENAL",
      "alert": "OK",
      "vis_m": 9999,
      "fzfg": false,
      "metar_trigger": false,
      "taf_trigger": false,
      "metar": "METAR ENAL 060350Z 32013KT 280V350 9999 -RA FEW005 SCT016 BKN020 05/03 Q1002",
      "taf": "TAF ENAL 060200Z 0603/0612 28012KT 9999 FEW015 BKN030"
    },
    {
      "icao": "ENBR",
      "alert": "OK",
      "vis_m": 9999,
      "fzfg": false,
      "metar_trigger": false,
      "taf_trigger": false,
      "metar": "METAR ENBR 060350Z 30017KT 9999 -SHRA SCT010 BKN013 04/02 Q1005 RMK WIND 1200FT 31036G49KT",
      "taf": "TAF ENBR 052300Z 0600/0624 27012KT 9999 FEW015 SCT030"
    },
    {
      "icao": "ENGM",
      "alert": "OK",
      "vis_m": 9999,
      "fzfg": false,
      "metar_trigger": false,
      "taf_trigger": false,
      "metar": "METAR ENGM 060350Z 26006KT 220V300 CAVOK 04/M06 Q0997 NOSIG",
      "taf": "TAF ENGM 052300Z 0600/0624 26008KT CAVOK"
    },
    {
      "icao": "ENHD",
      "alert": "OK",
      "vis_m": 9999,
      "fzfg": false,
      "metar_trigger": false,
      "taf_trigger": false,
      "metar": "METAR ENHD 060350Z AUTO 29027G37KT 9999 FEW026/// SCT033/// BKN042/// 06/02 Q1008",
      "taf": "TAF ENHD 060200Z 0603/0612 29022KT 9999 FEW020 SCT035"
    },
    {
      "icao": "ENTC",
      "alert": "OK",
      "vis_m": 9999,
      "fzfg": false,
      "metar_trigger": false,
      "taf_trigger": false,
      "metar": "METAR ENTC 060350Z 08001KT CAVOK M03/M06 Q0999 RMK WIND 2600FT 08004KT",
      "taf": "TAF ENTC 052300Z 0600/0624 VRB03KT CAVOK"
    },
    {
      "icao": "ENTO",
      "alert": "OK",
      "vis_m": 9999,
      "fzfg": false,
      "metar_trigger": false,
      "taf_trigger": false,
      "metar": "METAR ENTO 060350Z 23006KT CAVOK 04/M03 Q1001",
      "taf": "TAF ENTO 052300Z 0600/0624 26010KT CAVOK"
    },
    {
      "icao": "ENVA",
      "alert": "OK",
      "vis_m": 9999,
      "fzfg": false,
      "metar_trigger": false,
      "taf_trigger": false,
      "metar": "METAR ENVA 060350Z 29010KT 9999 BKN022 03/01 Q0996 RMK WIND 670FT 32018KT",
      "taf": "TAF ENVA 052300Z 0600/0624 28012KT 9999 SCT010 BKN020"
    },
    {
      "icao": "ENZV",
      "alert": "OK",
      "vis_m": 9999,
      "fzfg": false,
      "metar_trigger": false,
      "taf_trigger": false,
      "metar": "METAR ENZV 060350Z 29021KT 9999 FEW024 SCT031 06/02 Q1009",
      "taf": "TAF ENZV 052300Z 0600/0624 29018KT 9999 FEW020 SCT035"
    },
    {
      "icao": "EPGD",
      "alert": "OK",
      "vis_m": 9999,
      "fzfg": false,
      "metar_trigger": false,
      "taf_trigger": false,
      "metar": "METAR EPGD 060400Z 27019KT 9999 FEW033 04/M01 Q1011",
      "taf": "TAF EPGD 052330Z 0600/0624 27012KT 9999 BKN035"
    },
    {
      "icao": "EPKK",
      "alert": "OK",
      "vis_m": 9999,
      "fzfg": false,
      "metar_trigger": false,
      "taf_trigger": false,
      "metar": "METAR EPKK 060400Z 26012KT 9999 -SHRA FEW035CB BKN046 09/05 Q1018",
      "taf": "TAF EPKK 060230Z 0603/0703 29008KT 9999 BKN040"
    },
    {
      "icao": "EPKT",
      "alert": "OK",
      "vis_m": 9999,
      "fzfg": false,
      "metar_trigger": false,
      "taf_trigger": false,
      "metar": "METAR EPKT 060400Z 27011KT CAVOK 08/04 Q1018",
      "taf": ""
    },
    {
      "icao": "EPLB",
      "alert": "OK",
      "vis_m": 9999,
      "fzfg": false,
      "metar_trigger": false,
      "taf_trigger": false,
      "metar": "METAR EPLB 060400Z 23011KT CAVOK 08/07 Q1013",
      "taf": "TAF EPLB 052330Z 0600/0624 25005KT CAVOK"
    },
    {
      "icao": "EPMO",
      "alert": "OK",
      "vis_m": 3100,
      "fzfg": false,
      "metar_trigger": false,
      "taf_trigger": false,
      "metar": "METAR EPMO 060400Z 29023G41KT 3100 TSRA SCT007 BKN018CB 02/02 Q1014",
      "taf": ""
    },
    {
      "icao": "EPPO",
      "alert": "OK",
      "vis_m": 7000,
      "fzfg": false,
      "metar_trigger": false,
      "taf_trigger": false,
      "metar": "METAR EPPO 060400Z 29016KT 270V340 7000 -TSRA BKN016CB 03/01 Q1018 RESHRA",
      "taf": ""
    },
    {
      "icao": "EPRA",
      "alert": "OK",
      "vis_m": 9999,
      "fzfg": false,
      "metar_trigger": false,
      "taf_trigger": false,
      "metar": "METAR EPRA 060400Z 26013KT CAVOK 09/06 Q1014",
      "taf": "TAF EPRA 060230Z 0603/0612 22008KT CAVOK"
    },
    {
      "icao": "EPRZ",
      "alert": "OK",
      "vis_m": 9999,
      "fzfg": false,
      "metar_trigger": false,
      "taf_trigger": false,
      "metar": "METAR EPRZ 060400Z 26012KT 9999 BKN040CB 10/05 Q1016",
      "taf": "TAF EPRZ 052330Z 0600/0624 28014KT CAVOK"
    },
    {
      "icao": "EPSC",
      "alert": "OK",
      "vis_m": 9999,
      "fzfg": false,
      "metar_trigger": false,
      "taf_trigger": false,
      "metar": "METAR EPSC 060400Z 26012KT 9999 SCT027 05/01 Q1016",
      "taf": "TAF EPSC 052330Z 0600/0624 27012KT 9999 BKN045"
    },
    {
      "icao": "EPSY",
      "alert": "OK",
      "vis_m": 9999,
      "fzfg": false,
      "metar_trigger": false,
      "taf_trigger": false,
      "metar": "METAR EPSY 060400Z 24008KT 9999 BKN044 04/01 Q1011",
      "taf": "TAF EPSY 060230Z 0603/0612 24006KT 9999 SCT040"
    },
    {
      "icao": "EPWA",
      "alert": "OK",
      "vis_m": 9999,
      "fzfg": false,
      "metar_trigger": false,
      "taf_trigger": false,
      "metar": "METAR EPWA 060400Z 25010KT 9999 FEW013 SCT046CB 08/06 Q1013 TEMPO 30022KT 2000 TSRA BKN014",
      "taf": "TAF EPWA 060230Z 0603/0703 23010KT 9999 SCT020"
    },
    {
      "icao": "EPWR",
      "alert": "OK",
      "vis_m": 9999,
      "fzfg": false,
      "metar_trigger": false,
      "taf_trigger": false,
      "metar": "METAR EPWR 060400Z 27016KT CAVOK 09/02 Q1020",
      "taf": "TAF EPWR 060230Z 0603/0703 27015KT CAVOK"
    },
    {
      "icao": "ESGG",
      "alert": "OK",
      "vis_m": 9999,
      "fzfg": false,
      "metar_trigger": false,
      "taf_trigger": false,
      "metar": "METAR ESGG 060350Z 27016KT 9999 FEW022 04/M00 Q1004",
      "taf": "TAF ESGG 060230Z 0603/0703 27020G32KT 9999 SCT020"
    },
    {
      "icao": "ESKN",
      "alert": "OK",
      "vis_m": 9999,
      "fzfg": false,
      "metar_trigger": false,
      "taf_trigger": false,
      "metar": "METAR ESKN 060350Z 28024G37KT CAVOK 05/M03 Q0992",
      "taf": "TAF ESKN 060230Z 0603/0703 27025G37KT 9999 BKN025"
    },
    {
      "icao": "ESMS",
      "alert": "OK",
      "vis_m": 9999,
      "fzfg": false,
      "metar_trigger": false,
      "taf_trigger": false,
      "metar": "METAR ESMS 060350Z 27019KT 9999 SCT029 05/00 Q1010",
      "taf": "TAF ESMS 060227Z 0603/0703 25020G32KT 9999 FEW035"
    },
    {
      "icao": "ESSA",
      "alert": "OK",
      "vis_m": 9999,
      "fzfg": false,
      "metar_trigger": false,
      "taf_trigger": false,
      "metar": "METAR ESSA 060350Z 27019KT 9999 SCT012 BKN015 03/01 Q0988 NOSIG",
      "taf": "TAF ESSA 060230Z 0603/0703 27017G27KT 9999 BKN009"
    },
    {
      "icao": "EYKA",
      "alert": "OK",
      "vis_m": 9999,
      "fzfg": false,
      "metar_trigger": false,
      "taf_trigger": false,
      "metar": "METAR EYKA 060350Z 27016KT 9999 SCT033 05/00 Q1007",
      "taf": ""
    },
    {
      "icao": "EYPA",
      "alert": "OK",
      "vis_m": 9999,
      "fzfg": false,
      "metar_trigger": false,
      "taf_trigger": false,
      "metar": "METAR EYPA 060350Z 25012G23KT 210V310 CAVOK 04/01 Q1003",
      "taf": "TAF EYPA 052301Z 0600/0624 27012G22KT 9000 NSC"
    },
    {
      "icao": "EYVI",
      "alert": "OK",
      "vis_m": 9999,
      "fzfg": false,
      "metar_trigger": false,
      "taf_trigger": false,
      "metar": "METAR EYVI 060350Z 24010KT CAVOK 05/01 Q1007 NOSIG",
      "taf": "TAF EYVI 052300Z 0600/0624 24010KT 9000 SCT020"
    },
    {
      "icao": "GCFV",
      "alert": "OK",
      "vis_m": 9999,
      "fzfg": false,
      "metar_trigger": false,
      "taf_trigger": false,
      "metar": "METAR GCFV 060400Z AUTO 28018KT CAVOK 19/16 Q1011",
      "taf": "TAF GCFV 060200Z 0603/0703 33010KT CAVOK TX23/0614Z TN16/0606Z"
    },
    {
      "icao": "GCLP",
      "alert": "OK",
      "vis_m": 9999,
      "fzfg": false,
      "metar_trigger": false,
      "taf_trigger": false,
      "metar": "METAR GCLP 060400Z 30002KT CAVOK 17/14 Q1013 NOSIG",
      "taf": "TAF GCLP 060200Z 0603/0703 03013KT CAVOK TX23/0614Z TN17/0606Z"
    },
    {
      "icao": "GCTS",
      "alert": "OK",
      "vis_m": 9999,
      "fzfg": false,
      "metar_trigger": false,
      "taf_trigger": false,
      "metar": "METAR GCTS 060400Z 29006KT CAVOK 18/14 Q1014 NOSIG",
      "taf": "TAF GCTS 060200Z 0603/0703 27005KT 9999 FEW020 TX23/0614Z TN16/0606Z"
    },
    {
      "icao": "GMAD",
      "alert": "OK",
      "vis_m": 9999,
      "fzfg": false,
      "metar_trigger": false,
      "taf_trigger": false,
      "metar": "METAR GMAD 060400Z 05018G28KT 9999 SCT030 BKN080 23/10 Q1015 NOSIG",
      "taf": "TAF GMAD 052300Z 0600/0706 08006KT 8000 SCT026 BKN080"
    },
    {
      "icao": "GMMN",
      "alert": "OK",
      "vis_m": 9999,
      "fzfg": false,
      "metar_trigger": false,
      "taf_trigger": false,
      "metar": "METAR GMMN 060400Z 17009KT CAVOK 16/11 Q1016 NOSIG",
      "taf": "TAF GMMN 052300Z 0600/0706 14008KT CAVOK"
    },
    {
      "icao": "GMMX",
      "alert": "OK",
      "vis_m": 8000,
      "fzfg": false,
      "metar_trigger": false,
      "taf_trigger": false,
      "metar": "METAR GMMX 060400Z 16010KT 120V200 8000 BKN100 23/08 Q1016 NOSIG",
      "taf": "TAF GMMX 052300Z 0600/0706 36006KT 8000 SCT100"
    },
    {
      "icao": "HEGN",
      "alert": "OK",
      "vis_m": 9999,
      "fzfg": false,
      "metar_trigger": false,
      "taf_trigger": false,
      "metar": "METAR HEGN 060300Z 00000KT CAVOK 18/M05 Q1018 NOSIG",
      "taf": "TAF HEGN 052300Z 0600/0706 28006G18KT CAVOK"
    },
    {
      "icao": "HEMA",
      "alert": "OK",
      "vis_m": null,
      "fzfg": false,
      "metar_trigger": false,
      "taf_trigger": false,
      "metar": "",
      "taf": "TAF HEMA 052300Z 0600/0706 30008G20KT CAVOK"
    },
    {
      "icao": "HESH",
      "alert": "OK",
      "vis_m": 9999,
      "fzfg": false,
      "metar_trigger": false,
      "taf_trigger": false,
      "metar": "METAR HESH 060300Z 26003KT CAVOK 20/02 Q1017 NOSIG",
      "taf": "TAF HESH 052300Z 0600/0706 32006G18KT CAVOK"
    },
    {
      "icao": "HESX",
      "alert": "OK",
      "vis_m": 9999,
      "fzfg": false,
      "metar_trigger": false,
      "taf_trigger": false,
      "metar": "METAR HESX 060300Z 20003KT CAVOK 13/11 Q1019 NOSIG",
      "taf": "TAF HESX 052300Z 0600/0706 33008KT CAVOK"
    },
    {
      "icao": "LATI",
      "alert": "OK",
      "vis_m": 9999,
      "fzfg": false,
      "metar_trigger": false,
      "taf_trigger": false,
      "metar": "METAR LATI 060350Z 15003KT CAVOK 06/03 Q1024 NOSIG",
      "taf": "TAF LATI 052300Z 0600/0624 VRB03KT CAVOK TX24/0611Z TN06/0604Z"
    },
    {
      "icao": "LBPD",
      "alert": "OK",
      "vis_m": 9999,
      "fzfg": false,
      "metar_trigger": false,
      "taf_trigger": false,
      "metar": "METAR LBPD 060400Z AUTO VRB02KT 9999 NCD 08/04 Q1023 NOSIG",
      "taf": "TAF LBPD 052300Z 0600/0624 VRB03KT 9999 SCT060"
    },
    {
      "icao": "LBSF",
      "alert": "OK",
      "vis_m": 9999,
      "fzfg": false,
      "metar_trigger": false,
      "taf_trigger": false,
      "metar": "METAR LBSF 060400Z 00000KT CAVOK 04/03 Q1023 NOSIG",
      "taf": "TAF LBSF 052300Z 0600/0624 VRB03KT 9999 SCT070"
    },
    {
      "icao": "LBWN",
      "alert": "OK",
      "vis_m": 9999,
      "fzfg": false,
      "metar_trigger": false,
      "taf_trigger": false,
      "metar": "METAR LBWN 060400Z AUTO 28002KT 9999 NCD 06/03 Q1021 NOSIG",
      "taf": "TAF LBWN 052300Z 0600/0624 VRB03KT CAVOK"
    },
    {
      "icao": "LCLK",
      "alert": "OK",
      "vis_m": 9999,
      "fzfg": false,
      "metar_trigger": false,
      "taf_trigger": false,
      "metar": "METAR LCLK 060400Z 31005KT 280V340 9999 FEW025 FEW030CB 11/11 Q1018 NOSIG RMK DISTANT CB TO SE",
      "taf": "TAF LCLK 052330Z 0600/0700 29006KT 9999 FEW025"
    },
    {
      "icao": "LCPH",
      "alert": "OK",
      "vis_m": 9999,
      "fzfg": false,
      "metar_trigger": false,
      "taf_trigger": false,
      "metar": "METAR LCPH 060400Z 06005KT 010V080 9999 FEW020CB FEW025TCU 12/09 Q1018 NOSIG RMK DISTANT CB TO NW",
      "taf": "TAF LCPH 052330Z 0600/0700 35008KT 9999 FEW025 FEW030TCU SCT040"
    },
    {
      "icao": "LEAL",
      "alert": "OK",
      "vis_m": 9999,
      "fzfg": false,
      "metar_trigger": false,
      "taf_trigger": false,
      "metar": "METAR LEAL 060400Z VRB02KT CAVOK 13/07 Q1024 NOSIG",
      "taf": "TAF LEAL 052300Z 0600/0624 01005KT CAVOK TX21/0612Z TN11/0606Z"
    },
    {
      "icao": "LEBB",
      "alert": "OK",
      "vis_m": 9999,
      "fzfg": false,
      "metar_trigger": false,
      "taf_trigger": false,
      "metar": "METAR LEBB 060400Z 09004KT CAVOK 10/09 Q1021 TEMPO 3000 BR",
      "taf": "TAF LEBB 052300Z 0600/0624 13008KT 9999 SCT020 TX28/0615Z TN09/0603Z"
    },
    {
      "icao": "LEBL",
      "alert": "OK",
      "vis_m": 9999,
      "fzfg": false,
      "metar_trigger": false,
      "taf_trigger": false,
      "metar": "METAR LEBL 060400Z 30006KT CAVOK 12/07 Q1025 NOSIG",
      "taf": ""
    },
    {
      "icao": "LECH",
      "alert": "OK",
      "vis_m": 9999,
      "fzfg": false,
      "metar_trigger": false,
      "taf_trigger": false,
      "metar": "METAR LECH 060400Z AUTO 19002KT CAVOK 09/04 Q1025",
      "taf": "TAF LECH 052300Z 0600/0624 VRB03KT 9999 FEW020 TX23/0614Z TN10/0606Z"
    },
    {
      "icao": "LEMD",
      "alert": "OK",
      "vis_m": 9999,
      "fzfg": false,
      "metar_trigger": false,
      "taf_trigger": false,
      "metar": "METAR LEMD 060400Z 35003KT 310V030 CAVOK 09/03 Q1023 NOSIG",
      "taf": "TAF LEMD 052300Z 0600/0706 VRB04KT CAVOK TX27/0616Z TN09/0606Z"
    },
    {
      "icao": "LEMG",
      "alert": "OK",
      "vis_m": 9999,
      "fzfg": false,
      "metar_trigger": false,
      "taf_trigger": false,
      "metar": "METAR LEMG 060400Z 27008KT CAVOK 10/04 Q1023 NOSIG",
      "taf": "TAF LEMG 052300Z 0600/0624 28006KT CAVOK TX22/0614Z TN10/0606Z"
    },
    {
      "icao": "LEVC",
      "alert": "OK",
      "vis_m": 9999,
      "fzfg": false,
      "metar_trigger": false,
      "taf_trigger": false,
      "metar": "METAR LEVC 060400Z 31004KT CAVOK 09/06 Q1025 NOSIG",
      "taf": "TAF LEVC 052300Z 0600/0624 VRB03KT 9999 FEW015 TX22/0614Z TN10/0606Z"
    },
    {
      "icao": "LEXJ",
      "alert": "OK",
      "vis_m": 2500,
      "fzfg": false,
      "metar_trigger": false,
      "taf_trigger": false,
      "metar": "METAR LEXJ 060400Z 19001KT 2500 BR SCT010 08/08 Q1020",
      "taf": "TAF LEXJ 060200Z 0603/0703 19009KT 9999 FEW050 TX28/0614Z TN10/0606Z"
    },
    {
      "icao": "LEZG",
      "alert": "OK",
      "vis_m": 9999,
      "fzfg": false,
      "metar_trigger": false,
      "taf_trigger": false,
      "metar": "METAR LEZG 060400Z VRB02KT CAVOK 12/07 Q1024 NOSIG",
      "taf": "TAF LEZG 052300Z 0600/0624 09006KT CAVOK TX29/0614Z TN12/0606Z"
    },
    {
      "icao": "LEZL",
      "alert": "OK",
      "vis_m": 9999,
      "fzfg": false,
      "metar_trigger": false,
      "taf_trigger": false,
      "metar": "METAR LEZL 060400Z VRB02KT CAVOK 12/04 Q1019 NOSIG",
      "taf": "TAF LEZL 060200Z 0603/0703 06008KT CAVOK TX29/0615Z TN11/0606Z"
    },
    {
      "icao": "LFBD",
      "alert": "OK",
      "vis_m": 9999,
      "fzfg": false,
      "metar_trigger": false,
      "taf_trigger": false,
      "metar": "METAR LFBD 060400Z AUTO 06004KT CAVOK 10/09 Q1023 NOSIG",
      "taf": "TAF LFBD 052300Z 0600/0706 03005KT CAVOK TX29/0614Z TN10/0606Z"
    },
    {
      "icao": "LFLL",
      "alert": "OK",
      "vis_m": 9999,
      "fzfg": false,
      "metar_trigger": false,
      "taf_trigger": false,
      "metar": "METAR LFLL 060400Z VRB02KT CAVOK 10/06 Q1025 NOSIG",
      "taf": "TAF LFLL 052300Z 0600/0706 VRB02KT CAVOK"
    },
    {
      "icao": "LFLS",
      "alert": "OK",
      "vis_m": 9999,
      "fzfg": false,
      "metar_trigger": false,
      "taf_trigger": false,
      "metar": "METAR LFLS 060400Z AUTO VRB03KT CAVOK 06/05 Q1025 NOSIG",
      "taf": "TAF LFLS 060200Z 0603/0703 08005KT CAVOK"
    },
    {
      "icao": "LFMN",
      "alert": "OK",
      "vis_m": 9999,
      "fzfg": false,
      "metar_trigger": false,
      "taf_trigger": false,
      "metar": "METAR LFMN 060400Z 33007KT CAVOK 11/08 Q1024 TEMPO BKN010",
      "taf": "TAF LFMN 060200Z 0603/0709 33010KT CAVOK"
    },
    {
      "icao": "LFOB",
      "alert": "OK",
      "vis_m": 9999,
      "fzfg": false,
      "metar_trigger": false,
      "taf_trigger": false,
      "metar": "METAR LFOB 060400Z AUTO VRB03KT CAVOK M01/M01 Q1027 TEMPO 4000 BR",
      "taf": "TAF LFOB 052300Z 0600/0624 VRB03KT 9999 SCT030"
    },
    {
      "icao": "LFPO",
      "alert": "OK",
      "vis_m": 9999,
      "fzfg": false,
      "metar_trigger": false,
      "taf_trigger": false,
      "metar": "METAR LFPO 060400Z 28002KT CAVOK 04/03 Q1027 NOSIG",
      "taf": "TAF LFPO 052300Z 0600/0706 VRB03KT CAVOK"
    },
    {
      "icao": "LFSB",
      "alert": "OK",
      "vis_m": 9999,
      "fzfg": false,
      "metar_trigger": false,
      "taf_trigger": false,
      "metar": "METAR LFSB 060400Z AUTO 31003KT 260V360 9999 FEW048/// 06/05 Q1026 NOSIG",
      "taf": "TAF LFSB 052300Z 0600/0624 29008KT CAVOK"
    },
    {
      "icao": "LGAV",
      "alert": "OK",
      "vis_m": 9999,
      "fzfg": false,
      "metar_trigger": false,
      "taf_trigger": false,
      "metar": "METAR LGAV 060350Z 00000KT 9999 FEW025 10/05 Q1022 NOSIG",
      "taf": "TAF LGAV 052300Z 0600/0624 36015KT 9999 FEW020"
    },
    {
      "icao": "LGTS",
      "alert": "OK",
      "vis_m": 9999,
      "fzfg": false,
      "metar_trigger": false,
      "taf_trigger": false,
      "metar": "METAR LGTS 060350Z 11005KT CAVOK 07/06 Q1023 NOSIG",
      "taf": "TAF LGTS 052300Z 0600/0624 VRB03KT 9999 FEW025"
    },
    {
      "icao": "LHBP",
      "alert": "OK",
      "vis_m": 9999,
      "fzfg": false,
      "metar_trigger": false,
      "taf_trigger": false,
      "metar": "METAR LHBP 060400Z VRB02KT CAVOK 09/07 Q1019 WS ALL RWY BECMG 32015G25KT",
      "taf": "TAF LHBP 052315Z 0600/0624 16004KT CAVOK"
    },
    {
      "icao": "LHDC",
      "alert": "OK",
      "vis_m": 9999,
      "fzfg": false,
      "metar_trigger": false,
      "taf_trigger": false,
      "metar": "METAR LHDC 060345Z AUTO 19008KT CAVOK 10/07 Q1020 NOSIG",
      "taf": "TAF LHDC 060215Z 0603/0612 20008KT CAVOK"
    },
    {
      "icao": "LIBD",
      "alert": "OK",
      "vis_m": 9999,
      "fzfg": false,
      "metar_trigger": false,
      "taf_trigger": false,
      "metar": "METAR LIBD 060350Z 22006KT CAVOK 08/05 Q1023",
      "taf": "TAF LIBD 052300Z 0600/0624 23006KT CAVOK"
    },
    {
      "icao": "LIBG",
      "alert": "OK",
      "vis_m": null,
      "fzfg": false,
      "metar_trigger": false,
      "taf_trigger": false,
      "metar": "",
      "taf": ""
    },
    {
      "icao": "LIBP",
      "alert": "OK",
      "vis_m": 9999,
      "fzfg": false,
      "metar_trigger": false,
      "taf_trigger": false,
      "metar": "METAR LIBP 060350Z AUTO VRB02KT 9999 NCD 07/06 Q1023",
      "taf": "TAF LIBP 052300Z 0600/0624 23006KT CAVOK"
    },
    {
      "icao": "LIBR",
      "alert": "OK",
      "vis_m": 9999,
      "fzfg": false,
      "metar_trigger": false,
      "taf_trigger": false,
      "metar": "METAR LIBR 060350Z 24008KT CAVOK 08/04 Q1023",
      "taf": "TAF LIBR 052300Z 0600/0624 29006KT CAVOK"
    },
    {
      "icao": "LICA",
      "alert": "OK",
      "vis_m": 9999,
      "fzfg": false,
      "metar_trigger": false,
      "taf_trigger": false,
      "metar": "METAR LICA 060350Z AUTO VRB01KT 9999 FEW028/// 10/09 Q1026",
      "taf": "TAF LICA 052300Z 0600/0624 VRB05KT 9999 SCT013"
    },
    {
      "icao": "LICC",
      "alert": "OK",
      "vis_m": 9999,
      "fzfg": false,
      "metar_trigger": false,
      "taf_trigger": false,
      "metar": "METAR LICC 060350Z 24005KT CAVOK 07/04 Q1025",
      "taf": "TAF LICC 052300Z 0600/0624 26007KT 8000 FEW060"
    },
    {
      "icao": "LICJ",
      "alert": "OK",
      "vis_m": 9999,
      "fzfg": false,
      "metar_trigger": false,
      "taf_trigger": false,
      "metar": "METAR LICJ 060350Z VRB01KT CAVOK 11/07 Q1025",
      "taf": "TAF LICJ 052300Z 0600/0624 VRB04KT CAVOK"
    },
    {
      "icao": "LIMC",
      "alert": "OK",
      "vis_m": 9999,
      "fzfg": false,
      "metar_trigger": false,
      "taf_trigger": false,
      "metar": "METAR LIMC 060350Z VRB02KT CAVOK 07/05 Q1022 NOSIG",
      "taf": "TAF LIMC 052300Z 0600/0706 18006KT CAVOK"
    },
    {
      "icao": "LIME",
      "alert": "OK",
      "vis_m": 9999,
      "fzfg": false,
      "metar_trigger": false,
      "taf_trigger": false,
      "metar": "METAR LIME 060350Z 02004KT CAVOK 11/06 Q1022 NOSIG",
      "taf": "TAF LIME 052300Z 0600/0624 VRB05KT CAVOK"
    },
    {
      "icao": "LIMF",
      "alert": "OK",
      "vis_m": 9999,
      "fzfg": false,
      "metar_trigger": false,
      "taf_trigger": false,
      "metar": "METAR LIMF 060350Z VRB02KT CAVOK 11/06 Q1023",
      "taf": "TAF LIMF 052300Z 0600/0624 VRB05KT CAVOK"
    },
    {
      "icao": "LIMJ",
      "alert": "OK",
      "vis_m": 9999,
      "fzfg": false,
      "metar_trigger": false,
      "taf_trigger": false,
      "metar": "METAR LIMJ 060350Z 07004KT 040V100 9999 FEW012 BKN020 15/10 Q1025",
      "taf": "TAF LIMJ 052300Z 0600/0624 VRB05KT 9999 BKN015"
    },
    {
      "icao": "LIPE",
      "alert": "OK",
      "vis_m": 9999,
      "fzfg": false,
      "metar_trigger": false,
      "taf_trigger": false,
      "metar": "METAR LIPE 060350Z 19003KT CAVOK 10/M03 Q1023",
      "taf": "TAF LIPE 052300Z 0600/0624 VRB05KT CAVOK"
    },
    {
      "icao": "LIPH",
      "alert": "OK",
      "vis_m": 9999,
      "fzfg": false,
      "metar_trigger": false,
      "taf_trigger": false,
      "metar": "METAR LIPH 060350Z AUTO VRB02KT 9999 NCD 09/06 Q1022",
      "taf": "TAF LIPH 052300Z 0600/0624 VRB05KT CAVOK"
    },
    {
      "icao": "LIPQ",
      "alert": "OK",
      "vis_m": 9999,
      "fzfg": false,
      "metar_trigger": false,
      "taf_trigger": false,
      "metar": "METAR LIPQ 060350Z AUTO VRB02KT 9999 SCT170/// 07/05 Q1022",
      "taf": "TAF LIPQ 052300Z 0600/0624 VRB05KT CAVOK"
    },
    {
      "icao": "LIPR",
      "alert": "OK",
      "vis_m": 9999,
      "fzfg": false,
      "metar_trigger": false,
      "taf_trigger": false,
      "metar": "METAR LIPR 060350Z AUTO VRB02KT 9999 BKN220/// 06/03 Q1022",
      "taf": "TAF LIPR 052300Z 0600/0624 VRB05KT CAVOK"
    },
    {
      "icao": "LIPX",
      "alert": "OK",
      "vis_m": 9999,
      "fzfg": false,
      "metar_trigger": false,
      "taf_trigger": false,
      "metar": "METAR LIPX 060350Z 33004KT CAVOK 09/05 Q1022",
      "taf": "TAF LIPX 052300Z 0600/0624 VRB05KT CAVOK"
    },
    {
      "icao": "LIPY",
      "alert": "OK",
      "vis_m": 9999,
      "fzfg": false,
      "metar_trigger": false,
      "taf_trigger": false,
      "metar": "METAR LIPY 060350Z AUTO 18005KT 9999 NCD 13/01 Q1022",
      "taf": "TAF LIPY 052300Z 0600/0624 24006KT CAVOK"
    },
    {
      "icao": "LIPZ",
      "alert": "OK",
      "vis_m": 9999,
      "fzfg": false,
      "metar_trigger": false,
      "taf_trigger": false,
      "metar": "METAR LIPZ 060350Z 36004KT CAVOK 09/06 Q1022 NOSIG",
      "taf": "TAF LIPZ 052300Z 0600/0706 VRB05KT CAVOK"
    },
    {
      "icao": "LIRF",
      "alert": "OK",
      "vis_m": 9999,
      "fzfg": false,
      "metar_trigger": false,
      "taf_trigger": false,
      "metar": "METAR LIRF 060350Z 36002KT 9999 R16L/P2000N R16R/P2000N R25/0450U R34R/P2000N MIFG NSC 05/05 Q1025 NOSIG",
      "taf": ""
    },
    {
      "icao": "LIRN",
      "alert": "OK",
      "vis_m": 9999,
      "fzfg": false,
      "metar_trigger": false,
      "taf_trigger": false,
      "metar": "METAR LIRN 060350Z 18002KT CAVOK 11/06 Q1025 NOSIG",
      "taf": "TAF LIRN 052300Z 0600/0624 VRB05KT CAVOK"
    },
    {
      "icao": "LIRP",
      "alert": "OK",
      "vis_m": 9999,
      "fzfg": false,
      "metar_trigger": false,
      "taf_trigger": false,
      "metar": "METAR LIRP 060345Z 12003KT 9999 SCT010 07/07 Q1026 NOSIG",
      "taf": "TAF LIRP 052300Z 0600/0624 VRB03KT CAVOK"
    },
    {
      "icao": "LIRZ",
      "alert": "OK",
      "vis_m": 9999,
      "fzfg": false,
      "metar_trigger": false,
      "taf_trigger": false,
      "metar": "METAR LIRZ 060350Z AUTO VRB02KT 9999 NCD 04/02 Q1026",
      "taf": "TAF LIRZ 052300Z 0600/0624 VRB04KT CAVOK"
    },
    {
      "icao": "LJLJ",
      "alert": "OK",
      "vis_m": 9999,
      "fzfg": false,
      "metar_trigger": false,
      "taf_trigger": false,
      "metar": "METAR LJLJ 060400Z VRB01KT CAVOK 04/02 Q1022 NOSIG",
      "taf": "TAF LJLJ 052300Z 0600/0700 30003KT CAVOK"
    },
    {
      "icao": "LKMT",
      "alert": "OK",
      "vis_m": 9999,
      "fzfg": false,
      "metar_trigger": false,
      "taf_trigger": false,
      "metar": "METAR LKMT 060400Z 26006KT CAVOK 10/05 Q1020 NOSIG",
      "taf": "TAF LKMT 052300Z 0600/0624 21008KT CAVOK"
    },
    {
      "icao": "LKPR",
      "alert": "OK",
      "vis_m": 9999,
      "fzfg": false,
      "metar_trigger": false,
      "taf_trigger": false,
      "metar": "METAR LKPR 060400Z 30013KT 9999 FEW040 07/M01 Q1023 NOSIG",
      "taf": "TAF LKPR 060200Z 0603/0709 26014KT 9999 BKN045"
    },
    {
      "icao": "LLBG",
      "alert": "OK",
      "vis_m": 9999,
      "fzfg": false,
      "metar_trigger": false,
      "taf_trigger": false,
      "metar": "METAR LLBG 060350Z VRB02KT CAVOK 13/08 Q1019 NOSIG RMK SCT100",
      "taf": "TAF LLBG 052300Z 0600/0624 VRB03KT CAVOK TX20/0611Z TN10/0604Z"
    },
    {
      "icao": "LMML",
      "alert": "OK",
      "vis_m": 9999,
      "fzfg": false,
      "metar_trigger": false,
      "taf_trigger": false,
      "metar": "METAR LMML 060345Z 33003KT 300V360 9999 BKN005 11/09 Q1025 NOSIG",
      "taf": "TAF LMML 052300Z 0600/0624 29008KT 9999 FEW015"
    },
    {
      "icao": "LOWW",
      "alert": "OK",
      "vis_m": 9999,
      "fzfg": false,
      "metar_trigger": false,
      "taf_trigger": false,
      "metar": "METAR LOWW 060350Z 29016KT CAVOK 16/07 Q1021 NOSIG",
      "taf": "TAF LOWW 060215Z 0603/0709 30012KT 9999 FEW050 TX16/0615Z TN05/0704Z"
    },
    {
      "icao": "LPFR",
      "alert": "OK",
      "vis_m": 9999,
      "fzfg": false,
      "metar_trigger": false,
      "taf_trigger": false,
      "metar": "METAR LPFR 060400Z 07014KT CAVOK 17/07 Q1017",
      "taf": "TAF LPFR 052300Z 0600/0624 08010KT CAVOK"
    },
    {
      "icao": "LPMA",
      "alert": "OK",
      "vis_m": 9999,
      "fzfg": false,
      "metar_trigger": false,
      "taf_trigger": false,
      "metar": "METAR LPMA 060400Z 00000KT 9999 SCT015 16/11 Q1014",
      "taf": "TAF LPMA 052300Z 0600/0624 VRB05KT 9999 SCT015"
    },
    {
      "icao": "LPPR",
      "alert": "OK",
      "vis_m": 9999,
      "fzfg": false,
      "metar_trigger": false,
      "taf_trigger": false,
      "metar": "METAR LPPR 060400Z 11011KT CAVOK 18/09 Q1016",
      "taf": "TAF LPPR 052300Z 0600/0624 09007KT CAVOK"
    },
    {
      "icao": "LPPS",
      "alert": "OK",
      "vis_m": 9999,
      "fzfg": false,
      "metar_trigger": false,
      "taf_trigger": false,
      "metar": "METAR LPPS 060400Z 30004KT 9999 SCT011 16/14 Q1014",
      "taf": "TAF LPPS 052300Z 0600/0706 VRB05KT 9999 SCT015"
    },
    {
      "icao": "LPPT",
      "alert": "OK",
      "vis_m": 9999,
      "fzfg": false,
      "metar_trigger": false,
      "taf_trigger": false,
      "metar": "METAR LPPT 060400Z 11004KT CAVOK 15/09 Q1017",
      "taf": "TAF LPPT 052300Z 0600/0706 VRB02KT CAVOK"
    },
    {
      "icao": "LQBK",
      "alert": "OK",
      "vis_m": 9999,
      "fzfg": false,
      "metar_trigger": false,
      "taf_trigger": false,
      "metar": "METAR LQBK 060400Z 14005KT CAVOK 06/02 Q1021 NOSIG",
      "taf": "TAF LQBK 052300Z 0600/0624 16007KT CAVOK TX22/0614Z TN09/0605Z"
    },
    {
      "icao": "LQSA",
      "alert": "OK",
      "vis_m": 9999,
      "fzfg": false,
      "metar_trigger": false,
      "taf_trigger": false,
      "metar": "METAR LQSA 060400Z 00000KT CAVOK 02/01 Q1025 NOSIG",
      "taf": "TAF LQSA 052300Z 0600/0624 VRB02KT CAVOK TX22/0614Z TN05/0604Z"
    },
    {
      "icao": "LQTZ",
      "alert": "OK",
      "vis_m": 8000,
      "fzfg": false,
      "metar_trigger": false,
      "taf_trigger": false,
      "metar": "METAR LQTZ 060400Z 15003KT 8000 FEW002 02/02 Q1022",
      "taf": "TAF LQTZ 052300Z 0600/0624 VRB02KT CAVOK TX20/0613Z TN04/0605Z"
    },
    {
      "icao": "LRBC",
      "alert": "OK",
      "vis_m": 9999,
      "fzfg": false,
      "metar_trigger": false,
      "taf_trigger": false,
      "metar": "METAR LRBC 060400Z VRB02KT CAVOK 05/03 Q1018",
      "taf": "TAF LRBC 060200Z 0603/0612 VRB04KT CAVOK"
    },
    {
      "icao": "LRBS",
      "alert": "OK",
      "vis_m": 9999,
      "fzfg": false,
      "metar_trigger": false,
      "taf_trigger": false,
      "metar": "METAR LRBS 060400Z 27005KT CAVOK 09/07 Q1020 NOSIG",
      "taf": "TAF LRBS 052300Z 0600/0624 VRB04KT CAVOK"
    },
    {
      "icao": "LRBV",
      "alert": "OK",
      "vis_m": 9999,
      "fzfg": false,
      "metar_trigger": false,
      "taf_trigger": false,
      "metar": "METAR LRBV 060400Z 26006KT CAVOK 04/03 Q1022",
      "taf": "TAF LRBV 060200Z 0603/0612 22008KT CAVOK"
    },
    {
      "icao": "LRCL",
      "alert": "OK",
      "vis_m": 9999,
      "fzfg": false,
      "metar_trigger": false,
      "taf_trigger": false,
      "metar": "METAR LRCL 060400Z 27005KT CAVOK 05/03 Q1021",
      "taf": "TAF LRCL 060200Z 0603/0612 VRB04KT CAVOK"
    },
    {
      "icao": "LRCV",
      "alert": "OK",
      "vis_m": 9999,
      "fzfg": false,
      "metar_trigger": false,
      "taf_trigger": false,
      "metar": "METAR LRCV 060400Z 27005KT 9999 MIFG FEW015 07/07 Q1021",
      "taf": "TAF LRCV 060200Z 0603/0612 26006KT CAVOK"
    },
    {
      "icao": "LRIA",
      "alert": "OK",
      "vis_m": 9999,
      "fzfg": false,
      "metar_trigger": false,
      "taf_trigger": false,
      "metar": "METAR LRIA 060400Z 00000KT CAVOK 08/05 Q1018",
      "taf": "TAF LRIA 060200Z 0603/0612 VRB04KT CAVOK"
    },
    {
      "icao": "LROP",
      "alert": "OK",
      "vis_m": 9999,
      "fzfg": false,
      "metar_trigger": false,
      "taf_trigger": false,
      "metar": "METAR LROP 060400Z 24006KT CAVOK 07/07 Q1020 NOSIG",
      "taf": "TAF LROP 052300Z 0600/0624 VRB04KT CAVOK"
    },
    {
      "icao": "LRSB",
      "alert": "OK",
      "vis_m": 9999,
      "fzfg": false,
      "metar_trigger": false,
      "taf_trigger": false,
      "metar": "METAR LRSB 060400Z VRB02KT CAVOK 04/03 Q1022",
      "taf": "TAF LRSB 052300Z 0600/0624 VRB04KT CAVOK"
    },
    {
      "icao": "LRSM",
      "alert": "OK",
      "vis_m": 9999,
      "fzfg": false,
      "metar_trigger": false,
      "taf_trigger": false,
      "metar": "METAR LRSM 060400Z 20007KT CAVOK 11/07 Q1019",
      "taf": "TAF LRSM 060200Z 0603/0612 20007KT CAVOK"
    },
    {
      "icao": "LRSV",
      "alert": "OK",
      "vis_m": 9999,
      "fzfg": false,
      "metar_trigger": false,
      "taf_trigger": false,
      "metar": "METAR LRSV 060400Z 23014KT CAVOK 09/04 Q1017",
      "taf": "TAF LRSV 060200Z 0603/0612 25015KT CAVOK"
    },
    {
      "icao": "LRTM",
      "alert": "OK",
      "vis_m": 7000,
      "fzfg": false,
      "metar_trigger": false,
      "taf_trigger": false,
      "metar": "METAR LRTM 060400Z 09004KT 7000 FEW008 03/02 Q1022",
      "taf": "TAF LRTM 060200Z 0603/0612 VRB04KT CAVOK"
    },
    {
      "icao": "LRTR",
      "alert": "OK",
      "vis_m": 9999,
      "fzfg": false,
      "metar_trigger": false,
      "taf_trigger": false,
      "metar": "METAR LRTR 060400Z 11007KT CAVOK 06/06 Q1022 NOSIG",
      "taf": "TAF LRTR 052300Z 0600/0624 11006KT CAVOK"
    },
    {
      "icao": "LTAC",
      "alert": "OK",
      "vis_m": 9999,
      "fzfg": false,
      "metar_trigger": false,
      "taf_trigger": false,
      "metar": "METAR LTAC 060350Z VRB02KT 9999 SCT040 04/01 Q1021 NOSIG RMK RWY21C VRB02KT RWY03L 06002KT RWY21R 07003KT RWY03R 17001KT RWY21L VRB01KT",
      "taf": "TAF LTAC 052240Z 0600/0624 02009KT 9999 SCT040"
    },
    {
      "icao": "LTFM",
      "alert": "OK",
      "vis_m": 9999,
      "fzfg": false,
      "metar_trigger": false,
      "taf_trigger": false,
      "metar": "METAR LTFM 060350Z VRB01KT CAVOK 07/05 Q1022 NOSIG RMK RWY17L VRB02KT RWY34L VRB01KT RWY16R VRB01KT RWY36 04003KT 360V160 RWY18 00000KT",
      "taf": "TAF LTFM 052240Z 0600/0706 VRB02KT 4000 BR NSC"
    },
    {
      "icao": "LUKK",
      "alert": "OK",
      "vis_m": 9999,
      "fzfg": false,
      "metar_trigger": false,
      "taf_trigger": false,
      "metar": "METAR LUKK 060400Z VRB03KT CAVOK 06/03 Q1018 NOSIG",
      "taf": "TAF LUKK 052316Z 0600/0624 24006KT CAVOK"
    },
    {
      "icao": "LWOH",
      "alert": "OK",
      "vis_m": null,
      "fzfg": false,
      "metar_trigger": false,
      "taf_trigger": false,
      "metar": "",
      "taf": "TAF LWOH 060240Z 0603/0703 33005KT 9999 SCT040"
    },
    {
      "icao": "LWSK",
      "alert": "OK",
      "vis_m": 9999,
      "fzfg": false,
      "metar_trigger": false,
      "taf_trigger": false,
      "metar": "METAR LWSK 060350Z VRB02KT CAVOK 04/03 Q1024 NOSIG",
      "taf": "TAF LWSK 060240Z 0603/0703 VRB02KT CAVOK"
    },
    {
      "icao": "LYBE",
      "alert": "OK",
      "vis_m": 9999,
      "fzfg": false,
      "metar_trigger": false,
      "taf_trigger": false,
      "metar": "METAR LYBE 060400Z VRB02KT CAVOK 07/05 Q1022 NOSIG",
      "taf": "TAF LYBE 052300Z 0600/0624 16005KT CAVOK TX22/0613Z TN07/0605Z"
    },
    {
      "icao": "LYNI",
      "alert": "OK",
      "vis_m": 9999,
      "fzfg": false,
      "metar_trigger": false,
      "taf_trigger": false,
      "metar": "METAR LYNI 060400Z 10004KT 9999 MIFG NSC 05/05 Q1024 TEMPO 4000 BR",
      "taf": "TAF LYNI 052300Z 0600/0624 32005KT CAVOK TX21/0613Z TN05/0605Z"
    },
    {
      "icao": "LYPG",
      "alert": "OK",
      "vis_m": 9999,
      "fzfg": false,
      "metar_trigger": false,
      "taf_trigger": false,
      "metar": "METAR LYPG 060400Z 03002KT CAVOK 08/04 Q1023 NOSIG",
      "taf": "TAF LYPG 052300Z 0600/0624 32005KT CAVOK TX23/0612Z TN07/0604Z"
    },
    {
      "icao": "LZIB",
      "alert": "OK",
      "vis_m": 9999,
      "fzfg": false,
      "metar_trigger": false,
      "taf_trigger": false,
      "metar": "METAR LZIB 060400Z 29009KT CAVOK 16/07 Q1021 NOSIG",
      "taf": "TAF LZIB 052315Z 0600/0700 30010KT CAVOK"
    },
    {
      "icao": "LZKZ",
      "alert": "OK",
      "vis_m": 9999,
      "fzfg": false,
      "metar_trigger": false,
      "taf_trigger": false,
      "metar": "METAR LZKZ 060400Z 22011KT CAVOK 12/06 Q1017 NOSIG",
      "taf": ""
    },
    {
      "icao": "LZTT",
      "alert": "OK",
      "vis_m": 9999,
      "fzfg": false,
      "metar_trigger": false,
      "taf_trigger": false,
      "metar": "METAR LZTT 060400Z 09006KT 9999 FEW063 07/04 Q1017",
      "taf": "TAF LZTT 052315Z 0600/0700 26009KT 9999 FEW053 SCT080"
    },
    {
      "icao": "OEJN",
      "alert": "OK",
      "vis_m": 9999,
      "fzfg": false,
      "metar_trigger": false,
      "taf_trigger": false,
      "metar": "METAR OEJN 060400Z 33006KT CAVOK 24/16 Q1013 NOSIG",
      "taf": "TAF OEJN 052300Z 0600/0706 36005KT 7000 FEW040"
    },
    {
      "icao": "OEMA",
      "alert": "OK",
      "vis_m": 9000,
      "fzfg": false,
      "metar_trigger": false,
      "taf_trigger": false,
      "metar": "METAR OEMA 060400Z 07007KT 9000 NSC 23/M03 Q1019 NOSIG",
      "taf": "TAF OEMA 052300Z 0600/0706 VRB03KT 9999 SCT040"
    },
    {
      "icao": "OJAI",
      "alert": "OK",
      "vis_m": 4000,
      "fzfg": false,
      "metar_trigger": false,
      "taf_trigger": false,
      "metar": "METAR OJAI 060400Z 31003KT 4000 BR FEW030 06/04 Q1020 NOSIG",
      "taf": "TAF OJAI 052300Z 0600/0706 28012KT 4000 BR FEW025TCU SCT030"
    },
    {
      "icao": "OMAA",
      "alert": "OK",
      "vis_m": null,
      "fzfg": false,
      "metar_trigger": false,
      "taf_trigger": false,
      "metar": "",
      "taf": ""
    },
    {
      "icao": "OMDB",
      "alert": "OK",
      "vis_m": null,
      "fzfg": false,
      "metar_trigger": false,
      "taf_trigger": false,
      "metar": "",
      "taf": ""
    },
    {
      "icao": "UAAA",
      "alert": "OK",
      "vis_m": 9999,
      "fzfg": false,
      "metar_trigger": false,
      "taf_trigger": false,
      "metar": "METAR UAAA 060400Z 28002MPS 190V340 9999 FEW100 SCT200 16/09 Q1010 NOSIG",
      "taf": "TAF UAAA 052301Z 0600/0624 04003MPS 9999 FEW050CB SCT100 TX24/0610Z TN12/0601Z"
    },
    {
      "icao": "UBBB",
      "alert": "OK",
      "vis_m": 9999,
      "fzfg": false,
      "metar_trigger": false,
      "taf_trigger": false,
      "metar": "METAR UBBB 060400Z 31032G42KT 9999 -SHRA SCT012 BKN045CB 12/10 Q1009 WS R35 NOSIG",
      "taf": "TAF UBBB 052306Z 0600/0624 30026G36KT 9999 SCT010 SCT040CB OVC040 TX13/0612Z TN10/0601Z"
    },
    {
      "icao": "UDSG",
      "alert": "OK",
      "vis_m": 9999,
      "fzfg": false,
      "metar_trigger": false,
      "taf_trigger": false,
      "metar": "METAR UDSG 060400Z 30004KT 9999 NSC 03/M02 Q1017 NOSIG",
      "taf": "TAF UDSG 052258Z 0600/0624 VRB06KT 9999 SCT040"
    },
    {
      "icao": "UDYZ",
      "alert": "OK",
      "vis_m": 9999,
      "fzfg": false,
      "metar_trigger": false,
      "taf_trigger": false,
      "metar": "METAR UDYZ 060400Z 04003KT 9999 NSC 07/02 Q1016 NOSIG",
      "taf": "TAF UDYZ 052300Z 0600/0624 20006KT 9999 FEW040"
    },
    {
      "icao": "UGKO",
      "alert": "OK",
      "vis_m": 9999,
      "fzfg": false,
      "metar_trigger": false,
      "taf_trigger": false,
      "metar": "METAR UGKO 060400Z 28008KT 250V310 9999 BKN020 OVC030 11/09 Q1019 NOSIG",
      "taf": "TAF UGKO 052300Z 0600/0624 25007KT 9999 SCT020 OVC050 TX13/0611Z TN09/0603Z"
    }
  ]
}