{
  "ts_utc": "2026-01-06T09:53:53Z",
  "threshold_m": 150,
  "source": "stations_override.txt (ICAO list) + aviationweather.gov (METAR/TAF raw)",
  "station_count": 159,
  "stations": [
    {
      "icao": "BIKF",
      "alert": "OK",
      "vis_m": 9999,
      "fzfg": false,
      "metar_trigger": false,
      "taf_trigger": false,
      "metar": "METAR BIKF 060930Z 07009KT CAVOK M06/M10 Q1021",
      "taf": "TAF BIKF 060742Z 0609/0709 07010KT CAVOK TXM01/0703Z TNM06/0610Z"
    },
    {
      "icao": "BKPR",
      "alert": "OK",
      "vis_m": null,
      "fzfg": false,
      "metar_trigger": false,
      "taf_trigger": false,
      "metar": "",
      "taf": "TAF BKPR 060530Z 0606/0706 17008KT 9999 SCT020 BKN040"
    },
    {
      "icao": "EBCI",
      "alert": "OK",
      "vis_m": 2500,
      "fzfg": false,
      "metar_trigger": false,
      "taf_trigger": false,
      "metar": "METAR EBCI 060920Z 24008KT 2500 BR BKN004 BKN016 M03/M03 Q1017 TEMPO 2000 BR BKN004",
      "taf": "TAF EBCI 060500Z 0606/0712 26007KT 9999 SCT006 BKN010"
    },
    {
      "icao": "EDDB",
      "alert": "OK",
      "vis_m": 9999,
      "fzfg": false,
      "metar_trigger": false,
      "taf_trigger": false,
      "metar": "METAR EDDB 060920Z AUTO VRB02KT 9999 BKN011 OVC037 M07/M08 Q1014 TEMPO BKN009",
      "taf": "TAF EDDB 060500Z 0606/0706 09004KT CAVOK"
    },
    {
      "icao": "EDDH",
      "alert": "OK",
      "vis_m": 7000,
      "fzfg": false,
      "metar_trigger": false,
      "taf_trigger": false,
      "metar": "METAR EDDH 060920Z AUTO 22007KT 7000 BKN008 OVC015 M01/M02 Q1013 TEMPO 4500 -SN BKN010",
      "taf": "TAF EDDH 060500Z 0606/0712 20005KT 8000 OVC007"
    },
    {
      "icao": "EDDK",
      "alert": "OK",
      "vis_m": 9999,
      "fzfg": false,
      "metar_trigger": false,
      "taf_trigger": false,
      "metar": "METAR EDDK 060920Z AUTO VRB02KT 9999 OVC010 M01/M03 Q1016 TEMPO SCT010 BKN015",
      "taf": "TAF EDDK 060500Z 0606/0712 21004KT 9999 BKN010"
    },
    {
      "icao": "EDDN",
      "alert": "OK",
      "vis_m": 9999,
      "fzfg": false,
      "metar_trigger": false,
      "taf_trigger": false,
      "metar": "METAR EDDN 060920Z AUTO 11004KT 9999 -SN OVC019 M08/M11 Q1016 TEMPO BKN014",
      "taf": ""
    },
    {
      "icao": "EDDS",
      "alert": "OK",
      "vis_m": 3300,
      "fzfg": false,
      "metar_trigger": false,
      "taf_trigger": false,
      "metar": "METAR EDDS 060920Z AUTO VRB02KT 3300 -SN BR SCT007 BKN035 OVC047 M06/M07 Q1015 NOSIG",
      "taf": ""
    },
    {
      "icao": "EDFH",
      "alert": "OK",
      "vis_m": 3500,
      "fzfg": false,
      "metar_trigger": false,
      "taf_trigger": false,
      "metar": "METAR EDFH 060920Z 27005KT 3500 -SN OVC002 M05/M05 Q1014",
      "taf": ""
    },
    {
      "icao": "EDJA",
      "alert": "OK",
      "vis_m": 9999,
      "fzfg": false,
      "metar_trigger": false,
      "taf_trigger": false,
      "metar": "METAR EDJA 060920Z COR 21005KT CAVOK M10/M13 Q1013",
      "taf": "TAF EDJA 060800Z 0609/0618 VRB03KT CAVOK"
    },
    {
      "icao": "EDLW",
      "alert": "OK",
      "vis_m": 8000,
      "fzfg": false,
      "metar_trigger": false,
      "taf_trigger": false,
      "metar": "METAR EDLW 060920Z 23007KT 8000 SCT007 OVC009 M01/M03 Q1015",
      "taf": "TAF EDLW 060500Z 0606/0706 21008KT 9999 BKN012"
    },
    {
      "icao": "EDNY",
      "alert": "OK",
      "vis_m": 9999,
      "fzfg": false,
      "metar_trigger": false,
      "taf_trigger": false,
      "metar": "METAR EDNY 060920Z 08001KT 9999 OVC013 M06/M08 Q1016",
      "taf": "TAF EDNY 060800Z 0609/0618 VRB03KT 9999 OVC012"
    },
    {
      "icao": "EDSB",
      "alert": "OK",
      "vis_m": 9999,
      "fzfg": false,
      "metar_trigger": false,
      "taf_trigger": false,
      "metar": "METAR EDSB 060920Z 18006KT 9999 OVC012 M04/M06 Q1017",
      "taf": ""
    },
    {
      "icao": "EETN",
      "alert": "OK",
      "vis_m": 9000,
      "fzfg": false,
      "metar_trigger": false,
      "taf_trigger": false,
      "metar": "METAR EETN 060950Z 11011KT 9000 -SN OVC005 M10/M11 Q1018 TEMPO 4000 SN",
      "taf": ""
    },
    {
      "icao": "EFTU",
      "alert": "OK",
      "vis_m": 9999,
      "fzfg": false,
      "metar_trigger": false,
      "taf_trigger": false,
      "metar": "METAR EFTU 060950Z AUTO 10010KT 9999 BKN016 BKN033 M08/M10 Q1017",
      "taf": "TAF EFTU 060830Z 0609/0709 10010KT 9999 BKN020"
    },
    {
      "icao": "EGBB",
      "alert": "OK",
      "vis_m": 9999,
      "fzfg": false,
      "metar_trigger": false,
      "taf_trigger": false,
      "metar": "METAR EGBB 060920Z 22006KT 9999 SCT028 BKN038 M01/M02 Q1016",
      "taf": ""
    },
    {
      "icao": "EGGP",
      "alert": "OK",
      "vis_m": 9999,
      "fzfg": false,
      "metar_trigger": false,
      "taf_trigger": false,
      "metar": "METAR EGGP 060920Z VRB02KT 9999 -RA SCT013 BKN022 02/01 Q1015",
      "taf": "TAF EGGP 060454Z 0606/0706 31005KT 9999 FEW030"
    },
    {
      "icao": "EGGW",
      "alert": "OK",
      "vis_m": 9999,
      "fzfg": false,
      "metar_trigger": false,
      "taf_trigger": false,
      "metar": "METAR EGGW 060920Z AUTO 25007KT 9999 OVC035 M01/M03 Q1016",
      "taf": ""
    },
    {
      "icao": "EGKK",
      "alert": "OK",
      "vis_m": 9999,
      "fzfg": false,
      "metar_trigger": false,
      "taf_trigger": false,
      "metar": "METAR EGKK 060920Z 23003KT 9999 SCT049 M03/M04 Q1018",
      "taf": "TAF EGKK 060455Z 0606/0712 24005KT CAVOK"
    },
    {
      "icao": "EGNM",
      "alert": "OK",
      "vis_m": 9999,
      "fzfg": false,
      "metar_trigger": false,
      "taf_trigger": false,
      "metar": "METAR EGNM 060920Z 24012KT 9999 SCT016 SCT022 M00/M02 Q1012",
      "taf": "TAF EGNM 060454Z 0606/0706 27009KT 9999 FEW040"
    },
    {
      "icao": "EGPD",
      "alert": "OK",
      "vis_m": 9999,
      "fzfg": false,
      "metar_trigger": false,
      "taf_trigger": false,
      "metar": "METAR EGPD 060920Z 15006KT 9999 VCSH FEW011 SCT023 M01/M02 Q1007 TEMPO 4000 SHSN",
      "taf": "TAF EGPD 060456Z 0606/0706 20004KT 9999 FEW012"
    },
    {
      "icao": "EGPF",
      "alert": "OK",
      "vis_m": 7000,
      "fzfg": false,
      "metar_trigger": false,
      "taf_trigger": false,
      "metar": "METAR EGPF 060920Z 07004KT 7000 FEW024 BKN029 OVC039 00/M01 Q1009",
      "taf": ""
    },
    {
      "icao": "EHBK",
      "alert": "OK",
      "vis_m": 8000,
      "fzfg": false,
      "metar_trigger": false,
      "taf_trigger": false,
      "metar": "METAR EHBK 060925Z AUTO 21006KT 8000 OVC006 M01/M02 Q1016 TEMPO 7000",
      "taf": "TAF EHBK 060523Z 0606/0712 20008KT 6000 BKN018"
    },
    {
      "icao": "EHEH",
      "alert": "OK",
      "vis_m": 7000,
      "fzfg": false,
      "metar_trigger": false,
      "taf_trigger": false,
      "metar": "METAR EHEH 060925Z AUTO 20004KT 170V230 7000 BR BKN003 BKN030 M02/M03 Q1016 YLO TEMPO SCT002 BKN003 RMK TREND REMOTE BY EHWX",
      "taf": ""
    },
    {
      "icao": "EKBI",
      "alert": "OK",
      "vis_m": 150,
      "fzfg": true,
      "metar_trigger": false,
      "taf_trigger": false,
      "metar": "METAR EKBI 060920Z AUTO 12003KT 0150 R09/0375N R27/0350N -SN FZFG VV002 M05/M05 Q1011",
      "taf": "TAF EKBI 060827Z 0609/0709 VRB02KT 0200 FZFG VV002"
    },
    {
      "icao": "EKCH",
      "alert": "OK",
      "vis_m": 1500,
      "fzfg": false,
      "metar_trigger": false,
      "taf_trigger": false,
      "metar": "METAR EKCH 060920Z 27004KT 1500 R22L/1400U R04L/0300N R12/0400N BCFG SCT002 SCT040 M04/M04 Q1012 BECMG 3000",
      "taf": "TAF EKCH 060827Z 0609/0709 22004KT 8000 SCT040"
    },
    {
      "icao": "ENAL",
      "alert": "OK",
      "vis_m": 9999,
      "fzfg": false,
      "metar_trigger": false,
      "taf_trigger": false,
      "metar": "METAR ENAL 060920Z 14013KT CAVOK M06/M12 Q1011",
      "taf": "TAF ENAL 060800Z 0609/0618 14012KT CAVOK"
    },
    {
      "icao": "ENBR",
      "alert": "OK",
      "vis_m": 9999,
      "fzfg": false,
      "metar_trigger": false,
      "taf_trigger": false,
      "metar": "METAR ENBR 060920Z 08007KT CAVOK M07/M13 Q1011 NOSIG RMK WIND 1200FT 12010KT",
      "taf": "TAF ENBR 060500Z 0606/0706 07005KT CAVOK"
    },
    {
      "icao": "ENGM",
      "alert": "OK",
      "vis_m": 3800,
      "fzfg": false,
      "metar_trigger": false,
      "taf_trigger": false,
      "metar": "METAR ENGM 060920Z 01009KT 3800 -SN BR FEW010 SCT035 OVC040 M08/M10 Q1012 NOSIG",
      "taf": "TAF ENGM 060500Z 0606/0706 01009KT 8000 -SN FEW008 BKN020"
    },
    {
      "icao": "ENHD",
      "alert": "OK",
      "vis_m": 9999,
      "fzfg": false,
      "metar_trigger": false,
      "taf_trigger": false,
      "metar": "METAR ENHD 060920Z 11008KT 9999 FEW042 M06/M09 Q1010",
      "taf": "TAF ENHD 060800Z 0609/0618 09008KT 9999 FEW030"
    },
    {
      "icao": "ENTC",
      "alert": "OK",
      "vis_m": 9999,
      "fzfg": false,
      "metar_trigger": false,
      "taf_trigger": false,
      "metar": "METAR ENTC 060920Z VRB02KT CAVOK M13/M15 Q1018 NOSIG RMK WIND 2600FT 18006KT",
      "taf": "TAF ENTC 060500Z 0606/0706 22005KT CAVOK"
    },
    {
      "icao": "ENTO",
      "alert": "OK",
      "vis_m": 9999,
      "fzfg": false,
      "metar_trigger": false,
      "taf_trigger": false,
      "metar": "METAR ENTO 060920Z 35010KT 9999 BKN012 M09/M12 Q1012 NOSIG",
      "taf": ""
    },
    {
      "icao": "ENVA",
      "alert": "OK",
      "vis_m": 9999,
      "fzfg": false,
      "metar_trigger": false,
      "taf_trigger": false,
      "metar": "METAR ENVA 060920Z 10007KT CAVOK M18/M21 Q1016 NOSIG RMK WIND 670FT 13005KT",
      "taf": "TAF ENVA 060500Z 0606/0706 12008KT CAVOK"
    },
    {
      "icao": "ENZV",
      "alert": "OK",
      "vis_m": 9999,
      "fzfg": false,
      "metar_trigger": false,
      "taf_trigger": false,
      "metar": "METAR ENZV 060920Z VRB02KT 9999 VCSH SCT029 M03/M05 Q1010 NOSIG",
      "taf": "TAF ENZV 060500Z 0606/0706 06008KT 9999 FEW010 BKN035"
    },
    {
      "icao": "EPGD",
      "alert": "OK",
      "vis_m": 5000,
      "fzfg": false,
      "metar_trigger": false,
      "taf_trigger": false,
      "metar": "METAR EPGD 060930Z 25003KT 200V280 5000 BR NSC M05/M06 Q1012",
      "taf": ""
    },
    {
      "icao": "EPKK",
      "alert": "OK",
      "vis_m": 6000,
      "fzfg": false,
      "metar_trigger": false,
      "taf_trigger": false,
      "metar": "METAR EPKK 060930Z 22005KT 6000 SCT064 M04/M08 Q1013",
      "taf": "TAF EPKK 060830Z 0609/0709 27010KT 7000 SCT060"
    },
    {
      "icao": "EPKT",
      "alert": "OK",
      "vis_m": 7000,
      "fzfg": false,
      "metar_trigger": false,
      "taf_trigger": false,
      "metar": "METAR EPKT 060930Z VRB02KT 7000 NSC M06/M08 Q1013",
      "taf": "TAF EPKT 060530Z 0606/0706 27005KT 3500 BR NSC"
    },
    {
      "icao": "EPLB",
      "alert": "OK",
      "vis_m": 9999,
      "fzfg": false,
      "metar_trigger": false,
      "taf_trigger": false,
      "metar": "METAR EPLB 060930Z 28006KT 9999 SCT006 OVC010 M03/M04 Q1012",
      "taf": ""
    },
    {
      "icao": "EPMO",
      "alert": "OK",
      "vis_m": 2500,
      "fzfg": false,
      "metar_trigger": false,
      "taf_trigger": false,
      "metar": "METAR EPMO 060930Z 25004KT 2500 BR FEW028 M12/M13 Q1013",
      "taf": ""
    },
    {
      "icao": "EPPO",
      "alert": "OK",
      "vis_m": 6000,
      "fzfg": false,
      "metar_trigger": false,
      "taf_trigger": false,
      "metar": "METAR EPPO 060930Z VRB02KT 6000 FEW031 M07/M09 Q1014",
      "taf": ""
    },
    {
      "icao": "EPRA",
      "alert": "OK",
      "vis_m": 8000,
      "fzfg": false,
      "metar_trigger": false,
      "taf_trigger": false,
      "metar": "METAR EPRA 060930Z 29005KT 8000 NSC M07/M09 Q1013",
      "taf": "TAF EPRA 060830Z 0609/0618 29005KT 8000 NSC"
    },
    {
      "icao": "EPRZ",
      "alert": "OK",
      "vis_m": 9999,
      "fzfg": false,
      "metar_trigger": false,
      "taf_trigger": false,
      "metar": "METAR EPRZ 060930Z 26008KT 9999 BKN024 M03/M05 Q1012",
      "taf": "TAF EPRZ 060530Z 0606/0706 26010KT 7000 -SN FEW005 OVC017"
    },
    {
      "icao": "EPSC",
      "alert": "OK",
      "vis_m": 9999,
      "fzfg": false,
      "metar_trigger": false,
      "taf_trigger": false,
      "metar": "METAR EPSC 060930Z 16005KT 9999 SCT043 M06/M07 Q1013",
      "taf": "TAF EPSC 060530Z 0606/0706 18006KT 9999 SCT035"
    },
    {
      "icao": "EPSY",
      "alert": "OK",
      "vis_m": 6000,
      "fzfg": false,
      "metar_trigger": false,
      "taf_trigger": false,
      "metar": "METAR EPSY 060930Z 04002KT 6000 BKN026 M07/M08 Q1012",
      "taf": "TAF EPSY 060830Z 0609/0618 VRB02KT 9999 SCT030"
    },
    {
      "icao": "EPWA",
      "alert": "OK",
      "vis_m": 4300,
      "fzfg": false,
      "metar_trigger": false,
      "taf_trigger": false,
      "metar": "METAR EPWA 060930Z 27006KT 4300 BR BKN027 M10/M11 Q1013 BECMG 5000",
      "taf": ""
    },
    {
      "icao": "EPWR",
      "alert": "OK",
      "vis_m": 9999,
      "fzfg": false,
      "metar_trigger": false,
      "taf_trigger": false,
      "metar": "METAR EPWR 060930Z 26002KT 9999 FEW037 M04/M07 Q1015",
      "taf": "TAF EPWR 060830Z 0609/0709 28003KT 9999 BKN033"
    },
    {
      "icao": "ESGG",
      "alert": "OK",
      "vis_m": 200,
      "fzfg": true,
      "metar_trigger": false,
      "taf_trigger": false,
      "metar": "METAR ESGG 060920Z VRB02KT 0200 R03/0600N R21/0650U FZFG VV002 M08/M09 Q1011",
      "taf": ""
    },
    {
      "icao": "ESKN",
      "alert": "OK",
      "vis_m": 5000,
      "fzfg": false,
      "metar_trigger": false,
      "taf_trigger": false,
      "metar": "METAR ESKN 060920Z 32007KT 5000 -SN BKN007 M04/M05 Q1009",
      "taf": "TAF ESKN 060830Z 0609/0709 VRB03KT 9000 -SN SCT006 BKN030"
    },
    {
      "icao": "ESMS",
      "alert": "OK",
      "vis_m": 450,
      "fzfg": false,
      "metar_trigger": false,
      "taf_trigger": false,
      "metar": "METAR ESMS 060920Z 00000KT 0450 R17/1400U R35/P2000D BCFG VV002 M05/M05 Q1011",
      "taf": ""
    },
    {
      "icao": "ESSA",
      "alert": "OK",
      "vis_m": 9999,
      "fzfg": false,
      "metar_trigger": false,
      "taf_trigger": false,
      "metar": "METAR ESSA 060920Z 07007KT 9999 OVC039 M02/M04 Q1010 TEMPO 2500 SHSN BKN014",
      "taf": "TAF ESSA 060830Z 0609/0709 09008KT 9999 BKN035"
    },
    {
      "icao": "EYKA",
      "alert": "OK",
      "vis_m": 3600,
      "fzfg": false,
      "metar_trigger": false,
      "taf_trigger": false,
      "metar": "METAR EYKA 060950Z 08007KT 3600 -SN BR OVC038 M07/M08 Q1014",
      "taf": "TAF EYKA 060526Z 0606/0706 09007KT 9000 NSC"
    },
    {
      "icao": "EYPA",
      "alert": "OK",
      "vis_m": 9999,
      "fzfg": false,
      "metar_trigger": false,
      "taf_trigger": false,
      "metar": "METAR EYPA 060920Z 14009KT CAVOK M04/M06 Q1013",
      "taf": "TAF EYPA 060515Z 0606/0706 15010KT 7000 BKN035"
    },
    {
      "icao": "EYVI",
      "alert": "OK",
      "vis_m": 2500,
      "fzfg": false,
      "metar_trigger": false,
      "taf_trigger": false,
      "metar": "METAR EYVI 060950Z 08006KT 050V110 2500 -SN BR OVC043 M07/M08 Q1013 NOSIG",
      "taf": "TAF EYVI 060509Z 0606/0706 VRB04KT 9000 BKN020"
    },
    {
      "icao": "GCFV",
      "alert": "OK",
      "vis_m": 9999,
      "fzfg": false,
      "metar_trigger": false,
      "taf_trigger": false,
      "metar": "METAR GCFV 060930Z 35012KT 9999 SCT040 17/10 Q1023",
      "taf": "TAF GCFV 060800Z 0609/0709 02018KT 9999 SCT035 TX21/0614Z TN15/0706Z"
    },
    {
      "icao": "GCLP",
      "alert": "OK",
      "vis_m": 9999,
      "fzfg": false,
      "metar_trigger": false,
      "taf_trigger": false,
      "metar": "METAR GCLP 060930Z 03021KT 9999 SCT035 BKN045 18/10 Q1023 NOSIG",
      "taf": "TAF GCLP 060800Z 0609/0709 36019KT 9999 FEW030 SCT045 TX21/0614Z TN15/0706Z"
    },
    {
      "icao": "GCTS",
      "alert": "OK",
      "vis_m": 9999,
      "fzfg": false,
      "metar_trigger": false,
      "taf_trigger": false,
      "metar": "METAR GCTS 060930Z 06011KT 9999 FEW050 17/08 Q1024 NOSIG",
      "taf": "TAF GCTS 060800Z 0609/0709 08018KT 9999 SCT045 TX23/0614Z TN16/0706Z"
    },
    {
      "icao": "GMAD",
      "alert": "OK",
      "vis_m": 9999,
      "fzfg": false,
      "metar_trigger": false,
      "taf_trigger": false,
      "metar": "METAR GMAD 060930Z 22007G18KT 9999 FEW026 14/04 Q1017 NOSIG",
      "taf": "TAF GMAD 060500Z 0606/0712 24006KT 8000 SCT023"
    },
    {
      "icao": "GMMN",
      "alert": "OK",
      "vis_m": 9999,
      "fzfg": false,
      "metar_trigger": false,
      "taf_trigger": false,
      "metar": "METAR GMMN 060930Z 22006KT 9999 BKN024 10/08 Q1020 NOSIG",
      "taf": "TAF GMMN 060500Z 0606/0712 25006KT 9999 BKN030"
    },
    {
      "icao": "GMMX",
      "alert": "OK",
      "vis_m": 8000,
      "fzfg": false,
      "metar_trigger": false,
      "taf_trigger": false,
      "metar": "METAR GMMX 060930Z 27003KT 230V330 8000 SCT023 BKN080 11/08 Q1020 NOSIG",
      "taf": ""
    },
    {
      "icao": "HEGN",
      "alert": "OK",
      "vis_m": 9999,
      "fzfg": false,
      "metar_trigger": false,
      "taf_trigger": false,
      "metar": "METAR HEGN 060900Z 32008KT CAVOK 23/02 Q1020 NOSIG",
      "taf": "TAF HEGN 060500Z 0606/0712 32013KT CAVOK"
    },
    {
      "icao": "HEMA",
      "alert": "OK",
      "vis_m": 6000,
      "fzfg": false,
      "metar_trigger": false,
      "taf_trigger": false,
      "metar": "METAR HEMA 060900Z 36016KT 6000 NSC 24/12 Q1019 NOSIG",
      "taf": "TAF HEMA 060500Z 0606/0712 33014KT CAVOK"
    },
    {
      "icao": "HESH",
      "alert": "OK",
      "vis_m": 9999,
      "fzfg": false,
      "metar_trigger": false,
      "taf_trigger": false,
      "metar": "METAR HESH 060900Z 36011KT CAVOK 25/13 Q1020 NOSIG",
      "taf": "TAF HESH 060500Z 0606/0712 35011KT CAVOK"
    },
    {
      "icao": "HESX",
      "alert": "OK",
      "vis_m": 9999,
      "fzfg": false,
      "metar_trigger": false,
      "taf_trigger": false,
      "metar": "METAR HESX 060900Z 10004KT CAVOK 16/03 Q1021 NOSIG",
      "taf": "TAF HESX 060500Z 0606/0712 VRB02KT 6000 NSC"
    },
    {
      "icao": "LATI",
      "alert": "OK",
      "vis_m": 2600,
      "fzfg": false,
      "metar_trigger": false,
      "taf_trigger": false,
      "metar": "METAR LATI 060950Z VRB03KT 2600 +RA FEW016 SCT024CB OVC042 12/11 Q1007 NOSIG",
      "taf": "TAF LATI 060500Z 0606/0706 VRB04KT 9999 RA BKN030 OVC060 TX16/0612Z TN12/0705Z"
    },
    {
      "icao": "LBPD",
      "alert": "OK",
      "vis_m": 9999,
      "fzfg": false,
      "metar_trigger": false,
      "taf_trigger": false,
      "metar": "METAR LBPD 060930Z AUTO 29005KT 9999 BKN140/// 09/09 Q1011 NOSIG",
      "taf": ""
    },
    {
      "icao": "LBSF",
      "alert": "OK",
      "vis_m": 9999,
      "fzfg": false,
      "metar_trigger": false,
      "taf_trigger": false,
      "metar": "METAR LBSF 060930Z 34005KT 270V030 9999 SCT053 BKN080 12/06 Q1010 NOSIG",
      "taf": "TAF LBSF 060500Z 0606/0706 10012KT 9999 SCT040 BKN060"
    },
    {
      "icao": "LBWN",
      "alert": "OK",
      "vis_m": 9999,
      "fzfg": false,
      "metar_trigger": false,
      "taf_trigger": false,
      "metar": "METAR LBWN 060930Z 16007KT 120V210 9999 FEW014 SCT028 16/11 Q1011 NOSIG",
      "taf": "TAF LBWN 060500Z 0606/0706 11008KT 9999 SCT030"
    },
    {
      "icao": "LCLK",
      "alert": "OK",
      "vis_m": 9999,
      "fzfg": false,
      "metar_trigger": false,
      "taf_trigger": false,
      "metar": "METAR LCLK 060930Z 04007KT CAVOK 19/12 Q1021 NOSIG",
      "taf": "TAF LCLK 060530Z 0606/0706 35010KT CAVOK"
    },
    {
      "icao": "LCPH",
      "alert": "OK",
      "vis_m": 9999,
      "fzfg": false,
      "metar_trigger": false,
      "taf_trigger": false,
      "metar": "METAR LCPH 060930Z 16005KT 100V180 9999 FEW035 20/09 Q1020 NOSIG",
      "taf": "TAF LCPH 060530Z 0606/0706 06008KT 9999 FEW040"
    },
    {
      "icao": "LEAL",
      "alert": "OK",
      "vis_m": 9999,
      "fzfg": false,
      "metar_trigger": false,
      "taf_trigger": false,
      "metar": "METAR LEAL 060930Z 29011KT 260V320 9999 FEW030 SCT062 07/M02 Q1013 NOSIG",
      "taf": "TAF LEAL 060500Z 0606/0706 VRB04KT 9999 SCT020 TX12/0614Z TN04/0606Z"
    },
    {
      "icao": "LEBB",
      "alert": "OK",
      "vis_m": 3500,
      "fzfg": false,
      "metar_trigger": false,
      "taf_trigger": false,
      "metar": "SPECI LEBB 060943Z 34013KT 290V020 3500 RA BKN018 OVC026 05/03 Q1022 NOSIG",
      "taf": ""
    },
    {
      "icao": "LEBL",
      "alert": "OK",
      "vis_m": 9999,
      "fzfg": false,
      "metar_trigger": false,
      "taf_trigger": false,
      "metar": "METAR LEBL 060930Z 33020KT CAVOK 03/M03 Q1012 NOSIG",
      "taf": "TAF LEBL 060500Z 0606/0706 34013KT 9999 FEW025 TX11/0613Z TN00/0706Z"
    },
    {
      "icao": "LECH",
      "alert": "OK",
      "vis_m": 9999,
      "fzfg": false,
      "metar_trigger": false,
      "taf_trigger": false,
      "metar": "METAR LECH 060930Z AUTO 34019G33KT 300V020 CAVOK 06/M03 Q1012",
      "taf": ""
    },
    {
      "icao": "LEMD",
      "alert": "OK",
      "vis_m": 9999,
      "fzfg": false,
      "metar_trigger": false,
      "taf_trigger": false,
      "metar": "METAR LEMD 060930Z 35015KT 320V030 CAVOK 02/M08 Q1016 NOSIG",
      "taf": "TAF LEMD 060500Z 0606/0712 VRB05KT 9999 SCT025 TX06/0614Z TNM03/0607Z"
    },
    {
      "icao": "LEMG",
      "alert": "OK",
      "vis_m": 9999,
      "fzfg": false,
      "metar_trigger": false,
      "taf_trigger": false,
      "metar": "METAR LEMG 060930Z 27019KT 230V290 CAVOK 07/M04 Q1015 NOSIG",
      "taf": ""
    },
    {
      "icao": "LEVC",
      "alert": "OK",
      "vis_m": 9999,
      "fzfg": false,
      "metar_trigger": false,
      "taf_trigger": false,
      "metar": "METAR LEVC 060930Z 31006KT CAVOK 07/M03 Q1014 NOSIG",
      "taf": "TAF LEVC 060500Z 0606/0706 30006KT 9999 BKN040 TX12/0614Z TN01/0606Z"
    },
    {
      "icao": "LEXJ",
      "alert": "OK",
      "vis_m": 9999,
      "fzfg": false,
      "metar_trigger": false,
      "taf_trigger": false,
      "metar": "METAR LEXJ 060930Z 01010KT 330V060 9999 SCT045 SCT055 08/M01 Q1023",
      "taf": "TAF LEXJ 060800Z 0609/0709 35012KT 9999 SCT045 TX09/0614Z TN04/0619Z"
    },
    {
      "icao": "LEZG",
      "alert": "OK",
      "vis_m": 9999,
      "fzfg": false,
      "metar_trigger": false,
      "taf_trigger": false,
      "metar": "METAR LEZG 060930Z 30019KT 270V330 9999 FEW035 04/M03 Q1015 NOSIG",
      "taf": "TAF LEZG 060500Z 0606/0706 31012KT 9999 FEW050 TX07/0615Z TN00/0606Z"
    },
    {
      "icao": "LEZL",
      "alert": "OK",
      "vis_m": 9999,
      "fzfg": false,
      "metar_trigger": false,
      "taf_trigger": false,
      "metar": "METAR LEZL 060930Z 33004KT 300V360 CAVOK 06/M00 Q1020 NOSIG",
      "taf": "TAF LEZL 060800Z 0609/0709 VRB03KT CAVOK TX13/0615Z TN02/0707Z"
    },
    {
      "icao": "LFBD",
      "alert": "OK",
      "vis_m": 9999,
      "fzfg": false,
      "metar_trigger": false,
      "taf_trigger": false,
      "metar": "METAR LFBD 060930Z AUTO 36007KT 9999 BKN010 BKN052 01/M01 Q1021",
      "taf": "TAF LFBD 060500Z 0606/0712 03010KT 9999 BKN045 TX04/0614Z TNM03/0700Z"
    },
    {
      "icao": "LFLL",
      "alert": "OK",
      "vis_m": 6000,
      "fzfg": false,
      "metar_trigger": false,
      "taf_trigger": false,
      "metar": "METAR LFLL 060930Z VRB02KT 6000 BKN008 M05/M06 Q1017 NOSIG",
      "taf": ""
    },
    {
      "icao": "LFLS",
      "alert": "OK",
      "vis_m": 9999,
      "fzfg": false,
      "metar_trigger": false,
      "taf_trigger": false,
      "metar": "METAR LFLS 060930Z AUTO 02004KT 360V090 9999 SCT012 M06/M08 Q1015 TEMPO BKN009",
      "taf": "TAF LFLS 060800Z 0609/0709 36007KT 9999 FEW010"
    },
    {
      "icao": "LFMN",
      "alert": "OK",
      "vis_m": 9999,
      "fzfg": false,
      "metar_trigger": false,
      "taf_trigger": false,
      "metar": "METAR LFMN 060930Z 33014KT CAVOK 07/M03 Q1006 BECMG 21005KT",
      "taf": "TAF LFMN 060800Z 0609/0715 33010KT CAVOK"
    },
    {
      "icao": "LFOB",
      "alert": "OK",
      "vis_m": 4800,
      "fzfg": false,
      "metar_trigger": false,
      "taf_trigger": false,
      "metar": "METAR LFOB 060930Z AUTO 31003KT 4800 0250 R30/0275N R12/P5000 BCFG FEW002 M06/M07 Q1019 BECMG 6000 NSW",
      "taf": "TAF LFOB 060500Z 0606/0706 27005KT 6000 NSC"
    },
    {
      "icao": "LFPO",
      "alert": "OK",
      "vis_m": 8000,
      "fzfg": false,
      "metar_trigger": false,
      "taf_trigger": false,
      "metar": "METAR LFPO 060900Z 24004KT 8000 NSC M04/M05 Q1020 NOSIG",
      "taf": "TAF LFPO 060500Z 0606/0712 30005KT 6000 FEW003"
    },
    {
      "icao": "LFSB",
      "alert": "OK",
      "vis_m": 9999,
      "fzfg": false,
      "metar_trigger": false,
      "taf_trigger": false,
      "metar": "METAR LFSB 060930Z AUTO 14004KT 9999 -SN BKN021 OVC026 M05/M08 Q1017 NOSIG",
      "taf": "TAF LFSB 060500Z 0606/0706 VRB03KT CAVOK"
    },
    {
      "icao": "LGAV",
      "alert": "OK",
      "vis_m": 9999,
      "fzfg": false,
      "metar_trigger": false,
      "taf_trigger": false,
      "metar": "METAR LGAV 060920Z 18008KT 9999 FEW018 SCT030 17/11 Q1015 NOSIG",
      "taf": "TAF LGAV 060500Z 0606/0706 18015KT 9999 FEW018 SCT030"
    },
    {
      "icao": "LGTS",
      "alert": "OK",
      "vis_m": 9999,
      "fzfg": false,
      "metar_trigger": false,
      "taf_trigger": false,
      "metar": "METAR LGTS 060920Z 13008KT 9999 SCT030 18/11 Q1012 NOSIG",
      "taf": "TAF LGTS 060500Z 0606/0706 14010KT 9999 SCT030"
    },
    {
      "icao": "LHBP",
      "alert": "OK",
      "vis_m": 9999,
      "fzfg": false,
      "metar_trigger": false,
      "taf_trigger": false,
      "metar": "METAR LHBP 060930Z 31007KT CAVOK M02/M05 Q1013 NOSIG",
      "taf": "TAF LHBP 060515Z 0606/0706 34009KT 9999 BKN045"
    },
    {
      "icao": "LHDC",
      "alert": "OK",
      "vis_m": 9999,
      "fzfg": false,
      "metar_trigger": false,
      "taf_trigger": false,
      "metar": "METAR LHDC 060915Z AUTO 05008KT 020V080 9999 OVC017 M00/M02 Q1012 NOSIG",
      "taf": "TAF LHDC 060815Z 0609/0618 01007KT 6000 SCT012 OVC030"
    },
    {
      "icao": "LIBD",
      "alert": "OK",
      "vis_m": 4500,
      "fzfg": false,
      "metar_trigger": false,
      "taf_trigger": false,
      "metar": "METAR LIBD 060920Z 11004KT 4500 BR OVC004 11/11 Q1005",
      "taf": ""
    },
    {
      "icao": "LIBG",
      "alert": "OK",
      "vis_m": 8000,
      "fzfg": false,
      "metar_trigger": false,
      "taf_trigger": false,
      "metar": "METAR LIBG 060850Z 13008KT 110V170 8000 SCT010 15/15 Q1005",
      "taf": "TAF LIBG 060800Z 0609/0618 15008KT 9999 SCT015"
    },
    {
      "icao": "LIBP",
      "alert": "OK",
      "vis_m": 8000,
      "fzfg": false,
      "metar_trigger": false,
      "taf_trigger": false,
      "metar": "METAR LIBP 060920Z AUTO 26003KT 240V300 8000 -RA OVC005/// 07/07 Q1006 RERA",
      "taf": "TAF LIBP 060500Z 0606/0706 VRB05KT 4000 RA OVC005"
    },
    {
      "icao": "LIBR",
      "alert": "OK",
      "vis_m": 7000,
      "fzfg": false,
      "metar_trigger": false,
      "taf_trigger": false,
      "metar": "METAR LIBR 060920Z 20012KT 7000 BKN020 16/14 Q1005",
      "taf": "TAF LIBR 060500Z 0606/0706 VRB05KT 9999 BKN012"
    },
    {
      "icao": "LICA",
      "alert": "OK",
      "vis_m": 9999,
      "fzfg": false,
      "metar_trigger": false,
      "taf_trigger": false,
      "metar": "METAR LICA 060920Z AUTO 07012KT 9999 NCD 17/12 Q1005",
      "taf": "TAF LICA 060500Z 0606/0706 07010KT 9999 SCT050"
    },
    {
      "icao": "LICC",
      "alert": "OK",
      "vis_m": 9999,
      "fzfg": false,
      "metar_trigger": false,
      "taf_trigger": false,
      "metar": "METAR LICC 060920Z 23005KT CAVOK 14/12 Q1006",
      "taf": "TAF LICC 060500Z 0606/0706 26013KT 9999 FEW030"
    },
    {
      "icao": "LICJ",
      "alert": "OK",
      "vis_m": 9999,
      "fzfg": false,
      "metar_trigger": false,
      "taf_trigger": false,
      "metar": "METAR LICJ 060920Z 19016KT CAVOK 18/12 Q1002",
      "taf": "TAF LICJ 060500Z 0606/0706 21016KT 9999 FEW030"
    },
    {
      "icao": "LIMC",
      "alert": "OK",
      "vis_m": 9999,
      "fzfg": false,
      "metar_trigger": false,
      "taf_trigger": false,
      "metar": "METAR LIMC 060920Z 01004KT CAVOK M00/M04 Q1009 NOSIG",
      "taf": "TAF LIMC 060500Z 0606/0712 VRB03KT CAVOK"
    },
    {
      "icao": "LIME",
      "alert": "OK",
      "vis_m": 9999,
      "fzfg": false,
      "metar_trigger": false,
      "taf_trigger": false,
      "metar": "METAR LIME 060920Z 03003KT CAVOK M00/M05 Q1009 NOSIG",
      "taf": "TAF LIME 060500Z 0606/0706 VRB03KT CAVOK"
    },
    {
      "icao": "LIMF",
      "alert": "OK",
      "vis_m": 9999,
      "fzfg": false,
      "metar_trigger": false,
      "taf_trigger": false,
      "metar": "METAR LIMF 060920Z VRB01KT CAVOK M01/M09 Q1008",
      "taf": "TAF LIMF 060500Z 0606/0706 VRB03KT CAVOK"
    },
    {
      "icao": "LIMJ",
      "alert": "OK",
      "vis_m": 9999,
      "fzfg": false,
      "metar_trigger": false,
      "taf_trigger": false,
      "metar": "METAR LIMJ 060920Z 06012KT 020V080 CAVOK 04/M06 Q1007",
      "taf": "TAF LIMJ 060500Z 0606/0706 03015KT CAVOK"
    },
    {
      "icao": "LIPE",
      "alert": "OK",
      "vis_m": 800,
      "fzfg": false,
      "metar_trigger": false,
      "taf_trigger": false,
      "metar": "METAR LIPE 060920Z 27008KT 0800 R12/1300D R30/1100D -SN FG VV005 00/00 Q1010",
      "taf": "TAF LIPE 060500Z 0606/0706 28007KT 9999 BKN020"
    },
    {
      "icao": "LIPH",
      "alert": "OK",
      "vis_m": 9999,
      "fzfg": false,
      "metar_trigger": false,
      "taf_trigger": false,
      "metar": "METAR LIPH 060920Z 02005KT 9999 BKN070 03/M04 Q1010",
      "taf": "TAF LIPH 060500Z 0606/0706 03006KT 9999 SCT070"
    },
    {
      "icao": "LIPQ",
      "alert": "OK",
      "vis_m": 9999,
      "fzfg": false,
      "metar_trigger": false,
      "taf_trigger": false,
      "metar": "METAR LIPQ 060920Z AUTO 08006KT 020V120 9999 -RASN OVC025/// 03/M03 Q1010",
      "taf": "TAF LIPQ 060500Z 0606/0706 08008KT 9999 BKN030"
    },
    {
      "icao": "LIPR",
      "alert": "OK",
      "vis_m": 1300,
      "fzfg": false,
      "metar_trigger": false,
      "taf_trigger": false,
      "metar": "METAR LIPR 060920Z 29012KT 1300 R30/1900U SN BR SCT005 BKN013 00/00 Q1008",
      "taf": "TAF LIPR 060500Z 0606/0706 30012KT 1200 SN BKN020"
    },
    {
      "icao": "LIPX",
      "alert": "OK",
      "vis_m": 9999,
      "fzfg": false,
      "metar_trigger": false,
      "taf_trigger": false,
      "metar": "METAR LIPX 060920Z 07003KT 9999 FEW070 01/M04 Q1009",
      "taf": "TAF LIPX 060500Z 0606/0706 VRB04KT CAVOK"
    },
    {
      "icao": "LIPY",
      "alert": "OK",
      "vis_m": 9999,
      "fzfg": false,
      "metar_trigger": false,
      "taf_trigger": false,
      "metar": "METAR LIPY 060920Z AUTO 29005KT 260V340 9999 -RA OVC007/// 02/02 Q1007",
      "taf": "TAF LIPY 060500Z 0606/0706 VRB05KT 4000 RA BKN010"
    },
    {
      "icao": "LIPZ",
      "alert": "OK",
      "vis_m": 9999,
      "fzfg": false,
      "metar_trigger": false,
      "taf_trigger": false,
      "metar": "METAR LIPZ 060920Z 07013G25KT 9999 -SN BKN040 03/M02 Q1010 NOSIG",
      "taf": "TAF LIPZ 060500Z 0606/0712 02008KT 9999 SCT070"
    },
    {
      "icao": "LIRF",
      "alert": "OK",
      "vis_m": 9999,
      "fzfg": false,
      "metar_trigger": false,
      "taf_trigger": false,
      "metar": "METAR LIRF 060920Z 07006KT 9999 DZ FEW017 SCT040 12/11 Q1000 NOSIG",
      "taf": "TAF LIRF 060500Z 0606/0712 05005KT 9999 SCT020"
    },
    {
      "icao": "LIRN",
      "alert": "OK",
      "vis_m": 4000,
      "fzfg": false,
      "metar_trigger": false,
      "taf_trigger": false,
      "metar": "METAR LIRN 060920Z VRB05KT 4000 -RA FEW015 BKN050 14/12 Q1003 NOSIG",
      "taf": "TAF LIRN 060500Z 0606/0706 VRB06KT 9999 SCT020 SCT050"
    },
    {
      "icao": "LIRP",
      "alert": "OK",
      "vis_m": 9999,
      "fzfg": false,
      "metar_trigger": false,
      "taf_trigger": false,
      "metar": "METAR LIRP 060915Z 08004KT 9999 -RA SCT030 BKN060 04/03 Q1005 NOSIG",
      "taf": "TAF LIRP 060500Z 0606/0706 12005KT 9999 FEW030"
    },
    {
      "icao": "LIRZ",
      "alert": "OK",
      "vis_m": 9999,
      "fzfg": false,
      "metar_trigger": false,
      "taf_trigger": false,
      "metar": "METAR LIRZ 060920Z AUTO 01010KT 9999 -RA OVC037/// 06/04 Q1002",
      "taf": "TAF LIRZ 060500Z 0606/0706 01010KT 6000 RA BKN020"
    },
    {
      "icao": "LJLJ",
      "alert": "OK",
      "vis_m": 1500,
      "fzfg": false,
      "metar_trigger": false,
      "taf_trigger": false,
      "metar": "METAR LJLJ 060930Z 00000KT 1500 SN BR BKN010 OVC020 M03/M04 Q1013 NOSIG",
      "taf": "TAF LJLJ 060500Z 0606/0706 VRB02KT 8000 BKN016 OVC025"
    },
    {
      "icao": "LKMT",
      "alert": "OK",
      "vis_m": 9999,
      "fzfg": false,
      "metar_trigger": false,
      "taf_trigger": false,
      "metar": "METAR LKMT 060930Z 00000KT CAVOK M06/M08 Q1014 NOSIG",
      "taf": "TAF LKMT 060500Z 0606/0706 VRB02KT CAVOK"
    },
    {
      "icao": "LKPR",
      "alert": "OK",
      "vis_m": 9999,
      "fzfg": false,
      "metar_trigger": false,
      "taf_trigger": false,
      "metar": "METAR LKPR 060930Z 22008KT CAVOK M06/M09 Q1014 NOSIG",
      "taf": "TAF LKPR 060800Z 0609/0715 21007KT CAVOK"
    },
    {
      "icao": "LLBG",
      "alert": "OK",
      "vis_m": 9999,
      "fzfg": false,
      "metar_trigger": false,
      "taf_trigger": false,
      "metar": "METAR LLBG 060950Z 29005KT CAVOK 20/13 Q1020 NOSIG",
      "taf": "TAF LLBG 060501Z 0606/0706 13004KT CAVOK"
    },
    {
      "icao": "LMML",
      "alert": "OK",
      "vis_m": 8000,
      "fzfg": false,
      "metar_trigger": false,
      "taf_trigger": false,
      "metar": "METAR LMML 060945Z 19013KT 150V220 8000 NSC 19/15 Q1007 NOSIG",
      "taf": "TAF LMML 060500Z 0606/0706 20015KT 8000 NSC"
    },
    {
      "icao": "LOWW",
      "alert": "OK",
      "vis_m": 9999,
      "fzfg": false,
      "metar_trigger": false,
      "taf_trigger": false,
      "metar": "METAR LOWW 060920Z 32014KT CAVOK M02/M10 Q1016 NOSIG",
      "taf": "TAF LOWW 060815Z 0609/0715 32012KT 9999 FEW050 TXM02/0613Z TNM04/0707Z"
    },
    {
      "icao": "LPFR",
      "alert": "OK",
      "vis_m": 9999,
      "fzfg": false,
      "metar_trigger": false,
      "taf_trigger": false,
      "metar": "METAR LPFR 060930Z 36011KT CAVOK 09/M01 Q1021",
      "taf": "TAF LPFR 060500Z 0606/0706 VRB02KT CAVOK"
    },
    {
      "icao": "LPMA",
      "alert": "OK",
      "vis_m": 9999,
      "fzfg": false,
      "metar_trigger": false,
      "taf_trigger": false,
      "metar": "METAR LPMA 060930Z 02012G22KT 350V060 9999 BKN015 FEW018TCU 16/08 Q1027",
      "taf": "TAF LPMA 060500Z 0606/0706 02015KT 9999 SCT015"
    },
    {
      "icao": "LPPR",
      "alert": "OK",
      "vis_m": 9999,
      "fzfg": false,
      "metar_trigger": false,
      "taf_trigger": false,
      "metar": "METAR LPPR 060930Z 05005KT 350V080 CAVOK 06/00 Q1025",
      "taf": "TAF LPPR 060500Z 0606/0706 01008KT CAVOK"
    },
    {
      "icao": "LPPS",
      "alert": "OK",
      "vis_m": 9999,
      "fzfg": false,
      "metar_trigger": false,
      "taf_trigger": false,
      "metar": "METAR LPPS 060930Z 02017KT 9999 SCT015 14/09 Q1027",
      "taf": "TAF LPPS 060500Z 0606/0712 03013KT 9999 SCT015 SCT030"
    },
    {
      "icao": "LPPT",
      "alert": "OK",
      "vis_m": 9999,
      "fzfg": false,
      "metar_trigger": false,
      "taf_trigger": false,
      "metar": "METAR LPPT 060930Z 34012KT 9999 FEW025 08/04 Q1023",
      "taf": "TAF LPPT 060500Z 0606/0712 36010KT CAVOK"
    },
    {
      "icao": "LQBK",
      "alert": "OK",
      "vis_m": 2500,
      "fzfg": false,
      "metar_trigger": false,
      "taf_trigger": false,
      "metar": "METAR LQBK 060930Z 32003KT 2500 -SN BR BKN020 OVC028 M02/M03 Q1014 NOSIG",
      "taf": "TAF LQBK 060500Z 0606/0706 33007KT 7000 -SN SCT010 OVC020 TXM00/0613Z TNM05/0705Z"
    },
    {
      "icao": "LQSA",
      "alert": "OK",
      "vis_m": 7000,
      "fzfg": false,
      "metar_trigger": false,
      "taf_trigger": false,
      "metar": "METAR LQSA 060930Z VRB02KT 7000 BKN007 M00/M01 Q1009 NOSIG",
      "taf": "TAF LQSA 060500Z 0606/0706 29005KT 7000 SCT010 OVC030 TX00/0606Z TNM04/0706Z"
    },
    {
      "icao": "LQTZ",
      "alert": "OK",
      "vis_m": 4000,
      "fzfg": false,
      "metar_trigger": false,
      "taf_trigger": false,
      "metar": "METAR LQTZ 060930Z 28003KT 4000 BR BKN003 OVC014 M01/M01 Q1013",
      "taf": ""
    },
    {
      "icao": "LRBC",
      "alert": "OK",
      "vis_m": 350,
      "fzfg": false,
      "metar_trigger": false,
      "taf_trigger": false,
      "metar": "METAR LRBC 060930Z 18004KT 120V220 0350 R16/0450N FG VV002 01/01 Q1010",
      "taf": "TAF LRBC 060800Z 0609/0618 19006KT 0300 FG VV002"
    },
    {
      "icao": "LRBS",
      "alert": "OK",
      "vis_m": 6000,
      "fzfg": false,
      "metar_trigger": false,
      "taf_trigger": false,
      "metar": "METAR LRBS 060930Z AUTO 27003KT 220V300 6000 OVC003/// 03/03 Q1012 BECMG 9999 NSW",
      "taf": "TAF LRBS 060500Z 0606/0706 VRB04KT 0300 FG VV001"
    },
    {
      "icao": "LRBV",
      "alert": "OK",
      "vis_m": 9999,
      "fzfg": false,
      "metar_trigger": false,
      "taf_trigger": false,
      "metar": "METAR LRBV 060930Z 03005KT 330V070 9999 SCT078 06/02 Q1009",
      "taf": "TAF LRBV 060800Z 0609/0618 VRB04KT 9999 SCT045"
    },
    {
      "icao": "LRCL",
      "alert": "OK",
      "vis_m": 8000,
      "fzfg": false,
      "metar_trigger": false,
      "taf_trigger": false,
      "metar": "METAR LRCL 060930Z 25002KT 8000 -RA OVC010 03/01 Q1010",
      "taf": "TAF LRCL 060800Z 0609/0618 29005KT 9999 BKN010 OVC040"
    },
    {
      "icao": "LRCV",
      "alert": "OK",
      "vis_m": 9999,
      "fzfg": false,
      "metar_trigger": false,
      "taf_trigger": false,
      "metar": "METAR LRCV 060930Z 00000KT 9999 -RA SCT004 BKN010 OVC040 02/02 Q1012",
      "taf": "TAF LRCV 060800Z 0609/0618 VRB04KT 5000 -RA BR BKN005 OVC045"
    },
    {
      "icao": "LRIA",
      "alert": "OK",
      "vis_m": 150,
      "fzfg": false,
      "metar_trigger": false,
      "taf_trigger": false,
      "metar": "METAR LRIA 060930Z 10004KT 0150 R14/0300N FG VV001 02/02 Q1010",
      "taf": "TAF LRIA 060800Z 0609/0618 09004KT 0150 FG VV001"
    },
    {
      "icao": "LROP",
      "alert": "OK",
      "vis_m": 9999,
      "fzfg": false,
      "metar_trigger": false,
      "taf_trigger": false,
      "metar": "METAR LROP 060930Z 29003KT 230V340 9999 BKN003 03/03 Q1012 NOSIG",
      "taf": ""
    },
    {
      "icao": "LRSB",
      "alert": "OK",
      "vis_m": 3000,
      "fzfg": false,
      "metar_trigger": false,
      "taf_trigger": false,
      "metar": "METAR LRSB 060930Z VRB02KT 3000 -RA BR SCT030 BKN042 OVC055 02/01 Q1010 NOSIG",
      "taf": "TAF LRSB 060500Z 0606/0706 VRB04KT 5000 BR SCT015 SCT060"
    },
    {
      "icao": "LRSM",
      "alert": "OK",
      "vis_m": 7000,
      "fzfg": false,
      "metar_trigger": false,
      "taf_trigger": false,
      "metar": "METAR LRSM 060930Z 23003KT 200V260 7000 FEW001 OVC003 01/01 Q1012",
      "taf": "TAF LRSM 060800Z 0609/0618 VRB04KT 1500 -RADZ BR OVC015"
    },
    {
      "icao": "LRSV",
      "alert": "OK",
      "vis_m": 7000,
      "fzfg": false,
      "metar_trigger": false,
      "taf_trigger": false,
      "metar": "METAR LRSV 060930Z 21005KT 7000 NSC M00/M00 Q1008",
      "taf": "TAF LRSV 060800Z 0609/0618 21006KT 3000 BR NSC"
    },
    {
      "icao": "LRTM",
      "alert": "OK",
      "vis_m": 2000,
      "fzfg": false,
      "metar_trigger": false,
      "taf_trigger": false,
      "metar": "METAR LRTM 060930Z 21004KT 2000 -RA BR SCT007 BKN011 OVC033 01/01 Q1011",
      "taf": "TAF LRTM 060800Z 0609/0618 VRB04KT 3000 BR BKN015 BKN035"
    },
    {
      "icao": "LRTR",
      "alert": "OK",
      "vis_m": 4000,
      "fzfg": false,
      "metar_trigger": false,
      "taf_trigger": false,
      "metar": "METAR LRTR 060930Z VRB02KT 4000 BR FEW002 BKN003 OVC005 M00/M00 Q1013",
      "taf": "TAF LRTR 060500Z 0606/0706 26006KT 3000 -FZDZ BR BKN005 OVC010"
    },
    {
      "icao": "LTAC",
      "alert": "OK",
      "vis_m": 2100,
      "fzfg": true,
      "metar_trigger": false,
      "taf_trigger": false,
      "metar": "METAR LTAC 060920Z VRB02KT 2100 R03C/P1500U R21C/1300U R03L/P1500U R03R/1000N BR NSC 01/01 Q1021 BECMG 4000 RMK RWY21C VRB02KT RWY03L VRB02KT RWY21R VRB02KT RWY03R VRB01KT RWY21L VRB02KT",
      "taf": "TAF LTAC 060440Z 0606/0706 VRB02KT 0200 FZFG VV001"
    },
    {
      "icao": "LTFM",
      "alert": "OK",
      "vis_m": 9999,
      "fzfg": false,
      "metar_trigger": false,
      "taf_trigger": false,
      "metar": "METAR LTFM 060920Z 20017KT 9999 FEW040 BKN090 16/06 Q1015 NOSIG RMK RWY17L 20016KT RWY34L 19016KT RWY16R 20016KT RWY36 19018KT RWY18 20017KT",
      "taf": "TAF LTFM 060440Z 0606/0712 19012KT 9999 SCT040 BKN090"
    },
    {
      "icao": "LUKK",
      "alert": "OK",
      "vis_m": 250,
      "fzfg": false,
      "metar_trigger": false,
      "taf_trigger": false,
      "metar": "METAR LUKK 060930Z 12004KT 080V160 0250 0200NE R08/0325N FG VV002 03/03 Q1011 NOSIG",
      "taf": "TAF LUKK 060526Z 0606/0706 VRB05KT 0300 -DZ FG VV002"
    },
    {
      "icao": "LWOH",
      "alert": "OK",
      "vis_m": 9999,
      "fzfg": false,
      "metar_trigger": false,
      "taf_trigger": false,
      "metar": "METAR LWOH 060950Z 19007KT 140V240 9999 -RA SCT010 OVC040 09/08 Q1009",
      "taf": "TAF LWOH 060830Z 0609/0709 15010KT 9999 -RA SCT020 OVC040"
    },
    {
      "icao": "LWSK",
      "alert": "OK",
      "vis_m": 9999,
      "fzfg": false,
      "metar_trigger": false,
      "taf_trigger": false,
      "metar": "METAR LWSK 060950Z VRB02KT 9999 DZ SCT019 BKN040 BKN075 10/09 Q1010 NOSIG",
      "taf": "TAF LWSK 060830Z 0609/0709 VRB02KT 9999 SCT020 BKN045 BKN075"
    },
    {
      "icao": "LYBE",
      "alert": "OK",
      "vis_m": 4000,
      "fzfg": false,
      "metar_trigger": false,
      "taf_trigger": false,
      "metar": "METAR LYBE 060930Z 28005KT 4000 -FZDZ BR BKN005 M01/M02 Q1014 NOSIG",
      "taf": ""
    },
    {
      "icao": "LYNI",
      "alert": "OK",
      "vis_m": 6000,
      "fzfg": false,
      "metar_trigger": false,
      "taf_trigger": false,
      "metar": "METAR LYNI 060930Z 34013KT 6000 -RASN BKN005 BKN013 OVC067 01/01 Q1012 TEMPO 3000 SNRA",
      "taf": "TAF LYNI 060500Z 0606/0706 33010KT 9999 SCT010 BKN030 OVC070 TX03/0606Z TNM01/0706Z"
    },
    {
      "icao": "LYPG",
      "alert": "OK",
      "vis_m": 9999,
      "fzfg": false,
      "metar_trigger": false,
      "taf_trigger": false,
      "metar": "METAR LYPG 060930Z 00000KT 9999 FEW006 SCT030 BKN034 11/11 Q1007 NOSIG",
      "taf": "TAF LYPG 060500Z 0606/0706 14005KT 8000 RA FEW010 BKN030 OVC070 TX14/0613Z TN09/0705Z"
    },
    {
      "icao": "LZIB",
      "alert": "OK",
      "vis_m": 9999,
      "fzfg": false,
      "metar_trigger": false,
      "taf_trigger": false,
      "metar": "METAR LZIB 060930Z 32009KT CAVOK M02/M10 Q1015 NOSIG",
      "taf": "TAF LZIB 060515Z 0606/0706 31015KT CAVOK"
    },
    {
      "icao": "LZKZ",
      "alert": "OK",
      "vis_m": 9999,
      "fzfg": false,
      "metar_trigger": false,
      "taf_trigger": false,
      "metar": "METAR LZKZ 060930Z 03006KT 9999 FEW038 M01/M05 Q1011 NOSIG",
      "taf": ""
    },
    {
      "icao": "LZTT",
      "alert": "OK",
      "vis_m": 9999,
      "fzfg": false,
      "metar_trigger": false,
      "taf_trigger": false,
      "metar": "METAR LZTT 060930Z 05003KT 020V080 9999 FEW010 BKN046 M04/M07 Q1009 NOSIG",
      "taf": ""
    },
    {
      "icao": "OEJN",
      "alert": "OK",
      "vis_m": 7000,
      "fzfg": false,
      "metar_trigger": false,
      "taf_trigger": false,
      "metar": "METAR OEJN 060900Z 05003KT 7000 NSC 32/05 Q1016 NOSIG",
      "taf": "TAF OEJN 060500Z 0606/0712 VRB03KT 7000 NSC"
    },
    {
      "icao": "OEMA",
      "alert": "OK",
      "vis_m": 5000,
      "fzfg": false,
      "metar_trigger": false,
      "taf_trigger": false,
      "metar": "METAR OEMA 060900Z 10006KT 5000 DU NSC 22/01 Q1024 NOSIG",
      "taf": "TAF OEMA 060500Z 0606/0712 09010KT 7000 FEW045"
    },
    {
      "icao": "OJAI",
      "alert": "OK",
      "vis_m": 5000,
      "fzfg": false,
      "metar_trigger": false,
      "taf_trigger": false,
      "metar": "METAR OJAI 060900Z 08011KT 5000 HZ NSC 12/02 Q1024 NOSIG",
      "taf": "TAF OJAI 060446Z 0606/0712 12012KT 5000 HZ NSC"
    },
    {
      "icao": "OMAA",
      "alert": "OK",
      "vis_m": 9999,
      "fzfg": false,
      "metar_trigger": false,
      "taf_trigger": false,
      "metar": "METAR OMAA 060900Z 36007KT 320V040 9999 FEW045 26/09 Q1020 NOSIG",
      "taf": "TAF OMAA 060500Z 0606/0712 07005KT 8000 FEW025"
    },
    {
      "icao": "OMDB",
      "alert": "OK",
      "vis_m": 9999,
      "fzfg": false,
      "metar_trigger": false,
      "taf_trigger": false,
      "metar": "SPECI OMDB 060935Z 33010KT 290V360 9999 FEW040 26/09 Q1019 NOSIG",
      "taf": "TAF OMDB 060500Z 0606/0712 07007KT 8000 NSC"
    },
    {
      "icao": "UAAA",
      "alert": "OK",
      "vis_m": 5000,
      "fzfg": false,
      "metar_trigger": false,
      "taf_trigger": false,
      "metar": "METAR UAAA 060930Z 25002MPS 200V290 5000 FU FEW100 04/M04 Q1028 NOSIG",
      "taf": "TAF UAAA 060503Z 0606/0706 04003MPS 6000 SCT011 BKN050 TX01/0609Z TNM04/0701Z"
    },
    {
      "icao": "UBBB",
      "alert": "OK",
      "vis_m": 9999,
      "fzfg": false,
      "metar_trigger": false,
      "taf_trigger": false,
      "metar": "METAR UBBB 060930Z 15004KT 9999 BKN020 11/07 Q1025 NOSIG",
      "taf": "TAF UBBB 060458Z 0606/0706 35005KT 6000 NSC TX12/0610Z TN04/0702Z"
    },
    {
      "icao": "UDSG",
      "alert": "OK",
      "vis_m": 7000,
      "fzfg": false,
      "metar_trigger": false,
      "taf_trigger": false,
      "metar": "METAR UDSG 060930Z 17001KT 7000 NSC M09/M13 Q1029 NOSIG",
      "taf": "TAF UDSG 060458Z 0606/0706 VRB06KT 9999 FEW040"
    },
    {
      "icao": "UDYZ",
      "alert": "OK",
      "vis_m": 2400,
      "fzfg": false,
      "metar_trigger": false,
      "taf_trigger": false,
      "metar": "METAR UDYZ 060930Z 00000KT 2400 BR NSC M04/M09 Q1032 NOSIG",
      "taf": "TAF UDYZ 060500Z 0606/0706 VRB06KT 6000 FEW040"
    },
    {
      "icao": "UGKO",
      "alert": "OK",
      "vis_m": 9999,
      "fzfg": false,
      "metar_trigger": false,
      "taf_trigger": false,
      "metar": "METAR UGKO 060930Z 09018KT CAVOK 15/00 Q1018 NOSIG",
      "taf": "TAF UGKO 060500Z 0606/0706 08007KT CAVOK TX16/0611Z TN02/0703Z"
    }
  ]
}