{
  "ts_utc": "2026-04-22T05:50:49Z",
  "threshold_m": 150,
  "source": "stations_override.txt (ICAO list) + aviationweather.gov (METAR/TAF raw)",
  "station_count": 159,
  "stations": [
    {
      "icao": "BIKF",
      "alert": "OK",
      "vis_m": 9999,
      "fzfg": false,
      "metar_trigger": false,
      "taf_trigger": false,
      "metar": "METAR BIKF 220530Z 29007KT 9999 OVC009 05/04 Q1036",
      "taf": "TAF BIKF 220446Z 2206/2306 31005KT 9999 BKN008 TX07/2215Z TN05/2303Z"
    },
    {
      "icao": "BKPR",
      "alert": "OK",
      "vis_m": 9999,
      "fzfg": false,
      "metar_trigger": false,
      "taf_trigger": false,
      "metar": "METAR BKPR 220530Z 34004KT 9999 FEW015 SCT025 BKN040 07/06 Q1016 NOSIG",
      "taf": "TAF BKPR 220530Z 2206/2306 01010KT 9999 SCT020 BKN040"
    },
    {
      "icao": "EBCI",
      "alert": "OK",
      "vis_m": 9999,
      "fzfg": false,
      "metar_trigger": false,
      "taf_trigger": false,
      "metar": "METAR EBCI 220520Z 06007KT CAVOK 04/00 Q1024 NOSIG",
      "taf": "TAF EBCI 220503Z 2206/2312 08008KT CAVOK"
    },
    {
      "icao": "EDDB",
      "alert": "OK",
      "vis_m": 9999,
      "fzfg": false,
      "metar_trigger": false,
      "taf_trigger": false,
      "metar": "METAR EDDB 220520Z AUTO 27003KT CAVOK 03/M00 Q1026 NOSIG",
      "taf": "TAF EDDB 220500Z 2206/2306 32006KT CAVOK"
    },
    {
      "icao": "EDDH",
      "alert": "OK",
      "vis_m": 9999,
      "fzfg": false,
      "metar_trigger": false,
      "taf_trigger": false,
      "metar": "METAR EDDH 220520Z AUTO 33002KT CAVOK 02/M01 Q1028 NOSIG",
      "taf": "TAF EDDH 220500Z 2206/2312 VRB03KT CAVOK"
    },
    {
      "icao": "EDDK",
      "alert": "OK",
      "vis_m": 9999,
      "fzfg": false,
      "metar_trigger": false,
      "taf_trigger": false,
      "metar": "METAR EDDK 220520Z AUTO 20002KT CAVOK 02/M01 Q1026 NOSIG",
      "taf": "TAF EDDK 220500Z 2206/2312 09005KT CAVOK"
    },
    {
      "icao": "EDDN",
      "alert": "OK",
      "vis_m": 9999,
      "fzfg": false,
      "metar_trigger": false,
      "taf_trigger": false,
      "metar": "METAR EDDN 220520Z AUTO VRB02KT CAVOK 01/M01 Q1024 NOSIG",
      "taf": "TAF EDDN 220500Z 2206/2306 04003KT CAVOK"
    },
    {
      "icao": "EDDS",
      "alert": "OK",
      "vis_m": 9999,
      "fzfg": false,
      "metar_trigger": false,
      "taf_trigger": false,
      "metar": "METAR EDDS 220520Z AUTO 06005KT CAVOK 03/M00 Q1022 NOSIG",
      "taf": "TAF EDDS 220500Z 2206/2306 05004KT CAVOK"
    },
    {
      "icao": "EDFH",
      "alert": "OK",
      "vis_m": 9999,
      "fzfg": false,
      "metar_trigger": false,
      "taf_trigger": false,
      "metar": "METAR EDFH 220520Z 09004KT 040V130 CAVOK 04/M01 Q1023",
      "taf": "TAF EDFH 220500Z 2206/2306 09010KT CAVOK"
    },
    {
      "icao": "EDJA",
      "alert": "OK",
      "vis_m": 9999,
      "fzfg": false,
      "metar_trigger": false,
      "taf_trigger": false,
      "metar": "METAR EDJA 220520Z 05007KT CAVOK 01/M00 Q1021",
      "taf": "TAF EDJA 220500Z 2206/2215 05009KT CAVOK"
    },
    {
      "icao": "EDLW",
      "alert": "OK",
      "vis_m": 9999,
      "fzfg": false,
      "metar_trigger": false,
      "taf_trigger": false,
      "metar": "METAR EDLW 220520Z VRB02KT CAVOK 04/00 Q1026",
      "taf": "TAF EDLW 220500Z 2206/2306 VRB02KT CAVOK"
    },
    {
      "icao": "EDNY",
      "alert": "OK",
      "vis_m": 9999,
      "fzfg": false,
      "metar_trigger": false,
      "taf_trigger": false,
      "metar": "METAR EDNY 220520Z 03008KT CAVOK 04/M00 Q1020",
      "taf": "TAF EDNY 220500Z 2206/2215 03007KT CAVOK"
    },
    {
      "icao": "EDSB",
      "alert": "OK",
      "vis_m": 9999,
      "fzfg": false,
      "metar_trigger": false,
      "taf_trigger": false,
      "metar": "METAR EDSB 220520Z 03010KT CAVOK 05/02 Q1022",
      "taf": "TAF EDSB 220500Z 2206/2306 03012KT CAVOK"
    },
    {
      "icao": "EETN",
      "alert": "OK",
      "vis_m": 9999,
      "fzfg": false,
      "metar_trigger": false,
      "taf_trigger": false,
      "metar": "METAR EETN 220520Z 29008KT CAVOK 07/00 Q1012 NOSIG",
      "taf": "TAF EETN 220530Z 2206/2306 28010KT CAVOK"
    },
    {
      "icao": "EFTU",
      "alert": "OK",
      "vis_m": 9999,
      "fzfg": false,
      "metar_trigger": false,
      "taf_trigger": false,
      "metar": "METAR EFTU 220520Z AUTO 32008KT 280V340 CAVOK 05/01 Q1014",
      "taf": "TAF EFTU 220527Z 2206/2306 32012KT CAVOK"
    },
    {
      "icao": "EGBB",
      "alert": "OK",
      "vis_m": 9999,
      "fzfg": false,
      "metar_trigger": false,
      "taf_trigger": false,
      "metar": "METAR EGBB 220520Z 05007KT 010V090 CAVOK 05/03 Q1027",
      "taf": "TAF EGBB 220459Z 2206/2306 07012KT CAVOK"
    },
    {
      "icao": "EGGP",
      "alert": "OK",
      "vis_m": 9999,
      "fzfg": false,
      "metar_trigger": false,
      "taf_trigger": false,
      "metar": "METAR EGGP 220520Z 07010KT CAVOK 04/02 Q1028",
      "taf": "TAF EGGP 220455Z 2206/2306 07012KT CAVOK"
    },
    {
      "icao": "EGGW",
      "alert": "OK",
      "vis_m": 6000,
      "fzfg": false,
      "metar_trigger": false,
      "taf_trigger": false,
      "metar": "METAR EGGW 220520Z AUTO 03007KT 360V080 6000 FEW004 03/03 Q1026",
      "taf": "TAF EGGW 220455Z 2206/2306 06012KT 3000 BR FEW010"
    },
    {
      "icao": "EGKK",
      "alert": "OK",
      "vis_m": 9999,
      "fzfg": false,
      "metar_trigger": false,
      "taf_trigger": false,
      "metar": "METAR EGKK 220520Z 06003KT CAVOK 05/04 Q1024",
      "taf": "TAF EGKK 220455Z 2206/2312 07011KT 9999 FEW045"
    },
    {
      "icao": "EGNM",
      "alert": "OK",
      "vis_m": 9999,
      "fzfg": false,
      "metar_trigger": false,
      "taf_trigger": false,
      "metar": "METAR EGNM 220520Z 03007KT 9999 BKN009 04/03 Q1029",
      "taf": "TAF EGNM 220455Z 2206/2306 06010KT 9999 FEW020"
    },
    {
      "icao": "EGPD",
      "alert": "OK",
      "vis_m": 9999,
      "fzfg": false,
      "metar_trigger": false,
      "taf_trigger": false,
      "metar": "METAR EGPD 220520Z COR AUTO 04004KT 360V080 9999 OVC024 07/02 Q1034 NOSIG",
      "taf": "TAF EGPD 220454Z 2206/2306 04007KT 9999 BKN020"
    },
    {
      "icao": "EGPF",
      "alert": "OK",
      "vis_m": 9999,
      "fzfg": false,
      "metar_trigger": false,
      "taf_trigger": false,
      "metar": "METAR EGPF 220520Z AUTO 06005KT 340V090 9999 BKN025 04/02 Q1034",
      "taf": "TAF EGPF 220500Z 2206/2306 07004KT 9999 FEW020"
    },
    {
      "icao": "EHBK",
      "alert": "OK",
      "vis_m": 9999,
      "fzfg": false,
      "metar_trigger": false,
      "taf_trigger": false,
      "metar": "METAR EHBK 220525Z AUTO 07006KT 9999 NCD 04/01 Q1025 NOSIG",
      "taf": "TAF EHBK 220446Z 2206/2312 08010KT CAVOK"
    },
    {
      "icao": "EHEH",
      "alert": "OK",
      "vis_m": 9999,
      "fzfg": false,
      "metar_trigger": false,
      "taf_trigger": false,
      "metar": "METAR EHEH 220525Z AUTO 05006KT 020V080 9999 NCD 05/00 Q1026 BLU NOSIG RMK TREND REMOTE BY EHWX",
      "taf": "TAF EHEH 212323Z 2200/2306 03005KT CAVOK"
    },
    {
      "icao": "EKBI",
      "alert": "OK",
      "vis_m": 9999,
      "fzfg": false,
      "metar_trigger": false,
      "taf_trigger": false,
      "metar": "METAR EKBI 220520Z AUTO 27004KT 9999 NCD 01/00 Q1028",
      "taf": "TAF EKBI 220527Z 2206/2306 VRB03KT CAVOK"
    },
    {
      "icao": "EKCH",
      "alert": "OK",
      "vis_m": 9999,
      "fzfg": false,
      "metar_trigger": false,
      "taf_trigger": false,
      "metar": "METAR EKCH 220520Z AUTO 30010KT 9999 NCD 08/03 Q1025 NOSIG",
      "taf": "TAF EKCH 220527Z 2206/2306 32012KT CAVOK"
    },
    {
      "icao": "ENAL",
      "alert": "OK",
      "vis_m": 9999,
      "fzfg": false,
      "metar_trigger": false,
      "taf_trigger": false,
      "metar": "METAR ENAL 220520Z 26003KT CAVOK 02/00 Q1031",
      "taf": "TAF ENAL 220500Z 2206/2215 VRB05KT 9999 SCT020"
    },
    {
      "icao": "ENBR",
      "alert": "OK",
      "vis_m": 200,
      "fzfg": false,
      "metar_trigger": false,
      "taf_trigger": false,
      "metar": "METAR ENBR 220520Z VRB02KT 0200 R17/0450N R35/P2000N FG VV002 03/03 Q1030 TEMPO 0600 FG RMK WIND 1200FT 01006KT",
      "taf": "TAF ENBR 220500Z 2206/2306 36005KT 0200 FG VV001"
    },
    {
      "icao": "ENGM",
      "alert": "OK",
      "vis_m": 9999,
      "fzfg": false,
      "metar_trigger": false,
      "taf_trigger": false,
      "metar": "METAR ENGM 220520Z VRB02KT CAVOK 02/M01 Q1025 NOSIG",
      "taf": "TAF ENGM 220500Z 2206/2306 VRB05KT CAVOK"
    },
    {
      "icao": "ENHD",
      "alert": "OK",
      "vis_m": 6000,
      "fzfg": false,
      "metar_trigger": false,
      "taf_trigger": false,
      "metar": "METAR ENHD 220520Z 35012KT 6000 BKN001 OVC003 06/05 Q1030",
      "taf": "TAF ENHD 220500Z 2206/2215 34015KT 9999 BKN003"
    },
    {
      "icao": "ENTC",
      "alert": "OK",
      "vis_m": 9999,
      "fzfg": false,
      "metar_trigger": false,
      "taf_trigger": false,
      "metar": "METAR ENTC 220520Z 34013KT 9999 BKN039 04/M01 Q1012 REDZRA TEMPO 32015G25KT RMK WIND 2600FT 34030KT",
      "taf": "TAF ENTC 220500Z 2206/2306 32012KT 9999 BKN030"
    },
    {
      "icao": "ENTO",
      "alert": "OK",
      "vis_m": 9999,
      "fzfg": false,
      "metar_trigger": false,
      "taf_trigger": false,
      "metar": "METAR ENTO 220450Z VRB02KT CAVOK 05/M02 Q1026 NOSIG",
      "taf": "TAF ENTO 220500Z 2206/2306 34007KT CAVOK"
    },
    {
      "icao": "ENVA",
      "alert": "OK",
      "vis_m": 9999,
      "fzfg": false,
      "metar_trigger": false,
      "taf_trigger": false,
      "metar": "METAR ENVA 220520Z 26012KT 9999 BKN025 06/02 Q1027 NOSIG RMK WIND 670FT 27010KT",
      "taf": "TAF ENVA 220500Z 2206/2306 27015KT 9999 BKN025"
    },
    {
      "icao": "ENZV",
      "alert": "OK",
      "vis_m": 5000,
      "fzfg": false,
      "metar_trigger": false,
      "taf_trigger": false,
      "metar": "METAR ENZV 220520Z 36005KT 320V020 5000 BR BKN002 05/05 Q1030 TEMPO 0600 FG",
      "taf": "TAF ENZV 220500Z 2206/2306 32005KT 4000 BR BKN003"
    },
    {
      "icao": "EPGD",
      "alert": "OK",
      "vis_m": 9999,
      "fzfg": false,
      "metar_trigger": false,
      "taf_trigger": false,
      "metar": "METAR EPGD 220530Z 26004KT CAVOK 05/M01 Q1021",
      "taf": "TAF EPGD 220530Z 2206/2306 28008KT CAVOK"
    },
    {
      "icao": "EPKK",
      "alert": "OK",
      "vis_m": 9999,
      "fzfg": false,
      "metar_trigger": false,
      "taf_trigger": false,
      "metar": "METAR EPKK 220530Z 22003KT CAVOK 05/M02 Q1020",
      "taf": "TAF EPKK 220530Z 2206/2306 22003KT CAVOK"
    },
    {
      "icao": "EPKT",
      "alert": "OK",
      "vis_m": 9999,
      "fzfg": false,
      "metar_trigger": false,
      "taf_trigger": false,
      "metar": "METAR EPKT 220530Z 26003KT CAVOK 01/M02 Q1021",
      "taf": "TAF EPKT 220530Z 2206/2306 24003KT CAVOK"
    },
    {
      "icao": "EPLB",
      "alert": "OK",
      "vis_m": 9999,
      "fzfg": false,
      "metar_trigger": false,
      "taf_trigger": false,
      "metar": "METAR EPLB 220530Z 31006KT CAVOK 05/M02 Q1018",
      "taf": "TAF EPLB 220530Z 2206/2306 31010KT CAVOK"
    },
    {
      "icao": "EPMO",
      "alert": "OK",
      "vis_m": 9999,
      "fzfg": false,
      "metar_trigger": false,
      "taf_trigger": false,
      "metar": "METAR EPMO 220530Z 32007KT CAVOK 04/M00 Q1020",
      "taf": "TAF EPMO 220530Z 2206/2306 32013KT CAVOK"
    },
    {
      "icao": "EPPO",
      "alert": "OK",
      "vis_m": 9999,
      "fzfg": false,
      "metar_trigger": false,
      "taf_trigger": false,
      "metar": "METAR EPPO 220530Z 31004KT CAVOK 04/M03 Q1023",
      "taf": "TAF EPPO 220530Z 2206/2306 33010KT CAVOK"
    },
    {
      "icao": "EPRA",
      "alert": "OK",
      "vis_m": 9999,
      "fzfg": false,
      "metar_trigger": false,
      "taf_trigger": false,
      "metar": "METAR EPRA 220530Z 32008KT CAVOK 04/M04 Q1019",
      "taf": "TAF EPRA 220530Z 2206/2215 31010KT CAVOK"
    },
    {
      "icao": "EPRZ",
      "alert": "OK",
      "vis_m": 9999,
      "fzfg": false,
      "metar_trigger": false,
      "taf_trigger": false,
      "metar": "METAR EPRZ 220530Z 27006KT CAVOK 04/M02 Q1018",
      "taf": "TAF EPRZ 220530Z 2206/2306 27008KT CAVOK"
    },
    {
      "icao": "EPSC",
      "alert": "OK",
      "vis_m": 9999,
      "fzfg": false,
      "metar_trigger": false,
      "taf_trigger": false,
      "metar": "METAR EPSC 220530Z VRB02KT CAVOK 02/M01 Q1024",
      "taf": "TAF EPSC 220530Z 2206/2306 VRB02KT CAVOK"
    },
    {
      "icao": "EPSY",
      "alert": "OK",
      "vis_m": 9999,
      "fzfg": false,
      "metar_trigger": false,
      "taf_trigger": false,
      "metar": "METAR EPSY 220530Z 33007KT CAVOK 04/M01 Q1019",
      "taf": "TAF EPSY 220530Z 2206/2215 32010KT CAVOK"
    },
    {
      "icao": "EPWA",
      "alert": "OK",
      "vis_m": 9999,
      "fzfg": false,
      "metar_trigger": false,
      "taf_trigger": false,
      "metar": "METAR EPWA 220530Z 30008KT CAVOK 04/M02 Q1020 NOSIG",
      "taf": "TAF EPWA 220530Z 2206/2306 32010KT CAVOK"
    },
    {
      "icao": "EPWR",
      "alert": "OK",
      "vis_m": 9999,
      "fzfg": false,
      "metar_trigger": false,
      "taf_trigger": false,
      "metar": "METAR EPWR 220530Z 29006KT CAVOK 03/M03 Q1023",
      "taf": "TAF EPWR 220530Z 2206/2306 32008KT CAVOK"
    },
    {
      "icao": "ESGG",
      "alert": "OK",
      "vis_m": 9999,
      "fzfg": false,
      "metar_trigger": false,
      "taf_trigger": false,
      "metar": "METAR ESGG 220520Z 03008KT CAVOK 06/00 Q1024",
      "taf": "TAF ESGG 220530Z 2206/2306 01007KT CAVOK"
    },
    {
      "icao": "ESKN",
      "alert": "OK",
      "vis_m": 9999,
      "fzfg": false,
      "metar_trigger": false,
      "taf_trigger": false,
      "metar": "METAR ESKN 220520Z 32009KT CAVOK 07/01 Q1021",
      "taf": "TAF ESKN 220530Z 2206/2306 33008KT CAVOK"
    },
    {
      "icao": "ESMS",
      "alert": "OK",
      "vis_m": 9999,
      "fzfg": false,
      "metar_trigger": false,
      "taf_trigger": false,
      "metar": "METAR ESMS 220520Z 31007KT CAVOK 06/05 Q1024",
      "taf": "TAF ESMS 220527Z 2206/2306 31007KT CAVOK"
    },
    {
      "icao": "ESSA",
      "alert": "OK",
      "vis_m": 9999,
      "fzfg": false,
      "metar_trigger": false,
      "taf_trigger": false,
      "metar": "METAR ESSA 220520Z 30007KT CAVOK 06/00 Q1020 NOSIG",
      "taf": "TAF ESSA 220530Z 2206/2306 32010KT CAVOK"
    },
    {
      "icao": "EYKA",
      "alert": "OK",
      "vis_m": 9999,
      "fzfg": false,
      "metar_trigger": false,
      "taf_trigger": false,
      "metar": "METAR EYKA 220520Z 27004KT CAVOK 04/M03 Q1017",
      "taf": "TAF EYKA 220500Z 2206/2306 VRB04KT 9000 NSC"
    },
    {
      "icao": "EYPA",
      "alert": "OK",
      "vis_m": 9999,
      "fzfg": false,
      "metar_trigger": false,
      "taf_trigger": false,
      "metar": "METAR EYPA 220520Z VRB02KT CAVOK 05/03 Q1018",
      "taf": "TAF EYPA 220500Z 2206/2306 VRB04KT 9000 NSC"
    },
    {
      "icao": "EYVI",
      "alert": "OK",
      "vis_m": 9999,
      "fzfg": false,
      "metar_trigger": false,
      "taf_trigger": false,
      "metar": "METAR EYVI 220520Z 32006KT 300V360 CAVOK 04/M03 Q1015 NOSIG",
      "taf": "TAF EYVI 220500Z 2206/2306 31012KT 9000 NSC"
    },
    {
      "icao": "GCFV",
      "alert": "OK",
      "vis_m": 9999,
      "fzfg": false,
      "metar_trigger": false,
      "taf_trigger": false,
      "metar": "METAR GCFV 220530Z 28006KT 9999 FEW020 16/11 Q1012",
      "taf": "TAF GCFV 220200Z 2203/2303 35007KT 9999 SCT035 TX23/2214Z TN17/2206Z"
    },
    {
      "icao": "GCLP",
      "alert": "OK",
      "vis_m": 9999,
      "fzfg": false,
      "metar_trigger": false,
      "taf_trigger": false,
      "metar": "METAR GCLP 220530Z 33009KT 9999 FEW035 BKN050 17/14 Q1012 NOSIG",
      "taf": "TAF GCLP 220200Z 2203/2303 03007KT 9999 SCT035 TX22/2214Z TN17/2206Z"
    },
    {
      "icao": "GCTS",
      "alert": "OK",
      "vis_m": 9999,
      "fzfg": false,
      "metar_trigger": false,
      "taf_trigger": false,
      "metar": "METAR GCTS 220530Z 06006KT 9999 BKN050 17/13 Q1013 NOSIG",
      "taf": "TAF GCTS 220200Z 2203/2303 07012KT 9999 SCT040 TX23/2214Z TN17/2206Z"
    },
    {
      "icao": "GMAD",
      "alert": "OK",
      "vis_m": 8000,
      "fzfg": false,
      "metar_trigger": false,
      "taf_trigger": false,
      "metar": "METAR GMAD 220530Z 00000KT 8000 NSC 18/14 Q1010 NOSIG",
      "taf": "TAF GMAD 220500Z 2206/2312 20006KT 8000 BKN020"
    },
    {
      "icao": "GMMN",
      "alert": "OK",
      "vis_m": 9999,
      "fzfg": false,
      "metar_trigger": false,
      "taf_trigger": false,
      "metar": "METAR GMMN 220530Z 30004KT 9999 SCT040 13/11 Q1013 NOSIG",
      "taf": "TAF GMMN 220500Z 2206/2312 04004KT 9999 FEW014"
    },
    {
      "icao": "GMMX",
      "alert": "OK",
      "vis_m": 9999,
      "fzfg": false,
      "metar_trigger": false,
      "taf_trigger": false,
      "metar": "METAR GMMX 220530Z 10003KT 080V140 9999 FEW030 SCT100 15/12 Q1012 NOSIG",
      "taf": "TAF GMMX 220500Z 2206/2312 30007KT 8000 SCT030 SCT110"
    },
    {
      "icao": "HEGN",
      "alert": "OK",
      "vis_m": 9999,
      "fzfg": false,
      "metar_trigger": false,
      "taf_trigger": false,
      "metar": "METAR HEGN 220500Z 32009KT CAVOK 19/07 Q1013 NOSIG",
      "taf": "TAF HEGN 220500Z 2206/2312 32010G20KT CAVOK"
    },
    {
      "icao": "HEMA",
      "alert": "OK",
      "vis_m": 9999,
      "fzfg": false,
      "metar_trigger": false,
      "taf_trigger": false,
      "metar": "METAR HEMA 220500Z 36012KT CAVOK 23/04 Q1011 NOSIG",
      "taf": "TAF HEMA 220500Z 2206/2312 33010G20KT CAVOK"
    },
    {
      "icao": "HESH",
      "alert": "OK",
      "vis_m": 9999,
      "fzfg": false,
      "metar_trigger": false,
      "taf_trigger": false,
      "metar": "METAR HESH 220500Z 36012KT CAVOK 22/12 Q1011 NOSIG",
      "taf": "TAF HESH 220500Z 2206/2312 36010KT CAVOK"
    },
    {
      "icao": "HESX",
      "alert": "OK",
      "vis_m": 3000,
      "fzfg": false,
      "metar_trigger": false,
      "taf_trigger": false,
      "metar": "METAR HESX 220500Z 06005KT 3000 BR NSC 15/12 Q1015 NOSIG",
      "taf": "TAF HESX 220500Z 2206/2312 03008KT CAVOK"
    },
    {
      "icao": "LATI",
      "alert": "OK",
      "vis_m": 9999,
      "fzfg": false,
      "metar_trigger": false,
      "taf_trigger": false,
      "metar": "METAR LATI 220550Z VRB02KT 9999 SCT020 13/10 Q1013 NOSIG",
      "taf": "TAF LATI 220500Z 2206/2306 VRB05KT 9999 BKN025 TX20/2212Z TN08/2304Z"
    },
    {
      "icao": "LBPD",
      "alert": "OK",
      "vis_m": 9999,
      "fzfg": false,
      "metar_trigger": false,
      "taf_trigger": false,
      "metar": "METAR LBPD 220530Z AUTO 00000KT 9999 -RA FEW002/// BKN039/// OVC046/// 09/09 Q1015 TEMPO 5000 RA SCT005 BKN008 BKN020",
      "taf": "TAF LBPD 220500Z 2206/2306 VRB03KT 9999 SCT030 OVC050"
    },
    {
      "icao": "LBSF",
      "alert": "OK",
      "vis_m": 4400,
      "fzfg": false,
      "metar_trigger": false,
      "taf_trigger": false,
      "metar": "METAR LBSF 220530Z 03004KT 4400 BR SCT003 SCT006 BKN058 07/06 Q1015 TEMPO 3000 BR SCT002",
      "taf": "TAF LBSF 220500Z 2206/2306 VRB03KT 9999 SCT050"
    },
    {
      "icao": "LBWN",
      "alert": "OK",
      "vis_m": 9999,
      "fzfg": false,
      "metar_trigger": false,
      "taf_trigger": false,
      "metar": "METAR LBWN 220530Z 26003KT 9999 FEW017 BKN023 OVC049 08/08 Q1015 TEMPO RA",
      "taf": "TAF LBWN 220500Z 2206/2306 VRB03KT 9999 SCT020 BKN040"
    },
    {
      "icao": "LCLK",
      "alert": "OK",
      "vis_m": 9999,
      "fzfg": false,
      "metar_trigger": false,
      "taf_trigger": false,
      "metar": "METAR LCLK 220530Z VRB02KT 9999 SCT016 19/14 Q1015 NOSIG",
      "taf": "TAF LCLK 220530Z 2206/2306 32006KT 9999 FEW025"
    },
    {
      "icao": "LCPH",
      "alert": "OK",
      "vis_m": 9999,
      "fzfg": false,
      "metar_trigger": false,
      "taf_trigger": false,
      "metar": "METAR LCPH 220530Z 03004KT 310V080 9999 FEW020 17/10 Q1015 NOSIG",
      "taf": "TAF LCPH 220530Z 2206/2306 20006KT 9999 FEW025"
    },
    {
      "icao": "LEAL",
      "alert": "OK",
      "vis_m": 9999,
      "fzfg": false,
      "metar_trigger": false,
      "taf_trigger": false,
      "metar": "METAR LEAL 220530Z 29005KT 9999 FEW015 17/09 Q1011 NOSIG",
      "taf": ""
    },
    {
      "icao": "LEBB",
      "alert": "OK",
      "vis_m": 9999,
      "fzfg": false,
      "metar_trigger": false,
      "taf_trigger": false,
      "metar": "METAR LEBB 220530Z VRB02KT CAVOK 20/11 Q1008 NOSIG",
      "taf": "TAF LEBB 220500Z 2206/2306 34009KT 9999 FEW040 TX20/2213Z TN10/2306Z"
    },
    {
      "icao": "LEBL",
      "alert": "OK",
      "vis_m": 9999,
      "fzfg": false,
      "metar_trigger": false,
      "taf_trigger": false,
      "metar": "METAR LEBL 220530Z 28005KT 250V320 9999 SCT003 SCT015 15/11 Q1011 NOSIG",
      "taf": "TAF LEBL 220500Z 2206/2306 VRB03KT 9999 FEW030 TX21/2212Z TN13/2206Z"
    },
    {
      "icao": "LECH",
      "alert": "OK",
      "vis_m": 9999,
      "fzfg": false,
      "metar_trigger": false,
      "taf_trigger": false,
      "metar": "METAR LECH 220530Z AUTO VRB02KT CAVOK 12/09 Q1012",
      "taf": "TAF LECH 220500Z 2206/2306 VRB04KT CAVOK TX28/2213Z TN11/2306Z"
    },
    {
      "icao": "LEMD",
      "alert": "OK",
      "vis_m": 9999,
      "fzfg": false,
      "metar_trigger": false,
      "taf_trigger": false,
      "metar": "METAR LEMD 220530Z 22004KT 180V240 CAVOK 15/09 Q1012 NOSIG",
      "taf": ""
    },
    {
      "icao": "LEMG",
      "alert": "OK",
      "vis_m": 9999,
      "fzfg": false,
      "metar_trigger": false,
      "taf_trigger": false,
      "metar": "METAR LEMG 220530Z 30006KT 260V330 CAVOK 14/10 Q1012 NOSIG",
      "taf": "TAF LEMG 220500Z 2206/2306 29011KT CAVOK TX25/2214Z TN12/2206Z"
    },
    {
      "icao": "LEVC",
      "alert": "OK",
      "vis_m": 9999,
      "fzfg": false,
      "metar_trigger": false,
      "taf_trigger": false,
      "metar": "METAR LEVC 220530Z 29004KT CAVOK 13/09 Q1011 NOSIG",
      "taf": "TAF LEVC 220500Z 2206/2306 VRB04KT CAVOK TX28/2212Z TN13/2306Z"
    },
    {
      "icao": "LEXJ",
      "alert": "OK",
      "vis_m": 7000,
      "fzfg": false,
      "metar_trigger": false,
      "taf_trigger": false,
      "metar": "METAR LEXJ 220530Z 28013KT 7000 SCT010 15/13 Q1009",
      "taf": "TAF LEXJ 220200Z 2203/2303 28009KT 9999 SCT040 TX26/2213Z TN15/2206Z"
    },
    {
      "icao": "LEZG",
      "alert": "OK",
      "vis_m": 9999,
      "fzfg": false,
      "metar_trigger": false,
      "taf_trigger": false,
      "metar": "METAR LEZG 220530Z 10003KT CAVOK 15/09 Q1011 NOSIG",
      "taf": ""
    },
    {
      "icao": "LEZL",
      "alert": "OK",
      "vis_m": 7000,
      "fzfg": false,
      "metar_trigger": false,
      "taf_trigger": false,
      "metar": "METAR LEZL 220530Z VRB02KT 7000 FEW010 SCT045 16/15 Q1013 NOSIG",
      "taf": "TAF LEZL 220200Z 2203/2303 23010KT 9999 SCT020 TX25/2215Z TN16/2206Z"
    },
    {
      "icao": "LFBD",
      "alert": "OK",
      "vis_m": 9999,
      "fzfg": false,
      "metar_trigger": false,
      "taf_trigger": false,
      "metar": "METAR LFBD 220530Z AUTO 07007KT CAVOK 15/06 Q1009 NOSIG",
      "taf": "TAF LFBD 220500Z 2206/2312 07006KT CAVOK TX26/2214Z TN15/2206Z"
    },
    {
      "icao": "LFLL",
      "alert": "OK",
      "vis_m": 9999,
      "fzfg": false,
      "metar_trigger": false,
      "taf_trigger": false,
      "metar": "METAR LFLL 220530Z 29004KT 260V340 CAVOK 06/03 Q1016 NOSIG",
      "taf": "TAF LFLL 220500Z 2206/2312 36003KT CAVOK"
    },
    {
      "icao": "LFLS",
      "alert": "OK",
      "vis_m": 9999,
      "fzfg": false,
      "metar_trigger": false,
      "taf_trigger": false,
      "metar": "METAR LFLS 220530Z AUTO VRB02KT CAVOK 04/03 Q1015 NOSIG",
      "taf": "TAF LFLS 220200Z 2203/2303 VRB03KT CAVOK"
    },
    {
      "icao": "LFMN",
      "alert": "OK",
      "vis_m": 9999,
      "fzfg": false,
      "metar_trigger": false,
      "taf_trigger": false,
      "metar": "METAR LFMN 220530Z 08013KT 9999 BKN019 17/14 Q1014 NOSIG",
      "taf": "TAF LFMN 220200Z 2203/2309 32010KT 9999 FEW012 BKN020"
    },
    {
      "icao": "LFOB",
      "alert": "OK",
      "vis_m": 9999,
      "fzfg": false,
      "metar_trigger": false,
      "taf_trigger": false,
      "metar": "METAR LFOB 220530Z AUTO 06009KT CAVOK 06/02 Q1022 NOSIG",
      "taf": "TAF LFOB 220500Z 2206/2306 06010KT CAVOK"
    },
    {
      "icao": "LFPO",
      "alert": "OK",
      "vis_m": 9999,
      "fzfg": false,
      "metar_trigger": false,
      "taf_trigger": false,
      "metar": "METAR LFPO 220530Z 06007KT CAVOK 07/01 Q1020 NOSIG",
      "taf": "TAF LFPO 220500Z 2206/2312 06010KT CAVOK"
    },
    {
      "icao": "LFSB",
      "alert": "OK",
      "vis_m": 9999,
      "fzfg": false,
      "metar_trigger": false,
      "taf_trigger": false,
      "metar": "METAR LFSB 220530Z AUTO 31003KT CAVOK 04/03 Q1020 NOSIG",
      "taf": "TAF LFSB 220500Z 2206/2306 33005KT CAVOK"
    },
    {
      "icao": "LGAV",
      "alert": "OK",
      "vis_m": 9999,
      "fzfg": false,
      "metar_trigger": false,
      "taf_trigger": false,
      "metar": "METAR LGAV 220520Z 00000KT 9999 FEW020 14/11 Q1012 NOSIG",
      "taf": "TAF LGAV 220500Z 2206/2306 VRB03KT 9999 FEW020"
    },
    {
      "icao": "LGTS",
      "alert": "OK",
      "vis_m": 8000,
      "fzfg": false,
      "metar_trigger": false,
      "taf_trigger": false,
      "metar": "METAR LGTS 220520Z 34010KT 8000 -RA FEW004 BKN025 12/11 Q1013 NOSIG",
      "taf": "TAF LGTS 220500Z 2206/2306 34015KT 9999 BKN030"
    },
    {
      "icao": "LHBP",
      "alert": "OK",
      "vis_m": 9999,
      "fzfg": false,
      "metar_trigger": false,
      "taf_trigger": false,
      "metar": "METAR LHBP 220530Z 34006KT CAVOK 06/M01 Q1019 NOSIG",
      "taf": "TAF LHBP 220515Z 2206/2306 36005KT CAVOK"
    },
    {
      "icao": "LHDC",
      "alert": "OK",
      "vis_m": 9999,
      "fzfg": false,
      "metar_trigger": false,
      "taf_trigger": false,
      "metar": "METAR LHDC 220515Z AUTO 00000KT CAVOK 07/M01 Q1018 NOSIG",
      "taf": "TAF LHDC 220515Z 2206/2215 36004KT CAVOK"
    },
    {
      "icao": "LIBD",
      "alert": "OK",
      "vis_m": 9999,
      "fzfg": false,
      "metar_trigger": false,
      "taf_trigger": false,
      "metar": "METAR LIBD 220520Z 28006KT 9999 VCSH FEW010 SCT040 14/13 Q1014",
      "taf": "TAF LIBD 220500Z 2206/2306 35013KT 9999 SCT040"
    },
    {
      "icao": "LIBG",
      "alert": "OK",
      "vis_m": null,
      "fzfg": false,
      "metar_trigger": false,
      "taf_trigger": false,
      "metar": "",
      "taf": ""
    },
    {
      "icao": "LIBP",
      "alert": "OK",
      "vis_m": 9999,
      "fzfg": false,
      "metar_trigger": false,
      "taf_trigger": false,
      "metar": "METAR LIBP 220520Z AUTO 21004KT 9999 -RA OVC056/// 12/12 Q1016",
      "taf": "TAF LIBP 220500Z 2206/2306 VRB06KT 9999 SCT030"
    },
    {
      "icao": "LIBR",
      "alert": "OK",
      "vis_m": 9999,
      "fzfg": false,
      "metar_trigger": false,
      "taf_trigger": false,
      "metar": "METAR LIBR 220520Z 01008KT CAVOK 15/12 Q1013",
      "taf": "TAF LIBR 220500Z 2206/2306 34013KT 9999 SCT040"
    },
    {
      "icao": "LICA",
      "alert": "OK",
      "vis_m": 9999,
      "fzfg": false,
      "metar_trigger": false,
      "taf_trigger": false,
      "metar": "METAR LICA 220520Z AUTO 10004KT 9999 SCT011/// 12/11 Q1013",
      "taf": "TAF LICA 220500Z 2206/2306 VRB05KT CAVOK"
    },
    {
      "icao": "LICC",
      "alert": "OK",
      "vis_m": 9999,
      "fzfg": false,
      "metar_trigger": false,
      "taf_trigger": false,
      "metar": "METAR LICC 220520Z 23004KT CAVOK 13/10 Q1012",
      "taf": "TAF LICC 220500Z 2206/2306 VRB05KT CAVOK"
    },
    {
      "icao": "LICJ",
      "alert": "OK",
      "vis_m": 9999,
      "fzfg": false,
      "metar_trigger": false,
      "taf_trigger": false,
      "metar": "METAR LICJ 220520Z 21004KT CAVOK 15/14 Q1012",
      "taf": "TAF LICJ 220500Z 2206/2306 VRB05KT CAVOK"
    },
    {
      "icao": "LIMC",
      "alert": "OK",
      "vis_m": 9999,
      "fzfg": false,
      "metar_trigger": false,
      "taf_trigger": false,
      "metar": "METAR LIMC 220520Z VRB02KT 9999 BKN040 10/10 Q1018 NOSIG",
      "taf": "TAF LIMC 220500Z 2206/2312 06010KT 9999 SCT060"
    },
    {
      "icao": "LIME",
      "alert": "OK",
      "vis_m": 9999,
      "fzfg": false,
      "metar_trigger": false,
      "taf_trigger": false,
      "metar": "METAR LIME 220520Z 34002KT 9999 BKN055 10/08 Q1018 NOSIG",
      "taf": "TAF LIME 220500Z 2206/2306 VRB05KT 9999 SCT040"
    },
    {
      "icao": "LIMF",
      "alert": "OK",
      "vis_m": 9999,
      "fzfg": false,
      "metar_trigger": false,
      "taf_trigger": false,
      "metar": "METAR LIMF 220520Z 04011KT 010V070 9999 -DZ OVC025 11/06 Q1018",
      "taf": "TAF LIMF 220500Z 2206/2306 03010KT 9999 SCT050"
    },
    {
      "icao": "LIMJ",
      "alert": "OK",
      "vis_m": 9999,
      "fzfg": false,
      "metar_trigger": false,
      "taf_trigger": false,
      "metar": "METAR LIMJ 220520Z 02007KT 9999 SCT028 BKN042 15/12 Q1015",
      "taf": "TAF LIMJ 220500Z 2206/2306 01005KT 9999 SCT060"
    },
    {
      "icao": "LIPE",
      "alert": "OK",
      "vis_m": 9999,
      "fzfg": false,
      "metar_trigger": false,
      "taf_trigger": false,
      "metar": "METAR LIPE 220520Z 27002KT 9999 SCT040 10/08 Q1018",
      "taf": "TAF LIPE 220500Z 2206/2306 VRB06KT 9999 SCT040"
    },
    {
      "icao": "LIPH",
      "alert": "OK",
      "vis_m": 9999,
      "fzfg": false,
      "metar_trigger": false,
      "taf_trigger": false,
      "metar": "METAR LIPH 220520Z 01003KT 9999 SCT070 11/06 Q1019",
      "taf": "TAF LIPH 220500Z 2206/2306 06008KT 9999 SCT050"
    },
    {
      "icao": "LIPQ",
      "alert": "OK",
      "vis_m": 9999,
      "fzfg": false,
      "metar_trigger": false,
      "taf_trigger": false,
      "metar": "METAR LIPQ 220520Z AUTO 09003KT 040V140 9999 FEW100/// 09/03 Q1019",
      "taf": "TAF LIPQ 220500Z 2206/2306 02008KT 9999 SCT050"
    },
    {
      "icao": "LIPR",
      "alert": "OK",
      "vis_m": 9999,
      "fzfg": false,
      "metar_trigger": false,
      "taf_trigger": false,
      "metar": "METAR LIPR 220520Z 07011KT 9999 FEW035 SCT040 14/08 Q1017",
      "taf": "TAF LIPR 220500Z 2206/2306 08017KT 9999 SCT030"
    },
    {
      "icao": "LIPX",
      "alert": "OK",
      "vis_m": 9999,
      "fzfg": false,
      "metar_trigger": false,
      "taf_trigger": false,
      "metar": "METAR LIPX 220520Z AUTO 08004KT 9999 BKN060/// 12/06 Q1018",
      "taf": "TAF LIPX 220500Z 2206/2306 09012KT 9999 SCT050"
    },
    {
      "icao": "LIPY",
      "alert": "OK",
      "vis_m": 9999,
      "fzfg": false,
      "metar_trigger": false,
      "taf_trigger": false,
      "metar": "METAR LIPY 220520Z AUTO VRB02KT 9999 BKN069/// 11/11 Q1016",
      "taf": "TAF LIPY 220500Z 2206/2306 VRB05KT 9999 SCT040"
    },
    {
      "icao": "LIPZ",
      "alert": "OK",
      "vis_m": 9999,
      "fzfg": false,
      "metar_trigger": false,
      "taf_trigger": false,
      "metar": "METAR LIPZ 220520Z 02008KT CAVOK 11/06 Q1019 NOSIG",
      "taf": "TAF LIPZ 220500Z 2206/2312 02014KT 9999 SCT050"
    },
    {
      "icao": "LIRF",
      "alert": "OK",
      "vis_m": 9999,
      "fzfg": false,
      "metar_trigger": false,
      "taf_trigger": false,
      "metar": "METAR LIRF 220520Z 36006KT 9999 SCT025 13/12 Q1013 NOSIG",
      "taf": "TAF LIRF 220500Z 2206/2312 04008KT 9999 SCT020"
    },
    {
      "icao": "LIRN",
      "alert": "OK",
      "vis_m": 9999,
      "fzfg": false,
      "metar_trigger": false,
      "taf_trigger": false,
      "metar": "METAR LIRN 220520Z 01004KT 340V050 9999 FEW040 15/09 Q1013 NOSIG",
      "taf": "TAF LIRN 220500Z 2206/2306 VRB05KT 9999 FEW030"
    },
    {
      "icao": "LIRP",
      "alert": "OK",
      "vis_m": 9999,
      "fzfg": false,
      "metar_trigger": false,
      "taf_trigger": false,
      "metar": "METAR LIRP 220515Z 08009KT 9999 -RA OVC060 13/08 Q1015 NOSIG",
      "taf": "TAF LIRP 220500Z 2206/2306 08010KT 9999 OVC060"
    },
    {
      "icao": "LIRZ",
      "alert": "OK",
      "vis_m": 9999,
      "fzfg": false,
      "metar_trigger": false,
      "taf_trigger": false,
      "metar": "METAR LIRZ 220520Z AUTO 36007KT 9999 -RA OVC075/// 12/09 Q1015",
      "taf": "TAF LIRZ 220500Z 2206/2306 03012KT 9999 BKN060"
    },
    {
      "icao": "LJLJ",
      "alert": "OK",
      "vis_m": 9999,
      "fzfg": false,
      "metar_trigger": false,
      "taf_trigger": false,
      "metar": "METAR LJLJ 220530Z VRB01KT 9999 MIFG FEW001 SCT070 03/03 Q1020 NOSIG",
      "taf": "TAF LJLJ 220500Z 2206/2306 VRB00KT 9999 FEW045 SCT080"
    },
    {
      "icao": "LKMT",
      "alert": "OK",
      "vis_m": 9999,
      "fzfg": false,
      "metar_trigger": false,
      "taf_trigger": false,
      "metar": "METAR LKMT 220530Z 06004KT 020V100 CAVOK 06/M01 Q1021 NOSIG",
      "taf": "TAF LKMT 220500Z 2206/2306 VRB02KT CAVOK"
    },
    {
      "icao": "LKPR",
      "alert": "OK",
      "vis_m": 9999,
      "fzfg": false,
      "metar_trigger": false,
      "taf_trigger": false,
      "metar": "METAR LKPR 220530Z 33006KT CAVOK 04/M01 Q1023 NOSIG",
      "taf": "TAF LKPR 220500Z 2206/2312 33007KT CAVOK"
    },
    {
      "icao": "LLBG",
      "alert": "OK",
      "vis_m": 9999,
      "fzfg": false,
      "metar_trigger": false,
      "taf_trigger": false,
      "metar": "METAR LLBG 220520Z VRB02KT CAVOK 17/09 Q1015 NOSIG",
      "taf": "TAF LLBG 220503Z 2206/2306 VRB03KT CAVOK TX24/2210Z TN11/2303Z"
    },
    {
      "icao": "LMML",
      "alert": "OK",
      "vis_m": 9999,
      "fzfg": false,
      "metar_trigger": false,
      "taf_trigger": false,
      "metar": "METAR LMML 220515Z VRB02KT CAVOK 18/11 Q1012 NOSIG",
      "taf": "TAF LMML 220500Z 2206/2306 VRB06KT CAVOK"
    },
    {
      "icao": "LOWW",
      "alert": "OK",
      "vis_m": 9999,
      "fzfg": false,
      "metar_trigger": false,
      "taf_trigger": false,
      "metar": "METAR LOWW 220520Z 33004KT CAVOK 07/02 Q1021 NOSIG",
      "taf": "TAF LOWW 220515Z 2206/2312 34015KT CAVOK TX17/2312Z TN07/2206Z"
    },
    {
      "icao": "LPFR",
      "alert": "OK",
      "vis_m": 9999,
      "fzfg": false,
      "metar_trigger": false,
      "taf_trigger": false,
      "metar": "METAR LPFR 220530Z 24003KT 9999 SCT040 15/11 Q1012",
      "taf": "TAF LPFR 220500Z 2206/2306 31005KT 9999 FEW015 BKN040"
    },
    {
      "icao": "LPMA",
      "alert": "OK",
      "vis_m": 9999,
      "fzfg": false,
      "metar_trigger": false,
      "taf_trigger": false,
      "metar": "METAR LPMA 220530Z 26003KT 200V310 9999 SCT015 14/09 Q1013",
      "taf": "TAF LPMA 220500Z 2206/2306 VRB05KT 9999 SCT015"
    },
    {
      "icao": "LPPR",
      "alert": "OK",
      "vis_m": 9999,
      "fzfg": false,
      "metar_trigger": false,
      "taf_trigger": false,
      "metar": "METAR LPPR 220530Z 17007KT 9999 SCT020 SCT033 13/11 Q1012",
      "taf": "TAF LPPR 220500Z 2206/2306 19007KT 9999 SCT017 BKN035"
    },
    {
      "icao": "LPPS",
      "alert": "OK",
      "vis_m": 9999,
      "fzfg": false,
      "metar_trigger": false,
      "taf_trigger": false,
      "metar": "METAR LPPS 220530Z 24004KT 9999 FEW015 13/08 Q1013",
      "taf": "TAF LPPS 220500Z 2206/2312 22008KT 9999 SCT015"
    },
    {
      "icao": "LPPT",
      "alert": "OK",
      "vis_m": 9999,
      "fzfg": false,
      "metar_trigger": false,
      "taf_trigger": false,
      "metar": "METAR LPPT 220530Z 28001KT 9999 FEW028 12/09 Q1012",
      "taf": "TAF LPPT 220500Z 2206/2312 VRB02KT 9999 SCT030"
    },
    {
      "icao": "LQBK",
      "alert": "OK",
      "vis_m": 9999,
      "fzfg": false,
      "metar_trigger": false,
      "taf_trigger": false,
      "metar": "METAR LQBK 220530Z 06003KT 9999 SCT025 BKN045 07/05 Q1019 NOSIG",
      "taf": "TAF LQBK 220500Z 2206/2306 33005KT 9999 SCT045 TX15/2214Z TN02/2304Z"
    },
    {
      "icao": "LQSA",
      "alert": "OK",
      "vis_m": 9999,
      "fzfg": false,
      "metar_trigger": false,
      "taf_trigger": false,
      "metar": "METAR LQSA 220530Z VRB03KT 9999 SCT008 BKN030 07/06 Q1017 NOSIG",
      "taf": "TAF LQSA 220500Z 2206/2306 VRB02KT 9999 FEW025 BKN040 TX12/2214Z TN03/2305Z"
    },
    {
      "icao": "LQTZ",
      "alert": "OK",
      "vis_m": 9999,
      "fzfg": false,
      "metar_trigger": false,
      "taf_trigger": false,
      "metar": "METAR LQTZ 220530Z 29005KT 9999 SCT018 BKN053 08/07 Q1018",
      "taf": "TAF LQTZ 220500Z 2206/2306 03005KT 9999 SCT050 TX14/2213Z TN01/2304Z"
    },
    {
      "icao": "LRBC",
      "alert": "OK",
      "vis_m": 9999,
      "fzfg": false,
      "metar_trigger": false,
      "taf_trigger": false,
      "metar": "METAR LRBC 220530Z 00000KT CAVOK 07/04 Q1016",
      "taf": "TAF LRBC 220500Z 2206/2215 VRB04KT CAVOK"
    },
    {
      "icao": "LRBS",
      "alert": "OK",
      "vis_m": 9999,
      "fzfg": false,
      "metar_trigger": false,
      "taf_trigger": false,
      "metar": "METAR LRBS 220530Z 08003KT 050V120 CAVOK 08/06 Q1016 NOSIG",
      "taf": "TAF LRBS 220500Z 2206/2306 05006KT 9999 SCT045"
    },
    {
      "icao": "LRBV",
      "alert": "OK",
      "vis_m": 9999,
      "fzfg": false,
      "metar_trigger": false,
      "taf_trigger": false,
      "metar": "METAR LRBV 220530Z VRB02KT 9999 FEW006 BKN012 BKN020 03/01 Q1015",
      "taf": "TAF LRBV 220500Z 2206/2215 VRB04KT 9999 BKN025"
    },
    {
      "icao": "LRCL",
      "alert": "OK",
      "vis_m": 9999,
      "fzfg": false,
      "metar_trigger": false,
      "taf_trigger": false,
      "metar": "METAR LRCL 220530Z VRB02KT CAVOK 07/03 Q1017",
      "taf": "TAF LRCL 220500Z 2206/2215 VRB04KT 9999 SCT045"
    },
    {
      "icao": "LRCV",
      "alert": "OK",
      "vis_m": 9999,
      "fzfg": false,
      "metar_trigger": false,
      "taf_trigger": false,
      "metar": "METAR LRCV 220530Z VRB01KT 9999 FEW040 08/05 Q1016",
      "taf": "TAF LRCV 220500Z 2206/2215 VRB04KT 9999 SCT040"
    },
    {
      "icao": "LRIA",
      "alert": "OK",
      "vis_m": 9999,
      "fzfg": false,
      "metar_trigger": false,
      "taf_trigger": false,
      "metar": "METAR LRIA 220530Z 25005KT 210V290 CAVOK 06/02 Q1016",
      "taf": "TAF LRIA 220500Z 2206/2215 VRB04KT CAVOK"
    },
    {
      "icao": "LROP",
      "alert": "OK",
      "vis_m": 9999,
      "fzfg": false,
      "metar_trigger": false,
      "taf_trigger": false,
      "metar": "METAR LROP 220530Z VRB02KT CAVOK 08/03 Q1016 NOSIG",
      "taf": "TAF LROP 220500Z 2206/2306 05006KT 9999 SCT045"
    },
    {
      "icao": "LRSB",
      "alert": "OK",
      "vis_m": 8000,
      "fzfg": false,
      "metar_trigger": false,
      "taf_trigger": false,
      "metar": "METAR LRSB 220530Z 34006KT 8000 SCT005 BKN009 OVC028 06/05 Q1015 NOSIG",
      "taf": "TAF LRSB 220500Z 2206/2306 33007KT 9999 BKN030"
    },
    {
      "icao": "LRSM",
      "alert": "OK",
      "vis_m": 9999,
      "fzfg": false,
      "metar_trigger": false,
      "taf_trigger": false,
      "metar": "METAR LRSM 220530Z 20003KT CAVOK 03/01 Q1018",
      "taf": "TAF LRSM 220500Z 2206/2215 VRB04KT CAVOK"
    },
    {
      "icao": "LRSV",
      "alert": "OK",
      "vis_m": 9999,
      "fzfg": false,
      "metar_trigger": false,
      "taf_trigger": false,
      "metar": "METAR LRSV 220530Z 30004KT 270V340 9999 FEW031CB 05/M01 Q1015",
      "taf": "TAF LRSV 220500Z 2206/2215 30008KT CAVOK"
    },
    {
      "icao": "LRTM",
      "alert": "OK",
      "vis_m": 9999,
      "fzfg": false,
      "metar_trigger": false,
      "taf_trigger": false,
      "metar": "METAR LRTM 220530Z 34003KT 290V010 9999 FEW042 07/03 Q1016",
      "taf": "TAF LRTM 220500Z 2206/2215 VRB04KT 9999 SCT040"
    },
    {
      "icao": "LRTR",
      "alert": "OK",
      "vis_m": 9999,
      "fzfg": false,
      "metar_trigger": false,
      "taf_trigger": false,
      "metar": "METAR LRTR 220530Z 35008KT CAVOK 05/02 Q1017",
      "taf": "TAF LRTR 220500Z 2206/2306 35006KT CAVOK"
    },
    {
      "icao": "LTAC",
      "alert": "OK",
      "vis_m": 9999,
      "fzfg": false,
      "metar_trigger": false,
      "taf_trigger": false,
      "metar": "METAR LTAC 220520Z 17007KT 9999 SCT035 BKN080 11/07 Q1012 NOSIG RMK RWY21C 20007KT 160V220 RWY03L 18005KT RWY21R 20006KT 170V230 RWY03R 18006KT RWY21L 20008KT",
      "taf": "TAF LTAC 220440Z 2206/2306 23012KT 9999 SCT040 BKN100"
    },
    {
      "icao": "LTFM",
      "alert": "OK",
      "vis_m": 9999,
      "fzfg": false,
      "metar_trigger": false,
      "taf_trigger": false,
      "metar": "METAR LTFM 220520Z 06010KT 9999 BKN008 BKN022 10/09 Q1014 NOSIG RMK RWY17L 06010KT RWY34L 06008KT RWY16R 06011KT RWY36 04010KT RWY18 07009KT",
      "taf": "TAF LTFM 220440Z 2206/2312 05014KT 9999 -RA BKN011 BKN022"
    },
    {
      "icao": "LUKK",
      "alert": "OK",
      "vis_m": 9999,
      "fzfg": false,
      "metar_trigger": false,
      "taf_trigger": false,
      "metar": "METAR LUKK 220530Z 00000KT CAVOK 06/01 Q1015 NOSIG",
      "taf": "TAF LUKK 220508Z 2206/2306 VRB05KT CAVOK"
    },
    {
      "icao": "LWOH",
      "alert": "OK",
      "vis_m": 9999,
      "fzfg": false,
      "metar_trigger": false,
      "taf_trigger": false,
      "metar": "METAR LWOH 220520Z 34010KT 310V010 9999 FEW010 BKN035 06/04 Q1014",
      "taf": "TAF LWOH 220515Z 2206/2306 34010KT 9999 FEW015 BKN035"
    },
    {
      "icao": "LWSK",
      "alert": "OK",
      "vis_m": 9999,
      "fzfg": false,
      "metar_trigger": false,
      "taf_trigger": false,
      "metar": "METAR LWSK 220550Z 32004KT 250V350 9999 SCT045 BKN070 10/07 Q1016 NOSIG",
      "taf": "TAF LWSK 220515Z 2206/2306 VRB02KT 9999 SCT035 OVC070"
    },
    {
      "icao": "LYBE",
      "alert": "OK",
      "vis_m": 9999,
      "fzfg": false,
      "metar_trigger": false,
      "taf_trigger": false,
      "metar": "METAR LYBE 220530Z 36003KT 320V030 CAVOK 09/06 Q1018 NOSIG",
      "taf": "TAF LYBE 220500Z 2206/2306 29006KT 9999 SCT040 TX15/2213Z TN03/2304Z"
    },
    {
      "icao": "LYNI",
      "alert": "OK",
      "vis_m": 9999,
      "fzfg": false,
      "metar_trigger": false,
      "taf_trigger": false,
      "metar": "METAR LYNI 220530Z 32009KT 290V350 9999 FEW017 BKN040 BKN090 09/08 Q1016 NOSIG",
      "taf": "TAF LYNI 220500Z 2206/2306 32010KT 9999 BKN030 BKN080 TX15/2213Z TN04/2304Z"
    },
    {
      "icao": "LYPG",
      "alert": "OK",
      "vis_m": 9999,
      "fzfg": false,
      "metar_trigger": false,
      "taf_trigger": false,
      "metar": "METAR LYPG 220530Z VRB01KT 9999 SCT080 12/11 Q1014 NOSIG",
      "taf": "TAF LYPG 220500Z 2206/2306 16005KT 9999 FEW040 SCT080 TX18/2213Z TN09/2304Z"
    },
    {
      "icao": "LZIB",
      "alert": "OK",
      "vis_m": 9999,
      "fzfg": false,
      "metar_trigger": false,
      "taf_trigger": false,
      "metar": "METAR LZIB 220530Z 25004KT CAVOK 09/M00 Q1020 NOSIG",
      "taf": "TAF LZIB 220515Z 2206/2306 04005KT CAVOK"
    },
    {
      "icao": "LZKZ",
      "alert": "OK",
      "vis_m": 9999,
      "fzfg": false,
      "metar_trigger": false,
      "taf_trigger": false,
      "metar": "METAR LZKZ 220530Z VRB02KT CAVOK 07/00 Q1018 NOSIG",
      "taf": ""
    },
    {
      "icao": "LZTT",
      "alert": "OK",
      "vis_m": 9999,
      "fzfg": false,
      "metar_trigger": false,
      "taf_trigger": false,
      "metar": "METAR LZTT 220530Z 28011KT 9999 FEW056 03/M04 Q1018 NOSIG",
      "taf": "TAF LZTT 220515Z 2206/2306 27008KT 9999 SCT050"
    },
    {
      "icao": "OEJN",
      "alert": "OK",
      "vis_m": 9999,
      "fzfg": false,
      "metar_trigger": false,
      "taf_trigger": false,
      "metar": "METAR OEJN 220500Z 36010KT CAVOK 26/16 Q1007 NOSIG",
      "taf": "TAF OEJN 212300Z 2200/2306 36005KT CAVOK"
    },
    {
      "icao": "OEMA",
      "alert": "OK",
      "vis_m": 9999,
      "fzfg": false,
      "metar_trigger": false,
      "taf_trigger": false,
      "metar": "METAR OEMA 220500Z 04012KT 9999 FEW040 25/11 Q1012 NOSIG",
      "taf": "TAF OEMA 212300Z 2200/2306 VRB03KT CAVOK"
    },
    {
      "icao": "OJAI",
      "alert": "OK",
      "vis_m": 3000,
      "fzfg": false,
      "metar_trigger": false,
      "taf_trigger": false,
      "metar": "METAR OJAI 220500Z 00000KT 3000 HZ NSC 10/07 Q1017 NOSIG",
      "taf": "TAF OJAI 220431Z 2206/2312 VRB02KT 5000 HZ NSC"
    },
    {
      "icao": "OMAA",
      "alert": "OK",
      "vis_m": null,
      "fzfg": false,
      "metar_trigger": false,
      "taf_trigger": false,
      "metar": "",
      "taf": ""
    },
    {
      "icao": "OMDB",
      "alert": "OK",
      "vis_m": null,
      "fzfg": false,
      "metar_trigger": false,
      "taf_trigger": false,
      "metar": "",
      "taf": ""
    },
    {
      "icao": "UAAA",
      "alert": "OK",
      "vis_m": 9999,
      "fzfg": false,
      "metar_trigger": false,
      "taf_trigger": false,
      "metar": "METAR UAAA 220530Z VRB01MPS 9999 SCT100 BKN200 17/09 Q1010 NOSIG",
      "taf": "TAF UAAA 220501Z 2206/2306 02003G08MPS 9999 SCT050CB OVC100 TX23/2209Z TN12/2301Z"
    },
    {
      "icao": "UBBB",
      "alert": "OK",
      "vis_m": 9999,
      "fzfg": false,
      "metar_trigger": false,
      "taf_trigger": false,
      "metar": "METAR UBBB 220530Z 03004KT 9999 BKN024 13/09 Q1012 NOSIG",
      "taf": "TAF UBBB 220504Z 2206/2306 15006KT 9999 BKN020 TX16/2210Z TN10/2300Z"
    },
    {
      "icao": "UDSG",
      "alert": "OK",
      "vis_m": 9999,
      "fzfg": false,
      "metar_trigger": false,
      "taf_trigger": false,
      "metar": "METAR UDSG 220530Z 25002KT 9999 NSC 06/M01 Q1016 NOSIG",
      "taf": "TAF UDSG 220500Z 2206/2306 24006KT 9999 FEW050"
    },
    {
      "icao": "UDYZ",
      "alert": "OK",
      "vis_m": 9999,
      "fzfg": false,
      "metar_trigger": false,
      "taf_trigger": false,
      "metar": "METAR UDYZ 220530Z VRB02KT 9999 FEW046 10/08 Q1015 NOSIG",
      "taf": "TAF UDYZ 220500Z 2206/2306 16006KT 9999 FEW040"
    },
    {
      "icao": "UGKO",
      "alert": "OK",
      "vis_m": 9999,
      "fzfg": false,
      "metar_trigger": false,
      "taf_trigger": false,
      "metar": "METAR UGKO 220530Z 09013KT CAVOK 13/07 Q1011 NOSIG",
      "taf": "TAF UGKO 220500Z 2206/2306 26010KT 9999 SCT023 BKN050 TX22/2211Z TN08/2303Z"
    }
  ]
}