{
  "ts_utc": "2025-12-19T05:50:24Z",
  "threshold_m": 150,
  "source": "stations_override.txt (ICAO list) + aviationweather.gov (METAR/TAF raw)",
  "station_count": 114,
  "stations": [
    {
      "icao": "BIKF",
      "alert": "OK",
      "vis_m": 9999,
      "fzfg": false,
      "metar_trigger": false,
      "taf_trigger": false,
      "metar": "METAR BIKF 190530Z 06006KT 9999 FEW041 02/00 Q0979",
      "taf": "TAF BIKF 190448Z 1906/2006 05005KT 9999 SCT035 TX08/2005Z TN01/1910Z"
    },
    {
      "icao": "BKPR",
      "alert": "OK",
      "vis_m": 2500,
      "fzfg": true,
      "metar_trigger": false,
      "taf_trigger": false,
      "metar": "METAR BKPR 190530Z 22002KT 2500 BR NSC M03/M03 Q1029 TEMPO 0500 FZFG BKN004",
      "taf": ""
    },
    {
      "icao": "EBBR",
      "alert": "OK",
      "vis_m": 9999,
      "fzfg": false,
      "metar_trigger": false,
      "taf_trigger": false,
      "metar": "METAR EBBR 190520Z 20011KT 9999 -RA SCT011 BKN013 11/10 Q1013 NOSIG",
      "taf": "TAF EBBR 190510Z 1906/2012 24008KT 9999 SCT009 BKN014"
    },
    {
      "icao": "EBCI",
      "alert": "OK",
      "vis_m": 6000,
      "fzfg": false,
      "metar_trigger": false,
      "taf_trigger": false,
      "metar": "METAR EBCI 190520Z 20011KT 6000 RA SCT004 BKN007 10/09 Q1014 TEMPO 4000 RA SHRA BKN004",
      "taf": "TAF EBCI 190510Z 1906/2012 26006KT 9999 SCT008 BKN012"
    },
    {
      "icao": "EDDB",
      "alert": "OK",
      "vis_m": 9999,
      "fzfg": false,
      "metar_trigger": false,
      "taf_trigger": false,
      "metar": "METAR EDDB 190520Z AUTO 16006KT CAVOK 03/02 Q1018 NOSIG",
      "taf": "TAF EDDB 190500Z 1906/2006 18008KT CAVOK"
    },
    {
      "icao": "EDDH",
      "alert": "OK",
      "vis_m": 9999,
      "fzfg": false,
      "metar_trigger": false,
      "taf_trigger": false,
      "metar": "METAR EDDH 190520Z AUTO 20010KT 9999 BKN037 12/06 Q1012 NOSIG",
      "taf": "TAF EDDH 190500Z 1906/2012 16012KT CAVOK"
    },
    {
      "icao": "EDDK",
      "alert": "OK",
      "vis_m": 9999,
      "fzfg": false,
      "metar_trigger": false,
      "taf_trigger": false,
      "metar": "METAR EDDK 190520Z AUTO 16009KT 9999 SCT039 12/07 Q1015 NOSIG",
      "taf": "TAF EDDK 190500Z 1906/2012 16010KT 9999 BKN030"
    },
    {
      "icao": "EDDN",
      "alert": "OK",
      "vis_m": 4200,
      "fzfg": false,
      "metar_trigger": false,
      "taf_trigger": false,
      "metar": "METAR EDDN 190520Z AUTO 14007KT 4200 BR OVC002 02/01 Q1022",
      "taf": "TAF EDDN 190500Z 1906/2006 13008KT 4000 BR OVC003"
    },
    {
      "icao": "EDFH",
      "alert": "OK",
      "vis_m": 9999,
      "fzfg": false,
      "metar_trigger": false,
      "taf_trigger": false,
      "metar": "METAR EDFH 190520Z 21016KT 9999 FEW031 10/06 Q1017",
      "taf": "TAF EDFH 190500Z 1906/2006 20013KT 9999 SCT035"
    },
    {
      "icao": "EDJA",
      "alert": "OK",
      "vis_m": 9999,
      "fzfg": false,
      "metar_trigger": false,
      "taf_trigger": false,
      "metar": "METAR EDJA 190520Z 18008KT CAVOK 02/M00 Q1022",
      "taf": "TAF EDJA 190500Z 1906/1915 21004KT CAVOK"
    },
    {
      "icao": "EDLW",
      "alert": "OK",
      "vis_m": 9999,
      "fzfg": false,
      "metar_trigger": false,
      "taf_trigger": false,
      "metar": "METAR EDLW 190520Z COR 20017KT 9999 SCT030 13/06 Q1013",
      "taf": "TAF EDLW 190500Z 1906/2006 20013KT 9999 BKN035"
    },
    {
      "icao": "EDSB",
      "alert": "OK",
      "vis_m": 9999,
      "fzfg": false,
      "metar_trigger": false,
      "taf_trigger": false,
      "metar": "METAR EDSB 190520Z 18003KT CAVOK 02/02 Q1020",
      "taf": "TAF EDSB 190500Z 1906/2006 VRB03KT CAVOK"
    },
    {
      "icao": "EETN",
      "alert": "OK",
      "vis_m": 9999,
      "fzfg": false,
      "metar_trigger": false,
      "taf_trigger": false,
      "metar": "METAR EETN 190520Z 21009KT 9999 OVC009 05/04 Q1016 TEMPO OVC010",
      "taf": "TAF EETN 190530Z 1906/2006 20012KT 9999 BKN010 OVC018"
    },
    {
      "icao": "EFHK",
      "alert": "OK",
      "vis_m": 3500,
      "fzfg": false,
      "metar_trigger": false,
      "taf_trigger": false,
      "metar": "METAR EFHK 190520Z 21010KT 3500 -DZ BR BKN004 OVC006 06/06 Q1014 TEMPO 2700 BKN005",
      "taf": "TAF EFHK 190535Z 1906/2006 21014KT 9999 BKN004"
    },
    {
      "icao": "EFTU",
      "alert": "OK",
      "vis_m": 9999,
      "fzfg": false,
      "metar_trigger": false,
      "taf_trigger": false,
      "metar": "METAR EFTU 190520Z AUTO 21008KT 180V240 9999 BKN008 OVC023 06/05 Q1012",
      "taf": "TAF EFTU 190535Z 1906/2006 20007KT 9999 BKN008 BKN020"
    },
    {
      "icao": "EGGW",
      "alert": "OK",
      "vis_m": 9999,
      "fzfg": false,
      "metar_trigger": false,
      "taf_trigger": false,
      "metar": "METAR EGGW 190520Z AUTO 22007KT 9999 NCD 06/04 Q1010",
      "taf": "TAF EGGW 190456Z 1906/2006 24010KT 9999 FEW020"
    },
    {
      "icao": "EGKK",
      "alert": "OK",
      "vis_m": 9999,
      "fzfg": false,
      "metar_trigger": false,
      "taf_trigger": false,
      "metar": "METAR EGKK 190520Z 20004KT CAVOK 07/06 Q1013",
      "taf": "TAF EGKK 190453Z 1906/2012 24005KT CAVOK"
    },
    {
      "icao": "EHEH",
      "alert": "OK",
      "vis_m": 6000,
      "fzfg": false,
      "metar_trigger": false,
      "taf_trigger": false,
      "metar": "METAR EHEH 190525Z AUTO 20011KT 160V230 6000 +DZ FEW012 SCT014 OVC017 11/10 Q1012 WHT",
      "taf": "TAF EHEH 182325Z 1900/2006 19013KT CAVOK"
    },
    {
      "icao": "EKBI",
      "alert": "OK",
      "vis_m": 9999,
      "fzfg": false,
      "metar_trigger": false,
      "taf_trigger": false,
      "metar": "METAR EKBI 190520Z AUTO 21015G26KT 190V250 9999 BKN013/// 10/08 Q1007",
      "taf": "TAF EKBI 190527Z 1906/2006 22015KT 8000 BKN015"
    },
    {
      "icao": "EKCH",
      "alert": "OK",
      "vis_m": 9999,
      "fzfg": false,
      "metar_trigger": false,
      "taf_trigger": false,
      "metar": "METAR EKCH 190520Z AUTO 20013KT 9999 OVC068/// 08/06 Q1012 NOSIG",
      "taf": "TAF EKCH 190527Z 1906/2006 20012KT 9999 BKN020"
    },
    {
      "icao": "ENTO",
      "alert": "OK",
      "vis_m": 4000,
      "fzfg": false,
      "metar_trigger": false,
      "taf_trigger": false,
      "metar": "METAR ENTO 190520Z 18019KT 4000 RA VV005 08/08 Q0999 REDZRA TEMPO 7000 -RADZ BKN004",
      "taf": "TAF ENTO 190500Z 1906/2006 18012KT 9999 SCT004 BKN007"
    },
    {
      "icao": "EPGD",
      "alert": "OK",
      "vis_m": 9999,
      "fzfg": false,
      "metar_trigger": false,
      "taf_trigger": false,
      "metar": "METAR EPGD 190530Z 19006KT 160V220 CAVOK 04/02 Q1019",
      "taf": "TAF EPGD 190530Z 1906/2006 20012KT 3000 BR BKN002"
    },
    {
      "icao": "EPKK",
      "alert": "CRITICAL",
      "vis_m": 100,
      "fzfg": true,
      "metar_trigger": true,
      "taf_trigger": false,
      "metar": "METAR EPKK 190530Z 25002KT 0100 R25/0450N FZFG VV000 M03/M03 Q1025",
      "taf": "TAF EPKK 190530Z 1906/2006 VRB02KT 0200 FZFG OVC001"
    },
    {
      "icao": "EPKT",
      "alert": "OK",
      "vis_m": 2000,
      "fzfg": false,
      "metar_trigger": false,
      "taf_trigger": false,
      "metar": "METAR EPKT 190530Z 10003KT 060V140 2000 BR NSC M00/M00 Q1024",
      "taf": "TAF EPKT 190530Z 1906/2006 11004KT 1400 BR NSC"
    },
    {
      "icao": "EPWA",
      "alert": "OK",
      "vis_m": 1000,
      "fzfg": false,
      "metar_trigger": false,
      "taf_trigger": false,
      "metar": "METAR EPWA 190530Z 14007KT 1000 0900SE R33/1100N BCFG BR OVC001 02/02 Q1025 NOSIG",
      "taf": "TAF EPWA 190530Z 1906/2006 14006KT 1500 BR OVC002"
    },
    {
      "icao": "EPWR",
      "alert": "OK",
      "vis_m": 5000,
      "fzfg": false,
      "metar_trigger": false,
      "taf_trigger": false,
      "metar": "METAR EPWR 190530Z 11003KT 5000 BR NSC M00/M00 Q1022",
      "taf": "TAF EPWR 190530Z 1906/2006 13006KT 4000 BR NSC"
    },
    {
      "icao": "ESGG",
      "alert": "OK",
      "vis_m": 5000,
      "fzfg": false,
      "metar_trigger": false,
      "taf_trigger": false,
      "metar": "METAR ESGG 190520Z 19017KT 5000 RA BKN005 OVC007 07/07 Q1006",
      "taf": "TAF ESGG 190530Z 1906/2006 19014G24KT 6000 -RA OVC006"
    },
    {
      "icao": "ESKN",
      "alert": "OK",
      "vis_m": 9999,
      "fzfg": false,
      "metar_trigger": false,
      "taf_trigger": false,
      "metar": "METAR ESKN 190520Z 16009KT 9999 BKN007 06/06 Q1010",
      "taf": "TAF ESKN 190530Z 1906/2006 15008KT 9999 BKN006"
    },
    {
      "icao": "ESMX",
      "alert": "OK",
      "vis_m": 9999,
      "fzfg": false,
      "metar_trigger": false,
      "taf_trigger": false,
      "metar": "METAR ESMX 190520Z AUTO 17009KT 9999 OVC006/// 07/07 Q1011",
      "taf": ""
    },
    {
      "icao": "EVRA",
      "alert": "OK",
      "vis_m": 4300,
      "fzfg": false,
      "metar_trigger": false,
      "taf_trigger": false,
      "metar": "METAR EVRA 190520Z 18010KT 4300 BR OVC002 02/02 Q1021 NOSIG",
      "taf": "TAF EVRA 190501Z 1906/2006 18010KT 4000 BR OVC002"
    },
    {
      "icao": "EYKA",
      "alert": "OK",
      "vis_m": 600,
      "fzfg": false,
      "metar_trigger": false,
      "taf_trigger": false,
      "metar": "METAR EYKA 190520Z 18007KT 140V230 0600 R26/1400N FG VV002 00/00 Q1024",
      "taf": "TAF EYKA 190514Z 1906/2006 18012KT 0600 FG VV002"
    },
    {
      "icao": "EYVI",
      "alert": "OK",
      "vis_m": 150,
      "fzfg": true,
      "metar_trigger": false,
      "taf_trigger": false,
      "metar": "METAR EYVI 190520Z COR 18009KT 0150 R19/0600D -FZDZ FZFG VV001 M02/M02 Q1025 NOSIG",
      "taf": "TAF EYVI 190500Z 1906/2006 18010KT 0350 -FZDZ FZFG OVC002"
    },
    {
      "icao": "GCLP",
      "alert": "OK",
      "vis_m": 9999,
      "fzfg": false,
      "metar_trigger": false,
      "taf_trigger": false,
      "metar": "METAR GCLP 190530Z 34009KT 9999 BKN040 17/14 Q1021 NOSIG",
      "taf": "TAF GCLP 190200Z 1903/2003 34008KT 9999 BKN020 TX21/1914Z TN17/1906Z"
    },
    {
      "icao": "GCTS",
      "alert": "OK",
      "vis_m": 9999,
      "fzfg": false,
      "metar_trigger": false,
      "taf_trigger": false,
      "metar": "METAR GCTS 190530Z 08004KT 9999 BKN040 18/13 Q1022 NOSIG",
      "taf": "TAF GCTS 190200Z 1903/2003 30005KT 9999 BKN030 TX23/1914Z TN16/1906Z"
    },
    {
      "icao": "HECA",
      "alert": "OK",
      "vis_m": 9999,
      "fzfg": false,
      "metar_trigger": false,
      "taf_trigger": false,
      "metar": "METAR HECA 190530Z VRB02KT 9999 FEW025 10/04 Q1026 NOSIG",
      "taf": "TAF HECA 190500Z 1906/2012 07008KT CAVOK"
    },
    {
      "icao": "HEGN",
      "alert": "OK",
      "vis_m": 9999,
      "fzfg": false,
      "metar_trigger": false,
      "taf_trigger": false,
      "metar": "METAR HEGN 190500Z 28008KT CAVOK 13/04 Q1025 NOSIG",
      "taf": "TAF HEGN 190500Z 1906/2012 29010KT CAVOK"
    },
    {
      "icao": "HESH",
      "alert": "OK",
      "vis_m": 9999,
      "fzfg": false,
      "metar_trigger": false,
      "taf_trigger": false,
      "metar": "METAR HESH 190500Z 36009KT CAVOK 17/03 Q1024 NOSIG",
      "taf": "TAF HESH 190500Z 1906/2012 35010KT CAVOK"
    },
    {
      "icao": "HESX",
      "alert": "OK",
      "vis_m": 3000,
      "fzfg": false,
      "metar_trigger": false,
      "taf_trigger": false,
      "metar": "METAR HESX 190500Z 03006KT 3000 BR NSC 09/08 Q1026 NOSIG",
      "taf": "TAF HESX 190500Z 1906/2012 05008KT CAVOK"
    },
    {
      "icao": "LATI",
      "alert": "OK",
      "vis_m": null,
      "fzfg": false,
      "metar_trigger": false,
      "taf_trigger": false,
      "metar": "",
      "taf": "TAF LATI 190500Z 1906/2006 VRB05KT CAVOK TX17/1912Z TN05/2005Z"
    },
    {
      "icao": "LBSF",
      "alert": "OK",
      "vis_m": 300,
      "fzfg": true,
      "metar_trigger": false,
      "taf_trigger": false,
      "metar": "METAR LBSF 190530Z 00000KT 0300 R09/0500D FZFG VV002 M04/M05 Q1030 TEMPO BKN002",
      "taf": "TAF LBSF 190500Z 1906/2006 VRB03KT 1500 BR NSC"
    },
    {
      "icao": "LBWN",
      "alert": "OK",
      "vis_m": 8000,
      "fzfg": false,
      "metar_trigger": false,
      "taf_trigger": false,
      "metar": "METAR LBWN 190530Z AUTO 14004KT 100V160 8000 NCD 04/03 Q1027 TEMPO 3000 BR",
      "taf": "TAF LBWN 190500Z 1906/2006 VRB04KT CAVOK"
    },
    {
      "icao": "LCLK",
      "alert": "OK",
      "vis_m": 9999,
      "fzfg": false,
      "metar_trigger": false,
      "taf_trigger": false,
      "metar": "METAR LCLK 190530Z 32006KT 270V330 9999 FEW025 SCT040 13/10 Q1025 NOSIG",
      "taf": "TAF LCLK 190530Z 1906/2006 32006KT 9999 FEW025"
    },
    {
      "icao": "LDDU",
      "alert": "OK",
      "vis_m": 9999,
      "fzfg": false,
      "metar_trigger": false,
      "taf_trigger": false,
      "metar": "METAR LDDU 190530Z 08003KT 020V140 9999 BKN020 10/09 Q1028 NOSIG",
      "taf": "TAF LDDU 190525Z 1906/2006 07005KT 9999 BKN035 TX16/1911Z TN08/2005Z"
    },
    {
      "icao": "LDSP",
      "alert": "OK",
      "vis_m": 9999,
      "fzfg": false,
      "metar_trigger": false,
      "taf_trigger": false,
      "metar": "METAR LDSP 190530Z 36004KT 9999 SCT017 11/10 Q1028 NOSIG",
      "taf": "TAF LDSP 190525Z 1906/2006 VRB02KT 9999 BKN025 TX16/1912Z TN08/2005Z"
    },
    {
      "icao": "LDZA",
      "alert": "OK",
      "vis_m": 400,
      "fzfg": true,
      "metar_trigger": false,
      "taf_trigger": false,
      "metar": "METAR LDZA 190530Z VRB02KT 0400 R04/0800D R22/1200D FZFG SCT045 M01/M01 Q1025 TEMPO 0200 VV001",
      "taf": ""
    },
    {
      "icao": "LEAL",
      "alert": "OK",
      "vis_m": 9999,
      "fzfg": false,
      "metar_trigger": false,
      "taf_trigger": false,
      "metar": "METAR LEAL 190530Z 29005KT 270V330 9999 FEW034 11/11 Q1021 NOSIG",
      "taf": "TAF LEAL 190500Z 1906/2006 31006KT 9999 FEW020 TX17/1912Z TN08/1906Z"
    },
    {
      "icao": "LEBL",
      "alert": "OK",
      "vis_m": 9999,
      "fzfg": false,
      "metar_trigger": false,
      "taf_trigger": false,
      "metar": "METAR LEBL 190530Z 33011KT 9999 FEW020 09/08 Q1020 NOSIG",
      "taf": "TAF LEBL 190500Z 1906/2006 34009KT 9999 FEW020 TX16/1912Z TN11/2006Z"
    },
    {
      "icao": "LECH",
      "alert": "OK",
      "vis_m": 50,
      "fzfg": false,
      "metar_trigger": false,
      "taf_trigger": false,
      "metar": "METAR LECH 190530Z AUTO 19003KT 160V220 0050 R06/0075N FG VV001 05/05 Q1021",
      "taf": ""
    },
    {
      "icao": "LEMD",
      "alert": "OK",
      "vis_m": 9999,
      "fzfg": false,
      "metar_trigger": false,
      "taf_trigger": false,
      "metar": "METAR LEMD 190530Z 09001KT 9999 FEW023 07/07 Q1020 NOSIG",
      "taf": "TAF LEMD 190500Z 1906/2012 VRB04KT 9999 FEW020 TX11/1915Z TN06/1907Z"
    },
    {
      "icao": "LEMG",
      "alert": "OK",
      "vis_m": 9999,
      "fzfg": false,
      "metar_trigger": false,
      "taf_trigger": false,
      "metar": "METAR LEMG 190530Z 29008KT 9999 FEW042 10/08 Q1021 NOSIG",
      "taf": "TAF LEMG 190500Z 1906/2006 29006KT 9999 FEW030 TX17/1914Z TN08/2006Z"
    },
    {
      "icao": "LERS",
      "alert": "OK",
      "vis_m": 9999,
      "fzfg": false,
      "metar_trigger": false,
      "taf_trigger": false,
      "metar": "METAR LERS 190530Z AUTO 02007KT CAVOK 08/07 Q1021",
      "taf": "TAF LERS 190200Z 1903/2003 01006KT 9999 FEW020 TX18/1912Z TN06/1906Z"
    },
    {
      "icao": "LEVC",
      "alert": "OK",
      "vis_m": 9999,
      "fzfg": false,
      "metar_trigger": false,
      "taf_trigger": false,
      "metar": "METAR LEVC 190530Z 27003KT 240V310 9999 FEW030 06/06 Q1021 NOSIG",
      "taf": "TAF LEVC 190500Z 1906/2006 VRB03KT 9999 FEW020 TX16/1912Z TN06/1906Z"
    },
    {
      "icao": "LFLL",
      "alert": "OK",
      "vis_m": 9999,
      "fzfg": false,
      "metar_trigger": false,
      "taf_trigger": false,
      "metar": "METAR LFLL 190530Z 18006KT 9999 FEW049 BKN140 13/06 Q1022 NOSIG",
      "taf": "TAF LFLL 190500Z 1906/2012 14006KT 9999 BKN050"
    },
    {
      "icao": "LFMN",
      "alert": "OK",
      "vis_m": 9999,
      "fzfg": false,
      "metar_trigger": false,
      "taf_trigger": false,
      "metar": "METAR LFMN 190530Z 34009KT 9999 OVC050 11/06 Q1025 NOSIG",
      "taf": "TAF LFMN 190200Z 1903/2009 34010KT 9999 BKN050"
    },
    {
      "icao": "LFOB",
      "alert": "OK",
      "vis_m": 9999,
      "fzfg": false,
      "metar_trigger": false,
      "taf_trigger": false,
      "metar": "METAR LFOB 190530Z AUTO 26008KT 9999 -RA FEW012/// BKN066/// OVC082/// ///CB 11/10 Q1015 TEMPO 4000 -RA BECMG 18015G25KT BKN020 OVC040",
      "taf": "TAF LFOB 190500Z 1906/2006 25007KT 9999 BKN020 OVC030"
    },
    {
      "icao": "LFPO",
      "alert": "OK",
      "vis_m": 9999,
      "fzfg": false,
      "metar_trigger": false,
      "taf_trigger": false,
      "metar": "METAR LFPO 190530Z 20008KT 9999 -RA BKN008 11/10 Q1015 TEMPO BKN008",
      "taf": "TAF LFPO 190500Z 1906/2012 20010KT 9999 -RA BKN012"
    },
    {
      "icao": "LFSB",
      "alert": "OK",
      "vis_m": 9999,
      "fzfg": false,
      "metar_trigger": false,
      "taf_trigger": false,
      "metar": "METAR LFSB 190530Z AUTO 18005KT CAVOK 05/03 Q1021 NOSIG",
      "taf": "TAF LFSB 190500Z 1906/2006 18005KT CAVOK"
    },
    {
      "icao": "LGAV",
      "alert": "OK",
      "vis_m": 5000,
      "fzfg": false,
      "metar_trigger": false,
      "taf_trigger": false,
      "metar": "METAR LGAV 190520Z 00000KT 5000 BR SCT010 05/03 Q1029 NOSIG",
      "taf": "TAF LGAV 190500Z 1906/2006 VRB05KT 9999 FEW018"
    },
    {
      "icao": "LGIR",
      "alert": "OK",
      "vis_m": 9999,
      "fzfg": false,
      "metar_trigger": false,
      "taf_trigger": false,
      "metar": "METAR LGIR 190520Z COR 17010KT 9999 FEW018 10/09 Q1028 NOSIG",
      "taf": "TAF LGIR 190500Z 1906/2006 VRB03KT 9999 SCT020"
    },
    {
      "icao": "LGKR",
      "alert": "OK",
      "vis_m": 6000,
      "fzfg": false,
      "metar_trigger": false,
      "taf_trigger": false,
      "metar": "METAR LGKR 190520Z 00000KT 6000 SCT008 BKN020 11/11 Q1027 NOSIG",
      "taf": "TAF LGKR 190500Z 1906/2006 VRB03KT 9000 FEW010 SCT020"
    },
    {
      "icao": "LGRP",
      "alert": "OK",
      "vis_m": 9999,
      "fzfg": false,
      "metar_trigger": false,
      "taf_trigger": false,
      "metar": "METAR LGRP 190520Z 22004KT 9999 FEW018 15/10 Q1025 NOSIG",
      "taf": "TAF LGRP 190500Z 1906/2006 26010KT 9999 FEW018"
    },
    {
      "icao": "LGTS",
      "alert": "OK",
      "vis_m": 7000,
      "fzfg": false,
      "metar_trigger": false,
      "taf_trigger": false,
      "metar": "METAR LGTS 190520Z 11004KT 7000 FEW006 02/02 Q1029 NOSIG",
      "taf": "TAF LGTS 190500Z 1906/2006 VRB03KT 9999 FEW025"
    },
    {
      "icao": "LGZA",
      "alert": "OK",
      "vis_m": null,
      "fzfg": false,
      "metar_trigger": false,
      "taf_trigger": false,
      "metar": "",
      "taf": "TAF LGZA 190500Z 1906/1915 VRB03KT 9999 SCT020"
    },
    {
      "icao": "LHBP",
      "alert": "OK",
      "vis_m": 3500,
      "fzfg": false,
      "metar_trigger": false,
      "taf_trigger": false,
      "metar": "METAR LHBP 190530Z 07003KT 020V110 3500 BR BKN004 BKN037 04/04 Q1027 TEMPO 2000",
      "taf": "TAF LHBP 190515Z 1906/2006 09006KT 5000 BR SCT006 BKN030"
    },
    {
      "icao": "LHDC",
      "alert": "OK",
      "vis_m": 6000,
      "fzfg": false,
      "metar_trigger": false,
      "taf_trigger": false,
      "metar": "METAR LHDC 190515Z AUTO 05006KT 020V080 6000 BKN030 BKN080 05/04 Q1028 NOSIG",
      "taf": "TAF LHDC 190515Z 1906/1915 09006KT 7000 OVC030"
    },
    {
      "icao": "LIBD",
      "alert": "OK",
      "vis_m": 600,
      "fzfg": false,
      "metar_trigger": false,
      "taf_trigger": false,
      "metar": "METAR LIBD 190520Z 24005KT 0600 R07/P2000N FG OVC002 10/10 Q1027",
      "taf": "TAF LIBD 190500Z 1906/2006 VRB04KT 0800 FG OVC003"
    },
    {
      "icao": "LICC",
      "alert": "OK",
      "vis_m": 9999,
      "fzfg": false,
      "metar_trigger": false,
      "taf_trigger": false,
      "metar": "METAR LICC 190520Z VRB03KT 9999 SCT060 13/11 Q1026",
      "taf": "TAF LICC 190500Z 1906/2006 VRB05KT 9999 SCT050"
    },
    {
      "icao": "LICJ",
      "alert": "OK",
      "vis_m": 9999,
      "fzfg": false,
      "metar_trigger": false,
      "taf_trigger": false,
      "metar": "METAR LICJ 190520Z 15004KT CAVOK 12/11 Q1025",
      "taf": "TAF LICJ 190500Z 1906/2006 18005KT 9999 FEW040"
    },
    {
      "icao": "LIEO",
      "alert": "OK",
      "vis_m": 9999,
      "fzfg": false,
      "metar_trigger": false,
      "taf_trigger": false,
      "metar": "METAR LIEO 190520Z AUTO 25002KT 9999 BKN110/// BKN160/// 11/11 Q1024",
      "taf": "TAF LIEO 190500Z 1906/2006 VRB06KT 9999 SCT040"
    },
    {
      "icao": "LIMC",
      "alert": "OK",
      "vis_m": 7000,
      "fzfg": false,
      "metar_trigger": false,
      "taf_trigger": false,
      "metar": "METAR LIMC 190520Z 35003KT 320V020 7000 BKN045 08/08 Q1028 NOSIG",
      "taf": "TAF LIMC 190500Z 1906/2012 VRB03KT 3000 BR BKN030"
    },
    {
      "icao": "LIME",
      "alert": "OK",
      "vis_m": 300,
      "fzfg": false,
      "metar_trigger": false,
      "taf_trigger": false,
      "metar": "METAR LIME 190520Z VRB02KT 0300 R28/1000U FG OVC002 09/09 Q1027 NOSIG",
      "taf": "TAF LIME 190500Z 1906/2006 VRB03KT 4000 BR BKN008"
    },
    {
      "icao": "LIPH",
      "alert": "OK",
      "vis_m": 1200,
      "fzfg": false,
      "metar_trigger": false,
      "taf_trigger": false,
      "metar": "METAR LIPH 190520Z AUTO VRB01KT 1200 0450E R07/P2000N BR BKN002/// OVC020/// 08/08 Q1028",
      "taf": "TAF LIPH 190500Z 1906/2006 VRB04KT 0100 FG OVC001"
    },
    {
      "icao": "LIPQ",
      "alert": "OK",
      "vis_m": 2400,
      "fzfg": false,
      "metar_trigger": false,
      "taf_trigger": false,
      "metar": "METAR LIPQ 190520Z AUTO 34003KT 2400 BR FEW001/// OVC032/// 08/08 Q1027",
      "taf": "TAF LIPQ 190500Z 1906/2006 VRB04KT 0600 FG OVC002"
    },
    {
      "icao": "LIPX",
      "alert": "OK",
      "vis_m": 500,
      "fzfg": false,
      "metar_trigger": false,
      "taf_trigger": false,
      "metar": "METAR LIPX 190520Z 27002KT 0500 R04/0600N FG VV002 09/09 Q1028",
      "taf": "TAF LIPX 190500Z 1906/2006 VRB03KT 1200 BR BKN002"
    },
    {
      "icao": "LIPY",
      "alert": "OK",
      "vis_m": 1100,
      "fzfg": false,
      "metar_trigger": false,
      "taf_trigger": false,
      "metar": "METAR LIPY 190520Z AUTO 23004KT 1100 R22/P2000N BR OVC002/// 09/09 Q1027",
      "taf": "TAF LIPY 190500Z 1906/2006 VRB05KT 2000 BR OVC006"
    },
    {
      "icao": "LIPZ",
      "alert": "OK",
      "vis_m": 400,
      "fzfg": false,
      "metar_trigger": false,
      "taf_trigger": false,
      "metar": "METAR LIPZ 190520Z 32004KT 300V360 0400 R04R/P2000N FG BKN020 09/09 Q1028 NOSIG",
      "taf": "TAF LIPZ 190500Z 1906/2012 VRB04KT 0200 FG OVC001"
    },
    {
      "icao": "LIRA",
      "alert": "OK",
      "vis_m": 9999,
      "fzfg": false,
      "metar_trigger": false,
      "taf_trigger": false,
      "metar": "METAR LIRA 190520Z 18005KT 9999 SCT040 12/10 Q1026",
      "taf": "TAF LIRA 190500Z 1906/2006 VRB05KT 9999 FEW030"
    },
    {
      "icao": "LIRN",
      "alert": "OK",
      "vis_m": 9999,
      "fzfg": false,
      "metar_trigger": false,
      "taf_trigger": false,
      "metar": "METAR LIRN 190520Z 28003KT 270V340 CAVOK 06/04 Q1026 NOSIG",
      "taf": "TAF LIRN 190500Z 1906/2006 VRB05KT 9999 SCT030"
    },
    {
      "icao": "LLBG",
      "alert": "OK",
      "vis_m": 9999,
      "fzfg": false,
      "metar_trigger": false,
      "taf_trigger": false,
      "metar": "METAR LLBG 190520Z VRB02KT 9999 SCT044 11/09 Q1026 NOSIG",
      "taf": "TAF LLBG 190504Z 1906/2006 VRB03KT 9999 BKN040"
    },
    {
      "icao": "LMML",
      "alert": "OK",
      "vis_m": 9999,
      "fzfg": false,
      "metar_trigger": false,
      "taf_trigger": false,
      "metar": "METAR LMML 190545Z 11011KT 9999 FEW014 17/14 Q1024 NOSIG",
      "taf": "TAF LMML 190500Z 1906/2006 10012KT 9999 FEW015"
    },
    {
      "icao": "LOWW",
      "alert": "OK",
      "vis_m": 2900,
      "fzfg": false,
      "metar_trigger": false,
      "taf_trigger": false,
      "metar": "METAR LOWW 190520Z 18003KT 160V220 2900 DZ BKN001 03/02 Q1025 TEMPO BKN002",
      "taf": "TAF LOWW 190515Z 1906/2012 VRB04KT 5000 BR OVC005 TX04/1918Z TN02/2007Z"
    },
    {
      "icao": "LPFR",
      "alert": "OK",
      "vis_m": 9999,
      "fzfg": false,
      "metar_trigger": false,
      "taf_trigger": false,
      "metar": "METAR LPFR 190530Z 16008KT 9999 FEW020 BKN035 15/12 Q1018",
      "taf": "TAF LPFR 190500Z 1906/2006 19010KT 9999 SCT018 SCT035"
    },
    {
      "icao": "LPPR",
      "alert": "OK",
      "vis_m": 9999,
      "fzfg": false,
      "metar_trigger": false,
      "taf_trigger": false,
      "metar": "METAR LPPR 190530Z 35004KT 9999 FEW040 10/09 Q1019",
      "taf": "TAF LPPR 190500Z 1906/2006 36005KT 9999 SCT015 BKN045"
    },
    {
      "icao": "LPPT",
      "alert": "OK",
      "vis_m": 9999,
      "fzfg": false,
      "metar_trigger": false,
      "taf_trigger": false,
      "metar": "METAR LPPT 190530Z 05008KT 9999 -RA NSC 11/11 Q1018",
      "taf": "TAF LPPT 190500Z 1906/2012 35008KT 9999 FEW018 BKN045"
    },
    {
      "icao": "LQSA",
      "alert": "OK",
      "vis_m": 300,
      "fzfg": true,
      "metar_trigger": false,
      "taf_trigger": false,
      "metar": "METAR LQSA 190530Z 12002KT 0300 R11/0375N FZFG VV002 M01/M01 Q1029 NOSIG",
      "taf": "TAF LQSA 190500Z 1906/2006 VRB02KT 0300 FZFG VV001 TX06/1913Z TNM02/2005Z"
    },
    {
      "icao": "LQTZ",
      "alert": "OK",
      "vis_m": 1500,
      "fzfg": false,
      "metar_trigger": false,
      "taf_trigger": false,
      "metar": "METAR LQTZ 190530Z 26002KT 1500 R09/1000U BR BKN001 M01/M01 Q1028",
      "taf": "TAF LQTZ 190500Z 1906/2006 VRB02KT 3000 BR SCT004 TX12/1913Z TNM03/2006Z"
    },
    {
      "icao": "LRCL",
      "alert": "OK",
      "vis_m": 1500,
      "fzfg": false,
      "metar_trigger": false,
      "taf_trigger": false,
      "metar": "METAR LRCL 190530Z 00000KT 1500 R25/1300D BCFG BR FEW057 M00/M01 Q1030",
      "taf": "TAF LRCL 190500Z 1906/1915 VRB04KT 1500 BR NSC"
    },
    {
      "icao": "LRCV",
      "alert": "OK",
      "vis_m": 4000,
      "fzfg": false,
      "metar_trigger": false,
      "taf_trigger": false,
      "metar": "METAR LRCV 190530Z 31004KT 4000 BR NSC M01/M01 Q1028",
      "taf": "TAF LRCV 190500Z 1906/1915 VRB04KT 3000 BR NSC"
    },
    {
      "icao": "LRIA",
      "alert": "OK",
      "vis_m": 5000,
      "fzfg": false,
      "metar_trigger": false,
      "taf_trigger": false,
      "metar": "METAR LRIA 190530Z 28003KT 5000 MIFG BR NSC 01/01 Q1028",
      "taf": "TAF LRIA 190500Z 1906/1915 VRB04KT 3000 BR NSC"
    },
    {
      "icao": "LROP",
      "alert": "OK",
      "vis_m": 4000,
      "fzfg": false,
      "metar_trigger": false,
      "taf_trigger": false,
      "metar": "METAR LROP 190530Z 29002KT 4000 BR NSC M01/M01 Q1028 NOSIG",
      "taf": "TAF LROP 190500Z 1906/2006 VRB04KT 3000 BR NSC"
    },
    {
      "icao": "LRSB",
      "alert": "OK",
      "vis_m": 6000,
      "fzfg": false,
      "metar_trigger": false,
      "taf_trigger": false,
      "metar": "METAR LRSB 190530Z VRB01KT 6000 MIFG NSC 01/01 Q1029",
      "taf": "TAF LRSB 190500Z 1906/2006 VRB04KT 3000 BR SCT055"
    },
    {
      "icao": "LRTR",
      "alert": "OK",
      "vis_m": 9999,
      "fzfg": false,
      "metar_trigger": false,
      "taf_trigger": false,
      "metar": "METAR LRTR 190530Z 10003KT CAVOK 05/05 Q1028 NOSIG",
      "taf": "TAF LRTR 190500Z 1906/2006 12007KT CAVOK"
    },
    {
      "icao": "LTAF",
      "alert": "OK",
      "vis_m": 9999,
      "fzfg": false,
      "metar_trigger": false,
      "taf_trigger": false,
      "metar": "METAR LTAF 190520Z VRB01KT CAVOK 06/02 Q1025 NOSIG RMK RWY23 04003KT 4CI180",
      "taf": "TAF LTAF 190440Z 1906/2006 VRB02KT CAVOK"
    },
    {
      "icao": "LTAI",
      "alert": "OK",
      "vis_m": 9999,
      "fzfg": false,
      "metar_trigger": false,
      "taf_trigger": false,
      "metar": "METAR LTAI 190520Z 35005KT 340V060 CAVOK 06/M02 Q1026 NOSIG RMK RWY18C 36004KT RWY36R 36006KT RWY18L 34003KT 310V020",
      "taf": "TAF LTAI 190440Z 1906/2006 34006KT CAVOK"
    },
    {
      "icao": "LTFM",
      "alert": "OK",
      "vis_m": 6000,
      "fzfg": false,
      "metar_trigger": false,
      "taf_trigger": false,
      "metar": "METAR LTFM 190520Z 20006KT 160V250 6000 NSC 08/05 Q1028 NOSIG RMK RWY17L 20004KT RWY34L VRB04KT RWY16R 18001KT RWY36 19004KT 150V210 RWY18 21007KT 180V250",
      "taf": "TAF LTFM 190440Z 1906/2012 20005KT CAVOK"
    },
    {
      "icao": "LUBL",
      "alert": "OK",
      "vis_m": null,
      "fzfg": false,
      "metar_trigger": false,
      "taf_trigger": false,
      "metar": "",
      "taf": ""
    },
    {
      "icao": "LUKK",
      "alert": "OK",
      "vis_m": 9999,
      "fzfg": false,
      "metar_trigger": false,
      "taf_trigger": false,
      "metar": "METAR LUKK 190530Z 26001KT CAVOK 03/01 Q1028 NOSIG",
      "taf": "TAF LUKK 190510Z 1906/2006 VRB05KT CAVOK"
    },
    {
      "icao": "LWSK",
      "alert": "OK",
      "vis_m": 500,
      "fzfg": true,
      "metar_trigger": false,
      "taf_trigger": false,
      "metar": "METAR LWSK 190520Z 36003KT 0500 0200S R34/1200U FZFG BKN002 M03/M04 Q1031 NOSIG",
      "taf": "TAF LWSK 190540Z 1906/2006 VRB02KT 0600 FZFG BKN003"
    },
    {
      "icao": "LYBE",
      "alert": "OK",
      "vis_m": 2500,
      "fzfg": false,
      "metar_trigger": false,
      "taf_trigger": false,
      "metar": "METAR LYBE 190530Z VRB01KT 2500 BR NSC 05/04 Q1027 NOSIG",
      "taf": "TAF LYBE 190500Z 1906/2006 13004KT 3000 BR NSC TX11/1913Z TN01/2006Z"
    },
    {
      "icao": "LZIB",
      "alert": "OK",
      "vis_m": 1700,
      "fzfg": false,
      "metar_trigger": false,
      "taf_trigger": false,
      "metar": "METAR LZIB 190530Z 06006KT 1700 DZ BR BKN001 OVC002 05/05 Q1025 NOSIG",
      "taf": "TAF LZIB 190515Z 1906/2006 08007KT 4000 BR SCT002 BKN003"
    },
    {
      "icao": "LZKZ",
      "alert": "OK",
      "vis_m": 3500,
      "fzfg": false,
      "metar_trigger": false,
      "taf_trigger": false,
      "metar": "METAR LZKZ 190530Z VRB02KT 3500 BR BKN005 OVC008 04/04 Q1028 TEMPO 2900 BR OVC004",
      "taf": "TAF LZKZ 190515Z 1906/2006 VRB02KT 4000 BR OVC011"
    },
    {
      "icao": "LZTT",
      "alert": "OK",
      "vis_m": 200,
      "fzfg": true,
      "metar_trigger": false,
      "taf_trigger": false,
      "metar": "METAR LZTT 190530Z 18005KT 0200 R27/0700D FZFG BKN002 M01/M01 Q1025 NOSIG",
      "taf": "TAF LZTT 190515Z 1906/2006 VRB02KT 1200 BR BCFG BKN003"
    },
    {
      "icao": "OEJN",
      "alert": "OK",
      "vis_m": 9999,
      "fzfg": false,
      "metar_trigger": false,
      "taf_trigger": false,
      "metar": "METAR OEJN 190500Z 04014KT CAVOK 17/00 Q1019 NOSIG",
      "taf": "TAF OEJN 190500Z 1906/2012 07018KT 6000 NSC"
    },
    {
      "icao": "OEMA",
      "alert": "OK",
      "vis_m": 9999,
      "fzfg": false,
      "metar_trigger": false,
      "taf_trigger": false,
      "metar": "METAR OEMA 190500Z VRB02KT CAVOK 10/02 Q1026 NOSIG",
      "taf": "TAF OEMA 190500Z 1906/2012 09012KT CAVOK"
    },
    {
      "icao": "OERK",
      "alert": "OK",
      "vis_m": 9999,
      "fzfg": false,
      "metar_trigger": false,
      "taf_trigger": false,
      "metar": "METAR OERK 190500Z 28011KT CAVOK 08/04 Q1020 NOSIG",
      "taf": "TAF OERK 190500Z 1906/2012 32016KT 7000 NSC"
    },
    {
      "icao": "OJAI",
      "alert": "OK",
      "vis_m": 150,
      "fzfg": false,
      "metar_trigger": false,
      "taf_trigger": false,
      "metar": "METAR OJAI 190500Z 10003KT 0150 FG NSC 02/02 Q1026 NOSIG",
      "taf": "TAF OJAI 190450Z 1906/2012 VRB02KT 0200 FG NSC"
    },
    {
      "icao": "OKBK",
      "alert": "OK",
      "vis_m": null,
      "fzfg": false,
      "metar_trigger": false,
      "taf_trigger": false,
      "metar": "",
      "taf": ""
    },
    {
      "icao": "OMAA",
      "alert": "OK",
      "vis_m": 9999,
      "fzfg": false,
      "metar_trigger": false,
      "taf_trigger": false,
      "metar": "METAR OMAA 190500Z 23009KT 190V260 9999 FEW035 18/15 Q1016 NOSIG",
      "taf": "TAF OMAA 190500Z 1906/2012 27013KT 8000 FEW030"
    },
    {
      "icao": "UAAA",
      "alert": "OK",
      "vis_m": 4000,
      "fzfg": false,
      "metar_trigger": false,
      "taf_trigger": false,
      "metar": "METAR UAAA 190500Z 00000MPS 4000 BR SCT050 BKN100 M01/M03 Q1033 NOSIG",
      "taf": "TAF UAAA 190502Z 1906/2006 01002MPS 3100 BR BKN011 OVC030 TXM00/1908Z TNM07/2002Z"
    },
    {
      "icao": "UCFM",
      "alert": "OK",
      "vis_m": 400,
      "fzfg": true,
      "metar_trigger": false,
      "taf_trigger": false,
      "metar": "METAR UCFM 190530Z VRB01MPS 0400 0100E R07/P1500U FZFG NSC M02/M03 Q1032 TEMPO 0500 FZFG FEW002",
      "taf": "TAF UCFM 190500Z 1906/2006 32003MPS 0800 FZFG FEW003 SCT050CB"
    },
    {
      "icao": "UDYZ",
      "alert": "OK",
      "vis_m": 3600,
      "fzfg": false,
      "metar_trigger": false,
      "taf_trigger": false,
      "metar": "METAR UDYZ 190530Z 04001KT 3600 BR NSC M03/M04 Q1030 NOSIG",
      "taf": "TAF UDYZ 190500Z 1906/2006 VRB04KT 6000 FEW040"
    },
    {
      "icao": "UGTB",
      "alert": "OK",
      "vis_m": 9999,
      "fzfg": false,
      "metar_trigger": false,
      "taf_trigger": false,
      "metar": "METAR UGTB 190530Z 28007KT CAVOK 01/M02 Q1029 NOSIG",
      "taf": "TAF UGTB 190500Z 1906/2006 30007KT 9000 NSC TX09/1911Z TNM01/2003Z"
    },
    {
      "icao": "UKKK",
      "alert": "OK",
      "vis_m": null,
      "fzfg": false,
      "metar_trigger": false,
      "taf_trigger": false,
      "metar": "",
      "taf": ""
    },
    {
      "icao": "UTTT",
      "alert": "OK",
      "vis_m": null,
      "fzfg": false,
      "metar_trigger": false,
      "taf_trigger": false,
      "metar": "",
      "taf": ""
    }
  ]
}