{
  "ts_utc": "2026-05-09T23:59:05Z",
  "threshold_m": 150,
  "source": "stations_override.txt (ICAO list) + aviationweather.gov (METAR/TAF raw)",
  "station_count": 159,
  "stations": [
    {
      "icao": "BIKF",
      "alert": "OK",
      "vis_m": 5000,
      "fzfg": false,
      "metar_trigger": false,
      "taf_trigger": false,
      "metar": "METAR BIKF 092330Z 29005KT 260V010 5000 BR BKN006 OVC020 06/06 Q1023",
      "taf": "TAF BIKF 092248Z 1000/1100 27005KT 9999 BKN008 OVC014 TX07/1013Z TN05/1006Z"
    },
    {
      "icao": "BKPR",
      "alert": "OK",
      "vis_m": null,
      "fzfg": false,
      "metar_trigger": false,
      "taf_trigger": false,
      "metar": "",
      "taf": "TAF BKPR 092330Z 1000/1024 VRB05KT 3000 BR SCT005"
    },
    {
      "icao": "EBCI",
      "alert": "OK",
      "vis_m": 9999,
      "fzfg": false,
      "metar_trigger": false,
      "taf_trigger": false,
      "metar": "METAR EBCI 092350Z 02005KT CAVOK 12/07 Q1015 NOSIG",
      "taf": "TAF EBCI 092301Z 1000/1106 04007KT CAVOK"
    },
    {
      "icao": "EDDB",
      "alert": "OK",
      "vis_m": 9999,
      "fzfg": false,
      "metar_trigger": false,
      "taf_trigger": false,
      "metar": "METAR EDDB 092350Z AUTO 10003KT 9999 4500 BR NCD 07/06 Q1018 NOSIG",
      "taf": "TAF EDDB 092300Z 1000/1024 10004KT CAVOK"
    },
    {
      "icao": "EDDH",
      "alert": "OK",
      "vis_m": 9999,
      "fzfg": false,
      "metar_trigger": false,
      "taf_trigger": false,
      "metar": "METAR EDDH 092350Z AUTO VRB01KT CAVOK 10/06 Q1017 NOSIG",
      "taf": "TAF EDDH 092300Z 1000/1106 VRB03KT 9999 SCT040"
    },
    {
      "icao": "EDDK",
      "alert": "OK",
      "vis_m": 9999,
      "fzfg": false,
      "metar_trigger": false,
      "taf_trigger": false,
      "metar": "METAR EDDK 092350Z AUTO 16005KT CAVOK 08/06 Q1015 NOSIG",
      "taf": "TAF EDDK 092300Z 1000/1106 VRB03KT CAVOK"
    },
    {
      "icao": "EDDN",
      "alert": "OK",
      "vis_m": 9999,
      "fzfg": false,
      "metar_trigger": false,
      "taf_trigger": false,
      "metar": "METAR EDDN 092350Z AUTO 09006KT CAVOK 13/07 Q1014",
      "taf": "TAF EDDN 092300Z 1000/1024 10004KT CAVOK"
    },
    {
      "icao": "EDDS",
      "alert": "OK",
      "vis_m": 9999,
      "fzfg": false,
      "metar_trigger": false,
      "taf_trigger": false,
      "metar": "METAR EDDS 092350Z AUTO 27003KT CAVOK 12/08 Q1013",
      "taf": "TAF EDDS 092300Z 1000/1024 VRB03KT CAVOK"
    },
    {
      "icao": "EDFH",
      "alert": "OK",
      "vis_m": 9999,
      "fzfg": false,
      "metar_trigger": false,
      "taf_trigger": false,
      "metar": "METAR EDFH 092350Z 11003KT 060V150 CAVOK 11/06 Q1014",
      "taf": "TAF EDFH 092300Z 1000/1024 10005KT CAVOK"
    },
    {
      "icao": "EDJA",
      "alert": "OK",
      "vis_m": 9999,
      "fzfg": false,
      "metar_trigger": false,
      "taf_trigger": false,
      "metar": "METAR EDJA 092350Z AUTO 07004KT 9999 // NCD 11/06 Q1014",
      "taf": "TAF EDJA 091700Z 0918/1003 06005KT CAVOK"
    },
    {
      "icao": "EDLW",
      "alert": "OK",
      "vis_m": 9999,
      "fzfg": false,
      "metar_trigger": false,
      "taf_trigger": false,
      "metar": "METAR EDLW 092350Z AUTO VRB02KT 9999 // BKN073/// BKN084/// 10/08 Q1015",
      "taf": "TAF EDLW 091700Z 0918/1018 07004KT CAVOK"
    },
    {
      "icao": "EDNY",
      "alert": "OK",
      "vis_m": 9999,
      "fzfg": false,
      "metar_trigger": false,
      "taf_trigger": false,
      "metar": "METAR EDNY 092350Z AUTO 05003KT 9999 // NCD 12/07 Q1012",
      "taf": "TAF EDNY 091700Z 0918/1003 03004KT CAVOK"
    },
    {
      "icao": "EDSB",
      "alert": "OK",
      "vis_m": 9999,
      "fzfg": false,
      "metar_trigger": false,
      "taf_trigger": false,
      "metar": "METAR EDSB 092350Z AUTO 04008KT 9999 // NCD 14/10 Q1012",
      "taf": "TAF EDSB 092300Z 1000/1024 02006KT CAVOK"
    },
    {
      "icao": "EETN",
      "alert": "OK",
      "vis_m": 9999,
      "fzfg": false,
      "metar_trigger": false,
      "taf_trigger": false,
      "metar": "METAR EETN 092350Z 09004KT CAVOK 04/M03 Q1021",
      "taf": "TAF EETN 091730Z 0918/1018 06012KT CAVOK"
    },
    {
      "icao": "EFTU",
      "alert": "OK",
      "vis_m": 9999,
      "fzfg": false,
      "metar_trigger": false,
      "taf_trigger": false,
      "metar": "METAR EFTU 092350Z AUTO 13006KT CAVOK 04/M07 Q1021",
      "taf": "TAF EFTU 092331Z 1000/1024 13005KT CAVOK"
    },
    {
      "icao": "EGBB",
      "alert": "OK",
      "vis_m": 9999,
      "fzfg": false,
      "metar_trigger": false,
      "taf_trigger": false,
      "metar": "METAR EGBB 092350Z 02010KT 360V060 9999 BKN010 10/08 Q1020",
      "taf": "TAF EGBB 092258Z 1000/1024 04010KT 9999 FEW045"
    },
    {
      "icao": "EGGP",
      "alert": "OK",
      "vis_m": 9999,
      "fzfg": false,
      "metar_trigger": false,
      "taf_trigger": false,
      "metar": "METAR EGGP 092350Z 05011KT CAVOK 08/04 Q1022",
      "taf": "TAF EGGP 092255Z 1000/1024 05010KT 9999 SCT035"
    },
    {
      "icao": "EGGW",
      "alert": "OK",
      "vis_m": 9999,
      "fzfg": false,
      "metar_trigger": false,
      "taf_trigger": false,
      "metar": "METAR EGGW 092350Z AUTO 03011KT 9999 BKN009 08/07 Q1019",
      "taf": "TAF EGGW 092259Z 1000/1024 03009KT 9999 FEW020"
    },
    {
      "icao": "EGKK",
      "alert": "OK",
      "vis_m": 9999,
      "fzfg": false,
      "metar_trigger": false,
      "taf_trigger": false,
      "metar": "METAR EGKK 092350Z 04009KT CAVOK 11/06 Q1017",
      "taf": "TAF EGKK 092256Z 1000/1106 03010KT CAVOK"
    },
    {
      "icao": "EGNM",
      "alert": "OK",
      "vis_m": 9999,
      "fzfg": false,
      "metar_trigger": false,
      "taf_trigger": false,
      "metar": "METAR EGNM 092350Z 02013KT 350V050 9999 FEW009 SCT021 BKN046 05/04 Q1023",
      "taf": "TAF EGNM 092258Z 1000/1024 02015KT 9999 FEW010 SCT035"
    },
    {
      "icao": "EGPD",
      "alert": "OK",
      "vis_m": 9999,
      "fzfg": false,
      "metar_trigger": false,
      "taf_trigger": false,
      "metar": "METAR EGPD 092350Z COR AUTO 01001KT 9999 BKN032 04/00 Q1025 NOSIG",
      "taf": "TAF EGPD 092254Z 1000/1024 26005KT 9999 FEW020 SCT040"
    },
    {
      "icao": "EGPF",
      "alert": "OK",
      "vis_m": 9999,
      "fzfg": false,
      "metar_trigger": false,
      "taf_trigger": false,
      "metar": "METAR EGPF 092350Z AUTO VRB01KT 9999 NCD 05/04 Q1026",
      "taf": "TAF EGPF 092255Z 1000/1024 VRB03KT 9999 SCT030"
    },
    {
      "icao": "EHBK",
      "alert": "OK",
      "vis_m": 9999,
      "fzfg": false,
      "metar_trigger": false,
      "taf_trigger": false,
      "metar": "METAR EHBK 092355Z AUTO 04004KT 9999 NSC 11/07 Q1015",
      "taf": "TAF EHBK 092312Z 1000/1106 06005KT CAVOK"
    },
    {
      "icao": "EHEH",
      "alert": "OK",
      "vis_m": 9999,
      "fzfg": false,
      "metar_trigger": false,
      "taf_trigger": false,
      "metar": "METAR EHEH 092325Z AUTO 01003KT 9999 NCD 09/07 Q1016 BLU",
      "taf": "TAF EHEH 091720Z 0918/1024 03007KT CAVOK"
    },
    {
      "icao": "EKBI",
      "alert": "OK",
      "vis_m": 9999,
      "fzfg": false,
      "metar_trigger": false,
      "taf_trigger": false,
      "metar": "METAR EKBI 092350Z AUTO 08003KT 9999 NCD 03/02 Q1018",
      "taf": "TAF EKBI 092327Z 1000/1024 11006KT CAVOK"
    },
    {
      "icao": "EKCH",
      "alert": "OK",
      "vis_m": 9999,
      "fzfg": false,
      "metar_trigger": false,
      "taf_trigger": false,
      "metar": "METAR EKCH 092350Z AUTO 12006KT 9999 BKN063/// 08/06 Q1020 NOSIG",
      "taf": "TAF EKCH 092327Z 1000/1024 16006KT CAVOK"
    },
    {
      "icao": "ENAL",
      "alert": "OK",
      "vis_m": 9999,
      "fzfg": false,
      "metar_trigger": false,
      "taf_trigger": false,
      "metar": "METAR ENAL 092350Z AUTO 22016KT 9999 -RA FEW014/// BKN018/// BKN028/// 05/03 Q1016 REDZRA REDZ",
      "taf": "TAF ENAL 092300Z 1000/1009 23018KT 9999 -SHRA FEW012 BKN025"
    },
    {
      "icao": "ENBR",
      "alert": "OK",
      "vis_m": 9999,
      "fzfg": false,
      "metar_trigger": false,
      "taf_trigger": false,
      "metar": "METAR ENBR 092350Z 10002KT 9999 FEW020 BKN025 03/03 Q1020 RMK WIND 1200FT 31010KT",
      "taf": "TAF ENBR 092300Z 1000/1024 26005KT 9999 -SHRA FEW018 BKN035"
    },
    {
      "icao": "ENGM",
      "alert": "OK",
      "vis_m": 9999,
      "fzfg": false,
      "metar_trigger": false,
      "taf_trigger": false,
      "metar": "METAR ENGM 092320Z 21002KT CAVOK 06/M02 Q1016",
      "taf": "TAF ENGM 092300Z 1000/1024 VRB03KT 9999 BKN040"
    },
    {
      "icao": "ENHD",
      "alert": "OK",
      "vis_m": 9999,
      "fzfg": false,
      "metar_trigger": false,
      "taf_trigger": false,
      "metar": "METAR ENHD 092350Z AUTO 33011KT 9999 -DZ FEW019/// SCT047/// 03/01 Q1020",
      "taf": "TAF ENHD 091400Z 0915/0922 33005KT 9999 -RA FEW008 BKN020"
    },
    {
      "icao": "ENTC",
      "alert": "OK",
      "vis_m": 9999,
      "fzfg": false,
      "metar_trigger": false,
      "taf_trigger": false,
      "metar": "METAR ENTC 092350Z AUTO /////KT 9999 NCD 06/02 Q1011 RMK WIND 2600FT 10003KT WIND RWY 18 VRB02KT",
      "taf": "TAF ENTC 092300Z 1000/1024 02006KT 9999 SCT060"
    },
    {
      "icao": "ENTO",
      "alert": "OK",
      "vis_m": 9999,
      "fzfg": false,
      "metar_trigger": false,
      "taf_trigger": false,
      "metar": "METAR ENTO 092350Z AUTO 22004KT 9999 NCD 07/04 Q1017",
      "taf": "TAF ENTO 092300Z 1000/1024 24005KT 9999 BKN040"
    },
    {
      "icao": "ENVA",
      "alert": "OK",
      "vis_m": 9999,
      "fzfg": false,
      "metar_trigger": false,
      "taf_trigger": false,
      "metar": "METAR ENVA 092350Z 09003KT 060V150 CAVOK 04/04 Q1015 RMK WIND 670FT VRB02KT",
      "taf": "TAF ENVA 092300Z 1000/1024 27008KT 9999 FEW030 SCT045"
    },
    {
      "icao": "ENZV",
      "alert": "OK",
      "vis_m": 9999,
      "fzfg": false,
      "metar_trigger": false,
      "taf_trigger": false,
      "metar": "METAR ENZV 092350Z 04002KT 9999 FEW011 SCT025 05/03 Q1020",
      "taf": "TAF ENZV 092300Z 1000/1024 34005KT 9999 FEW010 BKN025"
    },
    {
      "icao": "EPGD",
      "alert": "OK",
      "vis_m": 9999,
      "fzfg": false,
      "metar_trigger": false,
      "taf_trigger": false,
      "metar": "METAR EPGD 092330Z VRB01KT CAVOK 03/00 Q1020",
      "taf": "TAF EPGD 092330Z 1000/1024 VRB03KT CAVOK"
    },
    {
      "icao": "EPKK",
      "alert": "OK",
      "vis_m": 8000,
      "fzfg": false,
      "metar_trigger": false,
      "taf_trigger": false,
      "metar": "METAR EPKK 092330Z 03006KT 8000 NSC 06/05 Q1019",
      "taf": "TAF EPKK 092330Z 1000/1024 04005KT CAVOK"
    },
    {
      "icao": "EPKT",
      "alert": "OK",
      "vis_m": 2600,
      "fzfg": false,
      "metar_trigger": false,
      "taf_trigger": false,
      "metar": "METAR EPKT 092330Z 04002KT 2600 0800N BCFG BR FEW000 01/01 Q1019",
      "taf": "TAF EPKT 092330Z 1000/1024 04003KT 2000 BR NSC"
    },
    {
      "icao": "EPLB",
      "alert": "OK",
      "vis_m": 9999,
      "fzfg": false,
      "metar_trigger": false,
      "taf_trigger": false,
      "metar": "METAR EPLB 092330Z 31004KT CAVOK 04/03 Q1019",
      "taf": "TAF EPLB 092330Z 1000/1024 VRB03KT CAVOK"
    },
    {
      "icao": "EPMO",
      "alert": "OK",
      "vis_m": 9999,
      "fzfg": false,
      "metar_trigger": false,
      "taf_trigger": false,
      "metar": "METAR EPMO 092330Z VRB01KT CAVOK 04/03 Q1020",
      "taf": "TAF EPMO 092330Z 1000/1024 VRB02KT CAVOK"
    },
    {
      "icao": "EPPO",
      "alert": "OK",
      "vis_m": 9999,
      "fzfg": false,
      "metar_trigger": false,
      "taf_trigger": false,
      "metar": "METAR EPPO 092330Z VRB02KT CAVOK 05/04 Q1019",
      "taf": "TAF EPPO 092330Z 1000/1024 VRB02KT CAVOK"
    },
    {
      "icao": "EPRA",
      "alert": "OK",
      "vis_m": 9999,
      "fzfg": false,
      "metar_trigger": false,
      "taf_trigger": false,
      "metar": "METAR EPRA 092330Z 22003KT CAVOK 04/02 Q1019",
      "taf": "TAF EPRA 092330Z 1000/1009 24005KT CAVOK"
    },
    {
      "icao": "EPRZ",
      "alert": "OK",
      "vis_m": 9999,
      "fzfg": false,
      "metar_trigger": false,
      "taf_trigger": false,
      "metar": "METAR EPRZ 092330Z 32004KT CAVOK 06/06 Q1019",
      "taf": "TAF EPRZ 092330Z 1000/1024 34004KT CAVOK"
    },
    {
      "icao": "EPSC",
      "alert": "OK",
      "vis_m": 9999,
      "fzfg": false,
      "metar_trigger": false,
      "taf_trigger": false,
      "metar": "METAR EPSC 092330Z 11001KT CAVOK 06/02 Q1019",
      "taf": "TAF EPSC 092330Z 1000/1024 VRB04KT CAVOK"
    },
    {
      "icao": "EPSY",
      "alert": "OK",
      "vis_m": 9999,
      "fzfg": false,
      "metar_trigger": false,
      "taf_trigger": false,
      "metar": "METAR EPSY 092330Z 02002KT CAVOK M00/M01 Q1019",
      "taf": "TAF EPSY 092330Z 1000/1009 VRB02KT CAVOK"
    },
    {
      "icao": "EPWA",
      "alert": "OK",
      "vis_m": 9999,
      "fzfg": false,
      "metar_trigger": false,
      "taf_trigger": false,
      "metar": "METAR EPWA 092330Z 15002KT CAVOK 06/04 Q1019 NOSIG",
      "taf": "TAF EPWA 092330Z 1000/1024 VRB02KT CAVOK"
    },
    {
      "icao": "EPWR",
      "alert": "OK",
      "vis_m": 9999,
      "fzfg": false,
      "metar_trigger": false,
      "taf_trigger": false,
      "metar": "METAR EPWR 092330Z VRB01KT 9999 MIFG NSC 06/06 Q1019",
      "taf": "TAF EPWR 092330Z 1000/1024 VRB02KT CAVOK"
    },
    {
      "icao": "ESGG",
      "alert": "OK",
      "vis_m": 9999,
      "fzfg": false,
      "metar_trigger": false,
      "taf_trigger": false,
      "metar": "METAR ESGG 092350Z 18006KT CAVOK 05/M00 Q1018",
      "taf": "TAF ESGG 092330Z 1000/1024 19004KT CAVOK"
    },
    {
      "icao": "ESKN",
      "alert": "OK",
      "vis_m": 9999,
      "fzfg": false,
      "metar_trigger": false,
      "taf_trigger": false,
      "metar": "METAR ESKN 092350Z 13006KT CAVOK 06/03 Q1019",
      "taf": "TAF ESKN 092330Z 1000/1024 14005KT CAVOK"
    },
    {
      "icao": "ESMS",
      "alert": "OK",
      "vis_m": 9999,
      "fzfg": false,
      "metar_trigger": false,
      "taf_trigger": false,
      "metar": "METAR ESMS 092350Z 12003KT CAVOK 03/02 Q1019",
      "taf": "TAF ESMS 092327Z 1000/1024 14010KT CAVOK"
    },
    {
      "icao": "ESSA",
      "alert": "OK",
      "vis_m": 9999,
      "fzfg": false,
      "metar_trigger": false,
      "taf_trigger": false,
      "metar": "METAR ESSA 092350Z 15004KT CAVOK 02/M01 Q1019 NOSIG",
      "taf": "TAF ESSA 092330Z 1000/1024 15004KT CAVOK"
    },
    {
      "icao": "EYKA",
      "alert": "OK",
      "vis_m": 7000,
      "fzfg": false,
      "metar_trigger": false,
      "taf_trigger": false,
      "metar": "METAR EYKA 092350Z 33004KT 300V360 7000 OVC004 06/05 Q1017",
      "taf": "TAF EYKA 092300Z 1000/1024 VRB03KT 5000 BR OVC005"
    },
    {
      "icao": "EYPA",
      "alert": "OK",
      "vis_m": 9999,
      "fzfg": false,
      "metar_trigger": false,
      "taf_trigger": false,
      "metar": "METAR EYPA 092350Z AUTO VRB01KT 9999 NCD 03/01 Q1020",
      "taf": "TAF EYPA 092300Z 1000/1024 VRB03KT 9000 NSC"
    },
    {
      "icao": "EYVI",
      "alert": "OK",
      "vis_m": 7000,
      "fzfg": false,
      "metar_trigger": false,
      "taf_trigger": false,
      "metar": "METAR EYVI 092350Z 32004KT 7000 OVC002 06/05 Q1016 NOSIG",
      "taf": "TAF EYVI 092300Z 1000/1024 VRB03KT 3000 BR OVC002"
    },
    {
      "icao": "GCFV",
      "alert": "OK",
      "vis_m": 9999,
      "fzfg": false,
      "metar_trigger": false,
      "taf_trigger": false,
      "metar": "METAR GCFV 092330Z AUTO 01003KT CAVOK 19/14 Q1018",
      "taf": "TAF GCFV 092000Z 0921/1021 30005KT 9999 SCT040 TX24/1014Z TN17/1006Z"
    },
    {
      "icao": "GCLP",
      "alert": "OK",
      "vis_m": 9999,
      "fzfg": false,
      "metar_trigger": false,
      "taf_trigger": false,
      "metar": "METAR GCLP 092330Z 34006KT 9999 SCT030 BKN050 20/15 Q1018 NOSIG",
      "taf": "TAF GCLP 092000Z 0921/1021 36007KT 9999 SCT020 BKN035 TX23/1014Z TN17/1006Z"
    },
    {
      "icao": "GCTS",
      "alert": "OK",
      "vis_m": 9999,
      "fzfg": false,
      "metar_trigger": false,
      "taf_trigger": false,
      "metar": "METAR GCTS 092330Z 06008KT 9999 FEW030 BKN045 20/13 Q1018 NOSIG",
      "taf": "TAF GCTS 092000Z 0921/1021 04006KT 9999 SCT040 TX25/1014Z TN18/1006Z"
    },
    {
      "icao": "GMAD",
      "alert": "OK",
      "vis_m": 9999,
      "fzfg": false,
      "metar_trigger": false,
      "taf_trigger": false,
      "metar": "METAR GMAD 092330Z 17006KT 9999 FEW033 16/14 Q1017 NOSIG",
      "taf": "TAF GMAD 092300Z 1000/1106 12004KT 8000 SCT026"
    },
    {
      "icao": "GMMN",
      "alert": "OK",
      "vis_m": 9999,
      "fzfg": false,
      "metar_trigger": false,
      "taf_trigger": false,
      "metar": "METAR GMMN 092330Z 19004KT 9999 FEW020 SCT080 14/11 Q1017 NOSIG",
      "taf": "TAF GMMN 092300Z 1000/1106 20006KT 9999 FEW020 BKN080"
    },
    {
      "icao": "GMMX",
      "alert": "OK",
      "vis_m": 9999,
      "fzfg": false,
      "metar_trigger": false,
      "taf_trigger": false,
      "metar": "METAR GMMX 092330Z 25003KT 210V280 9999 FEW026 16/09 Q1017 NOSIG",
      "taf": "TAF GMMX 092300Z 1000/1106 06006KT 8000 SCT023"
    },
    {
      "icao": "HEGN",
      "alert": "OK",
      "vis_m": 9999,
      "fzfg": false,
      "metar_trigger": false,
      "taf_trigger": false,
      "metar": "METAR HEGN 092300Z 34008KT CAVOK 25/03 Q1011 NOSIG",
      "taf": "TAF HEGN 092300Z 1000/1106 30015KT CAVOK"
    },
    {
      "icao": "HEMA",
      "alert": "OK",
      "vis_m": 9999,
      "fzfg": false,
      "metar_trigger": false,
      "taf_trigger": false,
      "metar": "METAR HEMA 092300Z 33008KT CAVOK 24/10 Q1010 NOSIG",
      "taf": "TAF HEMA 092300Z 1000/1106 31015KT CAVOK"
    },
    {
      "icao": "HESH",
      "alert": "OK",
      "vis_m": 9999,
      "fzfg": false,
      "metar_trigger": false,
      "taf_trigger": false,
      "metar": "METAR HESH 092300Z 34015KT CAVOK 27/12 Q1010 NOSIG",
      "taf": "TAF HESH 092300Z 1000/1106 35015KT CAVOK"
    },
    {
      "icao": "HESX",
      "alert": "OK",
      "vis_m": 9999,
      "fzfg": false,
      "metar_trigger": false,
      "taf_trigger": false,
      "metar": "METAR HESX 092300Z 05009KT CAVOK 17/10 Q1016 NOSIG",
      "taf": "TAF HESX 092300Z 1000/1106 06010KT CAVOK"
    },
    {
      "icao": "LATI",
      "alert": "OK",
      "vis_m": 6000,
      "fzfg": false,
      "metar_trigger": false,
      "taf_trigger": false,
      "metar": "METAR LATI 092350Z VRB02KT 6000 1000S R17/P2000N R35/1000N BCFG NSC 13/12 Q1017 NOSIG",
      "taf": "TAF LATI 092340Z 1000/1024 VRB03KT 1500 BCFG NSC TX23/1013Z TN11/1004Z"
    },
    {
      "icao": "LBPD",
      "alert": "OK",
      "vis_m": 9999,
      "fzfg": false,
      "metar_trigger": false,
      "taf_trigger": false,
      "metar": "METAR LBPD 092330Z AUTO VRB02KT 9999 NCD 12/12 Q1015",
      "taf": "TAF LBPD 092300Z 1000/1024 VRB04KT 9999 BKN050"
    },
    {
      "icao": "LBSF",
      "alert": "OK",
      "vis_m": 9999,
      "fzfg": false,
      "metar_trigger": false,
      "taf_trigger": false,
      "metar": "METAR LBSF 092330Z AUTO VRB02KT 9999 BKN044/// 11/10 Q1017 NOSIG",
      "taf": "TAF LBSF 092300Z 1000/1024 VRB04KT 9999 BKN050"
    },
    {
      "icao": "LBWN",
      "alert": "OK",
      "vis_m": 2900,
      "fzfg": false,
      "metar_trigger": false,
      "taf_trigger": false,
      "metar": "METAR LBWN 092330Z AUTO 27003KT 2900 BR FEW005/// 14/14 Q1014 TEMPO 1500 BR SCT005",
      "taf": "TAF LBWN 092300Z 1000/1024 VRB04KT 9999 SCT030 BKN045"
    },
    {
      "icao": "LCLK",
      "alert": "OK",
      "vis_m": 9999,
      "fzfg": false,
      "metar_trigger": false,
      "taf_trigger": false,
      "metar": "METAR LCLK 092330Z 31004KT CAVOK 22/07 Q1014 NOSIG",
      "taf": "TAF LCLK 092330Z 1000/1100 33006KT CAVOK"
    },
    {
      "icao": "LCPH",
      "alert": "OK",
      "vis_m": 9999,
      "fzfg": false,
      "metar_trigger": false,
      "taf_trigger": false,
      "metar": "METAR LCPH 092330Z AUTO 02006KT 9999 NCD 18/05 Q1015 NOSIG",
      "taf": "TAF LCPH 092330Z 1000/1100 35009KT CAVOK"
    },
    {
      "icao": "LEAL",
      "alert": "OK",
      "vis_m": 9999,
      "fzfg": false,
      "metar_trigger": false,
      "taf_trigger": false,
      "metar": "METAR LEAL 092330Z 34003KT CAVOK 16/14 Q1014 NOSIG",
      "taf": "TAF LEAL 092300Z 1000/1024 VRB04KT 9999 FEW035 TX26/1012Z TN13/1005Z"
    },
    {
      "icao": "LEBB",
      "alert": "OK",
      "vis_m": 9999,
      "fzfg": false,
      "metar_trigger": false,
      "taf_trigger": false,
      "metar": "METAR LEBB 092330Z AUTO 20007KT 150V240 CAVOK 17/13 Q1008",
      "taf": "TAF LEBB 092300Z 1000/1024 14009KT 9999 FEW050 TX20/1015Z TN11/1024Z"
    },
    {
      "icao": "LEBL",
      "alert": "OK",
      "vis_m": 6000,
      "fzfg": false,
      "metar_trigger": false,
      "taf_trigger": false,
      "metar": "METAR LEBL 092330Z 31005KT 6000 FEW060 14/14 Q1013 NOSIG",
      "taf": "TAF LEBL 092300Z 1000/1024 VRB04KT 9999 FEW050 TX21/1013Z TN13/1005Z"
    },
    {
      "icao": "LECH",
      "alert": "OK",
      "vis_m": 6000,
      "fzfg": false,
      "metar_trigger": false,
      "taf_trigger": false,
      "metar": "METAR LECH 092330Z AUTO 21003KT 170V230 6000 NSC 12/12 Q1014",
      "taf": "TAF LECH 092300Z 1000/1024 VRB04KT 9999 FEW020 TX23/1014Z TN10/1005Z"
    },
    {
      "icao": "LEMD",
      "alert": "OK",
      "vis_m": 7000,
      "fzfg": false,
      "metar_trigger": false,
      "taf_trigger": false,
      "metar": "METAR LEMD 092330Z 18004KT 110V220 7000 -RA SCT040 BKN055TCU 11/11 Q1013 RERA NOSIG",
      "taf": "TAF LEMD 092300Z 1000/1106 20007KT 9999 FEW030 TX16/1015Z TN08/1005Z"
    },
    {
      "icao": "LEMG",
      "alert": "OK",
      "vis_m": 9999,
      "fzfg": false,
      "metar_trigger": false,
      "taf_trigger": false,
      "metar": "METAR LEMG 092330Z 31003KT 220V010 9999 FEW016 15/12 Q1016 NOSIG",
      "taf": "TAF LEMG 092300Z 1000/1024 16006KT 9999 FEW015 SCT030 TX22/1014Z TN15/1007Z"
    },
    {
      "icao": "LEVC",
      "alert": "OK",
      "vis_m": 9999,
      "fzfg": false,
      "metar_trigger": false,
      "taf_trigger": false,
      "metar": "METAR LEVC 092330Z 30003KT CAVOK 15/15 Q1014 NOSIG",
      "taf": "TAF LEVC 092300Z 1000/1024 VRB04KT 9999 FEW020 TX24/1012Z TN13/1005Z"
    },
    {
      "icao": "LEXJ",
      "alert": "OK",
      "vis_m": 9999,
      "fzfg": false,
      "metar_trigger": false,
      "taf_trigger": false,
      "metar": "METAR LEXJ 092330Z AUTO 19010KT 160V230 CAVOK 18/09 Q1008",
      "taf": "TAF LEXJ 092000Z 0921/1021 20009KT 9999 FEW050 TX21/1015Z TN13/1005Z"
    },
    {
      "icao": "LEZG",
      "alert": "OK",
      "vis_m": 9999,
      "fzfg": false,
      "metar_trigger": false,
      "taf_trigger": false,
      "metar": "METAR LEZG 092330Z 08005KT 9999 FEW085 14/12 Q1012 NOSIG",
      "taf": "TAF LEZG 092300Z 1000/1024 VRB04KT 9999 FEW020 TX23/1014Z TN11/1005Z"
    },
    {
      "icao": "LEZL",
      "alert": "OK",
      "vis_m": 9999,
      "fzfg": false,
      "metar_trigger": false,
      "taf_trigger": false,
      "metar": "METAR LEZL 092330Z 18006KT 150V210 9999 FEW030 17/15 Q1014 NOSIG",
      "taf": "TAF LEZL 092000Z 0921/1021 20008KT 9999 SCT030 TX22/1015Z TN12/1007Z"
    },
    {
      "icao": "LFBD",
      "alert": "OK",
      "vis_m": 9999,
      "fzfg": false,
      "metar_trigger": false,
      "taf_trigger": false,
      "metar": "METAR LFBD 092330Z AUTO 14007KT CAVOK 17/12 Q1009 NOSIG",
      "taf": "TAF LFBD 092300Z 1000/1106 16005KT CAVOK TX22/1013Z TN13/1005Z"
    },
    {
      "icao": "LFLL",
      "alert": "OK",
      "vis_m": 9999,
      "fzfg": false,
      "metar_trigger": false,
      "taf_trigger": false,
      "metar": "METAR LFLL 092330Z 21005KT 9999 FEW060CB BKN063 BKN130 18/10 Q1011 TEMPO 4000 SHRA FEW050CB BKN055TCU",
      "taf": "TAF LFLL 092300Z 1000/1106 18005KT CAVOK"
    },
    {
      "icao": "LFLS",
      "alert": "OK",
      "vis_m": 9999,
      "fzfg": false,
      "metar_trigger": false,
      "taf_trigger": false,
      "metar": "METAR LFLS 092330Z AUTO VRB03KT 9999 OVC056/// ///CB 16/11 Q1012",
      "taf": "TAF LFLS 091400Z 0915/1015 30005KT CAVOK"
    },
    {
      "icao": "LFMN",
      "alert": "OK",
      "vis_m": 9999,
      "fzfg": false,
      "metar_trigger": false,
      "taf_trigger": false,
      "metar": "METAR LFMN 092330Z 07017KT 9999 BKN100 19/14 Q1012 NOSIG",
      "taf": "TAF LFMN 092000Z 0921/1103 09020KT 9999 BKN080"
    },
    {
      "icao": "LFOB",
      "alert": "OK",
      "vis_m": 9999,
      "fzfg": false,
      "metar_trigger": false,
      "taf_trigger": false,
      "metar": "METAR LFOB 092330Z AUTO VRB02KT CAVOK 13/08 Q1013 NOSIG",
      "taf": "TAF LFOB 092300Z 1000/1024 06008KT CAVOK"
    },
    {
      "icao": "LFPO",
      "alert": "OK",
      "vis_m": 9999,
      "fzfg": false,
      "metar_trigger": false,
      "taf_trigger": false,
      "metar": "METAR LFPO 092330Z AUTO 03010KT CAVOK 17/09 Q1012 NOSIG",
      "taf": "TAF LFPO 092300Z 1000/1106 04010KT CAVOK"
    },
    {
      "icao": "LFSB",
      "alert": "OK",
      "vis_m": 9999,
      "fzfg": false,
      "metar_trigger": false,
      "taf_trigger": false,
      "metar": "METAR LFSB 092330Z AUTO 29004KT CAVOK 13/09 Q1012 NOSIG",
      "taf": "TAF LFSB 092300Z 1000/1024 VRB03KT CAVOK"
    },
    {
      "icao": "LGAV",
      "alert": "OK",
      "vis_m": 9999,
      "fzfg": false,
      "metar_trigger": false,
      "taf_trigger": false,
      "metar": "METAR LGAV 092350Z 26003KT 9999 FEW030 13/11 Q1015 NOSIG",
      "taf": "TAF LGAV 092300Z 1000/1024 VRB05KT 9999 FEW025"
    },
    {
      "icao": "LGTS",
      "alert": "OK",
      "vis_m": 9999,
      "fzfg": false,
      "metar_trigger": false,
      "taf_trigger": false,
      "metar": "METAR LGTS 092350Z 10004KT 9999 FEW025 14/14 Q1015 NOSIG",
      "taf": "TAF LGTS 092300Z 1000/1024 VRB03KT 9999 FEW025"
    },
    {
      "icao": "LHBP",
      "alert": "OK",
      "vis_m": 9999,
      "fzfg": false,
      "metar_trigger": false,
      "taf_trigger": false,
      "metar": "METAR LHBP 092330Z 10006KT 070V130 CAVOK 13/07 Q1017 NOSIG",
      "taf": "TAF LHBP 092315Z 1000/1024 08008KT CAVOK"
    },
    {
      "icao": "LHDC",
      "alert": "OK",
      "vis_m": 9999,
      "fzfg": false,
      "metar_trigger": false,
      "taf_trigger": false,
      "metar": "METAR LHDC 092315Z AUTO 04007KT CAVOK 11/06 Q1017",
      "taf": "TAF LHDC 091415Z 0915/0924 02007KT CAVOK"
    },
    {
      "icao": "LIBD",
      "alert": "OK",
      "vis_m": 9999,
      "fzfg": false,
      "metar_trigger": false,
      "taf_trigger": false,
      "metar": "METAR LIBD 092320Z 22005KT CAVOK 13/11 Q1016",
      "taf": "TAF LIBD 092342Z 1000/1024 20005KT CAVOK"
    },
    {
      "icao": "LIBG",
      "alert": "OK",
      "vis_m": null,
      "fzfg": false,
      "metar_trigger": false,
      "taf_trigger": false,
      "metar": "",
      "taf": "TAF LIBG 091400Z 0915/0924 VRB05KT 9999 FEW040"
    },
    {
      "icao": "LIBP",
      "alert": "OK",
      "vis_m": 9999,
      "fzfg": false,
      "metar_trigger": false,
      "taf_trigger": false,
      "metar": "METAR LIBP 092320Z AUTO 19002KT 9999 BKN008/// BKN220/// 14/14 Q1016",
      "taf": "TAF LIBP 092342Z 1000/1024 VRB05KT 9999 FEW080"
    },
    {
      "icao": "LIBR",
      "alert": "OK",
      "vis_m": 9999,
      "fzfg": false,
      "metar_trigger": false,
      "taf_trigger": false,
      "metar": "METAR LIBR 092320Z 25003KT CAVOK 14/13 Q1016",
      "taf": "TAF LIBR 092343Z 1000/1024 25005KT CAVOK"
    },
    {
      "icao": "LICA",
      "alert": "OK",
      "vis_m": 9999,
      "fzfg": false,
      "metar_trigger": false,
      "taf_trigger": false,
      "metar": "METAR LICA 092320Z AUTO 06016KT 9999 BKN140/// 19/13 Q1015",
      "taf": "TAF LICA 092352Z 1000/1024 08015KT 9999 FEW080"
    },
    {
      "icao": "LICC",
      "alert": "OK",
      "vis_m": 9999,
      "fzfg": false,
      "metar_trigger": false,
      "taf_trigger": false,
      "metar": "METAR LICC 092320Z 06008KT CAVOK 19/16 Q1016",
      "taf": "TAF LICC 092349Z 1000/1024 VRB05KT 9999 SCT025"
    },
    {
      "icao": "LICJ",
      "alert": "OK",
      "vis_m": 7000,
      "fzfg": false,
      "metar_trigger": false,
      "taf_trigger": false,
      "metar": "METAR LICJ 092320Z 32013KT 7000 -RA BKN050 19/17 Q1018",
      "taf": "TAF LICJ 092350Z 1000/1024 VRB05KT 9999 FEW040"
    },
    {
      "icao": "LIMC",
      "alert": "OK",
      "vis_m": 9999,
      "fzfg": false,
      "metar_trigger": false,
      "taf_trigger": false,
      "metar": "METAR LIMC 092320Z VRB02KT 9999 FEW090 14/10 Q1015 NOSIG",
      "taf": "TAF LIMC 092340Z 1000/1106 VRB05KT 9999 BKN050"
    },
    {
      "icao": "LIME",
      "alert": "OK",
      "vis_m": 9999,
      "fzfg": false,
      "metar_trigger": false,
      "taf_trigger": false,
      "metar": "METAR LIME 092320Z 02004KT CAVOK 16/10 Q1015 NOSIG",
      "taf": "TAF LIME 092342Z 1000/1024 VRB05KT 9999 SCT050"
    },
    {
      "icao": "LIMF",
      "alert": "OK",
      "vis_m": 9999,
      "fzfg": false,
      "metar_trigger": false,
      "taf_trigger": false,
      "metar": "METAR LIMF 092320Z 32007KT 9999 SCT060 18/11 Q1015",
      "taf": "TAF LIMF 092345Z 1000/1024 VRB05KT 9999 BKN050"
    },
    {
      "icao": "LIMJ",
      "alert": "OK",
      "vis_m": 9999,
      "fzfg": false,
      "metar_trigger": false,
      "taf_trigger": false,
      "metar": "METAR LIMJ 092320Z 02004KT 9999 SCT070 18/12 Q1014",
      "taf": "TAF LIMJ 092346Z 1000/1024 VRB05KT 9999 SCT020"
    },
    {
      "icao": "LIPE",
      "alert": "OK",
      "vis_m": 9999,
      "fzfg": false,
      "metar_trigger": false,
      "taf_trigger": false,
      "metar": "METAR LIPE 092350Z 09003KT CAVOK 15/11 Q1014",
      "taf": "TAF LIPE 092341Z 1000/1024 VRB05KT 9999 FEW060"
    },
    {
      "icao": "LIPH",
      "alert": "OK",
      "vis_m": 9999,
      "fzfg": false,
      "metar_trigger": false,
      "taf_trigger": false,
      "metar": "METAR LIPH 092320Z AUTO 02004KT 350V050 9999 FEW061/// 17/12 Q1015",
      "taf": "TAF LIPH 092340Z 1000/1024 VRB05KT CAVOK"
    },
    {
      "icao": "LIPQ",
      "alert": "OK",
      "vis_m": 9999,
      "fzfg": false,
      "metar_trigger": false,
      "taf_trigger": false,
      "metar": "METAR LIPQ 092320Z AUTO 06003KT 030V110 9999 NCD 12/11 Q1016",
      "taf": "TAF LIPQ 092340Z 1000/1024 VRB05KT CAVOK"
    },
    {
      "icao": "LIPR",
      "alert": "OK",
      "vis_m": 9999,
      "fzfg": false,
      "metar_trigger": false,
      "taf_trigger": false,
      "metar": "METAR LIPR 092320Z AUTO 20002KT 9999 FEW091/// 16/11 Q1015",
      "taf": "TAF LIPR 092341Z 1000/1024 VRB05KT 9999 FEW060"
    },
    {
      "icao": "LIPX",
      "alert": "OK",
      "vis_m": 9999,
      "fzfg": false,
      "metar_trigger": false,
      "taf_trigger": false,
      "metar": "METAR LIPX 092350Z VRB02KT CAVOK 15/11 Q1015",
      "taf": "TAF LIPX 092343Z 1000/1024 VRB05KT 9999 SCT040"
    },
    {
      "icao": "LIPY",
      "alert": "OK",
      "vis_m": 9999,
      "fzfg": false,
      "metar_trigger": false,
      "taf_trigger": false,
      "metar": "METAR LIPY 092320Z AUTO 25003KT 9999 BKN100/// BKN210/// 14/12 Q1015",
      "taf": "TAF LIPY 092341Z 1000/1024 VRB05KT 9999 FEW060"
    },
    {
      "icao": "LIPZ",
      "alert": "OK",
      "vis_m": 9999,
      "fzfg": false,
      "metar_trigger": false,
      "taf_trigger": false,
      "metar": "METAR LIPZ 092320Z 10002KT 9999 FEW060 18/15 Q1015 NOSIG",
      "taf": "TAF LIPZ 092338Z 1000/1106 VRB05KT 9999 FEW060"
    },
    {
      "icao": "LIRF",
      "alert": "OK",
      "vis_m": 9000,
      "fzfg": false,
      "metar_trigger": false,
      "taf_trigger": false,
      "metar": "METAR LIRF 092320Z 20004KT 160V220 9000 -DZ FEW050 18/15 Q1016 NOSIG",
      "taf": "TAF LIRF 092336Z 1000/1106 VRB05KT 9999 SCT040"
    },
    {
      "icao": "LIRN",
      "alert": "OK",
      "vis_m": 9999,
      "fzfg": false,
      "metar_trigger": false,
      "taf_trigger": false,
      "metar": "METAR LIRN 092320Z 03003KT 320V090 CAVOK 18/14 Q1014 NOSIG",
      "taf": "TAF LIRN 092351Z 1000/1024 VRB05KT 9999 FEW050"
    },
    {
      "icao": "LIRP",
      "alert": "OK",
      "vis_m": 9999,
      "fzfg": false,
      "metar_trigger": false,
      "taf_trigger": false,
      "metar": "METAR LIRP 092345Z 12003KT CAVOK 15/14 Q1014 NOSIG",
      "taf": "TAF LIRP 092300Z 1000/1024 VRB03KT 9999 FEW030 SCT070"
    },
    {
      "icao": "LIRZ",
      "alert": "OK",
      "vis_m": 9999,
      "fzfg": false,
      "metar_trigger": false,
      "taf_trigger": false,
      "metar": "METAR LIRZ 092320Z AUTO 03004KT 9999 SCT065/// BKN150/// 15/13 Q1016",
      "taf": "TAF LIRZ 091700Z 0918/1018 VRB05KT 9999 FEW060"
    },
    {
      "icao": "LJLJ",
      "alert": "OK",
      "vis_m": 9999,
      "fzfg": false,
      "metar_trigger": false,
      "taf_trigger": false,
      "metar": "METAR LJLJ 092330Z VRB01KT 9999 FEW050 11/09 Q1017 NOSIG",
      "taf": "TAF LJLJ 092300Z 1000/1100 12005KT 9999 SCT060"
    },
    {
      "icao": "LKMT",
      "alert": "OK",
      "vis_m": 5000,
      "fzfg": false,
      "metar_trigger": false,
      "taf_trigger": false,
      "metar": "METAR LKMT 092330Z 03002KT 5000 BR NSC 05/05 Q1019 NOSIG",
      "taf": "TAF LKMT 092300Z 1000/1024 VRB02KT CAVOK"
    },
    {
      "icao": "LKPR",
      "alert": "OK",
      "vis_m": 9999,
      "fzfg": false,
      "metar_trigger": false,
      "taf_trigger": false,
      "metar": "METAR LKPR 092330Z 11005KT CAVOK 08/04 Q1018 NOSIG",
      "taf": "TAF LKPR 092300Z 1000/1106 09006KT CAVOK"
    },
    {
      "icao": "LLBG",
      "alert": "OK",
      "vis_m": 9999,
      "fzfg": false,
      "metar_trigger": false,
      "taf_trigger": false,
      "metar": "METAR LLBG 092350Z 13004KT CAVOK 17/13 Q1015 NOSIG",
      "taf": "TAF LLBG 092314Z 1000/1024 VRB04KT CAVOK TX28/1012Z TN15/1003Z"
    },
    {
      "icao": "LMML",
      "alert": "OK",
      "vis_m": 9999,
      "fzfg": false,
      "metar_trigger": false,
      "taf_trigger": false,
      "metar": "METAR LMML 092245Z 08011KT 9999 FEW005 18/17 Q1015 NOSIG",
      "taf": "TAF LMML 092300Z 1000/1024 08017KT 9999 FEW012"
    },
    {
      "icao": "LOWW",
      "alert": "OK",
      "vis_m": 9999,
      "fzfg": false,
      "metar_trigger": false,
      "taf_trigger": false,
      "metar": "METAR LOWW 092350Z 34004KT CAVOK 09/05 Q1017 NOSIG",
      "taf": "TAF LOWW 092315Z 1000/1106 33003KT CAVOK TX23/1015Z TN08/1003Z"
    },
    {
      "icao": "LPFR",
      "alert": "OK",
      "vis_m": 9999,
      "fzfg": false,
      "metar_trigger": false,
      "taf_trigger": false,
      "metar": "METAR LPFR 092330Z 21009KT 9999 -RA FEW020 17/14 Q1013",
      "taf": "TAF LPFR 092300Z 1000/1024 24012KT 9999 SCT020"
    },
    {
      "icao": "LPMA",
      "alert": "OK",
      "vis_m": 9999,
      "fzfg": false,
      "metar_trigger": false,
      "taf_trigger": false,
      "metar": "METAR LPMA 092330Z VRB01KT 9999 FEW015 15/11 Q1015",
      "taf": "TAF LPMA 092300Z 1000/1024 VRB05KT 9999 SCT015"
    },
    {
      "icao": "LPPR",
      "alert": "OK",
      "vis_m": 9999,
      "fzfg": false,
      "metar_trigger": false,
      "taf_trigger": false,
      "metar": "METAR LPPR 092330Z 15013KT 9999 FEW018 FEW025CB SCT040 13/10 Q1008",
      "taf": "TAF LPPR 092300Z 1000/1024 12010KT 9999 SCT020"
    },
    {
      "icao": "LPPS",
      "alert": "OK",
      "vis_m": 9999,
      "fzfg": false,
      "metar_trigger": false,
      "taf_trigger": false,
      "metar": "METAR LPPS 092330Z 28012KT 9999 SCT015 16/09 Q1015",
      "taf": "TAF LPPS 092300Z 1000/1106 27013KT 9999 SCT015"
    },
    {
      "icao": "LPPT",
      "alert": "OK",
      "vis_m": 9999,
      "fzfg": false,
      "metar_trigger": false,
      "taf_trigger": false,
      "metar": "METAR LPPT 092330Z 20010KT 9999 SHRA FEW016 SCT020 FEW025CB 14/12 Q1010",
      "taf": "TAF LPPT 092300Z 1000/1106 21012KT 9999 SCT020"
    },
    {
      "icao": "LQBK",
      "alert": "OK",
      "vis_m": 9999,
      "fzfg": false,
      "metar_trigger": false,
      "taf_trigger": false,
      "metar": "METAR LQBK 092330Z 00000KT CAVOK 09/07 Q1016 NOSIG",
      "taf": "TAF LQBK 092300Z 1000/1024 16005KT CAVOK TX25/1013Z TN08/1004Z"
    },
    {
      "icao": "LQSA",
      "alert": "OK",
      "vis_m": 9999,
      "fzfg": false,
      "metar_trigger": false,
      "taf_trigger": false,
      "metar": "METAR LQSA 092330Z VRB01KT CAVOK 09/09 Q1018",
      "taf": "TAF LQSA 092300Z 1000/1024 VRB02KT CAVOK TX23/1014Z TN08/1004Z"
    },
    {
      "icao": "LQTZ",
      "alert": "OK",
      "vis_m": 9999,
      "fzfg": false,
      "metar_trigger": false,
      "taf_trigger": false,
      "metar": "METAR LQTZ 092330Z VRB02KT 9999 MIFG NSC 08/08 Q1017",
      "taf": "TAF LQTZ 092300Z 1000/1024 VRB02KT CAVOK TX25/1013Z TN07/1004Z"
    },
    {
      "icao": "LRBC",
      "alert": "OK",
      "vis_m": 5000,
      "fzfg": false,
      "metar_trigger": false,
      "taf_trigger": false,
      "metar": "METAR LRBC 092330Z 33010KT 5000 +DZ BR OVC006 13/13 Q1016",
      "taf": "TAF LRBC 092300Z 1000/1009 34010KT 5000 -RA BR BKN010 OVC030"
    },
    {
      "icao": "LRBS",
      "alert": "OK",
      "vis_m": 5000,
      "fzfg": false,
      "metar_trigger": false,
      "taf_trigger": false,
      "metar": "METAR LRBS 092330Z 33003KT 300V010 5000 MIFG BR NSC 13/13 Q1015 NOSIG",
      "taf": "TAF LRBS 092300Z 1000/1024 34006KT 5000 BR BKN030"
    },
    {
      "icao": "LRBV",
      "alert": "OK",
      "vis_m": 9999,
      "fzfg": false,
      "metar_trigger": false,
      "taf_trigger": false,
      "metar": "METAR LRBV 092330Z AUTO 29009KT 9999 -RA FEW009/// OVC015/// 12/11 Q1016 REDZ",
      "taf": "TAF LRBV 091700Z 0918/1003 VRB04KT 5000 -RA BR SCT015 BKN030"
    },
    {
      "icao": "LRCL",
      "alert": "OK",
      "vis_m": 2500,
      "fzfg": false,
      "metar_trigger": false,
      "taf_trigger": false,
      "metar": "METAR LRCL 092330Z 00000KT 2500 MIFG BR FEW006 09/09 Q1016",
      "taf": "TAF LRCL 092300Z 1000/1009 VRB04KT 5000 BR SCT050"
    },
    {
      "icao": "LRCV",
      "alert": "OK",
      "vis_m": 4300,
      "fzfg": false,
      "metar_trigger": false,
      "taf_trigger": false,
      "metar": "METAR LRCV 092330Z 04004KT 4300 BR OVC002 15/15 Q1015",
      "taf": "TAF LRCV 092300Z 1000/1009 VRB04KT 5000 BR BKN005 BKN025"
    },
    {
      "icao": "LRIA",
      "alert": "OK",
      "vis_m": 9999,
      "fzfg": false,
      "metar_trigger": false,
      "taf_trigger": false,
      "metar": "METAR LRIA 092330Z 32010KT 9999 BKN003 OVC020 14/13 Q1015",
      "taf": "TAF LRIA 092300Z 1000/1009 33010KT 5000 -RA BR BKN010 OVC030"
    },
    {
      "icao": "LROP",
      "alert": "OK",
      "vis_m": 8000,
      "fzfg": false,
      "metar_trigger": false,
      "taf_trigger": false,
      "metar": "METAR LROP 092330Z 34005KT 8000 NSC 13/13 Q1015 NOSIG",
      "taf": "TAF LROP 092300Z 1000/1024 34006KT 7000 BKN030"
    },
    {
      "icao": "LRSB",
      "alert": "OK",
      "vis_m": 9999,
      "fzfg": false,
      "metar_trigger": false,
      "taf_trigger": false,
      "metar": "METAR LRSB 092330Z 27004KT 9999 BKN050 11/10 Q1016",
      "taf": "TAF LRSB 092300Z 1000/1024 VRB04KT 9999 BKN030"
    },
    {
      "icao": "LRSM",
      "alert": "OK",
      "vis_m": 9999,
      "fzfg": false,
      "metar_trigger": false,
      "taf_trigger": false,
      "metar": "METAR LRSM 092330Z AUTO 19004KT 9999 FEW065/// SCT090/// 10/08 Q1016",
      "taf": "TAF LRSM 091400Z 0915/0924 34006KT CAVOK"
    },
    {
      "icao": "LRSV",
      "alert": "OK",
      "vis_m": 6000,
      "fzfg": false,
      "metar_trigger": false,
      "taf_trigger": false,
      "metar": "METAR LRSV 092330Z 32007KT 6000 -RA SCT005 BKN033 12/11 Q1016",
      "taf": "TAF LRSV 092300Z 1000/1009 34008KT 5000 -RA BR BKN010 BKN040"
    },
    {
      "icao": "LRTM",
      "alert": "OK",
      "vis_m": 5000,
      "fzfg": false,
      "metar_trigger": false,
      "taf_trigger": false,
      "metar": "METAR LRTM 092330Z 00000KT 5000 BR MIFG FEW002 11/11 Q1016",
      "taf": "TAF LRTM 092300Z 1000/1009 VRB04KT 5000 BR SCT050"
    },
    {
      "icao": "LRTR",
      "alert": "OK",
      "vis_m": 9999,
      "fzfg": false,
      "metar_trigger": false,
      "taf_trigger": false,
      "metar": "METAR LRTR 092330Z 09005KT CAVOK 10/10 Q1016",
      "taf": "TAF LRTR 092300Z 1000/1024 08005KT 5000 BR SCT045"
    },
    {
      "icao": "LTAC",
      "alert": "OK",
      "vis_m": 6000,
      "fzfg": false,
      "metar_trigger": false,
      "taf_trigger": false,
      "metar": "METAR LTAC 092350Z 27003KT 6000 FEW040 SCT080 11/10 Q1018 NOSIG",
      "taf": "TAF LTAC 092240Z 1000/1024 VRB02KT 9999 SCT040 SCT100"
    },
    {
      "icao": "LTFM",
      "alert": "OK",
      "vis_m": 9999,
      "fzfg": false,
      "metar_trigger": false,
      "taf_trigger": false,
      "metar": "METAR LTFM 092350Z 21007KT 9999 SCT035 BKN100 16/13 Q1014 NOSIG",
      "taf": "TAF LTFM 092240Z 1000/1106 20010KT 9999 SCT035 BKN100"
    },
    {
      "icao": "LUKK",
      "alert": "OK",
      "vis_m": 9999,
      "fzfg": false,
      "metar_trigger": false,
      "taf_trigger": false,
      "metar": "METAR LUKK 092330Z VRB03KT 9999 -SHRA SCT030 BKN046CB 14/13 Q1015 TEMPO 5000 SHRA",
      "taf": ""
    },
    {
      "icao": "LWOH",
      "alert": "OK",
      "vis_m": null,
      "fzfg": false,
      "metar_trigger": false,
      "taf_trigger": false,
      "metar": "",
      "taf": "TAF LWOH 092325Z 1000/1024 34005KT CAVOK"
    },
    {
      "icao": "LWSK",
      "alert": "OK",
      "vis_m": 9999,
      "fzfg": false,
      "metar_trigger": false,
      "taf_trigger": false,
      "metar": "METAR LWSK 092350Z VRB02KT CAVOK 10/09 Q1017 NOSIG",
      "taf": "TAF LWSK 092325Z 1000/1024 VRB02KT CAVOK"
    },
    {
      "icao": "LYBE",
      "alert": "OK",
      "vis_m": 9999,
      "fzfg": false,
      "metar_trigger": false,
      "taf_trigger": false,
      "metar": "METAR LYBE 092330Z 26003KT 150V270 CAVOK 13/12 Q1016 NOSIG",
      "taf": "TAF LYBE 092300Z 1000/1024 20005KT CAVOK TX26/1014Z TN11/1003Z"
    },
    {
      "icao": "LYNI",
      "alert": "OK",
      "vis_m": 8000,
      "fzfg": false,
      "metar_trigger": false,
      "taf_trigger": false,
      "metar": "METAR LYNI 092330Z 08002KT 8000 MIFG NSC 12/12 Q1017 BECMG 3000 BR",
      "taf": "TAF LYNI 092300Z 1000/1024 09004KT 8000 SCT040 TX24/1013Z TN09/1003Z"
    },
    {
      "icao": "LYPG",
      "alert": "OK",
      "vis_m": 9999,
      "fzfg": false,
      "metar_trigger": false,
      "taf_trigger": false,
      "metar": "METAR LYPG 092330Z 32004KT CAVOK 14/14 Q1017 NOSIG",
      "taf": "TAF LYPG 092300Z 1000/1024 36005KT 9999 FEW080 TX23/1014Z TN13/1004Z"
    },
    {
      "icao": "LZIB",
      "alert": "OK",
      "vis_m": 9999,
      "fzfg": false,
      "metar_trigger": false,
      "taf_trigger": false,
      "metar": "METAR LZIB 092330Z VRB02KT CAVOK 10/05 Q1017 NOSIG",
      "taf": "TAF LZIB 092315Z 1000/1100 VRB02KT CAVOK"
    },
    {
      "icao": "LZKZ",
      "alert": "OK",
      "vis_m": 9999,
      "fzfg": false,
      "metar_trigger": false,
      "taf_trigger": false,
      "metar": "METAR LZKZ 092330Z 01009KT 9999 SCT047 12/06 Q1018 NOSIG",
      "taf": "TAF LZKZ 092315Z 1000/1100 02012KT CAVOK"
    },
    {
      "icao": "LZTT",
      "alert": "OK",
      "vis_m": 9999,
      "fzfg": false,
      "metar_trigger": false,
      "taf_trigger": false,
      "metar": "METAR LZTT 092330Z 07003KT 9999 FEW012 OVC026 07/05 Q1018",
      "taf": "TAF LZTT 092315Z 1000/1100 VRB02KT 9999 FEW015 BKN025"
    },
    {
      "icao": "OEJN",
      "alert": "OK",
      "vis_m": 9999,
      "fzfg": false,
      "metar_trigger": false,
      "taf_trigger": false,
      "metar": "METAR OEJN 092300Z 33006KT CAVOK 27/21 Q1007 NOSIG",
      "taf": "TAF OEJN 092300Z 1000/1106 VRB03KT 7000 NSC"
    },
    {
      "icao": "OEMA",
      "alert": "OK",
      "vis_m": 9999,
      "fzfg": false,
      "metar_trigger": false,
      "taf_trigger": false,
      "metar": "METAR OEMA 092300Z 01004KT CAVOK 30/01 Q1012 NOSIG",
      "taf": "TAF OEMA 092300Z 1000/1106 VRB03KT 7000 NSC"
    },
    {
      "icao": "OJAI",
      "alert": "OK",
      "vis_m": 4000,
      "fzfg": false,
      "metar_trigger": false,
      "taf_trigger": false,
      "metar": "METAR OJAI 092300Z 00000KT 4000 HZ NSC 16/05 Q1017 NOSIG",
      "taf": "TAF OJAI 092300Z 1000/1106 29010KT 6000 NSC"
    },
    {
      "icao": "OMAA",
      "alert": "OK",
      "vis_m": 9999,
      "fzfg": false,
      "metar_trigger": false,
      "taf_trigger": false,
      "metar": "METAR OMAA 092330Z 31010KT 290V020 CAVOK 29/20 Q1007 NOSIG",
      "taf": "TAF OMAA 092300Z 1000/1106 31014KT 8000 NSC"
    },
    {
      "icao": "OMDB",
      "alert": "OK",
      "vis_m": 9999,
      "fzfg": false,
      "metar_trigger": false,
      "taf_trigger": false,
      "metar": "METAR OMDB 092300Z 19006KT 110V230 CAVOK 29/19 Q1006 NOSIG",
      "taf": "TAF OMDB 092300Z 1000/1106 20007KT CAVOK"
    },
    {
      "icao": "UAAA",
      "alert": "OK",
      "vis_m": 9999,
      "fzfg": false,
      "metar_trigger": false,
      "taf_trigger": false,
      "metar": "METAR UAAA 092330Z 27007MPS 9999 BKN050CB OVC100 20/12 Q1013 NOSIG",
      "taf": ""
    },
    {
      "icao": "UBBB",
      "alert": "OK",
      "vis_m": 9999,
      "fzfg": false,
      "metar_trigger": false,
      "taf_trigger": false,
      "metar": "METAR UBBB 092330Z 24004KT CAVOK 17/11 Q1016 NOSIG",
      "taf": "TAF UBBB 092308Z 1000/1024 23005KT CAVOK TX25/1010Z TN14/1001Z"
    },
    {
      "icao": "UDSG",
      "alert": "OK",
      "vis_m": 9999,
      "fzfg": false,
      "metar_trigger": false,
      "taf_trigger": false,
      "metar": "METAR UDSG 092330Z 17001KT 9999 NSC 05/02 Q1023 NOSIG",
      "taf": "TAF UDSG 092300Z 1000/1024 06006KT 9999 SCT050"
    },
    {
      "icao": "UDYZ",
      "alert": "OK",
      "vis_m": 9999,
      "fzfg": false,
      "metar_trigger": false,
      "taf_trigger": false,
      "metar": "METAR UDYZ 092330Z 12003KT 050V200 9999 NSC 12/04 Q1019 NOSIG",
      "taf": "TAF UDYZ 092300Z 1000/1024 14006KT 9999 FEW040"
    },
    {
      "icao": "UGKO",
      "alert": "OK",
      "vis_m": 9999,
      "fzfg": false,
      "metar_trigger": false,
      "taf_trigger": false,
      "metar": "METAR UGKO 092330Z 13007KT CAVOK 12/09 Q1015 NOSIG",
      "taf": "TAF UGKO 092300Z 1000/1024 09010KT CAVOK TX29/1011Z TN12/1001Z"
    }
  ]
}