{
  "ts_utc": "2025-12-19T11:49:25Z",
  "threshold_m": 150,
  "source": "stations_override.txt (ICAO list) + aviationweather.gov (METAR/TAF raw)",
  "station_count": 114,
  "stations": [
    {
      "icao": "BIKF",
      "alert": "OK",
      "vis_m": 9999,
      "fzfg": false,
      "metar_trigger": false,
      "taf_trigger": false,
      "metar": "METAR BIKF 191130Z 08010KT 9999 BKN018 BKN034 OVC076 03/01 Q0980",
      "taf": "TAF BIKF 191031Z 1912/2012 09012KT 9999 SCT020 BKN030 TX09/2012Z TN02/1912Z"
    },
    {
      "icao": "BKPR",
      "alert": "OK",
      "vis_m": 6000,
      "fzfg": false,
      "metar_trigger": false,
      "taf_trigger": false,
      "metar": "METAR BKPR 191130Z 11002KT 6000 NSC 06/03 Q1027 NOSIG",
      "taf": "TAF BKPR 191130Z 1912/2012 VRB03KT CAVOK"
    },
    {
      "icao": "EBBR",
      "alert": "OK",
      "vis_m": 9999,
      "fzfg": false,
      "metar_trigger": false,
      "taf_trigger": false,
      "metar": "METAR EBBR 191120Z 25009KT 9999 BKN011 11/08 Q1018 NOSIG",
      "taf": "TAF EBBR 191120Z 1912/2018 25007KT 9999 FEW015 SCT030"
    },
    {
      "icao": "EBCI",
      "alert": "OK",
      "vis_m": 9999,
      "fzfg": false,
      "metar_trigger": false,
      "taf_trigger": false,
      "metar": "METAR EBCI 191120Z 26007KT 230V290 9999 SCT010 BKN035 10/08 Q1018 TEMPO BKN012",
      "taf": "TAF EBCI 191120Z 1912/2018 26006KT 9999 SCT012 SCT030"
    },
    {
      "icao": "EDDB",
      "alert": "OK",
      "vis_m": 9999,
      "fzfg": false,
      "metar_trigger": false,
      "taf_trigger": false,
      "metar": "METAR EDDB 191120Z AUTO 20009KT CAVOK 08/04 Q1019 NOSIG",
      "taf": "TAF EDDB 191100Z 1912/2012 18007KT 9999 SCT030"
    },
    {
      "icao": "EDDH",
      "alert": "OK",
      "vis_m": 9999,
      "fzfg": false,
      "metar_trigger": false,
      "taf_trigger": false,
      "metar": "METAR EDDH 191120Z AUTO 20010KT 9999 OVC017 11/08 Q1014 TEMPO 4500 -RADZ BKN006",
      "taf": "TAF EDDH 191100Z 1912/2018 22008KT CAVOK"
    },
    {
      "icao": "EDDK",
      "alert": "OK",
      "vis_m": 9999,
      "fzfg": false,
      "metar_trigger": false,
      "taf_trigger": false,
      "metar": "METAR EDDK 191120Z AUTO 19008KT 9999 -RA FEW023 BKN031 13/09 Q1018 RESHRA TEMPO RA",
      "taf": "TAF EDDK 191100Z 1912/2018 17008KT 9999 BKN030"
    },
    {
      "icao": "EDDN",
      "alert": "OK",
      "vis_m": 9999,
      "fzfg": false,
      "metar_trigger": false,
      "taf_trigger": false,
      "metar": "METAR EDDN 191120Z AUTO 14007KT CAVOK 05/02 Q1023 NOSIG",
      "taf": "TAF EDDN 191100Z 1912/2012 14007KT CAVOK"
    },
    {
      "icao": "EDFH",
      "alert": "OK",
      "vis_m": 9999,
      "fzfg": false,
      "metar_trigger": false,
      "taf_trigger": false,
      "metar": "METAR EDFH 191120Z 22012KT 190V250 9999 -RA SCT009 BKN012 10/08 Q1019",
      "taf": "TAF EDFH 191100Z 1912/2012 23010KT 9999 BKN012"
    },
    {
      "icao": "EDJA",
      "alert": "OK",
      "vis_m": 9999,
      "fzfg": false,
      "metar_trigger": false,
      "taf_trigger": false,
      "metar": "METAR EDJA 191120Z 22007KT CAVOK 08/02 Q1023",
      "taf": "TAF EDJA 191100Z 1912/1921 22007KT CAVOK"
    },
    {
      "icao": "EDLW",
      "alert": "OK",
      "vis_m": 9999,
      "fzfg": false,
      "metar_trigger": false,
      "taf_trigger": false,
      "metar": "METAR EDLW 191120Z 19010KT 9999 FEW020 OVC023 11/10 Q1016",
      "taf": "TAF EDLW 191100Z 1912/2012 21011KT 9999 BKN020"
    },
    {
      "icao": "EDSB",
      "alert": "OK",
      "vis_m": 9999,
      "fzfg": false,
      "metar_trigger": false,
      "taf_trigger": false,
      "metar": "METAR EDSB 191120Z 21004KT CAVOK 09/06 Q1021",
      "taf": "TAF EDSB 191100Z 1912/2012 21006KT CAVOK"
    },
    {
      "icao": "EETN",
      "alert": "OK",
      "vis_m": 9999,
      "fzfg": false,
      "metar_trigger": false,
      "taf_trigger": false,
      "metar": "METAR EETN 191120Z 20014KT 160V220 9999 OVC011 05/03 Q1015 TEMPO OVC008",
      "taf": "TAF EETN 191130Z 1912/2012 20014KT 9999 OVC012"
    },
    {
      "icao": "EFHK",
      "alert": "OK",
      "vis_m": 9999,
      "fzfg": false,
      "metar_trigger": false,
      "taf_trigger": false,
      "metar": "METAR EFHK 191120Z 19014KT 9999 FEW009 BKN012 06/04 Q1013 TEMPO BKN008",
      "taf": "TAF EFHK 191125Z 1912/2012 21014KT 9999 BKN008"
    },
    {
      "icao": "EFTU",
      "alert": "OK",
      "vis_m": 9999,
      "fzfg": false,
      "metar_trigger": false,
      "taf_trigger": false,
      "metar": "METAR EFTU 191120Z AUTO 20012KT 9999 OVC008 07/06 Q1009",
      "taf": "TAF EFTU 191125Z 1912/2012 22010G21KT 9999 BKN008"
    },
    {
      "icao": "EGGW",
      "alert": "OK",
      "vis_m": 9999,
      "fzfg": false,
      "metar_trigger": false,
      "taf_trigger": false,
      "metar": "METAR EGGW 191120Z AUTO 22011KT 9999 NCD 08/05 Q1015",
      "taf": "TAF EGGW 191056Z 1912/2012 23010KT 9999 FEW020"
    },
    {
      "icao": "EGKK",
      "alert": "OK",
      "vis_m": 9999,
      "fzfg": false,
      "metar_trigger": false,
      "taf_trigger": false,
      "metar": "METAR EGKK 191120Z 23008KT CAVOK 10/07 Q1017",
      "taf": "TAF EGKK 191056Z 1912/2018 22010KT CAVOK"
    },
    {
      "icao": "EHEH",
      "alert": "OK",
      "vis_m": 9999,
      "fzfg": false,
      "metar_trigger": false,
      "taf_trigger": false,
      "metar": "METAR EHEH 191125Z AUTO 23009KT 190V250 9999 FEW007 SCT008 OVC009 10/09 Q1017 GRN TEMPO BKN011 RMK TREND REMOTE BY EHWX",
      "taf": "TAF EHEH 190600Z 1907/2013 21010KT 8000 SCT012 BKN018"
    },
    {
      "icao": "EKBI",
      "alert": "OK",
      "vis_m": 9999,
      "fzfg": false,
      "metar_trigger": false,
      "taf_trigger": false,
      "metar": "METAR EKBI 191120Z 22011KT 9999 BKN007 10/09 Q1011",
      "taf": "TAF EKBI 191127Z 1912/2012 22012KT 9999 BKN007"
    },
    {
      "icao": "EKCH",
      "alert": "OK",
      "vis_m": 9999,
      "fzfg": false,
      "metar_trigger": false,
      "taf_trigger": false,
      "metar": "METAR EKCH 191120Z AUTO 19009KT 9999 OVC070/// 08/06 Q1013 NOSIG",
      "taf": "TAF EKCH 191127Z 1912/2012 19012KT 9999 BKN015"
    },
    {
      "icao": "ENTO",
      "alert": "OK",
      "vis_m": 9999,
      "fzfg": false,
      "metar_trigger": false,
      "taf_trigger": false,
      "metar": "METAR ENTO 191120Z 21017KT CAVOK 08/06 Q1003 NOSIG",
      "taf": "TAF ENTO 191100Z 1912/2012 18012KT 9999 SCT020"
    },
    {
      "icao": "EPGD",
      "alert": "OK",
      "vis_m": 9999,
      "fzfg": false,
      "metar_trigger": false,
      "taf_trigger": false,
      "metar": "METAR EPGD 191130Z 20009KT CAVOK 07/03 Q1018",
      "taf": "TAF EPGD 191130Z 1912/2012 20010KT CAVOK"
    },
    {
      "icao": "EPKK",
      "alert": "OK",
      "vis_m": 4000,
      "fzfg": false,
      "metar_trigger": false,
      "taf_trigger": false,
      "metar": "METAR EPKK 191130Z VRB01KT 4000 BR NSC 04/03 Q1024",
      "taf": "TAF EPKK 191130Z 1912/2012 VRB02KT 3500 BR FEW004"
    },
    {
      "icao": "EPKT",
      "alert": "OK",
      "vis_m": 1400,
      "fzfg": false,
      "metar_trigger": false,
      "taf_trigger": false,
      "metar": "METAR EPKT 191130Z 21004KT 170V230 1400 0600NW R26/P2000N PRFG BR SCT001 05/04 Q1023",
      "taf": "TAF EPKT 191130Z 1912/2012 20005KT 1500 BR FEW002"
    },
    {
      "icao": "EPWA",
      "alert": "OK",
      "vis_m": 1400,
      "fzfg": false,
      "metar_trigger": false,
      "taf_trigger": false,
      "metar": "METAR EPWA 191130Z 14009KT 1400 1000SE R33/1200D BR OVC002 03/03 Q1024 BECMG 3000 BR",
      "taf": "TAF EPWA 191130Z 1912/2012 14008KT 2000 BR OVC002"
    },
    {
      "icao": "EPWR",
      "alert": "OK",
      "vis_m": 9999,
      "fzfg": false,
      "metar_trigger": false,
      "taf_trigger": false,
      "metar": "METAR EPWR 191130Z 13005KT CAVOK 07/04 Q1022",
      "taf": "TAF EPWR 191130Z 1912/2012 15006KT CAVOK"
    },
    {
      "icao": "ESGG",
      "alert": "OK",
      "vis_m": 9999,
      "fzfg": false,
      "metar_trigger": false,
      "taf_trigger": false,
      "metar": "METAR ESGG 191120Z 21012KT 9999 BKN006 08/07 Q1008",
      "taf": "TAF ESGG 191130Z 1912/2012 19013KT 9999 BKN006"
    },
    {
      "icao": "ESKN",
      "alert": "OK",
      "vis_m": 9999,
      "fzfg": false,
      "metar_trigger": false,
      "taf_trigger": false,
      "metar": "METAR ESKN 191120Z 17006KT 9999 FEW010 SCT014 BKN020 07/06 Q1008",
      "taf": "TAF ESKN 191130Z 1912/2012 16010KT 9999 BKN013"
    },
    {
      "icao": "ESMX",
      "alert": "OK",
      "vis_m": 9999,
      "fzfg": false,
      "metar_trigger": false,
      "taf_trigger": false,
      "metar": "METAR ESMX 191120Z 19009KT 9999 OVC007 08/08 Q1011",
      "taf": "TAF ESMX 191130Z 1912/1918 19010KT 9999 OVC010"
    },
    {
      "icao": "EVRA",
      "alert": "OK",
      "vis_m": 7000,
      "fzfg": false,
      "metar_trigger": false,
      "taf_trigger": false,
      "metar": "METAR EVRA 191120Z 18013KT 7000 OVC003 03/03 Q1019 NOSIG",
      "taf": "TAF EVRA 191109Z 1912/2012 18010KT 6000 OVC002"
    },
    {
      "icao": "EYKA",
      "alert": "OK",
      "vis_m": 1600,
      "fzfg": false,
      "metar_trigger": false,
      "taf_trigger": false,
      "metar": "METAR EYKA 191120Z 17006KT 120V240 1600 R26/1400N BR OVC001 01/01 Q1023",
      "taf": "TAF EYKA 191117Z 1912/2012 19008KT 1500 BR OVC002"
    },
    {
      "icao": "EYVI",
      "alert": "OK",
      "vis_m": 3100,
      "fzfg": false,
      "metar_trigger": false,
      "taf_trigger": false,
      "metar": "METAR EYVI 191120Z 19008KT 3100 BR OVC002 M01/M02 Q1024 NOSIG",
      "taf": "TAF EYVI 191105Z 1912/2012 18011KT 3000 BR OVC002"
    },
    {
      "icao": "GCLP",
      "alert": "OK",
      "vis_m": 9999,
      "fzfg": false,
      "metar_trigger": false,
      "taf_trigger": false,
      "metar": "METAR GCLP 191130Z 02014KT 350V050 9999 SCT040 21/13 Q1024 NOSIG",
      "taf": "TAF GCLP 190800Z 1909/2009 02015KT 9999 BKN040 TX21/1914Z TN17/2006Z"
    },
    {
      "icao": "GCTS",
      "alert": "OK",
      "vis_m": 9999,
      "fzfg": false,
      "metar_trigger": false,
      "taf_trigger": false,
      "metar": "METAR GCTS 191130Z 09014KT 9999 FEW045 22/11 Q1024 NOSIG",
      "taf": "TAF GCTS 190800Z 1909/2009 15005KT 9999 BKN035 TX23/1914Z TN16/2006Z"
    },
    {
      "icao": "HECA",
      "alert": "OK",
      "vis_m": 9999,
      "fzfg": false,
      "metar_trigger": false,
      "taf_trigger": false,
      "metar": "METAR HECA 191130Z 05010KT CAVOK 20/06 Q1023 NOSIG",
      "taf": "TAF HECA 191100Z 1912/2018 05007KT CAVOK"
    },
    {
      "icao": "HEGN",
      "alert": "OK",
      "vis_m": 9999,
      "fzfg": false,
      "metar_trigger": false,
      "taf_trigger": false,
      "metar": "METAR HEGN 191100Z 35008KT CAVOK 21/06 Q1023 NOSIG",
      "taf": "TAF HEGN 191100Z 1912/2018 36015KT 9999 FEW025"
    },
    {
      "icao": "HESH",
      "alert": "OK",
      "vis_m": 9999,
      "fzfg": false,
      "metar_trigger": false,
      "taf_trigger": false,
      "metar": "METAR HESH 191100Z 36008KT CAVOK 22/07 Q1023 NOSIG",
      "taf": "TAF HESH 191100Z 1912/2018 02015KT 9999 FEW025"
    },
    {
      "icao": "HESX",
      "alert": "OK",
      "vis_m": 9999,
      "fzfg": false,
      "metar_trigger": false,
      "taf_trigger": false,
      "metar": "METAR HESX 191100Z 04008KT CAVOK 19/08 Q1025 NOSIG",
      "taf": "TAF HESX 191100Z 1912/2018 05008KT CAVOK"
    },
    {
      "icao": "LATI",
      "alert": "OK",
      "vis_m": null,
      "fzfg": false,
      "metar_trigger": false,
      "taf_trigger": false,
      "metar": "",
      "taf": "TAF LATI 191100Z 1912/2012 VRB05KT CAVOK TX18/1912Z TN03/2005Z"
    },
    {
      "icao": "LBSF",
      "alert": "OK",
      "vis_m": 9000,
      "fzfg": false,
      "metar_trigger": false,
      "taf_trigger": false,
      "metar": "METAR LBSF 191130Z VRB02KT 9000 NSC 07/02 Q1027 NOSIG",
      "taf": "TAF LBSF 191100Z 1912/2012 VRB03KT 7000 NSC"
    },
    {
      "icao": "LBWN",
      "alert": "OK",
      "vis_m": 9999,
      "fzfg": false,
      "metar_trigger": false,
      "taf_trigger": false,
      "metar": "METAR LBWN 191130Z 21004KT 170V260 CAVOK 15/07 Q1026 NOSIG",
      "taf": "TAF LBWN 191100Z 1912/2012 VRB04KT CAVOK"
    },
    {
      "icao": "LCLK",
      "alert": "OK",
      "vis_m": 9999,
      "fzfg": false,
      "metar_trigger": false,
      "taf_trigger": false,
      "metar": "METAR LCLK 191130Z 14007KT 9999 FEW025 21/13 Q1022 NOSIG",
      "taf": "TAF LCLK 191130Z 1912/2012 20012KT 9999 FEW025"
    },
    {
      "icao": "LDDU",
      "alert": "OK",
      "vis_m": 9999,
      "fzfg": false,
      "metar_trigger": false,
      "taf_trigger": false,
      "metar": "METAR LDDU 191130Z 23006KT 200V280 9999 FEW023 15/11 Q1026 NOSIG",
      "taf": "TAF LDDU 191125Z 1912/2012 26005KT 9999 SCT025 TX16/1912Z TN09/2005Z"
    },
    {
      "icao": "LDSP",
      "alert": "OK",
      "vis_m": 9999,
      "fzfg": false,
      "metar_trigger": false,
      "taf_trigger": false,
      "metar": "METAR LDSP 191130Z 13003KT 070V190 CAVOK 16/11 Q1026 NOSIG",
      "taf": "TAF LDSP 191125Z 1912/2012 VRB02KT 9999 SCT040 TX16/1912Z TN08/2005Z"
    },
    {
      "icao": "LDZA",
      "alert": "OK",
      "vis_m": 7000,
      "fzfg": false,
      "metar_trigger": false,
      "taf_trigger": false,
      "metar": "METAR LDZA 191130Z VRB02KT 7000 FEW035 08/07 Q1025 NOSIG",
      "taf": "TAF LDZA 191125Z 1912/2012 VRB02KT 8000 FEW040 TX09/1913Z TN02/2007Z"
    },
    {
      "icao": "LEAL",
      "alert": "OK",
      "vis_m": 9999,
      "fzfg": false,
      "metar_trigger": false,
      "taf_trigger": false,
      "metar": "METAR LEAL 191130Z 23003KT 150V270 CAVOK 16/11 Q1021 NOSIG",
      "taf": "TAF LEAL 191100Z 1912/2012 VRB03KT CAVOK TX17/1912Z TN11/2006Z"
    },
    {
      "icao": "LEBL",
      "alert": "OK",
      "vis_m": 9999,
      "fzfg": false,
      "metar_trigger": false,
      "taf_trigger": false,
      "metar": "METAR LEBL 191130Z 32008KT 9999 BKN043 13/08 Q1020 NOSIG",
      "taf": "TAF LEBL 191100Z 1912/2012 34009KT 9999 FEW020 TX17/1912Z TN09/2006Z"
    },
    {
      "icao": "LECH",
      "alert": "OK",
      "vis_m": 9999,
      "fzfg": false,
      "metar_trigger": false,
      "taf_trigger": false,
      "metar": "METAR LECH 191130Z AUTO VRB02KT CAVOK 13/09 Q1020",
      "taf": ""
    },
    {
      "icao": "LEMD",
      "alert": "OK",
      "vis_m": 9999,
      "fzfg": false,
      "metar_trigger": false,
      "taf_trigger": false,
      "metar": "METAR LEMD 191130Z 12003KT 080V160 9999 FEW012 BKN038 09/07 Q1021 NOSIG",
      "taf": "TAF LEMD 191100Z 1912/2018 VRB04KT 9999 SCT040 TX12/1915Z TN06/2000Z"
    },
    {
      "icao": "LEMG",
      "alert": "OK",
      "vis_m": 9999,
      "fzfg": false,
      "metar_trigger": false,
      "taf_trigger": false,
      "metar": "METAR LEMG 191130Z 29005KT 9999 FEW030 SCT045 14/10 Q1021 NOSIG",
      "taf": "TAF LEMG 191100Z 1912/2012 29006KT 9999 FEW030 TX17/1914Z TN08/2006Z"
    },
    {
      "icao": "LERS",
      "alert": "OK",
      "vis_m": 9999,
      "fzfg": false,
      "metar_trigger": false,
      "taf_trigger": false,
      "metar": "METAR LERS 191130Z 00000KT CAVOK 16/10 Q1020",
      "taf": "TAF LERS 190800Z 1909/2009 VRB03KT 9999 FEW020 TX17/1912Z TN06/2006Z"
    },
    {
      "icao": "LEVC",
      "alert": "OK",
      "vis_m": 9999,
      "fzfg": false,
      "metar_trigger": false,
      "taf_trigger": false,
      "metar": "METAR LEVC 191130Z 17002KT CAVOK 15/09 Q1020 NOSIG",
      "taf": "TAF LEVC 191100Z 1912/2012 VRB04KT CAVOK TX16/1912Z TN07/2006Z"
    },
    {
      "icao": "LFLL",
      "alert": "OK",
      "vis_m": 9999,
      "fzfg": false,
      "metar_trigger": false,
      "taf_trigger": false,
      "metar": "METAR LFLL 191130Z 14005KT 9999 FEW040 BKN066 BKN140 13/07 Q1022 NOSIG",
      "taf": "TAF LFLL 191100Z 1912/2018 14007KT 9999 BKN046"
    },
    {
      "icao": "LFMN",
      "alert": "OK",
      "vis_m": 9999,
      "fzfg": false,
      "metar_trigger": false,
      "taf_trigger": false,
      "metar": "METAR LFMN 191130Z 34010KT 9999 -RA SCT040 BKN076 11/09 Q1025 NOSIG",
      "taf": "TAF LFMN 190800Z 1909/2015 34010KT 9999 BKN050"
    },
    {
      "icao": "LFOB",
      "alert": "OK",
      "vis_m": 9999,
      "fzfg": false,
      "metar_trigger": false,
      "taf_trigger": false,
      "metar": "METAR LFOB 191130Z AUTO 25006KT CAVOK 10/09 Q1020 NOSIG",
      "taf": "TAF LFOB 191100Z 1912/2012 25008KT CAVOK"
    },
    {
      "icao": "LFPO",
      "alert": "OK",
      "vis_m": 9999,
      "fzfg": false,
      "metar_trigger": false,
      "taf_trigger": false,
      "metar": "METAR LFPO 191130Z AUTO 27006KT 9999 FEW012 BKN050 BKN098 11/09 Q1020 NOSIG",
      "taf": "TAF LFPO 191100Z 1912/2018 28005KT 9999 FEW014 BKN040"
    },
    {
      "icao": "LFSB",
      "alert": "OK",
      "vis_m": 9999,
      "fzfg": false,
      "metar_trigger": false,
      "taf_trigger": false,
      "metar": "METAR LFSB 191130Z AUTO 17005KT CAVOK 08/04 Q1022 NOSIG",
      "taf": "TAF LFSB 191100Z 1912/2012 17005KT CAVOK"
    },
    {
      "icao": "LGAV",
      "alert": "OK",
      "vis_m": 9999,
      "fzfg": false,
      "metar_trigger": false,
      "taf_trigger": false,
      "metar": "METAR LGAV 191120Z VRB03KT 9999 FEW025 15/09 Q1026 NOSIG",
      "taf": "TAF LGAV 191100Z 1912/2012 VRB05KT 9999 FEW020"
    },
    {
      "icao": "LGIR",
      "alert": "OK",
      "vis_m": 9999,
      "fzfg": false,
      "metar_trigger": false,
      "taf_trigger": false,
      "metar": "METAR LGIR 191120Z 35003KT 9999 FEW018 17/11 Q1025 NOSIG",
      "taf": "TAF LGIR 191100Z 1912/2012 VRB03KT 9999 SCT020"
    },
    {
      "icao": "LGKR",
      "alert": "OK",
      "vis_m": 8000,
      "fzfg": false,
      "metar_trigger": false,
      "taf_trigger": false,
      "metar": "METAR LGKR 191120Z 00000KT 8000 BKN016 17/15 Q1025 NOSIG",
      "taf": "TAF LGKR 191100Z 1912/2012 VRB03KT 9000 FEW010 SCT020"
    },
    {
      "icao": "LGRP",
      "alert": "OK",
      "vis_m": 9999,
      "fzfg": false,
      "metar_trigger": false,
      "taf_trigger": false,
      "metar": "METAR LGRP 191120Z 26014KT 9999 FEW018 18/09 Q1022 NOSIG",
      "taf": "TAF LGRP 191100Z 1912/2012 26010KT 9999 FEW018"
    },
    {
      "icao": "LGTS",
      "alert": "OK",
      "vis_m": 9999,
      "fzfg": false,
      "metar_trigger": false,
      "taf_trigger": false,
      "metar": "METAR LGTS 191120Z VRB02KT 9999 FEW006 11/07 Q1026 NOSIG",
      "taf": "TAF LGTS 191100Z 1912/2012 VRB03KT 9999 FEW025"
    },
    {
      "icao": "LGZA",
      "alert": "OK",
      "vis_m": 9999,
      "fzfg": false,
      "metar_trigger": false,
      "taf_trigger": false,
      "metar": "METAR LGZA 191120Z 02004KT 9999 FEW016 16/12 Q1025",
      "taf": "TAF LGZA 191100Z 1912/1921 VRB03KT 9999 FEW016"
    },
    {
      "icao": "LHBP",
      "alert": "OK",
      "vis_m": 3500,
      "fzfg": false,
      "metar_trigger": false,
      "taf_trigger": false,
      "metar": "METAR LHBP 191130Z 03005KT 360V060 3500 BR FEW007 BKN037 06/04 Q1026 NOSIG",
      "taf": "TAF LHBP 191115Z 1912/2012 VRB03KT 5000 BR SCT006 BKN030"
    },
    {
      "icao": "LHDC",
      "alert": "OK",
      "vis_m": 9999,
      "fzfg": false,
      "metar_trigger": false,
      "taf_trigger": false,
      "metar": "METAR LHDC 191115Z AUTO 09006KT CAVOK 11/07 Q1026 NOSIG",
      "taf": "TAF LHDC 191115Z 1912/1921 10005KT CAVOK"
    },
    {
      "icao": "LIBD",
      "alert": "OK",
      "vis_m": 8000,
      "fzfg": false,
      "metar_trigger": false,
      "taf_trigger": false,
      "metar": "METAR LIBD 191120Z VRB01KT 8000 BKN008 13/12 Q1026",
      "taf": "TAF LIBD 191100Z 1912/2012 VRB04KT 6000 OVC018"
    },
    {
      "icao": "LICC",
      "alert": "OK",
      "vis_m": 9999,
      "fzfg": false,
      "metar_trigger": false,
      "taf_trigger": false,
      "metar": "METAR LICC 191120Z 08005KT 9999 -RA SCT015 BKN040 15/14 Q1024 RERA",
      "taf": "TAF LICC 191100Z 1912/2012 08013KT 9999 SCT015 BKN040"
    },
    {
      "icao": "LICJ",
      "alert": "OK",
      "vis_m": 9999,
      "fzfg": false,
      "metar_trigger": false,
      "taf_trigger": false,
      "metar": "METAR LICJ 191120Z 03005KT 9999 SCT060 17/13 Q1022",
      "taf": "TAF LICJ 191100Z 1912/2012 08012KT 9999 SCT040"
    },
    {
      "icao": "LIEO",
      "alert": "OK",
      "vis_m": 9999,
      "fzfg": false,
      "metar_trigger": false,
      "taf_trigger": false,
      "metar": "METAR LIEO 191120Z 02002KT 9999 FEW060 16/14 Q1023",
      "taf": "TAF LIEO 191100Z 1912/2012 VRB05KT 9999 SCT040"
    },
    {
      "icao": "LIMC",
      "alert": "OK",
      "vis_m": 9999,
      "fzfg": false,
      "metar_trigger": false,
      "taf_trigger": false,
      "metar": "METAR LIMC 191120Z 29003KT 250V340 9999 SCT010 12/09 Q1027 NOSIG",
      "taf": "TAF LIMC 191100Z 1912/2018 VRB03KT 6000 BKN010"
    },
    {
      "icao": "LIME",
      "alert": "OK",
      "vis_m": 4000,
      "fzfg": false,
      "metar_trigger": false,
      "taf_trigger": false,
      "metar": "METAR LIME 191120Z 20004KT 150V240 4000 BR SCT004 BKN015 10/10 Q1027 NOSIG",
      "taf": "TAF LIME 191100Z 1912/2012 VRB04KT 4000 BR BKN006"
    },
    {
      "icao": "LIPH",
      "alert": "OK",
      "vis_m": 3000,
      "fzfg": false,
      "metar_trigger": false,
      "taf_trigger": false,
      "metar": "METAR LIPH 191120Z 17003KT 3000 BR SCT004 BKN030 10/10 Q1027",
      "taf": "TAF LIPH 191100Z 1912/2012 VRB04KT 4000 BR BKN003"
    },
    {
      "icao": "LIPQ",
      "alert": "OK",
      "vis_m": 9999,
      "fzfg": false,
      "metar_trigger": false,
      "taf_trigger": false,
      "metar": "METAR LIPQ 191120Z AUTO VRB01KT 9999 OVC030/// 11/10 Q1026",
      "taf": "TAF LIPQ 191100Z 1912/2012 VRB04KT 6000 OVC030"
    },
    {
      "icao": "LIPX",
      "alert": "OK",
      "vis_m": 2500,
      "fzfg": false,
      "metar_trigger": false,
      "taf_trigger": false,
      "metar": "METAR LIPX 191120Z VRB02KT 2500 BR OVC015 10/09 Q1027",
      "taf": "TAF LIPX 191100Z 1912/2012 VRB04KT 3000 BR BKN012"
    },
    {
      "icao": "LIPY",
      "alert": "OK",
      "vis_m": 9999,
      "fzfg": false,
      "metar_trigger": false,
      "taf_trigger": false,
      "metar": "METAR LIPY 191120Z AUTO VRB02KT 9999 OVC006/// 10/10 Q1027",
      "taf": "TAF LIPY 191100Z 1912/2012 VRB05KT 8000 OVC005"
    },
    {
      "icao": "LIPZ",
      "alert": "OK",
      "vis_m": 1000,
      "fzfg": false,
      "metar_trigger": false,
      "taf_trigger": false,
      "metar": "METAR LIPZ 191120Z VRB01KT 1000 R04R/1800U BR BKN001 BKN015 09/09 Q1027 NOSIG",
      "taf": "TAF LIPZ 191100Z 1912/2018 VRB04KT 0800 FG BKN001"
    },
    {
      "icao": "LIRA",
      "alert": "OK",
      "vis_m": 9999,
      "fzfg": false,
      "metar_trigger": false,
      "taf_trigger": false,
      "metar": "METAR LIRA 191120Z 03004KT 360V060 9999 BKN060 14/09 Q1025",
      "taf": "TAF LIRA 191100Z 1912/2012 VRB05KT 9999 SCT030"
    },
    {
      "icao": "LIRN",
      "alert": "OK",
      "vis_m": 9999,
      "fzfg": false,
      "metar_trigger": false,
      "taf_trigger": false,
      "metar": "METAR LIRN 191120Z 34004KT 280V360 CAVOK 17/05 Q1024 NOSIG",
      "taf": "TAF LIRN 191100Z 1912/2012 05006KT CAVOK"
    },
    {
      "icao": "LLBG",
      "alert": "OK",
      "vis_m": 9999,
      "fzfg": false,
      "metar_trigger": false,
      "taf_trigger": false,
      "metar": "METAR LLBG 191120Z 23009KT 9999 FEW026 BKN045 20/13 Q1023 NOSIG RMK REP AT 1119Z CLD 3000FT",
      "taf": "TAF LLBG 191102Z 1912/2012 28010KT 9999 FEW045 BKN040"
    },
    {
      "icao": "LMML",
      "alert": "OK",
      "vis_m": 9999,
      "fzfg": false,
      "metar_trigger": false,
      "taf_trigger": false,
      "metar": "METAR LMML 191145Z 13011KT 9999 FEW025 18/13 Q1021 NOSIG",
      "taf": "TAF LMML 191100Z 1912/2012 15012KT 9999 SCT015 BKN040"
    },
    {
      "icao": "LOWW",
      "alert": "OK",
      "vis_m": 8000,
      "fzfg": false,
      "metar_trigger": false,
      "taf_trigger": false,
      "metar": "METAR LOWW 191120Z 35003KT 300V020 8000 BKN003 04/03 Q1025 TEMPO SCT003 BKN006",
      "taf": "TAF LOWW 191115Z 1912/2018 VRB03KT 6000 SCT003 OVC006 TX04/1913Z TN01/2007Z"
    },
    {
      "icao": "LPFR",
      "alert": "OK",
      "vis_m": 8000,
      "fzfg": false,
      "metar_trigger": false,
      "taf_trigger": false,
      "metar": "METAR LPFR 191130Z 03010KT 8000 -RA FEW008 SCT016 FEW018CB BKN030 13/12 Q1018 RERA",
      "taf": "TAF LPFR 191100Z 1912/2012 01012KT 5000 RADZ BR BKN015 FEW018CB"
    },
    {
      "icao": "LPPR",
      "alert": "OK",
      "vis_m": 9999,
      "fzfg": false,
      "metar_trigger": false,
      "taf_trigger": false,
      "metar": "METAR LPPR 191130Z 01009KT 340V040 CAVOK 12/08 Q1021",
      "taf": "TAF LPPR 191100Z 1912/2012 35010KT 9999 FEW035"
    },
    {
      "icao": "LPPT",
      "alert": "OK",
      "vis_m": 9999,
      "fzfg": false,
      "metar_trigger": false,
      "taf_trigger": false,
      "metar": "METAR LPPT 191130Z 35010KT 320V020 9999 FEW015 SCT048 12/09 Q1021",
      "taf": "TAF LPPT 191100Z 1912/2018 36008KT 9999 FEW020 BKN045"
    },
    {
      "icao": "LQSA",
      "alert": "OK",
      "vis_m": 7000,
      "fzfg": false,
      "metar_trigger": false,
      "taf_trigger": false,
      "metar": "METAR LQSA 191130Z VRB02KT 7000 NSC 05/05 Q1027 NOSIG",
      "taf": "TAF LQSA 191100Z 1912/2012 VRB02KT 4000 BR FEW008 TX06/1913Z TNM02/2005Z"
    },
    {
      "icao": "LQTZ",
      "alert": "OK",
      "vis_m": 6000,
      "fzfg": false,
      "metar_trigger": false,
      "taf_trigger": false,
      "metar": "METAR LQTZ 191130Z 00000KT 6000 FEW002 06/06 Q1026",
      "taf": "TAF LQTZ 191100Z 1912/2012 VRB02KT 7000 FEW005 TX12/2012Z TNM03/2006Z"
    },
    {
      "icao": "LRCL",
      "alert": "OK",
      "vis_m": 9999,
      "fzfg": false,
      "metar_trigger": false,
      "taf_trigger": false,
      "metar": "METAR LRCL 191130Z 08007KT 9999 FEW068 11/06 Q1028",
      "taf": "TAF LRCL 191100Z 1912/1921 VRB04KT CAVOK"
    },
    {
      "icao": "LRCV",
      "alert": "OK",
      "vis_m": 7000,
      "fzfg": false,
      "metar_trigger": false,
      "taf_trigger": false,
      "metar": "METAR LRCV 191130Z 14003KT 7000 NSC 12/06 Q1027",
      "taf": "TAF LRCV 191100Z 1912/1921 VRB04KT CAVOK"
    },
    {
      "icao": "LRIA",
      "alert": "OK",
      "vis_m": 9999,
      "fzfg": false,
      "metar_trigger": false,
      "taf_trigger": false,
      "metar": "METAR LRIA 191130Z 36003KT 300V080 CAVOK 08/03 Q1028",
      "taf": "TAF LRIA 191100Z 1912/1921 VRB04KT CAVOK"
    },
    {
      "icao": "LROP",
      "alert": "OK",
      "vis_m": 8000,
      "fzfg": false,
      "metar_trigger": false,
      "taf_trigger": false,
      "metar": "METAR LROP 191130Z COR VRB02KT 8000 NSC 09/03 Q1027 NOSIG",
      "taf": "TAF LROP 191100Z 1912/2012 VRB04KT CAVOK"
    },
    {
      "icao": "LRSB",
      "alert": "OK",
      "vis_m": 9000,
      "fzfg": false,
      "metar_trigger": false,
      "taf_trigger": false,
      "metar": "METAR LRSB 191130Z 11003KT 060V210 9000 NSC 11/06 Q1027",
      "taf": "TAF LRSB 191100Z 1912/2012 VRB04KT CAVOK"
    },
    {
      "icao": "LRTR",
      "alert": "OK",
      "vis_m": 9999,
      "fzfg": false,
      "metar_trigger": false,
      "taf_trigger": false,
      "metar": "METAR LRTR 191130Z 11009KT CAVOK 10/06 Q1026",
      "taf": "TAF LRTR 191100Z 1912/2012 11010KT CAVOK"
    },
    {
      "icao": "LTAF",
      "alert": "OK",
      "vis_m": 9999,
      "fzfg": false,
      "metar_trigger": false,
      "taf_trigger": false,
      "metar": "METAR LTAF 191120Z 26003KT 210V320 CAVOK 18/06 Q1021 NOSIG RMK RWY23 VRB02KT 4CI180",
      "taf": "TAF LTAF 191040Z 1912/2012 VRB02KT CAVOK"
    },
    {
      "icao": "LTAI",
      "alert": "OK",
      "vis_m": 9999,
      "fzfg": false,
      "metar_trigger": false,
      "taf_trigger": false,
      "metar": "METAR LTAI 191120Z 18003KT 110V230 CAVOK 18/03 Q1022 NOSIG RMK RWY18C 18004KT RWY36R VRB02KT RWY18L 21005KT",
      "taf": "TAF LTAI 191040Z 1912/2012 18010KT CAVOK"
    },
    {
      "icao": "LTFM",
      "alert": "OK",
      "vis_m": 9999,
      "fzfg": false,
      "metar_trigger": false,
      "taf_trigger": false,
      "metar": "METAR LTFM 191120Z 04004KT 360V070 CAVOK 13/09 Q1026 NOSIG RMK RWY17L 03004KT RWY34L 35003KT 310V050 RWY16R 05004KT 360V090 RWY36 03006KT RWY18 03004KT 360V060",
      "taf": "TAF LTFM 191040Z 1912/2018 35008KT CAVOK"
    },
    {
      "icao": "LUBL",
      "alert": "OK",
      "vis_m": null,
      "fzfg": false,
      "metar_trigger": false,
      "taf_trigger": false,
      "metar": "",
      "taf": ""
    },
    {
      "icao": "LUKK",
      "alert": "OK",
      "vis_m": 9999,
      "fzfg": false,
      "metar_trigger": false,
      "taf_trigger": false,
      "metar": "METAR LUKK 191130Z 02005KT 320V050 CAVOK 09/03 Q1027 NOSIG",
      "taf": "TAF LUKK 191122Z 1912/2012 VRB05KT CAVOK"
    },
    {
      "icao": "LWSK",
      "alert": "OK",
      "vis_m": null,
      "fzfg": false,
      "metar_trigger": false,
      "taf_trigger": false,
      "metar": "",
      "taf": ""
    },
    {
      "icao": "LYBE",
      "alert": "OK",
      "vis_m": 9999,
      "fzfg": false,
      "metar_trigger": false,
      "taf_trigger": false,
      "metar": "METAR LYBE 191130Z 12001KT CAVOK 12/07 Q1026 NOSIG",
      "taf": "TAF LYBE 191100Z 1912/2012 13004KT 8000 NSC TX13/1913Z TN01/2006Z"
    },
    {
      "icao": "LZIB",
      "alert": "OK",
      "vis_m": 1100,
      "fzfg": false,
      "metar_trigger": false,
      "taf_trigger": false,
      "metar": "METAR LZIB 191130Z 07005KT 1100 R31/1500N R22/1600N -DZ BR OVC002 06/06 Q1025 NOSIG",
      "taf": "TAF LZIB 191115Z 1912/2012 06005KT 4000 BR BKN006"
    },
    {
      "icao": "LZKZ",
      "alert": "OK",
      "vis_m": 4800,
      "fzfg": false,
      "metar_trigger": false,
      "taf_trigger": false,
      "metar": "METAR LZKZ 191130Z 36005KT 4800 BR OVC014 06/05 Q1027 NOSIG",
      "taf": "TAF LZKZ 191115Z 1912/2012 VRB02KT 3500 BR OVC011"
    },
    {
      "icao": "LZTT",
      "alert": "OK",
      "vis_m": 9999,
      "fzfg": false,
      "metar_trigger": false,
      "taf_trigger": false,
      "metar": "METAR LZTT 191130Z 16005KT 9999 FEW003 BKN035 04/04 Q1024 NOSIG",
      "taf": "TAF LZTT 191115Z 1912/2012 VRB02KT 9999 BKN035"
    },
    {
      "icao": "OEJN",
      "alert": "OK",
      "vis_m": 9999,
      "fzfg": false,
      "metar_trigger": false,
      "taf_trigger": false,
      "metar": "METAR OEJN 191100Z 03015KT CAVOK 27/M03 Q1015 NOSIG",
      "taf": "TAF OEJN 190500Z 1906/2012 07018KT 6000 NSC"
    },
    {
      "icao": "OEMA",
      "alert": "OK",
      "vis_m": 9999,
      "fzfg": false,
      "metar_trigger": false,
      "taf_trigger": false,
      "metar": "METAR OEMA 191100Z 11004KT CAVOK 17/M04 Q1022 NOSIG",
      "taf": "TAF OEMA 190500Z 1906/2012 09012KT CAVOK"
    },
    {
      "icao": "OERK",
      "alert": "OK",
      "vis_m": 9999,
      "fzfg": false,
      "metar_trigger": false,
      "taf_trigger": false,
      "metar": "METAR OERK 191100Z 29014KT 9999 SCT040 14/04 Q1018 NOSIG",
      "taf": "TAF OERK 190500Z 1906/2012 32016KT 7000 NSC"
    },
    {
      "icao": "OJAI",
      "alert": "OK",
      "vis_m": 4000,
      "fzfg": false,
      "metar_trigger": false,
      "taf_trigger": false,
      "metar": "METAR OJAI 191100Z 29016KT 4000 BLDU FEW025 14/08 Q1024 NOSIG",
      "taf": "TAF OJAI 191037Z 1912/2018 29012KT 5000 HZ NSC"
    },
    {
      "icao": "OKBK",
      "alert": "OK",
      "vis_m": null,
      "fzfg": false,
      "metar_trigger": false,
      "taf_trigger": false,
      "metar": "",
      "taf": ""
    },
    {
      "icao": "OMAA",
      "alert": "OK",
      "vis_m": 9999,
      "fzfg": false,
      "metar_trigger": false,
      "taf_trigger": false,
      "metar": "METAR OMAA 191100Z 25012KT 9999 FEW040 20/10 Q1015 NOSIG",
      "taf": "TAF OMAA 191100Z 1912/2018 28013KT 8000 FEW030"
    },
    {
      "icao": "UAAA",
      "alert": "OK",
      "vis_m": 3700,
      "fzfg": false,
      "metar_trigger": false,
      "taf_trigger": false,
      "metar": "METAR UAAA 191130Z 24002MPS 220V290 3700 BR BKN004 OVC100 M03/M04 Q1029 NOSIG RMK QBB120",
      "taf": "TAF UAAA 190502Z 1906/2006 01002MPS 3100 BR BKN011 OVC030 TXM00/1908Z TNM07/2002Z"
    },
    {
      "icao": "UCFM",
      "alert": "CRITICAL",
      "vis_m": 100,
      "fzfg": true,
      "metar_trigger": true,
      "taf_trigger": false,
      "metar": "METAR UCFM 191130Z 23002MPS 0100 R25/0150N FZFG VV001 M05/M05 Q1028 NOSIG",
      "taf": ""
    },
    {
      "icao": "UDYZ",
      "alert": "OK",
      "vis_m": 9999,
      "fzfg": false,
      "metar_trigger": false,
      "taf_trigger": false,
      "metar": "METAR UDYZ 191130Z VRB01KT 9999 NSC 06/M07 Q1026 NOSIG",
      "taf": "TAF UDYZ 191100Z 1912/2012 VRB04KT 9999 NSC"
    },
    {
      "icao": "UGTB",
      "alert": "OK",
      "vis_m": 9999,
      "fzfg": false,
      "metar_trigger": false,
      "taf_trigger": false,
      "metar": "METAR UGTB 191130Z 27013KT CAVOK 10/M03 Q1025 NOSIG",
      "taf": "TAF UGTB 191100Z 1912/2012 30010KT CAVOK TX09/1912Z TNM01/2003Z"
    },
    {
      "icao": "UKKK",
      "alert": "OK",
      "vis_m": null,
      "fzfg": false,
      "metar_trigger": false,
      "taf_trigger": false,
      "metar": "",
      "taf": ""
    },
    {
      "icao": "UTTT",
      "alert": "OK",
      "vis_m": null,
      "fzfg": false,
      "metar_trigger": false,
      "taf_trigger": false,
      "metar": "",
      "taf": ""
    }
  ]
}