{
  "ts_utc": "2026-01-26T22:57:16Z",
  "threshold_m": 150,
  "source": "stations_override.txt (ICAO list) + aviationweather.gov (METAR/TAF raw)",
  "station_count": 159,
  "stations": [
    {
      "icao": "BIKF",
      "alert": "OK",
      "vis_m": 9999,
      "fzfg": false,
      "metar_trigger": false,
      "taf_trigger": false,
      "metar": "METAR BIKF 262230Z 07025KT CAVOK 04/M05 Q0999",
      "taf": "TAF BIKF 262253Z 2700/2800 08023KT 9999 SCT045 TX06/2715Z TN03/2709Z"
    },
    {
      "icao": "BKPR",
      "alert": "OK",
      "vis_m": null,
      "fzfg": false,
      "metar_trigger": false,
      "taf_trigger": false,
      "metar": "",
      "taf": "TAF BKPR 261730Z 2618/2718 33008KT 9999 SCT015 BKN030"
    },
    {
      "icao": "EBCI",
      "alert": "OK",
      "vis_m": 3200,
      "fzfg": false,
      "metar_trigger": false,
      "taf_trigger": false,
      "metar": "METAR EBCI 262250Z 14004KT 100V170 3200 BR FEW006 BKN032 02/00 Q1002 TEMPO 2500 BKN006",
      "taf": "TAF EBCI 261722Z 2618/2724 14006KT 4000 BR BKN006"
    },
    {
      "icao": "EDDB",
      "alert": "OK",
      "vis_m": 5000,
      "fzfg": false,
      "metar_trigger": false,
      "taf_trigger": false,
      "metar": "METAR EDDB 262250Z AUTO 15005KT 5000 BR OVC006 M01/M02 Q1001 TEMPO 3500 BR BKN003",
      "taf": "TAF EDDB 261700Z 2618/2718 18005KT 7000 FEW012 BKN020"
    },
    {
      "icao": "EDDH",
      "alert": "OK",
      "vis_m": 9000,
      "fzfg": false,
      "metar_trigger": false,
      "taf_trigger": false,
      "metar": "METAR EDDH 262250Z AUTO 02003KT 330V080 9000 -SN BKN005 BKN009 OVC017 01/00 Q1002 NOSIG",
      "taf": ""
    },
    {
      "icao": "EDDK",
      "alert": "OK",
      "vis_m": 6000,
      "fzfg": false,
      "metar_trigger": false,
      "taf_trigger": false,
      "metar": "METAR EDDK 262250Z AUTO 12001KT 6000 FEW009 SCT021 BKN030 M00/M01 Q1005 TEMPO BKN010",
      "taf": ""
    },
    {
      "icao": "EDDN",
      "alert": "OK",
      "vis_m": 9999,
      "fzfg": false,
      "metar_trigger": false,
      "taf_trigger": false,
      "metar": "METAR EDDN 262250Z AUTO 25002KT 9999 FEW001 BKN022 M00/M01 Q1004",
      "taf": "TAF EDDN 261700Z 2618/2718 25005KT 2000 -SN BR OVC003"
    },
    {
      "icao": "EDDS",
      "alert": "OK",
      "vis_m": 9999,
      "fzfg": false,
      "metar_trigger": false,
      "taf_trigger": false,
      "metar": "METAR EDDS 262250Z AUTO VRB01KT 9999 FEW024 OVC041 02/00 Q1004",
      "taf": "TAF EDDS 261700Z 2618/2718 25005KT 9999 BKN020"
    },
    {
      "icao": "EDFH",
      "alert": "OK",
      "vis_m": 9999,
      "fzfg": false,
      "metar_trigger": false,
      "taf_trigger": false,
      "metar": "METAR EDFH 262250Z 28004KT 250V310 9999 OVC026 01/00 Q1002",
      "taf": "TAF EDFH 261700Z 2618/2718 27010KT 9999 BKN015"
    },
    {
      "icao": "EDJA",
      "alert": "OK",
      "vis_m": 9999,
      "fzfg": false,
      "metar_trigger": false,
      "taf_trigger": false,
      "metar": "METAR EDJA 262250Z AUTO 22009KT 9999 // OVC041/// 01/M01 Q1004",
      "taf": "TAF EDJA 261700Z 2618/2703 23012KT 9999 FEW030"
    },
    {
      "icao": "EDLW",
      "alert": "OK",
      "vis_m": 2500,
      "fzfg": false,
      "metar_trigger": false,
      "taf_trigger": false,
      "metar": "METAR EDLW 262250Z AUTO 25004KT 2500 // OVC002/// 00/M00 Q1004",
      "taf": "TAF EDLW 261700Z 2618/2718 24005KT 4000 BR BKN005"
    },
    {
      "icao": "EDNY",
      "alert": "OK",
      "vis_m": 9999,
      "fzfg": false,
      "metar_trigger": false,
      "taf_trigger": false,
      "metar": "METAR EDNY 262250Z AUTO 22001KT 9999 // OVC045/// 03/M00 Q1006",
      "taf": "TAF EDNY 261700Z 2618/2703 23007KT 9999 SCT035"
    },
    {
      "icao": "EDSB",
      "alert": "OK",
      "vis_m": 9999,
      "fzfg": false,
      "metar_trigger": false,
      "taf_trigger": false,
      "metar": "METAR EDSB 262250Z AUTO 20004KT 9999 OVC044/// 04/03 Q1005",
      "taf": "TAF EDSB 261700Z 2618/2718 21007KT 6000 BKN020"
    },
    {
      "icao": "EETN",
      "alert": "OK",
      "vis_m": 9999,
      "fzfg": false,
      "metar_trigger": false,
      "taf_trigger": false,
      "metar": "METAR EETN 262250Z 04005KT 360V110 9999 -SN OVC009 M06/M08 Q1013",
      "taf": "TAF EETN 261730Z 2618/2718 VRB02KT 9999 SCT015"
    },
    {
      "icao": "EFTU",
      "alert": "OK",
      "vis_m": 9999,
      "fzfg": false,
      "metar_trigger": false,
      "taf_trigger": false,
      "metar": "METAR EFTU 262250Z AUTO 04007KT 9999 OVC010 M07/M09 Q1014",
      "taf": "TAF EFTU 262037Z 2621/2721 03006KT 9999 OVC011"
    },
    {
      "icao": "EGBB",
      "alert": "OK",
      "vis_m": 6000,
      "fzfg": false,
      "metar_trigger": false,
      "taf_trigger": false,
      "metar": "METAR EGBB 262250Z 12015KT 6000 OVC010 05/02 Q0994",
      "taf": "TAF EGBB 261703Z 2618/2718 12009KT 6000 BKN010"
    },
    {
      "icao": "EGGP",
      "alert": "OK",
      "vis_m": 8000,
      "fzfg": false,
      "metar_trigger": false,
      "taf_trigger": false,
      "metar": "METAR EGGP 262250Z 11019KT 8000 SCT014 OVC035 04/02 Q0992",
      "taf": "TAF EGGP 261656Z 2618/2718 12010KT 9999 SCT015 BKN020"
    },
    {
      "icao": "EGGW",
      "alert": "OK",
      "vis_m": 3500,
      "fzfg": false,
      "metar_trigger": false,
      "taf_trigger": false,
      "metar": "METAR EGGW 262250Z AUTO 12013KT 3500 HZ OVC005 04/03 Q0995",
      "taf": ""
    },
    {
      "icao": "EGKK",
      "alert": "OK",
      "vis_m": 8000,
      "fzfg": false,
      "metar_trigger": false,
      "taf_trigger": false,
      "metar": "METAR EGKK 262250Z 13010KT 8000 BKN011 07/06 Q0995",
      "taf": ""
    },
    {
      "icao": "EGNM",
      "alert": "OK",
      "vis_m": 4000,
      "fzfg": false,
      "metar_trigger": false,
      "taf_trigger": false,
      "metar": "METAR EGNM 262150Z 09012KT 4000 BR OVC006 01/00 Q0996",
      "taf": "TAF EGNM 261657Z 2618/2718 11008KT 6000 SCT007 BKN010"
    },
    {
      "icao": "EGPD",
      "alert": "OK",
      "vis_m": 9999,
      "fzfg": false,
      "metar_trigger": false,
      "taf_trigger": false,
      "metar": "METAR EGPD 262250Z COR AUTO 14016KT 9999 SCT022 SCT029 OVC037 04/00 Q1001 TEMPO RA BKN014",
      "taf": "TAF EGPD 261659Z 2618/2718 13016G28KT 9999 SCT016 BKN030"
    },
    {
      "icao": "EGPF",
      "alert": "OK",
      "vis_m": 9999,
      "fzfg": false,
      "metar_trigger": false,
      "taf_trigger": false,
      "metar": "METAR EGPF 262250Z AUTO 09016KT 9999 -RA SCT021 BKN039 04/01 Q0996",
      "taf": "TAF EGPF 261702Z 2618/2718 08011KT 9999 FEW018 SCT030"
    },
    {
      "icao": "EHBK",
      "alert": "OK",
      "vis_m": 2700,
      "fzfg": false,
      "metar_trigger": false,
      "taf_trigger": false,
      "metar": "METAR EHBK 262225Z AUTO 15003KT 120V190 2700 BR OVC002/// M00/M01 Q1004",
      "taf": ""
    },
    {
      "icao": "EHEH",
      "alert": "OK",
      "vis_m": null,
      "fzfg": false,
      "metar_trigger": false,
      "taf_trigger": false,
      "metar": "",
      "taf": "TAF EHEH 261754Z 2618/2724 24005KT 4000 BR BKN007"
    },
    {
      "icao": "EKBI",
      "alert": "OK",
      "vis_m": 9999,
      "fzfg": false,
      "metar_trigger": false,
      "taf_trigger": false,
      "metar": "METAR EKBI 262250Z AUTO 05008KT 010V080 9999 BKN014/// OVC033/// M01/M03 Q1007",
      "taf": "TAF EKBI 262027Z 2621/2721 05015KT 9999 BKN018"
    },
    {
      "icao": "EKCH",
      "alert": "OK",
      "vis_m": 7000,
      "fzfg": false,
      "metar_trigger": false,
      "taf_trigger": false,
      "metar": "METAR EKCH 262250Z 03017KT 7000 -SN BKN007 M00/M02 Q1006 TEMPO 2500 BKN012",
      "taf": "TAF EKCH 262027Z 2621/2721 05015KT 0500 SN BKN005"
    },
    {
      "icao": "ENAL",
      "alert": "OK",
      "vis_m": 9999,
      "fzfg": false,
      "metar_trigger": false,
      "taf_trigger": false,
      "metar": "METAR ENAL 262250Z AUTO 15006KT 9999 NCD M06/M08 Q1011",
      "taf": "TAF ENAL 262000Z 2621/2706 15005KT CAVOK"
    },
    {
      "icao": "ENBR",
      "alert": "OK",
      "vis_m": 9999,
      "fzfg": false,
      "metar_trigger": false,
      "taf_trigger": false,
      "metar": "METAR ENBR 262250Z 00000KT CAVOK M06/M09 Q1010 RMK WIND 1200FT 15008KT",
      "taf": "TAF ENBR 261700Z 2618/2718 07004KT CAVOK"
    },
    {
      "icao": "ENGM",
      "alert": "OK",
      "vis_m": 9999,
      "fzfg": false,
      "metar_trigger": false,
      "taf_trigger": false,
      "metar": "METAR ENGM 262250Z 03003KT 9999 FEW006 OVC008 M11/M12 Q1015",
      "taf": ""
    },
    {
      "icao": "ENHD",
      "alert": "OK",
      "vis_m": 9999,
      "fzfg": false,
      "metar_trigger": false,
      "taf_trigger": false,
      "metar": "METAR ENHD 262250Z AUTO 24008KT 9999 NCD M07/M10 Q1010",
      "taf": "TAF ENHD 261400Z 2615/2623 12005KT CAVOK"
    },
    {
      "icao": "ENTC",
      "alert": "OK",
      "vis_m": 9999,
      "fzfg": false,
      "metar_trigger": false,
      "taf_trigger": false,
      "metar": "METAR ENTC 262250Z 12002KT 9999 -SN FEW010 SCT021 BKN037 M04/M05 Q1010 RMK WIND 2600FT 34024KT",
      "taf": "TAF ENTC 261700Z 2618/2718 18003KT 9999 FEW020 BKN045"
    },
    {
      "icao": "ENTO",
      "alert": "OK",
      "vis_m": 9999,
      "fzfg": false,
      "metar_trigger": false,
      "taf_trigger": false,
      "metar": "METAR ENTO 262250Z AUTO 03010KT 9999 R18/P2000N R36///// OVC035/// M07/M09 Q1015",
      "taf": "TAF ENTO 261700Z 2618/2718 01008KT CAVOK"
    },
    {
      "icao": "ENVA",
      "alert": "OK",
      "vis_m": 9999,
      "fzfg": false,
      "metar_trigger": false,
      "taf_trigger": false,
      "metar": "METAR ENVA 262250Z 09005KT CAVOK M12/M14 Q1013 RMK WIND 670FT 10009KT",
      "taf": "TAF ENVA 261700Z 2618/2718 11008KT CAVOK"
    },
    {
      "icao": "ENZV",
      "alert": "OK",
      "vis_m": 9999,
      "fzfg": false,
      "metar_trigger": false,
      "taf_trigger": false,
      "metar": "METAR ENZV 262250Z 17004KT CAVOK M07/M12 Q1011",
      "taf": "TAF ENZV 261700Z 2618/2718 13006KT CAVOK"
    },
    {
      "icao": "EPGD",
      "alert": "OK",
      "vis_m": 900,
      "fzfg": true,
      "metar_trigger": false,
      "taf_trigger": false,
      "metar": "METAR EPGD 262230Z 11003KT 0900 R29/P2000N FZFG OVC002 M03/M03 Q1003",
      "taf": "TAF EPGD 261730Z 2618/2718 11004KT 2500 BR OVC003"
    },
    {
      "icao": "EPKK",
      "alert": "CRITICAL",
      "vis_m": 100,
      "fzfg": true,
      "metar_trigger": true,
      "taf_trigger": false,
      "metar": "METAR EPKK 262230Z 25002KT 0100 R25/0450N FZFG VV000 M03/M04 Q1002",
      "taf": ""
    },
    {
      "icao": "EPKT",
      "alert": "OK",
      "vis_m": 5000,
      "fzfg": false,
      "metar_trigger": false,
      "taf_trigger": false,
      "metar": "METAR EPKT 262230Z 19004KT 5000 BR NSC M00/M01 Q1002",
      "taf": ""
    },
    {
      "icao": "EPLB",
      "alert": "OK",
      "vis_m": 1600,
      "fzfg": false,
      "metar_trigger": false,
      "taf_trigger": false,
      "metar": "METAR EPLB 262230Z 07002KT 1600 BR FEW006 01/01 Q1002 REFZRA",
      "taf": "TAF EPLB 261730Z 2618/2718 VRB03KT 9999 BKN035"
    },
    {
      "icao": "EPMO",
      "alert": "OK",
      "vis_m": 2700,
      "fzfg": false,
      "metar_trigger": false,
      "taf_trigger": false,
      "metar": "METAR EPMO 262230Z 07003KT 2700 BR NSC M00/M00 Q1002",
      "taf": ""
    },
    {
      "icao": "EPPO",
      "alert": "OK",
      "vis_m": 100,
      "fzfg": false,
      "metar_trigger": false,
      "taf_trigger": false,
      "metar": "METAR EPPO 262230Z 23002KT 0100 R28/0400N -SN FG VV001 00/M00 Q1001",
      "taf": ""
    },
    {
      "icao": "EPRA",
      "alert": "OK",
      "vis_m": 6000,
      "fzfg": false,
      "metar_trigger": false,
      "taf_trigger": false,
      "metar": "METAR EPRA 262230Z VRB02KT 6000 SCT020 01/M00 Q1002",
      "taf": "TAF EPRA 262030Z 2621/2706 24005KT 6000 BKN020"
    },
    {
      "icao": "EPRZ",
      "alert": "OK",
      "vis_m": 1100,
      "fzfg": false,
      "metar_trigger": false,
      "taf_trigger": false,
      "metar": "METAR EPRZ 262230Z 28002KT 1100 R27/P2000N -DZ BR SCT003 OVC006 01/01 Q1002",
      "taf": ""
    },
    {
      "icao": "EPSC",
      "alert": "OK",
      "vis_m": 2400,
      "fzfg": false,
      "metar_trigger": false,
      "taf_trigger": false,
      "metar": "METAR EPSC 262230Z VRB02KT 2400 BR OVC002 M01/M01 Q1002",
      "taf": "TAF EPSC 261730Z 2618/2718 12004KT 2000 BR OVC003"
    },
    {
      "icao": "EPSY",
      "alert": "OK",
      "vis_m": 550,
      "fzfg": true,
      "metar_trigger": false,
      "taf_trigger": false,
      "metar": "METAR EPSY 262230Z VRB02KT 0550 R01/0750N FZFG OVC001 M01/M02 Q1003",
      "taf": "TAF EPSY 262030Z 2621/2706 VRB02KT 3000 BR OVC002"
    },
    {
      "icao": "EPWA",
      "alert": "OK",
      "vis_m": 7000,
      "fzfg": false,
      "metar_trigger": false,
      "taf_trigger": false,
      "metar": "METAR EPWA 262230Z 13006KT 7000 SCT019 01/00 Q1002 NOSIG",
      "taf": "TAF EPWA 262030Z 2621/2721 13004KT 7000 BKN017"
    },
    {
      "icao": "EPWR",
      "alert": "OK",
      "vis_m": 9999,
      "fzfg": false,
      "metar_trigger": false,
      "taf_trigger": false,
      "metar": "METAR EPWR 262230Z 34004KT 310V020 9999 FEW025 BKN029 01/00 Q1001",
      "taf": "TAF EPWR 262030Z 2621/2721 14006KT 9999 BKN040"
    },
    {
      "icao": "ESGG",
      "alert": "OK",
      "vis_m": 9999,
      "fzfg": false,
      "metar_trigger": false,
      "taf_trigger": false,
      "metar": "METAR ESGG 262250Z 03012KT 9999 BKN019 M04/M07 Q1010",
      "taf": "TAF ESGG 262030Z 2621/2721 05010KT 9999 OVC025"
    },
    {
      "icao": "ESKN",
      "alert": "OK",
      "vis_m": 9999,
      "fzfg": false,
      "metar_trigger": false,
      "taf_trigger": false,
      "metar": "METAR ESKN 262250Z 34006KT 9999 SCT019 BKN028 M05/M07 Q1013",
      "taf": "TAF ESKN 262030Z 2621/2721 36006KT 9999 BKN025"
    },
    {
      "icao": "ESMS",
      "alert": "OK",
      "vis_m": 5000,
      "fzfg": false,
      "metar_trigger": false,
      "taf_trigger": false,
      "metar": "METAR ESMS 262250Z 06014KT 5000 -SN BKN010 OVC017 M00/M01 Q1004",
      "taf": "TAF ESMS 262027Z 2621/2721 06012KT 1200 SN BKN008"
    },
    {
      "icao": "ESSA",
      "alert": "OK",
      "vis_m": 9999,
      "fzfg": false,
      "metar_trigger": false,
      "taf_trigger": false,
      "metar": "METAR ESSA 262250Z 01003KT 9999 BKN024 M06/M08 Q1014 NOSIG",
      "taf": "TAF ESSA 262030Z 2621/2721 35004KT 9999 BKN017"
    },
    {
      "icao": "EYKA",
      "alert": "OK",
      "vis_m": 4000,
      "fzfg": false,
      "metar_trigger": false,
      "taf_trigger": false,
      "metar": "METAR EYKA 262250Z 08005KT 4000 -FZDZ BR OVC004 M03/M04 Q1006",
      "taf": "TAF EYKA 261709Z 2618/2718 VRB04KT 3000 -FZRA -SN OVC005"
    },
    {
      "icao": "EYPA",
      "alert": "OK",
      "vis_m": 5000,
      "fzfg": false,
      "metar_trigger": false,
      "taf_trigger": false,
      "metar": "METAR EYPA 262250Z 07008KT 5000 -SN BKN035 OVC046 M07/M09 Q1007",
      "taf": "TAF EYPA 261708Z 2618/2718 07012KT 3000 SN BKN005 OVC010"
    },
    {
      "icao": "EYVI",
      "alert": "OK",
      "vis_m": 3900,
      "fzfg": false,
      "metar_trigger": false,
      "taf_trigger": false,
      "metar": "METAR EYVI 262250Z 09003KT 3900 -FZDZ BR OVC004 M04/M05 Q1005 NOSIG",
      "taf": "TAF EYVI 261710Z 2618/2718 VRB04KT 3000 -FZRA SN OVC005"
    },
    {
      "icao": "GCFV",
      "alert": "OK",
      "vis_m": 9999,
      "fzfg": false,
      "metar_trigger": false,
      "taf_trigger": false,
      "metar": "METAR GCFV 262230Z 26003KT 220V290 9999 FEW037 15/09 Q1024",
      "taf": "TAF GCFV 262000Z 2621/2721 28005KT 9999 FEW035 TX22/2714Z TN12/2706Z"
    },
    {
      "icao": "GCLP",
      "alert": "OK",
      "vis_m": 9999,
      "fzfg": false,
      "metar_trigger": false,
      "taf_trigger": false,
      "metar": "METAR GCLP 262230Z VRB02KT 9999 BKN030 18/11 Q1024 NOSIG",
      "taf": "TAF GCLP 262000Z 2621/2721 31005KT 9999 BKN030 TX22/2714Z TN12/2706Z"
    },
    {
      "icao": "GCTS",
      "alert": "OK",
      "vis_m": 9999,
      "fzfg": false,
      "metar_trigger": false,
      "taf_trigger": false,
      "metar": "METAR GCTS 262230Z 36005KT 9999 BKN028 17/10 Q1024 NOSIG",
      "taf": "TAF GCTS 262000Z 2621/2721 34007KT 9999 FEW030 TX22/2714Z TN14/2706Z"
    },
    {
      "icao": "GMAD",
      "alert": "OK",
      "vis_m": 8000,
      "fzfg": false,
      "metar_trigger": false,
      "taf_trigger": false,
      "metar": "METAR GMAD 262230Z 17006KT 8000 NSC 12/12 Q1022 NOSIG",
      "taf": "TAF GMAD 261700Z 2618/2724 20008KT 8000 NSC"
    },
    {
      "icao": "GMMN",
      "alert": "OK",
      "vis_m": 9999,
      "fzfg": false,
      "metar_trigger": false,
      "taf_trigger": false,
      "metar": "METAR GMMN 262230Z 20006KT 9999 BKN026 12/11 Q1020 NOSIG",
      "taf": "TAF GMMN 261700Z 2618/2724 22008KT 9999 BKN026"
    },
    {
      "icao": "GMMX",
      "alert": "OK",
      "vis_m": 9999,
      "fzfg": false,
      "metar_trigger": false,
      "taf_trigger": false,
      "metar": "METAR GMMX 262230Z 25006KT CAVOK 11/08 Q1020 NOSIG",
      "taf": "TAF GMMX 261700Z 2618/2724 24006KT 8000 NSC"
    },
    {
      "icao": "HEGN",
      "alert": "OK",
      "vis_m": 9999,
      "fzfg": false,
      "metar_trigger": false,
      "taf_trigger": false,
      "metar": "METAR HEGN 262200Z 25006KT CAVOK 17/09 Q1015 NOSIG",
      "taf": "TAF HEGN 261700Z 2618/2724 11010KT CAVOK"
    },
    {
      "icao": "HEMA",
      "alert": "OK",
      "vis_m": 9999,
      "fzfg": false,
      "metar_trigger": false,
      "taf_trigger": false,
      "metar": "METAR HEMA 262200Z 25006KT CAVOK 18/12 Q1015 NOSIG",
      "taf": ""
    },
    {
      "icao": "HESH",
      "alert": "OK",
      "vis_m": 9999,
      "fzfg": false,
      "metar_trigger": false,
      "taf_trigger": false,
      "metar": "METAR HESH 262200Z 25004KT CAVOK 17/09 Q1015 NOSIG",
      "taf": "TAF HESH 261700Z 2618/2724 16010KT CAVOK"
    },
    {
      "icao": "HESX",
      "alert": "OK",
      "vis_m": 9999,
      "fzfg": false,
      "metar_trigger": false,
      "taf_trigger": false,
      "metar": "METAR HESX 262200Z 25004KT CAVOK 11/04 Q1016 NOSIG",
      "taf": ""
    },
    {
      "icao": "LATI",
      "alert": "OK",
      "vis_m": 7000,
      "fzfg": false,
      "metar_trigger": false,
      "taf_trigger": false,
      "metar": "METAR LATI 262250Z VRB01KT 7000 DZ FEW012 SCT029 BKN053 09/06 Q1001 NOSIG",
      "taf": "TAF LATI 261700Z 2618/2718 VRB05KT 9999 SCT040 BKN080 TX14/2712Z TN06/2705Z"
    },
    {
      "icao": "LBPD",
      "alert": "OK",
      "vis_m": 9999,
      "fzfg": false,
      "metar_trigger": false,
      "taf_trigger": false,
      "metar": "METAR LBPD 262230Z AUTO 11004KT 070V160 9999 BKN010/// BKN024/// OVC057/// 07/07 Q0997",
      "taf": "TAF LBPD 261700Z 2618/2718 11008KT 7000 SCT015 BKN040"
    },
    {
      "icao": "LBSF",
      "alert": "OK",
      "vis_m": 8000,
      "fzfg": false,
      "metar_trigger": false,
      "taf_trigger": false,
      "metar": "METAR LBSF 262230Z AUTO 00000KT 8000 BKN019/// OVC024/// 06/05 Q0997 TEMPO 5000 BR BKN020",
      "taf": "TAF LBSF 261700Z 2618/2718 VRB04KT 6000 RA SCT012 OVC025"
    },
    {
      "icao": "LBWN",
      "alert": "OK",
      "vis_m": 9999,
      "fzfg": false,
      "metar_trigger": false,
      "taf_trigger": false,
      "metar": "METAR LBWN 262230Z AUTO 08011KT 9999 -SHRA OVC009/// 09/09 Q1000 TEMPO 5000 RA",
      "taf": "TAF LBWN 261700Z 2618/2718 10010KT 9999 SCT015 BKN040"
    },
    {
      "icao": "LCLK",
      "alert": "OK",
      "vis_m": 9999,
      "fzfg": false,
      "metar_trigger": false,
      "taf_trigger": false,
      "metar": "METAR LCLK 262230Z VRB01KT 9999 FEW028 15/13 Q1011 NOSIG",
      "taf": "TAF LCLK 261730Z 2618/2718 10013KT 9999 FEW020"
    },
    {
      "icao": "LCPH",
      "alert": "OK",
      "vis_m": 7000,
      "fzfg": false,
      "metar_trigger": false,
      "taf_trigger": false,
      "metar": "METAR LCPH 262230Z 26006KT 7000 FEW030 17/12 Q1012 NOSIG",
      "taf": "TAF LCPH 261730Z 2618/2718 11015KT 9999 FEW030"
    },
    {
      "icao": "LEAL",
      "alert": "OK",
      "vis_m": 9999,
      "fzfg": false,
      "metar_trigger": false,
      "taf_trigger": false,
      "metar": "METAR LEAL 262230Z 26004KT 9999 FEW066 13/10 Q1010 NOSIG",
      "taf": "TAF LEAL 261700Z 2618/2718 27007KT 9999 FEW040 TX20/2712Z TN11/2706Z"
    },
    {
      "icao": "LEBB",
      "alert": "OK",
      "vis_m": 9999,
      "fzfg": false,
      "metar_trigger": false,
      "taf_trigger": false,
      "metar": "METAR LEBB 262230Z 21019G37KT 150V310 9999 -RA FEW034 18/09 Q0996 NOSIG",
      "taf": ""
    },
    {
      "icao": "LEBL",
      "alert": "OK",
      "vis_m": 9999,
      "fzfg": false,
      "metar_trigger": false,
      "taf_trigger": false,
      "metar": "METAR LEBL 262230Z 36002KT 9999 SCT050 11/06 Q1006 NOSIG",
      "taf": "TAF LEBL 261700Z 2618/2718 27010KT 9999 FEW055 TX16/2712Z TN09/2706Z"
    },
    {
      "icao": "LECH",
      "alert": "OK",
      "vis_m": 8000,
      "fzfg": false,
      "metar_trigger": false,
      "taf_trigger": false,
      "metar": "METAR LECH 262230Z AUTO 20006KT 8000 NSC 08/06 Q1007",
      "taf": ""
    },
    {
      "icao": "LEMD",
      "alert": "OK",
      "vis_m": 9000,
      "fzfg": false,
      "metar_trigger": false,
      "taf_trigger": false,
      "metar": "METAR LEMD 262230Z 16008KT 9000 FEW009 BKN013 BKN030 10/10 Q1006 TEMPO BKN010",
      "taf": ""
    },
    {
      "icao": "LEMG",
      "alert": "OK",
      "vis_m": 9999,
      "fzfg": false,
      "metar_trigger": false,
      "taf_trigger": false,
      "metar": "METAR LEMG 262230Z 21005KT 100V270 9999 SCT035 BKN070 15/12 Q1014 NOSIG",
      "taf": "TAF LEMG 261700Z 2618/2718 30009KT 9999 FEW040 TX19/2714Z TN10/2707Z"
    },
    {
      "icao": "LEVC",
      "alert": "OK",
      "vis_m": 9999,
      "fzfg": false,
      "metar_trigger": false,
      "taf_trigger": false,
      "metar": "METAR LEVC 262230Z 25009KT 200V310 CAVOK 16/10 Q1007 NOSIG",
      "taf": "TAF LEVC 261700Z 2618/2718 23009KT 9999 FEW040 TX20/2712Z TN11/2706Z"
    },
    {
      "icao": "LEXJ",
      "alert": "OK",
      "vis_m": 9999,
      "fzfg": false,
      "metar_trigger": false,
      "taf_trigger": false,
      "metar": "METAR LEXJ 262230Z AUTO 22020G35KT 170V280 9999 2800E NSC 18/08 Q0992",
      "taf": "TAF LEXJ 262000Z 2621/2721 23009KT 9999 SCT060 TX17/2721Z TN08/2721Z"
    },
    {
      "icao": "LEZG",
      "alert": "OK",
      "vis_m": 9999,
      "fzfg": false,
      "metar_trigger": false,
      "taf_trigger": false,
      "metar": "METAR LEZG 262230Z 08007KT 9999 FEW004 BKN070 08/08 Q1005 NOSIG",
      "taf": "TAF LEZG 261700Z 2618/2718 12008KT 9999 FEW040 TX15/2714Z TN08/2706Z"
    },
    {
      "icao": "LEZL",
      "alert": "OK",
      "vis_m": 4000,
      "fzfg": false,
      "metar_trigger": false,
      "taf_trigger": false,
      "metar": "SPECI LEZL 262243Z 25012KT 4000 DZ BKN010 BKN020 OVC035 15/15 Q1013 NOSIG",
      "taf": ""
    },
    {
      "icao": "LFBD",
      "alert": "OK",
      "vis_m": 9999,
      "fzfg": false,
      "metar_trigger": false,
      "taf_trigger": false,
      "metar": "METAR LFBD 262230Z AUTO 15013KT 9999 BKN028/// BKN054/// BKN100/// //////TCU 10/07 Q0997 TEMPO 3000 -RA BKN010 BKN015",
      "taf": ""
    },
    {
      "icao": "LFLL",
      "alert": "OK",
      "vis_m": 9999,
      "fzfg": false,
      "metar_trigger": false,
      "taf_trigger": false,
      "metar": "METAR LFLL 262230Z 14010KT CAVOK 03/00 Q1004 NOSIG",
      "taf": "TAF LFLL 261700Z 2618/2724 16005KT CAVOK"
    },
    {
      "icao": "LFLS",
      "alert": "OK",
      "vis_m": 9999,
      "fzfg": false,
      "metar_trigger": false,
      "taf_trigger": false,
      "metar": "METAR LFLS 262230Z AUTO 12006KT CAVOK M01/M01 Q1004",
      "taf": "TAF LFLS 261400Z 2615/2715 36006KT 9999 SCT035"
    },
    {
      "icao": "LFMN",
      "alert": "OK",
      "vis_m": 9999,
      "fzfg": false,
      "metar_trigger": false,
      "taf_trigger": false,
      "metar": "METAR LFMN 262230Z 35008KT CAVOK 08/01 Q1006 NOSIG",
      "taf": "TAF LFMN 262000Z 2621/2803 34010KT CAVOK"
    },
    {
      "icao": "LFOB",
      "alert": "OK",
      "vis_m": 9999,
      "fzfg": false,
      "metar_trigger": false,
      "taf_trigger": false,
      "metar": "METAR LFOB 262230Z AUTO 13008KT 9999 SCT028 SCT033 BKN210 04/04 Q1000 TEMPO BKN007 OVC012",
      "taf": "TAF LFOB 261700Z 2618/2718 14008KT 9999 BKN025 OVC035"
    },
    {
      "icao": "LFPO",
      "alert": "OK",
      "vis_m": 9999,
      "fzfg": false,
      "metar_trigger": false,
      "taf_trigger": false,
      "metar": "METAR LFPO 262230Z 15005KT 120V180 9999 FEW031 OVC140 05/03 Q1001 NOSIG",
      "taf": "TAF LFPO 261700Z 2618/2724 19010KT 9999 SCT016 BKN030"
    },
    {
      "icao": "LFSB",
      "alert": "OK",
      "vis_m": 9999,
      "fzfg": false,
      "metar_trigger": false,
      "taf_trigger": false,
      "metar": "METAR LFSB 262230Z AUTO 16003KT 120V190 CAVOK M01/M02 Q1005 NOSIG",
      "taf": "TAF LFSB 261700Z 2618/2718 VRB03KT 9999 BKN050"
    },
    {
      "icao": "LGAV",
      "alert": "OK",
      "vis_m": 9999,
      "fzfg": false,
      "metar_trigger": false,
      "taf_trigger": false,
      "metar": "METAR LGAV 262250Z VRB02KT 9999 SCT020 BKN070 12/05 Q1000 NOSIG",
      "taf": "TAF LGAV 261700Z 2618/2718 23012KT 9999 SCT025"
    },
    {
      "icao": "LGTS",
      "alert": "OK",
      "vis_m": 9999,
      "fzfg": false,
      "metar_trigger": false,
      "taf_trigger": false,
      "metar": "METAR LGTS 262250Z 32007KT 9999 DZ SCT010 BKN025 10/10 Q0996 NOSIG",
      "taf": "TAF LGTS 261700Z 2618/2718 34010KT 9999 SCT010 BKN025"
    },
    {
      "icao": "LHBP",
      "alert": "OK",
      "vis_m": 900,
      "fzfg": true,
      "metar_trigger": false,
      "taf_trigger": false,
      "metar": "METAR LHBP 262230Z 28003KT 0900 R31L/0600D R31R/0650D PRFG BR FEW002 M02/M02 Q1003 TEMPO 0300 FZFG VV001",
      "taf": ""
    },
    {
      "icao": "LHDC",
      "alert": "OK",
      "vis_m": 900,
      "fzfg": false,
      "metar_trigger": false,
      "taf_trigger": false,
      "metar": "METAR LHDC 262215Z AUTO 29003KT 260V320 0900 R04/1100N -DZ FG VV002 04/04 Q1002",
      "taf": "TAF LHDC 261715Z 2618/2703 VRB03KT 6000 -RA SCT010 OVC030"
    },
    {
      "icao": "LIBD",
      "alert": "OK",
      "vis_m": 9999,
      "fzfg": false,
      "metar_trigger": false,
      "taf_trigger": false,
      "metar": "METAR LIBD 262220Z 27006KT CAVOK 07/05 Q1003",
      "taf": "TAF LIBD 261700Z 2618/2718 28008KT 9999 SCT025"
    },
    {
      "icao": "LIBG",
      "alert": "OK",
      "vis_m": null,
      "fzfg": false,
      "metar_trigger": false,
      "taf_trigger": false,
      "metar": "",
      "taf": "TAF LIBG 261700Z 2618/2703 32006KT 9999 FEW030"
    },
    {
      "icao": "LIBP",
      "alert": "OK",
      "vis_m": 9999,
      "fzfg": false,
      "metar_trigger": false,
      "taf_trigger": false,
      "metar": "METAR LIBP 262250Z AUTO 21006KT 9999 NCD 04/03 Q1006",
      "taf": "TAF LIBP 261700Z 2618/2718 02010KT CAVOK"
    },
    {
      "icao": "LIBR",
      "alert": "OK",
      "vis_m": 9999,
      "fzfg": false,
      "metar_trigger": false,
      "taf_trigger": false,
      "metar": "METAR LIBR 262250Z 32013KT 9999 FEW020 11/09 Q1001",
      "taf": "TAF LIBR 261700Z 2618/2718 33006KT 9999 FEW020"
    },
    {
      "icao": "LICA",
      "alert": "OK",
      "vis_m": 9999,
      "fzfg": false,
      "metar_trigger": false,
      "taf_trigger": false,
      "metar": "METAR LICA 262250Z AUTO 14003KT 110V190 9999 -RA BKN015/// OVC032/// 11/09 Q1003",
      "taf": "TAF LICA 261700Z 2618/2718 VRB05KT 9999 SCT030"
    },
    {
      "icao": "LICC",
      "alert": "OK",
      "vis_m": 9999,
      "fzfg": false,
      "metar_trigger": false,
      "taf_trigger": false,
      "metar": "METAR LICC 262220Z 27008KT 9999 FEW050 BKN120 10/07 Q1002",
      "taf": "TAF LICC 261700Z 2618/2718 26008KT 9999 SCT030"
    },
    {
      "icao": "LICJ",
      "alert": "OK",
      "vis_m": 9999,
      "fzfg": false,
      "metar_trigger": false,
      "taf_trigger": false,
      "metar": "METAR LICJ 262250Z 32015KT 9999 BKN035 14/08 Q1005 RERA",
      "taf": "TAF LICJ 261700Z 2618/2718 29012KT 9999 SCT030"
    },
    {
      "icao": "LIMC",
      "alert": "OK",
      "vis_m": 9999,
      "fzfg": false,
      "metar_trigger": false,
      "taf_trigger": false,
      "metar": "METAR LIMC 262220Z 04003KT 9999 BCFG NSC 01/01 Q1006 NOSIG",
      "taf": "TAF LIMC 261700Z 2618/2724 VRB04KT 3000 BR SCT025"
    },
    {
      "icao": "LIME",
      "alert": "OK",
      "vis_m": 9999,
      "fzfg": false,
      "metar_trigger": false,
      "taf_trigger": false,
      "metar": "METAR LIME 262220Z 36003KT 9999 FEW020 02/01 Q1006 NOSIG",
      "taf": "TAF LIME 261700Z 2618/2718 VRB05KT 7000 FEW020"
    },
    {
      "icao": "LIMF",
      "alert": "OK",
      "vis_m": 9999,
      "fzfg": false,
      "metar_trigger": false,
      "taf_trigger": false,
      "metar": "METAR LIMF 262250Z 21003KT CAVOK 01/M02 Q1005",
      "taf": "TAF LIMF 261700Z 2618/2718 VRB04KT 6000 SCT020"
    },
    {
      "icao": "LIMJ",
      "alert": "OK",
      "vis_m": 9999,
      "fzfg": false,
      "metar_trigger": false,
      "taf_trigger": false,
      "metar": "METAR LIMJ 262250Z 05005KT CAVOK 08/02 Q1006",
      "taf": "TAF LIMJ 261700Z 2618/2718 03010KT 9999 SCT040"
    },
    {
      "icao": "LIPE",
      "alert": "OK",
      "vis_m": 9999,
      "fzfg": false,
      "metar_trigger": false,
      "taf_trigger": false,
      "metar": "METAR LIPE 262250Z 20008KT CAVOK 03/02 Q1006",
      "taf": "TAF LIPE 261700Z 2618/2718 VRB05KT 6000 SCT020"
    },
    {
      "icao": "LIPH",
      "alert": "OK",
      "vis_m": 200,
      "fzfg": false,
      "metar_trigger": false,
      "taf_trigger": false,
      "metar": "METAR LIPH 262220Z AUTO 36002KT 0200 0150W R07/0650N FG NCD 02/02 Q1005",
      "taf": "TAF LIPH 261700Z 2618/2718 25005KT 8000 FEW010"
    },
    {
      "icao": "LIPQ",
      "alert": "OK",
      "vis_m": 250,
      "fzfg": false,
      "metar_trigger": false,
      "taf_trigger": false,
      "metar": "METAR LIPQ 262250Z AUTO VRB01KT 0250 R09/0700U FG NCD 01/01 Q1006",
      "taf": "TAF LIPQ 261700Z 2618/2718 VRB04KT 9999 SCT020"
    },
    {
      "icao": "LIPR",
      "alert": "OK",
      "vis_m": 9999,
      "fzfg": false,
      "metar_trigger": false,
      "taf_trigger": false,
      "metar": "METAR LIPR 262220Z AUTO 23004KT 9999 NCD 02/01 Q1006",
      "taf": "TAF LIPR 261700Z 2618/2718 23005KT 9999 SCT015"
    },
    {
      "icao": "LIPX",
      "alert": "OK",
      "vis_m": 7000,
      "fzfg": false,
      "metar_trigger": false,
      "taf_trigger": false,
      "metar": "METAR LIPX 262220Z 03004KT 360V060 7000 MIFG NSC 00/M01 Q1006",
      "taf": "TAF LIPX 261700Z 2618/2718 VRB04KT 8000 SCT020"
    },
    {
      "icao": "LIPY",
      "alert": "OK",
      "vis_m": 9999,
      "fzfg": false,
      "metar_trigger": false,
      "taf_trigger": false,
      "metar": "METAR LIPY 262250Z AUTO 21002KT 9999 BKN026/// 04/02 Q1006",
      "taf": "TAF LIPY 261700Z 2618/2718 VRB05KT 9999 SCT015"
    },
    {
      "icao": "LIPZ",
      "alert": "OK",
      "vis_m": 8000,
      "fzfg": false,
      "metar_trigger": false,
      "taf_trigger": false,
      "metar": "METAR LIPZ 262250Z 28004KT 150V300 8000 NSC 04/04 Q1006 NOSIG",
      "taf": "TAF LIPZ 261700Z 2618/2724 25005KT 8000 FEW020"
    },
    {
      "icao": "LIRF",
      "alert": "OK",
      "vis_m": 9999,
      "fzfg": false,
      "metar_trigger": false,
      "taf_trigger": false,
      "metar": "METAR LIRF 262220Z 34003KT CAVOK 04/04 Q1005 NOSIG",
      "taf": "TAF LIRF 261700Z 2618/2724 36006KT 9999 FEW030"
    },
    {
      "icao": "LIRN",
      "alert": "OK",
      "vis_m": 9999,
      "fzfg": false,
      "metar_trigger": false,
      "taf_trigger": false,
      "metar": "METAR LIRN 262220Z 01005KT 290V030 9999 SCT060 09/05 Q1004 NOSIG",
      "taf": "TAF LIRN 261700Z 2618/2718 04005KT 9999 SCT040"
    },
    {
      "icao": "LIRP",
      "alert": "OK",
      "vis_m": 6000,
      "fzfg": false,
      "metar_trigger": false,
      "taf_trigger": false,
      "metar": "METAR LIRP 262245Z 11004KT 6000 2500SW MIFG FEW030 04/04 Q1007 NOSIG",
      "taf": "TAF LIRP 261700Z 2618/2718 13004KT 9999 FEW020 SCT040"
    },
    {
      "icao": "LIRZ",
      "alert": "OK",
      "vis_m": 9999,
      "fzfg": false,
      "metar_trigger": false,
      "taf_trigger": false,
      "metar": "METAR LIRZ 262250Z AUTO 01007KT 9999 NCD 02/01 Q1006",
      "taf": "TAF LIRZ 261700Z 2618/2718 VRB05KT 8000 FEW040"
    },
    {
      "icao": "LJLJ",
      "alert": "OK",
      "vis_m": 300,
      "fzfg": true,
      "metar_trigger": false,
      "taf_trigger": false,
      "metar": "METAR LJLJ 262230Z 33001KT 0300 R30/0450N FZFG VV001 M01/M01 Q1005 NOSIG",
      "taf": "TAF LJLJ 261700Z 2618/2718 30003KT 0400 FG VV001"
    },
    {
      "icao": "LKMT",
      "alert": "OK",
      "vis_m": 9999,
      "fzfg": false,
      "metar_trigger": false,
      "taf_trigger": false,
      "metar": "METAR LKMT 262230Z 00000KT 9999 MIFG NSC M01/M01 Q1002 NOSIG",
      "taf": "TAF LKMT 261700Z 2618/2718 23008KT CAVOK"
    },
    {
      "icao": "LKPR",
      "alert": "OK",
      "vis_m": 9999,
      "fzfg": false,
      "metar_trigger": false,
      "taf_trigger": false,
      "metar": "METAR LKPR 262230Z 23010KT 9999 FEW015 OVC018 M00/M02 Q1002 NOSIG",
      "taf": "TAF LKPR 262000Z 2621/2803 23008KT 9999 SCT017 BKN030"
    },
    {
      "icao": "LLBG",
      "alert": "OK",
      "vis_m": 9999,
      "fzfg": false,
      "metar_trigger": false,
      "taf_trigger": false,
      "metar": "METAR LLBG 262220Z VRB02KT CAVOK 13/03 Q1013 NOSIG",
      "taf": "TAF LLBG 261703Z 2618/2718 11005KT CAVOK"
    },
    {
      "icao": "LMML",
      "alert": "OK",
      "vis_m": 9999,
      "fzfg": false,
      "metar_trigger": false,
      "taf_trigger": false,
      "metar": "METAR LMML 262245Z 31016G26KT 9999 -RA FEW019 BKN042 09/07 Q1004 RERA NOSIG",
      "taf": "TAF LMML 261700Z 2618/2718 30020KT 9999 SCT015"
    },
    {
      "icao": "LOWW",
      "alert": "OK",
      "vis_m": 7000,
      "fzfg": false,
      "metar_trigger": false,
      "taf_trigger": false,
      "metar": "METAR LOWW 262250Z VRB01KT 7000 2600S BR FEW000 M02/M02 Q1004 NOSIG",
      "taf": "TAF LOWW 262015Z 2621/2803 24004KT 1200 BCFG FEW001 TX03/2714Z TNM02/2621Z"
    },
    {
      "icao": "LPFR",
      "alert": "OK",
      "vis_m": 9999,
      "fzfg": false,
      "metar_trigger": false,
      "taf_trigger": false,
      "metar": "METAR LPFR 262230Z 22020KT 9999 FEW020 16/14 Q1013",
      "taf": "TAF LPFR 261700Z 2618/2718 25015KT 9999 SCT012 BKN030"
    },
    {
      "icao": "LPMA",
      "alert": "OK",
      "vis_m": 9999,
      "fzfg": false,
      "metar_trigger": false,
      "taf_trigger": false,
      "metar": "METAR LPMA 262230Z VRB10G22KT 9999 -RA BKN015 18/14 Q1016",
      "taf": "TAF LPMA 261700Z 2618/2718 22018KT 9999 SCT015"
    },
    {
      "icao": "LPPR",
      "alert": "OK",
      "vis_m": 2800,
      "fzfg": false,
      "metar_trigger": false,
      "taf_trigger": false,
      "metar": "METAR LPPR 262230Z 19029G42KT 2800 -RADZ BR BKN007 BKN014 14/13 Q0996 WS R17",
      "taf": "TAF LPPR 261700Z 2618/2718 20018G30KT 6000 -RA SCT006 BKN012"
    },
    {
      "icao": "LPPS",
      "alert": "OK",
      "vis_m": 9999,
      "fzfg": false,
      "metar_trigger": false,
      "taf_trigger": false,
      "metar": "METAR LPPS 262230Z 22010KT 9999 FEW014 18/13 Q1016",
      "taf": "TAF LPPS 261700Z 2618/2724 23010KT 9999 SCT015 SCT030"
    },
    {
      "icao": "LPPT",
      "alert": "OK",
      "vis_m": 5000,
      "fzfg": false,
      "metar_trigger": false,
      "taf_trigger": false,
      "metar": "METAR LPPT 262230Z 20024KT 5000 RA BR BKN015 14/13 Q1006 WS R20",
      "taf": "TAF LPPT 261700Z 2618/2724 23017KT 9999 SCT012 BKN025"
    },
    {
      "icao": "LQBK",
      "alert": "OK",
      "vis_m": 9999,
      "fzfg": false,
      "metar_trigger": false,
      "taf_trigger": false,
      "metar": "METAR LQBK 262230Z 32001KT 9999 BKN043 04/04 Q1005 NOSIG",
      "taf": ""
    },
    {
      "icao": "LQSA",
      "alert": "OK",
      "vis_m": 8000,
      "fzfg": false,
      "metar_trigger": false,
      "taf_trigger": false,
      "metar": "METAR LQSA 262230Z 18001KT 8000 FEW015 BKN035 03/03 Q1003",
      "taf": "TAF LQSA 261700Z 2618/2718 VRB02KT 9999 SCT045 TX08/2713Z TN01/2705Z"
    },
    {
      "icao": "LQTZ",
      "alert": "OK",
      "vis_m": 9999,
      "fzfg": false,
      "metar_trigger": false,
      "taf_trigger": false,
      "metar": "METAR LQTZ 262230Z 30005KT 9999 FEW028 BKN066 05/04 Q1004",
      "taf": "TAF LQTZ 261700Z 2618/2718 28006KT 9999 SCT015 BKN030 TX11/2713Z TN00/2706Z"
    },
    {
      "icao": "LRBC",
      "alert": "OK",
      "vis_m": 550,
      "fzfg": false,
      "metar_trigger": false,
      "taf_trigger": false,
      "metar": "METAR LRBC 262230Z 20004KT 0550 R16/0600N -RA FG VV002 04/04 Q1005",
      "taf": "TAF LRBC 262000Z 2621/2706 17008KT 0800 -RA FG VV002"
    },
    {
      "icao": "LRBS",
      "alert": "OK",
      "vis_m": 600,
      "fzfg": false,
      "metar_trigger": false,
      "taf_trigger": false,
      "metar": "METAR LRBS 262230Z 06012KT 0600 R07/1200N FG VV001 06/06 Q1002 NOSIG",
      "taf": "TAF LRBS 261700Z 2618/2718 07012KT 3000 BR BKN003"
    },
    {
      "icao": "LRBV",
      "alert": "OK",
      "vis_m": 9999,
      "fzfg": false,
      "metar_trigger": false,
      "taf_trigger": false,
      "metar": "METAR LRBV 262230Z AUTO 35005KT 9999 FEW041/// OVC140/// 06/03 Q1000",
      "taf": "TAF LRBV 262000Z 2621/2706 09010KT 9999 BKN045"
    },
    {
      "icao": "LRCL",
      "alert": "OK",
      "vis_m": 800,
      "fzfg": false,
      "metar_trigger": false,
      "taf_trigger": false,
      "metar": "METAR LRCL 262230Z 00000KT 0800 R25/0600D -RA FG FEW016 OVC057 02/02 Q1001",
      "taf": "TAF LRCL 262000Z 2621/2706 VRB04KT 3000 -RA BR SCT015 BKN040"
    },
    {
      "icao": "LRCV",
      "alert": "OK",
      "vis_m": 1500,
      "fzfg": false,
      "metar_trigger": false,
      "taf_trigger": false,
      "metar": "METAR LRCV 262230Z 10006KT 1500 BR OVC005 05/05 Q1000",
      "taf": "TAF LRCV 262000Z 2621/2706 09007KT 0800 -RADZ FG BKN002 OVC010"
    },
    {
      "icao": "LRIA",
      "alert": "OK",
      "vis_m": 9000,
      "fzfg": false,
      "metar_trigger": false,
      "taf_trigger": false,
      "metar": "METAR LRIA 262230Z 11011KT 9000 -RA BKN002 OVC004 02/01 Q1006",
      "taf": "TAF LRIA 262000Z 2621/2706 11012KT 7000 -RA BKN005 OVC020"
    },
    {
      "icao": "LROP",
      "alert": "OK",
      "vis_m": 800,
      "fzfg": false,
      "metar_trigger": false,
      "taf_trigger": false,
      "metar": "METAR LROP 262230Z 06016KT 0800 R08R/1200U R08L/1300N FG OVC001 06/06 Q1002 NOSIG",
      "taf": "TAF LROP 261700Z 2618/2718 07012KT 3000 BR BKN003"
    },
    {
      "icao": "LRSB",
      "alert": "OK",
      "vis_m": 9999,
      "fzfg": false,
      "metar_trigger": false,
      "taf_trigger": false,
      "metar": "METAR LRSB 262230Z 29005KT 9999 BKN032 BKN040 05/04 Q1000",
      "taf": "TAF LRSB 261700Z 2618/2718 14012KT 9999 SCT040"
    },
    {
      "icao": "LRSM",
      "alert": "OK",
      "vis_m": 400,
      "fzfg": false,
      "metar_trigger": false,
      "taf_trigger": false,
      "metar": "METAR LRSM 262230Z AUTO 30003KT 0400 R19/0450N FG VV001 02/01 Q1001",
      "taf": ""
    },
    {
      "icao": "LRSV",
      "alert": "OK",
      "vis_m": 100,
      "fzfg": false,
      "metar_trigger": false,
      "taf_trigger": false,
      "metar": "METAR LRSV 262230Z 14011KT 0100 R34/0375N -DZ FG VV001 02/02 Q1003",
      "taf": "TAF LRSV 262000Z 2621/2706 14012KT 0300 -RA FG VV001"
    },
    {
      "icao": "LRTM",
      "alert": "OK",
      "vis_m": 2600,
      "fzfg": false,
      "metar_trigger": false,
      "taf_trigger": false,
      "metar": "METAR LRTM 262230Z AUTO VRB02KT 2600 BR NCD 01/01 Q1000",
      "taf": "TAF LRTM 261400Z 2615/2624 VRB04KT 5000 -RA BR SCT015"
    },
    {
      "icao": "LRTR",
      "alert": "OK",
      "vis_m": 3500,
      "fzfg": false,
      "metar_trigger": false,
      "taf_trigger": false,
      "metar": "METAR LRTR 262230Z 32007KT 3500 -RA BR BKN003 06/06 Q1002",
      "taf": "TAF LRTR 261700Z 2618/2718 31006KT 5000 -RA BR BKN005 OVC030"
    },
    {
      "icao": "LTAC",
      "alert": "OK",
      "vis_m": 9999,
      "fzfg": false,
      "metar_trigger": false,
      "taf_trigger": false,
      "metar": "METAR LTAC 262250Z 22020KT 9999 -RA BKN035 BKN100 08/01 Q1009 NOSIG",
      "taf": "TAF LTAC 261640Z 2618/2718 17008KT 9999 SCT040 BKN100"
    },
    {
      "icao": "LTFM",
      "alert": "OK",
      "vis_m": 9999,
      "fzfg": false,
      "metar_trigger": false,
      "taf_trigger": false,
      "metar": "METAR LTFM 262250Z 18011KT 9999 SCT040 BKN090 11/07 Q1001 NOSIG",
      "taf": ""
    },
    {
      "icao": "LUKK",
      "alert": "OK",
      "vis_m": 7000,
      "fzfg": false,
      "metar_trigger": false,
      "taf_trigger": false,
      "metar": "METAR LUKK 262230Z 10009KT 7000 -FZRA OVC003 M01/M01 Q1008 NOSIG",
      "taf": "TAF LUKK 261720Z 2618/2718 09009KT 5000 RA BR OVC002"
    },
    {
      "icao": "LWOH",
      "alert": "OK",
      "vis_m": null,
      "fzfg": false,
      "metar_trigger": false,
      "taf_trigger": false,
      "metar": "",
      "taf": "TAF LWOH 262030Z 2621/2721 35008KT 9999 FEW020 BKN040"
    },
    {
      "icao": "LWSK",
      "alert": "OK",
      "vis_m": 9999,
      "fzfg": false,
      "metar_trigger": false,
      "taf_trigger": false,
      "metar": "METAR LWSK 262250Z 18003KT 120V220 9999 -RA FEW020 OVC035 07/06 Q0999 NOSIG",
      "taf": "TAF LWSK 262030Z 2621/2721 VRB02KT 9999 RA FEW017 OVC035"
    },
    {
      "icao": "LYBE",
      "alert": "OK",
      "vis_m": 8000,
      "fzfg": false,
      "metar_trigger": false,
      "taf_trigger": false,
      "metar": "METAR LYBE 262230Z 31010KT 8000 OVC007 06/04 Q1003 BECMG 5000 BR OVC004",
      "taf": "TAF LYBE 261700Z 2618/2718 30008KT 9999 SCT017 TX10/2712Z TN03/2706Z"
    },
    {
      "icao": "LYNI",
      "alert": "OK",
      "vis_m": 9999,
      "fzfg": false,
      "metar_trigger": false,
      "taf_trigger": false,
      "metar": "METAR LYNI 262230Z 33013KT 9999 RA SCT008 OVC027 05/05 Q1000 TEMPO BKN008",
      "taf": "TAF LYNI 261700Z 2618/2718 35015KT 9999 SCT020 BKN050 TX07/2713Z TN03/2706Z"
    },
    {
      "icao": "LYPG",
      "alert": "OK",
      "vis_m": 7000,
      "fzfg": false,
      "metar_trigger": false,
      "taf_trigger": false,
      "metar": "METAR LYPG 262230Z VRB02KT 7000 FEW016 05/05 Q1001 NOSIG",
      "taf": "TAF LYPG 261700Z 2618/2718 34005KT 9999 FEW020 TX14/2713Z TN04/2704Z"
    },
    {
      "icao": "LZIB",
      "alert": "OK",
      "vis_m": 8000,
      "fzfg": false,
      "metar_trigger": false,
      "taf_trigger": false,
      "metar": "METAR LZIB 262230Z 19002KT 8000 0800NE R31/P2000N R22/0750N BCFG FEW001 M01/M01 Q1004 NOSIG",
      "taf": ""
    },
    {
      "icao": "LZKZ",
      "alert": "OK",
      "vis_m": 600,
      "fzfg": false,
      "metar_trigger": false,
      "taf_trigger": false,
      "metar": "METAR LZKZ 262230Z VRB02KT 0600 R01/1100D FG SCT005 OVC017 03/03 Q1002 NOSIG",
      "taf": ""
    },
    {
      "icao": "LZTT",
      "alert": "OK",
      "vis_m": 9999,
      "fzfg": false,
      "metar_trigger": false,
      "taf_trigger": false,
      "metar": "METAR LZTT 262230Z 27013KT 9999 FEW003 SCT023 02/01 Q1001",
      "taf": "TAF LZTT 261715Z 2618/2718 24004KT 9999 FEW006 SCT035"
    },
    {
      "icao": "OEJN",
      "alert": "OK",
      "vis_m": 9999,
      "fzfg": false,
      "metar_trigger": false,
      "taf_trigger": false,
      "metar": "METAR OEJN 262200Z VRB02KT CAVOK 26/11 Q1013 NOSIG",
      "taf": "TAF OEJN 261700Z 2618/2724 VRB03KT 7000 NSC"
    },
    {
      "icao": "OEMA",
      "alert": "OK",
      "vis_m": 9999,
      "fzfg": false,
      "metar_trigger": false,
      "taf_trigger": false,
      "metar": "METAR OEMA 262200Z 31004KT CAVOK 15/M04 Q1019 NOSIG",
      "taf": "TAF OEMA 261700Z 2618/2724 08015KT 7000 NSC"
    },
    {
      "icao": "OJAI",
      "alert": "OK",
      "vis_m": null,
      "fzfg": false,
      "metar_trigger": false,
      "taf_trigger": false,
      "metar": "",
      "taf": "TAF OJAI 261658Z 2618/2724 VRB02KT 5000 HZ NSC"
    },
    {
      "icao": "OMAA",
      "alert": "OK",
      "vis_m": 9999,
      "fzfg": false,
      "metar_trigger": false,
      "taf_trigger": false,
      "metar": "METAR OMAA 262230Z 29002KT CAVOK 18/13 Q1019 NOSIG",
      "taf": "TAF OMAA 261700Z 2618/2800 31010KT 8000 FEW045"
    },
    {
      "icao": "OMDB",
      "alert": "OK",
      "vis_m": 9999,
      "fzfg": false,
      "metar_trigger": false,
      "taf_trigger": false,
      "metar": "METAR OMDB 262230Z VRB02KT 9999 FEW030 18/12 Q1019 NOSIG",
      "taf": "TAF OMDB 261700Z 2618/2800 14004KT 8000 NSC"
    },
    {
      "icao": "UAAA",
      "alert": "OK",
      "vis_m": 2600,
      "fzfg": false,
      "metar_trigger": false,
      "taf_trigger": false,
      "metar": "METAR UAAA 262230Z VRB01MPS 2600 BR SCT100 M06/M09 Q1020 NOSIG",
      "taf": "TAF UAAA 261701Z 2618/2718 22003MPS 1500 BR FU SCT020 BKN050 TX03/2708Z TNM07/2702Z"
    },
    {
      "icao": "UBBB",
      "alert": "OK",
      "vis_m": 9999,
      "fzfg": false,
      "metar_trigger": false,
      "taf_trigger": false,
      "metar": "METAR UBBB 262230Z 34016KT 9999 BKN015 OVC022 04/01 Q1025 NOSIG",
      "taf": "TAF UBBB 261700Z 2618/2718 32018G28KT 9999 SCT009 BKN025 TX05/2710Z TN02/2701Z"
    },
    {
      "icao": "UDSG",
      "alert": "OK",
      "vis_m": 2900,
      "fzfg": false,
      "metar_trigger": false,
      "taf_trigger": false,
      "metar": "METAR UDSG 262230Z 05001KT 2900 BR SCT036 M14/M15 Q1021 NOSIG",
      "taf": "TAF UDSG 261658Z 2618/2718 VRB06KT 3000 BR BKN030"
    },
    {
      "icao": "UDYZ",
      "alert": "OK",
      "vis_m": 2300,
      "fzfg": false,
      "metar_trigger": false,
      "taf_trigger": false,
      "metar": "METAR UDYZ 262230Z 25003KT 2300 BR BKN007 M05/M06 Q1025 NOSIG",
      "taf": "TAF UDYZ 261700Z 2618/2718 VRB06KT 2300 BR BKN006"
    },
    {
      "icao": "UGKO",
      "alert": "OK",
      "vis_m": 9999,
      "fzfg": false,
      "metar_trigger": false,
      "taf_trigger": false,
      "metar": "METAR UGKO 262230Z 08031G44KT CAVOK 11/01 Q1011 NOSIG",
      "taf": "TAF UGKO 261700Z 2618/2718 08027G37KT CAVOK TX13/2711Z TN07/2620Z"
    }
  ]
}