{
  "ts_utc": "2026-03-27T08:35:22Z",
  "threshold_m": 150,
  "source": "stations_override.txt (ICAO list) + aviationweather.gov (METAR/TAF raw)",
  "station_count": 159,
  "stations": [
    {
      "icao": "BIKF",
      "alert": "OK",
      "vis_m": 9999,
      "fzfg": false,
      "metar_trigger": false,
      "taf_trigger": false,
      "metar": "METAR BIKF 270830Z 03022KT 9999 -RASN FEW005 OVC015 01/M02 Q0979",
      "taf": ""
    },
    {
      "icao": "BKPR",
      "alert": "OK",
      "vis_m": 9999,
      "fzfg": false,
      "metar_trigger": false,
      "taf_trigger": false,
      "metar": "METAR BKPR 270830Z 16003KT 130V230 9999 SCT010 SCT040 05/03 Q0998 NOSIG",
      "taf": "TAF BKPR 270530Z 2706/2806 VRB05KT 9999 SCT025 BKN040"
    },
    {
      "icao": "EBCI",
      "alert": "OK",
      "vis_m": 9999,
      "fzfg": false,
      "metar_trigger": false,
      "taf_trigger": false,
      "metar": "METAR EBCI 270820Z 23006KT CAVOK 05/00 Q1024 NOSIG",
      "taf": "TAF EBCI 270500Z 2706/2812 21005KT CAVOK"
    },
    {
      "icao": "EDDB",
      "alert": "OK",
      "vis_m": 9999,
      "fzfg": false,
      "metar_trigger": false,
      "taf_trigger": false,
      "metar": "METAR EDDB 270820Z AUTO 27005KT 230V300 9999 BKN015 03/M01 Q1021 NOSIG",
      "taf": "TAF EDDB 270500Z 2706/2806 23006KT CAVOK"
    },
    {
      "icao": "EDDH",
      "alert": "OK",
      "vis_m": 9999,
      "fzfg": false,
      "metar_trigger": false,
      "taf_trigger": false,
      "metar": "METAR EDDH 270820Z AUTO 27007KT 230V300 CAVOK 05/01 Q1021 NOSIG",
      "taf": "TAF EDDH 270500Z 2706/2812 25007KT 9999 FEW025"
    },
    {
      "icao": "EDDK",
      "alert": "OK",
      "vis_m": 9999,
      "fzfg": false,
      "metar_trigger": false,
      "taf_trigger": false,
      "metar": "METAR EDDK 270820Z AUTO VRB01KT 9999 BKN011 04/00 Q1024 BECMG SCT015",
      "taf": ""
    },
    {
      "icao": "EDDN",
      "alert": "OK",
      "vis_m": 9999,
      "fzfg": false,
      "metar_trigger": false,
      "taf_trigger": false,
      "metar": "METAR EDDN 270820Z AUTO 30006KT 270V350 9999 SCT016 02/M02 Q1022 NOSIG",
      "taf": "TAF EDDN 270500Z 2706/2806 31007KT CAVOK"
    },
    {
      "icao": "EDDS",
      "alert": "OK",
      "vis_m": 9999,
      "fzfg": false,
      "metar_trigger": false,
      "taf_trigger": false,
      "metar": "METAR EDDS 270820Z AUTO 08006KT 050V110 9999 BKN016 OVC028 01/M03 Q1022 NOSIG",
      "taf": "TAF EDDS 270500Z 2706/2806 VRB03KT 9999 SCT035"
    },
    {
      "icao": "EDFH",
      "alert": "OK",
      "vis_m": 9999,
      "fzfg": false,
      "metar_trigger": false,
      "taf_trigger": false,
      "metar": "METAR EDFH 270820Z 30004KT 9999 -SN SCT005 BKN007 OVC020 M01/M03 Q1023",
      "taf": ""
    },
    {
      "icao": "EDJA",
      "alert": "OK",
      "vis_m": 9999,
      "fzfg": false,
      "metar_trigger": false,
      "taf_trigger": false,
      "metar": "METAR EDJA 270820Z 01007KT 9999 OVC010 M01/M03 Q1020",
      "taf": "TAF EDJA 270800Z 2709/2718 02007KT 9999 BKN009"
    },
    {
      "icao": "EDLW",
      "alert": "OK",
      "vis_m": 9999,
      "fzfg": false,
      "metar_trigger": false,
      "taf_trigger": false,
      "metar": "METAR EDLW 270820Z 24004KT 210V290 9999 FEW031 04/M00 Q1023",
      "taf": "TAF EDLW 270500Z 2706/2806 23005KT 9999 SCT025"
    },
    {
      "icao": "EDNY",
      "alert": "OK",
      "vis_m": 9999,
      "fzfg": false,
      "metar_trigger": false,
      "taf_trigger": false,
      "metar": "METAR EDNY 270820Z 05011KT 9999 FEW021 02/M03 Q1021",
      "taf": "TAF EDNY 270800Z 2709/2718 03010KT 9999 FEW025 BKN040"
    },
    {
      "icao": "EDSB",
      "alert": "OK",
      "vis_m": 9999,
      "fzfg": false,
      "metar_trigger": false,
      "taf_trigger": false,
      "metar": "METAR EDSB 270820Z 06006KT 020V100 9999 FEW020 BKN032 03/M02 Q1024",
      "taf": "TAF EDSB 270500Z 2706/2806 VRB03KT CAVOK"
    },
    {
      "icao": "EETN",
      "alert": "OK",
      "vis_m": 9999,
      "fzfg": false,
      "metar_trigger": false,
      "taf_trigger": false,
      "metar": "METAR EETN 270820Z 20009KT 170V230 CAVOK 07/02 Q1012 NOSIG",
      "taf": "TAF EETN 270530Z 2706/2806 23008KT 9999 SCT040"
    },
    {
      "icao": "EFTU",
      "alert": "OK",
      "vis_m": 9999,
      "fzfg": false,
      "metar_trigger": false,
      "taf_trigger": false,
      "metar": "METAR EFTU 270820Z AUTO 21006KT 170V240 CAVOK 05/01 Q1010",
      "taf": "TAF EFTU 270528Z 2706/2806 20005KT 0500 FG BKN001"
    },
    {
      "icao": "EGBB",
      "alert": "OK",
      "vis_m": 8000,
      "fzfg": false,
      "metar_trigger": false,
      "taf_trigger": false,
      "metar": "METAR EGBB 270820Z 21006KT 170V250 8000 -RA BKN008 09/08 Q1017",
      "taf": "TAF EGBB 270457Z 2706/2806 21006KT 9999 BKN016"
    },
    {
      "icao": "EGGP",
      "alert": "OK",
      "vis_m": 9999,
      "fzfg": false,
      "metar_trigger": false,
      "taf_trigger": false,
      "metar": "METAR EGGP 270820Z 20003KT 160V240 9999 8000NW -RA OVC014 09/08 Q1015",
      "taf": "TAF EGGP 270500Z 2706/2806 20007KT 9999 BKN030"
    },
    {
      "icao": "EGGW",
      "alert": "OK",
      "vis_m": 9999,
      "fzfg": false,
      "metar_trigger": false,
      "taf_trigger": false,
      "metar": "METAR EGGW 270820Z AUTO 21009KT 9999 BKN012 07/05 Q1019",
      "taf": "TAF EGGW 270501Z 2706/2806 23010KT 9999 SCT040"
    },
    {
      "icao": "EGKK",
      "alert": "OK",
      "vis_m": 9999,
      "fzfg": false,
      "metar_trigger": false,
      "taf_trigger": false,
      "metar": "METAR EGKK 270820Z 22008KT 9999 FEW011 BKN028 09/06 Q1021",
      "taf": "TAF EGKK 270459Z 2706/2812 24004KT 9999 FEW040"
    },
    {
      "icao": "EGNM",
      "alert": "OK",
      "vis_m": 9999,
      "fzfg": false,
      "metar_trigger": false,
      "taf_trigger": false,
      "metar": "METAR EGNM 270820Z 23010KT 9999 -RA BKN007 08/07 Q1014",
      "taf": "TAF EGNM 270456Z 2706/2806 22009KT 9999 FEW012 BKN025"
    },
    {
      "icao": "EGPD",
      "alert": "OK",
      "vis_m": 9999,
      "fzfg": false,
      "metar_trigger": false,
      "taf_trigger": false,
      "metar": "METAR EGPD 270820Z COR AUTO 24007KT 9999 NCD 08/02 Q1010 NOSIG",
      "taf": "TAF EGPD 270457Z 2706/2806 25009KT 9999 FEW025"
    },
    {
      "icao": "EGPF",
      "alert": "OK",
      "vis_m": 8000,
      "fzfg": false,
      "metar_trigger": false,
      "taf_trigger": false,
      "metar": "METAR EGPF 270820Z AUTO 24010KT 8000 SCT032 OVC046 08/05 Q1013",
      "taf": ""
    },
    {
      "icao": "EHBK",
      "alert": "OK",
      "vis_m": 9999,
      "fzfg": false,
      "metar_trigger": false,
      "taf_trigger": false,
      "metar": "METAR EHBK 270825Z AUTO 20009KT 9999 NCD 03/01 Q1024 NOSIG",
      "taf": "TAF EHBK 270509Z 2706/2812 21003KT CAVOK"
    },
    {
      "icao": "EHEH",
      "alert": "OK",
      "vis_m": 9999,
      "fzfg": false,
      "metar_trigger": false,
      "taf_trigger": false,
      "metar": "METAR EHEH 270825Z AUTO 21006KT 200V280 9999 OVC210 05/01 Q1024 BLU BECMG 9999 NSW",
      "taf": "TAF EHEH 270547Z 2706/2812 21003KT 6000 NSC"
    },
    {
      "icao": "EKBI",
      "alert": "OK",
      "vis_m": 9999,
      "fzfg": false,
      "metar_trigger": false,
      "taf_trigger": false,
      "metar": "METAR EKBI 270820Z AUTO 26012KT 9999 SCT027/// 05/M00 Q1018",
      "taf": "TAF EKBI 270827Z 2709/2809 24010KT 9999 SCT035"
    },
    {
      "icao": "EKCH",
      "alert": "OK",
      "vis_m": 9999,
      "fzfg": false,
      "metar_trigger": false,
      "taf_trigger": false,
      "metar": "METAR EKCH 270820Z AUTO 27006KT 9999 FEW012/// 06/01 Q1017 NOSIG",
      "taf": "TAF EKCH 270827Z 2709/2809 28008KT 9999 FEW012"
    },
    {
      "icao": "ENAL",
      "alert": "OK",
      "vis_m": 9999,
      "fzfg": false,
      "metar_trigger": false,
      "taf_trigger": false,
      "metar": "METAR ENAL 270820Z 18010KT 9999 -RA SCT043 BKN047 05/M00 Q1002",
      "taf": "TAF ENAL 270500Z 2706/2715 14012KT 9999 -RA BKN030"
    },
    {
      "icao": "ENBR",
      "alert": "OK",
      "vis_m": 9999,
      "fzfg": false,
      "metar_trigger": false,
      "taf_trigger": false,
      "metar": "METAR ENBR 270820Z 14016KT 9999 -RA SCT007 BKN011 02/01 Q1008 TEMPO 16018G28KT 3000 RASN SCT003 BKN006 RMK WIND 1200FT 15028KT",
      "taf": ""
    },
    {
      "icao": "ENGM",
      "alert": "OK",
      "vis_m": 9999,
      "fzfg": false,
      "metar_trigger": false,
      "taf_trigger": false,
      "metar": "METAR ENGM 270820Z 14003KT 110V180 CAVOK 03/M06 Q1010 NOSIG",
      "taf": "TAF ENGM 270500Z 2706/2806 34005KT CAVOK"
    },
    {
      "icao": "ENHD",
      "alert": "OK",
      "vis_m": 4900,
      "fzfg": false,
      "metar_trigger": false,
      "taf_trigger": false,
      "metar": "METAR ENHD 270820Z 14014KT 4900 -RA BR FEW002 BKN005 04/03 Q1010 REDZRA",
      "taf": "TAF ENHD 270500Z 2706/2715 16012KT 9999 SCT020"
    },
    {
      "icao": "ENTC",
      "alert": "OK",
      "vis_m": 6000,
      "fzfg": false,
      "metar_trigger": false,
      "taf_trigger": false,
      "metar": "METAR ENTC 270820Z 05005KT 340V100 6000 -SHSN BKN020 M01/M03 Q1002 TEMPO 0800 SHSN VV006 RMK WIND 2600FT 34036KT",
      "taf": "TAF ENTC 270500Z 2706/2806 33009KT 6000 -SHSN SCT008 BKN015"
    },
    {
      "icao": "ENTO",
      "alert": "OK",
      "vis_m": 9999,
      "fzfg": false,
      "metar_trigger": false,
      "taf_trigger": false,
      "metar": "METAR ENTO 270820Z 18006KT CAVOK 05/M04 Q1012 NOSIG",
      "taf": "TAF ENTO 270500Z 2706/2806 32005KT CAVOK"
    },
    {
      "icao": "ENVA",
      "alert": "OK",
      "vis_m": 9999,
      "fzfg": false,
      "metar_trigger": false,
      "taf_trigger": false,
      "metar": "METAR ENVA 270820Z 10012KT CAVOK 03/M01 Q1005 NOSIG RMK WIND 670FT 14017KT",
      "taf": "TAF ENVA 270500Z 2706/2806 10006KT CAVOK"
    },
    {
      "icao": "ENZV",
      "alert": "OK",
      "vis_m": 9000,
      "fzfg": false,
      "metar_trigger": false,
      "taf_trigger": false,
      "metar": "METAR ENZV 270820Z 16010KT 9000 VCSH FEW006 OVC018 04/02 Q1012 TEMPO 16015G25KT BKN006",
      "taf": "TAF ENZV 270500Z 2706/2806 16008KT 9999 FEW018 BKN030"
    },
    {
      "icao": "EPGD",
      "alert": "OK",
      "vis_m": 9999,
      "fzfg": false,
      "metar_trigger": false,
      "taf_trigger": false,
      "metar": "METAR EPGD 270830Z 28008KT CAVOK 05/M01 Q1018",
      "taf": "TAF EPGD 270530Z 2706/2806 27008KT CAVOK"
    },
    {
      "icao": "EPKK",
      "alert": "OK",
      "vis_m": 9999,
      "fzfg": false,
      "metar_trigger": false,
      "taf_trigger": false,
      "metar": "METAR EPKK 270830Z 36007KT 330V030 9999 -RA FEW012 SCT020 BKN035 03/01 Q1014",
      "taf": "TAF EPKK 270830Z 2709/2809 02010KT 9999 -RA BKN020"
    },
    {
      "icao": "EPKT",
      "alert": "OK",
      "vis_m": 9999,
      "fzfg": false,
      "metar_trigger": false,
      "taf_trigger": false,
      "metar": "METAR EPKT 270830Z 01013KT 9999 FEW024 04/M01 Q1015",
      "taf": "TAF EPKT 270530Z 2706/2806 36010KT 9999 FEW021"
    },
    {
      "icao": "EPLB",
      "alert": "OK",
      "vis_m": 9999,
      "fzfg": false,
      "metar_trigger": false,
      "taf_trigger": false,
      "metar": "METAR EPLB 270830Z 02009KT 360V060 9999 FEW018 05/01 Q1013",
      "taf": "TAF EPLB 270530Z 2706/2806 01012KT 9999 OVC010"
    },
    {
      "icao": "EPMO",
      "alert": "OK",
      "vis_m": 9999,
      "fzfg": false,
      "metar_trigger": false,
      "taf_trigger": false,
      "metar": "METAR EPMO 270830Z 36010KT 330V030 CAVOK 06/M02 Q1017",
      "taf": "TAF EPMO 270530Z 2706/2806 36010KT 9999 SCT045"
    },
    {
      "icao": "EPPO",
      "alert": "OK",
      "vis_m": 9999,
      "fzfg": true,
      "metar_trigger": false,
      "taf_trigger": false,
      "metar": "METAR EPPO 270830Z 30005KT 290V020 CAVOK 05/M03 Q1020",
      "taf": "TAF EPPO 270530Z 2706/2806 VRB02KT 0200 FZFG NSC"
    },
    {
      "icao": "EPRA",
      "alert": "OK",
      "vis_m": 9999,
      "fzfg": false,
      "metar_trigger": false,
      "taf_trigger": false,
      "metar": "METAR EPRA 270830Z 36011KT 9999 BKN033 05/M00 Q1015",
      "taf": "TAF EPRA 270830Z 2709/2718 01012KT 9999 BKN040"
    },
    {
      "icao": "EPRZ",
      "alert": "OK",
      "vis_m": 9999,
      "fzfg": false,
      "metar_trigger": false,
      "taf_trigger": false,
      "metar": "METAR EPRZ 270830Z COR 36010KT 330V030 9999 -RA BKN007 05/04 Q1011",
      "taf": "TAF EPRZ 270530Z 2706/2806 02009KT 9999 BKN012"
    },
    {
      "icao": "EPSC",
      "alert": "OK",
      "vis_m": 9999,
      "fzfg": false,
      "metar_trigger": false,
      "taf_trigger": false,
      "metar": "METAR EPSC 270830Z 24006KT 200V270 9999 SCT010 BKN013 03/00 Q1020",
      "taf": "TAF EPSC 270530Z 2706/2806 25007KT 9999 BKN025"
    },
    {
      "icao": "EPSY",
      "alert": "OK",
      "vis_m": 9999,
      "fzfg": false,
      "metar_trigger": false,
      "taf_trigger": false,
      "metar": "METAR EPSY 270830Z 35008KT 320V040 CAVOK 06/M02 Q1017",
      "taf": "TAF EPSY 270830Z 2709/2718 35010KT CAVOK"
    },
    {
      "icao": "EPWA",
      "alert": "OK",
      "vis_m": 9999,
      "fzfg": false,
      "metar_trigger": false,
      "taf_trigger": false,
      "metar": "METAR EPWA 270830Z 01011KT 9999 SCT045 06/M01 Q1016 NOSIG",
      "taf": "TAF EPWA 270830Z 2709/2809 36012KT CAVOK"
    },
    {
      "icao": "EPWR",
      "alert": "OK",
      "vis_m": 9999,
      "fzfg": false,
      "metar_trigger": false,
      "taf_trigger": false,
      "metar": "METAR EPWR 270830Z 31009KT 9999 FEW042 BKN047 05/01 Q1019",
      "taf": "TAF EPWR 270830Z 2709/2809 32012KT 9999 SCT035"
    },
    {
      "icao": "ESGG",
      "alert": "OK",
      "vis_m": 300,
      "fzfg": false,
      "metar_trigger": false,
      "taf_trigger": false,
      "metar": "METAR ESGG 270820Z 18004KT 150V210 0300 R03/0550U R21/P2000N FG VV005 02/02 Q1014",
      "taf": "TAF ESGG 270830Z 2709/2809 16005KT CAVOK"
    },
    {
      "icao": "ESKN",
      "alert": "OK",
      "vis_m": 9999,
      "fzfg": false,
      "metar_trigger": false,
      "taf_trigger": false,
      "metar": "METAR ESKN 270820Z 25006KT CAVOK 07/M01 Q1013",
      "taf": "TAF ESKN 270830Z 2709/2809 25005KT CAVOK"
    },
    {
      "icao": "ESMS",
      "alert": "OK",
      "vis_m": 9999,
      "fzfg": false,
      "metar_trigger": false,
      "taf_trigger": false,
      "metar": "METAR ESMS 270820Z 28006KT 250V310 9999 SCT010 05/02 Q1016",
      "taf": "TAF ESMS 270827Z 2709/2809 24005KT 8000 FEW006"
    },
    {
      "icao": "ESSA",
      "alert": "OK",
      "vis_m": 9999,
      "fzfg": false,
      "metar_trigger": false,
      "taf_trigger": false,
      "metar": "METAR ESSA 270820Z 25008KT CAVOK 04/M01 Q1012 NOSIG",
      "taf": "TAF ESSA 270830Z 2709/2809 24008KT CAVOK"
    },
    {
      "icao": "EYKA",
      "alert": "OK",
      "vis_m": 9999,
      "fzfg": false,
      "metar_trigger": false,
      "taf_trigger": false,
      "metar": "METAR EYKA 270820Z 31003KT 270V010 CAVOK 05/00 Q1017",
      "taf": "TAF EYKA 270502Z 2706/2806 VRB04KT 9000 NSC"
    },
    {
      "icao": "EYPA",
      "alert": "OK",
      "vis_m": 9999,
      "fzfg": false,
      "metar_trigger": false,
      "taf_trigger": false,
      "metar": "METAR EYPA 270820Z 24005KT 190V310 CAVOK 05/02 Q1017",
      "taf": "TAF EYPA 270503Z 2706/2806 VRB04KT 9000 NSC"
    },
    {
      "icao": "EYVI",
      "alert": "OK",
      "vis_m": 9999,
      "fzfg": false,
      "metar_trigger": false,
      "taf_trigger": false,
      "metar": "METAR EYVI 270820Z 36010KT CAVOK 06/M00 Q1015 NOSIG",
      "taf": "TAF EYVI 270501Z 2706/2806 36008KT 9000 SCT045"
    },
    {
      "icao": "GCFV",
      "alert": "OK",
      "vis_m": 9999,
      "fzfg": false,
      "metar_trigger": false,
      "taf_trigger": false,
      "metar": "METAR GCFV 270830Z 33010KT 9999 FEW025 18/12 Q1014",
      "taf": "TAF GCFV 270800Z 2709/2809 34014KT 9999 SCT035 TX22/2714Z TN16/2806Z"
    },
    {
      "icao": "GCLP",
      "alert": "OK",
      "vis_m": 9999,
      "fzfg": false,
      "metar_trigger": false,
      "taf_trigger": false,
      "metar": "METAR GCLP 270830Z 36016KT 9999 SCT025 18/09 Q1015 NOSIG",
      "taf": "TAF GCLP 270800Z 2709/2809 01018KT 9999 SCT025 TX22/2714Z TN16/2806Z"
    },
    {
      "icao": "GCTS",
      "alert": "OK",
      "vis_m": 9999,
      "fzfg": false,
      "metar_trigger": false,
      "taf_trigger": false,
      "metar": "METAR GCTS 270830Z 07004KT 9999 SCT030 18/12 Q1015 NOSIG",
      "taf": "TAF GCTS 270800Z 2709/2809 19007KT 9999 SCT030 TX23/2714Z TN14/2806Z"
    },
    {
      "icao": "GMAD",
      "alert": "OK",
      "vis_m": 5000,
      "fzfg": false,
      "metar_trigger": false,
      "taf_trigger": false,
      "metar": "METAR GMAD 270830Z 00000KT 5000 OVC006 17/17 Q1009 NOSIG",
      "taf": "TAF GMAD 270500Z 2706/2812 18008KT 6000 BKN010"
    },
    {
      "icao": "GMMN",
      "alert": "OK",
      "vis_m": 1000,
      "fzfg": false,
      "metar_trigger": false,
      "taf_trigger": false,
      "metar": "METAR GMMN 270830Z 08004KT 360V140 1000 R35L/1300N BR BKN004 14/13 Q1011 NOSIG",
      "taf": ""
    },
    {
      "icao": "GMMX",
      "alert": "OK",
      "vis_m": 4000,
      "fzfg": false,
      "metar_trigger": false,
      "taf_trigger": false,
      "metar": "METAR GMMX 270830Z 24003KT 210V280 4000 BR BKN006 14/13 Q1011 NOSIG",
      "taf": "TAF GMMX 270500Z 2706/2812 06006KT 8000 SCT026 SCT080"
    },
    {
      "icao": "HEGN",
      "alert": "OK",
      "vis_m": 9999,
      "fzfg": false,
      "metar_trigger": false,
      "taf_trigger": false,
      "metar": "METAR HEGN 270800Z 32012KT 9999 SCT025 23/07 Q1016 NOSIG",
      "taf": "TAF HEGN 270501Z 2706/2812 30010KT 9999 SCT025"
    },
    {
      "icao": "HEMA",
      "alert": "OK",
      "vis_m": 9999,
      "fzfg": false,
      "metar_trigger": false,
      "taf_trigger": false,
      "metar": "METAR HEMA 270800Z 26005KT CAVOK 22/04 Q1016 NOSIG",
      "taf": "TAF HEMA 270500Z 2706/2812 29010KT 9999 SCT025"
    },
    {
      "icao": "HESH",
      "alert": "OK",
      "vis_m": 9999,
      "fzfg": false,
      "metar_trigger": false,
      "taf_trigger": false,
      "metar": "METAR HESH 270800Z 12003KT CAVOK 23/08 Q1016 NOSIG",
      "taf": "TAF HESH 270501Z 2706/2812 35010KT 9999 SCT025"
    },
    {
      "icao": "HESX",
      "alert": "OK",
      "vis_m": 9999,
      "fzfg": false,
      "metar_trigger": false,
      "taf_trigger": false,
      "metar": "METAR HESX 270800Z 22009KT CAVOK 17/07 Q1015 NOSIG",
      "taf": "TAF HESX 270500Z 2706/2812 26012KT 9999 SCT025"
    },
    {
      "icao": "LATI",
      "alert": "OK",
      "vis_m": 9999,
      "fzfg": false,
      "metar_trigger": false,
      "taf_trigger": false,
      "metar": "METAR LATI 270820Z 14009KT 110V170 9999 FEW065 13/03 Q0998 NOSIG",
      "taf": ""
    },
    {
      "icao": "LBPD",
      "alert": "OK",
      "vis_m": 9000,
      "fzfg": false,
      "metar_trigger": false,
      "taf_trigger": false,
      "metar": "METAR LBPD 270830Z AUTO 11016KT 9000 FEW048/// OVC054/// 09/07 Q1000 NOSIG",
      "taf": "TAF LBPD 270500Z 2706/2806 11016KT 9999 SCT030 BKN050"
    },
    {
      "icao": "LBSF",
      "alert": "OK",
      "vis_m": 9999,
      "fzfg": false,
      "metar_trigger": false,
      "taf_trigger": false,
      "metar": "METAR LBSF 270830Z 14016KT 9999 FEW031 BKN042 BKN068 09/03 Q0998 TEMPO 14020G30KT 5000 RA BKN020",
      "taf": "TAF LBSF 270500Z 2706/2806 12014KT 9999 BKN060"
    },
    {
      "icao": "LBWN",
      "alert": "OK",
      "vis_m": 9999,
      "fzfg": false,
      "metar_trigger": false,
      "taf_trigger": false,
      "metar": "METAR LBWN 270830Z 12016KT 9999 SCT015 11/07 Q1005 NOSIG",
      "taf": "TAF LBWN 270500Z 2706/2806 11008KT 9999 SCT010 OVC013"
    },
    {
      "icao": "LCLK",
      "alert": "OK",
      "vis_m": 9999,
      "fzfg": false,
      "metar_trigger": false,
      "taf_trigger": false,
      "metar": "METAR LCLK 270830Z 06004KT 020V100 9999 FEW030 21/10 Q1009 NOSIG",
      "taf": "TAF LCLK 270530Z 2706/2806 26009KT 9999 FEW025"
    },
    {
      "icao": "LCPH",
      "alert": "OK",
      "vis_m": 9999,
      "fzfg": false,
      "metar_trigger": false,
      "taf_trigger": false,
      "metar": "METAR LCPH 270830Z 30013KT 250V320 9999 FEW025 BKN040 18/12 Q1011 NOSIG",
      "taf": "TAF LCPH 270530Z 2706/2806 30015KT 9999 FEW018 SCT025"
    },
    {
      "icao": "LEAL",
      "alert": "OK",
      "vis_m": 9999,
      "fzfg": false,
      "metar_trigger": false,
      "taf_trigger": false,
      "metar": "METAR LEAL 270830Z VRB01KT 9999 SCT023 BKN046 14/08 Q1017 NOSIG",
      "taf": "TAF LEAL 270500Z 2706/2806 VRB04KT 9999 FEW025 TX16/2712Z TN06/2706Z"
    },
    {
      "icao": "LEBB",
      "alert": "OK",
      "vis_m": 9999,
      "fzfg": false,
      "metar_trigger": false,
      "taf_trigger": false,
      "metar": "METAR LEBB 270830Z VRB02KT 9999 SCT025 BKN031 OVC039 08/08 Q1026 NOSIG",
      "taf": "TAF LEBB 270500Z 2706/2806 35009KT 9999 SCT035 BKN050 TX13/2714Z TN06/2706Z"
    },
    {
      "icao": "LEBL",
      "alert": "OK",
      "vis_m": 9999,
      "fzfg": false,
      "metar_trigger": false,
      "taf_trigger": false,
      "metar": "METAR LEBL 270830Z 34012KT 310V010 9999 FEW020 12/01 Q1016 NOSIG",
      "taf": ""
    },
    {
      "icao": "LECH",
      "alert": "OK",
      "vis_m": 9999,
      "fzfg": false,
      "metar_trigger": false,
      "taf_trigger": false,
      "metar": "METAR LECH 270830Z AUTO VRB02KT CAVOK 11/M02 Q1016",
      "taf": "TAF LECH 270500Z 2706/2806 33009KT 9999 FEW030 TX19/2713Z TN05/2706Z"
    },
    {
      "icao": "LEMD",
      "alert": "OK",
      "vis_m": 9999,
      "fzfg": false,
      "metar_trigger": false,
      "taf_trigger": false,
      "metar": "METAR LEMD 270830Z 34006KT 310V020 CAVOK 06/M01 Q1019 NOSIG",
      "taf": "TAF LEMD 270500Z 2706/2812 03008KT CAVOK TX20/2716Z TN03/2707Z"
    },
    {
      "icao": "LEMG",
      "alert": "OK",
      "vis_m": 9999,
      "fzfg": false,
      "metar_trigger": false,
      "taf_trigger": false,
      "metar": "METAR LEMG 270830Z 12008KT 9999 FEW030 SCT045 16/09 Q1016 NOSIG",
      "taf": "TAF LEMG 270500Z 2706/2806 12010KT 9999 SCT020 TX20/2713Z TN08/2706Z"
    },
    {
      "icao": "LEVC",
      "alert": "OK",
      "vis_m": 9999,
      "fzfg": false,
      "metar_trigger": false,
      "taf_trigger": false,
      "metar": "METAR LEVC 270830Z 26004KT 200V310 CAVOK 12/M01 Q1017 NOSIG",
      "taf": "TAF LEVC 270500Z 2706/2806 30005KT 9999 FEW025 TX19/2713Z TN05/2706Z"
    },
    {
      "icao": "LEXJ",
      "alert": "OK",
      "vis_m": 9999,
      "fzfg": false,
      "metar_trigger": false,
      "taf_trigger": false,
      "metar": "METAR LEXJ 270830Z 23004KT 200V280 9999 BKN055 10/06 Q1026",
      "taf": "TAF LEXJ 270800Z 2709/2809 27009KT 9999 FEW030 BKN040 TX13/2712Z TN08/2805Z"
    },
    {
      "icao": "LEZG",
      "alert": "OK",
      "vis_m": 9999,
      "fzfg": false,
      "metar_trigger": false,
      "taf_trigger": false,
      "metar": "METAR LEZG 270830Z 29024KT CAVOK 10/02 Q1019 NOSIG",
      "taf": "TAF LEZG 270500Z 2706/2806 30020KT 9999 FEW045 TX16/2714Z TN06/2706Z"
    },
    {
      "icao": "LEZL",
      "alert": "OK",
      "vis_m": 9999,
      "fzfg": false,
      "metar_trigger": false,
      "taf_trigger": false,
      "metar": "METAR LEZL 270830Z 05011KT CAVOK 15/02 Q1015 NOSIG",
      "taf": "TAF LEZL 270800Z 2709/2809 06010KT CAVOK TX28/2715Z TN07/2807Z"
    },
    {
      "icao": "LFBD",
      "alert": "OK",
      "vis_m": 9999,
      "fzfg": false,
      "metar_trigger": false,
      "taf_trigger": false,
      "metar": "METAR LFBD 270830Z AUTO 06004KT 020V110 CAVOK 08/01 Q1026 NOSIG",
      "taf": "TAF LFBD 270500Z 2706/2812 35005KT CAVOK TX13/2715Z TN02/2706Z"
    },
    {
      "icao": "LFLL",
      "alert": "OK",
      "vis_m": 9999,
      "fzfg": false,
      "metar_trigger": false,
      "taf_trigger": false,
      "metar": "METAR LFLL 270830Z 36015KT 9999 SCT016 BKN018 03/M01 Q1020 TEMPO 35015G25KT",
      "taf": "TAF LFLL 270500Z 2706/2812 35012KT 9999 BKN016"
    },
    {
      "icao": "LFLS",
      "alert": "OK",
      "vis_m": 9999,
      "fzfg": false,
      "metar_trigger": false,
      "taf_trigger": false,
      "metar": "METAR LFLS 270830Z AUTO 34017KT 9999 SCT014 02/M00 Q1018 NOSIG",
      "taf": "TAF LFLS 270200Z 2703/2803 35012KT 9999 BKN012"
    },
    {
      "icao": "LFMN",
      "alert": "OK",
      "vis_m": 9999,
      "fzfg": false,
      "metar_trigger": false,
      "taf_trigger": false,
      "metar": "METAR LFMN 270830Z 33008KT CAVOK 13/M09 Q1007 NOSIG",
      "taf": "TAF LFMN 270800Z 2709/2815 30005KT CAVOK"
    },
    {
      "icao": "LFOB",
      "alert": "OK",
      "vis_m": 9999,
      "fzfg": false,
      "metar_trigger": false,
      "taf_trigger": false,
      "metar": "METAR LFOB 270830Z AUTO VRB02KT CAVOK 04/03 Q1024 NOSIG",
      "taf": "TAF LFOB 270500Z 2706/2806 VRB03KT CAVOK"
    },
    {
      "icao": "LFPO",
      "alert": "OK",
      "vis_m": 9999,
      "fzfg": false,
      "metar_trigger": false,
      "taf_trigger": false,
      "metar": "METAR LFPO 270830Z VRB02KT CAVOK 05/01 Q1025 NOSIG",
      "taf": "TAF LFPO 270500Z 2706/2812 25003KT CAVOK"
    },
    {
      "icao": "LFSB",
      "alert": "OK",
      "vis_m": 9999,
      "fzfg": false,
      "metar_trigger": false,
      "taf_trigger": false,
      "metar": "METAR LFSB 270830Z AUTO 36011KT CAVOK 04/00 Q1023 NOSIG",
      "taf": "TAF LFSB 270500Z 2706/2806 35010KT 9999 FEW040 BKN060"
    },
    {
      "icao": "LGAV",
      "alert": "OK",
      "vis_m": 9999,
      "fzfg": false,
      "metar_trigger": false,
      "taf_trigger": false,
      "metar": "METAR LGAV 270820Z 23013KT 9999 FEW025 SCT050 18/07 Q1002 NOSIG",
      "taf": "TAF LGAV 270500Z 2706/2806 22015G25KT 9999 FEW030"
    },
    {
      "icao": "LGTS",
      "alert": "OK",
      "vis_m": 9999,
      "fzfg": false,
      "metar_trigger": false,
      "taf_trigger": false,
      "metar": "METAR LGTS 270820Z 19015G25KT 9999 FEW020TCU SCT030 18/06 Q0998 NOSIG",
      "taf": "TAF LGTS 270500Z 2706/2806 12015KT 9999 SCT025"
    },
    {
      "icao": "LHBP",
      "alert": "OK",
      "vis_m": 9999,
      "fzfg": false,
      "metar_trigger": false,
      "taf_trigger": false,
      "metar": "METAR LHBP 270830Z 02016KT 9999 FEW025 BKN061 09/03 Q1004 NOSIG",
      "taf": "TAF LHBP 270515Z 2706/2806 01017KT CAVOK"
    },
    {
      "icao": "LHDC",
      "alert": "OK",
      "vis_m": 9999,
      "fzfg": false,
      "metar_trigger": false,
      "taf_trigger": false,
      "metar": "METAR LHDC 270815Z AUTO 03022G33KT 360V060 CAVOK 09/03 Q1002 NOSIG",
      "taf": "TAF LHDC 270815Z 2709/2718 02022G32KT CAVOK"
    },
    {
      "icao": "LIBD",
      "alert": "OK",
      "vis_m": 9999,
      "fzfg": false,
      "metar_trigger": false,
      "taf_trigger": false,
      "metar": "METAR LIBD 270820Z 29014KT 9999 FEW020 SCT040 10/05 Q0996",
      "taf": "TAF LIBD 270500Z 2706/2806 24012KT 9999 FEW020"
    },
    {
      "icao": "LIBG",
      "alert": "OK",
      "vis_m": 9999,
      "fzfg": false,
      "metar_trigger": false,
      "taf_trigger": false,
      "metar": "METAR LIBG 270750Z 27007KT 240V320 9999 FEW040 11/05 Q0996",
      "taf": ""
    },
    {
      "icao": "LIBP",
      "alert": "OK",
      "vis_m": 6000,
      "fzfg": false,
      "metar_trigger": false,
      "taf_trigger": false,
      "metar": "METAR LIBP 270820Z AUTO 31008KT 260V350 6000 RA OVC016/// 05/04 Q1003",
      "taf": "TAF LIBP 270500Z 2706/2806 32012KT 9999 BKN020"
    },
    {
      "icao": "LIBR",
      "alert": "OK",
      "vis_m": 9999,
      "fzfg": false,
      "metar_trigger": false,
      "taf_trigger": false,
      "metar": "METAR LIBR 270820Z 20008KT 9999 VCSH BKN035 10/06 Q0997",
      "taf": "TAF LIBR 270500Z 2706/2806 22012KT 9999 FEW040"
    },
    {
      "icao": "LICA",
      "alert": "OK",
      "vis_m": 9999,
      "fzfg": false,
      "metar_trigger": false,
      "taf_trigger": false,
      "metar": "METAR LICA 270820Z AUTO 29010KT 260V320 9999 -RA BKN028/// 09/06 Q0999",
      "taf": "TAF LICA 270500Z 2706/2806 27017KT 9999 BKN020"
    },
    {
      "icao": "LICC",
      "alert": "OK",
      "vis_m": 9999,
      "fzfg": false,
      "metar_trigger": false,
      "taf_trigger": false,
      "metar": "METAR LICC 270820Z 28020G30KT 9999 FEW010 SCT030 13/08 Q1001",
      "taf": "TAF LICC 270500Z 2706/2806 25012KT CAVOK"
    },
    {
      "icao": "LICJ",
      "alert": "OK",
      "vis_m": 9999,
      "fzfg": false,
      "metar_trigger": false,
      "taf_trigger": false,
      "metar": "METAR LICJ 270820Z 31017KT 9999 SCT035 13/06 Q1003",
      "taf": "TAF LICJ 270500Z 2706/2806 31026G36KT 9999 BKN030"
    },
    {
      "icao": "LIMC",
      "alert": "OK",
      "vis_m": 9999,
      "fzfg": false,
      "metar_trigger": false,
      "taf_trigger": false,
      "metar": "METAR LIMC 270820Z 34018KT CAVOK 11/M12 Q1008 NOSIG",
      "taf": "TAF LIMC 270500Z 2706/2812 35018G28KT CAVOK"
    },
    {
      "icao": "LIME",
      "alert": "OK",
      "vis_m": 9999,
      "fzfg": false,
      "metar_trigger": false,
      "taf_trigger": false,
      "metar": "METAR LIME 270820Z 05004KT 360V090 CAVOK 12/M14 Q1007 NOSIG",
      "taf": "TAF LIME 270500Z 2706/2806 VRB05KT CAVOK"
    },
    {
      "icao": "LIMF",
      "alert": "OK",
      "vis_m": 9999,
      "fzfg": false,
      "metar_trigger": false,
      "taf_trigger": false,
      "metar": "METAR LIMF 270820Z 12006KT CAVOK 10/M08 Q1009",
      "taf": "TAF LIMF 270500Z 2706/2806 VRB05KT CAVOK"
    },
    {
      "icao": "LIMJ",
      "alert": "OK",
      "vis_m": 9999,
      "fzfg": false,
      "metar_trigger": false,
      "taf_trigger": false,
      "metar": "METAR LIMJ 270820Z AUTO 36021G34KT 330V040 9999 NCD 12/M13 Q1006",
      "taf": "TAF LIMJ 270500Z 2706/2806 35020G35KT CAVOK"
    },
    {
      "icao": "LIPE",
      "alert": "OK",
      "vis_m": 9999,
      "fzfg": false,
      "metar_trigger": false,
      "taf_trigger": false,
      "metar": "METAR LIPE 270820Z 08003KT 040V120 9999 SCT070 07/M02 Q1008",
      "taf": "TAF LIPE 270500Z 2706/2806 28008KT 9999 SCT070"
    },
    {
      "icao": "LIPH",
      "alert": "OK",
      "vis_m": 9999,
      "fzfg": false,
      "metar_trigger": false,
      "taf_trigger": false,
      "metar": "METAR LIPH 270820Z 35011KT 320V020 9999 BKN070 11/M02 Q1006",
      "taf": "TAF LIPH 270500Z 2706/2806 32006KT 9999 SCT070"
    },
    {
      "icao": "LIPQ",
      "alert": "OK",
      "vis_m": 9999,
      "fzfg": false,
      "metar_trigger": false,
      "taf_trigger": false,
      "metar": "METAR LIPQ 270820Z AUTO 31003KT 260V350 9999 OVC100/// 10/M02 Q1005",
      "taf": "TAF LIPQ 270500Z 2706/2806 33006KT 9999 SCT070"
    },
    {
      "icao": "LIPR",
      "alert": "OK",
      "vis_m": 9999,
      "fzfg": false,
      "metar_trigger": false,
      "taf_trigger": false,
      "metar": "METAR LIPR 270820Z AUTO 30012KT 9999 R30/1200N RA BKN027/// 06/04 Q1006",
      "taf": "TAF LIPR 270500Z 2706/2806 30008KT 9999 SCT020"
    },
    {
      "icao": "LIPX",
      "alert": "OK",
      "vis_m": 9999,
      "fzfg": false,
      "metar_trigger": false,
      "taf_trigger": false,
      "metar": "METAR LIPX 270820Z 04014KT CAVOK 12/M08 Q1007",
      "taf": "TAF LIPX 270500Z 2706/2806 01016G28KT CAVOK"
    },
    {
      "icao": "LIPY",
      "alert": "OK",
      "vis_m": 9999,
      "fzfg": false,
      "metar_trigger": false,
      "taf_trigger": false,
      "metar": "METAR LIPY 270820Z AUTO 35018KT 9999 DZ BKN028/// OVC047/// 08/04 Q1004",
      "taf": "TAF LIPY 270500Z 2706/2806 01020G30KT 9999 BKN030"
    },
    {
      "icao": "LIPZ",
      "alert": "OK",
      "vis_m": 9999,
      "fzfg": false,
      "metar_trigger": false,
      "taf_trigger": false,
      "metar": "METAR LIPZ 270820Z 32007KT 250V010 9999 FEW050 SCT070 11/M01 Q1006 NOSIG",
      "taf": "TAF LIPZ 270500Z 2706/2812 VRB06KT 9999 SCT070"
    },
    {
      "icao": "LIRF",
      "alert": "OK",
      "vis_m": 9999,
      "fzfg": false,
      "metar_trigger": false,
      "taf_trigger": false,
      "metar": "METAR LIRF 270820Z 35015KT CAVOK 09/02 Q1002 NOSIG",
      "taf": "TAF LIRF 270500Z 2706/2812 35016G28KT CAVOK"
    },
    {
      "icao": "LIRN",
      "alert": "OK",
      "vis_m": 9999,
      "fzfg": false,
      "metar_trigger": false,
      "taf_trigger": false,
      "metar": "METAR LIRN 270820Z 04004KT 350V100 CAVOK 10/04 Q0999 NOSIG",
      "taf": "TAF LIRN 270500Z 2706/2806 VRB05KT 9999 FEW050"
    },
    {
      "icao": "LIRP",
      "alert": "OK",
      "vis_m": 9999,
      "fzfg": false,
      "metar_trigger": false,
      "taf_trigger": false,
      "metar": "METAR LIRP 270815Z 23003KT 9999 SCT060 05/01 Q1005 NOSIG",
      "taf": "TAF LIRP 270500Z 2706/2806 02005KT CAVOK"
    },
    {
      "icao": "LIRZ",
      "alert": "OK",
      "vis_m": 9999,
      "fzfg": false,
      "metar_trigger": false,
      "taf_trigger": false,
      "metar": "METAR LIRZ 270820Z AUTO 36010KT 9999 -RA FEW015/// BKN042/// 07/04 Q1004",
      "taf": "TAF LIRZ 270500Z 2706/2806 35010KT 9999 FEW020"
    },
    {
      "icao": "LJLJ",
      "alert": "OK",
      "vis_m": 9999,
      "fzfg": false,
      "metar_trigger": false,
      "taf_trigger": false,
      "metar": "METAR LJLJ 270830Z 32015KT 290V010 9999 FEW040 SCT060 BKN090 07/M07 Q1005 WS ALL RWY NOSIG",
      "taf": "TAF LJLJ 270500Z 2706/2806 33015G30KT 9999 FEW010 SCT035 OVC060"
    },
    {
      "icao": "LKMT",
      "alert": "OK",
      "vis_m": 9999,
      "fzfg": false,
      "metar_trigger": false,
      "taf_trigger": false,
      "metar": "METAR LKMT 270830Z 02015KT 9999 FEW020 SCT044 04/01 Q1015 NOSIG",
      "taf": "TAF LKMT 270500Z 2706/2806 01010KT 9999 BKN030"
    },
    {
      "icao": "LKPR",
      "alert": "OK",
      "vis_m": 9999,
      "fzfg": false,
      "metar_trigger": false,
      "taf_trigger": false,
      "metar": "METAR LKPR 270830Z 31012KT 9999 FEW030 03/M04 Q1020 NOSIG",
      "taf": "TAF LKPR 270800Z 2709/2815 31010KT CAVOK"
    },
    {
      "icao": "LLBG",
      "alert": "OK",
      "vis_m": 9999,
      "fzfg": false,
      "metar_trigger": false,
      "taf_trigger": false,
      "metar": "METAR LLBG 270820Z 24010KT 200V270 9999 FEW020 BKN030 18/11 Q1014 NOSIG",
      "taf": "TAF LLBG 270504Z 2706/2806 20012KT 9999 SCT030 TX18/2711Z TN10/2803Z"
    },
    {
      "icao": "LMML",
      "alert": "OK",
      "vis_m": 9999,
      "fzfg": false,
      "metar_trigger": false,
      "taf_trigger": false,
      "metar": "METAR LMML 270815Z 28019KT 9999 VCSH SCT028TCU 11/07 Q1005 NOSIG",
      "taf": "TAF LMML 270500Z 2706/2806 29022G32KT 9999 FEW030"
    },
    {
      "icao": "LOWW",
      "alert": "OK",
      "vis_m": 9999,
      "fzfg": false,
      "metar_trigger": false,
      "taf_trigger": false,
      "metar": "METAR LOWW 270820Z 34020KT 9999 -RA FEW026 BKN028 04/M00 Q1013 TEMPO 34025G40KT",
      "taf": "TAF LOWW 270815Z 2709/2815 33018KT 9999 FEW015 BKN030 TX09/2815Z TN04/2806Z"
    },
    {
      "icao": "LPFR",
      "alert": "OK",
      "vis_m": 9999,
      "fzfg": false,
      "metar_trigger": false,
      "taf_trigger": false,
      "metar": "METAR LPFR 270830Z 05010KT 9999 FEW007 17/06 Q1015",
      "taf": "TAF LPFR 270500Z 2706/2806 07005KT CAVOK"
    },
    {
      "icao": "LPMA",
      "alert": "OK",
      "vis_m": 9999,
      "fzfg": false,
      "metar_trigger": false,
      "taf_trigger": false,
      "metar": "METAR LPMA 270830Z 36008KT 300V040 9999 VCSH BKN015 15/11 Q1018",
      "taf": "TAF LPMA 270500Z 2706/2806 36015KT 9999 SCT015"
    },
    {
      "icao": "LPPR",
      "alert": "OK",
      "vis_m": 9999,
      "fzfg": false,
      "metar_trigger": false,
      "taf_trigger": false,
      "metar": "METAR LPPR 270830Z 10007KT 070V130 CAVOK 13/03 Q1020",
      "taf": "TAF LPPR 270500Z 2706/2806 08005KT CAVOK"
    },
    {
      "icao": "LPPS",
      "alert": "OK",
      "vis_m": 9999,
      "fzfg": false,
      "metar_trigger": false,
      "taf_trigger": false,
      "metar": "METAR LPPS 270830Z 01011KT 9999 SCT014 BKN030 15/10 Q1018",
      "taf": "TAF LPPS 270500Z 2706/2812 01015KT 9999 SCT015 BKN030"
    },
    {
      "icao": "LPPT",
      "alert": "OK",
      "vis_m": 9999,
      "fzfg": false,
      "metar_trigger": false,
      "taf_trigger": false,
      "metar": "METAR LPPT 270830Z 06013KT CAVOK 14/00 Q1018",
      "taf": "TAF LPPT 270500Z 2706/2812 04012KT CAVOK"
    },
    {
      "icao": "LQBK",
      "alert": "OK",
      "vis_m": 5000,
      "fzfg": false,
      "metar_trigger": false,
      "taf_trigger": false,
      "metar": "METAR LQBK 270830Z 27012KT 5000 SNRA SCT007 BKN015 OVC025 01/M01 Q1002 NOSIG",
      "taf": "TAF LQBK 270500Z 2706/2806 30010KT 5000 RA SCT010 BKN015 OVC020 TX05/2713Z TN02/2706Z"
    },
    {
      "icao": "LQSA",
      "alert": "OK",
      "vis_m": 6000,
      "fzfg": false,
      "metar_trigger": false,
      "taf_trigger": false,
      "metar": "METAR LQSA 270830Z VRB02KT 6000 -RA FEW005 SCT015 BKN025 02/01 Q0999 NOSIG",
      "taf": ""
    },
    {
      "icao": "LQTZ",
      "alert": "OK",
      "vis_m": 1800,
      "fzfg": false,
      "metar_trigger": false,
      "taf_trigger": false,
      "metar": "METAR LQTZ 270830Z 29004KT 1800 -SN BR OVC002 00/00 Q1000",
      "taf": "TAF LQTZ 270500Z 2706/2806 27007KT 7000 RA SCT010 BKN015 OVC020 TX06/2713Z TN00/2805Z"
    },
    {
      "icao": "LRBC",
      "alert": "OK",
      "vis_m": 9999,
      "fzfg": false,
      "metar_trigger": false,
      "taf_trigger": false,
      "metar": "METAR LRBC 270830Z 18005KT 150V210 9999 OVC012 07/04 Q1009",
      "taf": "TAF LRBC 270800Z 2709/2718 16008KT 9999 BKN010"
    },
    {
      "icao": "LRBS",
      "alert": "OK",
      "vis_m": 9999,
      "fzfg": false,
      "metar_trigger": false,
      "taf_trigger": false,
      "metar": "METAR LRBS 270830Z 07019KT 9999 BKN013 10/06 Q1004 BECMG BKN020",
      "taf": "TAF LRBS 270500Z 2706/2806 07018KT 9999 BKN010"
    },
    {
      "icao": "LRBV",
      "alert": "OK",
      "vis_m": 9999,
      "fzfg": false,
      "metar_trigger": false,
      "taf_trigger": false,
      "metar": "METAR LRBV 270830Z 09012KT 9999 BKN066 10/01 Q1003",
      "taf": "TAF LRBV 270800Z 2709/2718 07015KT CAVOK"
    },
    {
      "icao": "LRCL",
      "alert": "OK",
      "vis_m": 9999,
      "fzfg": false,
      "metar_trigger": false,
      "taf_trigger": false,
      "metar": "METAR LRCL 270830Z 12010KT 070V140 CAVOK 13/M00 Q1002",
      "taf": "TAF LRCL 270800Z 2709/2718 VRB04KT CAVOK"
    },
    {
      "icao": "LRCV",
      "alert": "OK",
      "vis_m": 9999,
      "fzfg": false,
      "metar_trigger": false,
      "taf_trigger": false,
      "metar": "METAR LRCV 270830Z 07027KT 9999 FEW018 10/06 Q1000",
      "taf": "TAF LRCV 270800Z 2709/2718 08024KT CAVOK"
    },
    {
      "icao": "LRIA",
      "alert": "OK",
      "vis_m": 9999,
      "fzfg": false,
      "metar_trigger": false,
      "taf_trigger": false,
      "metar": "METAR LRIA 270830Z 10005KT 9999 OVC022 08/03 Q1009",
      "taf": "TAF LRIA 270800Z 2709/2718 11007KT 9999 BKN020"
    },
    {
      "icao": "LROP",
      "alert": "OK",
      "vis_m": 9999,
      "fzfg": false,
      "metar_trigger": false,
      "taf_trigger": false,
      "metar": "METAR LROP 270830Z 07021KT 9999 SCT015 BKN020 10/04 Q1005 BECMG BKN020",
      "taf": "TAF LROP 270500Z 2706/2806 07018KT 9999 BKN010"
    },
    {
      "icao": "LRSB",
      "alert": "OK",
      "vis_m": 9999,
      "fzfg": false,
      "metar_trigger": false,
      "taf_trigger": false,
      "metar": "METAR LRSB 270830Z 10008KT 9999 SCT065 BKN085 11/01 Q1001",
      "taf": "TAF LRSB 270500Z 2706/2806 VRB04KT CAVOK"
    },
    {
      "icao": "LRSM",
      "alert": "OK",
      "vis_m": 9999,
      "fzfg": false,
      "metar_trigger": false,
      "taf_trigger": false,
      "metar": "METAR LRSM 270830Z 06006KT CAVOK 14/04 Q1003",
      "taf": "TAF LRSM 270800Z 2709/2718 VRB03KT CAVOK"
    },
    {
      "icao": "LRSV",
      "alert": "OK",
      "vis_m": 9999,
      "fzfg": false,
      "metar_trigger": false,
      "taf_trigger": false,
      "metar": "METAR LRSV 270830Z 14007KT 9999 BKN013 OVC024 06/03 Q1008",
      "taf": "TAF LRSV 270800Z 2709/2718 15008KT 9999 BKN030"
    },
    {
      "icao": "LRTM",
      "alert": "OK",
      "vis_m": 9999,
      "fzfg": false,
      "metar_trigger": false,
      "taf_trigger": false,
      "metar": "METAR LRTM 270830Z 10010KT 9999 FEW027 14/01 Q1002",
      "taf": "TAF LRTM 270800Z 2709/2718 10012KT CAVOK"
    },
    {
      "icao": "LRTR",
      "alert": "OK",
      "vis_m": 9999,
      "fzfg": false,
      "metar_trigger": false,
      "taf_trigger": false,
      "metar": "METAR LRTR 270830Z 34008KT CAVOK 13/08 Q0998",
      "taf": "TAF LRTR 270500Z 2706/2806 01010KT 9999 BKN045"
    },
    {
      "icao": "LTAC",
      "alert": "OK",
      "vis_m": 9999,
      "fzfg": false,
      "metar_trigger": false,
      "taf_trigger": false,
      "metar": "METAR LTAC 270820Z VRB03KT CAVOK 10/02 Q1008 NOSIG RMK RWY21C VRB04KT RWY03L VRB02KT RWY21R VRB03KT RWY03R VRB02KT RWY21L VRB03KT",
      "taf": "TAF LTAC 270440Z 2706/2806 VRB02KT 3500 BR NSC"
    },
    {
      "icao": "LTFM",
      "alert": "OK",
      "vis_m": 9999,
      "fzfg": false,
      "metar_trigger": false,
      "taf_trigger": false,
      "metar": "METAR LTFM 270820Z 20014KT CAVOK 16/04 Q1005 NOSIG RMK RWY17L 19012KT RWY34L 18013KT RWY16R 18011KT RWY36 19014KT RWY18 21011KT",
      "taf": "TAF LTFM 270440Z 2706/2812 VRB02KT CAVOK"
    },
    {
      "icao": "LUKK",
      "alert": "OK",
      "vis_m": 9999,
      "fzfg": false,
      "metar_trigger": false,
      "taf_trigger": false,
      "metar": "METAR LUKK 270830Z 09005KT 040V120 9999 OVC027 10/04 Q1009 NOSIG",
      "taf": "TAF LUKK 270521Z 2706/2806 15009KT 9999 BKN027"
    },
    {
      "icao": "LWOH",
      "alert": "OK",
      "vis_m": 9999,
      "fzfg": false,
      "metar_trigger": false,
      "taf_trigger": false,
      "metar": "METAR LWOH 270820Z VRB02KT 9999 SCT010 BKN033 06/03 Q0998",
      "taf": "TAF LWOH 270820Z 2709/2809 18010KT 9999 FEW010 BKN035"
    },
    {
      "icao": "LWSK",
      "alert": "OK",
      "vis_m": 9999,
      "fzfg": false,
      "metar_trigger": false,
      "taf_trigger": false,
      "metar": "METAR LWSK 270820Z 35002KT 9999 FEW030 12/05 Q0998 NOSIG",
      "taf": "TAF LWSK 270820Z 2709/2809 VRB02KT 9999 SCT030"
    },
    {
      "icao": "LYBE",
      "alert": "OK",
      "vis_m": 8000,
      "fzfg": false,
      "metar_trigger": false,
      "taf_trigger": false,
      "metar": "METAR LYBE 270830Z 04003KT 360V090 8000 -RA BKN027 10/08 Q0998 NOSIG",
      "taf": "TAF LYBE 270500Z 2706/2806 28007KT 5000 -RA BR SCT003 BKN025 TX09/2712Z TN05/2805Z"
    },
    {
      "icao": "LYNI",
      "alert": "OK",
      "vis_m": 9999,
      "fzfg": false,
      "metar_trigger": false,
      "taf_trigger": false,
      "metar": "METAR LYNI 270830Z VRB02KT 9999 FEW005 SCT013 BKN035 07/07 Q0998 NOSIG",
      "taf": "TAF LYNI 270500Z 2706/2806 16007KT 9999 SCT040 BKN060 TX10/2712Z TN05/2806Z"
    },
    {
      "icao": "LYPG",
      "alert": "OK",
      "vis_m": 9999,
      "fzfg": false,
      "metar_trigger": false,
      "taf_trigger": false,
      "metar": "METAR LYPG 270830Z 35006KT 300V020 9999 FEW015 SCT026 BKN040 10/06 Q0999 NOSIG",
      "taf": "TAF LYPG 270500Z 2706/2806 16005KT 9999 SCT040 SCT080 TX13/2713Z TN05/2805Z"
    },
    {
      "icao": "LZIB",
      "alert": "OK",
      "vis_m": 9999,
      "fzfg": false,
      "metar_trigger": false,
      "taf_trigger": false,
      "metar": "METAR LZIB 270830Z 34020KT 9999 FEW022 SCT035 06/00 Q1010 NOSIG",
      "taf": "TAF LZIB 270515Z 2706/2806 35019KT 9999 FEW014 SCT030"
    },
    {
      "icao": "LZKZ",
      "alert": "OK",
      "vis_m": 9999,
      "fzfg": false,
      "metar_trigger": false,
      "taf_trigger": false,
      "metar": "METAR LZKZ 270830Z 01025KT 9999 BKN022 06/02 Q1007 NOSIG",
      "taf": "TAF LZKZ 270515Z 2706/2806 01022KT CAVOK"
    },
    {
      "icao": "LZTT",
      "alert": "OK",
      "vis_m": 9999,
      "fzfg": false,
      "metar_trigger": false,
      "taf_trigger": false,
      "metar": "METAR LZTT 270830Z 30007KT 250V360 9999 -RASN FEW006 OVC030 02/01 Q1008 NOSIG",
      "taf": "TAF LZTT 270515Z 2706/2806 04005KT 9999 FEW005 BKN030"
    },
    {
      "icao": "OEJN",
      "alert": "OK",
      "vis_m": 9999,
      "fzfg": false,
      "metar_trigger": false,
      "taf_trigger": false,
      "metar": "METAR OEJN 270800Z 03012KT CAVOK 25/03 Q1016 NOSIG",
      "taf": "TAF OEJN 270500Z 2706/2812 34012KT 7000 NSC"
    },
    {
      "icao": "OEMA",
      "alert": "OK",
      "vis_m": 9999,
      "fzfg": false,
      "metar_trigger": false,
      "taf_trigger": false,
      "metar": "METAR OEMA 270800Z 28010KT 9999 FEW045 19/04 Q1019 NOSIG",
      "taf": "TAF OEMA 270500Z 2706/2812 30008KT CAVOK"
    },
    {
      "icao": "OJAI",
      "alert": "OK",
      "vis_m": 3000,
      "fzfg": false,
      "metar_trigger": false,
      "taf_trigger": false,
      "metar": "METAR OJAI 270800Z 23016KT 3000 BR BKN010 10/09 Q1014 NOSIG",
      "taf": "TAF OJAI 270500Z 2706/2812 26014KT 3000 BR SCT015 SCT020"
    },
    {
      "icao": "OMAA",
      "alert": "OK",
      "vis_m": null,
      "fzfg": false,
      "metar_trigger": false,
      "taf_trigger": false,
      "metar": "",
      "taf": ""
    },
    {
      "icao": "OMDB",
      "alert": "OK",
      "vis_m": null,
      "fzfg": false,
      "metar_trigger": false,
      "taf_trigger": false,
      "metar": "",
      "taf": ""
    },
    {
      "icao": "UAAA",
      "alert": "OK",
      "vis_m": 9999,
      "fzfg": false,
      "metar_trigger": false,
      "taf_trigger": false,
      "metar": "METAR UAAA 270800Z 04003MPS 350V100 9999 NSC 21/01 Q1016 NOSIG",
      "taf": "TAF UAAA 270503Z 2706/2806 35003MPS 9999 NSC TX22/2710Z TN05/2801Z"
    },
    {
      "icao": "UBBB",
      "alert": "OK",
      "vis_m": 9999,
      "fzfg": false,
      "metar_trigger": false,
      "taf_trigger": false,
      "metar": "METAR UBBB 270830Z 30012KT 9999 -SHRA SCT005 SCT030CB OVC030 10/09 Q1002 NOSIG",
      "taf": "TAF UBBB 270459Z 2706/2806 32016G26KT 6000 BKN006 FEW040CB OVC040 TX11/2712Z TN10/2802Z"
    },
    {
      "icao": "UDSG",
      "alert": "OK",
      "vis_m": 9999,
      "fzfg": false,
      "metar_trigger": false,
      "taf_trigger": false,
      "metar": "METAR UDSG 270800Z 07006KT 9999 SCT040CB OVC049 08/03 Q1004 NOSIG",
      "taf": "TAF UDSG 270458Z 2706/2806 06006KT 9999 BKN040"
    },
    {
      "icao": "UDYZ",
      "alert": "OK",
      "vis_m": 9999,
      "fzfg": false,
      "metar_trigger": false,
      "taf_trigger": false,
      "metar": "METAR UDYZ 270800Z 14008KT 9999 FEW010 BKN033CB 10/07 Q1002 NOSIG",
      "taf": "TAF UDYZ 270500Z 2706/2806 20006KT 6000 BKN040"
    },
    {
      "icao": "UGKO",
      "alert": "OK",
      "vis_m": 9999,
      "fzfg": false,
      "metar_trigger": false,
      "taf_trigger": false,
      "metar": "METAR UGKO 270830Z 28008KT 9999 SCT011 BKN025 11/08 Q1008 NOSIG",
      "taf": "TAF UGKO 270500Z 2706/2806 26007KT 9999 SCT022 BKN050 TX12/2711Z TN08/2803Z"
    }
  ]
}