{
  "ts_utc": "2026-02-05T19:02:12Z",
  "threshold_m": 150,
  "source": "stations_override.txt (ICAO list) + aviationweather.gov (METAR/TAF raw)",
  "station_count": 159,
  "stations": [
    {
      "icao": "BIKF",
      "alert": "OK",
      "vis_m": 9999,
      "fzfg": false,
      "metar_trigger": false,
      "taf_trigger": false,
      "metar": "METAR BIKF 051830Z 04006KT CAVOK M00/M04 Q1005",
      "taf": "TAF BIKF 051651Z 0518/0618 05008KT CAVOK TX04/0617Z TNM01/0603Z"
    },
    {
      "icao": "BKPR",
      "alert": "OK",
      "vis_m": 9999,
      "fzfg": false,
      "metar_trigger": false,
      "taf_trigger": false,
      "metar": "METAR BKPR 051900Z 20006KT 9999 FEW035 08/04 Q0998 NOSIG",
      "taf": "TAF BKPR 051730Z 0518/0618 24007KT 9999 SCT040"
    },
    {
      "icao": "EBCI",
      "alert": "OK",
      "vis_m": 9999,
      "fzfg": false,
      "metar_trigger": false,
      "taf_trigger": false,
      "metar": "METAR EBCI 051850Z 10004KT 080V140 9999 SCT029 BKN035 07/05 Q0986 NOSIG",
      "taf": "TAF EBCI 051703Z 0518/0624 13007KT 9999 SCT020 BKN035"
    },
    {
      "icao": "EDDB",
      "alert": "OK",
      "vis_m": 3400,
      "fzfg": false,
      "metar_trigger": false,
      "taf_trigger": false,
      "metar": "METAR EDDB 051850Z AUTO 10008KT 3400 -FZRADZ BR OVC004 M01/M02 Q0996 TEMPO 2900 -FZRA OVC005",
      "taf": "TAF EDDB 051700Z 0518/0618 09008KT 4000 BR BKN004"
    },
    {
      "icao": "EDDH",
      "alert": "OK",
      "vis_m": 9000,
      "fzfg": false,
      "metar_trigger": false,
      "taf_trigger": false,
      "metar": "METAR EDDH 051850Z AUTO 09009KT 9000 OVC007 M03/M04 Q0995 NOSIG",
      "taf": "TAF EDDH 051700Z 0518/0624 08008KT 8000 OVC008"
    },
    {
      "icao": "EDDK",
      "alert": "OK",
      "vis_m": 9999,
      "fzfg": false,
      "metar_trigger": false,
      "taf_trigger": false,
      "metar": "METAR EDDK 051850Z AUTO 11007KT 080V160 9999 FEW012 03/02 Q0989 NOSIG",
      "taf": "TAF EDDK 051700Z 0518/0624 12008KT 9999 SCT040"
    },
    {
      "icao": "EDDN",
      "alert": "OK",
      "vis_m": 9999,
      "fzfg": false,
      "metar_trigger": false,
      "taf_trigger": false,
      "metar": "METAR EDDN 051850Z AUTO 14007KT 9999 OVC010 02/M01 Q0992 BECMG OVC009",
      "taf": "TAF EDDN 051700Z 0518/0618 10005KT 9999 OVC011"
    },
    {
      "icao": "EDDS",
      "alert": "OK",
      "vis_m": 9999,
      "fzfg": false,
      "metar_trigger": false,
      "taf_trigger": false,
      "metar": "METAR EDDS 051850Z AUTO 10003KT CAVOK 02/M00 Q0988 NOSIG",
      "taf": "TAF EDDS 051700Z 0518/0618 VRB03KT CAVOK"
    },
    {
      "icao": "EDFH",
      "alert": "OK",
      "vis_m": 450,
      "fzfg": true,
      "metar_trigger": false,
      "taf_trigger": false,
      "metar": "METAR EDFH 051850Z 14020KT 090V160 0450 R21/0500N FZFG VV/// 00/M00 Q0988",
      "taf": "TAF EDFH 051700Z 0518/0618 14013KT 0200 FZFG VV000"
    },
    {
      "icao": "EDJA",
      "alert": "OK",
      "vis_m": 9999,
      "fzfg": false,
      "metar_trigger": false,
      "taf_trigger": false,
      "metar": "METAR EDJA 051850Z COR 05008KT CAVOK M00/M02 Q0989",
      "taf": "TAF EDJA 051700Z 0518/0603 06006KT CAVOK"
    },
    {
      "icao": "EDLW",
      "alert": "OK",
      "vis_m": 9999,
      "fzfg": false,
      "metar_trigger": false,
      "taf_trigger": false,
      "metar": "METAR EDLW 051850Z 01003KT 9999 -DZ SCT049 04/02 Q0989",
      "taf": "TAF EDLW 051700Z 0518/0618 09007KT CAVOK"
    },
    {
      "icao": "EDNY",
      "alert": "OK",
      "vis_m": 5000,
      "fzfg": false,
      "metar_trigger": false,
      "taf_trigger": false,
      "metar": "METAR EDNY 051850Z 09002KT 5000 BR NSC 00/00 Q0988",
      "taf": ""
    },
    {
      "icao": "EDSB",
      "alert": "OK",
      "vis_m": 9000,
      "fzfg": false,
      "metar_trigger": false,
      "taf_trigger": false,
      "metar": "METAR EDSB 051850Z 02010KT 9000 NSC 03/02 Q0988",
      "taf": "TAF EDSB 051700Z 0518/0618 02004KT CAVOK"
    },
    {
      "icao": "EETN",
      "alert": "OK",
      "vis_m": 9999,
      "fzfg": false,
      "metar_trigger": false,
      "taf_trigger": false,
      "metar": "METAR EETN 051850Z 08011KT CAVOK M15/M16 Q1016 NOSIG",
      "taf": "TAF EETN 051730Z 0518/0618 08010KT CAVOK"
    },
    {
      "icao": "EFTU",
      "alert": "OK",
      "vis_m": 9999,
      "fzfg": false,
      "metar_trigger": false,
      "taf_trigger": false,
      "metar": "METAR EFTU 051850Z AUTO 07006KT CAVOK M14/M16 Q1017",
      "taf": "TAF EFTU 051730Z 0518/0618 09005KT 9999 -SN BKN009"
    },
    {
      "icao": "EGBB",
      "alert": "OK",
      "vis_m": 2000,
      "fzfg": false,
      "metar_trigger": false,
      "taf_trigger": false,
      "metar": "METAR EGBB 051850Z 07011KT 2000 RA OVC004 04/03 Q0983",
      "taf": "TAF EGBB 051658Z 0518/0618 09012KT 9999 -RA SCT006 BKN012"
    },
    {
      "icao": "EGGP",
      "alert": "OK",
      "vis_m": 9999,
      "fzfg": false,
      "metar_trigger": false,
      "taf_trigger": false,
      "metar": "METAR EGGP 051850Z 09015G26KT 9999 BKN020 04/00 Q0984",
      "taf": "TAF EGGP 051703Z 0518/0618 09020G30KT 9999 BKN020"
    },
    {
      "icao": "EGGW",
      "alert": "OK",
      "vis_m": 5000,
      "fzfg": false,
      "metar_trigger": false,
      "taf_trigger": false,
      "metar": "METAR EGGW 051850Z AUTO 10010KT 5000 -RADZ OVC002 06/06 Q0982",
      "taf": "TAF EGGW 051704Z 0518/0618 11010KT 6000 -RA SCT003 BKN006"
    },
    {
      "icao": "EGKK",
      "alert": "OK",
      "vis_m": 8000,
      "fzfg": false,
      "metar_trigger": false,
      "taf_trigger": false,
      "metar": "METAR EGKK 051850Z 10006KT 8000 -RA SCT007 BKN039 09/09 Q0981",
      "taf": "TAF EGKK 051703Z 0518/0624 09010KT 9999 SCT007 BKN020"
    },
    {
      "icao": "EGNM",
      "alert": "OK",
      "vis_m": 1700,
      "fzfg": false,
      "metar_trigger": false,
      "taf_trigger": false,
      "metar": "METAR EGNM 051850Z 08013KT 1700 -SNRA BR OVC003 01/01 Q0987",
      "taf": "TAF EGNM 051703Z 0518/0618 08015KT 9999 SCT004 BKN006"
    },
    {
      "icao": "EGPD",
      "alert": "OK",
      "vis_m": 9999,
      "fzfg": false,
      "metar_trigger": false,
      "taf_trigger": false,
      "metar": "METAR EGPD 051850Z AUTO 10015KT 9999 -RA BKN012 BKN022 BKN029 03/01 Q0997 TEMPO RA",
      "taf": "TAF EGPD 051656Z 0518/0618 09015KT 9999 BKN016"
    },
    {
      "icao": "EGPF",
      "alert": "OK",
      "vis_m": 9999,
      "fzfg": false,
      "metar_trigger": false,
      "taf_trigger": false,
      "metar": "METAR EGPF 051850Z AUTO 07018KT 9999 BKN020 04/01 Q0991",
      "taf": "TAF EGPF 051658Z 0518/0618 08018G30KT 9999 SCT020"
    },
    {
      "icao": "EHBK",
      "alert": "OK",
      "vis_m": 8000,
      "fzfg": false,
      "metar_trigger": false,
      "taf_trigger": false,
      "metar": "METAR EHBK 051855Z AUTO 09007KT 050V110 8000 BKN044/// 05/04 Q0987 NOSIG",
      "taf": "TAF EHBK 051720Z 0518/0624 10008KT 9999 OVC040"
    },
    {
      "icao": "EHEH",
      "alert": "OK",
      "vis_m": null,
      "fzfg": false,
      "metar_trigger": false,
      "taf_trigger": false,
      "metar": "",
      "taf": "TAF EHEH 051748Z 0518/0624 09007KT 9999 BKN025"
    },
    {
      "icao": "EKBI",
      "alert": "OK",
      "vis_m": 4000,
      "fzfg": false,
      "metar_trigger": false,
      "taf_trigger": false,
      "metar": "METAR EKBI 051849Z 07019KT 4000 -SN BLSN BKN009 M02/M03 Q0999",
      "taf": "TAF EKBI 051727Z 0518/0618 07016KT 1500 -SN BLSN BKN005"
    },
    {
      "icao": "EKCH",
      "alert": "OK",
      "vis_m": 1500,
      "fzfg": false,
      "metar_trigger": false,
      "taf_trigger": false,
      "metar": "METAR EKCH 051850Z 07018KT 1500 -SN DRSN BKN009 M01/M02 Q1001 TEMPO 07018G28KT 1200 SN BKN010",
      "taf": ""
    },
    {
      "icao": "ENAL",
      "alert": "OK",
      "vis_m": 9999,
      "fzfg": false,
      "metar_trigger": false,
      "taf_trigger": false,
      "metar": "METAR ENAL 051850Z 11005KT 060V140 CAVOK M04/M11 Q1009",
      "taf": "TAF ENAL 051700Z 0518/0603 07008KT CAVOK"
    },
    {
      "icao": "ENBR",
      "alert": "OK",
      "vis_m": 9999,
      "fzfg": false,
      "metar_trigger": false,
      "taf_trigger": false,
      "metar": "METAR ENBR 051850Z 08002KT CAVOK M05/M12 Q1006 NOSIG RMK WIND 1200FT 04008KT",
      "taf": "TAF ENBR 051700Z 0518/0618 04005KT CAVOK"
    },
    {
      "icao": "ENGM",
      "alert": "OK",
      "vis_m": 9999,
      "fzfg": false,
      "metar_trigger": false,
      "taf_trigger": false,
      "metar": "METAR ENGM 051850Z 01007KT 9999 -SN OVC020 M10/M14 Q1014 NOSIG",
      "taf": "TAF ENGM 051700Z 0518/0618 02010KT 9999 -SN BKN020"
    },
    {
      "icao": "ENHD",
      "alert": "OK",
      "vis_m": 9999,
      "fzfg": false,
      "metar_trigger": false,
      "taf_trigger": false,
      "metar": "METAR ENHD 051850Z 08012KT CAVOK M01/M13 Q1006",
      "taf": "TAF ENHD 051400Z 0515/0523 06008KT CAVOK"
    },
    {
      "icao": "ENTC",
      "alert": "OK",
      "vis_m": 9999,
      "fzfg": false,
      "metar_trigger": false,
      "taf_trigger": false,
      "metar": "METAR ENTC 051850Z 24004KT 9999 FEW004 SCT009 BKN037 M00/M01 Q1014 TEMPO 2000 SHSNRA BKN005 RMK WIND 2600FT 30015KT",
      "taf": "TAF ENTC 051700Z 0518/0618 25005KT 9999 FEW005 BKN025"
    },
    {
      "icao": "ENTO",
      "alert": "OK",
      "vis_m": 9999,
      "fzfg": false,
      "metar_trigger": false,
      "taf_trigger": false,
      "metar": "METAR ENTO 051850Z 02014KT 9999 -SN OVC019 M08/M12 Q1012 NOSIG",
      "taf": "TAF ENTO 051700Z 0518/0618 03012KT 8000 -SN BKN025"
    },
    {
      "icao": "ENVA",
      "alert": "OK",
      "vis_m": 9999,
      "fzfg": false,
      "metar_trigger": false,
      "taf_trigger": false,
      "metar": "METAR ENVA 051850Z 12007KT CAVOK M12/M18 Q1013 NOSIG RMK WIND 670FT 12007KT",
      "taf": "TAF ENVA 051700Z 0518/0618 11008KT CAVOK"
    },
    {
      "icao": "ENZV",
      "alert": "OK",
      "vis_m": 9999,
      "fzfg": false,
      "metar_trigger": false,
      "taf_trigger": false,
      "metar": "METAR ENZV 051850Z 07004KT 030V110 CAVOK M02/M12 Q1006 NOSIG",
      "taf": "TAF ENZV 051700Z 0518/0618 08008KT CAVOK"
    },
    {
      "icao": "EPGD",
      "alert": "OK",
      "vis_m": 3800,
      "fzfg": false,
      "metar_trigger": false,
      "taf_trigger": false,
      "metar": "METAR EPGD 051830Z 09008KT 3800 -FZRA BR OVC003 M05/M05 Q1002 REFZDZ",
      "taf": ""
    },
    {
      "icao": "EPKK",
      "alert": "OK",
      "vis_m": 5000,
      "fzfg": false,
      "metar_trigger": false,
      "taf_trigger": false,
      "metar": "METAR EPKK 051830Z 06008KT 5000 BR OVC006 01/00 Q0997",
      "taf": "TAF EPKK 051730Z 0518/0618 06008KT 4000 BR OVC007"
    },
    {
      "icao": "EPKT",
      "alert": "OK",
      "vis_m": 5000,
      "fzfg": false,
      "metar_trigger": false,
      "taf_trigger": false,
      "metar": "METAR EPKT 051830Z 09006KT 5000 BR OVC006 01/00 Q0996",
      "taf": "TAF EPKT 051730Z 0518/0618 09006KT 4000 BR OVC007"
    },
    {
      "icao": "EPLB",
      "alert": "OK",
      "vis_m": 3000,
      "fzfg": false,
      "metar_trigger": false,
      "taf_trigger": false,
      "metar": "METAR EPLB 051830Z 11012KT 3000 -FZDZ BR OVC002 M01/M01 Q1001",
      "taf": "TAF EPLB 051730Z 0518/0618 11011KT 2500 BR OVC002"
    },
    {
      "icao": "EPMO",
      "alert": "OK",
      "vis_m": 6000,
      "fzfg": false,
      "metar_trigger": false,
      "taf_trigger": false,
      "metar": "METAR EPMO 051830Z 09011KT 6000 OVC005 M01/M01 Q1001",
      "taf": "TAF EPMO 051730Z 0518/0618 09012KT 5000 BR OVC005"
    },
    {
      "icao": "EPPO",
      "alert": "OK",
      "vis_m": 2900,
      "fzfg": false,
      "metar_trigger": false,
      "taf_trigger": false,
      "metar": "METAR EPPO 051830Z 09009KT 2900 BR OVC004 M02/M03 Q0998",
      "taf": "TAF EPPO 051730Z 0518/0618 09008KT 3000 BR OVC005"
    },
    {
      "icao": "EPRA",
      "alert": "OK",
      "vis_m": 1800,
      "fzfg": false,
      "metar_trigger": false,
      "taf_trigger": false,
      "metar": "METAR EPRA 051830Z 10010KT 1800 BR OVC002 00/M00 Q1000",
      "taf": "TAF EPRA 051730Z 0518/0603 11010KT 1500 BR OVC003"
    },
    {
      "icao": "EPRZ",
      "alert": "OK",
      "vis_m": 5000,
      "fzfg": false,
      "metar_trigger": false,
      "taf_trigger": false,
      "metar": "METAR EPRZ 051830Z 09014KT 5000 BR OVC002 01/01 Q0999",
      "taf": "TAF EPRZ 051730Z 0518/0618 09012KT 6000 OVC003"
    },
    {
      "icao": "EPSC",
      "alert": "OK",
      "vis_m": 5000,
      "fzfg": false,
      "metar_trigger": false,
      "taf_trigger": false,
      "metar": "METAR EPSC 051830Z 09008KT 5000 BR OVC006 M03/M04 Q0998",
      "taf": "TAF EPSC 051730Z 0518/0618 08008KT 8000 OVC010"
    },
    {
      "icao": "EPSY",
      "alert": "OK",
      "vis_m": 9000,
      "fzfg": false,
      "metar_trigger": false,
      "taf_trigger": false,
      "metar": "METAR EPSY 051830Z 10005KT 050V160 9000 OVC010 M03/M05 Q1003",
      "taf": "TAF EPSY 051730Z 0518/0603 10008KT 8000 OVC010"
    },
    {
      "icao": "EPWA",
      "alert": "OK",
      "vis_m": 8000,
      "fzfg": false,
      "metar_trigger": false,
      "taf_trigger": false,
      "metar": "METAR EPWA 051830Z 11012KT 8000 OVC004 M00/M01 Q1001 TEMPO 4000 -FZDZ BR",
      "taf": "TAF EPWA 051730Z 0518/0618 10011KT 6000 OVC003"
    },
    {
      "icao": "EPWR",
      "alert": "OK",
      "vis_m": 2000,
      "fzfg": false,
      "metar_trigger": false,
      "taf_trigger": false,
      "metar": "METAR EPWR 051830Z 10005KT 2000 BR OVC002 01/01 Q0997",
      "taf": "TAF EPWR 051730Z 0518/0618 10006KT 2000 BR OVC002"
    },
    {
      "icao": "ESGG",
      "alert": "OK",
      "vis_m": 9999,
      "fzfg": false,
      "metar_trigger": false,
      "taf_trigger": false,
      "metar": "METAR ESGG 051850Z 05015KT 9999 FEW022 M04/M08 Q1005",
      "taf": "TAF ESGG 051730Z 0518/0618 07014G24KT 9999 SCT040"
    },
    {
      "icao": "ESKN",
      "alert": "OK",
      "vis_m": 9999,
      "fzfg": false,
      "metar_trigger": false,
      "taf_trigger": false,
      "metar": "METAR ESKN 051850Z AUTO 03009KT 360V060 9999 OVC019/// M04/M06 Q1012",
      "taf": "TAF ESKN 051730Z 0518/0618 04008KT 9999 OVC020"
    },
    {
      "icao": "ESMS",
      "alert": "OK",
      "vis_m": 2400,
      "fzfg": false,
      "metar_trigger": false,
      "taf_trigger": false,
      "metar": "METAR ESMS 051850Z 08023KT 2400 SN VV013 M01/M02 Q1000",
      "taf": "TAF ESMS 051740Z 0518/0618 08018G33KT 1200 SN DRSN BKN004"
    },
    {
      "icao": "ESSA",
      "alert": "OK",
      "vis_m": 9999,
      "fzfg": false,
      "metar_trigger": false,
      "taf_trigger": false,
      "metar": "METAR ESSA 051850Z 04012KT 9999 BKN010 M07/M09 Q1014 NOSIG",
      "taf": "TAF ESSA 051730Z 0518/0618 05010KT 9999 BKN018"
    },
    {
      "icao": "EYKA",
      "alert": "OK",
      "vis_m": 9999,
      "fzfg": false,
      "metar_trigger": false,
      "taf_trigger": false,
      "metar": "METAR EYKA 051850Z 09008KT 9999 FEW017 OVC033 M06/M08 Q1008",
      "taf": "TAF EYKA 051711Z 0518/0618 09009KT 8000 SCT010 OVC020"
    },
    {
      "icao": "EYPA",
      "alert": "OK",
      "vis_m": 7000,
      "fzfg": false,
      "metar_trigger": false,
      "taf_trigger": false,
      "metar": "METAR EYPA 051850Z 10007KT 070V140 7000 -SN FEW030 OVC045 M07/M10 Q1007",
      "taf": "TAF EYPA 051711Z 0518/0618 10010KT 8000 OVC020"
    },
    {
      "icao": "EYVI",
      "alert": "OK",
      "vis_m": 9999,
      "fzfg": false,
      "metar_trigger": false,
      "taf_trigger": false,
      "metar": "METAR EYVI 051850Z 12008KT 9999 BKN013 M06/M08 Q1008 NOSIG",
      "taf": "TAF EYVI 051711Z 0518/0618 12010KT 8000 SCT010 OVC015"
    },
    {
      "icao": "GCFV",
      "alert": "OK",
      "vis_m": 9999,
      "fzfg": false,
      "metar_trigger": false,
      "taf_trigger": false,
      "metar": "METAR GCFV 051830Z 28006KT 250V340 9999 FEW030 BKN045 22/14 Q1015",
      "taf": "TAF GCFV 051400Z 0515/0615 17007KT 9999 FEW025 TX21/0614Z TN16/0606Z"
    },
    {
      "icao": "GCLP",
      "alert": "OK",
      "vis_m": 9999,
      "fzfg": false,
      "metar_trigger": false,
      "taf_trigger": false,
      "metar": "METAR GCLP 051830Z 10003KT 030V150 9999 FEW025 21/15 Q1015 NOSIG",
      "taf": "TAF GCLP 051400Z 0515/0615 18008KT 9999 SCT025 TX21/0614Z TN16/0606Z"
    },
    {
      "icao": "GCTS",
      "alert": "OK",
      "vis_m": 9999,
      "fzfg": false,
      "metar_trigger": false,
      "taf_trigger": false,
      "metar": "METAR GCTS 051830Z 16001KT 9999 FEW030 21/13 Q1015 NOSIG",
      "taf": "TAF GCTS 051400Z 0515/0615 VRB05KT 9999 SCT025 TX24/0614Z TN16/0606Z"
    },
    {
      "icao": "GMAD",
      "alert": "OK",
      "vis_m": 9999,
      "fzfg": false,
      "metar_trigger": false,
      "taf_trigger": false,
      "metar": "METAR GMAD 051830Z 25007KT 9999 FEW023 SCT033 16/15 Q1014 NOSIG",
      "taf": "TAF GMAD 051700Z 0518/0624 22006KT 8000 BKN016"
    },
    {
      "icao": "GMMN",
      "alert": "OK",
      "vis_m": 3000,
      "fzfg": false,
      "metar_trigger": false,
      "taf_trigger": false,
      "metar": "SPECI GMMN 051852Z 24017KT 200V260 3000 DZ OVC004 16/14 Q1012 NOSIG M0",
      "taf": "TAF GMMN 051700Z 0518/0624 23018KT 9999 SCT008 BKN020"
    },
    {
      "icao": "GMMX",
      "alert": "OK",
      "vis_m": 9999,
      "fzfg": false,
      "metar_trigger": false,
      "taf_trigger": false,
      "metar": "METAR GMMX 051830Z 29006KT 260V320 9999 SCT026 BKN080 18/13 Q1013 NOSIG",
      "taf": "TAF GMMX 051700Z 0518/0624 22006KT 8000 SCT026 SCT080"
    },
    {
      "icao": "HEGN",
      "alert": "OK",
      "vis_m": 9999,
      "fzfg": false,
      "metar_trigger": false,
      "taf_trigger": false,
      "metar": "METAR HEGN 051800Z 00000KT CAVOK 20/10 Q1013 NOSIG",
      "taf": "TAF HEGN 051700Z 0518/0624 30007KT CAVOK"
    },
    {
      "icao": "HEMA",
      "alert": "OK",
      "vis_m": 9999,
      "fzfg": false,
      "metar_trigger": false,
      "taf_trigger": false,
      "metar": "METAR HEMA 051800Z 19004KT CAVOK 18/11 Q1013 NOSIG",
      "taf": "TAF HEMA 051700Z 0518/0624 28009KT CAVOK"
    },
    {
      "icao": "HESH",
      "alert": "OK",
      "vis_m": 9999,
      "fzfg": false,
      "metar_trigger": false,
      "taf_trigger": false,
      "metar": "METAR HESH 051800Z 29002KT CAVOK 20/08 Q1013 NOSIG",
      "taf": "TAF HESH 051700Z 0518/0624 28007KT CAVOK"
    },
    {
      "icao": "HESX",
      "alert": "OK",
      "vis_m": 9999,
      "fzfg": false,
      "metar_trigger": false,
      "taf_trigger": false,
      "metar": "METAR HESX 051800Z 16005KT CAVOK 18/02 Q1012 NOSIG",
      "taf": "TAF HESX 051100Z 0512/0618 20010KT 9999 SCT020"
    },
    {
      "icao": "LATI",
      "alert": "OK",
      "vis_m": 9999,
      "fzfg": false,
      "metar_trigger": false,
      "taf_trigger": false,
      "metar": "METAR LATI 051850Z 18004KT 9999 -RA SCT035 BKN062 11/07 Q1000 NOSIG",
      "taf": "TAF LATI 051700Z 0518/0618 14006KT 9999 SCT050 BKN080 TX16/0615Z TN08/0605Z"
    },
    {
      "icao": "LBPD",
      "alert": "OK",
      "vis_m": 9999,
      "fzfg": false,
      "metar_trigger": false,
      "taf_trigger": false,
      "metar": "METAR LBPD 051830Z AUTO 33002KT 9999 -RA OVC056/// 04/04 Q1000 NOSIG",
      "taf": "TAF LBPD 051700Z 0518/0618 VRB04KT 9999 BKN015 OVC025"
    },
    {
      "icao": "LBSF",
      "alert": "OK",
      "vis_m": 9999,
      "fzfg": false,
      "metar_trigger": false,
      "taf_trigger": false,
      "metar": "METAR LBSF 051830Z AUTO 14003KT 100V230 9999 OVC059/// 05/03 Q0999 NOSIG",
      "taf": "TAF LBSF 051700Z 0518/0618 10010KT 9999 BKN020 OVC040"
    },
    {
      "icao": "LBWN",
      "alert": "OK",
      "vis_m": 9999,
      "fzfg": false,
      "metar_trigger": false,
      "taf_trigger": false,
      "metar": "METAR LBWN 051830Z AUTO 11012KT 9999 -RA BKN039/// OVC046/// 08/08 Q1002 TEMPO 5000 -RA BR",
      "taf": "TAF LBWN 051700Z 0518/0618 10010KT 6000 RA BKN020 OVC040"
    },
    {
      "icao": "LCLK",
      "alert": "OK",
      "vis_m": 9999,
      "fzfg": false,
      "metar_trigger": false,
      "taf_trigger": false,
      "metar": "METAR LCLK 051830Z VRB03KT CAVOK 14/11 Q1013 NOSIG",
      "taf": "TAF LCLK 051730Z 0518/0618 35006KT 9999 FEW025"
    },
    {
      "icao": "LCPH",
      "alert": "OK",
      "vis_m": 9999,
      "fzfg": false,
      "metar_trigger": false,
      "taf_trigger": false,
      "metar": "METAR LCPH 051830Z 10007KT 9999 FEW040 16/09 Q1012 NOSIG",
      "taf": "TAF LCPH 051730Z 0518/0618 12015KT 9999 FEW020"
    },
    {
      "icao": "LEAL",
      "alert": "OK",
      "vis_m": 9999,
      "fzfg": false,
      "metar_trigger": false,
      "taf_trigger": false,
      "metar": "METAR LEAL 051830Z 28009KT 240V310 9999 FEW025 19/08 Q0997 NOSIG",
      "taf": "TAF LEAL 051700Z 0518/0618 25020KT 9999 FEW020 TX18/0615Z TN08/0606Z"
    },
    {
      "icao": "LEBB",
      "alert": "OK",
      "vis_m": 9999,
      "fzfg": false,
      "metar_trigger": false,
      "taf_trigger": false,
      "metar": "METAR LEBB 051830Z 30014KT 260V330 9999 FEW022 SCT031 BKN043 13/10 Q0988 NOSIG",
      "taf": ""
    },
    {
      "icao": "LEBL",
      "alert": "OK",
      "vis_m": 9000,
      "fzfg": false,
      "metar_trigger": false,
      "taf_trigger": false,
      "metar": "METAR LEBL 051830Z 27021KT 9000 -SHRA FEW020 FEW045TCU SCT050 16/07 Q0989 TEMPO 4000 SHRA",
      "taf": ""
    },
    {
      "icao": "LECH",
      "alert": "OK",
      "vis_m": 9999,
      "fzfg": false,
      "metar_trigger": false,
      "taf_trigger": false,
      "metar": "METAR LECH 051830Z AUTO 24021G31KT CAVOK 13/05 Q0992",
      "taf": ""
    },
    {
      "icao": "LEMD",
      "alert": "OK",
      "vis_m": 9999,
      "fzfg": false,
      "metar_trigger": false,
      "taf_trigger": false,
      "metar": "METAR LEMD 051830Z 24017KT 9999 FEW040 09/06 Q0995 NOSIG",
      "taf": "TAF LEMD 051700Z 0518/0624 23015KT 9999 SCT020 TX10/0615Z TN06/0607Z"
    },
    {
      "icao": "LEMG",
      "alert": "OK",
      "vis_m": 9999,
      "fzfg": false,
      "metar_trigger": false,
      "taf_trigger": false,
      "metar": "METAR LEMG 051830Z 27008KT 240V320 9999 FEW060 16/06 Q1003 NOSIG",
      "taf": "TAF LEMG 051700Z 0518/0618 29010KT 9999 FEW030 TX18/0614Z TN13/0607Z"
    },
    {
      "icao": "LEVC",
      "alert": "OK",
      "vis_m": 9999,
      "fzfg": false,
      "metar_trigger": false,
      "taf_trigger": false,
      "metar": "METAR LEVC 051830Z 27013KT 250V310 9999 FEW056 17/08 Q0995 NOSIG",
      "taf": "TAF LEVC 051700Z 0518/0618 27015KT 9999 FEW035 TX20/0614Z TN11/0606Z"
    },
    {
      "icao": "LEXJ",
      "alert": "OK",
      "vis_m": 9999,
      "fzfg": false,
      "metar_trigger": false,
      "taf_trigger": false,
      "metar": "METAR LEXJ 051830Z 24004KT 200V270 9999 -SHRA FEW018 FEW040TCU BKN066 12/10 Q0987",
      "taf": ""
    },
    {
      "icao": "LEZG",
      "alert": "OK",
      "vis_m": 9999,
      "fzfg": false,
      "metar_trigger": false,
      "taf_trigger": false,
      "metar": "METAR LEZG 051830Z 28009KT 250V320 9999 BKN065 14/06 Q0990 NOSIG",
      "taf": ""
    },
    {
      "icao": "LEZL",
      "alert": "OK",
      "vis_m": 9999,
      "fzfg": false,
      "metar_trigger": false,
      "taf_trigger": false,
      "metar": "METAR LEZL 051830Z 23014G24KT 200V260 CAVOK 16/12 Q1003 NOSIG",
      "taf": "TAF LEZL 051400Z 0515/0615 23018KT 9999 FEW030 TX20/0515Z TN12/0607Z"
    },
    {
      "icao": "LFBD",
      "alert": "OK",
      "vis_m": 9999,
      "fzfg": false,
      "metar_trigger": false,
      "taf_trigger": false,
      "metar": "METAR LFBD 051830Z AUTO 20007KT 9999 BKN047/// BKN068/// OVC084/// //////TCU 10/10 Q0984 TEMPO 24015G25KT 3000 SHRA BKN025TCU SCT030CB",
      "taf": "TAF LFBD 051700Z 0518/0624 22008KT 9999 BKN040 TX15/0614Z TN08/0624Z"
    },
    {
      "icao": "LFLL",
      "alert": "OK",
      "vis_m": 6000,
      "fzfg": false,
      "metar_trigger": false,
      "taf_trigger": false,
      "metar": "METAR LFLL 051830Z 10004KT 6000 RA OVC043 09/08 Q0986 TEMPO 4000 RA BKN014",
      "taf": "TAF LFLL 051700Z 0518/0624 18008KT 9999 RA BKN040"
    },
    {
      "icao": "LFLS",
      "alert": "OK",
      "vis_m": 9999,
      "fzfg": false,
      "metar_trigger": false,
      "taf_trigger": false,
      "metar": "METAR LFLS 051830Z AUTO 03003KT 9999 -RA FEW039/// SCT049/// OVC056/// //////TCU 07/07 Q0986 TEMPO 3000 RA BKN009",
      "taf": "TAF LFLS 051400Z 0515/0615 24007KT CAVOK"
    },
    {
      "icao": "LFMN",
      "alert": "OK",
      "vis_m": 5000,
      "fzfg": false,
      "metar_trigger": false,
      "taf_trigger": false,
      "metar": "METAR LFMN 051830Z 03013KT 5000 RA FEW010 SCT016 BKN033 10/08 Q0990 TEMPO TSRA",
      "taf": "TAF LFMN 051400Z 0515/0621 24008KT CAVOK"
    },
    {
      "icao": "LFOB",
      "alert": "OK",
      "vis_m": 9999,
      "fzfg": false,
      "metar_trigger": false,
      "taf_trigger": false,
      "metar": "METAR LFOB 051830Z AUTO 10006KT CAVOK 09/08 Q0983 NOSIG",
      "taf": "TAF LFOB 051700Z 0518/0618 12010KT 9999 BKN045"
    },
    {
      "icao": "LFPO",
      "alert": "OK",
      "vis_m": 9999,
      "fzfg": false,
      "metar_trigger": false,
      "taf_trigger": false,
      "metar": "METAR LFPO 051830Z AUTO 13005KT 090V150 9999 -RA //////TCU 10/08 Q0983 NOSIG",
      "taf": "TAF LFPO 051700Z 0518/0624 10005KT 9999 SCT040 BKN060"
    },
    {
      "icao": "LFSB",
      "alert": "OK",
      "vis_m": 9999,
      "fzfg": false,
      "metar_trigger": false,
      "taf_trigger": false,
      "metar": "METAR LFSB 051830Z AUTO 05005KT CAVOK 03/01 Q0988 NOSIG",
      "taf": "TAF LFSB 051700Z 0518/0618 35004KT CAVOK"
    },
    {
      "icao": "LGAV",
      "alert": "OK",
      "vis_m": 9999,
      "fzfg": false,
      "metar_trigger": false,
      "taf_trigger": false,
      "metar": "METAR LGAV 051850Z 23006KT 9999 FEW025 12/09 Q1001 NOSIG",
      "taf": "TAF LGAV 051700Z 0518/0618 23012KT 9999 FEW020 SCT030"
    },
    {
      "icao": "LGTS",
      "alert": "OK",
      "vis_m": 9999,
      "fzfg": false,
      "metar_trigger": false,
      "taf_trigger": false,
      "metar": "METAR LGTS 051850Z 11005KT 9999 FEW025 10/09 Q0999 NOSIG",
      "taf": "TAF LGTS 051700Z 0518/0618 VRB03KT 9999 FEW010 SCT025"
    },
    {
      "icao": "LHBP",
      "alert": "OK",
      "vis_m": 9999,
      "fzfg": false,
      "metar_trigger": false,
      "taf_trigger": false,
      "metar": "METAR LHBP 051830Z 09006KT 9999 SCT022 BKN060 07/06 Q0996 NOSIG",
      "taf": "TAF LHBP 051715Z 0518/0618 08006KT 9999 BKN025"
    },
    {
      "icao": "LHDC",
      "alert": "OK",
      "vis_m": 9999,
      "fzfg": false,
      "metar_trigger": false,
      "taf_trigger": false,
      "metar": "METAR LHDC 051815Z AUTO 03004KT CAVOK 07/05 Q0997 NOSIG",
      "taf": "TAF LHDC 051415Z 0515/0524 07005KT CAVOK"
    },
    {
      "icao": "LIBD",
      "alert": "OK",
      "vis_m": 9999,
      "fzfg": false,
      "metar_trigger": false,
      "taf_trigger": false,
      "metar": "METAR LIBD 051850Z 22005KT CAVOK 07/06 Q0999",
      "taf": "TAF LIBD 051700Z 0518/0618 VRB05KT CAVOK"
    },
    {
      "icao": "LIBG",
      "alert": "OK",
      "vis_m": 9999,
      "fzfg": false,
      "metar_trigger": false,
      "taf_trigger": false,
      "metar": "METAR LIBG 051750Z 08002KT 9999 FEW040 10/09 Q0999",
      "taf": "TAF LIBG 051700Z 0518/0603 VRB05KT 9999 SCT030"
    },
    {
      "icao": "LIBP",
      "alert": "OK",
      "vis_m": 9999,
      "fzfg": false,
      "metar_trigger": false,
      "taf_trigger": false,
      "metar": "METAR LIBP 051850Z AUTO 15010KT 120V190 9999 BKN240/// 12/09 Q0997",
      "taf": "TAF LIBP 051700Z 0518/0618 VRB05KT 9999 BKN030"
    },
    {
      "icao": "LIBR",
      "alert": "OK",
      "vis_m": 9999,
      "fzfg": false,
      "metar_trigger": false,
      "taf_trigger": false,
      "metar": "METAR LIBR 051850Z 23005KT CAVOK 11/09 Q0999",
      "taf": "TAF LIBR 051700Z 0518/0618 20014KT CAVOK"
    },
    {
      "icao": "LICA",
      "alert": "OK",
      "vis_m": 9999,
      "fzfg": false,
      "metar_trigger": false,
      "taf_trigger": false,
      "metar": "METAR LICA 051850Z AUTO 27007KT 9999 NCD 12/10 Q1001",
      "taf": "TAF LICA 051700Z 0518/0618 27010KT 9999 SCT040"
    },
    {
      "icao": "LICC",
      "alert": "OK",
      "vis_m": 9999,
      "fzfg": false,
      "metar_trigger": false,
      "taf_trigger": false,
      "metar": "METAR LICC 051850Z 24007KT CAVOK 13/10 Q1002",
      "taf": "TAF LICC 051700Z 0518/0618 25010KT 9999 FEW030"
    },
    {
      "icao": "LICJ",
      "alert": "OK",
      "vis_m": 9999,
      "fzfg": false,
      "metar_trigger": false,
      "taf_trigger": false,
      "metar": "METAR LICJ 051850Z 19015KT 9999 FEW025 16/11 Q1001",
      "taf": "TAF LICJ 051700Z 0518/0618 22013KT 9999 FEW030"
    },
    {
      "icao": "LIMC",
      "alert": "OK",
      "vis_m": 9999,
      "fzfg": false,
      "metar_trigger": false,
      "taf_trigger": false,
      "metar": "METAR LIMC 051850Z 35005KT 9999 BKN040 07/05 Q0993 BECMG 3000 RA",
      "taf": "TAF LIMC 051700Z 0518/0624 VRB05KT 8000 OVC040"
    },
    {
      "icao": "LIME",
      "alert": "OK",
      "vis_m": 9999,
      "fzfg": false,
      "metar_trigger": false,
      "taf_trigger": false,
      "metar": "METAR LIME 051850Z 03004KT 9999 SCT050 07/05 Q0993 NOSIG",
      "taf": "TAF LIME 051700Z 0518/0618 VRB06KT 7000 BKN045"
    },
    {
      "icao": "LIMF",
      "alert": "OK",
      "vis_m": 7000,
      "fzfg": false,
      "metar_trigger": false,
      "taf_trigger": false,
      "metar": "METAR LIMF 051850Z 01003KT 7000 -RA OVC041 07/05 Q0992",
      "taf": "TAF LIMF 051700Z 0518/0618 VRB05KT 7000 BKN040"
    },
    {
      "icao": "LIMJ",
      "alert": "OK",
      "vis_m": 9000,
      "fzfg": false,
      "metar_trigger": false,
      "taf_trigger": false,
      "metar": "METAR LIMJ 051850Z 11013KT 9000 -RA BKN015 BKN030 12/11 Q0991",
      "taf": "TAF LIMJ 051700Z 0518/0618 15022KT 7000 OVC014"
    },
    {
      "icao": "LIPE",
      "alert": "OK",
      "vis_m": 9999,
      "fzfg": false,
      "metar_trigger": false,
      "taf_trigger": false,
      "metar": "METAR LIPE 051850Z 08004KT CAVOK 09/06 Q0994",
      "taf": "TAF LIPE 051700Z 0518/0618 27008KT CAVOK"
    },
    {
      "icao": "LIPH",
      "alert": "OK",
      "vis_m": 9999,
      "fzfg": false,
      "metar_trigger": false,
      "taf_trigger": false,
      "metar": "METAR LIPH 051850Z 09005KT 9999 BKN024 08/08 Q0995",
      "taf": "TAF LIPH 051700Z 0518/0618 04009KT 8000 BKN040"
    },
    {
      "icao": "LIPQ",
      "alert": "OK",
      "vis_m": 9999,
      "fzfg": false,
      "metar_trigger": false,
      "taf_trigger": false,
      "metar": "METAR LIPQ 051850Z AUTO 10003KT 9999 FEW011/// 06/05 Q0995",
      "taf": "TAF LIPQ 051700Z 0518/0618 VRB05KT 9999 BKN040"
    },
    {
      "icao": "LIPR",
      "alert": "OK",
      "vis_m": 9999,
      "fzfg": false,
      "metar_trigger": false,
      "taf_trigger": false,
      "metar": "METAR LIPR 051850Z 18003KT 160V230 CAVOK 07/06 Q0995",
      "taf": "TAF LIPR 051700Z 0518/0618 15010KT 9999 BKN040"
    },
    {
      "icao": "LIPX",
      "alert": "OK",
      "vis_m": 9999,
      "fzfg": false,
      "metar_trigger": false,
      "taf_trigger": false,
      "metar": "METAR LIPX 051850Z 11004KT 080V140 CAVOK 07/05 Q0994",
      "taf": "TAF LIPX 051700Z 0518/0618 VRB05KT 6000 SCT030 BKN050"
    },
    {
      "icao": "LIPY",
      "alert": "OK",
      "vis_m": 9999,
      "fzfg": false,
      "metar_trigger": false,
      "taf_trigger": false,
      "metar": "METAR LIPY 051850Z AUTO 19004KT 9999 NCD 09/07 Q0996",
      "taf": "TAF LIPY 051700Z 0518/0618 VRB05KT 9999 BKN020"
    },
    {
      "icao": "LIPZ",
      "alert": "OK",
      "vis_m": 9999,
      "fzfg": false,
      "metar_trigger": false,
      "taf_trigger": false,
      "metar": "METAR LIPZ 051850Z 06005KT 9999 SCT025 BKN060 08/07 Q0995 NOSIG",
      "taf": "TAF LIPZ 051700Z 0518/0624 VRB05KT 9999 BKN030"
    },
    {
      "icao": "LIRF",
      "alert": "OK",
      "vis_m": 9999,
      "fzfg": false,
      "metar_trigger": false,
      "taf_trigger": false,
      "metar": "METAR LIRF 051850Z 15006KT 9999 SCT050 12/09 Q0998 TEMPO SHRA",
      "taf": "TAF LIRF 051700Z 0518/0624 14015KT 9999 BKN040"
    },
    {
      "icao": "LIRN",
      "alert": "OK",
      "vis_m": 9999,
      "fzfg": false,
      "metar_trigger": false,
      "taf_trigger": false,
      "metar": "METAR LIRN 051850Z 19003KT 140V210 9999 SCT050 12/09 Q1000 NOSIG",
      "taf": "TAF LIRN 051700Z 0518/0618 VRB05KT 9999 SCT020"
    },
    {
      "icao": "LIRP",
      "alert": "OK",
      "vis_m": 9999,
      "fzfg": false,
      "metar_trigger": false,
      "taf_trigger": false,
      "metar": "METAR LIRP 051845Z 10005KT 9999 SCT060 10/09 Q0995 NOSIG",
      "taf": "TAF LIRP 051700Z 0518/0618 10005KT 9999 SCT025 BKN060"
    },
    {
      "icao": "LIRZ",
      "alert": "OK",
      "vis_m": 9999,
      "fzfg": false,
      "metar_trigger": false,
      "taf_trigger": false,
      "metar": "METAR LIRZ 051850Z AUTO 17004KT 120V210 9999 FEW062/// 11/06 Q0997",
      "taf": "TAF LIRZ 051700Z 0518/0618 VRB05KT 9999 BKN060"
    },
    {
      "icao": "LJLJ",
      "alert": "OK",
      "vis_m": 9999,
      "fzfg": false,
      "metar_trigger": false,
      "taf_trigger": false,
      "metar": "METAR LJLJ 051830Z 20002KT 9999 FEW002 SCT011 BKN020 04/03 Q0995 NOSIG",
      "taf": "TAF LJLJ 051700Z 0518/0618 VRB02KT 9999 FEW013 BKN035"
    },
    {
      "icao": "LKMT",
      "alert": "OK",
      "vis_m": 1800,
      "fzfg": false,
      "metar_trigger": false,
      "taf_trigger": false,
      "metar": "METAR LKMT 051830Z 00000KT 1800 BR OVC040 01/01 Q0996 NOSIG",
      "taf": "TAF LKMT 051700Z 0518/0618 VRB02KT 4000 BR SCT014 OVC030"
    },
    {
      "icao": "LKPR",
      "alert": "OK",
      "vis_m": 4500,
      "fzfg": false,
      "metar_trigger": false,
      "taf_trigger": false,
      "metar": "METAR LKPR 051830Z 10004KT 060V140 4500 BR FEW003 OVC013 03/03 Q0993 NOSIG",
      "taf": "TAF LKPR 051700Z 0518/0624 10006KT 1500 BR BKN003"
    },
    {
      "icao": "LLBG",
      "alert": "OK",
      "vis_m": 9999,
      "fzfg": false,
      "metar_trigger": false,
      "taf_trigger": false,
      "metar": "METAR LLBG 051850Z VRB03KT CAVOK 16/12 Q1012 NOSIG",
      "taf": "TAF LLBG 051719Z 0518/0618 VRB04KT CAVOK"
    },
    {
      "icao": "LMML",
      "alert": "OK",
      "vis_m": 9999,
      "fzfg": false,
      "metar_trigger": false,
      "taf_trigger": false,
      "metar": "METAR LMML 051845Z 25005KT 210V290 CAVOK 14/12 Q1004 NOSIG",
      "taf": "TAF LMML 051700Z 0518/0618 26012KT 9999 FEW015"
    },
    {
      "icao": "LOWW",
      "alert": "OK",
      "vis_m": 6000,
      "fzfg": false,
      "metar_trigger": false,
      "taf_trigger": false,
      "metar": "METAR LOWW 051850Z 13005KT 6000 FEW013 SCT015 BKN017 04/03 Q0995 TEMPO 4000 BR",
      "taf": "TAF LOWW 051715Z 0518/0624 16005KT 7000 FEW009 BKN015 TX04/0614Z TN02/0619Z"
    },
    {
      "icao": "LPFR",
      "alert": "OK",
      "vis_m": 7000,
      "fzfg": false,
      "metar_trigger": false,
      "taf_trigger": false,
      "metar": "METAR LPFR 051830Z 26018KT 7000 FEW020 FEW022TCU SCT030 16/13 Q1004",
      "taf": "TAF LPFR 051700Z 0518/0618 23017KT 9999 SCT025"
    },
    {
      "icao": "LPMA",
      "alert": "OK",
      "vis_m": 9999,
      "fzfg": false,
      "metar_trigger": false,
      "taf_trigger": false,
      "metar": "METAR LPMA 051830Z 23010KT 9999 SCT015 FEW016TCU 18/11 Q1011",
      "taf": "TAF LPMA 051700Z 0518/0618 VRB08G18KT 9999 SCT015"
    },
    {
      "icao": "LPPR",
      "alert": "OK",
      "vis_m": 9999,
      "fzfg": false,
      "metar_trigger": false,
      "taf_trigger": false,
      "metar": "METAR LPPR 051830Z 24013KT 210V270 9999 FEW020CB SCT040 13/10 Q0993",
      "taf": "TAF LPPR 051700Z 0518/0618 24012KT 9999 SCT025"
    },
    {
      "icao": "LPPS",
      "alert": "OK",
      "vis_m": 9999,
      "fzfg": false,
      "metar_trigger": false,
      "taf_trigger": false,
      "metar": "METAR LPPS 051830Z 27013KT 240V300 9999 FEW015 SCT030 17/13 Q1011",
      "taf": "TAF LPPS 051700Z 0518/0624 27015KT 9999 SCT015"
    },
    {
      "icao": "LPPT",
      "alert": "OK",
      "vis_m": 5000,
      "fzfg": false,
      "metar_trigger": false,
      "taf_trigger": false,
      "metar": "METAR LPPT 051830Z 24015G25KT 210V270 5000 +TSRA BKN020 SCT025CB 13/11 Q1000 WS R20",
      "taf": "TAF LPPT 051700Z 0518/0624 25012KT 9999 SCT025"
    },
    {
      "icao": "LQBK",
      "alert": "OK",
      "vis_m": 8000,
      "fzfg": false,
      "metar_trigger": false,
      "taf_trigger": false,
      "metar": "METAR LQBK 051830Z 36003KT 8000 BKN010 OVC045 06/06 Q0997 NOSIG",
      "taf": "TAF LQBK 051700Z 0518/0618 33005KT 9999 SCT045 TX07/0616Z TN03/0605Z"
    },
    {
      "icao": "LQSA",
      "alert": "OK",
      "vis_m": 9999,
      "fzfg": false,
      "metar_trigger": false,
      "taf_trigger": false,
      "metar": "METAR LQSA 051830Z 00000KT 9999 SCT045 06/06 Q0997 NOSIG",
      "taf": "TAF LQSA 051700Z 0518/0618 VRB02KT 9999 BKN055 TX10/0613Z TN05/0605Z"
    },
    {
      "icao": "LQTZ",
      "alert": "OK",
      "vis_m": 9999,
      "fzfg": false,
      "metar_trigger": false,
      "taf_trigger": false,
      "metar": "METAR LQTZ 051830Z 09002KT 9999 -RA BKN051 OVC064 08/08 Q0996",
      "taf": "TAF LQTZ 051700Z 0518/0618 10005KT 9999 SCT050 TX10/0613Z TN03/0605Z"
    },
    {
      "icao": "LRBC",
      "alert": "OK",
      "vis_m": 9999,
      "fzfg": false,
      "metar_trigger": false,
      "taf_trigger": false,
      "metar": "METAR LRBC 051830Z 15006KT 9999 -RA OVC008 05/04 Q1005",
      "taf": "TAF LRBC 051700Z 0518/0603 15008KT 5000 -RA BR OVC010"
    },
    {
      "icao": "LRBS",
      "alert": "OK",
      "vis_m": 8000,
      "fzfg": false,
      "metar_trigger": false,
      "taf_trigger": false,
      "metar": "METAR LRBS 051830Z 10007KT 8000 -RA FEW007 OVC019 08/07 Q1001 NOSIG",
      "taf": "TAF LRBS 051700Z 0518/0618 08010KT 9999 SCT020 OVC030"
    },
    {
      "icao": "LRBV",
      "alert": "OK",
      "vis_m": 9999,
      "fzfg": false,
      "metar_trigger": false,
      "taf_trigger": false,
      "metar": "METAR LRBV 051830Z 09012KT 9999 SCT037 BKN045 06/02 Q0999",
      "taf": "TAF LRBV 051700Z 0518/0603 09012KT 9999 BKN040"
    },
    {
      "icao": "LRCL",
      "alert": "OK",
      "vis_m": 9999,
      "fzfg": false,
      "metar_trigger": false,
      "taf_trigger": false,
      "metar": "METAR LRCL 051830Z 04003KT 9999 -RA OVC039 07/05 Q0998",
      "taf": "TAF LRCL 051700Z 0518/0603 VRB04KT 9999 OVC040"
    },
    {
      "icao": "LRCV",
      "alert": "OK",
      "vis_m": 300,
      "fzfg": false,
      "metar_trigger": false,
      "taf_trigger": false,
      "metar": "METAR LRCV 051830Z 27006KT 0300 R26/0450N FG VV002 02/02 Q1000",
      "taf": "TAF LRCV 051700Z 0518/0603 VRB04KT 0200 FG VV002"
    },
    {
      "icao": "LRIA",
      "alert": "OK",
      "vis_m": 4500,
      "fzfg": false,
      "metar_trigger": false,
      "taf_trigger": false,
      "metar": "METAR LRIA 051830Z 11017KT 4500 BR OVC002 01/00 Q1006",
      "taf": "TAF LRIA 051700Z 0518/0603 11017KT 5000 -RADZ BR BKN002 OVC005"
    },
    {
      "icao": "LROP",
      "alert": "OK",
      "vis_m": 6000,
      "fzfg": false,
      "metar_trigger": false,
      "taf_trigger": false,
      "metar": "METAR LROP 051830Z 11009KT 6000 -RA SCT004 OVC017 07/07 Q1000 NOSIG",
      "taf": "TAF LROP 051700Z 0518/0618 08010KT 9999 SCT020 OVC030"
    },
    {
      "icao": "LRSB",
      "alert": "OK",
      "vis_m": 9999,
      "fzfg": false,
      "metar_trigger": false,
      "taf_trigger": false,
      "metar": "METAR LRSB 051830Z 14008KT 9999 -RA BKN055 BKN075 08/04 Q0998",
      "taf": "TAF LRSB 051700Z 0518/0618 VRB04KT 9999 BKN070"
    },
    {
      "icao": "LRSM",
      "alert": "OK",
      "vis_m": 9999,
      "fzfg": false,
      "metar_trigger": false,
      "taf_trigger": false,
      "metar": "METAR LRSM 051830Z AUTO 15007KT 9999 -SHRA BKN065/// BKN100/// 11/05 Q0998",
      "taf": "TAF LRSM 051400Z 0515/0524 14008KT 9999 SCT045"
    },
    {
      "icao": "LRSV",
      "alert": "OK",
      "vis_m": 250,
      "fzfg": false,
      "metar_trigger": false,
      "taf_trigger": false,
      "metar": "METAR LRSV 051830Z 12012KT 0250 R34/0450N DZ FG VV001 01/01 Q1003",
      "taf": "TAF LRSV 051700Z 0518/0603 12010KT 0200 -RA FG VV001"
    },
    {
      "icao": "LRTM",
      "alert": "OK",
      "vis_m": 9999,
      "fzfg": false,
      "metar_trigger": false,
      "taf_trigger": false,
      "metar": "METAR LRTM 051830Z AUTO 06005KT 9999 BKN040/// 07/05 Q0998",
      "taf": "TAF LRTM 051700Z 0518/0603 10006KT 9999 BKN040"
    },
    {
      "icao": "LRTR",
      "alert": "OK",
      "vis_m": 9999,
      "fzfg": false,
      "metar_trigger": false,
      "taf_trigger": false,
      "metar": "METAR LRTR 051830Z 12006KT CAVOK 06/05 Q0997",
      "taf": "TAF LRTR 051700Z 0518/0618 11006KT CAVOK"
    },
    {
      "icao": "LTAC",
      "alert": "OK",
      "vis_m": 9999,
      "fzfg": false,
      "metar_trigger": false,
      "taf_trigger": false,
      "metar": "METAR LTAC 051850Z 06006KT 9999 -SHRA BKN030 BKN080 04/01 Q1009 NOSIG",
      "taf": "TAF LTAC 051640Z 0518/0618 VRB02KT 9999 SCT040 BKN100"
    },
    {
      "icao": "LTFM",
      "alert": "OK",
      "vis_m": 9999,
      "fzfg": false,
      "metar_trigger": false,
      "taf_trigger": false,
      "metar": "METAR LTFM 051850Z 18011KT 9999 -RA SCT035 BKN080 11/07 Q1002 NOSIG",
      "taf": "TAF LTFM 051640Z 0518/0624 14014KT 9999 -RA SCT035 BKN080"
    },
    {
      "icao": "LUKK",
      "alert": "OK",
      "vis_m": 9999,
      "fzfg": false,
      "metar_trigger": false,
      "taf_trigger": false,
      "metar": "METAR LUKK 051830Z 11007KT 9999 OVC006 M00/M01 Q1009 REFZRA NOSIG",
      "taf": "TAF LUKK 051718Z 0518/0618 12010KT 6000 OVC005"
    },
    {
      "icao": "LWOH",
      "alert": "OK",
      "vis_m": 9999,
      "fzfg": false,
      "metar_trigger": false,
      "taf_trigger": false,
      "metar": "METAR LWOH 051850Z 11005KT 080V160 9999 BKN040 07/06 Q0999",
      "taf": "TAF LWOH 051730Z 0518/0618 16006KT 9999 BKN040"
    },
    {
      "icao": "LWSK",
      "alert": "OK",
      "vis_m": 9999,
      "fzfg": false,
      "metar_trigger": false,
      "taf_trigger": false,
      "metar": "METAR LWSK 051850Z 02007KT CAVOK 09/06 Q0998 NOSIG",
      "taf": "TAF LWSK 051730Z 0518/0618 VRB02KT 9999 SCT045"
    },
    {
      "icao": "LYBE",
      "alert": "OK",
      "vis_m": 9999,
      "fzfg": false,
      "metar_trigger": false,
      "taf_trigger": false,
      "metar": "METAR LYBE 051830Z 12009KT CAVOK 06/03 Q0996 NOSIG",
      "taf": "TAF LYBE 051700Z 0518/0618 09007KT CAVOK TX13/0613Z TN04/0606Z"
    },
    {
      "icao": "LYNI",
      "alert": "OK",
      "vis_m": 9999,
      "fzfg": false,
      "metar_trigger": false,
      "taf_trigger": false,
      "metar": "METAR LYNI 051830Z 31004KT CAVOK 03/02 Q0998 NOSIG",
      "taf": "TAF LYNI 051700Z 0518/0618 10006KT 9999 SCT050 TX11/0613Z TN02/0606Z"
    },
    {
      "icao": "LYPG",
      "alert": "OK",
      "vis_m": 9999,
      "fzfg": false,
      "metar_trigger": false,
      "taf_trigger": false,
      "metar": "METAR LYPG 051830Z 23003KT 9999 FEW010 SCT034 BKN070 09/08 Q1000 NOSIG",
      "taf": "TAF LYPG 051700Z 0518/0618 36005KT 8000 FEW020 SCT040 TX14/0615Z TN08/0602Z"
    },
    {
      "icao": "LZIB",
      "alert": "OK",
      "vis_m": 9999,
      "fzfg": false,
      "metar_trigger": false,
      "taf_trigger": false,
      "metar": "METAR LZIB 051830Z 08002KT 9999 FEW011 BKN018 OVC024 05/05 Q0995 NOSIG",
      "taf": "TAF LZIB 051715Z 0518/0618 12007KT 9999 BKN020"
    },
    {
      "icao": "LZKZ",
      "alert": "OK",
      "vis_m": 9999,
      "fzfg": false,
      "metar_trigger": false,
      "taf_trigger": false,
      "metar": "METAR LZKZ 051830Z 01006KT CAVOK 03/02 Q0997 NOSIG",
      "taf": "TAF LZKZ 051715Z 0518/0618 01009KT 9999 BKN030"
    },
    {
      "icao": "LZTT",
      "alert": "OK",
      "vis_m": 5000,
      "fzfg": false,
      "metar_trigger": false,
      "taf_trigger": false,
      "metar": "METAR LZTT 051830Z 28002KT 5000 BR FEW003 BKN030 01/01 Q0997",
      "taf": "TAF LZTT 051715Z 0518/0618 VRB02KT 9999 FEW005 BKN025"
    },
    {
      "icao": "OEJN",
      "alert": "OK",
      "vis_m": 9999,
      "fzfg": false,
      "metar_trigger": false,
      "taf_trigger": false,
      "metar": "METAR OEJN 051800Z 24003KT 9999 SCT040 27/15 Q1012 NOSIG",
      "taf": "TAF OEJN 051700Z 0518/0624 36006KT 7000 FEW040"
    },
    {
      "icao": "OEMA",
      "alert": "OK",
      "vis_m": 9999,
      "fzfg": false,
      "metar_trigger": false,
      "taf_trigger": false,
      "metar": "METAR OEMA 051800Z VRB02KT 9999 FEW040 BKN090 24/00 Q1016 NOSIG",
      "taf": "TAF OEMA 051700Z 0518/0624 28006KT 7000 SCT045"
    },
    {
      "icao": "OJAI",
      "alert": "OK",
      "vis_m": null,
      "fzfg": false,
      "metar_trigger": false,
      "taf_trigger": false,
      "metar": "",
      "taf": "TAF OJAI 051700Z 0518/0624 12006KT 5000 HZ NSC"
    },
    {
      "icao": "OMAA",
      "alert": "OK",
      "vis_m": 9999,
      "fzfg": false,
      "metar_trigger": false,
      "taf_trigger": false,
      "metar": "METAR OMAA 051830Z 32007KT 290V360 CAVOK 21/15 Q1019 NOSIG",
      "taf": "TAF OMAA 051700Z 0518/0700 33010KT 8000 NSC"
    },
    {
      "icao": "OMDB",
      "alert": "OK",
      "vis_m": 9999,
      "fzfg": false,
      "metar_trigger": false,
      "taf_trigger": false,
      "metar": "METAR OMDB 051830Z 25005KT 210V280 CAVOK 22/15 Q1019 NOSIG",
      "taf": "TAF OMDB 051700Z 0518/0700 30010KT 8000 NSC"
    },
    {
      "icao": "UAAA",
      "alert": "OK",
      "vis_m": 1900,
      "fzfg": false,
      "metar_trigger": false,
      "taf_trigger": false,
      "metar": "METAR UAAA 051830Z 18002MPS 1900 R23L/P2000 BR FU BKN100 M01/M03 Q1013 NOSIG",
      "taf": "TAF UAAA 051709Z 0518/0618 20003MPS 1200 BR FU SCT050CB BKN100 TX04/0607Z TNM02/0602Z"
    },
    {
      "icao": "UBBB",
      "alert": "OK",
      "vis_m": 9999,
      "fzfg": false,
      "metar_trigger": false,
      "taf_trigger": false,
      "metar": "METAR UBBB 051830Z 01002KT 9999 -SN SCT014 OVC025 01/00 Q1026 NOSIG",
      "taf": "TAF UBBB 051702Z 0518/0618 13008KT 9999 BKN012 BKN020 TX08/0611Z TN02/0600Z"
    },
    {
      "icao": "UDSG",
      "alert": "OK",
      "vis_m": 8000,
      "fzfg": false,
      "metar_trigger": false,
      "taf_trigger": false,
      "metar": "METAR UDSG 051830Z 08003KT 8000 FEW046 M09/M11 Q1022 NOSIG",
      "taf": "TAF UDSG 051700Z 0518/0618 VRB06KT 9999 FEW040"
    },
    {
      "icao": "UDYZ",
      "alert": "OK",
      "vis_m": 8000,
      "fzfg": false,
      "metar_trigger": false,
      "taf_trigger": false,
      "metar": "METAR UDYZ 051830Z 33001KT 8000 NSC M01/M04 Q1023 NOSIG",
      "taf": "TAF UDYZ 051700Z 0518/0618 VRB04KT 6000 NSC"
    },
    {
      "icao": "UGKO",
      "alert": "OK",
      "vis_m": 9999,
      "fzfg": false,
      "metar_trigger": false,
      "taf_trigger": false,
      "metar": "METAR UGKO 051830Z 09029G44KT CAVOK 08/M03 Q1013 NOSIG",
      "taf": "TAF UGKO 051700Z 0518/0618 08032G45KT CAVOK TX15/0611Z TN05/0604Z"
    }
  ]
}