{
  "ts_utc": "2026-02-11T10:30:01Z",
  "threshold_m": 150,
  "source": "stations_override.txt (ICAO list) + aviationweather.gov (METAR/TAF raw)",
  "station_count": 159,
  "stations": [
    {
      "icao": "BIKF",
      "alert": "OK",
      "vis_m": 9999,
      "fzfg": false,
      "metar_trigger": false,
      "taf_trigger": false,
      "metar": "METAR BIKF 111000Z 05007KT CAVOK M03/M08 Q1006",
      "taf": "TAF BIKF 110733Z 1109/1209 08012KT CAVOK TXM00/1114Z TNM06/1206Z"
    },
    {
      "icao": "BKPR",
      "alert": "OK",
      "vis_m": null,
      "fzfg": false,
      "metar_trigger": false,
      "taf_trigger": false,
      "metar": "",
      "taf": "TAF BKPR 110530Z 1106/1206 17008KT 9999 BKN050"
    },
    {
      "icao": "EBCI",
      "alert": "OK",
      "vis_m": 2800,
      "fzfg": false,
      "metar_trigger": false,
      "taf_trigger": false,
      "metar": "METAR EBCI 111020Z 25014KT 2800 RADZ SCT003 BKN004 10/09 Q0986 TEMPO 1400 RADZ BR",
      "taf": "TAF EBCI 110508Z 1106/1212 25010KT 4000 -DZ -RADZ SCT003 BKN005"
    },
    {
      "icao": "EDDB",
      "alert": "OK",
      "vis_m": 9999,
      "fzfg": false,
      "metar_trigger": false,
      "taf_trigger": false,
      "metar": "METAR EDDB 111020Z AUTO 14006KT 9999 SCT041 06/04 Q0986 NOSIG",
      "taf": "TAF EDDB 110500Z 1106/1206 15006KT 9999 BKN025"
    },
    {
      "icao": "EDDH",
      "alert": "OK",
      "vis_m": 4200,
      "fzfg": false,
      "metar_trigger": false,
      "taf_trigger": false,
      "metar": "METAR EDDH 111020Z AUTO 07007KT 4200 BR OVC003 02/02 Q0985 TEMPO 2500 RADZ",
      "taf": "TAF EDDH 110500Z 1106/1212 08007KT 4000 BR OVC003"
    },
    {
      "icao": "EDDK",
      "alert": "OK",
      "vis_m": 9999,
      "fzfg": false,
      "metar_trigger": false,
      "taf_trigger": false,
      "metar": "METAR EDDK 111020Z AUTO 21005KT 9999 -RA BKN013 BKN019 11/10 Q0985 BECMG SCT012",
      "taf": ""
    },
    {
      "icao": "EDDN",
      "alert": "OK",
      "vis_m": 8000,
      "fzfg": false,
      "metar_trigger": false,
      "taf_trigger": false,
      "metar": "METAR EDDN 111020Z AUTO 20010KT 8000 -SHRA FEW008 BKN021 BKN026 FEW///TCU 08/07 Q0988 TEMPO RA",
      "taf": "TAF EDDN 110500Z 1106/1206 14010KT 9999 BKN020"
    },
    {
      "icao": "EDDS",
      "alert": "OK",
      "vis_m": 9999,
      "fzfg": false,
      "metar_trigger": false,
      "taf_trigger": false,
      "metar": "METAR EDDS 111020Z AUTO 22008KT 170V280 9999 SCT019 BKN025 BKN035 10/07 Q0989 NOSIG",
      "taf": "TAF EDDS 110500Z 1106/1206 17007KT 9999 SCT020 BKN035"
    },
    {
      "icao": "EDFH",
      "alert": "OK",
      "vis_m": 9999,
      "fzfg": false,
      "metar_trigger": false,
      "taf_trigger": false,
      "metar": "METAR EDFH 111020Z COR 24014KT 210V270 9999 -RA BKN003 08/08 Q0986 RERA",
      "taf": "TAF EDFH 110500Z 1106/1206 23011KT 9000 SCT005 BKN012"
    },
    {
      "icao": "EDJA",
      "alert": "OK",
      "vis_m": 9999,
      "fzfg": false,
      "metar_trigger": false,
      "taf_trigger": false,
      "metar": "METAR EDJA 111020Z 24024G35KT 9999 BKN018 OVC027 08/05 Q0991",
      "taf": "TAF EDJA 110800Z 1109/1118 23015G25KT 9999 SCT030 BKN040"
    },
    {
      "icao": "EDLW",
      "alert": "OK",
      "vis_m": 3500,
      "fzfg": false,
      "metar_trigger": false,
      "taf_trigger": false,
      "metar": "METAR EDLW 111020Z 23008KT 3500 -RA BR SCT003 OVC006 10/09 Q0983",
      "taf": "TAF EDLW 110500Z 1106/1206 16005KT 9999 BKN020"
    },
    {
      "icao": "EDNY",
      "alert": "OK",
      "vis_m": 9999,
      "fzfg": false,
      "metar_trigger": false,
      "taf_trigger": false,
      "metar": "METAR EDNY 111020Z 21009KT 9999 -RA BKN036 BKN044 OVC051 09/06 Q0993",
      "taf": "TAF EDNY 110800Z 1109/1118 23006KT 9999 FEW035 SCT045"
    },
    {
      "icao": "EDSB",
      "alert": "OK",
      "vis_m": 9999,
      "fzfg": false,
      "metar_trigger": false,
      "taf_trigger": false,
      "metar": "METAR EDSB 111020Z 20015KT 9999 SCT023 OVC027 12/09 Q0990",
      "taf": "TAF EDSB 110500Z 1106/1206 20015KT 9999 SCT020 OVC030"
    },
    {
      "icao": "EETN",
      "alert": "OK",
      "vis_m": 5000,
      "fzfg": false,
      "metar_trigger": false,
      "taf_trigger": false,
      "metar": "METAR EETN 110950Z 18007KT 5000 -SN OVC039 M07/M09 Q0996 TEMPO 2000 SHSN SCT020CB",
      "taf": ""
    },
    {
      "icao": "EFTU",
      "alert": "OK",
      "vis_m": 9999,
      "fzfg": false,
      "metar_trigger": false,
      "taf_trigger": false,
      "metar": "METAR EFTU 111020Z AUTO 06003KT 030V090 9999 -SHSN OVC005 M05/M06 Q0994",
      "taf": "TAF EFTU 110827Z 1109/1209 08005KT 9999 -SN BKN007"
    },
    {
      "icao": "EGBB",
      "alert": "OK",
      "vis_m": 9999,
      "fzfg": false,
      "metar_trigger": false,
      "taf_trigger": false,
      "metar": "METAR EGBB 111020Z 22007KT 190V250 9999 BKN009 OVC016 10/09 Q0981",
      "taf": "TAF EGBB 110456Z 1106/1206 17004KT 1400 RADZ BR BKN003"
    },
    {
      "icao": "EGGP",
      "alert": "OK",
      "vis_m": 9999,
      "fzfg": false,
      "metar_trigger": false,
      "taf_trigger": false,
      "metar": "METAR EGGP 111020Z VRB02KT 9999 FEW006 BKN015 08/08 Q0980",
      "taf": ""
    },
    {
      "icao": "EGGW",
      "alert": "OK",
      "vis_m": 9999,
      "fzfg": false,
      "metar_trigger": false,
      "taf_trigger": false,
      "metar": "METAR EGGW 111020Z AUTO 24013KT 9999 -RA OVC012/// //////TCU 10/09 Q0982",
      "taf": ""
    },
    {
      "icao": "EGKK",
      "alert": "OK",
      "vis_m": 9999,
      "fzfg": false,
      "metar_trigger": false,
      "taf_trigger": false,
      "metar": "METAR EGKK 111020Z 23011KT 9999 SCT012 BKN023 11/10 Q0984",
      "taf": "TAF EGKK 110453Z 1106/1212 22010KT 9999 SCT015"
    },
    {
      "icao": "EGNM",
      "alert": "OK",
      "vis_m": 350,
      "fzfg": false,
      "metar_trigger": false,
      "taf_trigger": false,
      "metar": "METAR EGNM 111020Z 05005KT 0350 R14/1400N -DZ FG VV/// 06/06 Q0980",
      "taf": "TAF EGNM 110457Z 1106/1206 05009KT 0300 FG BKN000"
    },
    {
      "icao": "EGPD",
      "alert": "OK",
      "vis_m": 9999,
      "fzfg": false,
      "metar_trigger": false,
      "taf_trigger": false,
      "metar": "METAR EGPD 111020Z COR AUTO 10010KT 070V140 9999 -RA BKN022 OVC027 04/01 Q0988 NOSIG",
      "taf": "TAF EGPD 110453Z 1106/1206 08012KT 9999 BKN016"
    },
    {
      "icao": "EGPF",
      "alert": "OK",
      "vis_m": 9999,
      "fzfg": false,
      "metar_trigger": false,
      "taf_trigger": false,
      "metar": "METAR EGPF 111020Z AUTO 07016KT 9999 -RA SCT013 BKN040 OVC049 05/03 Q0983",
      "taf": "TAF EGPF 110452Z 1106/1206 07009KT 9999 BKN016"
    },
    {
      "icao": "EHBK",
      "alert": "OK",
      "vis_m": 9999,
      "fzfg": false,
      "metar_trigger": false,
      "taf_trigger": false,
      "metar": "METAR EHBK 111025Z AUTO 23011KT 9999 -RA SCT007 BKN008 OVC011 10/10 Q0985 TEMPO 8000 -DZ",
      "taf": "TAF EHBK 110503Z 1106/1212 24007KT 2500 BR -DZRA OVC001"
    },
    {
      "icao": "EHEH",
      "alert": "OK",
      "vis_m": 7000,
      "fzfg": false,
      "metar_trigger": false,
      "taf_trigger": false,
      "metar": "METAR EHEH 110955Z AUTO 24010KT 200V260 7000 BR FEW005 SCT007 BKN008 10/10 Q0984 GRN 0800 FG RMK TREND REMOTE BY EHWX",
      "taf": "TAF EHEH 110554Z 1106/1212 18003KT 1500 BR OVC002"
    },
    {
      "icao": "EKBI",
      "alert": "OK",
      "vis_m": 9999,
      "fzfg": false,
      "metar_trigger": false,
      "taf_trigger": false,
      "metar": "METAR EKBI 111020Z AUTO 05010KT 9999 OVC006/// M00/M01 Q0989",
      "taf": "TAF EKBI 110827Z 1109/1209 06012KT 9000 BKN006"
    },
    {
      "icao": "EKCH",
      "alert": "OK",
      "vis_m": 6000,
      "fzfg": false,
      "metar_trigger": false,
      "taf_trigger": false,
      "metar": "METAR EKCH 111020Z 07006KT 6000 FEW005 BKN006 01/M00 Q0990 NOSIG",
      "taf": "TAF EKCH 110828Z 1109/1209 06012KT 6000 SCT007 BKN035"
    },
    {
      "icao": "ENAL",
      "alert": "OK",
      "vis_m": 9999,
      "fzfg": false,
      "metar_trigger": false,
      "taf_trigger": false,
      "metar": "METAR ENAL 111020Z 07011KT CAVOK 01/M05 Q0995",
      "taf": "TAF ENAL 110800Z 1109/1118 07012KT CAVOK"
    },
    {
      "icao": "ENBR",
      "alert": "OK",
      "vis_m": 9999,
      "fzfg": false,
      "metar_trigger": false,
      "taf_trigger": false,
      "metar": "METAR ENBR 111020Z 00000KT CAVOK 01/M04 Q0994 NOSIG RMK WIND 1200FT 24003KT",
      "taf": "TAF ENBR 110500Z 1106/1206 VRB03KT CAVOK"
    },
    {
      "icao": "ENGM",
      "alert": "OK",
      "vis_m": 9999,
      "fzfg": false,
      "metar_trigger": false,
      "taf_trigger": false,
      "metar": "METAR ENGM 111020Z 36008KT CAVOK M05/M10 Q0995 NOSIG",
      "taf": "TAF ENGM 110500Z 1106/1206 01005KT 9999 BKN025"
    },
    {
      "icao": "ENHD",
      "alert": "OK",
      "vis_m": 9999,
      "fzfg": false,
      "metar_trigger": false,
      "taf_trigger": false,
      "metar": "METAR ENHD 111020Z 10005KT CAVOK 00/M08 Q0994",
      "taf": "TAF ENHD 110800Z 1109/1118 09008KT CAVOK"
    },
    {
      "icao": "ENTC",
      "alert": "OK",
      "vis_m": 9999,
      "fzfg": false,
      "metar_trigger": false,
      "taf_trigger": false,
      "metar": "METAR ENTC 111020Z 22008KT 190V250 9999 SCT036 BKN053 M05/M11 Q0997 NOSIG RMK WIND 2600FT 16016KT",
      "taf": "TAF ENTC 110500Z 1106/1206 21009KT 9999 FEW020 SCT040"
    },
    {
      "icao": "ENTO",
      "alert": "OK",
      "vis_m": 9999,
      "fzfg": false,
      "metar_trigger": false,
      "taf_trigger": false,
      "metar": "METAR ENTO 111020Z 02008KT 9999 OVC011 M04/M07 Q0995 TEMPO BKN018",
      "taf": ""
    },
    {
      "icao": "ENVA",
      "alert": "OK",
      "vis_m": 9999,
      "fzfg": false,
      "metar_trigger": false,
      "taf_trigger": false,
      "metar": "METAR ENVA 111020Z 11005KT 9999 SCT015 BKN018 M07/M09 Q0997 NOSIG RMK WIND 670FT 09006KT",
      "taf": "TAF ENVA 110500Z 1106/1206 09005KT 9999 BKN040"
    },
    {
      "icao": "ENZV",
      "alert": "OK",
      "vis_m": 9999,
      "fzfg": false,
      "metar_trigger": false,
      "taf_trigger": false,
      "metar": "METAR ENZV 111020Z 10013KT CAVOK 01/M10 Q0994 NOSIG",
      "taf": "TAF ENZV 110500Z 1106/1206 09008KT 9999 BKN040"
    },
    {
      "icao": "EPGD",
      "alert": "OK",
      "vis_m": 1500,
      "fzfg": false,
      "metar_trigger": false,
      "taf_trigger": false,
      "metar": "METAR EPGD 111000Z 14008KT 1500 R29/1400D -SN BR BKN002 M02/M02 Q0989",
      "taf": "TAF EPGD 110530Z 1106/1206 14008KT 3000 -SN BR OVC002"
    },
    {
      "icao": "EPKK",
      "alert": "OK",
      "vis_m": 9999,
      "fzfg": false,
      "metar_trigger": false,
      "taf_trigger": false,
      "metar": "METAR EPKK 111000Z 02004KT 330V050 CAVOK 04/00 Q0992",
      "taf": "TAF EPKK 110830Z 1109/1209 06004KT CAVOK"
    },
    {
      "icao": "EPKT",
      "alert": "OK",
      "vis_m": 9999,
      "fzfg": false,
      "metar_trigger": false,
      "taf_trigger": false,
      "metar": "METAR EPKT 111000Z 20006KT CAVOK 04/02 Q0991",
      "taf": "TAF EPKT 110530Z 1106/1206 20004KT CAVOK"
    },
    {
      "icao": "EPLB",
      "alert": "OK",
      "vis_m": 9999,
      "fzfg": false,
      "metar_trigger": false,
      "taf_trigger": false,
      "metar": "METAR EPLB 111000Z 20012KT CAVOK 03/M00 Q0994",
      "taf": "TAF EPLB 110530Z 1106/1206 17008KT CAVOK"
    },
    {
      "icao": "EPMO",
      "alert": "OK",
      "vis_m": 9999,
      "fzfg": false,
      "metar_trigger": false,
      "taf_trigger": false,
      "metar": "METAR EPMO 111000Z 16007KT 130V190 CAVOK 02/M00 Q0991",
      "taf": "TAF EPMO 110530Z 1106/1206 16006KT 4500 BR BKN025"
    },
    {
      "icao": "EPPO",
      "alert": "OK",
      "vis_m": 9999,
      "fzfg": false,
      "metar_trigger": false,
      "taf_trigger": false,
      "metar": "METAR EPPO 111000Z 17006KT 9999 OVC029 03/01 Q0988",
      "taf": "TAF EPPO 110530Z 1106/1206 14006KT 8000 BKN040"
    },
    {
      "icao": "EPRA",
      "alert": "OK",
      "vis_m": 9999,
      "fzfg": false,
      "metar_trigger": false,
      "taf_trigger": false,
      "metar": "METAR EPRA 111000Z 17009KT CAVOK 03/M01 Q0992",
      "taf": "TAF EPRA 110830Z 1109/1118 16010KT CAVOK"
    },
    {
      "icao": "EPRZ",
      "alert": "OK",
      "vis_m": 9999,
      "fzfg": false,
      "metar_trigger": false,
      "taf_trigger": false,
      "metar": "METAR EPRZ 111000Z 18010KT 9999 BKN017 04/00 Q0995",
      "taf": "TAF EPRZ 110530Z 1106/1206 18012KT CAVOK"
    },
    {
      "icao": "EPSC",
      "alert": "OK",
      "vis_m": 1700,
      "fzfg": false,
      "metar_trigger": false,
      "taf_trigger": false,
      "metar": "METAR EPSC 111000Z 13006KT 1700 R31/1400N -RA BR OVC002 01/01 Q0987",
      "taf": ""
    },
    {
      "icao": "EPSY",
      "alert": "OK",
      "vis_m": 2200,
      "fzfg": false,
      "metar_trigger": false,
      "taf_trigger": false,
      "metar": "METAR EPSY 111000Z 16006KT 120V190 2200 BR OVC002 00/00 Q0991",
      "taf": "TAF EPSY 110830Z 1109/1118 16006KT 4000 BR BKN002 OVC005"
    },
    {
      "icao": "EPWA",
      "alert": "OK",
      "vis_m": 9999,
      "fzfg": false,
      "metar_trigger": false,
      "taf_trigger": false,
      "metar": "METAR EPWA 111000Z 16009KT CAVOK 02/M01 Q0992 NOSIG",
      "taf": "TAF EPWA 110830Z 1109/1209 16008KT CAVOK"
    },
    {
      "icao": "EPWR",
      "alert": "OK",
      "vis_m": 9999,
      "fzfg": false,
      "metar_trigger": false,
      "taf_trigger": false,
      "metar": "METAR EPWR 111000Z 16007KT CAVOK 05/01 Q0989",
      "taf": "TAF EPWR 110830Z 1109/1209 17008KT CAVOK"
    },
    {
      "icao": "ESGG",
      "alert": "OK",
      "vis_m": 9999,
      "fzfg": false,
      "metar_trigger": false,
      "taf_trigger": false,
      "metar": "METAR ESGG 110950Z 02009KT 9999 SCT004 BKN023 M04/M05 Q0992",
      "taf": "TAF ESGG 110830Z 1109/1209 03008KT 7000 BKN003"
    },
    {
      "icao": "ESKN",
      "alert": "OK",
      "vis_m": 9999,
      "fzfg": false,
      "metar_trigger": false,
      "taf_trigger": false,
      "metar": "METAR ESKN 110950Z VRB02KT 9999 SCT006 BKN008 M06/M07 Q0995",
      "taf": ""
    },
    {
      "icao": "ESMS",
      "alert": "OK",
      "vis_m": 6000,
      "fzfg": false,
      "metar_trigger": false,
      "taf_trigger": false,
      "metar": "METAR ESMS 110950Z 06007KT 6000 OVC006 01/00 Q0989",
      "taf": "TAF ESMS 110851Z 1109/1209 09012KT 3000 BR OVC004"
    },
    {
      "icao": "ESSA",
      "alert": "OK",
      "vis_m": 9999,
      "fzfg": false,
      "metar_trigger": false,
      "taf_trigger": false,
      "metar": "METAR ESSA 110950Z 33007KT 9999 OVC006 M05/M06 Q0995 TEMPO 4000 -SN",
      "taf": "TAF ESSA 110830Z 1109/1209 32005KT 9999 BKN005 OVC030"
    },
    {
      "icao": "EYKA",
      "alert": "OK",
      "vis_m": 3500,
      "fzfg": false,
      "metar_trigger": false,
      "taf_trigger": false,
      "metar": "METAR EYKA 111020Z 11003KT 3500 BR OVC005 M04/M04 Q0994",
      "taf": "TAF EYKA 110516Z 1106/1206 VRB04KT 5000 BR OVC005"
    },
    {
      "icao": "EYPA",
      "alert": "OK",
      "vis_m": 6000,
      "fzfg": false,
      "metar_trigger": false,
      "taf_trigger": false,
      "metar": "METAR EYPA 111020Z 09007KT 6000 BKN009 OVC015 M05/M08 Q0992",
      "taf": "TAF EYPA 110516Z 1106/1206 VRB05KT 6000 SCT010 OVC015"
    },
    {
      "icao": "EYVI",
      "alert": "OK",
      "vis_m": 3300,
      "fzfg": false,
      "metar_trigger": false,
      "taf_trigger": false,
      "metar": "METAR EYVI 111020Z 17011KT 3300 BR OVC003 M04/M05 Q0994 TEMPO 3000 BR OVC002",
      "taf": ""
    },
    {
      "icao": "GCFV",
      "alert": "OK",
      "vis_m": 9999,
      "fzfg": false,
      "metar_trigger": false,
      "taf_trigger": false,
      "metar": "METAR GCFV 111000Z 02011KT 9999 SCT012 19/16 Q1025",
      "taf": "TAF GCFV 110800Z 1109/1209 04013KT 9999 BKN016 TX24/1114Z TN17/1206Z"
    },
    {
      "icao": "GCLP",
      "alert": "OK",
      "vis_m": 9999,
      "fzfg": false,
      "metar_trigger": false,
      "taf_trigger": false,
      "metar": "METAR GCLP 111000Z 02017KT 9999 FEW017 20/16 Q1025 NOSIG",
      "taf": "TAF GCLP 110800Z 1109/1209 02018KT 9999 FEW018 TX24/1114Z TN17/1206Z"
    },
    {
      "icao": "GCTS",
      "alert": "OK",
      "vis_m": 9999,
      "fzfg": false,
      "metar_trigger": false,
      "taf_trigger": false,
      "metar": "METAR GCTS 111000Z 08004KT 360V160 9999 FEW020 19/15 Q1025 NOSIG",
      "taf": "TAF GCTS 110800Z 1109/1209 04005KT 9999 FEW020 TX25/1114Z TN17/1206Z"
    },
    {
      "icao": "GMAD",
      "alert": "OK",
      "vis_m": 400,
      "fzfg": false,
      "metar_trigger": false,
      "taf_trigger": false,
      "metar": "METAR GMAD 111000Z 00000KT 0400 R27/0450N FG BKN001 14/14 Q1023 BECMG 3000 BR OVC002",
      "taf": "TAF GMAD 110500Z 1106/1212 06005KT 0200 FG OVC002"
    },
    {
      "icao": "GMMN",
      "alert": "OK",
      "vis_m": 2000,
      "fzfg": false,
      "metar_trigger": false,
      "taf_trigger": false,
      "metar": "SPECI GMMN 111010Z 36003KT 320V080 2000 R17R/1600VP2000U BR BKN002 15/14 Q1025 TEMPO 5000 SCT010",
      "taf": "TAF GMMN 110500Z 1106/1212 34005KT 0400 FG BKN002"
    },
    {
      "icao": "GMMX",
      "alert": "OK",
      "vis_m": 9999,
      "fzfg": false,
      "metar_trigger": false,
      "taf_trigger": false,
      "metar": "METAR GMMX 111000Z 12004KT 090V160 CAVOK 18/14 Q1025 NOSIG",
      "taf": "TAF GMMX 110500Z 1106/1212 24008KT 8000 SCT030"
    },
    {
      "icao": "HEGN",
      "alert": "OK",
      "vis_m": 9999,
      "fzfg": false,
      "metar_trigger": false,
      "taf_trigger": false,
      "metar": "METAR HEGN 111000Z 36012KT CAVOK 25/11 Q1015 NOSIG",
      "taf": "TAF HEGN 110500Z 1106/1212 31012KT 6000 SCT025"
    },
    {
      "icao": "HEMA",
      "alert": "OK",
      "vis_m": 9999,
      "fzfg": false,
      "metar_trigger": false,
      "taf_trigger": false,
      "metar": "METAR HEMA 111000Z 36010KT CAVOK 27/08 Q1016 NOSIG",
      "taf": "TAF HEMA 110500Z 1106/1212 36008KT 6000 SCT025"
    },
    {
      "icao": "HESH",
      "alert": "OK",
      "vis_m": 9999,
      "fzfg": false,
      "metar_trigger": false,
      "taf_trigger": false,
      "metar": "METAR HESH 111000Z 14005KT CAVOK 26/19 Q1016 NOSIG",
      "taf": "TAF HESH 110500Z 1106/1212 33006KT 6000 SCT025"
    },
    {
      "icao": "HESX",
      "alert": "OK",
      "vis_m": 9999,
      "fzfg": false,
      "metar_trigger": false,
      "taf_trigger": false,
      "metar": "METAR HESX 111000Z 01008KT CAVOK 21/07 Q1016 NOSIG",
      "taf": "TAF HESX 110500Z 1106/1212 22012G22KT 6000 NSC"
    },
    {
      "icao": "LATI",
      "alert": "OK",
      "vis_m": 9999,
      "fzfg": false,
      "metar_trigger": false,
      "taf_trigger": false,
      "metar": "METAR LATI 111020Z 15013KT 9999 SCT043 BKN080 15/06 Q1004 NOSIG",
      "taf": "TAF LATI 110500Z 1106/1206 VRB05KT 9999 SCT030 BKN070 TX15/1112Z TN07/1205Z"
    },
    {
      "icao": "LBPD",
      "alert": "OK",
      "vis_m": 9999,
      "fzfg": false,
      "metar_trigger": false,
      "taf_trigger": false,
      "metar": "METAR LBPD 111000Z AUTO 06004KT 020V100 9999 OVC013/// 03/01 Q1008 NOSIG",
      "taf": "TAF LBPD 110500Z 1106/1206 VRB04KT 9999 BKN020"
    },
    {
      "icao": "LBSF",
      "alert": "OK",
      "vis_m": 9999,
      "fzfg": false,
      "metar_trigger": false,
      "taf_trigger": false,
      "metar": "METAR LBSF 111000Z 10011KT 9999 SCT048 06/00 Q1005 NOSIG",
      "taf": "TAF LBSF 110500Z 1106/1206 11012KT 9999 SCT030 BKN050"
    },
    {
      "icao": "LBWN",
      "alert": "OK",
      "vis_m": 9999,
      "fzfg": false,
      "metar_trigger": false,
      "taf_trigger": false,
      "metar": "METAR LBWN 111000Z 20011KT 9999 BKN021 07/02 Q1007 NOSIG",
      "taf": "TAF LBWN 110500Z 1106/1206 VRB03KT 9999 BKN025"
    },
    {
      "icao": "LCLK",
      "alert": "OK",
      "vis_m": 9999,
      "fzfg": false,
      "metar_trigger": false,
      "taf_trigger": false,
      "metar": "METAR LCLK 111000Z 22021KT 9999 FEW030 FEW035CB SCT040 20/14 Q1011 NOSIG RMK CB TO S",
      "taf": "TAF LCLK 110530Z 1106/1206 24008KT 9999 FEW025"
    },
    {
      "icao": "LCPH",
      "alert": "OK",
      "vis_m": 9999,
      "fzfg": false,
      "metar_trigger": false,
      "taf_trigger": false,
      "metar": "METAR LCPH 111000Z 29010KT 250V320 9999 FEW025 SCT035 18/12 Q1011 NOSIG",
      "taf": "TAF LCPH 110530Z 1106/1206 28015KT 9999 FEW020 SCT045"
    },
    {
      "icao": "LEAL",
      "alert": "OK",
      "vis_m": 9999,
      "fzfg": false,
      "metar_trigger": false,
      "taf_trigger": false,
      "metar": "METAR LEAL 111000Z 26008KT 230V300 CAVOK 23/12 Q1013 NOSIG",
      "taf": "TAF LEAL 110500Z 1106/1206 24015KT 9999 FEW030 TX24/1112Z TN15/1106Z"
    },
    {
      "icao": "LEBB",
      "alert": "OK",
      "vis_m": 9999,
      "fzfg": false,
      "metar_trigger": false,
      "taf_trigger": false,
      "metar": "METAR LEBB 111000Z VRB06KT CAVOK 17/09 Q1005 NOSIG",
      "taf": "TAF LEBB 110500Z 1106/1206 20009KT 9999 FEW040 TX19/1118Z TN10/1205Z"
    },
    {
      "icao": "LEBL",
      "alert": "OK",
      "vis_m": 9999,
      "fzfg": false,
      "metar_trigger": false,
      "taf_trigger": false,
      "metar": "METAR LEBL 111000Z 26008KT 240V320 9999 FEW044 19/08 Q1007 NOSIG",
      "taf": ""
    },
    {
      "icao": "LECH",
      "alert": "OK",
      "vis_m": 9999,
      "fzfg": false,
      "metar_trigger": false,
      "taf_trigger": false,
      "metar": "METAR LECH 111000Z AUTO 28018KT 230V340 CAVOK 20/03 Q1010",
      "taf": ""
    },
    {
      "icao": "LEMD",
      "alert": "OK",
      "vis_m": 7000,
      "fzfg": false,
      "metar_trigger": false,
      "taf_trigger": false,
      "metar": "METAR LEMD 111000Z 16008KT 130V220 7000 -RA BKN014 OVC021 12/12 Q1013 NOSIG",
      "taf": "TAF LEMD 110500Z 1106/1212 24010KT 9999 FEW015 TX15/1114Z TN07/1207Z"
    },
    {
      "icao": "LEMG",
      "alert": "OK",
      "vis_m": 9999,
      "fzfg": false,
      "metar_trigger": false,
      "taf_trigger": false,
      "metar": "METAR LEMG 111000Z 16003KT 120V210 9999 FEW048 19/15 Q1019 NOSIG",
      "taf": "TAF LEMG 110500Z 1106/1206 VRB02KT 9999 SCT040 TX22/1114Z TN16/1107Z"
    },
    {
      "icao": "LEVC",
      "alert": "OK",
      "vis_m": 9999,
      "fzfg": false,
      "metar_trigger": false,
      "taf_trigger": false,
      "metar": "METAR LEVC 111000Z 29022G32KT 260V320 CAVOK 20/09 Q1012 NOSIG",
      "taf": ""
    },
    {
      "icao": "LEXJ",
      "alert": "OK",
      "vis_m": 9999,
      "fzfg": false,
      "metar_trigger": false,
      "taf_trigger": false,
      "metar": "METAR LEXJ 111000Z 21009KT 160V260 9999 FEW060 17/07 Q1003",
      "taf": ""
    },
    {
      "icao": "LEZG",
      "alert": "OK",
      "vis_m": 9999,
      "fzfg": false,
      "metar_trigger": false,
      "taf_trigger": false,
      "metar": "METAR LEZG 111000Z 25013KT 9999 FEW050 16/08 Q1009 NOSIG",
      "taf": "TAF LEZG 110500Z 1106/1206 25015KT 9999 FEW050 TX19/1112Z TN13/1106Z"
    },
    {
      "icao": "LEZL",
      "alert": "OK",
      "vis_m": 5000,
      "fzfg": false,
      "metar_trigger": false,
      "taf_trigger": false,
      "metar": "METAR LEZL 111000Z 23013G23KT 200V260 5000 -DZ BR OVC004 16/16 Q1021 NOSIG",
      "taf": "TAF LEZL 110800Z 1109/1209 24010KT 9999 BKN030 TX19/1115Z TN13/1207Z"
    },
    {
      "icao": "LFBD",
      "alert": "OK",
      "vis_m": 6000,
      "fzfg": false,
      "metar_trigger": false,
      "taf_trigger": false,
      "metar": "METAR LFBD 111000Z AUTO 25013KT 6000 -RA FEW023/// SCT032/// BKN066/// ///CB 13/12 Q1004 TEMPO 4000 -RA BKN008 BECMG 20015G25KT",
      "taf": "TAF LFBD 110500Z 1106/1212 27010G20KT 9999 SCT020 BKN025 TX14/1121Z TN10/1205Z"
    },
    {
      "icao": "LFLL",
      "alert": "OK",
      "vis_m": 9999,
      "fzfg": false,
      "metar_trigger": false,
      "taf_trigger": false,
      "metar": "METAR LFLL 111000Z 24007KT 210V270 9999 SCT033 BKN063 12/08 Q0999 NOSIG",
      "taf": "TAF LFLL 110500Z 1106/1212 20010KT CAVOK"
    },
    {
      "icao": "LFLS",
      "alert": "OK",
      "vis_m": 9999,
      "fzfg": false,
      "metar_trigger": false,
      "taf_trigger": false,
      "metar": "METAR LFLS 111000Z AUTO VRB02KT 9999 -RA BKN039/// BKN045/// OVC054/// ///TCU 10/07 Q1000 TEMPO 23015G25KT 3000 SHRA",
      "taf": "TAF LFLS 110800Z 1109/1209 20010KT 9999 BKN040"
    },
    {
      "icao": "LFMN",
      "alert": "OK",
      "vis_m": 9999,
      "fzfg": false,
      "metar_trigger": false,
      "taf_trigger": false,
      "metar": "METAR LFMN 111000Z 07006KT 040V100 9999 FEW026 14/10 Q0995 NOSIG",
      "taf": ""
    },
    {
      "icao": "LFOB",
      "alert": "OK",
      "vis_m": 9999,
      "fzfg": false,
      "metar_trigger": false,
      "taf_trigger": false,
      "metar": "METAR LFOB 111000Z AUTO 25013KT 9999 -RA BKN011/// BKN016/// OVC029/// ///TCU 11/10 Q0989 TEMPO 24020G30KT 3000 RA BKN007 BKN013TCU",
      "taf": "TAF LFOB 110500Z 1106/1206 24012KT 9999 BKN015"
    },
    {
      "icao": "LFPO",
      "alert": "OK",
      "vis_m": 9999,
      "fzfg": false,
      "metar_trigger": false,
      "taf_trigger": false,
      "metar": "METAR LFPO 111000Z 25014KT 9999 BKN017 BKN030 12/10 Q0991 NOSIG",
      "taf": "TAF LFPO 110500Z 1106/1212 24015KT 9999 BKN025"
    },
    {
      "icao": "LFSB",
      "alert": "OK",
      "vis_m": 9999,
      "fzfg": false,
      "metar_trigger": false,
      "taf_trigger": false,
      "metar": "METAR LFSB 111000Z AUTO 23011KT 200V260 9999 -RA FEW034/// SCT045/// BKN060/// ///TCU 11/09 Q0993 TEMPO 24015G25KT 4000 -SHRA FEW030CB",
      "taf": "TAF LFSB 110500Z 1106/1206 22010KT 9999 SCT030 BKN050"
    },
    {
      "icao": "LGAV",
      "alert": "OK",
      "vis_m": 9999,
      "fzfg": false,
      "metar_trigger": false,
      "taf_trigger": false,
      "metar": "METAR LGAV 111020Z 12005KT 070V150 9999 SCT020 BKN040 14/09 Q1009 NOSIG",
      "taf": "TAF LGAV 110500Z 1106/1206 VRB03KT 9999 FEW025 BKN070"
    },
    {
      "icao": "LGTS",
      "alert": "OK",
      "vis_m": 9999,
      "fzfg": false,
      "metar_trigger": false,
      "taf_trigger": false,
      "metar": "METAR LGTS 111020Z 29005KT 9999 SCT020 BKN035 11/08 Q1008 NOSIG",
      "taf": "TAF LGTS 110500Z 1106/1206 VRB03KT 9999 FEW010 SCT025"
    },
    {
      "icao": "LHBP",
      "alert": "OK",
      "vis_m": 5000,
      "fzfg": false,
      "metar_trigger": false,
      "taf_trigger": false,
      "metar": "SPECI LHBP 111022Z 11007KT 5000 -RA BR BKN006 BKN040 03/02 Q0996 BECMG 8000 NSW FEW007 SCT013 BKN040",
      "taf": ""
    },
    {
      "icao": "LHDC",
      "alert": "OK",
      "vis_m": 9999,
      "fzfg": false,
      "metar_trigger": false,
      "taf_trigger": false,
      "metar": "METAR LHDC 110945Z AUTO 19010KT 9999 -DZ BKN023 BKN045 06/03 Q1000 NOSIG",
      "taf": "TAF LHDC 110815Z 1109/1118 16009KT 9999 BKN040 BKN060"
    },
    {
      "icao": "LIBD",
      "alert": "OK",
      "vis_m": 9999,
      "fzfg": false,
      "metar_trigger": false,
      "taf_trigger": false,
      "metar": "METAR LIBD 111020Z 17006KT CAVOK 14/08 Q1000",
      "taf": "TAF LIBD 110500Z 1106/1206 22013KT 9999 FEW040"
    },
    {
      "icao": "LIBG",
      "alert": "OK",
      "vis_m": 9999,
      "fzfg": false,
      "metar_trigger": false,
      "taf_trigger": false,
      "metar": "METAR LIBG 110950Z 14009KT CAVOK 14/10 Q1002",
      "taf": "TAF LIBG 110800Z 1109/1118 VRB05KT 9999 SCT030"
    },
    {
      "icao": "LIBP",
      "alert": "OK",
      "vis_m": 9999,
      "fzfg": false,
      "metar_trigger": false,
      "taf_trigger": false,
      "metar": "METAR LIBP 111020Z AUTO 02003KT 9999 -RA BKN063/// 14/07 Q0997",
      "taf": "TAF LIBP 110500Z 1106/1206 21013KT 6000 BKN060"
    },
    {
      "icao": "LIBR",
      "alert": "OK",
      "vis_m": 9999,
      "fzfg": false,
      "metar_trigger": false,
      "taf_trigger": false,
      "metar": "METAR LIBR 111020Z 18012KT CAVOK 14/10 Q1001",
      "taf": "TAF LIBR 110500Z 1106/1206 22012KT 9999 FEW040"
    },
    {
      "icao": "LICA",
      "alert": "OK",
      "vis_m": 4300,
      "fzfg": false,
      "metar_trigger": false,
      "taf_trigger": false,
      "metar": "METAR LICA 111020Z AUTO 07011KT 4300 RA BR FEW024/// OVC032/// 11/11 Q1002",
      "taf": "TAF LICA 110500Z 1106/1206 VRB05KT 9999 BKN020"
    },
    {
      "icao": "LICC",
      "alert": "OK",
      "vis_m": 9999,
      "fzfg": false,
      "metar_trigger": false,
      "taf_trigger": false,
      "metar": "METAR LICC 111020Z 25015KT 9999 SCT020 BKN040 18/15 Q1002",
      "taf": "TAF LICC 110500Z 1106/1206 26013KT 9999 SCT030"
    },
    {
      "icao": "LICJ",
      "alert": "OK",
      "vis_m": 9999,
      "fzfg": false,
      "metar_trigger": false,
      "taf_trigger": false,
      "metar": "METAR LICJ 111020Z 26024KT 9999 BKN020 16/14 Q1003",
      "taf": "TAF LICJ 110500Z 1106/1206 21015KT 9999 SCT020"
    },
    {
      "icao": "LIMC",
      "alert": "OK",
      "vis_m": 9999,
      "fzfg": false,
      "metar_trigger": false,
      "taf_trigger": false,
      "metar": "METAR LIMC 111020Z 30003KT 270V330 9999 SCT040 08/06 Q0997 NOSIG",
      "taf": "TAF LIMC 110500Z 1106/1212 VRB04KT 3000 -RA BR SCT015"
    },
    {
      "icao": "LIME",
      "alert": "OK",
      "vis_m": 9999,
      "fzfg": false,
      "metar_trigger": false,
      "taf_trigger": false,
      "metar": "METAR LIME 111020Z 22005KT 9999 SCT025 BKN045 09/06 Q0997 NOSIG",
      "taf": "TAF LIME 110500Z 1106/1206 VRB04KT 2000 -RA BR BKN007"
    },
    {
      "icao": "LIMF",
      "alert": "OK",
      "vis_m": 9999,
      "fzfg": false,
      "metar_trigger": false,
      "taf_trigger": false,
      "metar": "METAR LIMF 111020Z 15003KT 120V220 9999 FEW015 SCT050 09/05 Q0997",
      "taf": "TAF LIMF 110500Z 1106/1206 VRB03KT 8000 BKN035"
    },
    {
      "icao": "LIMJ",
      "alert": "OK",
      "vis_m": 9999,
      "fzfg": false,
      "metar_trigger": false,
      "taf_trigger": false,
      "metar": "METAR LIMJ 111020Z 02013KT 350V050 CAVOK 12/06 Q0996",
      "taf": "TAF LIMJ 110500Z 1106/1206 VRB05KT 8000 BKN020"
    },
    {
      "icao": "LIPE",
      "alert": "OK",
      "vis_m": 3500,
      "fzfg": false,
      "metar_trigger": false,
      "taf_trigger": false,
      "metar": "METAR LIPE 111020Z 27010KT 3500 BR BKN005 09/09 Q0996",
      "taf": ""
    },
    {
      "icao": "LIPH",
      "alert": "OK",
      "vis_m": 7000,
      "fzfg": false,
      "metar_trigger": false,
      "taf_trigger": false,
      "metar": "METAR LIPH 111020Z 05007KT 010V070 7000 BKN005 BKN010 10/09 Q0996",
      "taf": ""
    },
    {
      "icao": "LIPQ",
      "alert": "OK",
      "vis_m": 4700,
      "fzfg": false,
      "metar_trigger": false,
      "taf_trigger": false,
      "metar": "METAR LIPQ 111020Z AUTO 04003KT 4700 -RA OVC010/// 10/10 Q0997",
      "taf": "TAF LIPQ 110500Z 1106/1206 VRB05KT 6000 SCT020 BKN040"
    },
    {
      "icao": "LIPR",
      "alert": "OK",
      "vis_m": 9999,
      "fzfg": false,
      "metar_trigger": false,
      "taf_trigger": false,
      "metar": "METAR LIPR 111020Z 18008KT 9999 -RA SCT050 BKN060 12/09 Q0995",
      "taf": "TAF LIPR 110500Z 1106/1206 16010KT 9999 BKN030"
    },
    {
      "icao": "LIPX",
      "alert": "OK",
      "vis_m": 9999,
      "fzfg": false,
      "metar_trigger": false,
      "taf_trigger": false,
      "metar": "METAR LIPX 111020Z 27005KT 9999 SCT015 BKN030 10/08 Q0997",
      "taf": "TAF LIPX 110500Z 1106/1206 VRB05KT 2000 -RA BR BKN035"
    },
    {
      "icao": "LIPY",
      "alert": "OK",
      "vis_m": 9999,
      "fzfg": false,
      "metar_trigger": false,
      "taf_trigger": false,
      "metar": "METAR LIPY 111020Z AUTO 20003KT 160V250 9999 -RA OVC062/// 14/07 Q0996",
      "taf": "TAF LIPY 110500Z 1106/1206 13008KT 9999 SCT050"
    },
    {
      "icao": "LIPZ",
      "alert": "OK",
      "vis_m": 9999,
      "fzfg": false,
      "metar_trigger": false,
      "taf_trigger": false,
      "metar": "METAR LIPZ 111020Z 05008KT 9999 BKN005 09/09 Q0996 NOSIG",
      "taf": "TAF LIPZ 110500Z 1106/1212 VRB05KT 4000 RA BKN015"
    },
    {
      "icao": "LIRF",
      "alert": "OK",
      "vis_m": 9999,
      "fzfg": false,
      "metar_trigger": false,
      "taf_trigger": false,
      "metar": "METAR LIRF 111020Z 14007KT 110V210 9999 VCSH SCT007 SCT025 12/11 Q0998 NOSIG",
      "taf": "TAF LIRF 110500Z 1106/1212 16012KT 9999 SCT020"
    },
    {
      "icao": "LIRN",
      "alert": "OK",
      "vis_m": 9999,
      "fzfg": false,
      "metar_trigger": false,
      "taf_trigger": false,
      "metar": "METAR LIRN 111020Z VRB01KT 9999 BKN050 13/11 Q0998 NOSIG",
      "taf": "TAF LIRN 110500Z 1106/1206 19007KT 9999 SCT015"
    },
    {
      "icao": "LIRP",
      "alert": "OK",
      "vis_m": 9999,
      "fzfg": false,
      "metar_trigger": false,
      "taf_trigger": false,
      "metar": "METAR LIRP 111015Z 25009KT 9999 SCT025 BKN040 15/12 Q0995 NOSIG",
      "taf": "TAF LIRP 110500Z 1106/1206 09005KT 7000 -RA BKN020"
    },
    {
      "icao": "LIRZ",
      "alert": "OK",
      "vis_m": 9999,
      "fzfg": false,
      "metar_trigger": false,
      "taf_trigger": false,
      "metar": "METAR LIRZ 111020Z AUTO VRB02KT 9999 -DZRA FEW021/// BKN037/// BKN045/// 11/09 Q0998",
      "taf": "TAF LIRZ 110500Z 1106/1206 19008KT 4000 RA SCT020 BKN030"
    },
    {
      "icao": "LJLJ",
      "alert": "OK",
      "vis_m": 9999,
      "fzfg": false,
      "metar_trigger": false,
      "taf_trigger": false,
      "metar": "METAR LJLJ 111000Z 05001KT 9999 -RA FEW003 BKN045 OVC065 07/06 Q0996 NOSIG",
      "taf": "TAF LJLJ 110500Z 1106/1206 20003KT 9999 FEW003 OVC030"
    },
    {
      "icao": "LKMT",
      "alert": "OK",
      "vis_m": 9999,
      "fzfg": false,
      "metar_trigger": false,
      "taf_trigger": false,
      "metar": "METAR LKMT 111000Z 22016KT 9999 BKN022 06/02 Q0992 NOSIG",
      "taf": "TAF LKMT 110500Z 1106/1206 22012KT 9999 BKN025"
    },
    {
      "icao": "LKPR",
      "alert": "OK",
      "vis_m": 9999,
      "fzfg": false,
      "metar_trigger": false,
      "taf_trigger": false,
      "metar": "METAR LKPR 111000Z 12009KT 080V150 9999 -RA FEW009 SCT025 BKN040 03/01 Q0988 NOSIG",
      "taf": "TAF LKPR 110800Z 1109/1215 16008KT 6000 -RA SCT010 BKN035"
    },
    {
      "icao": "LLBG",
      "alert": "OK",
      "vis_m": 9999,
      "fzfg": false,
      "metar_trigger": false,
      "taf_trigger": false,
      "metar": "METAR LLBG 111020Z 24015KT 9999 BKN030 19/13 Q1015 NOSIG",
      "taf": "TAF LLBG 110506Z 1106/1206 VRB04KT 9999 SCT030"
    },
    {
      "icao": "LMML",
      "alert": "OK",
      "vis_m": 9999,
      "fzfg": false,
      "metar_trigger": false,
      "taf_trigger": false,
      "metar": "METAR LMML 111015Z 24016KT CAVOK 18/15 Q1007 NOSIG",
      "taf": "TAF LMML 110500Z 1106/1206 26010KT 9999 SCT018 SCT045"
    },
    {
      "icao": "LOWW",
      "alert": "OK",
      "vis_m": 8000,
      "fzfg": false,
      "metar_trigger": false,
      "taf_trigger": false,
      "metar": "METAR LOWW 111020Z 11006KT 8000 -RA FEW006 BKN014 05/03 Q0993 BECMG BKN020",
      "taf": "TAF LOWW 110815Z 1109/1215 13011KT 8000 OVC006 TX08/1114Z TN04/1203Z"
    },
    {
      "icao": "LPFR",
      "alert": "OK",
      "vis_m": 1500,
      "fzfg": false,
      "metar_trigger": false,
      "taf_trigger": false,
      "metar": "METAR LPFR 111000Z 25012KT 1500 -DZ BR OVC002 15/15 Q1021",
      "taf": "TAF LPFR 110500Z 1106/1206 25012KT 8000 SCT004 BKN008"
    },
    {
      "icao": "LPMA",
      "alert": "OK",
      "vis_m": 9999,
      "fzfg": false,
      "metar_trigger": false,
      "taf_trigger": false,
      "metar": "METAR LPMA 111000Z 13003KT 070V170 9999 SCT015 SCT030 19/12 Q1026",
      "taf": "TAF LPMA 110500Z 1106/1206 VRB05KT 9999 SCT015"
    },
    {
      "icao": "LPPR",
      "alert": "OK",
      "vis_m": 1200,
      "fzfg": false,
      "metar_trigger": false,
      "taf_trigger": false,
      "metar": "METAR LPPR 111000Z 21013KT 1200 R17/1700U -DZ BCFG BKN002 BKN005 15/14 Q1011",
      "taf": "TAF LPPR 110500Z 1106/1206 19010KT 6000 SCT004 BKN008"
    },
    {
      "icao": "LPPS",
      "alert": "OK",
      "vis_m": 9999,
      "fzfg": false,
      "metar_trigger": false,
      "taf_trigger": false,
      "metar": "METAR LPPS 111000Z 25005KT 9999 FEW015 BKN030 18/12 Q1026",
      "taf": "TAF LPPS 110500Z 1106/1212 27007KT 9999 FEW015 SCT030"
    },
    {
      "icao": "LPPT",
      "alert": "OK",
      "vis_m": 1500,
      "fzfg": false,
      "metar_trigger": false,
      "taf_trigger": false,
      "metar": "METAR LPPT 111000Z 23017KT 1500 -DZ BR BKN003 15/15 Q1018",
      "taf": ""
    },
    {
      "icao": "LQBK",
      "alert": "OK",
      "vis_m": 7000,
      "fzfg": false,
      "metar_trigger": false,
      "taf_trigger": false,
      "metar": "METAR LQBK 111000Z VRB03KT 7000 FEW005 SCT047 06/05 Q0997 NOSIG",
      "taf": ""
    },
    {
      "icao": "LQSA",
      "alert": "OK",
      "vis_m": 9999,
      "fzfg": false,
      "metar_trigger": false,
      "taf_trigger": false,
      "metar": "METAR LQSA 111000Z VRB02KT 9999 -RA FEW030 BKN050 09/04 Q0999 NOSIG",
      "taf": "TAF LQSA 110500Z 1106/1206 11006KT 9999 SCT050 TX13/1113Z TN02/1106Z"
    },
    {
      "icao": "LQTZ",
      "alert": "OK",
      "vis_m": 9999,
      "fzfg": false,
      "metar_trigger": false,
      "taf_trigger": false,
      "metar": "METAR LQTZ 111000Z 12005KT CAVOK 13/05 Q0998",
      "taf": "TAF LQTZ 110500Z 1106/1206 VRB03KT 7000 SCT045 TX12/1113Z TN02/1106Z"
    },
    {
      "icao": "LRBC",
      "alert": "OK",
      "vis_m": 9999,
      "fzfg": false,
      "metar_trigger": false,
      "taf_trigger": false,
      "metar": "METAR LRBC 111000Z 16013KT 9999 OVC005 00/M01 Q1003",
      "taf": "TAF LRBC 110800Z 1109/1118 17010KT 9999 OVC005"
    },
    {
      "icao": "LRBS",
      "alert": "OK",
      "vis_m": 8000,
      "fzfg": false,
      "metar_trigger": false,
      "taf_trigger": false,
      "metar": "METAR LRBS 111000Z 25005KT 210V320 8000 FEW007 OVC037 02/00 Q1006 NOSIG",
      "taf": "TAF LRBS 110500Z 1106/1206 VRB04KT 3000 BR BKN005 OVC020"
    },
    {
      "icao": "LRBV",
      "alert": "OK",
      "vis_m": 9999,
      "fzfg": false,
      "metar_trigger": false,
      "taf_trigger": false,
      "metar": "METAR LRBV 111000Z 06004KT 010V110 9999 FEW075 04/M01 Q1001",
      "taf": "TAF LRBV 110800Z 1109/1118 11007KT 9999 SCT070"
    },
    {
      "icao": "LRCL",
      "alert": "OK",
      "vis_m": 9999,
      "fzfg": false,
      "metar_trigger": false,
      "taf_trigger": false,
      "metar": "METAR LRCL 111000Z 11009KT CAVOK 05/M00 Q1000",
      "taf": "TAF LRCL 110800Z 1109/1118 10008KT 9999 BKN060"
    },
    {
      "icao": "LRCV",
      "alert": "OK",
      "vis_m": 9999,
      "fzfg": false,
      "metar_trigger": false,
      "taf_trigger": false,
      "metar": "METAR LRCV 111000Z VRB01KT 9999 SCT008 BKN035 01/M02 Q1006",
      "taf": "TAF LRCV 110800Z 1109/1118 VRB04KT 9999 BKN035"
    },
    {
      "icao": "LRIA",
      "alert": "OK",
      "vis_m": 9999,
      "fzfg": false,
      "metar_trigger": false,
      "taf_trigger": false,
      "metar": "METAR LRIA 111000Z 13008KT 100V160 9999 FEW017 04/M01 Q1003",
      "taf": "TAF LRIA 110800Z 1109/1118 16010KT 9999 BKN015"
    },
    {
      "icao": "LROP",
      "alert": "OK",
      "vis_m": 7000,
      "fzfg": false,
      "metar_trigger": false,
      "taf_trigger": false,
      "metar": "METAR LROP 111000Z 23006KT 7000 BKN007 OVC035 03/01 Q1006 BECMG SCT010 BKN040",
      "taf": "TAF LROP 110500Z 1106/1206 VRB04KT 3000 BR BKN005 OVC020"
    },
    {
      "icao": "LRSB",
      "alert": "OK",
      "vis_m": 9999,
      "fzfg": false,
      "metar_trigger": false,
      "taf_trigger": false,
      "metar": "METAR LRSB 111000Z 36005KT 9999 FEW060 07/M01 Q1000",
      "taf": "TAF LRSB 110500Z 1106/1206 VRB04KT 9999 SCT060"
    },
    {
      "icao": "LRSM",
      "alert": "OK",
      "vis_m": 9999,
      "fzfg": false,
      "metar_trigger": false,
      "taf_trigger": false,
      "metar": "METAR LRSM 111000Z 13010KT 9999 BKN027 05/01 Q1000",
      "taf": "TAF LRSM 110800Z 1109/1118 14008KT 9999 BKN030"
    },
    {
      "icao": "LRSV",
      "alert": "OK",
      "vis_m": 9999,
      "fzfg": false,
      "metar_trigger": false,
      "taf_trigger": false,
      "metar": "METAR LRSV 111000Z 19007KT CAVOK 01/M01 Q0999",
      "taf": "TAF LRSV 110800Z 1109/1118 20008KT CAVOK"
    },
    {
      "icao": "LRTM",
      "alert": "OK",
      "vis_m": 9999,
      "fzfg": false,
      "metar_trigger": false,
      "taf_trigger": false,
      "metar": "METAR LRTM 111000Z 15004KT 110V190 9999 FEW048 05/M01 Q1002",
      "taf": "TAF LRTM 110800Z 1109/1118 VRB04KT 9999 BKN035"
    },
    {
      "icao": "LRTR",
      "alert": "OK",
      "vis_m": 9999,
      "fzfg": false,
      "metar_trigger": false,
      "taf_trigger": false,
      "metar": "METAR LRTR 111000Z 16015KT CAVOK 08/03 Q1000 NOSIG",
      "taf": "TAF LRTR 110500Z 1106/1206 10007KT 9999 BKN045"
    },
    {
      "icao": "LTAC",
      "alert": "OK",
      "vis_m": 9999,
      "fzfg": false,
      "metar_trigger": false,
      "taf_trigger": false,
      "metar": "METAR LTAC 111020Z 19003KT 160V230 9999 SCT019 BKN025 BKN100 05/02 Q1009 NOSIG RMK RWY21C 17003KT 150V210 RWY03L 21003KT 140V240 RWY21R 18003KT 130V240 RWY03R 17003KT RWY21L 19003KT",
      "taf": "TAF LTAC 110440Z 1106/1206 VRB02KT 9999 SCT025 BKN080"
    },
    {
      "icao": "LTFM",
      "alert": "OK",
      "vis_m": 9999,
      "fzfg": false,
      "metar_trigger": false,
      "taf_trigger": false,
      "metar": "METAR LTFM 111020Z 21009KT 9999 BKN025 08/04 Q1009 NOSIG RMK RWY17L 20008KT RWY34L 20008KT RWY16R 21008KT RWY36 22006KT RWY18 21009KT",
      "taf": "TAF LTFM 110440Z 1106/1212 VRB02KT 9999 BKN022"
    },
    {
      "icao": "LUKK",
      "alert": "OK",
      "vis_m": 9999,
      "fzfg": false,
      "metar_trigger": false,
      "taf_trigger": false,
      "metar": "METAR LUKK 111000Z 17011KT 9999 SCT021 BKN035 02/M00 Q1005 NOSIG",
      "taf": "TAF LUKK 110518Z 1106/1206 16012KT 9999 BKN020"
    },
    {
      "icao": "LWOH",
      "alert": "OK",
      "vis_m": 9999,
      "fzfg": false,
      "metar_trigger": false,
      "taf_trigger": false,
      "metar": "METAR LWOH 111020Z 18008KT 150V210 9999 FEW014 BKN045 10/06 Q1005",
      "taf": "TAF LWOH 110830Z 1109/1209 16010KT 9999 FEW015 BKN040"
    },
    {
      "icao": "LWSK",
      "alert": "OK",
      "vis_m": 9999,
      "fzfg": false,
      "metar_trigger": false,
      "taf_trigger": false,
      "metar": "METAR LWSK 111020Z 31003KT 240V360 9999 SCT017 BKN026 09/05 Q1006 NOSIG",
      "taf": "TAF LWSK 110830Z 1109/1209 14008KT 9999 SCT010 BKN020"
    },
    {
      "icao": "LYBE",
      "alert": "OK",
      "vis_m": 9999,
      "fzfg": false,
      "metar_trigger": false,
      "taf_trigger": false,
      "metar": "METAR LYBE 111000Z 13010KT CAVOK 11/04 Q1000 NOSIG",
      "taf": "TAF LYBE 110500Z 1106/1206 13007KT CAVOK TX14/1113Z TN01/1106Z"
    },
    {
      "icao": "LYNI",
      "alert": "OK",
      "vis_m": 9999,
      "fzfg": false,
      "metar_trigger": false,
      "taf_trigger": false,
      "metar": "METAR LYNI 111000Z 17006KT 130V210 9999 SCT040 09/05 Q1004 NOSIG",
      "taf": "TAF LYNI 110500Z 1106/1206 10008KT 9999 SCT040 BKN080 TX12/1113Z TN03/1106Z"
    },
    {
      "icao": "LYPG",
      "alert": "OK",
      "vis_m": 9999,
      "fzfg": false,
      "metar_trigger": false,
      "taf_trigger": false,
      "metar": "METAR LYPG 111000Z VRB02KT 9999 FEW010 SCT050 OVC070 09/08 Q1004 NOSIG",
      "taf": "TAF LYPG 110500Z 1106/1206 16005KT 9999 FEW010 BKN040 BKN070 TX11/1113Z TN08/1106Z"
    },
    {
      "icao": "LZIB",
      "alert": "OK",
      "vis_m": 4500,
      "fzfg": false,
      "metar_trigger": false,
      "taf_trigger": false,
      "metar": "METAR LZIB 111000Z 03006KT 4500 -DZ BR BKN004 OVC006 03/02 Q0994 NOSIG",
      "taf": ""
    },
    {
      "icao": "LZKZ",
      "alert": "OK",
      "vis_m": 6000,
      "fzfg": false,
      "metar_trigger": false,
      "taf_trigger": false,
      "metar": "METAR LZKZ 111000Z 21007KT 6000 -SN OVC008 01/00 Q0998 TEMPO 1800 SN",
      "taf": "TAF LZKZ 110515Z 1106/1206 21011KT 9999 SCT004 OVC015"
    },
    {
      "icao": "LZTT",
      "alert": "OK",
      "vis_m": 9999,
      "fzfg": false,
      "metar_trigger": false,
      "taf_trigger": false,
      "metar": "METAR LZTT 111000Z 18006KT 160V220 9999 BKN030 02/M01 Q0994 NOSIG",
      "taf": "TAF LZTT 110515Z 1106/1206 11007KT 9999 FEW005 BKN020"
    },
    {
      "icao": "OEJN",
      "alert": "OK",
      "vis_m": 9999,
      "fzfg": false,
      "metar_trigger": false,
      "taf_trigger": false,
      "metar": "METAR OEJN 111000Z 27009KT CAVOK 31/15 Q1012 NOSIG",
      "taf": "TAF OEJN 110500Z 1106/1212 27010KT 7000 NSC"
    },
    {
      "icao": "OEMA",
      "alert": "OK",
      "vis_m": 9999,
      "fzfg": false,
      "metar_trigger": false,
      "taf_trigger": false,
      "metar": "METAR OEMA 111000Z 20008KT CAVOK 29/09 Q1016 NOSIG",
      "taf": "TAF OEMA 110500Z 1106/1212 26010KT CAVOK"
    },
    {
      "icao": "OJAI",
      "alert": "OK",
      "vis_m": 4000,
      "fzfg": false,
      "metar_trigger": false,
      "taf_trigger": false,
      "metar": "METAR OJAI 111000Z 26016KT 4000 BLDU FEW035 SCT200 16/05 Q1016 NOSIG",
      "taf": "TAF OJAI 110441Z 1106/1212 27010KT 5000 HZ FEW035"
    },
    {
      "icao": "OMAA",
      "alert": "OK",
      "vis_m": null,
      "fzfg": false,
      "metar_trigger": false,
      "taf_trigger": false,
      "metar": "",
      "taf": "TAF OMAA 110500Z 1106/1212 VRB02KT 1500 BR NSC"
    },
    {
      "icao": "OMDB",
      "alert": "OK",
      "vis_m": null,
      "fzfg": false,
      "metar_trigger": false,
      "taf_trigger": false,
      "metar": "",
      "taf": "TAF OMDB 110500Z 1106/1212 08005KT 4000 HZ NSC"
    },
    {
      "icao": "UAAA",
      "alert": "OK",
      "vis_m": 9999,
      "fzfg": false,
      "metar_trigger": false,
      "taf_trigger": false,
      "metar": "METAR UAAA 111000Z 28003MPS 9999 -SHRA BKN021CB OVC100 02/M00 Q1020 TEMPO 3000 SHRASN BR SCT005 BKN011CB",
      "taf": "TAF UAAA 110509Z 1106/1206 26003G08MPS 3100 -SHRA BR BKN050CB OVC100 TX10/1106Z TNM03/1203Z"
    },
    {
      "icao": "UBBB",
      "alert": "OK",
      "vis_m": 9999,
      "fzfg": false,
      "metar_trigger": false,
      "taf_trigger": false,
      "metar": "METAR UBBB 111000Z 12008KT 9999 BKN008 OVC025 03/01 Q1017 NOSIG",
      "taf": "TAF UBBB 110459Z 1106/1206 13008KT 9999 SCT015 OVC030 TX04/1110Z TN02/1202Z"
    },
    {
      "icao": "UDSG",
      "alert": "OK",
      "vis_m": 9999,
      "fzfg": false,
      "metar_trigger": false,
      "taf_trigger": false,
      "metar": "METAR UDSG 111000Z 10001KT 9999 -SN OVC013 M00/M02 Q1009 NOSIG",
      "taf": "TAF UDSG 110458Z 1106/1206 VRB06KT 3000 BR OVC020"
    },
    {
      "icao": "UDYZ",
      "alert": "OK",
      "vis_m": 9000,
      "fzfg": false,
      "metar_trigger": false,
      "taf_trigger": false,
      "metar": "METAR UDYZ 111000Z 25002KT 9000 BKN023 02/01 Q1011 NOSIG",
      "taf": "TAF UDYZ 110500Z 1106/1206 16006KT 2300 BR BKN020"
    },
    {
      "icao": "UGKO",
      "alert": "OK",
      "vis_m": 9999,
      "fzfg": false,
      "metar_trigger": false,
      "taf_trigger": false,
      "metar": "METAR UGKO 111000Z 09027G39KT 9999 BKN077 07/M01 Q1009 NOSIG",
      "taf": "TAF UGKO 110500Z 1106/1206 08017KT 9999 BKN050 TX08/1111Z TN04/1202Z"
    }
  ]
}