{
  "ts_utc": "2026-03-30T19:18:54Z",
  "threshold_m": 150,
  "source": "stations_override.txt (ICAO list) + aviationweather.gov (METAR/TAF raw)",
  "station_count": 159,
  "stations": [
    {
      "icao": "BIKF",
      "alert": "OK",
      "vis_m": 9999,
      "fzfg": false,
      "metar_trigger": false,
      "taf_trigger": false,
      "metar": "METAR BIKF 301900Z 17008KT 9999 -RA FEW022 OVC042 01/M01 Q1004",
      "taf": "TAF BIKF 301623Z 3018/3118 24012KT 9999 -SHRASN SCT015 BKN025 TX03/3018Z TN00/3100Z"
    },
    {
      "icao": "BKPR",
      "alert": "OK",
      "vis_m": 9999,
      "fzfg": false,
      "metar_trigger": false,
      "taf_trigger": false,
      "metar": "METAR BKPR 301900Z 34010KT 9999 FEW014 BKN050 05/03 Q1009 NOSIG",
      "taf": "TAF BKPR 301730Z 3018/3118 36010KT 9999 SCT020 BKN040"
    },
    {
      "icao": "EBCI",
      "alert": "OK",
      "vis_m": 9999,
      "fzfg": false,
      "metar_trigger": false,
      "taf_trigger": false,
      "metar": "METAR EBCI 301850Z 33006KT 9999 FEW032 06/01 Q1023 NOSIG",
      "taf": "TAF EBCI 301720Z 3018/3124 33010KT 9999 FEW035TCU"
    },
    {
      "icao": "EDDB",
      "alert": "OK",
      "vis_m": 9999,
      "fzfg": false,
      "metar_trigger": false,
      "taf_trigger": false,
      "metar": "METAR EDDB 301850Z AUTO 30007KT 9999 FEW044 04/02 Q1014 NOSIG",
      "taf": "TAF EDDB 301700Z 3018/3118 28007KT 9999 SCT030"
    },
    {
      "icao": "EDDH",
      "alert": "OK",
      "vis_m": 9999,
      "fzfg": false,
      "metar_trigger": false,
      "taf_trigger": false,
      "metar": "METAR EDDH 301850Z AUTO 29010KT 9999 FEW021 SCT045 06/03 Q1016 NOSIG",
      "taf": "TAF EDDH 301700Z 3018/3124 30014KT 9999 SCT030"
    },
    {
      "icao": "EDDK",
      "alert": "OK",
      "vis_m": 9999,
      "fzfg": false,
      "metar_trigger": false,
      "taf_trigger": false,
      "metar": "METAR EDDK 301850Z AUTO VRB01KT 9999 SHRA SCT023 BKN034 BKN043 FEW///CB 05/04 Q1021 BECMG NSW",
      "taf": "TAF EDDK 301700Z 3018/3124 31008KT 9999 BKN030"
    },
    {
      "icao": "EDDN",
      "alert": "OK",
      "vis_m": 9999,
      "fzfg": false,
      "metar_trigger": false,
      "taf_trigger": false,
      "metar": "METAR EDDN 301850Z AUTO 01003KT 9999 FEW028 04/M00 Q1017 NOSIG",
      "taf": "TAF EDDN 301700Z 3018/3118 VRB03KT 9999 SCT020"
    },
    {
      "icao": "EDDS",
      "alert": "OK",
      "vis_m": 9999,
      "fzfg": false,
      "metar_trigger": false,
      "taf_trigger": false,
      "metar": "METAR EDDS 301850Z AUTO 02009KT 330V060 9999 SHRA SCT024 BKN038 FEW///CB 04/01 Q1018 TEMPO NSW",
      "taf": "TAF EDDS 301700Z 3018/3118 29008KT 9999 SCT035"
    },
    {
      "icao": "EDFH",
      "alert": "OK",
      "vis_m": 9999,
      "fzfg": false,
      "metar_trigger": false,
      "taf_trigger": false,
      "metar": "METAR EDFH 301850Z 31009KT 290V350 9999 BKN021 03/M00 Q1019",
      "taf": "TAF EDFH 301700Z 3018/3118 32008KT 9999 FEW010 SCT025"
    },
    {
      "icao": "EDJA",
      "alert": "OK",
      "vis_m": 9999,
      "fzfg": false,
      "metar_trigger": false,
      "taf_trigger": false,
      "metar": "METAR EDJA 301850Z 21007KT CAVOK M00/M01 Q1017",
      "taf": "TAF EDJA 301700Z 3018/3103 23006KT 9999 SCT020"
    },
    {
      "icao": "EDLW",
      "alert": "OK",
      "vis_m": 9999,
      "fzfg": false,
      "metar_trigger": false,
      "taf_trigger": false,
      "metar": "METAR EDLW 301850Z 24002KT 9999 FEW030 SCT036 04/01 Q1020",
      "taf": "TAF EDLW 301700Z 3018/3118 29006KT 9999 BKN030"
    },
    {
      "icao": "EDNY",
      "alert": "OK",
      "vis_m": 9999,
      "fzfg": false,
      "metar_trigger": false,
      "taf_trigger": false,
      "metar": "METAR EDNY 301850Z 16002KT 9999 FEW015 03/02 Q1018",
      "taf": "TAF EDNY 301700Z 3018/3103 25007KT 9999 BKN020"
    },
    {
      "icao": "EDSB",
      "alert": "OK",
      "vis_m": 9999,
      "fzfg": false,
      "metar_trigger": false,
      "taf_trigger": false,
      "metar": "METAR EDSB 301850Z 18004KT CAVOK 04/02 Q1019",
      "taf": "TAF EDSB 301700Z 3018/3118 22004KT 9999 SCT020 BKN030"
    },
    {
      "icao": "EETN",
      "alert": "OK",
      "vis_m": 6000,
      "fzfg": false,
      "metar_trigger": false,
      "taf_trigger": false,
      "metar": "METAR EETN 301850Z 09005KT 6000 BCFG FEW001 SCT003 M00/M01 Q1012 TEMPO 1000 BR",
      "taf": "TAF EETN 301730Z 3018/3118 VRB02KT 9999 SCT005"
    },
    {
      "icao": "EFTU",
      "alert": "OK",
      "vis_m": 9999,
      "fzfg": false,
      "metar_trigger": false,
      "taf_trigger": false,
      "metar": "METAR EFTU 301850Z AUTO 15007KT 9999 OVC009 01/M00 Q1012",
      "taf": "TAF EFTU 301735Z 3018/3118 15008KT 9999 OVC009"
    },
    {
      "icao": "EGBB",
      "alert": "OK",
      "vis_m": 9999,
      "fzfg": false,
      "metar_trigger": false,
      "taf_trigger": false,
      "metar": "METAR EGBB 301850Z 33007KT 9999 FEW040 09/02 Q1027",
      "taf": "TAF EGBB 301655Z 3018/3118 29012KT 9999 SCT040"
    },
    {
      "icao": "EGGP",
      "alert": "OK",
      "vis_m": 9999,
      "fzfg": false,
      "metar_trigger": false,
      "taf_trigger": false,
      "metar": "METAR EGGP 301850Z 30011KT 9999 BKN044 09/04 Q1028",
      "taf": "TAF EGGP 301700Z 3018/3118 29012KT 9999 FEW025 SCT035"
    },
    {
      "icao": "EGGW",
      "alert": "OK",
      "vis_m": 9999,
      "fzfg": false,
      "metar_trigger": false,
      "taf_trigger": false,
      "metar": "METAR EGGW 301850Z AUTO 32015KT 9999 NCD 09/01 Q1026",
      "taf": "TAF EGGW 301657Z 3018/3118 30012KT 9999 SCT040"
    },
    {
      "icao": "EGKK",
      "alert": "OK",
      "vis_m": 9999,
      "fzfg": false,
      "metar_trigger": false,
      "taf_trigger": false,
      "metar": "METAR EGKK 301850Z 34012KT CAVOK 11/01 Q1027",
      "taf": "TAF EGKK 301702Z 3018/3124 30016KT 9999 SCT030"
    },
    {
      "icao": "EGNM",
      "alert": "OK",
      "vis_m": 9999,
      "fzfg": false,
      "metar_trigger": false,
      "taf_trigger": false,
      "metar": "METAR EGNM 301850Z 28010KT 9999 FEW043 07/02 Q1025",
      "taf": "TAF EGNM 301700Z 3018/3118 29017G27KT 9999 SCT025"
    },
    {
      "icao": "EGPD",
      "alert": "OK",
      "vis_m": 9999,
      "fzfg": false,
      "metar_trigger": false,
      "taf_trigger": false,
      "metar": "METAR EGPD 301850Z COR AUTO 28009KT 250V320 9999 BKN042 OVC048 08/M00 Q1020 NOSIG",
      "taf": "TAF EGPD 301654Z 3018/3118 28012KT 9999 FEW040"
    },
    {
      "icao": "EGPF",
      "alert": "OK",
      "vis_m": 9999,
      "fzfg": false,
      "metar_trigger": false,
      "taf_trigger": false,
      "metar": "METAR EGPF 301850Z AUTO 25010KT 9999 OVC032 08/04 Q1025",
      "taf": "TAF EGPF 301700Z 3018/3118 28012KT 9999 SCT035"
    },
    {
      "icao": "EHBK",
      "alert": "OK",
      "vis_m": 9999,
      "fzfg": false,
      "metar_trigger": false,
      "taf_trigger": false,
      "metar": "METAR EHBK 301855Z AUTO 30004KT 270V350 9999 FEW015CB 06/02 Q1022 BECMG CAVOK",
      "taf": "TAF EHBK 301704Z 3018/3124 32010KT 9999 SCT030"
    },
    {
      "icao": "EHEH",
      "alert": "OK",
      "vis_m": 9999,
      "fzfg": false,
      "metar_trigger": false,
      "taf_trigger": false,
      "metar": "METAR EHEH 301855Z AUTO 31004KT 280V360 9999 NCD 06/03 Q1022 BLU NOSIG RMK TREND REMOTE BY EHWX",
      "taf": "TAF EHEH 301721Z 3018/3124 31008KT CAVOK"
    },
    {
      "icao": "EKBI",
      "alert": "OK",
      "vis_m": 9999,
      "fzfg": false,
      "metar_trigger": false,
      "taf_trigger": false,
      "metar": "METAR EKBI 301850Z AUTO 28012KT 9999 BKN014/// 06/03 Q1014",
      "taf": ""
    },
    {
      "icao": "EKCH",
      "alert": "OK",
      "vis_m": 9999,
      "fzfg": false,
      "metar_trigger": false,
      "taf_trigger": false,
      "metar": "METAR EKCH 301850Z 27010KT 9999 FEW023CB SCT048 05/02 Q1012 NOSIG",
      "taf": "TAF EKCH 301727Z 3018/3118 28012KT 9999 SCT020"
    },
    {
      "icao": "ENAL",
      "alert": "OK",
      "vis_m": 9999,
      "fzfg": false,
      "metar_trigger": false,
      "taf_trigger": false,
      "metar": "METAR ENAL 301850Z 22013KT 9999 FEW017 SCT022 BKN030 05/03 Q1000",
      "taf": "TAF ENAL 301700Z 3018/3103 20012KT 9999 -SHRA FEW005 SCT015 BKN025"
    },
    {
      "icao": "ENBR",
      "alert": "OK",
      "vis_m": 9999,
      "fzfg": false,
      "metar_trigger": false,
      "taf_trigger": false,
      "metar": "METAR ENBR 301850Z 30010KT 9999 VCSH FEW016CB SCT028 BKN039 05/03 Q1005 TEMPO 4000 SHRA BKN012 SCT025CB RMK WIND 1200FT 30023KT",
      "taf": "TAF ENBR 301700Z 3018/3118 32012KT 9999 -SHRA SCT015 BKN030"
    },
    {
      "icao": "ENGM",
      "alert": "OK",
      "vis_m": 9999,
      "fzfg": false,
      "metar_trigger": false,
      "taf_trigger": false,
      "metar": "METAR ENGM 301850Z 19005KT CAVOK 03/01 Q1002 NOSIG",
      "taf": "TAF ENGM 301700Z 3018/3118 16005KT 9999 FEW030"
    },
    {
      "icao": "ENHD",
      "alert": "OK",
      "vis_m": 9999,
      "fzfg": false,
      "metar_trigger": false,
      "taf_trigger": false,
      "metar": "METAR ENHD 301850Z 28016KT 9999 FEW020 SCT025 BKN035 06/05 Q1007",
      "taf": "TAF ENHD 301400Z 3015/3022 26012KT 9999 -SHRA FEW015TCU SCT025"
    },
    {
      "icao": "ENTC",
      "alert": "OK",
      "vis_m": 9999,
      "fzfg": false,
      "metar_trigger": false,
      "taf_trigger": false,
      "metar": "METAR ENTC 301850Z 19013KT 9999 FEW068 03/M03 Q1001 NOSIG RMK WIND 2600FT 19019KT",
      "taf": "TAF ENTC 301700Z 3018/3118 18008KT CAVOK"
    },
    {
      "icao": "ENTO",
      "alert": "OK",
      "vis_m": 9999,
      "fzfg": false,
      "metar_trigger": false,
      "taf_trigger": false,
      "metar": "METAR ENTO 301850Z 25006KT CAVOK 07/M00 Q1003 NOSIG",
      "taf": "TAF ENTO 301700Z 3018/3118 20008KT 9999 FEW030"
    },
    {
      "icao": "ENVA",
      "alert": "OK",
      "vis_m": 9999,
      "fzfg": false,
      "metar_trigger": false,
      "taf_trigger": false,
      "metar": "METAR ENVA 301850Z 11007KT CAVOK 06/M03 Q1000 NOSIG RMK WIND 670FT 16013KT",
      "taf": "TAF ENVA 301700Z 3018/3118 16008KT CAVOK"
    },
    {
      "icao": "ENZV",
      "alert": "OK",
      "vis_m": 9999,
      "fzfg": false,
      "metar_trigger": false,
      "taf_trigger": false,
      "metar": "METAR ENZV 301850Z 29014KT 9999 -SHRA FEW005 SCT016 BKN025 06/03 Q1008 TEMPO 30018G28KT 4000 SHRA BKN012 SCT025CB",
      "taf": "TAF ENZV 301700Z 3018/3118 29012KT 9999 BKN025"
    },
    {
      "icao": "EPGD",
      "alert": "OK",
      "vis_m": 9999,
      "fzfg": false,
      "metar_trigger": false,
      "taf_trigger": false,
      "metar": "METAR EPGD 301900Z 27007KT CAVOK 05/01 Q1012",
      "taf": "TAF EPGD 301730Z 3018/3118 25010KT 9999 SCT040"
    },
    {
      "icao": "EPKK",
      "alert": "OK",
      "vis_m": 4600,
      "fzfg": false,
      "metar_trigger": false,
      "taf_trigger": false,
      "metar": "METAR EPKK 301900Z 22003KT 4600 -RA BR FEW016 BKN025 04/03 Q1011",
      "taf": "TAF EPKK 301730Z 3018/3118 22005KT 9999 FEW012 BKN028"
    },
    {
      "icao": "EPKT",
      "alert": "OK",
      "vis_m": 9999,
      "fzfg": false,
      "metar_trigger": false,
      "taf_trigger": false,
      "metar": "METAR EPKT 301900Z 16006KT 120V180 9999 FEW039 04/01 Q1011",
      "taf": "TAF EPKT 301730Z 3018/3118 13006KT CAVOK"
    },
    {
      "icao": "EPLB",
      "alert": "OK",
      "vis_m": 9999,
      "fzfg": false,
      "metar_trigger": false,
      "taf_trigger": false,
      "metar": "METAR EPLB 301900Z 31009KT CAVOK 07/01 Q1009",
      "taf": "TAF EPLB 301730Z 3018/3118 32008KT CAVOK"
    },
    {
      "icao": "EPMO",
      "alert": "OK",
      "vis_m": 9999,
      "fzfg": false,
      "metar_trigger": false,
      "taf_trigger": false,
      "metar": "METAR EPMO 301900Z VRB02KT CAVOK 08/M02 Q1011",
      "taf": "TAF EPMO 301730Z 3018/3118 VRB03KT CAVOK"
    },
    {
      "icao": "EPPO",
      "alert": "OK",
      "vis_m": 9999,
      "fzfg": false,
      "metar_trigger": false,
      "taf_trigger": false,
      "metar": "METAR EPPO 301900Z 33002KT 9999 BKN033 06/02 Q1013",
      "taf": "TAF EPPO 301730Z 3018/3118 28005KT 9999 OVC040"
    },
    {
      "icao": "EPRA",
      "alert": "OK",
      "vis_m": 9999,
      "fzfg": false,
      "metar_trigger": false,
      "taf_trigger": false,
      "metar": "METAR EPRA 301900Z 28002KT 9999 BKN045 07/03 Q1011",
      "taf": "TAF EPRA 301730Z 3018/3103 24004KT 9999 BKN040"
    },
    {
      "icao": "EPRZ",
      "alert": "OK",
      "vis_m": 9999,
      "fzfg": false,
      "metar_trigger": false,
      "taf_trigger": false,
      "metar": "METAR EPRZ 301900Z 28009KT CAVOK 06/02 Q1010",
      "taf": "TAF EPRZ 301730Z 3018/3118 29009KT CAVOK"
    },
    {
      "icao": "EPSC",
      "alert": "OK",
      "vis_m": 8000,
      "fzfg": false,
      "metar_trigger": false,
      "taf_trigger": false,
      "metar": "METAR EPSC 301900Z VRB02KT 8000 BKN027 05/03 Q1013",
      "taf": "TAF EPSC 301730Z 3018/3118 28005KT 9999 SCT035"
    },
    {
      "icao": "EPSY",
      "alert": "OK",
      "vis_m": 9999,
      "fzfg": false,
      "metar_trigger": false,
      "taf_trigger": false,
      "metar": "METAR EPSY 301900Z 00000KT CAVOK 05/M01 Q1011",
      "taf": "TAF EPSY 301730Z 3018/3103 29005KT CAVOK"
    },
    {
      "icao": "EPWA",
      "alert": "OK",
      "vis_m": 9999,
      "fzfg": false,
      "metar_trigger": false,
      "taf_trigger": false,
      "metar": "METAR EPWA 301900Z 15003KT CAVOK 07/04 Q1011 NOSIG",
      "taf": "TAF EPWA 301730Z 3018/3118 VRB03KT CAVOK"
    },
    {
      "icao": "EPWR",
      "alert": "OK",
      "vis_m": 9999,
      "fzfg": false,
      "metar_trigger": false,
      "taf_trigger": false,
      "metar": "METAR EPWR 301900Z 30005KT 9999 BKN037 06/02 Q1012",
      "taf": "TAF EPWR 301730Z 3018/3118 29005KT 9999 SCT040"
    },
    {
      "icao": "ESGG",
      "alert": "OK",
      "vis_m": 9999,
      "fzfg": false,
      "metar_trigger": false,
      "taf_trigger": false,
      "metar": "METAR ESGG 301850Z 21007KT 9999 SCT036 04/02 Q1007",
      "taf": "TAF ESGG 301730Z 3018/3118 23008KT 9999 SCT025"
    },
    {
      "icao": "ESKN",
      "alert": "OK",
      "vis_m": 9999,
      "fzfg": false,
      "metar_trigger": false,
      "taf_trigger": false,
      "metar": "METAR ESKN 301850Z 14007KT CAVOK 04/03 Q1007",
      "taf": "TAF ESKN 301730Z 3018/3118 16008KT 9999 BKN015"
    },
    {
      "icao": "ESMS",
      "alert": "OK",
      "vis_m": 9999,
      "fzfg": false,
      "metar_trigger": false,
      "taf_trigger": false,
      "metar": "METAR ESMS 301850Z 29005KT CAVOK 04/02 Q1011",
      "taf": "TAF ESMS 301727Z 3018/3118 29010KT 9999 BKN015"
    },
    {
      "icao": "ESSA",
      "alert": "OK",
      "vis_m": 9999,
      "fzfg": false,
      "metar_trigger": false,
      "taf_trigger": false,
      "metar": "METAR ESSA 301850Z 16012KT 9999 BKN016 BKN021 04/01 Q1007 BECMG BKN012",
      "taf": "TAF ESSA 301730Z 3018/3118 18014KT 9999 BKN015"
    },
    {
      "icao": "EYKA",
      "alert": "OK",
      "vis_m": 9999,
      "fzfg": false,
      "metar_trigger": false,
      "taf_trigger": false,
      "metar": "METAR EYKA 301850Z VRB02KT CAVOK 07/02 Q1010",
      "taf": "TAF EYKA 301700Z 3018/3118 VRB04KT 9000 SCT040"
    },
    {
      "icao": "EYPA",
      "alert": "OK",
      "vis_m": 9999,
      "fzfg": false,
      "metar_trigger": false,
      "taf_trigger": false,
      "metar": "METAR EYPA 301850Z 09002KT CAVOK 02/00 Q1011",
      "taf": "TAF EYPA 301700Z 3018/3118 VRB04KT 8000 NSC"
    },
    {
      "icao": "EYVI",
      "alert": "OK",
      "vis_m": 9999,
      "fzfg": false,
      "metar_trigger": false,
      "taf_trigger": false,
      "metar": "METAR EYVI 301850Z 31004KT CAVOK 10/04 Q1009 NOSIG",
      "taf": "TAF EYVI 301700Z 3018/3118 VRB04KT 9000 SCT045"
    },
    {
      "icao": "GCFV",
      "alert": "OK",
      "vis_m": 9000,
      "fzfg": false,
      "metar_trigger": false,
      "taf_trigger": false,
      "metar": "METAR GCFV 301900Z 02022KT 9000 NSC 18/10 Q1016",
      "taf": ""
    },
    {
      "icao": "GCLP",
      "alert": "OK",
      "vis_m": 9999,
      "fzfg": false,
      "metar_trigger": false,
      "taf_trigger": false,
      "metar": "METAR GCLP 301900Z 02023KT 9999 SCT035 18/11 Q1017 NOSIG",
      "taf": "TAF GCLP 301400Z 3015/3115 02025KT 9999 FEW025 TX24/3114Z TN17/3106Z"
    },
    {
      "icao": "GCTS",
      "alert": "OK",
      "vis_m": 9999,
      "fzfg": false,
      "metar_trigger": false,
      "taf_trigger": false,
      "metar": "METAR GCTS 301900Z 06020KT CAVOK 19/10 Q1016 NOSIG",
      "taf": "TAF GCTS 301400Z 3015/3115 07025KT CAVOK TX26/3114Z TN16/3106Z"
    },
    {
      "icao": "GMAD",
      "alert": "OK",
      "vis_m": 6000,
      "fzfg": false,
      "metar_trigger": false,
      "taf_trigger": false,
      "metar": "METAR GMAD 301900Z 23008KT 6000 NSC 20/12 Q1014 NOSIG",
      "taf": "TAF GMAD 301700Z 3018/3124 20006KT 6000 NSC"
    },
    {
      "icao": "GMMN",
      "alert": "OK",
      "vis_m": 9999,
      "fzfg": false,
      "metar_trigger": false,
      "taf_trigger": false,
      "metar": "METAR GMMN 301900Z 03018KT CAVOK 14/08 Q1020 NOSIG",
      "taf": "TAF GMMN 301700Z 3018/3124 02016KT CAVOK"
    },
    {
      "icao": "GMMX",
      "alert": "OK",
      "vis_m": 9999,
      "fzfg": false,
      "metar_trigger": false,
      "taf_trigger": false,
      "metar": "METAR GMMX 301900Z 08007KT 9999 FEW030 18/02 Q1018 NOSIG",
      "taf": "TAF GMMX 301700Z 3018/3124 02016KT CAVOK"
    },
    {
      "icao": "HEGN",
      "alert": "OK",
      "vis_m": 9999,
      "fzfg": false,
      "metar_trigger": false,
      "taf_trigger": false,
      "metar": "METAR HEGN 301900Z 33009KT CAVOK 21/02 Q1011 NOSIG",
      "taf": "TAF HEGN 301700Z 3018/3124 33013KT CAVOK"
    },
    {
      "icao": "HEMA",
      "alert": "OK",
      "vis_m": 9999,
      "fzfg": false,
      "metar_trigger": false,
      "taf_trigger": false,
      "metar": "METAR HEMA 301900Z 34006KT CAVOK 21/15 Q1011 NOSIG",
      "taf": "TAF HEMA 301700Z 3018/3124 36013KT CAVOK"
    },
    {
      "icao": "HESH",
      "alert": "OK",
      "vis_m": 9999,
      "fzfg": false,
      "metar_trigger": false,
      "taf_trigger": false,
      "metar": "METAR HESH 301900Z 36007KT CAVOK 21/11 Q1010 NOSIG",
      "taf": "TAF HESH 301700Z 3018/3124 34010KT 9999 SCT025"
    },
    {
      "icao": "HESX",
      "alert": "OK",
      "vis_m": 9999,
      "fzfg": false,
      "metar_trigger": false,
      "taf_trigger": false,
      "metar": "METAR HESX 301900Z 01009KT CAVOK 15/07 Q1012 NOSIG",
      "taf": "TAF HESX 301700Z 3018/3124 30009KT 9999 FEW020"
    },
    {
      "icao": "LATI",
      "alert": "OK",
      "vis_m": null,
      "fzfg": false,
      "metar_trigger": false,
      "taf_trigger": false,
      "metar": "",
      "taf": "TAF LATI 301700Z 3018/3118 VRB03KT 9999 FEW040 BKN070 TX16/3112Z TN05/3104Z"
    },
    {
      "icao": "LBPD",
      "alert": "OK",
      "vis_m": 9999,
      "fzfg": false,
      "metar_trigger": false,
      "taf_trigger": false,
      "metar": "METAR LBPD 301900Z AUTO 29012KT 9999 SCT054/// OVC064/// 11/06 Q1007 NOSIG",
      "taf": "TAF LBPD 301700Z 3018/3118 28014KT 9999 BKN060"
    },
    {
      "icao": "LBSF",
      "alert": "OK",
      "vis_m": 9999,
      "fzfg": false,
      "metar_trigger": false,
      "taf_trigger": false,
      "metar": "METAR LBSF 301900Z AUTO 28011KT 9999 -SHRA SCT011/// BKN069/// 05/03 Q1009 NOSIG",
      "taf": "TAF LBSF 301700Z 3018/3118 28014KT 9999 SCT012 BKN025 OVC060"
    },
    {
      "icao": "LBWN",
      "alert": "OK",
      "vis_m": 9999,
      "fzfg": false,
      "metar_trigger": false,
      "taf_trigger": false,
      "metar": "METAR LBWN 301900Z AUTO 29008KT 9999 NSC 10/09 Q1006 NOSIG",
      "taf": "TAF LBWN 301700Z 3018/3118 28010KT 9999 SCT030 BKN050"
    },
    {
      "icao": "LCLK",
      "alert": "OK",
      "vis_m": 9999,
      "fzfg": false,
      "metar_trigger": false,
      "taf_trigger": false,
      "metar": "METAR LCLK 301900Z 21005KT CAVOK 13/08 Q1009 NOSIG",
      "taf": "TAF LCLK 301730Z 3018/3118 28008KT 9999 FEW030"
    },
    {
      "icao": "LCPH",
      "alert": "OK",
      "vis_m": 9999,
      "fzfg": false,
      "metar_trigger": false,
      "taf_trigger": false,
      "metar": "METAR LCPH 301900Z 32011KT 9999 SCT030 SCT040 16/09 Q1010 NOSIG",
      "taf": "TAF LCPH 301730Z 3018/3118 31012KT 9999 FEW025 SCT030"
    },
    {
      "icao": "LEAL",
      "alert": "OK",
      "vis_m": 9999,
      "fzfg": false,
      "metar_trigger": false,
      "taf_trigger": false,
      "metar": "METAR LEAL 301900Z VRB02KT CAVOK 13/04 Q1023 NOSIG",
      "taf": "TAF LEAL 301700Z 3018/3118 VRB05KT CAVOK TX20/3112Z TN09/3105Z"
    },
    {
      "icao": "LEBB",
      "alert": "OK",
      "vis_m": 8000,
      "fzfg": false,
      "metar_trigger": false,
      "taf_trigger": false,
      "metar": "METAR LEBB 301900Z 30015KT 260V330 8000 -DZ BKN008 12/11 Q1031 TEMPO SCT008",
      "taf": "TAF LEBB 301700Z 3018/3118 33009KT 9999 BKN020 TX13/3114Z TN10/3108Z"
    },
    {
      "icao": "LEBL",
      "alert": "OK",
      "vis_m": 9999,
      "fzfg": false,
      "metar_trigger": false,
      "taf_trigger": false,
      "metar": "METAR LEBL 301900Z 30005KT 240V350 CAVOK 19/06 Q1017 NOSIG",
      "taf": "TAF LEBL 301700Z 3018/3118 22010KT CAVOK TX17/3112Z TN09/3106Z"
    },
    {
      "icao": "LECH",
      "alert": "OK",
      "vis_m": 9999,
      "fzfg": false,
      "metar_trigger": false,
      "taf_trigger": false,
      "metar": "METAR LECH 301900Z AUTO 31005KT CAVOK 15/03 Q1020",
      "taf": "TAF LECH 301700Z 3018/3118 32020KT 9999 FEW045 TX17/3114Z TN09/3105Z"
    },
    {
      "icao": "LEMD",
      "alert": "OK",
      "vis_m": 9999,
      "fzfg": false,
      "metar_trigger": false,
      "taf_trigger": false,
      "metar": "METAR LEMD 301900Z 36017KT 330V030 9999 FEW060 14/04 Q1026 NOSIG",
      "taf": "TAF LEMD 301700Z 3018/3124 36010KT 9999 FEW055 TX20/3115Z TN07/3106Z"
    },
    {
      "icao": "LEMG",
      "alert": "OK",
      "vis_m": 9999,
      "fzfg": false,
      "metar_trigger": false,
      "taf_trigger": false,
      "metar": "METAR LEMG 301900Z 15005KT 120V200 CAVOK 13/01 Q1025 NOSIG",
      "taf": "TAF LEMG 301700Z 3018/3118 13010KT CAVOK TX23/3113Z TN10/3107Z"
    },
    {
      "icao": "LEVC",
      "alert": "OK",
      "vis_m": 9999,
      "fzfg": false,
      "metar_trigger": false,
      "taf_trigger": false,
      "metar": "METAR LEVC 301900Z VRB04KT CAVOK 17/03 Q1021 NOSIG",
      "taf": "TAF LEVC 301700Z 3018/3118 16010KT CAVOK TX24/3112Z TN11/3105Z"
    },
    {
      "icao": "LEXJ",
      "alert": "OK",
      "vis_m": 3000,
      "fzfg": false,
      "metar_trigger": false,
      "taf_trigger": false,
      "metar": "METAR LEXJ 301900Z 31015KT 270V340 3000 DZ OVC010 12/10 Q1033",
      "taf": "TAF LEXJ 301400Z 3015/3115 32009KT 9999 BKN025 TX13/3021Z TN11/3106Z"
    },
    {
      "icao": "LEZG",
      "alert": "OK",
      "vis_m": 9999,
      "fzfg": false,
      "metar_trigger": false,
      "taf_trigger": false,
      "metar": "METAR LEZG 301900Z 30021G31KT 9999 BKN030 13/07 Q1025 NOSIG",
      "taf": "TAF LEZG 301700Z 3018/3118 32020KT 9999 FEW045 TX17/3114Z TN09/3105Z"
    },
    {
      "icao": "LEZL",
      "alert": "OK",
      "vis_m": 9999,
      "fzfg": false,
      "metar_trigger": false,
      "taf_trigger": false,
      "metar": "METAR LEZL 301900Z 11003KT CAVOK 17/05 Q1024 NOSIG",
      "taf": "TAF LEZL 301400Z 3015/3115 06010KT CAVOK TX29/3115Z TN10/3107Z"
    },
    {
      "icao": "LFBD",
      "alert": "OK",
      "vis_m": 9999,
      "fzfg": false,
      "metar_trigger": false,
      "taf_trigger": false,
      "metar": "METAR LFBD 301900Z AUTO 31010KT 9999 BKN016 11/09 Q1027 NOSIG",
      "taf": "TAF LFBD 301700Z 3018/3124 30010KT 9999 BKN020 TX15/3114Z TN04/3106Z"
    },
    {
      "icao": "LFLL",
      "alert": "OK",
      "vis_m": 9999,
      "fzfg": false,
      "metar_trigger": false,
      "taf_trigger": false,
      "metar": "METAR LFLL 301900Z 19002KT 9999 FEW050TCU BKN060 BKN080 08/05 Q1020 NOSIG",
      "taf": "TAF LFLL 301700Z 3018/3124 13004KT 9999 BKN050"
    },
    {
      "icao": "LFLS",
      "alert": "OK",
      "vis_m": 9999,
      "fzfg": false,
      "metar_trigger": false,
      "taf_trigger": false,
      "metar": "METAR LFLS 301900Z AUTO 02005KT 340V050 9999 DZ FEW037/// BKN060/// BKN070/// ///TCU 06/04 Q1020 TEMPO 4000 SHRA",
      "taf": "TAF LFLS 301400Z 3015/3115 VRB05KT 9999 BKN030"
    },
    {
      "icao": "LFMN",
      "alert": "OK",
      "vis_m": 9999,
      "fzfg": false,
      "metar_trigger": false,
      "taf_trigger": false,
      "metar": "METAR LFMN 301900Z 09006KT CAVOK 14/09 Q1009 NOSIG",
      "taf": "TAF LFMN 301400Z 3015/3121 10015KT CAVOK"
    },
    {
      "icao": "LFOB",
      "alert": "OK",
      "vis_m": 9999,
      "fzfg": false,
      "metar_trigger": false,
      "taf_trigger": false,
      "metar": "METAR LFOB 301900Z AUTO 31009KT 9999 FEW038 BKN082 BKN130 08/04 Q1026 TEMPO 4000 SHRA BKN020TCU BECMG 32015G28KT",
      "taf": "TAF LFOB 301700Z 3018/3118 32015G28KT 9999 BKN030"
    },
    {
      "icao": "LFPO",
      "alert": "OK",
      "vis_m": 9999,
      "fzfg": false,
      "metar_trigger": false,
      "taf_trigger": false,
      "metar": "METAR LFPO 301900Z 34012KT 310V010 9999 SCT040 BKN076 11/02 Q1025 TEMPO -SHRA SCT030TCU",
      "taf": "TAF LFPO 301700Z 3018/3124 34012G25KT CAVOK"
    },
    {
      "icao": "LFSB",
      "alert": "OK",
      "vis_m": 9999,
      "fzfg": false,
      "metar_trigger": false,
      "taf_trigger": false,
      "metar": "METAR LFSB 301900Z AUTO 28008KT 9999 FEW043 BKN054 OVC068 06/03 Q1020 TEMPO 31015G25KT 4000 SHRA SCT025TCU",
      "taf": "TAF LFSB 301700Z 3018/3118 27007KT 9999 SCT030 BKN050"
    },
    {
      "icao": "LGAV",
      "alert": "OK",
      "vis_m": 9999,
      "fzfg": false,
      "metar_trigger": false,
      "taf_trigger": false,
      "metar": "METAR LGAV 301850Z 28004KT 9999 FEW025 13/08 Q1009 NOSIG",
      "taf": "TAF LGAV 301700Z 3018/3118 21015KT 9999 FEW025"
    },
    {
      "icao": "LGTS",
      "alert": "OK",
      "vis_m": 9999,
      "fzfg": false,
      "metar_trigger": false,
      "taf_trigger": false,
      "metar": "METAR LGTS 301850Z VRB03KT 9999 FEW020 12/08 Q1007 NOSIG",
      "taf": "TAF LGTS 301700Z 3018/3118 VRB03KT 9999 FEW025"
    },
    {
      "icao": "LHBP",
      "alert": "OK",
      "vis_m": 9999,
      "fzfg": false,
      "metar_trigger": false,
      "taf_trigger": false,
      "metar": "METAR LHBP 301900Z 32005KT 9999 -RA FEW027 OVC048 05/03 Q1010 NOSIG",
      "taf": "TAF LHBP 301715Z 3018/3118 33008KT 9999 -RA OVC045"
    },
    {
      "icao": "LHDC",
      "alert": "OK",
      "vis_m": 7000,
      "fzfg": false,
      "metar_trigger": false,
      "taf_trigger": false,
      "metar": "METAR LHDC 301845Z AUTO 31003KT 7000 -RA BKN020 BKN046 07/07 Q1008",
      "taf": "TAF LHDC 301415Z 3015/3024 33007KT CAVOK"
    },
    {
      "icao": "LIBD",
      "alert": "OK",
      "vis_m": 9999,
      "fzfg": false,
      "metar_trigger": false,
      "taf_trigger": false,
      "metar": "METAR LIBD 301850Z VRB01KT CAVOK 10/08 Q1009",
      "taf": "TAF LIBD 301700Z 3018/3118 VRB05KT 9999 SCT030"
    },
    {
      "icao": "LIBG",
      "alert": "OK",
      "vis_m": 9999,
      "fzfg": false,
      "metar_trigger": false,
      "taf_trigger": false,
      "metar": "METAR LIBG 301750Z 11005KT CAVOK 12/08 Q1009",
      "taf": "TAF LIBG 301400Z 3015/3024 34010KT 9999 SCT030"
    },
    {
      "icao": "LIBP",
      "alert": "OK",
      "vis_m": 7000,
      "fzfg": false,
      "metar_trigger": false,
      "taf_trigger": false,
      "metar": "METAR LIBP 301850Z AUTO 24005KT 7000 RA OVC012/// 08/08 Q1011",
      "taf": "TAF LIBP 301700Z 3018/3118 24008KT 9999 SCT030"
    },
    {
      "icao": "LIBR",
      "alert": "OK",
      "vis_m": 9999,
      "fzfg": false,
      "metar_trigger": false,
      "taf_trigger": false,
      "metar": "METAR LIBR 301850Z 35002KT CAVOK 12/07 Q1009",
      "taf": "TAF LIBR 301700Z 3018/3118 33016KT 9999 BKN030"
    },
    {
      "icao": "LICA",
      "alert": "OK",
      "vis_m": 9999,
      "fzfg": false,
      "metar_trigger": false,
      "taf_trigger": false,
      "metar": "METAR LICA 301850Z AUTO 28003KT 220V310 9999 BKN025/// BKN150/// 12/09 Q1010",
      "taf": "TAF LICA 301700Z 3018/3118 26007KT 9999 SCT020"
    },
    {
      "icao": "LICC",
      "alert": "OK",
      "vis_m": 9999,
      "fzfg": false,
      "metar_trigger": false,
      "taf_trigger": false,
      "metar": "METAR LICC 301850Z 07004KT 9999 FEW070 SCT100 13/08 Q1011",
      "taf": "TAF LICC 301700Z 3018/3118 VRB05KT 9999 SCT040"
    },
    {
      "icao": "LICJ",
      "alert": "OK",
      "vis_m": 9999,
      "fzfg": false,
      "metar_trigger": false,
      "taf_trigger": false,
      "metar": "METAR LICJ 301850Z 26009KT 9999 FEW030 15/09 Q1011",
      "taf": "TAF LICJ 301700Z 3018/3118 28008KT 9999 SCT030"
    },
    {
      "icao": "LIMC",
      "alert": "OK",
      "vis_m": 9999,
      "fzfg": false,
      "metar_trigger": false,
      "taf_trigger": false,
      "metar": "METAR LIMC 301850Z 36009KT 320V030 CAVOK 12/M05 Q1012 NOSIG",
      "taf": "TAF LIMC 301700Z 3018/3124 01011KT CAVOK"
    },
    {
      "icao": "LIME",
      "alert": "OK",
      "vis_m": 9999,
      "fzfg": false,
      "metar_trigger": false,
      "taf_trigger": false,
      "metar": "METAR LIME 301850Z 35009KT 310V020 9999 SCT045 13/M08 Q1010 NOSIG",
      "taf": "TAF LIME 301700Z 3018/3118 32012KT CAVOK"
    },
    {
      "icao": "LIMF",
      "alert": "OK",
      "vis_m": 9999,
      "fzfg": false,
      "metar_trigger": false,
      "taf_trigger": false,
      "metar": "METAR LIMF 301850Z 31012KT CAVOK 12/M06 Q1011",
      "taf": "TAF LIMF 301700Z 3018/3118 34011KT CAVOK"
    },
    {
      "icao": "LIMJ",
      "alert": "OK",
      "vis_m": 9999,
      "fzfg": false,
      "metar_trigger": false,
      "taf_trigger": false,
      "metar": "METAR LIMJ 301850Z 02016KT 9999 FEW040 17/M11 Q1008",
      "taf": "TAF LIMJ 301700Z 3018/3118 VRB05KT CAVOK"
    },
    {
      "icao": "LIPE",
      "alert": "OK",
      "vis_m": 9999,
      "fzfg": false,
      "metar_trigger": false,
      "taf_trigger": false,
      "metar": "METAR LIPE 301850Z 36003KT 320V040 CAVOK 12/04 Q1010",
      "taf": "TAF LIPE 301700Z 3018/3118 06010KT CAVOK"
    },
    {
      "icao": "LIPH",
      "alert": "OK",
      "vis_m": 9999,
      "fzfg": false,
      "metar_trigger": false,
      "taf_trigger": false,
      "metar": "METAR LIPH 301850Z 06005KT CAVOK 09/04 Q1011",
      "taf": "TAF LIPH 301700Z 3018/3118 VRB06KT 9999 SCT040"
    },
    {
      "icao": "LIPQ",
      "alert": "OK",
      "vis_m": 9999,
      "fzfg": false,
      "metar_trigger": false,
      "taf_trigger": false,
      "metar": "METAR LIPQ 301850Z AUTO 08004KT 9999 NCD 08/03 Q1011",
      "taf": "TAF LIPQ 301700Z 3018/3118 VRB06KT 9999 SCT050"
    },
    {
      "icao": "LIPR",
      "alert": "OK",
      "vis_m": 9999,
      "fzfg": false,
      "metar_trigger": false,
      "taf_trigger": false,
      "metar": "METAR LIPR 301850Z 15003KT CAVOK 10/06 Q1010",
      "taf": "TAF LIPR 301700Z 3018/3118 11012KT 9999 BKN070"
    },
    {
      "icao": "LIPX",
      "alert": "OK",
      "vis_m": 9999,
      "fzfg": false,
      "metar_trigger": false,
      "taf_trigger": false,
      "metar": "METAR LIPX 301850Z 09006KT 060V120 CAVOK 11/05 Q1010",
      "taf": "TAF LIPX 301700Z 3018/3118 08010KT CAVOK"
    },
    {
      "icao": "LIPY",
      "alert": "OK",
      "vis_m": 9999,
      "fzfg": false,
      "metar_trigger": false,
      "taf_trigger": false,
      "metar": "METAR LIPY 301850Z AUTO 08007KT 060V120 9999 BKN093/// BKN170/// 11/06 Q1010",
      "taf": "TAF LIPY 301700Z 3018/3118 VRB05KT 9999 SCT040"
    },
    {
      "icao": "LIPZ",
      "alert": "OK",
      "vis_m": 9999,
      "fzfg": false,
      "metar_trigger": false,
      "taf_trigger": false,
      "metar": "METAR LIPZ 301850Z 10006KT CAVOK 10/07 Q1010 NOSIG",
      "taf": "TAF LIPZ 301700Z 3018/3124 03008KT 9999 SCT040"
    },
    {
      "icao": "LIRF",
      "alert": "OK",
      "vis_m": 9999,
      "fzfg": false,
      "metar_trigger": false,
      "taf_trigger": false,
      "metar": "METAR LIRF 301850Z 26004KT CAVOK 12/07 Q1008 NOSIG",
      "taf": "TAF LIRF 301700Z 3018/3124 29008KT 9999 FEW040"
    },
    {
      "icao": "LIRN",
      "alert": "OK",
      "vis_m": 9999,
      "fzfg": false,
      "metar_trigger": false,
      "taf_trigger": false,
      "metar": "METAR LIRN 301850Z 24007KT 210V280 9999 -TSRA SCT030CB 12/07 Q1009 NOSIG",
      "taf": "TAF LIRN 301700Z 3018/3118 VRB05KT 9999 SCT030"
    },
    {
      "icao": "LIRP",
      "alert": "OK",
      "vis_m": 9999,
      "fzfg": false,
      "metar_trigger": false,
      "taf_trigger": false,
      "metar": "METAR LIRP 301845Z 07012KT 9999 SCT040 12/03 Q1009 NOSIG",
      "taf": "TAF LIRP 301700Z 3018/3118 28006KT 9999 SCT080"
    },
    {
      "icao": "LIRZ",
      "alert": "OK",
      "vis_m": 8000,
      "fzfg": false,
      "metar_trigger": false,
      "taf_trigger": false,
      "metar": "METAR LIRZ 301850Z AUTO 34017KT 8000 -RA OVC035/// 07/05 Q1009",
      "taf": "TAF LIRZ 301700Z 3018/3118 03010KT 9999 SCT040"
    },
    {
      "icao": "LJLJ",
      "alert": "OK",
      "vis_m": 9999,
      "fzfg": false,
      "metar_trigger": false,
      "taf_trigger": false,
      "metar": "METAR LJLJ 301900Z VRB02KT 9999 SCT030 SCT090 BKN190 05/02 Q1012 NOSIG",
      "taf": "TAF LJLJ 301700Z 3018/3118 12004KT 9999 FEW033"
    },
    {
      "icao": "LKMT",
      "alert": "OK",
      "vis_m": 9999,
      "fzfg": false,
      "metar_trigger": false,
      "taf_trigger": false,
      "metar": "METAR LKMT 301900Z 32004KT 9999 SCT042 06/00 Q1011 NOSIG",
      "taf": "TAF LKMT 301700Z 3018/3118 27008KT 9999 SCT040"
    },
    {
      "icao": "LKPR",
      "alert": "OK",
      "vis_m": 9999,
      "fzfg": false,
      "metar_trigger": false,
      "taf_trigger": false,
      "metar": "METAR LKPR 301900Z 30012KT 9999 SCT022 BKN027 04/01 Q1013 NOSIG",
      "taf": "TAF LKPR 301700Z 3018/3124 30010KT 9999 SCT018 BKN030"
    },
    {
      "icao": "LLBG",
      "alert": "OK",
      "vis_m": 9999,
      "fzfg": false,
      "metar_trigger": false,
      "taf_trigger": false,
      "metar": "METAR LLBG 301850Z 13004KT 9999 FEW028 15/11 Q1012 NOSIG",
      "taf": "TAF LLBG 301704Z 3018/3118 VRB03KT 9999 SCT035 TX20/3112Z TN12/3103Z"
    },
    {
      "icao": "LMML",
      "alert": "OK",
      "vis_m": 9999,
      "fzfg": false,
      "metar_trigger": false,
      "taf_trigger": false,
      "metar": "METAR LMML 301915Z 26005KT 9999 FEW018 12/09 Q1012 NOSIG",
      "taf": "TAF LMML 301700Z 3018/3118 29010KT 9999 FEW025"
    },
    {
      "icao": "LOWW",
      "alert": "OK",
      "vis_m": 9999,
      "fzfg": false,
      "metar_trigger": false,
      "taf_trigger": false,
      "metar": "METAR LOWW 301850Z 30009KT CAVOK 06/01 Q1012 NOSIG",
      "taf": "TAF LOWW 301715Z 3018/3124 31015KT CAVOK TX08/3114Z TN04/3106Z"
    },
    {
      "icao": "LPFR",
      "alert": "OK",
      "vis_m": 9999,
      "fzfg": false,
      "metar_trigger": false,
      "taf_trigger": false,
      "metar": "METAR LPFR 301900Z 27005KT CAVOK 15/06 Q1025",
      "taf": "TAF LPFR 301700Z 3018/3118 12007KT CAVOK"
    },
    {
      "icao": "LPMA",
      "alert": "OK",
      "vis_m": 9999,
      "fzfg": false,
      "metar_trigger": false,
      "taf_trigger": false,
      "metar": "METAR LPMA 301900Z 01020G31KT 330V040 9999 FEW015 17/11 Q1023",
      "taf": "TAF LPMA 301700Z 3018/3118 01020G32KT 9999 SCT015"
    },
    {
      "icao": "LPPR",
      "alert": "OK",
      "vis_m": 9999,
      "fzfg": false,
      "metar_trigger": false,
      "taf_trigger": false,
      "metar": "METAR LPPR 301900Z 01006KT 340V040 CAVOK 16/11 Q1029",
      "taf": "TAF LPPR 301700Z 3018/3118 32008KT CAVOK"
    },
    {
      "icao": "LPPS",
      "alert": "OK",
      "vis_m": 9999,
      "fzfg": false,
      "metar_trigger": false,
      "taf_trigger": false,
      "metar": "METAR LPPS 301900Z 06019G29KT 030V090 9999 FEW015 16/11 Q1024",
      "taf": "TAF LPPS 301700Z 3018/3124 06017KT 9999 SCT015"
    },
    {
      "icao": "LPPT",
      "alert": "OK",
      "vis_m": 9999,
      "fzfg": false,
      "metar_trigger": false,
      "taf_trigger": false,
      "metar": "METAR LPPT 301900Z 33012KT CAVOK 17/06 Q1027",
      "taf": "TAF LPPT 301700Z 3018/3124 34012KT CAVOK"
    },
    {
      "icao": "LQBK",
      "alert": "OK",
      "vis_m": 9999,
      "fzfg": false,
      "metar_trigger": false,
      "taf_trigger": false,
      "metar": "METAR LQBK 301900Z 19004KT 9999 FEW023 BKN047 04/02 Q1013 NOSIG",
      "taf": "TAF LQBK 301700Z 3018/3118 20005KT 8000 -RA SCT015 OVC030 TX06/3114Z TN03/3104Z"
    },
    {
      "icao": "LQSA",
      "alert": "OK",
      "vis_m": 7000,
      "fzfg": false,
      "metar_trigger": false,
      "taf_trigger": false,
      "metar": "METAR LQSA 301900Z 30007KT 7000 SNRA BKN020 BKN030 02/01 Q1011 TEMPO 4000 BKN012",
      "taf": ""
    },
    {
      "icao": "LQTZ",
      "alert": "OK",
      "vis_m": 8000,
      "fzfg": false,
      "metar_trigger": false,
      "taf_trigger": false,
      "metar": "METAR LQTZ 301900Z 25001KT 8000 BKN023 OVC035 02/02 Q1013",
      "taf": "TAF LQTZ 301700Z 3018/3118 28005KT 9999 SCT012 BKN025 TX07/3113Z TN00/3105Z"
    },
    {
      "icao": "LRBC",
      "alert": "OK",
      "vis_m": 7000,
      "fzfg": false,
      "metar_trigger": false,
      "taf_trigger": false,
      "metar": "METAR LRBC 301900Z 31004KT 7000 -RA BKN034 OVC049 09/08 Q1005",
      "taf": "TAF LRBC 301700Z 3018/3103 34010KT 9999 BKN025 BKN050"
    },
    {
      "icao": "LRBS",
      "alert": "OK",
      "vis_m": 9000,
      "fzfg": false,
      "metar_trigger": false,
      "taf_trigger": false,
      "metar": "METAR LRBS 301900Z 24006KT 9000 -RA FEW044 10/10 Q1006 NOSIG",
      "taf": "TAF LRBS 301700Z 3018/3118 24008KT 9999 SCT015 BKN045"
    },
    {
      "icao": "LRBV",
      "alert": "OK",
      "vis_m": 9000,
      "fzfg": false,
      "metar_trigger": false,
      "taf_trigger": false,
      "metar": "METAR LRBV 301900Z 00000KT 9000 -RA SCT011 BKN017 OVC037 08/08 Q1005",
      "taf": "TAF LRBV 301700Z 3018/3103 VRB04KT 9999 SCT015 BKN050"
    },
    {
      "icao": "LRCL",
      "alert": "OK",
      "vis_m": 9999,
      "fzfg": false,
      "metar_trigger": false,
      "taf_trigger": false,
      "metar": "METAR LRCL 301900Z 28004KT 9999 -RA SCT018 OVC051 10/07 Q1006",
      "taf": "TAF LRCL 301700Z 3018/3103 30008KT 9999 SCT020 BKN045"
    },
    {
      "icao": "LRCV",
      "alert": "OK",
      "vis_m": 9999,
      "fzfg": false,
      "metar_trigger": false,
      "taf_trigger": false,
      "metar": "METAR LRCV 301900Z 25013KT CAVOK 07/04 Q1007",
      "taf": "TAF LRCV 301700Z 3018/3103 25014KT 9999 SCT045"
    },
    {
      "icao": "LRIA",
      "alert": "OK",
      "vis_m": 4500,
      "fzfg": false,
      "metar_trigger": false,
      "taf_trigger": false,
      "metar": "METAR LRIA 301900Z 30014KT 4500 -RA BR BKN005 09/08 Q1004",
      "taf": "TAF LRIA 301700Z 3018/3103 32010KT 5000 BR BKN015 OVC040"
    },
    {
      "icao": "LROP",
      "alert": "OK",
      "vis_m": 7000,
      "fzfg": false,
      "metar_trigger": false,
      "taf_trigger": false,
      "metar": "METAR LROP 301900Z 23007KT 7000 -RA OVC046 10/10 Q1006 TEMPO 5000 -RA BR",
      "taf": "TAF LROP 301700Z 3018/3118 24008KT 9999 SCT015 BKN045"
    },
    {
      "icao": "LRSB",
      "alert": "OK",
      "vis_m": 9999,
      "fzfg": false,
      "metar_trigger": false,
      "taf_trigger": false,
      "metar": "METAR LRSB 301900Z 31012KT 9999 BKN039 OVC045 09/05 Q1006",
      "taf": "TAF LRSB 301700Z 3018/3118 31009KT 9999 SCT015 BKN050"
    },
    {
      "icao": "LRSM",
      "alert": "OK",
      "vis_m": 7000,
      "fzfg": false,
      "metar_trigger": false,
      "taf_trigger": false,
      "metar": "METAR LRSM 301900Z AUTO 26007KT 7000 DZ OVC050/// 08/07 Q1007",
      "taf": "TAF LRSM 301400Z 3015/3024 29008KT 9999 SCT035"
    },
    {
      "icao": "LRSV",
      "alert": "OK",
      "vis_m": 9000,
      "fzfg": false,
      "metar_trigger": false,
      "taf_trigger": false,
      "metar": "METAR LRSV 301900Z 31010KT 9000 -RA BKN032 08/07 Q1005",
      "taf": "TAF LRSV 301700Z 3018/3103 32010KT 9999 SCT020 BKN035"
    },
    {
      "icao": "LRTM",
      "alert": "OK",
      "vis_m": 9999,
      "fzfg": false,
      "metar_trigger": false,
      "taf_trigger": false,
      "metar": "METAR LRTM 301900Z VRB02KT 9999 -RA SCT008 OVC025 09/08 Q1006",
      "taf": "TAF LRTM 301700Z 3018/3103 26008KT 9999 SCT020 BKN045"
    },
    {
      "icao": "LRTR",
      "alert": "OK",
      "vis_m": 9000,
      "fzfg": false,
      "metar_trigger": false,
      "taf_trigger": false,
      "metar": "METAR LRTR 301900Z 29009KT 9000 -RA FEW004 BKN005 OVC010 05/05 Q1010",
      "taf": "TAF LRTR 301700Z 3018/3118 29010KT 5000 -RADZ BR BKN005 OVC015"
    },
    {
      "icao": "LTAC",
      "alert": "OK",
      "vis_m": 9999,
      "fzfg": false,
      "metar_trigger": false,
      "taf_trigger": false,
      "metar": "METAR LTAC 301850Z 24006KT 9999 BKN025 BKN080 06/03 Q1007 NOSIG RMK RWY21C 23008KT RWY03L 22005KT RWY21R 21008KT RWY03R 24006KT RWY21L 24008KT",
      "taf": "TAF LTAC 301640Z 3018/3118 VRB02KT 9999 BKN025 BKN080"
    },
    {
      "icao": "LTFM",
      "alert": "OK",
      "vis_m": 9999,
      "fzfg": false,
      "metar_trigger": false,
      "taf_trigger": false,
      "metar": "METAR LTFM 301850Z 20010KT 9999 SCT040 BKN090 10/09 Q1008 NOSIG RMK RWY17L 16011KT 130V210 RWY34L 20010KT RWY16R 22010KT RWY36 22010KT RWY18 21011KT",
      "taf": "TAF LTFM 301640Z 3018/3124 21010KT 9999 SCT026 BKN090"
    },
    {
      "icao": "LUKK",
      "alert": "OK",
      "vis_m": 9999,
      "fzfg": false,
      "metar_trigger": false,
      "taf_trigger": false,
      "metar": "METAR LUKK 301900Z 01005KT 9999 -RA OVC040 11/06 Q1002 NOSIG",
      "taf": "TAF LUKK 301706Z 3018/3118 29008KT 9999 BKN035"
    },
    {
      "icao": "LWOH",
      "alert": "OK",
      "vis_m": 9999,
      "fzfg": false,
      "metar_trigger": false,
      "taf_trigger": false,
      "metar": "METAR LWOH 301850Z 17008KT 140V200 9999 SCT033 09/05 Q1007",
      "taf": "TAF LWOH 301710Z 3018/3118 VRB03KT 9999 FEW045 SCT090"
    },
    {
      "icao": "LWSK",
      "alert": "OK",
      "vis_m": null,
      "fzfg": false,
      "metar_trigger": false,
      "taf_trigger": false,
      "metar": "",
      "taf": "TAF LWSK 301710Z 3018/3118 02008KT 9999 SCT075"
    },
    {
      "icao": "LYBE",
      "alert": "OK",
      "vis_m": 9999,
      "fzfg": false,
      "metar_trigger": false,
      "taf_trigger": false,
      "metar": "METAR LYBE 301900Z 28007KT 9999 SCT013 BKN020 05/04 Q1012 NOSIG",
      "taf": "TAF LYBE 301700Z 3018/3118 28010KT 8000 BKN014 BKN030 TX09/3113Z TN03/3105Z"
    },
    {
      "icao": "LYNI",
      "alert": "OK",
      "vis_m": 9999,
      "fzfg": false,
      "metar_trigger": false,
      "taf_trigger": false,
      "metar": "METAR LYNI 301900Z 32008KT 290V350 9999 FEW008 OVC017 05/05 Q1011 NOSIG",
      "taf": "TAF LYNI 301700Z 3018/3118 32010KT 9999 SCT012 BKN020 TX10/3112Z TN04/3106Z"
    },
    {
      "icao": "LYPG",
      "alert": "OK",
      "vis_m": 9999,
      "fzfg": false,
      "metar_trigger": false,
      "taf_trigger": false,
      "metar": "METAR LYPG 301900Z 12006KT 9999 SCT080 12/06 Q1008 NOSIG",
      "taf": "TAF LYPG 301700Z 3018/3118 01006KT 9999 FEW050 TX14/3114Z TN07/3102Z"
    },
    {
      "icao": "LZIB",
      "alert": "OK",
      "vis_m": 9999,
      "fzfg": false,
      "metar_trigger": false,
      "taf_trigger": false,
      "metar": "METAR LZIB 301900Z 29006KT CAVOK 07/01 Q1011 NOSIG",
      "taf": "TAF LZIB 301715Z 3018/3118 30009KT 9999 SCT040"
    },
    {
      "icao": "LZKZ",
      "alert": "OK",
      "vis_m": 9999,
      "fzfg": false,
      "metar_trigger": false,
      "taf_trigger": false,
      "metar": "METAR LZKZ 301900Z 36016KT 9999 -RA SCT048 05/02 Q1008 NOSIG",
      "taf": "TAF LZKZ 301715Z 3018/3118 02014KT 9999 BKN040"
    },
    {
      "icao": "LZTT",
      "alert": "OK",
      "vis_m": 2000,
      "fzfg": false,
      "metar_trigger": false,
      "taf_trigger": false,
      "metar": "METAR LZTT 301900Z 26006KT 2000 -SN BR SCT003 OVC010 00/00 Q1009 TEMPO 1200 -SN BR OVC004",
      "taf": "TAF LZTT 301715Z 3018/3118 VRB02KT 7000 BKN016"
    },
    {
      "icao": "OEJN",
      "alert": "OK",
      "vis_m": 9999,
      "fzfg": false,
      "metar_trigger": false,
      "taf_trigger": false,
      "metar": "METAR OEJN 301900Z 34005KT CAVOK 26/14 Q1009 NOSIG",
      "taf": "TAF OEJN 301700Z 3018/3124 36006KT CAVOK"
    },
    {
      "icao": "OEMA",
      "alert": "OK",
      "vis_m": 9999,
      "fzfg": false,
      "metar_trigger": false,
      "taf_trigger": false,
      "metar": "METAR OEMA 301900Z 28008KT CAVOK 28/04 Q1012 NOSIG",
      "taf": "TAF OEMA 301700Z 3018/3124 32006KT 9999 FEW040"
    },
    {
      "icao": "OJAI",
      "alert": "OK",
      "vis_m": 5000,
      "fzfg": false,
      "metar_trigger": false,
      "taf_trigger": false,
      "metar": "METAR OJAI 301900Z 30010KT 5000 HZ SCT030 09/07 Q1013 NOSIG",
      "taf": "TAF OJAI 301658Z 3018/3124 28010KT 5000 HZ SCT035"
    },
    {
      "icao": "OMAA",
      "alert": "OK",
      "vis_m": null,
      "fzfg": false,
      "metar_trigger": false,
      "taf_trigger": false,
      "metar": "",
      "taf": ""
    },
    {
      "icao": "OMDB",
      "alert": "OK",
      "vis_m": null,
      "fzfg": false,
      "metar_trigger": false,
      "taf_trigger": false,
      "metar": "",
      "taf": ""
    },
    {
      "icao": "UAAA",
      "alert": "OK",
      "vis_m": 9999,
      "fzfg": false,
      "metar_trigger": false,
      "taf_trigger": false,
      "metar": "METAR UAAA 301900Z 20003MPS 9999 FEW200 13/M00 Q1008 NOSIG",
      "taf": "TAF UAAA 301705Z 3018/3118 20003MPS 9999 SCT100 TX23/3110Z TN06/3101Z"
    },
    {
      "icao": "UBBB",
      "alert": "OK",
      "vis_m": 2000,
      "fzfg": false,
      "metar_trigger": false,
      "taf_trigger": false,
      "metar": "METAR UBBB 301900Z 32004KT 2000 BR OVC002 11/10 Q0999 NOSIG",
      "taf": "TAF UBBB 301707Z 3018/3118 32006KT 1500 BR BCFG BKN002 TX16/3110Z TN08/3101Z"
    },
    {
      "icao": "UDSG",
      "alert": "OK",
      "vis_m": 9999,
      "fzfg": false,
      "metar_trigger": false,
      "taf_trigger": false,
      "metar": "METAR UDSG 301900Z 21005KT 9999 BKN046 03/01 Q1005 NOSIG",
      "taf": "TAF UDSG 301700Z 3018/3118 22006KT 9999 SCT040"
    },
    {
      "icao": "UDYZ",
      "alert": "OK",
      "vis_m": 9999,
      "fzfg": false,
      "metar_trigger": false,
      "taf_trigger": false,
      "metar": "METAR UDYZ 301900Z 25007KT 9999 SCT043CB 09/03 Q1003 NOSIG",
      "taf": "TAF UDYZ 301700Z 3018/3118 24006KT 9999 SCT040"
    },
    {
      "icao": "UGKO",
      "alert": "OK",
      "vis_m": 9999,
      "fzfg": false,
      "metar_trigger": false,
      "taf_trigger": false,
      "metar": "METAR UGKO 301900Z VRB02KT 9999 BKN049 10/09 Q1005 NOSIG",
      "taf": "TAF UGKO 301700Z 3018/3118 26007KT 9999 SCT023 BKN050 TX17/3111Z TN07/3103Z"
    }
  ]
}