{
  "ts_utc": "2026-04-13T20:38:38Z",
  "threshold_m": 150,
  "source": "stations_override.txt (ICAO list) + aviationweather.gov (METAR/TAF raw)",
  "station_count": 159,
  "stations": [
    {
      "icao": "BIKF",
      "alert": "OK",
      "vis_m": 9999,
      "fzfg": false,
      "metar_trigger": false,
      "taf_trigger": false,
      "metar": "METAR BIKF 132030Z 06007KT 9999 FEW025 BKN034 05/03 Q0998",
      "taf": "TAF BIKF 131940Z 1321/1421 07010KT 9999 -SHRA SCT018 BKN028 TX07/1415Z TN02/1404Z"
    },
    {
      "icao": "BKPR",
      "alert": "OK",
      "vis_m": 9999,
      "fzfg": false,
      "metar_trigger": false,
      "taf_trigger": false,
      "metar": "METAR BKPR 132030Z VRB02KT CAVOK 12/08 Q1015 NOSIG",
      "taf": "TAF BKPR 131730Z 1318/1418 13009KT 9999 SCT090"
    },
    {
      "icao": "EBCI",
      "alert": "OK",
      "vis_m": 9999,
      "fzfg": false,
      "metar_trigger": false,
      "taf_trigger": false,
      "metar": "METAR EBCI 132020Z 35004KT 310V020 CAVOK 08/05 Q1015 NOSIG",
      "taf": ""
    },
    {
      "icao": "EDDB",
      "alert": "OK",
      "vis_m": 9999,
      "fzfg": false,
      "metar_trigger": false,
      "taf_trigger": false,
      "metar": "METAR EDDB 132020Z AUTO 09010KT CAVOK 12/02 Q1013 NOSIG",
      "taf": "TAF EDDB 131700Z 1318/1418 09012KT 9999 SCT030"
    },
    {
      "icao": "EDDH",
      "alert": "OK",
      "vis_m": 9999,
      "fzfg": false,
      "metar_trigger": false,
      "taf_trigger": false,
      "metar": "METAR EDDH 132020Z AUTO 07003KT 040V120 9999 -RA FEW042 08/06 Q1014 TEMPO 4500 RA",
      "taf": "TAF EDDH 131700Z 1318/1424 08007KT 9999 BKN025"
    },
    {
      "icao": "EDDK",
      "alert": "OK",
      "vis_m": 5000,
      "fzfg": false,
      "metar_trigger": false,
      "taf_trigger": false,
      "metar": "METAR EDDK 132020Z AUTO 32005KT 5000 -DZ BR FEW006 BKN022 OVC028 08/07 Q1014 TEMPO 6000 BKN007",
      "taf": "TAF EDDK 131700Z 1318/1424 32005KT 9999 BKN020"
    },
    {
      "icao": "EDDN",
      "alert": "OK",
      "vis_m": 9999,
      "fzfg": false,
      "metar_trigger": false,
      "taf_trigger": false,
      "metar": "METAR EDDN 132020Z AUTO 31006KT 9999 FEW038 11/08 Q1011",
      "taf": "TAF EDDN 131700Z 1318/1418 30007KT CAVOK"
    },
    {
      "icao": "EDDS",
      "alert": "OK",
      "vis_m": 6000,
      "fzfg": false,
      "metar_trigger": false,
      "taf_trigger": false,
      "metar": "METAR EDDS 132020Z AUTO 32005KT 280V350 6000 -RADZ BKN007 OVC012 08/07 Q1012",
      "taf": "TAF EDDS 131700Z 1318/1418 30007KT 9999 BKN010"
    },
    {
      "icao": "EDFH",
      "alert": "OK",
      "vis_m": 1400,
      "fzfg": false,
      "metar_trigger": false,
      "taf_trigger": false,
      "metar": "METAR EDFH 132020Z 30006KT 260V330 1400 R21/1400U -RA BR BKN001 06/06 Q1013",
      "taf": "TAF EDFH 131700Z 1318/1418 33005KT 9999 SCT002 BKN004"
    },
    {
      "icao": "EDJA",
      "alert": "OK",
      "vis_m": 3100,
      "fzfg": false,
      "metar_trigger": false,
      "taf_trigger": false,
      "metar": "METAR EDJA 132020Z 29005KT 3100 BR OVC002 08/08 Q1011",
      "taf": "TAF EDJA 131700Z 1318/1403 28007KT 9999 SCT006 OVC012"
    },
    {
      "icao": "EDLW",
      "alert": "OK",
      "vis_m": 9999,
      "fzfg": false,
      "metar_trigger": false,
      "taf_trigger": false,
      "metar": "METAR EDLW 132020Z 23004KT 9999 FEW029 07/06 Q1014",
      "taf": "TAF EDLW 131700Z 1318/1418 VRB03KT 9999 BKN020"
    },
    {
      "icao": "EDNY",
      "alert": "OK",
      "vis_m": 5000,
      "fzfg": false,
      "metar_trigger": false,
      "taf_trigger": false,
      "metar": "METAR EDNY 132020Z AUTO 25008KT 5000 // OVC004/// 08/08 Q1012",
      "taf": "TAF EDNY 131700Z 1318/1403 24005KT 9999 FEW008 OVC015"
    },
    {
      "icao": "EDSB",
      "alert": "OK",
      "vis_m": 7000,
      "fzfg": false,
      "metar_trigger": false,
      "taf_trigger": false,
      "metar": "METAR EDSB 132020Z 25005KT 210V280 7000 -RA FEW005 BKN017 OVC024 09/08 Q1014",
      "taf": "TAF EDSB 131700Z 1318/1418 22004KT 9000 FEW005 BKN015"
    },
    {
      "icao": "EETN",
      "alert": "OK",
      "vis_m": 9999,
      "fzfg": false,
      "metar_trigger": false,
      "taf_trigger": false,
      "metar": "METAR EETN 132020Z 09004KT CAVOK 03/01 Q1031 NOSIG",
      "taf": "TAF EETN 131730Z 1318/1418 10007KT CAVOK"
    },
    {
      "icao": "EFTU",
      "alert": "OK",
      "vis_m": 9999,
      "fzfg": false,
      "metar_trigger": false,
      "taf_trigger": false,
      "metar": "METAR EFTU 132020Z AUTO VRB01KT CAVOK 02/M02 Q1032",
      "taf": "TAF EFTU 131725Z 1318/1418 21004KT CAVOK"
    },
    {
      "icao": "EGBB",
      "alert": "OK",
      "vis_m": 9999,
      "fzfg": false,
      "metar_trigger": false,
      "taf_trigger": false,
      "metar": "METAR EGBB 132020Z 17004KT CAVOK 07/03 Q1014",
      "taf": "TAF EGBB 131706Z 1318/1418 18008KT 9999 SCT030"
    },
    {
      "icao": "EGGP",
      "alert": "OK",
      "vis_m": 9999,
      "fzfg": false,
      "metar_trigger": false,
      "taf_trigger": false,
      "metar": "METAR EGGP 132020Z VRB01KT CAVOK 07/03 Q1013",
      "taf": "TAF EGGP 131657Z 1318/1418 17007KT 9999 FEW035"
    },
    {
      "icao": "EGGW",
      "alert": "OK",
      "vis_m": 9999,
      "fzfg": false,
      "metar_trigger": false,
      "taf_trigger": false,
      "metar": "METAR EGGW 132020Z AUTO 15004KT 9999 NCD 07/03 Q1014",
      "taf": "TAF EGGW 131700Z 1318/1418 24004KT 9999 FEW045"
    },
    {
      "icao": "EGKK",
      "alert": "OK",
      "vis_m": 9999,
      "fzfg": false,
      "metar_trigger": false,
      "taf_trigger": false,
      "metar": "METAR EGKK 132020Z 20005KT CAVOK 08/04 Q1015",
      "taf": "TAF EGKK 131654Z 1318/1424 VRB04KT 9999 SCT030"
    },
    {
      "icao": "EGNM",
      "alert": "OK",
      "vis_m": 9999,
      "fzfg": false,
      "metar_trigger": false,
      "taf_trigger": false,
      "metar": "METAR EGNM 132020Z 31006KT 9999 FEW030 SCT045 06/02 Q1013",
      "taf": ""
    },
    {
      "icao": "EGPD",
      "alert": "OK",
      "vis_m": 9999,
      "fzfg": false,
      "metar_trigger": false,
      "taf_trigger": false,
      "metar": "METAR EGPD 132020Z COR AUTO 16006KT 9999 NCD 05/03 Q1013 NOSIG",
      "taf": "TAF EGPD 131655Z 1318/1418 17010KT 9999 FEW040"
    },
    {
      "icao": "EGPF",
      "alert": "OK",
      "vis_m": 9999,
      "fzfg": false,
      "metar_trigger": false,
      "taf_trigger": false,
      "metar": "METAR EGPF 132020Z AUTO 18006KT 9999 NCD 06/04 Q1012",
      "taf": "TAF EGPF 131655Z 1318/1418 19004KT 9999 FEW020"
    },
    {
      "icao": "EHBK",
      "alert": "OK",
      "vis_m": 9999,
      "fzfg": false,
      "metar_trigger": false,
      "taf_trigger": false,
      "metar": "METAR EHBK 132025Z AUTO 07002KT 9999 NSC 08/06 Q1015 NOSIG",
      "taf": "TAF EHBK 131701Z 1318/1424 VRB02KT CAVOK"
    },
    {
      "icao": "EHEH",
      "alert": "OK",
      "vis_m": 9999,
      "fzfg": false,
      "metar_trigger": false,
      "taf_trigger": false,
      "metar": "METAR EHEH 132025Z AUTO VRB01KT 9999 SCT083 OVC089 07/06 Q1015 BLU BECMG VRB02KT RMK TREND REMOTE BY EHWX",
      "taf": "TAF EHEH 131739Z 1318/1424 10005KT FEW025 SCT048"
    },
    {
      "icao": "EKBI",
      "alert": "OK",
      "vis_m": 6000,
      "fzfg": false,
      "metar_trigger": false,
      "taf_trigger": false,
      "metar": "METAR EKBI 132020Z AUTO 09010KT 6000 -RA OVC014/// 06/05 Q1017",
      "taf": "TAF EKBI 132027Z 1321/1421 10012KT 9999 -RA BKN030"
    },
    {
      "icao": "EKCH",
      "alert": "OK",
      "vis_m": 9999,
      "fzfg": false,
      "metar_trigger": false,
      "taf_trigger": false,
      "metar": "METAR EKCH 132020Z AUTO 08014KT 9999 OVC082/// 07/01 Q1020 NOSIG",
      "taf": "TAF EKCH 132027Z 1321/1421 09014KT CAVOK"
    },
    {
      "icao": "ENAL",
      "alert": "OK",
      "vis_m": 9999,
      "fzfg": false,
      "metar_trigger": false,
      "taf_trigger": false,
      "metar": "METAR ENAL 132020Z 35003KT CAVOK 05/03 Q1021",
      "taf": "TAF ENAL 132000Z 1321/1406 36008KT 9999 SCT055"
    },
    {
      "icao": "ENBR",
      "alert": "OK",
      "vis_m": 9999,
      "fzfg": false,
      "metar_trigger": false,
      "taf_trigger": false,
      "metar": "METAR ENBR 132020Z 11005KT 9999 FEW050 08/01 Q1019 RMK WIND 1200FT 11017KT",
      "taf": ""
    },
    {
      "icao": "ENGM",
      "alert": "OK",
      "vis_m": 9999,
      "fzfg": false,
      "metar_trigger": false,
      "taf_trigger": false,
      "metar": "METAR ENGM 132020Z 12006KT CAVOK 08/M01 Q1025 NOSIG",
      "taf": "TAF ENGM 131700Z 1318/1418 06007KT CAVOK"
    },
    {
      "icao": "ENHD",
      "alert": "OK",
      "vis_m": 9999,
      "fzfg": false,
      "metar_trigger": false,
      "taf_trigger": false,
      "metar": "METAR ENHD 132020Z AUTO 12012KT 9999 NCD 09/02 Q1019",
      "taf": "TAF ENHD 131400Z 1315/1322 14012KT 9999 -SHRA FEW030 SCT040"
    },
    {
      "icao": "ENTC",
      "alert": "OK",
      "vis_m": 9999,
      "fzfg": false,
      "metar_trigger": false,
      "taf_trigger": false,
      "metar": "METAR ENTC 132020Z VRB01KT CAVOK 04/M04 Q1028 NOSIG RMK WIND 2600FT 19013KT",
      "taf": "TAF ENTC 131700Z 1318/1418 VRB03KT CAVOK"
    },
    {
      "icao": "ENTO",
      "alert": "OK",
      "vis_m": 9999,
      "fzfg": false,
      "metar_trigger": false,
      "taf_trigger": false,
      "metar": "METAR ENTO 132020Z 10007KT 060V140 CAVOK 09/M01 Q1023 NOSIG",
      "taf": "TAF ENTO 131700Z 1318/1418 04008KT CAVOK"
    },
    {
      "icao": "ENVA",
      "alert": "OK",
      "vis_m": 9999,
      "fzfg": false,
      "metar_trigger": false,
      "taf_trigger": false,
      "metar": "METAR ENVA 132020Z 12003KT 020V180 CAVOK 11/M00 Q1024 RMK WIND 670FT 16015G25KT",
      "taf": ""
    },
    {
      "icao": "ENZV",
      "alert": "OK",
      "vis_m": 9999,
      "fzfg": false,
      "metar_trigger": false,
      "taf_trigger": false,
      "metar": "METAR ENZV 132020Z 13013KT CAVOK 09/01 Q1019",
      "taf": "TAF ENZV 131700Z 1318/1418 14015KT 9999 SCT030"
    },
    {
      "icao": "EPGD",
      "alert": "OK",
      "vis_m": 9999,
      "fzfg": false,
      "metar_trigger": false,
      "taf_trigger": false,
      "metar": "METAR EPGD 132030Z 10012KT CAVOK 08/M02 Q1022",
      "taf": "TAF EPGD 131730Z 1318/1418 09010KT CAVOK"
    },
    {
      "icao": "EPKK",
      "alert": "OK",
      "vis_m": 9999,
      "fzfg": false,
      "metar_trigger": false,
      "taf_trigger": false,
      "metar": "METAR EPKK 132030Z 06010KT 9999 -RA NSC 10/M01 Q1017",
      "taf": "TAF EPKK 132030Z 1321/1421 07011KT CAVOK"
    },
    {
      "icao": "EPKT",
      "alert": "OK",
      "vis_m": 9999,
      "fzfg": false,
      "metar_trigger": false,
      "taf_trigger": false,
      "metar": "METAR EPKT 132030Z 10016KT CAVOK 10/M02 Q1017",
      "taf": "TAF EPKT 131730Z 1318/1418 10016KT CAVOK"
    },
    {
      "icao": "EPLB",
      "alert": "OK",
      "vis_m": 9999,
      "fzfg": false,
      "metar_trigger": false,
      "taf_trigger": false,
      "metar": "METAR EPLB 132030Z 10006KT CAVOK 06/M01 Q1023",
      "taf": "TAF EPLB 131730Z 1318/1418 10008KT CAVOK"
    },
    {
      "icao": "EPMO",
      "alert": "OK",
      "vis_m": 9999,
      "fzfg": false,
      "metar_trigger": false,
      "taf_trigger": false,
      "metar": "METAR EPMO 132030Z 09010KT CAVOK 08/M01 Q1022",
      "taf": "TAF EPMO 131730Z 1318/1418 10008KT CAVOK"
    },
    {
      "icao": "EPPO",
      "alert": "OK",
      "vis_m": 9999,
      "fzfg": false,
      "metar_trigger": false,
      "taf_trigger": false,
      "metar": "METAR EPPO 132030Z 10015KT CAVOK 11/M02 Q1017",
      "taf": "TAF EPPO 131730Z 1318/1418 10015KT CAVOK"
    },
    {
      "icao": "EPRA",
      "alert": "OK",
      "vis_m": 9999,
      "fzfg": false,
      "metar_trigger": false,
      "taf_trigger": false,
      "metar": "METAR EPRA 132030Z 10013KT CAVOK 09/M02 Q1021",
      "taf": "TAF EPRA 132030Z 1321/1406 11012KT CAVOK"
    },
    {
      "icao": "EPRZ",
      "alert": "OK",
      "vis_m": 9999,
      "fzfg": false,
      "metar_trigger": false,
      "taf_trigger": false,
      "metar": "METAR EPRZ 132030Z 09014KT CAVOK 09/M02 Q1020",
      "taf": "TAF EPRZ 131730Z 1318/1418 11014KT CAVOK"
    },
    {
      "icao": "EPSC",
      "alert": "OK",
      "vis_m": 9999,
      "fzfg": false,
      "metar_trigger": false,
      "taf_trigger": false,
      "metar": "METAR EPSC 132030Z 10012KT CAVOK 12/M02 Q1017",
      "taf": "TAF EPSC 131730Z 1318/1418 10016KT CAVOK"
    },
    {
      "icao": "EPSY",
      "alert": "OK",
      "vis_m": 9999,
      "fzfg": false,
      "metar_trigger": false,
      "taf_trigger": false,
      "metar": "METAR EPSY 132030Z 10005KT 060V140 CAVOK 07/M02 Q1024",
      "taf": "TAF EPSY 132030Z 1321/1406 11005KT CAVOK"
    },
    {
      "icao": "EPWA",
      "alert": "OK",
      "vis_m": 9999,
      "fzfg": false,
      "metar_trigger": false,
      "taf_trigger": false,
      "metar": "METAR EPWA 132030Z 11012KT CAVOK 09/M02 Q1022 NOSIG",
      "taf": "TAF EPWA 132030Z 1321/1421 11007KT CAVOK"
    },
    {
      "icao": "EPWR",
      "alert": "OK",
      "vis_m": 9999,
      "fzfg": false,
      "metar_trigger": false,
      "taf_trigger": false,
      "metar": "METAR EPWR 132030Z 11013KT CAVOK 11/M01 Q1015",
      "taf": "TAF EPWR 132030Z 1321/1421 13012KT CAVOK"
    },
    {
      "icao": "ESGG",
      "alert": "OK",
      "vis_m": 9999,
      "fzfg": false,
      "metar_trigger": false,
      "taf_trigger": false,
      "metar": "METAR ESGG 132020Z 11008KT 090V150 CAVOK 08/M01 Q1022",
      "taf": "TAF ESGG 132030Z 1321/1421 11009KT CAVOK"
    },
    {
      "icao": "ESKN",
      "alert": "OK",
      "vis_m": 9999,
      "fzfg": false,
      "metar_trigger": false,
      "taf_trigger": false,
      "metar": "METAR ESKN 132020Z 07005KT CAVOK 03/M00 Q1028",
      "taf": "TAF ESKN 132030Z 1321/1421 09005KT CAVOK"
    },
    {
      "icao": "ESMS",
      "alert": "OK",
      "vis_m": 9999,
      "fzfg": false,
      "metar_trigger": false,
      "taf_trigger": false,
      "metar": "METAR ESMS 132020Z 09015KT CAVOK 07/M00 Q1019",
      "taf": "TAF ESMS 132027Z 1321/1421 09014KT CAVOK"
    },
    {
      "icao": "ESSA",
      "alert": "OK",
      "vis_m": 9999,
      "fzfg": false,
      "metar_trigger": false,
      "taf_trigger": false,
      "metar": "METAR ESSA 132020Z 09005KT CAVOK 04/M01 Q1030 NOSIG",
      "taf": "TAF ESSA 132030Z 1321/1421 10005KT CAVOK"
    },
    {
      "icao": "EYKA",
      "alert": "OK",
      "vis_m": 9999,
      "fzfg": false,
      "metar_trigger": false,
      "taf_trigger": false,
      "metar": "METAR EYKA 132020Z 07007KT CAVOK 06/00 Q1028",
      "taf": "TAF EYKA 131700Z 1318/1418 VRB05KT 9000 SCT045"
    },
    {
      "icao": "EYPA",
      "alert": "OK",
      "vis_m": 9999,
      "fzfg": false,
      "metar_trigger": false,
      "taf_trigger": false,
      "metar": "METAR EYPA 132020Z 07005KT CAVOK 07/M01 Q1027",
      "taf": "TAF EYPA 131700Z 1318/1418 VRB05KT 9000 NSC"
    },
    {
      "icao": "EYVI",
      "alert": "OK",
      "vis_m": 9999,
      "fzfg": false,
      "metar_trigger": false,
      "taf_trigger": false,
      "metar": "METAR EYVI 132020Z 09004KT CAVOK 07/M00 Q1028 NOSIG",
      "taf": "TAF EYVI 131700Z 1318/1418 VRB05KT 9000 NSC"
    },
    {
      "icao": "GCFV",
      "alert": "OK",
      "vis_m": 9999,
      "fzfg": false,
      "metar_trigger": false,
      "taf_trigger": false,
      "metar": "METAR GCFV 132030Z 02022KT 9999 FEW027 17/11 Q1020",
      "taf": "TAF GCFV 132000Z 1321/1421 02020KT 9999 FEW025 TX23/1414Z TN16/1406Z"
    },
    {
      "icao": "GCLP",
      "alert": "OK",
      "vis_m": 9999,
      "fzfg": false,
      "metar_trigger": false,
      "taf_trigger": false,
      "metar": "METAR GCLP 132030Z 01021KT 9999 BKN035 18/11 Q1021 NOSIG",
      "taf": "TAF GCLP 132000Z 1321/1421 01024KT 9999 SCT035 TX22/1414Z TN15/1406Z"
    },
    {
      "icao": "GCTS",
      "alert": "OK",
      "vis_m": 9999,
      "fzfg": false,
      "metar_trigger": false,
      "taf_trigger": false,
      "metar": "METAR GCTS 132030Z 07020KT 9999 FEW030 17/10 Q1020 WS R07 NOSIG",
      "taf": "TAF GCTS 132000Z 1321/1421 07018KT 9999 FEW030 TX23/1414Z TN15/1406Z"
    },
    {
      "icao": "GMAD",
      "alert": "OK",
      "vis_m": 9999,
      "fzfg": false,
      "metar_trigger": false,
      "taf_trigger": false,
      "metar": "METAR GMAD 132030Z 18005KT 150V220 CAVOK 18/12 Q1014 NOSIG",
      "taf": "TAF GMAD 131100Z 1312/1418 28008KT 8000 NSC"
    },
    {
      "icao": "GMMN",
      "alert": "OK",
      "vis_m": 9999,
      "fzfg": false,
      "metar_trigger": false,
      "taf_trigger": false,
      "metar": "METAR GMMN 132030Z 04008KT CAVOK 12/08 Q1023 NOSIG",
      "taf": "TAF GMMN 131700Z 1318/1424 03011KT 9999 SCT030"
    },
    {
      "icao": "GMMX",
      "alert": "OK",
      "vis_m": 9999,
      "fzfg": false,
      "metar_trigger": false,
      "taf_trigger": false,
      "metar": "METAR GMMX 132030Z 05010KT 020V080 9999 SCT026 15/08 Q1020 NOSIG",
      "taf": "TAF GMMX 131700Z 1318/1424 06006KT 8000 NSC"
    },
    {
      "icao": "HEGN",
      "alert": "OK",
      "vis_m": 9999,
      "fzfg": false,
      "metar_trigger": false,
      "taf_trigger": false,
      "metar": "METAR HEGN 132000Z 30007KT CAVOK 22/05 Q1015 NOSIG",
      "taf": "TAF HEGN 131700Z 1318/1424 28012KT CAVOK"
    },
    {
      "icao": "HEMA",
      "alert": "OK",
      "vis_m": 9999,
      "fzfg": false,
      "metar_trigger": false,
      "taf_trigger": false,
      "metar": "METAR HEMA 132000Z 33004KT CAVOK 22/04 Q1014 NOSIG",
      "taf": "TAF HEMA 131700Z 1318/1424 29014KT CAVOK"
    },
    {
      "icao": "HESH",
      "alert": "OK",
      "vis_m": 9999,
      "fzfg": false,
      "metar_trigger": false,
      "taf_trigger": false,
      "metar": "METAR HESH 132000Z 32006KT CAVOK 23/09 Q1014 NOSIG",
      "taf": "TAF HESH 131700Z 1318/1424 35010KT CAVOK"
    },
    {
      "icao": "HESX",
      "alert": "OK",
      "vis_m": 9999,
      "fzfg": false,
      "metar_trigger": false,
      "taf_trigger": false,
      "metar": "METAR HESX 132000Z 03006KT CAVOK 17/12 Q1018 NOSIG",
      "taf": "TAF HESX 131700Z 1318/1424 01009KT CAVOK"
    },
    {
      "icao": "LATI",
      "alert": "OK",
      "vis_m": 9999,
      "fzfg": false,
      "metar_trigger": false,
      "taf_trigger": false,
      "metar": "METAR LATI 132020Z VRB01KT CAVOK 13/10 Q1012 NOSIG",
      "taf": "TAF LATI 131700Z 1318/1418 VRB05KT CAVOK TX27/1412Z TN11/1404Z"
    },
    {
      "icao": "LBPD",
      "alert": "OK",
      "vis_m": 9999,
      "fzfg": false,
      "metar_trigger": false,
      "taf_trigger": false,
      "metar": "METAR LBPD 132030Z AUTO 09007KT 9999 BKN220/// 09/04 Q1020",
      "taf": "TAF LBPD 131700Z 1318/1418 VRB04KT 9999 SCT060"
    },
    {
      "icao": "LBSF",
      "alert": "OK",
      "vis_m": 9999,
      "fzfg": false,
      "metar_trigger": false,
      "taf_trigger": false,
      "metar": "METAR LBSF 132030Z AUTO 11013KT 9999 FEW036/// 10/05 Q1019 NOSIG",
      "taf": "TAF LBSF 131700Z 1318/1418 10012KT 9999 SCT050"
    },
    {
      "icao": "LBWN",
      "alert": "OK",
      "vis_m": 9999,
      "fzfg": false,
      "metar_trigger": false,
      "taf_trigger": false,
      "metar": "METAR LBWN 132030Z AUTO 13007KT 9999 NSC 09/05 Q1023 NOSIG",
      "taf": "TAF LBWN 131700Z 1318/1418 12010KT 9999 SCT040"
    },
    {
      "icao": "LCLK",
      "alert": "OK",
      "vis_m": 9999,
      "fzfg": false,
      "metar_trigger": false,
      "taf_trigger": false,
      "metar": "METAR LCLK 132030Z 27005KT CAVOK 13/11 Q1021 NOSIG",
      "taf": "TAF LCLK 131730Z 1318/1418 31007KT 9999 FEW040"
    },
    {
      "icao": "LCPH",
      "alert": "OK",
      "vis_m": 9999,
      "fzfg": false,
      "metar_trigger": false,
      "taf_trigger": false,
      "metar": "METAR LCPH 132030Z 05006KT 010V080 CAVOK 14/10 Q1021 NOSIG",
      "taf": "TAF LCPH 131730Z 1318/1418 04008KT 9999 FEW025"
    },
    {
      "icao": "LEAL",
      "alert": "OK",
      "vis_m": 9999,
      "fzfg": false,
      "metar_trigger": false,
      "taf_trigger": false,
      "metar": "METAR LEAL 132030Z VRB02KT 9999 FEW030 14/08 Q1015 NOSIG",
      "taf": "TAF LEAL 131700Z 1318/1418 VRB04KT 9999 FEW030 TX22/1413Z TN10/1406Z"
    },
    {
      "icao": "LEBB",
      "alert": "OK",
      "vis_m": 9999,
      "fzfg": false,
      "metar_trigger": false,
      "taf_trigger": false,
      "metar": "METAR LEBB 132030Z 09004KT 050V130 9999 FEW035 10/07 Q1020 NOSIG",
      "taf": "TAF LEBB 131700Z 1318/1418 VRB03KT 9999 FEW030 SCT045 TX15/1414Z TN07/1400Z"
    },
    {
      "icao": "LEBL",
      "alert": "OK",
      "vis_m": 9999,
      "fzfg": false,
      "metar_trigger": false,
      "taf_trigger": false,
      "metar": "METAR LEBL 132030Z 13006KT 110V170 CAVOK 15/11 Q1013 NOSIG",
      "taf": ""
    },
    {
      "icao": "LECH",
      "alert": "OK",
      "vis_m": 9999,
      "fzfg": false,
      "metar_trigger": false,
      "taf_trigger": false,
      "metar": "METAR LECH 132030Z AUTO 32008KT 270V360 CAVOK 12/M01 Q1014",
      "taf": "TAF LECH 131700Z 1318/1418 33013KT 9999 FEW030 TX23/1414Z TN07/1406Z"
    },
    {
      "icao": "LEMD",
      "alert": "OK",
      "vis_m": 9999,
      "fzfg": false,
      "metar_trigger": false,
      "taf_trigger": false,
      "metar": "METAR LEMD 132030Z VRB01KT 9999 FEW075 09/M02 Q1018 NOSIG",
      "taf": "TAF LEMD 131700Z 1318/1424 VRB03KT CAVOK TX21/1416Z TN04/1406Z"
    },
    {
      "icao": "LEMG",
      "alert": "OK",
      "vis_m": 9999,
      "fzfg": false,
      "metar_trigger": false,
      "taf_trigger": false,
      "metar": "METAR LEMG 132030Z 30011KT 9999 FEW080 16/04 Q1019 NOSIG",
      "taf": "TAF LEMG 131700Z 1318/1418 31012KT CAVOK TX23/1414Z TN13/1407Z"
    },
    {
      "icao": "LEVC",
      "alert": "OK",
      "vis_m": 9999,
      "fzfg": false,
      "metar_trigger": false,
      "taf_trigger": false,
      "metar": "METAR LEVC 132030Z 34013KT CAVOK 17/M00 Q1015 NOSIG",
      "taf": "TAF LEVC 131700Z 1318/1418 10007KT 9999 FEW030 TX23/1413Z TN08/1406Z"
    },
    {
      "icao": "LEXJ",
      "alert": "OK",
      "vis_m": 9999,
      "fzfg": false,
      "metar_trigger": false,
      "taf_trigger": false,
      "metar": "METAR LEXJ 132030Z 12003KT CAVOK 11/07 Q1019",
      "taf": "TAF LEXJ 132000Z 1321/1421 20009KT 9999 SCT040 TX18/1412Z TN09/1321Z"
    },
    {
      "icao": "LEZG",
      "alert": "OK",
      "vis_m": 9999,
      "fzfg": false,
      "metar_trigger": false,
      "taf_trigger": false,
      "metar": "METAR LEZG 132030Z 29016KT CAVOK 11/03 Q1017 NOSIG",
      "taf": "TAF LEZG 131700Z 1318/1418 31018KT 9999 FEW040 TX22/1413Z TN07/1406Z"
    },
    {
      "icao": "LEZL",
      "alert": "OK",
      "vis_m": 9999,
      "fzfg": false,
      "metar_trigger": false,
      "taf_trigger": false,
      "metar": "METAR LEZL 132030Z 29007KT CAVOK 16/08 Q1021 NOSIG",
      "taf": "TAF LEZL 132000Z 1321/1421 26005KT CAVOK TX25/1415Z TN10/1407Z"
    },
    {
      "icao": "LFBD",
      "alert": "OK",
      "vis_m": 9999,
      "fzfg": false,
      "metar_trigger": false,
      "taf_trigger": false,
      "metar": "METAR LFBD 132030Z AUTO VRB03KT CAVOK 09/05 Q1019 NOSIG",
      "taf": "TAF LFBD 131700Z 1318/1424 30010KT CAVOK TX19/1414Z TN03/1406Z"
    },
    {
      "icao": "LFLL",
      "alert": "OK",
      "vis_m": 9999,
      "fzfg": false,
      "metar_trigger": false,
      "taf_trigger": false,
      "metar": "METAR LFLL 132030Z 35005KT 9999 -RA FEW016 BKN050 07/07 Q1016 NOSIG",
      "taf": "TAF LFLL 131700Z 1318/1424 34006KT 9999 -RA FEW015 BKN025"
    },
    {
      "icao": "LFLS",
      "alert": "OK",
      "vis_m": 9999,
      "fzfg": false,
      "metar_trigger": false,
      "taf_trigger": false,
      "metar": "METAR LFLS 132030Z AUTO 36007KT 310V040 9999 -RA FEW014 BKN022 BKN029 07/05 Q1015",
      "taf": "TAF LFLS 131400Z 1315/1415 35007KT 9999 -RA SCT013 OVC020"
    },
    {
      "icao": "LFMN",
      "alert": "OK",
      "vis_m": 9999,
      "fzfg": false,
      "metar_trigger": false,
      "taf_trigger": false,
      "metar": "METAR LFMN 132030Z VRB03KT 9999 FEW070 SCT110 17/11 Q1005 NOSIG",
      "taf": "TAF LFMN 132000Z 1321/1503 VRB05KT 9999 BKN100"
    },
    {
      "icao": "LFOB",
      "alert": "OK",
      "vis_m": 9999,
      "fzfg": false,
      "metar_trigger": false,
      "taf_trigger": false,
      "metar": "METAR LFOB 132030Z AUTO 30003KT CAVOK 06/06 Q1016 BECMG 3000 BR",
      "taf": "TAF LFOB 131700Z 1318/1418 33007KT CAVOK"
    },
    {
      "icao": "LFPO",
      "alert": "OK",
      "vis_m": 9999,
      "fzfg": false,
      "metar_trigger": false,
      "taf_trigger": false,
      "metar": "METAR LFPO 132030Z 33004KT CAVOK 08/06 Q1016 NOSIG",
      "taf": "TAF LFPO 131700Z 1318/1424 32005KT 9999 SCT040"
    },
    {
      "icao": "LFSB",
      "alert": "OK",
      "vis_m": 9999,
      "fzfg": false,
      "metar_trigger": false,
      "taf_trigger": false,
      "metar": "METAR LFSB 132030Z AUTO 26010KT 9999 -RA OVC022 08/06 Q1014 TEMPO 4000 -DZ BR BKN007",
      "taf": "TAF LFSB 131700Z 1318/1418 25007KT 9999 SCT015 BKN025"
    },
    {
      "icao": "LGAV",
      "alert": "OK",
      "vis_m": 9999,
      "fzfg": false,
      "metar_trigger": false,
      "taf_trigger": false,
      "metar": "METAR LGAV 132020Z 29003KT 9999 FEW025 11/09 Q1020 NOSIG",
      "taf": "TAF LGAV 131700Z 1318/1418 VRB05KT 9999 FEW020 SCT070"
    },
    {
      "icao": "LGTS",
      "alert": "OK",
      "vis_m": 9999,
      "fzfg": false,
      "metar_trigger": false,
      "taf_trigger": false,
      "metar": "METAR LGTS 132020Z VRB02KT 9999 SCT025 13/07 Q1020 NOSIG",
      "taf": "TAF LGTS 131700Z 1318/1418 12010KT 9999 FEW025"
    },
    {
      "icao": "LHBP",
      "alert": "OK",
      "vis_m": 9999,
      "fzfg": false,
      "metar_trigger": false,
      "taf_trigger": false,
      "metar": "METAR LHBP 132030Z 08009KT CAVOK 13/M02 Q1015 NOSIG",
      "taf": "TAF LHBP 131715Z 1318/1418 08011KT CAVOK"
    },
    {
      "icao": "LHDC",
      "alert": "OK",
      "vis_m": 9999,
      "fzfg": false,
      "metar_trigger": false,
      "taf_trigger": false,
      "metar": "METAR LHDC 132015Z AUTO 06009KT CAVOK 11/M00 Q1016",
      "taf": "TAF LHDC 131415Z 1315/1324 08012KT CAVOK"
    },
    {
      "icao": "LIBD",
      "alert": "OK",
      "vis_m": 9999,
      "fzfg": false,
      "metar_trigger": false,
      "taf_trigger": false,
      "metar": "METAR LIBD 132020Z 18012KT 9999 SCT035 17/14 Q1007",
      "taf": "TAF LIBD 131700Z 1318/1418 16016G26KT 9999 BKN030"
    },
    {
      "icao": "LIBG",
      "alert": "OK",
      "vis_m": null,
      "fzfg": false,
      "metar_trigger": false,
      "taf_trigger": false,
      "metar": "",
      "taf": "TAF LIBG 131400Z 1315/1324 16020G30KT 9999 BKN015"
    },
    {
      "icao": "LIBP",
      "alert": "OK",
      "vis_m": 9000,
      "fzfg": false,
      "metar_trigger": false,
      "taf_trigger": false,
      "metar": "METAR LIBP 132020Z AUTO 26003KT 9000 NCD 15/14 Q1004",
      "taf": "TAF LIBP 131700Z 1318/1418 VRB05KT 9999 BKN040"
    },
    {
      "icao": "LIBR",
      "alert": "OK",
      "vis_m": 6000,
      "fzfg": false,
      "metar_trigger": false,
      "taf_trigger": false,
      "metar": "METAR LIBR 132020Z 18012KT 6000 BKN020 17/14 Q1010",
      "taf": "TAF LIBR 131700Z 1318/1418 16020G30KT 9999 FEW030"
    },
    {
      "icao": "LICA",
      "alert": "OK",
      "vis_m": 9999,
      "fzfg": false,
      "metar_trigger": false,
      "taf_trigger": false,
      "metar": "METAR LICA 132020Z AUTO 06014KT 9999 NCD 17/15 Q1008",
      "taf": "TAF LICA 131700Z 1318/1418 08016KT 9999 FEW040"
    },
    {
      "icao": "LICC",
      "alert": "OK",
      "vis_m": 8000,
      "fzfg": false,
      "metar_trigger": false,
      "taf_trigger": false,
      "metar": "METAR LICC 132020Z 06007KT 8000 FEW030 18/14 Q1008",
      "taf": "TAF LICC 131700Z 1318/1418 07013KT 7000 FEW020"
    },
    {
      "icao": "LICJ",
      "alert": "OK",
      "vis_m": 9999,
      "fzfg": false,
      "metar_trigger": false,
      "taf_trigger": false,
      "metar": "METAR LICJ 132020Z 20011KT 9999 FEW050 17/12 Q1007",
      "taf": "TAF LICJ 131700Z 1318/1418 23014KT 7000 FEW040"
    },
    {
      "icao": "LIMC",
      "alert": "OK",
      "vis_m": 9999,
      "fzfg": false,
      "metar_trigger": false,
      "taf_trigger": false,
      "metar": "METAR LIMC 132020Z 35004KT 300V040 9999 BKN040 13/10 Q1008 NOSIG",
      "taf": "TAF LIMC 131700Z 1318/1424 35010KT 9999 BKN040"
    },
    {
      "icao": "LIME",
      "alert": "OK",
      "vis_m": 9999,
      "fzfg": false,
      "metar_trigger": false,
      "taf_trigger": false,
      "metar": "METAR LIME 132020Z 36005KT 9999 -RA BKN060 15/11 Q1008 NOSIG",
      "taf": "TAF LIME 131700Z 1318/1418 VRB05KT 8000 BKN040"
    },
    {
      "icao": "LIMF",
      "alert": "OK",
      "vis_m": 9999,
      "fzfg": false,
      "metar_trigger": false,
      "taf_trigger": false,
      "metar": "METAR LIMF 132020Z 31011KT 9999 -RA OVC050 12/08 Q1009",
      "taf": "TAF LIMF 131700Z 1318/1418 36010KT 8000 BKN030"
    },
    {
      "icao": "LIMJ",
      "alert": "OK",
      "vis_m": 9999,
      "fzfg": false,
      "metar_trigger": false,
      "taf_trigger": false,
      "metar": "METAR LIMJ 131950Z 03007KT 9999 BKN060 17/11 Q1005",
      "taf": "TAF LIMJ 131700Z 1318/1418 05013KT 9999 SCT060"
    },
    {
      "icao": "LIPE",
      "alert": "OK",
      "vis_m": 4000,
      "fzfg": false,
      "metar_trigger": false,
      "taf_trigger": false,
      "metar": "METAR LIPE 132020Z 07004KT 4000 -RA BR BKN005 BKN030 15/15 Q1006",
      "taf": "TAF LIPE 131700Z 1318/1418 07008KT 6000 RA BKN014"
    },
    {
      "icao": "LIPH",
      "alert": "OK",
      "vis_m": 9999,
      "fzfg": false,
      "metar_trigger": false,
      "taf_trigger": false,
      "metar": "METAR LIPH 132020Z 03006KT 9999 -RA BKN040 14/14 Q1009",
      "taf": "TAF LIPH 131700Z 1318/1418 04010KT 6000 RA SCT060"
    },
    {
      "icao": "LIPQ",
      "alert": "OK",
      "vis_m": 9999,
      "fzfg": false,
      "metar_trigger": false,
      "taf_trigger": false,
      "metar": "METAR LIPQ 132020Z AUTO 09010KT 9999 SCT058/// BKN081/// BKN170/// 18/04 Q1009",
      "taf": "TAF LIPQ 131700Z 1318/1418 08008KT 9999 SCT060"
    },
    {
      "icao": "LIPR",
      "alert": "OK",
      "vis_m": 3000,
      "fzfg": false,
      "metar_trigger": false,
      "taf_trigger": false,
      "metar": "METAR LIPR 132020Z 06004KT 020V100 3000 -RA BR SCT010 BKN050 14/13 Q1006",
      "taf": "TAF LIPR 131700Z 1318/1418 10010KT 8000 BKN030"
    },
    {
      "icao": "LIPX",
      "alert": "OK",
      "vis_m": 9999,
      "fzfg": false,
      "metar_trigger": false,
      "taf_trigger": false,
      "metar": "METAR LIPX 132020Z 06011KT 9999 BKN035 16/10 Q1007",
      "taf": "TAF LIPX 131700Z 1318/1418 08014KT 9999 BKN040"
    },
    {
      "icao": "LIPY",
      "alert": "OK",
      "vis_m": 7000,
      "fzfg": false,
      "metar_trigger": false,
      "taf_trigger": false,
      "metar": "METAR LIPY 132020Z AUTO 05005KT 7000 BKN011/// OVC038/// 15/14 Q1005 RETSRA",
      "taf": "TAF LIPY 131700Z 1318/1418 13008KT 8000 BKN015"
    },
    {
      "icao": "LIPZ",
      "alert": "OK",
      "vis_m": 9999,
      "fzfg": false,
      "metar_trigger": false,
      "taf_trigger": false,
      "metar": "METAR LIPZ 132020Z 05009KT 9999 -RA BKN035 14/12 Q1008 NOSIG",
      "taf": "TAF LIPZ 131700Z 1318/1424 05010KT 9999 BKN050"
    },
    {
      "icao": "LIRF",
      "alert": "OK",
      "vis_m": 9999,
      "fzfg": false,
      "metar_trigger": false,
      "taf_trigger": false,
      "metar": "METAR LIRF 132020Z 14010KT 120V180 9999 SCT015 SCT035 17/14 Q1004 NOSIG",
      "taf": "TAF LIRF 131700Z 1318/1424 15013KT 8000 SCT030"
    },
    {
      "icao": "LIRN",
      "alert": "OK",
      "vis_m": 8000,
      "fzfg": false,
      "metar_trigger": false,
      "taf_trigger": false,
      "metar": "METAR LIRN 132020Z VRB03KT 8000 SCT045 17/12 Q1006 NOSIG",
      "taf": "TAF LIRN 131700Z 1318/1418 17010KT 9999 SCT040"
    },
    {
      "icao": "LIRP",
      "alert": "OK",
      "vis_m": 9999,
      "fzfg": false,
      "metar_trigger": false,
      "taf_trigger": false,
      "metar": "METAR LIRP 131945Z COR 15003KT 9999 -RA BKN070 14/14 Q1003 NOSIG",
      "taf": "TAF LIRP 131700Z 1318/1418 10010KT 9999 RA SCT030 BKN050"
    },
    {
      "icao": "LIRZ",
      "alert": "OK",
      "vis_m": 9999,
      "fzfg": false,
      "metar_trigger": false,
      "taf_trigger": false,
      "metar": "METAR LIRZ 132020Z AUTO 35005KT 9999 BKN056/// 14/13 Q1005",
      "taf": "TAF LIRZ 131700Z 1318/1418 02011KT 9999 SCT040"
    },
    {
      "icao": "LJLJ",
      "alert": "OK",
      "vis_m": 9999,
      "fzfg": false,
      "metar_trigger": false,
      "taf_trigger": false,
      "metar": "METAR LJLJ 132030Z 33002KT 9999 BKN050 13/05 Q1012 NOSIG",
      "taf": "TAF LJLJ 131700Z 1318/1418 14010KT 9999 FEW070"
    },
    {
      "icao": "LKMT",
      "alert": "OK",
      "vis_m": 9999,
      "fzfg": false,
      "metar_trigger": false,
      "taf_trigger": false,
      "metar": "METAR LKMT 132030Z VRB01KT CAVOK 10/02 Q1015 NOSIG",
      "taf": "TAF LKMT 131700Z 1318/1418 05010KT CAVOK"
    },
    {
      "icao": "LKPR",
      "alert": "OK",
      "vis_m": 9999,
      "fzfg": false,
      "metar_trigger": false,
      "taf_trigger": false,
      "metar": "METAR LKPR 132030Z 09006KT 050V110 CAVOK 10/M00 Q1011 NOSIG",
      "taf": "TAF LKPR 132000Z 1321/1503 12008KT CAVOK"
    },
    {
      "icao": "LLBG",
      "alert": "OK",
      "vis_m": 9999,
      "fzfg": false,
      "metar_trigger": false,
      "taf_trigger": false,
      "metar": "METAR LLBG 132020Z VRB03KT CAVOK 16/10 Q1019 NOSIG",
      "taf": "TAF LLBG 131703Z 1318/1418 02007KT CAVOK TX30/1412Z TN10/1403Z"
    },
    {
      "icao": "LMML",
      "alert": "OK",
      "vis_m": 9000,
      "fzfg": false,
      "metar_trigger": false,
      "taf_trigger": false,
      "metar": "METAR LMML 132015Z 29004KT 230V350 9000 NSC 16/14 Q1007 NOSIG",
      "taf": "TAF LMML 131700Z 1318/1418 VRB05KT 7000 NSC"
    },
    {
      "icao": "LOWW",
      "alert": "OK",
      "vis_m": 9999,
      "fzfg": false,
      "metar_trigger": false,
      "taf_trigger": false,
      "metar": "METAR LOWW 132020Z 13006KT CAVOK 11/03 Q1014 NOSIG",
      "taf": "TAF LOWW 132015Z 1321/1503 13007KT CAVOK TX17/1413Z TN09/1404Z"
    },
    {
      "icao": "LPFR",
      "alert": "OK",
      "vis_m": 9999,
      "fzfg": false,
      "metar_trigger": false,
      "taf_trigger": false,
      "metar": "METAR LPFR 132030Z 31011KT CAVOK 15/08 Q1023",
      "taf": "TAF LPFR 131700Z 1318/1418 32015KT 9999 SCT030"
    },
    {
      "icao": "LPMA",
      "alert": "OK",
      "vis_m": 9999,
      "fzfg": false,
      "metar_trigger": false,
      "taf_trigger": false,
      "metar": "METAR LPMA 132030Z 02008KT 340V040 9999 SCT016 15/08 Q1026",
      "taf": "TAF LPMA 131700Z 1318/1418 02012KT 9999 SCT015"
    },
    {
      "icao": "LPPR",
      "alert": "OK",
      "vis_m": 5000,
      "fzfg": false,
      "metar_trigger": false,
      "taf_trigger": false,
      "metar": "METAR LPPR 132030Z 18008KT 5000 -DZRA BR OVC004 12/11 Q1021",
      "taf": "TAF LPPR 131700Z 1318/1418 21008KT 9999 SCT008 BKN016"
    },
    {
      "icao": "LPPS",
      "alert": "OK",
      "vis_m": 9999,
      "fzfg": false,
      "metar_trigger": false,
      "taf_trigger": false,
      "metar": "METAR LPPS 132030Z 02007KT 9999 FEW015 15/08 Q1026",
      "taf": "TAF LPPS 131700Z 1318/1424 04010KT 9999 SCT015"
    },
    {
      "icao": "LPPT",
      "alert": "OK",
      "vis_m": 9999,
      "fzfg": false,
      "metar_trigger": false,
      "taf_trigger": false,
      "metar": "METAR LPPT 132030Z 27006KT 240V320 9999 BKN014 13/10 Q1023",
      "taf": "TAF LPPT 131700Z 1318/1424 31010KT 9999 SCT030"
    },
    {
      "icao": "LQBK",
      "alert": "OK",
      "vis_m": 9999,
      "fzfg": false,
      "metar_trigger": false,
      "taf_trigger": false,
      "metar": "METAR LQBK 132030Z VRB02KT CAVOK 13/07 Q1010 NOSIG",
      "taf": "TAF LQBK 131700Z 1318/1418 08007KT CAVOK TX18/1413Z TN09/1404Z"
    },
    {
      "icao": "LQSA",
      "alert": "OK",
      "vis_m": 9999,
      "fzfg": false,
      "metar_trigger": false,
      "taf_trigger": false,
      "metar": "METAR LQSA 132030Z 16004KT 120V200 CAVOK 16/02 Q1011 NOSIG",
      "taf": ""
    },
    {
      "icao": "LQTZ",
      "alert": "OK",
      "vis_m": 9999,
      "fzfg": false,
      "metar_trigger": false,
      "taf_trigger": false,
      "metar": "METAR LQTZ 132030Z 00000KT CAVOK 12/10 Q1010",
      "taf": "TAF LQTZ 131700Z 1318/1418 15005KT CAVOK TX22/1413Z TN08/1404Z"
    },
    {
      "icao": "LRBC",
      "alert": "OK",
      "vis_m": 9999,
      "fzfg": false,
      "metar_trigger": false,
      "taf_trigger": false,
      "metar": "METAR LRBC 132030Z 18001KT CAVOK 07/03 Q1024",
      "taf": "TAF LRBC 132000Z 1321/1406 VRB04KT CAVOK"
    },
    {
      "icao": "LRBS",
      "alert": "OK",
      "vis_m": 9999,
      "fzfg": false,
      "metar_trigger": false,
      "taf_trigger": false,
      "metar": "METAR LRBS 132030Z 10011KT CAVOK 11/02 Q1022 NOSIG",
      "taf": "TAF LRBS 131700Z 1318/1418 08010KT CAVOK"
    },
    {
      "icao": "LRBV",
      "alert": "OK",
      "vis_m": 9999,
      "fzfg": false,
      "metar_trigger": false,
      "taf_trigger": false,
      "metar": "METAR LRBV 132030Z AUTO 08008KT 9999 BKN053/// BKN079/// 09/02 Q1020",
      "taf": "TAF LRBV 131700Z 1318/1403 09006KT 9999 SCT055"
    },
    {
      "icao": "LRCL",
      "alert": "OK",
      "vis_m": 9999,
      "fzfg": false,
      "metar_trigger": false,
      "taf_trigger": false,
      "metar": "METAR LRCL 132030Z 12012KT 080V140 CAVOK 11/02 Q1018",
      "taf": "TAF LRCL 132000Z 1321/1406 12009KT CAVOK"
    },
    {
      "icao": "LRCV",
      "alert": "OK",
      "vis_m": 9999,
      "fzfg": false,
      "metar_trigger": false,
      "taf_trigger": false,
      "metar": "METAR LRCV 132030Z 08014KT CAVOK 11/05 Q1020",
      "taf": "TAF LRCV 132000Z 1321/1406 08017KT CAVOK"
    },
    {
      "icao": "LRIA",
      "alert": "OK",
      "vis_m": 9999,
      "fzfg": false,
      "metar_trigger": false,
      "taf_trigger": false,
      "metar": "METAR LRIA 132030Z COR 09004KT CAVOK 07/01 Q1025",
      "taf": "TAF LRIA 132000Z 1321/1406 VRB04KT CAVOK"
    },
    {
      "icao": "LROP",
      "alert": "OK",
      "vis_m": 9999,
      "fzfg": false,
      "metar_trigger": false,
      "taf_trigger": false,
      "metar": "METAR LROP 132030Z 10011KT CAVOK 11/M01 Q1022 NOSIG",
      "taf": "TAF LROP 131700Z 1318/1418 08010KT CAVOK"
    },
    {
      "icao": "LRSB",
      "alert": "OK",
      "vis_m": 9999,
      "fzfg": false,
      "metar_trigger": false,
      "taf_trigger": false,
      "metar": "METAR LRSB 132030Z 13014KT CAVOK 11/03 Q1017",
      "taf": "TAF LRSB 131700Z 1318/1418 15014KT CAVOK"
    },
    {
      "icao": "LRSM",
      "alert": "OK",
      "vis_m": 9999,
      "fzfg": false,
      "metar_trigger": false,
      "taf_trigger": false,
      "metar": "METAR LRSM 132030Z AUTO 09007KT 9999 BKN140/// 11/01 Q1017",
      "taf": "TAF LRSM 131400Z 1315/1324 13008KT CAVOK"
    },
    {
      "icao": "LRSV",
      "alert": "OK",
      "vis_m": 9999,
      "fzfg": false,
      "metar_trigger": false,
      "taf_trigger": false,
      "metar": "METAR LRSV 132030Z 13007KT CAVOK 05/00 Q1023",
      "taf": "TAF LRSV 132000Z 1321/1406 14008KT CAVOK"
    },
    {
      "icao": "LRTM",
      "alert": "OK",
      "vis_m": 9999,
      "fzfg": false,
      "metar_trigger": false,
      "taf_trigger": false,
      "metar": "METAR LRTM 132030Z 10011KT CAVOK 11/02 Q1019",
      "taf": "TAF LRTM 132000Z 1321/1406 11009KT CAVOK"
    },
    {
      "icao": "LRTR",
      "alert": "OK",
      "vis_m": 9999,
      "fzfg": false,
      "metar_trigger": false,
      "taf_trigger": false,
      "metar": "METAR LRTR 132030Z 10008KT CAVOK 12/03 Q1014 NOSIG",
      "taf": "TAF LRTR 131700Z 1318/1418 09010KT CAVOK"
    },
    {
      "icao": "LTAC",
      "alert": "OK",
      "vis_m": 9999,
      "fzfg": false,
      "metar_trigger": false,
      "taf_trigger": false,
      "metar": "METAR LTAC 132020Z 02003KT CAVOK 05/M02 Q1020 NOSIG RMK RWY21C 01004KT 340V040 RWY03L 01002KT RWY21R 01004KT RWY03R 06003KT 030V100 RWY21L 01003KT",
      "taf": "TAF LTAC 131640Z 1318/1418 VRB02KT CAVOK"
    },
    {
      "icao": "LTFM",
      "alert": "OK",
      "vis_m": 9999,
      "fzfg": false,
      "metar_trigger": false,
      "taf_trigger": false,
      "metar": "METAR LTFM 132020Z 10010KT CAVOK 09/05 Q1022 NOSIG RMK RWY17L 10010KT RWY34L 09011KT RWY16R 10009KT RWY36 10011KT RWY18 11012KT",
      "taf": "TAF LTFM 131640Z 1318/1424 11008KT CAVOK"
    },
    {
      "icao": "LUKK",
      "alert": "OK",
      "vis_m": 9999,
      "fzfg": false,
      "metar_trigger": false,
      "taf_trigger": false,
      "metar": "METAR LUKK 132030Z VRB03KT CAVOK 04/02 Q1025 NOSIG",
      "taf": "TAF LUKK 131703Z 1318/1418 VRB05KT CAVOK"
    },
    {
      "icao": "LWOH",
      "alert": "OK",
      "vis_m": null,
      "fzfg": false,
      "metar_trigger": false,
      "taf_trigger": false,
      "metar": "",
      "taf": "TAF LWOH 131710Z 1318/1418 18006KT 9999 FEW040 SCT090"
    },
    {
      "icao": "LWSK",
      "alert": "OK",
      "vis_m": 9999,
      "fzfg": false,
      "metar_trigger": false,
      "taf_trigger": false,
      "metar": "METAR LWSK 132020Z VRB02KT 9999 FEW100 12/07 Q1017 NOSIG",
      "taf": "TAF LWSK 131710Z 1318/1418 14008KT 9999 FEW050 SCT100"
    },
    {
      "icao": "LYBE",
      "alert": "OK",
      "vis_m": 9999,
      "fzfg": false,
      "metar_trigger": false,
      "taf_trigger": false,
      "metar": "METAR LYBE 132030Z 12023KT CAVOK 15/04 Q1012 NOSIG",
      "taf": "TAF LYBE 131700Z 1318/1418 11018KT CAVOK TX16/1413Z TN10/1404Z"
    },
    {
      "icao": "LYNI",
      "alert": "OK",
      "vis_m": 9999,
      "fzfg": false,
      "metar_trigger": false,
      "taf_trigger": false,
      "metar": "METAR LYNI 132030Z 09010KT CAVOK 15/06 Q1015 NOSIG",
      "taf": "TAF LYNI 131700Z 1318/1418 11007KT CAVOK TX19/1413Z TN09/1404Z"
    },
    {
      "icao": "LYPG",
      "alert": "OK",
      "vis_m": 9999,
      "fzfg": false,
      "metar_trigger": false,
      "taf_trigger": false,
      "metar": "METAR LYPG 132030Z 33005KT 300V360 CAVOK 17/08 Q1012 NOSIG",
      "taf": "TAF LYPG 131700Z 1318/1418 16010KT 9999 SCT080 TX23/1413Z TN12/1404Z"
    },
    {
      "icao": "LZIB",
      "alert": "OK",
      "vis_m": 9999,
      "fzfg": false,
      "metar_trigger": false,
      "taf_trigger": false,
      "metar": "METAR LZIB 132030Z 09007KT CAVOK 12/01 Q1015 NOSIG",
      "taf": "TAF LZIB 131715Z 1318/1418 11011KT CAVOK"
    },
    {
      "icao": "LZKZ",
      "alert": "OK",
      "vis_m": 9999,
      "fzfg": false,
      "metar_trigger": false,
      "taf_trigger": false,
      "metar": "METAR LZKZ 132030Z 35007KT CAVOK 11/M02 Q1018 NOSIG",
      "taf": "TAF LZKZ 131715Z 1318/1418 04006KT CAVOK"
    },
    {
      "icao": "LZTT",
      "alert": "OK",
      "vis_m": 9999,
      "fzfg": false,
      "metar_trigger": false,
      "taf_trigger": false,
      "metar": "METAR LZTT 132030Z 31003KT CAVOK 06/M03 Q1018",
      "taf": "TAF LZTT 131715Z 1318/1418 10007KT CAVOK"
    },
    {
      "icao": "OEJN",
      "alert": "OK",
      "vis_m": 9999,
      "fzfg": false,
      "metar_trigger": false,
      "taf_trigger": false,
      "metar": "METAR OEJN 132000Z 33007KT 9999 FEW040 26/18 Q1012 NOSIG",
      "taf": "TAF OEJN 131700Z 1318/1424 36008KT CAVOK"
    },
    {
      "icao": "OEMA",
      "alert": "OK",
      "vis_m": 9999,
      "fzfg": false,
      "metar_trigger": false,
      "taf_trigger": false,
      "metar": "METAR OEMA 132000Z 36004KT CAVOK 26/M11 Q1015 NOSIG",
      "taf": "TAF OEMA 131700Z 1318/1424 VRB03KT CAVOK"
    },
    {
      "icao": "OJAI",
      "alert": "OK",
      "vis_m": 5000,
      "fzfg": false,
      "metar_trigger": false,
      "taf_trigger": false,
      "metar": "METAR OJAI 132000Z 36004KT 5000 HZ NSC 11/07 Q1021 NOSIG",
      "taf": "TAF OJAI 131649Z 1318/1424 VRB02KT 5000 HZ NSC"
    },
    {
      "icao": "OMAA",
      "alert": "OK",
      "vis_m": null,
      "fzfg": false,
      "metar_trigger": false,
      "taf_trigger": false,
      "metar": "",
      "taf": ""
    },
    {
      "icao": "OMDB",
      "alert": "OK",
      "vis_m": null,
      "fzfg": false,
      "metar_trigger": false,
      "taf_trigger": false,
      "metar": "",
      "taf": ""
    },
    {
      "icao": "UAAA",
      "alert": "OK",
      "vis_m": 9999,
      "fzfg": false,
      "metar_trigger": false,
      "taf_trigger": false,
      "metar": "METAR UAAA 132030Z 22001MPS 9999 NSC 08/02 Q1018 NOSIG",
      "taf": "TAF UAAA 131700Z 1318/1418 22002MPS 9999 FEW050CB SCT100 TX22/1409Z TN06/1401Z"
    },
    {
      "icao": "UBBB",
      "alert": "OK",
      "vis_m": 9999,
      "fzfg": false,
      "metar_trigger": false,
      "taf_trigger": false,
      "metar": "METAR UBBB 132030Z 34010KT 9999 FEW045CB BKN045 10/08 Q1017 NOSIG",
      "taf": "TAF UBBB 131703Z 1318/1418 33010KT 9999 SCT012 FEW040CB BKN040 TX14/1410Z TN09/1401Z"
    },
    {
      "icao": "UDSG",
      "alert": "OK",
      "vis_m": 9999,
      "fzfg": false,
      "metar_trigger": false,
      "taf_trigger": false,
      "metar": "METAR UDSG 132030Z 36013KT 9999 SCT040CB BKN049 M00/M06 Q1018 NOSIG",
      "taf": "TAF UDSG 131658Z 1318/1418 36006KT 9999 SCT050"
    },
    {
      "icao": "UDYZ",
      "alert": "OK",
      "vis_m": 9999,
      "fzfg": false,
      "metar_trigger": false,
      "taf_trigger": false,
      "metar": "METAR UDYZ 132030Z 08006KT 9999 SCT043CB 05/01 Q1017 NOSIG",
      "taf": "TAF UDYZ 131700Z 1318/1418 03006KT 9999 BKN040"
    },
    {
      "icao": "UGKO",
      "alert": "OK",
      "vis_m": 9999,
      "fzfg": false,
      "metar_trigger": false,
      "taf_trigger": false,
      "metar": "METAR UGKO 132030Z 23007KT 9999 BKN022CB OVC055 07/05 Q1023 NOSIG",
      "taf": "TAF UGKO 131700Z 1318/1418 25007KT 9999 SCT023 OVC045 TX13/1411Z TN05/1403Z"
    }
  ]
}