{
  "ts_utc": "2026-03-15T10:56:29Z",
  "threshold_m": 150,
  "source": "stations_override.txt (ICAO list) + aviationweather.gov (METAR/TAF raw)",
  "station_count": 159,
  "stations": [
    {
      "icao": "BIKF",
      "alert": "OK",
      "vis_m": 9999,
      "fzfg": false,
      "metar_trigger": false,
      "taf_trigger": false,
      "metar": "METAR BIKF 151030Z 05018KT 9999 FEW042 BKN057 BKN071 03/M01 Q0970",
      "taf": "TAF BIKF 150759Z 1509/1609 07022KT 9999 FEW020 BKN030 TX03/1514Z TN00/1606Z"
    },
    {
      "icao": "BKPR",
      "alert": "OK",
      "vis_m": null,
      "fzfg": false,
      "metar_trigger": false,
      "taf_trigger": false,
      "metar": "",
      "taf": "TAF BKPR 150530Z 1506/1606 12006KT 9999 FEW050"
    },
    {
      "icao": "EBCI",
      "alert": "OK",
      "vis_m": 9999,
      "fzfg": false,
      "metar_trigger": false,
      "taf_trigger": false,
      "metar": "METAR EBCI 151020Z 22005KT 180V260 9999 FEW013 07/03 Q1016 NOSIG",
      "taf": "TAF EBCI 150500Z 1506/1612 25004KT 9999 FEW030"
    },
    {
      "icao": "EDDB",
      "alert": "OK",
      "vis_m": 9999,
      "fzfg": false,
      "metar_trigger": false,
      "taf_trigger": false,
      "metar": "METAR EDDB 151050Z AUTO VRB02KT 9999 OVC018 07/03 Q1015 NOSIG",
      "taf": ""
    },
    {
      "icao": "EDDH",
      "alert": "OK",
      "vis_m": 9999,
      "fzfg": false,
      "metar_trigger": false,
      "taf_trigger": false,
      "metar": "METAR EDDH 151050Z AUTO 25006KT 220V280 9999 SCT019 08/03 Q1014 NOSIG",
      "taf": "TAF EDDH 150500Z 1506/1612 VRB02KT 9999 SCT015 BKN030"
    },
    {
      "icao": "EDDK",
      "alert": "OK",
      "vis_m": 9999,
      "fzfg": false,
      "metar_trigger": false,
      "taf_trigger": false,
      "metar": "METAR EDDK 151050Z AUTO 24005KT 210V270 9999 FEW026 BKN033 08/01 Q1016 NOSIG",
      "taf": ""
    },
    {
      "icao": "EDDN",
      "alert": "OK",
      "vis_m": 9999,
      "fzfg": false,
      "metar_trigger": false,
      "taf_trigger": false,
      "metar": "METAR EDDN 151050Z AUTO VRB03KT 9999 SCT021 SCT041 07/02 Q1014 NOSIG",
      "taf": ""
    },
    {
      "icao": "EDDS",
      "alert": "OK",
      "vis_m": 9999,
      "fzfg": false,
      "metar_trigger": false,
      "taf_trigger": false,
      "metar": "METAR EDDS 151050Z AUTO VRB02KT 9999 SCT019 BKN029 OVC036 06/01 Q1014 NOSIG",
      "taf": "TAF EDDS 150500Z 1506/1606 33005KT 9999 FEW013 BKN030"
    },
    {
      "icao": "EDFH",
      "alert": "OK",
      "vis_m": 9999,
      "fzfg": false,
      "metar_trigger": false,
      "taf_trigger": false,
      "metar": "METAR EDFH 151020Z 27004KT 220V320 9999 SCT013 BKN023 04/M01 Q1015",
      "taf": "TAF EDFH 150500Z 1506/1606 31006KT 9999 SCT003 BKN015"
    },
    {
      "icao": "EDJA",
      "alert": "OK",
      "vis_m": 9999,
      "fzfg": false,
      "metar_trigger": false,
      "taf_trigger": false,
      "metar": "METAR EDJA 151020Z 36006KT 9999 SCT020 OVC032 04/00 Q1013",
      "taf": "TAF EDJA 150800Z 1509/1518 03004KT 9999 SCT008 BKN020"
    },
    {
      "icao": "EDLW",
      "alert": "OK",
      "vis_m": 9999,
      "fzfg": false,
      "metar_trigger": false,
      "taf_trigger": false,
      "metar": "METAR EDLW 151020Z COR VRB05KT 9999 FEW024 BKN029 07/01 Q1015",
      "taf": ""
    },
    {
      "icao": "EDNY",
      "alert": "OK",
      "vis_m": 9999,
      "fzfg": false,
      "metar_trigger": false,
      "taf_trigger": false,
      "metar": "METAR EDNY 151020Z 05006KT 9999 FEW021 BKN029 05/02 Q1014",
      "taf": "TAF EDNY 150800Z 1509/1518 03004KT 9999 SCT008 BKN025"
    },
    {
      "icao": "EDSB",
      "alert": "OK",
      "vis_m": 9999,
      "fzfg": false,
      "metar_trigger": false,
      "taf_trigger": false,
      "metar": "METAR EDSB 151020Z 03004KT 310V080 9999 SCT021 SCT038 07/02 Q1016",
      "taf": "TAF EDSB 150500Z 1506/1606 21003KT 9999 BKN030"
    },
    {
      "icao": "EETN",
      "alert": "OK",
      "vis_m": 9999,
      "fzfg": false,
      "metar_trigger": false,
      "taf_trigger": false,
      "metar": "METAR EETN 151050Z 17012KT CAVOK 11/00 Q1009 NOSIG",
      "taf": "TAF EETN 150530Z 1506/1606 18012KT CAVOK"
    },
    {
      "icao": "EFTU",
      "alert": "OK",
      "vis_m": 9999,
      "fzfg": false,
      "metar_trigger": false,
      "taf_trigger": false,
      "metar": "METAR EFTU 151050Z AUTO 21011KT CAVOK 08/M00 Q1006",
      "taf": "TAF EFTU 150836Z 1509/1609 18007KT CAVOK"
    },
    {
      "icao": "EGBB",
      "alert": "OK",
      "vis_m": 9999,
      "fzfg": false,
      "metar_trigger": false,
      "taf_trigger": false,
      "metar": "METAR EGBB 151050Z 20014KT 160V230 9999 SCT024 10/04 Q1008",
      "taf": "TAF EGBB 150457Z 1506/1606 20002KT 9999 FEW045"
    },
    {
      "icao": "EGGP",
      "alert": "OK",
      "vis_m": 9999,
      "fzfg": false,
      "metar_trigger": false,
      "taf_trigger": false,
      "metar": "METAR EGGP 151050Z 20009KT 170V230 9999 -RA BKN028 10/05 Q1004",
      "taf": "TAF EGGP 150458Z 1506/1606 18006KT 9999 FEW045"
    },
    {
      "icao": "EGGW",
      "alert": "OK",
      "vis_m": 9999,
      "fzfg": false,
      "metar_trigger": false,
      "taf_trigger": false,
      "metar": "METAR EGGW 151050Z AUTO 21015KT 170V240 9999 FEW027 09/03 Q1010",
      "taf": "TAF EGGW 150501Z 1506/1606 21005KT CAVOK"
    },
    {
      "icao": "EGKK",
      "alert": "OK",
      "vis_m": 9999,
      "fzfg": false,
      "metar_trigger": false,
      "taf_trigger": false,
      "metar": "METAR EGKK 151050Z 21012G24KT 9999 FEW027 10/04 Q1013",
      "taf": "TAF EGKK 150501Z 1506/1612 22004KT 9999 FEW035"
    },
    {
      "icao": "EGNM",
      "alert": "OK",
      "vis_m": 9999,
      "fzfg": false,
      "metar_trigger": false,
      "taf_trigger": false,
      "metar": "METAR EGNM 151050Z 20019G29KT 9999 SCT018 SCT036 08/04 Q1002",
      "taf": "TAF EGNM 150525Z 1506/1606 20012KT 9999 FEW035"
    },
    {
      "icao": "EGPD",
      "alert": "OK",
      "vis_m": 9999,
      "fzfg": false,
      "metar_trigger": false,
      "taf_trigger": false,
      "metar": "METAR EGPD 151050Z COR AUTO 21018KT 9999 BKN017 08/04 Q0993 NOSIG",
      "taf": "TAF EGPD 150458Z 1506/1606 19018G28KT 9999 SCT020"
    },
    {
      "icao": "EGPF",
      "alert": "OK",
      "vis_m": 6000,
      "fzfg": false,
      "metar_trigger": false,
      "taf_trigger": false,
      "metar": "METAR EGPF 151050Z AUTO 26016G26KT 6000 -RA BKN023/// BKN032/// //////TCU 08/05 Q0997",
      "taf": "TAF EGPF 150454Z 1506/1606 18010KT 9999 SCT025"
    },
    {
      "icao": "EHBK",
      "alert": "OK",
      "vis_m": 9999,
      "fzfg": false,
      "metar_trigger": false,
      "taf_trigger": false,
      "metar": "METAR EHBK 151025Z AUTO 18008KT 9999 BKN008 BKN009 OVC010 06/04 Q1016 BECMG SCT020",
      "taf": ""
    },
    {
      "icao": "EHEH",
      "alert": "OK",
      "vis_m": 9999,
      "fzfg": true,
      "metar_trigger": false,
      "taf_trigger": false,
      "metar": "METAR EHEH 151025Z AUTO 20007KT 150V240 9999 SCT016 BKN022 BKN290 08/05 Q1015 WHT NOSIG RMK TREND REMOTE BY EHWX",
      "taf": "TAF EHEH 150555Z 1506/1612 VRB02KT 0300 FZFG NSC"
    },
    {
      "icao": "EKBI",
      "alert": "OK",
      "vis_m": 9999,
      "fzfg": false,
      "metar_trigger": false,
      "taf_trigger": false,
      "metar": "METAR EKBI 151050Z AUTO 21009KT 180V260 9999 BKN017/// 06/02 Q1012",
      "taf": ""
    },
    {
      "icao": "EKCH",
      "alert": "OK",
      "vis_m": 9999,
      "fzfg": false,
      "metar_trigger": false,
      "taf_trigger": false,
      "metar": "METAR EKCH 151050Z AUTO 24009KT 9999 OVC015/// 05/03 Q1013 NOSIG",
      "taf": ""
    },
    {
      "icao": "ENAL",
      "alert": "OK",
      "vis_m": 9999,
      "fzfg": false,
      "metar_trigger": false,
      "taf_trigger": false,
      "metar": "METAR ENAL 151020Z 20013KT 9999 SCT052 07/M00 Q0996",
      "taf": "TAF ENAL 150800Z 1509/1518 19012KT 9999 FEW030 SCT040"
    },
    {
      "icao": "ENBR",
      "alert": "OK",
      "vis_m": 9999,
      "fzfg": false,
      "metar_trigger": false,
      "taf_trigger": false,
      "metar": "METAR ENBR 151020Z 15018KT 9999 SCT017 BKN023 05/02 Q0999 TEMPO 17020G30KT RMK WIND 1200FT 15031KT",
      "taf": ""
    },
    {
      "icao": "ENGM",
      "alert": "OK",
      "vis_m": 9999,
      "fzfg": false,
      "metar_trigger": false,
      "taf_trigger": false,
      "metar": "METAR ENGM 151020Z 20010KT 9999 BKN010 02/M01 Q1005",
      "taf": "TAF ENGM 150500Z 1506/1606 18009KT 9999 BKN012"
    },
    {
      "icao": "ENHD",
      "alert": "OK",
      "vis_m": 9999,
      "fzfg": false,
      "metar_trigger": false,
      "taf_trigger": false,
      "metar": "METAR ENHD 151020Z 16020G31KT 9999 BKN008 06/04 Q1001",
      "taf": ""
    },
    {
      "icao": "ENTC",
      "alert": "OK",
      "vis_m": 9999,
      "fzfg": false,
      "metar_trigger": false,
      "taf_trigger": false,
      "metar": "METAR ENTC 151020Z 21005KT 9999 FEW063 04/M02 Q0996 NOSIG RMK WIND 2600FT 17012KT",
      "taf": "TAF ENTC 150500Z 1506/1606 22009KT 9999 FEW025 SCT050"
    },
    {
      "icao": "ENTO",
      "alert": "OK",
      "vis_m": 9999,
      "fzfg": false,
      "metar_trigger": false,
      "taf_trigger": false,
      "metar": "METAR ENTO 151020Z 22007KT 9999 BKN007 03/02 Q1006",
      "taf": "TAF ENTO 150500Z 1506/1606 20008KT 9999 BKN004"
    },
    {
      "icao": "ENVA",
      "alert": "OK",
      "vis_m": 9999,
      "fzfg": false,
      "metar_trigger": false,
      "taf_trigger": false,
      "metar": "METAR ENVA 151020Z 13005KT 090V160 CAVOK 08/M03 Q0999 NOSIG RMK WIND 670FT 15014KT",
      "taf": "TAF ENVA 150500Z 1506/1606 08005KT CAVOK"
    },
    {
      "icao": "ENZV",
      "alert": "OK",
      "vis_m": 9999,
      "fzfg": false,
      "metar_trigger": false,
      "taf_trigger": false,
      "metar": "METAR ENZV 151020Z 17018KT 9999 BKN013 07/04 Q1003 TEMPO 17020G30KT SCT013 BKN040",
      "taf": "TAF ENZV 150500Z 1506/1606 16008KT 9999 FEW008 SCT015"
    },
    {
      "icao": "EPGD",
      "alert": "OK",
      "vis_m": 9999,
      "fzfg": false,
      "metar_trigger": false,
      "taf_trigger": false,
      "metar": "METAR EPGD 151030Z 28012KT 9999 OVC007 06/04 Q1011",
      "taf": ""
    },
    {
      "icao": "EPKK",
      "alert": "OK",
      "vis_m": 9999,
      "fzfg": false,
      "metar_trigger": false,
      "taf_trigger": false,
      "metar": "METAR EPKK 151030Z VRB02KT CAVOK 17/M02 Q1012",
      "taf": "TAF EPKK 150830Z 1509/1609 07010KT CAVOK"
    },
    {
      "icao": "EPKT",
      "alert": "OK",
      "vis_m": 9999,
      "fzfg": false,
      "metar_trigger": false,
      "taf_trigger": false,
      "metar": "METAR EPKT 151030Z 25006KT 180V280 CAVOK 16/01 Q1011",
      "taf": "TAF EPKT 150530Z 1506/1606 14006KT CAVOK"
    },
    {
      "icao": "EPLB",
      "alert": "OK",
      "vis_m": 9999,
      "fzfg": false,
      "metar_trigger": false,
      "taf_trigger": false,
      "metar": "METAR EPLB 151030Z 13006KT 090V170 CAVOK 14/01 Q1014",
      "taf": "TAF EPLB 150530Z 1506/1606 12008KT CAVOK"
    },
    {
      "icao": "EPMO",
      "alert": "OK",
      "vis_m": 9999,
      "fzfg": false,
      "metar_trigger": false,
      "taf_trigger": false,
      "metar": "METAR EPMO 151030Z 15006KT 100V190 CAVOK 16/02 Q1011",
      "taf": "TAF EPMO 150530Z 1506/1606 14010KT CAVOK"
    },
    {
      "icao": "EPPO",
      "alert": "OK",
      "vis_m": 9999,
      "fzfg": false,
      "metar_trigger": false,
      "taf_trigger": false,
      "metar": "METAR EPPO 151030Z 31008KT 9999 OVC009 06/03 Q1013",
      "taf": "TAF EPPO 150530Z 1506/1606 31010KT 9999 BKN006"
    },
    {
      "icao": "EPRA",
      "alert": "OK",
      "vis_m": 9999,
      "fzfg": false,
      "metar_trigger": false,
      "taf_trigger": false,
      "metar": "METAR EPRA 151030Z 15011KT CAVOK 14/01 Q1012",
      "taf": "TAF EPRA 150830Z 1509/1518 16010KT CAVOK"
    },
    {
      "icao": "EPRZ",
      "alert": "OK",
      "vis_m": 9999,
      "fzfg": false,
      "metar_trigger": false,
      "taf_trigger": false,
      "metar": "METAR EPRZ 151030Z 08010KT CAVOK 13/M00 Q1013",
      "taf": "TAF EPRZ 150530Z 1506/1606 10008KT CAVOK"
    },
    {
      "icao": "EPSC",
      "alert": "OK",
      "vis_m": 9999,
      "fzfg": false,
      "metar_trigger": false,
      "taf_trigger": false,
      "metar": "METAR EPSC 151030Z 29008KT 9999 SCT008 BKN010 06/04 Q1014",
      "taf": ""
    },
    {
      "icao": "EPSY",
      "alert": "OK",
      "vis_m": 9999,
      "fzfg": false,
      "metar_trigger": false,
      "taf_trigger": false,
      "metar": "METAR EPSY 151030Z 18010KT 130V220 CAVOK 14/00 Q1011",
      "taf": "TAF EPSY 150830Z 1509/1518 15008KT CAVOK"
    },
    {
      "icao": "EPWA",
      "alert": "OK",
      "vis_m": 9999,
      "fzfg": false,
      "metar_trigger": false,
      "taf_trigger": false,
      "metar": "METAR EPWA 151030Z 14009KT CAVOK 15/00 Q1012 NOSIG",
      "taf": "TAF EPWA 150830Z 1509/1609 15010KT CAVOK"
    },
    {
      "icao": "EPWR",
      "alert": "OK",
      "vis_m": 9999,
      "fzfg": false,
      "metar_trigger": false,
      "taf_trigger": false,
      "metar": "METAR EPWR 151030Z 28010KT 9999 BKN011 BKN014 08/05 Q1013",
      "taf": "TAF EPWR 150830Z 1509/1609 30010KT 9999 BKN011"
    },
    {
      "icao": "ESGG",
      "alert": "OK",
      "vis_m": 4500,
      "fzfg": false,
      "metar_trigger": false,
      "taf_trigger": false,
      "metar": "METAR ESGG 151050Z 22008KT 4500 BR OVC003 02/02 Q1009",
      "taf": "TAF ESGG 150830Z 1509/1609 23004KT 6000 OVC003"
    },
    {
      "icao": "ESKN",
      "alert": "OK",
      "vis_m": 9999,
      "fzfg": false,
      "metar_trigger": false,
      "taf_trigger": false,
      "metar": "METAR ESKN 151050Z 22006KT 9999 -DZ FEW005 SCT011 OVC025 03/03 Q1008",
      "taf": "TAF ESKN 150830Z 1509/1609 25004KT 9000 -RA FEW004 BKN040"
    },
    {
      "icao": "ESMS",
      "alert": "OK",
      "vis_m": 9999,
      "fzfg": false,
      "metar_trigger": false,
      "taf_trigger": false,
      "metar": "METAR ESMS 151050Z 27010KT 9999 SCT013 BKN020 06/03 Q1012",
      "taf": ""
    },
    {
      "icao": "ESSA",
      "alert": "OK",
      "vis_m": 8000,
      "fzfg": false,
      "metar_trigger": false,
      "taf_trigger": false,
      "metar": "METAR ESSA 151050Z 24005KT 8000 -RA BKN005 OVC011 02/01 Q1007 TEMPO BKN004",
      "taf": "TAF ESSA 150830Z 1509/1609 23008KT 7000 -RA SCT004 BKN020"
    },
    {
      "icao": "EYKA",
      "alert": "OK",
      "vis_m": 9999,
      "fzfg": false,
      "metar_trigger": false,
      "taf_trigger": false,
      "metar": "METAR EYKA 151050Z 15013KT 120V180 CAVOK 12/01 Q1014",
      "taf": "TAF EYKA 150500Z 1506/1606 15013KT 9000 NSC"
    },
    {
      "icao": "EYPA",
      "alert": "OK",
      "vis_m": 9999,
      "fzfg": false,
      "metar_trigger": false,
      "taf_trigger": false,
      "metar": "METAR EYPA 151050Z 18014KT CAVOK 12/01 Q1010",
      "taf": "TAF EYPA 150500Z 1506/1606 14013KT 9000 NSC"
    },
    {
      "icao": "EYVI",
      "alert": "OK",
      "vis_m": 9999,
      "fzfg": false,
      "metar_trigger": false,
      "taf_trigger": false,
      "metar": "METAR EYVI 151050Z 17018KT CAVOK 12/M00 Q1015 NOSIG",
      "taf": "TAF EYVI 150500Z 1506/1606 16015KT 9000 NSC"
    },
    {
      "icao": "GCFV",
      "alert": "OK",
      "vis_m": 9999,
      "fzfg": false,
      "metar_trigger": false,
      "taf_trigger": false,
      "metar": "METAR GCFV 151030Z 02015KT 9999 FEW030 19/11 Q1018",
      "taf": "TAF GCFV 150800Z 1509/1609 04012KT 9999 BKN025 TX20/1514Z TN15/1606Z"
    },
    {
      "icao": "GCLP",
      "alert": "OK",
      "vis_m": 9999,
      "fzfg": false,
      "metar_trigger": false,
      "taf_trigger": false,
      "metar": "METAR GCLP 151030Z 03018KT 9999 FEW020 BKN035 19/14 Q1018 NOSIG",
      "taf": "TAF GCLP 150800Z 1509/1609 02017KT 9999 SCT025 TX20/1514Z TN15/1606Z"
    },
    {
      "icao": "GCTS",
      "alert": "OK",
      "vis_m": 9999,
      "fzfg": false,
      "metar_trigger": false,
      "taf_trigger": false,
      "metar": "METAR GCTS 151030Z 07026KT 9999 FEW025 20/12 Q1018 NOSIG",
      "taf": "TAF GCTS 150800Z 1509/1609 07020KT 9999 FEW025 TX23/1514Z TN16/1606Z"
    },
    {
      "icao": "GMAD",
      "alert": "OK",
      "vis_m": 8000,
      "fzfg": false,
      "metar_trigger": false,
      "taf_trigger": false,
      "metar": "METAR GMAD 151030Z 11005KT 040V160 8000 SCT013 18/14 Q1014 NOSIG",
      "taf": "TAF GMAD 150500Z 1506/1612 06005KT 6000 SCT010"
    },
    {
      "icao": "GMMN",
      "alert": "OK",
      "vis_m": 9999,
      "fzfg": false,
      "metar_trigger": false,
      "taf_trigger": false,
      "metar": "METAR GMMN 151030Z VRB02KT 9999 BKN026 18/13 Q1018 NOSIG",
      "taf": "TAF GMMN 150500Z 1506/1612 11002KT 9999 SCT010 SCT025"
    },
    {
      "icao": "GMMX",
      "alert": "OK",
      "vis_m": 8000,
      "fzfg": false,
      "metar_trigger": false,
      "taf_trigger": false,
      "metar": "METAR GMMX 151030Z 05006KT 010V140 8000 NSC 15/11 Q1017 NOSIG",
      "taf": "TAF GMMX 150500Z 1506/1612 04006KT 8000 SCT026"
    },
    {
      "icao": "HEGN",
      "alert": "OK",
      "vis_m": 9999,
      "fzfg": false,
      "metar_trigger": false,
      "taf_trigger": false,
      "metar": "METAR HEGN 151000Z 33020KT CAVOK 22/07 Q1009 NOSIG",
      "taf": ""
    },
    {
      "icao": "HEMA",
      "alert": "OK",
      "vis_m": 9999,
      "fzfg": false,
      "metar_trigger": false,
      "taf_trigger": false,
      "metar": "METAR HEMA 151000Z 33006KT CAVOK 25/04 Q1010 NOSIG",
      "taf": ""
    },
    {
      "icao": "HESH",
      "alert": "OK",
      "vis_m": 8000,
      "fzfg": false,
      "metar_trigger": false,
      "taf_trigger": false,
      "metar": "METAR HESH 151000Z 04010KT 8000 NSC 25/10 Q1009 NOSIG",
      "taf": ""
    },
    {
      "icao": "HESX",
      "alert": "OK",
      "vis_m": 9999,
      "fzfg": false,
      "metar_trigger": false,
      "taf_trigger": false,
      "metar": "METAR HESX 151000Z 25015KT 9999 SCT020 SCT025 18/07 Q1011 NOSIG",
      "taf": ""
    },
    {
      "icao": "LATI",
      "alert": "OK",
      "vis_m": 9999,
      "fzfg": false,
      "metar_trigger": false,
      "taf_trigger": false,
      "metar": "METAR LATI 151050Z VRB01KT 9999 FEW040 20/02 Q1007 NOSIG",
      "taf": "TAF LATI 150500Z 1506/1606 VRB04KT CAVOK TX20/1512Z TN05/1604Z"
    },
    {
      "icao": "LBPD",
      "alert": "OK",
      "vis_m": 9999,
      "fzfg": false,
      "metar_trigger": false,
      "taf_trigger": false,
      "metar": "METAR LBPD 151030Z AUTO VRB04KT 9999 NCD 11/01 Q1012 NOSIG",
      "taf": "TAF LBPD 150500Z 1506/1606 VRB04KT CAVOK"
    },
    {
      "icao": "LBSF",
      "alert": "OK",
      "vis_m": 9999,
      "fzfg": false,
      "metar_trigger": false,
      "taf_trigger": false,
      "metar": "METAR LBSF 151030Z VRB04KT CAVOK 11/M02 Q1011 NOSIG",
      "taf": "TAF LBSF 150500Z 1506/1606 VRB04KT CAVOK"
    },
    {
      "icao": "LBWN",
      "alert": "OK",
      "vis_m": 9999,
      "fzfg": false,
      "metar_trigger": false,
      "taf_trigger": false,
      "metar": "METAR LBWN 151030Z 35013KT 9999 FEW022 11/04 Q1012 NOSIG",
      "taf": "TAF LBWN 150500Z 1506/1606 03010KT 9999 BKN015"
    },
    {
      "icao": "LCLK",
      "alert": "OK",
      "vis_m": 9999,
      "fzfg": false,
      "metar_trigger": false,
      "taf_trigger": false,
      "metar": "METAR LCLK 151030Z 24027G37KT 9999 -SHRA SCT020 BKN050 16/11 Q0999 BECMG 5000 SHRA FEW025TCU",
      "taf": ""
    },
    {
      "icao": "LCPH",
      "alert": "OK",
      "vis_m": 5000,
      "fzfg": false,
      "metar_trigger": false,
      "taf_trigger": false,
      "metar": "METAR LCPH 151030Z 31028G39KT 250V320 5000 -SHRA FEW015 SCT040 BKN050 15/08 Q1003 RERA TEMPO 3000 SHRA",
      "taf": ""
    },
    {
      "icao": "LEAL",
      "alert": "OK",
      "vis_m": 9999,
      "fzfg": false,
      "metar_trigger": false,
      "taf_trigger": false,
      "metar": "METAR LEAL 151030Z 32008G19KT 270V020 9999 FEW012 17/01 Q1011 NOSIG",
      "taf": "TAF LEAL 150500Z 1506/1606 31009KT 9999 FEW015 BKN050 TX20/1512Z TN08/1506Z"
    },
    {
      "icao": "LEBB",
      "alert": "OK",
      "vis_m": 9999,
      "fzfg": false,
      "metar_trigger": false,
      "taf_trigger": false,
      "metar": "METAR LEBB 151030Z 30009KT 9999 SCT030 BKN050 11/08 Q1021 NOSIG",
      "taf": ""
    },
    {
      "icao": "LEBL",
      "alert": "OK",
      "vis_m": 9999,
      "fzfg": false,
      "metar_trigger": false,
      "taf_trigger": false,
      "metar": "METAR LEBL 151030Z 30013KT 240V340 CAVOK 15/M01 Q1006 NOSIG",
      "taf": "TAF LEBL 150500Z 1506/1606 33009KT CAVOK TX18/1513Z TN07/1506Z"
    },
    {
      "icao": "LECH",
      "alert": "OK",
      "vis_m": 9999,
      "fzfg": false,
      "metar_trigger": false,
      "taf_trigger": false,
      "metar": "METAR LECH 151030Z AUTO 34021G36KT 290V020 CAVOK 13/M01 Q1010",
      "taf": ""
    },
    {
      "icao": "LEMD",
      "alert": "OK",
      "vis_m": 9999,
      "fzfg": false,
      "metar_trigger": false,
      "taf_trigger": false,
      "metar": "METAR LEMD 151030Z 01017KT 330V050 9999 FEW060 11/M01 Q1016 NOSIG",
      "taf": "TAF LEMD 150500Z 1506/1612 02012KT 9999 FEW060 TX15/1515Z TN07/1507Z"
    },
    {
      "icao": "LEMG",
      "alert": "OK",
      "vis_m": 9999,
      "fzfg": false,
      "metar_trigger": false,
      "taf_trigger": false,
      "metar": "METAR LEMG 151030Z 30010KT 260V330 9999 FEW025 SCT041 18/11 Q1015 NOSIG",
      "taf": "TAF LEMG 150500Z 1506/1606 30010KT 9999 SCT030 TX18/1515Z TN11/1507Z"
    },
    {
      "icao": "LEVC",
      "alert": "OK",
      "vis_m": 9999,
      "fzfg": false,
      "metar_trigger": false,
      "taf_trigger": false,
      "metar": "METAR LEVC 151030Z 31020G31KT 280V350 9999 FEW060 16/M00 Q1012 NOSIG",
      "taf": ""
    },
    {
      "icao": "LEXJ",
      "alert": "OK",
      "vis_m": 9000,
      "fzfg": false,
      "metar_trigger": false,
      "taf_trigger": false,
      "metar": "METAR LEXJ 151030Z 34009KT 290V040 9000 -RA SCT032 BKN041 10/04 Q1022",
      "taf": ""
    },
    {
      "icao": "LEZG",
      "alert": "OK",
      "vis_m": 9999,
      "fzfg": false,
      "metar_trigger": false,
      "taf_trigger": false,
      "metar": "METAR LEZG 151030Z 31027G38KT 9999 FEW035 11/03 Q1015 NOSIG",
      "taf": "TAF LEZG 150500Z 1506/1606 29015KT 9999 FEW050 SCT070 TX13/1514Z TN06/1506Z"
    },
    {
      "icao": "LEZL",
      "alert": "OK",
      "vis_m": 9999,
      "fzfg": false,
      "metar_trigger": false,
      "taf_trigger": false,
      "metar": "METAR LEZL 151030Z 35004KT 250V060 9999 SCT030 17/10 Q1016 NOSIG",
      "taf": "TAF LEZL 150800Z 1509/1609 02006KT 9999 SCT030 TX21/1515Z TN12/1607Z"
    },
    {
      "icao": "LFBD",
      "alert": "OK",
      "vis_m": 9999,
      "fzfg": false,
      "metar_trigger": false,
      "taf_trigger": false,
      "metar": "METAR LFBD 151030Z AUTO VRB03KT CAVOK 12/03 Q1020 NOSIG",
      "taf": "TAF LFBD 150500Z 1506/1612 33005KT CAVOK TX14/1514Z TN02/1506Z"
    },
    {
      "icao": "LFLL",
      "alert": "OK",
      "vis_m": 9999,
      "fzfg": false,
      "metar_trigger": false,
      "taf_trigger": false,
      "metar": "METAR LFLL 151030Z 35020KT 9999 BKN022 SCT260 07/02 Q1013 NOSIG",
      "taf": "TAF LFLL 150500Z 1506/1612 35018KT CAVOK"
    },
    {
      "icao": "LFLS",
      "alert": "OK",
      "vis_m": 9999,
      "fzfg": false,
      "metar_trigger": false,
      "taf_trigger": false,
      "metar": "METAR LFLS 151030Z AUTO 33011KT 9999 BKN019 BKN024 BKN048 06/02 Q1011 NOSIG",
      "taf": "TAF LFLS 150800Z 1509/1609 35012KT CAVOK"
    },
    {
      "icao": "LFMN",
      "alert": "OK",
      "vis_m": 9999,
      "fzfg": false,
      "metar_trigger": false,
      "taf_trigger": false,
      "metar": "METAR LFMN 151030Z 04018KT 9999 VCSH BKN050 14/05 Q1003 TEMPO 08025KT",
      "taf": "TAF LFMN 150800Z 1509/1615 03010KT 9999 BKN050"
    },
    {
      "icao": "LFOB",
      "alert": "OK",
      "vis_m": 9999,
      "fzfg": false,
      "metar_trigger": false,
      "taf_trigger": false,
      "metar": "METAR LFOB 151030Z AUTO 23006KT 150V280 9999 FEW034 10/02 Q1017 NOSIG",
      "taf": "TAF LFOB 150500Z 1506/1606 VRB03KT CAVOK"
    },
    {
      "icao": "LFPO",
      "alert": "OK",
      "vis_m": 9999,
      "fzfg": false,
      "metar_trigger": false,
      "taf_trigger": false,
      "metar": "METAR LFPO 151030Z VRB03KT 9999 FEW033 10/03 Q1018 NOSIG",
      "taf": "TAF LFPO 150500Z 1506/1612 VRB02KT CAVOK"
    },
    {
      "icao": "LFSB",
      "alert": "OK",
      "vis_m": 9999,
      "fzfg": false,
      "metar_trigger": false,
      "taf_trigger": false,
      "metar": "METAR LFSB 151030Z AUTO 36008KT 9999 SCT026 SCT037 OVC045 07/03 Q1015 TEMPO FEW020TCU",
      "taf": "TAF LFSB 150500Z 1506/1606 29003KT 9999 SCT015 BKN035"
    },
    {
      "icao": "LGAV",
      "alert": "OK",
      "vis_m": 9999,
      "fzfg": false,
      "metar_trigger": false,
      "taf_trigger": false,
      "metar": "METAR LGAV 151020Z 06012KT 030V090 9999 FEW030 SCT045 14/06 Q1010 NOSIG",
      "taf": "TAF LGAV 150500Z 1506/1606 34010KT 9999 FEW030"
    },
    {
      "icao": "LGTS",
      "alert": "OK",
      "vis_m": 9999,
      "fzfg": false,
      "metar_trigger": false,
      "taf_trigger": false,
      "metar": "METAR LGTS 151020Z 30005KT 9999 FEW025 13/07 Q1011 NOSIG",
      "taf": "TAF LGTS 150500Z 1506/1606 VRB03KT 9999 FEW030"
    },
    {
      "icao": "LHBP",
      "alert": "OK",
      "vis_m": 9999,
      "fzfg": false,
      "metar_trigger": false,
      "taf_trigger": false,
      "metar": "METAR LHBP 151030Z 14011KT 100V160 CAVOK 13/M01 Q1013 NOSIG",
      "taf": "TAF LHBP 150515Z 1506/1606 08006KT CAVOK"
    },
    {
      "icao": "LHDC",
      "alert": "OK",
      "vis_m": 9999,
      "fzfg": false,
      "metar_trigger": false,
      "taf_trigger": false,
      "metar": "METAR LHDC 151015Z AUTO 04010KT 350V080 CAVOK 14/M02 Q1012 NOSIG",
      "taf": "TAF LHDC 150815Z 1509/1518 06007KT CAVOK"
    },
    {
      "icao": "LIBD",
      "alert": "OK",
      "vis_m": 9999,
      "fzfg": false,
      "metar_trigger": false,
      "taf_trigger": false,
      "metar": "METAR LIBD 151020Z 12015KT 9999 SHRA FEW020 SCT035 16/09 Q1005",
      "taf": "TAF LIBD 150500Z 1506/1606 13006KT 9999 SCT020"
    },
    {
      "icao": "LIBG",
      "alert": "OK",
      "vis_m": 9999,
      "fzfg": false,
      "metar_trigger": false,
      "taf_trigger": false,
      "metar": "METAR LIBG 150950Z 12011KT 9999 FEW010 SCT030 14/11 Q1006 RERA",
      "taf": "TAF LIBG 150800Z 1509/1518 16015KT 9999 SCT020"
    },
    {
      "icao": "LIBP",
      "alert": "OK",
      "vis_m": 9999,
      "fzfg": false,
      "metar_trigger": false,
      "taf_trigger": false,
      "metar": "METAR LIBP 151020Z AUTO 05008KT 020V090 9999 SCT220/// 14/07 Q1005",
      "taf": "TAF LIBP 150500Z 1506/1606 VRB05KT 9999 SCT040"
    },
    {
      "icao": "LIBR",
      "alert": "OK",
      "vis_m": 9999,
      "fzfg": false,
      "metar_trigger": false,
      "taf_trigger": false,
      "metar": "METAR LIBR 151020Z 13014KT 9999 VCSH BKN040 15/10 Q1006",
      "taf": "TAF LIBR 150500Z 1506/1606 15006KT 9999 SCT015"
    },
    {
      "icao": "LICA",
      "alert": "OK",
      "vis_m": 9999,
      "fzfg": false,
      "metar_trigger": false,
      "taf_trigger": false,
      "metar": "METAR LICA 151020Z AUTO 07018KT 9999 NCD 17/11 Q1003",
      "taf": "TAF LICA 150500Z 1506/1606 08012KT 9999 BKN040"
    },
    {
      "icao": "LICC",
      "alert": "OK",
      "vis_m": 4000,
      "fzfg": false,
      "metar_trigger": false,
      "taf_trigger": false,
      "metar": "METAR LICC 151020Z 04009KT 360V070 4000 TSRA SCT015CB BKN030 14/11 Q1002",
      "taf": ""
    },
    {
      "icao": "LICJ",
      "alert": "OK",
      "vis_m": 9999,
      "fzfg": false,
      "metar_trigger": false,
      "taf_trigger": false,
      "metar": "METAR LICJ 151020Z 21005KT 9999 -RA FEW030 BKN065 11/09 Q1000",
      "taf": ""
    },
    {
      "icao": "LIMC",
      "alert": "OK",
      "vis_m": 9999,
      "fzfg": false,
      "metar_trigger": false,
      "taf_trigger": false,
      "metar": "METAR LIMC 151020Z 36012KT 9999 FEW050 BKN100 10/06 Q1008 NOSIG",
      "taf": ""
    },
    {
      "icao": "LIME",
      "alert": "OK",
      "vis_m": 9999,
      "fzfg": false,
      "metar_trigger": false,
      "taf_trigger": false,
      "metar": "METAR LIME 151020Z AUTO 25006KT 9999 BKN048/// 13/07 Q1008",
      "taf": "TAF LIME 150500Z 1506/1606 02010KT 9999 SCT030 BKN040"
    },
    {
      "icao": "LIMF",
      "alert": "OK",
      "vis_m": 6000,
      "fzfg": false,
      "metar_trigger": false,
      "taf_trigger": false,
      "metar": "METAR LIMF 151020Z 30004KT 260V330 6000 RA SCT012 OVC030 08/05 Q1009",
      "taf": "TAF LIMF 150500Z 1506/1606 34010KT 9000 RA FEW010 OVC030"
    },
    {
      "icao": "LIMJ",
      "alert": "OK",
      "vis_m": 9999,
      "fzfg": false,
      "metar_trigger": false,
      "taf_trigger": false,
      "metar": "METAR LIMJ 151020Z 04016KT 9999 FEW045 BKN070 11/07 Q1005",
      "taf": "TAF LIMJ 150500Z 1506/1606 36018KT 7000 RA BKN020 BKN040"
    },
    {
      "icao": "LIPE",
      "alert": "OK",
      "vis_m": 9999,
      "fzfg": false,
      "metar_trigger": false,
      "taf_trigger": false,
      "metar": "METAR LIPE 151020Z 10013KT 9999 SCT030 16/09 Q1006",
      "taf": "TAF LIPE 150500Z 1506/1606 13007KT 9999 SCT030"
    },
    {
      "icao": "LIPH",
      "alert": "OK",
      "vis_m": 9999,
      "fzfg": false,
      "metar_trigger": false,
      "taf_trigger": false,
      "metar": "METAR LIPH 151020Z 08011KT 9999 BKN025 15/10 Q1009",
      "taf": "TAF LIPH 150500Z 1506/1606 06012KT 9999 BKN020"
    },
    {
      "icao": "LIPQ",
      "alert": "OK",
      "vis_m": 9999,
      "fzfg": false,
      "metar_trigger": false,
      "taf_trigger": false,
      "metar": "METAR LIPQ 151020Z AUTO 10005KT 060V150 9999 BKN080/// 18/06 Q1009",
      "taf": "TAF LIPQ 150500Z 1506/1606 VRB05KT 9999 BKN040"
    },
    {
      "icao": "LIPR",
      "alert": "OK",
      "vis_m": 9999,
      "fzfg": false,
      "metar_trigger": false,
      "taf_trigger": false,
      "metar": "METAR LIPR 151020Z 09008KT 060V120 9999 SCT030 14/11 Q1006",
      "taf": "TAF LIPR 150500Z 1506/1606 VRB05KT 9999 SCT060"
    },
    {
      "icao": "LIPX",
      "alert": "OK",
      "vis_m": 9999,
      "fzfg": false,
      "metar_trigger": false,
      "taf_trigger": false,
      "metar": "METAR LIPX 151020Z 06013KT 9999 -RA FEW010 SCT040 BKN060 14/10 Q1008",
      "taf": "TAF LIPX 150500Z 1506/1606 09012KT 9999 FEW020 BKN060"
    },
    {
      "icao": "LIPY",
      "alert": "OK",
      "vis_m": 9999,
      "fzfg": false,
      "metar_trigger": false,
      "taf_trigger": false,
      "metar": "METAR LIPY 151020Z AUTO 12008KT 080V160 9999 BKN029/// 16/10 Q1006",
      "taf": "TAF LIPY 150500Z 1506/1606 VRB05KT 9999 SCT020"
    },
    {
      "icao": "LIPZ",
      "alert": "OK",
      "vis_m": 9999,
      "fzfg": false,
      "metar_trigger": false,
      "taf_trigger": false,
      "metar": "METAR LIPZ 151020Z 10011KT 9999 BKN030 16/09 Q1009 NOSIG",
      "taf": "TAF LIPZ 150500Z 1506/1612 08015G30KT 9999 BKN030"
    },
    {
      "icao": "LIRF",
      "alert": "OK",
      "vis_m": 9999,
      "fzfg": false,
      "metar_trigger": false,
      "taf_trigger": false,
      "metar": "METAR LIRF 151020Z 12018KT 9999 FEW040 17/08 Q1001 NOSIG",
      "taf": "TAF LIRF 150500Z 1506/1612 13014KT 9999 SCT025"
    },
    {
      "icao": "LIRN",
      "alert": "OK",
      "vis_m": 9999,
      "fzfg": false,
      "metar_trigger": false,
      "taf_trigger": false,
      "metar": "METAR LIRN 151020Z 22006KT 160V260 9999 FEW050 17/07 Q1002 NOSIG",
      "taf": "TAF LIRN 150500Z 1506/1606 VRB05KT 9999 SCT030"
    },
    {
      "icao": "LIRP",
      "alert": "OK",
      "vis_m": 9999,
      "fzfg": false,
      "metar_trigger": false,
      "taf_trigger": false,
      "metar": "METAR LIRP 151015Z 03012KT CAVOK 15/07 Q1002 NOSIG",
      "taf": "TAF LIRP 150500Z 1506/1606 10012KT 9999 FEW020 SCT060"
    },
    {
      "icao": "LIRZ",
      "alert": "OK",
      "vis_m": 9999,
      "fzfg": false,
      "metar_trigger": false,
      "taf_trigger": false,
      "metar": "METAR LIRZ 151020Z AUTO 12006KT 070V150 9999 NCD 16/04 Q1003",
      "taf": "TAF LIRZ 150500Z 1506/1606 VRB05KT 9999 BKN030"
    },
    {
      "icao": "LJLJ",
      "alert": "OK",
      "vis_m": 9999,
      "fzfg": false,
      "metar_trigger": false,
      "taf_trigger": false,
      "metar": "METAR LJLJ 151030Z 19002KT 9999 FEW030 SCT200 15/08 Q1010 NOSIG",
      "taf": "TAF LJLJ 150500Z 1506/1606 28002KT 9999 FEW001 SCT040"
    },
    {
      "icao": "LKMT",
      "alert": "OK",
      "vis_m": 9999,
      "fzfg": false,
      "metar_trigger": false,
      "taf_trigger": false,
      "metar": "METAR LKMT 151030Z 26013KT CAVOK 15/03 Q1012 NOSIG",
      "taf": "TAF LKMT 150500Z 1506/1606 24010KT CAVOK"
    },
    {
      "icao": "LKPR",
      "alert": "OK",
      "vis_m": 9999,
      "fzfg": false,
      "metar_trigger": false,
      "taf_trigger": false,
      "metar": "METAR LKPR 151030Z 30004KT 9999 FEW018 OVC022 07/03 Q1013 NOSIG",
      "taf": "TAF LKPR 150800Z 1509/1615 29006KT 9999 SCT016 OVC025"
    },
    {
      "icao": "LLBG",
      "alert": "OK",
      "vis_m": 9999,
      "fzfg": false,
      "metar_trigger": false,
      "taf_trigger": false,
      "metar": "METAR LLBG 151050Z 24019KT 9999 SCT025 19/11 Q1009 NOSIG",
      "taf": "TAF LLBG 150506Z 1506/1606 19006KT 9999 SCT025 TX18/1511Z TN13/1604Z"
    },
    {
      "icao": "LMML",
      "alert": "OK",
      "vis_m": 9999,
      "fzfg": false,
      "metar_trigger": false,
      "taf_trigger": false,
      "metar": "METAR LMML 151045Z 18013KT 150V210 9999 -SHRA FEW018CB 17/14 Q1001 NOSIG",
      "taf": "TAF LMML 150500Z 1506/1606 20015KT 9999 FEW018"
    },
    {
      "icao": "LOWW",
      "alert": "OK",
      "vis_m": 9999,
      "fzfg": false,
      "metar_trigger": false,
      "taf_trigger": false,
      "metar": "METAR LOWW 151020Z 36008KT 320V030 9999 FEW022 BKN024 11/05 Q1013 NOSIG",
      "taf": "TAF LOWW 150815Z 1509/1615 32007KT 9999 SCT050 TX15/1514Z TN07/1602Z"
    },
    {
      "icao": "LPFR",
      "alert": "OK",
      "vis_m": 9999,
      "fzfg": false,
      "metar_trigger": false,
      "taf_trigger": false,
      "metar": "METAR LPFR 151030Z VRB04KT 9999 FEW023 17/09 Q1017",
      "taf": "TAF LPFR 150500Z 1506/1606 31008KT 9999 SCT010 BKN025"
    },
    {
      "icao": "LPMA",
      "alert": "OK",
      "vis_m": 9000,
      "fzfg": false,
      "metar_trigger": false,
      "taf_trigger": false,
      "metar": "METAR LPMA 151030Z 02011KT 9000 VCSH BKN015 SCT030 16/14 Q1022",
      "taf": "TAF LPMA 150500Z 1506/1606 01012KT 9999 SCT015"
    },
    {
      "icao": "LPPR",
      "alert": "OK",
      "vis_m": 9999,
      "fzfg": false,
      "metar_trigger": false,
      "taf_trigger": false,
      "metar": "METAR LPPR 151030Z 35014KT 9999 FEW020 14/07 Q1021",
      "taf": "TAF LPPR 150500Z 1506/1606 34007KT CAVOK"
    },
    {
      "icao": "LPPS",
      "alert": "OK",
      "vis_m": 8000,
      "fzfg": false,
      "metar_trigger": false,
      "taf_trigger": false,
      "metar": "METAR LPPS 151030Z 02012KT 350V060 8000 SCT008 BKN030 15/14 Q1022",
      "taf": "TAF LPPS 150500Z 1506/1612 03010KT 9999 SCT012 BKN030"
    },
    {
      "icao": "LPPT",
      "alert": "OK",
      "vis_m": 9999,
      "fzfg": false,
      "metar_trigger": false,
      "taf_trigger": false,
      "metar": "METAR LPPT 151030Z 35011KT 9999 FEW025 15/10 Q1019 WS R02",
      "taf": "TAF LPPT 150500Z 1506/1612 33015KT 9999 FEW015"
    },
    {
      "icao": "LQBK",
      "alert": "OK",
      "vis_m": 9999,
      "fzfg": false,
      "metar_trigger": false,
      "taf_trigger": false,
      "metar": "METAR LQBK 151030Z 35004KT 300V050 CAVOK 16/01 Q1009 NOSIG",
      "taf": "TAF LQBK 150500Z 1506/1606 34004KT CAVOK TX19/1513Z TN04/1605Z"
    },
    {
      "icao": "LQSA",
      "alert": "OK",
      "vis_m": 9999,
      "fzfg": false,
      "metar_trigger": false,
      "taf_trigger": false,
      "metar": "METAR LQSA 151030Z VRB02KT 9999 SCT045 14/M02 Q1008 NOSIG",
      "taf": "TAF LQSA 150500Z 1506/1606 29006KT CAVOK TX18/1514Z TNM00/1506Z"
    },
    {
      "icao": "LQTZ",
      "alert": "OK",
      "vis_m": 9999,
      "fzfg": false,
      "metar_trigger": false,
      "taf_trigger": false,
      "metar": "METAR LQTZ 151030Z 10003KT 050V160 CAVOK 17/M03 Q1009",
      "taf": "TAF LQTZ 150500Z 1506/1606 VRB02KT 9999 SCT050 TX19/1513Z TN01/1605Z"
    },
    {
      "icao": "LRBC",
      "alert": "OK",
      "vis_m": 9999,
      "fzfg": false,
      "metar_trigger": false,
      "taf_trigger": false,
      "metar": "METAR LRBC 151030Z 01008KT 310V050 CAVOK 11/M02 Q1016",
      "taf": "TAF LRBC 150800Z 1509/1518 02007KT CAVOK"
    },
    {
      "icao": "LRBS",
      "alert": "OK",
      "vis_m": 9999,
      "fzfg": false,
      "metar_trigger": false,
      "taf_trigger": false,
      "metar": "METAR LRBS 151030Z 08012KT CAVOK 10/03 Q1014 NOSIG",
      "taf": "TAF LRBS 150500Z 1506/1606 06011KT 9999 BKN010"
    },
    {
      "icao": "LRBV",
      "alert": "OK",
      "vis_m": 9999,
      "fzfg": false,
      "metar_trigger": false,
      "taf_trigger": false,
      "metar": "METAR LRBV 151030Z 07009KT 020V130 CAVOK 11/M03 Q1012",
      "taf": "TAF LRBV 150800Z 1509/1518 VRB04KT CAVOK"
    },
    {
      "icao": "LRCL",
      "alert": "OK",
      "vis_m": 9999,
      "fzfg": false,
      "metar_trigger": false,
      "taf_trigger": false,
      "metar": "METAR LRCL 151030Z 13006KT 060V190 CAVOK 12/M04 Q1013",
      "taf": "TAF LRCL 150800Z 1509/1518 VRB04KT CAVOK"
    },
    {
      "icao": "LRCV",
      "alert": "OK",
      "vis_m": 9999,
      "fzfg": false,
      "metar_trigger": false,
      "taf_trigger": false,
      "metar": "METAR LRCV 151030Z 11009KT 9999 FEW017 BKN021 09/04 Q1014",
      "taf": "TAF LRCV 150800Z 1509/1518 10010KT CAVOK"
    },
    {
      "icao": "LRIA",
      "alert": "OK",
      "vis_m": 9999,
      "fzfg": false,
      "metar_trigger": false,
      "taf_trigger": false,
      "metar": "METAR LRIA 151030Z 06011KT CAVOK 11/M04 Q1016",
      "taf": "TAF LRIA 150800Z 1509/1518 09008KT CAVOK"
    },
    {
      "icao": "LROP",
      "alert": "OK",
      "vis_m": 9999,
      "fzfg": false,
      "metar_trigger": false,
      "taf_trigger": false,
      "metar": "METAR LROP 151030Z 08013KT CAVOK 11/M00 Q1014 NOSIG",
      "taf": "TAF LROP 150500Z 1506/1606 06011KT 5000 BR BKN010"
    },
    {
      "icao": "LRSB",
      "alert": "OK",
      "vis_m": 9999,
      "fzfg": false,
      "metar_trigger": false,
      "taf_trigger": false,
      "metar": "METAR LRSB 151030Z 09008KT 040V130 CAVOK 13/M05 Q1012",
      "taf": "TAF LRSB 150500Z 1506/1606 VRB04KT CAVOK"
    },
    {
      "icao": "LRSM",
      "alert": "OK",
      "vis_m": 9999,
      "fzfg": false,
      "metar_trigger": false,
      "taf_trigger": false,
      "metar": "METAR LRSM 151030Z 12006KT 030V190 CAVOK 15/M05 Q1013",
      "taf": "TAF LRSM 150800Z 1509/1518 13008KT CAVOK"
    },
    {
      "icao": "LRSV",
      "alert": "OK",
      "vis_m": 9999,
      "fzfg": false,
      "metar_trigger": false,
      "taf_trigger": false,
      "metar": "METAR LRSV 151030Z 09009KT 060V130 CAVOK 09/M03 Q1016",
      "taf": "TAF LRSV 150800Z 1509/1518 12008KT CAVOK"
    },
    {
      "icao": "LRTM",
      "alert": "OK",
      "vis_m": 9999,
      "fzfg": false,
      "metar_trigger": false,
      "taf_trigger": false,
      "metar": "METAR LRTM 151030Z 11012KT CAVOK 13/M06 Q1012",
      "taf": "TAF LRTM 150800Z 1509/1518 12006KT CAVOK"
    },
    {
      "icao": "LRTR",
      "alert": "OK",
      "vis_m": 9999,
      "fzfg": false,
      "metar_trigger": false,
      "taf_trigger": false,
      "metar": "METAR LRTR 151030Z 10005KT 010V160 CAVOK 14/M02 Q1012 NOSIG",
      "taf": "TAF LRTR 150500Z 1506/1606 10008KT CAVOK"
    },
    {
      "icao": "LTAC",
      "alert": "OK",
      "vis_m": 9999,
      "fzfg": false,
      "metar_trigger": false,
      "taf_trigger": false,
      "metar": "METAR LTAC 151020Z 02010KT 340V050 9999 FEW040 SCT180 13/M01 Q1003 NOSIG RMK RWY21C 03010KT 360V080 RWY03L 02008KT 350V060 RWY21R 02010KT 350V050 RWY03R 02008KT 330V110 RWY21L 04010KT 010V080",
      "taf": ""
    },
    {
      "icao": "LTFM",
      "alert": "OK",
      "vis_m": 9999,
      "fzfg": false,
      "metar_trigger": false,
      "taf_trigger": false,
      "metar": "METAR LTFM 151020Z 35013KT 9999 BKN024 08/04 Q1011 NOSIG RMK RWY17L 34010KT RWY34L 35013KT RWY16R 35011KT RWY36 36013KT RWY18 36011KT",
      "taf": "TAF LTFM 150440Z 1506/1612 04012KT 9999 BKN020"
    },
    {
      "icao": "LUKK",
      "alert": "OK",
      "vis_m": 9999,
      "fzfg": false,
      "metar_trigger": false,
      "taf_trigger": false,
      "metar": "METAR LUKK 151030Z 09017KT CAVOK 11/M02 Q1016 NOSIG",
      "taf": ""
    },
    {
      "icao": "LWOH",
      "alert": "OK",
      "vis_m": 9999,
      "fzfg": false,
      "metar_trigger": false,
      "taf_trigger": false,
      "metar": "METAR LWOH 151050Z 15006KT 120V180 9999 FEW030 11/04 Q1009",
      "taf": "TAF LWOH 150830Z 1509/1609 16010KT 9999 SCT040"
    },
    {
      "icao": "LWSK",
      "alert": "OK",
      "vis_m": 9999,
      "fzfg": false,
      "metar_trigger": false,
      "taf_trigger": false,
      "metar": "METAR LWSK 151050Z 28002KT CAVOK 16/04 Q1009 NOSIG",
      "taf": "TAF LWSK 150830Z 1509/1609 VRB02KT CAVOK"
    },
    {
      "icao": "LYBE",
      "alert": "OK",
      "vis_m": 9999,
      "fzfg": false,
      "metar_trigger": false,
      "taf_trigger": false,
      "metar": "METAR LYBE 151030Z 12013KT CAVOK 14/01 Q1011 NOSIG",
      "taf": "TAF LYBE 150500Z 1506/1606 13012KT CAVOK TX18/1513Z TN04/1605Z"
    },
    {
      "icao": "LYNI",
      "alert": "OK",
      "vis_m": 9999,
      "fzfg": false,
      "metar_trigger": false,
      "taf_trigger": false,
      "metar": "METAR LYNI 151030Z 03004KT 300V080 CAVOK 13/02 Q1010 NOSIG",
      "taf": "TAF LYNI 150500Z 1506/1606 05005KT CAVOK TX18/1513Z TN02/1605Z"
    },
    {
      "icao": "LYPG",
      "alert": "OK",
      "vis_m": 9999,
      "fzfg": false,
      "metar_trigger": false,
      "taf_trigger": false,
      "metar": "METAR LYPG 151030Z 13003KT 040V190 9999 FEW060 17/03 Q1008 NOSIG",
      "taf": "TAF LYPG 150500Z 1506/1606 16005KT CAVOK TX20/1513Z TN06/1605Z"
    },
    {
      "icao": "LZIB",
      "alert": "OK",
      "vis_m": 9999,
      "fzfg": false,
      "metar_trigger": false,
      "taf_trigger": false,
      "metar": "METAR LZIB 151030Z 07007KT 040V110 CAVOK 13/01 Q1013 NOSIG",
      "taf": "TAF LZIB 150515Z 1506/1606 04008KT CAVOK"
    },
    {
      "icao": "LZKZ",
      "alert": "OK",
      "vis_m": 9999,
      "fzfg": false,
      "metar_trigger": false,
      "taf_trigger": false,
      "metar": "METAR LZKZ 151030Z VRB02KT CAVOK 14/M02 Q1013 NOSIG",
      "taf": "TAF LZKZ 150515Z 1506/1606 01005KT CAVOK"
    },
    {
      "icao": "LZTT",
      "alert": "OK",
      "vis_m": 9999,
      "fzfg": false,
      "metar_trigger": false,
      "taf_trigger": false,
      "metar": "METAR LZTT 151030Z 14004KT 080V200 9999 FEW060 13/M03 Q1012 NOSIG",
      "taf": "TAF LZTT 150515Z 1506/1606 26004KT CAVOK"
    },
    {
      "icao": "OEJN",
      "alert": "OK",
      "vis_m": 500,
      "fzfg": false,
      "metar_trigger": false,
      "taf_trigger": false,
      "metar": "METAR OEJN 151000Z 18024G34KT 0500 SS NSC 36/17 Q1005 TEMPO 0300",
      "taf": "TAF OEJN 150500Z 1506/1612 20018KT 7000 NSC"
    },
    {
      "icao": "OEMA",
      "alert": "OK",
      "vis_m": 9999,
      "fzfg": false,
      "metar_trigger": false,
      "taf_trigger": false,
      "metar": "METAR OEMA 151000Z 23010KT CAVOK 33/11 Q1010 NOSIG",
      "taf": "TAF OEMA 150500Z 1506/1612 20018KT 7000 FEW040"
    },
    {
      "icao": "OJAI",
      "alert": "OK",
      "vis_m": 4000,
      "fzfg": false,
      "metar_trigger": false,
      "taf_trigger": false,
      "metar": "METAR OJAI 151000Z 22020KT 4000 BLDU SCT030 14/08 Q1010 NOSIG",
      "taf": "TAF OJAI 150500Z 1506/1612 27014KT 4000 BR SCT020"
    },
    {
      "icao": "OMAA",
      "alert": "OK",
      "vis_m": null,
      "fzfg": false,
      "metar_trigger": false,
      "taf_trigger": false,
      "metar": "",
      "taf": ""
    },
    {
      "icao": "OMDB",
      "alert": "OK",
      "vis_m": null,
      "fzfg": false,
      "metar_trigger": false,
      "taf_trigger": false,
      "metar": "",
      "taf": ""
    },
    {
      "icao": "UAAA",
      "alert": "OK",
      "vis_m": 9999,
      "fzfg": false,
      "metar_trigger": false,
      "taf_trigger": false,
      "metar": "METAR UAAA 151030Z 34004MPS 9999 BKN200 07/M05 Q1026 NOSIG",
      "taf": "TAF UAAA 150502Z 1506/1606 26004MPS 9999 SCT100 TX06/1509Z TNM04/1601Z"
    },
    {
      "icao": "UBBB",
      "alert": "OK",
      "vis_m": 9999,
      "fzfg": false,
      "metar_trigger": false,
      "taf_trigger": false,
      "metar": "METAR UBBB 151030Z 14014KT 9999 FEW060CB 11/06 Q1018 NOSIG",
      "taf": "TAF UBBB 151055Z 1512/1612 13010KT 9999 BKN040 TX11/1512Z TN07/1600Z"
    },
    {
      "icao": "UDSG",
      "alert": "OK",
      "vis_m": 3400,
      "fzfg": false,
      "metar_trigger": false,
      "taf_trigger": false,
      "metar": "METAR UDSG 151030Z 26002KT 3400 -RA BR SCT005 OVC023 02/02 Q1013 NOSIG",
      "taf": "TAF UDSG 150458Z 1506/1606 VRB06KT 5000 BR OVC030"
    },
    {
      "icao": "UDYZ",
      "alert": "OK",
      "vis_m": 2100,
      "fzfg": false,
      "metar_trigger": false,
      "taf_trigger": false,
      "metar": "METAR UDYZ 151030Z 24003KT 2100 R08/1800N -SHRA BR FEW003 OVC023CB 08/07 Q1012 NOSIG",
      "taf": "TAF UDYZ 150500Z 1506/1606 20006KT 3500 BR BKN030"
    },
    {
      "icao": "UGKO",
      "alert": "OK",
      "vis_m": 9999,
      "fzfg": false,
      "metar_trigger": false,
      "taf_trigger": false,
      "metar": "METAR UGKO 151030Z 08040G55KT CAVOK 14/01 Q1007 NOSIG",
      "taf": "TAF UGKO 150500Z 1506/1606 08033G47KT CAVOK TX14/1511Z TN06/1603Z"
    }
  ]
}