{
  "ts_utc": "2026-03-14T04:57:03Z",
  "threshold_m": 150,
  "source": "stations_override.txt (ICAO list) + aviationweather.gov (METAR/TAF raw)",
  "station_count": 159,
  "stations": [
    {
      "icao": "BIKF",
      "alert": "OK",
      "vis_m": 9999,
      "fzfg": false,
      "metar_trigger": false,
      "taf_trigger": false,
      "metar": "METAR BIKF 140430Z 33001KT 9999 FEW012 BKN100 M00/M03 Q0989",
      "taf": "TAF BIKF 140444Z 1406/1506 30005KT 9999 FEW025 SCT035 TX04/1415Z TNM02/1407Z"
    },
    {
      "icao": "BKPR",
      "alert": "OK",
      "vis_m": 9999,
      "fzfg": false,
      "metar_trigger": false,
      "taf_trigger": false,
      "metar": "METAR BKPR 140430Z VRB01KT CAVOK 00/M02 Q1013 NOSIG",
      "taf": "TAF BKPR 132330Z 1400/1424 VRB03KT CAVOK"
    },
    {
      "icao": "EBCI",
      "alert": "OK",
      "vis_m": 2500,
      "fzfg": false,
      "metar_trigger": false,
      "taf_trigger": false,
      "metar": "METAR EBCI 140450Z 28003KT 2500 -SN SCT003 BKN004 01/00 Q0999 NOSIG",
      "taf": "TAF EBCI 132302Z 1400/1506 28006KT 9999 -RA BKN012"
    },
    {
      "icao": "EDDB",
      "alert": "OK",
      "vis_m": 9999,
      "fzfg": false,
      "metar_trigger": false,
      "taf_trigger": false,
      "metar": "METAR EDDB 140450Z AUTO 15010KT CAVOK 10/02 Q0998 NOSIG",
      "taf": "TAF EDDB 132300Z 1400/1424 17008KT 9999 SCT020"
    },
    {
      "icao": "EDDH",
      "alert": "OK",
      "vis_m": 9999,
      "fzfg": false,
      "metar_trigger": false,
      "taf_trigger": false,
      "metar": "METAR EDDH 140450Z AUTO 09003KT 040V110 9999 FEW018 BKN031 BKN042 04/03 Q0999 TEMPO BKN014",
      "taf": "TAF EDDH 132300Z 1400/1506 15003KT 9999 BKN020"
    },
    {
      "icao": "EDDK",
      "alert": "OK",
      "vis_m": 9999,
      "fzfg": false,
      "metar_trigger": false,
      "taf_trigger": false,
      "metar": "METAR EDDK 140450Z AUTO 13002KT 9999 -RA FEW005 SCT009 OVC014 03/03 Q0999 TEMPO RA BKN007",
      "taf": "TAF EDDK 132300Z 1400/1506 33004KT 9999 SCT010 BKN020"
    },
    {
      "icao": "EDDN",
      "alert": "OK",
      "vis_m": 9999,
      "fzfg": false,
      "metar_trigger": false,
      "taf_trigger": false,
      "metar": "METAR EDDN 140450Z AUTO 14008KT CAVOK 08/02 Q0998",
      "taf": "TAF EDDN 132300Z 1400/1424 13007KT CAVOK"
    },
    {
      "icao": "EDDS",
      "alert": "OK",
      "vis_m": 9999,
      "fzfg": false,
      "metar_trigger": false,
      "taf_trigger": false,
      "metar": "METAR EDDS 140450Z AUTO 25011KT 200V280 9999 SHRA FEW026 BKN044 FEW///TCU 09/05 Q0999",
      "taf": "TAF EDDS 132300Z 1400/1424 19004KT 9999 BKN030"
    },
    {
      "icao": "EDFH",
      "alert": "OK",
      "vis_m": 9999,
      "fzfg": false,
      "metar_trigger": false,
      "taf_trigger": false,
      "metar": "METAR EDFH 140450Z 24008KT 9999 -RA SCT003 01/01 Q0998",
      "taf": ""
    },
    {
      "icao": "EDJA",
      "alert": "OK",
      "vis_m": 9999,
      "fzfg": false,
      "metar_trigger": false,
      "taf_trigger": false,
      "metar": "METAR EDJA 140420Z AUTO 19003KT 9999 // BKN120/// OVC140/// 04/02 Q0999",
      "taf": "TAF EDJA 140200Z 1403/1412 19004KT 9999 FEW040"
    },
    {
      "icao": "EDLW",
      "alert": "OK",
      "vis_m": 9999,
      "fzfg": false,
      "metar_trigger": false,
      "taf_trigger": false,
      "metar": "METAR EDLW 140420Z 15004KT 9999 -RA FEW007 SCT016 OVC039 03/02 Q0999",
      "taf": "TAF EDLW 140435Z 1405/1424 19005KT 9999 SCT010 BKN020"
    },
    {
      "icao": "EDNY",
      "alert": "OK",
      "vis_m": 9999,
      "fzfg": false,
      "metar_trigger": false,
      "taf_trigger": false,
      "metar": "METAR EDNY 140420Z AUTO VRB01KT 9999 // FEW120/// BKN180/// BKN210/// 04/02 Q1000",
      "taf": "TAF EDNY 140200Z 1403/1412 VRB02KT 9999 BKN045"
    },
    {
      "icao": "EDSB",
      "alert": "OK",
      "vis_m": 7000,
      "fzfg": false,
      "metar_trigger": false,
      "taf_trigger": false,
      "metar": "METAR EDSB 140420Z 24005KT 210V270 7000 RADZ FEW006 SCT009 OVC019 08/07 Q1001",
      "taf": "TAF EDSB 132300Z 1400/1424 21007KT 9999 BKN030"
    },
    {
      "icao": "EETN",
      "alert": "OK",
      "vis_m": 9999,
      "fzfg": false,
      "metar_trigger": false,
      "taf_trigger": false,
      "metar": "METAR EETN 140450Z 17008KT 130V190 CAVOK 06/03 Q1006 NOSIG",
      "taf": "TAF EETN 132330Z 1400/1424 18010KT 9999 FEW040"
    },
    {
      "icao": "EFTU",
      "alert": "OK",
      "vis_m": 4800,
      "fzfg": false,
      "metar_trigger": false,
      "taf_trigger": false,
      "metar": "METAR EFTU 140450Z AUTO 15006KT 120V180 4800 -RA SCT003 OVC040 03/02 Q1003",
      "taf": ""
    },
    {
      "icao": "EGBB",
      "alert": "OK",
      "vis_m": 9999,
      "fzfg": false,
      "metar_trigger": false,
      "taf_trigger": false,
      "metar": "METAR EGBB 140450Z 28005KT CAVOK 03/01 Q1001",
      "taf": "TAF EGBB 132303Z 1400/1424 26010KT 9999 FEW045"
    },
    {
      "icao": "EGGP",
      "alert": "OK",
      "vis_m": 9999,
      "fzfg": false,
      "metar_trigger": false,
      "taf_trigger": false,
      "metar": "METAR EGGP 140450Z 26008KT 9999 FEW021 02/01 Q1001",
      "taf": "TAF EGGP 132256Z 1400/1424 27005KT 9999 FEW045"
    },
    {
      "icao": "EGGW",
      "alert": "OK",
      "vis_m": 9999,
      "fzfg": false,
      "metar_trigger": false,
      "taf_trigger": false,
      "metar": "METAR EGGW 140450Z AUTO 29011KT 9999 NCD 01/00 Q1000",
      "taf": "TAF EGGW 132258Z 1400/1424 26007KT 9999 FEW045"
    },
    {
      "icao": "EGKK",
      "alert": "OK",
      "vis_m": 9999,
      "fzfg": false,
      "metar_trigger": false,
      "taf_trigger": false,
      "metar": "METAR EGKK 140450Z 22003KT 190V260 CAVOK 01/M00 Q1001",
      "taf": "TAF EGKK 132254Z 1400/1506 23004KT CAVOK"
    },
    {
      "icao": "EGNM",
      "alert": "OK",
      "vis_m": 9999,
      "fzfg": false,
      "metar_trigger": false,
      "taf_trigger": false,
      "metar": "METAR EGNM 140450Z 27010KT CAVOK 02/01 Q0999",
      "taf": "TAF EGNM 132254Z 1400/1424 27007KT 9999 FEW040"
    },
    {
      "icao": "EGPD",
      "alert": "OK",
      "vis_m": 9999,
      "fzfg": false,
      "metar_trigger": false,
      "taf_trigger": false,
      "metar": "METAR EGPD 140450Z COR AUTO 28009KT 9999 NCD 03/M02 Q0995 NOSIG",
      "taf": "TAF EGPD 132257Z 1400/1424 25009KT 9999 FEW040"
    },
    {
      "icao": "EGPF",
      "alert": "OK",
      "vis_m": 9999,
      "fzfg": false,
      "metar_trigger": false,
      "taf_trigger": false,
      "metar": "METAR EGPF 140450Z AUTO 25002KT 9999 NCD 02/01 Q0999",
      "taf": "TAF EGPF 132259Z 1400/1424 26009KT 9999 SCT030"
    },
    {
      "icao": "EHBK",
      "alert": "OK",
      "vis_m": 9000,
      "fzfg": false,
      "metar_trigger": false,
      "taf_trigger": false,
      "metar": "METAR EHBK 140425Z AUTO 17003KT 9000 -RA FEW008/// SCT009/// BKN010/// 03/03 Q0998 REDZRA",
      "taf": "TAF EHBK 132339Z 1400/1506 18006KT 9999 -RA BKN018"
    },
    {
      "icao": "EHEH",
      "alert": "OK",
      "vis_m": 9999,
      "fzfg": false,
      "metar_trigger": false,
      "taf_trigger": false,
      "metar": "METAR EHEH 140425Z AUTO 18004KT 9999 DZ FEW007 SCT023 BKN045 04/04 Q0999 BLU",
      "taf": "TAF EHEH 132306Z 1400/1506 24004KT CAVOK"
    },
    {
      "icao": "EKBI",
      "alert": "OK",
      "vis_m": 8000,
      "fzfg": false,
      "metar_trigger": false,
      "taf_trigger": false,
      "metar": "METAR EKBI 140450Z AUTO 16002KT 8000 OVC004/// 03/02 Q0998",
      "taf": "TAF EKBI 140227Z 1403/1503 22008KT 9999 BKN008"
    },
    {
      "icao": "EKCH",
      "alert": "OK",
      "vis_m": 9999,
      "fzfg": false,
      "metar_trigger": false,
      "taf_trigger": false,
      "metar": "METAR EKCH 140450Z AUTO 30001KT 9999 -RA OVC030/// 03/03 Q1000 NOSIG",
      "taf": "TAF EKCH 140227Z 1403/1503 18007KT CAVOK"
    },
    {
      "icao": "ENAL",
      "alert": "OK",
      "vis_m": 9999,
      "fzfg": false,
      "metar_trigger": false,
      "taf_trigger": false,
      "metar": "METAR ENAL 140420Z AUTO 19017KT 160V220 9999 NCD 06/00 Q0986",
      "taf": "TAF ENAL 140200Z 1403/1412 18012KT 9999 FEW030"
    },
    {
      "icao": "ENBR",
      "alert": "OK",
      "vis_m": 9999,
      "fzfg": false,
      "metar_trigger": false,
      "taf_trigger": false,
      "metar": "METAR ENBR 140420Z 16016KT 9999 -RA FEW013 BKN021 03/02 Q0991 RMK WIND 1200FT 17018KT",
      "taf": "TAF ENBR 132300Z 1400/1424 16018KT 9999 FEW007 BKN020"
    },
    {
      "icao": "ENGM",
      "alert": "OK",
      "vis_m": 9000,
      "fzfg": false,
      "metar_trigger": false,
      "taf_trigger": false,
      "metar": "METAR ENGM 140420Z 17008KT 9000 -RA BKN004 02/01 Q0996",
      "taf": "TAF ENGM 132300Z 1400/1424 19010KT 9999 SCT010 BKN015"
    },
    {
      "icao": "ENHD",
      "alert": "OK",
      "vis_m": 9999,
      "fzfg": false,
      "metar_trigger": false,
      "taf_trigger": false,
      "metar": "METAR ENHD 140420Z AUTO 16010KT 9999 OVC007/// 05/04 Q0992",
      "taf": "TAF ENHD 140200Z 1403/1412 17012KT 9999 FEW008 BKN020"
    },
    {
      "icao": "ENTC",
      "alert": "OK",
      "vis_m": 9999,
      "fzfg": false,
      "metar_trigger": false,
      "taf_trigger": false,
      "metar": "METAR ENTC 140420Z 20004KT 170V250 9999 -RA SCT014 OVC017 03/01 Q0980 RMK WIND 2600FT 27016KT",
      "taf": ""
    },
    {
      "icao": "ENTO",
      "alert": "OK",
      "vis_m": 9999,
      "fzfg": false,
      "metar_trigger": false,
      "taf_trigger": false,
      "metar": "METAR ENTO 140420Z AUTO 21007KT 9999 OVC005/// 03/03 Q0996",
      "taf": "TAF ENTO 132300Z 1400/1424 20010KT 8000 BKN006"
    },
    {
      "icao": "ENVA",
      "alert": "OK",
      "vis_m": 9999,
      "fzfg": false,
      "metar_trigger": false,
      "taf_trigger": false,
      "metar": "METAR ENVA 140420Z 16011KT CAVOK 05/M02 Q0989 RMK WIND 670FT 17025G38KT",
      "taf": "TAF ENVA 132300Z 1400/1424 13006KT CAVOK"
    },
    {
      "icao": "ENZV",
      "alert": "OK",
      "vis_m": 9999,
      "fzfg": false,
      "metar_trigger": false,
      "taf_trigger": false,
      "metar": "METAR ENZV 140420Z 18009KT 9999 BKN012 04/03 Q0993",
      "taf": "TAF ENZV 132300Z 1400/1424 19012KT 9999 SCT015 BKN030"
    },
    {
      "icao": "EPGD",
      "alert": "OK",
      "vis_m": 9999,
      "fzfg": false,
      "metar_trigger": false,
      "taf_trigger": false,
      "metar": "METAR EPGD 140430Z 17009KT CAVOK 07/04 Q1003",
      "taf": "TAF EPGD 132330Z 1400/1424 18010KT CAVOK"
    },
    {
      "icao": "EPKK",
      "alert": "OK",
      "vis_m": 9999,
      "fzfg": false,
      "metar_trigger": false,
      "taf_trigger": false,
      "metar": "METAR EPKK 140430Z 03005KT CAVOK 02/M00 Q1008",
      "taf": "TAF EPKK 140230Z 1403/1503 06004KT CAVOK"
    },
    {
      "icao": "EPKT",
      "alert": "OK",
      "vis_m": 9999,
      "fzfg": false,
      "metar_trigger": false,
      "taf_trigger": false,
      "metar": "METAR EPKT 140430Z 12009KT CAVOK 06/01 Q1007",
      "taf": "TAF EPKT 132330Z 1400/1424 16010KT CAVOK"
    },
    {
      "icao": "EPLB",
      "alert": "OK",
      "vis_m": 9999,
      "fzfg": false,
      "metar_trigger": false,
      "taf_trigger": false,
      "metar": "METAR EPLB 140430Z 09004KT CAVOK 02/M04 Q1012",
      "taf": "TAF EPLB 132330Z 1400/1424 15005KT CAVOK"
    },
    {
      "icao": "EPMO",
      "alert": "OK",
      "vis_m": 9999,
      "fzfg": false,
      "metar_trigger": false,
      "taf_trigger": false,
      "metar": "METAR EPMO 140430Z 13007KT CAVOK 07/03 Q1008",
      "taf": "TAF EPMO 132330Z 1400/1424 16008KT CAVOK"
    },
    {
      "icao": "EPPO",
      "alert": "OK",
      "vis_m": 9999,
      "fzfg": false,
      "metar_trigger": false,
      "taf_trigger": false,
      "metar": "METAR EPPO 140430Z 15010KT CAVOK 08/04 Q1002",
      "taf": "TAF EPPO 132330Z 1400/1424 16010KT CAVOK"
    },
    {
      "icao": "EPRA",
      "alert": "OK",
      "vis_m": 9999,
      "fzfg": false,
      "metar_trigger": false,
      "taf_trigger": false,
      "metar": "METAR EPRA 140430Z 15007KT CAVOK 05/01 Q1010",
      "taf": "TAF EPRA 140230Z 1403/1412 16010KT CAVOK"
    },
    {
      "icao": "EPRZ",
      "alert": "OK",
      "vis_m": 9999,
      "fzfg": false,
      "metar_trigger": false,
      "taf_trigger": false,
      "metar": "METAR EPRZ 140430Z 07005KT CAVOK 03/M00 Q1011",
      "taf": "TAF EPRZ 132330Z 1400/1424 16006KT CAVOK"
    },
    {
      "icao": "EPSC",
      "alert": "OK",
      "vis_m": 9999,
      "fzfg": false,
      "metar_trigger": false,
      "taf_trigger": false,
      "metar": "METAR EPSC 140430Z 14011KT CAVOK 09/02 Q0999",
      "taf": "TAF EPSC 132330Z 1400/1424 17010KT 9999 BKN040"
    },
    {
      "icao": "EPSY",
      "alert": "OK",
      "vis_m": 9999,
      "fzfg": false,
      "metar_trigger": false,
      "taf_trigger": false,
      "metar": "METAR EPSY 140430Z 14005KT 120V180 CAVOK 06/03 Q1007",
      "taf": "TAF EPSY 140230Z 1403/1412 16005KT CAVOK"
    },
    {
      "icao": "EPWA",
      "alert": "OK",
      "vis_m": 9999,
      "fzfg": false,
      "metar_trigger": false,
      "taf_trigger": false,
      "metar": "METAR EPWA 140430Z 15009KT CAVOK 05/02 Q1009 NOSIG",
      "taf": "TAF EPWA 140230Z 1403/1503 16008KT CAVOK"
    },
    {
      "icao": "EPWR",
      "alert": "OK",
      "vis_m": 9999,
      "fzfg": false,
      "metar_trigger": false,
      "taf_trigger": false,
      "metar": "METAR EPWR 140430Z 12009KT CAVOK 06/04 Q1004",
      "taf": "TAF EPWR 140230Z 1403/1503 14008KT CAVOK"
    },
    {
      "icao": "ESGG",
      "alert": "OK",
      "vis_m": 1800,
      "fzfg": false,
      "metar_trigger": false,
      "taf_trigger": false,
      "metar": "METAR ESGG 140450Z 16005KT 1800 BR VV004 02/02 Q0998",
      "taf": "TAF ESGG 140230Z 1403/1503 18008KT 9999 OVC003"
    },
    {
      "icao": "ESKN",
      "alert": "OK",
      "vis_m": 9999,
      "fzfg": false,
      "metar_trigger": false,
      "taf_trigger": false,
      "metar": "METAR ESKN 140450Z 00000KT 9999 -DZ SCT019 BKN025 03/03 Q1000",
      "taf": "TAF ESKN 140230Z 1403/1503 15005KT 9999 BKN030"
    },
    {
      "icao": "ESMS",
      "alert": "OK",
      "vis_m": 8000,
      "fzfg": false,
      "metar_trigger": false,
      "taf_trigger": false,
      "metar": "METAR ESMS 140450Z 01006KT 8000 RA FEW007 SCT018 BKN025 03/03 Q0999",
      "taf": "TAF ESMS 140227Z 1403/1503 VRB02KT 9999 -RA BKN020"
    },
    {
      "icao": "ESSA",
      "alert": "OK",
      "vis_m": 9999,
      "fzfg": false,
      "metar_trigger": false,
      "taf_trigger": false,
      "metar": "METAR ESSA 140450Z VRB02KT 9999 BKN029 03/03 Q1001 NOSIG",
      "taf": "TAF ESSA 140230Z 1403/1503 16008KT 9999 FEW025 OVC040"
    },
    {
      "icao": "EYKA",
      "alert": "OK",
      "vis_m": 9999,
      "fzfg": false,
      "metar_trigger": false,
      "taf_trigger": false,
      "metar": "METAR EYKA 140450Z 15010KT 120V180 CAVOK 07/M00 Q1011",
      "taf": "TAF EYKA 132300Z 1400/1424 15008KT 9000 NSC"
    },
    {
      "icao": "EYPA",
      "alert": "OK",
      "vis_m": 9999,
      "fzfg": false,
      "metar_trigger": false,
      "taf_trigger": false,
      "metar": "METAR EYPA 140450Z 16013KT CAVOK 08/04 Q1005",
      "taf": "TAF EYPA 132300Z 1400/1424 15011KT 9000 SCT045"
    },
    {
      "icao": "EYVI",
      "alert": "OK",
      "vis_m": 9999,
      "fzfg": false,
      "metar_trigger": false,
      "taf_trigger": false,
      "metar": "METAR EYVI 140450Z 16010KT CAVOK 05/M01 Q1013 NOSIG",
      "taf": "TAF EYVI 132300Z 1400/1424 15011KT 9000 NSC"
    },
    {
      "icao": "GCFV",
      "alert": "OK",
      "vis_m": 9999,
      "fzfg": false,
      "metar_trigger": false,
      "taf_trigger": false,
      "metar": "METAR GCFV 140430Z AUTO 03020KT 9999 OVC019 17/13 Q1019",
      "taf": "TAF GCFV 140200Z 1403/1503 03017KT 9999 FEW015 TX20/1414Z TN16/1406Z"
    },
    {
      "icao": "GCLP",
      "alert": "OK",
      "vis_m": 9999,
      "fzfg": false,
      "metar_trigger": false,
      "taf_trigger": false,
      "metar": "METAR GCLP 140430Z 01018KT 9999 SCT025 17/14 Q1018 NOSIG",
      "taf": "TAF GCLP 140200Z 1403/1503 01020KT 9999 SCT020 TX21/1414Z TN16/1406Z"
    },
    {
      "icao": "GCTS",
      "alert": "OK",
      "vis_m": 9999,
      "fzfg": false,
      "metar_trigger": false,
      "taf_trigger": false,
      "metar": "METAR GCTS 140430Z 07023KT CAVOK 17/12 Q1017 WS R07 NOSIG",
      "taf": ""
    },
    {
      "icao": "GMAD",
      "alert": "OK",
      "vis_m": 9999,
      "fzfg": false,
      "metar_trigger": false,
      "taf_trigger": false,
      "metar": "METAR GMAD 140430Z 12005KT CAVOK 10/08 Q1017 NOSIG",
      "taf": "TAF GMAD 132300Z 1400/1506 12004KT CAVOK"
    },
    {
      "icao": "GMMN",
      "alert": "OK",
      "vis_m": 3000,
      "fzfg": false,
      "metar_trigger": false,
      "taf_trigger": false,
      "metar": "METAR GMMN 140430Z VRB02KT 3000 BR BKN010 11/11 Q1020 NOSIG",
      "taf": ""
    },
    {
      "icao": "GMMX",
      "alert": "OK",
      "vis_m": 1500,
      "fzfg": false,
      "metar_trigger": false,
      "taf_trigger": false,
      "metar": "METAR GMMX 140430Z 28004KT 250V310 1500 BR OVC003 11/11 Q1019 NOSIG",
      "taf": "TAF GMMX 132300Z 1400/1506 04006KT 8000 NSC"
    },
    {
      "icao": "HEGN",
      "alert": "OK",
      "vis_m": 9999,
      "fzfg": false,
      "metar_trigger": false,
      "taf_trigger": false,
      "metar": "METAR HEGN 140400Z 00000KT 9999 SCT020 BKN025 21/13 Q1006 NOSIG",
      "taf": ""
    },
    {
      "icao": "HEMA",
      "alert": "OK",
      "vis_m": 9999,
      "fzfg": false,
      "metar_trigger": false,
      "taf_trigger": false,
      "metar": "METAR HEMA 140400Z 18005KT CAVOK 19/12 Q1006 NOSIG",
      "taf": ""
    },
    {
      "icao": "HESH",
      "alert": "OK",
      "vis_m": 9999,
      "fzfg": false,
      "metar_trigger": false,
      "taf_trigger": false,
      "metar": "METAR HESH 140400Z 22005KT CAVOK 23/08 Q1008 NOSIG",
      "taf": ""
    },
    {
      "icao": "HESX",
      "alert": "OK",
      "vis_m": 9999,
      "fzfg": false,
      "metar_trigger": false,
      "taf_trigger": false,
      "metar": "METAR HESX 140400Z 24006KT CAVOK 16/08 Q1000 NOSIG",
      "taf": ""
    },
    {
      "icao": "LATI",
      "alert": "OK",
      "vis_m": 4400,
      "fzfg": false,
      "metar_trigger": false,
      "taf_trigger": false,
      "metar": "METAR LATI 140450Z 16003KT 4400 BCFG NSC 05/03 Q1013 NOSIG",
      "taf": "TAF LATI 132300Z 1400/1424 VRB03KT 9999 BKN100 TX19/1413Z TN03/1404Z"
    },
    {
      "icao": "LBPD",
      "alert": "OK",
      "vis_m": 9999,
      "fzfg": false,
      "metar_trigger": false,
      "taf_trigger": false,
      "metar": "METAR LBPD 140430Z AUTO 13003KT 9999 NCD 00/M02 Q1016 NOSIG",
      "taf": "TAF LBPD 132300Z 1400/1424 VRB04KT CAVOK"
    },
    {
      "icao": "LBSF",
      "alert": "OK",
      "vis_m": 9999,
      "fzfg": false,
      "metar_trigger": false,
      "taf_trigger": false,
      "metar": "METAR LBSF 140430Z VRB02KT CAVOK M01/M03 Q1015 NOSIG",
      "taf": "TAF LBSF 132300Z 1400/1424 11010KT CAVOK"
    },
    {
      "icao": "LBWN",
      "alert": "OK",
      "vis_m": 9999,
      "fzfg": false,
      "metar_trigger": false,
      "taf_trigger": false,
      "metar": "METAR LBWN 140430Z AUTO 35003KT 9999 OVC011/// 03/03 Q1017 NOSIG",
      "taf": "TAF LBWN 132300Z 1400/1424 VRB03KT 3000 BR BKN005"
    },
    {
      "icao": "LCLK",
      "alert": "OK",
      "vis_m": 7000,
      "fzfg": false,
      "metar_trigger": false,
      "taf_trigger": false,
      "metar": "METAR LCLK 140430Z 06020KT 7000 -RA FEW040 15/13 Q1006 RERA NOSIG",
      "taf": "TAF LCLK 132330Z 1400/1500 02009KT 9999 FEW030"
    },
    {
      "icao": "LCPH",
      "alert": "OK",
      "vis_m": 8000,
      "fzfg": false,
      "metar_trigger": false,
      "taf_trigger": false,
      "metar": "METAR LCPH 140430Z 07016G26KT 8000 -RA SCT070 14/10 Q1004 BECMG 5000 RA BKN070",
      "taf": "TAF LCPH 132330Z 1400/1500 06009KT 9999 FEW020"
    },
    {
      "icao": "LEAL",
      "alert": "OK",
      "vis_m": 9999,
      "fzfg": false,
      "metar_trigger": false,
      "taf_trigger": false,
      "metar": "METAR LEAL 140430Z 17005KT 150V210 CAVOK 13/09 Q1009 NOSIG",
      "taf": "TAF LEAL 132300Z 1400/1424 VRB04KT CAVOK TX21/1412Z TN12/1406Z"
    },
    {
      "icao": "LEBB",
      "alert": "OK",
      "vis_m": 9999,
      "fzfg": false,
      "metar_trigger": false,
      "taf_trigger": false,
      "metar": "METAR LEBB 140430Z 29007KT 9999 -RA BKN023 BKN038 09/08 Q1011 TEMPO 3000 RA",
      "taf": "TAF LEBB 132300Z 1400/1424 32009KT 9999 SCT010 BKN035 TX09/1418Z TN07/1407Z"
    },
    {
      "icao": "LEBL",
      "alert": "OK",
      "vis_m": 7000,
      "fzfg": false,
      "metar_trigger": false,
      "taf_trigger": false,
      "metar": "METAR LEBL 140430Z 00000KT 7000 FEW015 12/11 Q1004 NOSIG",
      "taf": "TAF LEBL 132300Z 1400/1424 23007KT 9999 SCT015 TX14/1413Z TN08/1406Z"
    },
    {
      "icao": "LECH",
      "alert": "OK",
      "vis_m": 9999,
      "fzfg": false,
      "metar_trigger": false,
      "taf_trigger": false,
      "metar": "METAR LECH 140430Z AUTO 19006KT CAVOK 13/05 Q1006",
      "taf": ""
    },
    {
      "icao": "LEMD",
      "alert": "OK",
      "vis_m": 9999,
      "fzfg": false,
      "metar_trigger": false,
      "taf_trigger": false,
      "metar": "METAR LEMD 140430Z 28011KT 240V310 9999 BKN039 BKN049 12/05 Q1010 NOSIG",
      "taf": "TAF LEMD 132300Z 1400/1506 VRB05KT CAVOK TX13/1415Z TN08/1407Z"
    },
    {
      "icao": "LEMG",
      "alert": "OK",
      "vis_m": 9999,
      "fzfg": false,
      "metar_trigger": false,
      "taf_trigger": false,
      "metar": "METAR LEMG 140430Z 27008KT CAVOK 13/08 Q1014 NOSIG",
      "taf": "TAF LEMG 132300Z 1400/1424 29010KT 9999 FEW040 TX19/1415Z TN10/1407Z"
    },
    {
      "icao": "LEVC",
      "alert": "OK",
      "vis_m": 9999,
      "fzfg": false,
      "metar_trigger": false,
      "taf_trigger": false,
      "metar": "METAR LEVC 140430Z 24010KT 210V270 CAVOK 15/07 Q1007 NOSIG",
      "taf": "TAF LEVC 132300Z 1400/1424 VRB04KT CAVOK TX18/1414Z TN11/1406Z"
    },
    {
      "icao": "LEXJ",
      "alert": "OK",
      "vis_m": 5000,
      "fzfg": false,
      "metar_trigger": false,
      "taf_trigger": false,
      "metar": "SPECI LEXJ 140443Z 29013KT 260V320 5000 RA SCT007 BKN021 BKN029 07/06 Q1012",
      "taf": "TAF LEXJ 140200Z 1403/1503 29009KT 9999 SCT020 BKN035 TX10/1413Z TN08/1408Z"
    },
    {
      "icao": "LEZG",
      "alert": "OK",
      "vis_m": 9999,
      "fzfg": false,
      "metar_trigger": false,
      "taf_trigger": false,
      "metar": "METAR LEZG 140430Z 28015KT 9999 -RA FEW015 BKN025 10/09 Q1009 NOSIG",
      "taf": ""
    },
    {
      "icao": "LEZL",
      "alert": "OK",
      "vis_m": 9999,
      "fzfg": false,
      "metar_trigger": false,
      "taf_trigger": false,
      "metar": "METAR LEZL 140430Z 28006KT CAVOK 11/10 Q1016 NOSIG",
      "taf": "TAF LEZL 140200Z 1403/1503 VRB03KT 9999 FEW030 TX21/1415Z TN10/1407Z"
    },
    {
      "icao": "LFBD",
      "alert": "OK",
      "vis_m": 9999,
      "fzfg": false,
      "metar_trigger": false,
      "taf_trigger": false,
      "metar": "METAR LFBD 140430Z AUTO 29007KT 260V320 9999 -RADZ FEW034 BKN043 OVC054 07/05 Q1008 TEMPO 4000 -SHRA BKN015TCU",
      "taf": ""
    },
    {
      "icao": "LFLL",
      "alert": "OK",
      "vis_m": 6000,
      "fzfg": false,
      "metar_trigger": false,
      "taf_trigger": false,
      "metar": "METAR LFLL 140430Z 32011KT 240V350 6000 RA SCT009 FEW013TCU BKN020 06/05 Q1005 TEMPO 2500 BKN012",
      "taf": ""
    },
    {
      "icao": "LFLS",
      "alert": "OK",
      "vis_m": 9999,
      "fzfg": false,
      "metar_trigger": false,
      "taf_trigger": false,
      "metar": "METAR LFLS 140430Z AUTO 18017KT 9999 -RA FEW019/// BKN040/// BKN047/// ///TCU 08/05 Q1004 TEMPO 33015G25KT 2500 RA BKN012 SCT020TCU",
      "taf": ""
    },
    {
      "icao": "LFMN",
      "alert": "OK",
      "vis_m": 9999,
      "fzfg": false,
      "metar_trigger": false,
      "taf_trigger": false,
      "metar": "METAR LFMN 140430Z 33009KT 9999 FEW020 BKN250 09/06 Q1008 NOSIG",
      "taf": "TAF LFMN 140200Z 1403/1509 33010KT 9999 BKN020"
    },
    {
      "icao": "LFOB",
      "alert": "OK",
      "vis_m": 9999,
      "fzfg": false,
      "metar_trigger": false,
      "taf_trigger": false,
      "metar": "METAR LFOB 140430Z AUTO 26009KT CAVOK 03/02 Q1001 TEMPO 2500 SHRAGS SCT009 BKN013 SCT025TCU",
      "taf": "TAF LFOB 132300Z 1400/1424 31008KT 9999 BKN025 OVC040"
    },
    {
      "icao": "LFPO",
      "alert": "OK",
      "vis_m": 9999,
      "fzfg": false,
      "metar_trigger": false,
      "taf_trigger": false,
      "metar": "METAR LFPO 140430Z AUTO 26008KT 9999 BKN018 BKN084 BKN130 03/02 Q1003 TEMPO 4000 -SHRA BKN012TCU",
      "taf": ""
    },
    {
      "icao": "LFSB",
      "alert": "OK",
      "vis_m": 9999,
      "fzfg": false,
      "metar_trigger": false,
      "taf_trigger": false,
      "metar": "METAR LFSB 140430Z AUTO 26014KT 9999 -RA FEW019/// BKN044/// BKN052/// ///CB 07/05 Q1001 TEMPO 27015G25KT 4000 RA BKN010 SCT030TCU",
      "taf": "TAF LFSB 132300Z 1400/1424 21008KT CAVOK"
    },
    {
      "icao": "LGAV",
      "alert": "OK",
      "vis_m": 9999,
      "fzfg": false,
      "metar_trigger": false,
      "taf_trigger": false,
      "metar": "METAR LGAV 140450Z 01007KT 9999 FEW025 10/03 Q1013 NOSIG",
      "taf": "TAF LGAV 132300Z 1400/1424 34010KT 9999 FEW025"
    },
    {
      "icao": "LGTS",
      "alert": "OK",
      "vis_m": 8000,
      "fzfg": false,
      "metar_trigger": false,
      "taf_trigger": false,
      "metar": "METAR LGTS 140450Z 10005KT 8000 4000E BR SCT005 SCT012 05/05 Q1015 NOSIG",
      "taf": "TAF LGTS 132300Z 1400/1424 VRB03KT 9999 FEW030"
    },
    {
      "icao": "LHBP",
      "alert": "OK",
      "vis_m": 9999,
      "fzfg": false,
      "metar_trigger": false,
      "taf_trigger": false,
      "metar": "METAR LHBP 140430Z 12007KT CAVOK 02/M02 Q1011 NOSIG",
      "taf": "TAF LHBP 132315Z 1400/1424 12006KT CAVOK"
    },
    {
      "icao": "LHDC",
      "alert": "OK",
      "vis_m": 9999,
      "fzfg": false,
      "metar_trigger": false,
      "taf_trigger": false,
      "metar": "METAR LHDC 140415Z AUTO 10003KT CAVOK 00/M02 Q1013",
      "taf": ""
    },
    {
      "icao": "LIBD",
      "alert": "OK",
      "vis_m": 7000,
      "fzfg": false,
      "metar_trigger": false,
      "taf_trigger": false,
      "metar": "METAR LIBD 140450Z 22004KT 7000 NSC 06/06 Q1011",
      "taf": "TAF LIBD 132300Z 1400/1424 VRB05KT 9999 FEW020"
    },
    {
      "icao": "LIBG",
      "alert": "OK",
      "vis_m": null,
      "fzfg": false,
      "metar_trigger": false,
      "taf_trigger": false,
      "metar": "",
      "taf": "TAF LIBG 131700Z 1318/1403 VRB05KT 9999 SCT020"
    },
    {
      "icao": "LIBP",
      "alert": "OK",
      "vis_m": 400,
      "fzfg": false,
      "metar_trigger": false,
      "taf_trigger": false,
      "metar": "METAR LIBP 140450Z AUTO 20004KT 0400 R22/1800D FG NCD 04/04 Q1010",
      "taf": "TAF LIBP 132300Z 1400/1424 VRB05KT 3000 BCFG NSC"
    },
    {
      "icao": "LIBR",
      "alert": "OK",
      "vis_m": 3000,
      "fzfg": false,
      "metar_trigger": false,
      "taf_trigger": false,
      "metar": "METAR LIBR 140450Z 22002KT 3000 BR NSC 07/07 Q1012",
      "taf": "TAF LIBR 132300Z 1400/1424 VRB05KT 3000 BCFG SCT020"
    },
    {
      "icao": "LICA",
      "alert": "OK",
      "vis_m": 9999,
      "fzfg": false,
      "metar_trigger": false,
      "taf_trigger": false,
      "metar": "METAR LICA 140450Z AUTO 04008KT 9999 NCD 09/07 Q1011",
      "taf": "TAF LICA 132300Z 1400/1424 07006KT 9999 FEW040"
    },
    {
      "icao": "LICC",
      "alert": "OK",
      "vis_m": 9999,
      "fzfg": false,
      "metar_trigger": false,
      "taf_trigger": false,
      "metar": "METAR LICC 140450Z 25008KT CAVOK 06/04 Q1012",
      "taf": "TAF LICC 132300Z 1400/1424 26008KT 9999 SCT030"
    },
    {
      "icao": "LICJ",
      "alert": "OK",
      "vis_m": 9999,
      "fzfg": false,
      "metar_trigger": false,
      "taf_trigger": false,
      "metar": "METAR LICJ 140450Z 18005KT CAVOK 10/07 Q1011",
      "taf": "TAF LICJ 132300Z 1400/1424 18007KT 9999 FEW040"
    },
    {
      "icao": "LIMC",
      "alert": "OK",
      "vis_m": 8000,
      "fzfg": false,
      "metar_trigger": false,
      "taf_trigger": false,
      "metar": "METAR LIMC 140450Z 12005KT 8000 BKN030 10/09 Q1005 NOSIG",
      "taf": "TAF LIMC 132300Z 1400/1506 VRB04KT 7000 SCT030"
    },
    {
      "icao": "LIME",
      "alert": "OK",
      "vis_m": 9999,
      "fzfg": false,
      "metar_trigger": false,
      "taf_trigger": false,
      "metar": "METAR LIME 140450Z AUTO 10007KT 9999 BKN048/// 11/07 Q1007",
      "taf": "TAF LIME 132300Z 1400/1424 VRB04KT 8000 SCT030"
    },
    {
      "icao": "LIMF",
      "alert": "OK",
      "vis_m": 9999,
      "fzfg": false,
      "metar_trigger": false,
      "taf_trigger": false,
      "metar": "METAR LIMF 140450Z 36004KT 9999 FEW030 BKN110 09/05 Q1005",
      "taf": "TAF LIMF 132300Z 1400/1424 VRB05KT 7000 BKN035"
    },
    {
      "icao": "LIMJ",
      "alert": "OK",
      "vis_m": 9999,
      "fzfg": false,
      "metar_trigger": false,
      "taf_trigger": false,
      "metar": "METAR LIMJ 140450Z 18014KT 9999 SCT020 BKN060 14/11 Q1007",
      "taf": "TAF LIMJ 132300Z 1400/1424 VRB05KT 9999 SCT020"
    },
    {
      "icao": "LIPE",
      "alert": "OK",
      "vis_m": 9999,
      "fzfg": false,
      "metar_trigger": false,
      "taf_trigger": false,
      "metar": "METAR LIPE 140450Z 20006KT CAVOK 11/05 Q1007",
      "taf": "TAF LIPE 132300Z 1400/1424 VRB05KT CAVOK"
    },
    {
      "icao": "LIPH",
      "alert": "OK",
      "vis_m": 200,
      "fzfg": false,
      "metar_trigger": false,
      "taf_trigger": false,
      "metar": "METAR LIPH 140450Z AUTO 03003KT 360V060 0200 0150W R07/0600N FG VV002 08/08 Q1008",
      "taf": "TAF LIPH 132300Z 1400/1424 VRB05KT 2000 BCFG SCT040"
    },
    {
      "icao": "LIPQ",
      "alert": "OK",
      "vis_m": 9999,
      "fzfg": false,
      "metar_trigger": false,
      "taf_trigger": false,
      "metar": "METAR LIPQ 140450Z AUTO 09004KT 9999 FEW031/// SCT240/// 06/05 Q1009",
      "taf": "TAF LIPQ 132300Z 1400/1424 VRB05KT 9999 SCT030"
    },
    {
      "icao": "LIPR",
      "alert": "OK",
      "vis_m": 9999,
      "fzfg": false,
      "metar_trigger": false,
      "taf_trigger": false,
      "metar": "METAR LIPR 140450Z AUTO 19006KT 9999 NCD 09/07 Q1009",
      "taf": "TAF LIPR 132300Z 1400/1424 VRB05KT CAVOK"
    },
    {
      "icao": "LIPX",
      "alert": "OK",
      "vis_m": 7000,
      "fzfg": false,
      "metar_trigger": false,
      "taf_trigger": false,
      "metar": "METAR LIPX 140450Z 11003KT 7000 SCT080 09/08 Q1007",
      "taf": "TAF LIPX 132300Z 1400/1424 VRB04KT 7000 SCT030"
    },
    {
      "icao": "LIPY",
      "alert": "OK",
      "vis_m": 9999,
      "fzfg": false,
      "metar_trigger": false,
      "taf_trigger": false,
      "metar": "METAR LIPY 140450Z AUTO 17002KT 9999 FEW100/// 07/06 Q1009",
      "taf": "TAF LIPY 132300Z 1400/1424 VRB05KT CAVOK"
    },
    {
      "icao": "LIPZ",
      "alert": "OK",
      "vis_m": 2500,
      "fzfg": false,
      "metar_trigger": false,
      "taf_trigger": false,
      "metar": "METAR LIPZ 140450Z 04006KT 2500 BR BKN010 10/09 Q1008 NOSIG",
      "taf": "TAF LIPZ 132300Z 1400/1506 VRB05KT 9999 SCT040"
    },
    {
      "icao": "LIRF",
      "alert": "OK",
      "vis_m": 9999,
      "fzfg": false,
      "metar_trigger": false,
      "taf_trigger": false,
      "metar": "METAR LIRF 140450Z 09002KT CAVOK 07/07 Q1011 NOSIG",
      "taf": "TAF LIRF 132300Z 1400/1506 08006KT CAVOK"
    },
    {
      "icao": "LIRN",
      "alert": "OK",
      "vis_m": 9999,
      "fzfg": false,
      "metar_trigger": false,
      "taf_trigger": false,
      "metar": "METAR LIRN 140450Z 31002KT CAVOK 07/05 Q1011 NOSIG",
      "taf": "TAF LIRN 132300Z 1400/1424 VRB05KT 9999 FEW040"
    },
    {
      "icao": "LIRP",
      "alert": "OK",
      "vis_m": 9999,
      "fzfg": false,
      "metar_trigger": false,
      "taf_trigger": false,
      "metar": "METAR LIRP 140445Z 10008KT 9999 SCT025 08/08 Q1010 NOSIG",
      "taf": "TAF LIRP 132300Z 1400/1424 10002KT 8000 FEW003"
    },
    {
      "icao": "LIRZ",
      "alert": "OK",
      "vis_m": 9999,
      "fzfg": false,
      "metar_trigger": false,
      "taf_trigger": false,
      "metar": "METAR LIRZ 140450Z AUTO VRB02KT 9999 BKN042/// 06/06 Q1011",
      "taf": "TAF LIRZ 132300Z 1400/1424 VRB05KT CAVOK"
    },
    {
      "icao": "LJLJ",
      "alert": "OK",
      "vis_m": 9999,
      "fzfg": false,
      "metar_trigger": false,
      "taf_trigger": false,
      "metar": "METAR LJLJ 140430Z VRB02KT 9999 FEW001 SCT049 00/M00 Q1008 NOSIG",
      "taf": "TAF LJLJ 132300Z 1400/1500 VRB02KT 9999 FEW045"
    },
    {
      "icao": "LKMT",
      "alert": "OK",
      "vis_m": 9999,
      "fzfg": false,
      "metar_trigger": false,
      "taf_trigger": false,
      "metar": "METAR LKMT 140430Z 19009KT CAVOK 11/M00 Q1006 NOSIG",
      "taf": "TAF LKMT 132300Z 1400/1424 20018KT CAVOK"
    },
    {
      "icao": "LKPR",
      "alert": "OK",
      "vis_m": 9999,
      "fzfg": false,
      "metar_trigger": false,
      "taf_trigger": false,
      "metar": "METAR LKPR 140430Z 13010KT CAVOK 06/02 Q1001 NOSIG",
      "taf": "TAF LKPR 140200Z 1403/1509 17008KT CAVOK"
    },
    {
      "icao": "LLBG",
      "alert": "OK",
      "vis_m": 9999,
      "fzfg": false,
      "metar_trigger": false,
      "taf_trigger": false,
      "metar": "METAR LLBG 140450Z 12012KT CAVOK 22/08 Q1002 TEMPO 22015KT RMK BKN120",
      "taf": "TAF LLBG 132305Z 1400/1424 12006KT CAVOK TX28/1412Z TN15/1400Z"
    },
    {
      "icao": "LMML",
      "alert": "OK",
      "vis_m": 9999,
      "fzfg": false,
      "metar_trigger": false,
      "taf_trigger": false,
      "metar": "METAR LMML 140445Z 25005KT 220V280 9999 -RA FEW015TCU OVC049 10/09 Q1013 TEMPO 8000 SHRA",
      "taf": "TAF LMML 132300Z 1400/1424 25009KT 9999 SCT017"
    },
    {
      "icao": "LOWW",
      "alert": "OK",
      "vis_m": 9999,
      "fzfg": false,
      "metar_trigger": false,
      "taf_trigger": false,
      "metar": "METAR LOWW 140450Z 15016KT CAVOK 07/04 Q1005 NOSIG",
      "taf": "TAF LOWW 140215Z 1403/1509 15010KT CAVOK TX18/1414Z TN06/1505Z"
    },
    {
      "icao": "LPFR",
      "alert": "OK",
      "vis_m": 9999,
      "fzfg": false,
      "metar_trigger": false,
      "taf_trigger": false,
      "metar": "METAR LPFR 140430Z 28009KT 9999 FEW015 SCT020 13/11 Q1018",
      "taf": "TAF LPFR 132300Z 1400/1424 32008KT 9999 SCT012"
    },
    {
      "icao": "LPMA",
      "alert": "OK",
      "vis_m": 9999,
      "fzfg": false,
      "metar_trigger": false,
      "taf_trigger": false,
      "metar": "METAR LPMA 140430Z 01011KT 9999 BKN015 15/09 Q1024",
      "taf": "TAF LPMA 132300Z 1400/1424 02012KT 9999 BKN015"
    },
    {
      "icao": "LPPR",
      "alert": "OK",
      "vis_m": 9999,
      "fzfg": false,
      "metar_trigger": false,
      "taf_trigger": false,
      "metar": "METAR LPPR 140430Z 33007KT 9999 FEW012 SCT018 11/09 Q1017",
      "taf": "TAF LPPR 132300Z 1400/1424 31007KT 9999 BKN020"
    },
    {
      "icao": "LPPS",
      "alert": "OK",
      "vis_m": 9999,
      "fzfg": false,
      "metar_trigger": false,
      "taf_trigger": false,
      "metar": "METAR LPPS 140430Z 02009KT 9999 FEW014 14/12 Q1024",
      "taf": "TAF LPPS 132300Z 1400/1506 03012KT 9999 SCT015 BKN030"
    },
    {
      "icao": "LPPT",
      "alert": "OK",
      "vis_m": 9999,
      "fzfg": false,
      "metar_trigger": false,
      "taf_trigger": false,
      "metar": "METAR LPPT 140430Z VRB02KT 9999 SCT018 BKN030 12/11 Q1018",
      "taf": "TAF LPPT 132300Z 1400/1506 29007KT 9999 BKN018"
    },
    {
      "icao": "LQBK",
      "alert": "OK",
      "vis_m": 9999,
      "fzfg": false,
      "metar_trigger": false,
      "taf_trigger": false,
      "metar": "METAR LQBK 140430Z 13005KT CAVOK 04/02 Q1010 NOSIG",
      "taf": "TAF LQBK 132300Z 1400/1424 16006KT CAVOK TX20/1413Z TN05/1405Z"
    },
    {
      "icao": "LQSA",
      "alert": "OK",
      "vis_m": 9999,
      "fzfg": false,
      "metar_trigger": false,
      "taf_trigger": false,
      "metar": "METAR LQSA 140430Z VRB01KT CAVOK 00/00 Q1012 NOSIG",
      "taf": "TAF LQSA 132300Z 1400/1424 VRB02KT CAVOK TX17/1414Z TN01/1405Z"
    },
    {
      "icao": "LQTZ",
      "alert": "OK",
      "vis_m": 9999,
      "fzfg": false,
      "metar_trigger": false,
      "taf_trigger": false,
      "metar": "METAR LQTZ 140430Z VRB01KT CAVOK 01/01 Q1011",
      "taf": "TAF LQTZ 132300Z 1400/1424 VRB02KT CAVOK TX20/1413Z TN02/1405Z"
    },
    {
      "icao": "LRBC",
      "alert": "OK",
      "vis_m": 9999,
      "fzfg": false,
      "metar_trigger": false,
      "taf_trigger": false,
      "metar": "METAR LRBC 140430Z 33003KT CAVOK M02/M05 Q1018",
      "taf": "TAF LRBC 140200Z 1403/1412 VRB04KT CAVOK"
    },
    {
      "icao": "LRBS",
      "alert": "OK",
      "vis_m": 9000,
      "fzfg": false,
      "metar_trigger": false,
      "taf_trigger": false,
      "metar": "METAR LRBS 140430Z 07008KT 030V090 9000 OVC005 04/04 Q1017 NOSIG",
      "taf": ""
    },
    {
      "icao": "LRBV",
      "alert": "OK",
      "vis_m": 9999,
      "fzfg": false,
      "metar_trigger": false,
      "taf_trigger": false,
      "metar": "METAR LRBV 140430Z AUTO VRB02KT 9999 NCD M04/M06 Q1016",
      "taf": "TAF LRBV 140200Z 1403/1412 VRB04KT CAVOK"
    },
    {
      "icao": "LRCL",
      "alert": "OK",
      "vis_m": 9999,
      "fzfg": false,
      "metar_trigger": false,
      "taf_trigger": false,
      "metar": "METAR LRCL 140430Z 07002KT CAVOK M02/M05 Q1015",
      "taf": "TAF LRCL 140200Z 1403/1412 VRB04KT CAVOK"
    },
    {
      "icao": "LRCV",
      "alert": "OK",
      "vis_m": 9999,
      "fzfg": false,
      "metar_trigger": false,
      "taf_trigger": false,
      "metar": "METAR LRCV 140430Z 05007KT CAVOK 01/M00 Q1016",
      "taf": "TAF LRCV 140200Z 1403/1412 07009KT CAVOK"
    },
    {
      "icao": "LRIA",
      "alert": "OK",
      "vis_m": 9999,
      "fzfg": false,
      "metar_trigger": false,
      "taf_trigger": false,
      "metar": "METAR LRIA 140430Z 08010KT CAVOK 01/M03 Q1019",
      "taf": "TAF LRIA 140200Z 1403/1412 VRB04KT CAVOK"
    },
    {
      "icao": "LROP",
      "alert": "OK",
      "vis_m": 6000,
      "fzfg": false,
      "metar_trigger": false,
      "taf_trigger": false,
      "metar": "METAR LROP 140430Z 07011KT 6000 OVC004 04/04 Q1017 NOSIG",
      "taf": ""
    },
    {
      "icao": "LRSB",
      "alert": "OK",
      "vis_m": 9999,
      "fzfg": false,
      "metar_trigger": false,
      "taf_trigger": false,
      "metar": "METAR LRSB 140430Z VRB01KT CAVOK M03/M05 Q1014",
      "taf": "TAF LRSB 132300Z 1400/1424 15008KT CAVOK"
    },
    {
      "icao": "LRSM",
      "alert": "OK",
      "vis_m": 9999,
      "fzfg": false,
      "metar_trigger": false,
      "taf_trigger": false,
      "metar": "METAR LRSM 140430Z AUTO VRB01KT 9999 NCD 01/M03 Q1014",
      "taf": ""
    },
    {
      "icao": "LRSV",
      "alert": "OK",
      "vis_m": 9999,
      "fzfg": false,
      "metar_trigger": false,
      "taf_trigger": false,
      "metar": "METAR LRSV 140430Z 14006KT CAVOK 02/M04 Q1016",
      "taf": "TAF LRSV 140200Z 1403/1412 12009KT CAVOK"
    },
    {
      "icao": "LRTM",
      "alert": "OK",
      "vis_m": 9999,
      "fzfg": false,
      "metar_trigger": false,
      "taf_trigger": false,
      "metar": "METAR LRTM 140430Z AUTO 10004KT 9999 NCD M02/M05 Q1015",
      "taf": "TAF LRTM 140200Z 1403/1412 VRB04KT CAVOK"
    },
    {
      "icao": "LRTR",
      "alert": "OK",
      "vis_m": 9999,
      "fzfg": false,
      "metar_trigger": false,
      "taf_trigger": false,
      "metar": "METAR LRTR 140430Z 09007KT CAVOK 00/M02 Q1013",
      "taf": "TAF LRTR 132300Z 1400/1424 08006KT CAVOK"
    },
    {
      "icao": "LTAC",
      "alert": "OK",
      "vis_m": 9999,
      "fzfg": false,
      "metar_trigger": false,
      "taf_trigger": false,
      "metar": "METAR LTAC 140450Z VRB01KT CAVOK M02/M07 Q1013 NOSIG",
      "taf": "TAF LTAC 132240Z 1400/1424 VRB02KT CAVOK"
    },
    {
      "icao": "LTFM",
      "alert": "OK",
      "vis_m": 9999,
      "fzfg": false,
      "metar_trigger": false,
      "taf_trigger": false,
      "metar": "METAR LTFM 140450Z 04010KT 9999 BKN022 07/03 Q1015 NOSIG",
      "taf": "TAF LTFM 132240Z 1400/1506 04012KT 9999 BKN016"
    },
    {
      "icao": "LUKK",
      "alert": "OK",
      "vis_m": 9999,
      "fzfg": false,
      "metar_trigger": false,
      "taf_trigger": false,
      "metar": "METAR LUKK 140430Z 10004KT CAVOK M01/M02 Q1020 NOSIG",
      "taf": "TAF LUKK 132307Z 1400/1424 VRB04KT CAVOK"
    },
    {
      "icao": "LWOH",
      "alert": "OK",
      "vis_m": 9999,
      "fzfg": false,
      "metar_trigger": false,
      "taf_trigger": false,
      "metar": "METAR LWOH 140450Z 34005KT CAVOK M00/M02 Q1014",
      "taf": "TAF LWOH 140210Z 1403/1503 VRB02KT 9999 SCT040"
    },
    {
      "icao": "LWSK",
      "alert": "OK",
      "vis_m": 9999,
      "fzfg": false,
      "metar_trigger": false,
      "taf_trigger": false,
      "metar": "METAR LWSK 140450Z VRB02KT CAVOK 00/M01 Q1015 NOSIG",
      "taf": "TAF LWSK 140210Z 1403/1503 VRB02KT CAVOK"
    },
    {
      "icao": "LYBE",
      "alert": "OK",
      "vis_m": 9999,
      "fzfg": false,
      "metar_trigger": false,
      "taf_trigger": false,
      "metar": "METAR LYBE 140430Z 15011KT CAVOK 08/M01 Q1011 NOSIG",
      "taf": "TAF LYBE 132300Z 1400/1424 11012KT CAVOK TX19/1413Z TN04/1405Z"
    },
    {
      "icao": "LYNI",
      "alert": "OK",
      "vis_m": 9999,
      "fzfg": false,
      "metar_trigger": false,
      "taf_trigger": false,
      "metar": "METAR LYNI 140430Z VRB02KT CAVOK 01/M00 Q1014 NOSIG",
      "taf": "TAF LYNI 132300Z 1400/1424 10007KT CAVOK TX20/1414Z TN03/1405Z"
    },
    {
      "icao": "LYPG",
      "alert": "OK",
      "vis_m": 9999,
      "fzfg": false,
      "metar_trigger": false,
      "taf_trigger": false,
      "metar": "METAR LYPG 140430Z 34005KT CAVOK 06/03 Q1013 NOSIG",
      "taf": "TAF LYPG 132300Z 1400/1424 35005KT CAVOK TX19/1413Z TN06/1405Z"
    },
    {
      "icao": "LZIB",
      "alert": "OK",
      "vis_m": 9999,
      "fzfg": false,
      "metar_trigger": false,
      "taf_trigger": false,
      "metar": "METAR LZIB 140430Z 04005KT CAVOK 04/01 Q1007 NOSIG",
      "taf": "TAF LZIB 132315Z 1400/1500 14005KT CAVOK"
    },
    {
      "icao": "LZKZ",
      "alert": "OK",
      "vis_m": 9999,
      "fzfg": false,
      "metar_trigger": false,
      "taf_trigger": false,
      "metar": "METAR LZKZ 140430Z VRB02KT CAVOK 01/M01 Q1012 NOSIG",
      "taf": "TAF LZKZ 132315Z 1400/1500 VRB02KT CAVOK"
    },
    {
      "icao": "LZTT",
      "alert": "OK",
      "vis_m": 9999,
      "fzfg": false,
      "metar_trigger": false,
      "taf_trigger": false,
      "metar": "METAR LZTT 140430Z 24006KT CAVOK 03/M01 Q1011",
      "taf": "TAF LZTT 132315Z 1400/1500 23005KT 9999 FEW050"
    },
    {
      "icao": "OEJN",
      "alert": "OK",
      "vis_m": 2000,
      "fzfg": false,
      "metar_trigger": false,
      "taf_trigger": false,
      "metar": "METAR OEJN 140400Z 14002KT 2000 HZ NSC 25/15 Q1008 NOSIG",
      "taf": "TAF OEJN 132300Z 1400/1506 VRB03KT CAVOK"
    },
    {
      "icao": "OEMA",
      "alert": "OK",
      "vis_m": 9999,
      "fzfg": false,
      "metar_trigger": false,
      "taf_trigger": false,
      "metar": "METAR OEMA 140400Z VRB01KT CAVOK 20/M05 Q1014 NOSIG",
      "taf": "TAF OEMA 132300Z 1400/1506 08006KT CAVOK"
    },
    {
      "icao": "OJAI",
      "alert": "OK",
      "vis_m": 3500,
      "fzfg": false,
      "metar_trigger": false,
      "taf_trigger": false,
      "metar": "METAR OJAI 140400Z 10009KT 3500 BR NSC 12/10 Q1009 NOSIG",
      "taf": "TAF OJAI 132304Z 1400/1506 25015KT 2000 RA BLDU FEW035TCU BKN045 OVC080"
    },
    {
      "icao": "OMAA",
      "alert": "OK",
      "vis_m": null,
      "fzfg": false,
      "metar_trigger": false,
      "taf_trigger": false,
      "metar": "",
      "taf": ""
    },
    {
      "icao": "OMDB",
      "alert": "OK",
      "vis_m": null,
      "fzfg": false,
      "metar_trigger": false,
      "taf_trigger": false,
      "metar": "",
      "taf": ""
    },
    {
      "icao": "UAAA",
      "alert": "OK",
      "vis_m": 9999,
      "fzfg": false,
      "metar_trigger": false,
      "taf_trigger": false,
      "metar": "METAR UAAA 140430Z VRB01MPS 9999 NSC 01/M05 Q1028 NOSIG",
      "taf": "TAF UAAA 132301Z 1400/1424 21002G07MPS 3100 BR FU SCT100 TX07/1409Z TNM07/1401Z"
    },
    {
      "icao": "UBBB",
      "alert": "OK",
      "vis_m": 9999,
      "fzfg": false,
      "metar_trigger": false,
      "taf_trigger": false,
      "metar": "METAR UBBB 140430Z 15006KT CAVOK 06/03 Q1024 NOSIG",
      "taf": "TAF UBBB 132304Z 1400/1424 VRB04KT 9999 FEW025 TX13/1410Z TN02/1402Z"
    },
    {
      "icao": "UDSG",
      "alert": "OK",
      "vis_m": 8000,
      "fzfg": false,
      "metar_trigger": false,
      "taf_trigger": false,
      "metar": "METAR UDSG 140430Z 26002KT 8000 BKN033 M02/M02 Q1020 NOSIG",
      "taf": "TAF UDSG 132258Z 1400/1424 VRB06KT 9999 BKN040"
    },
    {
      "icao": "UDYZ",
      "alert": "OK",
      "vis_m": 9999,
      "fzfg": false,
      "metar_trigger": false,
      "taf_trigger": false,
      "metar": "METAR UDYZ 140430Z 26002KT 9999 SCT043CB 03/01 Q1020 NOSIG",
      "taf": "TAF UDYZ 132300Z 1400/1424 16004KT 9999 SCT040"
    },
    {
      "icao": "UGKO",
      "alert": "OK",
      "vis_m": 9999,
      "fzfg": false,
      "metar_trigger": false,
      "taf_trigger": false,
      "metar": "METAR UGKO 140430Z 08026G37KT CAVOK 10/M01 Q1018 NOSIG",
      "taf": "TAF UGKO 132300Z 1400/1424 08020KT CAVOK TX17/1412Z TN08/1403Z"
    }
  ]
}