{
  "ts_utc": "2026-04-12T08:06:38Z",
  "threshold_m": 150,
  "source": "stations_override.txt (ICAO list) + aviationweather.gov (METAR/TAF raw)",
  "station_count": 159,
  "stations": [
    {
      "icao": "BIKF",
      "alert": "OK",
      "vis_m": 9999,
      "fzfg": false,
      "metar_trigger": false,
      "taf_trigger": false,
      "metar": "METAR BIKF 120800Z 36022KT 9999 -RASN BKN012 OVC032 02/M00 Q0997",
      "taf": "TAF BIKF 120731Z 1209/1309 36025G35KT 9999 SCT010 BKN025 TX04/1216Z TNM03/1306Z"
    },
    {
      "icao": "BKPR",
      "alert": "OK",
      "vis_m": 9999,
      "fzfg": false,
      "metar_trigger": false,
      "taf_trigger": false,
      "metar": "METAR BKPR 120800Z 16004KT 9999 BKN070 11/05 Q1019 NOSIG",
      "taf": "TAF BKPR 120530Z 1206/1306 09006KT 9999 FEW040 SCT080"
    },
    {
      "icao": "EBCI",
      "alert": "OK",
      "vis_m": 9999,
      "fzfg": false,
      "metar_trigger": false,
      "taf_trigger": false,
      "metar": "METAR EBCI 120750Z 20008KT CAVOK 07/03 Q1016 NOSIG",
      "taf": "TAF EBCI 120506Z 1206/1312 20008KT CAVOK"
    },
    {
      "icao": "EDDB",
      "alert": "OK",
      "vis_m": 9999,
      "fzfg": false,
      "metar_trigger": false,
      "taf_trigger": false,
      "metar": "METAR EDDB 120750Z AUTO 15009G19KT 120V250 9999 FEW022 09/M01 Q1015 NOSIG",
      "taf": "TAF EDDB 120500Z 1206/1306 13008KT CAVOK"
    },
    {
      "icao": "EDDH",
      "alert": "OK",
      "vis_m": 9999,
      "fzfg": false,
      "metar_trigger": false,
      "taf_trigger": false,
      "metar": "METAR EDDH 120750Z AUTO 28006KT 9999 BKN012 09/06 Q1015 BECMG BKN015",
      "taf": "TAF EDDH 120500Z 1206/1312 26005KT CAVOK"
    },
    {
      "icao": "EDDK",
      "alert": "OK",
      "vis_m": 9999,
      "fzfg": false,
      "metar_trigger": false,
      "taf_trigger": false,
      "metar": "METAR EDDK 120750Z AUTO 16004KT CAVOK 07/04 Q1017 NOSIG",
      "taf": "TAF EDDK 120500Z 1206/1312 VRB03KT 9999 FEW020"
    },
    {
      "icao": "EDDN",
      "alert": "OK",
      "vis_m": 9999,
      "fzfg": false,
      "metar_trigger": false,
      "taf_trigger": false,
      "metar": "METAR EDDN 120750Z AUTO 28009KT 9999 -RA OVC004 09/07 Q1015 BECMG OVC006",
      "taf": ""
    },
    {
      "icao": "EDDS",
      "alert": "OK",
      "vis_m": 9999,
      "fzfg": false,
      "metar_trigger": false,
      "taf_trigger": false,
      "metar": "METAR EDDS 120750Z AUTO 34009KT 9999 -RADZ BKN016 BKN030 BKN049 06/03 Q1016 NOSIG",
      "taf": "TAF EDDS 120500Z 1206/1306 31010KT 9999 BKN015"
    },
    {
      "icao": "EDFH",
      "alert": "OK",
      "vis_m": 9999,
      "fzfg": false,
      "metar_trigger": false,
      "taf_trigger": false,
      "metar": "METAR EDFH 120750Z 27006KT 250V310 CAVOK 05/02 Q1017",
      "taf": "TAF EDFH 120500Z 1206/1306 28006KT CAVOK"
    },
    {
      "icao": "EDJA",
      "alert": "OK",
      "vis_m": 6000,
      "fzfg": false,
      "metar_trigger": false,
      "taf_trigger": false,
      "metar": "METAR EDJA 120750Z 35007KT 340V040 6000 -DZ BKN004 BKN009 OVC024 10/09 Q1015",
      "taf": ""
    },
    {
      "icao": "EDLW",
      "alert": "OK",
      "vis_m": 9999,
      "fzfg": false,
      "metar_trigger": false,
      "taf_trigger": false,
      "metar": "METAR EDLW 120750Z 21005KT 180V240 CAVOK 08/03 Q1016",
      "taf": "TAF EDLW 120500Z 1206/1306 22006KT 9999 FEW020"
    },
    {
      "icao": "EDNY",
      "alert": "OK",
      "vis_m": 9999,
      "fzfg": false,
      "metar_trigger": false,
      "taf_trigger": false,
      "metar": "METAR EDNY 120750Z 24004KT 9999 -DZ FEW006 SCT013 OVC039 11/10 Q1015",
      "taf": "TAF EDNY 120500Z 1206/1215 29005KT 8000 SCT008 OVC015"
    },
    {
      "icao": "EDSB",
      "alert": "OK",
      "vis_m": 9999,
      "fzfg": false,
      "metar_trigger": false,
      "taf_trigger": false,
      "metar": "METAR EDSB 120750Z 21003KT 160V250 9999 OVC042 08/07 Q1018",
      "taf": "TAF EDSB 120500Z 1206/1306 VRB03KT 9999 BKN030"
    },
    {
      "icao": "EETN",
      "alert": "OK",
      "vis_m": 9999,
      "fzfg": false,
      "metar_trigger": false,
      "taf_trigger": false,
      "metar": "METAR EETN 120750Z 09005KT CAVOK 10/M00 Q1025 NOSIG",
      "taf": "TAF EETN 120530Z 1206/1306 12007KT 9999 FEW030"
    },
    {
      "icao": "EFTU",
      "alert": "OK",
      "vis_m": 9999,
      "fzfg": false,
      "metar_trigger": false,
      "taf_trigger": false,
      "metar": "METAR EFTU 120750Z AUTO 11009KT CAVOK 09/M05 Q1025",
      "taf": "TAF EFTU 120529Z 1206/1306 09007KT CAVOK"
    },
    {
      "icao": "EGBB",
      "alert": "OK",
      "vis_m": 9999,
      "fzfg": false,
      "metar_trigger": false,
      "taf_trigger": false,
      "metar": "METAR EGBB 120750Z 19012KT 170V230 9999 SCT026 09/04 Q1006",
      "taf": "TAF EGBB 120458Z 1206/1306 20012KT 9999 FEW030"
    },
    {
      "icao": "EGGP",
      "alert": "OK",
      "vis_m": 9999,
      "fzfg": false,
      "metar_trigger": false,
      "taf_trigger": false,
      "metar": "METAR EGGP 120750Z 21009KT 9999 FEW028 SCT040 08/06 Q1003",
      "taf": "TAF EGGP 120457Z 1206/1306 19009KT 9999 SCT030"
    },
    {
      "icao": "EGGW",
      "alert": "OK",
      "vis_m": 9999,
      "fzfg": false,
      "metar_trigger": false,
      "taf_trigger": false,
      "metar": "METAR EGGW 120750Z 21013KT 180V240 9999 FEW022 09/04 Q1009",
      "taf": "TAF EGGW 120501Z 1206/1306 20016KT 9999 SCT030"
    },
    {
      "icao": "EGKK",
      "alert": "OK",
      "vis_m": 9999,
      "fzfg": false,
      "metar_trigger": false,
      "taf_trigger": false,
      "metar": "METAR EGKK 120750Z 21011KT 170V240 9999 FEW023 10/06 Q1011",
      "taf": ""
    },
    {
      "icao": "EGNM",
      "alert": "OK",
      "vis_m": 9999,
      "fzfg": false,
      "metar_trigger": false,
      "taf_trigger": false,
      "metar": "METAR EGNM 120750Z 21018KT 9999 FEW018 SCT024 07/04 Q1001",
      "taf": "TAF EGNM 120457Z 1206/1306 20013KT 9999 SCT030"
    },
    {
      "icao": "EGPD",
      "alert": "OK",
      "vis_m": 9999,
      "fzfg": false,
      "metar_trigger": false,
      "taf_trigger": false,
      "metar": "METAR EGPD 120750Z 20020KT 9999 -SHRA SCT023 SCT030 08/04 Q0993 TEMPO SHRA",
      "taf": "TAF EGPD 120453Z 1206/1306 18013KT 9999 SCT020"
    },
    {
      "icao": "EGPF",
      "alert": "OK",
      "vis_m": 9999,
      "fzfg": false,
      "metar_trigger": false,
      "taf_trigger": false,
      "metar": "METAR EGPF 120750Z AUTO 20022G32KT 9999 FEW021 SCT042 08/05 Q0994",
      "taf": "TAF EGPF 120455Z 1206/1306 21010KT 9999 SCT030"
    },
    {
      "icao": "EHBK",
      "alert": "OK",
      "vis_m": 9999,
      "fzfg": false,
      "metar_trigger": false,
      "taf_trigger": false,
      "metar": "METAR EHBK 120755Z AUTO 19008KT 9999 NSC 08/03 Q1016 NOSIG",
      "taf": "TAF EHBK 120441Z 1206/1312 21008KT CAVOK"
    },
    {
      "icao": "EHEH",
      "alert": "OK",
      "vis_m": 9999,
      "fzfg": false,
      "metar_trigger": false,
      "taf_trigger": false,
      "metar": "METAR EHEH 120755Z AUTO 20009KT 170V240 9999 OVC220 10/04 Q1016 BLU NOSIG RMK TREND REMOTE BY EHWX",
      "taf": "TAF EHEH 120517Z 1206/1312 18007KT CAVOK"
    },
    {
      "icao": "EKBI",
      "alert": "OK",
      "vis_m": 9999,
      "fzfg": false,
      "metar_trigger": false,
      "taf_trigger": false,
      "metar": "METAR EKBI 120750Z AUTO 14005KT 110V210 9999 BKN004/// 06/06 Q1014",
      "taf": ""
    },
    {
      "icao": "EKCH",
      "alert": "OK",
      "vis_m": 9999,
      "fzfg": false,
      "metar_trigger": false,
      "taf_trigger": false,
      "metar": "METAR EKCH 120750Z AUTO 14014KT 9999 OVC073/// 07/01 Q1017 NOSIG",
      "taf": "TAF EKCH 120527Z 1206/1306 12012KT CAVOK"
    },
    {
      "icao": "ENAL",
      "alert": "OK",
      "vis_m": null,
      "fzfg": false,
      "metar_trigger": false,
      "taf_trigger": false,
      "metar": "",
      "taf": "TAF ENAL 120500Z 1206/1215 14012KT CAVOK"
    },
    {
      "icao": "ENBR",
      "alert": "OK",
      "vis_m": 9999,
      "fzfg": false,
      "metar_trigger": false,
      "taf_trigger": false,
      "metar": "METAR ENBR 120720Z 12014KT CAVOK 07/02 Q1007",
      "taf": "TAF ENBR 120500Z 1206/1306 15015KT 9999 SCT045"
    },
    {
      "icao": "ENGM",
      "alert": "OK",
      "vis_m": null,
      "fzfg": false,
      "metar_trigger": false,
      "taf_trigger": false,
      "metar": "",
      "taf": "TAF ENGM 120500Z 1206/1306 11005KT CAVOK"
    },
    {
      "icao": "ENHD",
      "alert": "OK",
      "vis_m": null,
      "fzfg": false,
      "metar_trigger": false,
      "taf_trigger": false,
      "metar": "",
      "taf": "TAF ENHD 120500Z 1206/1215 13022G32KT 9999 FEW025"
    },
    {
      "icao": "ENTC",
      "alert": "OK",
      "vis_m": null,
      "fzfg": false,
      "metar_trigger": false,
      "taf_trigger": false,
      "metar": "",
      "taf": "TAF ENTC 120500Z 1206/1306 02003KT CAVOK"
    },
    {
      "icao": "ENTO",
      "alert": "OK",
      "vis_m": null,
      "fzfg": false,
      "metar_trigger": false,
      "taf_trigger": false,
      "metar": "",
      "taf": "TAF ENTO 120500Z 1206/1306 10010KT 9999 BKN035"
    },
    {
      "icao": "ENVA",
      "alert": "OK",
      "vis_m": null,
      "fzfg": false,
      "metar_trigger": false,
      "taf_trigger": false,
      "metar": "",
      "taf": "TAF ENVA 120500Z 1206/1306 12015KT CAVOK"
    },
    {
      "icao": "ENZV",
      "alert": "OK",
      "vis_m": null,
      "fzfg": false,
      "metar_trigger": false,
      "taf_trigger": false,
      "metar": "",
      "taf": "TAF ENZV 120500Z 1206/1306 14017KT 9999 BKN035"
    },
    {
      "icao": "EPGD",
      "alert": "OK",
      "vis_m": 9999,
      "fzfg": false,
      "metar_trigger": false,
      "taf_trigger": false,
      "metar": "METAR EPGD 120800Z 13005KT 090V180 CAVOK 10/M01 Q1021",
      "taf": "TAF EPGD 120530Z 1206/1306 VRB02KT CAVOK"
    },
    {
      "icao": "EPKK",
      "alert": "OK",
      "vis_m": 9999,
      "fzfg": false,
      "metar_trigger": false,
      "taf_trigger": false,
      "metar": "METAR EPKK 120800Z 08007KT CAVOK 08/M03 Q1020",
      "taf": "TAF EPKK 120530Z 1206/1306 VRB02KT CAVOK"
    },
    {
      "icao": "EPKT",
      "alert": "OK",
      "vis_m": 9999,
      "fzfg": false,
      "metar_trigger": false,
      "taf_trigger": false,
      "metar": "METAR EPKT 120800Z 12010KT 080V150 CAVOK 09/M03 Q1019",
      "taf": "TAF EPKT 120530Z 1206/1306 07004KT CAVOK"
    },
    {
      "icao": "EPLB",
      "alert": "OK",
      "vis_m": 9999,
      "fzfg": false,
      "metar_trigger": false,
      "taf_trigger": false,
      "metar": "METAR EPLB 120800Z 07004KT 040V100 CAVOK 09/00 Q1021",
      "taf": "TAF EPLB 120530Z 1206/1306 VRB02KT CAVOK"
    },
    {
      "icao": "EPMO",
      "alert": "OK",
      "vis_m": 9999,
      "fzfg": false,
      "metar_trigger": false,
      "taf_trigger": false,
      "metar": "METAR EPMO 120800Z 11005KT 080V150 CAVOK 10/00 Q1021",
      "taf": "TAF EPMO 120530Z 1206/1306 VRB02KT CAVOK"
    },
    {
      "icao": "EPPO",
      "alert": "OK",
      "vis_m": 9999,
      "fzfg": false,
      "metar_trigger": false,
      "taf_trigger": false,
      "metar": "METAR EPPO 120800Z 15010KT CAVOK 09/M03 Q1019",
      "taf": "TAF EPPO 120530Z 1206/1306 12010KT CAVOK"
    },
    {
      "icao": "EPRA",
      "alert": "OK",
      "vis_m": 9999,
      "fzfg": false,
      "metar_trigger": false,
      "taf_trigger": false,
      "metar": "METAR EPRA 120800Z 36003KT 270V050 CAVOK 10/M02 Q1021",
      "taf": "TAF EPRA 120530Z 1206/1215 VRB03KT CAVOK"
    },
    {
      "icao": "EPRZ",
      "alert": "OK",
      "vis_m": 9999,
      "fzfg": false,
      "metar_trigger": false,
      "taf_trigger": false,
      "metar": "METAR EPRZ 120800Z 24006KT 200V270 CAVOK 09/M01 Q1021",
      "taf": "TAF EPRZ 120530Z 1206/1306 VRB02KT CAVOK"
    },
    {
      "icao": "EPSC",
      "alert": "OK",
      "vis_m": 9999,
      "fzfg": false,
      "metar_trigger": false,
      "taf_trigger": false,
      "metar": "METAR EPSC 120800Z 13016KT CAVOK 08/M03 Q1017",
      "taf": "TAF EPSC 120530Z 1206/1306 11011KT CAVOK"
    },
    {
      "icao": "EPSY",
      "alert": "OK",
      "vis_m": 9999,
      "fzfg": false,
      "metar_trigger": false,
      "taf_trigger": false,
      "metar": "METAR EPSY 120800Z VRB02KT CAVOK 10/M01 Q1021",
      "taf": "TAF EPSY 120530Z 1206/1215 06004KT CAVOK"
    },
    {
      "icao": "EPWA",
      "alert": "OK",
      "vis_m": 9999,
      "fzfg": false,
      "metar_trigger": false,
      "taf_trigger": false,
      "metar": "METAR EPWA 120800Z 09005KT 060V120 CAVOK 10/M01 Q1021 NOSIG",
      "taf": "TAF EPWA 120530Z 1206/1306 VRB02KT CAVOK"
    },
    {
      "icao": "EPWR",
      "alert": "OK",
      "vis_m": 9999,
      "fzfg": false,
      "metar_trigger": false,
      "taf_trigger": false,
      "metar": "METAR EPWR 120800Z 12012KT CAVOK 07/M03 Q1019",
      "taf": "TAF EPWR 120530Z 1206/1306 12005KT CAVOK"
    },
    {
      "icao": "ESGG",
      "alert": "OK",
      "vis_m": 9999,
      "fzfg": false,
      "metar_trigger": false,
      "taf_trigger": false,
      "metar": "METAR ESGG 120750Z 12009KT CAVOK 05/M03 Q1016",
      "taf": "TAF ESGG 120530Z 1206/1306 12010KT CAVOK"
    },
    {
      "icao": "ESKN",
      "alert": "OK",
      "vis_m": 9999,
      "fzfg": false,
      "metar_trigger": false,
      "taf_trigger": false,
      "metar": "METAR ESKN 120750Z 11011KT CAVOK 08/01 Q1023",
      "taf": "TAF ESKN 120530Z 1206/1306 10006KT CAVOK"
    },
    {
      "icao": "ESMS",
      "alert": "OK",
      "vis_m": 9999,
      "fzfg": false,
      "metar_trigger": false,
      "taf_trigger": false,
      "metar": "METAR ESMS 120750Z 12013KT CAVOK 07/00 Q1017",
      "taf": "TAF ESMS 120527Z 1206/1306 12010KT CAVOK"
    },
    {
      "icao": "ESSA",
      "alert": "OK",
      "vis_m": 9999,
      "fzfg": false,
      "metar_trigger": false,
      "taf_trigger": false,
      "metar": "METAR ESSA 120750Z 12009KT CAVOK 08/M07 Q1023 NOSIG",
      "taf": "TAF ESSA 120530Z 1206/1306 10009KT CAVOK"
    },
    {
      "icao": "EYKA",
      "alert": "OK",
      "vis_m": 9999,
      "fzfg": false,
      "metar_trigger": false,
      "taf_trigger": false,
      "metar": "METAR EYKA 120750Z 10007KT 050V120 9999 OVC020 06/01 Q1023",
      "taf": "TAF EYKA 120500Z 1206/1306 VRB04KT 9000 NSC"
    },
    {
      "icao": "EYPA",
      "alert": "OK",
      "vis_m": 9999,
      "fzfg": false,
      "metar_trigger": false,
      "taf_trigger": false,
      "metar": "METAR EYPA 120750Z 27003KT 240V320 CAVOK 07/M00 Q1022",
      "taf": "TAF EYPA 120500Z 1206/1306 VRB05KT 9000 SCT045"
    },
    {
      "icao": "EYVI",
      "alert": "OK",
      "vis_m": 9999,
      "fzfg": false,
      "metar_trigger": false,
      "taf_trigger": false,
      "metar": "METAR EYVI 120750Z 09008KT 050V130 9999 BKN020 06/M00 Q1022 NOSIG",
      "taf": "TAF EYVI 120505Z 1206/1306 09012KT 9000 BKN020"
    },
    {
      "icao": "GCFV",
      "alert": "OK",
      "vis_m": 4500,
      "fzfg": false,
      "metar_trigger": false,
      "taf_trigger": false,
      "metar": "METAR GCFV 120800Z 35013KT 4500 -RADZ SCT019 SCT025 BKN032 16/14 Q1021",
      "taf": "TAF GCFV 120200Z 1203/1303 35014KT 9999 BKN030 TX22/1214Z TN16/1206Z"
    },
    {
      "icao": "GCLP",
      "alert": "OK",
      "vis_m": 9999,
      "fzfg": false,
      "metar_trigger": false,
      "taf_trigger": false,
      "metar": "METAR GCLP 120800Z 36013KT 9999 FEW017 BKN030 18/14 Q1021 NOSIG",
      "taf": "TAF GCLP 120200Z 1203/1303 35018KT 9999 BKN020 TX22/1214Z TN16/1206Z"
    },
    {
      "icao": "GCTS",
      "alert": "OK",
      "vis_m": 9999,
      "fzfg": false,
      "metar_trigger": false,
      "taf_trigger": false,
      "metar": "METAR GCTS 120800Z 03005KT 360V060 9999 SCT035 18/11 Q1022 NOSIG",
      "taf": "TAF GCTS 120200Z 1203/1303 05007KT 9999 BKN025 TX23/1214Z TN15/1206Z"
    },
    {
      "icao": "GMAD",
      "alert": "OK",
      "vis_m": 8000,
      "fzfg": false,
      "metar_trigger": false,
      "taf_trigger": false,
      "metar": "METAR GMAD 120800Z 14005KT 8000 FEW016 14/12 Q1015 NOSIG",
      "taf": "TAF GMAD 120500Z 1206/1312 07004KT 8000 SCT020"
    },
    {
      "icao": "GMMN",
      "alert": "OK",
      "vis_m": 9999,
      "fzfg": false,
      "metar_trigger": false,
      "taf_trigger": false,
      "metar": "METAR GMMN 120800Z 29008KT 250V320 9999 BKN020 13/11 Q1019 NOSIG",
      "taf": "TAF GMMN 120500Z 1206/1312 26008KT 9999 BKN008"
    },
    {
      "icao": "GMMX",
      "alert": "OK",
      "vis_m": 8000,
      "fzfg": false,
      "metar_trigger": false,
      "taf_trigger": false,
      "metar": "METAR GMMX 120800Z 30004KT 270V330 8000 SCT015 SCT024 13/11 Q1019 NOSIG",
      "taf": "TAF GMMX 120500Z 1206/1312 24006KT 8000 SCT026"
    },
    {
      "icao": "HEGN",
      "alert": "OK",
      "vis_m": 9999,
      "fzfg": false,
      "metar_trigger": false,
      "taf_trigger": false,
      "metar": "METAR HEGN 120700Z 30013KT CAVOK 25/05 Q1017 NOSIG",
      "taf": "TAF HEGN 120500Z 1206/1312 34015KT CAVOK"
    },
    {
      "icao": "HEMA",
      "alert": "OK",
      "vis_m": 9999,
      "fzfg": false,
      "metar_trigger": false,
      "taf_trigger": false,
      "metar": "METAR HEMA 120700Z 34021KT CAVOK 25/09 Q1016 NOSIG",
      "taf": "TAF HEMA 120500Z 1206/1312 36015KT CAVOK"
    },
    {
      "icao": "HESH",
      "alert": "OK",
      "vis_m": 9999,
      "fzfg": false,
      "metar_trigger": false,
      "taf_trigger": false,
      "metar": "METAR HESH 120700Z 34010KT CAVOK 24/08 Q1016 NOSIG",
      "taf": "TAF HESH 120500Z 1206/1312 02012KT CAVOK"
    },
    {
      "icao": "HESX",
      "alert": "OK",
      "vis_m": 9999,
      "fzfg": false,
      "metar_trigger": false,
      "taf_trigger": false,
      "metar": "METAR HESX 120700Z 31004KT CAVOK 18/10 Q1017 NOSIG",
      "taf": "TAF HESX 120500Z 1206/1312 32008KT CAVOK"
    },
    {
      "icao": "LATI",
      "alert": "OK",
      "vis_m": 9999,
      "fzfg": false,
      "metar_trigger": false,
      "taf_trigger": false,
      "metar": "METAR LATI 120750Z 00000KT CAVOK 18/03 Q1017 NOSIG",
      "taf": "TAF LATI 120500Z 1206/1306 VRB03KT CAVOK TX24/1213Z TN10/1303Z"
    },
    {
      "icao": "LBPD",
      "alert": "OK",
      "vis_m": 9999,
      "fzfg": false,
      "metar_trigger": false,
      "taf_trigger": false,
      "metar": "METAR LBPD 120800Z AUTO VRB03KT 9999 BKN074/// 11/05 Q1020 NOSIG",
      "taf": "TAF LBPD 120500Z 1206/1306 VRB04KT 9999 BKN060"
    },
    {
      "icao": "LBSF",
      "alert": "OK",
      "vis_m": 9999,
      "fzfg": false,
      "metar_trigger": false,
      "taf_trigger": false,
      "metar": "METAR LBSF 120800Z VRB02KT 9999 SCT049 09/00 Q1020 NOSIG",
      "taf": "TAF LBSF 120500Z 1206/1306 VRB04KT 9999 BKN050"
    },
    {
      "icao": "LBWN",
      "alert": "OK",
      "vis_m": 9999,
      "fzfg": false,
      "metar_trigger": false,
      "taf_trigger": false,
      "metar": "METAR LBWN 120800Z 13006KT 090V180 9999 SCT024 10/04 Q1021 NOSIG",
      "taf": "TAF LBWN 120500Z 1206/1306 VRB03KT 9999 SCT020 BKN040"
    },
    {
      "icao": "LCLK",
      "alert": "OK",
      "vis_m": 9999,
      "fzfg": false,
      "metar_trigger": false,
      "taf_trigger": false,
      "metar": "METAR LCLK 120800Z 27008KT 180V330 9999 SCT025 FEW030TCU 22/09 Q1014 BECMG 22015KT",
      "taf": "TAF LCLK 120530Z 1206/1306 26006KT 9999 FEW030"
    },
    {
      "icao": "LCPH",
      "alert": "OK",
      "vis_m": 9999,
      "fzfg": false,
      "metar_trigger": false,
      "taf_trigger": false,
      "metar": "METAR LCPH 120800Z 30013KT 250V320 9999 FEW025 20/12 Q1015 NOSIG",
      "taf": "TAF LCPH 120530Z 1206/1306 31015KT 9999 SCT025"
    },
    {
      "icao": "LEAL",
      "alert": "OK",
      "vis_m": 9999,
      "fzfg": false,
      "metar_trigger": false,
      "taf_trigger": false,
      "metar": "METAR LEAL 120800Z 33005KT 290V020 9999 SCT060 19/12 Q1008 NOSIG",
      "taf": "TAF LEAL 120500Z 1206/1306 01012KT CAVOK TX19/1213Z TN12/1206Z"
    },
    {
      "icao": "LEBB",
      "alert": "OK",
      "vis_m": 9999,
      "fzfg": false,
      "metar_trigger": false,
      "taf_trigger": false,
      "metar": "METAR LEBB 120800Z VRB01KT 9999 FEW012 OVC040 10/09 Q1018 NOSIG",
      "taf": "TAF LEBB 120500Z 1206/1306 31009KT 9999 BKN040 TX14/1214Z TN08/1300Z"
    },
    {
      "icao": "LEBL",
      "alert": "OK",
      "vis_m": 9999,
      "fzfg": false,
      "metar_trigger": false,
      "taf_trigger": false,
      "metar": "METAR LEBL 120800Z 33006KT 280V350 CAVOK 16/09 Q1010 NOSIG",
      "taf": "TAF LEBL 120500Z 1206/1306 VRB04KT CAVOK TX18/1212Z TN11/1206Z"
    },
    {
      "icao": "LECH",
      "alert": "OK",
      "vis_m": 9000,
      "fzfg": false,
      "metar_trigger": false,
      "taf_trigger": false,
      "metar": "METAR LECH 120800Z AUTO VRB02KT 9000 SCT050 14/07 Q1010",
      "taf": "TAF LECH 120500Z 1206/1306 01010KT CAVOK TX18/1214Z TN08/1206Z"
    },
    {
      "icao": "LEMD",
      "alert": "OK",
      "vis_m": 9999,
      "fzfg": false,
      "metar_trigger": false,
      "taf_trigger": false,
      "metar": "METAR LEMD 120800Z 04004KT 330V110 9999 FEW045TCU SCT060 12/08 Q1011 NOSIG",
      "taf": ""
    },
    {
      "icao": "LEMG",
      "alert": "OK",
      "vis_m": 9999,
      "fzfg": false,
      "metar_trigger": false,
      "taf_trigger": false,
      "metar": "METAR LEMG 120800Z 30011KT 9999 FEW050 17/12 Q1010 NOSIG",
      "taf": "TAF LEMG 120500Z 1206/1306 30012KT 9999 FEW040 TX21/1214Z TN15/1206Z"
    },
    {
      "icao": "LEVC",
      "alert": "OK",
      "vis_m": 9999,
      "fzfg": false,
      "metar_trigger": false,
      "taf_trigger": false,
      "metar": "METAR LEVC 120800Z 31008KT 9999 BKN050 15/12 Q1010 NOSIG",
      "taf": "TAF LEVC 120500Z 1206/1306 36008KT CAVOK TX17/1213Z TN11/1206Z"
    },
    {
      "icao": "LEXJ",
      "alert": "OK",
      "vis_m": 9999,
      "fzfg": false,
      "metar_trigger": false,
      "taf_trigger": false,
      "metar": "METAR LEXJ 120800Z 25004KT 210V280 9999 FEW035 BKN045 09/06 Q1019",
      "taf": "TAF LEXJ 120200Z 1203/1303 22008KT 9999 BKN045 TX15/1214Z TN08/1206Z"
    },
    {
      "icao": "LEZG",
      "alert": "OK",
      "vis_m": 6000,
      "fzfg": false,
      "metar_trigger": false,
      "taf_trigger": false,
      "metar": "METAR LEZG 120800Z 29016KT 6000 -RA FEW020 BKN070 08/06 Q1014 NOSIG",
      "taf": "TAF LEZG 120500Z 1206/1306 31020KT CAVOK TX12/1213Z TN07/1206Z"
    },
    {
      "icao": "LEZL",
      "alert": "OK",
      "vis_m": 9999,
      "fzfg": false,
      "metar_trigger": false,
      "taf_trigger": false,
      "metar": "METAR LEZL 120800Z 30009KT 270V330 CAVOK 14/09 Q1013 NOSIG",
      "taf": "TAF LEZL 120200Z 1203/1303 VRB03KT 9999 FEW030 TX21/1215Z TN12/1206Z"
    },
    {
      "icao": "LFBD",
      "alert": "OK",
      "vis_m": 9999,
      "fzfg": false,
      "metar_trigger": false,
      "taf_trigger": false,
      "metar": "METAR LFBD 120800Z AUTO 22003KT 9999 SCT005 OVC080 09/08 Q1018 NOSIG",
      "taf": ""
    },
    {
      "icao": "LFLL",
      "alert": "OK",
      "vis_m": 9999,
      "fzfg": false,
      "metar_trigger": false,
      "taf_trigger": false,
      "metar": "METAR LFLL 120800Z COR 32009KT 9999 -RA BKN008 BKN023 BKN033 08/07 Q1016 NOSIG",
      "taf": "TAF LFLL 120500Z 1206/1312 34012KT 9999 SCT018 OVC035"
    },
    {
      "icao": "LFLS",
      "alert": "OK",
      "vis_m": 9999,
      "fzfg": false,
      "metar_trigger": false,
      "taf_trigger": false,
      "metar": "METAR LFLS 120800Z AUTO 31006KT 9999 -RA OVC011/// ///TCU 08/07 Q1015 TEMPO BKN007",
      "taf": "TAF LFLS 120200Z 1203/1303 34006KT 9999 OVC018"
    },
    {
      "icao": "LFMN",
      "alert": "OK",
      "vis_m": 9999,
      "fzfg": false,
      "metar_trigger": false,
      "taf_trigger": false,
      "metar": "METAR LFMN 120800Z 34006KT 9999 FEW015 OVC260 16/11 Q1011 NOSIG",
      "taf": "TAF LFMN 120200Z 1203/1309 33005KT CAVOK"
    },
    {
      "icao": "LFOB",
      "alert": "OK",
      "vis_m": 9999,
      "fzfg": false,
      "metar_trigger": false,
      "taf_trigger": false,
      "metar": "METAR LFOB 120800Z AUTO 21009KT CAVOK 09/05 Q1016 NOSIG",
      "taf": "TAF LFOB 120500Z 1206/1306 20010KT CAVOK"
    },
    {
      "icao": "LFPO",
      "alert": "OK",
      "vis_m": 9999,
      "fzfg": false,
      "metar_trigger": false,
      "taf_trigger": false,
      "metar": "METAR LFPO 120800Z VRB03KT CAVOK 07/04 Q1017 NOSIG",
      "taf": "TAF LFPO 120500Z 1206/1312 20004KT CAVOK"
    },
    {
      "icao": "LFSB",
      "alert": "OK",
      "vis_m": 9999,
      "fzfg": false,
      "metar_trigger": false,
      "taf_trigger": false,
      "metar": "METAR LFSB 120800Z AUTO 34012KT 9999 RA BKN007/// BKN011/// OVC064/// ///TCU 07/06 Q1017 TEMPO NSW BKN008",
      "taf": "TAF LFSB 120500Z 1206/1306 32007KT 9999 OVC020"
    },
    {
      "icao": "LGAV",
      "alert": "OK",
      "vis_m": 9999,
      "fzfg": false,
      "metar_trigger": false,
      "taf_trigger": false,
      "metar": "METAR LGAV 120750Z 06005KT 030V090 9999 FEW018 BKN040 16/08 Q1019 NOSIG",
      "taf": "TAF LGAV 120500Z 1206/1306 VRB05KT 9999 BKN025"
    },
    {
      "icao": "LGTS",
      "alert": "OK",
      "vis_m": 9999,
      "fzfg": false,
      "metar_trigger": false,
      "taf_trigger": false,
      "metar": "METAR LGTS 120750Z VRB02KT 9999 FEW030 15/09 Q1020 NOSIG",
      "taf": "TAF LGTS 120500Z 1206/1306 13010KT 9999 FEW010 BKN025"
    },
    {
      "icao": "LHBP",
      "alert": "OK",
      "vis_m": 9999,
      "fzfg": false,
      "metar_trigger": false,
      "taf_trigger": false,
      "metar": "METAR LHBP 120800Z 11009KT CAVOK 10/M03 Q1020 NOSIG",
      "taf": "TAF LHBP 120515Z 1206/1306 10006KT CAVOK"
    },
    {
      "icao": "LHDC",
      "alert": "OK",
      "vis_m": 9999,
      "fzfg": false,
      "metar_trigger": false,
      "taf_trigger": false,
      "metar": "METAR LHDC 120745Z AUTO 05005KT 020V130 CAVOK 10/M03 Q1021 NOSIG",
      "taf": "TAF LHDC 120515Z 1206/1215 05005KT CAVOK"
    },
    {
      "icao": "LIBD",
      "alert": "OK",
      "vis_m": 9999,
      "fzfg": false,
      "metar_trigger": false,
      "taf_trigger": false,
      "metar": "METAR LIBD 120750Z 16005KT 130V210 CAVOK 17/12 Q1015",
      "taf": "TAF LIBD 120500Z 1206/1306 VRB05KT 9999 FEW040"
    },
    {
      "icao": "LIBG",
      "alert": "OK",
      "vis_m": 7000,
      "fzfg": false,
      "metar_trigger": false,
      "taf_trigger": false,
      "metar": "METAR LIBG 120750Z 17005KT 7000 BKN016 16/16 Q1016",
      "taf": "TAF LIBG 120620Z 1207/1215 VRB05KT 2000 BR BKN003"
    },
    {
      "icao": "LIBP",
      "alert": "OK",
      "vis_m": 9999,
      "fzfg": false,
      "metar_trigger": false,
      "taf_trigger": false,
      "metar": "METAR LIBP 120750Z AUTO 22003KT 190V250 9999 OVC009/// 14/14 Q1015",
      "taf": "TAF LIBP 120500Z 1206/1306 VRB05KT 6000 BKN020"
    },
    {
      "icao": "LIBR",
      "alert": "OK",
      "vis_m": 9999,
      "fzfg": false,
      "metar_trigger": false,
      "taf_trigger": false,
      "metar": "METAR LIBR 120750Z 19007KT 9999 SCT010 17/14 Q1016",
      "taf": ""
    },
    {
      "icao": "LICA",
      "alert": "OK",
      "vis_m": 9999,
      "fzfg": false,
      "metar_trigger": false,
      "taf_trigger": false,
      "metar": "METAR LICA 120750Z AUTO 09018KT 9999 NCD 16/13 Q1014",
      "taf": "TAF LICA 120500Z 1206/1306 08018KT CAVOK"
    },
    {
      "icao": "LICC",
      "alert": "OK",
      "vis_m": 9999,
      "fzfg": false,
      "metar_trigger": false,
      "taf_trigger": false,
      "metar": "METAR LICC 120750Z 05016KT 9999 FEW010 SCT050 18/13 Q1014",
      "taf": "TAF LICC 120500Z 1206/1306 VRB05KT CAVOK"
    },
    {
      "icao": "LICJ",
      "alert": "OK",
      "vis_m": 9999,
      "fzfg": false,
      "metar_trigger": false,
      "taf_trigger": false,
      "metar": "METAR LICJ 120750Z VRB02KT CAVOK 18/12 Q1008",
      "taf": "TAF LICJ 120500Z 1206/1306 VRB05KT CAVOK"
    },
    {
      "icao": "LIMC",
      "alert": "OK",
      "vis_m": 9999,
      "fzfg": false,
      "metar_trigger": false,
      "taf_trigger": false,
      "metar": "METAR LIMC 120750Z 06003KT 010V140 9999 FEW030 SCT060 15/10 Q1015 NOSIG",
      "taf": "TAF LIMC 120500Z 1206/1312 VRB05KT 9999 FEW040"
    },
    {
      "icao": "LIME",
      "alert": "OK",
      "vis_m": 9999,
      "fzfg": false,
      "metar_trigger": false,
      "taf_trigger": false,
      "metar": "METAR LIME 120750Z 11004KT 080V140 9999 FEW040 SCT100 13/08 Q1015 NOSIG",
      "taf": "TAF LIME 120500Z 1206/1306 VRB04KT 9999 FEW040"
    },
    {
      "icao": "LIMF",
      "alert": "OK",
      "vis_m": 8000,
      "fzfg": false,
      "metar_trigger": false,
      "taf_trigger": false,
      "metar": "METAR LIMF 120750Z 03003KT 360V060 8000 BKN020 13/10 Q1015",
      "taf": "TAF LIMF 120500Z 1206/1306 VRB04KT 9999 SCT045"
    },
    {
      "icao": "LIMJ",
      "alert": "OK",
      "vis_m": 9999,
      "fzfg": false,
      "metar_trigger": false,
      "taf_trigger": false,
      "metar": "METAR LIMJ 120750Z 04009KT 9999 SCT060 18/10 Q1012",
      "taf": "TAF LIMJ 120500Z 1206/1306 VRB05KT 9999 FEW025"
    },
    {
      "icao": "LIPE",
      "alert": "OK",
      "vis_m": 3000,
      "fzfg": false,
      "metar_trigger": false,
      "taf_trigger": false,
      "metar": "METAR LIPE 120750Z VRB02KT 3000 BR BKN003 BKN008 13/13 Q1015",
      "taf": "TAF LIPE 120500Z 1206/1306 VRB05KT 2000 BR BKN010"
    },
    {
      "icao": "LIPH",
      "alert": "OK",
      "vis_m": 9999,
      "fzfg": false,
      "metar_trigger": false,
      "taf_trigger": false,
      "metar": "METAR LIPH 120750Z 07006KT CAVOK 16/07 Q1015",
      "taf": "TAF LIPH 120500Z 1206/1306 VRB05KT CAVOK"
    },
    {
      "icao": "LIPQ",
      "alert": "OK",
      "vis_m": 9999,
      "fzfg": false,
      "metar_trigger": false,
      "taf_trigger": false,
      "metar": "METAR LIPQ 120750Z AUTO 36004KT 320V050 9999 NCD 16/07 Q1015",
      "taf": "TAF LIPQ 120500Z 1206/1306 VRB05KT 9999 FEW060"
    },
    {
      "icao": "LIPR",
      "alert": "OK",
      "vis_m": 9999,
      "fzfg": false,
      "metar_trigger": false,
      "taf_trigger": false,
      "metar": "METAR LIPR 120750Z VRB02KT 9999 BKN010 14/12 Q1014",
      "taf": "TAF LIPR 120500Z 1206/1306 VRB05KT 2000 BR BKN010"
    },
    {
      "icao": "LIPX",
      "alert": "OK",
      "vis_m": 9999,
      "fzfg": false,
      "metar_trigger": false,
      "taf_trigger": false,
      "metar": "METAR LIPX 120750Z VRB02KT CAVOK 14/09 Q1015",
      "taf": "TAF LIPX 120500Z 1206/1306 VRB05KT CAVOK"
    },
    {
      "icao": "LIPY",
      "alert": "OK",
      "vis_m": 9999,
      "fzfg": false,
      "metar_trigger": false,
      "taf_trigger": false,
      "metar": "METAR LIPY 120750Z AUTO 24003KT 160V280 9999 OVC011/// 15/14 Q1015",
      "taf": "TAF LIPY 120500Z 1206/1306 VRB05KT 2000 BR BKN010"
    },
    {
      "icao": "LIPZ",
      "alert": "OK",
      "vis_m": 9999,
      "fzfg": false,
      "metar_trigger": false,
      "taf_trigger": false,
      "metar": "METAR LIPZ 120750Z 05005KT CAVOK 15/07 Q1015 NOSIG",
      "taf": "TAF LIPZ 120500Z 1206/1312 VRB05KT CAVOK"
    },
    {
      "icao": "LIRF",
      "alert": "OK",
      "vis_m": 9999,
      "fzfg": false,
      "metar_trigger": false,
      "taf_trigger": false,
      "metar": "METAR LIRF 120750Z 07006KT CAVOK 14/13 Q1012 NOSIG",
      "taf": "TAF LIRF 120500Z 1206/1312 10006KT CAVOK"
    },
    {
      "icao": "LIRN",
      "alert": "OK",
      "vis_m": 9999,
      "fzfg": false,
      "metar_trigger": false,
      "taf_trigger": false,
      "metar": "METAR LIRN 120750Z 01004KT 320V060 CAVOK 16/10 Q1013 NOSIG",
      "taf": "TAF LIRN 120500Z 1206/1306 VRB05KT CAVOK"
    },
    {
      "icao": "LIRP",
      "alert": "OK",
      "vis_m": 8000,
      "fzfg": false,
      "metar_trigger": false,
      "taf_trigger": false,
      "metar": "METAR LIRP 120745Z 13004KT 8000 NSC 14/13 Q1011 NOSIG",
      "taf": "TAF LIRP 120500Z 1206/1306 12005KT 9999 FEW010"
    },
    {
      "icao": "LIRZ",
      "alert": "OK",
      "vis_m": 9999,
      "fzfg": false,
      "metar_trigger": false,
      "taf_trigger": false,
      "metar": "METAR LIRZ 120750Z AUTO VRB02KT 9999 NCD 14/11 Q1013",
      "taf": "TAF LIRZ 120500Z 1206/1306 VRB05KT CAVOK"
    },
    {
      "icao": "LJLJ",
      "alert": "OK",
      "vis_m": 9999,
      "fzfg": false,
      "metar_trigger": false,
      "taf_trigger": false,
      "metar": "METAR LJLJ 120800Z 09001KT 9999 FEW040 BKN130 12/06 Q1017 NOSIG",
      "taf": "TAF LJLJ 120500Z 1206/1306 VRB02KT CAVOK"
    },
    {
      "icao": "LKMT",
      "alert": "OK",
      "vis_m": 9999,
      "fzfg": false,
      "metar_trigger": false,
      "taf_trigger": false,
      "metar": "METAR LKMT 120800Z 01003KT CAVOK 05/M02 Q1019 NOSIG",
      "taf": "TAF LKMT 120500Z 1206/1306 VRB02KT CAVOK"
    },
    {
      "icao": "LKPR",
      "alert": "OK",
      "vis_m": 9999,
      "fzfg": false,
      "metar_trigger": false,
      "taf_trigger": false,
      "metar": "METAR LKPR 120800Z 09006KT CAVOK 06/M01 Q1016 NOSIG",
      "taf": "TAF LKPR 120800Z 1209/1315 08006KT CAVOK"
    },
    {
      "icao": "LLBG",
      "alert": "OK",
      "vis_m": 9999,
      "fzfg": false,
      "metar_trigger": false,
      "taf_trigger": false,
      "metar": "METAR LLBG 120750Z 22006KT 160V270 9999 FEW030 SCT040 20/11 Q1017 NOSIG",
      "taf": "TAF LLBG 120502Z 1206/1306 VRB03KT 9999 SCT025 TX20/1209Z TN11/1303Z"
    },
    {
      "icao": "LMML",
      "alert": "OK",
      "vis_m": 9999,
      "fzfg": false,
      "metar_trigger": false,
      "taf_trigger": false,
      "metar": "METAR LMML 120745Z 10021KT CAVOK 19/13 Q1011 NOSIG",
      "taf": "TAF LMML 120500Z 1206/1306 13008KT CAVOK"
    },
    {
      "icao": "LOWW",
      "alert": "OK",
      "vis_m": 9999,
      "fzfg": false,
      "metar_trigger": false,
      "taf_trigger": false,
      "metar": "METAR LOWW 120750Z 12011KT CAVOK 07/M01 Q1017 NOSIG",
      "taf": "TAF LOWW 120515Z 1206/1312 14013KT 9999 FEW040 TX17/1215Z TN06/1206Z"
    },
    {
      "icao": "LPFR",
      "alert": "OK",
      "vis_m": 9999,
      "fzfg": false,
      "metar_trigger": false,
      "taf_trigger": false,
      "metar": "METAR LPFR 120800Z 33020KT CAVOK 13/02 Q1016",
      "taf": "TAF LPFR 120500Z 1206/1306 31012KT CAVOK"
    },
    {
      "icao": "LPMA",
      "alert": "OK",
      "vis_m": 9999,
      "fzfg": false,
      "metar_trigger": false,
      "taf_trigger": false,
      "metar": "METAR LPMA 120800Z 02015KT 330V040 9999 SCT015 SCT030 14/07 Q1026",
      "taf": "TAF LPMA 120500Z 1206/1306 01015KT 9999 SCT015 SCT030"
    },
    {
      "icao": "LPPR",
      "alert": "OK",
      "vis_m": 9999,
      "fzfg": false,
      "metar_trigger": false,
      "taf_trigger": false,
      "metar": "METAR LPPR 120800Z 05006KT 020V080 9999 FEW036 SCT043 10/03 Q1020",
      "taf": "TAF LPPR 120500Z 1206/1306 36008KT 9999 FEW025"
    },
    {
      "icao": "LPPS",
      "alert": "OK",
      "vis_m": 9999,
      "fzfg": false,
      "metar_trigger": false,
      "taf_trigger": false,
      "metar": "METAR LPPS 120800Z 03012G24KT 360V060 9999 SCT015 BKN030 14/06 Q1027",
      "taf": "TAF LPPS 120500Z 1206/1312 02015KT 9999 SCT015 SCT030"
    },
    {
      "icao": "LPPT",
      "alert": "OK",
      "vis_m": 9999,
      "fzfg": false,
      "metar_trigger": false,
      "taf_trigger": false,
      "metar": "METAR LPPT 120800Z 34021G31KT 9999 SCT032 12/05 Q1019 WS R02",
      "taf": "TAF LPPT 120500Z 1206/1312 34018KT 9999 FEW025"
    },
    {
      "icao": "LQBK",
      "alert": "OK",
      "vis_m": 9999,
      "fzfg": false,
      "metar_trigger": false,
      "taf_trigger": false,
      "metar": "METAR LQBK 120800Z 05004KT 360V100 CAVOK 13/04 Q1018 NOSIG",
      "taf": "TAF LQBK 120500Z 1206/1306 03005KT CAVOK TX20/1214Z TN06/1304Z"
    },
    {
      "icao": "LQSA",
      "alert": "OK",
      "vis_m": 9999,
      "fzfg": false,
      "metar_trigger": false,
      "taf_trigger": false,
      "metar": "METAR LQSA 120800Z VRB02KT CAVOK 13/04 Q1017 NOSIG",
      "taf": "TAF LQSA 120500Z 1206/1306 VRB02KT CAVOK TX24/1214Z TN06/1304Z"
    },
    {
      "icao": "LQTZ",
      "alert": "OK",
      "vis_m": 9999,
      "fzfg": false,
      "metar_trigger": false,
      "taf_trigger": false,
      "metar": "METAR LQTZ 120800Z 13007KT 100V170 CAVOK 14/05 Q1018",
      "taf": "TAF LQTZ 120500Z 1206/1306 06006KT CAVOK TX21/1214Z TN07/1304Z"
    },
    {
      "icao": "LRBC",
      "alert": "OK",
      "vis_m": 9999,
      "fzfg": false,
      "metar_trigger": false,
      "taf_trigger": false,
      "metar": "METAR LRBC 120800Z 35005KT 310V010 9999 FEW026 SCT043 09/01 Q1021",
      "taf": "TAF LRBC 120500Z 1206/1215 35005KT CAVOK"
    },
    {
      "icao": "LRBS",
      "alert": "OK",
      "vis_m": 9999,
      "fzfg": false,
      "metar_trigger": false,
      "taf_trigger": false,
      "metar": "METAR LRBS 120800Z 07006KT 020V120 9999 FEW026 12/06 Q1021 NOSIG",
      "taf": "TAF LRBS 120500Z 1206/1306 VRB04KT 5000 BR NSC"
    },
    {
      "icao": "LRBV",
      "alert": "OK",
      "vis_m": 9999,
      "fzfg": false,
      "metar_trigger": false,
      "taf_trigger": false,
      "metar": "METAR LRBV 120800Z 33005KT 240V020 9999 FEW060 09/M04 Q1020",
      "taf": "TAF LRBV 120500Z 1206/1215 VRB04KT CAVOK"
    },
    {
      "icao": "LRCL",
      "alert": "OK",
      "vis_m": 9999,
      "fzfg": false,
      "metar_trigger": false,
      "taf_trigger": false,
      "metar": "METAR LRCL 120800Z 14003KT 070V200 CAVOK 09/M01 Q1020",
      "taf": "TAF LRCL 120500Z 1206/1215 VRB04KT CAVOK"
    },
    {
      "icao": "LRCV",
      "alert": "OK",
      "vis_m": 9999,
      "fzfg": false,
      "metar_trigger": false,
      "taf_trigger": false,
      "metar": "METAR LRCV 120800Z 18004KT 110V260 CAVOK 11/04 Q1021",
      "taf": "TAF LRCV 120500Z 1206/1215 09006KT CAVOK"
    },
    {
      "icao": "LRIA",
      "alert": "OK",
      "vis_m": 9999,
      "fzfg": false,
      "metar_trigger": false,
      "taf_trigger": false,
      "metar": "METAR LRIA 120800Z 31005KT 250V030 9999 FEW024 SCT030 BKN034 08/01 Q1021",
      "taf": "TAF LRIA 120500Z 1206/1215 VRB04KT CAVOK"
    },
    {
      "icao": "LROP",
      "alert": "OK",
      "vis_m": 9999,
      "fzfg": false,
      "metar_trigger": false,
      "taf_trigger": false,
      "metar": "METAR LROP 120800Z 08005KT 030V130 9999 FEW030 11/02 Q1021 NOSIG",
      "taf": "TAF LROP 120500Z 1206/1306 VRB04KT 5000 BR NSC"
    },
    {
      "icao": "LRSB",
      "alert": "OK",
      "vis_m": 9999,
      "fzfg": false,
      "metar_trigger": false,
      "taf_trigger": false,
      "metar": "METAR LRSB 120800Z 02003KT 320V090 CAVOK 10/M03 Q1020",
      "taf": "TAF LRSB 120500Z 1206/1306 VRB04KT CAVOK"
    },
    {
      "icao": "LRSM",
      "alert": "OK",
      "vis_m": 9999,
      "fzfg": false,
      "metar_trigger": false,
      "taf_trigger": false,
      "metar": "METAR LRSM 120800Z AUTO VRB01KT 9999 NCD 09/M03 Q1021",
      "taf": ""
    },
    {
      "icao": "LRSV",
      "alert": "OK",
      "vis_m": 9999,
      "fzfg": false,
      "metar_trigger": false,
      "taf_trigger": false,
      "metar": "METAR LRSV 120800Z VRB02KT 9999 SCT038 07/M02 Q1020",
      "taf": "TAF LRSV 120500Z 1206/1215 VRB04KT CAVOK"
    },
    {
      "icao": "LRTM",
      "alert": "OK",
      "vis_m": 9999,
      "fzfg": false,
      "metar_trigger": false,
      "taf_trigger": false,
      "metar": "METAR LRTM 120800Z 21003KT 120V270 CAVOK 09/M00 Q1021",
      "taf": "TAF LRTM 120500Z 1206/1215 VRB04KT CAVOK"
    },
    {
      "icao": "LRTR",
      "alert": "OK",
      "vis_m": 9999,
      "fzfg": false,
      "metar_trigger": false,
      "taf_trigger": false,
      "metar": "METAR LRTR 120800Z 08008KT CAVOK 10/00 Q1020 NOSIG",
      "taf": "TAF LRTR 120500Z 1206/1306 08008KT CAVOK"
    },
    {
      "icao": "LTAC",
      "alert": "OK",
      "vis_m": 9999,
      "fzfg": false,
      "metar_trigger": false,
      "taf_trigger": false,
      "metar": "METAR LTAC 120750Z 11004KT 030V200 9999 SCT026 06/M01 Q1017 NOSIG RMK RWY21C VRB04KT RWY03L VRB03KT RWY21R 02004KT 280V090 RWY03R 02003KT 320V080 RWY21L VRB02KT",
      "taf": "TAF LTAC 120440Z 1206/1306 VRB02KT 9999 SCT040"
    },
    {
      "icao": "LTFM",
      "alert": "OK",
      "vis_m": 9999,
      "fzfg": false,
      "metar_trigger": false,
      "taf_trigger": false,
      "metar": "METAR LTFM 120750Z 06009KT 9999 SCT040 BKN090 10/03 Q1021 NOSIG RMK RWY17L 05007KT 020V090 RWY34L 04006KT 360V070 RWY16R 06007KT 010V080 RWY36 05009KT 010V080 RWY18 06008KT",
      "taf": "TAF LTFM 120440Z 1206/1312 VRB02KT 9999 SCT035 BKN100"
    },
    {
      "icao": "LUKK",
      "alert": "OK",
      "vis_m": 9999,
      "fzfg": false,
      "metar_trigger": false,
      "taf_trigger": false,
      "metar": "METAR LUKK 120800Z VRB04KT 9999 SCT025 BKN042 BKN100 08/02 Q1021 NOSIG",
      "taf": "TAF LUKK 120504Z 1206/1306 VRB06KT 9999 BKN030"
    },
    {
      "icao": "LWOH",
      "alert": "OK",
      "vis_m": 9999,
      "fzfg": false,
      "metar_trigger": false,
      "taf_trigger": false,
      "metar": "METAR LWOH 120750Z 16006KT CAVOK 11/08 Q1018",
      "taf": "TAF LWOH 120520Z 1206/1306 VRB02KT CAVOK"
    },
    {
      "icao": "LWSK",
      "alert": "OK",
      "vis_m": 9999,
      "fzfg": false,
      "metar_trigger": false,
      "taf_trigger": false,
      "metar": "METAR LWSK 120750Z VRB03KT 9999 BKN080 13/07 Q1019 NOSIG",
      "taf": "TAF LWSK 120520Z 1206/1306 VRB02KT 9999 FEW090"
    },
    {
      "icao": "LYBE",
      "alert": "OK",
      "vis_m": 9999,
      "fzfg": false,
      "metar_trigger": false,
      "taf_trigger": false,
      "metar": "METAR LYBE 120800Z 12009KT CAVOK 12/02 Q1020 NOSIG",
      "taf": "TAF LYBE 120500Z 1206/1306 08008KT CAVOK TX18/1213Z TN06/1206Z"
    },
    {
      "icao": "LYNI",
      "alert": "OK",
      "vis_m": 9999,
      "fzfg": false,
      "metar_trigger": false,
      "taf_trigger": false,
      "metar": "METAR LYNI 120800Z VRB02KT 9999 BKN090 13/04 Q1019 NOSIG",
      "taf": "TAF LYNI 120500Z 1206/1306 07005KT 9999 SCT045 SCT090 TX18/1213Z TN07/1304Z"
    },
    {
      "icao": "LYPG",
      "alert": "OK",
      "vis_m": 9999,
      "fzfg": false,
      "metar_trigger": false,
      "taf_trigger": false,
      "metar": "METAR LYPG 120800Z VRB02KT CAVOK 18/05 Q1017 NOSIG",
      "taf": "TAF LYPG 120500Z 1206/1306 19007KT CAVOK TX24/1213Z TN10/1303Z"
    },
    {
      "icao": "LZIB",
      "alert": "OK",
      "vis_m": 9999,
      "fzfg": false,
      "metar_trigger": false,
      "taf_trigger": false,
      "metar": "METAR LZIB 120800Z 08009KT 9999 BKN047 08/M02 Q1019 NOSIG",
      "taf": "TAF LZIB 120515Z 1206/1306 04007KT 9999 SCT040 BKN047"
    },
    {
      "icao": "LZKZ",
      "alert": "OK",
      "vis_m": 9999,
      "fzfg": false,
      "metar_trigger": false,
      "taf_trigger": false,
      "metar": "METAR LZKZ 120800Z VRB02KT CAVOK 09/M03 Q1021 NOSIG",
      "taf": "TAF LZKZ 120515Z 1206/1306 VRB02KT CAVOK"
    },
    {
      "icao": "LZTT",
      "alert": "OK",
      "vis_m": 9999,
      "fzfg": false,
      "metar_trigger": false,
      "taf_trigger": false,
      "metar": "METAR LZTT 120800Z VRB03KT CAVOK 05/M05 Q1019 NOSIG",
      "taf": "TAF LZTT 120515Z 1206/1306 07008KT CAVOK"
    },
    {
      "icao": "OEJN",
      "alert": "OK",
      "vis_m": 9999,
      "fzfg": false,
      "metar_trigger": false,
      "taf_trigger": false,
      "metar": "METAR OEJN 120800Z 33006KT CAVOK 30/11 Q1013 NOSIG",
      "taf": "TAF OEJN 120500Z 1206/1312 34014KT CAVOK"
    },
    {
      "icao": "OEMA",
      "alert": "OK",
      "vis_m": 9999,
      "fzfg": false,
      "metar_trigger": false,
      "taf_trigger": false,
      "metar": "METAR OEMA 120800Z 15006KT CAVOK 27/M04 Q1017 NOSIG",
      "taf": "TAF OEMA 120500Z 1206/1312 10006KT CAVOK"
    },
    {
      "icao": "OJAI",
      "alert": "OK",
      "vis_m": null,
      "fzfg": false,
      "metar_trigger": false,
      "taf_trigger": false,
      "metar": "",
      "taf": "TAF OJAI 120500Z 1206/1312 29010KT 5000 HZ FEW030"
    },
    {
      "icao": "OMAA",
      "alert": "OK",
      "vis_m": null,
      "fzfg": false,
      "metar_trigger": false,
      "taf_trigger": false,
      "metar": "",
      "taf": ""
    },
    {
      "icao": "OMDB",
      "alert": "OK",
      "vis_m": null,
      "fzfg": false,
      "metar_trigger": false,
      "taf_trigger": false,
      "metar": "",
      "taf": ""
    },
    {
      "icao": "UAAA",
      "alert": "OK",
      "vis_m": 9999,
      "fzfg": false,
      "metar_trigger": false,
      "taf_trigger": false,
      "metar": "METAR UAAA 120800Z 05003MPS 340V140 9999 FEW050 20/04 Q1022 NOSIG",
      "taf": "TAF UAAA 120501Z 1206/1306 35003MPS 9999 FEW100 TX21/1208Z TN05/1301Z"
    },
    {
      "icao": "UBBB",
      "alert": "OK",
      "vis_m": 9999,
      "fzfg": false,
      "metar_trigger": false,
      "taf_trigger": false,
      "metar": "METAR UBBB 120800Z 33018KT 9999 FEW013 13/09 Q1015 NOSIG",
      "taf": "TAF UBBB 120506Z 1206/1306 35016KT 9999 SCT012 SCT040 TX13/1208Z TN08/1300Z"
    },
    {
      "icao": "UDSG",
      "alert": "OK",
      "vis_m": 9999,
      "fzfg": false,
      "metar_trigger": false,
      "taf_trigger": false,
      "metar": "METAR UDSG 120800Z 05001KT 9999 SCT033CB BKN040 06/01 Q1013 NOSIG",
      "taf": "TAF UDSG 120458Z 1206/1306 36006KT 9999 BKN030"
    },
    {
      "icao": "UDYZ",
      "alert": "OK",
      "vis_m": 9999,
      "fzfg": false,
      "metar_trigger": false,
      "taf_trigger": false,
      "metar": "METAR UDYZ 120800Z 15003KT 090V260 9999 SCT043CB 14/04 Q1012 NOSIG",
      "taf": "TAF UDYZ 120500Z 1206/1306 20006KT 9999 BKN040"
    },
    {
      "icao": "UGKO",
      "alert": "OK",
      "vis_m": 9999,
      "fzfg": false,
      "metar_trigger": false,
      "taf_trigger": false,
      "metar": "METAR UGKO 120800Z VRB02KT 9999 SCT025 BKN046 11/05 Q1018 NOSIG",
      "taf": "TAF UGKO 120500Z 1206/1306 26007KT 9999 SCT020 BKN045 TX12/1211Z TN06/1303Z"
    }
  ]
}