{
  "ts_utc": "2026-04-15T15:40:22Z",
  "threshold_m": 150,
  "source": "stations_override.txt (ICAO list) + aviationweather.gov (METAR/TAF raw)",
  "station_count": 159,
  "stations": [
    {
      "icao": "BIKF",
      "alert": "OK",
      "vis_m": 9999,
      "fzfg": false,
      "metar_trigger": false,
      "taf_trigger": false,
      "metar": "METAR BIKF 151530Z 13016KT 9999 FEW021 BKN035 09/04 Q0993",
      "taf": "TAF BIKF 151337Z 1515/1615 14017KT 9999 SCT016 BKN025 TX08/1515Z TN03/1606Z"
    },
    {
      "icao": "BKPR",
      "alert": "OK",
      "vis_m": null,
      "fzfg": false,
      "metar_trigger": false,
      "taf_trigger": false,
      "metar": "",
      "taf": "TAF BKPR 151130Z 1512/1612 13009KT 9999 FEW050 BKN080"
    },
    {
      "icao": "EBCI",
      "alert": "OK",
      "vis_m": 9999,
      "fzfg": false,
      "metar_trigger": false,
      "taf_trigger": false,
      "metar": "METAR EBCI 151520Z 21011KT CAVOK 17/04 Q1019 NOSIG",
      "taf": "TAF EBCI 151100Z 1512/1618 22010KT CAVOK"
    },
    {
      "icao": "EDDB",
      "alert": "OK",
      "vis_m": 9999,
      "fzfg": false,
      "metar_trigger": false,
      "taf_trigger": false,
      "metar": "METAR EDDB 151520Z AUTO 15002KT CAVOK 17/03 Q1022 NOSIG",
      "taf": "TAF EDDB 151100Z 1512/1612 VRB03KT CAVOK"
    },
    {
      "icao": "EDDH",
      "alert": "OK",
      "vis_m": 9999,
      "fzfg": false,
      "metar_trigger": false,
      "taf_trigger": false,
      "metar": "METAR EDDH 151520Z AUTO 23004KT 210V270 CAVOK 17/03 Q1020 NOSIG",
      "taf": "TAF EDDH 151100Z 1512/1618 21008KT CAVOK"
    },
    {
      "icao": "EDDK",
      "alert": "OK",
      "vis_m": 9999,
      "fzfg": false,
      "metar_trigger": false,
      "taf_trigger": false,
      "metar": "METAR EDDK 151520Z AUTO 17007KT 070V210 CAVOK 19/05 Q1019 NOSIG",
      "taf": "TAF EDDK 151100Z 1512/1618 15009KT CAVOK"
    },
    {
      "icao": "EDDN",
      "alert": "OK",
      "vis_m": 9999,
      "fzfg": false,
      "metar_trigger": false,
      "taf_trigger": false,
      "metar": "METAR EDDN 151520Z AUTO 21004KT 9999 OVC033 14/08 Q1021 NOSIG",
      "taf": "TAF EDDN 151100Z 1512/1612 14006KT 9999 FEW020 OVC030"
    },
    {
      "icao": "EDDS",
      "alert": "OK",
      "vis_m": 9999,
      "fzfg": false,
      "metar_trigger": false,
      "taf_trigger": false,
      "metar": "METAR EDDS 151520Z AUTO 16003KT 120V210 9999 OVC035 13/08 Q1020 NOSIG",
      "taf": "TAF EDDS 151100Z 1512/1612 07004KT 9999 BKN040"
    },
    {
      "icao": "EDFH",
      "alert": "OK",
      "vis_m": 9999,
      "fzfg": false,
      "metar_trigger": false,
      "taf_trigger": false,
      "metar": "METAR EDFH 151520Z 12007KT 090V150 9999 BKN048 15/05 Q1020",
      "taf": "TAF EDFH 151100Z 1512/1612 14007KT 9999 FEW040"
    },
    {
      "icao": "EDJA",
      "alert": "OK",
      "vis_m": 9999,
      "fzfg": false,
      "metar_trigger": false,
      "taf_trigger": false,
      "metar": "METAR EDJA 151520Z 05007KT 9999 OVC029 11/08 Q1020",
      "taf": "TAF EDJA 151400Z 1515/1524 05006KT 9999 FEW015 BKN020"
    },
    {
      "icao": "EDLW",
      "alert": "OK",
      "vis_m": 9999,
      "fzfg": false,
      "metar_trigger": false,
      "taf_trigger": false,
      "metar": "METAR EDLW 151520Z 21006KT 160V240 CAVOK 18/03 Q1019",
      "taf": "TAF EDLW 151100Z 1512/1612 19006KT CAVOK"
    },
    {
      "icao": "EDNY",
      "alert": "OK",
      "vis_m": 9999,
      "fzfg": false,
      "metar_trigger": false,
      "taf_trigger": false,
      "metar": "METAR EDNY 151520Z 25005KT 9999 OVC036 13/07 Q1021",
      "taf": "TAF EDNY 151400Z 1515/1524 22005KT 9999 BKN030"
    },
    {
      "icao": "EDSB",
      "alert": "OK",
      "vis_m": 9999,
      "fzfg": false,
      "metar_trigger": false,
      "taf_trigger": false,
      "metar": "METAR EDSB 151520Z 21005KT 9999 SCT047 17/07 Q1020",
      "taf": ""
    },
    {
      "icao": "EETN",
      "alert": "OK",
      "vis_m": 9999,
      "fzfg": false,
      "metar_trigger": false,
      "taf_trigger": false,
      "metar": "METAR EETN 151520Z 05009KT CAVOK 10/00 Q1023 NOSIG",
      "taf": "TAF EETN 151130Z 1512/1612 03007KT CAVOK"
    },
    {
      "icao": "EFTU",
      "alert": "OK",
      "vis_m": 9999,
      "fzfg": false,
      "metar_trigger": false,
      "taf_trigger": false,
      "metar": "METAR EFTU 151520Z AUTO 25007KT 210V270 CAVOK 15/M03 Q1023",
      "taf": "TAF EFTU 151422Z 1515/1615 17006KT CAVOK"
    },
    {
      "icao": "EGBB",
      "alert": "OK",
      "vis_m": 9999,
      "fzfg": false,
      "metar_trigger": false,
      "taf_trigger": false,
      "metar": "METAR EGBB 151520Z 17012KT 9999 VCSH SCT013 BKN020 13/11 Q1010",
      "taf": ""
    },
    {
      "icao": "EGGP",
      "alert": "OK",
      "vis_m": 9999,
      "fzfg": false,
      "metar_trigger": false,
      "taf_trigger": false,
      "metar": "METAR EGGP 151520Z 16010KT 120V200 9999 FEW030 BKN035 13/10 Q1007",
      "taf": "TAF EGGP 151101Z 1512/1612 18010KT 9999 SCT020"
    },
    {
      "icao": "EGGW",
      "alert": "OK",
      "vis_m": 9999,
      "fzfg": false,
      "metar_trigger": false,
      "taf_trigger": false,
      "metar": "METAR EGGW 151520Z AUTO 21013KT 160V240 9999 -RA FEW024/// BKN031/// //////TCU 14/09 Q1013",
      "taf": ""
    },
    {
      "icao": "EGKK",
      "alert": "OK",
      "vis_m": 9999,
      "fzfg": false,
      "metar_trigger": false,
      "taf_trigger": false,
      "metar": "METAR EGKK 151520Z 21011KT 9999 BKN025 BKN030 15/10 Q1015",
      "taf": ""
    },
    {
      "icao": "EGNM",
      "alert": "OK",
      "vis_m": 9999,
      "fzfg": false,
      "metar_trigger": false,
      "taf_trigger": false,
      "metar": "METAR EGNM 151520Z 16013G23KT 9999 -RA SCT025 BKN035 12/10 Q1008",
      "taf": "TAF EGNM 151101Z 1512/1612 18012KT 9999 SCT020"
    },
    {
      "icao": "EGPD",
      "alert": "OK",
      "vis_m": 9999,
      "fzfg": false,
      "metar_trigger": false,
      "taf_trigger": false,
      "metar": "METAR EGPD 151520Z COR 16015KT 9999 BKN040 12/10 Q1005 NOSIG",
      "taf": ""
    },
    {
      "icao": "EGPF",
      "alert": "OK",
      "vis_m": 9999,
      "fzfg": false,
      "metar_trigger": false,
      "taf_trigger": false,
      "metar": "METAR EGPF 151520Z AUTO 18015KT 9999 BKN024 BKN032 15/10 Q1003",
      "taf": "TAF EGPF 151108Z 1512/1612 16014KT 9999 SCT016"
    },
    {
      "icao": "EHBK",
      "alert": "OK",
      "vis_m": 9999,
      "fzfg": false,
      "metar_trigger": false,
      "taf_trigger": false,
      "metar": "METAR EHBK 151525Z AUTO 22009KT 170V270 9999 NSC 19/05 Q1018 NOSIG",
      "taf": "TAF EHBK 151114Z 1512/1618 19010KT CAVOK"
    },
    {
      "icao": "EHEH",
      "alert": "OK",
      "vis_m": 9999,
      "fzfg": false,
      "metar_trigger": false,
      "taf_trigger": false,
      "metar": "METAR EHEH 151525Z AUTO 21012KT 160V240 9999 OVC140 20/02 Q1018 BLU NOSIG",
      "taf": "TAF EHEH 151102Z 1512/1618 19015KT CAVOK"
    },
    {
      "icao": "EKBI",
      "alert": "OK",
      "vis_m": 9999,
      "fzfg": false,
      "metar_trigger": false,
      "taf_trigger": false,
      "metar": "METAR EKBI 151520Z AUTO 13007KT 9999 OVC075/// 12/06 Q1021",
      "taf": "TAF EKBI 151427Z 1515/1615 12005KT 9999 FEW030"
    },
    {
      "icao": "EKCH",
      "alert": "OK",
      "vis_m": 9999,
      "fzfg": false,
      "metar_trigger": false,
      "taf_trigger": false,
      "metar": "METAR EKCH 151520Z AUTO 14004KT 100V160 9999 BKN030/// 10/05 Q1022 NOSIG",
      "taf": "TAF EKCH 151427Z 1515/1615 09008KT 9999 SCT020"
    },
    {
      "icao": "ENAL",
      "alert": "OK",
      "vis_m": 9999,
      "fzfg": false,
      "metar_trigger": false,
      "taf_trigger": false,
      "metar": "METAR ENAL 151520Z 06005KT 010V100 CAVOK 13/00 Q1019",
      "taf": "TAF ENAL 151400Z 1515/1524 10008KT CAVOK"
    },
    {
      "icao": "ENBR",
      "alert": "OK",
      "vis_m": 9999,
      "fzfg": false,
      "metar_trigger": false,
      "taf_trigger": false,
      "metar": "METAR ENBR 151520Z 14013KT CAVOK 13/M01 Q1019 NOSIG RMK WIND 1200FT 14017KT",
      "taf": "TAF ENBR 151100Z 1512/1612 14010KT CAVOK"
    },
    {
      "icao": "ENGM",
      "alert": "OK",
      "vis_m": 9999,
      "fzfg": false,
      "metar_trigger": false,
      "taf_trigger": false,
      "metar": "METAR ENGM 151520Z VRB03KT 9999 SCT047 11/02 Q1023 NOSIG",
      "taf": "TAF ENGM 151100Z 1512/1612 04008KT 9999 BKN030"
    },
    {
      "icao": "ENHD",
      "alert": "OK",
      "vis_m": 9999,
      "fzfg": false,
      "metar_trigger": false,
      "taf_trigger": false,
      "metar": "METAR ENHD 151520Z 14015KT CAVOK 11/02 Q1019",
      "taf": "TAF ENHD 151400Z 1515/1522 14015KT CAVOK"
    },
    {
      "icao": "ENTC",
      "alert": "OK",
      "vis_m": 9999,
      "fzfg": false,
      "metar_trigger": false,
      "taf_trigger": false,
      "metar": "METAR ENTC 151520Z 22003KT 180V260 CAVOK 11/M03 Q1024 TEMPO BKN012 FEW020CB RMK WIND 2600FT 22013KT",
      "taf": "TAF ENTC 151100Z 1512/1612 22008KT CAVOK"
    },
    {
      "icao": "ENTO",
      "alert": "OK",
      "vis_m": 9999,
      "fzfg": false,
      "metar_trigger": false,
      "taf_trigger": false,
      "metar": "METAR ENTO 151520Z 05003KT 360V070 9999 SCT031 11/03 Q1023 NOSIG",
      "taf": "TAF ENTO 151100Z 1512/1612 03008KT 9999 BKN020"
    },
    {
      "icao": "ENVA",
      "alert": "OK",
      "vis_m": 9999,
      "fzfg": false,
      "metar_trigger": false,
      "taf_trigger": false,
      "metar": "METAR ENVA 151520Z 14013KT 110V170 CAVOK 13/M01 Q1023 NOSIG RMK WIND 670FT 15021KT",
      "taf": "TAF ENVA 151100Z 1512/1612 14012KT CAVOK"
    },
    {
      "icao": "ENZV",
      "alert": "OK",
      "vis_m": 9999,
      "fzfg": false,
      "metar_trigger": false,
      "taf_trigger": false,
      "metar": "METAR ENZV 151520Z 12017KT CAVOK 11/01 Q1020 NOSIG",
      "taf": "TAF ENZV 151100Z 1512/1612 13015KT CAVOK"
    },
    {
      "icao": "EPGD",
      "alert": "OK",
      "vis_m": 9999,
      "fzfg": false,
      "metar_trigger": false,
      "taf_trigger": false,
      "metar": "METAR EPGD 151530Z 30011KT 9999 SCT043 11/01 Q1022",
      "taf": "TAF EPGD 151130Z 1512/1612 29010KT 9999 BKN030"
    },
    {
      "icao": "EPKK",
      "alert": "OK",
      "vis_m": 9999,
      "fzfg": false,
      "metar_trigger": false,
      "taf_trigger": false,
      "metar": "METAR EPKK 151530Z 25004KT 9999 FEW021 SCT042 14/09 Q1021",
      "taf": "TAF EPKK 151430Z 1515/1615 26005KT 9999 BKN040"
    },
    {
      "icao": "EPKT",
      "alert": "OK",
      "vis_m": 9999,
      "fzfg": false,
      "metar_trigger": false,
      "taf_trigger": false,
      "metar": "METAR EPKT 151530Z 33005KT 9999 BKN027 13/07 Q1021",
      "taf": "TAF EPKT 151130Z 1512/1612 29003KT 9999 BKN025"
    },
    {
      "icao": "EPLB",
      "alert": "OK",
      "vis_m": 9999,
      "fzfg": false,
      "metar_trigger": false,
      "taf_trigger": false,
      "metar": "METAR EPLB 151530Z 34004KT 310V030 CAVOK 16/04 Q1020",
      "taf": "TAF EPLB 151130Z 1512/1612 VRB03KT CAVOK"
    },
    {
      "icao": "EPMO",
      "alert": "OK",
      "vis_m": 9999,
      "fzfg": false,
      "metar_trigger": false,
      "taf_trigger": false,
      "metar": "METAR EPMO 151530Z 31009KT 280V340 9999 FEW030 BKN049 14/08 Q1021",
      "taf": "TAF EPMO 151130Z 1512/1612 27008KT CAVOK"
    },
    {
      "icao": "EPPO",
      "alert": "OK",
      "vis_m": 9999,
      "fzfg": false,
      "metar_trigger": false,
      "taf_trigger": false,
      "metar": "METAR EPPO 151530Z 33007KT CAVOK 15/M00 Q1022",
      "taf": "TAF EPPO 151130Z 1512/1612 32008KT CAVOK"
    },
    {
      "icao": "EPRA",
      "alert": "OK",
      "vis_m": 9999,
      "fzfg": false,
      "metar_trigger": false,
      "taf_trigger": false,
      "metar": "METAR EPRA 151530Z 30005KT 260V350 9999 BKN040 15/07 Q1021",
      "taf": "TAF EPRA 151430Z 1515/1524 30006KT 9999 SCT040"
    },
    {
      "icao": "EPRZ",
      "alert": "OK",
      "vis_m": 9999,
      "fzfg": false,
      "metar_trigger": false,
      "taf_trigger": false,
      "metar": "METAR EPRZ 151530Z 33007KT CAVOK 16/06 Q1021",
      "taf": ""
    },
    {
      "icao": "EPSC",
      "alert": "OK",
      "vis_m": 9999,
      "fzfg": false,
      "metar_trigger": false,
      "taf_trigger": false,
      "metar": "METAR EPSC 151530Z 28007KT CAVOK 14/00 Q1022",
      "taf": "TAF EPSC 151130Z 1512/1612 VRB04KT 9999 SCT040"
    },
    {
      "icao": "EPSY",
      "alert": "OK",
      "vis_m": 9999,
      "fzfg": false,
      "metar_trigger": false,
      "taf_trigger": false,
      "metar": "METAR EPSY 151530Z 32004KT 290V350 9999 BKN018 11/07 Q1021",
      "taf": "TAF EPSY 151430Z 1515/1524 31005KT 9999 BKN020"
    },
    {
      "icao": "EPWA",
      "alert": "OK",
      "vis_m": 9999,
      "fzfg": false,
      "metar_trigger": false,
      "taf_trigger": false,
      "metar": "METAR EPWA 151530Z 31009KT 9999 BKN036 15/07 Q1021 NOSIG",
      "taf": "TAF EPWA 151430Z 1515/1615 28010KT 9999 BKN040"
    },
    {
      "icao": "EPWR",
      "alert": "OK",
      "vis_m": 9999,
      "fzfg": false,
      "metar_trigger": false,
      "taf_trigger": false,
      "metar": "METAR EPWR 151530Z VRB02KT 9999 FEW047 16/04 Q1021",
      "taf": "TAF EPWR 151430Z 1515/1615 VRB02KT CAVOK"
    },
    {
      "icao": "ESGG",
      "alert": "OK",
      "vis_m": 9999,
      "fzfg": false,
      "metar_trigger": false,
      "taf_trigger": false,
      "metar": "METAR ESGG 151520Z 02009KT 9999 SCT019 09/04 Q1021",
      "taf": "TAF ESGG 151430Z 1515/1615 02004KT 9999 BKN030"
    },
    {
      "icao": "ESKN",
      "alert": "OK",
      "vis_m": 9999,
      "fzfg": false,
      "metar_trigger": false,
      "taf_trigger": false,
      "metar": "METAR ESKN 151520Z 09014KT CAVOK 11/01 Q1022",
      "taf": "TAF ESKN 151430Z 1515/1615 09010KT CAVOK"
    },
    {
      "icao": "ESMS",
      "alert": "OK",
      "vis_m": 9999,
      "fzfg": false,
      "metar_trigger": false,
      "taf_trigger": false,
      "metar": "METAR ESMS 151520Z 33008KT 9999 SCT032 11/04 Q1021",
      "taf": "TAF ESMS 151427Z 1515/1615 27008KT 9999 SCT020"
    },
    {
      "icao": "ESSA",
      "alert": "OK",
      "vis_m": 9999,
      "fzfg": false,
      "metar_trigger": false,
      "taf_trigger": false,
      "metar": "METAR ESSA 151520Z 07013KT CAVOK 13/M03 Q1023 NOSIG",
      "taf": "TAF ESSA 151430Z 1515/1615 08011KT CAVOK"
    },
    {
      "icao": "EYKA",
      "alert": "OK",
      "vis_m": 9999,
      "fzfg": false,
      "metar_trigger": false,
      "taf_trigger": false,
      "metar": "METAR EYKA 151520Z 22005KT CAVOK 16/M01 Q1020",
      "taf": "TAF EYKA 151102Z 1512/1612 VRB03KT 9000 NSC"
    },
    {
      "icao": "EYPA",
      "alert": "OK",
      "vis_m": 9999,
      "fzfg": false,
      "metar_trigger": false,
      "taf_trigger": false,
      "metar": "METAR EYPA 151520Z VRB01KT 9999 -SHRA BKN048CB 08/07 Q1022",
      "taf": "TAF EYPA 151101Z 1512/1612 VRB03KT 9000 OVC040"
    },
    {
      "icao": "EYVI",
      "alert": "OK",
      "vis_m": 9999,
      "fzfg": false,
      "metar_trigger": false,
      "taf_trigger": false,
      "metar": "METAR EYVI 151520Z VRB02KT CAVOK 17/M04 Q1020 NOSIG",
      "taf": "TAF EYVI 151100Z 1512/1612 VRB04KT 9000 NSC"
    },
    {
      "icao": "GCFV",
      "alert": "OK",
      "vis_m": 9999,
      "fzfg": false,
      "metar_trigger": false,
      "taf_trigger": false,
      "metar": "METAR GCFV 151530Z 03011KT 9999 SCT025 21/15 Q1017",
      "taf": "TAF GCFV 151400Z 1515/1615 04010KT 9999 SCT025 TX25/1614Z TN15/1606Z"
    },
    {
      "icao": "GCLP",
      "alert": "OK",
      "vis_m": 9999,
      "fzfg": false,
      "metar_trigger": false,
      "taf_trigger": false,
      "metar": "METAR GCLP 151530Z 02023KT 9999 FEW025 21/15 Q1017 NOSIG",
      "taf": "TAF GCLP 151400Z 1515/1615 01019KT 9999 SCT035 TX24/1614Z TN17/1606Z"
    },
    {
      "icao": "GCTS",
      "alert": "OK",
      "vis_m": 9999,
      "fzfg": false,
      "metar_trigger": false,
      "taf_trigger": false,
      "metar": "METAR GCTS 151530Z 28007KT 230V020 9999 FEW030 21/13 Q1018 WS R07 NOSIG",
      "taf": "TAF GCTS 151400Z 1515/1615 06020KT 9999 FEW030 TX25/1614Z TN17/1606Z"
    },
    {
      "icao": "GMAD",
      "alert": "OK",
      "vis_m": 8000,
      "fzfg": false,
      "metar_trigger": false,
      "taf_trigger": false,
      "metar": "METAR GMAD 151530Z 28010KT 8000 NSC 33/05 Q1014 NOSIG",
      "taf": "TAF GMAD 151100Z 1512/1618 27010KT CAVOK"
    },
    {
      "icao": "GMMN",
      "alert": "OK",
      "vis_m": 9999,
      "fzfg": false,
      "metar_trigger": false,
      "taf_trigger": false,
      "metar": "METAR GMMN 151530Z 02014KT 340V060 CAVOK 22/16 Q1019 NOSIG",
      "taf": "TAF GMMN 151100Z 1512/1618 02012KT CAVOK"
    },
    {
      "icao": "GMMX",
      "alert": "OK",
      "vis_m": 9999,
      "fzfg": false,
      "metar_trigger": false,
      "taf_trigger": false,
      "metar": "METAR GMMX 151530Z 35007KT 310V060 CAVOK 29/11 Q1017 NOSIG",
      "taf": "TAF GMMX 151100Z 1512/1618 06006KT CAVOK"
    },
    {
      "icao": "HEGN",
      "alert": "OK",
      "vis_m": 9999,
      "fzfg": false,
      "metar_trigger": false,
      "taf_trigger": false,
      "metar": "METAR HEGN 151500Z 11005KT CAVOK 28/16 Q1008 NOSIG",
      "taf": "TAF HEGN 150500Z 1506/1612 01014KT CAVOK"
    },
    {
      "icao": "HEMA",
      "alert": "OK",
      "vis_m": 9999,
      "fzfg": false,
      "metar_trigger": false,
      "taf_trigger": false,
      "metar": "METAR HEMA 151500Z 01007KT CAVOK 26/18 Q1007 NOSIG",
      "taf": "TAF HEMA 150500Z 1506/1612 02015KT CAVOK"
    },
    {
      "icao": "HESH",
      "alert": "OK",
      "vis_m": 9999,
      "fzfg": false,
      "metar_trigger": false,
      "taf_trigger": false,
      "metar": "METAR HESH 151500Z 00000KT CAVOK 33/08 Q1008 NOSIG",
      "taf": "TAF HESH 150500Z 1506/1612 02014KT CAVOK"
    },
    {
      "icao": "HESX",
      "alert": "OK",
      "vis_m": 9999,
      "fzfg": false,
      "metar_trigger": false,
      "taf_trigger": false,
      "metar": "METAR HESX 151500Z 01010KT CAVOK 28/10 Q1008 NOSIG",
      "taf": "TAF HESX 150500Z 1506/1612 03011KT CAVOK"
    },
    {
      "icao": "LATI",
      "alert": "OK",
      "vis_m": 9999,
      "fzfg": false,
      "metar_trigger": false,
      "taf_trigger": false,
      "metar": "METAR LATI 151520Z 33006KT 9999 BKN095 19/12 Q1016 NOSIG",
      "taf": "TAF LATI 151100Z 1512/1612 35010KT 9999 SCT040 BKN080 TX26/1612Z TN12/1604Z"
    },
    {
      "icao": "LBPD",
      "alert": "OK",
      "vis_m": 9999,
      "fzfg": false,
      "metar_trigger": false,
      "taf_trigger": false,
      "metar": "METAR LBPD 151530Z AUTO 17003KT 9999 OVC092/// 13/09 Q1020 NOSIG",
      "taf": "TAF LBPD 151100Z 1512/1612 VRB03KT 9999 SCT070"
    },
    {
      "icao": "LBSF",
      "alert": "OK",
      "vis_m": 9999,
      "fzfg": false,
      "metar_trigger": false,
      "taf_trigger": false,
      "metar": "METAR LBSF 151530Z AUTO 10012KT 9999 OVC069/// 14/07 Q1020 NOSIG",
      "taf": "TAF LBSF 151100Z 1512/1612 11010KT 9999 SCT050 BKN070"
    },
    {
      "icao": "LBWN",
      "alert": "OK",
      "vis_m": 9999,
      "fzfg": false,
      "metar_trigger": false,
      "taf_trigger": false,
      "metar": "METAR LBWN 151530Z 12010KT 9999 FEW014 11/07 Q1022 NOSIG",
      "taf": "TAF LBWN 151100Z 1512/1612 12012KT 9999 SCT020"
    },
    {
      "icao": "LCLK",
      "alert": "OK",
      "vis_m": 9999,
      "fzfg": false,
      "metar_trigger": false,
      "taf_trigger": false,
      "metar": "METAR LCLK 151530Z 05011KT CAVOK 22/13 Q1013 NOSIG",
      "taf": "TAF LCLK 151130Z 1512/1612 05014KT CAVOK"
    },
    {
      "icao": "LCPH",
      "alert": "OK",
      "vis_m": 9999,
      "fzfg": false,
      "metar_trigger": false,
      "taf_trigger": false,
      "metar": "METAR LCPH 151530Z 00000KT CAVOK 20/15 Q1012 NOSIG",
      "taf": "TAF LCPH 151130Z 1512/1612 30010KT CAVOK"
    },
    {
      "icao": "LEAL",
      "alert": "OK",
      "vis_m": 9999,
      "fzfg": false,
      "metar_trigger": false,
      "taf_trigger": false,
      "metar": "METAR LEAL 151530Z 08006KT 030V140 9999 FEW055 20/12 Q1020 NOSIG",
      "taf": "TAF LEAL 151100Z 1512/1612 11010KT 9999 FEW030 TX21/1513Z TN12/1606Z"
    },
    {
      "icao": "LEBB",
      "alert": "OK",
      "vis_m": 9999,
      "fzfg": false,
      "metar_trigger": false,
      "taf_trigger": false,
      "metar": "METAR LEBB 151530Z 28011KT 240V320 9999 FEW027 19/14 Q1022 NOSIG",
      "taf": ""
    },
    {
      "icao": "LEBL",
      "alert": "OK",
      "vis_m": 9999,
      "fzfg": false,
      "metar_trigger": false,
      "taf_trigger": false,
      "metar": "METAR LEBL 151530Z 20007KT 9999 FEW022 17/11 Q1019 NOSIG",
      "taf": "TAF LEBL 151100Z 1512/1612 20008KT CAVOK TX18/1513Z TN11/1606Z"
    },
    {
      "icao": "LECH",
      "alert": "OK",
      "vis_m": 9999,
      "fzfg": false,
      "metar_trigger": false,
      "taf_trigger": false,
      "metar": "METAR LECH 151530Z AUTO 13008KT CAVOK 20/07 Q1019",
      "taf": "TAF LECH 151100Z 1512/1612 VRB03KT 9999 FEW030 TX23/1513Z TN08/1606Z"
    },
    {
      "icao": "LEMD",
      "alert": "OK",
      "vis_m": 9999,
      "fzfg": false,
      "metar_trigger": false,
      "taf_trigger": false,
      "metar": "METAR LEMD 151530Z 18006KT CAVOK 23/08 Q1020 NOSIG",
      "taf": "TAF LEMD 151100Z 1512/1618 VRB04KT CAVOK TX24/1516Z TN08/1606Z"
    },
    {
      "icao": "LEMG",
      "alert": "OK",
      "vis_m": 9999,
      "fzfg": false,
      "metar_trigger": false,
      "taf_trigger": false,
      "metar": "METAR LEMG 151530Z 12010KT CAVOK 21/11 Q1020 NOSIG",
      "taf": "TAF LEMG 151100Z 1512/1612 13010KT CAVOK TX26/1514Z TN15/1607Z"
    },
    {
      "icao": "LEVC",
      "alert": "OK",
      "vis_m": 9999,
      "fzfg": false,
      "metar_trigger": false,
      "taf_trigger": false,
      "metar": "METAR LEVC 151530Z 12011KT 090V150 9999 FEW040 22/09 Q1018 NOSIG",
      "taf": "TAF LEVC 151100Z 1512/1612 VRB04KT 9999 FEW030 TX24/1513Z TN10/1606Z"
    },
    {
      "icao": "LEXJ",
      "alert": "OK",
      "vis_m": 9999,
      "fzfg": false,
      "metar_trigger": false,
      "taf_trigger": false,
      "metar": "METAR LEXJ 151530Z 08005KT 020V120 9999 FEW030 17/14 Q1023",
      "taf": "TAF LEXJ 151400Z 1515/1615 VRB03KT 9999 FEW030 TX20/1611Z TN10/1606Z"
    },
    {
      "icao": "LEZG",
      "alert": "OK",
      "vis_m": 9999,
      "fzfg": false,
      "metar_trigger": false,
      "taf_trigger": false,
      "metar": "METAR LEZG 151530Z 31011KT 270V340 9999 FEW080 25/09 Q1018 NOSIG",
      "taf": "TAF LEZG 151100Z 1512/1612 31015KT 9999 FEW040 TX25/1513Z TN11/1606Z"
    },
    {
      "icao": "LEZL",
      "alert": "OK",
      "vis_m": 9999,
      "fzfg": false,
      "metar_trigger": false,
      "taf_trigger": false,
      "metar": "METAR LEZL 151530Z 11003KT CAVOK 27/08 Q1019 NOSIG",
      "taf": "TAF LEZL 151400Z 1515/1615 VRB03KT CAVOK TX28/1515Z TN13/1607Z"
    },
    {
      "icao": "LFBD",
      "alert": "OK",
      "vis_m": 9999,
      "fzfg": false,
      "metar_trigger": false,
      "taf_trigger": false,
      "metar": "METAR LFBD 151530Z AUTO 28006KT 250V310 9999 BKN034 BKN048 BKN058 22/12 Q1021 NOSIG",
      "taf": "TAF LFBD 151100Z 1512/1618 VRB03KT 9999 BKN015 TX23/1615Z TN08/1605Z"
    },
    {
      "icao": "LFLL",
      "alert": "OK",
      "vis_m": 9999,
      "fzfg": false,
      "metar_trigger": false,
      "taf_trigger": false,
      "metar": "METAR LFLL 151530Z 03004KT 330V090 9999 FEW043 17/07 Q1020 NOSIG",
      "taf": "TAF LFLL 151100Z 1512/1618 36010KT 9999 FEW030"
    },
    {
      "icao": "LFLS",
      "alert": "OK",
      "vis_m": 9999,
      "fzfg": false,
      "metar_trigger": false,
      "taf_trigger": false,
      "metar": "METAR LFLS 151530Z AUTO 03006KT 340V060 9999 FEW037 16/08 Q1020 NOSIG",
      "taf": "TAF LFLS 151400Z 1515/1615 35006KT 9999 BKN030"
    },
    {
      "icao": "LFMN",
      "alert": "OK",
      "vis_m": 9999,
      "fzfg": false,
      "metar_trigger": false,
      "taf_trigger": false,
      "metar": "METAR LFMN 151530Z 22010KT 9999 SCT100 20/12 Q1017 NOSIG",
      "taf": "TAF LFMN 151400Z 1515/1621 21010KT CAVOK"
    },
    {
      "icao": "LFOB",
      "alert": "OK",
      "vis_m": 9999,
      "fzfg": false,
      "metar_trigger": false,
      "taf_trigger": false,
      "metar": "METAR LFOB 151530Z AUTO 19011KT 150V240 9999 BKN029 BKN036 BKN080 17/11 Q1019 NOSIG",
      "taf": "TAF LFOB 151100Z 1512/1612 19012KT CAVOK"
    },
    {
      "icao": "LFPO",
      "alert": "OK",
      "vis_m": 9999,
      "fzfg": false,
      "metar_trigger": false,
      "taf_trigger": false,
      "metar": "METAR LFPO 151530Z 23009KT 180V260 9999 SCT025 BKN050 17/11 Q1020 NOSIG",
      "taf": "TAF LFPO 151100Z 1512/1618 21010KT 9999 BKN030"
    },
    {
      "icao": "LFSB",
      "alert": "OK",
      "vis_m": 9999,
      "fzfg": false,
      "metar_trigger": false,
      "taf_trigger": false,
      "metar": "METAR LFSB 151530Z AUTO VRB02KT 9999 OVC038 14/07 Q1021 NOSIG",
      "taf": "TAF LFSB 151100Z 1512/1612 01005KT 9999 BKN040"
    },
    {
      "icao": "LGAV",
      "alert": "OK",
      "vis_m": 9999,
      "fzfg": false,
      "metar_trigger": false,
      "taf_trigger": false,
      "metar": "METAR LGAV 151520Z 05011KT 9999 FEW020 16/11 Q1017 NOSIG",
      "taf": "TAF LGAV 151100Z 1512/1612 04016KT 9999 FEW020 SCT070"
    },
    {
      "icao": "LGTS",
      "alert": "OK",
      "vis_m": 9999,
      "fzfg": false,
      "metar_trigger": false,
      "taf_trigger": false,
      "metar": "METAR LGTS 151520Z 25007KT 9999 FEW025 17/12 Q1019 NOSIG",
      "taf": "TAF LGTS 151100Z 1512/1612 VRB03KT 9999 SCT025"
    },
    {
      "icao": "LHBP",
      "alert": "OK",
      "vis_m": 9999,
      "fzfg": false,
      "metar_trigger": false,
      "taf_trigger": false,
      "metar": "METAR LHBP 151530Z 05003KT 340V120 CAVOK 20/08 Q1019 NOSIG",
      "taf": "TAF LHBP 151115Z 1512/1612 VRB03KT CAVOK"
    },
    {
      "icao": "LHDC",
      "alert": "OK",
      "vis_m": 9999,
      "fzfg": false,
      "metar_trigger": false,
      "taf_trigger": false,
      "metar": "METAR LHDC 151515Z AUTO 03009KT 360V060 CAVOK 21/06 Q1019 NOSIG",
      "taf": "TAF LHDC 151415Z 1515/1524 03005KT CAVOK"
    },
    {
      "icao": "LIBD",
      "alert": "OK",
      "vis_m": 7000,
      "fzfg": false,
      "metar_trigger": false,
      "taf_trigger": false,
      "metar": "METAR LIBD 151520Z 10010KT 7000 SCT010 BKN045 16/14 Q1016",
      "taf": "TAF LIBD 151100Z 1512/1612 10012KT 7000 SCT020"
    },
    {
      "icao": "LIBG",
      "alert": "OK",
      "vis_m": 9999,
      "fzfg": false,
      "metar_trigger": false,
      "taf_trigger": false,
      "metar": "METAR LIBG 151450Z 06008KT 9999 SCT040 17/17 Q1015",
      "taf": "TAF LIBG 151400Z 1515/1524 VRB05KT 9999 SCT040"
    },
    {
      "icao": "LIBP",
      "alert": "OK",
      "vis_m": 9999,
      "fzfg": false,
      "metar_trigger": false,
      "taf_trigger": false,
      "metar": "METAR LIBP 151520Z AUTO 04007KT 9999 BKN007/// BKN066/// 17/16 Q1016",
      "taf": "TAF LIBP 151100Z 1512/1612 08010KT 9999 BKN015"
    },
    {
      "icao": "LIBR",
      "alert": "OK",
      "vis_m": 9999,
      "fzfg": false,
      "metar_trigger": false,
      "taf_trigger": false,
      "metar": "METAR LIBR 151520Z 03004KT CAVOK 16/16 Q1015",
      "taf": "TAF LIBR 151100Z 1512/1612 09011KT 9999 SCT030"
    },
    {
      "icao": "LICA",
      "alert": "OK",
      "vis_m": 9999,
      "fzfg": false,
      "metar_trigger": false,
      "taf_trigger": false,
      "metar": "METAR LICA 151520Z AUTO 07019KT 9999 BKN020/// 18/14 Q1012",
      "taf": "TAF LICA 151100Z 1512/1612 08022G32KT 9999 SCT030"
    },
    {
      "icao": "LICC",
      "alert": "OK",
      "vis_m": 6000,
      "fzfg": false,
      "metar_trigger": false,
      "taf_trigger": false,
      "metar": "METAR LICC 151520Z 08012KT 6000 FEW005 SCT020 19/16 Q1010",
      "taf": "TAF LICC 151100Z 1512/1612 07013KT 7000 SCT015 BKN030"
    },
    {
      "icao": "LICJ",
      "alert": "OK",
      "vis_m": 9999,
      "fzfg": false,
      "metar_trigger": false,
      "taf_trigger": false,
      "metar": "METAR LICJ 151520Z 24004KT 160V260 9999 FEW020 17/12 Q1010",
      "taf": "TAF LICJ 151100Z 1512/1612 23010KT 9999 BKN020"
    },
    {
      "icao": "LIMC",
      "alert": "OK",
      "vis_m": 9999,
      "fzfg": false,
      "metar_trigger": false,
      "taf_trigger": false,
      "metar": "METAR LIMC 151520Z 18003KT 100V220 9999 FEW040 22/11 Q1018 NOSIG",
      "taf": "TAF LIMC 151100Z 1512/1618 VRB05KT 9999 SCT030"
    },
    {
      "icao": "LIME",
      "alert": "OK",
      "vis_m": 9999,
      "fzfg": false,
      "metar_trigger": false,
      "taf_trigger": false,
      "metar": "METAR LIME 151520Z 03005KT 360V070 9999 SCT025 SCT045 19/12 Q1018 TEMPO RA",
      "taf": "TAF LIME 151100Z 1512/1612 VRB05KT 7000 BKN030"
    },
    {
      "icao": "LIMF",
      "alert": "OK",
      "vis_m": 9999,
      "fzfg": false,
      "metar_trigger": false,
      "taf_trigger": false,
      "metar": "METAR LIMF 151520Z VRB02KT 9999 SCT040 22/10 Q1018",
      "taf": "TAF LIMF 151100Z 1512/1612 VRB05KT 8000 SCT040"
    },
    {
      "icao": "LIMJ",
      "alert": "OK",
      "vis_m": 9999,
      "fzfg": false,
      "metar_trigger": false,
      "taf_trigger": false,
      "metar": "METAR LIMJ 151520Z 33010KT 9999 FEW045 25/10 Q1016",
      "taf": "TAF LIMJ 151100Z 1512/1612 02014KT 9999 SCT060"
    },
    {
      "icao": "LIPE",
      "alert": "OK",
      "vis_m": 9999,
      "fzfg": false,
      "metar_trigger": false,
      "taf_trigger": false,
      "metar": "METAR LIPE 151520Z 26006KT 9999 FEW015 BKN035 17/14 Q1018",
      "taf": "TAF LIPE 151100Z 1512/1612 VRB05KT 7000 BKN015"
    },
    {
      "icao": "LIPH",
      "alert": "OK",
      "vis_m": 9999,
      "fzfg": false,
      "metar_trigger": false,
      "taf_trigger": false,
      "metar": "METAR LIPH 151520Z 07004KT 040V110 CAVOK 21/13 Q1018",
      "taf": "TAF LIPH 151100Z 1512/1612 VRB05KT 9999 SCT050"
    },
    {
      "icao": "LIPQ",
      "alert": "OK",
      "vis_m": 9999,
      "fzfg": false,
      "metar_trigger": false,
      "taf_trigger": false,
      "metar": "METAR LIPQ 151520Z AUTO 11009KT 9999 BKN095/// BKN110/// 21/11 Q1018",
      "taf": "TAF LIPQ 151100Z 1512/1612 10012KT 9999 SCT070"
    },
    {
      "icao": "LIPR",
      "alert": "OK",
      "vis_m": 9999,
      "fzfg": false,
      "metar_trigger": false,
      "taf_trigger": false,
      "metar": "METAR LIPR 151520Z 32007KT 9999 FEW010 BKN040 15/14 Q1018",
      "taf": "TAF LIPR 151100Z 1512/1612 05010KT 6000 BKN030"
    },
    {
      "icao": "LIPX",
      "alert": "OK",
      "vis_m": 9999,
      "fzfg": false,
      "metar_trigger": false,
      "taf_trigger": false,
      "metar": "METAR LIPX 151520Z 10009KT 070V150 9999 VCSH SCT030 21/10 Q1018",
      "taf": "TAF LIPX 151100Z 1512/1612 VRB05KT 7000 BKN050"
    },
    {
      "icao": "LIPY",
      "alert": "OK",
      "vis_m": 2800,
      "fzfg": false,
      "metar_trigger": false,
      "taf_trigger": false,
      "metar": "METAR LIPY 151520Z AUTO 33006KT 2800 BR OVC002/// 15/15 Q1017",
      "taf": "TAF LIPY 151100Z 1512/1612 06010KT 9999 BKN020"
    },
    {
      "icao": "LIPZ",
      "alert": "OK",
      "vis_m": 9999,
      "fzfg": false,
      "metar_trigger": false,
      "taf_trigger": false,
      "metar": "METAR LIPZ 151520Z 09006KT 9999 FEW020 20/12 Q1018 NOSIG",
      "taf": "TAF LIPZ 151100Z 1512/1618 12007KT 9999 SCT040"
    },
    {
      "icao": "LIRF",
      "alert": "OK",
      "vis_m": 9999,
      "fzfg": false,
      "metar_trigger": false,
      "taf_trigger": false,
      "metar": "METAR LIRF 151520Z 33004KT 280V020 9999 -TSRA FEW025CB SCT055 16/15 Q1014 TEMPO TSRA",
      "taf": "TAF LIRF 151100Z 1512/1618 27012KT 9999 SCT030"
    },
    {
      "icao": "LIRN",
      "alert": "OK",
      "vis_m": 9999,
      "fzfg": false,
      "metar_trigger": false,
      "taf_trigger": false,
      "metar": "METAR LIRN 151520Z 06008KT 030V090 9999 BKN080 21/11 Q1012 RETS NOSIG",
      "taf": "TAF LIRN 151100Z 1512/1612 04010KT 9999 SCT040"
    },
    {
      "icao": "LIRP",
      "alert": "OK",
      "vis_m": 9999,
      "fzfg": false,
      "metar_trigger": false,
      "taf_trigger": false,
      "metar": "METAR LIRP 151515Z 08011KT 9999 FEW040 23/11 Q1015 NOSIG",
      "taf": "TAF LIRP 151100Z 1512/1612 07012KT 9999 FEW030 SCT060"
    },
    {
      "icao": "LIRZ",
      "alert": "OK",
      "vis_m": 9999,
      "fzfg": false,
      "metar_trigger": false,
      "taf_trigger": false,
      "metar": "METAR LIRZ 151520Z AUTO 02015KT 9999 FEW095/// 17/13 Q1015",
      "taf": "TAF LIRZ 151100Z 1512/1612 03014KT 9999 SCT040"
    },
    {
      "icao": "LJLJ",
      "alert": "OK",
      "vis_m": 9999,
      "fzfg": false,
      "metar_trigger": false,
      "taf_trigger": false,
      "metar": "METAR LJLJ 151530Z 00000KT 9999 FEW024 SCT040 BKN075 16/10 Q1020 NOSIG",
      "taf": "TAF LJLJ 151100Z 1512/1612 VRB02KT 9999 SCT013 BKN045"
    },
    {
      "icao": "LKMT",
      "alert": "OK",
      "vis_m": 9999,
      "fzfg": false,
      "metar_trigger": false,
      "taf_trigger": false,
      "metar": "METAR LKMT 151530Z 03004KT 350V080 9999 BKN024 13/08 Q1022 NOSIG",
      "taf": "TAF LKMT 151100Z 1512/1612 03006KT 9999 BKN020"
    },
    {
      "icao": "LKPR",
      "alert": "OK",
      "vis_m": 9999,
      "fzfg": false,
      "metar_trigger": false,
      "taf_trigger": false,
      "metar": "METAR LKPR 151530Z 03003KT 340V110 9999 FEW033 OVC042 14/07 Q1021 NOSIG",
      "taf": "TAF LKPR 151400Z 1515/1621 36004KT 9999 BKN040"
    },
    {
      "icao": "LLBG",
      "alert": "OK",
      "vis_m": 9999,
      "fzfg": false,
      "metar_trigger": false,
      "taf_trigger": false,
      "metar": "METAR LLBG 151520Z 09007KT CAVOK 33/07 Q1008 NOSIG",
      "taf": "TAF LLBG 151100Z 1512/1612 12007KT CAVOK TX35/1512Z TN25/1604Z"
    },
    {
      "icao": "LMML",
      "alert": "OK",
      "vis_m": 9999,
      "fzfg": false,
      "metar_trigger": false,
      "taf_trigger": false,
      "metar": "METAR LMML 151515Z 23010KT 190V260 9999 SCT014 18/13 Q1010 NOSIG",
      "taf": ""
    },
    {
      "icao": "LOWW",
      "alert": "OK",
      "vis_m": 9999,
      "fzfg": false,
      "metar_trigger": false,
      "taf_trigger": false,
      "metar": "METAR LOWW 151520Z 36006KT 9999 FEW036 BKN040 17/09 Q1020 NOSIG",
      "taf": "TAF LOWW 151415Z 1515/1621 34007KT 9999 BKN040 TX19/1614Z TN09/1604Z"
    },
    {
      "icao": "LPFR",
      "alert": "OK",
      "vis_m": 9999,
      "fzfg": false,
      "metar_trigger": false,
      "taf_trigger": false,
      "metar": "METAR LPFR 151530Z 26011KT CAVOK 20/13 Q1021",
      "taf": "TAF LPFR 151100Z 1512/1612 19008KT CAVOK"
    },
    {
      "icao": "LPMA",
      "alert": "OK",
      "vis_m": 9999,
      "fzfg": false,
      "metar_trigger": false,
      "taf_trigger": false,
      "metar": "METAR LPMA 151530Z 03018KT 9999 SCT015 19/12 Q1023",
      "taf": "TAF LPMA 151100Z 1512/1612 02015KT 9999 SCT016"
    },
    {
      "icao": "LPPR",
      "alert": "OK",
      "vis_m": 9999,
      "fzfg": false,
      "metar_trigger": false,
      "taf_trigger": false,
      "metar": "METAR LPPR 151530Z 23008KT 9999 FEW015 16/12 Q1023",
      "taf": "TAF LPPR 151100Z 1512/1612 21008KT 9999 SCT020"
    },
    {
      "icao": "LPPS",
      "alert": "OK",
      "vis_m": 9999,
      "fzfg": false,
      "metar_trigger": false,
      "taf_trigger": false,
      "metar": "METAR LPPS 151530Z 03011KT 350V110 9999 FEW015 BKN030 16/12 Q1023",
      "taf": "TAF LPPS 151100Z 1512/1618 04012KT 9999 FEW015 BKN030"
    },
    {
      "icao": "LPPT",
      "alert": "OK",
      "vis_m": 9999,
      "fzfg": false,
      "metar_trigger": false,
      "taf_trigger": false,
      "metar": "METAR LPPT 151530Z 29005KT 240V010 9999 FEW030 20/11 Q1023",
      "taf": "TAF LPPT 151100Z 1512/1618 33008KT 9999 BKN025"
    },
    {
      "icao": "LQBK",
      "alert": "OK",
      "vis_m": 9999,
      "fzfg": false,
      "metar_trigger": false,
      "taf_trigger": false,
      "metar": "METAR LQBK 151530Z VRB02KT 9999 FEW027 BKN043 17/11 Q1020 NOSIG",
      "taf": "TAF LQBK 151100Z 1512/1612 32005KT 9999 SCT020 BKN045 TX19/1612Z TN11/1604Z"
    },
    {
      "icao": "LQSA",
      "alert": "OK",
      "vis_m": 9999,
      "fzfg": false,
      "metar_trigger": false,
      "taf_trigger": false,
      "metar": "METAR LQSA 151530Z VRB02KT 9999 FEW033 SCT065 16/11 Q1018 NOSIG",
      "taf": "TAF LQSA 151100Z 1512/1612 VRB02KT 9999 BKN050 TX21/1513Z TN10/1604Z"
    },
    {
      "icao": "LQTZ",
      "alert": "OK",
      "vis_m": 9999,
      "fzfg": false,
      "metar_trigger": false,
      "taf_trigger": false,
      "metar": "METAR LQTZ 151530Z 29007KT 260V320 9999 BKN038 18/12 Q1018",
      "taf": "TAF LQTZ 151100Z 1512/1612 33005KT 9999 SCT040 TX19/1513Z TN08/1604Z"
    },
    {
      "icao": "LRBC",
      "alert": "OK",
      "vis_m": 9999,
      "fzfg": false,
      "metar_trigger": false,
      "taf_trigger": false,
      "metar": "METAR LRBC 151530Z 15013KT CAVOK 17/04 Q1020",
      "taf": "TAF LRBC 151400Z 1515/1524 16010KT CAVOK"
    },
    {
      "icao": "LRBS",
      "alert": "OK",
      "vis_m": 9999,
      "fzfg": false,
      "metar_trigger": false,
      "taf_trigger": false,
      "metar": "METAR LRBS 151530Z 08006KT 030V110 CAVOK 19/08 Q1020 NOSIG",
      "taf": "TAF LRBS 151100Z 1512/1612 07006KT CAVOK"
    },
    {
      "icao": "LRBV",
      "alert": "OK",
      "vis_m": 9999,
      "fzfg": false,
      "metar_trigger": false,
      "taf_trigger": false,
      "metar": "METAR LRBV 151530Z VRB01KT 9999 FEW065 21/04 Q1018",
      "taf": "TAF LRBV 151400Z 1515/1524 VRB04KT CAVOK"
    },
    {
      "icao": "LRCL",
      "alert": "OK",
      "vis_m": 9999,
      "fzfg": false,
      "metar_trigger": false,
      "taf_trigger": false,
      "metar": "METAR LRCL 151530Z 03003KT 340V070 CAVOK 20/04 Q1018",
      "taf": "TAF LRCL 151400Z 1515/1524 VRB04KT CAVOK"
    },
    {
      "icao": "LRCV",
      "alert": "OK",
      "vis_m": 9999,
      "fzfg": false,
      "metar_trigger": false,
      "taf_trigger": false,
      "metar": "METAR LRCV 151530Z 15005KT 120V180 CAVOK 18/08 Q1020",
      "taf": "TAF LRCV 151400Z 1515/1524 07006KT CAVOK"
    },
    {
      "icao": "LRIA",
      "alert": "OK",
      "vis_m": 9999,
      "fzfg": false,
      "metar_trigger": false,
      "taf_trigger": false,
      "metar": "METAR LRIA 151530Z 12009KT CAVOK 18/02 Q1020",
      "taf": "TAF LRIA 151400Z 1515/1524 10005KT CAVOK"
    },
    {
      "icao": "LROP",
      "alert": "OK",
      "vis_m": 9999,
      "fzfg": false,
      "metar_trigger": false,
      "taf_trigger": false,
      "metar": "METAR LROP 151530Z 10006KT CAVOK 18/04 Q1020 NOSIG",
      "taf": "TAF LROP 151100Z 1512/1612 07006KT CAVOK"
    },
    {
      "icao": "LRSB",
      "alert": "OK",
      "vis_m": 9999,
      "fzfg": false,
      "metar_trigger": false,
      "taf_trigger": false,
      "metar": "METAR LRSB 151530Z 34008KT CAVOK 20/06 Q1017",
      "taf": "TAF LRSB 151100Z 1512/1612 VRB04KT CAVOK"
    },
    {
      "icao": "LRSM",
      "alert": "OK",
      "vis_m": 9999,
      "fzfg": false,
      "metar_trigger": false,
      "taf_trigger": false,
      "metar": "METAR LRSM 151530Z 33006KT 9999 FEW040CB 18/08 Q1019",
      "taf": "TAF LRSM 151400Z 1515/1524 VRB04KT CAVOK"
    },
    {
      "icao": "LRSV",
      "alert": "OK",
      "vis_m": 9999,
      "fzfg": false,
      "metar_trigger": false,
      "taf_trigger": false,
      "metar": "METAR LRSV 151530Z 09004KT 020V180 CAVOK 16/05 Q1019",
      "taf": "TAF LRSV 151400Z 1515/1524 08005KT CAVOK"
    },
    {
      "icao": "LRTM",
      "alert": "OK",
      "vis_m": 9999,
      "fzfg": false,
      "metar_trigger": false,
      "taf_trigger": false,
      "metar": "METAR LRTM 151530Z 30004KT 250V340 CAVOK 21/05 Q1018",
      "taf": "TAF LRTM 151400Z 1515/1524 VRB04KT CAVOK"
    },
    {
      "icao": "LRTR",
      "alert": "OK",
      "vis_m": 9999,
      "fzfg": false,
      "metar_trigger": false,
      "taf_trigger": false,
      "metar": "METAR LRTR 151530Z 36008KT CAVOK 20/08 Q1018 NOSIG",
      "taf": "TAF LRTR 151100Z 1512/1612 36006KT CAVOK"
    },
    {
      "icao": "LTAC",
      "alert": "OK",
      "vis_m": 9999,
      "fzfg": false,
      "metar_trigger": false,
      "taf_trigger": false,
      "metar": "METAR LTAC 151520Z 25008KT 9999 FEW040 SCT080 BKN180 18/06 Q1018 NOSIG RMK RWY21C 23009KT RWY03L 24007KT RWY21R 22008KT RWY03R 23010KT RWY21L 23009KT",
      "taf": "TAF LTAC 151040Z 1512/1612 VRB02KT 9999 FEW040 BKN180"
    },
    {
      "icao": "LTFM",
      "alert": "OK",
      "vis_m": 9999,
      "fzfg": false,
      "metar_trigger": false,
      "taf_trigger": false,
      "metar": "METAR LTFM 151520Z 05013KT 9999 SCT012 BKN180 11/07 Q1021 NOSIG RMK RWY17L 06011KT RWY34L 05011KT RWY16R 06012KT RWY36 05013KT RWY18 07012KT",
      "taf": "TAF LTFM 151040Z 1512/1618 06013KT 9999 SCT012 BKN180"
    },
    {
      "icao": "LUKK",
      "alert": "OK",
      "vis_m": 9999,
      "fzfg": false,
      "metar_trigger": false,
      "taf_trigger": false,
      "metar": "METAR LUKK 151530Z 18007KT 140V200 CAVOK 17/01 Q1020 NOSIG",
      "taf": "TAF LUKK 151101Z 1512/1612 18006KT CAVOK"
    },
    {
      "icao": "LWOH",
      "alert": "OK",
      "vis_m": 9999,
      "fzfg": false,
      "metar_trigger": false,
      "taf_trigger": false,
      "metar": "METAR LWOH 151520Z VRB02KT 9999 BKN040 14/10 Q1018",
      "taf": "TAF LWOH 151435Z 1515/1615 VRB03KT 9999 BKN035"
    },
    {
      "icao": "LWSK",
      "alert": "OK",
      "vis_m": 9999,
      "fzfg": false,
      "metar_trigger": false,
      "taf_trigger": false,
      "metar": "METAR LWSK 151520Z 09006KT 9999 FEW017 BKN036 OVC070 16/11 Q1019 NOSIG",
      "taf": "TAF LWSK 151435Z 1515/1615 15006KT 9999 SCT020 BKN080"
    },
    {
      "icao": "LYBE",
      "alert": "OK",
      "vis_m": 9999,
      "fzfg": false,
      "metar_trigger": false,
      "taf_trigger": false,
      "metar": "METAR LYBE 151530Z 03006KT 360V070 CAVOK 20/09 Q1018 NOSIG",
      "taf": "TAF LYBE 151100Z 1512/1612 07007KT CAVOK TX22/1612Z TN11/1604Z"
    },
    {
      "icao": "LYNI",
      "alert": "OK",
      "vis_m": 9999,
      "fzfg": false,
      "metar_trigger": false,
      "taf_trigger": false,
      "metar": "METAR LYNI 151530Z 07008KT 040V100 CAVOK 21/08 Q1017 NOSIG",
      "taf": "TAF LYNI 151100Z 1512/1612 07007KT CAVOK TX23/1612Z TN11/1604Z"
    },
    {
      "icao": "LYPG",
      "alert": "OK",
      "vis_m": 9999,
      "fzfg": false,
      "metar_trigger": false,
      "taf_trigger": false,
      "metar": "METAR LYPG 151530Z 20004KT 140V240 9999 FEW043 BKN090 22/11 Q1015 NOSIG",
      "taf": "TAF LYPG 151100Z 1512/1612 16005KT 9999 FEW040 BKN090 TX24/1512Z TN13/1604Z"
    },
    {
      "icao": "LZIB",
      "alert": "OK",
      "vis_m": 9999,
      "fzfg": false,
      "metar_trigger": false,
      "taf_trigger": false,
      "metar": "METAR LZIB 151530Z 30009KT 9999 BKN044 17/10 Q1020 NOSIG",
      "taf": "TAF LZIB 151115Z 1512/1612 33008KT CAVOK"
    },
    {
      "icao": "LZKZ",
      "alert": "OK",
      "vis_m": 9999,
      "fzfg": false,
      "metar_trigger": false,
      "taf_trigger": false,
      "metar": "METAR LZKZ 151530Z 02007KT CAVOK 18/06 Q1019 NOSIG",
      "taf": "TAF LZKZ 151115Z 1512/1612 01008KT CAVOK"
    },
    {
      "icao": "LZTT",
      "alert": "OK",
      "vis_m": 9999,
      "fzfg": false,
      "metar_trigger": false,
      "taf_trigger": false,
      "metar": "METAR LZTT 151530Z 04006KT 9999 FEW033 OVC046 12/07 Q1020 NOSIG",
      "taf": "TAF LZTT 151115Z 1512/1612 VRB02KT 9999 BKN040"
    },
    {
      "icao": "OEJN",
      "alert": "OK",
      "vis_m": null,
      "fzfg": false,
      "metar_trigger": false,
      "taf_trigger": false,
      "metar": "",
      "taf": "TAF OEJN 151100Z 1512/1618 20010KT 7000 NSC"
    },
    {
      "icao": "OEMA",
      "alert": "OK",
      "vis_m": 9999,
      "fzfg": false,
      "metar_trigger": false,
      "taf_trigger": false,
      "metar": "METAR OEMA 151500Z 06009KT 9999 BKN040 31/13 Q1012 NOSIG",
      "taf": "TAF OEMA 151100Z 1512/1618 12015KT 7000 SCT040"
    },
    {
      "icao": "OJAI",
      "alert": "OK",
      "vis_m": null,
      "fzfg": false,
      "metar_trigger": false,
      "taf_trigger": false,
      "metar": "",
      "taf": "TAF OJAI 151100Z 1512/1618 13010KT 4000 DU NSC"
    },
    {
      "icao": "OMAA",
      "alert": "OK",
      "vis_m": null,
      "fzfg": false,
      "metar_trigger": false,
      "taf_trigger": false,
      "metar": "",
      "taf": ""
    },
    {
      "icao": "OMDB",
      "alert": "OK",
      "vis_m": null,
      "fzfg": false,
      "metar_trigger": false,
      "taf_trigger": false,
      "metar": "",
      "taf": ""
    },
    {
      "icao": "UAAA",
      "alert": "OK",
      "vis_m": 9999,
      "fzfg": false,
      "metar_trigger": false,
      "taf_trigger": false,
      "metar": "METAR UAAA 151530Z 29002MPS 9999 SCT050CB OVC100 19/07 Q1014 NOSIG",
      "taf": "TAF UAAA 151105Z 1512/1612 20003G08MPS 9999 SCT050CB BKN100 TX18/1609Z TN08/1601Z"
    },
    {
      "icao": "UBBB",
      "alert": "OK",
      "vis_m": 9999,
      "fzfg": false,
      "metar_trigger": false,
      "taf_trigger": false,
      "metar": "METAR UBBB 151530Z 19008KT 9999 FEW045 12/08 Q1021 NOSIG",
      "taf": ""
    },
    {
      "icao": "UDSG",
      "alert": "OK",
      "vis_m": 9999,
      "fzfg": false,
      "metar_trigger": false,
      "taf_trigger": false,
      "metar": "METAR UDSG 151530Z 34007KT 9999 NSC 04/M12 Q1022 NOSIG",
      "taf": "TAF UDSG 151100Z 1512/1612 VRB06KT 9999 FEW050"
    },
    {
      "icao": "UDYZ",
      "alert": "OK",
      "vis_m": 9999,
      "fzfg": false,
      "metar_trigger": false,
      "taf_trigger": false,
      "metar": "METAR UDYZ 151530Z 11004KT 9999 NSC 11/M05 Q1020 NOSIG",
      "taf": "TAF UDYZ 151100Z 1512/1612 23006KT 9999 FEW040"
    },
    {
      "icao": "UGKO",
      "alert": "OK",
      "vis_m": 9999,
      "fzfg": false,
      "metar_trigger": false,
      "taf_trigger": false,
      "metar": "METAR UGKO 151530Z 28006KT CAVOK 14/02 Q1022 NOSIG",
      "taf": "TAF UGKO 151100Z 1512/1612 26007KT CAVOK TX19/1611Z TN01/1603Z"
    }
  ]
}