{
  "ts_utc": "2026-03-30T08:49:51Z",
  "threshold_m": 150,
  "source": "stations_override.txt (ICAO list) + aviationweather.gov (METAR/TAF raw)",
  "station_count": 159,
  "stations": [
    {
      "icao": "BIKF",
      "alert": "OK",
      "vis_m": 9999,
      "fzfg": false,
      "metar_trigger": false,
      "taf_trigger": false,
      "metar": "METAR BIKF 300830Z 24027KT 9999 FEW028 03/M01 Q1003",
      "taf": "TAF BIKF 300749Z 3009/3109 24020G30KT 9999 SCT015 BKN025 TX04/3015Z TN00/3106Z"
    },
    {
      "icao": "BKPR",
      "alert": "OK",
      "vis_m": 9999,
      "fzfg": false,
      "metar_trigger": false,
      "taf_trigger": false,
      "metar": "METAR BKPR 300830Z 01007KT 9999 BKN025 06/02 Q1013 NOSIG",
      "taf": "TAF BKPR 300530Z 3006/3106 34008KT 9999 BKN040"
    },
    {
      "icao": "EBCI",
      "alert": "OK",
      "vis_m": 9999,
      "fzfg": false,
      "metar_trigger": false,
      "taf_trigger": false,
      "metar": "METAR EBCI 300820Z 30010KT 270V330 9999 FEW018 BKN025 08/03 Q1019 NOSIG",
      "taf": "TAF EBCI 300515Z 3006/3112 29013KT 9999 FEW018TCU SCT035"
    },
    {
      "icao": "EDDB",
      "alert": "OK",
      "vis_m": 9999,
      "fzfg": false,
      "metar_trigger": false,
      "taf_trigger": false,
      "metar": "METAR EDDB 300820Z AUTO 23013KT 9999 -RA SCT011 BKN016 OVC025 05/04 Q1009 TEMPO BKN011",
      "taf": "TAF EDDB 300500Z 3006/3106 21013KT 9999 BKN020"
    },
    {
      "icao": "EDDH",
      "alert": "OK",
      "vis_m": 9999,
      "fzfg": false,
      "metar_trigger": false,
      "taf_trigger": false,
      "metar": "METAR EDDH 300820Z AUTO 26007KT 230V300 9999 VCSH SCT013 BKN024 BKN034 FEW///TCU 06/04 Q1009 TEMPO 26015G25KT 4500 SHRA BKN012",
      "taf": "TAF EDDH 300500Z 3006/3112 26007KT 9999 FEW008 BKN020"
    },
    {
      "icao": "EDDK",
      "alert": "OK",
      "vis_m": 9999,
      "fzfg": false,
      "metar_trigger": false,
      "taf_trigger": false,
      "metar": "METAR EDDK 300820Z AUTO 29012KT 250V310 9999 SHRA FEW024 SCT033 FEW///CB 06/03 Q1016 BECMG NSW",
      "taf": "TAF EDDK 300500Z 3006/3112 29012KT 9999 BKN025"
    },
    {
      "icao": "EDDN",
      "alert": "OK",
      "vis_m": 9999,
      "fzfg": false,
      "metar_trigger": false,
      "taf_trigger": false,
      "metar": "METAR EDDN 300820Z AUTO 24010KT 9999 BKN013 OVC020 03/01 Q1015 TEMPO 22015G25KT",
      "taf": "TAF EDDN 300500Z 3006/3106 31010KT 9999 FEW030 SCT035"
    },
    {
      "icao": "EDDS",
      "alert": "OK",
      "vis_m": 9999,
      "fzfg": false,
      "metar_trigger": false,
      "taf_trigger": false,
      "metar": "METAR EDDS 300820Z AUTO 32014KT 280V360 9999 SHRA SCT016 BKN033 OVC044 FEW///TCU 04/02 Q1017 BECMG NSW",
      "taf": "TAF EDDS 300500Z 3006/3106 22012KT 9999 SCT020"
    },
    {
      "icao": "EDFH",
      "alert": "OK",
      "vis_m": 9999,
      "fzfg": false,
      "metar_trigger": false,
      "taf_trigger": false,
      "metar": "METAR EDFH 300820Z 29011KT 9999 BKN016 OVC020 04/01 Q1016",
      "taf": "TAF EDFH 300500Z 3006/3106 30015KT 9999 SCT008"
    },
    {
      "icao": "EDJA",
      "alert": "OK",
      "vis_m": 9999,
      "fzfg": false,
      "metar_trigger": false,
      "taf_trigger": false,
      "metar": "METAR EDJA 300820Z 24023G33KT 9999 BKN012 OVC021 02/M01 Q1018",
      "taf": "TAF EDJA 300800Z 3009/3018 24015G25KT 9999 SCT013 BKN025"
    },
    {
      "icao": "EDLW",
      "alert": "OK",
      "vis_m": 9999,
      "fzfg": false,
      "metar_trigger": false,
      "taf_trigger": false,
      "metar": "METAR EDLW 300820Z 27007KT 230V320 9999 BKN015 BKN018 06/03 Q1015",
      "taf": "TAF EDLW 300500Z 3006/3106 26010KT 9999 BKN025"
    },
    {
      "icao": "EDNY",
      "alert": "OK",
      "vis_m": 9999,
      "fzfg": false,
      "metar_trigger": false,
      "taf_trigger": false,
      "metar": "METAR EDNY 300820Z 24017KT 9999 BKN020 OVC028 04/01 Q1020",
      "taf": "TAF EDNY 300800Z 3009/3018 25015G25KT 9999 BKN020"
    },
    {
      "icao": "EDSB",
      "alert": "OK",
      "vis_m": 9999,
      "fzfg": false,
      "metar_trigger": false,
      "taf_trigger": false,
      "metar": "METAR EDSB 300820Z 20008KT 9999 SCT035 04/03 Q1019",
      "taf": "TAF EDSB 300500Z 3006/3106 21012KT 9999 BKN020"
    },
    {
      "icao": "EETN",
      "alert": "OK",
      "vis_m": 9999,
      "fzfg": false,
      "metar_trigger": false,
      "taf_trigger": false,
      "metar": "METAR EETN 300820Z 19008KT 9999 FEW008 03/00 Q1013 BECMG SCT012",
      "taf": "TAF EETN 300530Z 3006/3106 19006KT 4000 BR OVC003"
    },
    {
      "icao": "EFTU",
      "alert": "OK",
      "vis_m": 9999,
      "fzfg": false,
      "metar_trigger": false,
      "taf_trigger": false,
      "metar": "METAR EFTU 300820Z AUTO 19010KT 9999 OVC003 02/00 Q1011",
      "taf": "TAF EFTU 300832Z 3009/3109 17009KT 9999 BKN005"
    },
    {
      "icao": "EGBB",
      "alert": "OK",
      "vis_m": 9999,
      "fzfg": false,
      "metar_trigger": false,
      "taf_trigger": false,
      "metar": "METAR EGBB 300820Z 30012KT 280V350 9999 BKN036 09/02 Q1023",
      "taf": "TAF EGBB 300505Z 3006/3106 29010KT 9999 SCT040"
    },
    {
      "icao": "EGGP",
      "alert": "OK",
      "vis_m": 9999,
      "fzfg": false,
      "metar_trigger": false,
      "taf_trigger": false,
      "metar": "METAR EGGP 300820Z 30016G27KT 270V330 9999 VCSH FEW023 BKN035 BKN047 09/04 Q1023",
      "taf": "TAF EGGP 300503Z 3006/3106 27018G30KT 9999 SCT030"
    },
    {
      "icao": "EGGW",
      "alert": "OK",
      "vis_m": 9999,
      "fzfg": false,
      "metar_trigger": false,
      "taf_trigger": false,
      "metar": "METAR EGGW 300820Z AUTO 28014KT 9999 BKN040 BKN046 07/03 Q1022",
      "taf": "TAF EGGW 300458Z 3006/3106 28010KT 9999 SCT035"
    },
    {
      "icao": "EGKK",
      "alert": "OK",
      "vis_m": 9999,
      "fzfg": false,
      "metar_trigger": false,
      "taf_trigger": false,
      "metar": "METAR EGKK 300820Z 27013KT CAVOK 09/04 Q1023",
      "taf": "TAF EGKK 300454Z 3006/3112 24006KT 9999 FEW030"
    },
    {
      "icao": "EGNM",
      "alert": "OK",
      "vis_m": 9999,
      "fzfg": false,
      "metar_trigger": false,
      "taf_trigger": false,
      "metar": "METAR EGNM 300820Z 29014KT 9999 VCSH FEW015 SCT030 05/03 Q1020",
      "taf": "TAF EGNM 300502Z 3006/3106 28015G27KT 9999 SCT025"
    },
    {
      "icao": "EGPD",
      "alert": "OK",
      "vis_m": 9999,
      "fzfg": false,
      "metar_trigger": false,
      "taf_trigger": false,
      "metar": "METAR EGPD 300820Z COR AUTO 30015KT 9999 FEW034 07/M00 Q1013 NOSIG",
      "taf": "TAF EGPD 300456Z 3006/3106 27013KT 9999 FEW018 SCT040"
    },
    {
      "icao": "EGPF",
      "alert": "OK",
      "vis_m": 9999,
      "fzfg": false,
      "metar_trigger": false,
      "taf_trigger": false,
      "metar": "METAR EGPF 300820Z AUTO 30014KT 280V340 9999 -RA FEW021 SCT026 BKN030 06/03 Q1019",
      "taf": "TAF EGPF 300503Z 3006/3106 28012KT 9999 SCT035"
    },
    {
      "icao": "EHBK",
      "alert": "OK",
      "vis_m": 9999,
      "fzfg": false,
      "metar_trigger": false,
      "taf_trigger": false,
      "metar": "METAR EHBK 300825Z AUTO 30010KT 240V340 9999 SCT028/// BKN031/// BKN036/// 08/02 Q1017 NOSIG",
      "taf": "TAF EHBK 300504Z 3006/3112 30013KT 9999 SCT030"
    },
    {
      "icao": "EHEH",
      "alert": "OK",
      "vis_m": 9999,
      "fzfg": false,
      "metar_trigger": false,
      "taf_trigger": false,
      "metar": "METAR EHEH 300825Z AUTO 29010G22KT 260V350 9999 FEW029 SCT044 BKN049 08/03 Q1017 BLU TEMPO SCT016",
      "taf": ""
    },
    {
      "icao": "EKBI",
      "alert": "OK",
      "vis_m": 9999,
      "fzfg": false,
      "metar_trigger": false,
      "taf_trigger": false,
      "metar": "METAR EKBI 300820Z 29013KT 250V310 9999 SCT014 FEW020CB 06/04 Q1006",
      "taf": "TAF EKBI 300827Z 3009/3109 28014KT 9999 SCT020"
    },
    {
      "icao": "EKCH",
      "alert": "OK",
      "vis_m": 9999,
      "fzfg": false,
      "metar_trigger": false,
      "taf_trigger": false,
      "metar": "METAR EKCH 300820Z AUTO 26002KT 9999 -RA OVC013/// 04/03 Q1005 NOSIG",
      "taf": "TAF EKCH 300827Z 3009/3109 28010KT 9999 BKN020"
    },
    {
      "icao": "ENAL",
      "alert": "OK",
      "vis_m": 9999,
      "fzfg": false,
      "metar_trigger": false,
      "taf_trigger": false,
      "metar": "METAR ENAL 300820Z 20010KT 9999 SCT035 06/01 Q0996",
      "taf": "TAF ENAL 300800Z 3009/3018 20012KT 9999 -SHRA FEW015 BKN025"
    },
    {
      "icao": "ENBR",
      "alert": "OK",
      "vis_m": 9999,
      "fzfg": false,
      "metar_trigger": false,
      "taf_trigger": false,
      "metar": "METAR ENBR 300820Z 14005KT 9999 -SHRA FEW005 BKN018 02/01 Q1000 TEMPO 4000 SHRASNGS BKN008 SCT015CB RMK WIND 1200FT 16010KT",
      "taf": "TAF ENBR 300500Z 3006/3106 21008KT 9999 -SHRA SCT025"
    },
    {
      "icao": "ENGM",
      "alert": "OK",
      "vis_m": 9999,
      "fzfg": false,
      "metar_trigger": false,
      "taf_trigger": false,
      "metar": "METAR ENGM 300820Z VRB03KT 9999 -SNRA BKN003 01/M00 Q0998 TEMPO 4000 -SNRA BR SCT003 BKN006",
      "taf": "TAF ENGM 300500Z 3006/3106 04005KT 6000 -SNRA SCT005 BKN010"
    },
    {
      "icao": "ENHD",
      "alert": "OK",
      "vis_m": 9999,
      "fzfg": false,
      "metar_trigger": false,
      "taf_trigger": false,
      "metar": "METAR ENHD 300820Z 25013KT 9999 VCSH FEW019CB SCT029 BKN037 06/03 Q1001",
      "taf": "TAF ENHD 300800Z 3009/3018 28018KT 9999 -SHRA FEW015 SCT025"
    },
    {
      "icao": "ENTC",
      "alert": "OK",
      "vis_m": 9999,
      "fzfg": false,
      "metar_trigger": false,
      "taf_trigger": false,
      "metar": "METAR ENTC 300820Z 26006KT 200V300 CAVOK 02/M02 Q0998 NOSIG RMK WIND 2600FT 18024KT",
      "taf": "TAF ENTC 300500Z 3006/3106 VRB03KT CAVOK"
    },
    {
      "icao": "ENTO",
      "alert": "OK",
      "vis_m": 9999,
      "fzfg": false,
      "metar_trigger": false,
      "taf_trigger": false,
      "metar": "METAR ENTO 300820Z 29004KT 260V330 9999 FEW029 05/03 Q0999 NOSIG",
      "taf": "TAF ENTO 300500Z 3006/3106 33008KT 9999 SCT005 BKN012"
    },
    {
      "icao": "ENVA",
      "alert": "OK",
      "vis_m": 9999,
      "fzfg": false,
      "metar_trigger": false,
      "taf_trigger": false,
      "metar": "METAR ENVA 300820Z 12005KT CAVOK 07/M02 Q0996 NOSIG RMK WIND 670FT 14008KT",
      "taf": "TAF ENVA 300500Z 3006/3106 10008KT CAVOK"
    },
    {
      "icao": "ENZV",
      "alert": "OK",
      "vis_m": 9999,
      "fzfg": false,
      "metar_trigger": false,
      "taf_trigger": false,
      "metar": "METAR ENZV 300820Z 31010KT 9999 -SHRA FEW019CB SCT028 BKN032 06/03 Q1002 TEMPO 4000 SHRAGS BKN012CB",
      "taf": ""
    },
    {
      "icao": "EPGD",
      "alert": "OK",
      "vis_m": 9999,
      "fzfg": false,
      "metar_trigger": false,
      "taf_trigger": false,
      "metar": "METAR EPGD 300830Z 16010KT 140V200 CAVOK 07/M00 Q1011",
      "taf": "TAF EPGD 300530Z 3006/3106 VRB03KT CAVOK"
    },
    {
      "icao": "EPKK",
      "alert": "OK",
      "vis_m": 9999,
      "fzfg": false,
      "metar_trigger": false,
      "taf_trigger": false,
      "metar": "METAR EPKK 300830Z 23004KT 9999 -RA FEW010 BKN024 05/02 Q1015",
      "taf": "TAF EPKK 300830Z 3009/3109 25005KT 9999 SCT009 BKN045"
    },
    {
      "icao": "EPKT",
      "alert": "OK",
      "vis_m": 9999,
      "fzfg": false,
      "metar_trigger": false,
      "taf_trigger": false,
      "metar": "METAR EPKT 300830Z 18003KT 140V270 9999 SCT045 06/M01 Q1014",
      "taf": "TAF EPKT 300530Z 3006/3106 26007KT 9999 SCT030"
    },
    {
      "icao": "EPLB",
      "alert": "OK",
      "vis_m": 9999,
      "fzfg": false,
      "metar_trigger": false,
      "taf_trigger": false,
      "metar": "METAR EPLB 300830Z 30010KT CAVOK 08/02 Q1012",
      "taf": "TAF EPLB 300530Z 3006/3106 32008KT CAVOK"
    },
    {
      "icao": "EPMO",
      "alert": "OK",
      "vis_m": 9999,
      "fzfg": false,
      "metar_trigger": false,
      "taf_trigger": false,
      "metar": "METAR EPMO 300830Z 17003KT 130V220 CAVOK 07/01 Q1013",
      "taf": "TAF EPMO 300530Z 3006/3106 VRB02KT CAVOK"
    },
    {
      "icao": "EPPO",
      "alert": "OK",
      "vis_m": 9999,
      "fzfg": false,
      "metar_trigger": false,
      "taf_trigger": false,
      "metar": "METAR EPPO 300830Z 20010KT CAVOK 06/M01 Q1012",
      "taf": "TAF EPPO 300530Z 3006/3106 18010KT CAVOK"
    },
    {
      "icao": "EPRA",
      "alert": "OK",
      "vis_m": 9000,
      "fzfg": false,
      "metar_trigger": false,
      "taf_trigger": false,
      "metar": "METAR EPRA 300830Z 30005KT 270V330 9000 -RA BKN048 04/02 Q1013",
      "taf": "TAF EPRA 300830Z 3009/3018 29005KT 7000 -RA SCT025 BKN040"
    },
    {
      "icao": "EPRZ",
      "alert": "OK",
      "vis_m": 9999,
      "fzfg": false,
      "metar_trigger": false,
      "taf_trigger": false,
      "metar": "METAR EPRZ 300830Z 28011KT 9999 FEW020 07/02 Q1013",
      "taf": "TAF EPRZ 300530Z 3006/3106 28010KT 9999 BKN030"
    },
    {
      "icao": "EPSC",
      "alert": "OK",
      "vis_m": 9999,
      "fzfg": false,
      "metar_trigger": false,
      "taf_trigger": false,
      "metar": "METAR EPSC 300830Z 16011KT 140V200 9999 OVC011 04/02 Q1008",
      "taf": "TAF EPSC 300530Z 3006/3106 18010KT 9999 -RA BKN020"
    },
    {
      "icao": "EPSY",
      "alert": "OK",
      "vis_m": 9999,
      "fzfg": false,
      "metar_trigger": false,
      "taf_trigger": false,
      "metar": "METAR EPSY 300830Z 14005KT 100V180 9999 FEW035 08/M02 Q1013",
      "taf": "TAF EPSY 300830Z 3009/3018 19008KT CAVOK"
    },
    {
      "icao": "EPWA",
      "alert": "OK",
      "vis_m": 9999,
      "fzfg": false,
      "metar_trigger": false,
      "taf_trigger": false,
      "metar": "METAR EPWA 300830Z VRB01KT CAVOK 06/02 Q1014 NOSIG",
      "taf": "TAF EPWA 300830Z 3009/3109 VRB03KT CAVOK"
    },
    {
      "icao": "EPWR",
      "alert": "OK",
      "vis_m": 9999,
      "fzfg": false,
      "metar_trigger": false,
      "taf_trigger": false,
      "metar": "METAR EPWR 300830Z 20009KT CAVOK 06/M01 Q1013",
      "taf": "TAF EPWR 300830Z 3009/3109 19010KT 9999 FEW045"
    },
    {
      "icao": "ESGG",
      "alert": "OK",
      "vis_m": 6000,
      "fzfg": false,
      "metar_trigger": false,
      "taf_trigger": false,
      "metar": "METAR ESGG 300820Z 20006KT 6000 DZ OVC003 03/03 Q1001",
      "taf": "TAF ESGG 300830Z 3009/3109 24008KT 9999 OVC003"
    },
    {
      "icao": "ESKN",
      "alert": "OK",
      "vis_m": 9999,
      "fzfg": false,
      "metar_trigger": false,
      "taf_trigger": false,
      "metar": "METAR ESKN 300820Z 16011KT 9999 FEW008 BKN045 05/02 Q1005",
      "taf": "TAF ESKN 300830Z 3009/3109 17009KT 9999 FEW008 BKN045"
    },
    {
      "icao": "ESMS",
      "alert": "OK",
      "vis_m": 9999,
      "fzfg": false,
      "metar_trigger": false,
      "taf_trigger": false,
      "metar": "METAR ESMS 300820Z 22008KT 9999 -DZ OVC007 03/03 Q1004",
      "taf": "TAF ESMS 300827Z 3009/3109 22015KT 9999 BKN009"
    },
    {
      "icao": "ESSA",
      "alert": "OK",
      "vis_m": 9999,
      "fzfg": false,
      "metar_trigger": false,
      "taf_trigger": false,
      "metar": "METAR ESSA 300820Z 15011KT CAVOK 05/00 Q1006 NOSIG",
      "taf": "TAF ESSA 300830Z 3009/3109 16012KT CAVOK"
    },
    {
      "icao": "EYKA",
      "alert": "OK",
      "vis_m": 9999,
      "fzfg": false,
      "metar_trigger": false,
      "taf_trigger": false,
      "metar": "METAR EYKA 300820Z 35004KT 280V020 CAVOK 09/M00 Q1013",
      "taf": "TAF EYKA 300500Z 3006/3106 VRB05KT 9000 NSC"
    },
    {
      "icao": "EYPA",
      "alert": "OK",
      "vis_m": 9999,
      "fzfg": false,
      "metar_trigger": false,
      "taf_trigger": false,
      "metar": "METAR EYPA 300820Z 17007KT 150V220 9999 FEW011 05/01 Q1013",
      "taf": "TAF EYPA 300500Z 3006/3106 VRB05KT 3000 BR OVC002"
    },
    {
      "icao": "EYVI",
      "alert": "OK",
      "vis_m": 9999,
      "fzfg": false,
      "metar_trigger": false,
      "taf_trigger": false,
      "metar": "METAR EYVI 300820Z 32005KT 290V360 CAVOK 08/00 Q1011 NOSIG",
      "taf": "TAF EYVI 300500Z 3006/3106 VRB05KT 9000 NSC"
    },
    {
      "icao": "GCFV",
      "alert": "OK",
      "vis_m": 9999,
      "fzfg": false,
      "metar_trigger": false,
      "taf_trigger": false,
      "metar": "METAR GCFV 300830Z 01023KT CAVOK 18/11 Q1017",
      "taf": "TAF GCFV 300800Z 3009/3109 04020KT CAVOK TX21/3014Z TN17/3106Z"
    },
    {
      "icao": "GCLP",
      "alert": "OK",
      "vis_m": 9999,
      "fzfg": false,
      "metar_trigger": false,
      "taf_trigger": false,
      "metar": "METAR GCLP 300830Z 01020KT 9999 FEW030 18/12 Q1018 NOSIG",
      "taf": "TAF GCLP 300800Z 3009/3109 01024KT 9999 FEW025 TX21/3014Z TN16/3106Z"
    },
    {
      "icao": "GCTS",
      "alert": "OK",
      "vis_m": 9999,
      "fzfg": false,
      "metar_trigger": false,
      "taf_trigger": false,
      "metar": "METAR GCTS 300830Z 07013KT 030V100 9999 FEW035 18/10 Q1018 NOSIG",
      "taf": "TAF GCTS 300800Z 3009/3109 07025KT 9999 FEW030 TX24/3014Z TN17/3106Z"
    },
    {
      "icao": "GMAD",
      "alert": "OK",
      "vis_m": 6000,
      "fzfg": false,
      "metar_trigger": false,
      "taf_trigger": false,
      "metar": "METAR GMAD 300830Z 25004KT 210V280 6000 NSC 17/15 Q1013 NOSIG",
      "taf": "TAF GMAD 300500Z 3006/3112 35004KT 6000 SCT006"
    },
    {
      "icao": "GMMN",
      "alert": "OK",
      "vis_m": 9999,
      "fzfg": false,
      "metar_trigger": false,
      "taf_trigger": false,
      "metar": "METAR GMMN 300830Z 06013KT CAVOK 11/04 Q1021 NOSIG",
      "taf": "TAF GMMN 300500Z 3006/3112 04010KT CAVOK"
    },
    {
      "icao": "GMMX",
      "alert": "OK",
      "vis_m": 9999,
      "fzfg": false,
      "metar_trigger": false,
      "taf_trigger": false,
      "metar": "METAR GMMX 300830Z 05007KT 020V090 CAVOK 12/06 Q1018 NOSIG",
      "taf": "TAF GMMX 300500Z 3006/3112 04006KT 8000 NSC"
    },
    {
      "icao": "HEGN",
      "alert": "OK",
      "vis_m": 9999,
      "fzfg": false,
      "metar_trigger": false,
      "taf_trigger": false,
      "metar": "METAR HEGN 300800Z 35011KT 9999 SCT020 BKN025 22/10 Q1012 NOSIG",
      "taf": "TAF HEGN 300508Z 3006/3112 34015G25KT 9999 SCT025"
    },
    {
      "icao": "HEMA",
      "alert": "OK",
      "vis_m": 4000,
      "fzfg": false,
      "metar_trigger": false,
      "taf_trigger": false,
      "metar": "METAR HEMA 300800Z 33013KT 4000 SA NSC 24/12 Q1012",
      "taf": "TAF HEMA 300500Z 3006/3112 33015G25KT 9999 SCT025"
    },
    {
      "icao": "HESH",
      "alert": "OK",
      "vis_m": 9999,
      "fzfg": false,
      "metar_trigger": false,
      "taf_trigger": false,
      "metar": "METAR HESH 300800Z 36007KT CAVOK 23/15 Q1011 NOSIG",
      "taf": "TAF HESH 300508Z 3006/3112 29008KT 9999 SCT025"
    },
    {
      "icao": "HESX",
      "alert": "OK",
      "vis_m": 9999,
      "fzfg": false,
      "metar_trigger": false,
      "taf_trigger": false,
      "metar": "METAR HESX 300800Z 30004KT CAVOK 19/09 Q1014 NOSIG",
      "taf": "TAF HESX 300500Z 3006/3112 VRB03KT CAVOK"
    },
    {
      "icao": "LATI",
      "alert": "OK",
      "vis_m": null,
      "fzfg": false,
      "metar_trigger": false,
      "taf_trigger": false,
      "metar": "",
      "taf": "TAF LATI 300500Z 3006/3106 VRB03KT CAVOK TX18/3012Z TN07/3104Z"
    },
    {
      "icao": "LBPD",
      "alert": "OK",
      "vis_m": 9999,
      "fzfg": false,
      "metar_trigger": false,
      "taf_trigger": false,
      "metar": "METAR LBPD 300830Z AUTO 29022KT 9999 OVC083/// 13/05 Q1008 NOSIG",
      "taf": "TAF LBPD 300500Z 3006/3106 28018KT 9999 SCT030 BKN060"
    },
    {
      "icao": "LBSF",
      "alert": "OK",
      "vis_m": 9999,
      "fzfg": false,
      "metar_trigger": false,
      "taf_trigger": false,
      "metar": "METAR LBSF 300830Z 29013KT 9999 BKN014 OVC028 06/03 Q1011 NOSIG",
      "taf": "TAF LBSF 300500Z 3006/3106 28018KT 9999 BKN012 OVC020"
    },
    {
      "icao": "LBWN",
      "alert": "OK",
      "vis_m": 9999,
      "fzfg": false,
      "metar_trigger": false,
      "taf_trigger": false,
      "metar": "METAR LBWN 300830Z 35017KT 9999 FEW017 BKN046 12/11 Q1005 NOSIG",
      "taf": "TAF LBWN 300500Z 3006/3106 34014KT 5000 RA BKN015 OVC030"
    },
    {
      "icao": "LCLK",
      "alert": "OK",
      "vis_m": 9999,
      "fzfg": false,
      "metar_trigger": false,
      "taf_trigger": false,
      "metar": "METAR LCLK 300830Z 14007KT 080V210 9999 FEW025 21/08 Q1009 NOSIG",
      "taf": "TAF LCLK 300530Z 3006/3106 26010KT 9999 FEW030"
    },
    {
      "icao": "LCPH",
      "alert": "OK",
      "vis_m": 9999,
      "fzfg": false,
      "metar_trigger": false,
      "taf_trigger": false,
      "metar": "METAR LCPH 300830Z 31016KT 250V320 9999 FEW025TCU SCT036 18/10 Q1010 NOSIG",
      "taf": "TAF LCPH 300530Z 3006/3106 29018KT 9999 FEW025 SCT035"
    },
    {
      "icao": "LEAL",
      "alert": "OK",
      "vis_m": 9999,
      "fzfg": false,
      "metar_trigger": false,
      "taf_trigger": false,
      "metar": "METAR LEAL 300830Z 30006KT 260V330 CAVOK 14/M02 Q1027 NOSIG",
      "taf": "TAF LEAL 300500Z 3006/3106 33007KT 9999 FEW025 TX17/3012Z TN06/3006Z"
    },
    {
      "icao": "LEBB",
      "alert": "OK",
      "vis_m": 9999,
      "fzfg": false,
      "metar_trigger": false,
      "taf_trigger": false,
      "metar": "METAR LEBB 300830Z 28008KT 250V310 9999 BKN030 OVC050 11/06 Q1035 NOSIG",
      "taf": "TAF LEBB 300500Z 3006/3106 31009KT 9999 BKN020 TX12/3018Z TN09/3006Z"
    },
    {
      "icao": "LEBL",
      "alert": "OK",
      "vis_m": 9999,
      "fzfg": false,
      "metar_trigger": false,
      "taf_trigger": false,
      "metar": "METAR LEBL 300830Z 32011G21KT 290V350 CAVOK 11/M01 Q1024 NOSIG",
      "taf": "TAF LEBL 300500Z 3006/3106 34007KT CAVOK TX21/3012Z TN07/3006Z"
    },
    {
      "icao": "LECH",
      "alert": "OK",
      "vis_m": 9999,
      "fzfg": false,
      "metar_trigger": false,
      "taf_trigger": false,
      "metar": "METAR LECH 300830Z AUTO 34010KT 300V020 CAVOK 12/M03 Q1026",
      "taf": "TAF LECH 300500Z 3006/3106 34009KT 9999 FEW030 TX21/3013Z TN05/3006Z"
    },
    {
      "icao": "LEMD",
      "alert": "OK",
      "vis_m": 9999,
      "fzfg": false,
      "metar_trigger": false,
      "taf_trigger": false,
      "metar": "METAR LEMD 300830Z 32001KT CAVOK 06/M04 Q1029 NOSIG",
      "taf": "TAF LEMD 300500Z 3006/3112 VRB04KT CAVOK TX14/3016Z TN06/3106Z"
    },
    {
      "icao": "LEMG",
      "alert": "OK",
      "vis_m": 9999,
      "fzfg": false,
      "metar_trigger": false,
      "taf_trigger": false,
      "metar": "METAR LEMG 300830Z 28011KT CAVOK 13/04 Q1028 NOSIG",
      "taf": "TAF LEMG 300500Z 3006/3106 27010KT CAVOK TX19/3013Z TN09/3007Z"
    },
    {
      "icao": "LEVC",
      "alert": "OK",
      "vis_m": 9999,
      "fzfg": false,
      "metar_trigger": false,
      "taf_trigger": false,
      "metar": "METAR LEVC 300830Z 27004KT 230V360 CAVOK 13/M02 Q1027 NOSIG",
      "taf": "TAF LEVC 300500Z 3006/3106 30009KT 9999 FEW025 TX21/3013Z TN05/3006Z"
    },
    {
      "icao": "LEXJ",
      "alert": "OK",
      "vis_m": 9999,
      "fzfg": false,
      "metar_trigger": false,
      "taf_trigger": false,
      "metar": "METAR LEXJ 300830Z 27007KT 9999 OVC034 10/04 Q1036",
      "taf": "TAF LEXJ 300800Z 3009/3109 31009KT 9999 BKN025 TX13/3021Z TN10/3009Z"
    },
    {
      "icao": "LEZG",
      "alert": "OK",
      "vis_m": 9999,
      "fzfg": false,
      "metar_trigger": false,
      "taf_trigger": false,
      "metar": "METAR LEZG 300830Z 30024G37KT CAVOK 10/01 Q1029 NOSIG",
      "taf": "TAF LEZG 300500Z 3006/3106 33020KT 9999 FEW045 TX17/3014Z TN06/3006Z"
    },
    {
      "icao": "LEZL",
      "alert": "OK",
      "vis_m": 9999,
      "fzfg": false,
      "metar_trigger": false,
      "taf_trigger": false,
      "metar": "METAR LEZL 300830Z 05008KT 030V100 CAVOK 12/M01 Q1030 NOSIG",
      "taf": "TAF LEZL 300800Z 3009/3109 06010KT CAVOK TX22/3015Z TN10/3107Z"
    },
    {
      "icao": "LFBD",
      "alert": "OK",
      "vis_m": 9000,
      "fzfg": false,
      "metar_trigger": false,
      "taf_trigger": false,
      "metar": "METAR LFBD 300830Z AUTO 26010KT 9000 BKN007 BKN034 BKN040 10/09 Q1031 TEMPO 1000 RA OVC002",
      "taf": "TAF LFBD 300500Z 3006/3112 VRB03KT 9999 BKN030 TX15/3014Z TN05/3105Z"
    },
    {
      "icao": "LFLL",
      "alert": "OK",
      "vis_m": 9999,
      "fzfg": false,
      "metar_trigger": false,
      "taf_trigger": false,
      "metar": "METAR LFLL 300830Z 14004KT 110V180 9999 -RA BKN026 OVC038 07/02 Q1026 NOSIG",
      "taf": "TAF LFLL 300500Z 3006/3112 VRB04KT 9999 BKN040"
    },
    {
      "icao": "LFLS",
      "alert": "OK",
      "vis_m": 9999,
      "fzfg": false,
      "metar_trigger": false,
      "taf_trigger": false,
      "metar": "METAR LFLS 300830Z AUTO 08008KT 9999 FEW035 BKN043 OVC049 06/01 Q1026 TEMPO 4500 -RADZ BKN014",
      "taf": "TAF LFLS 300800Z 3009/3109 VRB05KT 9999 BKN030"
    },
    {
      "icao": "LFMN",
      "alert": "OK",
      "vis_m": 9999,
      "fzfg": false,
      "metar_trigger": false,
      "taf_trigger": false,
      "metar": "METAR LFMN 300830Z 29007KT 250V340 CAVOK 15/01 Q1016 NOSIG",
      "taf": "TAF LFMN 300800Z 3009/3115 32010KT CAVOK"
    },
    {
      "icao": "LFOB",
      "alert": "OK",
      "vis_m": 9999,
      "fzfg": false,
      "metar_trigger": false,
      "taf_trigger": false,
      "metar": "METAR LFOB 300830Z AUTO 30014KT 9999 SCT022 BKN028 BKN035 10/06 Q1023 BECMG 32015G25KT",
      "taf": "TAF LFOB 300500Z 3006/3106 27010KT 9999 SCT020"
    },
    {
      "icao": "LFPO",
      "alert": "OK",
      "vis_m": 9999,
      "fzfg": false,
      "metar_trigger": false,
      "taf_trigger": false,
      "metar": "METAR LFPO 300830Z 30010KT 260V330 9999 BKN018 11/05 Q1023 NOSIG",
      "taf": "TAF LFPO 300500Z 3006/3112 29010KT 9999 BKN025"
    },
    {
      "icao": "LFSB",
      "alert": "OK",
      "vis_m": 9999,
      "fzfg": false,
      "metar_trigger": false,
      "taf_trigger": false,
      "metar": "METAR LFSB 300830Z AUTO 25006KT 220V290 9999 SCT018 BKN026 BKN042 06/03 Q1022 TEMPO 28015G25KT SCT020TCU",
      "taf": "TAF LFSB 300505Z 3006/3106 25012KT 9999 FEW020 BKN035"
    },
    {
      "icao": "LGAV",
      "alert": "OK",
      "vis_m": 9999,
      "fzfg": false,
      "metar_trigger": false,
      "taf_trigger": false,
      "metar": "METAR LGAV 300820Z VRB02KT 9999 FEW025 17/04 Q1011 NOSIG",
      "taf": "TAF LGAV 300500Z 3006/3106 VRB05KT 9999 FEW020"
    },
    {
      "icao": "LGTS",
      "alert": "OK",
      "vis_m": 9999,
      "fzfg": false,
      "metar_trigger": false,
      "taf_trigger": false,
      "metar": "METAR LGTS 300820Z 32013KT 9999 FEW020 15/05 Q1010 NOSIG",
      "taf": "TAF LGTS 300500Z 3006/3106 34015KT 9999 FEW025"
    },
    {
      "icao": "LHBP",
      "alert": "OK",
      "vis_m": 9999,
      "fzfg": false,
      "metar_trigger": false,
      "taf_trigger": false,
      "metar": "METAR LHBP 300830Z 32012KT 9999 -RA BKN040 OVC047 06/05 Q1013 NOSIG",
      "taf": "TAF LHBP 300515Z 3006/3106 32012KT 9999 -RA OVC045"
    },
    {
      "icao": "LHDC",
      "alert": "OK",
      "vis_m": 9999,
      "fzfg": false,
      "metar_trigger": false,
      "taf_trigger": false,
      "metar": "METAR LHDC 300815Z AUTO 02009KT 340V060 CAVOK 10/05 Q1011 NOSIG",
      "taf": "TAF LHDC 300815Z 3009/3018 01009KT CAVOK"
    },
    {
      "icao": "LIBD",
      "alert": "OK",
      "vis_m": 9999,
      "fzfg": false,
      "metar_trigger": false,
      "taf_trigger": false,
      "metar": "METAR LIBD 300820Z 28008KT 250V320 9999 FEW030 13/06 Q1014",
      "taf": "TAF LIBD 300500Z 3006/3106 28012KT CAVOK"
    },
    {
      "icao": "LIBG",
      "alert": "OK",
      "vis_m": 9999,
      "fzfg": false,
      "metar_trigger": false,
      "taf_trigger": false,
      "metar": "METAR LIBG 300750Z 27005KT 240V310 9999 FEW015 12/07 Q1014",
      "taf": "TAF LIBG 300800Z 3009/3018 34010KT 9999 SCT030"
    },
    {
      "icao": "LIBP",
      "alert": "OK",
      "vis_m": 9999,
      "fzfg": false,
      "metar_trigger": false,
      "taf_trigger": false,
      "metar": "METAR LIBP 300820Z AUTO VRB03KT 9999 NCD 13/06 Q1015",
      "taf": "TAF LIBP 300500Z 3006/3106 27010KT CAVOK"
    },
    {
      "icao": "LIBR",
      "alert": "OK",
      "vis_m": 9999,
      "fzfg": false,
      "metar_trigger": false,
      "taf_trigger": false,
      "metar": "METAR LIBR 300820Z 32016KT CAVOK 13/09 Q1013",
      "taf": "TAF LIBR 300500Z 3006/3106 33016KT 9999 BKN030"
    },
    {
      "icao": "LICA",
      "alert": "OK",
      "vis_m": 9999,
      "fzfg": false,
      "metar_trigger": false,
      "taf_trigger": false,
      "metar": "METAR LICA 300820Z AUTO 23006KT 200V260 9999 NCD 14/09 Q1015",
      "taf": "TAF LICA 300500Z 3006/3106 VRB05KT 9999 SCT030"
    },
    {
      "icao": "LICC",
      "alert": "OK",
      "vis_m": 9999,
      "fzfg": false,
      "metar_trigger": false,
      "taf_trigger": false,
      "metar": "METAR LICC 300820Z 21003KT 180V240 9999 FEW030 SCT080 15/10 Q1015",
      "taf": "TAF LICC 300500Z 3006/3106 VRB05KT 9999 SCT040"
    },
    {
      "icao": "LICJ",
      "alert": "OK",
      "vis_m": 9999,
      "fzfg": false,
      "metar_trigger": false,
      "taf_trigger": false,
      "metar": "METAR LICJ 300820Z 35005KT CAVOK 15/10 Q1015",
      "taf": "TAF LICJ 300500Z 3006/3106 VRB05KT 9999 SCT040"
    },
    {
      "icao": "LIMC",
      "alert": "OK",
      "vis_m": 9999,
      "fzfg": false,
      "metar_trigger": false,
      "taf_trigger": false,
      "metar": "METAR LIMC 300820Z 24003KT 180V280 CAVOK 13/M01 Q1015 NOSIG",
      "taf": "TAF LIMC 300500Z 3006/3112 34006KT CAVOK"
    },
    {
      "icao": "LIME",
      "alert": "OK",
      "vis_m": 9999,
      "fzfg": false,
      "metar_trigger": false,
      "taf_trigger": false,
      "metar": "METAR LIME 300820Z 12005KT 100V180 CAVOK 12/M00 Q1015 NOSIG",
      "taf": "TAF LIME 300500Z 3006/3106 01006KT CAVOK"
    },
    {
      "icao": "LIMF",
      "alert": "OK",
      "vis_m": 9999,
      "fzfg": false,
      "metar_trigger": false,
      "taf_trigger": false,
      "metar": "METAR LIMF 300820Z 12004KT 050V170 CAVOK 11/M01 Q1015",
      "taf": "TAF LIMF 300500Z 3006/3106 VRB05KT CAVOK"
    },
    {
      "icao": "LIMJ",
      "alert": "OK",
      "vis_m": 9999,
      "fzfg": false,
      "metar_trigger": false,
      "taf_trigger": false,
      "metar": "METAR LIMJ 300820Z VRB01KT CAVOK 16/M00 Q1016",
      "taf": "TAF LIMJ 300500Z 3006/3106 02010KT CAVOK"
    },
    {
      "icao": "LIPE",
      "alert": "OK",
      "vis_m": 9999,
      "fzfg": false,
      "metar_trigger": false,
      "taf_trigger": false,
      "metar": "METAR LIPE 300820Z 25003KT 220V330 9999 FEW030 11/03 Q1016",
      "taf": "TAF LIPE 300500Z 3006/3106 VRB05KT CAVOK"
    },
    {
      "icao": "LIPH",
      "alert": "OK",
      "vis_m": 9999,
      "fzfg": false,
      "metar_trigger": false,
      "taf_trigger": false,
      "metar": "METAR LIPH 300820Z 06006KT CAVOK 11/02 Q1015",
      "taf": "TAF LIPH 300500Z 3006/3106 VRB05KT CAVOK"
    },
    {
      "icao": "LIPQ",
      "alert": "OK",
      "vis_m": 9999,
      "fzfg": false,
      "metar_trigger": false,
      "taf_trigger": false,
      "metar": "METAR LIPQ 300820Z AUTO 35003KT 9999 SCT110/// 10/03 Q1016",
      "taf": "TAF LIPQ 300500Z 3006/3106 VRB06KT CAVOK"
    },
    {
      "icao": "LIPR",
      "alert": "OK",
      "vis_m": 9999,
      "fzfg": false,
      "metar_trigger": false,
      "taf_trigger": false,
      "metar": "METAR LIPR 300820Z VRB02KT CAVOK 13/04 Q1016",
      "taf": "TAF LIPR 300500Z 3006/3106 VRB05KT 9999 BKN070"
    },
    {
      "icao": "LIPX",
      "alert": "OK",
      "vis_m": 9999,
      "fzfg": false,
      "metar_trigger": false,
      "taf_trigger": false,
      "metar": "METAR LIPX 300820Z VRB02KT CAVOK 10/03 Q1015",
      "taf": "TAF LIPX 300500Z 3006/3106 VRB05KT CAVOK"
    },
    {
      "icao": "LIPY",
      "alert": "OK",
      "vis_m": 9999,
      "fzfg": false,
      "metar_trigger": false,
      "taf_trigger": false,
      "metar": "METAR LIPY 300820Z AUTO VRB02KT 9999 SCT210/// 13/08 Q1016",
      "taf": "TAF LIPY 300500Z 3006/3106 VRB05KT CAVOK"
    },
    {
      "icao": "LIPZ",
      "alert": "OK",
      "vis_m": 9999,
      "fzfg": false,
      "metar_trigger": false,
      "taf_trigger": false,
      "metar": "METAR LIPZ 300820Z 05007KT CAVOK 10/04 Q1016 NOSIG",
      "taf": "TAF LIPZ 300500Z 3006/3112 VRB05KT CAVOK"
    },
    {
      "icao": "LIRF",
      "alert": "OK",
      "vis_m": 9999,
      "fzfg": false,
      "metar_trigger": false,
      "taf_trigger": false,
      "metar": "METAR LIRF 300820Z 07003KT 020V150 CAVOK 13/05 Q1016 NOSIG",
      "taf": "TAF LIRF 300500Z 3006/3112 04006KT 9999 FEW030"
    },
    {
      "icao": "LIRN",
      "alert": "OK",
      "vis_m": 9999,
      "fzfg": false,
      "metar_trigger": false,
      "taf_trigger": false,
      "metar": "METAR LIRN 300820Z 33003KT 280V040 CAVOK 14/04 Q1015 NOSIG",
      "taf": "TAF LIRN 300500Z 3006/3106 05008KT 9999 SCT050"
    },
    {
      "icao": "LIRP",
      "alert": "OK",
      "vis_m": 9999,
      "fzfg": false,
      "metar_trigger": false,
      "taf_trigger": false,
      "metar": "METAR LIRP 300815Z 12002KT CAVOK 10/04 Q1017 NOSIG",
      "taf": "TAF LIRP 300500Z 3006/3106 09004KT CAVOK"
    },
    {
      "icao": "LIRZ",
      "alert": "OK",
      "vis_m": 9999,
      "fzfg": false,
      "metar_trigger": false,
      "taf_trigger": false,
      "metar": "METAR LIRZ 300820Z AUTO VRB02KT 9999 NCD 10/03 Q1016",
      "taf": "TAF LIRZ 300500Z 3006/3106 VRB05KT 9999 SCT060"
    },
    {
      "icao": "LJLJ",
      "alert": "OK",
      "vis_m": 9999,
      "fzfg": false,
      "metar_trigger": false,
      "taf_trigger": false,
      "metar": "METAR LJLJ 300830Z VRB01KT 9999 FEW045 BKN095 BKN210 08/M02 Q1016 NOSIG",
      "taf": "TAF LJLJ 300500Z 3006/3106 VRB02KT 9999 FEW070"
    },
    {
      "icao": "LKMT",
      "alert": "OK",
      "vis_m": 9999,
      "fzfg": false,
      "metar_trigger": false,
      "taf_trigger": false,
      "metar": "METAR LKMT 300830Z 21008KT CAVOK 07/M00 Q1015 NOSIG",
      "taf": "TAF LKMT 300500Z 3006/3106 23010KT 9999 SCT045"
    },
    {
      "icao": "LKPR",
      "alert": "OK",
      "vis_m": 9999,
      "fzfg": false,
      "metar_trigger": false,
      "taf_trigger": false,
      "metar": "METAR LKPR 300830Z 23018KT 9999 BKN025 04/M00 Q1012 NOSIG",
      "taf": "TAF LKPR 300800Z 3009/3115 21016KT 9999 BKN022"
    },
    {
      "icao": "LLBG",
      "alert": "OK",
      "vis_m": 9999,
      "fzfg": false,
      "metar_trigger": false,
      "taf_trigger": false,
      "metar": "METAR LLBG 300820Z 24012KT 9999 FEW025 SCT045 18/12 Q1013 NOSIG",
      "taf": "TAF LLBG 300506Z 3006/3106 16005KT 9999 SCT035 TX19/3012Z TN11/3104Z"
    },
    {
      "icao": "LMML",
      "alert": "OK",
      "vis_m": 9999,
      "fzfg": false,
      "metar_trigger": false,
      "taf_trigger": false,
      "metar": "METAR LMML 300845Z 19004KT 150V230 9999 SCT027 16/08 Q1015 NOSIG",
      "taf": "TAF LMML 300500Z 3006/3106 27007KT 9999 SCT025"
    },
    {
      "icao": "LOWW",
      "alert": "OK",
      "vis_m": 9999,
      "fzfg": false,
      "metar_trigger": false,
      "taf_trigger": false,
      "metar": "METAR LOWW 300820Z 31013KT CAVOK 08/00 Q1016 NOSIG",
      "taf": "TAF LOWW 300815Z 3009/3115 32015KT CAVOK TX09/3012Z TN04/3105Z"
    },
    {
      "icao": "LPFR",
      "alert": "OK",
      "vis_m": 9999,
      "fzfg": false,
      "metar_trigger": false,
      "taf_trigger": false,
      "metar": "METAR LPFR 300830Z 05015KT CAVOK 14/M04 Q1029",
      "taf": "TAF LPFR 300500Z 3006/3106 04008KT CAVOK"
    },
    {
      "icao": "LPMA",
      "alert": "OK",
      "vis_m": 9999,
      "fzfg": false,
      "metar_trigger": false,
      "taf_trigger": false,
      "metar": "METAR LPMA 300830Z 01021G33KT 330V030 9999 FEW015 16/10 Q1025",
      "taf": "TAF LPMA 300500Z 3006/3106 01020G30KT 9999 SCT015"
    },
    {
      "icao": "LPPR",
      "alert": "OK",
      "vis_m": 9999,
      "fzfg": false,
      "metar_trigger": false,
      "taf_trigger": false,
      "metar": "METAR LPPR 300830Z 07003KT 020V140 CAVOK 12/01 Q1033",
      "taf": "TAF LPPR 300500Z 3006/3106 08005KT CAVOK"
    },
    {
      "icao": "LPPS",
      "alert": "OK",
      "vis_m": 9999,
      "fzfg": false,
      "metar_trigger": false,
      "taf_trigger": false,
      "metar": "METAR LPPS 300830Z 06021KT 9999 SCT014 16/12 Q1026",
      "taf": "TAF LPPS 300500Z 3006/3112 04020KT 9999 SCT015"
    },
    {
      "icao": "LPPT",
      "alert": "OK",
      "vis_m": 9999,
      "fzfg": false,
      "metar_trigger": false,
      "taf_trigger": false,
      "metar": "METAR LPPT 300830Z 06014KT CAVOK 12/M00 Q1031",
      "taf": "TAF LPPT 300500Z 3006/3112 05013KT CAVOK"
    },
    {
      "icao": "LQBK",
      "alert": "OK",
      "vis_m": 9999,
      "fzfg": false,
      "metar_trigger": false,
      "taf_trigger": false,
      "metar": "METAR LQBK 300830Z 29009KT 9999 RA SCT015 BKN025 OVC030 05/02 Q1017 NOSIG",
      "taf": "TAF LQBK 300500Z 3006/3106 28010KT 9999 -RA FEW015 OVC035 TX07/3013Z TN04/3105Z"
    },
    {
      "icao": "LQSA",
      "alert": "OK",
      "vis_m": 9999,
      "fzfg": false,
      "metar_trigger": false,
      "taf_trigger": false,
      "metar": "METAR LQSA 300830Z VRB01KT 9999 FEW015 BKN030 05/02 Q1015 NOSIG",
      "taf": "TAF LQSA 300500Z 3006/3106 32006KT 9999 SCT020 BKN040 TX05/3013Z TN00/3105Z"
    },
    {
      "icao": "LQTZ",
      "alert": "OK",
      "vis_m": 9999,
      "fzfg": false,
      "metar_trigger": false,
      "taf_trigger": false,
      "metar": "METAR LQTZ 300830Z 29005KT 9999 -DZ OVC012 03/03 Q1016",
      "taf": "TAF LQTZ 300500Z 3006/3106 29008KT 8000 -RA BR SCT015 OVC025 TX04/3013Z TN00/3105Z"
    },
    {
      "icao": "LRBC",
      "alert": "OK",
      "vis_m": 9999,
      "fzfg": false,
      "metar_trigger": false,
      "taf_trigger": false,
      "metar": "METAR LRBC 300830Z 35014KT 9999 SCT023 BKN040 OVC050 12/08 Q1007",
      "taf": "TAF LRBC 300800Z 3009/3018 34014KT 9999 BKN030"
    },
    {
      "icao": "LRBS",
      "alert": "OK",
      "vis_m": 9999,
      "fzfg": false,
      "metar_trigger": false,
      "taf_trigger": false,
      "metar": "METAR LRBS 300830Z 25005KT CAVOK 11/09 Q1007 NOSIG",
      "taf": "TAF LRBS 300500Z 3006/3106 31007KT 9999 SCT040"
    },
    {
      "icao": "LRBV",
      "alert": "OK",
      "vis_m": 9999,
      "fzfg": false,
      "metar_trigger": false,
      "taf_trigger": false,
      "metar": "METAR LRBV 300830Z 30009KT 9999 FEW008 BKN010 08/07 Q1009",
      "taf": "TAF LRBV 300800Z 3009/3018 29010KT 9999 BKN010 OVC030"
    },
    {
      "icao": "LRCL",
      "alert": "OK",
      "vis_m": 9999,
      "fzfg": false,
      "metar_trigger": false,
      "taf_trigger": false,
      "metar": "METAR LRCL 300830Z 26007KT 9999 FEW031 10/08 Q1009",
      "taf": "TAF LRCL 300800Z 3009/3018 29006KT 9999 OVC045"
    },
    {
      "icao": "LRCV",
      "alert": "OK",
      "vis_m": 9999,
      "fzfg": false,
      "metar_trigger": false,
      "taf_trigger": false,
      "metar": "METAR LRCV 300830Z 26010KT 9999 BKN047 09/07 Q1009",
      "taf": "TAF LRCV 300800Z 3009/3018 26012KT 9999 BKN045"
    },
    {
      "icao": "LRIA",
      "alert": "OK",
      "vis_m": 9999,
      "fzfg": false,
      "metar_trigger": false,
      "taf_trigger": false,
      "metar": "METAR LRIA 300830Z 30009KT 260V350 9999 SCT013 SCT035 11/08 Q1007",
      "taf": "TAF LRIA 300800Z 3009/3018 33010KT 9999 BKN045"
    },
    {
      "icao": "LROP",
      "alert": "OK",
      "vis_m": 9999,
      "fzfg": false,
      "metar_trigger": false,
      "taf_trigger": false,
      "metar": "METAR LROP 300830Z 27005KT 9999 -RA NSC 11/11 Q1008 NOSIG",
      "taf": "TAF LROP 300500Z 3006/3106 31007KT 9999 SCT040"
    },
    {
      "icao": "LRSB",
      "alert": "OK",
      "vis_m": 9999,
      "fzfg": false,
      "metar_trigger": false,
      "taf_trigger": false,
      "metar": "METAR LRSB 300830Z 34002KT 9999 OVC015 09/08 Q1009",
      "taf": "TAF LRSB 300500Z 3006/3106 VRB04KT 9999 SCT010 OVC025"
    },
    {
      "icao": "LRSM",
      "alert": "OK",
      "vis_m": 9999,
      "fzfg": false,
      "metar_trigger": false,
      "taf_trigger": false,
      "metar": "METAR LRSM 300830Z 35003KT 310V030 CAVOK 12/06 Q1010",
      "taf": "TAF LRSM 300800Z 3009/3018 35006KT CAVOK"
    },
    {
      "icao": "LRSV",
      "alert": "OK",
      "vis_m": 9999,
      "fzfg": false,
      "metar_trigger": false,
      "taf_trigger": false,
      "metar": "METAR LRSV 300830Z 31014KT 9999 FEW015 BKN040 09/07 Q1008",
      "taf": "TAF LRSV 300800Z 3009/3018 32015KT 9999 BKN035"
    },
    {
      "icao": "LRTM",
      "alert": "OK",
      "vis_m": 9999,
      "fzfg": false,
      "metar_trigger": false,
      "taf_trigger": false,
      "metar": "METAR LRTM 300830Z 24007KT 9999 SCT010 BKN046 11/09 Q1009",
      "taf": "TAF LRTM 300800Z 3009/3018 25007KT 9999 SCT010 BKN045"
    },
    {
      "icao": "LRTR",
      "alert": "OK",
      "vis_m": 6000,
      "fzfg": false,
      "metar_trigger": false,
      "taf_trigger": false,
      "metar": "METAR LRTR 300830Z 32005KT 6000 SCT006 OVC008 09/09 Q1011 NOSIG",
      "taf": "TAF LRTR 300500Z 3006/3106 33007KT 3000 BR BKN005 OVC010"
    },
    {
      "icao": "LTAC",
      "alert": "OK",
      "vis_m": 9999,
      "fzfg": false,
      "metar_trigger": false,
      "taf_trigger": false,
      "metar": "METAR LTAC 300820Z 24012KT 9999 SCT017 SCT025 BKN100 05/01 Q1004 NOSIG RMK RWY21C 23013KT RWY03L 24012KT RWY21R 22014KT RWY03R 24011KT RWY21L 23012KT",
      "taf": ""
    },
    {
      "icao": "LTFM",
      "alert": "OK",
      "vis_m": 6000,
      "fzfg": false,
      "metar_trigger": false,
      "taf_trigger": false,
      "metar": "METAR LTFM 300820Z 31015KT 6000 RA BKN006 BKN018 09/09 Q1006 NOSIG RMK RWY17L 31017KT RWY34L 31013KT RWY16R 31014KT RWY36 31016KT 270V340 RWY18 31017KT",
      "taf": "TAF LTFM 300440Z 3006/3112 29010KT 9999 -RA BKN007 BKN018"
    },
    {
      "icao": "LUKK",
      "alert": "OK",
      "vis_m": 9999,
      "fzfg": false,
      "metar_trigger": false,
      "taf_trigger": false,
      "metar": "METAR LUKK 300830Z 34016KT 9999 SCT047 11/06 Q1005 NOSIG",
      "taf": "TAF LUKK 300507Z 3006/3106 35012KT 9999 SCT040"
    },
    {
      "icao": "LWOH",
      "alert": "OK",
      "vis_m": null,
      "fzfg": false,
      "metar_trigger": false,
      "taf_trigger": false,
      "metar": "",
      "taf": "TAF LWOH 300825Z 3009/3109 16010KT 9999 FEW045"
    },
    {
      "icao": "LWSK",
      "alert": "OK",
      "vis_m": null,
      "fzfg": false,
      "metar_trigger": false,
      "taf_trigger": false,
      "metar": "",
      "taf": "TAF LWSK 300825Z 3009/3109 02006KT 9999 BKN045"
    },
    {
      "icao": "LYBE",
      "alert": "OK",
      "vis_m": 4000,
      "fzfg": false,
      "metar_trigger": false,
      "taf_trigger": false,
      "metar": "METAR LYBE 300830Z 28014KT 4000 -RA BR BKN004 06/05 Q1014 NOSIG",
      "taf": "TAF LYBE 300500Z 3006/3106 27014KT 7000 BKN008 BKN027 TX07/3012Z TN04/3106Z"
    },
    {
      "icao": "LYNI",
      "alert": "OK",
      "vis_m": 9999,
      "fzfg": false,
      "metar_trigger": false,
      "taf_trigger": false,
      "metar": "METAR LYNI 300830Z 32008KT 9999 FEW006 OVC017 07/05 Q1013 NOSIG",
      "taf": "TAF LYNI 300500Z 3006/3106 34010KT 9999 SCT017 BKN030 TX09/3013Z TN04/3106Z"
    },
    {
      "icao": "LYPG",
      "alert": "OK",
      "vis_m": 9999,
      "fzfg": false,
      "metar_trigger": false,
      "taf_trigger": false,
      "metar": "METAR LYPG 300830Z 12003KT 040V180 CAVOK 14/02 Q1012 NOSIG",
      "taf": "TAF LYPG 300500Z 3006/3106 16005KT 9999 FEW040 TX18/3013Z TN07/3102Z"
    },
    {
      "icao": "LZIB",
      "alert": "OK",
      "vis_m": 9999,
      "fzfg": false,
      "metar_trigger": false,
      "taf_trigger": false,
      "metar": "METAR LZIB 300830Z 30007KT CAVOK 06/00 Q1016 NOSIG",
      "taf": "TAF LZIB 300515Z 3006/3106 33008KT 9999 FEW035"
    },
    {
      "icao": "LZKZ",
      "alert": "OK",
      "vis_m": 9999,
      "fzfg": false,
      "metar_trigger": false,
      "taf_trigger": false,
      "metar": "METAR LZKZ 300830Z 01016KT CAVOK 08/02 Q1012 NOSIG",
      "taf": "TAF LZKZ 300515Z 3006/3106 02012KT CAVOK"
    },
    {
      "icao": "LZTT",
      "alert": "OK",
      "vis_m": 7000,
      "fzfg": false,
      "metar_trigger": false,
      "taf_trigger": false,
      "metar": "METAR LZTT 300830Z VRB02KT 7000 -RASN BKN008 02/01 Q1012 TEMPO BKN013",
      "taf": ""
    },
    {
      "icao": "OEJN",
      "alert": "OK",
      "vis_m": 9999,
      "fzfg": false,
      "metar_trigger": false,
      "taf_trigger": false,
      "metar": "METAR OEJN 300800Z 28006KT CAVOK 32/10 Q1010 NOSIG",
      "taf": "TAF OEJN 300500Z 3006/3112 32012KT CAVOK"
    },
    {
      "icao": "OEMA",
      "alert": "OK",
      "vis_m": 9999,
      "fzfg": false,
      "metar_trigger": false,
      "taf_trigger": false,
      "metar": "METAR OEMA 300800Z VRB03KT CAVOK 28/03 Q1013 NOSIG",
      "taf": "TAF OEMA 300500Z 3006/3112 VRB03KT 9999 SCT040"
    },
    {
      "icao": "OJAI",
      "alert": "OK",
      "vis_m": 5000,
      "fzfg": false,
      "metar_trigger": false,
      "taf_trigger": false,
      "metar": "METAR OJAI 300800Z 25012KT 5000 HZ SCT025 FEW080 12/08 Q1014 NOSIG",
      "taf": "TAF OJAI 300500Z 3006/3112 26010KT 4000 BR FEW025 BKN030"
    },
    {
      "icao": "OMAA",
      "alert": "OK",
      "vis_m": null,
      "fzfg": false,
      "metar_trigger": false,
      "taf_trigger": false,
      "metar": "",
      "taf": ""
    },
    {
      "icao": "OMDB",
      "alert": "OK",
      "vis_m": null,
      "fzfg": false,
      "metar_trigger": false,
      "taf_trigger": false,
      "metar": "",
      "taf": ""
    },
    {
      "icao": "UAAA",
      "alert": "OK",
      "vis_m": 9999,
      "fzfg": false,
      "metar_trigger": false,
      "taf_trigger": false,
      "metar": "METAR UAAA 300830Z 13002MPS 9999 BKN200 24/M02 Q1006 NOSIG",
      "taf": "TAF UAAA 300502Z 3006/3106 05002MPS 9999 FEW100 TX23/3010Z TN04/3101Z"
    },
    {
      "icao": "UBBB",
      "alert": "OK",
      "vis_m": 9999,
      "fzfg": false,
      "metar_trigger": false,
      "taf_trigger": false,
      "metar": "METAR UBBB 300830Z 18010KT 9999 BKN010 15/12 Q0999 NOSIG",
      "taf": "TAF UBBB 300503Z 3006/3106 16014KT 9999 SCT009 BKN020 TX18/3010Z TN08/3101Z"
    },
    {
      "icao": "UDSG",
      "alert": "OK",
      "vis_m": 9999,
      "fzfg": false,
      "metar_trigger": false,
      "taf_trigger": false,
      "metar": "METAR UDSG 300830Z 25009KT 9999 -SHRA SCT030CB OVC036 05/02 Q1003 NOSIG",
      "taf": "TAF UDSG 300500Z 3006/3106 24006KT 9999 BKN040"
    },
    {
      "icao": "UDYZ",
      "alert": "OK",
      "vis_m": 9999,
      "fzfg": false,
      "metar_trigger": false,
      "taf_trigger": false,
      "metar": "METAR UDYZ 300830Z 16005KT 140V230 9999 SCT043CB 12/04 Q1003 NOSIG",
      "taf": "TAF UDYZ 300500Z 3006/3106 20006KT 9999 SCT040"
    },
    {
      "icao": "UGKO",
      "alert": "OK",
      "vis_m": 7000,
      "fzfg": false,
      "metar_trigger": false,
      "taf_trigger": false,
      "metar": "METAR UGKO 300830Z 25009KT 7000 -RA SCT006 BKN022 11/10 Q1002 NOSIG",
      "taf": "TAF UGKO 300500Z 3006/3106 26007KT 9999 -RA SCT030 BKN050 TX12/3011Z TN07/3103Z"
    }
  ]
}