{
  "ts_utc": "2026-03-23T14:35:40Z",
  "threshold_m": 150,
  "source": "stations_override.txt (ICAO list) + aviationweather.gov (METAR/TAF raw)",
  "station_count": 159,
  "stations": [
    {
      "icao": "BIKF",
      "alert": "OK",
      "vis_m": 1200,
      "fzfg": false,
      "metar_trigger": false,
      "taf_trigger": false,
      "metar": "METAR BIKF 231430Z 04032G45KT 1200 R01/P1500D -SN BLSN BKN008 OVC014 01/M00 Q0976",
      "taf": ""
    },
    {
      "icao": "BKPR",
      "alert": "OK",
      "vis_m": 9999,
      "fzfg": false,
      "metar_trigger": false,
      "taf_trigger": false,
      "metar": "METAR BKPR 231430Z 36008KT 9999 BKN050 13/00 Q1011 NOSIG",
      "taf": "TAF BKPR 231130Z 2312/2412 02008KT 9999 SCT040 BKN080"
    },
    {
      "icao": "EBCI",
      "alert": "OK",
      "vis_m": 9999,
      "fzfg": false,
      "metar_trigger": false,
      "taf_trigger": false,
      "metar": "METAR EBCI 231420Z VRB02KT 9999 FEW046 14/02 Q1020 NOSIG",
      "taf": "TAF EBCI 231100Z 2312/2418 34004KT 9999 FEW025"
    },
    {
      "icao": "EDDB",
      "alert": "OK",
      "vis_m": 9999,
      "fzfg": false,
      "metar_trigger": false,
      "taf_trigger": false,
      "metar": "METAR EDDB 231420Z AUTO 27005KT 210V300 CAVOK 16/01 Q1017 NOSIG",
      "taf": "TAF EDDB 231100Z 2312/2412 33005KT CAVOK"
    },
    {
      "icao": "EDDH",
      "alert": "OK",
      "vis_m": 9999,
      "fzfg": false,
      "metar_trigger": false,
      "taf_trigger": false,
      "metar": "METAR EDDH 231420Z AUTO 31009KT 270V340 CAVOK 15/05 Q1018 NOSIG",
      "taf": "TAF EDDH 231100Z 2312/2418 28006KT CAVOK"
    },
    {
      "icao": "EDDK",
      "alert": "OK",
      "vis_m": 9999,
      "fzfg": false,
      "metar_trigger": false,
      "taf_trigger": false,
      "metar": "METAR EDDK 231420Z AUTO 30006KT 260V360 CAVOK 16/M00 Q1018 NOSIG",
      "taf": "TAF EDDK 231100Z 2312/2418 31006KT CAVOK"
    },
    {
      "icao": "EDDN",
      "alert": "OK",
      "vis_m": 9999,
      "fzfg": false,
      "metar_trigger": false,
      "taf_trigger": false,
      "metar": "METAR EDDN 231420Z AUTO 32004KT 300V360 CAVOK 13/M00 Q1018 NOSIG",
      "taf": "TAF EDDN 231100Z 2312/2412 33005KT CAVOK"
    },
    {
      "icao": "EDDS",
      "alert": "OK",
      "vis_m": 9999,
      "fzfg": false,
      "metar_trigger": false,
      "taf_trigger": false,
      "metar": "METAR EDDS 231420Z AUTO 30007KT 260V340 CAVOK 13/M03 Q1018 NOSIG",
      "taf": "TAF EDDS 231100Z 2312/2412 VRB03KT CAVOK"
    },
    {
      "icao": "EDFH",
      "alert": "OK",
      "vis_m": 9999,
      "fzfg": false,
      "metar_trigger": false,
      "taf_trigger": false,
      "metar": "METAR EDFH 231420Z VRB05G15KT CAVOK 13/M02 Q1018",
      "taf": "TAF EDFH 231100Z 2312/2412 01005KT CAVOK"
    },
    {
      "icao": "EDJA",
      "alert": "OK",
      "vis_m": 9999,
      "fzfg": false,
      "metar_trigger": false,
      "taf_trigger": false,
      "metar": "METAR EDJA 231420Z 34007KT 310V020 CAVOK 11/M04 Q1017",
      "taf": "TAF EDJA 231400Z 2315/2324 32005KT CAVOK"
    },
    {
      "icao": "EDLW",
      "alert": "OK",
      "vis_m": 9999,
      "fzfg": false,
      "metar_trigger": false,
      "taf_trigger": false,
      "metar": "METAR EDLW 231420Z VRB02KT CAVOK 16/01 Q1018",
      "taf": "TAF EDLW 231100Z 2312/2412 33004KT CAVOK"
    },
    {
      "icao": "EDNY",
      "alert": "OK",
      "vis_m": 9999,
      "fzfg": false,
      "metar_trigger": false,
      "taf_trigger": false,
      "metar": "METAR EDNY 231420Z 21006KT 9999 SCT055 12/00 Q1018",
      "taf": "TAF EDNY 231400Z 2315/2324 21005KT CAVOK"
    },
    {
      "icao": "EDSB",
      "alert": "OK",
      "vis_m": 9999,
      "fzfg": false,
      "metar_trigger": false,
      "taf_trigger": false,
      "metar": "METAR EDSB 231420Z 01007KT CAVOK 15/01 Q1018",
      "taf": "TAF EDSB 231100Z 2312/2412 VRB03KT CAVOK"
    },
    {
      "icao": "EETN",
      "alert": "OK",
      "vis_m": 9999,
      "fzfg": false,
      "metar_trigger": false,
      "taf_trigger": false,
      "metar": "METAR EETN 231420Z 23015KT CAVOK 10/M02 Q1010 NOSIG",
      "taf": "TAF EETN 231130Z 2312/2412 25014KT CAVOK"
    },
    {
      "icao": "EFTU",
      "alert": "OK",
      "vis_m": 9999,
      "fzfg": false,
      "metar_trigger": false,
      "taf_trigger": false,
      "metar": "METAR EFTU 231420Z AUTO 21008KT 9999 -SHRA OVC017 04/01 Q1008",
      "taf": "TAF EFTU 231129Z 2312/2412 23015KT 9999 FEW025 BKN030"
    },
    {
      "icao": "EGBB",
      "alert": "OK",
      "vis_m": 9999,
      "fzfg": false,
      "metar_trigger": false,
      "taf_trigger": false,
      "metar": "METAR EGBB 231420Z 23007KT 190V280 9999 BKN028 12/05 Q1020",
      "taf": "TAF EGBB 231110Z 2312/2412 22005KT 9999 SCT025"
    },
    {
      "icao": "EGGP",
      "alert": "OK",
      "vis_m": 9999,
      "fzfg": false,
      "metar_trigger": false,
      "taf_trigger": false,
      "metar": "METAR EGGP 231420Z 18003KT 140V250 CAVOK 11/04 Q1019",
      "taf": "TAF EGGP 231058Z 2312/2412 22008KT 9999 FEW030"
    },
    {
      "icao": "EGGW",
      "alert": "OK",
      "vis_m": 8000,
      "fzfg": false,
      "metar_trigger": false,
      "taf_trigger": false,
      "metar": "METAR EGGW 231420Z AUTO 23007KT 8000 BKN030 13/07 Q1020",
      "taf": ""
    },
    {
      "icao": "EGKK",
      "alert": "OK",
      "vis_m": 9999,
      "fzfg": false,
      "metar_trigger": false,
      "taf_trigger": false,
      "metar": "METAR EGKK 231420Z 23006KT 180V260 CAVOK 14/04 Q1020",
      "taf": "TAF EGKK 231057Z 2312/2418 23005KT 9999 FEW030"
    },
    {
      "icao": "EGNM",
      "alert": "OK",
      "vis_m": 9999,
      "fzfg": false,
      "metar_trigger": false,
      "taf_trigger": false,
      "metar": "METAR EGNM 231420Z 24010KT CAVOK 09/01 Q1018",
      "taf": "TAF EGNM 231059Z 2312/2412 21007KT 9999 FEW040"
    },
    {
      "icao": "EGPD",
      "alert": "OK",
      "vis_m": 9999,
      "fzfg": false,
      "metar_trigger": false,
      "taf_trigger": false,
      "metar": "METAR EGPD 231420Z COR AUTO 17013KT 9999 BKN037 08/02 Q1012 NOSIG",
      "taf": "TAF EGPD 231055Z 2312/2412 19012KT 9999 FEW040"
    },
    {
      "icao": "EGPF",
      "alert": "OK",
      "vis_m": 9999,
      "fzfg": false,
      "metar_trigger": false,
      "taf_trigger": false,
      "metar": "METAR EGPF 231420Z AUTO 19012KT 160V230 9999 BKN023 OVC028 09/05 Q1014",
      "taf": "TAF EGPF 231102Z 2312/2412 21010KT 9999 FEW015 SCT030"
    },
    {
      "icao": "EHBK",
      "alert": "OK",
      "vis_m": 9999,
      "fzfg": false,
      "metar_trigger": false,
      "taf_trigger": false,
      "metar": "METAR EHBK 231425Z AUTO 20003KT 150V280 9999 NSC 15/03 Q1019 NOSIG",
      "taf": "TAF EHBK 231112Z 2312/2418 33005KT CAVOK"
    },
    {
      "icao": "EHEH",
      "alert": "OK",
      "vis_m": 9999,
      "fzfg": false,
      "metar_trigger": false,
      "taf_trigger": false,
      "metar": "METAR EHEH 231425Z AUTO 26005KT 210V330 9999 FEW055 OVC180 15/03 Q1019 BLU NOSIG",
      "taf": "TAF EHEH 231137Z 2312/2418 36004KT CAVOK"
    },
    {
      "icao": "EKBI",
      "alert": "OK",
      "vis_m": 9999,
      "fzfg": false,
      "metar_trigger": false,
      "taf_trigger": false,
      "metar": "METAR EKBI 231420Z AUTO 32003KT 9999 NCD 11/M01 Q1018",
      "taf": "TAF EKBI 231427Z 2315/2415 30004KT 9999 SCT020"
    },
    {
      "icao": "EKCH",
      "alert": "OK",
      "vis_m": 9999,
      "fzfg": false,
      "metar_trigger": false,
      "taf_trigger": false,
      "metar": "METAR EKCH 231420Z AUTO 01007KT 9999 SCT030/// 08/03 Q1018 NOSIG",
      "taf": "TAF EKCH 231427Z 2315/2415 30005KT CAVOK"
    },
    {
      "icao": "ENAL",
      "alert": "OK",
      "vis_m": 9999,
      "fzfg": false,
      "metar_trigger": false,
      "taf_trigger": false,
      "metar": "METAR ENAL 231420Z 22018KT 9999 VCSH FEW040 BKN053 06/M02 Q1008",
      "taf": "TAF ENAL 231400Z 2315/2324 25020KT 9999 -SHRASN FEW015TCU BKN030"
    },
    {
      "icao": "ENBR",
      "alert": "OK",
      "vis_m": 9999,
      "fzfg": false,
      "metar_trigger": false,
      "taf_trigger": false,
      "metar": "METAR ENBR 231420Z 21009KT 9999 SCT035 05/M02 Q1014 NOSIG RMK WIND 1200FT 23011KT",
      "taf": "TAF ENBR 231100Z 2312/2412 25007KT 9999 FEW020TCU SCT030"
    },
    {
      "icao": "ENGM",
      "alert": "OK",
      "vis_m": 9999,
      "fzfg": false,
      "metar_trigger": false,
      "taf_trigger": false,
      "metar": "METAR ENGM 231420Z 25007KT 220V290 CAVOK 07/M10 Q1011 NOSIG",
      "taf": "TAF ENGM 231100Z 2312/2412 29012KT CAVOK"
    },
    {
      "icao": "ENHD",
      "alert": "OK",
      "vis_m": 9999,
      "fzfg": false,
      "metar_trigger": false,
      "taf_trigger": false,
      "metar": "METAR ENHD 231420Z 21009KT 9999 FEW027 SCT037 07/02 Q1015",
      "taf": "TAF ENHD 231400Z 2315/2323 21008KT 9999 SCT025"
    },
    {
      "icao": "ENTC",
      "alert": "OK",
      "vis_m": 9000,
      "fzfg": false,
      "metar_trigger": false,
      "taf_trigger": false,
      "metar": "METAR ENTC 231420Z 20010KT 9000 -DZRA FEW008 BKN014 03/01 Q0983 TEMPO 26018G28KT 4000 SHRASN BKN009 SCT020CB RMK WIND 2600FT 30038KT",
      "taf": ""
    },
    {
      "icao": "ENTO",
      "alert": "OK",
      "vis_m": 9999,
      "fzfg": false,
      "metar_trigger": false,
      "taf_trigger": false,
      "metar": "METAR ENTO 231420Z 24008KT 210V280 CAVOK 08/M05 Q1013 NOSIG",
      "taf": "TAF ENTO 231100Z 2312/2412 26010KT CAVOK"
    },
    {
      "icao": "ENVA",
      "alert": "OK",
      "vis_m": 9999,
      "fzfg": false,
      "metar_trigger": false,
      "taf_trigger": false,
      "metar": "METAR ENVA 231420Z 26008KT 9999 VCSH FEW006 SCT012CB 03/01 Q1008 TEMPO 26022G32KT 2500 -SHSNGS BKN012CB RMK WIND 670FT 26007KT",
      "taf": "TAF ENVA 231100Z 2312/2412 24015KT 9999 FEW020 SCT040"
    },
    {
      "icao": "ENZV",
      "alert": "OK",
      "vis_m": 9999,
      "fzfg": false,
      "metar_trigger": false,
      "taf_trigger": false,
      "metar": "METAR ENZV 231420Z 24010KT 9999 FEW020 07/01 Q1016 NOSIG",
      "taf": "TAF ENZV 231100Z 2312/2412 28010KT 9999 SCT030"
    },
    {
      "icao": "EPGD",
      "alert": "OK",
      "vis_m": 9999,
      "fzfg": false,
      "metar_trigger": false,
      "taf_trigger": false,
      "metar": "METAR EPGD 231430Z 01005KT 350V060 9999 SCT055TCU 12/02 Q1016",
      "taf": "TAF EPGD 231130Z 2312/2412 VRB02KT CAVOK"
    },
    {
      "icao": "EPKK",
      "alert": "OK",
      "vis_m": 9999,
      "fzfg": false,
      "metar_trigger": false,
      "taf_trigger": false,
      "metar": "METAR EPKK 231430Z 02004KT CAVOK 14/M04 Q1016",
      "taf": "TAF EPKK 231430Z 2315/2415 VRB04KT CAVOK"
    },
    {
      "icao": "EPKT",
      "alert": "OK",
      "vis_m": 9999,
      "fzfg": false,
      "metar_trigger": false,
      "taf_trigger": false,
      "metar": "METAR EPKT 231430Z 31005KT 280V350 CAVOK 13/M02 Q1016",
      "taf": "TAF EPKT 231130Z 2312/2412 VRB04KT CAVOK"
    },
    {
      "icao": "EPLB",
      "alert": "OK",
      "vis_m": 9999,
      "fzfg": false,
      "metar_trigger": false,
      "taf_trigger": false,
      "metar": "METAR EPLB 231430Z 12001KT CAVOK 14/M02 Q1017",
      "taf": "TAF EPLB 231130Z 2312/2412 VRB03KT CAVOK"
    },
    {
      "icao": "EPMO",
      "alert": "OK",
      "vis_m": 9999,
      "fzfg": false,
      "metar_trigger": false,
      "taf_trigger": false,
      "metar": "METAR EPMO 231430Z VRB03KT CAVOK 14/M03 Q1017",
      "taf": "TAF EPMO 231130Z 2312/2412 VRB04KT CAVOK"
    },
    {
      "icao": "EPPO",
      "alert": "OK",
      "vis_m": 9999,
      "fzfg": false,
      "metar_trigger": false,
      "taf_trigger": false,
      "metar": "METAR EPPO 231430Z 35004KT CAVOK 13/M01 Q1017",
      "taf": "TAF EPPO 231130Z 2312/2412 VRB02KT CAVOK"
    },
    {
      "icao": "EPRA",
      "alert": "OK",
      "vis_m": 9999,
      "fzfg": false,
      "metar_trigger": false,
      "taf_trigger": false,
      "metar": "METAR EPRA 231430Z 24003KT 190V330 CAVOK 14/M05 Q1017",
      "taf": "TAF EPRA 231430Z 2315/2324 VRB02KT CAVOK"
    },
    {
      "icao": "EPRZ",
      "alert": "OK",
      "vis_m": 9999,
      "fzfg": false,
      "metar_trigger": false,
      "taf_trigger": false,
      "metar": "METAR EPRZ 231430Z 04008KT CAVOK 13/M04 Q1016",
      "taf": "TAF EPRZ 231130Z 2312/2412 08010KT CAVOK"
    },
    {
      "icao": "EPSC",
      "alert": "OK",
      "vis_m": 9999,
      "fzfg": false,
      "metar_trigger": false,
      "taf_trigger": false,
      "metar": "METAR EPSC 231430Z 26005KT 230V300 CAVOK 15/M01 Q1017",
      "taf": "TAF EPSC 231130Z 2312/2412 VRB02KT CAVOK"
    },
    {
      "icao": "EPSY",
      "alert": "OK",
      "vis_m": 9999,
      "fzfg": false,
      "metar_trigger": false,
      "taf_trigger": false,
      "metar": "METAR EPSY 231430Z 23005KT 200V260 CAVOK 13/M03 Q1017",
      "taf": "TAF EPSY 231430Z 2315/2324 19005KT CAVOK"
    },
    {
      "icao": "EPWA",
      "alert": "OK",
      "vis_m": 9999,
      "fzfg": false,
      "metar_trigger": false,
      "taf_trigger": false,
      "metar": "METAR EPWA 231430Z 20003KT 110V260 CAVOK 15/M05 Q1017 NOSIG",
      "taf": "TAF EPWA 231430Z 2315/2415 VRB03KT CAVOK"
    },
    {
      "icao": "EPWR",
      "alert": "OK",
      "vis_m": 9999,
      "fzfg": false,
      "metar_trigger": false,
      "taf_trigger": false,
      "metar": "METAR EPWR 231430Z 28009KT CAVOK 14/M01 Q1017",
      "taf": "TAF EPWR 231430Z 2315/2415 30010KT CAVOK"
    },
    {
      "icao": "ESGG",
      "alert": "OK",
      "vis_m": 9999,
      "fzfg": false,
      "metar_trigger": false,
      "taf_trigger": false,
      "metar": "METAR ESGG 231420Z 29010KT CAVOK 06/M02 Q1015",
      "taf": "TAF ESGG 231430Z 2315/2415 26010KT CAVOK"
    },
    {
      "icao": "ESKN",
      "alert": "OK",
      "vis_m": 9999,
      "fzfg": false,
      "metar_trigger": false,
      "taf_trigger": false,
      "metar": "METAR ESKN 231420Z 26016KT CAVOK 09/M03 Q1011",
      "taf": "TAF ESKN 231430Z 2315/2415 26012KT CAVOK"
    },
    {
      "icao": "ESMS",
      "alert": "OK",
      "vis_m": 9999,
      "fzfg": false,
      "metar_trigger": false,
      "taf_trigger": false,
      "metar": "METAR ESMS 231420Z 31010KT CAVOK 10/03 Q1017",
      "taf": "TAF ESMS 231427Z 2315/2415 27005KT CAVOK"
    },
    {
      "icao": "ESSA",
      "alert": "OK",
      "vis_m": 9999,
      "fzfg": false,
      "metar_trigger": false,
      "taf_trigger": false,
      "metar": "METAR ESSA 231420Z 25016KT 9999 FEW038 08/M01 Q1009 NOSIG",
      "taf": "TAF ESSA 231430Z 2315/2415 24014KT 9999 SCT040"
    },
    {
      "icao": "EYKA",
      "alert": "OK",
      "vis_m": 9999,
      "fzfg": false,
      "metar_trigger": false,
      "taf_trigger": false,
      "metar": "METAR EYKA 231420Z 22003KT CAVOK 13/M01 Q1017",
      "taf": "TAF EYKA 231100Z 2312/2412 VRB04KT 8000 NSC"
    },
    {
      "icao": "EYPA",
      "alert": "OK",
      "vis_m": 9999,
      "fzfg": false,
      "metar_trigger": false,
      "taf_trigger": false,
      "metar": "METAR EYPA 231420Z 24004KT 200V290 CAVOK 08/01 Q1016",
      "taf": "TAF EYPA 231100Z 2312/2412 VRB04KT 8000 NSC"
    },
    {
      "icao": "EYVI",
      "alert": "OK",
      "vis_m": 9999,
      "fzfg": false,
      "metar_trigger": false,
      "taf_trigger": false,
      "metar": "METAR EYVI 231420Z 22006KT CAVOK 13/M02 Q1017 NOSIG",
      "taf": "TAF EYVI 231102Z 2312/2412 VRB03KT 9000 NSC"
    },
    {
      "icao": "GCFV",
      "alert": "OK",
      "vis_m": 9999,
      "fzfg": false,
      "metar_trigger": false,
      "taf_trigger": false,
      "metar": "METAR GCFV 231400Z 15014KT 120V180 9999 FEW011 SCT044 20/17 Q1008",
      "taf": "TAF GCFV 231400Z 2315/2415 16016KT 9999 SCT025 TX22/2414Z TN16/2406Z"
    },
    {
      "icao": "GCLP",
      "alert": "OK",
      "vis_m": 9999,
      "fzfg": false,
      "metar_trigger": false,
      "taf_trigger": false,
      "metar": "METAR GCLP 231400Z 19019KT 9999 SCT030 22/15 Q1006 NOSIG",
      "taf": "TAF GCLP 231400Z 2315/2415 19018KT 9999 SCT030 TX22/2414Z TN15/2406Z"
    },
    {
      "icao": "GCTS",
      "alert": "OK",
      "vis_m": 9999,
      "fzfg": false,
      "metar_trigger": false,
      "taf_trigger": false,
      "metar": "METAR GCTS 231400Z 16007KT 120V200 9999 FEW020 19/15 Q1007 NOSIG",
      "taf": "TAF GCTS 231400Z 2315/2415 23005KT 9999 SCT020 TX22/2414Z TN15/2406Z"
    },
    {
      "icao": "GMAD",
      "alert": "OK",
      "vis_m": 9999,
      "fzfg": false,
      "metar_trigger": false,
      "taf_trigger": false,
      "metar": "METAR GMAD 231430Z 26011KT 240V300 9999 FEW030TCU 24/16 Q1009 NOSIG",
      "taf": "TAF GMAD 231100Z 2312/2418 26008KT 9999 SCT020 SCT080"
    },
    {
      "icao": "GMMN",
      "alert": "OK",
      "vis_m": 9999,
      "fzfg": false,
      "metar_trigger": false,
      "taf_trigger": false,
      "metar": "METAR GMMN 231430Z 33005KT 280V030 9999 BKN020 22/16 Q1011 NOSIG",
      "taf": "TAF GMMN 231100Z 2312/2418 36010KT 9999 BKN020"
    },
    {
      "icao": "GMMX",
      "alert": "OK",
      "vis_m": 9999,
      "fzfg": false,
      "metar_trigger": false,
      "taf_trigger": false,
      "metar": "METAR GMMX 231430Z VRB02KT 9999 SCT020 FEW026TCU 24/11 Q1010 NOSIG",
      "taf": "TAF GMMX 231100Z 2312/2418 06005KT 8000 SCT016 SCT080"
    },
    {
      "icao": "HEGN",
      "alert": "OK",
      "vis_m": 9999,
      "fzfg": false,
      "metar_trigger": false,
      "taf_trigger": false,
      "metar": "METAR HEGN 231400Z 03006KT CAVOK 23/07 Q1006 NOSIG",
      "taf": ""
    },
    {
      "icao": "HEMA",
      "alert": "OK",
      "vis_m": 9999,
      "fzfg": false,
      "metar_trigger": false,
      "taf_trigger": false,
      "metar": "METAR HEMA 231400Z 09008KT 9999 FEW020 SCT200 23/16 Q1006 NOSIG",
      "taf": ""
    },
    {
      "icao": "HESH",
      "alert": "OK",
      "vis_m": 9999,
      "fzfg": false,
      "metar_trigger": false,
      "taf_trigger": false,
      "metar": "METAR HESH 231400Z 13008KT CAVOK 23/10 Q1006 NOSIG",
      "taf": ""
    },
    {
      "icao": "HESX",
      "alert": "OK",
      "vis_m": 9999,
      "fzfg": false,
      "metar_trigger": false,
      "taf_trigger": false,
      "metar": "METAR HESX 231400Z 33010KT 9999 FEW020 SCT100 20/03 Q1008 NOSIG",
      "taf": ""
    },
    {
      "icao": "LATI",
      "alert": "OK",
      "vis_m": 9999,
      "fzfg": false,
      "metar_trigger": false,
      "taf_trigger": false,
      "metar": "METAR LATI 231420Z 14006KT 100V170 9999 FEW050 BKN070 13/04 Q1013 NOSIG",
      "taf": "TAF LATI 231100Z 2312/2412 30010KT 9999 SCT060 TX21/2412Z TN07/2404Z"
    },
    {
      "icao": "LBPD",
      "alert": "OK",
      "vis_m": 9999,
      "fzfg": false,
      "metar_trigger": false,
      "taf_trigger": false,
      "metar": "METAR LBPD 231430Z AUTO 11007KT 9999 OVC054/// 10/04 Q1014 NOSIG",
      "taf": "TAF LBPD 231100Z 2312/2412 09010KT 9999 SCT030 BKN050"
    },
    {
      "icao": "LBSF",
      "alert": "OK",
      "vis_m": 9999,
      "fzfg": false,
      "metar_trigger": false,
      "taf_trigger": false,
      "metar": "METAR LBSF 231430Z 03010KT 360V080 9999 FEW029 BKN036 BKN087 08/02 Q1014 NOSIG",
      "taf": "TAF LBSF 231100Z 2312/2412 03010KT 9999 SCT025 BKN040"
    },
    {
      "icao": "LBWN",
      "alert": "OK",
      "vis_m": 9999,
      "fzfg": false,
      "metar_trigger": false,
      "taf_trigger": false,
      "metar": "METAR LBWN 231430Z 05010KT 030V100 9999 FEW024 OVC049 10/04 Q1014 NOSIG",
      "taf": "TAF LBWN 231100Z 2312/2412 02010KT 9999 -RA SCT010 BKN015 OVC040"
    },
    {
      "icao": "LCLK",
      "alert": "OK",
      "vis_m": 9999,
      "fzfg": false,
      "metar_trigger": false,
      "taf_trigger": false,
      "metar": "METAR LCLK 231430Z 30009KT 270V330 9999 SCT020 FEW030CB SCT060 16/12 Q1009 NOSIG",
      "taf": "TAF LCLK 231130Z 2312/2412 20013KT 9999 FEW025TCU SCT040"
    },
    {
      "icao": "LCPH",
      "alert": "OK",
      "vis_m": 9999,
      "fzfg": false,
      "metar_trigger": false,
      "taf_trigger": false,
      "metar": "METAR LCPH 231430Z 25006KT 9999 FEW025 FEW028TCU 17/11 Q1009 NOSIG",
      "taf": "TAF LCPH 231130Z 2312/2412 26010KT 9999 FEW025 FEW030TCU SCT040"
    },
    {
      "icao": "LEAL",
      "alert": "OK",
      "vis_m": 9999,
      "fzfg": false,
      "metar_trigger": false,
      "taf_trigger": false,
      "metar": "METAR LEAL 231400Z 08018KT 9999 FEW020 18/10 Q1015 NOSIG",
      "taf": "TAF LEAL 231100Z 2312/2412 10010KT 9999 FEW040 TX19/2312Z TN08/2406Z"
    },
    {
      "icao": "LEBB",
      "alert": "OK",
      "vis_m": 9000,
      "fzfg": false,
      "metar_trigger": false,
      "taf_trigger": false,
      "metar": "METAR LEBB 231400Z 35008KT 300V030 9000 FEW019 SCT032 BKN062 15/10 Q1021 NOSIG",
      "taf": "TAF LEBB 231100Z 2312/2412 32009KT 9999 FEW020 SCT030 TX19/2412Z TN04/2406Z"
    },
    {
      "icao": "LEBL",
      "alert": "OK",
      "vis_m": 9999,
      "fzfg": false,
      "metar_trigger": false,
      "taf_trigger": false,
      "metar": "METAR LEBL 231400Z 12008KT 9999 SCT037 15/10 Q1017 NOSIG",
      "taf": "TAF LEBL 231100Z 2312/2412 VRB04KT 9999 FEW020 TX17/2312Z TN09/2406Z"
    },
    {
      "icao": "LECH",
      "alert": "OK",
      "vis_m": 9000,
      "fzfg": false,
      "metar_trigger": false,
      "taf_trigger": false,
      "metar": "METAR LECH 231400Z AUTO 05004KT 020V090 9000 SCT035 BKN050 11/09 Q1018",
      "taf": "TAF LECH 231100Z 2312/2412 03010KT 9999 FEW020 TX16/2313Z TN04/2406Z"
    },
    {
      "icao": "LEMD",
      "alert": "OK",
      "vis_m": 9999,
      "fzfg": false,
      "metar_trigger": false,
      "taf_trigger": false,
      "metar": "METAR LEMD 231400Z 04007KT 330V110 CAVOK 16/M02 Q1015 NOSIG",
      "taf": "TAF LEMD 231100Z 2312/2418 04010KT CAVOK TX17/2316Z TN02/2406Z"
    },
    {
      "icao": "LEMG",
      "alert": "OK",
      "vis_m": 9999,
      "fzfg": false,
      "metar_trigger": false,
      "taf_trigger": false,
      "metar": "METAR LEMG 231400Z 15010KT 120V190 9999 FEW040 18/11 Q1013 NOSIG",
      "taf": "TAF LEMG 231100Z 2312/2412 13009KT 9999 FEW020 TX19/2313Z TN11/2406Z"
    },
    {
      "icao": "LEVC",
      "alert": "OK",
      "vis_m": 9999,
      "fzfg": false,
      "metar_trigger": false,
      "taf_trigger": false,
      "metar": "METAR LEVC 231400Z 04014KT 010V070 9999 SCT017 BKN025 14/10 Q1018 NOSIG",
      "taf": ""
    },
    {
      "icao": "LEXJ",
      "alert": "OK",
      "vis_m": 9999,
      "fzfg": false,
      "metar_trigger": false,
      "taf_trigger": false,
      "metar": "METAR LEXJ 231400Z 04003KT 340V110 9999 FEW031 13/07 Q1021",
      "taf": "TAF LEXJ 231400Z 2315/2415 05009KT 9999 SCT020 BKN040 TX19/2413Z TN03/2406Z"
    },
    {
      "icao": "LEZG",
      "alert": "OK",
      "vis_m": 9999,
      "fzfg": false,
      "metar_trigger": false,
      "taf_trigger": false,
      "metar": "METAR LEZG 231430Z VRB03KT CAVOK 17/03 Q1017 NOSIG",
      "taf": "TAF LEZG 231100Z 2312/2412 30010KT CAVOK TX18/2314Z TN05/2406Z"
    },
    {
      "icao": "LEZL",
      "alert": "OK",
      "vis_m": 9999,
      "fzfg": false,
      "metar_trigger": false,
      "taf_trigger": false,
      "metar": "METAR LEZL 231400Z 05006KT 010V100 CAVOK 24/09 Q1012 NOSIG",
      "taf": "TAF LEZL 231400Z 2315/2415 06007KT CAVOK TX25/2315Z TN12/2407Z"
    },
    {
      "icao": "LFBD",
      "alert": "OK",
      "vis_m": 9999,
      "fzfg": false,
      "metar_trigger": false,
      "taf_trigger": false,
      "metar": "METAR LFBD 231430Z AUTO 05006KT 330V090 CAVOK 17/03 Q1020 NOSIG",
      "taf": "TAF LFBD 231100Z 2312/2418 06010KT CAVOK TX19/2415Z TN04/2406Z"
    },
    {
      "icao": "LFLL",
      "alert": "OK",
      "vis_m": 9999,
      "fzfg": false,
      "metar_trigger": false,
      "taf_trigger": false,
      "metar": "METAR LFLL 231430Z 34008KT 290V010 9999 FEW036 14/04 Q1018 NOSIG",
      "taf": "TAF LFLL 231100Z 2312/2418 35010KT CAVOK"
    },
    {
      "icao": "LFLS",
      "alert": "OK",
      "vis_m": 9999,
      "fzfg": false,
      "metar_trigger": false,
      "taf_trigger": false,
      "metar": "METAR LFLS 231430Z AUTO 34006KT 310V030 9999 BKN036 12/06 Q1018 TEMPO 4000 -SHRA BKN030TCU",
      "taf": "TAF LFLS 230800Z 2309/2409 09006KT CAVOK"
    },
    {
      "icao": "LFMN",
      "alert": "OK",
      "vis_m": 9999,
      "fzfg": false,
      "metar_trigger": false,
      "taf_trigger": false,
      "metar": "METAR LFMN 231430Z 15006KT 9999 FEW100 16/04 Q1016 NOSIG",
      "taf": "TAF LFMN 231400Z 2315/2421 17005KT CAVOK"
    },
    {
      "icao": "LFOB",
      "alert": "OK",
      "vis_m": 9999,
      "fzfg": false,
      "metar_trigger": false,
      "taf_trigger": false,
      "metar": "METAR LFOB 231430Z AUTO VRB03KT CAVOK 16/02 Q1020 NOSIG",
      "taf": "TAF LFOB 231100Z 2312/2412 02006KT CAVOK"
    },
    {
      "icao": "LFPO",
      "alert": "OK",
      "vis_m": 9999,
      "fzfg": false,
      "metar_trigger": false,
      "taf_trigger": false,
      "metar": "METAR LFPO 231430Z 05006KT 020V080 CAVOK 16/03 Q1020 NOSIG",
      "taf": "TAF LFPO 231100Z 2312/2418 03006KT CAVOK"
    },
    {
      "icao": "LFSB",
      "alert": "OK",
      "vis_m": 9999,
      "fzfg": false,
      "metar_trigger": false,
      "taf_trigger": false,
      "metar": "METAR LFSB 231430Z AUTO 33006KT 300V010 CAVOK 15/02 Q1018 TEMPO FEW040TCU",
      "taf": "TAF LFSB 231100Z 2312/2412 32004KT CAVOK"
    },
    {
      "icao": "LGAV",
      "alert": "OK",
      "vis_m": 9999,
      "fzfg": false,
      "metar_trigger": false,
      "taf_trigger": false,
      "metar": "METAR LGAV 231420Z 36009KT 9999 FEW025 SCT040 BKN070 14/06 Q1012 NOSIG",
      "taf": "TAF LGAV 231100Z 2312/2412 04015KT 9999 SCT030"
    },
    {
      "icao": "LGTS",
      "alert": "OK",
      "vis_m": 9999,
      "fzfg": false,
      "metar_trigger": false,
      "taf_trigger": false,
      "metar": "METAR LGTS 231420Z 22007KT 9999 FEW020TCU SCT030 15/07 Q1012 NOSIG",
      "taf": "TAF LGTS 231100Z 2312/2412 VRB03KT 9999 SCT025"
    },
    {
      "icao": "LHBP",
      "alert": "OK",
      "vis_m": 9999,
      "fzfg": false,
      "metar_trigger": false,
      "taf_trigger": false,
      "metar": "METAR LHBP 231430Z 25004KT 180V290 9999 VCSH FEW060TCU SCT066 BKN100 16/M00 Q1016 NOSIG",
      "taf": "TAF LHBP 231115Z 2312/2412 VRB04KT CAVOK"
    },
    {
      "icao": "LHDC",
      "alert": "OK",
      "vis_m": 9999,
      "fzfg": false,
      "metar_trigger": false,
      "taf_trigger": false,
      "metar": "METAR LHDC 231415Z AUTO 02013KT 9999 SHRA NSC 12/06 Q1016 BECMG VRB03KT -SHRA",
      "taf": "TAF LHDC 231415Z 2315/2324 27006KT CAVOK"
    },
    {
      "icao": "LIBD",
      "alert": "OK",
      "vis_m": 9999,
      "fzfg": false,
      "metar_trigger": false,
      "taf_trigger": false,
      "metar": "METAR LIBD 231420Z 04006KT 360V080 9999 FEW020 15/04 Q1013",
      "taf": "TAF LIBD 231100Z 2312/2412 35010KT 9999 SCT040"
    },
    {
      "icao": "LIBG",
      "alert": "OK",
      "vis_m": 9999,
      "fzfg": false,
      "metar_trigger": false,
      "taf_trigger": false,
      "metar": "METAR LIBG 231350Z 17005KT 9999 FEW020 SCT040 12/08 Q1012",
      "taf": "TAF LIBG 231400Z 2315/2324 03008KT 9999 SCT030"
    },
    {
      "icao": "LIBP",
      "alert": "OK",
      "vis_m": 9999,
      "fzfg": false,
      "metar_trigger": false,
      "taf_trigger": false,
      "metar": "METAR LIBP 231420Z AUTO 03006KT 360V070 9999 OVC100/// 13/06 Q1014",
      "taf": "TAF LIBP 231100Z 2312/2412 01010KT 9999 SCT060"
    },
    {
      "icao": "LIBR",
      "alert": "OK",
      "vis_m": 9999,
      "fzfg": false,
      "metar_trigger": false,
      "taf_trigger": false,
      "metar": "METAR LIBR 231420Z 01005KT 340V040 CAVOK 14/07 Q1012",
      "taf": ""
    },
    {
      "icao": "LICA",
      "alert": "OK",
      "vis_m": 9999,
      "fzfg": false,
      "metar_trigger": false,
      "taf_trigger": false,
      "metar": "METAR LICA 231420Z AUTO 08011KT 9999 BKN029/// BKN100/// 14/08 Q1012",
      "taf": "TAF LICA 231100Z 2312/2412 VRB06KT CAVOK"
    },
    {
      "icao": "LICC",
      "alert": "OK",
      "vis_m": 7000,
      "fzfg": false,
      "metar_trigger": false,
      "taf_trigger": false,
      "metar": "METAR LICC 231420Z 05012KT 7000 -RA SCT020 BKN060 14/11 Q1012",
      "taf": ""
    },
    {
      "icao": "LICJ",
      "alert": "OK",
      "vis_m": 9999,
      "fzfg": false,
      "metar_trigger": false,
      "taf_trigger": false,
      "metar": "METAR LICJ 231420Z 33007KT CAVOK 15/07 Q1012",
      "taf": "TAF LICJ 231100Z 2312/2412 33013KT 9999 SCT030"
    },
    {
      "icao": "LIMC",
      "alert": "OK",
      "vis_m": 9999,
      "fzfg": false,
      "metar_trigger": false,
      "taf_trigger": false,
      "metar": "METAR LIMC 231420Z VRB06KT CAVOK 16/01 Q1015 NOSIG",
      "taf": "TAF LIMC 231100Z 2312/2418 VRB05KT CAVOK"
    },
    {
      "icao": "LIME",
      "alert": "OK",
      "vis_m": 9999,
      "fzfg": false,
      "metar_trigger": false,
      "taf_trigger": false,
      "metar": "METAR LIME 231420Z 19006KT 140V260 9999 FEW040 SCT100 16/02 Q1015 NOSIG",
      "taf": "TAF LIME 231100Z 2312/2412 VRB05KT CAVOK"
    },
    {
      "icao": "LIMF",
      "alert": "OK",
      "vis_m": 9999,
      "fzfg": false,
      "metar_trigger": false,
      "taf_trigger": false,
      "metar": "METAR LIMF 231420Z 14006KT 120V180 CAVOK 16/M01 Q1015",
      "taf": "TAF LIMF 231100Z 2312/2412 VRB05KT CAVOK"
    },
    {
      "icao": "LIMJ",
      "alert": "OK",
      "vis_m": 9999,
      "fzfg": false,
      "metar_trigger": false,
      "taf_trigger": false,
      "metar": "METAR LIMJ 231420Z 04006KT 9999 SCT070 17/00 Q1015",
      "taf": "TAF LIMJ 231100Z 2312/2412 04010KT CAVOK"
    },
    {
      "icao": "LIPE",
      "alert": "OK",
      "vis_m": 9999,
      "fzfg": false,
      "metar_trigger": false,
      "taf_trigger": false,
      "metar": "METAR LIPE 231420Z VRB04KT 9999 SCT060 15/M00 Q1015",
      "taf": "TAF LIPE 231100Z 2312/2412 VRB05KT 9999 FEW050"
    },
    {
      "icao": "LIPH",
      "alert": "OK",
      "vis_m": 9999,
      "fzfg": false,
      "metar_trigger": false,
      "taf_trigger": false,
      "metar": "METAR LIPH 231420Z 11006KT 080V140 CAVOK 17/01 Q1014",
      "taf": "TAF LIPH 231100Z 2312/2412 VRB05KT 9999 SCT060"
    },
    {
      "icao": "LIPQ",
      "alert": "OK",
      "vis_m": 9999,
      "fzfg": false,
      "metar_trigger": false,
      "taf_trigger": false,
      "metar": "METAR LIPQ 231420Z AUTO 30003KT 210V010 9999 FEW092/// BKN100/// 18/01 Q1014",
      "taf": "TAF LIPQ 231100Z 2312/2412 03005KT 9999 FEW060"
    },
    {
      "icao": "LIPR",
      "alert": "OK",
      "vis_m": 9999,
      "fzfg": false,
      "metar_trigger": false,
      "taf_trigger": false,
      "metar": "METAR LIPR 231420Z 01007KT 330V030 CAVOK 13/07 Q1015",
      "taf": "TAF LIPR 231100Z 2312/2412 31012KT 9999 SCT050"
    },
    {
      "icao": "LIPX",
      "alert": "OK",
      "vis_m": 9999,
      "fzfg": false,
      "metar_trigger": false,
      "taf_trigger": false,
      "metar": "METAR LIPX 231420Z 24004KT 140V290 9999 SCT060 17/01 Q1015",
      "taf": "TAF LIPX 231100Z 2312/2412 VRB05KT CAVOK"
    },
    {
      "icao": "LIPY",
      "alert": "OK",
      "vis_m": 9999,
      "fzfg": false,
      "metar_trigger": false,
      "taf_trigger": false,
      "metar": "METAR LIPY 231420Z AUTO 33011KT 9999 BKN084/// 13/10 Q1015",
      "taf": "TAF LIPY 231100Z 2312/2412 31010KT 9999 SCT060"
    },
    {
      "icao": "LIPZ",
      "alert": "OK",
      "vis_m": 9999,
      "fzfg": false,
      "metar_trigger": false,
      "taf_trigger": false,
      "metar": "METAR LIPZ 231420Z 19004KT 150V220 CAVOK 15/02 Q1015 NOSIG",
      "taf": "TAF LIPZ 231100Z 2312/2418 03006KT 9999 SCT060"
    },
    {
      "icao": "LIRF",
      "alert": "OK",
      "vis_m": 9999,
      "fzfg": false,
      "metar_trigger": false,
      "taf_trigger": false,
      "metar": "METAR LIRF 231420Z 28012KT 9999 FEW055 15/05 Q1012 NOSIG",
      "taf": "TAF LIRF 231100Z 2312/2418 04008KT CAVOK"
    },
    {
      "icao": "LIRN",
      "alert": "OK",
      "vis_m": 9999,
      "fzfg": false,
      "metar_trigger": false,
      "taf_trigger": false,
      "metar": "METAR LIRN 231420Z 18005KT 120V220 9999 SCT070 15/04 Q1012 TEMPO SHRA",
      "taf": "TAF LIRN 231100Z 2312/2412 VRB05KT 9999 FEW040"
    },
    {
      "icao": "LIRP",
      "alert": "OK",
      "vis_m": 9999,
      "fzfg": false,
      "metar_trigger": false,
      "taf_trigger": false,
      "metar": "METAR LIRP 231415Z 31012KT 9999 SCT070 16/04 Q1014 NOSIG",
      "taf": "TAF LIRP 231100Z 2312/2412 34010KT 9999 FEW040 SCT070"
    },
    {
      "icao": "LIRZ",
      "alert": "OK",
      "vis_m": 9999,
      "fzfg": false,
      "metar_trigger": false,
      "taf_trigger": false,
      "metar": "METAR LIRZ 231420Z AUTO 04012KT 9999 BKN082/// 13/03 Q1014",
      "taf": "TAF LIRZ 231100Z 2312/2412 04014KT 9999 FEW080"
    },
    {
      "icao": "LJLJ",
      "alert": "OK",
      "vis_m": 9999,
      "fzfg": false,
      "metar_trigger": false,
      "taf_trigger": false,
      "metar": "METAR LJLJ 231400Z 09002KT 9999 SCT060 BKN095 13/01 Q1015 NOSIG",
      "taf": "TAF LJLJ 231100Z 2312/2412 VRB02KT 9999 SCT055"
    },
    {
      "icao": "LKMT",
      "alert": "OK",
      "vis_m": 9999,
      "fzfg": false,
      "metar_trigger": false,
      "taf_trigger": false,
      "metar": "METAR LKMT 231430Z 01005KT 330V040 CAVOK 14/M02 Q1016 NOSIG",
      "taf": "TAF LKMT 231100Z 2312/2412 03008KT CAVOK"
    },
    {
      "icao": "LKPR",
      "alert": "OK",
      "vis_m": 9999,
      "fzfg": false,
      "metar_trigger": false,
      "taf_trigger": false,
      "metar": "METAR LKPR 231430Z 36004KT 250V030 CAVOK 13/M02 Q1017 NOSIG",
      "taf": "TAF LKPR 231400Z 2315/2421 06004KT CAVOK"
    },
    {
      "icao": "LLBG",
      "alert": "OK",
      "vis_m": 9999,
      "fzfg": false,
      "metar_trigger": false,
      "taf_trigger": false,
      "metar": "METAR LLBG 231420Z 32010KT CAVOK 18/11 Q1009 NOSIG RMK SCT140",
      "taf": "TAF LLBG 231105Z 2312/2412 28010KT 9999 FEW040 TX21/2312Z TN08/2404Z"
    },
    {
      "icao": "LMML",
      "alert": "OK",
      "vis_m": 9999,
      "fzfg": false,
      "metar_trigger": false,
      "taf_trigger": false,
      "metar": "METAR LMML 231415Z 17004KT 140V200 9999 FEW027 15/10 Q1012 NOSIG",
      "taf": "TAF LMML 231100Z 2312/2412 VRB06KT 9999 SCT020"
    },
    {
      "icao": "LOWW",
      "alert": "OK",
      "vis_m": 9999,
      "fzfg": false,
      "metar_trigger": false,
      "taf_trigger": false,
      "metar": "METAR LOWW 231420Z VRB02KT CAVOK 14/00 Q1016 NOSIG",
      "taf": "TAF LOWW 231415Z 2315/2421 VRB04KT 9999 FEW050 TX17/2413Z TN05/2404Z"
    },
    {
      "icao": "LPFR",
      "alert": "OK",
      "vis_m": 9999,
      "fzfg": false,
      "metar_trigger": false,
      "taf_trigger": false,
      "metar": "METAR LPFR 231400Z 21006KT 160V260 9999 FEW020 18/14 Q1013",
      "taf": "TAF LPFR 231100Z 2312/2412 19007KT 9999 SCT020"
    },
    {
      "icao": "LPMA",
      "alert": "OK",
      "vis_m": 9999,
      "fzfg": false,
      "metar_trigger": false,
      "taf_trigger": false,
      "metar": "METAR LPMA 231400Z 03019KT 9999 SCT013 FEW018CB 18/15 Q1012",
      "taf": "TAF LPMA 231100Z 2312/2412 02015KT 9999 SCT015"
    },
    {
      "icao": "LPPR",
      "alert": "OK",
      "vis_m": 9999,
      "fzfg": false,
      "metar_trigger": false,
      "taf_trigger": false,
      "metar": "METAR LPPR 231400Z 30007KT CAVOK 19/10 Q1014",
      "taf": "TAF LPPR 231100Z 2312/2412 08005KT CAVOK"
    },
    {
      "icao": "LPPS",
      "alert": "OK",
      "vis_m": 9999,
      "fzfg": false,
      "metar_trigger": false,
      "taf_trigger": false,
      "metar": "METAR LPPS 231400Z 08017KT 9999 BKN010 FEW016TCU 18/16 Q1012",
      "taf": "TAF LPPS 231100Z 2312/2418 06015KT 9999 SCT013"
    },
    {
      "icao": "LPPT",
      "alert": "OK",
      "vis_m": 9999,
      "fzfg": false,
      "metar_trigger": false,
      "taf_trigger": false,
      "metar": "METAR LPPT 231400Z 09006G19KT 020V190 9999 FEW040 22/12 Q1013",
      "taf": "TAF LPPT 231100Z 2312/2418 VRB02KT CAVOK"
    },
    {
      "icao": "LQBK",
      "alert": "OK",
      "vis_m": 9999,
      "fzfg": false,
      "metar_trigger": false,
      "taf_trigger": false,
      "metar": "METAR LQBK 231430Z 32016KT CAVOK 14/01 Q1014 NOSIG",
      "taf": "TAF LQBK 231100Z 2312/2412 34005KT CAVOK TX15/2313Z TN04/2406Z"
    },
    {
      "icao": "LQSA",
      "alert": "OK",
      "vis_m": 9999,
      "fzfg": false,
      "metar_trigger": false,
      "taf_trigger": false,
      "metar": "METAR LQSA 231430Z 33006KT 300V010 CAVOK 12/00 Q1012 NOSIG",
      "taf": "TAF LQSA 231100Z 2312/2412 VRB02KT 9999 SCT055 TX14/2314Z TN04/2405Z"
    },
    {
      "icao": "LQTZ",
      "alert": "OK",
      "vis_m": 9999,
      "fzfg": false,
      "metar_trigger": false,
      "taf_trigger": false,
      "metar": "METAR LQTZ 231430Z 27005KT 9999 FEW035TCU BKN055 12/04 Q1013",
      "taf": ""
    },
    {
      "icao": "LRBC",
      "alert": "OK",
      "vis_m": 9999,
      "fzfg": false,
      "metar_trigger": false,
      "taf_trigger": false,
      "metar": "METAR LRBC 231400Z 36003KT 340V040 9999 BKN063 14/00 Q1016",
      "taf": "TAF LRBC 231400Z 2315/2324 VRB04KT CAVOK"
    },
    {
      "icao": "LRBS",
      "alert": "OK",
      "vis_m": 9999,
      "fzfg": false,
      "metar_trigger": false,
      "taf_trigger": false,
      "metar": "METAR LRBS 231400Z 03006KT 360V060 CAVOK 11/03 Q1016 NOSIG",
      "taf": "TAF LRBS 231100Z 2312/2412 05013KT CAVOK"
    },
    {
      "icao": "LRBV",
      "alert": "OK",
      "vis_m": 9999,
      "fzfg": false,
      "metar_trigger": false,
      "taf_trigger": false,
      "metar": "METAR LRBV 231400Z 17003KT 090V250 9999 SCT053 OVC070 11/00 Q1015",
      "taf": "TAF LRBV 231400Z 2315/2324 VRB04KT 9999 BKN050"
    },
    {
      "icao": "LRCL",
      "alert": "OK",
      "vis_m": 9999,
      "fzfg": false,
      "metar_trigger": false,
      "taf_trigger": false,
      "metar": "METAR LRCL 231400Z 19004KT 150V250 9999 FEW065 13/M02 Q1015",
      "taf": "TAF LRCL 231400Z 2315/2324 VRB04KT CAVOK"
    },
    {
      "icao": "LRCV",
      "alert": "OK",
      "vis_m": 9999,
      "fzfg": false,
      "metar_trigger": false,
      "taf_trigger": false,
      "metar": "METAR LRCV 231400Z 15003KT 9999 -RA SCT017 OVC045 09/06 Q1017",
      "taf": "TAF LRCV 231400Z 2315/2324 VRB04KT 9999 BKN040"
    },
    {
      "icao": "LRIA",
      "alert": "OK",
      "vis_m": 9999,
      "fzfg": false,
      "metar_trigger": false,
      "taf_trigger": false,
      "metar": "METAR LRIA 231400Z VRB04KT CAVOK 15/M00 Q1016",
      "taf": "TAF LRIA 231400Z 2315/2324 VRB04KT CAVOK"
    },
    {
      "icao": "LROP",
      "alert": "OK",
      "vis_m": 9999,
      "fzfg": false,
      "metar_trigger": false,
      "taf_trigger": false,
      "metar": "METAR LROP 231400Z 05008KT CAVOK 11/02 Q1016 NOSIG",
      "taf": "TAF LROP 231100Z 2312/2412 06014KT CAVOK"
    },
    {
      "icao": "LRSB",
      "alert": "OK",
      "vis_m": 9999,
      "fzfg": false,
      "metar_trigger": false,
      "taf_trigger": false,
      "metar": "METAR LRSB 231400Z 12004KT 9999 BKN065 10/02 Q1015 NOSIG",
      "taf": "TAF LRSB 231100Z 2312/2412 VRB04KT CAVOK"
    },
    {
      "icao": "LRSM",
      "alert": "OK",
      "vis_m": 9999,
      "fzfg": false,
      "metar_trigger": false,
      "taf_trigger": false,
      "metar": "METAR LRSM 231400Z 20004KT 160V250 CAVOK 15/M03 Q1016",
      "taf": "TAF LRSM 231400Z 2315/2324 VRB04KT CAVOK"
    },
    {
      "icao": "LRSV",
      "alert": "OK",
      "vis_m": 9999,
      "fzfg": false,
      "metar_trigger": false,
      "taf_trigger": false,
      "metar": "METAR LRSV 231400Z 02004KT 340V050 9999 SCT048 11/M01 Q1016",
      "taf": "TAF LRSV 231400Z 2315/2324 VRB04KT CAVOK"
    },
    {
      "icao": "LRTM",
      "alert": "OK",
      "vis_m": 9999,
      "fzfg": false,
      "metar_trigger": false,
      "taf_trigger": false,
      "metar": "METAR LRTM 231400Z VRB02KT 9999 SCT037 13/M01 Q1015",
      "taf": "TAF LRTM 231400Z 2315/2324 VRB04KT CAVOK"
    },
    {
      "icao": "LRTR",
      "alert": "OK",
      "vis_m": 9999,
      "fzfg": false,
      "metar_trigger": false,
      "taf_trigger": false,
      "metar": "METAR LRTR 231400Z 01007KT 320V070 CAVOK 15/01 Q1015",
      "taf": "TAF LRTR 231100Z 2312/2412 VRB04KT CAVOK"
    },
    {
      "icao": "LTAC",
      "alert": "OK",
      "vis_m": 6000,
      "fzfg": false,
      "metar_trigger": false,
      "taf_trigger": false,
      "metar": "METAR LTAC 231420Z 30005KT 6000 -SHRA FEW025CB BKN030 08/06 Q1009 NOSIG RMK RWY21C 28005KT RWY03L 30004KT 270V340 RWY21R 29004KT 250V310 RWY03R 28005KT 250V310 RWY21L 27006KT",
      "taf": "TAF LTAC 231040Z 2312/2412 VRB02KT 9999 SCT040 BKN100"
    },
    {
      "icao": "LTFM",
      "alert": "OK",
      "vis_m": 1100,
      "fzfg": false,
      "metar_trigger": false,
      "taf_trigger": false,
      "metar": "METAR LTFM 231420Z 34013KT 1100 0650S R35R/1200N R17L/1100D R34L/0900D R36/0550N -RA BCFG BKN002 BKN018 08/07 Q1012 NOSIG RMK RWY17L 35013KT 320V030 RWY34L 33012KT RWY16R 34011KT RWY36 34013KT RWY18 35015KT",
      "taf": "TAF LTFM 231040Z 2312/2418 33012KT 2000 -RA BR BKN004 BKN020"
    },
    {
      "icao": "LUKK",
      "alert": "OK",
      "vis_m": 9999,
      "fzfg": false,
      "metar_trigger": false,
      "taf_trigger": false,
      "metar": "METAR LUKK 231430Z 07008KT 010V090 CAVOK 15/M01 Q1016 NOSIG",
      "taf": "TAF LUKK 231102Z 2312/2412 05008KT CAVOK"
    },
    {
      "icao": "LWOH",
      "alert": "OK",
      "vis_m": 9999,
      "fzfg": false,
      "metar_trigger": false,
      "taf_trigger": false,
      "metar": "METAR LWOH 231420Z 08007KT 040V100 9999 BKN045 11/02 Q1011",
      "taf": "TAF LWOH 231430Z 2315/2415 36008KT 9999 BKN040 BKN080"
    },
    {
      "icao": "LWSK",
      "alert": "OK",
      "vis_m": 9999,
      "fzfg": false,
      "metar_trigger": false,
      "taf_trigger": false,
      "metar": "METAR LWSK 231420Z 30012KT 270V340 9999 FEW033 SCT100 14/04 Q1011 NOSIG",
      "taf": "TAF LWSK 231430Z 2315/2415 36010KT 9999 SCT040 BKN100"
    },
    {
      "icao": "LYBE",
      "alert": "OK",
      "vis_m": 9999,
      "fzfg": false,
      "metar_trigger": false,
      "taf_trigger": false,
      "metar": "METAR LYBE 231430Z 04010KT CAVOK 15/02 Q1014 NOSIG",
      "taf": "TAF LYBE 231100Z 2312/2412 10008KT CAVOK TX17/2412Z TN06/2405Z"
    },
    {
      "icao": "LYNI",
      "alert": "OK",
      "vis_m": 9999,
      "fzfg": false,
      "metar_trigger": false,
      "taf_trigger": false,
      "metar": "METAR LYNI 231430Z 04012KT 360V060 9999 FEW050 14/02 Q1013 NOSIG",
      "taf": "TAF LYNI 231100Z 2312/2412 05014KT CAVOK TX15/2313Z TN04/2405Z"
    },
    {
      "icao": "LYPG",
      "alert": "OK",
      "vis_m": 9999,
      "fzfg": false,
      "metar_trigger": false,
      "taf_trigger": false,
      "metar": "METAR LYPG 231430Z VRB04KT 9999 FEW050 BKN080 16/04 Q1012 NOSIG",
      "taf": "TAF LYPG 231100Z 2312/2412 18006KT 9999 FEW040 BKN080 TX18/2313Z TN08/2400Z"
    },
    {
      "icao": "LZIB",
      "alert": "OK",
      "vis_m": 9999,
      "fzfg": false,
      "metar_trigger": false,
      "taf_trigger": false,
      "metar": "METAR LZIB 231430Z 08004KT 050V110 CAVOK 16/01 Q1016 NOSIG",
      "taf": "TAF LZIB 231115Z 2312/2412 11006KT CAVOK"
    },
    {
      "icao": "LZKZ",
      "alert": "OK",
      "vis_m": 9999,
      "fzfg": false,
      "metar_trigger": false,
      "taf_trigger": false,
      "metar": "METAR LZKZ 231430Z 19004KT 140V250 CAVOK 15/M01 Q1015 NOSIG",
      "taf": "TAF LZKZ 231115Z 2312/2412 15007KT CAVOK"
    },
    {
      "icao": "LZTT",
      "alert": "OK",
      "vis_m": 9999,
      "fzfg": false,
      "metar_trigger": false,
      "taf_trigger": false,
      "metar": "METAR LZTT 231430Z 22004KT 170V250 9999 FEW060 BKN073 10/M01 Q1015 NOSIG",
      "taf": "TAF LZTT 231115Z 2312/2412 11007KT 9999 FEW070"
    },
    {
      "icao": "OEJN",
      "alert": "OK",
      "vis_m": 5000,
      "fzfg": false,
      "metar_trigger": false,
      "taf_trigger": false,
      "metar": "METAR OEJN 231400Z 22008KT 5000 DU FEW040 30/17 Q1005 NOSIG",
      "taf": "TAF OEJN 231100Z 2312/2418 22012KT 7000 FEW040"
    },
    {
      "icao": "OEMA",
      "alert": "OK",
      "vis_m": 9999,
      "fzfg": false,
      "metar_trigger": false,
      "taf_trigger": false,
      "metar": "METAR OEMA 231400Z 25012KT 9999 FEW040 30/M06 Q1009 NOSIG",
      "taf": "TAF OEMA 231100Z 2312/2418 25015KT 7000 FEW040"
    },
    {
      "icao": "OJAI",
      "alert": "OK",
      "vis_m": 5000,
      "fzfg": false,
      "metar_trigger": false,
      "taf_trigger": false,
      "metar": "METAR OJAI 231400Z 25008KT 5000 HZ SCT030 FEW030 15/07 Q1010 NOSIG",
      "taf": "TAF OJAI 231049Z 2312/2418 25012KT 5000 HZ SCT020 BKN030"
    },
    {
      "icao": "OMAA",
      "alert": "OK",
      "vis_m": null,
      "fzfg": false,
      "metar_trigger": false,
      "taf_trigger": false,
      "metar": "",
      "taf": ""
    },
    {
      "icao": "OMDB",
      "alert": "OK",
      "vis_m": null,
      "fzfg": false,
      "metar_trigger": false,
      "taf_trigger": false,
      "metar": "",
      "taf": ""
    },
    {
      "icao": "UAAA",
      "alert": "OK",
      "vis_m": 9000,
      "fzfg": false,
      "metar_trigger": false,
      "taf_trigger": false,
      "metar": "METAR UAAA 231400Z 19004MPS 9000 -SHRA BKN050CB OVC100 13/07 Q1018 TEMPO TS",
      "taf": "TAF UAAA 231103Z 2312/2412 23003G08MPS 5000 -SHRA BR BKN030CB OVC100 TX14/2409Z TN06/2401Z"
    },
    {
      "icao": "UBBB",
      "alert": "OK",
      "vis_m": 9999,
      "fzfg": false,
      "metar_trigger": false,
      "taf_trigger": false,
      "metar": "METAR UBBB 231430Z 04006KT CAVOK 13/07 Q1009 NOSIG",
      "taf": "TAF UBBB 231056Z 2312/2412 34006KT CAVOK TX16/2312Z TN08/2400Z"
    },
    {
      "icao": "UDSG",
      "alert": "OK",
      "vis_m": 9999,
      "fzfg": false,
      "metar_trigger": false,
      "taf_trigger": false,
      "metar": "METAR UDSG 231400Z 06004KT 9999 -SHRA BKN036CB 06/03 Q1013 NOSIG",
      "taf": "TAF UDSG 231058Z 2312/2412 06006KT 9999 SCT040"
    },
    {
      "icao": "UDYZ",
      "alert": "OK",
      "vis_m": 9999,
      "fzfg": false,
      "metar_trigger": false,
      "taf_trigger": false,
      "metar": "METAR UDYZ 231400Z 14008KT 9999 VCTS BKN043CB 15/01 Q1011 TEMPO -TSRA",
      "taf": "TAF UDYZ 231100Z 2312/2412 24006KT 9999 SCT040"
    },
    {
      "icao": "UGKO",
      "alert": "OK",
      "vis_m": 9999,
      "fzfg": false,
      "metar_trigger": false,
      "taf_trigger": false,
      "metar": "METAR UGKO 231400Z 25009KT 9999 SCT026 BKN041 11/09 Q1010 NOSIG",
      "taf": "TAF UGKO 231100Z 2312/2412 26007KT 9000 SCT023 BKN040 TX20/2411Z TN06/2403Z"
    }
  ]
}