{
  "ts_utc": "2025-12-28T22:10:50Z",
  "threshold_m": 150,
  "source": "stations_override.txt (ICAO list) + aviationweather.gov (METAR/TAF raw)",
  "station_count": 159,
  "stations": [
    {
      "icao": "BIKF",
      "alert": "OK",
      "vis_m": 400,
      "fzfg": false,
      "metar_trigger": false,
      "taf_trigger": false,
      "metar": "METAR BIKF 282200Z 25004KT 0400 R19/1300N FG FEW001 BKN025 05/05 Q1037",
      "taf": "TAF BIKF 281939Z 2821/2921 20005KT 8000 -DZRA SCT007 BKN015 TX06/2824Z TN03/2908Z"
    },
    {
      "icao": "BKPR",
      "alert": "OK",
      "vis_m": 9999,
      "fzfg": false,
      "metar_trigger": false,
      "taf_trigger": false,
      "metar": "METAR BKPR 282200Z 30005KT CAVOK M01/M07 Q1021 NOSIG",
      "taf": "TAF BKPR 281730Z 2818/2918 35008KT CAVOK"
    },
    {
      "icao": "EBCI",
      "alert": "OK",
      "vis_m": 9999,
      "fzfg": false,
      "metar_trigger": false,
      "taf_trigger": false,
      "metar": "METAR EBCI 282150Z 07005KT CAVOK M02/M03 Q1027 NOSIG",
      "taf": "TAF EBCI 281700Z 2818/2924 06008KT CAVOK"
    },
    {
      "icao": "EDDB",
      "alert": "OK",
      "vis_m": 7000,
      "fzfg": false,
      "metar_trigger": false,
      "taf_trigger": false,
      "metar": "METAR EDDB 282150Z AUTO 23010KT 7000 BKN002 M02/M02 Q1023 TEMPO 2400 BR",
      "taf": ""
    },
    {
      "icao": "EDDH",
      "alert": "OK",
      "vis_m": 6000,
      "fzfg": false,
      "metar_trigger": false,
      "taf_trigger": false,
      "metar": "METAR EDDH 282150Z AUTO 26006KT 220V290 6000 OVC002 01/01 Q1025 BECMG SCT004 BKN020",
      "taf": ""
    },
    {
      "icao": "EDDK",
      "alert": "OK",
      "vis_m": 9999,
      "fzfg": false,
      "metar_trigger": false,
      "taf_trigger": false,
      "metar": "METAR EDDK 282150Z AUTO 00000KT CAVOK M04/M05 Q1028 NOSIG",
      "taf": "TAF EDDK 281700Z 2818/2924 VRB02KT 6000 FEW004"
    },
    {
      "icao": "EDDN",
      "alert": "OK",
      "vis_m": 9999,
      "fzfg": false,
      "metar_trigger": false,
      "taf_trigger": false,
      "metar": "METAR EDDN 282150Z AUTO 34001KT CAVOK M06/M07 Q1026",
      "taf": ""
    },
    {
      "icao": "EDDS",
      "alert": "OK",
      "vis_m": 9999,
      "fzfg": false,
      "metar_trigger": false,
      "taf_trigger": false,
      "metar": "METAR EDDS 282150Z AUTO 33003KT CAVOK M05/M07 Q1023",
      "taf": "TAF EDDS 281700Z 2818/2918 36003KT CAVOK"
    },
    {
      "icao": "EDFH",
      "alert": "OK",
      "vis_m": 9999,
      "fzfg": false,
      "metar_trigger": false,
      "taf_trigger": false,
      "metar": "METAR EDFH 282150Z 09007KT CAVOK M03/M07 Q1025",
      "taf": "TAF EDFH 281700Z 2818/2918 08008KT CAVOK"
    },
    {
      "icao": "EDJA",
      "alert": "OK",
      "vis_m": 7000,
      "fzfg": false,
      "metar_trigger": false,
      "taf_trigger": false,
      "metar": "METAR EDJA 282150Z 07004KT 7000 OVC004 M04/M05 Q1022",
      "taf": "TAF EDJA 281700Z 2818/2903 07009KT 9999 BKN006"
    },
    {
      "icao": "EDLW",
      "alert": "OK",
      "vis_m": 8000,
      "fzfg": false,
      "metar_trigger": false,
      "taf_trigger": false,
      "metar": "METAR EDLW 282150Z 00000KT 8000 FEW002 M05/M06 Q1028",
      "taf": ""
    },
    {
      "icao": "EDNY",
      "alert": "OK",
      "vis_m": 9999,
      "fzfg": false,
      "metar_trigger": false,
      "taf_trigger": false,
      "metar": "METAR EDNY 282150Z AUTO 02004KT 9999 // OVC011/// M02/M04 Q1024",
      "taf": "TAF EDNY 281400Z 2815/2824 04008KT CAVOK"
    },
    {
      "icao": "EDSB",
      "alert": "OK",
      "vis_m": 9999,
      "fzfg": false,
      "metar_trigger": false,
      "taf_trigger": false,
      "metar": "METAR EDSB 282150Z COR 09005KT 060V130 CAVOK M00/M04 Q1025",
      "taf": "TAF EDSB 281700Z 2818/2918 04015KT CAVOK"
    },
    {
      "icao": "EETN",
      "alert": "OK",
      "vis_m": 9999,
      "fzfg": false,
      "metar_trigger": false,
      "taf_trigger": false,
      "metar": "METAR EETN 282150Z 29010KT 260V320 9999 -SHRA BKN016 FEW019CB OVC028 03/00 Q1000 TEMPO 4000 SHRASN",
      "taf": "TAF EETN 281730Z 2818/2918 27010KT 9999 BKN025"
    },
    {
      "icao": "EFTU",
      "alert": "OK",
      "vis_m": 9999,
      "fzfg": false,
      "metar_trigger": false,
      "taf_trigger": false,
      "metar": "METAR EFTU 282150Z AUTO 29009KT 260V320 9999 OVC034 03/00 Q1000",
      "taf": "TAF EFTU 282036Z 2821/2921 30009KT 9999 BKN040"
    },
    {
      "icao": "EGBB",
      "alert": "OK",
      "vis_m": 9999,
      "fzfg": false,
      "metar_trigger": false,
      "taf_trigger": false,
      "metar": "METAR EGBB 282150Z 07007KT 9999 OVC015 05/02 Q1031",
      "taf": "TAF EGBB 281657Z 2818/2918 07008KT 9999 BKN018"
    },
    {
      "icao": "EGGP",
      "alert": "OK",
      "vis_m": 9999,
      "fzfg": false,
      "metar_trigger": false,
      "taf_trigger": false,
      "metar": "METAR EGGP 282150Z 11005KT 9999 OVC021 05/01 Q1032",
      "taf": "TAF EGGP 281654Z 2818/2918 08008KT 9999 BKN020"
    },
    {
      "icao": "EGGW",
      "alert": "OK",
      "vis_m": 9999,
      "fzfg": false,
      "metar_trigger": false,
      "taf_trigger": false,
      "metar": "METAR EGGW 282150Z AUTO 05008KT 9999 OVC020 04/02 Q1029",
      "taf": "TAF EGGW 281655Z 2818/2918 06010KT 9999 SCT016"
    },
    {
      "icao": "EGKK",
      "alert": "OK",
      "vis_m": 9999,
      "fzfg": false,
      "metar_trigger": false,
      "taf_trigger": false,
      "metar": "METAR EGKK 282150Z 05007KT 360V090 9999 BKN018 06/03 Q1029",
      "taf": "TAF EGKK 281701Z 2818/2924 04009KT 9999 BKN022"
    },
    {
      "icao": "EGNM",
      "alert": "OK",
      "vis_m": 9999,
      "fzfg": false,
      "metar_trigger": false,
      "taf_trigger": false,
      "metar": "METAR EGNM 282150Z 06005KT 9999 OVC014 04/02 Q1032",
      "taf": "TAF EGNM 281655Z 2818/2918 04007KT 9999 BKN018"
    },
    {
      "icao": "EGPD",
      "alert": "OK",
      "vis_m": 9999,
      "fzfg": false,
      "metar_trigger": false,
      "taf_trigger": false,
      "metar": "METAR EGPD 282150Z COR AUTO 28006KT 9999 OVC019 03/M00 Q1034 NOSIG",
      "taf": "TAF EGPD 281655Z 2818/2918 29005KT 9999 SCT018"
    },
    {
      "icao": "EGPF",
      "alert": "OK",
      "vis_m": 9999,
      "fzfg": false,
      "metar_trigger": false,
      "taf_trigger": false,
      "metar": "METAR EGPF 282150Z AUTO 12003KT 080V160 9999 OVC021 05/01 Q1034",
      "taf": ""
    },
    {
      "icao": "EHBK",
      "alert": "OK",
      "vis_m": 5000,
      "fzfg": false,
      "metar_trigger": false,
      "taf_trigger": false,
      "metar": "METAR EHBK 282155Z AUTO 10005KT 5000 BR NCD M02/M02 Q1027 TEMPO 4000 MIFG",
      "taf": "TAF EHBK 281721Z 2818/2924 03005KT CAVOK"
    },
    {
      "icao": "EHEH",
      "alert": "OK",
      "vis_m": 350,
      "fzfg": true,
      "metar_trigger": false,
      "taf_trigger": false,
      "metar": "METAR EHEH 282155Z AUTO VRB02KT 0350 FZFG OVC000 M04/M05 Q1028 RED",
      "taf": "TAF EHEH 281717Z 2818/2924 05005KT CAVOK"
    },
    {
      "icao": "EKBI",
      "alert": "OK",
      "vis_m": 9999,
      "fzfg": false,
      "metar_trigger": false,
      "taf_trigger": false,
      "metar": "METAR EKBI 282150Z AUTO 30011KT 9999 FEW020/// 04/02 Q1022",
      "taf": "TAF EKBI 282027Z 2821/2921 30010KT CAVOK"
    },
    {
      "icao": "EKCH",
      "alert": "OK",
      "vis_m": 9999,
      "fzfg": false,
      "metar_trigger": false,
      "taf_trigger": false,
      "metar": "METAR EKCH 282150Z 29006KT 9999 BKN014 03/02 Q1018 BECMG CAVOK",
      "taf": "TAF EKCH 282027Z 2821/2921 27010KT 9999 BKN014"
    },
    {
      "icao": "ENAL",
      "alert": "OK",
      "vis_m": 9999,
      "fzfg": false,
      "metar_trigger": false,
      "taf_trigger": false,
      "metar": "METAR ENAL 282150Z 35012KT 310V040 9999 FEW038 BKN052 05/M02 Q1024",
      "taf": "TAF ENAL 282000Z 2821/2906 34015KT 9999 FEW025 BKN035"
    },
    {
      "icao": "ENBR",
      "alert": "OK",
      "vis_m": 9999,
      "fzfg": false,
      "metar_trigger": false,
      "taf_trigger": false,
      "metar": "METAR ENBR 282150Z 13002KT 9999 FEW026 SCT049 02/01 Q1024 RMK WIND 1200FT 32024KT",
      "taf": "TAF ENBR 281700Z 2818/2918 VRB05KT 9999 -SHRA FEW004 BKN020"
    },
    {
      "icao": "ENGM",
      "alert": "OK",
      "vis_m": 9999,
      "fzfg": false,
      "metar_trigger": false,
      "taf_trigger": false,
      "metar": "METAR ENGM 282150Z 17005KT 160V230 CAVOK M05/M09 Q1014 NOSIG",
      "taf": "TAF ENGM 281700Z 2818/2918 VRB03KT CAVOK"
    },
    {
      "icao": "ENHD",
      "alert": "OK",
      "vis_m": 9999,
      "fzfg": false,
      "metar_trigger": false,
      "taf_trigger": false,
      "metar": "METAR ENHD 282150Z 32015KT 9999 FEW005 SCT015 BKN030 07/05 Q1024",
      "taf": "TAF ENHD 281400Z 2815/2823 36015KT 9999 SCT040"
    },
    {
      "icao": "ENTC",
      "alert": "OK",
      "vis_m": 9999,
      "fzfg": false,
      "metar_trigger": false,
      "taf_trigger": false,
      "metar": "METAR ENTC 282150Z 31016KT 9999 -SHSN BKN030 M04/M08 Q0999 TEMPO 34016G26KT 1000 SHSN VV009 RMK WIND 2600FT 34040KT",
      "taf": "TAF ENTC 281700Z 2818/2918 35015KT 9999 -SHSN FEW015CB BKN030"
    },
    {
      "icao": "ENTO",
      "alert": "OK",
      "vis_m": 9999,
      "fzfg": false,
      "metar_trigger": false,
      "taf_trigger": false,
      "metar": "METAR ENTO 282150Z 27008KT 240V300 CAVOK 03/M05 Q1017 NOSIG",
      "taf": "TAF ENTO 281700Z 2818/2918 28005KT CAVOK"
    },
    {
      "icao": "ENVA",
      "alert": "OK",
      "vis_m": 5000,
      "fzfg": false,
      "metar_trigger": false,
      "taf_trigger": false,
      "metar": "METAR ENVA 282150Z 32013KT 5000 -SN OVC020 01/M00 Q1016 RMK WIND 670FT 32024KT",
      "taf": ""
    },
    {
      "icao": "ENZV",
      "alert": "OK",
      "vis_m": 9999,
      "fzfg": false,
      "metar_trigger": false,
      "taf_trigger": false,
      "metar": "METAR ENZV 282150Z 34009KT 9999 SCT015 BKN020 06/04 Q1024",
      "taf": ""
    },
    {
      "icao": "EPGD",
      "alert": "OK",
      "vis_m": 9999,
      "fzfg": false,
      "metar_trigger": false,
      "taf_trigger": false,
      "metar": "METAR EPGD 282200Z 27006KT CAVOK M00/M02 Q1014",
      "taf": "TAF EPGD 281730Z 2818/2918 30012KT CAVOK"
    },
    {
      "icao": "EPKK",
      "alert": "OK",
      "vis_m": 9999,
      "fzfg": false,
      "metar_trigger": false,
      "taf_trigger": false,
      "metar": "METAR EPKK 282200Z 27015KT 9999 BKN020 M00/M05 Q1020",
      "taf": "TAF EPKK 282030Z 2821/2921 27014KT 9999 BKN020"
    },
    {
      "icao": "EPKT",
      "alert": "OK",
      "vis_m": 9999,
      "fzfg": false,
      "metar_trigger": false,
      "taf_trigger": false,
      "metar": "METAR EPKT 282200Z 29008KT 270V330 9999 BKN015 M01/M04 Q1021",
      "taf": "TAF EPKT 281730Z 2818/2918 28010KT 9999 BKN016 OVC020"
    },
    {
      "icao": "EPLB",
      "alert": "OK",
      "vis_m": 9999,
      "fzfg": false,
      "metar_trigger": false,
      "taf_trigger": false,
      "metar": "METAR EPLB 282200Z 30014KT 9999 SCT025 BKN042 01/M03 Q1014",
      "taf": "TAF EPLB 281730Z 2818/2918 29015KT 9999 BKN030"
    },
    {
      "icao": "EPMO",
      "alert": "OK",
      "vis_m": 9999,
      "fzfg": false,
      "metar_trigger": false,
      "taf_trigger": false,
      "metar": "METAR EPMO 282200Z 29011KT 9999 BKN018 01/M02 Q1016",
      "taf": "TAF EPMO 281730Z 2818/2918 29012KT 9999 BKN030"
    },
    {
      "icao": "EPPO",
      "alert": "OK",
      "vis_m": 9999,
      "fzfg": false,
      "metar_trigger": false,
      "taf_trigger": false,
      "metar": "METAR EPPO 282200Z 25008KT CAVOK M02/M04 Q1020",
      "taf": "TAF EPPO 281730Z 2818/2918 29010KT CAVOK"
    },
    {
      "icao": "EPRA",
      "alert": "OK",
      "vis_m": 9999,
      "fzfg": false,
      "metar_trigger": false,
      "taf_trigger": false,
      "metar": "METAR EPRA 282200Z 31013KT 9999 BKN021 00/M04 Q1016",
      "taf": "TAF EPRA 282030Z 2821/2906 29012KT 9999 BKN022"
    },
    {
      "icao": "EPRZ",
      "alert": "OK",
      "vis_m": 9999,
      "fzfg": false,
      "metar_trigger": false,
      "taf_trigger": false,
      "metar": "METAR EPRZ 282200Z 29013KT 9999 OVC026 01/M04 Q1016",
      "taf": "TAF EPRZ 281730Z 2818/2918 29014KT 9999 BKN030"
    },
    {
      "icao": "EPSC",
      "alert": "OK",
      "vis_m": 9999,
      "fzfg": false,
      "metar_trigger": false,
      "taf_trigger": false,
      "metar": "METAR EPSC 282200Z 22005KT 9999 BKN013 OVC015 M01/M03 Q1020",
      "taf": "TAF EPSC 281730Z 2818/2918 24002KT CAVOK"
    },
    {
      "icao": "EPSY",
      "alert": "OK",
      "vis_m": 9999,
      "fzfg": false,
      "metar_trigger": false,
      "taf_trigger": false,
      "metar": "METAR EPSY 282200Z 27006KT 240V320 9999 BKN022 01/M02 Q1014",
      "taf": "TAF EPSY 282030Z 2821/2906 32012KT 9999 BKN025"
    },
    {
      "icao": "EPWA",
      "alert": "OK",
      "vis_m": 9999,
      "fzfg": false,
      "metar_trigger": false,
      "taf_trigger": false,
      "metar": "METAR EPWA 282200Z 29011KT 9999 OVC023 01/M03 Q1016 NOSIG",
      "taf": "TAF EPWA 282030Z 2821/2921 28012KT 9999 BKN030"
    },
    {
      "icao": "EPWR",
      "alert": "OK",
      "vis_m": 9999,
      "fzfg": false,
      "metar_trigger": false,
      "taf_trigger": false,
      "metar": "METAR EPWR 282200Z 28012KT 9999 FEW006 M02/M03 Q1023",
      "taf": "TAF EPWR 282030Z 2821/2921 29012KT CAVOK"
    },
    {
      "icao": "ESGG",
      "alert": "OK",
      "vis_m": 9999,
      "fzfg": false,
      "metar_trigger": false,
      "taf_trigger": false,
      "metar": "METAR ESGG 282150Z 36002KT CAVOK M02/M03 Q1016",
      "taf": "TAF ESGG 282030Z 2821/2921 VRB02KT CAVOK"
    },
    {
      "icao": "ESKN",
      "alert": "OK",
      "vis_m": 9999,
      "fzfg": false,
      "metar_trigger": false,
      "taf_trigger": false,
      "metar": "METAR ESKN 282150Z 28011KT CAVOK M00/M06 Q1010",
      "taf": "TAF ESKN 282030Z 2821/2921 28012KT CAVOK"
    },
    {
      "icao": "ESMS",
      "alert": "OK",
      "vis_m": 9999,
      "fzfg": false,
      "metar_trigger": false,
      "taf_trigger": false,
      "metar": "METAR ESMS 282150Z 31009KT 9999 OVC018 04/02 Q1017",
      "taf": "TAF ESMS 282027Z 2821/2921 28009KT 9999 BKN015"
    },
    {
      "icao": "ESSA",
      "alert": "OK",
      "vis_m": 9999,
      "fzfg": false,
      "metar_trigger": false,
      "taf_trigger": false,
      "metar": "METAR ESSA 282150Z 29010KT CAVOK 01/M06 Q1008 NOSIG",
      "taf": "TAF ESSA 282030Z 2821/2921 29012KT CAVOK"
    },
    {
      "icao": "EYKA",
      "alert": "OK",
      "vis_m": 9999,
      "fzfg": false,
      "metar_trigger": false,
      "taf_trigger": false,
      "metar": "METAR EYKA 282150Z 28007KT 250V320 9999 OVC015 01/M01 Q1009",
      "taf": "TAF EYKA 281701Z 2818/2918 30010KT 9000 SCT030"
    },
    {
      "icao": "EYPA",
      "alert": "OK",
      "vis_m": 9999,
      "fzfg": false,
      "metar_trigger": false,
      "taf_trigger": false,
      "metar": "METAR EYPA 282150Z 30006KT 250V340 9999 FEW026 SCT033 04/M01 Q1010",
      "taf": "TAF EYPA 281701Z 2818/2918 31010KT 9000 SCT025"
    },
    {
      "icao": "EYVI",
      "alert": "OK",
      "vis_m": 9999,
      "fzfg": false,
      "metar_trigger": false,
      "taf_trigger": false,
      "metar": "METAR EYVI 282150Z 32008KT 9999 OVC013 M01/M03 Q1007 NOSIG",
      "taf": "TAF EYVI 281701Z 2818/2918 31012KT 9000 BKN030"
    },
    {
      "icao": "GCFV",
      "alert": "OK",
      "vis_m": 9999,
      "fzfg": false,
      "metar_trigger": false,
      "taf_trigger": false,
      "metar": "METAR GCFV 282200Z 28004KT CAVOK 17/11 Q1020",
      "taf": "TAF GCFV 282000Z 2821/2921 32005KT 9999 FEW030 TX21/2914Z TN14/2906Z"
    },
    {
      "icao": "GCLP",
      "alert": "OK",
      "vis_m": 9999,
      "fzfg": false,
      "metar_trigger": false,
      "taf_trigger": false,
      "metar": "METAR GCLP 282200Z 32006KT 250V340 9999 SCT040 18/13 Q1020 NOSIG",
      "taf": "TAF GCLP 282000Z 2821/2921 32005KT 9999 BKN030 TX21/2914Z TN15/2906Z"
    },
    {
      "icao": "GCTS",
      "alert": "OK",
      "vis_m": 9999,
      "fzfg": false,
      "metar_trigger": false,
      "taf_trigger": false,
      "metar": "METAR GCTS 282200Z 03004KT 010V070 9999 FEW030 17/11 Q1020 NOSIG",
      "taf": "TAF GCTS 282000Z 2821/2921 02005KT 9999 SCT030 TX23/2914Z TN16/2906Z"
    },
    {
      "icao": "GMAD",
      "alert": "OK",
      "vis_m": 9999,
      "fzfg": false,
      "metar_trigger": false,
      "taf_trigger": false,
      "metar": "METAR GMAD 282200Z 19009KT 9999 FEW020 SCT200 13/12 Q1018 NOSIG",
      "taf": "TAF GMAD 281700Z 2818/2924 26008KT 8000 SCT020 SCT080"
    },
    {
      "icao": "GMMN",
      "alert": "OK",
      "vis_m": 9999,
      "fzfg": false,
      "metar_trigger": false,
      "taf_trigger": false,
      "metar": "METAR GMMN 282200Z 23011KT 9999 SCT016 SCT023TCU 11/09 Q1015 TEMPO 5000 RA",
      "taf": "TAF GMMN 281700Z 2818/2924 24016KT 8000 BKN016 BKN020TCU"
    },
    {
      "icao": "GMMX",
      "alert": "OK",
      "vis_m": 8000,
      "fzfg": false,
      "metar_trigger": false,
      "taf_trigger": false,
      "metar": "METAR GMMX 282200Z 23008KT 8000 SCT026 SCT100 11/08 Q1018 NOSIG",
      "taf": ""
    },
    {
      "icao": "HEGN",
      "alert": "OK",
      "vis_m": 9999,
      "fzfg": false,
      "metar_trigger": false,
      "taf_trigger": false,
      "metar": "METAR HEGN 282100Z 28007KT CAVOK 16/07 Q1015 NOSIG",
      "taf": "TAF HEGN 281700Z 2818/2924 28010KT CAVOK"
    },
    {
      "icao": "HEMA",
      "alert": "OK",
      "vis_m": 9999,
      "fzfg": false,
      "metar_trigger": false,
      "taf_trigger": false,
      "metar": "METAR HEMA 282100Z 22008KT CAVOK 16/07 Q1014 NOSIG",
      "taf": "TAF HEMA 281700Z 2818/2924 29010KT CAVOK"
    },
    {
      "icao": "HESH",
      "alert": "OK",
      "vis_m": 9999,
      "fzfg": false,
      "metar_trigger": false,
      "taf_trigger": false,
      "metar": "METAR HESH 282100Z 29006KT CAVOK 18/09 Q1013 NOSIG",
      "taf": "TAF HESH 281700Z 2818/2924 35008KT CAVOK"
    },
    {
      "icao": "HESX",
      "alert": "OK",
      "vis_m": 9999,
      "fzfg": false,
      "metar_trigger": false,
      "taf_trigger": false,
      "metar": "METAR HESX 282100Z 21003KT CAVOK 11/06 Q1015 NOSIG",
      "taf": "TAF HESX 281700Z 2818/2924 30010KT 9999 SCT025"
    },
    {
      "icao": "LATI",
      "alert": "OK",
      "vis_m": 9999,
      "fzfg": false,
      "metar_trigger": false,
      "taf_trigger": false,
      "metar": "METAR LATI 282150Z 15003KT 050V170 CAVOK 01/M02 Q1018 NOSIG",
      "taf": "TAF LATI 281700Z 2818/2918 VRB05KT CAVOK TX15/2912Z TNM01/2905Z"
    },
    {
      "icao": "LBPD",
      "alert": "OK",
      "vis_m": 9999,
      "fzfg": false,
      "metar_trigger": false,
      "taf_trigger": false,
      "metar": "METAR LBPD 282200Z AUTO 28021KT 9999 NCD 03/M06 Q1016",
      "taf": "TAF LBPD 281700Z 2818/2918 28020G32KT 9999 SCT050"
    },
    {
      "icao": "LBSF",
      "alert": "OK",
      "vis_m": 9999,
      "fzfg": false,
      "metar_trigger": false,
      "taf_trigger": false,
      "metar": "METAR LBSF 282200Z AUTO 28015KT 9999 FEW033/// M00/M06 Q1017 NOSIG",
      "taf": "TAF LBSF 281700Z 2818/2918 29018G30KT 9999 SCT025"
    },
    {
      "icao": "LBWN",
      "alert": "OK",
      "vis_m": 9999,
      "fzfg": false,
      "metar_trigger": false,
      "taf_trigger": false,
      "metar": "METAR LBWN 282200Z AUTO 27010KT 9999 NSC 01/M03 Q1012 NOSIG",
      "taf": "TAF LBWN 281700Z 2818/2918 29018G34KT 9999 SCT045"
    },
    {
      "icao": "LCLK",
      "alert": "OK",
      "vis_m": 9999,
      "fzfg": false,
      "metar_trigger": false,
      "taf_trigger": false,
      "metar": "METAR LCLK 282200Z 22013KT 9999 FEW020 13/07 Q1006 NOSIG",
      "taf": "TAF LCLK 281730Z 2818/2918 30008KT 9999 FEW030 SCT060"
    },
    {
      "icao": "LCPH",
      "alert": "OK",
      "vis_m": 9999,
      "fzfg": false,
      "metar_trigger": false,
      "taf_trigger": false,
      "metar": "METAR LCPH 282200Z 28020KT 250V320 9999 FEW030TCU BKN040 BKN070 16/11 Q1006 TEMPO 5000 SHRA",
      "taf": "TAF LCPH 281730Z 2818/2918 30014KT 9999 FEW030 SCT060"
    },
    {
      "icao": "LEAL",
      "alert": "OK",
      "vis_m": 9999,
      "fzfg": false,
      "metar_trigger": false,
      "taf_trigger": false,
      "metar": "METAR LEAL 282200Z 02005KT 350V070 9999 FEW015 SCT025 14/12 Q1016 NOSIG",
      "taf": "TAF LEAL 281700Z 2818/2918 07012KT 9999 BKN020 TX16/2913Z TN08/2906Z"
    },
    {
      "icao": "LEBB",
      "alert": "OK",
      "vis_m": 9999,
      "fzfg": false,
      "metar_trigger": false,
      "taf_trigger": false,
      "metar": "METAR LEBB 282200Z 10004KT 070V150 CAVOK 06/05 Q1020 NOSIG",
      "taf": "TAF LEBB 281700Z 2818/2918 11008KT 9999 FEW040 TX15/2914Z TN04/2908Z"
    },
    {
      "icao": "LEBL",
      "alert": "OK",
      "vis_m": 9999,
      "fzfg": false,
      "metar_trigger": false,
      "taf_trigger": false,
      "metar": "METAR LEBL 282200Z 01004KT 9999 FEW015 12/11 Q1020 NOSIG",
      "taf": ""
    },
    {
      "icao": "LECH",
      "alert": "OK",
      "vis_m": 9999,
      "fzfg": false,
      "metar_trigger": false,
      "taf_trigger": false,
      "metar": "METAR LECH 282200Z AUTO 02007KT 340V060 9999 OVC015 09/08 Q1019",
      "taf": ""
    },
    {
      "icao": "LEMD",
      "alert": "OK",
      "vis_m": 9999,
      "fzfg": false,
      "metar_trigger": false,
      "taf_trigger": false,
      "metar": "METAR LEMD 282200Z 02003KT 340V070 9999 BKN050 08/04 Q1017 NOSIG",
      "taf": "TAF LEMD 281700Z 2818/2924 02006KT 9999 SCT040 TX11/2915Z TN03/2907Z"
    },
    {
      "icao": "LEMG",
      "alert": "OK",
      "vis_m": 9999,
      "fzfg": false,
      "metar_trigger": false,
      "taf_trigger": false,
      "metar": "METAR LEMG 282200Z 30008KT 9999 FEW025 08/07 Q1014 NOSIG",
      "taf": "TAF LEMG 281700Z 2818/2918 29006KT 9999 FEW025 SCT040 TX16/2914Z TN09/2906Z"
    },
    {
      "icao": "LEVC",
      "alert": "OK",
      "vis_m": 6000,
      "fzfg": false,
      "metar_trigger": false,
      "taf_trigger": false,
      "metar": "METAR LEVC 282200Z 32011KT 6000 SHRA VCTS FEW015 SCT025CB OVC050 09/08 Q1019 NOSIG",
      "taf": "TAF LEVC 281700Z 2818/2918 05010KT 7000 FEW015 OVC030 TX15/2913Z TN06/2906Z"
    },
    {
      "icao": "LEXJ",
      "alert": "OK",
      "vis_m": 6000,
      "fzfg": false,
      "metar_trigger": false,
      "taf_trigger": false,
      "metar": "METAR LEXJ 282200Z VRB02KT 6000 NSC 08/07 Q1019",
      "taf": "TAF LEXJ 282000Z 2821/2921 19009KT CAVOK TX15/2913Z TN07/2906Z"
    },
    {
      "icao": "LEZG",
      "alert": "OK",
      "vis_m": 9999,
      "fzfg": false,
      "metar_trigger": false,
      "taf_trigger": false,
      "metar": "METAR LEZG 282200Z VRB02KT 9999 BKN025 08/08 Q1020 NOSIG",
      "taf": ""
    },
    {
      "icao": "LEZL",
      "alert": "OK",
      "vis_m": 9999,
      "fzfg": false,
      "metar_trigger": false,
      "taf_trigger": false,
      "metar": "METAR LEZL 282200Z 03005KT CAVOK 09/09 Q1014 NOSIG",
      "taf": "TAF LEZL 282000Z 2821/2921 03006KT 9999 FEW030 TX16/2915Z TN05/2906Z"
    },
    {
      "icao": "LFBD",
      "alert": "OK",
      "vis_m": 9999,
      "fzfg": false,
      "metar_trigger": false,
      "taf_trigger": false,
      "metar": "METAR LFBD 282200Z AUTO 05005KT CAVOK 03/01 Q1020 TEMPO 4000 BR",
      "taf": "TAF LFBD 281700Z 2818/2924 02005KT CAVOK TX09/2913Z TN00/2908Z"
    },
    {
      "icao": "LFLL",
      "alert": "OK",
      "vis_m": 8000,
      "fzfg": false,
      "metar_trigger": false,
      "taf_trigger": false,
      "metar": "METAR LFLL 282200Z VRB02KT 8000 OVC007 M01/M02 Q1024 NOSIG",
      "taf": "TAF LFLL 281700Z 2818/2924 VRB03KT 6000 OVC006"
    },
    {
      "icao": "LFLS",
      "alert": "OK",
      "vis_m": 4900,
      "fzfg": false,
      "metar_trigger": false,
      "taf_trigger": false,
      "metar": "METAR LFLS 282200Z AUTO VRB03KT 4900 BR NSC M04/M04 Q1022",
      "taf": "TAF LFLS 281400Z 2815/2915 03007KT CAVOK"
    },
    {
      "icao": "LFMN",
      "alert": "OK",
      "vis_m": 9999,
      "fzfg": false,
      "metar_trigger": false,
      "taf_trigger": false,
      "metar": "METAR LFMN 282200Z 33010KT CAVOK 07/M00 Q1021 NOSIG",
      "taf": "TAF LFMN 282000Z 2821/3003 33012KT CAVOK"
    },
    {
      "icao": "LFOB",
      "alert": "OK",
      "vis_m": 9999,
      "fzfg": false,
      "metar_trigger": false,
      "taf_trigger": false,
      "metar": "METAR LFOB 282200Z AUTO 36004KT CAVOK M01/M01 Q1026",
      "taf": ""
    },
    {
      "icao": "LFPO",
      "alert": "OK",
      "vis_m": 9999,
      "fzfg": false,
      "metar_trigger": false,
      "taf_trigger": false,
      "metar": "METAR LFPO 282200Z 01004KT 330V050 CAVOK M01/M02 Q1025 NOSIG",
      "taf": "TAF LFPO 281700Z 2818/2924 03006KT CAVOK"
    },
    {
      "icao": "LFSB",
      "alert": "OK",
      "vis_m": 450,
      "fzfg": true,
      "metar_trigger": false,
      "taf_trigger": false,
      "metar": "METAR LFSB 282200Z AUTO VRB02KT 0450 0350 R15/0600N R33/0650N FZFG VV/// M03/M03 Q1024 NOSIG",
      "taf": ""
    },
    {
      "icao": "LGAV",
      "alert": "OK",
      "vis_m": 9999,
      "fzfg": false,
      "metar_trigger": false,
      "taf_trigger": false,
      "metar": "METAR LGAV 282150Z 34006KT CAVOK 09/01 Q1015 NOSIG",
      "taf": "TAF LGAV 281700Z 2818/2918 34012KT 9999 FEW020"
    },
    {
      "icao": "LGTS",
      "alert": "OK",
      "vis_m": 9999,
      "fzfg": false,
      "metar_trigger": false,
      "taf_trigger": false,
      "metar": "METAR LGTS 282150Z 33012KT CAVOK 06/M04 Q1018 NOSIG",
      "taf": "TAF LGTS 281700Z 2818/2918 33015G25KT 9999 FEW030"
    },
    {
      "icao": "LHBP",
      "alert": "OK",
      "vis_m": 9999,
      "fzfg": false,
      "metar_trigger": false,
      "taf_trigger": false,
      "metar": "METAR LHBP 282200Z 31014KT CAVOK M00/M04 Q1020 NOSIG",
      "taf": "TAF LHBP 281715Z 2818/2918 31015KT CAVOK"
    },
    {
      "icao": "LHDC",
      "alert": "OK",
      "vis_m": 9999,
      "fzfg": false,
      "metar_trigger": false,
      "taf_trigger": false,
      "metar": "METAR LHDC 282145Z AUTO VRB02KT CAVOK M04/M06 Q1020",
      "taf": "TAF LHDC 281115Z 2812/2821 30014KT CAVOK"
    },
    {
      "icao": "LIBD",
      "alert": "OK",
      "vis_m": 9999,
      "fzfg": false,
      "metar_trigger": false,
      "taf_trigger": false,
      "metar": "METAR LIBD 282150Z 27008KT CAVOK 09/04 Q1020",
      "taf": "TAF LIBD 281700Z 2818/2918 28012KT CAVOK"
    },
    {
      "icao": "LIBG",
      "alert": "OK",
      "vis_m": null,
      "fzfg": false,
      "metar_trigger": false,
      "taf_trigger": false,
      "metar": "",
      "taf": "TAF LIBG 281700Z 2818/2903 35012KT CAVOK"
    },
    {
      "icao": "LIBP",
      "alert": "OK",
      "vis_m": 9999,
      "fzfg": false,
      "metar_trigger": false,
      "taf_trigger": false,
      "metar": "METAR LIBP 282150Z AUTO 24005KT 9999 NCD 02/01 Q1023",
      "taf": "TAF LIBP 281700Z 2818/2918 VRB05KT CAVOK"
    },
    {
      "icao": "LIBR",
      "alert": "OK",
      "vis_m": 9999,
      "fzfg": false,
      "metar_trigger": false,
      "taf_trigger": false,
      "metar": "METAR LIBR 282150Z 35013KT 9999 FEW040 14/06 Q1018",
      "taf": "TAF LIBR 281700Z 2818/2918 33015KT 9999 FEW025"
    },
    {
      "icao": "LICA",
      "alert": "OK",
      "vis_m": 9999,
      "fzfg": false,
      "metar_trigger": false,
      "taf_trigger": false,
      "metar": "METAR LICA 282150Z AUTO VRB02KT 9999 BKN036/// 10/07 Q1020",
      "taf": "TAF LICA 281700Z 2818/2918 27010KT CAVOK"
    },
    {
      "icao": "LICC",
      "alert": "OK",
      "vis_m": 9999,
      "fzfg": false,
      "metar_trigger": false,
      "taf_trigger": false,
      "metar": "METAR LICC 282150Z 27005KT CAVOK 07/04 Q1019",
      "taf": "TAF LICC 281700Z 2818/2918 VRB05KT 9999 FEW030"
    },
    {
      "icao": "LICJ",
      "alert": "OK",
      "vis_m": 9999,
      "fzfg": false,
      "metar_trigger": false,
      "taf_trigger": false,
      "metar": "METAR LICJ 282150Z AUTO 10009KT 9999 NCD 13/07 Q1020",
      "taf": "TAF LICJ 281700Z 2818/2918 04010KT CAVOK"
    },
    {
      "icao": "LIMC",
      "alert": "OK",
      "vis_m": 9999,
      "fzfg": false,
      "metar_trigger": false,
      "taf_trigger": false,
      "metar": "METAR LIMC 282150Z 02005KT CAVOK M00/M02 Q1023 NOSIG",
      "taf": "TAF LIMC 281700Z 2818/2924 VRB05KT CAVOK"
    },
    {
      "icao": "LIME",
      "alert": "OK",
      "vis_m": 9999,
      "fzfg": false,
      "metar_trigger": false,
      "taf_trigger": false,
      "metar": "METAR LIME 282150Z 02004KT CAVOK 02/M00 Q1023 NOSIG",
      "taf": "TAF LIME 281700Z 2818/2918 VRB05KT CAVOK"
    },
    {
      "icao": "LIMF",
      "alert": "OK",
      "vis_m": 9999,
      "fzfg": false,
      "metar_trigger": false,
      "taf_trigger": false,
      "metar": "METAR LIMF 282150Z 31004KT CAVOK 02/M03 Q1024",
      "taf": "TAF LIMF 281700Z 2818/2918 VRB05KT CAVOK"
    },
    {
      "icao": "LIMJ",
      "alert": "OK",
      "vis_m": 9999,
      "fzfg": false,
      "metar_trigger": false,
      "taf_trigger": false,
      "metar": "METAR LIMJ 282150Z 04010KT CAVOK 10/M00 Q1021",
      "taf": "TAF LIMJ 281700Z 2818/2918 03005KT 9999 FEW020"
    },
    {
      "icao": "LIPE",
      "alert": "OK",
      "vis_m": 9999,
      "fzfg": false,
      "metar_trigger": false,
      "taf_trigger": false,
      "metar": "METAR LIPE 282150Z 24004KT CAVOK 01/01 Q1023",
      "taf": "TAF LIPE 281700Z 2818/2918 VRB06KT CAVOK"
    },
    {
      "icao": "LIPH",
      "alert": "OK",
      "vis_m": 9999,
      "fzfg": false,
      "metar_trigger": false,
      "taf_trigger": false,
      "metar": "METAR LIPH 282150Z VRB02KT CAVOK 03/01 Q1023",
      "taf": "TAF LIPH 281700Z 2818/2918 VRB05KT CAVOK"
    },
    {
      "icao": "LIPQ",
      "alert": "OK",
      "vis_m": 9999,
      "fzfg": false,
      "metar_trigger": false,
      "taf_trigger": false,
      "metar": "METAR LIPQ 282150Z AUTO 02003KT 9999 NCD M00/M02 Q1023",
      "taf": "TAF LIPQ 281700Z 2818/2918 VRB05KT CAVOK"
    },
    {
      "icao": "LIPR",
      "alert": "OK",
      "vis_m": 9999,
      "fzfg": false,
      "metar_trigger": false,
      "taf_trigger": false,
      "metar": "METAR LIPR 282150Z 26003KT CAVOK 01/00 Q1023",
      "taf": "TAF LIPR 281700Z 2818/2918 VRB06KT CAVOK"
    },
    {
      "icao": "LIPX",
      "alert": "OK",
      "vis_m": 9999,
      "fzfg": false,
      "metar_trigger": false,
      "taf_trigger": false,
      "metar": "METAR LIPX 282150Z 34005KT CAVOK 01/M01 Q1023",
      "taf": "TAF LIPX 281700Z 2818/2918 VRB05KT CAVOK"
    },
    {
      "icao": "LIPY",
      "alert": "OK",
      "vis_m": 9999,
      "fzfg": false,
      "metar_trigger": false,
      "taf_trigger": false,
      "metar": "METAR LIPY 282150Z AUTO 20004KT 9999 NCD 03/03 Q1023",
      "taf": "TAF LIPY 281700Z 2818/2918 VRB05KT CAVOK"
    },
    {
      "icao": "LIPZ",
      "alert": "OK",
      "vis_m": 9999,
      "fzfg": false,
      "metar_trigger": false,
      "taf_trigger": false,
      "metar": "METAR LIPZ 282150Z 04005KT CAVOK 03/M01 Q1023 NOSIG",
      "taf": "TAF LIPZ 281700Z 2818/2924 VRB05KT CAVOK"
    },
    {
      "icao": "LIRF",
      "alert": "OK",
      "vis_m": 9999,
      "fzfg": false,
      "metar_trigger": false,
      "taf_trigger": false,
      "metar": "METAR LIRF 282150Z 07004KT CAVOK 04/02 Q1020 NOSIG",
      "taf": "TAF LIRF 281700Z 2818/2924 VRB05KT CAVOK"
    },
    {
      "icao": "LIRN",
      "alert": "OK",
      "vis_m": 9999,
      "fzfg": false,
      "metar_trigger": false,
      "taf_trigger": false,
      "metar": "METAR LIRN 282150Z 32005KT 280V020 CAVOK 09/02 Q1020 NOSIG",
      "taf": "TAF LIRN 281700Z 2818/2918 VRB05KT CAVOK"
    },
    {
      "icao": "LIRP",
      "alert": "OK",
      "vis_m": 9999,
      "fzfg": false,
      "metar_trigger": false,
      "taf_trigger": false,
      "metar": "METAR LIRP 282145Z VRB01KT CAVOK 03/03 Q1021 NOSIG",
      "taf": "TAF LIRP 281700Z 2818/2918 12005KT CAVOK"
    },
    {
      "icao": "LIRZ",
      "alert": "OK",
      "vis_m": 9999,
      "fzfg": false,
      "metar_trigger": false,
      "taf_trigger": false,
      "metar": "METAR LIRZ 282150Z AUTO 01003KT 320V030 9999 NCD M00/M01 Q1021",
      "taf": "TAF LIRZ 281700Z 2818/2918 02010KT CAVOK"
    },
    {
      "icao": "LJLJ",
      "alert": "OK",
      "vis_m": 9999,
      "fzfg": false,
      "metar_trigger": false,
      "taf_trigger": false,
      "metar": "METAR LJLJ 282200Z 26003KT 9999 OVC006 00/M01 Q1025 NOSIG",
      "taf": "TAF LJLJ 281700Z 2818/2918 VRB02KT 7000 FEW003 OVC012"
    },
    {
      "icao": "LKMT",
      "alert": "OK",
      "vis_m": 9999,
      "fzfg": false,
      "metar_trigger": false,
      "taf_trigger": false,
      "metar": "METAR LKMT 282200Z 21004KT CAVOK M04/M06 Q1023 NOSIG",
      "taf": "TAF LKMT 281700Z 2818/2918 35008KT 9999 BKN030"
    },
    {
      "icao": "LKPR",
      "alert": "OK",
      "vis_m": 9999,
      "fzfg": false,
      "metar_trigger": false,
      "taf_trigger": false,
      "metar": "METAR LKPR 282200Z 20006KT CAVOK M05/M07 Q1024 NOSIG",
      "taf": "TAF LKPR 282000Z 2821/3003 23008KT CAVOK"
    },
    {
      "icao": "LLBG",
      "alert": "OK",
      "vis_m": 9999,
      "fzfg": false,
      "metar_trigger": false,
      "taf_trigger": false,
      "metar": "METAR LLBG 282150Z 17011KT 9999 BKN048 14/11 Q1011 NOSIG",
      "taf": "TAF LLBG 281705Z 2818/2918 22012KT 9999 SCT035"
    },
    {
      "icao": "LMML",
      "alert": "OK",
      "vis_m": 9999,
      "fzfg": false,
      "metar_trigger": false,
      "taf_trigger": false,
      "metar": "METAR LMML 282145Z 25004KT CAVOK 12/10 Q1020 NOSIG",
      "taf": "TAF LMML 281700Z 2818/2918 29007KT 9999 SCT019"
    },
    {
      "icao": "LOWW",
      "alert": "OK",
      "vis_m": 9999,
      "fzfg": false,
      "metar_trigger": false,
      "taf_trigger": false,
      "metar": "METAR LOWW 282150Z 31009KT CAVOK M00/M05 Q1024 NOSIG",
      "taf": "TAF LOWW 282015Z 2821/3003 32012KT CAVOK TX03/2913Z TNM04/2906Z"
    },
    {
      "icao": "LPFR",
      "alert": "OK",
      "vis_m": 9999,
      "fzfg": false,
      "metar_trigger": false,
      "taf_trigger": false,
      "metar": "METAR LPFR 282200Z 36005KT 9999 FEW025 09/08 Q1015",
      "taf": "TAF LPFR 281700Z 2818/2918 06008KT 9999 SCT020"
    },
    {
      "icao": "LPMA",
      "alert": "OK",
      "vis_m": 9999,
      "fzfg": false,
      "metar_trigger": false,
      "taf_trigger": false,
      "metar": "METAR LPMA 282200Z 33005KT 9999 SCT016 16/10 Q1020",
      "taf": "TAF LPMA 281700Z 2818/2918 34008KT 9999 SCT015"
    },
    {
      "icao": "LPPR",
      "alert": "OK",
      "vis_m": 9999,
      "fzfg": false,
      "metar_trigger": false,
      "taf_trigger": false,
      "metar": "METAR LPPR 282200Z 00000KT CAVOK 07/05 Q1017",
      "taf": "TAF LPPR 281700Z 2818/2918 VRB02KT CAVOK"
    },
    {
      "icao": "LPPS",
      "alert": "OK",
      "vis_m": 9999,
      "fzfg": false,
      "metar_trigger": false,
      "taf_trigger": false,
      "metar": "METAR LPPS 282200Z 01003KT 9999 FEW015 14/08 Q1020",
      "taf": "TAF LPPS 281700Z 2818/2924 35008KT 9999 SCT015"
    },
    {
      "icao": "LPPT",
      "alert": "OK",
      "vis_m": 9999,
      "fzfg": false,
      "metar_trigger": false,
      "taf_trigger": false,
      "metar": "METAR LPPT 282200Z 36005KT 340V040 CAVOK 10/07 Q1017",
      "taf": "TAF LPPT 281700Z 2818/2924 02007KT 9999 FEW020"
    },
    {
      "icao": "LQBK",
      "alert": "OK",
      "vis_m": 9999,
      "fzfg": false,
      "metar_trigger": false,
      "taf_trigger": false,
      "metar": "METAR LQBK 282200Z 16005KT CAVOK M04/M04 Q1026 NOSIG",
      "taf": "TAF LQBK 281700Z 2818/2918 18005KT CAVOK TX04/2913Z TNM05/2905Z"
    },
    {
      "icao": "LQSA",
      "alert": "OK",
      "vis_m": 9999,
      "fzfg": false,
      "metar_trigger": false,
      "taf_trigger": false,
      "metar": "METAR LQSA 282200Z 18001KT CAVOK M05/M05 Q1024",
      "taf": "TAF LQSA 281700Z 2818/2918 VRB02KT CAVOK TX04/2913Z TNM07/2905Z"
    },
    {
      "icao": "LQTZ",
      "alert": "OK",
      "vis_m": 9999,
      "fzfg": false,
      "metar_trigger": false,
      "taf_trigger": false,
      "metar": "METAR LQTZ 282200Z 30003KT CAVOK M04/M04 Q1025",
      "taf": "TAF LQTZ 281700Z 2818/2918 35005KT 9999 SCT035 TX05/2913Z TNM05/2905Z"
    },
    {
      "icao": "LRBC",
      "alert": "OK",
      "vis_m": 9999,
      "fzfg": false,
      "metar_trigger": false,
      "taf_trigger": false,
      "metar": "METAR LRBC 282200Z 32021KT 9999 OVC065 03/M07 Q1009",
      "taf": "TAF LRBC 282000Z 2821/2906 32010KT 9999 OVC050"
    },
    {
      "icao": "LRBS",
      "alert": "OK",
      "vis_m": 9999,
      "fzfg": false,
      "metar_trigger": false,
      "taf_trigger": false,
      "metar": "METAR LRBS 282200Z 27010KT 230V310 CAVOK 01/M05 Q1013 NOSIG",
      "taf": "TAF LRBS 281700Z 2818/2918 27009KT CAVOK"
    },
    {
      "icao": "LRBV",
      "alert": "OK",
      "vis_m": 9999,
      "fzfg": false,
      "metar_trigger": false,
      "taf_trigger": false,
      "metar": "METAR LRBV 282200Z AUTO 29021G34KT 9999 SG OVC039/// M01/M08 Q1011",
      "taf": "TAF LRBV 282000Z 2821/2906 30018G30KT 9999 OVC030"
    },
    {
      "icao": "LRCL",
      "alert": "OK",
      "vis_m": 9999,
      "fzfg": false,
      "metar_trigger": false,
      "taf_trigger": false,
      "metar": "METAR LRCL 282200Z 29017KT 9999 BKN056 01/M07 Q1016",
      "taf": "TAF LRCL 282000Z 2821/2906 30017KT 9999 SCT025 BKN045"
    },
    {
      "icao": "LRCV",
      "alert": "OK",
      "vis_m": 9999,
      "fzfg": false,
      "metar_trigger": false,
      "taf_trigger": false,
      "metar": "METAR LRCV 282200Z 28013KT CAVOK 00/M03 Q1015",
      "taf": "TAF LRCV 282000Z 2821/2906 28014KT CAVOK"
    },
    {
      "icao": "LRIA",
      "alert": "OK",
      "vis_m": 9999,
      "fzfg": false,
      "metar_trigger": false,
      "taf_trigger": false,
      "metar": "METAR LRIA 282200Z 29015KT 9999 FEW012 BKN036 01/M02 Q1007",
      "taf": "TAF LRIA 282000Z 2821/2906 30020KT 9999 SCT010 OVC030"
    },
    {
      "icao": "LROP",
      "alert": "OK",
      "vis_m": 9999,
      "fzfg": false,
      "metar_trigger": false,
      "taf_trigger": false,
      "metar": "METAR LROP 282200Z 26012KT CAVOK 01/M08 Q1012 NOSIG",
      "taf": "TAF LROP 281700Z 2818/2918 27010KT CAVOK"
    },
    {
      "icao": "LRSB",
      "alert": "OK",
      "vis_m": 9999,
      "fzfg": false,
      "metar_trigger": false,
      "taf_trigger": false,
      "metar": "METAR LRSB 282200Z 29017KT 9999 FEW040 BKN050 01/M06 Q1015",
      "taf": "TAF LRSB 281700Z 2818/2918 29020KT 9999 BKN040 BKN060"
    },
    {
      "icao": "LRSM",
      "alert": "OK",
      "vis_m": 9999,
      "fzfg": false,
      "metar_trigger": false,
      "taf_trigger": false,
      "metar": "METAR LRSM 282200Z AUTO 30012KT 9999 OVC048/// 01/M05 Q1018",
      "taf": "TAF LRSM 281100Z 2812/2821 31015KT 9999 BKN030"
    },
    {
      "icao": "LRSV",
      "alert": "OK",
      "vis_m": 8000,
      "fzfg": false,
      "metar_trigger": false,
      "taf_trigger": false,
      "metar": "METAR LRSV 282200Z 32021G32KT 8000 -SN DRSN BKN035 M00/M06 Q1007",
      "taf": "TAF LRSV 282000Z 2821/2906 31020KT 9999 BKN030"
    },
    {
      "icao": "LRTM",
      "alert": "OK",
      "vis_m": 9999,
      "fzfg": false,
      "metar_trigger": false,
      "taf_trigger": false,
      "metar": "METAR LRTM 282200Z AUTO 28016KT 9999 R25////// FEW037/// BKN055/// 01/M06 Q1015",
      "taf": "TAF LRTM 281400Z 2815/2824 28018KT 9999 BKN035"
    },
    {
      "icao": "LRTR",
      "alert": "OK",
      "vis_m": 9999,
      "fzfg": false,
      "metar_trigger": false,
      "taf_trigger": false,
      "metar": "METAR LRTR 282200Z 28008KT CAVOK M03/M04 Q1021",
      "taf": "TAF LRTR 281700Z 2818/2918 29008KT CAVOK"
    },
    {
      "icao": "LTAC",
      "alert": "OK",
      "vis_m": 9999,
      "fzfg": false,
      "metar_trigger": false,
      "taf_trigger": false,
      "metar": "METAR LTAC 282150Z 28009KT 9999 FEW015 BKN030 BKN080 M02/M05 Q1005 NOSIG RMK RWY21C 27009KT RWY03L 27009KT RWY21R 26008KT RWY03R 24007KT RWY21L 25006KT",
      "taf": "TAF LTAC 281640Z 2818/2918 26012KT 9999 SCT030 BKN080"
    },
    {
      "icao": "LTFM",
      "alert": "OK",
      "vis_m": 9999,
      "fzfg": false,
      "metar_trigger": false,
      "taf_trigger": false,
      "metar": "METAR LTFM 282150Z 26008KT 9999 SCT035 01/M04 Q1013 NOSIG RMK RWY17L 26008KT RWY34L 26007KT RWY16R 26008KT RWY36 27008KT RWY18 27011KT",
      "taf": "TAF LTFM 281640Z 2818/2924 30012KT 9999 SCT035"
    },
    {
      "icao": "LUKK",
      "alert": "OK",
      "vis_m": 9999,
      "fzfg": false,
      "metar_trigger": false,
      "taf_trigger": false,
      "metar": "METAR LUKK 282200Z 34015G28KT 310V010 9999 -SHSN SCT004 SCT013 OVC032CB M00/M01 Q1004 RESHSN TEMPO 33022G34KT 0900 +SHSN BLSN BKN006 SCT025CB",
      "taf": ""
    },
    {
      "icao": "LWOH",
      "alert": "OK",
      "vis_m": null,
      "fzfg": false,
      "metar_trigger": false,
      "taf_trigger": false,
      "metar": "",
      "taf": "TAF LWOH 282030Z 2821/2921 33008KT CAVOK"
    },
    {
      "icao": "LWSK",
      "alert": "OK",
      "vis_m": 9999,
      "fzfg": false,
      "metar_trigger": false,
      "taf_trigger": false,
      "metar": "METAR LWSK 282150Z 28004KT 260V330 CAVOK M00/M06 Q1022 NOSIG",
      "taf": "TAF LWSK 282030Z 2821/2921 36012KT CAVOK"
    },
    {
      "icao": "LYBE",
      "alert": "OK",
      "vis_m": 9999,
      "fzfg": false,
      "metar_trigger": false,
      "taf_trigger": false,
      "metar": "METAR LYBE 282200Z 27012KT CAVOK 00/M03 Q1023 NOSIG",
      "taf": "TAF LYBE 281700Z 2818/2918 29012KT CAVOK TX06/2912Z TNM03/2906Z"
    },
    {
      "icao": "LYNI",
      "alert": "OK",
      "vis_m": 9999,
      "fzfg": false,
      "metar_trigger": false,
      "taf_trigger": false,
      "metar": "METAR LYNI 282200Z 29010KT 250V320 9999 BKN037 02/M04 Q1022 NOSIG",
      "taf": "TAF LYNI 281700Z 2818/2918 30007KT 9999 BKN033 TX06/2912Z TNM03/2906Z"
    },
    {
      "icao": "LYPG",
      "alert": "OK",
      "vis_m": 9999,
      "fzfg": false,
      "metar_trigger": false,
      "taf_trigger": false,
      "metar": "METAR LYPG 282200Z 35019KT CAVOK 07/M09 Q1020 NOSIG",
      "taf": "TAF LYPG 281700Z 2818/2918 36017G27KT CAVOK TX12/2913Z TN01/2906Z"
    },
    {
      "icao": "LZIB",
      "alert": "OK",
      "vis_m": 9999,
      "fzfg": false,
      "metar_trigger": false,
      "taf_trigger": false,
      "metar": "METAR LZIB 282200Z 31010KT CAVOK 01/M04 Q1024 NOSIG",
      "taf": "TAF LZIB 281715Z 2818/2918 33015KT CAVOK"
    },
    {
      "icao": "LZKZ",
      "alert": "OK",
      "vis_m": 9999,
      "fzfg": false,
      "metar_trigger": false,
      "taf_trigger": false,
      "metar": "METAR LZKZ 282200Z 28005KT CAVOK M03/M07 Q1018 NOSIG",
      "taf": "TAF LZKZ 281715Z 2818/2918 33010KT CAVOK"
    },
    {
      "icao": "LZTT",
      "alert": "OK",
      "vis_m": 9999,
      "fzfg": false,
      "metar_trigger": false,
      "taf_trigger": false,
      "metar": "METAR LZTT 282200Z 27018KT 9999 FEW076 M02/M09 Q1015",
      "taf": "TAF LZTT 281715Z 2818/2918 28018KT 9999 FEW030"
    },
    {
      "icao": "OEJN",
      "alert": "OK",
      "vis_m": 9999,
      "fzfg": false,
      "metar_trigger": false,
      "taf_trigger": false,
      "metar": "METAR OEJN 282200Z 03005KT CAVOK 21/16 Q1013 NOSIG",
      "taf": "TAF OEJN 281700Z 2818/2924 04008KT 7000 NSC"
    },
    {
      "icao": "OEMA",
      "alert": "OK",
      "vis_m": 9999,
      "fzfg": false,
      "metar_trigger": false,
      "taf_trigger": false,
      "metar": "METAR OEMA 282200Z 25004KT CAVOK 18/08 Q1016 NOSIG",
      "taf": "TAF OEMA 281700Z 2818/2924 26008KT 7000 NSC"
    },
    {
      "icao": "OJAI",
      "alert": "OK",
      "vis_m": 3500,
      "fzfg": false,
      "metar_trigger": false,
      "taf_trigger": false,
      "metar": "METAR OJAI 282200Z 27014KT 3500 DZ SCT030 SCT035 08/07 Q1011 NOSIG",
      "taf": "TAF OJAI 281700Z 2818/2924 29018G36KT 3000 RA BR SCT025TCU BKN030"
    },
    {
      "icao": "OMAA",
      "alert": "OK",
      "vis_m": 9999,
      "fzfg": false,
      "metar_trigger": false,
      "taf_trigger": false,
      "metar": "METAR OMAA 282200Z 13006KT CAVOK 22/12 Q1011 NOSIG",
      "taf": "TAF OMAA 281700Z 2818/3000 15005KT 8000 NSC"
    },
    {
      "icao": "OMDB",
      "alert": "OK",
      "vis_m": 9999,
      "fzfg": false,
      "metar_trigger": false,
      "taf_trigger": false,
      "metar": "METAR OMDB 282200Z 12004KT 050V160 CAVOK 22/16 Q1011 NOSIG",
      "taf": "TAF OMDB 281700Z 2818/3000 16008KT 8000 NSC"
    },
    {
      "icao": "UAAA",
      "alert": "OK",
      "vis_m": 1700,
      "fzfg": false,
      "metar_trigger": false,
      "taf_trigger": false,
      "metar": "METAR UAAA 282200Z VRB01MPS 1700 R05R/P2000N BR BKN100 M02/M03 Q1013 NOSIG",
      "taf": "TAF UAAA 281701Z 2818/2918 23003MPS 1500 BR FU SCT050 BKN100 TX05/2909Z TNM04/2901Z"
    },
    {
      "icao": "UBBB",
      "alert": "OK",
      "vis_m": 9999,
      "fzfg": false,
      "metar_trigger": false,
      "taf_trigger": false,
      "metar": "METAR UBBB 282200Z 18006KT CAVOK 03/01 Q0999 NOSIG",
      "taf": "TAF UBBB 281712Z 2818/2918 28010KT 9999 SCT012 BKN020 TX09/2910Z TN02/2902Z"
    },
    {
      "icao": "UDSG",
      "alert": "OK",
      "vis_m": 9999,
      "fzfg": false,
      "metar_trigger": false,
      "taf_trigger": false,
      "metar": "METAR UDSG 282200Z 13005KT 9999 NSC M13/M16 Q1002 NOSIG",
      "taf": "TAF UDSG 281700Z 2818/2918 VRB06KT 9999 SCT040"
    },
    {
      "icao": "UDYZ",
      "alert": "OK",
      "vis_m": 9999,
      "fzfg": false,
      "metar_trigger": false,
      "taf_trigger": false,
      "metar": "METAR UDYZ 282200Z 36002KT 9999 FEW046 M09/M11 Q1004 NOSIG",
      "taf": "TAF UDYZ 281700Z 2818/2918 06006KT 6000 FEW040"
    },
    {
      "icao": "UGKO",
      "alert": "OK",
      "vis_m": 9999,
      "fzfg": false,
      "metar_trigger": false,
      "taf_trigger": false,
      "metar": "METAR UGKO 282200Z VRB02KT 9999 SCT088 00/M00 Q1002 NOSIG",
      "taf": "TAF UGKO 281700Z 2818/2918 08007KT 9999 SCT015 OVC045 TX02/2911Z TNM01/2904Z"
    }
  ]
}