{
  "ts_utc": "2026-02-03T04:42:25Z",
  "threshold_m": 150,
  "source": "stations_override.txt (ICAO list) + aviationweather.gov (METAR/TAF raw)",
  "station_count": 159,
  "stations": [
    {
      "icao": "BIKF",
      "alert": "OK",
      "vis_m": 9999,
      "fzfg": false,
      "metar_trigger": false,
      "taf_trigger": false,
      "metar": "METAR BIKF 030430Z 10021KT 9999 SCT046 BKN270 06/03 Q1005",
      "taf": "TAF BIKF 030112Z 0303/0403 10018KT 9999 -SHRA FEW020 BKN035 TX07/0303Z TN02/0400Z"
    },
    {
      "icao": "BKPR",
      "alert": "OK",
      "vis_m": 3000,
      "fzfg": false,
      "metar_trigger": false,
      "taf_trigger": false,
      "metar": "METAR BKPR 030430Z 15004KT 3000 BR BKN004 M01/M01 Q1015 TEMPO 1500 BR",
      "taf": "TAF BKPR 022330Z 0300/0324 17008KT 9999 SCT015"
    },
    {
      "icao": "EBCI",
      "alert": "OK",
      "vis_m": 8000,
      "fzfg": false,
      "metar_trigger": false,
      "taf_trigger": false,
      "metar": "METAR EBCI 030420Z 07007KT 8000 -SNRA FEW010 BKN014 02/00 Q0993 TEMPO 4000 -RADZ BR BKN008",
      "taf": "TAF EBCI 022300Z 0300/0406 10010KT 9999 SCT040"
    },
    {
      "icao": "EDDB",
      "alert": "OK",
      "vis_m": 9999,
      "fzfg": false,
      "metar_trigger": false,
      "taf_trigger": false,
      "metar": "METAR EDDB 030420Z AUTO 08014KT CAVOK M08/M15 Q1012 NOSIG",
      "taf": "TAF EDDB 022300Z 0300/0324 08013G23KT 9999 BKN025 OVC040"
    },
    {
      "icao": "EDDH",
      "alert": "OK",
      "vis_m": 9999,
      "fzfg": false,
      "metar_trigger": false,
      "taf_trigger": false,
      "metar": "METAR EDDH 030420Z AUTO 10013KT 9999 OVC031 M06/M11 Q1010 TEMPO 09015G25KT",
      "taf": "TAF EDDH 022300Z 0300/0406 09013KT 9999 BKN020 OVC035"
    },
    {
      "icao": "EDDK",
      "alert": "OK",
      "vis_m": 9999,
      "fzfg": false,
      "metar_trigger": false,
      "taf_trigger": false,
      "metar": "METAR EDDK 030420Z AUTO 10007KT 050V160 CAVOK 02/M02 Q0998 NOSIG",
      "taf": "TAF EDDK 022300Z 0300/0406 11010KT 9999 BKN020"
    },
    {
      "icao": "EDDN",
      "alert": "OK",
      "vis_m": 9999,
      "fzfg": false,
      "metar_trigger": false,
      "taf_trigger": false,
      "metar": "METAR EDDN 030420Z AUTO 10008KT 9999 BKN013 M02/M04 Q1002",
      "taf": "TAF EDDN 022300Z 0300/0324 10007KT 9999 BKN010"
    },
    {
      "icao": "EDDS",
      "alert": "OK",
      "vis_m": 9999,
      "fzfg": false,
      "metar_trigger": false,
      "taf_trigger": false,
      "metar": "METAR EDDS 030420Z AUTO 08008KT 060V120 CAVOK M00/M03 Q0997",
      "taf": ""
    },
    {
      "icao": "EDFH",
      "alert": "OK",
      "vis_m": 4900,
      "fzfg": false,
      "metar_trigger": false,
      "taf_trigger": false,
      "metar": "METAR EDFH 030420Z 14018KT 4900 -FZRA BR BKN003 BKN046 M01/M01 Q0995",
      "taf": "TAF EDFH 022300Z 0300/0324 13015KT 9999 OVC006"
    },
    {
      "icao": "EDJA",
      "alert": "OK",
      "vis_m": 5000,
      "fzfg": false,
      "metar_trigger": false,
      "taf_trigger": false,
      "metar": "METAR EDJA 030420Z AUTO 05010KT 5000 // OVC004/// M02/M03 Q0997",
      "taf": "TAF EDJA 030200Z 0303/0312 06007KT 6000 NSC"
    },
    {
      "icao": "EDLW",
      "alert": "OK",
      "vis_m": 9999,
      "fzfg": false,
      "metar_trigger": false,
      "taf_trigger": false,
      "metar": "METAR EDLW 030420Z 04010KT CAVOK M02/M04 Q0999",
      "taf": "TAF EDLW 030430Z 0305/0324 08010KT 9999 SCT045"
    },
    {
      "icao": "EDNY",
      "alert": "OK",
      "vis_m": 9999,
      "fzfg": false,
      "metar_trigger": false,
      "taf_trigger": false,
      "metar": "METAR EDNY 030420Z AUTO 04012KT 9999 // FEW095/// SCT110/// 01/M01 Q0996",
      "taf": "TAF EDNY 030200Z 0303/0312 03008KT CAVOK"
    },
    {
      "icao": "EDSB",
      "alert": "OK",
      "vis_m": 9000,
      "fzfg": false,
      "metar_trigger": false,
      "taf_trigger": false,
      "metar": "METAR EDSB 030420Z COR 01007KT 330V050 9000 NSC 02/00 Q0997",
      "taf": "TAF EDSB 022300Z 0300/0324 01010KT CAVOK"
    },
    {
      "icao": "EETN",
      "alert": "OK",
      "vis_m": 9999,
      "fzfg": false,
      "metar_trigger": false,
      "taf_trigger": false,
      "metar": "METAR EETN 030420Z 04006KT CAVOK M09/M11 Q1025 NOSIG",
      "taf": "TAF EETN 022330Z 0300/0324 01010KT CAVOK"
    },
    {
      "icao": "EFTU",
      "alert": "OK",
      "vis_m": 9999,
      "fzfg": false,
      "metar_trigger": false,
      "taf_trigger": false,
      "metar": "METAR EFTU 030420Z AUTO 04002KT CAVOK M20/M23 Q1028",
      "taf": "TAF EFTU 030226Z 0303/0403 02003KT CAVOK"
    },
    {
      "icao": "EGBB",
      "alert": "OK",
      "vis_m": 8000,
      "fzfg": false,
      "metar_trigger": false,
      "taf_trigger": false,
      "metar": "METAR EGBB 030420Z 08013KT 8000 BKN011 05/03 Q0993",
      "taf": "TAF EGBB 022302Z 0300/0324 08012KT 4000 BR BKN008"
    },
    {
      "icao": "EGGP",
      "alert": "OK",
      "vis_m": 9999,
      "fzfg": false,
      "metar_trigger": false,
      "taf_trigger": false,
      "metar": "METAR EGGP 030420Z AUTO 09011KT 9999 OVC020/// 05/02 Q0994",
      "taf": "TAF EGGP 022300Z 0300/0324 09014KT 9999 BKN030"
    },
    {
      "icao": "EGGW",
      "alert": "OK",
      "vis_m": 9000,
      "fzfg": false,
      "metar_trigger": false,
      "taf_trigger": false,
      "metar": "METAR EGGW 030420Z AUTO 09013KT 070V130 9000 OVC007 04/03 Q0992",
      "taf": "TAF EGGW 022253Z 0300/0324 09012KT 9999 BKN010"
    },
    {
      "icao": "EGKK",
      "alert": "OK",
      "vis_m": 9000,
      "fzfg": false,
      "metar_trigger": false,
      "taf_trigger": false,
      "metar": "METAR EGKK 030420Z 08011KT 9000 -RA BKN009 06/05 Q0991",
      "taf": "TAF EGKK 022254Z 0300/0406 08010KT 9999 SCT030"
    },
    {
      "icao": "EGNM",
      "alert": "OK",
      "vis_m": null,
      "fzfg": false,
      "metar_trigger": false,
      "taf_trigger": false,
      "metar": "",
      "taf": "TAF EGNM 021656Z 0218/0318 10015KT 3600 BR OVC005"
    },
    {
      "icao": "EGPD",
      "alert": "OK",
      "vis_m": 9999,
      "fzfg": false,
      "metar_trigger": false,
      "taf_trigger": false,
      "metar": "METAR EGPD 030420Z AUTO 10015KT 9999 -RA BKN011/// OVC016/// //////TCU 03/01 Q1005 TEMPO RASN BKN009",
      "taf": "TAF EGPD 022258Z 0300/0324 11013KT 9999 SCT008 BKN018"
    },
    {
      "icao": "EGPF",
      "alert": "OK",
      "vis_m": 9999,
      "fzfg": false,
      "metar_trigger": false,
      "taf_trigger": false,
      "metar": "METAR EGPF 030420Z AUTO 07014KT 9999 BKN017 OVC023 05/02 Q1000",
      "taf": "TAF EGPF 022254Z 0300/0324 08012KT 9999 SCT030"
    },
    {
      "icao": "EHBK",
      "alert": "OK",
      "vis_m": 9999,
      "fzfg": false,
      "metar_trigger": false,
      "taf_trigger": false,
      "metar": "METAR EHBK 030425Z AUTO 07012KT 050V110 9999 NSC 01/M01 Q0995",
      "taf": "TAF EHBK 022320Z 0300/0406 09010KT CAVOK"
    },
    {
      "icao": "EHEH",
      "alert": "OK",
      "vis_m": null,
      "fzfg": false,
      "metar_trigger": false,
      "taf_trigger": false,
      "metar": "",
      "taf": "TAF EHEH 021735Z 0218/0324 10009KT 9999 SCT023 BKN038"
    },
    {
      "icao": "EKBI",
      "alert": "OK",
      "vis_m": 9999,
      "fzfg": false,
      "metar_trigger": false,
      "taf_trigger": false,
      "metar": "METAR EKBI 030420Z AUTO 10020G30KT 070V130 9999 OVC029/// M03/M11 Q1013",
      "taf": "TAF EKBI 030227Z 0303/0403 10018KT 9999 BKN030"
    },
    {
      "icao": "EKCH",
      "alert": "OK",
      "vis_m": 9999,
      "fzfg": false,
      "metar_trigger": false,
      "taf_trigger": false,
      "metar": "METAR EKCH 030420Z AUTO 11019KT 9999 NCD M04/M09 Q1019 TEMPO 10018G28KT",
      "taf": "TAF EKCH 030227Z 0303/0403 10020G30KT 9999 FEW030"
    },
    {
      "icao": "ENAL",
      "alert": "OK",
      "vis_m": 9999,
      "fzfg": false,
      "metar_trigger": false,
      "taf_trigger": false,
      "metar": "METAR ENAL 030420Z AUTO 14014KT 9999 BKN030/// OVC035/// M02/M08 Q1019",
      "taf": "TAF ENAL 030200Z 0303/0312 14012KT 9999 BKN035"
    },
    {
      "icao": "ENBR",
      "alert": "OK",
      "vis_m": 9999,
      "fzfg": false,
      "metar_trigger": false,
      "taf_trigger": false,
      "metar": "METAR ENBR 030420Z 06004KT CAVOK M07/M17 Q1019 RMK WIND 1200FT 10007KT",
      "taf": "TAF ENBR 022300Z 0300/0324 09005KT 9999 BKN045"
    },
    {
      "icao": "ENGM",
      "alert": "OK",
      "vis_m": 9999,
      "fzfg": false,
      "metar_trigger": false,
      "taf_trigger": false,
      "metar": "METAR ENGM 030420Z 36002KT 9999 -SN OVC035 M10/M12 Q1025",
      "taf": "TAF ENGM 022300Z 0300/0324 05005KT 9999 -SN BKN030"
    },
    {
      "icao": "ENHD",
      "alert": "OK",
      "vis_m": 9999,
      "fzfg": false,
      "metar_trigger": false,
      "taf_trigger": false,
      "metar": "METAR ENHD 030420Z AUTO 08007KT 9999 NCD M05/M15 Q1019",
      "taf": "TAF ENHD 030200Z 0303/0312 12010KT CAVOK"
    },
    {
      "icao": "ENTC",
      "alert": "OK",
      "vis_m": 9999,
      "fzfg": false,
      "metar_trigger": false,
      "taf_trigger": false,
      "metar": "METAR ENTC 030420Z 19009KT 9999 BKN038 OVC048 M00/M03 Q1023 RMK WIND 2600FT 20008KT",
      "taf": "TAF ENTC 022300Z 0300/0324 21009KT 9999 FEW020 BKN050"
    },
    {
      "icao": "ENTO",
      "alert": "OK",
      "vis_m": 9999,
      "fzfg": false,
      "metar_trigger": false,
      "taf_trigger": false,
      "metar": "METAR ENTO 030420Z AUTO 09005KT 050V140 9999 FEW025/// OVC039/// M06/M10 Q1024",
      "taf": "TAF ENTO 022300Z 0300/0324 07005KT 9999 -SN BKN025"
    },
    {
      "icao": "ENVA",
      "alert": "OK",
      "vis_m": 9999,
      "fzfg": false,
      "metar_trigger": false,
      "taf_trigger": false,
      "metar": "METAR ENVA 030420Z 09008KT CAVOK M09/M17 Q1021 RMK WIND 670FT 13011KT",
      "taf": "TAF ENVA 022300Z 0300/0324 09007KT CAVOK"
    },
    {
      "icao": "ENZV",
      "alert": "OK",
      "vis_m": 9999,
      "fzfg": false,
      "metar_trigger": false,
      "taf_trigger": false,
      "metar": "METAR ENZV 030420Z COR 09010KT CAVOK M04/M15 Q1019",
      "taf": "TAF ENZV 022300Z 0300/0324 09010KT CAVOK"
    },
    {
      "icao": "EPGD",
      "alert": "OK",
      "vis_m": 5000,
      "fzfg": false,
      "metar_trigger": false,
      "taf_trigger": false,
      "metar": "METAR EPGD 030430Z 26002KT 5000 BR NSC M19/M21 Q1021",
      "taf": "TAF EPGD 022330Z 0300/0324 11007KT CAVOK"
    },
    {
      "icao": "EPKK",
      "alert": "OK",
      "vis_m": 9999,
      "fzfg": false,
      "metar_trigger": false,
      "taf_trigger": false,
      "metar": "METAR EPKK 030430Z 07012KT 9999 BKN015 BKN050 M11/M16 Q1014",
      "taf": "TAF EPKK 030230Z 0303/0403 06011KT 9999 BKN050"
    },
    {
      "icao": "EPKT",
      "alert": "OK",
      "vis_m": 9999,
      "fzfg": false,
      "metar_trigger": false,
      "taf_trigger": false,
      "metar": "METAR EPKT 030430Z 08011KT 9999 -SN BKN038 M10/M15 Q1013",
      "taf": "TAF EPKT 022330Z 0300/0324 08008KT CAVOK"
    },
    {
      "icao": "EPLB",
      "alert": "OK",
      "vis_m": 6000,
      "fzfg": false,
      "metar_trigger": false,
      "taf_trigger": false,
      "metar": "METAR EPLB 030430Z 06003KT 6000 NSC M22/M24 Q1019",
      "taf": "TAF EPLB 022330Z 0300/0324 07005KT 8000 NSC"
    },
    {
      "icao": "EPMO",
      "alert": "OK",
      "vis_m": 6000,
      "fzfg": false,
      "metar_trigger": false,
      "taf_trigger": false,
      "metar": "METAR EPMO 030430Z 03003KT 6000 NSC M21/M23 Q1020",
      "taf": "TAF EPMO 022330Z 0300/0324 07005KT 8000 NSC"
    },
    {
      "icao": "EPPO",
      "alert": "OK",
      "vis_m": 9999,
      "fzfg": false,
      "metar_trigger": false,
      "taf_trigger": false,
      "metar": "METAR EPPO 030430Z 09012KT CAVOK M12/M19 Q1017",
      "taf": "TAF EPPO 022330Z 0300/0324 09014KT CAVOK"
    },
    {
      "icao": "EPRA",
      "alert": "OK",
      "vis_m": 9999,
      "fzfg": false,
      "metar_trigger": false,
      "taf_trigger": false,
      "metar": "METAR EPRA 030430Z 07003KT CAVOK M21/M24 Q1018",
      "taf": "TAF EPRA 030230Z 0303/0312 08005KT CAVOK"
    },
    {
      "icao": "EPRZ",
      "alert": "OK",
      "vis_m": 9999,
      "fzfg": false,
      "metar_trigger": false,
      "taf_trigger": false,
      "metar": "METAR EPRZ 030430Z 06007KT 9999 OVC012 M11/M16 Q1016",
      "taf": "TAF EPRZ 022330Z 0300/0324 04005KT CAVOK"
    },
    {
      "icao": "EPSC",
      "alert": "OK",
      "vis_m": 9999,
      "fzfg": false,
      "metar_trigger": false,
      "taf_trigger": false,
      "metar": "METAR EPSC 030430Z 09012KT CAVOK M09/M18 Q1017",
      "taf": "TAF EPSC 022330Z 0300/0324 09010KT 9999 SCT045"
    },
    {
      "icao": "EPSY",
      "alert": "OK",
      "vis_m": 9999,
      "fzfg": false,
      "metar_trigger": false,
      "taf_trigger": false,
      "metar": "METAR EPSY 030430Z VRB01KT CAVOK M26/M29 Q1020",
      "taf": "TAF EPSY 030230Z 0303/0312 VRB02KT CAVOK"
    },
    {
      "icao": "EPWA",
      "alert": "OK",
      "vis_m": 9999,
      "fzfg": false,
      "metar_trigger": false,
      "taf_trigger": false,
      "metar": "METAR EPWA 030430Z 10004KT CAVOK M18/M21 Q1020 NOSIG",
      "taf": "TAF EPWA 030230Z 0303/0403 09006KT CAVOK"
    },
    {
      "icao": "EPWR",
      "alert": "OK",
      "vis_m": 9999,
      "fzfg": false,
      "metar_trigger": false,
      "taf_trigger": false,
      "metar": "METAR EPWR 030430Z 10009KT 9999 -SN FEW015 BKN018 M09/M13 Q1014",
      "taf": "TAF EPWR 030230Z 0303/0403 09012KT 9999 BKN030"
    },
    {
      "icao": "ESGG",
      "alert": "OK",
      "vis_m": 9999,
      "fzfg": false,
      "metar_trigger": false,
      "taf_trigger": false,
      "metar": "METAR ESGG 030420Z 09009KT CAVOK M08/M11 Q1021",
      "taf": "TAF ESGG 030230Z 0303/0403 10008KT CAVOK"
    },
    {
      "icao": "ESKN",
      "alert": "OK",
      "vis_m": 9999,
      "fzfg": false,
      "metar_trigger": false,
      "taf_trigger": false,
      "metar": "METAR ESKN 030420Z 06006KT 9999 OVC030 M06/M09 Q1027",
      "taf": "TAF ESKN 030230Z 0303/0403 06005KT 9999 -SN BKN035"
    },
    {
      "icao": "ESMS",
      "alert": "OK",
      "vis_m": 9999,
      "fzfg": false,
      "metar_trigger": false,
      "taf_trigger": false,
      "metar": "METAR ESMS 030420Z 10016KT CAVOK M05/M11 Q1019",
      "taf": "TAF ESMS 030227Z 0303/0403 10015KT 9999 FEW030"
    },
    {
      "icao": "ESSA",
      "alert": "OK",
      "vis_m": 9999,
      "fzfg": false,
      "metar_trigger": false,
      "taf_trigger": false,
      "metar": "METAR ESSA 030420Z 00000KT CAVOK M19/M21 Q1028 NOSIG",
      "taf": "TAF ESSA 030230Z 0303/0403 06005KT CAVOK"
    },
    {
      "icao": "EYKA",
      "alert": "OK",
      "vis_m": 4500,
      "fzfg": false,
      "metar_trigger": false,
      "taf_trigger": false,
      "metar": "METAR EYKA 030420Z 00000KT 4500 BR FU NSC M20/M22 Q1021",
      "taf": "TAF EYKA 022300Z 0300/0324 VRB04KT 5000 BR NSC"
    },
    {
      "icao": "EYPA",
      "alert": "OK",
      "vis_m": 9999,
      "fzfg": false,
      "metar_trigger": false,
      "taf_trigger": false,
      "metar": "METAR EYPA 030420Z 02002KT CAVOK M17/M20 Q1023",
      "taf": "TAF EYPA 022300Z 0300/0324 VRB04KT 8000 NSC"
    },
    {
      "icao": "EYVI",
      "alert": "OK",
      "vis_m": 3900,
      "fzfg": false,
      "metar_trigger": false,
      "taf_trigger": false,
      "metar": "METAR EYVI 030420Z VRB01KT 3900 BR NSC M22/M25 Q1019 NOSIG",
      "taf": ""
    },
    {
      "icao": "GCFV",
      "alert": "OK",
      "vis_m": 9999,
      "fzfg": false,
      "metar_trigger": false,
      "taf_trigger": false,
      "metar": "METAR GCFV 030430Z AUTO 27007KT CAVOK 15/11 Q1017",
      "taf": "TAF GCFV 030200Z 0303/0403 30005KT 9999 SCT030 TX22/0314Z TN16/0306Z"
    },
    {
      "icao": "GCLP",
      "alert": "OK",
      "vis_m": 9999,
      "fzfg": false,
      "metar_trigger": false,
      "taf_trigger": false,
      "metar": "METAR GCLP 030430Z 01020KT 9999 SCT035 17/11 Q1018 NOSIG",
      "taf": "TAF GCLP 030200Z 0303/0403 36012KT 9999 SCT035 TX22/0314Z TN15/0306Z"
    },
    {
      "icao": "GCTS",
      "alert": "OK",
      "vis_m": 9999,
      "fzfg": false,
      "metar_trigger": false,
      "taf_trigger": false,
      "metar": "METAR GCTS 030430Z 31006KT 9999 FEW030 16/11 Q1018 NOSIG",
      "taf": "TAF GCTS 030200Z 0303/0403 VRB05KT 9999 SCT030 TX23/0314Z TN15/0306Z"
    },
    {
      "icao": "GMAD",
      "alert": "OK",
      "vis_m": 5000,
      "fzfg": false,
      "metar_trigger": false,
      "taf_trigger": false,
      "metar": "METAR GMAD 030430Z 19003KT 5000 -RA SCT010 BKN026 12/12 Q1014 NOSIG",
      "taf": "TAF GMAD 022300Z 0300/0406 06008KT 8000 SCT020"
    },
    {
      "icao": "GMMN",
      "alert": "OK",
      "vis_m": 9999,
      "fzfg": false,
      "metar_trigger": false,
      "taf_trigger": false,
      "metar": "METAR GMMN 030430Z 23013KT 9999 SCT010 BKN020 10/09 Q1011 NOSIG",
      "taf": "TAF GMMN 022300Z 0300/0406 20014KT 9999 SCT015 SCT100"
    },
    {
      "icao": "GMMX",
      "alert": "OK",
      "vis_m": 8000,
      "fzfg": false,
      "metar_trigger": false,
      "taf_trigger": false,
      "metar": "METAR GMMX 030430Z 24005KT 8000 SCT016 BKN023 10/07 Q1014 NOSIG",
      "taf": "TAF GMMX 022300Z 0300/0406 26008KT 8000 SCT023 BKN080"
    },
    {
      "icao": "HEGN",
      "alert": "OK",
      "vis_m": 9999,
      "fzfg": false,
      "metar_trigger": false,
      "taf_trigger": false,
      "metar": "METAR HEGN 030400Z 30012KT CAVOK 17/M00 Q1019 NOSIG",
      "taf": ""
    },
    {
      "icao": "HEMA",
      "alert": "OK",
      "vis_m": 9999,
      "fzfg": false,
      "metar_trigger": false,
      "taf_trigger": false,
      "metar": "METAR HEMA 030400Z 29009KT CAVOK 19/08 Q1017 NOSIG",
      "taf": ""
    },
    {
      "icao": "HESH",
      "alert": "OK",
      "vis_m": 9999,
      "fzfg": false,
      "metar_trigger": false,
      "taf_trigger": false,
      "metar": "METAR HESH 030400Z 33008KT CAVOK 19/08 Q1017 NOSIG",
      "taf": ""
    },
    {
      "icao": "HESX",
      "alert": "OK",
      "vis_m": 9999,
      "fzfg": false,
      "metar_trigger": false,
      "taf_trigger": false,
      "metar": "METAR HESX 030400Z 19007KT CAVOK 10/02 Q1019 NOSIG",
      "taf": ""
    },
    {
      "icao": "LATI",
      "alert": "OK",
      "vis_m": 9999,
      "fzfg": false,
      "metar_trigger": false,
      "taf_trigger": false,
      "metar": "METAR LATI 030420Z 17006KT 9999 FEW046 SCT074 06/03 Q1015 NOSIG",
      "taf": "TAF LATI 022300Z 0300/0324 VRB05KT 9999 BKN060 TX16/0312Z TN05/0305Z"
    },
    {
      "icao": "LBPD",
      "alert": "OK",
      "vis_m": 9999,
      "fzfg": false,
      "metar_trigger": false,
      "taf_trigger": false,
      "metar": "METAR LBPD 030430Z AUTO 08005KT 9999 SCT010/// OVC023/// M02/M02 Q1019 NOSIG",
      "taf": "TAF LBPD 022300Z 0300/0324 VRB03KT 5000 BR SCT005 BKN015"
    },
    {
      "icao": "LBSF",
      "alert": "OK",
      "vis_m": 9999,
      "fzfg": false,
      "metar_trigger": false,
      "taf_trigger": false,
      "metar": "METAR LBSF 030430Z 09002KT 9999 SCT011 OVC013 M02/M05 Q1016 NOSIG",
      "taf": "TAF LBSF 022300Z 0300/0324 VRB03KT 8000 BKN020 OVC040"
    },
    {
      "icao": "LBWN",
      "alert": "OK",
      "vis_m": 9999,
      "fzfg": false,
      "metar_trigger": false,
      "taf_trigger": false,
      "metar": "METAR LBWN 030430Z AUTO 27005KT 9999 OVC037/// M05/M09 Q1021 NOSIG",
      "taf": "TAF LBWN 022300Z 0300/0324 VRB04KT 9999 SCT020 BKN045"
    },
    {
      "icao": "LCLK",
      "alert": "OK",
      "vis_m": 9999,
      "fzfg": false,
      "metar_trigger": false,
      "taf_trigger": false,
      "metar": "METAR LCLK 030430Z 32004KT 9999 FEW016 10/08 Q1013 NOSIG",
      "taf": "TAF LCLK 022330Z 0300/0400 24014KT 9999 FEW020"
    },
    {
      "icao": "LCPH",
      "alert": "OK",
      "vis_m": 9999,
      "fzfg": false,
      "metar_trigger": false,
      "taf_trigger": false,
      "metar": "METAR LCPH 030430Z 31019KT 9999 SCT030 16/09 Q1014 NOSIG",
      "taf": "TAF LCPH 022330Z 0300/0400 29020KT 9999 FEW020"
    },
    {
      "icao": "LEAL",
      "alert": "OK",
      "vis_m": 9999,
      "fzfg": false,
      "metar_trigger": false,
      "taf_trigger": false,
      "metar": "METAR LEAL 030430Z 27006KT CAVOK 06/03 Q1004 NOSIG",
      "taf": "TAF LEAL 022300Z 0300/0324 26008KT 9999 FEW030 TX16/0313Z TN05/0306Z"
    },
    {
      "icao": "LEBB",
      "alert": "OK",
      "vis_m": 9999,
      "fzfg": false,
      "metar_trigger": false,
      "taf_trigger": false,
      "metar": "METAR LEBB 030430Z 21013KT 150V250 CAVOK 11/02 Q0995 NOSIG",
      "taf": "TAF LEBB 022300Z 0300/0324 21009KT 9999 SCT040 TX14/0314Z TN09/0307Z"
    },
    {
      "icao": "LEBL",
      "alert": "OK",
      "vis_m": 9999,
      "fzfg": false,
      "metar_trigger": false,
      "taf_trigger": false,
      "metar": "METAR LEBL 030430Z 30004KT 9999 FEW020 06/04 Q1001 NOSIG",
      "taf": "TAF LEBL 022300Z 0300/0324 26008KT 9999 FEW015 TX15/0314Z TN08/0306Z"
    },
    {
      "icao": "LECH",
      "alert": "OK",
      "vis_m": 9999,
      "fzfg": false,
      "metar_trigger": false,
      "taf_trigger": false,
      "metar": "METAR LECH 030430Z AUTO 22006KT CAVOK 07/00 Q1001",
      "taf": ""
    },
    {
      "icao": "LEMD",
      "alert": "OK",
      "vis_m": 9999,
      "fzfg": false,
      "metar_trigger": false,
      "taf_trigger": false,
      "metar": "METAR LEMD 030430Z 16004KT 100V230 9999 -RA FEW020 BKN035 05/04 Q1000 NOSIG",
      "taf": ""
    },
    {
      "icao": "LEMG",
      "alert": "OK",
      "vis_m": 9999,
      "fzfg": false,
      "metar_trigger": false,
      "taf_trigger": false,
      "metar": "METAR LEMG 030430Z 01004KT 9999 -RA FEW030 SCT045 BKN070 08/07 Q1006 NOSIG",
      "taf": "TAF LEMG 022300Z 0300/0324 29005KT 9999 FEW025 SCT040 TX17/0314Z TN09/0307Z"
    },
    {
      "icao": "LEVC",
      "alert": "OK",
      "vis_m": 9999,
      "fzfg": false,
      "metar_trigger": false,
      "taf_trigger": false,
      "metar": "METAR LEVC 030430Z 17005KT 9999 FEW050 10/03 Q1002 NOSIG",
      "taf": ""
    },
    {
      "icao": "LEXJ",
      "alert": "OK",
      "vis_m": 9999,
      "fzfg": false,
      "metar_trigger": false,
      "taf_trigger": false,
      "metar": "METAR LEXJ 030430Z 24007KT 190V310 CAVOK 10/02 Q0994",
      "taf": "TAF LEXJ 030200Z 0303/0403 23009KT 9999 FEW040 TX15/0312Z TN09/0304Z"
    },
    {
      "icao": "LEZG",
      "alert": "OK",
      "vis_m": 9999,
      "fzfg": false,
      "metar_trigger": false,
      "taf_trigger": false,
      "metar": "METAR LEZG 030430Z 05003KT 340V120 9999 SCT045 09/03 Q0999 NOSIG",
      "taf": "TAF LEZG 022300Z 0300/0324 23009KT 9999 FEW050 TX13/0314Z TN04/0306Z"
    },
    {
      "icao": "LEZL",
      "alert": "OK",
      "vis_m": 9999,
      "fzfg": false,
      "metar_trigger": false,
      "taf_trigger": false,
      "metar": "METAR LEZL 030430Z 24001KT 9999 SCT037 11/09 Q1005 NOSIG",
      "taf": "TAF LEZL 030200Z 0303/0403 22008KT 9999 SCT020 TX15/0315Z TN08/0307Z"
    },
    {
      "icao": "LFBD",
      "alert": "OK",
      "vis_m": 9999,
      "fzfg": false,
      "metar_trigger": false,
      "taf_trigger": false,
      "metar": "METAR LFBD 030430Z AUTO 21006KT 160V260 9999 -RA ///TCU 08/07 Q0995 BECMG NSC",
      "taf": "TAF LFBD 022300Z 0300/0406 22010KT CAVOK TX14/0314Z TN06/0307Z"
    },
    {
      "icao": "LFLL",
      "alert": "OK",
      "vis_m": 9999,
      "fzfg": false,
      "metar_trigger": false,
      "taf_trigger": false,
      "metar": "METAR LFLL 030430Z 17011KT 9999 -RA FEW013 SCT043 BKN048 08/06 Q0993 NOSIG",
      "taf": ""
    },
    {
      "icao": "LFLS",
      "alert": "OK",
      "vis_m": 9999,
      "fzfg": false,
      "metar_trigger": false,
      "taf_trigger": false,
      "metar": "METAR LFLS 030430Z AUTO 17012KT 140V210 9999 RA FEW019/// BKN038/// OVC045/// ///TCU 08/06 Q0995 TEMPO NSW BKN015",
      "taf": "TAF LFLS 030200Z 0303/0403 18007KT 9999 BKN040"
    },
    {
      "icao": "LFMN",
      "alert": "OK",
      "vis_m": 6000,
      "fzfg": false,
      "metar_trigger": false,
      "taf_trigger": false,
      "metar": "METAR LFMN 030430Z 09020KT 6000 RA FEW015 OVC020 FEW025CB 12/10 Q1001 TEMPO VRB25G40KT 4000 -TSRA BKN008 SCT020CB",
      "taf": "TAF LFMN 030200Z 0303/0409 08025KT 6000 SHRA SCT010 SCT020TCU BKN025"
    },
    {
      "icao": "LFOB",
      "alert": "OK",
      "vis_m": 9999,
      "fzfg": false,
      "metar_trigger": false,
      "taf_trigger": false,
      "metar": "METAR LFOB 030430Z AUTO 08009KT 9999 OVC007 06/05 Q0989 TEMPO 4000 RA BKN004 BECMG 22010KT",
      "taf": ""
    },
    {
      "icao": "LFPO",
      "alert": "OK",
      "vis_m": 9999,
      "fzfg": false,
      "metar_trigger": false,
      "taf_trigger": false,
      "metar": "METAR LFPO 030430Z 08005KT 9999 BKN013 08/07 Q0988 TEMPO 4000 -RA BKN008",
      "taf": ""
    },
    {
      "icao": "LFSB",
      "alert": "OK",
      "vis_m": 500,
      "fzfg": false,
      "metar_trigger": false,
      "taf_trigger": false,
      "metar": "METAR LFSB 030430Z AUTO 33003KT 0500 0450 R15/0600N R33/0800N FG VV/// 03/03 Q0994 NOSIG",
      "taf": ""
    },
    {
      "icao": "LGAV",
      "alert": "OK",
      "vis_m": 9999,
      "fzfg": false,
      "metar_trigger": false,
      "taf_trigger": false,
      "metar": "METAR LGAV 030420Z VRB01KT 9999 FEW020 04/02 Q1018 NOSIG",
      "taf": "TAF LGAV 022300Z 0300/0324 VRB05KT 9999 SCT020"
    },
    {
      "icao": "LGTS",
      "alert": "OK",
      "vis_m": 9999,
      "fzfg": false,
      "metar_trigger": false,
      "taf_trigger": false,
      "metar": "METAR LGTS 030420Z 28003KT 9999 BKN025 06/06 Q1018 NOSIG",
      "taf": "TAF LGTS 022300Z 0300/0324 14013KT 9999 BKN030"
    },
    {
      "icao": "LHBP",
      "alert": "OK",
      "vis_m": 6000,
      "fzfg": false,
      "metar_trigger": false,
      "taf_trigger": false,
      "metar": "METAR LHBP 030430Z 12012KT 6000 -SN BKN035 OVC055 M02/M04 Q1013 RESN TEMPO 4500 SN",
      "taf": ""
    },
    {
      "icao": "LHDC",
      "alert": "OK",
      "vis_m": 9000,
      "fzfg": false,
      "metar_trigger": false,
      "taf_trigger": false,
      "metar": "METAR LHDC 030415Z AUTO 08003KT 040V110 9000 NSC M02/M03 Q1015 NOSIG",
      "taf": "TAF LHDC 021715Z 0218/0303 20006KT 9999 SCT008 BKN020"
    },
    {
      "icao": "LIBD",
      "alert": "OK",
      "vis_m": 9999,
      "fzfg": false,
      "metar_trigger": false,
      "taf_trigger": false,
      "metar": "METAR LIBD 030420Z 20005KT CAVOK 08/06 Q1011",
      "taf": "TAF LIBD 022300Z 0300/0324 18010KT 9999 FEW030"
    },
    {
      "icao": "LIBG",
      "alert": "OK",
      "vis_m": null,
      "fzfg": false,
      "metar_trigger": false,
      "taf_trigger": false,
      "metar": "",
      "taf": "TAF LIBG 021700Z 0218/0303 VRB05KT 9999 FEW040"
    },
    {
      "icao": "LIBP",
      "alert": "OK",
      "vis_m": 9000,
      "fzfg": false,
      "metar_trigger": false,
      "taf_trigger": false,
      "metar": "METAR LIBP 030420Z AUTO 29003KT 260V350 9000 SCT180/// 04/03 Q1008",
      "taf": "TAF LIBP 022300Z 0300/0324 VRB05KT 9999 SCT050"
    },
    {
      "icao": "LIBR",
      "alert": "OK",
      "vis_m": 9999,
      "fzfg": false,
      "metar_trigger": false,
      "taf_trigger": false,
      "metar": "METAR LIBR 030420Z 17004KT CAVOK 08/08 Q1013",
      "taf": "TAF LIBR 022300Z 0300/0324 16010KT 9999 FEW030"
    },
    {
      "icao": "LICA",
      "alert": "OK",
      "vis_m": 9999,
      "fzfg": false,
      "metar_trigger": false,
      "taf_trigger": false,
      "metar": "METAR LICA 030420Z AUTO 05011KT 9999 NCD 10/07 Q1011",
      "taf": "TAF LICA 022300Z 0300/0324 07013KT 9999 SCT025"
    },
    {
      "icao": "LICC",
      "alert": "OK",
      "vis_m": 9999,
      "fzfg": false,
      "metar_trigger": false,
      "taf_trigger": false,
      "metar": "METAR LICC 030420Z 25007KT CAVOK 08/05 Q1013",
      "taf": "TAF LICC 022300Z 0300/0324 24014KT 9999 FEW040"
    },
    {
      "icao": "LICJ",
      "alert": "OK",
      "vis_m": 9999,
      "fzfg": false,
      "metar_trigger": false,
      "taf_trigger": false,
      "metar": "METAR LICJ 030420Z 18016KT 150V210 CAVOK 17/06 Q1007",
      "taf": "TAF LICJ 022300Z 0300/0324 20018G28KT 9999 SCT030"
    },
    {
      "icao": "LIMC",
      "alert": "OK",
      "vis_m": 5000,
      "fzfg": false,
      "metar_trigger": false,
      "taf_trigger": false,
      "metar": "METAR LIMC 030420Z 04003KT 5000 -RA BR BKN020 02/02 Q1005 NOSIG",
      "taf": "TAF LIMC 022300Z 0300/0406 VRB05KT 4000 RA BKN010"
    },
    {
      "icao": "LIME",
      "alert": "OK",
      "vis_m": 5000,
      "fzfg": false,
      "metar_trigger": false,
      "taf_trigger": false,
      "metar": "METAR LIME 030420Z VRB01KT 5000 -RA BR FEW007 BKN020 03/03 Q1005 NOSIG",
      "taf": "TAF LIME 022300Z 0300/0324 VRB05KT 4000 RA BKN020"
    },
    {
      "icao": "LIMF",
      "alert": "OK",
      "vis_m": 1500,
      "fzfg": false,
      "metar_trigger": false,
      "taf_trigger": false,
      "metar": "METAR LIMF 030420Z 27001KT 1500 -SN OVC010 01/M00 Q1006",
      "taf": "TAF LIMF 022300Z 0300/0324 VRB05KT 3000 RA BKN014"
    },
    {
      "icao": "LIMJ",
      "alert": "OK",
      "vis_m": 7000,
      "fzfg": false,
      "metar_trigger": false,
      "taf_trigger": false,
      "metar": "METAR LIMJ 030420Z 04009KT 310V110 7000 -RA SCT018 BKN025 05/04 Q1002 RERA",
      "taf": "TAF LIMJ 022300Z 0300/0324 04015KT 7000 RA SCT020 BKN030"
    },
    {
      "icao": "LIPE",
      "alert": "OK",
      "vis_m": 6000,
      "fzfg": false,
      "metar_trigger": false,
      "taf_trigger": false,
      "metar": "METAR LIPE 030420Z VRB01KT 6000 BKN005 05/05 Q1006",
      "taf": "TAF LIPE 022300Z 0300/0324 VRB05KT 9999 BKN030"
    },
    {
      "icao": "LIPH",
      "alert": "OK",
      "vis_m": 6000,
      "fzfg": false,
      "metar_trigger": false,
      "taf_trigger": false,
      "metar": "METAR LIPH 030420Z AUTO 05006KT 6000 -RA FEW005/// OVC020/// 05/04 Q1008",
      "taf": "TAF LIPH 022300Z 0300/0324 05010KT 5000 RA BKN040"
    },
    {
      "icao": "LIPQ",
      "alert": "OK",
      "vis_m": 9999,
      "fzfg": false,
      "metar_trigger": false,
      "taf_trigger": false,
      "metar": "METAR LIPQ 030420Z AUTO 03006KT 9999 -RA OVC021/// 05/04 Q1008 RERA",
      "taf": "TAF LIPQ 022300Z 0300/0324 05006KT 4000 RA BKN020"
    },
    {
      "icao": "LIPR",
      "alert": "OK",
      "vis_m": 9999,
      "fzfg": false,
      "metar_trigger": false,
      "taf_trigger": false,
      "metar": "METAR LIPR 030420Z AUTO 15004KT 130V190 9999 BKN040/// BKN110/// 08/05 Q1006",
      "taf": "TAF LIPR 022300Z 0300/0324 14010KT 9999 BKN050"
    },
    {
      "icao": "LIPX",
      "alert": "OK",
      "vis_m": 7000,
      "fzfg": false,
      "metar_trigger": false,
      "taf_trigger": false,
      "metar": "METAR LIPX 030420Z 09003KT 060V130 7000 -RA BKN020 05/04 Q1006",
      "taf": "TAF LIPX 022300Z 0300/0324 06010KT 4000 RA BKN030"
    },
    {
      "icao": "LIPY",
      "alert": "OK",
      "vis_m": 9999,
      "fzfg": false,
      "metar_trigger": false,
      "taf_trigger": false,
      "metar": "METAR LIPY 030420Z AUTO 19006KT 150V210 9999 FEW070/// BKN130/// BKN150/// 12/07 Q1007",
      "taf": "TAF LIPY 022300Z 0300/0324 14010KT 9999 BKN050"
    },
    {
      "icao": "LIPZ",
      "alert": "OK",
      "vis_m": 5000,
      "fzfg": false,
      "metar_trigger": false,
      "taf_trigger": false,
      "metar": "METAR LIPZ 030420Z 05009KT 5000 -RA BR FEW006 BKN020 04/04 Q1008 NOSIG",
      "taf": "TAF LIPZ 022300Z 0300/0406 05015KT 5000 RA BKN030"
    },
    {
      "icao": "LIRF",
      "alert": "OK",
      "vis_m": 9999,
      "fzfg": false,
      "metar_trigger": false,
      "taf_trigger": false,
      "metar": "METAR LIRF 030420Z 13013KT 9999 FEW030 13/09 Q1007 NOSIG",
      "taf": "TAF LIRF 022300Z 0300/0406 16015KT 9999 SCT030"
    },
    {
      "icao": "LIRN",
      "alert": "OK",
      "vis_m": 9999,
      "fzfg": false,
      "metar_trigger": false,
      "taf_trigger": false,
      "metar": "METAR LIRN 030420Z 08004KT 9999 SCT030 10/07 Q1010 NOSIG",
      "taf": "TAF LIRN 022300Z 0300/0324 VRB05KT 9999 SCT030"
    },
    {
      "icao": "LIRP",
      "alert": "OK",
      "vis_m": 9999,
      "fzfg": false,
      "metar_trigger": false,
      "taf_trigger": false,
      "metar": "METAR LIRP 030415Z 11011KT 9999 FEW020 BKN035 11/10 Q1004 NOSIG",
      "taf": "TAF LIRP 022300Z 0300/0324 12007KT 9999 SCT020 SCT050"
    },
    {
      "icao": "LIRZ",
      "alert": "OK",
      "vis_m": 9999,
      "fzfg": false,
      "metar_trigger": false,
      "taf_trigger": false,
      "metar": "METAR LIRZ 030420Z AUTO 18005KT 9999 BKN028/// 11/06 Q1007",
      "taf": "TAF LIRZ 022300Z 0300/0324 18010KT 9999 BKN040"
    },
    {
      "icao": "LJLJ",
      "alert": "OK",
      "vis_m": 3000,
      "fzfg": false,
      "metar_trigger": false,
      "taf_trigger": false,
      "metar": "METAR LJLJ 030430Z 10002KT 3000 -RA BR BKN002 OVC020 01/00 Q1008 NOSIG",
      "taf": "TAF LJLJ 022300Z 0300/0400 VRB02KT 9999 BKN025 OVC040"
    },
    {
      "icao": "LKMT",
      "alert": "OK",
      "vis_m": 9999,
      "fzfg": false,
      "metar_trigger": false,
      "taf_trigger": false,
      "metar": "METAR LKMT 030430Z 04006KT 9999 OVC032 M08/M11 Q1012 NOSIG",
      "taf": "TAF LKMT 022300Z 0300/0324 01008KT 9999 BKN030"
    },
    {
      "icao": "LKPR",
      "alert": "OK",
      "vis_m": 4500,
      "fzfg": false,
      "metar_trigger": false,
      "taf_trigger": false,
      "metar": "METAR LKPR 030430Z 09011KT 4500 BR BKN003 OVC004 M02/M02 Q1006 NOSIG",
      "taf": "TAF LKPR 030200Z 0303/0409 08008KT 4500 BR OVC003"
    },
    {
      "icao": "LLBG",
      "alert": "OK",
      "vis_m": 6000,
      "fzfg": false,
      "metar_trigger": false,
      "taf_trigger": false,
      "metar": "METAR LLBG 030420Z 16008KT 6000 TSRA FEW015 FEW025CB BKN035 13/11 Q1018 NOSIG",
      "taf": "TAF LLBG 022317Z 0300/0324 20010KT 9999 SCT025"
    },
    {
      "icao": "LMML",
      "alert": "OK",
      "vis_m": 9999,
      "fzfg": false,
      "metar_trigger": false,
      "taf_trigger": false,
      "metar": "METAR LMML 030415Z 17007KT CAVOK 15/13 Q1014 NOSIG",
      "taf": "TAF LMML 022300Z 0300/0324 19015KT CAVOK"
    },
    {
      "icao": "LOWW",
      "alert": "OK",
      "vis_m": 8000,
      "fzfg": false,
      "metar_trigger": false,
      "taf_trigger": false,
      "metar": "METAR LOWW 030420Z 12013KT 8000 FEW007 BKN010 M01/M03 Q1008 NOSIG",
      "taf": "TAF LOWW 030215Z 0303/0409 15015KT 9000 BKN012 TX01/0409Z TNM01/0313Z"
    },
    {
      "icao": "LPFR",
      "alert": "OK",
      "vis_m": 9999,
      "fzfg": false,
      "metar_trigger": false,
      "taf_trigger": false,
      "metar": "METAR LPFR 030430Z 28020KT 9999 -SHRA FEW015 FEW018CB SCT028 11/08 Q1005",
      "taf": "TAF LPFR 022300Z 0300/0324 28013KT 9999 FEW015 SCT030"
    },
    {
      "icao": "LPMA",
      "alert": "OK",
      "vis_m": 9999,
      "fzfg": false,
      "metar_trigger": false,
      "taf_trigger": false,
      "metar": "METAR LPMA 030430Z 31005KT 9999 SCT015 14/07 Q1015",
      "taf": "TAF LPMA 022300Z 0300/0324 VRB05KT 9999 SCT015"
    },
    {
      "icao": "LPPR",
      "alert": "OK",
      "vis_m": 9999,
      "fzfg": false,
      "metar_trigger": false,
      "taf_trigger": false,
      "metar": "METAR LPPR 030430Z COR 17006KT 140V200 9999 -SHRA SCT013 FEW017CB BKN030 08/07 Q0997 RESHGS",
      "taf": "TAF LPPR 022300Z 0300/0324 22012KT 9999 FEW015 SCT030"
    },
    {
      "icao": "LPPS",
      "alert": "OK",
      "vis_m": 9999,
      "fzfg": false,
      "metar_trigger": false,
      "taf_trigger": false,
      "metar": "METAR LPPS 030430Z 29020KT 9999 SCT014 15/10 Q1014",
      "taf": "TAF LPPS 022300Z 0300/0406 30017KT 9999 SCT015"
    },
    {
      "icao": "LPPT",
      "alert": "OK",
      "vis_m": 9999,
      "fzfg": false,
      "metar_trigger": false,
      "taf_trigger": false,
      "metar": "METAR LPPT 030430Z 22006KT 9999 FEW020 FEW025TCU 08/07 Q1001",
      "taf": "TAF LPPT 022300Z 0300/0406 27010KT 9999 FEW015 SCT030"
    },
    {
      "icao": "LQBK",
      "alert": "OK",
      "vis_m": 6000,
      "fzfg": false,
      "metar_trigger": false,
      "taf_trigger": false,
      "metar": "METAR LQBK 030430Z VRB02KT 6000 OVC010 01/00 Q1011 NOSIG",
      "taf": "TAF LQBK 022300Z 0300/0324 07005KT 9999 OVC010 TX08/0314Z TNM01/0303Z"
    },
    {
      "icao": "LQSA",
      "alert": "OK",
      "vis_m": 7000,
      "fzfg": false,
      "metar_trigger": false,
      "taf_trigger": false,
      "metar": "METAR LQSA 030430Z VRB01KT 7000 SCT070 M02/M02 Q1011 NOSIG",
      "taf": "TAF LQSA 022300Z 0300/0324 VRB02KT 5000 BR NSC TX11/0314Z TNM04/0303Z"
    },
    {
      "icao": "LQTZ",
      "alert": "OK",
      "vis_m": 5000,
      "fzfg": false,
      "metar_trigger": false,
      "taf_trigger": false,
      "metar": "METAR LQTZ 030430Z 00000KT 5000 BR FEW001 M02/M02 Q1011",
      "taf": "TAF LQTZ 022300Z 0300/0324 06005KT CAVOK TX13/0314Z TNM03/0301Z"
    },
    {
      "icao": "LRBC",
      "alert": "OK",
      "vis_m": 9999,
      "fzfg": false,
      "metar_trigger": false,
      "taf_trigger": false,
      "metar": "METAR LRBC 030430Z 16005KT CAVOK M08/M11 Q1019",
      "taf": ""
    },
    {
      "icao": "LRBS",
      "alert": "OK",
      "vis_m": 7000,
      "fzfg": false,
      "metar_trigger": false,
      "taf_trigger": false,
      "metar": "METAR LRBS 030430Z 26003KT 7000 MIFG NSC M09/M10 Q1021 TEMPO 3000 BR",
      "taf": "TAF LRBS 022300Z 0300/0324 VRB04KT CAVOK"
    },
    {
      "icao": "LRBV",
      "alert": "OK",
      "vis_m": 9999,
      "fzfg": false,
      "metar_trigger": false,
      "taf_trigger": false,
      "metar": "METAR LRBV 030430Z AUTO 14004KT 9999 NCD M06/M09 Q1014",
      "taf": "TAF LRBV 030200Z 0303/0312 VRB04KT 9999 OVC025"
    },
    {
      "icao": "LRCL",
      "alert": "OK",
      "vis_m": 9999,
      "fzfg": false,
      "metar_trigger": false,
      "taf_trigger": false,
      "metar": "METAR LRCL 030430Z COR 00000KT 9999 OVC013 M01/M02 Q1015",
      "taf": "TAF LRCL 030200Z 0303/0312 VRB04KT 9999 OVC015"
    },
    {
      "icao": "LRCV",
      "alert": "OK",
      "vis_m": 9999,
      "fzfg": false,
      "metar_trigger": false,
      "taf_trigger": false,
      "metar": "METAR LRCV 030430Z VRB01KT 9999 OVC031 M08/M09 Q1020",
      "taf": "TAF LRCV 030200Z 0303/0312 VRB04KT 9999 OVC035"
    },
    {
      "icao": "LRIA",
      "alert": "OK",
      "vis_m": 9999,
      "fzfg": false,
      "metar_trigger": false,
      "taf_trigger": false,
      "metar": "METAR LRIA 030430Z 11008KT CAVOK M11/M15 Q1020",
      "taf": "TAF LRIA 030200Z 0303/0312 12007KT CAVOK"
    },
    {
      "icao": "LROP",
      "alert": "OK",
      "vis_m": 5000,
      "fzfg": false,
      "metar_trigger": false,
      "taf_trigger": false,
      "metar": "METAR LROP 030430Z 25004KT 5000 BR NSC M10/M12 Q1021 TEMPO 3000 BR",
      "taf": "TAF LROP 022300Z 0300/0324 VRB04KT CAVOK"
    },
    {
      "icao": "LRSB",
      "alert": "OK",
      "vis_m": 9999,
      "fzfg": false,
      "metar_trigger": false,
      "taf_trigger": false,
      "metar": "METAR LRSB 030430Z 07004KT CAVOK M05/M07 Q1014",
      "taf": "TAF LRSB 022300Z 0300/0324 VRB04KT 9999 SCT025 SCT060"
    },
    {
      "icao": "LRSM",
      "alert": "OK",
      "vis_m": 7000,
      "fzfg": false,
      "metar_trigger": false,
      "taf_trigger": false,
      "metar": "METAR LRSM 030430Z AUTO 00000KT 7000 FEW011/// OVC041/// M01/M02 Q1016",
      "taf": "TAF LRSM 030200Z 0303/0312 VRB04KT 9999 BKN005 OVC020"
    },
    {
      "icao": "LRSV",
      "alert": "OK",
      "vis_m": 9999,
      "fzfg": false,
      "metar_trigger": false,
      "taf_trigger": false,
      "metar": "METAR LRSV 030430Z 11005KT 9999 BKN043 M11/M12 Q1016",
      "taf": "TAF LRSV 030200Z 0303/0312 VRB04KT 9999 BKN040"
    },
    {
      "icao": "LRTM",
      "alert": "OK",
      "vis_m": 4100,
      "fzfg": false,
      "metar_trigger": false,
      "taf_trigger": false,
      "metar": "METAR LRTM 030430Z AUTO 00000KT 4100 BR OVC026/// M00/M01 Q1015",
      "taf": "TAF LRTM 030200Z 0303/0312 VRB04KT 5000 BR OVC010"
    },
    {
      "icao": "LRTR",
      "alert": "OK",
      "vis_m": 9999,
      "fzfg": false,
      "metar_trigger": false,
      "taf_trigger": false,
      "metar": "METAR LRTR 030430Z 11013KT CAVOK M04/M06 Q1014",
      "taf": "TAF LRTR 022300Z 0300/0324 10008KT 9999 SCT010"
    },
    {
      "icao": "LTAC",
      "alert": "OK",
      "vis_m": 9999,
      "fzfg": false,
      "metar_trigger": false,
      "taf_trigger": false,
      "metar": "METAR LTAC 030420Z 35006KT 310V020 9999 SCT030 BKN080 02/M03 Q1012 NOSIG",
      "taf": "TAF LTAC 022240Z 0300/0324 VRB02KT 9999 SCT040 BKN100"
    },
    {
      "icao": "LTFM",
      "alert": "OK",
      "vis_m": 9999,
      "fzfg": false,
      "metar_trigger": false,
      "taf_trigger": false,
      "metar": "METAR LTFM 030420Z 35009KT 9999 -SHRASN BKN007 BKN022 01/M01 Q1020 NOSIG",
      "taf": "TAF LTFM 022240Z 0300/0406 35012KT 9999 BKN006 BKN022"
    },
    {
      "icao": "LUKK",
      "alert": "OK",
      "vis_m": 9999,
      "fzfg": false,
      "metar_trigger": false,
      "taf_trigger": false,
      "metar": "METAR LUKK 030430Z VRB03KT CAVOK M13/M16 Q1021 NOSIG",
      "taf": "TAF LUKK 022306Z 0300/0324 VRB06KT CAVOK"
    },
    {
      "icao": "LWOH",
      "alert": "OK",
      "vis_m": 9999,
      "fzfg": false,
      "metar_trigger": false,
      "taf_trigger": false,
      "metar": "METAR LWOH 030420Z VRB02KT 9999 FEW040 00/M00 Q1015",
      "taf": "TAF LWOH 030210Z 0303/0403 VRB02KT 9999 FEW015 SCT035"
    },
    {
      "icao": "LWSK",
      "alert": "OK",
      "vis_m": 9999,
      "fzfg": false,
      "metar_trigger": false,
      "taf_trigger": false,
      "metar": "METAR LWSK 030350Z VRB01KT 9999 BKN026 M01/M02 Q1018 NOSIG",
      "taf": "TAF LWSK 030210Z 0303/0403 VRB02KT 9999 BKN030"
    },
    {
      "icao": "LYBE",
      "alert": "OK",
      "vis_m": 9999,
      "fzfg": false,
      "metar_trigger": false,
      "taf_trigger": false,
      "metar": "METAR LYBE 030430Z 06003KT CAVOK M03/M06 Q1013 NOSIG",
      "taf": "TAF LYBE 022300Z 0300/0324 11009KT CAVOK TX07/0313Z TNM05/0306Z"
    },
    {
      "icao": "LYNI",
      "alert": "OK",
      "vis_m": 9999,
      "fzfg": false,
      "metar_trigger": false,
      "taf_trigger": false,
      "metar": "METAR LYNI 030430Z VRB02KT CAVOK M03/M04 Q1017 NOSIG",
      "taf": "TAF LYNI 022300Z 0300/0324 09006KT CAVOK TX06/0313Z TNM05/0306Z"
    },
    {
      "icao": "LYPG",
      "alert": "OK",
      "vis_m": 9999,
      "fzfg": false,
      "metar_trigger": false,
      "taf_trigger": false,
      "metar": "METAR LYPG 030430Z 32001KT 9999 SCT026 BKN060 04/03 Q1016 NOSIG",
      "taf": "TAF LYPG 022300Z 0300/0324 36005KT 9999 BKN050 BKN080 TX12/0316Z TN04/0300Z"
    },
    {
      "icao": "LZIB",
      "alert": "OK",
      "vis_m": 9999,
      "fzfg": false,
      "metar_trigger": false,
      "taf_trigger": false,
      "metar": "METAR LZIB 030430Z 11014KT 9999 FEW009 OVC025 M00/M03 Q1010 NOSIG",
      "taf": "TAF LZIB 022315Z 0300/0400 12012KT 9999 OVC025"
    },
    {
      "icao": "LZKZ",
      "alert": "OK",
      "vis_m": 9999,
      "fzfg": false,
      "metar_trigger": false,
      "taf_trigger": false,
      "metar": "METAR LZKZ 030430Z 00000KT 9999 OVC009 M04/M06 Q1015 NOSIG",
      "taf": "TAF LZKZ 022315Z 0300/0400 VRB02KT 9999 BKN017"
    },
    {
      "icao": "LZTT",
      "alert": "OK",
      "vis_m": 9999,
      "fzfg": false,
      "metar_trigger": false,
      "taf_trigger": false,
      "metar": "METAR LZTT 030430Z 18001KT 9999 -SN BKN006 M04/M05 Q1010",
      "taf": "TAF LZTT 022315Z 0300/0400 VRB02KT 9999 OVC020"
    },
    {
      "icao": "OEJN",
      "alert": "OK",
      "vis_m": 6000,
      "fzfg": false,
      "metar_trigger": false,
      "taf_trigger": false,
      "metar": "METAR OEJN 030400Z 36003KT 6000 NSC 24/18 Q1011 NOSIG",
      "taf": "TAF OEJN 022300Z 0300/0406 VRB03KT 7000 FEW040"
    },
    {
      "icao": "OEMA",
      "alert": "OK",
      "vis_m": 9999,
      "fzfg": false,
      "metar_trigger": false,
      "taf_trigger": false,
      "metar": "METAR OEMA 030400Z VRB02KT CAVOK 18/11 Q1019 NOSIG",
      "taf": "TAF OEMA 022300Z 0300/0406 VRB03KT CAVOK"
    },
    {
      "icao": "OJAI",
      "alert": "OK",
      "vis_m": 3000,
      "fzfg": false,
      "metar_trigger": false,
      "taf_trigger": false,
      "metar": "METAR OJAI 030400Z 27008KT 3000 HZ NSC 08/04 Q1017 NOSIG",
      "taf": "TAF OJAI 022249Z 0300/0406 27006KT 3000 HZ SCT035"
    },
    {
      "icao": "OMAA",
      "alert": "OK",
      "vis_m": 9999,
      "fzfg": false,
      "metar_trigger": false,
      "taf_trigger": false,
      "metar": "METAR OMAA 030430Z 17002KT CAVOK 17/04 Q1018 NOSIG",
      "taf": "TAF OMAA 022300Z 0300/0406 VRB02KT 8000 NSC"
    },
    {
      "icao": "OMDB",
      "alert": "OK",
      "vis_m": 3500,
      "fzfg": false,
      "metar_trigger": false,
      "taf_trigger": false,
      "metar": "METAR OMDB 030430Z 09004KT 3500 HZ NSC 18/15 Q1019 BECMG 5000",
      "taf": ""
    },
    {
      "icao": "UAAA",
      "alert": "OK",
      "vis_m": 9999,
      "fzfg": false,
      "metar_trigger": false,
      "taf_trigger": false,
      "metar": "METAR UAAA 030430Z 22004MPS 9999 SCT100 BKN200 06/M05 Q1018 NOSIG",
      "taf": "TAF UAAA 022303Z 0300/0324 20003MPS 1500 BR FU SCT050 BKN100 TX06/0309Z TNM06/0302Z"
    },
    {
      "icao": "UBBB",
      "alert": "OK",
      "vis_m": 8000,
      "fzfg": false,
      "metar_trigger": false,
      "taf_trigger": false,
      "metar": "METAR UBBB 030430Z 17016KT 8000 FEW008 07/06 Q1006 NOSIG",
      "taf": "TAF UBBB 022317Z 0300/0324 18020G30KT 9999 SCT012 BKN030 TX10/0310Z TN06/0300Z"
    },
    {
      "icao": "UDSG",
      "alert": "OK",
      "vis_m": 750,
      "fzfg": false,
      "metar_trigger": false,
      "taf_trigger": false,
      "metar": "METAR UDSG 030430Z 33002KT 0750 R02/1400U FG OVC006 01/01 Q1011 NOSIG",
      "taf": "TAF UDSG 022300Z 0300/0324 VRB06KT 5000 BR OVC030"
    },
    {
      "icao": "UDYZ",
      "alert": "OK",
      "vis_m": 600,
      "fzfg": false,
      "metar_trigger": false,
      "taf_trigger": false,
      "metar": "METAR UDYZ 030430Z 35002KT 0600 0450W R08/0500U FG SCT001 BKN036CB 01/01 Q1011 NOSIG",
      "taf": "TAF UDYZ 022300Z 0300/0324 VRB06KT 0800 FG BKN020"
    },
    {
      "icao": "UGKO",
      "alert": "OK",
      "vis_m": 9999,
      "fzfg": false,
      "metar_trigger": false,
      "taf_trigger": false,
      "metar": "METAR UGKO 030430Z 12005KT 9999 BKN051 10/07 Q1007 NOSIG",
      "taf": "TAF UGKO 022300Z 0300/0324 07010KT 9999 BKN050 TX10/0310Z TN05/0324Z"
    }
  ]
}