{
  "ts_utc": "2026-04-19T10:21:20Z",
  "threshold_m": 150,
  "source": "stations_override.txt (ICAO list) + aviationweather.gov (METAR/TAF raw)",
  "station_count": 159,
  "stations": [
    {
      "icao": "BIKF",
      "alert": "OK",
      "vis_m": 9999,
      "fzfg": false,
      "metar_trigger": false,
      "taf_trigger": false,
      "metar": "METAR BIKF 191000Z 11021KT 9999 FEW015 OVC038 07/03 Q1019",
      "taf": "TAF BIKF 190749Z 1909/2009 13023G33KT 9999 SCT015 BKN030 TX08/1915Z TN06/1909Z"
    },
    {
      "icao": "BKPR",
      "alert": "OK",
      "vis_m": 9999,
      "fzfg": false,
      "metar_trigger": false,
      "taf_trigger": false,
      "metar": "METAR BKPR 191000Z 36004KT 320V050 CAVOK 16/03 Q1018 NOSIG",
      "taf": "TAF BKPR 190530Z 1906/2006 VRB05KT CAVOK"
    },
    {
      "icao": "EBCI",
      "alert": "OK",
      "vis_m": 9999,
      "fzfg": false,
      "metar_trigger": false,
      "taf_trigger": false,
      "metar": "METAR EBCI 190950Z 35007KT 300V040 9999 FEW030 12/05 Q1023 NOSIG",
      "taf": "TAF EBCI 190501Z 1906/2012 33005KT 9999 FEW020"
    },
    {
      "icao": "EDDB",
      "alert": "OK",
      "vis_m": 9999,
      "fzfg": false,
      "metar_trigger": false,
      "taf_trigger": false,
      "metar": "METAR EDDB 190950Z AUTO 09004KT 050V130 CAVOK 17/07 Q1014 NOSIG",
      "taf": ""
    },
    {
      "icao": "EDDH",
      "alert": "OK",
      "vis_m": 9999,
      "fzfg": false,
      "metar_trigger": false,
      "taf_trigger": false,
      "metar": "METAR EDDH 190950Z AUTO 32009KT 290V350 9999 SCT019 10/06 Q1018 NOSIG",
      "taf": "TAF EDDH 190500Z 1906/2012 32008KT 9999 OVC007"
    },
    {
      "icao": "EDDK",
      "alert": "OK",
      "vis_m": 9999,
      "fzfg": false,
      "metar_trigger": false,
      "taf_trigger": false,
      "metar": "METAR EDDK 190950Z AUTO 32009KT 290V010 9999 FEW028 SCT032 12/06 Q1021 NOSIG",
      "taf": "TAF EDDK 190500Z 1906/2012 32008KT 9999 BKN008 BKN020"
    },
    {
      "icao": "EDDN",
      "alert": "OK",
      "vis_m": 9999,
      "fzfg": false,
      "metar_trigger": false,
      "taf_trigger": false,
      "metar": "METAR EDDN 190950Z AUTO 30006KT 280V340 9999 BKN009 11/09 Q1017 RESHRA BECMG 32015G25KT BKN020TCU",
      "taf": "TAF EDDN 190500Z 1906/2006 VRB02KT CAVOK"
    },
    {
      "icao": "EDDS",
      "alert": "OK",
      "vis_m": 9999,
      "fzfg": false,
      "metar_trigger": false,
      "taf_trigger": false,
      "metar": "METAR EDDS 190950Z AUTO 32009KT 280V350 9999 BKN016 BKN039 13/09 Q1018 RESHRA NOSIG",
      "taf": "TAF EDDS 190500Z 1906/2006 28005KT 9999 FEW020"
    },
    {
      "icao": "EDFH",
      "alert": "OK",
      "vis_m": 9999,
      "fzfg": false,
      "metar_trigger": false,
      "taf_trigger": false,
      "metar": "METAR EDFH 190950Z 32008KT 280V360 9999 FEW020 SCT023 BKN028 09/04 Q1021",
      "taf": "TAF EDFH 190500Z 1906/2006 33009KT 9999 BKN008"
    },
    {
      "icao": "EDJA",
      "alert": "OK",
      "vis_m": 9999,
      "fzfg": false,
      "metar_trigger": false,
      "taf_trigger": false,
      "metar": "METAR EDJA 190950Z 25010KT 9999 SCT063TCU 16/09 Q1017",
      "taf": "TAF EDJA 190800Z 1909/1918 24012KT 9999 SCT050"
    },
    {
      "icao": "EDLW",
      "alert": "OK",
      "vis_m": 9999,
      "fzfg": false,
      "metar_trigger": false,
      "taf_trigger": false,
      "metar": "METAR EDLW 190950Z 28005KT 240V340 9999 BKN022 11/06 Q1020",
      "taf": "TAF EDLW 190500Z 1906/2006 32006KT 9999 SCT010 BKN020"
    },
    {
      "icao": "EDNY",
      "alert": "OK",
      "vis_m": 9999,
      "fzfg": false,
      "metar_trigger": false,
      "taf_trigger": false,
      "metar": "METAR EDNY 190950Z 23007KT 200V260 CAVOK 16/09 Q1018",
      "taf": "TAF EDNY 190800Z 1909/1918 23005KT CAVOK"
    },
    {
      "icao": "EDSB",
      "alert": "OK",
      "vis_m": 9999,
      "fzfg": false,
      "metar_trigger": false,
      "taf_trigger": false,
      "metar": "METAR EDSB 190950Z 31003KT 250V010 9999 FEW019 SCT022 BKN048 14/09 Q1020",
      "taf": "TAF EDSB 190500Z 1906/2006 24004KT 9999 SCT030"
    },
    {
      "icao": "EETN",
      "alert": "OK",
      "vis_m": 9999,
      "fzfg": false,
      "metar_trigger": false,
      "taf_trigger": false,
      "metar": "METAR EETN 190950Z 05014KT 9999 SCT035 06/M03 Q1025 NOSIG",
      "taf": "TAF EETN 190530Z 1906/2006 07014KT CAVOK"
    },
    {
      "icao": "EFTU",
      "alert": "OK",
      "vis_m": 9999,
      "fzfg": false,
      "metar_trigger": false,
      "taf_trigger": false,
      "metar": "METAR EFTU 190950Z AUTO 07008KT 010V130 CAVOK 09/M04 Q1027",
      "taf": "TAF EFTU 190835Z 1909/2009 10010KT CAVOK"
    },
    {
      "icao": "EGBB",
      "alert": "OK",
      "vis_m": 9999,
      "fzfg": false,
      "metar_trigger": false,
      "taf_trigger": false,
      "metar": "METAR EGBB 190950Z 33008KT 300V010 9999 SCT031 11/03 Q1027",
      "taf": "TAF EGBB 190453Z 1906/2006 33006KT 9999 FEW045"
    },
    {
      "icao": "EGGP",
      "alert": "OK",
      "vis_m": 9999,
      "fzfg": false,
      "metar_trigger": false,
      "taf_trigger": false,
      "metar": "METAR EGGP 190950Z 31006KT 280V350 9999 FEW033 SCT040 10/03 Q1027",
      "taf": "TAF EGGP 190453Z 1906/2006 35004KT 9999 FEW035"
    },
    {
      "icao": "EGGW",
      "alert": "OK",
      "vis_m": 9999,
      "fzfg": false,
      "metar_trigger": false,
      "taf_trigger": false,
      "metar": "METAR EGGW 190950Z AUTO 34011KT 9999 NCD 11/02 Q1026",
      "taf": "TAF EGGW 190502Z 1906/2006 32010KT CAVOK"
    },
    {
      "icao": "EGKK",
      "alert": "OK",
      "vis_m": 9999,
      "fzfg": false,
      "metar_trigger": false,
      "taf_trigger": false,
      "metar": "METAR EGKK 190950Z 34010KT 300V020 CAVOK 13/01 Q1026",
      "taf": "TAF EGKK 190457Z 1906/2012 34008KT CAVOK"
    },
    {
      "icao": "EGNM",
      "alert": "OK",
      "vis_m": 9999,
      "fzfg": false,
      "metar_trigger": false,
      "taf_trigger": false,
      "metar": "METAR EGNM 190950Z 29011KT 260V320 9999 FEW030 10/02 Q1026",
      "taf": "TAF EGNM 190454Z 1906/2006 29005KT 9999 FEW035"
    },
    {
      "icao": "EGPD",
      "alert": "OK",
      "vis_m": 9999,
      "fzfg": false,
      "metar_trigger": false,
      "taf_trigger": false,
      "metar": "METAR EGPD 190950Z COR AUTO 30017KT 9999 SCT032 10/02 Q1024 NOSIG",
      "taf": "TAF EGPD 190456Z 1906/2006 29009KT 9999 FEW030"
    },
    {
      "icao": "EGPF",
      "alert": "OK",
      "vis_m": 9999,
      "fzfg": false,
      "metar_trigger": false,
      "taf_trigger": false,
      "metar": "METAR EGPF 190950Z AUTO 30009KT 260V330 9999 FEW045 11/04 Q1027",
      "taf": "TAF EGPF 190506Z 1906/2006 24004KT 9999 FEW030"
    },
    {
      "icao": "EHBK",
      "alert": "OK",
      "vis_m": 9999,
      "fzfg": false,
      "metar_trigger": false,
      "taf_trigger": false,
      "metar": "METAR EHBK 190955Z AUTO 31006KT 240V040 9999 FEW030/// 14/07 Q1022 NOSIG",
      "taf": "TAF EHBK 190501Z 1906/2012 34007KT CAVOK"
    },
    {
      "icao": "EHEH",
      "alert": "OK",
      "vis_m": 9999,
      "fzfg": false,
      "metar_trigger": false,
      "taf_trigger": false,
      "metar": "METAR EHEH 190955Z AUTO 33007KT 250V040 9999 FEW029 SCT043 BKN069 14/07 Q1022 BLU TEMPO 34010G22KT 4500 SHRA SCT025CB",
      "taf": ""
    },
    {
      "icao": "EKBI",
      "alert": "OK",
      "vis_m": 9999,
      "fzfg": false,
      "metar_trigger": false,
      "taf_trigger": false,
      "metar": "METAR EKBI 190950Z AUTO 29007KT 250V330 9999 SCT017/// BKN044/// 10/06 Q1019",
      "taf": "TAF EKBI 190827Z 1909/2009 31008KT 9999 FEW008 BKN040"
    },
    {
      "icao": "EKCH",
      "alert": "OK",
      "vis_m": 8000,
      "fzfg": false,
      "metar_trigger": false,
      "taf_trigger": false,
      "metar": "METAR EKCH 190950Z 36003KT 8000 SCT012 OVC020 09/06 Q1018 TEMPO BKN008 FEW030CB",
      "taf": "TAF EKCH 190827Z 1909/2009 VRB03KT 8000 FEW008 BKN018"
    },
    {
      "icao": "ENAL",
      "alert": "OK",
      "vis_m": 800,
      "fzfg": false,
      "metar_trigger": false,
      "taf_trigger": false,
      "metar": "METAR ENAL 190950Z 34004KT 300V020 0800 FG VV002 08/07 Q1018",
      "taf": ""
    },
    {
      "icao": "ENBR",
      "alert": "OK",
      "vis_m": 9999,
      "fzfg": false,
      "metar_trigger": false,
      "taf_trigger": false,
      "metar": "METAR ENBR 190950Z 27002KT 9999 FEW007 BKN009 07/06 Q1017 BECMG SCT009 BKN030 RMK WIND 1200FT VRB02KT",
      "taf": ""
    },
    {
      "icao": "ENGM",
      "alert": "OK",
      "vis_m": 9999,
      "fzfg": false,
      "metar_trigger": false,
      "taf_trigger": false,
      "metar": "METAR ENGM 190950Z 10005KT 050V160 9999 -RA FEW012 BKN025 06/03 Q1021 TEMPO 1500 RADZ BR BKN012",
      "taf": ""
    },
    {
      "icao": "ENHD",
      "alert": "OK",
      "vis_m": 5000,
      "fzfg": false,
      "metar_trigger": false,
      "taf_trigger": false,
      "metar": "METAR ENHD 190950Z 26004KT 5000 -RA BR FEW003 SCT008 BKN015 07/07 Q1017",
      "taf": "TAF ENHD 190800Z 1909/1918 32005KT 6000 -RADZ SCT003 BKN010"
    },
    {
      "icao": "ENTC",
      "alert": "OK",
      "vis_m": 9999,
      "fzfg": false,
      "metar_trigger": false,
      "taf_trigger": false,
      "metar": "METAR ENTC 190950Z 23005KT CAVOK 08/01 Q1026 NOSIG RMK WIND 2600FT 21004KT",
      "taf": "TAF ENTC 190500Z 1906/2006 22002KT CAVOK"
    },
    {
      "icao": "ENTO",
      "alert": "OK",
      "vis_m": 2400,
      "fzfg": false,
      "metar_trigger": false,
      "taf_trigger": false,
      "metar": "METAR ENTO 190950Z 15008KT 2400 DZ BKN001 OVC003 07/07 Q1018 TEMPO 1200 -DZ BR BKN003",
      "taf": ""
    },
    {
      "icao": "ENVA",
      "alert": "OK",
      "vis_m": 9999,
      "fzfg": false,
      "metar_trigger": false,
      "taf_trigger": false,
      "metar": "METAR ENVA 190950Z 12010KT 090V160 CAVOK 15/M02 Q1021 TEMPO 15010G20KT RMK WIND 670FT 14017KT",
      "taf": "TAF ENVA 190500Z 1906/2006 11008KT CAVOK"
    },
    {
      "icao": "ENZV",
      "alert": "OK",
      "vis_m": 3500,
      "fzfg": false,
      "metar_trigger": false,
      "taf_trigger": false,
      "metar": "METAR ENZV 190950Z 30008KT 3500 SHRA OVC012 07/06 Q1018 REDZRA TEMPO 7000 -SHRA BKN008 SCT020TCU",
      "taf": "TAF ENZV 190500Z 1906/2006 27005KT 9999 SCT003 BKN015"
    },
    {
      "icao": "EPGD",
      "alert": "OK",
      "vis_m": 9999,
      "fzfg": false,
      "metar_trigger": false,
      "taf_trigger": false,
      "metar": "METAR EPGD 191000Z 06006KT CAVOK 08/05 Q1017",
      "taf": "TAF EPGD 190530Z 1906/2006 06007KT CAVOK"
    },
    {
      "icao": "EPKK",
      "alert": "OK",
      "vis_m": 9999,
      "fzfg": false,
      "metar_trigger": false,
      "taf_trigger": false,
      "metar": "METAR EPKK 191000Z 24005KT 210V290 9999 SCT055 18/06 Q1015",
      "taf": "TAF EPKK 190830Z 1909/2009 VRB02KT 9999 FEW040"
    },
    {
      "icao": "EPKT",
      "alert": "OK",
      "vis_m": 9999,
      "fzfg": false,
      "metar_trigger": false,
      "taf_trigger": false,
      "metar": "METAR EPKT 191000Z 23005KT 200V260 CAVOK 17/03 Q1014",
      "taf": "TAF EPKT 190530Z 1906/2006 VRB02KT CAVOK"
    },
    {
      "icao": "EPLB",
      "alert": "OK",
      "vis_m": 9999,
      "fzfg": false,
      "metar_trigger": false,
      "taf_trigger": false,
      "metar": "METAR EPLB 191000Z VRB02KT CAVOK 16/M00 Q1016",
      "taf": "TAF EPLB 190530Z 1906/2006 VRB02KT CAVOK"
    },
    {
      "icao": "EPMO",
      "alert": "OK",
      "vis_m": 9999,
      "fzfg": false,
      "metar_trigger": false,
      "taf_trigger": false,
      "metar": "METAR EPMO 191000Z 32004KT 250V060 CAVOK 17/00 Q1015",
      "taf": "TAF EPMO 190530Z 1906/2006 VRB04KT CAVOK"
    },
    {
      "icao": "EPPO",
      "alert": "OK",
      "vis_m": 9999,
      "fzfg": false,
      "metar_trigger": false,
      "taf_trigger": false,
      "metar": "METAR EPPO 191000Z 11005KT 9999 FEW040 16/06 Q1015",
      "taf": "TAF EPPO 190530Z 1906/2006 VRB02KT CAVOK"
    },
    {
      "icao": "EPRA",
      "alert": "OK",
      "vis_m": 9999,
      "fzfg": false,
      "metar_trigger": false,
      "taf_trigger": false,
      "metar": "METAR EPRA 191000Z 10005KT CAVOK 16/M00 Q1015",
      "taf": "TAF EPRA 190830Z 1909/1918 VRB03KT CAVOK"
    },
    {
      "icao": "EPRZ",
      "alert": "OK",
      "vis_m": 9999,
      "fzfg": false,
      "metar_trigger": false,
      "taf_trigger": false,
      "metar": "METAR EPRZ 191000Z 24004KT 170V280 CAVOK 17/02 Q1015",
      "taf": "TAF EPRZ 190530Z 1906/2006 VRB02KT CAVOK"
    },
    {
      "icao": "EPSC",
      "alert": "OK",
      "vis_m": 9999,
      "fzfg": false,
      "metar_trigger": false,
      "taf_trigger": false,
      "metar": "METAR EPSC 191000Z 03006KT 360V060 9999 FEW043 14/07 Q1015",
      "taf": "TAF EPSC 190530Z 1906/2006 VRB03KT CAVOK"
    },
    {
      "icao": "EPSY",
      "alert": "OK",
      "vis_m": 9999,
      "fzfg": false,
      "metar_trigger": false,
      "taf_trigger": false,
      "metar": "METAR EPSY 191000Z 35005KT 9999 -SHRA SCT035TCU BKN046 12/04 Q1017",
      "taf": "TAF EPSY 190830Z 1909/1918 01005KT CAVOK"
    },
    {
      "icao": "EPWA",
      "alert": "OK",
      "vis_m": 9999,
      "fzfg": false,
      "metar_trigger": false,
      "taf_trigger": false,
      "metar": "METAR EPWA 191000Z VRB03KT CAVOK 18/M01 Q1015 NOSIG",
      "taf": "TAF EPWA 190830Z 1909/2009 VRB04KT CAVOK"
    },
    {
      "icao": "EPWR",
      "alert": "OK",
      "vis_m": 9999,
      "fzfg": false,
      "metar_trigger": false,
      "taf_trigger": false,
      "metar": "METAR EPWR 191000Z 06004KT CAVOK 15/04 Q1014",
      "taf": "TAF EPWR 190830Z 1909/2009 15008KT CAVOK"
    },
    {
      "icao": "ESGG",
      "alert": "OK",
      "vis_m": 9999,
      "fzfg": false,
      "metar_trigger": false,
      "taf_trigger": false,
      "metar": "METAR ESGG 190950Z 11005KT 9999 SCT022 BKN030 08/07 Q1018",
      "taf": "TAF ESGG 190830Z 1909/2009 12005KT 9999 -RA SCT020 OVC030"
    },
    {
      "icao": "ESKN",
      "alert": "OK",
      "vis_m": 9999,
      "fzfg": false,
      "metar_trigger": false,
      "taf_trigger": false,
      "metar": "METAR ESKN 190950Z 12017KT CAVOK 08/M00 Q1024",
      "taf": "TAF ESKN 190830Z 1909/2009 13014KT CAVOK"
    },
    {
      "icao": "ESMS",
      "alert": "OK",
      "vis_m": 9000,
      "fzfg": false,
      "metar_trigger": false,
      "taf_trigger": false,
      "metar": "METAR ESMS 190950Z 00000KT 9000 -RA FEW018 OVC024 09/04 Q1017",
      "taf": "TAF ESMS 190827Z 1909/2009 VRB03KT 9999 BKN018"
    },
    {
      "icao": "ESSA",
      "alert": "OK",
      "vis_m": 9999,
      "fzfg": false,
      "metar_trigger": false,
      "taf_trigger": false,
      "metar": "METAR ESSA 190950Z 12011KT CAVOK 10/M03 Q1025 NOSIG",
      "taf": "TAF ESSA 190830Z 1909/2009 12012KT CAVOK"
    },
    {
      "icao": "EYKA",
      "alert": "OK",
      "vis_m": 9999,
      "fzfg": false,
      "metar_trigger": false,
      "taf_trigger": false,
      "metar": "METAR EYKA 190950Z 03006KT 320V110 CAVOK 12/M03 Q1018",
      "taf": "TAF EYKA 190500Z 1906/2006 VRB03KT 8000 SCT045"
    },
    {
      "icao": "EYPA",
      "alert": "OK",
      "vis_m": 9999,
      "fzfg": false,
      "metar_trigger": false,
      "taf_trigger": false,
      "metar": "METAR EYPA 190950Z 09010KT 060V120 CAVOK 12/M02 Q1019",
      "taf": "TAF EYPA 190500Z 1906/2006 07010KT 8000 NSC"
    },
    {
      "icao": "EYVI",
      "alert": "OK",
      "vis_m": 9999,
      "fzfg": false,
      "metar_trigger": false,
      "taf_trigger": false,
      "metar": "METAR EYVI 190950Z VRB04KT CAVOK 11/M02 Q1017 NOSIG",
      "taf": "TAF EYVI 190500Z 1906/2006 07012KT CAVOK"
    },
    {
      "icao": "GCFV",
      "alert": "OK",
      "vis_m": 9999,
      "fzfg": false,
      "metar_trigger": false,
      "taf_trigger": false,
      "metar": "METAR GCFV 191000Z 02004KT 330V070 CAVOK 24/13 Q1012",
      "taf": "TAF GCFV 190800Z 1909/2009 01010KT 8000 NSC TX29/1914Z TN19/2006Z"
    },
    {
      "icao": "GCLP",
      "alert": "OK",
      "vis_m": 9999,
      "fzfg": false,
      "metar_trigger": false,
      "taf_trigger": false,
      "metar": "METAR GCLP 191000Z 16005KT 090V200 CAVOK 26/11 Q1011 NOSIG",
      "taf": "TAF GCLP 190800Z 1909/2009 18010KT 8000 NSC TX28/1914Z TN17/2006Z"
    },
    {
      "icao": "GCTS",
      "alert": "OK",
      "vis_m": 9999,
      "fzfg": false,
      "metar_trigger": false,
      "taf_trigger": false,
      "metar": "METAR GCTS 191000Z 10011KT 070V140 CAVOK 29/06 Q1010 NOSIG",
      "taf": "TAF GCTS 190800Z 1909/2009 09012KT 8000 NSC TX29/1914Z TN18/2006Z"
    },
    {
      "icao": "GMAD",
      "alert": "OK",
      "vis_m": 8000,
      "fzfg": false,
      "metar_trigger": false,
      "taf_trigger": false,
      "metar": "METAR GMAD 191000Z 05007KT 8000 NSC 29/05 Q1013 NOSIG",
      "taf": "TAF GMAD 190500Z 1906/2012 05005KT 8000 NSC"
    },
    {
      "icao": "GMMN",
      "alert": "OK",
      "vis_m": 9999,
      "fzfg": false,
      "metar_trigger": false,
      "taf_trigger": false,
      "metar": "METAR GMMN 191000Z 08003KT 010V150 CAVOK 29/17 Q1015 NOSIG",
      "taf": "TAF GMMN 190500Z 1906/2012 14006KT CAVOK"
    },
    {
      "icao": "GMMX",
      "alert": "OK",
      "vis_m": 9999,
      "fzfg": false,
      "metar_trigger": false,
      "taf_trigger": false,
      "metar": "METAR GMMX 191000Z 11003KT 030V180 9999 FEW100 BKN200 26/11 Q1016 NOSIG",
      "taf": "TAF GMMX 190500Z 1906/2012 10006KT 9999 SCT100 SCT200"
    },
    {
      "icao": "HEGN",
      "alert": "OK",
      "vis_m": null,
      "fzfg": false,
      "metar_trigger": false,
      "taf_trigger": false,
      "metar": "",
      "taf": "TAF HEGN 190500Z 1906/2012 34015KT CAVOK"
    },
    {
      "icao": "HEMA",
      "alert": "OK",
      "vis_m": null,
      "fzfg": false,
      "metar_trigger": false,
      "taf_trigger": false,
      "metar": "",
      "taf": "TAF HEMA 190500Z 1906/2012 35014KT 9999 SCT025"
    },
    {
      "icao": "HESH",
      "alert": "OK",
      "vis_m": null,
      "fzfg": false,
      "metar_trigger": false,
      "taf_trigger": false,
      "metar": "",
      "taf": "TAF HESH 190500Z 1906/2012 01014KT CAVOK"
    },
    {
      "icao": "HESX",
      "alert": "OK",
      "vis_m": null,
      "fzfg": false,
      "metar_trigger": false,
      "taf_trigger": false,
      "metar": "",
      "taf": "TAF HESX 190500Z 1906/2012 29009KT CAVOK"
    },
    {
      "icao": "LATI",
      "alert": "OK",
      "vis_m": 9999,
      "fzfg": false,
      "metar_trigger": false,
      "taf_trigger": false,
      "metar": "METAR LATI 191020Z 25009KT 190V300 9999 FEW040 23/04 Q1016 NOSIG",
      "taf": "TAF LATI 190500Z 1906/2006 VRB03KT CAVOK TX27/1912Z TN08/2004Z"
    },
    {
      "icao": "LBPD",
      "alert": "OK",
      "vis_m": 9999,
      "fzfg": false,
      "metar_trigger": false,
      "taf_trigger": false,
      "metar": "METAR LBPD 191000Z AUTO 36003KT 280V080 9999 NCD 20/04 Q1015 NOSIG",
      "taf": "TAF LBPD 190500Z 1906/2006 VRB04KT 9999 SCT030 BKN060"
    },
    {
      "icao": "LBSF",
      "alert": "OK",
      "vis_m": 9999,
      "fzfg": false,
      "metar_trigger": false,
      "taf_trigger": false,
      "metar": "METAR LBSF 191000Z 29006KT 220V350 9999 FEW056 17/02 Q1016 NOSIG",
      "taf": "TAF LBSF 190500Z 1906/2006 VRB04KT 9999 SCT050"
    },
    {
      "icao": "LBWN",
      "alert": "OK",
      "vis_m": 9999,
      "fzfg": false,
      "metar_trigger": false,
      "taf_trigger": false,
      "metar": "METAR LBWN 191000Z 35015KT 310V010 9999 BKN045 18/05 Q1015 NOSIG",
      "taf": "TAF LBWN 190500Z 1906/2006 34010KT 9999 SCT040"
    },
    {
      "icao": "LCLK",
      "alert": "OK",
      "vis_m": 9999,
      "fzfg": false,
      "metar_trigger": false,
      "taf_trigger": false,
      "metar": "METAR LCLK 191000Z 21020KT 9999 FEW018 FEW025TCU SCT035 BKN070 21/16 Q1007 NOSIG",
      "taf": "TAF LCLK 190530Z 1906/2006 24007KT 8000 FEW030"
    },
    {
      "icao": "LCPH",
      "alert": "OK",
      "vis_m": 9999,
      "fzfg": false,
      "metar_trigger": false,
      "taf_trigger": false,
      "metar": "METAR LCPH 191000Z AUTO 26009KT 9999 BKN034 OVC043 19/16 Q1007 NOSIG",
      "taf": "TAF LCPH 190530Z 1906/2006 31008KT 9999 SCT012 SCT025"
    },
    {
      "icao": "LEAL",
      "alert": "OK",
      "vis_m": 9999,
      "fzfg": false,
      "metar_trigger": false,
      "taf_trigger": false,
      "metar": "METAR LEAL 191000Z 18004KT 090V250 CAVOK 24/08 Q1019 NOSIG",
      "taf": "TAF LEAL 190500Z 1906/2006 VRB04KT CAVOK TX25/1912Z TN12/2005Z"
    },
    {
      "icao": "LEBB",
      "alert": "OK",
      "vis_m": 9999,
      "fzfg": false,
      "metar_trigger": false,
      "taf_trigger": false,
      "metar": "METAR LEBB 191000Z VRB01KT 9999 FEW026 17/13 Q1019 NOSIG",
      "taf": "TAF LEBB 190500Z 1906/2006 09005KT 9999 FEW040 TX24/1913Z TN12/1906Z"
    },
    {
      "icao": "LEBL",
      "alert": "OK",
      "vis_m": 9999,
      "fzfg": false,
      "metar_trigger": false,
      "taf_trigger": false,
      "metar": "METAR LEBL 191000Z 22009KT 170V240 9999 FEW050 19/16 Q1019 NOSIG",
      "taf": "TAF LEBL 190500Z 1906/2006 VRB04KT 9999 FEW040 TX21/1912Z TN13/1906Z"
    },
    {
      "icao": "LECH",
      "alert": "OK",
      "vis_m": 9000,
      "fzfg": false,
      "metar_trigger": false,
      "taf_trigger": false,
      "metar": "METAR LECH 191000Z AUTO 11008KT 080V140 9000 NCD 22/11 Q1019",
      "taf": "TAF LECH 190500Z 1906/2006 VRB04KT CAVOK TX24/1913Z TN14/2005Z"
    },
    {
      "icao": "LEMD",
      "alert": "OK",
      "vis_m": 9999,
      "fzfg": false,
      "metar_trigger": false,
      "taf_trigger": false,
      "metar": "METAR LEMD 191000Z 15004KT 110V220 CAVOK 22/10 Q1019 NOSIG",
      "taf": "TAF LEMD 190500Z 1906/2012 VRB04KT CAVOK TX28/1916Z TN11/2006Z"
    },
    {
      "icao": "LEMG",
      "alert": "OK",
      "vis_m": 9999,
      "fzfg": false,
      "metar_trigger": false,
      "taf_trigger": false,
      "metar": "METAR LEMG 191000Z 11007KT 080V140 CAVOK 21/06 Q1019 NOSIG",
      "taf": "TAF LEMG 190500Z 1906/2006 29010KT CAVOK TX23/1914Z TN09/1906Z"
    },
    {
      "icao": "LEVC",
      "alert": "OK",
      "vis_m": 9999,
      "fzfg": false,
      "metar_trigger": false,
      "taf_trigger": false,
      "metar": "METAR LEVC 191000Z 12003KT 060V180 CAVOK 23/10 Q1018 NOSIG",
      "taf": "TAF LEVC 190500Z 1906/2006 VRB04KT CAVOK TX27/1912Z TN12/2005Z"
    },
    {
      "icao": "LEXJ",
      "alert": "OK",
      "vis_m": 9999,
      "fzfg": false,
      "metar_trigger": false,
      "taf_trigger": false,
      "metar": "METAR LEXJ 191000Z 04005KT 320V110 CAVOK 16/13 Q1018",
      "taf": "TAF LEXJ 190800Z 1909/2009 06009KT 9999 FEW040 TX21/1913Z TN12/2005Z"
    },
    {
      "icao": "LEZG",
      "alert": "OK",
      "vis_m": 9999,
      "fzfg": false,
      "metar_trigger": false,
      "taf_trigger": false,
      "metar": "METAR LEZG 191000Z 30007KT 270V330 CAVOK 20/12 Q1019 NOSIG",
      "taf": ""
    },
    {
      "icao": "LEZL",
      "alert": "OK",
      "vis_m": 9999,
      "fzfg": false,
      "metar_trigger": false,
      "taf_trigger": false,
      "metar": "METAR LEZL 191000Z 05004KT 010V120 CAVOK 25/08 Q1016 NOSIG",
      "taf": "TAF LEZL 190800Z 1909/2009 VRB03KT CAVOK TX32/1915Z TN12/2006Z"
    },
    {
      "icao": "LFBD",
      "alert": "OK",
      "vis_m": 9999,
      "fzfg": false,
      "metar_trigger": false,
      "taf_trigger": false,
      "metar": "METAR LFBD 191000Z AUTO 05008KT 010V080 CAVOK 19/11 Q1020 NOSIG",
      "taf": "TAF LFBD 190500Z 1906/2012 03005KT CAVOK TX25/1915Z TN12/1906Z"
    },
    {
      "icao": "LFLL",
      "alert": "OK",
      "vis_m": 9999,
      "fzfg": false,
      "metar_trigger": false,
      "taf_trigger": false,
      "metar": "METAR LFLL 191000Z 35012KT 9999 OVC020 16/11 Q1021 NOSIG",
      "taf": ""
    },
    {
      "icao": "LFLS",
      "alert": "OK",
      "vis_m": null,
      "fzfg": false,
      "metar_trigger": false,
      "taf_trigger": false,
      "metar": "",
      "taf": "TAF LFLS 190200Z 1903/2003 09005KT CAVOK"
    },
    {
      "icao": "LFMN",
      "alert": "OK",
      "vis_m": 9999,
      "fzfg": false,
      "metar_trigger": false,
      "taf_trigger": false,
      "metar": "METAR LFMN 191000Z 10009KT 9999 FEW011 BKN230 19/15 Q1016 NOSIG",
      "taf": "TAF LFMN 190800Z 1909/2015 09008KT 9999 FEW014"
    },
    {
      "icao": "LFOB",
      "alert": "OK",
      "vis_m": 9999,
      "fzfg": false,
      "metar_trigger": false,
      "taf_trigger": false,
      "metar": "METAR LFOB 191000Z AUTO 03004KT 350V100 9999 SCT029 SCT034 14/08 Q1024 NOSIG",
      "taf": "TAF LFOB 190500Z 1906/2006 30005KT 9999 SCT040"
    },
    {
      "icao": "LFPO",
      "alert": "OK",
      "vis_m": 9999,
      "fzfg": false,
      "metar_trigger": false,
      "taf_trigger": false,
      "metar": "METAR LFPO 191000Z VRB05KT CAVOK 15/07 Q1024 NOSIG",
      "taf": "TAF LFPO 190500Z 1906/2012 33006KT CAVOK"
    },
    {
      "icao": "LFSB",
      "alert": "OK",
      "vis_m": 9999,
      "fzfg": false,
      "metar_trigger": false,
      "taf_trigger": false,
      "metar": "METAR LFSB 191000Z AUTO 28010KT 9999 BKN029 BKN056 BKN066 17/11 Q1019 TEMPO SHRA FEW025TCU BKN030 BECMG 36006KT",
      "taf": ""
    },
    {
      "icao": "LGAV",
      "alert": "OK",
      "vis_m": 9999,
      "fzfg": false,
      "metar_trigger": false,
      "taf_trigger": false,
      "metar": "METAR LGAV 190950Z 05012KT 9999 SCT025 19/04 Q1017 NOSIG",
      "taf": "TAF LGAV 190500Z 1906/2006 02010KT 9999 FEW025"
    },
    {
      "icao": "LGTS",
      "alert": "OK",
      "vis_m": 9999,
      "fzfg": false,
      "metar_trigger": false,
      "taf_trigger": false,
      "metar": "METAR LGTS 190950Z 28005KT 9999 FEW025 18/11 Q1017 NOSIG",
      "taf": "TAF LGTS 190500Z 1906/2006 12010KT 9999 FEW025"
    },
    {
      "icao": "LHBP",
      "alert": "OK",
      "vis_m": 9999,
      "fzfg": false,
      "metar_trigger": false,
      "taf_trigger": false,
      "metar": "METAR LHBP 191000Z 24009KT 190V290 CAVOK 20/02 Q1015 NOSIG",
      "taf": "TAF LHBP 190515Z 1906/2006 VRB03KT CAVOK"
    },
    {
      "icao": "LHDC",
      "alert": "OK",
      "vis_m": 9999,
      "fzfg": false,
      "metar_trigger": false,
      "taf_trigger": false,
      "metar": "METAR LHDC 190945Z AUTO VRB04KT CAVOK 20/03 Q1016 NOSIG",
      "taf": "TAF LHDC 190815Z 1909/1918 VRB03KT CAVOK"
    },
    {
      "icao": "LIBD",
      "alert": "OK",
      "vis_m": 9999,
      "fzfg": false,
      "metar_trigger": false,
      "taf_trigger": false,
      "metar": "METAR LIBD 190950Z 01006KT 330V060 CAVOK 19/11 Q1017",
      "taf": "TAF LIBD 190500Z 1906/2006 26007KT CAVOK"
    },
    {
      "icao": "LIBG",
      "alert": "OK",
      "vis_m": 9999,
      "fzfg": false,
      "metar_trigger": false,
      "taf_trigger": false,
      "metar": "METAR LIBG 190950Z VRB04KT CAVOK 23/12 Q1016",
      "taf": "TAF LIBG 190800Z 1909/1918 VRB04KT 9999 FEW045"
    },
    {
      "icao": "LIBP",
      "alert": "OK",
      "vis_m": 9999,
      "fzfg": false,
      "metar_trigger": false,
      "taf_trigger": false,
      "metar": "METAR LIBP 190950Z AUTO 05007KT 020V090 9999 NCD 21/06 Q1017",
      "taf": "TAF LIBP 190500Z 1906/2006 VRB05KT CAVOK"
    },
    {
      "icao": "LIBR",
      "alert": "OK",
      "vis_m": 9999,
      "fzfg": false,
      "metar_trigger": false,
      "taf_trigger": false,
      "metar": "METAR LIBR 190950Z 31013KT CAVOK 18/13 Q1017",
      "taf": "TAF LIBR 190500Z 1906/2006 32014KT CAVOK"
    },
    {
      "icao": "LICA",
      "alert": "OK",
      "vis_m": 9999,
      "fzfg": false,
      "metar_trigger": false,
      "taf_trigger": false,
      "metar": "METAR LICA 190950Z AUTO 25008KT 210V280 9999 NCD 19/14 Q1018",
      "taf": "TAF LICA 190500Z 1906/2006 VRB05KT 9999 FEW020"
    },
    {
      "icao": "LICC",
      "alert": "OK",
      "vis_m": 9999,
      "fzfg": false,
      "metar_trigger": false,
      "taf_trigger": false,
      "metar": "METAR LICC 190950Z 21004KT 150V250 CAVOK 24/20 Q1017",
      "taf": "TAF LICC 190500Z 1906/2006 26006KT 9999 FEW060"
    },
    {
      "icao": "LICJ",
      "alert": "OK",
      "vis_m": 9999,
      "fzfg": false,
      "metar_trigger": false,
      "taf_trigger": false,
      "metar": "METAR LICJ 190950Z 03008KT CAVOK 18/15 Q1018",
      "taf": "TAF LICJ 190500Z 1906/2006 VRB05KT CAVOK"
    },
    {
      "icao": "LIMC",
      "alert": "OK",
      "vis_m": 9999,
      "fzfg": false,
      "metar_trigger": false,
      "taf_trigger": false,
      "metar": "METAR LIMC 190950Z 13006KT 100V180 CAVOK 20/11 Q1017 NOSIG",
      "taf": "TAF LIMC 190500Z 1906/2012 02010KT 9999 SCT040"
    },
    {
      "icao": "LIME",
      "alert": "OK",
      "vis_m": 9999,
      "fzfg": false,
      "metar_trigger": false,
      "taf_trigger": false,
      "metar": "METAR LIME 190950Z 14004KT 110V200 9999 SCT050 18/12 Q1017 NOSIG",
      "taf": "TAF LIME 190500Z 1906/2006 VRB05KT 9999 SCT040"
    },
    {
      "icao": "LIMF",
      "alert": "OK",
      "vis_m": 8000,
      "fzfg": false,
      "metar_trigger": false,
      "taf_trigger": false,
      "metar": "METAR LIMF 190950Z 04006KT 350V090 8000 NSC 20/11 Q1017",
      "taf": "TAF LIMF 190500Z 1906/2006 VRB05KT 9999 SCT040"
    },
    {
      "icao": "LIMJ",
      "alert": "OK",
      "vis_m": 9999,
      "fzfg": false,
      "metar_trigger": false,
      "taf_trigger": false,
      "metar": "METAR LIMJ 190950Z VRB02KT 9999 SCT011 18/15 Q1017",
      "taf": "TAF LIMJ 190500Z 1906/2006 VRB05KT 9999 FEW015"
    },
    {
      "icao": "LIPE",
      "alert": "OK",
      "vis_m": 9999,
      "fzfg": false,
      "metar_trigger": false,
      "taf_trigger": false,
      "metar": "METAR LIPE 190950Z 33006KT 290V360 CAVOK 19/13 Q1016",
      "taf": "TAF LIPE 190500Z 1906/2006 VRB05KT CAVOK"
    },
    {
      "icao": "LIPH",
      "alert": "OK",
      "vis_m": 9999,
      "fzfg": false,
      "metar_trigger": false,
      "taf_trigger": false,
      "metar": "METAR LIPH 190950Z 21005KT 9999 BKN070 19/12 Q1016",
      "taf": "TAF LIPH 190500Z 1906/2006 VRB05KT 9999 FEW050"
    },
    {
      "icao": "LIPQ",
      "alert": "OK",
      "vis_m": 9999,
      "fzfg": false,
      "metar_trigger": false,
      "taf_trigger": false,
      "metar": "METAR LIPQ 190950Z AUTO 18004KT 140V210 9999 BKN088/// 20/09 Q1016",
      "taf": "TAF LIPQ 190500Z 1906/2006 VRB05KT 9999 FEW070"
    },
    {
      "icao": "LIPR",
      "alert": "OK",
      "vis_m": 9999,
      "fzfg": false,
      "metar_trigger": false,
      "taf_trigger": false,
      "metar": "METAR LIPR 190950Z AUTO 09009KT 9999 NCD 21/11 Q1016",
      "taf": "TAF LIPR 190500Z 1906/2006 VRB05KT CAVOK"
    },
    {
      "icao": "LIPX",
      "alert": "OK",
      "vis_m": 9999,
      "fzfg": false,
      "metar_trigger": false,
      "taf_trigger": false,
      "metar": "METAR LIPX 190950Z 29005KT 260V340 9999 -RA FEW030 BKN065 15/14 Q1017",
      "taf": "TAF LIPX 190500Z 1906/2006 VRB05KT 9999 SCT040"
    },
    {
      "icao": "LIPY",
      "alert": "OK",
      "vis_m": 9999,
      "fzfg": false,
      "metar_trigger": false,
      "taf_trigger": false,
      "metar": "METAR LIPY 190950Z AUTO 02005KT 290V070 9999 FEW230/// 24/12 Q1016",
      "taf": "TAF LIPY 190500Z 1906/2006 VRB05KT CAVOK"
    },
    {
      "icao": "LIPZ",
      "alert": "OK",
      "vis_m": 9999,
      "fzfg": false,
      "metar_trigger": false,
      "taf_trigger": false,
      "metar": "METAR LIPZ 190950Z 22006KT 9999 BKN065 19/13 Q1016 NOSIG",
      "taf": "TAF LIPZ 190500Z 1906/2012 VRB05KT 9999 FEW060"
    },
    {
      "icao": "LIRF",
      "alert": "OK",
      "vis_m": 9999,
      "fzfg": false,
      "metar_trigger": false,
      "taf_trigger": false,
      "metar": "METAR LIRF 190950Z 19005KT 140V220 CAVOK 22/08 Q1017 NOSIG",
      "taf": "TAF LIRF 190500Z 1906/2012 07006KT CAVOK"
    },
    {
      "icao": "LIRN",
      "alert": "OK",
      "vis_m": 9999,
      "fzfg": false,
      "metar_trigger": false,
      "taf_trigger": false,
      "metar": "METAR LIRN 190950Z 18005KT 130V240 CAVOK 22/08 Q1017 NOSIG",
      "taf": "TAF LIRN 190500Z 1906/2006 VRB04KT CAVOK"
    },
    {
      "icao": "LIRP",
      "alert": "OK",
      "vis_m": 9999,
      "fzfg": false,
      "metar_trigger": false,
      "taf_trigger": false,
      "metar": "METAR LIRP 190945Z VRB03KT CAVOK 22/11 Q1017 NOSIG",
      "taf": "TAF LIRP 190500Z 1906/2006 12004KT CAVOK"
    },
    {
      "icao": "LIRZ",
      "alert": "OK",
      "vis_m": 9999,
      "fzfg": false,
      "metar_trigger": false,
      "taf_trigger": false,
      "metar": "METAR LIRZ 190950Z AUTO VRB02KT 9999 NCD 20/09 Q1017",
      "taf": "TAF LIRZ 190500Z 1906/2006 VRB05KT CAVOK"
    },
    {
      "icao": "LJLJ",
      "alert": "OK",
      "vis_m": 9999,
      "fzfg": false,
      "metar_trigger": false,
      "taf_trigger": false,
      "metar": "METAR LJLJ 191000Z VRB03KT 9999 FEW070 SCT250 20/08 Q1015 NOSIG",
      "taf": "TAF LJLJ 190500Z 1906/2006 VRB02KT CAVOK"
    },
    {
      "icao": "LKMT",
      "alert": "OK",
      "vis_m": 9999,
      "fzfg": false,
      "metar_trigger": false,
      "taf_trigger": false,
      "metar": "METAR LKMT 191000Z 24007KT 210V270 CAVOK 18/04 Q1015 NOSIG",
      "taf": "TAF LKMT 190500Z 1906/2006 23008KT 9999 BKN035"
    },
    {
      "icao": "LKPR",
      "alert": "OK",
      "vis_m": 9999,
      "fzfg": false,
      "metar_trigger": false,
      "taf_trigger": false,
      "metar": "METAR LKPR 191000Z 21008KT 9999 -RA SCT010 12/11 Q1015 NOSIG",
      "taf": "TAF LKPR 190800Z 1909/2015 24008KT 9999 BKN045"
    },
    {
      "icao": "LLBG",
      "alert": "OK",
      "vis_m": 9999,
      "fzfg": false,
      "metar_trigger": false,
      "taf_trigger": false,
      "metar": "METAR LLBG 190950Z 24014KT 9999 FEW038 23/12 Q1010 NOSIG",
      "taf": "TAF LLBG 190503Z 1906/2006 19006KT 9999 SCT025 TX23/1910Z TN15/2004Z"
    },
    {
      "icao": "LMML",
      "alert": "OK",
      "vis_m": 9999,
      "fzfg": false,
      "metar_trigger": false,
      "taf_trigger": false,
      "metar": "METAR LMML 191015Z 21008KT 150V240 9999 BKN010 19/15 Q1018 NOSIG",
      "taf": ""
    },
    {
      "icao": "LOWW",
      "alert": "OK",
      "vis_m": 9999,
      "fzfg": false,
      "metar_trigger": false,
      "taf_trigger": false,
      "metar": "METAR LOWW 190950Z VRB03KT 9999 FEW050 20/07 Q1015 NOSIG",
      "taf": "TAF LOWW 190815Z 1909/2015 16008KT CAVOK TX20/1911Z TN08/2004Z"
    },
    {
      "icao": "LPFR",
      "alert": "OK",
      "vis_m": 9999,
      "fzfg": false,
      "metar_trigger": false,
      "taf_trigger": false,
      "metar": "METAR LPFR 191000Z 09010KT CAVOK 22/08 Q1016",
      "taf": "TAF LPFR 190500Z 1906/2006 02005KT CAVOK"
    },
    {
      "icao": "LPMA",
      "alert": "OK",
      "vis_m": 9999,
      "fzfg": false,
      "metar_trigger": false,
      "taf_trigger": false,
      "metar": "METAR LPMA 191000Z 02009KT 350V060 9999 FEW011 SCT015TCU 21/11 Q1012",
      "taf": "TAF LPMA 190500Z 1906/2006 02010KT 9999 SCT013"
    },
    {
      "icao": "LPPR",
      "alert": "OK",
      "vis_m": 9999,
      "fzfg": false,
      "metar_trigger": false,
      "taf_trigger": false,
      "metar": "METAR LPPR 191000Z 24006KT 200V270 9999 3000W VCFG FEW007 17/14 Q1016",
      "taf": "TAF LPPR 190500Z 1906/2006 VRB02KT 0800 BCFG SCT001 BKN002"
    },
    {
      "icao": "LPPS",
      "alert": "OK",
      "vis_m": 9999,
      "fzfg": false,
      "metar_trigger": false,
      "taf_trigger": false,
      "metar": "METAR LPPS 191000Z 17004KT 100V230 9999 FEW010 SCT016TCU 18/15 Q1014",
      "taf": "TAF LPPS 190500Z 1906/2012 09015KT 9999 SCT012"
    },
    {
      "icao": "LPPT",
      "alert": "OK",
      "vis_m": 9999,
      "fzfg": false,
      "metar_trigger": false,
      "taf_trigger": false,
      "metar": "METAR LPPT 191000Z VRB02KT CAVOK 20/14 Q1016",
      "taf": ""
    },
    {
      "icao": "LQBK",
      "alert": "OK",
      "vis_m": 9999,
      "fzfg": false,
      "metar_trigger": false,
      "taf_trigger": false,
      "metar": "METAR LQBK 191000Z 09005KT 050V140 CAVOK 20/01 Q1017 NOSIG",
      "taf": "TAF LQBK 190500Z 1906/2006 15005KT CAVOK TX23/1913Z TN07/2004Z"
    },
    {
      "icao": "LQSA",
      "alert": "OK",
      "vis_m": 9999,
      "fzfg": false,
      "metar_trigger": false,
      "taf_trigger": false,
      "metar": "METAR LQSA 191000Z 27004KT 190V340 CAVOK 16/03 Q1017 NOSIG",
      "taf": "TAF LQSA 190500Z 1906/2006 VRB02KT 9999 SCT060 TX24/1914Z TN05/1906Z"
    },
    {
      "icao": "LQTZ",
      "alert": "OK",
      "vis_m": 9999,
      "fzfg": false,
      "metar_trigger": false,
      "taf_trigger": false,
      "metar": "METAR LQTZ 191000Z VRB04KT CAVOK 19/04 Q1017",
      "taf": "TAF LQTZ 190500Z 1906/2006 10005KT CAVOK TX22/1913Z TN06/1906Z"
    },
    {
      "icao": "LRBC",
      "alert": "OK",
      "vis_m": 9999,
      "fzfg": false,
      "metar_trigger": false,
      "taf_trigger": false,
      "metar": "METAR LRBC 191000Z 35005KT 280V030 9999 SCT045 16/06 Q1016",
      "taf": "TAF LRBC 190800Z 1909/1918 01006KT 9999 SCT040"
    },
    {
      "icao": "LRBS",
      "alert": "OK",
      "vis_m": 9999,
      "fzfg": false,
      "metar_trigger": false,
      "taf_trigger": false,
      "metar": "METAR LRBS 191000Z 29003KT CAVOK 19/07 Q1016 NOSIG",
      "taf": "TAF LRBS 190500Z 1906/2006 VRB04KT CAVOK"
    },
    {
      "icao": "LRBV",
      "alert": "OK",
      "vis_m": 9999,
      "fzfg": false,
      "metar_trigger": false,
      "taf_trigger": false,
      "metar": "METAR LRBV 191000Z 28006KT 230V350 9999 FEW058 15/02 Q1016",
      "taf": "TAF LRBV 190800Z 1909/1918 VRB04KT 9999 SCT040"
    },
    {
      "icao": "LRCL",
      "alert": "OK",
      "vis_m": 9999,
      "fzfg": false,
      "metar_trigger": false,
      "taf_trigger": false,
      "metar": "METAR LRCL 191000Z VRB03KT CAVOK 17/04 Q1016",
      "taf": "TAF LRCL 190800Z 1909/1918 VRB04KT CAVOK"
    },
    {
      "icao": "LRCV",
      "alert": "OK",
      "vis_m": 9999,
      "fzfg": false,
      "metar_trigger": false,
      "taf_trigger": false,
      "metar": "METAR LRCV 191000Z 18004KT 120V240 CAVOK 18/08 Q1016",
      "taf": "TAF LRCV 190800Z 1909/1918 VRB04KT CAVOK"
    },
    {
      "icao": "LRIA",
      "alert": "OK",
      "vis_m": 9999,
      "fzfg": false,
      "metar_trigger": false,
      "taf_trigger": false,
      "metar": "METAR LRIA 191000Z 28009KT 220V310 9999 SCT043 16/06 Q1015",
      "taf": "TAF LRIA 190800Z 1909/1918 VRB04KT 9999 SCT045"
    },
    {
      "icao": "LROP",
      "alert": "OK",
      "vis_m": 9999,
      "fzfg": false,
      "metar_trigger": false,
      "taf_trigger": false,
      "metar": "METAR LROP 191000Z 09006KT CAVOK 18/01 Q1016 NOSIG",
      "taf": "TAF LROP 190500Z 1906/2006 VRB04KT CAVOK"
    },
    {
      "icao": "LRSB",
      "alert": "OK",
      "vis_m": 9999,
      "fzfg": false,
      "metar_trigger": false,
      "taf_trigger": false,
      "metar": "METAR LRSB 191000Z 35006KT 300V020 CAVOK 18/03 Q1016 NOSIG",
      "taf": "TAF LRSB 190500Z 1906/2006 VRB04KT CAVOK"
    },
    {
      "icao": "LRSM",
      "alert": "OK",
      "vis_m": 9999,
      "fzfg": false,
      "metar_trigger": false,
      "taf_trigger": false,
      "metar": "METAR LRSM 191000Z AUTO 31004KT 230V360 9999 SCT140/// 18/03 Q1016",
      "taf": ""
    },
    {
      "icao": "LRSV",
      "alert": "OK",
      "vis_m": 9999,
      "fzfg": false,
      "metar_trigger": false,
      "taf_trigger": false,
      "metar": "METAR LRSV 191000Z 32008KT 290V350 9999 BKN045 15/03 Q1015",
      "taf": "TAF LRSV 190800Z 1909/1918 31008KT 9999 SCT040"
    },
    {
      "icao": "LRTM",
      "alert": "OK",
      "vis_m": 9999,
      "fzfg": false,
      "metar_trigger": false,
      "taf_trigger": false,
      "metar": "METAR LRTM 191000Z VRB04KT CAVOK 17/03 Q1016",
      "taf": "TAF LRTM 190800Z 1909/1918 VRB04KT CAVOK"
    },
    {
      "icao": "LRTR",
      "alert": "OK",
      "vis_m": 9999,
      "fzfg": false,
      "metar_trigger": false,
      "taf_trigger": false,
      "metar": "METAR LRTR 191000Z 36004KT 260V070 CAVOK 19/05 Q1016 NOSIG",
      "taf": "TAF LRTR 190500Z 1906/2006 VRB04KT CAVOK"
    },
    {
      "icao": "LTAC",
      "alert": "OK",
      "vis_m": 9999,
      "fzfg": false,
      "metar_trigger": false,
      "taf_trigger": false,
      "metar": "METAR LTAC 190950Z 06007KT 9999 SCT035 BKN100 10/01 Q1012 NOSIG RMK RWY21C 07008KT RWY03L 05006KT 350V090 RWY21R 05008KT RWY03R 05008KT 020V080 RWY21L 05006KT 350V070",
      "taf": "TAF LTAC 190440Z 1906/2006 VRB02KT 9999 SCT040 BKN100"
    },
    {
      "icao": "LTFM",
      "alert": "OK",
      "vis_m": 9999,
      "fzfg": false,
      "metar_trigger": false,
      "taf_trigger": false,
      "metar": "METAR LTFM 190950Z 02011KT 340V040 CAVOK 14/07 Q1016 NOSIG RMK RWY17L 01010KT RWY34L 01010KT 330V030 RWY16R 01011KT RWY36 36011KT 330V030 RWY18 35011KT 300V020",
      "taf": "TAF LTFM 190440Z 1906/2012 28005KT 9999 FEW040 SCT100"
    },
    {
      "icao": "LUKK",
      "alert": "OK",
      "vis_m": 9999,
      "fzfg": false,
      "metar_trigger": false,
      "taf_trigger": false,
      "metar": "METAR LUKK 191000Z 01009KT 330V040 CAVOK 16/01 Q1014 NOSIG",
      "taf": "TAF LUKK 190516Z 1906/2006 33012KT CAVOK"
    },
    {
      "icao": "LWOH",
      "alert": "OK",
      "vis_m": 9999,
      "fzfg": false,
      "metar_trigger": false,
      "taf_trigger": false,
      "metar": "METAR LWOH 191020Z 16006KT 120V180 9999 FEW042 16/04 Q1017",
      "taf": "TAF LWOH 190805Z 1909/2009 16007KT CAVOK"
    },
    {
      "icao": "LWSK",
      "alert": "OK",
      "vis_m": 9999,
      "fzfg": false,
      "metar_trigger": false,
      "taf_trigger": false,
      "metar": "METAR LWSK 191020Z 27003KT 220V350 CAVOK 21/05 Q1016 NOSIG",
      "taf": "TAF LWSK 190805Z 1909/2009 VRB03KT CAVOK"
    },
    {
      "icao": "LYBE",
      "alert": "OK",
      "vis_m": 9999,
      "fzfg": false,
      "metar_trigger": false,
      "taf_trigger": false,
      "metar": "METAR LYBE 191000Z 26004KT 170V320 CAVOK 19/04 Q1017 NOSIG",
      "taf": "TAF LYBE 190500Z 1906/2006 22005KT CAVOK TX22/1913Z TN08/1906Z"
    },
    {
      "icao": "LYNI",
      "alert": "OK",
      "vis_m": 9999,
      "fzfg": false,
      "metar_trigger": false,
      "taf_trigger": false,
      "metar": "METAR LYNI 191000Z 30007KT 240V350 CAVOK 19/05 Q1017 NOSIG",
      "taf": "TAF LYNI 190500Z 1906/2006 11004KT CAVOK TX22/1913Z TN06/1906Z"
    },
    {
      "icao": "LYPG",
      "alert": "OK",
      "vis_m": 9999,
      "fzfg": false,
      "metar_trigger": false,
      "taf_trigger": false,
      "metar": "METAR LYPG 191000Z VRB03KT CAVOK 22/02 Q1016 NOSIG",
      "taf": "TAF LYPG 190500Z 1906/2006 36006KT CAVOK TX26/1913Z TN12/2004Z"
    },
    {
      "icao": "LZIB",
      "alert": "OK",
      "vis_m": 9999,
      "fzfg": false,
      "metar_trigger": false,
      "taf_trigger": false,
      "metar": "METAR LZIB 191000Z VRB02KT CAVOK 19/06 Q1015 NOSIG",
      "taf": "TAF LZIB 190515Z 1906/2006 VRB02KT CAVOK"
    },
    {
      "icao": "LZKZ",
      "alert": "OK",
      "vis_m": 9999,
      "fzfg": false,
      "metar_trigger": false,
      "taf_trigger": false,
      "metar": "METAR LZKZ 191000Z 18008KT CAVOK 18/05 Q1015 NOSIG",
      "taf": "TAF LZKZ 190515Z 1906/2006 VRB02KT CAVOK"
    },
    {
      "icao": "LZTT",
      "alert": "OK",
      "vis_m": 9999,
      "fzfg": false,
      "metar_trigger": false,
      "taf_trigger": false,
      "metar": "METAR LZTT 191000Z VRB04KT 9999 FEW056 16/01 Q1015 NOSIG",
      "taf": "TAF LZTT 190515Z 1906/2006 26005KT CAVOK"
    },
    {
      "icao": "OEJN",
      "alert": "OK",
      "vis_m": 7000,
      "fzfg": false,
      "metar_trigger": false,
      "taf_trigger": false,
      "metar": "METAR OEJN 191000Z 26011KT 7000 NSC 37/22 Q1006 NOSIG",
      "taf": "TAF OEJN 190500Z 1906/2012 22015KT 7000 FEW040"
    },
    {
      "icao": "OEMA",
      "alert": "OK",
      "vis_m": 9999,
      "fzfg": false,
      "metar_trigger": false,
      "taf_trigger": false,
      "metar": "METAR OEMA 191000Z 21011KT 9999 FEW040 35/09 Q1012 NOSIG",
      "taf": "TAF OEMA 190500Z 1906/2012 23006KT 7000 SCT040"
    },
    {
      "icao": "OJAI",
      "alert": "OK",
      "vis_m": null,
      "fzfg": false,
      "metar_trigger": false,
      "taf_trigger": false,
      "metar": "",
      "taf": "TAF OJAI 190500Z 1906/2012 25012KT 4000 HZ SCT030"
    },
    {
      "icao": "OMAA",
      "alert": "OK",
      "vis_m": null,
      "fzfg": false,
      "metar_trigger": false,
      "taf_trigger": false,
      "metar": "",
      "taf": ""
    },
    {
      "icao": "OMDB",
      "alert": "OK",
      "vis_m": null,
      "fzfg": false,
      "metar_trigger": false,
      "taf_trigger": false,
      "metar": "",
      "taf": ""
    },
    {
      "icao": "UAAA",
      "alert": "OK",
      "vis_m": 9999,
      "fzfg": false,
      "metar_trigger": false,
      "taf_trigger": false,
      "metar": "METAR UAAA 191000Z 26006MPS 9999 SCT050CB OVC100 11/05 Q1017 NOSIG",
      "taf": "TAF UAAA 190503Z 1906/2006 22002G07MPS 9999 BKN040CB OVC100 TX12/1909Z TN04/2001Z"
    },
    {
      "icao": "UBBB",
      "alert": "OK",
      "vis_m": 9999,
      "fzfg": false,
      "metar_trigger": false,
      "taf_trigger": false,
      "metar": "METAR UBBB 191000Z 22010KT CAVOK 20/13 Q1001 NOSIG",
      "taf": "TAF UBBB 190456Z 1906/2006 19018G28KT 9999 SCT025 TX19/09Z TN10/2001Z"
    },
    {
      "icao": "UDSG",
      "alert": "OK",
      "vis_m": 9999,
      "fzfg": false,
      "metar_trigger": false,
      "taf_trigger": false,
      "metar": "METAR UDSG 191000Z 22010KT 9999 BKN040CB 12/06 Q1009 NOSIG",
      "taf": "TAF UDSG 190500Z 1906/2006 27006KT 9999 BKN040"
    },
    {
      "icao": "UDYZ",
      "alert": "OK",
      "vis_m": 9999,
      "fzfg": false,
      "metar_trigger": false,
      "taf_trigger": false,
      "metar": "METAR UDYZ 191000Z VRB02KT 9999 FEW036 16/10 Q1007 NOSIG",
      "taf": "TAF UDYZ 190500Z 1906/2006 24006KT 6000 BKN030"
    },
    {
      "icao": "UGKO",
      "alert": "OK",
      "vis_m": 9999,
      "fzfg": false,
      "metar_trigger": false,
      "taf_trigger": false,
      "metar": "METAR UGKO 191000Z 27006KT 9999 FEW006 SCT008 BKN011 11/09 Q1011 NOSIG",
      "taf": "TAF UGKO 190500Z 1906/2006 26007KT 9999 SCT020 BKN050 TX14/1911Z TN09/2003Z"
    }
  ]
}