{
  "ts_utc": "2026-01-15T10:54:45Z",
  "threshold_m": 150,
  "source": "stations_override.txt (ICAO list) + aviationweather.gov (METAR/TAF raw)",
  "station_count": 159,
  "stations": [
    {
      "icao": "BIKF",
      "alert": "OK",
      "vis_m": 9999,
      "fzfg": false,
      "metar_trigger": false,
      "taf_trigger": false,
      "metar": "METAR BIKF 151030Z 03015KT CAVOK M00/M05 Q0987",
      "taf": "TAF BIKF 151034Z 1512/1612 02018KT 9999 FEW025 SCT045 TX02/1606Z TN00/1512Z"
    },
    {
      "icao": "BKPR",
      "alert": "OK",
      "vis_m": null,
      "fzfg": false,
      "metar_trigger": false,
      "taf_trigger": false,
      "metar": "",
      "taf": "TAF BKPR 150530Z 1506/1606 VRB03KT 9999 SCT060"
    },
    {
      "icao": "EBCI",
      "alert": "OK",
      "vis_m": 9999,
      "fzfg": false,
      "metar_trigger": false,
      "taf_trigger": false,
      "metar": "METAR EBCI 151020Z 20014KT 9999 FEW020 BKN035 09/05 Q1010 NOSIG",
      "taf": "TAF EBCI 150500Z 1506/1612 20011KT 9999 SCT010 SCT020"
    },
    {
      "icao": "EDDB",
      "alert": "OK",
      "vis_m": 900,
      "fzfg": false,
      "metar_trigger": false,
      "taf_trigger": false,
      "metar": "METAR EDDB 151050Z AUTO 15006KT 0900 0500 R24R/P2000N R24L/1200D FG OVC002 04/04 Q1015 TEMPO 3000 BR BKN001",
      "taf": "TAF EDDB 150500Z 1506/1606 14006KT 8000 SCT015 OVC020"
    },
    {
      "icao": "EDDH",
      "alert": "OK",
      "vis_m": 5000,
      "fzfg": false,
      "metar_trigger": false,
      "taf_trigger": false,
      "metar": "METAR EDDH 151050Z AUTO 15008KT 5000 -SHRA BR SCT003 BKN025 BKN035 FEW///TCU 05/04 Q1011 RESHRA TEMPO 4000 BKN003",
      "taf": "TAF EDDH 150500Z 1506/1612 16010KT 9999 BKN007"
    },
    {
      "icao": "EDDK",
      "alert": "OK",
      "vis_m": 9999,
      "fzfg": false,
      "metar_trigger": false,
      "taf_trigger": false,
      "metar": "METAR EDDK 151050Z AUTO 15008KT 9999 SCT029 BKN037 BKN046 10/08 Q1012 NOSIG",
      "taf": "TAF EDDK 150500Z 1506/1612 15010KT 9999 SCT025"
    },
    {
      "icao": "EDDN",
      "alert": "OK",
      "vis_m": 9999,
      "fzfg": false,
      "metar_trigger": false,
      "taf_trigger": false,
      "metar": "METAR EDDN 151050Z AUTO 14006KT 9999 FEW033 BKN044 06/04 Q1016 NOSIG",
      "taf": ""
    },
    {
      "icao": "EDDS",
      "alert": "OK",
      "vis_m": 9999,
      "fzfg": false,
      "metar_trigger": false,
      "taf_trigger": false,
      "metar": "METAR EDDS 151050Z AUTO 23004KT 160V270 CAVOK 11/05 Q1015 NOSIG",
      "taf": "TAF EDDS 150500Z 1506/1606 22004KT 9999 BKN030"
    },
    {
      "icao": "EDFH",
      "alert": "OK",
      "vis_m": 9999,
      "fzfg": false,
      "metar_trigger": false,
      "taf_trigger": false,
      "metar": "METAR EDFH 151020Z COR 21016KT 9999 SCT011 BKN028 BKN036 08/06 Q1013",
      "taf": ""
    },
    {
      "icao": "EDJA",
      "alert": "OK",
      "vis_m": 9999,
      "fzfg": false,
      "metar_trigger": false,
      "taf_trigger": false,
      "metar": "METAR EDJA 151020Z COR 24008KT CAVOK 09/02 Q1017",
      "taf": "TAF EDJA 150800Z 1509/1518 22006KT CAVOK"
    },
    {
      "icao": "EDLW",
      "alert": "OK",
      "vis_m": 9999,
      "fzfg": false,
      "metar_trigger": false,
      "taf_trigger": false,
      "metar": "METAR EDLW 151020Z 19013KT 9999 BKN039 11/07 Q1011",
      "taf": "TAF EDLW 150500Z 1506/1606 18013KT 9999 SCT030"
    },
    {
      "icao": "EDNY",
      "alert": "OK",
      "vis_m": 9999,
      "fzfg": false,
      "metar_trigger": false,
      "taf_trigger": false,
      "metar": "METAR EDNY 151020Z 00000KT CAVOK 07/04 Q1018",
      "taf": "TAF EDNY 150800Z 1509/1518 VRB03KT 8000 SCT045"
    },
    {
      "icao": "EDSB",
      "alert": "OK",
      "vis_m": 9999,
      "fzfg": false,
      "metar_trigger": false,
      "taf_trigger": false,
      "metar": "METAR EDSB 151020Z 19010KT CAVOK 11/08 Q1016",
      "taf": "TAF EDSB 150500Z 1506/1606 21004KT 9999 BKN030"
    },
    {
      "icao": "EETN",
      "alert": "OK",
      "vis_m": 9999,
      "fzfg": false,
      "metar_trigger": false,
      "taf_trigger": false,
      "metar": "METAR EETN 151050Z 17010KT 9999 DRSN OVC009 M10/M11 Q1019 NOSIG",
      "taf": "TAF EETN 150530Z 1506/1606 16012KT 2000 SN SCT010 BKN020"
    },
    {
      "icao": "EFTU",
      "alert": "OK",
      "vis_m": 2400,
      "fzfg": false,
      "metar_trigger": false,
      "taf_trigger": false,
      "metar": "METAR EFTU 151050Z AUTO 14007KT 110V170 2400 -SN OVC006 M03/M04 Q1014",
      "taf": ""
    },
    {
      "icao": "EGBB",
      "alert": "OK",
      "vis_m": 9000,
      "fzfg": false,
      "metar_trigger": false,
      "taf_trigger": false,
      "metar": "METAR EGBB 151020Z 14004KT 9000 FEW004 06/06 Q1001",
      "taf": "TAF EGBB 150502Z 1506/1606 18009KT 9999 SCT010"
    },
    {
      "icao": "EGGP",
      "alert": "OK",
      "vis_m": 9999,
      "fzfg": false,
      "metar_trigger": false,
      "taf_trigger": false,
      "metar": "METAR EGGP 151020Z 17007KT 9999 FEW040 05/03 Q1000",
      "taf": "TAF EGGP 150503Z 1506/1606 16006KT 9999 SCT025"
    },
    {
      "icao": "EGGW",
      "alert": "OK",
      "vis_m": 9999,
      "fzfg": false,
      "metar_trigger": false,
      "taf_trigger": false,
      "metar": "METAR EGGW 151020Z AUTO 16009KT 9999 BKN005 OVC010 08/07 Q1002",
      "taf": "TAF EGGW 150457Z 1506/1606 19010KT 9999 SCT004 BKN020"
    },
    {
      "icao": "EGKK",
      "alert": "OK",
      "vis_m": 5000,
      "fzfg": false,
      "metar_trigger": false,
      "taf_trigger": false,
      "metar": "METAR EGKK 151020Z COR 19008KT 5000 -RA BKN007 BKN015 08/08 Q1003",
      "taf": "TAF EGKK 150456Z 1506/1612 21009KT 9999 SCT010"
    },
    {
      "icao": "EGNM",
      "alert": "OK",
      "vis_m": 9999,
      "fzfg": false,
      "metar_trigger": false,
      "taf_trigger": false,
      "metar": "METAR EGNM 151020Z 17007KT 130V200 9999 FEW012 06/04 Q1000",
      "taf": "TAF EGNM 150504Z 1505/1524 21010KT 9999 SCT020"
    },
    {
      "icao": "EGPD",
      "alert": "OK",
      "vis_m": 9999,
      "fzfg": false,
      "metar_trigger": false,
      "taf_trigger": false,
      "metar": "METAR EGPD 151020Z COR 21009KT 9999 FEW012 06/03 Q0993 NOSIG",
      "taf": "TAF EGPD 150455Z 1506/1606 20008KT 9999 FEW015"
    },
    {
      "icao": "EGPF",
      "alert": "OK",
      "vis_m": 9999,
      "fzfg": false,
      "metar_trigger": false,
      "taf_trigger": false,
      "metar": "METAR EGPF 151020Z AUTO 21017KT 9999 FEW024 06/03 Q0996",
      "taf": ""
    },
    {
      "icao": "EHBK",
      "alert": "OK",
      "vis_m": 9999,
      "fzfg": false,
      "metar_trigger": false,
      "taf_trigger": false,
      "metar": "METAR EHBK 151025Z AUTO 20013KT 9999 FEW018 10/07 Q1010 NOSIG",
      "taf": "TAF EHBK 150504Z 1506/1612 19010KT 9999 BKN020"
    },
    {
      "icao": "EHEH",
      "alert": "OK",
      "vis_m": 9999,
      "fzfg": false,
      "metar_trigger": false,
      "taf_trigger": false,
      "metar": "METAR EHEH 151025Z AUTO 20010KT 170V230 9999 FEW011 BKN013 OVC016 10/08 Q1009 GRN TEMPO SCT010 FEW012CB RMK TREND REMOTE BY EHWX",
      "taf": "TAF EHEH 150554Z 1506/1612 18009KT 9999 OVC025"
    },
    {
      "icao": "EKBI",
      "alert": "OK",
      "vis_m": 4700,
      "fzfg": false,
      "metar_trigger": false,
      "taf_trigger": false,
      "metar": "METAR EKBI 151050Z AUTO 15010KT 4700 -DZ OVC002/// 03/03 Q1007",
      "taf": "TAF EKBI 150827Z 1509/1609 14010KT 1200 -RADZ BR OVC003"
    },
    {
      "icao": "EKCH",
      "alert": "OK",
      "vis_m": 9999,
      "fzfg": false,
      "metar_trigger": false,
      "taf_trigger": false,
      "metar": "METAR EKCH 151050Z 14011KT 9999 BKN012 04/02 Q1013 BECMG BKN008",
      "taf": "TAF EKCH 150827Z 1509/1609 16006KT 9999 SCT020"
    },
    {
      "icao": "ENAL",
      "alert": "OK",
      "vis_m": 9999,
      "fzfg": false,
      "metar_trigger": false,
      "taf_trigger": false,
      "metar": "METAR ENAL 151020Z 14009KT CAVOK 07/M01 Q0998",
      "taf": "TAF ENAL 150800Z 1509/1518 13008KT 9999 SCT050"
    },
    {
      "icao": "ENBR",
      "alert": "OK",
      "vis_m": 9999,
      "fzfg": false,
      "metar_trigger": false,
      "taf_trigger": false,
      "metar": "METAR ENBR 151020Z 12007KT CAVOK 05/M01 Q0999 NOSIG RMK WIND 1200FT 14023KT",
      "taf": "TAF ENBR 150500Z 1506/1606 14015KT 9999 -SHRA FEW015TCU BKN025"
    },
    {
      "icao": "ENGM",
      "alert": "OK",
      "vis_m": 900,
      "fzfg": true,
      "metar_trigger": false,
      "taf_trigger": false,
      "metar": "METAR ENGM 151020Z 35003KT 320V020 0900 R19R/P2000N R01R/1100U R19L/1000U R01L/1300D -SN FZFG OVC002 M08/M08 Q1008 TEMPO 0500 FZFG",
      "taf": "TAF ENGM 150500Z 1506/1606 VRB03KT 0300 FZFG VV001"
    },
    {
      "icao": "ENHD",
      "alert": "OK",
      "vis_m": 9999,
      "fzfg": false,
      "metar_trigger": false,
      "taf_trigger": false,
      "metar": "METAR ENHD 151020Z 14012KT 9999 SCT041 05/01 Q0999",
      "taf": "TAF ENHD 150800Z 1509/1518 14018KT 9999 -SHRA FEW020 BKN030"
    },
    {
      "icao": "ENTC",
      "alert": "OK",
      "vis_m": 9999,
      "fzfg": false,
      "metar_trigger": false,
      "taf_trigger": false,
      "metar": "METAR ENTC 151020Z 09003KT 040V110 CAVOK M05/M08 Q1007 NOSIG RMK WIND 2600FT 19011KT",
      "taf": "TAF ENTC 150500Z 1506/1606 20008KT CAVOK"
    },
    {
      "icao": "ENTO",
      "alert": "OK",
      "vis_m": 3000,
      "fzfg": false,
      "metar_trigger": false,
      "taf_trigger": false,
      "metar": "METAR ENTO 151020Z 01003KT 3000 -FZRA BR VV003 M03/M03 Q1008 TEMPO 1500 BR",
      "taf": ""
    },
    {
      "icao": "ENVA",
      "alert": "OK",
      "vis_m": 9999,
      "fzfg": false,
      "metar_trigger": false,
      "taf_trigger": false,
      "metar": "METAR ENVA 151020Z 08007KT CAVOK M02/M06 Q1004 NOSIG RMK WIND 670FT 09012KT",
      "taf": "TAF ENVA 150500Z 1506/1606 12008KT CAVOK"
    },
    {
      "icao": "ENZV",
      "alert": "OK",
      "vis_m": 9999,
      "fzfg": false,
      "metar_trigger": false,
      "taf_trigger": false,
      "metar": "METAR ENZV 151020Z 15014KT 9999 BKN045 05/M01 Q1000 NOSIG",
      "taf": "TAF ENZV 150500Z 1506/1606 16012KT 9999 SCT030"
    },
    {
      "icao": "EPGD",
      "alert": "OK",
      "vis_m": 9999,
      "fzfg": false,
      "metar_trigger": false,
      "taf_trigger": false,
      "metar": "METAR EPGD 151030Z 15005KT 9999 FEW016 02/00 Q1018",
      "taf": ""
    },
    {
      "icao": "EPKK",
      "alert": "OK",
      "vis_m": 4000,
      "fzfg": false,
      "metar_trigger": false,
      "taf_trigger": false,
      "metar": "METAR EPKK 151030Z 04005KT 4000 BR NSC 00/M00 Q1020",
      "taf": ""
    },
    {
      "icao": "EPKT",
      "alert": "OK",
      "vis_m": 5000,
      "fzfg": false,
      "metar_trigger": false,
      "taf_trigger": false,
      "metar": "METAR EPKT 151030Z 11004KT 5000 BR SCT006 03/01 Q1019",
      "taf": ""
    },
    {
      "icao": "EPLB",
      "alert": "OK",
      "vis_m": 2000,
      "fzfg": false,
      "metar_trigger": false,
      "taf_trigger": false,
      "metar": "METAR EPLB 151030Z 07003KT 2000 BR BKN004 OVC006 M03/M03 Q1021",
      "taf": "TAF EPLB 150530Z 1506/1606 VRB02KT 2500 BR OVC002"
    },
    {
      "icao": "EPMO",
      "alert": "OK",
      "vis_m": 1000,
      "fzfg": false,
      "metar_trigger": false,
      "taf_trigger": false,
      "metar": "METAR EPMO 151030Z 09005KT 1000 0900E R08/1100N BCFG BR SCT002 BKN033 M02/M02 Q1020",
      "taf": ""
    },
    {
      "icao": "EPPO",
      "alert": "OK",
      "vis_m": 450,
      "fzfg": true,
      "metar_trigger": false,
      "taf_trigger": false,
      "metar": "METAR EPPO 151030Z 11007KT 0450 R28/0750U FZFG VV002 M00/M01 Q1018",
      "taf": ""
    },
    {
      "icao": "EPRA",
      "alert": "OK",
      "vis_m": 9999,
      "fzfg": false,
      "metar_trigger": false,
      "taf_trigger": false,
      "metar": "METAR EPRA 151030Z 27003KT 9999 BKN018 02/M01 Q1020",
      "taf": "TAF EPRA 150830Z 1509/1518 27005KT 9999 BKN025"
    },
    {
      "icao": "EPRZ",
      "alert": "OK",
      "vis_m": 9999,
      "fzfg": false,
      "metar_trigger": false,
      "taf_trigger": false,
      "metar": "METAR EPRZ 151030Z 32005KT 9999 OVC010 02/00 Q1020",
      "taf": "TAF EPRZ 150530Z 1506/1606 26010KT 2000 BR OVC003"
    },
    {
      "icao": "EPSC",
      "alert": "OK",
      "vis_m": 9999,
      "fzfg": false,
      "metar_trigger": false,
      "taf_trigger": false,
      "metar": "METAR EPSC 151030Z 13011KT 9999 BKN019 01/M00 Q1016",
      "taf": "TAF EPSC 150530Z 1506/1606 14010KT 6000 NSC"
    },
    {
      "icao": "EPSY",
      "alert": "OK",
      "vis_m": 3000,
      "fzfg": false,
      "metar_trigger": false,
      "taf_trigger": false,
      "metar": "METAR EPSY 151030Z VRB03KT 3000 BR BKN004 OVC033 M05/M05 Q1020",
      "taf": "TAF EPSY 150830Z 1509/1518 14004KT 4500 BR OVC004"
    },
    {
      "icao": "EPWA",
      "alert": "OK",
      "vis_m": 2000,
      "fzfg": false,
      "metar_trigger": false,
      "taf_trigger": false,
      "metar": "METAR EPWA 151030Z 09004KT 040V120 2000 BR SCT003 BKN030 00/M00 Q1020 NOSIG",
      "taf": "TAF EPWA 150830Z 1509/1609 VRB02KT 6000 BKN020"
    },
    {
      "icao": "EPWR",
      "alert": "OK",
      "vis_m": 3000,
      "fzfg": false,
      "metar_trigger": false,
      "taf_trigger": false,
      "metar": "METAR EPWR 151030Z 12007KT 3000 BR SCT035 02/02 Q1018",
      "taf": "TAF EPWR 150830Z 1509/1609 12005KT 2500 BR BKN045"
    },
    {
      "icao": "ESGG",
      "alert": "OK",
      "vis_m": 9999,
      "fzfg": false,
      "metar_trigger": false,
      "taf_trigger": false,
      "metar": "METAR ESGG 151020Z 16009KT 9999 SCT006 BKN017 02/01 Q1011",
      "taf": "TAF ESGG 150830Z 1509/1609 18006KT 8000 SCT004"
    },
    {
      "icao": "ESKN",
      "alert": "OK",
      "vis_m": 9999,
      "fzfg": false,
      "metar_trigger": false,
      "taf_trigger": false,
      "metar": "METAR ESKN 151020Z 20006KT 9999 SCT005 BKN013 02/01 Q1013",
      "taf": "TAF ESKN 150830Z 1509/1609 19006KT 9999 OVC020"
    },
    {
      "icao": "ESMS",
      "alert": "OK",
      "vis_m": 9999,
      "fzfg": false,
      "metar_trigger": false,
      "taf_trigger": false,
      "metar": "METAR ESMS 151020Z 15010KT CAVOK 02/02 Q1013",
      "taf": "TAF ESMS 150827Z 1509/1609 18006KT 9999 FEW020"
    },
    {
      "icao": "ESSA",
      "alert": "OK",
      "vis_m": 9999,
      "fzfg": false,
      "metar_trigger": false,
      "taf_trigger": false,
      "metar": "METAR ESSA 151020Z 22007KT 9999 BKN013 01/M01 Q1012 NOSIG",
      "taf": "TAF ESSA 150830Z 1509/1609 24008KT 9999 SCT010 BKN015"
    },
    {
      "icao": "EYKA",
      "alert": "OK",
      "vis_m": 7000,
      "fzfg": false,
      "metar_trigger": false,
      "taf_trigger": false,
      "metar": "METAR EYKA 151050Z 17007KT 140V220 7000 -SN OVC026 M10/M13 Q1022",
      "taf": "TAF EYKA 150513Z 1506/1606 15009KT 8000 SCT010 BKN015"
    },
    {
      "icao": "EYPA",
      "alert": "OK",
      "vis_m": 6000,
      "fzfg": false,
      "metar_trigger": false,
      "taf_trigger": false,
      "metar": "METAR EYPA 151050Z 16008KT 6000 OVC026 M05/M06 Q1019",
      "taf": "TAF EYPA 150500Z 1506/1606 16010KT 6000 BKN005"
    },
    {
      "icao": "EYVI",
      "alert": "OK",
      "vis_m": 9999,
      "fzfg": false,
      "metar_trigger": false,
      "taf_trigger": false,
      "metar": "METAR EYVI 151050Z 16011KT CAVOK M13/M16 Q1022 NOSIG",
      "taf": "TAF EYVI 150506Z 1506/1606 17009KT 7000 NSC"
    },
    {
      "icao": "GCFV",
      "alert": "OK",
      "vis_m": 9999,
      "fzfg": false,
      "metar_trigger": false,
      "taf_trigger": false,
      "metar": "METAR GCFV 151030Z 36013KT 9999 FEW035 SCT044 19/09 Q1025",
      "taf": "TAF GCFV 150800Z 1509/1609 04011KT 9999 SCT040 TX20/1514Z TN15/1606Z"
    },
    {
      "icao": "GCLP",
      "alert": "OK",
      "vis_m": 9999,
      "fzfg": false,
      "metar_trigger": false,
      "taf_trigger": false,
      "metar": "METAR GCLP 151030Z 03017KT 9999 BKN040 19/09 Q1025 NOSIG",
      "taf": "TAF GCLP 150800Z 1509/1609 02016KT 9999 SCT040 TX20/1514Z TN15/1606Z"
    },
    {
      "icao": "GCTS",
      "alert": "OK",
      "vis_m": 9999,
      "fzfg": false,
      "metar_trigger": false,
      "taf_trigger": false,
      "metar": "METAR GCTS 151030Z 01006KT 340V050 9999 BKN040 18/09 Q1026 NOSIG",
      "taf": "TAF GCTS 150800Z 1509/1609 06015KT 9999 SCT040 TX22/1514Z TN14/1606Z"
    },
    {
      "icao": "GMAD",
      "alert": "OK",
      "vis_m": 9999,
      "fzfg": false,
      "metar_trigger": false,
      "taf_trigger": false,
      "metar": "METAR GMAD 151030Z 04004KT 9999 FEW030 14/13 Q1022 NOSIG",
      "taf": "TAF GMAD 150500Z 1506/1612 06008KT 8000 SCT020"
    },
    {
      "icao": "GMMN",
      "alert": "OK",
      "vis_m": 8000,
      "fzfg": false,
      "metar_trigger": false,
      "taf_trigger": false,
      "metar": "METAR GMMN 151030Z 21006KT 180V240 8000 FEW016 13/11 Q1023 NOSIG",
      "taf": "TAF GMMN 150500Z 1506/1612 20004KT 2000 BR FEW003 SCT020"
    },
    {
      "icao": "GMMX",
      "alert": "OK",
      "vis_m": 9999,
      "fzfg": false,
      "metar_trigger": false,
      "taf_trigger": false,
      "metar": "METAR GMMX 151030Z 09003KT 030V140 CAVOK 13/09 Q1023 NOSIG",
      "taf": "TAF GMMX 150500Z 1506/1612 06006KT 8000 SCT026"
    },
    {
      "icao": "HEGN",
      "alert": "OK",
      "vis_m": 9999,
      "fzfg": false,
      "metar_trigger": false,
      "taf_trigger": false,
      "metar": "METAR HEGN 151000Z 35010KT CAVOK 19/07 Q1023 NOSIG",
      "taf": "TAF HEGN 150500Z 1506/1612 31010G20KT 6000 FEW025"
    },
    {
      "icao": "HEMA",
      "alert": "OK",
      "vis_m": 9999,
      "fzfg": false,
      "metar_trigger": false,
      "taf_trigger": false,
      "metar": "METAR HEMA 151000Z 34023KT 9999 FEW020 SCT025 21/09 Q1022 NOSIG",
      "taf": "TAF HEMA 150500Z 1506/1612 33010G20KT 6000 FEW025"
    },
    {
      "icao": "HESH",
      "alert": "OK",
      "vis_m": 9999,
      "fzfg": false,
      "metar_trigger": false,
      "taf_trigger": false,
      "metar": "METAR HESH 151000Z 02012KT CAVOK 20/05 Q1024 NOSIG",
      "taf": "TAF HESH 150500Z 1506/1612 35010KT CAVOK"
    },
    {
      "icao": "HESX",
      "alert": "OK",
      "vis_m": 9999,
      "fzfg": false,
      "metar_trigger": false,
      "taf_trigger": false,
      "metar": "METAR HESX 151000Z 24006KT 9999 FEW030 SCT100 16/08 Q1025 NOSIG",
      "taf": "TAF HESX 150500Z 1506/1612 34008KT 9999 SCT025"
    },
    {
      "icao": "LATI",
      "alert": "OK",
      "vis_m": 9999,
      "fzfg": false,
      "metar_trigger": false,
      "taf_trigger": false,
      "metar": "METAR LATI 151050Z VRB01KT 9999 BKN110 14/04 Q1025 NOSIG",
      "taf": "TAF LATI 150500Z 1506/1606 VRB05KT CAVOK TX15/1512Z TN03/1506Z"
    },
    {
      "icao": "LBPD",
      "alert": "OK",
      "vis_m": 9999,
      "fzfg": false,
      "metar_trigger": false,
      "taf_trigger": false,
      "metar": "METAR LBPD 151030Z AUTO 29017KT 9999 NCD 15/02 Q1021 NOSIG",
      "taf": "TAF LBPD 150500Z 1506/1606 VRB04KT 9999 BKN070"
    },
    {
      "icao": "LBSF",
      "alert": "OK",
      "vis_m": 9999,
      "fzfg": false,
      "metar_trigger": false,
      "taf_trigger": false,
      "metar": "METAR LBSF 151030Z VRB03KT CAVOK 09/02 Q1022 NOSIG",
      "taf": "TAF LBSF 150500Z 1506/1606 VRB04KT 9999 SCT060"
    },
    {
      "icao": "LBWN",
      "alert": "OK",
      "vis_m": 9999,
      "fzfg": false,
      "metar_trigger": false,
      "taf_trigger": false,
      "metar": "METAR LBWN 151030Z 29016KT 9999 SCT045 11/04 Q1019 NOSIG",
      "taf": "TAF LBWN 150500Z 1506/1606 VRB03KT 9999 SCT040"
    },
    {
      "icao": "LCLK",
      "alert": "OK",
      "vis_m": 9999,
      "fzfg": false,
      "metar_trigger": false,
      "taf_trigger": false,
      "metar": "METAR LCLK 151030Z 04006KT 9999 FEW050 16/04 Q1023 NOSIG",
      "taf": "TAF LCLK 150530Z 1506/1606 32007KT 9999 FEW030"
    },
    {
      "icao": "LCPH",
      "alert": "OK",
      "vis_m": 9999,
      "fzfg": false,
      "metar_trigger": false,
      "taf_trigger": false,
      "metar": "METAR LCPH 151030Z 21005KT 160V250 9999 FEW040 SCT045 18/07 Q1023 NOSIG",
      "taf": "TAF LCPH 150530Z 1506/1606 03007KT 9999 SCT030"
    },
    {
      "icao": "LEAL",
      "alert": "OK",
      "vis_m": 9999,
      "fzfg": false,
      "metar_trigger": false,
      "taf_trigger": false,
      "metar": "METAR LEAL 151030Z VRB02KT CAVOK 16/08 Q1020 NOSIG",
      "taf": "TAF LEAL 150500Z 1506/1606 VRB04KT CAVOK TX18/1513Z TN07/1506Z"
    },
    {
      "icao": "LEBB",
      "alert": "OK",
      "vis_m": 9999,
      "fzfg": false,
      "metar_trigger": false,
      "taf_trigger": false,
      "metar": "METAR LEBB 151030Z 23012G26KT 140V280 9999 FEW032 15/03 Q1011 NOSIG",
      "taf": "TAF LEBB 150500Z 1506/1606 20009KT 9999 FEW025 TX13/1512Z TN05/1506Z"
    },
    {
      "icao": "LEBL",
      "alert": "OK",
      "vis_m": 9999,
      "fzfg": false,
      "metar_trigger": false,
      "taf_trigger": false,
      "metar": "METAR LEBL 151030Z 32005KT 270V010 9999 FEW015 11/08 Q1018 NOSIG",
      "taf": "TAF LEBL 150500Z 1506/1606 34008KT 9999 FEW015 TX15/1512Z TN05/1506Z"
    },
    {
      "icao": "LECH",
      "alert": "OK",
      "vis_m": 9000,
      "fzfg": false,
      "metar_trigger": false,
      "taf_trigger": false,
      "metar": "METAR LECH 151030Z AUTO 19003KT 160V230 9000 NCD 11/05 Q1019",
      "taf": ""
    },
    {
      "icao": "LEMD",
      "alert": "OK",
      "vis_m": 1600,
      "fzfg": false,
      "metar_trigger": false,
      "taf_trigger": false,
      "metar": "SPECI LEMD 151042Z 16005KT 110V200 1600 1000 BCFG BKN003 OVC006 04/04 Q1019 BECMG 3000 BR BKN004",
      "taf": ""
    },
    {
      "icao": "LEMG",
      "alert": "OK",
      "vis_m": 9999,
      "fzfg": false,
      "metar_trigger": false,
      "taf_trigger": false,
      "metar": "METAR LEMG 151030Z 30005KT 9999 FEW030 12/09 Q1021 NOSIG",
      "taf": "TAF LEMG 150500Z 1506/1606 29006KT 9999 FEW030 TX18/1514Z TN07/1507Z"
    },
    {
      "icao": "LEVC",
      "alert": "OK",
      "vis_m": 9999,
      "fzfg": false,
      "metar_trigger": false,
      "taf_trigger": false,
      "metar": "METAR LEVC 151030Z 25005KT 200V320 CAVOK 13/05 Q1019 NOSIG",
      "taf": "TAF LEVC 150500Z 1506/1606 VRB04KT CAVOK TX18/1512Z TN05/1506Z"
    },
    {
      "icao": "LEXJ",
      "alert": "OK",
      "vis_m": 9999,
      "fzfg": false,
      "metar_trigger": false,
      "taf_trigger": false,
      "metar": "METAR LEXJ 151030Z 22021G42KT 170V250 CAVOK 15/03 Q1009",
      "taf": ""
    },
    {
      "icao": "LEZG",
      "alert": "OK",
      "vis_m": 9999,
      "fzfg": false,
      "metar_trigger": false,
      "taf_trigger": false,
      "metar": "METAR LEZG 151030Z 11007KT 080V140 CAVOK 06/05 Q1018 NOSIG",
      "taf": "TAF LEZG 150500Z 1506/1606 VRB04KT 9999 FEW020 TX17/1514Z TN05/1506Z"
    },
    {
      "icao": "LEZL",
      "alert": "OK",
      "vis_m": 1500,
      "fzfg": false,
      "metar_trigger": false,
      "taf_trigger": false,
      "metar": "METAR LEZL 151030Z 03003KT 360V060 1500 BR VV002 08/08 Q1022 BECMG 5000 BR",
      "taf": "TAF LEZL 150800Z 1509/1609 07003KT 0500 FG VV001 TX14/1515Z TN08/1607Z"
    },
    {
      "icao": "LFBD",
      "alert": "OK",
      "vis_m": 9999,
      "fzfg": false,
      "metar_trigger": false,
      "taf_trigger": false,
      "metar": "METAR LFBD 151030Z AUTO 14008KT CAVOK 09/07 Q1011 NOSIG",
      "taf": "TAF LFBD 150500Z 1506/1612 18005KT 6000 NSC TX13/1514Z TN05/1506Z"
    },
    {
      "icao": "LFLL",
      "alert": "OK",
      "vis_m": 9999,
      "fzfg": false,
      "metar_trigger": false,
      "taf_trigger": false,
      "metar": "METAR LFLL 151030Z 17012KT 140V200 9999 FEW050 12/06 Q1016 BECMG 18015G25KT",
      "taf": "TAF LFLL 150500Z 1506/1612 19012KT CAVOK"
    },
    {
      "icao": "LFLS",
      "alert": "OK",
      "vis_m": 9999,
      "fzfg": false,
      "metar_trigger": false,
      "taf_trigger": false,
      "metar": "METAR LFLS 151030Z AUTO 07006KT 040V100 CAVOK 10/05 Q1017 BECMG 22012KT",
      "taf": "TAF LFLS 150800Z 1509/1609 08006KT CAVOK"
    },
    {
      "icao": "LFMN",
      "alert": "OK",
      "vis_m": 9999,
      "fzfg": false,
      "metar_trigger": false,
      "taf_trigger": false,
      "metar": "METAR LFMN 151030Z 33011KT CAVOK 13/04 Q1020 BECMG 12005KT",
      "taf": "TAF LFMN 150800Z 1509/1615 33010KT CAVOK"
    },
    {
      "icao": "LFOB",
      "alert": "OK",
      "vis_m": 9999,
      "fzfg": false,
      "metar_trigger": false,
      "taf_trigger": false,
      "metar": "METAR LFOB 151030Z AUTO 19014G25KT 9999 SCT016 BKN022 BKN040 09/07 Q1009 TEMPO 4000 DZ BKN013",
      "taf": "TAF LFOB 150500Z 1506/1606 22012G22KT 9999 OVC011"
    },
    {
      "icao": "LFPO",
      "alert": "OK",
      "vis_m": 9999,
      "fzfg": false,
      "metar_trigger": false,
      "taf_trigger": false,
      "metar": "METAR LFPO 151030Z 19011KT 9999 BKN014 BKN026 BKN033 10/07 Q1010 NOSIG",
      "taf": ""
    },
    {
      "icao": "LFSB",
      "alert": "OK",
      "vis_m": 9999,
      "fzfg": false,
      "metar_trigger": false,
      "taf_trigger": false,
      "metar": "METAR LFSB 151030Z AUTO 17005KT 140V200 9999 FEW056 10/05 Q1016 NOSIG",
      "taf": "TAF LFSB 150500Z 1506/1606 18005KT 9999 OVC040"
    },
    {
      "icao": "LGAV",
      "alert": "OK",
      "vis_m": 9999,
      "fzfg": false,
      "metar_trigger": false,
      "taf_trigger": false,
      "metar": "METAR LGAV 151020Z 09005KT 060V140 9999 FEW030 15/07 Q1024 NOSIG",
      "taf": "TAF LGAV 150500Z 1506/1606 VRB05KT 9999 FEW016 SCT025"
    },
    {
      "icao": "LGTS",
      "alert": "OK",
      "vis_m": 9999,
      "fzfg": false,
      "metar_trigger": false,
      "taf_trigger": false,
      "metar": "METAR LGTS 151020Z VRB03KT CAVOK 09/04 Q1024 NOSIG",
      "taf": "TAF LGTS 150500Z 1506/1606 VRB03KT 9999 FEW030"
    },
    {
      "icao": "LHBP",
      "alert": "OK",
      "vis_m": 3000,
      "fzfg": false,
      "metar_trigger": false,
      "taf_trigger": false,
      "metar": "METAR LHBP 151030Z 06005KT 3000 BR BKN006 M01/M03 Q1022 NOSIG",
      "taf": "TAF LHBP 150515Z 1506/1606 09005KT 5000 BR SCT005 BKN080"
    },
    {
      "icao": "LHDC",
      "alert": "OK",
      "vis_m": 3400,
      "fzfg": false,
      "metar_trigger": false,
      "taf_trigger": false,
      "metar": "METAR LHDC 151015Z AUTO 00000KT 3400 BR OVC038 M00/M00 Q1022 NOSIG",
      "taf": "TAF LHDC 150815Z 1509/1518 VRB03KT 5000 BR SCT005 OVC035"
    },
    {
      "icao": "LIBD",
      "alert": "OK",
      "vis_m": 9999,
      "fzfg": false,
      "metar_trigger": false,
      "taf_trigger": false,
      "metar": "METAR LIBD 151020Z 36003KT 310V050 9999 FEW025 13/08 Q1024",
      "taf": "TAF LIBD 150500Z 1506/1606 VRB06KT 9999 FEW040"
    },
    {
      "icao": "LIBG",
      "alert": "OK",
      "vis_m": 9999,
      "fzfg": false,
      "metar_trigger": false,
      "taf_trigger": false,
      "metar": "METAR LIBG 150950Z VRB01KT 9999 FEW020 14/14 Q1024",
      "taf": "TAF LIBG 150800Z 1509/1518 VRB05KT 9999 FEW030"
    },
    {
      "icao": "LIBP",
      "alert": "OK",
      "vis_m": 9999,
      "fzfg": false,
      "metar_trigger": false,
      "taf_trigger": false,
      "metar": "METAR LIBP 151020Z AUTO 20003KT 150V230 9999 NCD 13/05 Q1024",
      "taf": "TAF LIBP 150500Z 1506/1606 VRB05KT CAVOK"
    },
    {
      "icao": "LIBR",
      "alert": "OK",
      "vis_m": 9999,
      "fzfg": false,
      "metar_trigger": false,
      "taf_trigger": false,
      "metar": "METAR LIBR 151020Z 22006KT 9999 FEW025 14/09 Q1024",
      "taf": "TAF LIBR 150500Z 1506/1606 VRB06KT 9000 FEW025"
    },
    {
      "icao": "LICA",
      "alert": "OK",
      "vis_m": 9999,
      "fzfg": false,
      "metar_trigger": false,
      "taf_trigger": false,
      "metar": "METAR LICA 151020Z AUTO 06009KT 020V080 9999 NCD 16/07 Q1023",
      "taf": "TAF LICA 150500Z 1506/1606 VRB05KT CAVOK"
    },
    {
      "icao": "LICC",
      "alert": "OK",
      "vis_m": 9999,
      "fzfg": false,
      "metar_trigger": false,
      "taf_trigger": false,
      "metar": "METAR LICC 151020Z 23004KT 9999 FEW040 17/14 Q1024",
      "taf": "TAF LICC 150500Z 1506/1606 25010KT 9999 FEW040"
    },
    {
      "icao": "LICJ",
      "alert": "OK",
      "vis_m": 9999,
      "fzfg": false,
      "metar_trigger": false,
      "taf_trigger": false,
      "metar": "METAR LICJ 151020Z 04006KT CAVOK 15/09 Q1022",
      "taf": "TAF LICJ 150500Z 1506/1606 VRB06KT CAVOK"
    },
    {
      "icao": "LIMC",
      "alert": "OK",
      "vis_m": 900,
      "fzfg": false,
      "metar_trigger": false,
      "taf_trigger": false,
      "metar": "METAR LIMC 151020Z VRB02KT 0900 R35R/P2000N R17L/P2000N R35L/P2000N -DZ FG OVC003 06/05 Q1023 NOSIG",
      "taf": "TAF LIMC 150500Z 1506/1612 VRB05KT 8000 BKN030"
    },
    {
      "icao": "LIME",
      "alert": "OK",
      "vis_m": 1700,
      "fzfg": false,
      "metar_trigger": false,
      "taf_trigger": false,
      "metar": "METAR LIME 151020Z VRB02KT 1700 -RA BR SCT010 OVC030 06/06 Q1022 NOSIG",
      "taf": "TAF LIME 150500Z 1506/1606 VRB04KT 4000 BR FEW005 BKN040"
    },
    {
      "icao": "LIMF",
      "alert": "OK",
      "vis_m": 9999,
      "fzfg": false,
      "metar_trigger": false,
      "taf_trigger": false,
      "metar": "METAR LIMF 151020Z VRB01KT 9999 BKN055 06/01 Q1022",
      "taf": "TAF LIMF 150500Z 1506/1606 VRB03KT 8000 SCT050"
    },
    {
      "icao": "LIMJ",
      "alert": "OK",
      "vis_m": 9999,
      "fzfg": false,
      "metar_trigger": false,
      "taf_trigger": false,
      "metar": "METAR LIMJ 151020Z 06009KT 9999 SCT024 BKN040 11/08 Q1021",
      "taf": "TAF LIMJ 150500Z 1506/1606 04010KT 9999 BKN030"
    },
    {
      "icao": "LIPE",
      "alert": "OK",
      "vis_m": 3500,
      "fzfg": false,
      "metar_trigger": false,
      "taf_trigger": false,
      "metar": "METAR LIPE 151020Z 08002KT 3500 BR BKN060 06/05 Q1023",
      "taf": "TAF LIPE 150500Z 1506/1606 VRB04KT 4000 BR SCT020 BKN060"
    },
    {
      "icao": "LIPH",
      "alert": "OK",
      "vis_m": 7000,
      "fzfg": false,
      "metar_trigger": false,
      "taf_trigger": false,
      "metar": "METAR LIPH 151020Z VRB01KT 7000 BKN080 07/03 Q1023",
      "taf": "TAF LIPH 150500Z 1506/1606 VRB04KT 3000 BR SCT040"
    },
    {
      "icao": "LIPQ",
      "alert": "OK",
      "vis_m": 9000,
      "fzfg": false,
      "metar_trigger": false,
      "taf_trigger": false,
      "metar": "METAR LIPQ 151020Z AUTO VRB01KT 9000 BKN042/// BKN085/// 09/07 Q1023",
      "taf": "TAF LIPQ 150500Z 1506/1606 VRB04KT 2000 BR BKN030"
    },
    {
      "icao": "LIPR",
      "alert": "OK",
      "vis_m": 3500,
      "fzfg": false,
      "metar_trigger": false,
      "taf_trigger": false,
      "metar": "METAR LIPR 151020Z 36007KT 320V020 3500 BR SCT009 SCT060 08/06 Q1023",
      "taf": "TAF LIPR 150500Z 1506/1606 VRB05KT 3000 BR BKN050"
    },
    {
      "icao": "LIPX",
      "alert": "OK",
      "vis_m": 6000,
      "fzfg": false,
      "metar_trigger": false,
      "taf_trigger": false,
      "metar": "METAR LIPX 151020Z 23003KT 200V270 6000 BKN080 07/04 Q1023",
      "taf": "TAF LIPX 150500Z 1506/1606 VRB04KT 3000 BR FEW010 BKN050"
    },
    {
      "icao": "LIPY",
      "alert": "OK",
      "vis_m": 9999,
      "fzfg": false,
      "metar_trigger": false,
      "taf_trigger": false,
      "metar": "METAR LIPY 151020Z AUTO 24003KT 190V270 9999 BKN078/// 13/07 Q1022",
      "taf": "TAF LIPY 150500Z 1506/1606 VRB05KT 3000 BR BKN060"
    },
    {
      "icao": "LIPZ",
      "alert": "OK",
      "vis_m": 7000,
      "fzfg": false,
      "metar_trigger": false,
      "taf_trigger": false,
      "metar": "METAR LIPZ 151020Z VRB02KT 7000 SCT070 07/03 Q1023 NOSIG",
      "taf": "TAF LIPZ 150500Z 1506/1612 VRB04KT 8000 SCT040"
    },
    {
      "icao": "LIRF",
      "alert": "OK",
      "vis_m": 9999,
      "fzfg": false,
      "metar_trigger": false,
      "taf_trigger": false,
      "metar": "METAR LIRF 151020Z 12009KT 9999 FEW035 SCT050 14/09 Q1023 NOSIG",
      "taf": "TAF LIRF 150500Z 1506/1612 09007KT 9999 SCT050"
    },
    {
      "icao": "LIRN",
      "alert": "OK",
      "vis_m": 9999,
      "fzfg": false,
      "metar_trigger": false,
      "taf_trigger": false,
      "metar": "METAR LIRN 151020Z VRB01KT CAVOK 14/06 Q1024 NOSIG",
      "taf": "TAF LIRN 150500Z 1506/1606 VRB05KT 9999 SCT040"
    },
    {
      "icao": "LIRP",
      "alert": "OK",
      "vis_m": 8000,
      "fzfg": false,
      "metar_trigger": false,
      "taf_trigger": false,
      "metar": "METAR LIRP 151015Z 09005KT 8000 SCT023 SCT030 12/11 Q1022 TEMPO 5000",
      "taf": "TAF LIRP 150500Z 1506/1606 12005KT 9999 SCT030 BKN060"
    },
    {
      "icao": "LIRZ",
      "alert": "OK",
      "vis_m": 9999,
      "fzfg": false,
      "metar_trigger": false,
      "taf_trigger": false,
      "metar": "METAR LIRZ 151020Z AUTO 12003KT 9999 BKN069/// 12/06 Q1022",
      "taf": "TAF LIRZ 150500Z 1506/1606 VRB05KT 9999 BKN040"
    },
    {
      "icao": "LJLJ",
      "alert": "OK",
      "vis_m": 9999,
      "fzfg": false,
      "metar_trigger": false,
      "taf_trigger": false,
      "metar": "METAR LJLJ 151030Z 29003KT 9999 FEW040 BKN060 01/01 Q1021 NOSIG",
      "taf": "TAF LJLJ 150500Z 1506/1606 30003KT 9999 FEW010 SCT045"
    },
    {
      "icao": "LKMT",
      "alert": "OK",
      "vis_m": 5000,
      "fzfg": false,
      "metar_trigger": false,
      "taf_trigger": false,
      "metar": "METAR LKMT 151030Z 22010KT 5000 BR SCT026 01/M00 Q1019 NOSIG",
      "taf": "TAF LKMT 150500Z 1506/1606 23011KT 8000 BKN025"
    },
    {
      "icao": "LKPR",
      "alert": "OK",
      "vis_m": 3000,
      "fzfg": false,
      "metar_trigger": false,
      "taf_trigger": false,
      "metar": "METAR LKPR 151030Z 18003KT 3000 -RA BR FEW024 OVC040 04/04 Q1017 NOSIG",
      "taf": "TAF LKPR 150800Z 1509/1615 12004KT 6000 OVC040"
    },
    {
      "icao": "LLBG",
      "alert": "OK",
      "vis_m": 9999,
      "fzfg": false,
      "metar_trigger": false,
      "taf_trigger": false,
      "metar": "METAR LLBG 151050Z VRB02KT 9999 SCT045 18/06 Q1023 NOSIG",
      "taf": "TAF LLBG 150501Z 1506/1606 VRB04KT 9999 FEW045"
    },
    {
      "icao": "LMML",
      "alert": "OK",
      "vis_m": 9999,
      "fzfg": false,
      "metar_trigger": false,
      "taf_trigger": false,
      "metar": "METAR LMML 151045Z 13012KT 9999 FEW018 18/14 Q1023 NOSIG",
      "taf": "TAF LMML 150500Z 1506/1606 15010KT 9999 FEW020"
    },
    {
      "icao": "LOWW",
      "alert": "OK",
      "vis_m": 800,
      "fzfg": true,
      "metar_trigger": false,
      "taf_trigger": false,
      "metar": "METAR LOWW 151020Z 15003KT 110V200 0800 0300SW R16/1100D R29/0900U FZFG FEW000 OVC002 M02/M02 Q1021 TEMPO 1300 BR",
      "taf": "TAF LOWW 150815Z 1509/1615 15004KT 0800 FZFG SCT001 OVC002 TX00/1613Z TNM02/1509Z"
    },
    {
      "icao": "LPFR",
      "alert": "OK",
      "vis_m": 9999,
      "fzfg": false,
      "metar_trigger": false,
      "taf_trigger": false,
      "metar": "METAR LPFR 151030Z 28003KT 9999 FEW012 13/10 Q1022",
      "taf": "TAF LPFR 150500Z 1506/1606 01005KT 9999 FEW012"
    },
    {
      "icao": "LPMA",
      "alert": "OK",
      "vis_m": 9999,
      "fzfg": false,
      "metar_trigger": false,
      "taf_trigger": false,
      "metar": "METAR LPMA 151030Z VRB05KT 9999 SCT015 18/09 Q1026",
      "taf": "TAF LPMA 150500Z 1506/1606 32007KT 9999 SCT015"
    },
    {
      "icao": "LPPR",
      "alert": "OK",
      "vis_m": 3500,
      "fzfg": false,
      "metar_trigger": false,
      "taf_trigger": false,
      "metar": "METAR LPPR 151030Z 18021KT 3500 -RA BR FEW010 BKN012 OVC020 10/09 Q1014",
      "taf": "TAF LPPR 150500Z 1506/1606 18010KT 9999 SCT018 BKN030"
    },
    {
      "icao": "LPPS",
      "alert": "OK",
      "vis_m": 9999,
      "fzfg": false,
      "metar_trigger": false,
      "taf_trigger": false,
      "metar": "METAR LPPS 151030Z 30008KT 9999 SCT014 SCT030 16/12 Q1026",
      "taf": "TAF LPPS 150500Z 1506/1612 32007KT 9999 SCT015"
    },
    {
      "icao": "LPPT",
      "alert": "OK",
      "vis_m": 9999,
      "fzfg": false,
      "metar_trigger": false,
      "taf_trigger": false,
      "metar": "METAR LPPT 151030Z 21010KT 9999 SCT028 BKN036 13/09 Q1019",
      "taf": "TAF LPPT 150500Z 1506/1612 21005KT 9999 BKN035"
    },
    {
      "icao": "LQBK",
      "alert": "OK",
      "vis_m": 9999,
      "fzfg": false,
      "metar_trigger": false,
      "taf_trigger": false,
      "metar": "METAR LQBK 151030Z 02005KT 350V050 CAVOK 04/02 Q1021 NOSIG",
      "taf": "TAF LQBK 150500Z 1506/1606 15006KT 9999 SCT040 TX10/1513Z TN02/1605Z"
    },
    {
      "icao": "LQSA",
      "alert": "OK",
      "vis_m": 8000,
      "fzfg": false,
      "metar_trigger": false,
      "taf_trigger": false,
      "metar": "METAR LQSA 151030Z 00000KT 8000 SCT045 06/02 Q1024 NOSIG",
      "taf": "TAF LQSA 150500Z 1506/1606 VRB02KT 8000 FEW012 SCT060 TX08/1514Z TN00/1506Z"
    },
    {
      "icao": "LQTZ",
      "alert": "OK",
      "vis_m": 7000,
      "fzfg": false,
      "metar_trigger": false,
      "taf_trigger": false,
      "metar": "METAR LQTZ 151030Z VRB02KT 7000 OVC058 04/03 Q1023",
      "taf": "TAF LQTZ 150500Z 1506/1606 VRB02KT 9999 SCT040 TX08/1513Z TN00/1605Z"
    },
    {
      "icao": "LRBC",
      "alert": "OK",
      "vis_m": 7000,
      "fzfg": false,
      "metar_trigger": false,
      "taf_trigger": false,
      "metar": "METAR LRBC 151030Z 35008KT 7000 -SN OVC016 M02/M06 Q1021",
      "taf": "TAF LRBC 150800Z 1509/1518 36007KT 7000 BKN045"
    },
    {
      "icao": "LRBS",
      "alert": "OK",
      "vis_m": 8000,
      "fzfg": false,
      "metar_trigger": false,
      "taf_trigger": false,
      "metar": "METAR LRBS 151030Z 06009KT 8000 NSC 01/M04 Q1020 NOSIG",
      "taf": "TAF LRBS 150500Z 1506/1606 25006KT 5000 BR NSC"
    },
    {
      "icao": "LRBV",
      "alert": "OK",
      "vis_m": 5000,
      "fzfg": false,
      "metar_trigger": false,
      "taf_trigger": false,
      "metar": "METAR LRBV 151030Z 28004KT 240V320 5000 -RADZ BR BKN007 OVC011 03/01 Q1020",
      "taf": "TAF LRBV 150800Z 1509/1518 29008KT 5000 BR BKN010 OVC025"
    },
    {
      "icao": "LRCL",
      "alert": "OK",
      "vis_m": 1400,
      "fzfg": false,
      "metar_trigger": false,
      "taf_trigger": false,
      "metar": "METAR LRCL 151030Z COR 07002KT 1400 R25/1900N -RASN OVC006 M00/M01 Q1022",
      "taf": "TAF LRCL 150800Z 1509/1518 VRB04KT 1500 -SN BR BKN005 OVC015"
    },
    {
      "icao": "LRCV",
      "alert": "OK",
      "vis_m": 9999,
      "fzfg": false,
      "metar_trigger": false,
      "taf_trigger": false,
      "metar": "METAR LRCV 151030Z 29011KT CAVOK 09/05 Q1020",
      "taf": "TAF LRCV 150800Z 1509/1518 27010KT CAVOK"
    },
    {
      "icao": "LRIA",
      "alert": "OK",
      "vis_m": 6000,
      "fzfg": false,
      "metar_trigger": false,
      "taf_trigger": false,
      "metar": "METAR LRIA 151030Z 32006KT 6000 -SN FEW006 BKN024 OVC041 M05/M06 Q1022",
      "taf": "TAF LRIA 150800Z 1509/1518 VRB04KT 5000 -SN OVC025"
    },
    {
      "icao": "LROP",
      "alert": "OK",
      "vis_m": 6000,
      "fzfg": false,
      "metar_trigger": false,
      "taf_trigger": false,
      "metar": "METAR LROP 151030Z 08008KT 6000 NSC 01/M04 Q1020 NOSIG",
      "taf": "TAF LROP 150500Z 1506/1606 25006KT 5000 BR NSC"
    },
    {
      "icao": "LRSB",
      "alert": "OK",
      "vis_m": 4000,
      "fzfg": false,
      "metar_trigger": false,
      "taf_trigger": false,
      "metar": "METAR LRSB 151030Z 01004KT 4000 BR SCT009 OVC011 02/01 Q1021",
      "taf": "TAF LRSB 150500Z 1506/1606 VRB04KT 9999 BKN045"
    },
    {
      "icao": "LRSM",
      "alert": "OK",
      "vis_m": 2000,
      "fzfg": false,
      "metar_trigger": false,
      "taf_trigger": false,
      "metar": "METAR LRSM 151030Z 00000KT 2000 BR BKN002 01/M00 Q1023",
      "taf": ""
    },
    {
      "icao": "LRSV",
      "alert": "OK",
      "vis_m": 4000,
      "fzfg": false,
      "metar_trigger": false,
      "taf_trigger": false,
      "metar": "METAR LRSV 151030Z 07005KT 4000 BR OVC006 M06/M07 Q1020",
      "taf": "TAF LRSV 150800Z 1509/1518 05005KT 3000 -SN BKN005 OVC020"
    },
    {
      "icao": "LRTM",
      "alert": "OK",
      "vis_m": 1400,
      "fzfg": false,
      "metar_trigger": false,
      "taf_trigger": false,
      "metar": "METAR LRTM 151030Z 00000KT 1400 R07/1500U -SN BR BKN007 OVC025 01/M01 Q1022",
      "taf": "TAF LRTM 150800Z 1509/1518 VRB04KT 1500 -SN BR BKN010 OVC025"
    },
    {
      "icao": "LRTR",
      "alert": "OK",
      "vis_m": 4000,
      "fzfg": false,
      "metar_trigger": false,
      "taf_trigger": false,
      "metar": "METAR LRTR 151030Z VRB01KT 4000 BR NSC 04/02 Q1022",
      "taf": "TAF LRTR 150500Z 1506/1606 VRB04KT 1500 BR SCT020"
    },
    {
      "icao": "LTAC",
      "alert": "OK",
      "vis_m": 9999,
      "fzfg": false,
      "metar_trigger": false,
      "taf_trigger": false,
      "metar": "METAR LTAC 151020Z 23008KT 9999 SCT010 SCT035 BKN090 02/M01 Q1022 NOSIG RMK RWY21C 22010KT RWY03L 22008KT RWY21R 21010KT RWY03R 23011KT RWY21L 23010KT",
      "taf": "TAF LTAC 150440Z 1506/1606 22008KT 9999 FEW010 SCT040 BKN100"
    },
    {
      "icao": "LTFM",
      "alert": "OK",
      "vis_m": 9999,
      "fzfg": false,
      "metar_trigger": false,
      "taf_trigger": false,
      "metar": "METAR LTFM 151020Z 22019KT 9999 FEW025 BKN070 12/06 Q1021 NOSIG RMK RWY17L 21013KT RWY34L 20016KT RWY16R 21011KT RWY36 22015KT RWY18 22017KT",
      "taf": "TAF LTFM 150440Z 1506/1612 22017KT 9999 BKN040"
    },
    {
      "icao": "LUKK",
      "alert": "OK",
      "vis_m": 9999,
      "fzfg": false,
      "metar_trigger": false,
      "taf_trigger": false,
      "metar": "METAR LUKK 151030Z 05007KT 360V080 9999 OVC010 M05/M07 Q1022 TEMPO 4000 SN BR BKN007",
      "taf": "TAF LUKK 150506Z 1506/1606 03008KT 4000 SN BR BKN015"
    },
    {
      "icao": "LWOH",
      "alert": "OK",
      "vis_m": 9999,
      "fzfg": false,
      "metar_trigger": false,
      "taf_trigger": false,
      "metar": "METAR LWOH 151050Z 15004KT 120V180 9999 FEW033 07/03 Q1025",
      "taf": "TAF LWOH 150825Z 1509/1609 VRB02KT 9999 FEW020"
    },
    {
      "icao": "LWSK",
      "alert": "OK",
      "vis_m": 9999,
      "fzfg": false,
      "metar_trigger": false,
      "taf_trigger": false,
      "metar": "METAR LWSK 151050Z VRB01KT CAVOK 07/01 Q1025 NOSIG",
      "taf": "TAF LWSK 150825Z 1509/1609 VRB02KT CAVOK"
    },
    {
      "icao": "LYBE",
      "alert": "OK",
      "vis_m": 9999,
      "fzfg": false,
      "metar_trigger": false,
      "taf_trigger": false,
      "metar": "METAR LYBE 151030Z 00000KT CAVOK 07/02 Q1023 NOSIG",
      "taf": "TAF LYBE 150500Z 1506/1606 18005KT 8000 NSC TX08/1513Z TN03/1506Z"
    },
    {
      "icao": "LYNI",
      "alert": "OK",
      "vis_m": 9999,
      "fzfg": false,
      "metar_trigger": false,
      "taf_trigger": false,
      "metar": "METAR LYNI 151030Z VRB02KT 9999 FEW050 BKN070 08/04 Q1024 NOSIG",
      "taf": "TAF LYNI 150500Z 1506/1606 11004KT 5000 BR BKN045 TX07/1513Z TN00/1606Z"
    },
    {
      "icao": "LYPG",
      "alert": "OK",
      "vis_m": 9999,
      "fzfg": false,
      "metar_trigger": false,
      "taf_trigger": false,
      "metar": "METAR LYPG 151030Z VRB01KT 9999 BKN070 10/06 Q1026 NOSIG",
      "taf": "TAF LYPG 150500Z 1506/1606 17005KT 9999 SCT034 SCT070 TX12/1513Z TN04/1506Z"
    },
    {
      "icao": "LZIB",
      "alert": "OK",
      "vis_m": 2800,
      "fzfg": false,
      "metar_trigger": false,
      "taf_trigger": false,
      "metar": "METAR LZIB 151030Z 12004KT 2800 BR SCT003 M01/M02 Q1021 BECMG 4000 BR FEW005",
      "taf": ""
    },
    {
      "icao": "LZKZ",
      "alert": "OK",
      "vis_m": 6000,
      "fzfg": false,
      "metar_trigger": false,
      "taf_trigger": false,
      "metar": "METAR LZKZ 151030Z 00000KT 6000 BKN018 M01/M03 Q1022 NOSIG",
      "taf": ""
    },
    {
      "icao": "LZTT",
      "alert": "OK",
      "vis_m": 9999,
      "fzfg": false,
      "metar_trigger": false,
      "taf_trigger": false,
      "metar": "METAR LZTT 151030Z 03002KT 9999 FEW009 SCT014 01/M01 Q1019 NOSIG",
      "taf": ""
    },
    {
      "icao": "OEJN",
      "alert": "OK",
      "vis_m": 9999,
      "fzfg": false,
      "metar_trigger": false,
      "taf_trigger": false,
      "metar": "METAR OEJN 151000Z 33008KT CAVOK 27/06 Q1014 NOSIG",
      "taf": "TAF OEJN 150500Z 1506/1612 33010KT CAVOK"
    },
    {
      "icao": "OEMA",
      "alert": "OK",
      "vis_m": 9999,
      "fzfg": false,
      "metar_trigger": false,
      "taf_trigger": false,
      "metar": "METAR OEMA 151000Z 10006KT CAVOK 20/M02 Q1022 NOSIG",
      "taf": "TAF OEMA 150500Z 1506/1612 08015KT 7000 NSC"
    },
    {
      "icao": "OJAI",
      "alert": "OK",
      "vis_m": 5000,
      "fzfg": false,
      "metar_trigger": false,
      "taf_trigger": false,
      "metar": "METAR OJAI 151000Z 28010KT 5000 HZ SCT030 10/03 Q1024 NOSIG",
      "taf": "TAF OJAI 150500Z 1506/1612 27012KT 5000 HZ SCT030"
    },
    {
      "icao": "OMAA",
      "alert": "OK",
      "vis_m": 9999,
      "fzfg": false,
      "metar_trigger": false,
      "taf_trigger": false,
      "metar": "METAR OMAA 151000Z 26011KT 220V290 CAVOK 28/05 Q1015 NOSIG",
      "taf": "TAF OMAA 150500Z 1506/1612 VRB02KT 8000 FEW045"
    },
    {
      "icao": "OMDB",
      "alert": "OK",
      "vis_m": 9999,
      "fzfg": false,
      "metar_trigger": false,
      "taf_trigger": false,
      "metar": "METAR OMDB 151030Z 27011KT CAVOK 27/06 Q1015 NOSIG",
      "taf": "TAF OMDB 150500Z 1506/1612 19005KT 8000 NSC"
    },
    {
      "icao": "UAAA",
      "alert": "OK",
      "vis_m": 2400,
      "fzfg": false,
      "metar_trigger": false,
      "taf_trigger": false,
      "metar": "METAR UAAA 151030Z 01002MPS 340V040 2400 -SN BR BKN007 OVC016 M07/M08 Q1021 NOSIG",
      "taf": "TAF UAAA 150505Z 1506/1606 02003G08MPS 3100 BR FU BKN011CB OVC020 TXM04/1509Z TNM10/1603Z"
    },
    {
      "icao": "UBBB",
      "alert": "OK",
      "vis_m": 9999,
      "fzfg": false,
      "metar_trigger": false,
      "taf_trigger": false,
      "metar": "METAR UBBB 151030Z 35014KT CAVOK 06/M02 Q1023 NOSIG",
      "taf": "TAF UBBB 151051Z 1512/1612 01010KT 9999 SCT030 TX05/1512Z TN01/1601Z"
    },
    {
      "icao": "UDSG",
      "alert": "OK",
      "vis_m": 9999,
      "fzfg": false,
      "metar_trigger": false,
      "taf_trigger": false,
      "metar": "METAR UDSG 151030Z 09004KT 9999 NSC M08/M14 Q1019 NOSIG",
      "taf": "TAF UDSG 150458Z 1506/1606 VRB06KT 9999 FEW040"
    },
    {
      "icao": "UDYZ",
      "alert": "OK",
      "vis_m": 9999,
      "fzfg": false,
      "metar_trigger": false,
      "taf_trigger": false,
      "metar": "METAR UDYZ 151030Z 08003KT 360V120 9999 FEW046 02/M09 Q1020 NOSIG",
      "taf": "TAF UDYZ 150500Z 1506/1606 VRB06KT 9999 BKN040"
    },
    {
      "icao": "UGKO",
      "alert": "OK",
      "vis_m": 9999,
      "fzfg": false,
      "metar_trigger": false,
      "taf_trigger": false,
      "metar": "METAR UGKO 151030Z VRB02KT 9999 BKN008 05/01 Q1024 NOSIG",
      "taf": "TAF UGKO 150500Z 1506/1606 08007KT 9999 BKN050 TX06/1511Z TNM01/1602Z"
    }
  ]
}