{
  "ts_utc": "2026-05-08T23:32:03Z",
  "threshold_m": 150,
  "source": "stations_override.txt (ICAO list) + aviationweather.gov (METAR/TAF raw)",
  "station_count": 159,
  "stations": [
    {
      "icao": "BIKF",
      "alert": "OK",
      "vis_m": 9999,
      "fzfg": false,
      "metar_trigger": false,
      "taf_trigger": false,
      "metar": "METAR BIKF 082300Z 29010KT 9999 FEW042 BKN059 BKN140 05/01 Q1025",
      "taf": "TAF BIKF 082252Z 0900/1000 27012KT 9999 SCT013 BKN023 TX06/0915Z TN04/0906Z"
    },
    {
      "icao": "BKPR",
      "alert": "OK",
      "vis_m": 9999,
      "fzfg": false,
      "metar_trigger": false,
      "taf_trigger": false,
      "metar": "METAR BKPR 082300Z 27002KT 9999 -RA FEW015 BKN045 12/11 Q1016 NOSIG",
      "taf": "TAF BKPR 082330Z 0900/0924 VRB05KT 9999 SCT020 BKN050"
    },
    {
      "icao": "EBCI",
      "alert": "OK",
      "vis_m": 9999,
      "fzfg": false,
      "metar_trigger": false,
      "taf_trigger": false,
      "metar": "METAR EBCI 082320Z 08005KT CAVOK 12/06 Q1018 NOSIG",
      "taf": "TAF EBCI 082315Z 0900/1006 06004KT CAVOK"
    },
    {
      "icao": "EDDB",
      "alert": "OK",
      "vis_m": 9999,
      "fzfg": false,
      "metar_trigger": false,
      "taf_trigger": false,
      "metar": "METAR EDDB 082320Z AUTO 04004KT CAVOK 11/06 Q1021 NOSIG",
      "taf": "TAF EDDB 082300Z 0900/0924 06004KT CAVOK"
    },
    {
      "icao": "EDDH",
      "alert": "OK",
      "vis_m": 9999,
      "fzfg": false,
      "metar_trigger": false,
      "taf_trigger": false,
      "metar": "METAR EDDH 082320Z AUTO 07006KT CAVOK 07/04 Q1022 NOSIG",
      "taf": "TAF EDDH 082300Z 0900/1006 08005KT CAVOK"
    },
    {
      "icao": "EDDK",
      "alert": "OK",
      "vis_m": 9999,
      "fzfg": false,
      "metar_trigger": false,
      "taf_trigger": false,
      "metar": "METAR EDDK 082320Z AUTO 12003KT 070V160 CAVOK 09/07 Q1019 NOSIG",
      "taf": "TAF EDDK 082300Z 0900/1006 VRB03KT CAVOK"
    },
    {
      "icao": "EDDN",
      "alert": "OK",
      "vis_m": 9999,
      "fzfg": false,
      "metar_trigger": false,
      "taf_trigger": false,
      "metar": "METAR EDDN 082320Z AUTO 33002KT CAVOK 07/06 Q1018",
      "taf": "TAF EDDN 082300Z 0900/0924 VRB03KT CAVOK"
    },
    {
      "icao": "EDDS",
      "alert": "OK",
      "vis_m": 9999,
      "fzfg": false,
      "metar_trigger": false,
      "taf_trigger": false,
      "metar": "METAR EDDS 082320Z AUTO 36003KT CAVOK 11/06 Q1017",
      "taf": "TAF EDDS 082300Z 0900/0924 VRB03KT CAVOK"
    },
    {
      "icao": "EDFH",
      "alert": "OK",
      "vis_m": 9999,
      "fzfg": false,
      "metar_trigger": false,
      "taf_trigger": false,
      "metar": "METAR EDFH 082320Z 12003KT 070V180 CAVOK 08/04 Q1018",
      "taf": "TAF EDFH 082300Z 0900/0924 11006KT CAVOK"
    },
    {
      "icao": "EDJA",
      "alert": "OK",
      "vis_m": 9999,
      "fzfg": false,
      "metar_trigger": false,
      "taf_trigger": false,
      "metar": "METAR EDJA 082320Z AUTO 03002KT 9999 // BKN180/// OVC230/// 09/06 Q1017",
      "taf": "TAF EDJA 081700Z 0818/0903 05004KT CAVOK"
    },
    {
      "icao": "EDLW",
      "alert": "OK",
      "vis_m": 9999,
      "fzfg": false,
      "metar_trigger": false,
      "taf_trigger": false,
      "metar": "METAR EDLW 082320Z AUTO 08004KT 9999 // NCD 08/07 Q1019",
      "taf": "TAF EDLW 081700Z 0818/0918 10004KT CAVOK"
    },
    {
      "icao": "EDNY",
      "alert": "OK",
      "vis_m": 9999,
      "fzfg": false,
      "metar_trigger": false,
      "taf_trigger": false,
      "metar": "METAR EDNY 082320Z AUTO 02007KT 9999 // FEW073/// OVC087/// 14/08 Q1016",
      "taf": "TAF EDNY 081700Z 0818/0903 VRB03KT CAVOK"
    },
    {
      "icao": "EDSB",
      "alert": "OK",
      "vis_m": 9999,
      "fzfg": false,
      "metar_trigger": false,
      "taf_trigger": false,
      "metar": "METAR EDSB 082320Z AUTO 03007KT 9999 FEW059/// 12/08 Q1016",
      "taf": "TAF EDSB 082300Z 0900/0924 03006KT CAVOK"
    },
    {
      "icao": "EETN",
      "alert": "OK",
      "vis_m": 9999,
      "fzfg": false,
      "metar_trigger": false,
      "taf_trigger": false,
      "metar": "METAR EETN 082320Z 07004KT CAVOK 04/00 Q1027",
      "taf": "TAF EETN 082330Z 0900/0924 08005KT CAVOK"
    },
    {
      "icao": "EFTU",
      "alert": "OK",
      "vis_m": 9999,
      "fzfg": false,
      "metar_trigger": false,
      "taf_trigger": false,
      "metar": "METAR EFTU 082320Z AUTO 11002KT CAVOK 04/M04 Q1027",
      "taf": "TAF EFTU 082027Z 0821/0921 36002KT CAVOK"
    },
    {
      "icao": "EGBB",
      "alert": "OK",
      "vis_m": 9999,
      "fzfg": false,
      "metar_trigger": false,
      "taf_trigger": false,
      "metar": "METAR EGBB 082320Z 14002KT CAVOK 12/09 Q1018",
      "taf": "TAF EGBB 082253Z 0900/0924 09003KT 9999 FEW045"
    },
    {
      "icao": "EGGP",
      "alert": "OK",
      "vis_m": 9999,
      "fzfg": false,
      "metar_trigger": false,
      "taf_trigger": false,
      "metar": "METAR EGGP 082320Z 28004KT 9999 SCT042 10/08 Q1018",
      "taf": "TAF EGGP 082300Z 0900/0924 VRB04KT 9999 FEW045"
    },
    {
      "icao": "EGGW",
      "alert": "OK",
      "vis_m": 9999,
      "fzfg": false,
      "metar_trigger": false,
      "taf_trigger": false,
      "metar": "METAR EGGW 082320Z AUTO 12003KT 9999 NCD 08/06 Q1019",
      "taf": "TAF EGGW 082300Z 0900/0924 12006KT 9999 FEW045"
    },
    {
      "icao": "EGKK",
      "alert": "OK",
      "vis_m": 9999,
      "fzfg": false,
      "metar_trigger": false,
      "taf_trigger": false,
      "metar": "METAR EGKK 082320Z 08005KT CAVOK 08/06 Q1018",
      "taf": "TAF EGKK 082256Z 0900/1006 05003KT CAVOK"
    },
    {
      "icao": "EGNM",
      "alert": "OK",
      "vis_m": 9999,
      "fzfg": false,
      "metar_trigger": false,
      "taf_trigger": false,
      "metar": "METAR EGNM 082320Z VRB02KT 9999 SCT045 09/06 Q1019",
      "taf": "TAF EGNM 082256Z 0900/0924 04003KT 9999 FEW040"
    },
    {
      "icao": "EGPD",
      "alert": "OK",
      "vis_m": 9000,
      "fzfg": false,
      "metar_trigger": false,
      "taf_trigger": false,
      "metar": "METAR EGPD 082320Z COR AUTO 30005KT 9000 -RA OVC034 08/05 Q1022 NOSIG",
      "taf": "TAF EGPD 082254Z 0900/0924 34007KT 9999 SCT040"
    },
    {
      "icao": "EGPF",
      "alert": "OK",
      "vis_m": 9999,
      "fzfg": false,
      "metar_trigger": false,
      "taf_trigger": false,
      "metar": "METAR EGPF 082320Z AUTO 26004KT 9999 NCD 06/03 Q1021",
      "taf": "TAF EGPF 082255Z 0900/0924 29004KT 9999 FEW045"
    },
    {
      "icao": "EHBK",
      "alert": "OK",
      "vis_m": 9999,
      "fzfg": false,
      "metar_trigger": false,
      "taf_trigger": false,
      "metar": "METAR EHBK 082325Z AUTO 09004KT 060V120 9999 NCD 10/06 Q1018",
      "taf": "TAF EHBK 082313Z 0900/1006 06005KT CAVOK"
    },
    {
      "icao": "EHEH",
      "alert": "OK",
      "vis_m": 9999,
      "fzfg": false,
      "metar_trigger": false,
      "taf_trigger": false,
      "metar": "METAR EHEH 082325Z AUTO 07002KT 9999 NCD 07/06 Q1018 BLU",
      "taf": "TAF EHEH 081651Z 0817/0923 06005KT CAVOK"
    },
    {
      "icao": "EKBI",
      "alert": "OK",
      "vis_m": 9999,
      "fzfg": false,
      "metar_trigger": false,
      "taf_trigger": false,
      "metar": "METAR EKBI 082320Z AUTO 09004KT 9999 NCD 04/M01 Q1024",
      "taf": "TAF EKBI 082327Z 0900/0924 09005KT CAVOK"
    },
    {
      "icao": "EKCH",
      "alert": "OK",
      "vis_m": 9999,
      "fzfg": false,
      "metar_trigger": false,
      "taf_trigger": false,
      "metar": "METAR EKCH 082320Z AUTO 09007KT 9999 NCD 08/M01 Q1025 NOSIG",
      "taf": "TAF EKCH 082327Z 0900/0924 11010KT CAVOK"
    },
    {
      "icao": "ENAL",
      "alert": "OK",
      "vis_m": 9999,
      "fzfg": false,
      "metar_trigger": false,
      "taf_trigger": false,
      "metar": "METAR ENAL 082320Z AUTO 27007KT 190V320 9999 OVC060/// 09/04 Q1017",
      "taf": "TAF ENAL 082000Z 0821/0906 19010KT 9999 FEW020 SCT040"
    },
    {
      "icao": "ENBR",
      "alert": "OK",
      "vis_m": 9999,
      "fzfg": false,
      "metar_trigger": false,
      "taf_trigger": false,
      "metar": "METAR ENBR 082320Z AUTO 16014KT 9999 NCD 09/03 Q1020 RMK WIND 1200FT 17015KT",
      "taf": "TAF ENBR 081700Z 0818/0918 18010KT 9999 BKN045"
    },
    {
      "icao": "ENGM",
      "alert": "OK",
      "vis_m": 9999,
      "fzfg": false,
      "metar_trigger": false,
      "taf_trigger": false,
      "metar": "METAR ENGM 082320Z VRB02KT CAVOK 06/M01 Q1023",
      "taf": "TAF ENGM 081700Z 0818/0918 20012KT CAVOK"
    },
    {
      "icao": "ENHD",
      "alert": "OK",
      "vis_m": 9999,
      "fzfg": false,
      "metar_trigger": false,
      "taf_trigger": false,
      "metar": "METAR ENHD 082320Z AUTO 17010KT 9999 NCD 09/05 Q1021",
      "taf": "TAF ENHD 081400Z 0815/0822 17015KT CAVOK"
    },
    {
      "icao": "ENTC",
      "alert": "OK",
      "vis_m": 9999,
      "fzfg": false,
      "metar_trigger": false,
      "taf_trigger": false,
      "metar": "METAR ENTC 082320Z 03008KT CAVOK 02/M01 Q1024 RMK WIND 2600FT 14010KT",
      "taf": "TAF ENTC 081700Z 0818/0918 02009KT 9999 FEW020 SCT030"
    },
    {
      "icao": "ENTO",
      "alert": "OK",
      "vis_m": 4700,
      "fzfg": false,
      "metar_trigger": false,
      "taf_trigger": false,
      "metar": "METAR ENTO 082320Z AUTO 20004KT 4700 // NCD 08/07 Q1024",
      "taf": "TAF ENTO 081700Z 0818/0918 20010KT CAVOK"
    },
    {
      "icao": "ENVA",
      "alert": "OK",
      "vis_m": 9999,
      "fzfg": false,
      "metar_trigger": false,
      "taf_trigger": false,
      "metar": "METAR ENVA 082320Z AUTO 10005KT 9999 NCD 09/01 Q1018 RMK WIND 670FT 13007KT",
      "taf": "TAF ENVA 081700Z 0818/0918 17008KT CAVOK"
    },
    {
      "icao": "ENZV",
      "alert": "OK",
      "vis_m": 9999,
      "fzfg": false,
      "metar_trigger": false,
      "taf_trigger": false,
      "metar": "METAR ENZV 082320Z 16009KT CAVOK 09/03 Q1022",
      "taf": ""
    },
    {
      "icao": "EPGD",
      "alert": "OK",
      "vis_m": 9999,
      "fzfg": false,
      "metar_trigger": false,
      "taf_trigger": false,
      "metar": "METAR EPGD 082300Z 31005KT CAVOK 06/04 Q1021",
      "taf": "TAF EPGD 082330Z 0900/0924 31005KT CAVOK"
    },
    {
      "icao": "EPKK",
      "alert": "OK",
      "vis_m": 9999,
      "fzfg": false,
      "metar_trigger": false,
      "taf_trigger": false,
      "metar": "METAR EPKK 082300Z 03005KT 9999 SCT027 OVC048 11/07 Q1019",
      "taf": "TAF EPKK 082330Z 0900/0924 03005KT 9999 BKN030"
    },
    {
      "icao": "EPKT",
      "alert": "OK",
      "vis_m": 9999,
      "fzfg": false,
      "metar_trigger": false,
      "taf_trigger": false,
      "metar": "METAR EPKT 082300Z 29003KT 9999 OVC031 09/06 Q1020",
      "taf": "TAF EPKT 082330Z 0900/0924 31004KT 9999 BKN030"
    },
    {
      "icao": "EPLB",
      "alert": "OK",
      "vis_m": 9999,
      "fzfg": false,
      "metar_trigger": false,
      "taf_trigger": false,
      "metar": "METAR EPLB 082300Z 29004KT 9999 OVC037 10/08 Q1018",
      "taf": "TAF EPLB 082330Z 0900/0924 30004KT 9999 BKN030"
    },
    {
      "icao": "EPMO",
      "alert": "OK",
      "vis_m": 9999,
      "fzfg": false,
      "metar_trigger": false,
      "taf_trigger": false,
      "metar": "METAR EPMO 082300Z 34004KT 310V010 9999 SCT011 08/07 Q1019",
      "taf": "TAF EPMO 082330Z 0900/0924 36005KT 9999 BKN012 BKN020"
    },
    {
      "icao": "EPPO",
      "alert": "OK",
      "vis_m": 9999,
      "fzfg": false,
      "metar_trigger": false,
      "taf_trigger": false,
      "metar": "METAR EPPO 082300Z 29002KT CAVOK 05/04 Q1020",
      "taf": "TAF EPPO 082330Z 0900/0924 29002KT CAVOK"
    },
    {
      "icao": "EPRA",
      "alert": "OK",
      "vis_m": 9999,
      "fzfg": false,
      "metar_trigger": false,
      "taf_trigger": false,
      "metar": "METAR EPRA 082300Z 30005KT 270V330 9999 BKN025 10/07 Q1019",
      "taf": "TAF EPRA 082330Z 0900/0909 29007KT 9999 BKN030"
    },
    {
      "icao": "EPRZ",
      "alert": "OK",
      "vis_m": 9999,
      "fzfg": false,
      "metar_trigger": false,
      "taf_trigger": false,
      "metar": "METAR EPRZ 082300Z 30005KT 9999 OVC020 12/09 Q1019",
      "taf": "TAF EPRZ 082330Z 0900/0924 31003KT 9999 BKN020"
    },
    {
      "icao": "EPSC",
      "alert": "OK",
      "vis_m": 9999,
      "fzfg": false,
      "metar_trigger": false,
      "taf_trigger": false,
      "metar": "METAR EPSC 082300Z 01003KT 350V050 CAVOK 05/03 Q1022",
      "taf": "TAF EPSC 082330Z 0900/0924 03003KT CAVOK"
    },
    {
      "icao": "EPSY",
      "alert": "OK",
      "vis_m": 9999,
      "fzfg": false,
      "metar_trigger": false,
      "taf_trigger": false,
      "metar": "METAR EPSY 082300Z 36006KT 9999 OVC024 08/06 Q1020",
      "taf": "TAF EPSY 082330Z 0900/0909 01006KT 9999 OVC026"
    },
    {
      "icao": "EPWA",
      "alert": "OK",
      "vis_m": 9999,
      "fzfg": false,
      "metar_trigger": false,
      "taf_trigger": false,
      "metar": "METAR EPWA 082300Z 33006KT 9999 FEW016 BKN023 09/07 Q1019 NOSIG",
      "taf": "TAF EPWA 082330Z 0900/0924 34005KT 9999 BKN020"
    },
    {
      "icao": "EPWR",
      "alert": "OK",
      "vis_m": 9999,
      "fzfg": false,
      "metar_trigger": false,
      "taf_trigger": false,
      "metar": "METAR EPWR 082300Z VRB02KT 9999 BKN045 10/08 Q1020",
      "taf": "TAF EPWR 082330Z 0900/0924 VRB02KT 9999 BKN045"
    },
    {
      "icao": "ESGG",
      "alert": "OK",
      "vis_m": 9999,
      "fzfg": false,
      "metar_trigger": false,
      "taf_trigger": false,
      "metar": "METAR ESGG 082320Z 11006KT CAVOK 07/02 Q1024",
      "taf": "TAF ESGG 082030Z 0821/0921 VRB02KT CAVOK"
    },
    {
      "icao": "ESKN",
      "alert": "OK",
      "vis_m": 9999,
      "fzfg": false,
      "metar_trigger": false,
      "taf_trigger": false,
      "metar": "METAR ESKN 082320Z 08002KT CAVOK 02/M02 Q1027",
      "taf": "TAF ESKN 082030Z 0821/0921 VRB02KT CAVOK"
    },
    {
      "icao": "ESMS",
      "alert": "OK",
      "vis_m": 9999,
      "fzfg": false,
      "metar_trigger": false,
      "taf_trigger": false,
      "metar": "METAR ESMS 082320Z 06003KT CAVOK 04/M01 Q1024",
      "taf": "TAF ESMS 082027Z 0821/0921 10008KT CAVOK"
    },
    {
      "icao": "ESSA",
      "alert": "OK",
      "vis_m": 9999,
      "fzfg": false,
      "metar_trigger": false,
      "taf_trigger": false,
      "metar": "METAR ESSA 082320Z 07003KT CAVOK 00/M06 Q1027 NOSIG",
      "taf": "TAF ESSA 082030Z 0821/0921 VRB03KT CAVOK"
    },
    {
      "icao": "EYKA",
      "alert": "OK",
      "vis_m": 9999,
      "fzfg": false,
      "metar_trigger": false,
      "taf_trigger": false,
      "metar": "METAR EYKA 082320Z AUTO 03008KT 360V060 9999 -RA OVC038/// 07/05 Q1020 RERA",
      "taf": "TAF EYKA 082300Z 0900/0924 04013KT 9000 SCT010 BKN015"
    },
    {
      "icao": "EYPA",
      "alert": "OK",
      "vis_m": 9999,
      "fzfg": false,
      "metar_trigger": false,
      "taf_trigger": false,
      "metar": "METAR EYPA 082320Z AUTO 05008KT 9999 NCD 10/M04 Q1022",
      "taf": "TAF EYPA 082300Z 0900/0924 04010KT CAVOK"
    },
    {
      "icao": "EYVI",
      "alert": "OK",
      "vis_m": 6000,
      "fzfg": false,
      "metar_trigger": false,
      "taf_trigger": false,
      "metar": "METAR EYVI 082320Z 03018KT 6000 -RA SCT011 BKN018 OVC027 07/05 Q1016 TEMPO 02019G29KT BKN015",
      "taf": "TAF EYVI 082300Z 0900/0924 02015KT 9000 SCT010 BKN015"
    },
    {
      "icao": "GCFV",
      "alert": "OK",
      "vis_m": 9999,
      "fzfg": false,
      "metar_trigger": false,
      "taf_trigger": false,
      "metar": "METAR GCFV 082300Z AUTO 00000KT CAVOK 19/14 Q1015",
      "taf": "TAF GCFV 082000Z 0821/0921 27005KT 9999 SCT030 TX24/0914Z TN17/0906Z"
    },
    {
      "icao": "GCLP",
      "alert": "OK",
      "vis_m": 9999,
      "fzfg": false,
      "metar_trigger": false,
      "taf_trigger": false,
      "metar": "METAR GCLP 082300Z 16006KT 9999 SCT035 20/16 Q1015 NOSIG",
      "taf": "TAF GCLP 082000Z 0821/0921 33005KT 9999 SCT035 TX22/0914Z TN16/0906Z"
    },
    {
      "icao": "GCTS",
      "alert": "OK",
      "vis_m": 9999,
      "fzfg": false,
      "metar_trigger": false,
      "taf_trigger": false,
      "metar": "METAR GCTS 082300Z 31008KT 9999 FEW030 20/13 Q1015 NOSIG",
      "taf": "TAF GCTS 082000Z 0821/0921 30007KT 9999 FEW025 TX24/0914Z TN16/0906Z"
    },
    {
      "icao": "GMAD",
      "alert": "OK",
      "vis_m": 9999,
      "fzfg": false,
      "metar_trigger": false,
      "taf_trigger": false,
      "metar": "METAR GMAD 082300Z 21005KT CAVOK 15/11 Q1015 NOSIG",
      "taf": "TAF GMAD 082300Z 0900/1006 20005KT 8000 NSC"
    },
    {
      "icao": "GMMN",
      "alert": "OK",
      "vis_m": 9999,
      "fzfg": false,
      "metar_trigger": false,
      "taf_trigger": false,
      "metar": "METAR GMMN 082300Z 18004KT CAVOK 14/10 Q1012 NOSIG",
      "taf": "TAF GMMN 082300Z 0900/1006 18005KT CAVOK"
    },
    {
      "icao": "GMMX",
      "alert": "OK",
      "vis_m": 9999,
      "fzfg": false,
      "metar_trigger": false,
      "taf_trigger": false,
      "metar": "METAR GMMX 082300Z 23006KT 200V260 9999 FEW023 BKN080 16/07 Q1013 NOSIG",
      "taf": "TAF GMMX 082300Z 0900/1006 26006KT 9999 FEW023 BKN080"
    },
    {
      "icao": "HEGN",
      "alert": "OK",
      "vis_m": 9999,
      "fzfg": false,
      "metar_trigger": false,
      "taf_trigger": false,
      "metar": "METAR HEGN 082300Z 30012KT CAVOK 22/09 Q1012 NOSIG",
      "taf": "TAF HEGN 082300Z 0900/1006 29012KT CAVOK"
    },
    {
      "icao": "HEMA",
      "alert": "OK",
      "vis_m": 9999,
      "fzfg": false,
      "metar_trigger": false,
      "taf_trigger": false,
      "metar": "METAR HEMA 082300Z 32012KT CAVOK 24/06 Q1010 NOSIG",
      "taf": "TAF HEMA 082300Z 0900/1006 30012KT CAVOK"
    },
    {
      "icao": "HESH",
      "alert": "OK",
      "vis_m": 9999,
      "fzfg": false,
      "metar_trigger": false,
      "taf_trigger": false,
      "metar": "METAR HESH 082300Z 35011KT CAVOK 26/13 Q1010 NOSIG",
      "taf": "TAF HESH 082300Z 0900/1006 34012KT CAVOK"
    },
    {
      "icao": "HESX",
      "alert": "OK",
      "vis_m": 9999,
      "fzfg": false,
      "metar_trigger": false,
      "taf_trigger": false,
      "metar": "METAR HESX 082300Z 03008KT CAVOK 16/09 Q1018 NOSIG",
      "taf": "TAF HESX 082300Z 0900/1006 02010KT CAVOK"
    },
    {
      "icao": "LATI",
      "alert": "OK",
      "vis_m": 6000,
      "fzfg": false,
      "metar_trigger": false,
      "taf_trigger": false,
      "metar": "METAR LATI 082320Z 16003KT 6000 -RA BKN015 OVC020 16/13 Q1015 NOSIG",
      "taf": "TAF LATI 082300Z 0900/0924 VRB05KT 4000 -RA BR BKN015 OVC030 TX22/0913Z TN11/0924Z"
    },
    {
      "icao": "LBPD",
      "alert": "OK",
      "vis_m": 9999,
      "fzfg": false,
      "metar_trigger": false,
      "taf_trigger": false,
      "metar": "METAR LBPD 082330Z AUTO 32004KT 9999 OVC008/// 14/14 Q1014",
      "taf": "TAF LBPD 082300Z 0900/0924 VRB03KT 9999 BKN070"
    },
    {
      "icao": "LBSF",
      "alert": "OK",
      "vis_m": 9999,
      "fzfg": false,
      "metar_trigger": false,
      "taf_trigger": false,
      "metar": "METAR LBSF 082330Z AUTO 33003KT 300V030 9999 FEW046/// BKN082/// 12/11 Q1015 NOSIG",
      "taf": "TAF LBSF 082300Z 0900/0924 VRB03KT 9999 SCT025 BKN060"
    },
    {
      "icao": "LBWN",
      "alert": "OK",
      "vis_m": 3900,
      "fzfg": false,
      "metar_trigger": false,
      "taf_trigger": false,
      "metar": "METAR LBWN 082330Z AUTO 13004KT 3900 BR NSC 13/13 Q1015 TEMPO 3000 -RA BR",
      "taf": "TAF LBWN 082300Z 0900/0924 VRB04KT 5000 BR SCT040"
    },
    {
      "icao": "LCLK",
      "alert": "OK",
      "vis_m": 9999,
      "fzfg": false,
      "metar_trigger": false,
      "taf_trigger": false,
      "metar": "METAR LCLK 082300Z 26005KT CAVOK 20/07 Q1016 NOSIG",
      "taf": "TAF LCLK 082330Z 0900/1000 31007KT CAVOK"
    },
    {
      "icao": "LCPH",
      "alert": "OK",
      "vis_m": 9999,
      "fzfg": false,
      "metar_trigger": false,
      "taf_trigger": false,
      "metar": "METAR LCPH 082300Z 36002KT CAVOK 18/09 Q1016 NOSIG",
      "taf": "TAF LCPH 082330Z 0900/1000 01007KT CAVOK"
    },
    {
      "icao": "LEAL",
      "alert": "OK",
      "vis_m": 9999,
      "fzfg": false,
      "metar_trigger": false,
      "taf_trigger": false,
      "metar": "METAR LEAL 082300Z 01004KT 340V050 9999 SCT014 18/14 Q1013 NOSIG",
      "taf": "TAF LEAL 081700Z 0818/0918 09010KT 9999 FEW035 TX23/0912Z TN14/0905Z"
    },
    {
      "icao": "LEBB",
      "alert": "OK",
      "vis_m": 9999,
      "fzfg": false,
      "metar_trigger": false,
      "taf_trigger": false,
      "metar": "METAR LEBB 082300Z AUTO 09007KT CAVOK 14/12 Q1011",
      "taf": "TAF LEBB 082300Z 0900/0924 13007KT 9999 FEW055 TX22/0912Z TN10/0905Z"
    },
    {
      "icao": "LEBL",
      "alert": "OK",
      "vis_m": 9999,
      "fzfg": false,
      "metar_trigger": false,
      "taf_trigger": false,
      "metar": "METAR LEBL 082300Z 10005KT 070V130 9999 FEW020 18/14 Q1015 NOSIG",
      "taf": ""
    },
    {
      "icao": "LECH",
      "alert": "OK",
      "vis_m": 9000,
      "fzfg": false,
      "metar_trigger": false,
      "taf_trigger": false,
      "metar": "METAR LECH 082300Z AUTO 00000KT 9000 NCD 12/12 Q1015",
      "taf": "TAF LECH 081700Z 0818/0918 09010KT 9999 FEW020 TX19/0914Z TN11/0905Z"
    },
    {
      "icao": "LEMD",
      "alert": "OK",
      "vis_m": 9999,
      "fzfg": false,
      "metar_trigger": false,
      "taf_trigger": false,
      "metar": "METAR LEMD 082300Z VRB02KT 9999 SCT076 12/10 Q1011 NOSIG",
      "taf": "TAF LEMD 082300Z 0900/1006 VRB04KT 9999 FEW045 TX17/0913Z TN09/0905Z"
    },
    {
      "icao": "LEMG",
      "alert": "OK",
      "vis_m": 9999,
      "fzfg": false,
      "metar_trigger": false,
      "taf_trigger": false,
      "metar": "METAR LEMG 082300Z 13003KT 9999 FEW011 SCT015 16/15 Q1012 BECMG 4000 SHRA FEW020CB",
      "taf": "TAF LEMG 082300Z 0900/0924 VRB02KT 9999 SCT015 TX20/0914Z TN16/0906Z"
    },
    {
      "icao": "LEVC",
      "alert": "OK",
      "vis_m": 9999,
      "fzfg": false,
      "metar_trigger": false,
      "taf_trigger": false,
      "metar": "METAR LEVC 082300Z 02005KT 9999 FEW015 17/14 Q1014 NOSIG",
      "taf": "TAF LEVC 081700Z 0818/0918 09010KT 9999 FEW040 TX21/0912Z TN14/0905Z"
    },
    {
      "icao": "LEXJ",
      "alert": "OK",
      "vis_m": 9999,
      "fzfg": false,
      "metar_trigger": false,
      "taf_trigger": false,
      "metar": "METAR LEXJ 082300Z AUTO 15003KT CAVOK 12/11 Q1010",
      "taf": "TAF LEXJ 082000Z 0821/0921 20009KT 9999 FEW010 TX22/0914Z TN10/0905Z"
    },
    {
      "icao": "LEZG",
      "alert": "OK",
      "vis_m": 9999,
      "fzfg": false,
      "metar_trigger": false,
      "taf_trigger": false,
      "metar": "METAR LEZG 082300Z 09007KT 060V120 9999 FEW080 15/12 Q1012 NOSIG",
      "taf": "TAF LEZG 081700Z 0818/0918 VRB04KT 9999 FEW050 TX21/0914Z TN13/0905Z"
    },
    {
      "icao": "LEZL",
      "alert": "OK",
      "vis_m": 9999,
      "fzfg": false,
      "metar_trigger": false,
      "taf_trigger": false,
      "metar": "METAR LEZL 082300Z 21004KT 160V260 CAVOK 18/11 Q1010 NOSIG",
      "taf": "TAF LEZL 082000Z 0821/0921 22010KT CAVOK TX22/0914Z TN15/0906Z"
    },
    {
      "icao": "LFBD",
      "alert": "OK",
      "vis_m": 9999,
      "fzfg": false,
      "metar_trigger": false,
      "taf_trigger": false,
      "metar": "METAR LFBD 082300Z AUTO 23003KT 180V270 CAVOK 16/13 Q1012 NOSIG",
      "taf": "TAF LFBD 081700Z 0818/0924 12010KT CAVOK TX24/0913Z TN12/0905Z"
    },
    {
      "icao": "LFLL",
      "alert": "OK",
      "vis_m": 9999,
      "fzfg": false,
      "metar_trigger": false,
      "taf_trigger": false,
      "metar": "METAR LFLL 082300Z 17009KT CAVOK 16/08 Q1016 NOSIG",
      "taf": "TAF LFLL 082300Z 0900/1006 16008KT CAVOK"
    },
    {
      "icao": "LFLS",
      "alert": "OK",
      "vis_m": 9999,
      "fzfg": false,
      "metar_trigger": false,
      "taf_trigger": false,
      "metar": "METAR LFLS 082300Z AUTO VRB03KT CAVOK 14/06 Q1016",
      "taf": "TAF LFLS 081400Z 0815/0915 VRB04KT 9999 FEW045"
    },
    {
      "icao": "LFMN",
      "alert": "OK",
      "vis_m": 9999,
      "fzfg": false,
      "metar_trigger": false,
      "taf_trigger": false,
      "metar": "METAR LFMN 082300Z 31007KT CAVOK 17/11 Q1017 NOSIG",
      "taf": "TAF LFMN 082000Z 0821/1003 33010KT CAVOK"
    },
    {
      "icao": "LFOB",
      "alert": "OK",
      "vis_m": 9999,
      "fzfg": false,
      "metar_trigger": false,
      "taf_trigger": false,
      "metar": "METAR LFOB 082300Z AUTO 33003KT CAVOK 08/07 Q1016 NOSIG",
      "taf": "TAF LFOB 082300Z 0900/0924 VRB03KT CAVOK"
    },
    {
      "icao": "LFPO",
      "alert": "OK",
      "vis_m": 9999,
      "fzfg": false,
      "metar_trigger": false,
      "taf_trigger": false,
      "metar": "METAR LFPO 082300Z AUTO VRB02KT CAVOK 13/09 Q1016 NOSIG",
      "taf": "TAF LFPO 082300Z 0900/1006 04005KT CAVOK"
    },
    {
      "icao": "LFSB",
      "alert": "OK",
      "vis_m": 9999,
      "fzfg": false,
      "metar_trigger": false,
      "taf_trigger": false,
      "metar": "METAR LFSB 082300Z AUTO 31006KT CAVOK 12/10 Q1016 NOSIG",
      "taf": "TAF LFSB 082300Z 0900/0924 34004KT CAVOK"
    },
    {
      "icao": "LGAV",
      "alert": "OK",
      "vis_m": 9999,
      "fzfg": false,
      "metar_trigger": false,
      "taf_trigger": false,
      "metar": "METAR LGAV 082320Z 27004KT 9999 SCT025 17/12 Q1017 NOSIG",
      "taf": "TAF LGAV 082300Z 0900/0924 VRB03KT 9999 SCT025 SCT070"
    },
    {
      "icao": "LGTS",
      "alert": "OK",
      "vis_m": 8000,
      "fzfg": false,
      "metar_trigger": false,
      "taf_trigger": false,
      "metar": "METAR LGTS 082320Z VRB02KT 8000 SCT008 BKN020 16/15 Q1016 NOSIG",
      "taf": "TAF LGTS 082300Z 0900/0924 VRB03KT 9999 SCT025"
    },
    {
      "icao": "LHBP",
      "alert": "OK",
      "vis_m": 9999,
      "fzfg": false,
      "metar_trigger": false,
      "taf_trigger": false,
      "metar": "METAR LHBP 082300Z 36005KT CAVOK 15/08 Q1016 NOSIG",
      "taf": "TAF LHBP 082315Z 0900/0924 33007KT CAVOK"
    },
    {
      "icao": "LHDC",
      "alert": "OK",
      "vis_m": 9999,
      "fzfg": false,
      "metar_trigger": false,
      "taf_trigger": false,
      "metar": "METAR LHDC 082245Z AUTO 03006KT CAVOK 13/12 Q1016",
      "taf": "TAF LHDC 081415Z 0815/0824 28006KT CAVOK"
    },
    {
      "icao": "LIBD",
      "alert": "OK",
      "vis_m": 9999,
      "fzfg": false,
      "metar_trigger": false,
      "taf_trigger": false,
      "metar": "METAR LIBD 082320Z 28004KT 9999 FEW030 14/13 Q1016",
      "taf": "TAF LIBD 082300Z 0900/0924 28008KT 8000 BKN020"
    },
    {
      "icao": "LIBG",
      "alert": "OK",
      "vis_m": null,
      "fzfg": false,
      "metar_trigger": false,
      "taf_trigger": false,
      "metar": "",
      "taf": "TAF LIBG 081400Z 0815/0824 02008KT 9999 FEW008 SCT020"
    },
    {
      "icao": "LIBP",
      "alert": "OK",
      "vis_m": 9999,
      "fzfg": false,
      "metar_trigger": false,
      "taf_trigger": false,
      "metar": "METAR LIBP 082320Z AUTO 23005KT 9999 OVC095/// 16/16 Q1016",
      "taf": "TAF LIBP 082300Z 0900/0924 VRB05KT 9999 SCT070"
    },
    {
      "icao": "LIBR",
      "alert": "OK",
      "vis_m": 6000,
      "fzfg": false,
      "metar_trigger": false,
      "taf_trigger": false,
      "metar": "METAR LIBR 082320Z 02012KT 6000 -DZ SCT005 15/15 Q1015",
      "taf": "TAF LIBR 082300Z 0900/0924 02010KT 9999 BKN010 BKN020"
    },
    {
      "icao": "LICA",
      "alert": "OK",
      "vis_m": 9999,
      "fzfg": false,
      "metar_trigger": false,
      "taf_trigger": false,
      "metar": "METAR LICA 082320Z AUTO 09004KT 9999 BKN065/// BKN080/// 14/12 Q1015",
      "taf": "TAF LICA 082300Z 0900/0924 VRB05KT 9999 FEW030"
    },
    {
      "icao": "LICC",
      "alert": "OK",
      "vis_m": 8000,
      "fzfg": false,
      "metar_trigger": false,
      "taf_trigger": false,
      "metar": "METAR LICC 082320Z 29007KT 8000 NSC 18/14 Q1015",
      "taf": "TAF LICC 082300Z 0900/0924 VRB05KT 9999 FEW040"
    },
    {
      "icao": "LICJ",
      "alert": "OK",
      "vis_m": 9999,
      "fzfg": false,
      "metar_trigger": false,
      "taf_trigger": false,
      "metar": "METAR LICJ 082320Z 18003KT CAVOK 16/15 Q1016",
      "taf": "TAF LICJ 082300Z 0900/0924 VRB05KT 9999 FEW040"
    },
    {
      "icao": "LIMC",
      "alert": "OK",
      "vis_m": 9999,
      "fzfg": false,
      "metar_trigger": false,
      "taf_trigger": false,
      "metar": "METAR LIMC 082320Z VRB01KT 9999 MIFG NSC 10/10 Q1017 NOSIG",
      "taf": "TAF LIMC 082300Z 0900/1006 VRB05KT 9999 FEW030"
    },
    {
      "icao": "LIME",
      "alert": "OK",
      "vis_m": 9999,
      "fzfg": false,
      "metar_trigger": false,
      "taf_trigger": false,
      "metar": "METAR LIME 082320Z 01005KT CAVOK 14/10 Q1017 NOSIG",
      "taf": "TAF LIME 082300Z 0900/0924 VRB05KT 9999 SCT050"
    },
    {
      "icao": "LIMF",
      "alert": "OK",
      "vis_m": 9999,
      "fzfg": false,
      "metar_trigger": false,
      "taf_trigger": false,
      "metar": "METAR LIMF 082320Z 20001KT CAVOK 11/10 Q1017",
      "taf": "TAF LIMF 082300Z 0900/0924 VRB05KT 9999 SCT030"
    },
    {
      "icao": "LIMJ",
      "alert": "OK",
      "vis_m": 9999,
      "fzfg": false,
      "metar_trigger": false,
      "taf_trigger": false,
      "metar": "METAR LIMJ 082320Z 03010KT CAVOK 18/12 Q1016",
      "taf": "TAF LIMJ 082300Z 0900/0924 03007KT 9999 SCT020"
    },
    {
      "icao": "LIPE",
      "alert": "OK",
      "vis_m": 9999,
      "fzfg": false,
      "metar_trigger": false,
      "taf_trigger": false,
      "metar": "METAR LIPE 082320Z 20008KT CAVOK 14/10 Q1016",
      "taf": "TAF LIPE 082300Z 0900/0924 VRB05KT CAVOK"
    },
    {
      "icao": "LIPH",
      "alert": "OK",
      "vis_m": 9999,
      "fzfg": false,
      "metar_trigger": false,
      "taf_trigger": false,
      "metar": "METAR LIPH 082320Z AUTO VRB01KT 9999 NCD 14/12 Q1016",
      "taf": "TAF LIPH 082300Z 0900/0924 VRB05KT CAVOK"
    },
    {
      "icao": "LIPQ",
      "alert": "OK",
      "vis_m": 9999,
      "fzfg": false,
      "metar_trigger": false,
      "taf_trigger": false,
      "metar": "METAR LIPQ 082320Z AUTO 11005KT 9999 BKN190/// 14/13 Q1017",
      "taf": "TAF LIPQ 082300Z 0900/0924 VRB05KT 9999 SCT050"
    },
    {
      "icao": "LIPR",
      "alert": "OK",
      "vis_m": 9999,
      "fzfg": false,
      "metar_trigger": false,
      "taf_trigger": false,
      "metar": "METAR LIPR 082320Z AUTO 22002KT 9999 BKN120/// 15/13 Q1016",
      "taf": "TAF LIPR 082300Z 0900/0924 VRB05KT CAVOK"
    },
    {
      "icao": "LIPX",
      "alert": "OK",
      "vis_m": 9999,
      "fzfg": false,
      "metar_trigger": false,
      "taf_trigger": false,
      "metar": "METAR LIPX 082320Z 35004KT CAVOK 13/11 Q1016",
      "taf": "TAF LIPX 082300Z 0900/0924 VRB05KT 9999 FEW050"
    },
    {
      "icao": "LIPY",
      "alert": "OK",
      "vis_m": 9999,
      "fzfg": false,
      "metar_trigger": false,
      "taf_trigger": false,
      "metar": "METAR LIPY 082320Z AUTO 19003KT 9999 OVC130/// 14/13 Q1016",
      "taf": "TAF LIPY 082300Z 0900/0924 VRB05KT CAVOK"
    },
    {
      "icao": "LIPZ",
      "alert": "OK",
      "vis_m": 9999,
      "fzfg": false,
      "metar_trigger": false,
      "taf_trigger": false,
      "metar": "METAR LIPZ 082320Z 34003KT CAVOK 16/13 Q1016 NOSIG",
      "taf": "TAF LIPZ 082300Z 0900/1006 VRB05KT CAVOK"
    },
    {
      "icao": "LIRF",
      "alert": "OK",
      "vis_m": 9999,
      "fzfg": false,
      "metar_trigger": false,
      "taf_trigger": false,
      "metar": "METAR LIRF 082320Z 05003KT 010V080 CAVOK 14/13 Q1016 NOSIG",
      "taf": "TAF LIRF 082300Z 0900/1006 05006KT 9999 FEW020"
    },
    {
      "icao": "LIRN",
      "alert": "OK",
      "vis_m": 9999,
      "fzfg": false,
      "metar_trigger": false,
      "taf_trigger": false,
      "metar": "METAR LIRN 082320Z VRB02KT CAVOK 16/09 Q1015 NOSIG",
      "taf": "TAF LIRN 082300Z 0900/0924 06007KT 9999 FEW050"
    },
    {
      "icao": "LIRP",
      "alert": "OK",
      "vis_m": 9999,
      "fzfg": false,
      "metar_trigger": false,
      "taf_trigger": false,
      "metar": "METAR LIRP 082315Z 08003KT CAVOK 13/11 Q1016 NOSIG",
      "taf": "TAF LIRP 082300Z 0900/0924 09005KT CAVOK"
    },
    {
      "icao": "LIRZ",
      "alert": "OK",
      "vis_m": 9999,
      "fzfg": false,
      "metar_trigger": false,
      "taf_trigger": false,
      "metar": "METAR LIRZ 082320Z AUTO 32003KT 270V350 9999 NCD 12/12 Q1016",
      "taf": "TAF LIRZ 082300Z 0900/0924 VRB05KT 9999 SCT040"
    },
    {
      "icao": "LJLJ",
      "alert": "OK",
      "vis_m": 9999,
      "fzfg": false,
      "metar_trigger": false,
      "taf_trigger": false,
      "metar": "METAR LJLJ 082300Z 30003KT 9999 FEW085 BKN180 12/09 Q1017 NOSIG",
      "taf": "TAF LJLJ 082300Z 0900/1000 28003KT 9999 FEW065 SCT085"
    },
    {
      "icao": "LKMT",
      "alert": "OK",
      "vis_m": 9999,
      "fzfg": false,
      "metar_trigger": false,
      "taf_trigger": false,
      "metar": "METAR LKMT 082300Z 02006KT 9999 FEW026 BKN034 BKN043 10/07 Q1020 NOSIG",
      "taf": "TAF LKMT 082300Z 0900/0924 02006KT 9999 BKN025"
    },
    {
      "icao": "LKPR",
      "alert": "OK",
      "vis_m": 9999,
      "fzfg": false,
      "metar_trigger": false,
      "taf_trigger": false,
      "metar": "METAR LKPR 082300Z 34004KT CAVOK 08/06 Q1020 NOSIG",
      "taf": "TAF LKPR 082300Z 0900/1006 35005KT 4000 BR NSC"
    },
    {
      "icao": "LLBG",
      "alert": "OK",
      "vis_m": 9999,
      "fzfg": false,
      "metar_trigger": false,
      "taf_trigger": false,
      "metar": "METAR LLBG 082320Z 15004KT 9999 BKN015 18/15 Q1015 TEMPO BKN012",
      "taf": "TAF LLBG 082307Z 0900/0924 VRB04KT CAVOK TX29/0912Z TN15/0903Z"
    },
    {
      "icao": "LMML",
      "alert": "OK",
      "vis_m": 9999,
      "fzfg": false,
      "metar_trigger": false,
      "taf_trigger": false,
      "metar": "METAR LMML 082315Z 30007KT CAVOK 17/14 Q1015 NOSIG",
      "taf": "TAF LMML 082300Z 0900/0924 29008KT 9999 FEW012"
    },
    {
      "icao": "LOWW",
      "alert": "OK",
      "vis_m": 9999,
      "fzfg": false,
      "metar_trigger": false,
      "taf_trigger": false,
      "metar": "METAR LOWW 082320Z 34002KT CAVOK 10/08 Q1018 NOSIG",
      "taf": "TAF LOWW 082315Z 0900/1006 01008KT 9999 FEW050 TX21/0913Z TN08/1003Z"
    },
    {
      "icao": "LPFR",
      "alert": "OK",
      "vis_m": 9999,
      "fzfg": false,
      "metar_trigger": false,
      "taf_trigger": false,
      "metar": "METAR LPFR 082300Z 10006KT 9999 FEW015 FEW020CB SCT040 15/14 Q1008",
      "taf": "TAF LPFR 082300Z 0900/0924 VRB05KT 9999 SCT020"
    },
    {
      "icao": "LPMA",
      "alert": "OK",
      "vis_m": 9999,
      "fzfg": false,
      "metar_trigger": false,
      "taf_trigger": false,
      "metar": "METAR LPMA 082300Z VRB04KT 9999 FEW015 17/10 Q1009",
      "taf": "TAF LPMA 082300Z 0900/0924 VRB05KT 9999 SCT015"
    },
    {
      "icao": "LPPR",
      "alert": "OK",
      "vis_m": 9999,
      "fzfg": false,
      "metar_trigger": false,
      "taf_trigger": false,
      "metar": "METAR LPPR 082300Z 11007KT 070V140 9999 -RA NSC 17/09 Q1005",
      "taf": "TAF LPPR 082300Z 0900/0924 13010KT 9999 SCT025"
    },
    {
      "icao": "LPPS",
      "alert": "OK",
      "vis_m": 9000,
      "fzfg": false,
      "metar_trigger": false,
      "taf_trigger": false,
      "metar": "METAR LPPS 082300Z 29018KT 9000 SHRA SCT012 FEW018CB SCT030 16/13 Q1009 RESHRA",
      "taf": "TAF LPPS 082300Z 0900/1006 27020G32KT 9999 SCT015 SCT030"
    },
    {
      "icao": "LPPT",
      "alert": "OK",
      "vis_m": 9999,
      "fzfg": false,
      "metar_trigger": false,
      "taf_trigger": false,
      "metar": "METAR LPPT 082300Z 17017KT 9999 BKN018 FEW020TCU 15/11 Q1005",
      "taf": "TAF LPPT 082300Z 0900/1006 17017KT 9999 SCT020"
    },
    {
      "icao": "LQBK",
      "alert": "OK",
      "vis_m": 9999,
      "fzfg": false,
      "metar_trigger": false,
      "taf_trigger": false,
      "metar": "METAR LQBK 082300Z 31001KT CAVOK 14/10 Q1016 NOSIG",
      "taf": "TAF LQBK 082300Z 0900/0924 16005KT CAVOK TX23/0913Z TN11/0904Z"
    },
    {
      "icao": "LQSA",
      "alert": "OK",
      "vis_m": 9999,
      "fzfg": false,
      "metar_trigger": false,
      "taf_trigger": false,
      "metar": "METAR LQSA 082300Z 35003KT 310V050 9999 BKN050 13/12 Q1017",
      "taf": "TAF LQSA 082300Z 0900/0924 VRB02KT 9999 SCT055 TX20/0913Z TN10/0904Z"
    },
    {
      "icao": "LQTZ",
      "alert": "OK",
      "vis_m": 8000,
      "fzfg": false,
      "metar_trigger": false,
      "taf_trigger": false,
      "metar": "METAR LQTZ 082300Z VRB01KT 8000 -RA FEW004 SCT032 BKN049 14/14 Q1017",
      "taf": "TAF LQTZ 082300Z 0900/0924 27005KT 9999 BKN050 TX22/0913Z TN11/0904Z"
    },
    {
      "icao": "LRBC",
      "alert": "OK",
      "vis_m": 9999,
      "fzfg": false,
      "metar_trigger": false,
      "taf_trigger": false,
      "metar": "METAR LRBC 082300Z 35006KT 9999 BKN034 16/15 Q1016",
      "taf": "TAF LRBC 082300Z 0900/0909 34006KT 9999 BKN040"
    },
    {
      "icao": "LRBS",
      "alert": "OK",
      "vis_m": 9999,
      "fzfg": false,
      "metar_trigger": false,
      "taf_trigger": false,
      "metar": "METAR LRBS 082300Z 06007KT 010V090 CAVOK 16/14 Q1014 NOSIG",
      "taf": "TAF LRBS 082300Z 0900/0924 07010KT CAVOK"
    },
    {
      "icao": "LRBV",
      "alert": "OK",
      "vis_m": 8000,
      "fzfg": false,
      "metar_trigger": false,
      "taf_trigger": false,
      "metar": "METAR LRBV 082300Z AUTO 06005KT 020V080 8000 FEW052/// OVC067/// 13/13 Q1016 RERA",
      "taf": "TAF LRBV 081700Z 0818/0903 VRB04KT 9999 BKN050"
    },
    {
      "icao": "LRCL",
      "alert": "OK",
      "vis_m": 9999,
      "fzfg": false,
      "metar_trigger": false,
      "taf_trigger": false,
      "metar": "METAR LRCL 082300Z 25001KT CAVOK 12/11 Q1015",
      "taf": "TAF LRCL 082300Z 0900/0909 VRB04KT CAVOK"
    },
    {
      "icao": "LRCV",
      "alert": "OK",
      "vis_m": 9999,
      "fzfg": false,
      "metar_trigger": false,
      "taf_trigger": false,
      "metar": "METAR LRCV 082300Z 30005KT CAVOK 16/13 Q1013",
      "taf": "TAF LRCV 082300Z 0900/0909 30006KT CAVOK"
    },
    {
      "icao": "LRIA",
      "alert": "OK",
      "vis_m": 9999,
      "fzfg": false,
      "metar_trigger": false,
      "taf_trigger": false,
      "metar": "METAR LRIA 082300Z 29001KT CAVOK 13/12 Q1017",
      "taf": "TAF LRIA 082300Z 0900/0909 VRB04KT 5000 BR NSC"
    },
    {
      "icao": "LROP",
      "alert": "OK",
      "vis_m": 9999,
      "fzfg": false,
      "metar_trigger": false,
      "taf_trigger": false,
      "metar": "METAR LROP 082300Z 09006KT CAVOK 16/15 Q1015 NOSIG",
      "taf": "TAF LROP 082300Z 0900/0924 07010KT CAVOK"
    },
    {
      "icao": "LRSB",
      "alert": "OK",
      "vis_m": 9999,
      "fzfg": false,
      "metar_trigger": false,
      "taf_trigger": false,
      "metar": "METAR LRSB 082300Z COR VRB02KT CAVOK 12/11 Q1015",
      "taf": "TAF LRSB 082300Z 0900/0924 VRB04KT CAVOK"
    },
    {
      "icao": "LRSM",
      "alert": "OK",
      "vis_m": 9999,
      "fzfg": false,
      "metar_trigger": false,
      "taf_trigger": false,
      "metar": "METAR LRSM 082300Z AUTO 36001KT 9999 NCD 11/10 Q1016",
      "taf": "TAF LRSM 081400Z 0815/0824 VRB04KT 9999 SCT045"
    },
    {
      "icao": "LRSV",
      "alert": "OK",
      "vis_m": 9999,
      "fzfg": false,
      "metar_trigger": false,
      "taf_trigger": false,
      "metar": "METAR LRSV 082300Z 31007KT CAVOK 13/12 Q1017",
      "taf": "TAF LRSV 082300Z 0900/0909 31008KT CAVOK"
    },
    {
      "icao": "LRTM",
      "alert": "OK",
      "vis_m": 9999,
      "fzfg": false,
      "metar_trigger": false,
      "taf_trigger": false,
      "metar": "METAR LRTM 082300Z 08005KT CAVOK 14/12 Q1015",
      "taf": "TAF LRTM 082300Z 0900/0909 VRB04KT 9999 BKN040"
    },
    {
      "icao": "LRTR",
      "alert": "OK",
      "vis_m": 9999,
      "fzfg": false,
      "metar_trigger": false,
      "taf_trigger": false,
      "metar": "METAR LRTR 082300Z 36005KT CAVOK 15/12 Q1014",
      "taf": "TAF LRTR 082300Z 0900/0924 VRB04KT CAVOK"
    },
    {
      "icao": "LTAC",
      "alert": "OK",
      "vis_m": 9999,
      "fzfg": false,
      "metar_trigger": false,
      "taf_trigger": false,
      "metar": "METAR LTAC 082320Z 10003KT 070V130 CAVOK 11/06 Q1020 NOSIG RMK RWY21C 05003KT RWY03L 06004KT RWY21R 03004KT RWY03R 09002KT RWY21L 09003KT",
      "taf": "TAF LTAC 082240Z 0900/0924 VRB02KT CAVOK"
    },
    {
      "icao": "LTFM",
      "alert": "OK",
      "vis_m": 9999,
      "fzfg": false,
      "metar_trigger": false,
      "taf_trigger": false,
      "metar": "METAR LTFM 082320Z 01006KT 9999 -SHRA SCT035 BKN080 16/11 Q1016 NOSIG RMK RWY17L 36004KT 310V030 RWY34L 34006KT RWY16R 00000KT RWY36 36008KT 330V030 RWY18 01004KT 320V030",
      "taf": "TAF LTFM 082240Z 0900/1006 35007KT 9999 SCT035 BKN080"
    },
    {
      "icao": "LUKK",
      "alert": "OK",
      "vis_m": 9999,
      "fzfg": false,
      "metar_trigger": false,
      "taf_trigger": false,
      "metar": "METAR LUKK 082300Z 19004KT CAVOK 13/11 Q1016 NOSIG",
      "taf": "TAF LUKK 082327Z 0900/0924 VRB05KT CAVOK"
    },
    {
      "icao": "LWOH",
      "alert": "OK",
      "vis_m": null,
      "fzfg": false,
      "metar_trigger": false,
      "taf_trigger": false,
      "metar": "",
      "taf": "TAF LWOH 082010Z 0821/0921 VRB02KT 9999 SCT040 BKN080"
    },
    {
      "icao": "LWSK",
      "alert": "OK",
      "vis_m": 9999,
      "fzfg": false,
      "metar_trigger": false,
      "taf_trigger": false,
      "metar": "METAR LWSK 082250Z 14003KT 100V200 9999 SCT020 OVC050 13/12 Q1016 NOSIG",
      "taf": "TAF LWSK 082010Z 0821/0921 VRB02KT 9999 SCT060 BKN100"
    },
    {
      "icao": "LYBE",
      "alert": "OK",
      "vis_m": 9999,
      "fzfg": false,
      "metar_trigger": false,
      "taf_trigger": false,
      "metar": "METAR LYBE 082300Z 18005KT 150V210 CAVOK 18/12 Q1015 NOSIG",
      "taf": "TAF LYBE 082300Z 0900/0924 29005KT 9999 SCT040 TX22/0913Z TN13/0903Z"
    },
    {
      "icao": "LYNI",
      "alert": "OK",
      "vis_m": 9999,
      "fzfg": false,
      "metar_trigger": false,
      "taf_trigger": false,
      "metar": "METAR LYNI 082300Z VRB01KT 9999 SCT010 BKN090 14/14 Q1015 NOSIG",
      "taf": "TAF LYNI 082300Z 0900/0924 16004KT 9999 SCT050 BKN070 TX18/0914Z TN12/0903Z"
    },
    {
      "icao": "LYPG",
      "alert": "OK",
      "vis_m": 9999,
      "fzfg": false,
      "metar_trigger": false,
      "taf_trigger": false,
      "metar": "METAR LYPG 082300Z 12004KT 080V190 9999 FEW050 OVC080 16/13 Q1015 NOSIG",
      "taf": "TAF LYPG 082300Z 0900/0924 16005KT 9999 SCT040 BKN070 TX24/0914Z TN15/0906Z"
    },
    {
      "icao": "LZIB",
      "alert": "OK",
      "vis_m": 9999,
      "fzfg": false,
      "metar_trigger": false,
      "taf_trigger": false,
      "metar": "METAR LZIB 082300Z 06006KT CAVOK 12/08 Q1017 NOSIG",
      "taf": "TAF LZIB 082315Z 0900/1000 03006KT CAVOK"
    },
    {
      "icao": "LZKZ",
      "alert": "OK",
      "vis_m": 9999,
      "fzfg": false,
      "metar_trigger": false,
      "taf_trigger": false,
      "metar": "METAR LZKZ 082300Z 36011KT CAVOK 14/10 Q1017 NOSIG",
      "taf": "TAF LZKZ 082315Z 0900/1000 36012KT CAVOK"
    },
    {
      "icao": "LZTT",
      "alert": "OK",
      "vis_m": 9999,
      "fzfg": false,
      "metar_trigger": false,
      "taf_trigger": false,
      "metar": "METAR LZTT 082300Z 05005KT 9999 OVC012 10/09 Q1018",
      "taf": "TAF LZTT 082315Z 0900/1000 VRB02KT 9999 SCT013 OVC030"
    },
    {
      "icao": "OEJN",
      "alert": "OK",
      "vis_m": 9999,
      "fzfg": false,
      "metar_trigger": false,
      "taf_trigger": false,
      "metar": "METAR OEJN 082300Z 34008KT CAVOK 26/19 Q1007 NOSIG",
      "taf": "TAF OEJN 082300Z 0900/1006 34006KT 7000 FEW040"
    },
    {
      "icao": "OEMA",
      "alert": "OK",
      "vis_m": 8000,
      "fzfg": false,
      "metar_trigger": false,
      "taf_trigger": false,
      "metar": "METAR OEMA 082300Z 08003KT 8000 NSC 28/10 Q1013 NOSIG",
      "taf": "TAF OEMA 082300Z 0900/1006 VRB03KT 7000 NSC"
    },
    {
      "icao": "OJAI",
      "alert": "OK",
      "vis_m": 4000,
      "fzfg": false,
      "metar_trigger": false,
      "taf_trigger": false,
      "metar": "METAR OJAI 082300Z 10003KT 4000 HZ NSC 14/M04 Q1018 NOSIG",
      "taf": "TAF OJAI 082250Z 0900/1006 VRB02KT 5000 HZ NSC"
    },
    {
      "icao": "OMAA",
      "alert": "OK",
      "vis_m": 9999,
      "fzfg": false,
      "metar_trigger": false,
      "taf_trigger": false,
      "metar": "METAR OMAA 082300Z 28006KT CAVOK 29/22 Q1006 NOSIG",
      "taf": "TAF OMAA 082300Z 0900/1006 VRB02KT 8000 NSC"
    },
    {
      "icao": "OMDB",
      "alert": "OK",
      "vis_m": 9999,
      "fzfg": false,
      "metar_trigger": false,
      "taf_trigger": false,
      "metar": "METAR OMDB 082300Z 17007KT CAVOK 28/24 Q1005 NOSIG",
      "taf": "TAF OMDB 082300Z 0900/1006 18006KT 8000 NSC"
    },
    {
      "icao": "UAAA",
      "alert": "OK",
      "vis_m": 9999,
      "fzfg": false,
      "metar_trigger": false,
      "taf_trigger": false,
      "metar": "METAR UAAA 082300Z 20002MPS 9999 FEW100 SCT200 17/08 Q1013 NOSIG",
      "taf": "TAF UAAA 082305Z 0900/0924 32002G07MPS 9999 SCT050CB BKN100 TX30/0910Z TN17/0900Z"
    },
    {
      "icao": "UBBB",
      "alert": "OK",
      "vis_m": 9999,
      "fzfg": false,
      "metar_trigger": false,
      "taf_trigger": false,
      "metar": "METAR UBBB 082330Z 19002KT CAVOK 14/10 Q1017 NOSIG",
      "taf": "TAF UBBB 082303Z 0900/0924 VRB04KT 9999 FEW040 TX24/0910Z TN12/0901Z"
    },
    {
      "icao": "UDSG",
      "alert": "OK",
      "vis_m": 9999,
      "fzfg": false,
      "metar_trigger": false,
      "taf_trigger": false,
      "metar": "METAR UDSG 082300Z 07003KT 9999 NSC 01/M01 Q1023 NOSIG",
      "taf": "TAF UDSG 082300Z 0900/0924 VRB06KT 9999 FEW050"
    },
    {
      "icao": "UDYZ",
      "alert": "OK",
      "vis_m": 9999,
      "fzfg": false,
      "metar_trigger": false,
      "taf_trigger": false,
      "metar": "METAR UDYZ 082300Z VRB02KT 9999 FEW046 08/03 Q1021 NOSIG",
      "taf": "TAF UDYZ 082300Z 0900/0924 16004KT 9999 FEW040"
    },
    {
      "icao": "UGKO",
      "alert": "OK",
      "vis_m": 9999,
      "fzfg": false,
      "metar_trigger": false,
      "taf_trigger": false,
      "metar": "METAR UGKO 082300Z 11004KT 080V150 CAVOK 09/08 Q1019 NOSIG",
      "taf": "TAF UGKO 082300Z 0900/0924 09007KT CAVOK TX26/0912Z TN09/0902Z"
    }
  ]
}