{
  "ts_utc": "2026-02-28T14:33:16Z",
  "threshold_m": 150,
  "source": "stations_override.txt (ICAO list) + aviationweather.gov (METAR/TAF raw)",
  "station_count": 159,
  "stations": [
    {
      "icao": "BIKF",
      "alert": "OK",
      "vis_m": 9999,
      "fzfg": false,
      "metar_trigger": false,
      "taf_trigger": false,
      "metar": "METAR BIKF 281400Z 15009KT 9999 VCSH FEW027 SCT048 BKN070 M00/M03 Q1002",
      "taf": "TAF BIKF 281350Z 2815/0115 16008KT 9999 FEW020 BKN040 TX01/2815Z TNM02/0109Z"
    },
    {
      "icao": "BKPR",
      "alert": "OK",
      "vis_m": 9999,
      "fzfg": false,
      "metar_trigger": false,
      "taf_trigger": false,
      "metar": "METAR BKPR 281430Z 17006KT 140V200 CAVOK 13/02 Q1024 NOSIG",
      "taf": "TAF BKPR 281130Z 2812/0112 17008KT CAVOK"
    },
    {
      "icao": "EBCI",
      "alert": "OK",
      "vis_m": 9999,
      "fzfg": false,
      "metar_trigger": false,
      "taf_trigger": false,
      "metar": "METAR EBCI 281420Z 24018G28KT 9999 SCT018 BKN040 09/05 Q1020 TEMPO 21022G35KT",
      "taf": "TAF EBCI 281110Z 2812/0118 20014KT 9999 SCT018 BKN025"
    },
    {
      "icao": "EDDB",
      "alert": "OK",
      "vis_m": 9999,
      "fzfg": false,
      "metar_trigger": false,
      "taf_trigger": false,
      "metar": "METAR EDDB 281420Z AUTO 20009KT CAVOK 18/06 Q1017 NOSIG",
      "taf": "TAF EDDB 281100Z 2812/0112 22009KT CAVOK"
    },
    {
      "icao": "EDDH",
      "alert": "OK",
      "vis_m": 9999,
      "fzfg": false,
      "metar_trigger": false,
      "taf_trigger": false,
      "metar": "METAR EDDH 281420Z AUTO 21013KT CAVOK 13/06 Q1015 NOSIG",
      "taf": "TAF EDDH 281100Z 2812/0118 22011KT 9999 SCT030"
    },
    {
      "icao": "EDDK",
      "alert": "OK",
      "vis_m": 9999,
      "fzfg": false,
      "metar_trigger": false,
      "taf_trigger": false,
      "metar": "METAR EDDK 281420Z AUTO 22020KT 190V260 9999 FEW046 13/03 Q1019 TEMPO 23025G35KT",
      "taf": "TAF EDDK 281100Z 2812/0118 23015G25KT 9999 BKN040"
    },
    {
      "icao": "EDDN",
      "alert": "OK",
      "vis_m": 9999,
      "fzfg": false,
      "metar_trigger": false,
      "taf_trigger": false,
      "metar": "METAR EDDN 281420Z AUTO 29012KT 9999 BKN040 14/06 Q1021 NOSIG",
      "taf": "TAF EDDN 281100Z 2812/0112 26008KT CAVOK"
    },
    {
      "icao": "EDDS",
      "alert": "OK",
      "vis_m": 9999,
      "fzfg": false,
      "metar_trigger": false,
      "taf_trigger": false,
      "metar": "METAR EDDS 281420Z AUTO 27010KT CAVOK 14/06 Q1021 NOSIG",
      "taf": "TAF EDDS 281100Z 2812/0112 24007KT 9999 FEW040"
    },
    {
      "icao": "EDFH",
      "alert": "OK",
      "vis_m": 9999,
      "fzfg": false,
      "metar_trigger": false,
      "taf_trigger": false,
      "metar": "METAR EDFH 281420Z 24014KT 210V270 9999 SCT033 BKN040 10/03 Q1020",
      "taf": "TAF EDFH 281100Z 2812/0112 24015KT 9999 SCT025 BKN030"
    },
    {
      "icao": "EDJA",
      "alert": "OK",
      "vis_m": 9999,
      "fzfg": false,
      "metar_trigger": false,
      "taf_trigger": false,
      "metar": "METAR EDJA 281420Z 23007KT 9999 BKN061 13/06 Q1022",
      "taf": "TAF EDJA 281400Z 2815/2824 23010KT 9999 SCT035"
    },
    {
      "icao": "EDLW",
      "alert": "OK",
      "vis_m": 9999,
      "fzfg": false,
      "metar_trigger": false,
      "taf_trigger": false,
      "metar": "METAR EDLW 281420Z 23019KT 9999 FEW046 13/04 Q1017",
      "taf": "TAF EDLW 281100Z 2812/0112 22015G25KT 9999 BKN035"
    },
    {
      "icao": "EDNY",
      "alert": "OK",
      "vis_m": 9999,
      "fzfg": false,
      "metar_trigger": false,
      "taf_trigger": false,
      "metar": "METAR EDNY 281420Z 25007KT 220V280 9999 BKN049 BKN060 13/06 Q1023",
      "taf": "TAF EDNY 281400Z 2815/2824 26007KT 9999 SCT035"
    },
    {
      "icao": "EDSB",
      "alert": "OK",
      "vis_m": 9999,
      "fzfg": false,
      "metar_trigger": false,
      "taf_trigger": false,
      "metar": "METAR EDSB 281420Z 23007KT 200V260 9999 FEW049 13/04 Q1023",
      "taf": "TAF EDSB 281100Z 2812/0112 23010KT 9999 FEW040"
    },
    {
      "icao": "EETN",
      "alert": "OK",
      "vis_m": 9999,
      "fzfg": false,
      "metar_trigger": false,
      "taf_trigger": false,
      "metar": "METAR EETN 281420Z 25006KT 9999 OVC006 02/02 Q1016 TEMPO OVC004",
      "taf": "TAF EETN 281130Z 2812/0112 25008KT 4000 BR BKN003 OVC006"
    },
    {
      "icao": "EFTU",
      "alert": "OK",
      "vis_m": 9999,
      "fzfg": false,
      "metar_trigger": false,
      "taf_trigger": false,
      "metar": "METAR EFTU 281420Z AUTO 25005KT 210V270 9999 OVC003 02/01 Q1015",
      "taf": "TAF EFTU 281128Z 2812/0112 25007KT 9999 OVC003"
    },
    {
      "icao": "EGBB",
      "alert": "OK",
      "vis_m": 9999,
      "fzfg": false,
      "metar_trigger": false,
      "taf_trigger": false,
      "metar": "METAR EGBB 281420Z 26008KT 240V300 9999 BKN032 09/02 Q1017",
      "taf": "TAF EGBB 281054Z 2812/0112 30010KT 9999 SCT025"
    },
    {
      "icao": "EGGP",
      "alert": "OK",
      "vis_m": 9999,
      "fzfg": false,
      "metar_trigger": false,
      "taf_trigger": false,
      "metar": "METAR EGGP 281420Z 28012KT 9999 FEW012 SCT020 08/M01 Q1017",
      "taf": "TAF EGGP 281057Z 2812/0112 28013KT 9999 SCT020"
    },
    {
      "icao": "EGGW",
      "alert": "OK",
      "vis_m": 9999,
      "fzfg": false,
      "metar_trigger": false,
      "taf_trigger": false,
      "metar": "METAR EGGW 281420Z AUTO 26010KT 230V290 9999 SCT022 SCT027 09/05 Q1017",
      "taf": "TAF EGGW 281102Z 2812/0112 29012KT 9999 FEW012 SCT030"
    },
    {
      "icao": "EGKK",
      "alert": "OK",
      "vis_m": 9999,
      "fzfg": false,
      "metar_trigger": false,
      "taf_trigger": false,
      "metar": "METAR EGKK 281420Z 24012KT 9999 SCT048 10/02 Q1019",
      "taf": "TAF EGKK 281054Z 2812/0118 28015KT 9999 FEW018 SCT025"
    },
    {
      "icao": "EGNM",
      "alert": "OK",
      "vis_m": 9999,
      "fzfg": false,
      "metar_trigger": false,
      "taf_trigger": false,
      "metar": "METAR EGNM 281420Z 24004KT 200V280 9999 FEW030 SCT045 07/02 Q1015",
      "taf": "TAF EGNM 281057Z 2812/0112 34006KT 9999 SCT016"
    },
    {
      "icao": "EGPD",
      "alert": "OK",
      "vis_m": 9999,
      "fzfg": false,
      "metar_trigger": false,
      "taf_trigger": false,
      "metar": "METAR EGPD 281420Z COR AUTO 18007KT 9999 NCD 07/M04 Q1014 NOSIG",
      "taf": "TAF EGPD 281056Z 2812/0112 VRB03KT 9999 FEW040"
    },
    {
      "icao": "EGPF",
      "alert": "OK",
      "vis_m": 9999,
      "fzfg": false,
      "metar_trigger": false,
      "taf_trigger": false,
      "metar": "METAR EGPF 281420Z AUTO 24003KT 190V280 9999 BKN029 BKN035 07/01 Q1014",
      "taf": "TAF EGPF 281102Z 2812/0112 VRB03KT 9999 FEW020 SCT035"
    },
    {
      "icao": "EHBK",
      "alert": "OK",
      "vis_m": 9999,
      "fzfg": false,
      "metar_trigger": false,
      "taf_trigger": false,
      "metar": "METAR EHBK 281425Z AUTO 22021KT 190V250 9999 BKN031/// OVC036/// 11/05 Q1018 TEMPO 23025G35KT",
      "taf": "TAF EHBK 281101Z 2812/0118 22022G34KT 9999 BKN035"
    },
    {
      "icao": "EHEH",
      "alert": "OK",
      "vis_m": 7000,
      "fzfg": false,
      "metar_trigger": false,
      "taf_trigger": false,
      "metar": "METAR EHEH 281425Z AUTO 23024G35KT 180V260 7000 -RADZ FEW019 BKN023 OVC026 10/07 Q1016 WHT TEMPO 22020G30KT FEW013 SCT015 BKN018 RMK TREND REMOTE BY EHWX",
      "taf": ""
    },
    {
      "icao": "EKBI",
      "alert": "OK",
      "vis_m": 9999,
      "fzfg": false,
      "metar_trigger": false,
      "taf_trigger": false,
      "metar": "METAR EKBI 281420Z AUTO 21009KT 9999 -RA OVC005/// 08/08 Q1012",
      "taf": "TAF EKBI 281427Z 2815/0115 20010KT 8000 -DZRA BKN004"
    },
    {
      "icao": "EKCH",
      "alert": "OK",
      "vis_m": 1200,
      "fzfg": false,
      "metar_trigger": false,
      "taf_trigger": false,
      "metar": "METAR EKCH 281420Z 21005KT 1200 R22L/1400U R04L/P1500N R12/P1500U BR BKN001 08/08 Q1014 BECMG 2000 BKN006",
      "taf": "TAF EKCH 281427Z 2815/0115 18004KT 1200 RADZ BKN006"
    },
    {
      "icao": "ENAL",
      "alert": "OK",
      "vis_m": 9999,
      "fzfg": false,
      "metar_trigger": false,
      "taf_trigger": false,
      "metar": "METAR ENAL 281420Z 19010KT 9999 FEW037 SCT044 07/00 Q1013",
      "taf": "TAF ENAL 281100Z 2812/2821 20012KT 9999 FEW020 SCT030"
    },
    {
      "icao": "ENBR",
      "alert": "OK",
      "vis_m": 9999,
      "fzfg": false,
      "metar_trigger": false,
      "taf_trigger": false,
      "metar": "METAR ENBR 281420Z 35006KT CAVOK 06/M03 Q1013 NOSIG RMK WIND 1200FT 36008KT",
      "taf": "TAF ENBR 281100Z 2812/0112 35008KT CAVOK"
    },
    {
      "icao": "ENGM",
      "alert": "OK",
      "vis_m": 9000,
      "fzfg": true,
      "metar_trigger": false,
      "taf_trigger": false,
      "metar": "METAR ENGM 281420Z 05003KT 010V080 9000 FEW001 00/M02 Q1014 NOSIG",
      "taf": "TAF ENGM 281100Z 2812/0112 03005KT 0300 FZFG VV002"
    },
    {
      "icao": "ENHD",
      "alert": "OK",
      "vis_m": 9999,
      "fzfg": false,
      "metar_trigger": false,
      "taf_trigger": false,
      "metar": "METAR ENHD 281420Z 36009KT CAVOK 06/M01 Q1012",
      "taf": "TAF ENHD 281100Z 2812/2821 35010KT CAVOK"
    },
    {
      "icao": "ENTC",
      "alert": "OK",
      "vis_m": 9999,
      "fzfg": false,
      "metar_trigger": false,
      "taf_trigger": false,
      "metar": "METAR ENTC 281420Z 21009KT 9999 FEW047 02/M03 Q1003 TEMPO FM1540 4000 -SHSNRA VV012 RMK WIND 2600FT 19029KT",
      "taf": ""
    },
    {
      "icao": "ENTO",
      "alert": "WARNING",
      "vis_m": 9999,
      "fzfg": true,
      "metar_trigger": false,
      "taf_trigger": true,
      "metar": "METAR ENTO 281420Z 03005KT 9999 FEW015 SCT045 01/01 Q1013 NOSIG",
      "taf": "TAF ENTO 280500Z 2806/0106 02005KT 0100 FZFG VV001"
    },
    {
      "icao": "ENVA",
      "alert": "OK",
      "vis_m": 9999,
      "fzfg": false,
      "metar_trigger": false,
      "taf_trigger": false,
      "metar": "METAR ENVA 281420Z 24013KT CAVOK 06/M02 Q1014 NOSIG RMK WIND 670FT 24011KT",
      "taf": "TAF ENVA 281100Z 2812/0112 VRB04KT 9999 SCT050"
    },
    {
      "icao": "ENZV",
      "alert": "OK",
      "vis_m": 9999,
      "fzfg": false,
      "metar_trigger": false,
      "taf_trigger": false,
      "metar": "METAR ENZV 281420Z 01005KT CAVOK 04/00 Q1012 NOSIG",
      "taf": "TAF ENZV 281100Z 2812/0112 36007KT 9999 -RA FEW015 BKN040"
    },
    {
      "icao": "EPGD",
      "alert": "OK",
      "vis_m": 9999,
      "fzfg": false,
      "metar_trigger": false,
      "taf_trigger": false,
      "metar": "METAR EPGD 281430Z 19005KT CAVOK 15/06 Q1017",
      "taf": "TAF EPGD 281130Z 2812/0112 14008KT CAVOK"
    },
    {
      "icao": "EPKK",
      "alert": "OK",
      "vis_m": 9999,
      "fzfg": false,
      "metar_trigger": false,
      "taf_trigger": false,
      "metar": "METAR EPKK 281430Z 21004KT 180V260 CAVOK 16/02 Q1022",
      "taf": "TAF EPKK 281430Z 2815/0115 VRB02KT CAVOK"
    },
    {
      "icao": "EPKT",
      "alert": "OK",
      "vis_m": 9999,
      "fzfg": false,
      "metar_trigger": false,
      "taf_trigger": false,
      "metar": "METAR EPKT 281430Z 21010KT CAVOK 15/03 Q1021",
      "taf": "TAF EPKT 281130Z 2812/0112 20012KT CAVOK"
    },
    {
      "icao": "EPLB",
      "alert": "OK",
      "vis_m": 9999,
      "fzfg": false,
      "metar_trigger": false,
      "taf_trigger": false,
      "metar": "METAR EPLB 281430Z 17005KT 140V210 CAVOK 13/04 Q1023",
      "taf": "TAF EPLB 281130Z 2812/0112 18008KT CAVOK"
    },
    {
      "icao": "EPMO",
      "alert": "OK",
      "vis_m": 9999,
      "fzfg": false,
      "metar_trigger": false,
      "taf_trigger": false,
      "metar": "METAR EPMO 281430Z 17006KT 140V200 CAVOK 16/05 Q1020",
      "taf": "TAF EPMO 281130Z 2812/0112 18008KT CAVOK"
    },
    {
      "icao": "EPPO",
      "alert": "OK",
      "vis_m": 9999,
      "fzfg": false,
      "metar_trigger": false,
      "taf_trigger": false,
      "metar": "METAR EPPO 281430Z 20006KT CAVOK 18/05 Q1018",
      "taf": "TAF EPPO 281130Z 2812/0112 20008KT CAVOK"
    },
    {
      "icao": "EPRA",
      "alert": "OK",
      "vis_m": 9999,
      "fzfg": false,
      "metar_trigger": false,
      "taf_trigger": false,
      "metar": "METAR EPRA 281430Z 12010KT CAVOK 16/03 Q1021",
      "taf": "TAF EPRA 281430Z 2815/2824 17008KT CAVOK"
    },
    {
      "icao": "EPRZ",
      "alert": "OK",
      "vis_m": 9999,
      "fzfg": false,
      "metar_trigger": false,
      "taf_trigger": false,
      "metar": "METAR EPRZ 281430Z 18007KT 140V240 CAVOK 14/M00 Q1023",
      "taf": "TAF EPRZ 281130Z 2812/0112 19008KT CAVOK"
    },
    {
      "icao": "EPSC",
      "alert": "OK",
      "vis_m": 9999,
      "fzfg": false,
      "metar_trigger": false,
      "taf_trigger": false,
      "metar": "METAR EPSC 281430Z 20007KT 140V230 CAVOK 18/07 Q1016",
      "taf": "TAF EPSC 281130Z 2812/0112 14006KT CAVOK"
    },
    {
      "icao": "EPSY",
      "alert": "OK",
      "vis_m": 9999,
      "fzfg": false,
      "metar_trigger": false,
      "taf_trigger": false,
      "metar": "METAR EPSY 281430Z 19008KT CAVOK 11/05 Q1020",
      "taf": "TAF EPSY 281430Z 2815/2824 19008KT CAVOK"
    },
    {
      "icao": "EPWA",
      "alert": "OK",
      "vis_m": 9999,
      "fzfg": false,
      "metar_trigger": false,
      "taf_trigger": false,
      "metar": "METAR EPWA 281430Z 18006KT CAVOK 16/04 Q1021 NOSIG",
      "taf": "TAF EPWA 281430Z 2815/0115 18007KT CAVOK"
    },
    {
      "icao": "EPWR",
      "alert": "OK",
      "vis_m": 9999,
      "fzfg": false,
      "metar_trigger": false,
      "taf_trigger": false,
      "metar": "METAR EPWR 281430Z 15008KT CAVOK 17/06 Q1019",
      "taf": "TAF EPWR 281430Z 2815/0115 16008KT CAVOK"
    },
    {
      "icao": "ESGG",
      "alert": "OK",
      "vis_m": 1300,
      "fzfg": false,
      "metar_trigger": false,
      "taf_trigger": false,
      "metar": "METAR ESGG 281420Z 13004KT 1300 R03/P2000N R21/P2000D DZ VV002 07/07 Q1011",
      "taf": "TAF ESGG 281430Z 2815/0115 13004KT 4000 -RADZ OVC002"
    },
    {
      "icao": "ESKN",
      "alert": "OK",
      "vis_m": 9999,
      "fzfg": false,
      "metar_trigger": false,
      "taf_trigger": false,
      "metar": "METAR ESKN 281420Z 03005KT 350V070 9999 FEW014 SCT016 06/04 Q1014",
      "taf": "TAF ESKN 281430Z 2815/0115 VRB02KT 9999 BKN007"
    },
    {
      "icao": "ESMS",
      "alert": "OK",
      "vis_m": 400,
      "fzfg": false,
      "metar_trigger": false,
      "taf_trigger": false,
      "metar": "METAR ESMS 281420Z 22008KT 180V240 0400 R17/1900N R35/0750N FG OVC002 08/08 Q1014 RERA",
      "taf": "TAF ESMS 281427Z 2815/0115 22005KT 2000 -RADZ OVC002"
    },
    {
      "icao": "ESSA",
      "alert": "OK",
      "vis_m": 9999,
      "fzfg": false,
      "metar_trigger": false,
      "taf_trigger": false,
      "metar": "METAR ESSA 281420Z VRB03KT 9999 OVC003 01/01 Q1015 NOSIG",
      "taf": "TAF ESSA 281130Z 2812/0112 26007KT 9999 BKN005"
    },
    {
      "icao": "EYKA",
      "alert": "OK",
      "vis_m": 9999,
      "fzfg": false,
      "metar_trigger": false,
      "taf_trigger": false,
      "metar": "METAR EYKA 281420Z 20006KT 160V230 CAVOK 09/02 Q1019",
      "taf": "TAF EYKA 281100Z 2812/0112 VRB05KT 8000 NSC"
    },
    {
      "icao": "EYPA",
      "alert": "OK",
      "vis_m": 9999,
      "fzfg": false,
      "metar_trigger": false,
      "taf_trigger": false,
      "metar": "METAR EYPA 281420Z 21006KT 180V240 CAVOK 06/03 Q1017",
      "taf": "TAF EYPA 281100Z 2812/0112 VRB04KT 6000 NSC"
    },
    {
      "icao": "EYVI",
      "alert": "OK",
      "vis_m": 9999,
      "fzfg": false,
      "metar_trigger": false,
      "taf_trigger": false,
      "metar": "METAR EYVI 281420Z 18009KT CAVOK 06/01 Q1020 NOSIG",
      "taf": "TAF EYVI 281100Z 2812/0112 VRB05KT 8000 NSC"
    },
    {
      "icao": "GCFV",
      "alert": "OK",
      "vis_m": 9999,
      "fzfg": false,
      "metar_trigger": false,
      "taf_trigger": false,
      "metar": "METAR GCFV 281400Z 02021KT 9999 FEW025 21/14 Q1018",
      "taf": "TAF GCFV 281400Z 2815/0115 02022KT 9999 FEW025 TX22/0114Z TN15/0106Z"
    },
    {
      "icao": "GCLP",
      "alert": "OK",
      "vis_m": 9999,
      "fzfg": false,
      "metar_trigger": false,
      "taf_trigger": false,
      "metar": "METAR GCLP 281400Z 01021G33KT 9999 -RA BKN025 19/13 Q1021 NOSIG",
      "taf": "TAF GCLP 281400Z 2815/0115 01025KT 9999 SCT025 TX21/0114Z TN16/0106Z"
    },
    {
      "icao": "GCTS",
      "alert": "OK",
      "vis_m": 9999,
      "fzfg": false,
      "metar_trigger": false,
      "taf_trigger": false,
      "metar": "METAR GCTS 281400Z 07025G35KT 9999 FEW035 22/12 Q1020 WS R07 NOSIG",
      "taf": "TAF GCTS 281400Z 2815/0115 08025KT 9999 FEW035 TX23/0114Z TN17/0106Z"
    },
    {
      "icao": "GMAD",
      "alert": "OK",
      "vis_m": 6000,
      "fzfg": false,
      "metar_trigger": false,
      "taf_trigger": false,
      "metar": "METAR GMAD 281430Z 26006KT 6000 NSC 21/13 Q1012 NOSIG",
      "taf": "TAF GMAD 281100Z 2812/0118 09004KT 6000 NSC"
    },
    {
      "icao": "GMMN",
      "alert": "OK",
      "vis_m": 9999,
      "fzfg": false,
      "metar_trigger": false,
      "taf_trigger": false,
      "metar": "METAR GMMN 281430Z 03011KT 360V060 9999 BKN025 17/13 Q1020 NOSIG",
      "taf": "TAF GMMN 281100Z 2812/0118 05006KT 9999 BKN014"
    },
    {
      "icao": "GMMX",
      "alert": "OK",
      "vis_m": 8000,
      "fzfg": false,
      "metar_trigger": false,
      "taf_trigger": false,
      "metar": "METAR GMMX 281430Z 11005KT 060V180 8000 FEW013 BKN020 16/11 Q1018 NOSIG",
      "taf": "TAF GMMX 281100Z 2812/0118 04006KT 8000 FEW013 SCT023"
    },
    {
      "icao": "HEGN",
      "alert": "OK",
      "vis_m": 9999,
      "fzfg": false,
      "metar_trigger": false,
      "taf_trigger": false,
      "metar": "METAR HEGN 281400Z 36017KT CAVOK 19/01 Q1014 NOSIG",
      "taf": "TAF HEGN 281106Z 2812/0118 34018G28KT CAVOK"
    },
    {
      "icao": "HEMA",
      "alert": "OK",
      "vis_m": 9999,
      "fzfg": false,
      "metar_trigger": false,
      "taf_trigger": false,
      "metar": "METAR HEMA 281400Z 36016KT CAVOK 21/05 Q1011 NOSIG",
      "taf": "TAF HEMA 281105Z 2812/0118 36018KT CAVOK"
    },
    {
      "icao": "HESH",
      "alert": "OK",
      "vis_m": 9999,
      "fzfg": false,
      "metar_trigger": false,
      "taf_trigger": false,
      "metar": "METAR HESH 281400Z 04012KT CAVOK 21/05 Q1013 NOSIG",
      "taf": "TAF HESH 281106Z 2812/0118 03015KT CAVOK"
    },
    {
      "icao": "HESX",
      "alert": "OK",
      "vis_m": 9999,
      "fzfg": false,
      "metar_trigger": false,
      "taf_trigger": false,
      "metar": "METAR HESX 281400Z 03006KT 9999 SCT025 16/00 Q1017 NOSIG",
      "taf": "TAF HESX 281105Z 2812/0118 02010KT 9999 SCT020"
    },
    {
      "icao": "LATI",
      "alert": "OK",
      "vis_m": 9999,
      "fzfg": false,
      "metar_trigger": false,
      "taf_trigger": false,
      "metar": "METAR LATI 281420Z 32008KT 9999 FEW037 16/10 Q1024 NOSIG",
      "taf": "TAF LATI 281100Z 2812/0112 VRB05KT CAVOK TX19/0112Z TN05/0104Z"
    },
    {
      "icao": "LBPD",
      "alert": "OK",
      "vis_m": 9999,
      "fzfg": false,
      "metar_trigger": false,
      "taf_trigger": false,
      "metar": "METAR LBPD 281430Z AUTO VRB02KT 9999 NCD 05/01 Q1028 NOSIG",
      "taf": "TAF LBPD 281100Z 2812/0112 08010KT 9999 OVC009"
    },
    {
      "icao": "LBSF",
      "alert": "OK",
      "vis_m": 9999,
      "fzfg": false,
      "metar_trigger": false,
      "taf_trigger": false,
      "metar": "METAR LBSF 281430Z 10008KT CAVOK 12/M03 Q1025 NOSIG",
      "taf": "TAF LBSF 281100Z 2812/0112 10010KT CAVOK"
    },
    {
      "icao": "LBWN",
      "alert": "OK",
      "vis_m": 9999,
      "fzfg": false,
      "metar_trigger": false,
      "taf_trigger": false,
      "metar": "METAR LBWN 281430Z 13010KT 9999 FEW032 04/M00 Q1029 NOSIG",
      "taf": "TAF LBWN 281100Z 2812/0112 VRB03KT 9999 BKN020"
    },
    {
      "icao": "LCLK",
      "alert": "OK",
      "vis_m": 9999,
      "fzfg": false,
      "metar_trigger": false,
      "taf_trigger": false,
      "metar": "METAR LCLK 281430Z 05011KT 9999 FEW030 BKN070 15/08 Q1018 NOSIG",
      "taf": "TAF LCLK 281130Z 2812/0112 04010KT 9999 FEW030 SCT060"
    },
    {
      "icao": "LCPH",
      "alert": "OK",
      "vis_m": 9999,
      "fzfg": false,
      "metar_trigger": false,
      "taf_trigger": false,
      "metar": "METAR LCPH 281430Z 27006KT 250V320 9999 FEW025 BKN060 15/03 Q1018 NOSIG",
      "taf": "TAF LCPH 281130Z 2812/0112 29010KT 9999 FEW040 SCT060"
    },
    {
      "icao": "LEAL",
      "alert": "OK",
      "vis_m": 9999,
      "fzfg": false,
      "metar_trigger": false,
      "taf_trigger": false,
      "metar": "METAR LEAL 281400Z 08013KT 9999 FEW025 SCT035 17/12 Q1023 NOSIG",
      "taf": "TAF LEAL 281100Z 2812/0112 VRB04KT 9999 FEW020 TX19/2812Z TN07/0107Z"
    },
    {
      "icao": "LEBB",
      "alert": "OK",
      "vis_m": 9999,
      "fzfg": false,
      "metar_trigger": false,
      "taf_trigger": false,
      "metar": "METAR LEBB 281400Z 33009KT 290V350 9999 FEW030 SCT040 BKN056 13/06 Q1028 NOSIG",
      "taf": "TAF LEBB 281100Z 2812/0112 31009KT 9999 FEW025 SCT035 TX17/0112Z TN02/0106Z"
    },
    {
      "icao": "LEBL",
      "alert": "OK",
      "vis_m": 9999,
      "fzfg": false,
      "metar_trigger": false,
      "taf_trigger": false,
      "metar": "METAR LEBL 281400Z 08006KT 9999 FEW018 BKN045 15/10 Q1024 NOSIG",
      "taf": "TAF LEBL 281100Z 2812/0112 09010KT 9999 FEW020 OVC030 TX14/2813Z TN10/0106Z"
    },
    {
      "icao": "LECH",
      "alert": "OK",
      "vis_m": 9000,
      "fzfg": false,
      "metar_trigger": false,
      "taf_trigger": false,
      "metar": "METAR LECH 281400Z AUTO 10009KT 050V130 9000 FEW026 BKN037 OVC043 13/07 Q1024",
      "taf": ""
    },
    {
      "icao": "LEMD",
      "alert": "OK",
      "vis_m": 9999,
      "fzfg": false,
      "metar_trigger": false,
      "taf_trigger": false,
      "metar": "METAR LEMD 281400Z 07004KT 9999 FEW045 17/04 Q1022 NOSIG",
      "taf": "TAF LEMD 281100Z 2812/0118 02006KT 9999 FEW040 TX18/2815Z TN02/0107Z"
    },
    {
      "icao": "LEMG",
      "alert": "OK",
      "vis_m": 9000,
      "fzfg": false,
      "metar_trigger": false,
      "taf_trigger": false,
      "metar": "METAR LEMG 281400Z 13007KT 100V170 9000 FEW020 OVC030 15/11 Q1022 NOSIG",
      "taf": "TAF LEMG 281100Z 2812/0112 13010KT 9999 SCT025 TX19/2814Z TN13/0106Z"
    },
    {
      "icao": "LEVC",
      "alert": "OK",
      "vis_m": 9999,
      "fzfg": false,
      "metar_trigger": false,
      "taf_trigger": false,
      "metar": "METAR LEVC 281400Z 07010KT 9999 SCT017 BKN030 14/10 Q1024 NOSIG",
      "taf": "TAF LEVC 281100Z 2812/0112 07007KT 9999 BKN020 TX17/2812Z TN06/0107Z"
    },
    {
      "icao": "LEXJ",
      "alert": "OK",
      "vis_m": 9999,
      "fzfg": false,
      "metar_trigger": false,
      "taf_trigger": false,
      "metar": "METAR LEXJ 281400Z 33007KT 290V010 9999 FEW028 12/04 Q1028",
      "taf": "TAF LEXJ 281400Z 2815/0115 22007KT 9999 FEW030 TX20/0114Z TN05/0105Z"
    },
    {
      "icao": "LEZG",
      "alert": "OK",
      "vis_m": 9999,
      "fzfg": false,
      "metar_trigger": false,
      "taf_trigger": false,
      "metar": "METAR LEZG 281400Z 30012KT 270V330 9999 SCT030 BKN065 14/06 Q1025 NOSIG",
      "taf": "TAF LEZG 281100Z 2812/0112 32010KT CAVOK TX18/2815Z TN03/0106Z"
    },
    {
      "icao": "LEZL",
      "alert": "OK",
      "vis_m": 9999,
      "fzfg": false,
      "metar_trigger": false,
      "taf_trigger": false,
      "metar": "METAR LEZL 281400Z 34003KT CAVOK 21/11 Q1020 NOSIG",
      "taf": "TAF LEZL 281400Z 2815/0115 VRB02KT CAVOK TX22/2815Z TN09/0107Z"
    },
    {
      "icao": "LFBD",
      "alert": "OK",
      "vis_m": 9999,
      "fzfg": false,
      "metar_trigger": false,
      "taf_trigger": false,
      "metar": "METAR LFBD 281430Z AUTO 27008KT 230V360 9999 FEW022 SCT040 BKN052 14/07 Q1026 TEMPO 4000 -SHRA BKN030TCU",
      "taf": "TAF LFBD 281100Z 2812/0118 26005KT CAVOK TX17/0114Z TN02/0106Z"
    },
    {
      "icao": "LFLL",
      "alert": "OK",
      "vis_m": 9999,
      "fzfg": false,
      "metar_trigger": false,
      "taf_trigger": false,
      "metar": "METAR LFLL 281430Z 03006KT 9999 OVC040 10/07 Q1026 NOSIG",
      "taf": "TAF LFLL 281100Z 2812/0118 36004KT 9999 BKN045"
    },
    {
      "icao": "LFLS",
      "alert": "OK",
      "vis_m": 9999,
      "fzfg": false,
      "metar_trigger": false,
      "taf_trigger": false,
      "metar": "METAR LFLS 281430Z AUTO 35008KT 9999 OVC024 10/06 Q1025 NOSIG",
      "taf": "TAF LFLS 281400Z 2815/0115 VRB03KT 9999 BKN030"
    },
    {
      "icao": "LFMN",
      "alert": "OK",
      "vis_m": 9999,
      "fzfg": false,
      "metar_trigger": false,
      "taf_trigger": false,
      "metar": "METAR LFMN 281430Z 15005KT 9999 FEW020 SCT230 16/10 Q1023 NOSIG",
      "taf": "TAF LFMN 280800Z 2809/0115 33005KT 9999 FEW020 BKN040"
    },
    {
      "icao": "LFOB",
      "alert": "OK",
      "vis_m": 9999,
      "fzfg": false,
      "metar_trigger": false,
      "taf_trigger": false,
      "metar": "METAR LFOB 281430Z AUTO 27014KT 9999 FEW045 BKN052 BKN068 12/05 Q1022 TEMPO 25017G30KT 3000 SHRA BKN020TCU",
      "taf": "TAF LFOB 281100Z 2812/0112 20013KT 9999 SCT017 BKN020 BKN030"
    },
    {
      "icao": "LFPO",
      "alert": "OK",
      "vis_m": 9999,
      "fzfg": false,
      "metar_trigger": false,
      "taf_trigger": false,
      "metar": "METAR LFPO 281430Z 28009KT 230V320 9999 SCT044 14/03 Q1023 TEMPO 4000 -SHRA BKN030TCU",
      "taf": "TAF LFPO 281100Z 2812/0118 24012KT 9999 BKN030"
    },
    {
      "icao": "LFSB",
      "alert": "OK",
      "vis_m": 9999,
      "fzfg": false,
      "metar_trigger": false,
      "taf_trigger": false,
      "metar": "METAR LFSB 281430Z AUTO 24009KT 210V270 9999 FEW027 OVC049 11/05 Q1024 TEMPO FEW025TCU",
      "taf": "TAF LFSB 281100Z 2812/0112 27010KT 9999 BKN030 OVC055"
    },
    {
      "icao": "LGAV",
      "alert": "OK",
      "vis_m": 9999,
      "fzfg": false,
      "metar_trigger": false,
      "taf_trigger": false,
      "metar": "METAR LGAV 281420Z 02017KT 9999 SCT035 11/03 Q1025 NOSIG",
      "taf": "TAF LGAV 281100Z 2812/0112 01015KT 9999 SCT020"
    },
    {
      "icao": "LGTS",
      "alert": "OK",
      "vis_m": 9999,
      "fzfg": false,
      "metar_trigger": false,
      "taf_trigger": false,
      "metar": "METAR LGTS 281420Z VRB03KT 9999 SCT030 14/05 Q1027 NOSIG",
      "taf": "TAF LGTS 281100Z 2812/0112 12006KT 9999 SCT030"
    },
    {
      "icao": "LHBP",
      "alert": "OK",
      "vis_m": 9999,
      "fzfg": false,
      "metar_trigger": false,
      "taf_trigger": false,
      "metar": "METAR LHBP 281430Z 18004KT 130V210 CAVOK 14/M02 Q1025 NOSIG",
      "taf": "TAF LHBP 281115Z 2812/0112 15009KT CAVOK"
    },
    {
      "icao": "LHDC",
      "alert": "OK",
      "vis_m": 9999,
      "fzfg": false,
      "metar_trigger": false,
      "taf_trigger": false,
      "metar": "METAR LHDC 281415Z AUTO VRB01KT CAVOK 13/02 Q1026 NOSIG",
      "taf": "TAF LHDC 281415Z 2815/2824 VRB03KT CAVOK"
    },
    {
      "icao": "LIBD",
      "alert": "OK",
      "vis_m": 9999,
      "fzfg": false,
      "metar_trigger": false,
      "taf_trigger": false,
      "metar": "METAR LIBD 281420Z 04003KT 330V080 9999 BKN025 14/11 Q1024",
      "taf": "TAF LIBD 281100Z 2812/0112 VRB05KT 7000 BKN020"
    },
    {
      "icao": "LIBG",
      "alert": "OK",
      "vis_m": 9999,
      "fzfg": false,
      "metar_trigger": false,
      "taf_trigger": false,
      "metar": "METAR LIBG 281350Z 25005KT 9999 SCT030 17/11 Q1023",
      "taf": "TAF LIBG 281400Z 2815/2824 20008KT 9999 SCT020"
    },
    {
      "icao": "LIBP",
      "alert": "OK",
      "vis_m": 5000,
      "fzfg": false,
      "metar_trigger": false,
      "taf_trigger": false,
      "metar": "METAR LIBP 281420Z 06005KT 5000 BR BKN020 13/11 Q1024",
      "taf": "TAF LIBP 281100Z 2812/0112 VRB05KT 6000 NSC"
    },
    {
      "icao": "LIBR",
      "alert": "OK",
      "vis_m": 9999,
      "fzfg": false,
      "metar_trigger": false,
      "taf_trigger": false,
      "metar": "METAR LIBR 281420Z 05005KT CAVOK 15/12 Q1024",
      "taf": "TAF LIBR 281100Z 2812/0112 03006KT 9999 BKN020"
    },
    {
      "icao": "LICA",
      "alert": "OK",
      "vis_m": 9999,
      "fzfg": false,
      "metar_trigger": false,
      "taf_trigger": false,
      "metar": "METAR LICA 281420Z 26008KT CAVOK 16/11 Q1024",
      "taf": "TAF LICA 281100Z 2812/0112 27010KT 9999 SCT020"
    },
    {
      "icao": "LICC",
      "alert": "OK",
      "vis_m": 9999,
      "fzfg": false,
      "metar_trigger": false,
      "taf_trigger": false,
      "metar": "METAR LICC 281420Z 08008KT CAVOK 17/15 Q1023",
      "taf": "TAF LICC 281100Z 2812/0112 08010KT 6000 SCT030"
    },
    {
      "icao": "LICJ",
      "alert": "OK",
      "vis_m": 9999,
      "fzfg": false,
      "metar_trigger": false,
      "taf_trigger": false,
      "metar": "METAR LICJ 281420Z 06012KT CAVOK 17/11 Q1023",
      "taf": "TAF LICJ 281100Z 2812/0112 04010KT 9999 SCT015"
    },
    {
      "icao": "LIMC",
      "alert": "OK",
      "vis_m": 9999,
      "fzfg": false,
      "metar_trigger": false,
      "taf_trigger": false,
      "metar": "METAR LIMC 281420Z 13003KT 100V190 9999 FEW030 BKN055 14/09 Q1023 NOSIG",
      "taf": "TAF LIMC 281100Z 2812/0118 VRB04KT 4000 BR BKN030"
    },
    {
      "icao": "LIME",
      "alert": "OK",
      "vis_m": 9999,
      "fzfg": false,
      "metar_trigger": false,
      "taf_trigger": false,
      "metar": "METAR LIME 281420Z 22006KT 190V260 9999 SCT030 14/08 Q1023 NOSIG",
      "taf": "TAF LIME 281100Z 2812/0112 VRB05KT 6000 BKN030"
    },
    {
      "icao": "LIMF",
      "alert": "OK",
      "vis_m": 6000,
      "fzfg": false,
      "metar_trigger": false,
      "taf_trigger": false,
      "metar": "METAR LIMF 281420Z 03003KT 360V100 6000 BKN060 13/08 Q1023",
      "taf": "TAF LIMF 281100Z 2812/0112 VRB04KT 6000 BKN030"
    },
    {
      "icao": "LIMJ",
      "alert": "OK",
      "vis_m": 9999,
      "fzfg": false,
      "metar_trigger": false,
      "taf_trigger": false,
      "metar": "METAR LIMJ 281420Z VRB02KT 9999 SCT027 BKN055 15/09 Q1024",
      "taf": "TAF LIMJ 281100Z 2812/0112 VRB05KT 9999 SCT020 BKN030"
    },
    {
      "icao": "LIPE",
      "alert": "OK",
      "vis_m": 8000,
      "fzfg": false,
      "metar_trigger": false,
      "taf_trigger": false,
      "metar": "METAR LIPE 281420Z 07003KT 030V110 8000 FEW035 16/08 Q1023",
      "taf": "TAF LIPE 281100Z 2812/0112 VRB04KT 9999 BKN030"
    },
    {
      "icao": "LIPH",
      "alert": "OK",
      "vis_m": 1000,
      "fzfg": false,
      "metar_trigger": false,
      "taf_trigger": false,
      "metar": "METAR LIPH 281420Z 13005KT 090V170 1000 R07/P2000N BR BKN004 10/10 Q1024",
      "taf": "TAF LIPH 281100Z 2812/0112 VRB04KT 0200 FG BKN003"
    },
    {
      "icao": "LIPQ",
      "alert": "OK",
      "vis_m": 1100,
      "fzfg": false,
      "metar_trigger": false,
      "taf_trigger": false,
      "metar": "METAR LIPQ 281420Z 21004KT 160V240 1100 R09/P2000N BR BKN004 11/09 Q1024",
      "taf": "TAF LIPQ 281100Z 2812/0112 VRB04KT 4000 BR SCT020"
    },
    {
      "icao": "LIPR",
      "alert": "OK",
      "vis_m": 4000,
      "fzfg": false,
      "metar_trigger": false,
      "taf_trigger": false,
      "metar": "METAR LIPR 281420Z 11007KT 070V140 4000 BR SCT006 SCT020 12/10 Q1024",
      "taf": "TAF LIPR 281100Z 2812/0112 VRB04KT 7000 SCT050"
    },
    {
      "icao": "LIPX",
      "alert": "OK",
      "vis_m": 9999,
      "fzfg": false,
      "metar_trigger": false,
      "taf_trigger": false,
      "metar": "METAR LIPX 281420Z VRB02KT 9999 SCT035 16/09 Q1023",
      "taf": "TAF LIPX 281100Z 2812/0112 VRB05KT 5000 BR BKN030"
    },
    {
      "icao": "LIPY",
      "alert": "OK",
      "vis_m": 5000,
      "fzfg": false,
      "metar_trigger": false,
      "taf_trigger": false,
      "metar": "METAR LIPY 281420Z 05006KT 5000 BR NSC 14/11 Q1024",
      "taf": "TAF LIPY 281100Z 2812/0112 VRB04KT 6000 SCT030"
    },
    {
      "icao": "LIPZ",
      "alert": "OK",
      "vis_m": 400,
      "fzfg": false,
      "metar_trigger": false,
      "taf_trigger": false,
      "metar": "METAR LIPZ 281420Z 16003KT 110V190 0400 R04R/0700N FG VV001 08/08 Q1024 NOSIG",
      "taf": "TAF LIPZ 281100Z 2812/0118 VRB04KT 0400 FG OVC001"
    },
    {
      "icao": "LIRF",
      "alert": "OK",
      "vis_m": 9999,
      "fzfg": false,
      "metar_trigger": false,
      "taf_trigger": false,
      "metar": "METAR LIRF 281420Z 25007KT CAVOK 16/06 Q1023 NOSIG",
      "taf": "TAF LIRF 281100Z 2812/0118 26010KT 9999 SCT035"
    },
    {
      "icao": "LIRN",
      "alert": "OK",
      "vis_m": 7000,
      "fzfg": false,
      "metar_trigger": false,
      "taf_trigger": false,
      "metar": "METAR LIRN 281420Z 21004KT 140V260 7000 BKN040 16/08 Q1024 NOSIG",
      "taf": "TAF LIRN 281100Z 2812/0112 VRB05KT 7000 BKN030"
    },
    {
      "icao": "LIRP",
      "alert": "OK",
      "vis_m": 9999,
      "fzfg": false,
      "metar_trigger": false,
      "taf_trigger": false,
      "metar": "METAR LIRP 281415Z VRB02KT 9999 FEW040 16/08 Q1024 NOSIG",
      "taf": "TAF LIRP 281100Z 2812/0112 10004KT 9999 SCT040"
    },
    {
      "icao": "LIRZ",
      "alert": "OK",
      "vis_m": 9999,
      "fzfg": false,
      "metar_trigger": false,
      "taf_trigger": false,
      "metar": "METAR LIRZ 281420Z VRB03KT CAVOK 16/06 Q1023",
      "taf": "TAF LIRZ 281100Z 2812/0112 VRB05KT 9999 BKN030"
    },
    {
      "icao": "LJLJ",
      "alert": "OK",
      "vis_m": 9999,
      "fzfg": false,
      "metar_trigger": false,
      "taf_trigger": false,
      "metar": "METAR LJLJ 281400Z 03003KT 340V080 9999 FEW065 17/06 Q1021 NOSIG",
      "taf": "TAF LJLJ 281100Z 2812/0112 VRB02KT CAVOK"
    },
    {
      "icao": "LKMT",
      "alert": "OK",
      "vis_m": 9999,
      "fzfg": false,
      "metar_trigger": false,
      "taf_trigger": false,
      "metar": "METAR LKMT 281430Z 23011KT 200V270 CAVOK 15/04 Q1021 NOSIG",
      "taf": "TAF LKMT 281100Z 2812/0112 25013KT CAVOK"
    },
    {
      "icao": "LKPR",
      "alert": "OK",
      "vis_m": 9999,
      "fzfg": false,
      "metar_trigger": false,
      "taf_trigger": false,
      "metar": "METAR LKPR 281430Z 02004KT 340V040 CAVOK 11/06 Q1020 NOSIG",
      "taf": "TAF LKPR 281400Z 2815/0121 33003KT CAVOK"
    },
    {
      "icao": "LLBG",
      "alert": "OK",
      "vis_m": 9999,
      "fzfg": false,
      "metar_trigger": false,
      "taf_trigger": false,
      "metar": "METAR LLBG 281420Z 29010KT CAVOK 16/03 Q1017 NOSIG RMK FEW055 SCT075",
      "taf": "TAF LLBG 281106Z 2812/0112 32008KT CAVOK TX16/2812Z TN06/0104Z"
    },
    {
      "icao": "LMML",
      "alert": "OK",
      "vis_m": 9999,
      "fzfg": false,
      "metar_trigger": false,
      "taf_trigger": false,
      "metar": "METAR LMML 281415Z 19005KT 150V230 9999 FEW016 18/12 Q1023 NOSIG",
      "taf": "TAF LMML 281100Z 2812/0112 VRB07KT 9999 FEW017"
    },
    {
      "icao": "LOWW",
      "alert": "OK",
      "vis_m": 9999,
      "fzfg": false,
      "metar_trigger": false,
      "taf_trigger": false,
      "metar": "METAR LOWW 281420Z 14014KT CAVOK 15/03 Q1022 NOSIG",
      "taf": "TAF LOWW 281415Z 2815/0121 13012KT CAVOK TX13/2815Z TN02/0105Z"
    },
    {
      "icao": "LPFR",
      "alert": "OK",
      "vis_m": 9999,
      "fzfg": false,
      "metar_trigger": false,
      "taf_trigger": false,
      "metar": "METAR LPFR 281400Z 17006KT 140V200 CAVOK 19/08 Q1021",
      "taf": "TAF LPFR 281100Z 2812/0112 36008KT CAVOK"
    },
    {
      "icao": "LPMA",
      "alert": "OK",
      "vis_m": 9999,
      "fzfg": false,
      "metar_trigger": false,
      "taf_trigger": false,
      "metar": "METAR LPMA 281400Z 02015G28KT 340V060 9999 VCSH BKN015 16/09 Q1027",
      "taf": "TAF LPMA 281100Z 2812/0112 01015KT 9999 SCT015"
    },
    {
      "icao": "LPPR",
      "alert": "OK",
      "vis_m": 9999,
      "fzfg": false,
      "metar_trigger": false,
      "taf_trigger": false,
      "metar": "METAR LPPR 281400Z 36007KT 330V030 CAVOK 15/06 Q1026",
      "taf": "TAF LPPR 281100Z 2812/0112 33013KT CAVOK"
    },
    {
      "icao": "LPPS",
      "alert": "OK",
      "vis_m": 9999,
      "fzfg": false,
      "metar_trigger": false,
      "taf_trigger": false,
      "metar": "METAR LPPS 281400Z 02016KT 9999 SCT015 BKN030 15/09 Q1027",
      "taf": "TAF LPPS 281100Z 2812/0118 02015KT 9999 FEW015 BKN030"
    },
    {
      "icao": "LPPT",
      "alert": "OK",
      "vis_m": 9999,
      "fzfg": false,
      "metar_trigger": false,
      "taf_trigger": false,
      "metar": "METAR LPPT 281400Z 34014KT 9999 FEW035 15/04 Q1024",
      "taf": "TAF LPPT 281100Z 2812/0118 34015KT CAVOK"
    },
    {
      "icao": "LQBK",
      "alert": "OK",
      "vis_m": 9999,
      "fzfg": false,
      "metar_trigger": false,
      "taf_trigger": false,
      "metar": "METAR LQBK 281400Z 35005KT 320V020 CAVOK 18/05 Q1023 NOSIG",
      "taf": "TAF LQBK 281100Z 2812/0112 34005KT CAVOK TX18/2814Z TN00/0106Z"
    },
    {
      "icao": "LQSA",
      "alert": "OK",
      "vis_m": 9999,
      "fzfg": false,
      "metar_trigger": false,
      "taf_trigger": false,
      "metar": "METAR LQSA 281400Z VRB02KT CAVOK 19/M00 Q1021 NOSIG",
      "taf": "TAF LQSA 281100Z 2812/0112 VRB02KT CAVOK TX18/2814Z TNM01/0105Z"
    },
    {
      "icao": "LQTZ",
      "alert": "OK",
      "vis_m": 9999,
      "fzfg": false,
      "metar_trigger": false,
      "taf_trigger": false,
      "metar": "METAR LQTZ 281400Z 11004KT CAVOK 18/00 Q1022",
      "taf": "TAF LQTZ 281100Z 2812/0112 10007KT CAVOK TX17/2814Z TNM01/0105Z"
    },
    {
      "icao": "LRBC",
      "alert": "OK",
      "vis_m": 5000,
      "fzfg": false,
      "metar_trigger": false,
      "taf_trigger": false,
      "metar": "METAR LRBC 281400Z 17010KT 5000 BR BKN005 M00/M01 Q1029",
      "taf": "TAF LRBC 281400Z 2815/2824 16010KT 5000 BR BKN005"
    },
    {
      "icao": "LRBS",
      "alert": "OK",
      "vis_m": 4500,
      "fzfg": false,
      "metar_trigger": false,
      "taf_trigger": false,
      "metar": "METAR LRBS 281400Z 00000KT 4500 BR OVC008 01/M02 Q1031 NOSIG",
      "taf": "TAF LRBS 281100Z 2812/0112 VRB04KT 5000 BR BKN005"
    },
    {
      "icao": "LRBV",
      "alert": "OK",
      "vis_m": 9999,
      "fzfg": false,
      "metar_trigger": false,
      "taf_trigger": false,
      "metar": "METAR LRBV 281400Z VRB02KT CAVOK 09/M02 Q1026",
      "taf": "TAF LRBV 281400Z 2815/2824 VRB04KT CAVOK"
    },
    {
      "icao": "LRCL",
      "alert": "OK",
      "vis_m": 9999,
      "fzfg": false,
      "metar_trigger": false,
      "taf_trigger": false,
      "metar": "METAR LRCL 281400Z 12004KT 070V150 CAVOK 11/M05 Q1026",
      "taf": "TAF LRCL 281400Z 2815/2824 VRB04KT CAVOK"
    },
    {
      "icao": "LRCV",
      "alert": "OK",
      "vis_m": 2000,
      "fzfg": false,
      "metar_trigger": false,
      "taf_trigger": false,
      "metar": "METAR LRCV 281400Z 05003KT 360V120 2000 BR OVC003 00/00 Q1030",
      "taf": "TAF LRCV 281400Z 2815/2824 VRB04KT 3000 BR OVC005"
    },
    {
      "icao": "LRIA",
      "alert": "OK",
      "vis_m": 9999,
      "fzfg": false,
      "metar_trigger": false,
      "taf_trigger": false,
      "metar": "METAR LRIA 281400Z 09008KT CAVOK 03/M00 Q1029",
      "taf": "TAF LRIA 281400Z 2815/2824 09008KT CAVOK"
    },
    {
      "icao": "LROP",
      "alert": "OK",
      "vis_m": 4500,
      "fzfg": false,
      "metar_trigger": false,
      "taf_trigger": false,
      "metar": "METAR LROP 281400Z VRB02KT 4500 BR BKN005 OVC006 00/M02 Q1030 NOSIG",
      "taf": "TAF LROP 281100Z 2812/0112 VRB04KT 5000 BR BKN005"
    },
    {
      "icao": "LRSB",
      "alert": "OK",
      "vis_m": 9999,
      "fzfg": false,
      "metar_trigger": false,
      "taf_trigger": false,
      "metar": "METAR LRSB 281400Z VRB02KT CAVOK 12/M03 Q1025 NOSIG",
      "taf": "TAF LRSB 281100Z 2812/0112 VRB04KT CAVOK"
    },
    {
      "icao": "LRSM",
      "alert": "OK",
      "vis_m": 9999,
      "fzfg": false,
      "metar_trigger": false,
      "taf_trigger": false,
      "metar": "METAR LRSM 281400Z AUTO 00000KT 9999 NCD 13/M01 Q1026",
      "taf": ""
    },
    {
      "icao": "LRSV",
      "alert": "OK",
      "vis_m": 400,
      "fzfg": true,
      "metar_trigger": false,
      "taf_trigger": false,
      "metar": "METAR LRSV 281400Z 09007KT 0400 R34/0800D FZFG VV001 M01/M01 Q1026",
      "taf": "TAF LRSV 281400Z 2815/2824 09007KT 0200 FZFG VV001"
    },
    {
      "icao": "LRTM",
      "alert": "OK",
      "vis_m": 9999,
      "fzfg": false,
      "metar_trigger": false,
      "taf_trigger": false,
      "metar": "METAR LRTM 281400Z VRB02KT CAVOK 12/M04 Q1026",
      "taf": "TAF LRTM 281400Z 2815/2824 VRB04KT CAVOK"
    },
    {
      "icao": "LRTR",
      "alert": "OK",
      "vis_m": 9999,
      "fzfg": false,
      "metar_trigger": false,
      "taf_trigger": false,
      "metar": "METAR LRTR 281400Z VRB02KT CAVOK 13/M01 Q1025",
      "taf": "TAF LRTR 281100Z 2812/0112 VRB04KT CAVOK"
    },
    {
      "icao": "LTAC",
      "alert": "OK",
      "vis_m": 9999,
      "fzfg": false,
      "metar_trigger": false,
      "taf_trigger": false,
      "metar": "METAR LTAC 281420Z 05013KT 9999 SCT040 SCT080 05/M04 Q1020 NOSIG RMK RWY21C 03015KT RWY03L 05012KT RWY21R 03014KT RWY03R 04016KT RWY21L 04015KT",
      "taf": "TAF LTAC 281040Z 2812/0112 01008KT 9999 SCT040"
    },
    {
      "icao": "LTFM",
      "alert": "OK",
      "vis_m": 9999,
      "fzfg": false,
      "metar_trigger": false,
      "taf_trigger": false,
      "metar": "METAR LTFM 281420Z 03016KT 9999 SCT016 BKN025 06/01 Q1028 NOSIG RMK RWY17L 03014KT RWY34L 02014KT RWY16R 03014KT RWY36 03016KT RWY18 04014KT",
      "taf": "TAF LTFM 281040Z 2812/0118 01015G25KT 9999 SCT016 BKN025"
    },
    {
      "icao": "LUKK",
      "alert": "OK",
      "vis_m": 9999,
      "fzfg": false,
      "metar_trigger": false,
      "taf_trigger": false,
      "metar": "METAR LUKK 281400Z VRB02KT CAVOK 04/M02 Q1030 NOSIG",
      "taf": "TAF LUKK 281116Z 2812/0112 VRB05KT CAVOK"
    },
    {
      "icao": "LWOH",
      "alert": "OK",
      "vis_m": 9999,
      "fzfg": false,
      "metar_trigger": false,
      "taf_trigger": false,
      "metar": "METAR LWOH 281420Z 17005KT 9999 FEW040 11/05 Q1023",
      "taf": "TAF LWOH 281120Z 2812/0112 16008KT 9999 FEW040"
    },
    {
      "icao": "LWSK",
      "alert": "OK",
      "vis_m": 9999,
      "fzfg": false,
      "metar_trigger": false,
      "taf_trigger": false,
      "metar": "METAR LWSK 281420Z VRB02KT CAVOK 14/04 Q1025 NOSIG",
      "taf": "TAF LWSK 281120Z 2812/0112 VRB02KT CAVOK"
    },
    {
      "icao": "LYBE",
      "alert": "OK",
      "vis_m": 9999,
      "fzfg": false,
      "metar_trigger": false,
      "taf_trigger": false,
      "metar": "METAR LYBE 281400Z 09009KT 060V120 CAVOK 14/02 Q1024 NOSIG",
      "taf": "TAF LYBE 281100Z 2812/0112 13010KT CAVOK TX15/0112Z TN01/0106Z"
    },
    {
      "icao": "LYNI",
      "alert": "OK",
      "vis_m": 9999,
      "fzfg": false,
      "metar_trigger": false,
      "taf_trigger": false,
      "metar": "METAR LYNI 281400Z 28001KT CAVOK 15/M02 Q1024 NOSIG",
      "taf": "TAF LYNI 281100Z 2812/0112 07007KT CAVOK TX16/0112Z TNM02/0105Z"
    },
    {
      "icao": "LYPG",
      "alert": "OK",
      "vis_m": 9999,
      "fzfg": false,
      "metar_trigger": false,
      "taf_trigger": false,
      "metar": "METAR LYPG 281400Z 15004KT 100V190 CAVOK 17/03 Q1023 NOSIG",
      "taf": "TAF LYPG 281100Z 2812/0112 17005KT CAVOK TX18/2813Z TN02/0105Z"
    },
    {
      "icao": "LZIB",
      "alert": "OK",
      "vis_m": 9999,
      "fzfg": false,
      "metar_trigger": false,
      "taf_trigger": false,
      "metar": "METAR LZIB 281430Z 11009KT CAVOK 14/00 Q1023 NOSIG",
      "taf": "TAF LZIB 281115Z 2812/0112 14010KT CAVOK"
    },
    {
      "icao": "LZKZ",
      "alert": "OK",
      "vis_m": 9999,
      "fzfg": false,
      "metar_trigger": false,
      "taf_trigger": false,
      "metar": "METAR LZKZ 281430Z 19007KT CAVOK 12/01 Q1025 NOSIG",
      "taf": "TAF LZKZ 281115Z 2812/0112 19008KT CAVOK"
    },
    {
      "icao": "LZTT",
      "alert": "OK",
      "vis_m": 9999,
      "fzfg": false,
      "metar_trigger": false,
      "taf_trigger": false,
      "metar": "METAR LZTT 281430Z 11006KT 080V170 CAVOK 12/02 Q1023 NOSIG",
      "taf": "TAF LZTT 281115Z 2812/0112 28005KT CAVOK"
    },
    {
      "icao": "OEJN",
      "alert": "OK",
      "vis_m": 9999,
      "fzfg": false,
      "metar_trigger": false,
      "taf_trigger": false,
      "metar": "METAR OEJN 281400Z 32014KT CAVOK 26/11 Q1009 NOSIG",
      "taf": "TAF OEJN 281100Z 2812/0118 33014KT 9999 FEW040"
    },
    {
      "icao": "OEMA",
      "alert": "OK",
      "vis_m": 9999,
      "fzfg": false,
      "metar_trigger": false,
      "taf_trigger": false,
      "metar": "METAR OEMA 281400Z 20010KT CAVOK 27/M04 Q1010 NOSIG",
      "taf": "TAF OEMA 281100Z 2812/0118 26012KT 9999 FEW040"
    },
    {
      "icao": "OJAI",
      "alert": "OK",
      "vis_m": 5000,
      "fzfg": false,
      "metar_trigger": false,
      "taf_trigger": false,
      "metar": "METAR OJAI 281400Z 26004KT 5000 HZ FEW030 11/M05 Q1016 NOSIG",
      "taf": "TAF OJAI 281058Z 2812/0118 31012KT 5000 HZ SCT035"
    },
    {
      "icao": "OMAA",
      "alert": "OK",
      "vis_m": 9999,
      "fzfg": false,
      "metar_trigger": false,
      "taf_trigger": false,
      "metar": "METAR OMAA 281430Z 35007KT CAVOK 28/05 Q1009 NOSIG",
      "taf": "TAF OMAA 281100Z 2812/0118 34010KT 8000 NSC"
    },
    {
      "icao": "OMDB",
      "alert": "OK",
      "vis_m": 9999,
      "fzfg": false,
      "metar_trigger": false,
      "taf_trigger": false,
      "metar": "METAR OMDB 281430Z 31005KT CAVOK 25/15 Q1009 NOSIG",
      "taf": "TAF OMDB 281100Z 2812/0118 32010KT 8000 NSC"
    },
    {
      "icao": "UAAA",
      "alert": "OK",
      "vis_m": 9999,
      "fzfg": false,
      "metar_trigger": false,
      "taf_trigger": false,
      "metar": "METAR UAAA 281400Z 00000MPS 9999 BKN045 M09/M13 Q1025 NOSIG",
      "taf": "TAF UAAA 281103Z 2812/0112 04003MPS 3100 BR FU BKN011 OVC030 TXM05/0108Z TNM15/0102Z"
    },
    {
      "icao": "UBBB",
      "alert": "OK",
      "vis_m": 9999,
      "fzfg": false,
      "metar_trigger": false,
      "taf_trigger": false,
      "metar": "METAR UBBB 281430Z 33020KT 9999 -RA SCT011 BKN021 04/02 Q1019 NOSIG",
      "taf": "TAF UBBB 281054Z 2812/0112 35018G28KT 9999 SCT012 BKN020 TX05/2812Z TN03/0102Z"
    },
    {
      "icao": "UDSG",
      "alert": "OK",
      "vis_m": 9000,
      "fzfg": false,
      "metar_trigger": false,
      "taf_trigger": false,
      "metar": "METAR UDSG 281400Z 09003KT 9000 BKN040 M01/M05 Q1014 NOSIG",
      "taf": "TAF UDSG 280458Z 2806/0106 18006KT 3000 BR BKN030"
    },
    {
      "icao": "UDYZ",
      "alert": "OK",
      "vis_m": 9999,
      "fzfg": false,
      "metar_trigger": false,
      "taf_trigger": false,
      "metar": "METAR UDYZ 281400Z 29007KT 9999 -SHRA BKN033CB 04/00 Q1014 NOSIG",
      "taf": "TAF UDYZ 281100Z 2812/0112 02006KT 6000 BKN030"
    },
    {
      "icao": "UGKO",
      "alert": "OK",
      "vis_m": 9999,
      "fzfg": false,
      "metar_trigger": false,
      "taf_trigger": false,
      "metar": "METAR UGKO 281400Z VRB02KT 9999 -RA SCT007 BKN010 OVC019 06/05 Q1020 NOSIG",
      "taf": "TAF UGKO 281100Z 2812/0112 26007KT 9999 SCT020 OVC030 TX07/0112Z TN04/0102Z"
    }
  ]
}