{
  "ts_utc": "2026-02-26T03:31:21Z",
  "threshold_m": 150,
  "source": "stations_override.txt (ICAO list) + aviationweather.gov (METAR/TAF raw)",
  "station_count": 159,
  "stations": [
    {
      "icao": "BIKF",
      "alert": "OK",
      "vis_m": 9999,
      "fzfg": false,
      "metar_trigger": false,
      "taf_trigger": false,
      "metar": "METAR BIKF 260302Z 13024KT 9999 -SHRA FEW011 SCT018CB BKN045 03/01 Q0980",
      "taf": "TAF BIKF 260107Z 2603/2703 16025G38KT 9999 -SHRA SCT015 BKN025 TX05/2606Z TNM04/2703Z"
    },
    {
      "icao": "BKPR",
      "alert": "OK",
      "vis_m": 9999,
      "fzfg": false,
      "metar_trigger": false,
      "taf_trigger": false,
      "metar": "METAR BKPR 260330Z VRB02KT 9999 BKN050 01/M01 Q1025 NOSIG",
      "taf": "TAF BKPR 252330Z 2600/2624 35007KT 9999 FEW050"
    },
    {
      "icao": "EBCI",
      "alert": "OK",
      "vis_m": 9999,
      "fzfg": false,
      "metar_trigger": false,
      "taf_trigger": false,
      "metar": "METAR EBCI 260220Z 19007KT CAVOK 12/09 Q1019 NOSIG",
      "taf": "TAF EBCI 252303Z 2600/2706 20007KT CAVOK"
    },
    {
      "icao": "EDDB",
      "alert": "OK",
      "vis_m": 9999,
      "fzfg": false,
      "metar_trigger": false,
      "taf_trigger": false,
      "metar": "METAR EDDB 260320Z AUTO 12003KT 090V150 CAVOK 01/01 Q1023 NOSIG",
      "taf": "TAF EDDB 252300Z 2600/2624 13006KT CAVOK"
    },
    {
      "icao": "EDDH",
      "alert": "OK",
      "vis_m": 9999,
      "fzfg": false,
      "metar_trigger": false,
      "taf_trigger": false,
      "metar": "METAR EDDH 260320Z AUTO 15007KT CAVOK 08/06 Q1018 NOSIG",
      "taf": "TAF EDDH 252300Z 2600/2706 15008KT CAVOK"
    },
    {
      "icao": "EDDK",
      "alert": "OK",
      "vis_m": 9999,
      "fzfg": false,
      "metar_trigger": false,
      "taf_trigger": false,
      "metar": "METAR EDDK 260320Z AUTO 12007KT CAVOK 09/07 Q1020 NOSIG",
      "taf": "TAF EDDK 252300Z 2600/2706 12007KT CAVOK"
    },
    {
      "icao": "EDDN",
      "alert": "OK",
      "vis_m": 8000,
      "fzfg": false,
      "metar_trigger": false,
      "taf_trigger": false,
      "metar": "METAR EDDN 260320Z AUTO 15007KT 8000 OVC004 06/05 Q1024",
      "taf": "TAF EDDN 252300Z 2600/2624 12007KT 9999 OVC005"
    },
    {
      "icao": "EDDS",
      "alert": "OK",
      "vis_m": 350,
      "fzfg": false,
      "metar_trigger": false,
      "taf_trigger": false,
      "metar": "METAR EDDS 260320Z AUTO 00000KT 0350 0200 R25/1100D FG FEW010 03/02 Q1023",
      "taf": "TAF EDDS 252300Z 2600/2624 VRB03KT CAVOK"
    },
    {
      "icao": "EDFH",
      "alert": "OK",
      "vis_m": 350,
      "fzfg": false,
      "metar_trigger": false,
      "taf_trigger": false,
      "metar": "METAR EDFH 260320Z 15011KT 0350 R21/0400N FG VV/// 06/06 Q1022",
      "taf": "TAF EDFH 252300Z 2600/2624 13012KT 6000 NSC"
    },
    {
      "icao": "EDJA",
      "alert": "OK",
      "vis_m": 1800,
      "fzfg": false,
      "metar_trigger": false,
      "taf_trigger": false,
      "metar": "METAR EDJA 260250Z AUTO 13002KT 1800 0750 R06/P2000N // FEW002/// 00/M00 Q1024",
      "taf": "TAF EDJA 260200Z 2603/2612 VRB03KT 0600 FG VV001"
    },
    {
      "icao": "EDLW",
      "alert": "OK",
      "vis_m": 9999,
      "fzfg": false,
      "metar_trigger": false,
      "taf_trigger": false,
      "metar": "METAR EDLW 260320Z AUTO 17011KT 9999 // NCD 11/08 Q1019",
      "taf": "TAF EDLW 251700Z 2518/2618 16008KT CAVOK"
    },
    {
      "icao": "EDNY",
      "alert": "OK",
      "vis_m": 450,
      "fzfg": false,
      "metar_trigger": false,
      "taf_trigger": false,
      "metar": "METAR EDNY 260320Z AUTO VRB02KT 0450 0400 R06/0500N VV/// 05/05 Q1025",
      "taf": "TAF EDNY 260200Z 2603/2612 VRB02KT 0700 FG VV001"
    },
    {
      "icao": "EDSB",
      "alert": "OK",
      "vis_m": 750,
      "fzfg": false,
      "metar_trigger": false,
      "taf_trigger": false,
      "metar": "METAR EDSB 260320Z 21004KT 180V240 0750 R21/1100D FG VV/// 07/07 Q1024",
      "taf": "TAF EDSB 252300Z 2600/2624 VRB03KT 0800 FG BKN002"
    },
    {
      "icao": "EETN",
      "alert": "OK",
      "vis_m": 3200,
      "fzfg": false,
      "metar_trigger": false,
      "taf_trigger": false,
      "metar": "METAR EETN 260320Z 17010KT 3200 SN SCT022 OVC025 M03/M04 Q1023",
      "taf": "TAF EETN 252330Z 2600/2624 18010KT 9999 BKN040"
    },
    {
      "icao": "EFTU",
      "alert": "OK",
      "vis_m": 2400,
      "fzfg": false,
      "metar_trigger": false,
      "taf_trigger": false,
      "metar": "METAR EFTU 260320Z AUTO 19011KT 160V220 2400 -SN OVC005 M01/M02 Q1017",
      "taf": "TAF EFTU 260236Z 2603/2703 20012G22KT 4000 -FZRA BKN007"
    },
    {
      "icao": "EGBB",
      "alert": "OK",
      "vis_m": 9999,
      "fzfg": false,
      "metar_trigger": false,
      "taf_trigger": false,
      "metar": "METAR EGBB 260320Z 20007KT 180V240 9999 FEW023 SCT032 10/08 Q1014",
      "taf": "TAF EGBB 252259Z 2600/2624 20010KT 9999 SCT016"
    },
    {
      "icao": "EGGP",
      "alert": "OK",
      "vis_m": 9999,
      "fzfg": false,
      "metar_trigger": false,
      "taf_trigger": false,
      "metar": "METAR EGGP 260320Z 21007KT 170V230 9999 -RA SCT036 10/07 Q1012",
      "taf": "TAF EGGP 252255Z 2600/2624 22012KT 9999 SCT025"
    },
    {
      "icao": "EGGW",
      "alert": "OK",
      "vis_m": 9999,
      "fzfg": false,
      "metar_trigger": false,
      "taf_trigger": false,
      "metar": "METAR EGGW 260320Z AUTO 22008KT 190V250 9999 OVC015 10/09 Q1016",
      "taf": ""
    },
    {
      "icao": "EGKK",
      "alert": "OK",
      "vis_m": 9999,
      "fzfg": false,
      "metar_trigger": false,
      "taf_trigger": false,
      "metar": "METAR EGKK 260320Z 22008KT 190V250 9999 BKN012 10/09 Q1018",
      "taf": ""
    },
    {
      "icao": "EGNM",
      "alert": "OK",
      "vis_m": null,
      "fzfg": false,
      "metar_trigger": false,
      "taf_trigger": false,
      "metar": "",
      "taf": "TAF EGNM 251656Z 2518/2618 21011KT 9999 SCT020"
    },
    {
      "icao": "EGPD",
      "alert": "OK",
      "vis_m": 9999,
      "fzfg": false,
      "metar_trigger": false,
      "taf_trigger": false,
      "metar": "METAR EGPD 260320Z COR AUTO VRB02KT 9999 NCD 09/06 Q1002 NOSIG",
      "taf": "TAF EGPD 252255Z 2600/2624 19009KT 9999 FEW018"
    },
    {
      "icao": "EGPF",
      "alert": "OK",
      "vis_m": 9999,
      "fzfg": false,
      "metar_trigger": false,
      "taf_trigger": false,
      "metar": "METAR EGPF 260320Z AUTO 22014KT 9999 -RA BKN011 BKN017 OVC037 10/08 Q1004",
      "taf": ""
    },
    {
      "icao": "EHBK",
      "alert": "OK",
      "vis_m": 9999,
      "fzfg": false,
      "metar_trigger": false,
      "taf_trigger": false,
      "metar": "METAR EHBK 260325Z AUTO 19010KT 9999 NSC 10/08 Q1019",
      "taf": "TAF EHBK 252317Z 2600/2706 18008KT CAVOK"
    },
    {
      "icao": "EHEH",
      "alert": "OK",
      "vis_m": 9999,
      "fzfg": false,
      "metar_trigger": false,
      "taf_trigger": false,
      "metar": "METAR EHEH 260325Z AUTO 19004KT 9999 NCD 09/08 Q1018 BLU",
      "taf": "TAF EHEH 252315Z 2600/2706 18006KT CAVOK"
    },
    {
      "icao": "EKBI",
      "alert": "OK",
      "vis_m": 150,
      "fzfg": false,
      "metar_trigger": false,
      "taf_trigger": false,
      "metar": "METAR EKBI 260320Z AUTO 12003KT 0150 R09/0550N R27/0550N FG VV003 04/04 Q1014",
      "taf": "TAF EKBI 260227Z 2603/2703 15005KT 0200 FG BKN002"
    },
    {
      "icao": "EKCH",
      "alert": "OK",
      "vis_m": 8000,
      "fzfg": false,
      "metar_trigger": false,
      "taf_trigger": false,
      "metar": "METAR EKCH 260320Z AUTO 18008KT 8000 NCD 02/01 Q1018 NOSIG",
      "taf": "TAF EKCH 260227Z 2603/2703 18010KT 7000 NSC"
    },
    {
      "icao": "ENAL",
      "alert": "OK",
      "vis_m": 9999,
      "fzfg": false,
      "metar_trigger": false,
      "taf_trigger": false,
      "metar": "METAR ENAL 260320Z AUTO 08003KT 050V120 9999 -DZRA FEW023/// SCT029/// OVC036/// 05/04 Q0998 RERA",
      "taf": "TAF ENAL 260200Z 2603/2612 14007KT 9999 -RA FEW020 BKN030"
    },
    {
      "icao": "ENBR",
      "alert": "OK",
      "vis_m": 9999,
      "fzfg": false,
      "metar_trigger": false,
      "taf_trigger": false,
      "metar": "METAR ENBR 260320Z 15013KT 9999 -RA BKN004 BKN005 OVC007 06/06 Q1002 RMK WIND 1200FT 15019KT",
      "taf": "TAF ENBR 252300Z 2600/2624 16018KT 8000 -RADZ SCT004 BKN008"
    },
    {
      "icao": "ENGM",
      "alert": "OK",
      "vis_m": 1200,
      "fzfg": false,
      "metar_trigger": false,
      "taf_trigger": false,
      "metar": "METAR ENGM 260320Z 19005KT 1200 1000E R19R/1900D R01R/1500N R19L/1300D R01L/1200D PRFG VV002 00/M01 Q1008",
      "taf": "TAF ENGM 252300Z 2600/2624 19008KT 6000 -DZ BKN004"
    },
    {
      "icao": "ENHD",
      "alert": "OK",
      "vis_m": 7000,
      "fzfg": false,
      "metar_trigger": false,
      "taf_trigger": false,
      "metar": "METAR ENHD 260320Z AUTO 16014KT 7000 RA OVC004/// 07/06 Q1003",
      "taf": "TAF ENHD 260200Z 2603/2612 16018KT 9999 -RA BKN004"
    },
    {
      "icao": "ENTC",
      "alert": "OK",
      "vis_m": 7000,
      "fzfg": false,
      "metar_trigger": false,
      "taf_trigger": false,
      "metar": "METAR ENTC 260250Z 20022KT 7000 -SN OVC040 M05/M08 Q1004 RMK WIND 2600FT 19013KT",
      "taf": ""
    },
    {
      "icao": "ENTO",
      "alert": "OK",
      "vis_m": 450,
      "fzfg": false,
      "metar_trigger": false,
      "taf_trigger": false,
      "metar": "METAR ENTO 260320Z AUTO 21007KT 0450 R18/P2000N R36/1300N FG BKN001/// OVC005/// 01/01 Q1009",
      "taf": ""
    },
    {
      "icao": "ENVA",
      "alert": "OK",
      "vis_m": 9999,
      "fzfg": false,
      "metar_trigger": false,
      "taf_trigger": false,
      "metar": "METAR ENVA 260320Z AUTO 08006KT 050V110 9999 BKN034/// 02/01 Q1002 RMK WIND 670FT 13013KT",
      "taf": "TAF ENVA 252300Z 2600/2624 09007KT 9999 -DZRA FEW020 BKN040"
    },
    {
      "icao": "ENZV",
      "alert": "OK",
      "vis_m": 8000,
      "fzfg": false,
      "metar_trigger": false,
      "taf_trigger": false,
      "metar": "METAR ENZV 260320Z 15013KT 8000 RA OVC012 07/05 Q1004",
      "taf": "TAF ENZV 252300Z 2600/2624 17015KT 9999 -RA BKN012"
    },
    {
      "icao": "EPGD",
      "alert": "OK",
      "vis_m": 9999,
      "fzfg": false,
      "metar_trigger": false,
      "taf_trigger": false,
      "metar": "METAR EPGD 260300Z 20008KT CAVOK M00/M04 Q1026",
      "taf": "TAF EPGD 252330Z 2600/2624 18010KT CAVOK"
    },
    {
      "icao": "EPKK",
      "alert": "OK",
      "vis_m": 9999,
      "fzfg": false,
      "metar_trigger": false,
      "taf_trigger": false,
      "metar": "METAR EPKK 260300Z 04003KT CAVOK M04/M05 Q1028",
      "taf": "TAF EPKK 260230Z 2603/2703 06005KT CAVOK"
    },
    {
      "icao": "EPKT",
      "alert": "OK",
      "vis_m": 4900,
      "fzfg": false,
      "metar_trigger": false,
      "taf_trigger": false,
      "metar": "METAR EPKT 260300Z 08003KT 4900 BR NSC M07/M08 Q1028",
      "taf": "TAF EPKT 252330Z 2600/2624 07004KT 7000 NSC"
    },
    {
      "icao": "EPLB",
      "alert": "OK",
      "vis_m": 9999,
      "fzfg": false,
      "metar_trigger": false,
      "taf_trigger": false,
      "metar": "METAR EPLB 260300Z 24002KT 9999 BKN026 M02/M04 Q1030",
      "taf": "TAF EPLB 252330Z 2600/2624 VRB02KT 9999 BKN022"
    },
    {
      "icao": "EPMO",
      "alert": "OK",
      "vis_m": 9999,
      "fzfg": false,
      "metar_trigger": false,
      "taf_trigger": false,
      "metar": "METAR EPMO 260300Z 13004KT CAVOK M02/M04 Q1030",
      "taf": "TAF EPMO 252330Z 2600/2624 14005KT 7000 FEW020"
    },
    {
      "icao": "EPPO",
      "alert": "OK",
      "vis_m": 9999,
      "fzfg": false,
      "metar_trigger": false,
      "taf_trigger": false,
      "metar": "METAR EPPO 260300Z 13009KT CAVOK M01/M03 Q1027",
      "taf": "TAF EPPO 252330Z 2600/2624 14007KT CAVOK"
    },
    {
      "icao": "EPRA",
      "alert": "OK",
      "vis_m": 9999,
      "fzfg": false,
      "metar_trigger": false,
      "taf_trigger": false,
      "metar": "METAR EPRA 260300Z 16004KT 9999 SCT027 M03/M05 Q1030",
      "taf": "TAF EPRA 260230Z 2603/2612 15006KT 9999 SCT030"
    },
    {
      "icao": "EPRZ",
      "alert": "OK",
      "vis_m": 9999,
      "fzfg": false,
      "metar_trigger": false,
      "taf_trigger": false,
      "metar": "METAR EPRZ 260300Z 09005KT 9999 OVC025 M01/M05 Q1030",
      "taf": "TAF EPRZ 252330Z 2600/2624 08006KT 9999 OVC030"
    },
    {
      "icao": "EPSC",
      "alert": "OK",
      "vis_m": 9999,
      "fzfg": false,
      "metar_trigger": false,
      "taf_trigger": false,
      "metar": "METAR EPSC 260300Z 13013KT CAVOK 01/M01 Q1024",
      "taf": "TAF EPSC 252330Z 2600/2624 15010KT CAVOK"
    },
    {
      "icao": "EPSY",
      "alert": "OK",
      "vis_m": 4000,
      "fzfg": false,
      "metar_trigger": false,
      "taf_trigger": false,
      "metar": "METAR EPSY 260300Z 19004KT 4000 BR NSC M08/M08 Q1029",
      "taf": "TAF EPSY 260230Z 2603/2612 17005KT 9999 SCT025"
    },
    {
      "icao": "EPWA",
      "alert": "OK",
      "vis_m": 9999,
      "fzfg": false,
      "metar_trigger": false,
      "taf_trigger": false,
      "metar": "METAR EPWA 260300Z 16004KT 9999 SCT020 M03/M04 Q1030 NOSIG",
      "taf": "TAF EPWA 260230Z 2603/2703 15005KT 9999 FEW020"
    },
    {
      "icao": "EPWR",
      "alert": "OK",
      "vis_m": 9999,
      "fzfg": false,
      "metar_trigger": false,
      "taf_trigger": false,
      "metar": "METAR EPWR 260300Z 12007KT CAVOK M01/M02 Q1027",
      "taf": "TAF EPWR 260230Z 2603/2703 12007KT CAVOK"
    },
    {
      "icao": "ESGG",
      "alert": "OK",
      "vis_m": 900,
      "fzfg": false,
      "metar_trigger": false,
      "taf_trigger": false,
      "metar": "METAR ESGG 260320Z 19014KT 0900 R03/P2000N R21/P2000N FG VV002 03/03 Q1013",
      "taf": "TAF ESGG 260230Z 2603/2703 18012KT 5000 OVC003"
    },
    {
      "icao": "ESKN",
      "alert": "OK",
      "vis_m": 9999,
      "fzfg": false,
      "metar_trigger": false,
      "taf_trigger": false,
      "metar": "METAR ESKN 260320Z 17010KT 9999 SCT033 BKN073 01/M01 Q1016",
      "taf": "TAF ESKN 260230Z 2603/2703 17006KT 9999 BKN035"
    },
    {
      "icao": "ESMS",
      "alert": "OK",
      "vis_m": 6000,
      "fzfg": false,
      "metar_trigger": false,
      "taf_trigger": false,
      "metar": "METAR ESMS 260320Z 17012KT 6000 NSC 02/02 Q1018",
      "taf": "TAF ESMS 260227Z 2603/2703 16010KT 7000 FEW004"
    },
    {
      "icao": "ESSA",
      "alert": "OK",
      "vis_m": null,
      "fzfg": false,
      "metar_trigger": false,
      "taf_trigger": false,
      "metar": "",
      "taf": "TAF ESSA 260230Z 2603/2703 18012KT 9999 -SN OVC010"
    },
    {
      "icao": "EYKA",
      "alert": "OK",
      "vis_m": 9999,
      "fzfg": false,
      "metar_trigger": false,
      "taf_trigger": false,
      "metar": "METAR EYKA 260320Z 21004KT 170V250 9999 OVC013 M02/M05 Q1030",
      "taf": "TAF EYKA 252300Z 2600/2624 VRB03KT 9000 OVC015"
    },
    {
      "icao": "EYPA",
      "alert": "OK",
      "vis_m": 9999,
      "fzfg": false,
      "metar_trigger": false,
      "taf_trigger": false,
      "metar": "METAR EYPA 260320Z 18010KT CAVOK M03/M06 Q1027",
      "taf": "TAF EYPA 252300Z 2600/2624 17010KT 9000 NSC"
    },
    {
      "icao": "EYVI",
      "alert": "OK",
      "vis_m": 9999,
      "fzfg": false,
      "metar_trigger": false,
      "taf_trigger": false,
      "metar": "METAR EYVI 260320Z 17002KT 9999 OVC016 M04/M06 Q1029 NOSIG",
      "taf": "TAF EYVI 252300Z 2600/2624 VRB03KT 9000 OVC020"
    },
    {
      "icao": "GCFV",
      "alert": "OK",
      "vis_m": 9999,
      "fzfg": false,
      "metar_trigger": false,
      "taf_trigger": false,
      "metar": "METAR GCFV 260300Z AUTO 33011KT 9999 SCT049 16/11 Q1017",
      "taf": "TAF GCFV 260200Z 2603/2703 33015KT 9999 SCT020 TX20/2614Z TN13/2606Z"
    },
    {
      "icao": "GCLP",
      "alert": "OK",
      "vis_m": 9999,
      "fzfg": false,
      "metar_trigger": false,
      "taf_trigger": false,
      "metar": "METAR GCLP 260300Z 36015KT 330V030 9999 FEW020 BKN060 16/12 Q1017 NOSIG",
      "taf": "TAF GCLP 260200Z 2603/2703 36015KT 9999 SCT020 TX19/2614Z TN13/2606Z"
    },
    {
      "icao": "GCTS",
      "alert": "OK",
      "vis_m": 9999,
      "fzfg": false,
      "metar_trigger": false,
      "taf_trigger": false,
      "metar": "METAR GCTS 260300Z 04005KT 010V080 9999 SCT040 BKN060 18/10 Q1017 NOSIG",
      "taf": "TAF GCTS 260200Z 2603/2703 06011KT 9999 BKN020 TX22/2614Z TN14/2606Z"
    },
    {
      "icao": "GMAD",
      "alert": "OK",
      "vis_m": 9999,
      "fzfg": false,
      "metar_trigger": false,
      "taf_trigger": false,
      "metar": "METAR GMAD 260300Z 00000KT 9999 SCT020 14/13 Q1013 NOSIG",
      "taf": "TAF GMAD 252300Z 2600/2706 18006KT 9999 SCT020 BKN080"
    },
    {
      "icao": "GMMN",
      "alert": "OK",
      "vis_m": 6000,
      "fzfg": false,
      "metar_trigger": false,
      "taf_trigger": false,
      "metar": "METAR GMMN 260300Z 10007KT 6000 NSC 11/09 Q1016 NOSIG",
      "taf": "TAF GMMN 252300Z 2600/2706 29007KT CAVOK"
    },
    {
      "icao": "GMMX",
      "alert": "OK",
      "vis_m": 9999,
      "fzfg": false,
      "metar_trigger": false,
      "taf_trigger": false,
      "metar": "METAR GMMX 260300Z 26005KT 9999 SCT026 SCT080 11/08 Q1015 NOSIG",
      "taf": "TAF GMMX 252300Z 2600/2706 06006KT 8000 SCT026 SCT100"
    },
    {
      "icao": "HEGN",
      "alert": "OK",
      "vis_m": 9999,
      "fzfg": false,
      "metar_trigger": false,
      "taf_trigger": false,
      "metar": "METAR HEGN 260300Z 29009KT CAVOK 15/04 Q1017 NOSIG",
      "taf": "TAF HEGN 252300Z 2600/2706 29010KT CAVOK"
    },
    {
      "icao": "HEMA",
      "alert": "OK",
      "vis_m": 9999,
      "fzfg": false,
      "metar_trigger": false,
      "taf_trigger": false,
      "metar": "METAR HEMA 260300Z 31013KT CAVOK 17/04 Q1016 NOSIG",
      "taf": "TAF HEMA 252300Z 2600/2706 26010KT CAVOK"
    },
    {
      "icao": "HESH",
      "alert": "OK",
      "vis_m": 9999,
      "fzfg": false,
      "metar_trigger": false,
      "taf_trigger": false,
      "metar": "METAR HESH 260300Z 33006KT CAVOK 18/05 Q1016 NOSIG",
      "taf": "TAF HESH 252300Z 2600/2706 34008KT CAVOK"
    },
    {
      "icao": "HESX",
      "alert": "OK",
      "vis_m": 9999,
      "fzfg": false,
      "metar_trigger": false,
      "taf_trigger": false,
      "metar": "METAR HESX 260300Z 22006KT CAVOK 10/05 Q1018 NOSIG",
      "taf": "TAF HESX 252300Z 2600/2706 28008KT 7000 NSC"
    },
    {
      "icao": "LATI",
      "alert": "OK",
      "vis_m": 9999,
      "fzfg": false,
      "metar_trigger": false,
      "taf_trigger": false,
      "metar": "METAR LATI 260320Z 18003KT 130V210 CAVOK 03/M00 Q1024 NOSIG",
      "taf": "TAF LATI 252300Z 2600/2624 VRB03KT CAVOK TX19/2612Z TN04/2605Z"
    },
    {
      "icao": "LBPD",
      "alert": "OK",
      "vis_m": 9999,
      "fzfg": false,
      "metar_trigger": false,
      "taf_trigger": false,
      "metar": "METAR LBPD 260330Z AUTO 07004KT 030V140 9999 SCT071/// 06/00 Q1024",
      "taf": "TAF LBPD 252300Z 2600/2624 28014KT 9999 SCT040 BKN070"
    },
    {
      "icao": "LBSF",
      "alert": "OK",
      "vis_m": 9999,
      "fzfg": false,
      "metar_trigger": false,
      "taf_trigger": false,
      "metar": "METAR LBSF 260330Z AUTO 24003KT 180V270 9999 SCT052/// BKN062/// 03/M01 Q1024 NOSIG",
      "taf": "TAF LBSF 252300Z 2600/2624 30010KT 9999 SCT030 BKN050"
    },
    {
      "icao": "LBWN",
      "alert": "OK",
      "vis_m": 9999,
      "fzfg": false,
      "metar_trigger": false,
      "taf_trigger": false,
      "metar": "METAR LBWN 260330Z AUTO 01004KT 320V100 9999 BKN011/// OVC035/// 03/02 Q1025 NOSIG",
      "taf": "TAF LBWN 252300Z 2600/2624 02012KT 9999 SCT030 BKN050"
    },
    {
      "icao": "LCLK",
      "alert": "OK",
      "vis_m": 9999,
      "fzfg": false,
      "metar_trigger": false,
      "taf_trigger": false,
      "metar": "METAR LCLK 260300Z 29010KT 9999 FEW025 11/07 Q1012 NOSIG",
      "taf": "TAF LCLK 252330Z 2600/2700 30008KT 9999 FEW020"
    },
    {
      "icao": "LCPH",
      "alert": "OK",
      "vis_m": 9999,
      "fzfg": false,
      "metar_trigger": false,
      "taf_trigger": false,
      "metar": "METAR LCPH 260300Z AUTO 36007KT 9999 NCD 11/05 Q1012 NOSIG",
      "taf": "TAF LCPH 252330Z 2600/2700 34008KT 9999 FEW020 SCT040"
    },
    {
      "icao": "LEAL",
      "alert": "OK",
      "vis_m": 9999,
      "fzfg": false,
      "metar_trigger": false,
      "taf_trigger": false,
      "metar": "METAR LEAL 260300Z 28004KT CAVOK 10/06 Q1023 NOSIG",
      "taf": "TAF LEAL 252300Z 2600/2624 VRB04KT 9999 FEW015 TX21/2612Z TN07/2605Z"
    },
    {
      "icao": "LEBB",
      "alert": "OK",
      "vis_m": 9999,
      "fzfg": false,
      "metar_trigger": false,
      "taf_trigger": false,
      "metar": "METAR LEBB 260300Z AUTO 10005KT CAVOK 08/07 Q1024",
      "taf": "TAF LEBB 252300Z 2600/2624 13008KT CAVOK TX23/2614Z TN07/2606Z"
    },
    {
      "icao": "LEBL",
      "alert": "OK",
      "vis_m": 4000,
      "fzfg": false,
      "metar_trigger": false,
      "taf_trigger": false,
      "metar": "METAR LEBL 260300Z 33008KT 4000 BR FEW014 10/09 Q1025 NOSIG",
      "taf": "TAF LEBL 252300Z 2600/2624 05006KT 9999 SCT015 TX16/2613Z TN07/2606Z"
    },
    {
      "icao": "LECH",
      "alert": "OK",
      "vis_m": 150,
      "fzfg": false,
      "metar_trigger": false,
      "taf_trigger": false,
      "metar": "METAR LECH 260300Z AUTO VRB01KT 0150 R06/0125N FG VV001 08/08 Q1025",
      "taf": ""
    },
    {
      "icao": "LEMD",
      "alert": "OK",
      "vis_m": 9999,
      "fzfg": false,
      "metar_trigger": false,
      "taf_trigger": false,
      "metar": "METAR LEMD 260300Z VRB02KT CAVOK 05/01 Q1023 NOSIG",
      "taf": "TAF LEMD 252300Z 2600/2706 VRB04KT CAVOK TX21/2615Z TN04/2607Z"
    },
    {
      "icao": "LEMG",
      "alert": "OK",
      "vis_m": 4000,
      "fzfg": false,
      "metar_trigger": false,
      "taf_trigger": false,
      "metar": "SPECI LEMG 260321Z 30008KT 4000 BR BKN003 10/09 Q1022 NOSIG",
      "taf": "TAF LEMG 252300Z 2600/2624 28004KT 9999 FEW015 TX20/2614Z TN08/2607Z"
    },
    {
      "icao": "LEVC",
      "alert": "OK",
      "vis_m": 9999,
      "fzfg": false,
      "metar_trigger": false,
      "taf_trigger": false,
      "metar": "METAR LEVC 260300Z 32004KT CAVOK 10/08 Q1026 NOSIG",
      "taf": "TAF LEVC 252300Z 2600/2624 VRB04KT 9999 BKN015 TX21/2612Z TN06/2605Z"
    },
    {
      "icao": "LEXJ",
      "alert": "OK",
      "vis_m": 9000,
      "fzfg": false,
      "metar_trigger": false,
      "taf_trigger": false,
      "metar": "METAR LEXJ 260300Z AUTO 17001KT 9000 NCD 08/07 Q1024",
      "taf": "TAF LEXJ 260200Z 2603/2703 04009KT CAVOK TX17/2614Z TN08/2606Z"
    },
    {
      "icao": "LEZG",
      "alert": "OK",
      "vis_m": 9999,
      "fzfg": false,
      "metar_trigger": false,
      "taf_trigger": false,
      "metar": "METAR LEZG 260300Z 07002KT CAVOK 08/07 Q1025 NOSIG",
      "taf": "TAF LEZG 252300Z 2600/2624 11010KT CAVOK TX20/2615Z TN05/2606Z"
    },
    {
      "icao": "LEZL",
      "alert": "OK",
      "vis_m": 9000,
      "fzfg": false,
      "metar_trigger": false,
      "taf_trigger": false,
      "metar": "METAR LEZL 260300Z AUTO 01006KT 9000 NCD 11/09 Q1020",
      "taf": "TAF LEZL 260200Z 2603/2703 VRB02KT CAVOK TX24/2615Z TN09/2607Z"
    },
    {
      "icao": "LFBD",
      "alert": "OK",
      "vis_m": 9999,
      "fzfg": false,
      "metar_trigger": false,
      "taf_trigger": false,
      "metar": "METAR LFBD 260300Z AUTO 14005KT CAVOK 09/08 Q1024 TEMPO 0800 FG VV///",
      "taf": "TAF LFBD 252300Z 2600/2706 12005KT CAVOK TX20/2615Z TN07/2606Z"
    },
    {
      "icao": "LFLL",
      "alert": "OK",
      "vis_m": 9999,
      "fzfg": false,
      "metar_trigger": false,
      "taf_trigger": false,
      "metar": "METAR LFLL 260300Z 12006KT CAVOK 10/07 Q1025 NOSIG",
      "taf": "TAF LFLL 252300Z 2600/2706 16008KT CAVOK"
    },
    {
      "icao": "LFLS",
      "alert": "OK",
      "vis_m": 9999,
      "fzfg": false,
      "metar_trigger": false,
      "taf_trigger": false,
      "metar": "METAR LFLS 260300Z AUTO 08005KT 060V120 CAVOK 05/04 Q1025 TEMPO 0400 FG VV///",
      "taf": "TAF LFLS 260200Z 2603/2703 09006KT CAVOK"
    },
    {
      "icao": "LFMN",
      "alert": "OK",
      "vis_m": 9999,
      "fzfg": false,
      "metar_trigger": false,
      "taf_trigger": false,
      "metar": "METAR LFMN 260300Z 33009KT CAVOK 11/07 Q1026 NOSIG",
      "taf": "TAF LFMN 260200Z 2603/2709 34010KT 9999 SCT030"
    },
    {
      "icao": "LFOB",
      "alert": "OK",
      "vis_m": 8000,
      "fzfg": false,
      "metar_trigger": false,
      "taf_trigger": false,
      "metar": "METAR LFOB 260300Z AUTO 16001KT 8000 NSC 07/07 Q1020 TEMPO 0900 FG VV///",
      "taf": "TAF LFOB 252300Z 2600/2624 19009KT CAVOK"
    },
    {
      "icao": "LFPO",
      "alert": "OK",
      "vis_m": 9999,
      "fzfg": false,
      "metar_trigger": false,
      "taf_trigger": false,
      "metar": "METAR LFPO 260300Z AUTO 17004KT CAVOK 10/08 Q1021 NOSIG",
      "taf": ""
    },
    {
      "icao": "LFSB",
      "alert": "OK",
      "vis_m": 9999,
      "fzfg": false,
      "metar_trigger": false,
      "taf_trigger": false,
      "metar": "METAR LFSB 260300Z AUTO 19005KT CAVOK 06/06 Q1024 TEMPO 4000 BR OVC003",
      "taf": "TAF LFSB 252300Z 2600/2624 30003KT 6000 SCT003"
    },
    {
      "icao": "LGAV",
      "alert": "OK",
      "vis_m": 9999,
      "fzfg": false,
      "metar_trigger": false,
      "taf_trigger": false,
      "metar": "METAR LGAV 260320Z 28003KT 9999 FEW025 04/01 Q1022 NOSIG",
      "taf": "TAF LGAV 252300Z 2600/2624 28010KT 9999 FEW025"
    },
    {
      "icao": "LGTS",
      "alert": "OK",
      "vis_m": 9999,
      "fzfg": false,
      "metar_trigger": false,
      "taf_trigger": false,
      "metar": "METAR LGTS 260320Z 33009KT 9999 FEW030 11/02 Q1023 NOSIG",
      "taf": "TAF LGTS 252300Z 2600/2624 34015KT 9999 FEW030"
    },
    {
      "icao": "LHBP",
      "alert": "OK",
      "vis_m": 9999,
      "fzfg": false,
      "metar_trigger": false,
      "taf_trigger": false,
      "metar": "METAR LHBP 260300Z VRB01KT CAVOK M02/M04 Q1029 NOSIG",
      "taf": "TAF LHBP 252315Z 2600/2624 08012KT CAVOK"
    },
    {
      "icao": "LHDC",
      "alert": "OK",
      "vis_m": 9999,
      "fzfg": false,
      "metar_trigger": false,
      "taf_trigger": false,
      "metar": "METAR LHDC 260245Z AUTO 01005KT 340V040 CAVOK M01/M04 Q1029",
      "taf": "TAF LHDC 260215Z 2603/2612 02006KT CAVOK"
    },
    {
      "icao": "LIBD",
      "alert": "OK",
      "vis_m": 9999,
      "fzfg": false,
      "metar_trigger": false,
      "taf_trigger": false,
      "metar": "METAR LIBD 260320Z 26006KT CAVOK 08/05 Q1026",
      "taf": "TAF LIBD 252300Z 2600/2624 25006KT CAVOK"
    },
    {
      "icao": "LIBG",
      "alert": "OK",
      "vis_m": null,
      "fzfg": false,
      "metar_trigger": false,
      "taf_trigger": false,
      "metar": "",
      "taf": "TAF LIBG 251700Z 2518/2603 35006KT CAVOK"
    },
    {
      "icao": "LIBP",
      "alert": "OK",
      "vis_m": 5000,
      "fzfg": false,
      "metar_trigger": false,
      "taf_trigger": false,
      "metar": "METAR LIBP 260320Z AUTO 23004KT 5000 BR NCD 05/05 Q1027",
      "taf": "TAF LIBP 252300Z 2600/2624 VRB05KT 7000 FEW040"
    },
    {
      "icao": "LIBR",
      "alert": "OK",
      "vis_m": 9999,
      "fzfg": false,
      "metar_trigger": false,
      "taf_trigger": false,
      "metar": "METAR LIBR 260320Z 31010KT CAVOK 11/09 Q1024",
      "taf": "TAF LIBR 252300Z 2600/2624 29008KT CAVOK"
    },
    {
      "icao": "LICA",
      "alert": "OK",
      "vis_m": 9999,
      "fzfg": false,
      "metar_trigger": false,
      "taf_trigger": false,
      "metar": "METAR LICA 260320Z AUTO 10003KT 9999 OVC017/// 09/09 Q1026",
      "taf": "TAF LICA 252300Z 2600/2624 VRB05KT 9999 FEW030"
    },
    {
      "icao": "LICC",
      "alert": "OK",
      "vis_m": 9999,
      "fzfg": false,
      "metar_trigger": false,
      "taf_trigger": false,
      "metar": "METAR LICC 260320Z 25006KT CAVOK 08/06 Q1025",
      "taf": "TAF LICC 252300Z 2600/2624 24007KT CAVOK"
    },
    {
      "icao": "LICJ",
      "alert": "OK",
      "vis_m": 9999,
      "fzfg": false,
      "metar_trigger": false,
      "taf_trigger": false,
      "metar": "METAR LICJ 260320Z 17002KT CAVOK 11/10 Q1026",
      "taf": "TAF LICJ 252300Z 2600/2624 20007KT CAVOK"
    },
    {
      "icao": "LIMC",
      "alert": "OK",
      "vis_m": 9999,
      "fzfg": false,
      "metar_trigger": false,
      "taf_trigger": false,
      "metar": "METAR LIMC 260320Z 01003KT CAVOK 02/02 Q1026 NOSIG",
      "taf": "TAF LIMC 252300Z 2600/2706 VRB04KT 7000 FEW030"
    },
    {
      "icao": "LIME",
      "alert": "OK",
      "vis_m": 5000,
      "fzfg": false,
      "metar_trigger": false,
      "taf_trigger": false,
      "metar": "METAR LIME 260320Z 01004KT 5000 BR NSC 06/04 Q1026 NOSIG",
      "taf": "TAF LIME 252300Z 2600/2624 VRB05KT 8000 FEW030"
    },
    {
      "icao": "LIMF",
      "alert": "OK",
      "vis_m": 8000,
      "fzfg": false,
      "metar_trigger": false,
      "taf_trigger": false,
      "metar": "METAR LIMF 260320Z 27003KT 8000 NSC 05/02 Q1026",
      "taf": "TAF LIMF 252300Z 2600/2624 VRB04KT 6000 FEW040"
    },
    {
      "icao": "LIMJ",
      "alert": "OK",
      "vis_m": 9999,
      "fzfg": false,
      "metar_trigger": false,
      "taf_trigger": false,
      "metar": "METAR LIMJ 260320Z 04010KT 9999 FEW040 13/07 Q1026",
      "taf": "TAF LIMJ 252300Z 2600/2624 04012KT CAVOK"
    },
    {
      "icao": "LIPE",
      "alert": "OK",
      "vis_m": 6000,
      "fzfg": false,
      "metar_trigger": false,
      "taf_trigger": false,
      "metar": "METAR LIPE 260320Z 24003KT 6000 BKN030 11/09 Q1027",
      "taf": "TAF LIPE 252300Z 2600/2624 VRB04KT 3000 BR BKN020"
    },
    {
      "icao": "LIPH",
      "alert": "OK",
      "vis_m": 900,
      "fzfg": false,
      "metar_trigger": false,
      "taf_trigger": false,
      "metar": "METAR LIPH 260320Z AUTO 04003KT 020V080 0900 0150W R07/0450D FG VV002 06/06 Q1027",
      "taf": "TAF LIPH 252300Z 2600/2624 VRB04KT 4000 BR NSC"
    },
    {
      "icao": "LIPQ",
      "alert": "OK",
      "vis_m": 550,
      "fzfg": false,
      "metar_trigger": false,
      "taf_trigger": false,
      "metar": "METAR LIPQ 260320Z AUTO VRB01KT 0550 R09/1400U BCFG SCT002/// 02/02 Q1027",
      "taf": ""
    },
    {
      "icao": "LIPR",
      "alert": "OK",
      "vis_m": 4200,
      "fzfg": false,
      "metar_trigger": false,
      "taf_trigger": false,
      "metar": "METAR LIPR 260320Z AUTO 19002KT 4200 BR OVC040/// 11/10 Q1027",
      "taf": "TAF LIPR 252300Z 2600/2624 VRB04KT 4000 BR BKN030"
    },
    {
      "icao": "LIPX",
      "alert": "OK",
      "vis_m": 1500,
      "fzfg": false,
      "metar_trigger": false,
      "taf_trigger": false,
      "metar": "METAR LIPX 260320Z 36002KT 1500 BCFG FEW030 05/05 Q1026",
      "taf": "TAF LIPX 252300Z 2600/2624 VRB05KT 6000 FEW030"
    },
    {
      "icao": "LIPY",
      "alert": "OK",
      "vis_m": 5000,
      "fzfg": false,
      "metar_trigger": false,
      "taf_trigger": false,
      "metar": "METAR LIPY 260320Z AUTO 21002KT 5000 BR OVC042/// 10/10 Q1027",
      "taf": "TAF LIPY 252300Z 2600/2624 VRB04KT 3000 BR SCT030"
    },
    {
      "icao": "LIPZ",
      "alert": "OK",
      "vis_m": 100,
      "fzfg": false,
      "metar_trigger": false,
      "taf_trigger": false,
      "metar": "METAR LIPZ 260320Z 02005KT 0100 R04R/0225N FG VV001 05/05 Q1027 NOSIG",
      "taf": "TAF LIPZ 252300Z 2600/2706 VRB04KT 4000 BR NSC"
    },
    {
      "icao": "LIRF",
      "alert": "OK",
      "vis_m": 9999,
      "fzfg": false,
      "metar_trigger": false,
      "taf_trigger": false,
      "metar": "METAR LIRF 260320Z 02003KT 9999 MIFG NSC 07/07 Q1026 NOSIG",
      "taf": "TAF LIRF 252300Z 2600/2706 VRB05KT 4000 BCFG FEW030"
    },
    {
      "icao": "LIRN",
      "alert": "OK",
      "vis_m": 8000,
      "fzfg": false,
      "metar_trigger": false,
      "taf_trigger": false,
      "metar": "METAR LIRN 260320Z 35003KT 8000 NSC 08/07 Q1026 NOSIG",
      "taf": "TAF LIRN 252300Z 2600/2624 VRB05KT CAVOK"
    },
    {
      "icao": "LIRP",
      "alert": "OK",
      "vis_m": 600,
      "fzfg": false,
      "metar_trigger": false,
      "taf_trigger": false,
      "metar": "METAR LIRP 260315Z 10003KT 0600 R04R/0500 FG NSC 08/08 Q1027 NOSIG",
      "taf": "TAF LIRP 252300Z 2600/2624 VRB03KT 3000 BR NSC"
    },
    {
      "icao": "LIRZ",
      "alert": "OK",
      "vis_m": 9999,
      "fzfg": false,
      "metar_trigger": false,
      "taf_trigger": false,
      "metar": "METAR LIRZ 260320Z AUTO 01005KT 9999 NCD 06/05 Q1026",
      "taf": "TAF LIRZ 252300Z 2600/2624 VRB05KT 8000 FEW030"
    },
    {
      "icao": "LJLJ",
      "alert": "OK",
      "vis_m": 9999,
      "fzfg": false,
      "metar_trigger": false,
      "taf_trigger": false,
      "metar": "METAR LJLJ 260300Z 32001KT CAVOK M01/M01 Q1027 NOSIG",
      "taf": "TAF LJLJ 252300Z 2600/2700 VRB02KT CAVOK"
    },
    {
      "icao": "LKMT",
      "alert": "OK",
      "vis_m": 4000,
      "fzfg": false,
      "metar_trigger": false,
      "taf_trigger": false,
      "metar": "METAR LKMT 260300Z 23001KT 4000 BR MIFG NSC M01/M01 Q1028 TEMPO 2500 BR BCFG",
      "taf": "TAF LKMT 252300Z 2600/2624 VRB02KT 9999 FEW025"
    },
    {
      "icao": "LKPR",
      "alert": "OK",
      "vis_m": 5000,
      "fzfg": false,
      "metar_trigger": false,
      "taf_trigger": false,
      "metar": "METAR LKPR 260300Z VRB01KT 5000 BR MIFG NSC 00/00 Q1025 BECMG 2000 BR BCFG SCT004",
      "taf": "TAF LKPR 260200Z 2603/2709 17005KT 3000 BR SCT005"
    },
    {
      "icao": "LLBG",
      "alert": "OK",
      "vis_m": 9999,
      "fzfg": false,
      "metar_trigger": false,
      "taf_trigger": false,
      "metar": "METAR LLBG 260320Z 20011KT 9999 FEW050 13/08 Q1015 TEMPO 8000 RA BKN030 RMK SCT070",
      "taf": "TAF LLBG 252306Z 2600/2624 19008KT 9999 SCT040 TX18/2612Z TN12/2604Z"
    },
    {
      "icao": "LMML",
      "alert": "OK",
      "vis_m": 9999,
      "fzfg": false,
      "metar_trigger": false,
      "taf_trigger": false,
      "metar": "METAR LMML 260315Z 05002KT 9999 FEW016 11/10 Q1025 NOSIG",
      "taf": "TAF LMML 252300Z 2600/2624 VRB06KT 9999 SCT015"
    },
    {
      "icao": "LOWW",
      "alert": "OK",
      "vis_m": 9999,
      "fzfg": false,
      "metar_trigger": false,
      "taf_trigger": false,
      "metar": "METAR LOWW 260320Z 12006KT CAVOK 03/M00 Q1028 NOSIG",
      "taf": "TAF LOWW 260215Z 2603/2709 VRB04KT CAVOK TX09/2614Z TN00/2605Z"
    },
    {
      "icao": "LPFR",
      "alert": "OK",
      "vis_m": 9999,
      "fzfg": false,
      "metar_trigger": false,
      "taf_trigger": false,
      "metar": "METAR LPFR 260300Z 34004KT 260V020 CAVOK 12/10 Q1020",
      "taf": "TAF LPFR 252300Z 2600/2624 07007KT CAVOK"
    },
    {
      "icao": "LPMA",
      "alert": "OK",
      "vis_m": 9999,
      "fzfg": false,
      "metar_trigger": false,
      "taf_trigger": false,
      "metar": "METAR LPMA 260300Z 01017G30KT 330V060 9999 BKN015 15/10 Q1022",
      "taf": "TAF LPMA 252300Z 2600/2624 01017G27KT 9999 SCT015"
    },
    {
      "icao": "LPPR",
      "alert": "OK",
      "vis_m": 5000,
      "fzfg": false,
      "metar_trigger": false,
      "taf_trigger": false,
      "metar": "METAR LPPR 260300Z 00000KT 5000 1700N MIFG FEW002 09/09 Q1022",
      "taf": "TAF LPPR 252300Z 2600/2624 VRB02KT 5000 BR NSC"
    },
    {
      "icao": "LPPS",
      "alert": "OK",
      "vis_m": 9999,
      "fzfg": false,
      "metar_trigger": false,
      "taf_trigger": false,
      "metar": "METAR LPPS 260300Z 01016KT 9999 SCT014 15/10 Q1022",
      "taf": "TAF LPPS 252300Z 2600/2706 01015KT 9999 SCT015 SCT030"
    },
    {
      "icao": "LPPT",
      "alert": "OK",
      "vis_m": 9999,
      "fzfg": false,
      "metar_trigger": false,
      "taf_trigger": false,
      "metar": "METAR LPPT 260300Z 32005KT 280V340 CAVOK 12/11 Q1021",
      "taf": "TAF LPPT 252300Z 2600/2706 35008KT CAVOK"
    },
    {
      "icao": "LQBK",
      "alert": "OK",
      "vis_m": 9999,
      "fzfg": false,
      "metar_trigger": false,
      "taf_trigger": false,
      "metar": "METAR LQBK 260300Z 14004KT CAVOK 01/M00 Q1027 NOSIG",
      "taf": "TAF LQBK 252300Z 2600/2624 16005KT CAVOK TX15/2613Z TN01/2606Z"
    },
    {
      "icao": "LQSA",
      "alert": "OK",
      "vis_m": 9999,
      "fzfg": false,
      "metar_trigger": false,
      "taf_trigger": false,
      "metar": "METAR LQSA 260300Z 15001KT CAVOK M02/M02 Q1027",
      "taf": "TAF LQSA 252300Z 2600/2624 VRB02KT CAVOK TX15/2614Z TNM01/2605Z"
    },
    {
      "icao": "LQTZ",
      "alert": "OK",
      "vis_m": 7000,
      "fzfg": false,
      "metar_trigger": false,
      "taf_trigger": false,
      "metar": "METAR LQTZ 260300Z 00000KT 7000 FEW042 M02/M02 Q1027",
      "taf": "TAF LQTZ 252300Z 2600/2624 VRB02KT CAVOK TX14/2614Z TNM01/2606Z"
    },
    {
      "icao": "LRBC",
      "alert": "OK",
      "vis_m": 3500,
      "fzfg": false,
      "metar_trigger": false,
      "taf_trigger": false,
      "metar": "METAR LRBC 260300Z COR 32011KT 3500 -SHSN FEW026CB OVC026 00/M02 Q1028",
      "taf": "TAF LRBC 260200Z 2603/2612 32010KT 9999 BKN030"
    },
    {
      "icao": "LRBS",
      "alert": "OK",
      "vis_m": 9999,
      "fzfg": false,
      "metar_trigger": false,
      "taf_trigger": false,
      "metar": "METAR LRBS 260300Z 06013KT CAVOK 01/M02 Q1027 NOSIG",
      "taf": "TAF LRBS 252300Z 2600/2624 07010KT 9999 BKN045"
    },
    {
      "icao": "LRBV",
      "alert": "OK",
      "vis_m": 9999,
      "fzfg": false,
      "metar_trigger": false,
      "taf_trigger": false,
      "metar": "METAR LRBV 260300Z AUTO 00000KT 9999 SG OVC040/// M02/M04 Q1026 REDZ",
      "taf": "TAF LRBV 260200Z 2603/2612 VRB04KT CAVOK"
    },
    {
      "icao": "LRCL",
      "alert": "OK",
      "vis_m": 9999,
      "fzfg": false,
      "metar_trigger": false,
      "taf_trigger": false,
      "metar": "METAR LRCL 260300Z 28001KT CAVOK M03/M05 Q1027",
      "taf": "TAF LRCL 260200Z 2603/2612 VRB04KT CAVOK"
    },
    {
      "icao": "LRCV",
      "alert": "OK",
      "vis_m": 9999,
      "fzfg": false,
      "metar_trigger": false,
      "taf_trigger": false,
      "metar": "METAR LRCV 260300Z 06007KT 040V100 CAVOK 01/M00 Q1025",
      "taf": "TAF LRCV 260200Z 2603/2612 08010KT CAVOK"
    },
    {
      "icao": "LRIA",
      "alert": "OK",
      "vis_m": 9999,
      "fzfg": false,
      "metar_trigger": false,
      "taf_trigger": false,
      "metar": "METAR LRIA 260300Z 31009KT 9999 BKN014 BKN040 M00/M02 Q1027",
      "taf": "TAF LRIA 260200Z 2603/2612 32012KT 9999 BKN030"
    },
    {
      "icao": "LROP",
      "alert": "OK",
      "vis_m": 9999,
      "fzfg": false,
      "metar_trigger": false,
      "taf_trigger": false,
      "metar": "METAR LROP 260300Z 08012KT CAVOK 01/M04 Q1027 NOSIG",
      "taf": "TAF LROP 252300Z 2600/2624 07010KT 9999 BKN045"
    },
    {
      "icao": "LRSB",
      "alert": "OK",
      "vis_m": 9999,
      "fzfg": false,
      "metar_trigger": false,
      "taf_trigger": false,
      "metar": "METAR LRSB 260300Z 31007KT 9999 SCT040 M01/M04 Q1026",
      "taf": "TAF LRSB 252300Z 2600/2624 VRB04KT 9999 BKN045"
    },
    {
      "icao": "LRSM",
      "alert": "OK",
      "vis_m": 9999,
      "fzfg": false,
      "metar_trigger": false,
      "taf_trigger": false,
      "metar": "METAR LRSM 260300Z AUTO 06006KT 9999 NCD M02/M05 Q1029",
      "taf": "TAF LRSM 260200Z 2603/2612 VRB04KT 9999 BKN045"
    },
    {
      "icao": "LRSV",
      "alert": "OK",
      "vis_m": 9999,
      "fzfg": false,
      "metar_trigger": false,
      "taf_trigger": false,
      "metar": "METAR LRSV 260300Z 30013KT 9999 -SN BKN011 M02/M03 Q1026",
      "taf": "TAF LRSV 260200Z 2603/2612 32012KT 9999 BKN030"
    },
    {
      "icao": "LRTM",
      "alert": "OK",
      "vis_m": 9999,
      "fzfg": false,
      "metar_trigger": false,
      "taf_trigger": false,
      "metar": "METAR LRTM 260300Z AUTO 26006KT 9999 NCD M02/M06 Q1027",
      "taf": "TAF LRTM 260200Z 2603/2612 VRB04KT CAVOK"
    },
    {
      "icao": "LRTR",
      "alert": "OK",
      "vis_m": 9999,
      "fzfg": false,
      "metar_trigger": false,
      "taf_trigger": false,
      "metar": "METAR LRTR 260300Z 36012KT CAVOK 00/M01 Q1026",
      "taf": "TAF LRTR 252300Z 2600/2624 02010KT CAVOK"
    },
    {
      "icao": "LTAC",
      "alert": "OK",
      "vis_m": 9999,
      "fzfg": false,
      "metar_trigger": false,
      "taf_trigger": false,
      "metar": "METAR LTAC 260320Z 02003KT 340V050 9999 FEW040 M03/M07 Q1015 NOSIG RMK RWY21C VRB02KT RWY03L 01003KT 330V070 RWY21R VRB01KT RWY03R VRB02KT RWY21L VRB02KT",
      "taf": "TAF LTAC 252240Z 2600/2624 VRB02KT 9999 SCT040"
    },
    {
      "icao": "LTFM",
      "alert": "OK",
      "vis_m": 8000,
      "fzfg": false,
      "metar_trigger": false,
      "taf_trigger": false,
      "metar": "METAR LTFM 260320Z 34008KT 8000 -SHRASN SCT009 FEW018TCU BKN025 03/02 Q1022 NOSIG RMK RWY17L 03006KT 320V050 RWY34L 33006KT RWY16R 32004KT RWY36 34007KT 290V350 RWY18 34008KT",
      "taf": "TAF LTFM 252240Z 2600/2706 01015KT 9999 -SHRASN SCT012 BKN025"
    },
    {
      "icao": "LUKK",
      "alert": "OK",
      "vis_m": 9999,
      "fzfg": false,
      "metar_trigger": false,
      "taf_trigger": false,
      "metar": "METAR LUKK 260300Z 33010KT CAVOK M01/M03 Q1026 NOSIG",
      "taf": "TAF LUKK 252320Z 2600/2624 34010KT 9999 BKN020"
    },
    {
      "icao": "LWOH",
      "alert": "OK",
      "vis_m": null,
      "fzfg": false,
      "metar_trigger": false,
      "taf_trigger": false,
      "metar": "",
      "taf": "TAF LWOH 260210Z 2603/2703 VRB03KT CAVOK"
    },
    {
      "icao": "LWSK",
      "alert": "OK",
      "vis_m": 9999,
      "fzfg": false,
      "metar_trigger": false,
      "taf_trigger": false,
      "metar": "METAR LWSK 260250Z VRB02KT CAVOK M00/M02 Q1025 NOSIG",
      "taf": "TAF LWSK 260210Z 2603/2703 VRB02KT CAVOK"
    },
    {
      "icao": "LYBE",
      "alert": "OK",
      "vis_m": 9999,
      "fzfg": false,
      "metar_trigger": false,
      "taf_trigger": false,
      "metar": "METAR LYBE 260300Z 33003KT CAVOK 01/M00 Q1027 NOSIG",
      "taf": "TAF LYBE 252300Z 2600/2624 30005KT 9999 SCT040 TX12/2613Z TNM00/2605Z"
    },
    {
      "icao": "LYNI",
      "alert": "OK",
      "vis_m": 9999,
      "fzfg": false,
      "metar_trigger": false,
      "taf_trigger": false,
      "metar": "METAR LYNI 260300Z 33003KT 9999 BKN057 03/02 Q1026 NOSIG",
      "taf": "TAF LYNI 252300Z 2600/2624 34005KT 9999 BKN040 TX11/2613Z TNM00/2605Z"
    },
    {
      "icao": "LYPG",
      "alert": "OK",
      "vis_m": 9999,
      "fzfg": false,
      "metar_trigger": false,
      "taf_trigger": false,
      "metar": "METAR LYPG 260300Z 32009KT CAVOK 09/M02 Q1024 NOSIG",
      "taf": "TAF LYPG 252300Z 2600/2624 34005KT CAVOK TX19/2613Z TN06/2605Z"
    },
    {
      "icao": "LZIB",
      "alert": "OK",
      "vis_m": 9999,
      "fzfg": false,
      "metar_trigger": false,
      "taf_trigger": false,
      "metar": "METAR LZIB 260300Z 02005KT CAVOK 01/M00 Q1028 NOSIG",
      "taf": "TAF LZIB 252315Z 2600/2700 05006KT 9999 FEW035"
    },
    {
      "icao": "LZKZ",
      "alert": "OK",
      "vis_m": 9999,
      "fzfg": false,
      "metar_trigger": false,
      "taf_trigger": false,
      "metar": "METAR LZKZ 260300Z 36009KT CAVOK M01/M05 Q1029 NOSIG",
      "taf": "TAF LZKZ 252315Z 2600/2700 02007KT CAVOK"
    },
    {
      "icao": "LZTT",
      "alert": "OK",
      "vis_m": 9999,
      "fzfg": false,
      "metar_trigger": false,
      "taf_trigger": false,
      "metar": "METAR LZTT 260300Z 25003KT 9999 FEW011 SCT033 M04/M06 Q1026",
      "taf": "TAF LZTT 252315Z 2600/2700 VRB02KT 9999 BKN035"
    },
    {
      "icao": "OEJN",
      "alert": "OK",
      "vis_m": 9999,
      "fzfg": false,
      "metar_trigger": false,
      "taf_trigger": false,
      "metar": "METAR OEJN 260300Z 36002KT 9999 FEW040 23/14 Q1011 NOSIG",
      "taf": "TAF OEJN 252300Z 2600/2706 VRB03KT CAVOK"
    },
    {
      "icao": "OEMA",
      "alert": "OK",
      "vis_m": 9999,
      "fzfg": false,
      "metar_trigger": false,
      "taf_trigger": false,
      "metar": "METAR OEMA 260300Z 02006KT CAVOK 17/M04 Q1018 NOSIG",
      "taf": "TAF OEMA 252300Z 2600/2706 VRB03KT 7000 NSC"
    },
    {
      "icao": "OJAI",
      "alert": "OK",
      "vis_m": 4000,
      "fzfg": false,
      "metar_trigger": false,
      "taf_trigger": false,
      "metar": "METAR OJAI 260300Z 24004KT 4000 BR NSC 05/03 Q1016 NOSIG",
      "taf": "TAF OJAI 252300Z 2600/2706 28012KT 5000 HZ SCT030"
    },
    {
      "icao": "OMAA",
      "alert": "OK",
      "vis_m": 9999,
      "fzfg": false,
      "metar_trigger": false,
      "taf_trigger": false,
      "metar": "METAR OMAA 260330Z 31005KT CAVOK 22/17 Q1014 NOSIG",
      "taf": "TAF OMAA 252300Z 2600/2706 VRB02KT 7000 FEW015"
    },
    {
      "icao": "OMDB",
      "alert": "OK",
      "vis_m": 2000,
      "fzfg": false,
      "metar_trigger": false,
      "taf_trigger": false,
      "metar": "METAR OMDB 260330Z 15005KT 2000 HZ SCT020 20/17 Q1014 BECMG 5000",
      "taf": "TAF OMDB 252300Z 2600/2706 18005KT 4000 HZ SCT018"
    },
    {
      "icao": "UAAA",
      "alert": "OK",
      "vis_m": 4000,
      "fzfg": false,
      "metar_trigger": false,
      "taf_trigger": false,
      "metar": "SPECI UAAA 260312Z 23005MPS 4000 BR OVC006 M04/M05 Q1011 NOSIG RMK QBB190",
      "taf": "TAF UAAA 252301Z 2600/2624 21003G08MPS 3100 BR BKN011CB OVC020 TX01/2608Z TNM07/2602Z"
    },
    {
      "icao": "UBBB",
      "alert": "OK",
      "vis_m": 9999,
      "fzfg": false,
      "metar_trigger": false,
      "taf_trigger": false,
      "metar": "METAR UBBB 260330Z 05002KT 9999 OVC022 07/06 Q1017 NOSIG",
      "taf": "TAF UBBB 252300Z 2600/2624 VRB04KT 9999 BKN012 OVC020 TX11/2610Z TN04/2601Z"
    },
    {
      "icao": "UDSG",
      "alert": "OK",
      "vis_m": 9999,
      "fzfg": false,
      "metar_trigger": false,
      "taf_trigger": false,
      "metar": "METAR UDSG 260300Z 05004KT 9999 BKN040 M02/M02 Q1012 NOSIG",
      "taf": "TAF UDSG 252258Z 2600/2624 VRB04KT 3000 BR BKN030"
    },
    {
      "icao": "UDYZ",
      "alert": "OK",
      "vis_m": 9999,
      "fzfg": false,
      "metar_trigger": false,
      "taf_trigger": false,
      "metar": "METAR UDYZ 260300Z 07007KT 9999 FEW046 06/M03 Q1012 NOSIG",
      "taf": "TAF UDYZ 252300Z 2600/2624 20006KT 9999 SCT040"
    },
    {
      "icao": "UGKO",
      "alert": "OK",
      "vis_m": 9999,
      "fzfg": false,
      "metar_trigger": false,
      "taf_trigger": false,
      "metar": "METAR UGKO 260300Z 26005KT 9999 -SHRA BKN011CB OVC023 OVC000 07/06 Q1013 NOSIG",
      "taf": "TAF UGKO 252300Z 2600/2624 27007KT 9999 SCT023 OVC050 TX07/2600Z TN03/2624Z"
    }
  ]
}