{
  "ts_utc": "2026-02-03T07:28:41Z",
  "threshold_m": 150,
  "source": "stations_override.txt (ICAO list) + aviationweather.gov (METAR/TAF raw)",
  "station_count": 159,
  "stations": [
    {
      "icao": "BIKF",
      "alert": "OK",
      "vis_m": 9999,
      "fzfg": false,
      "metar_trigger": false,
      "taf_trigger": false,
      "metar": "METAR BIKF 030700Z 11024KT 9999 BKN033 06/02 Q1006",
      "taf": "TAF BIKF 030447Z 0306/0406 11022G32KT 9999 -SHRA FEW020 BKN035 TX06/0306Z TN01/0406Z"
    },
    {
      "icao": "BKPR",
      "alert": "OK",
      "vis_m": null,
      "fzfg": false,
      "metar_trigger": false,
      "taf_trigger": false,
      "metar": "",
      "taf": "TAF BKPR 030530Z 0306/0406 17008KT 1500 BR SCT008"
    },
    {
      "icao": "EBCI",
      "alert": "OK",
      "vis_m": 6000,
      "fzfg": false,
      "metar_trigger": false,
      "taf_trigger": false,
      "metar": "METAR EBCI 030720Z 07007KT 6000 -RA SCT030 BKN045 03/02 Q0992 TEMPO 4000 -RADZ",
      "taf": "TAF EBCI 030520Z 0306/0412 11010KT 9999 SCT020 BKN035"
    },
    {
      "icao": "EDDB",
      "alert": "OK",
      "vis_m": 9999,
      "fzfg": false,
      "metar_trigger": false,
      "taf_trigger": false,
      "metar": "METAR EDDB 030720Z AUTO 09014KT 9999 BKN017 M08/M14 Q1012 NOSIG",
      "taf": "TAF EDDB 030500Z 0306/0406 08012G22KT 9999 BKN035"
    },
    {
      "icao": "EDDH",
      "alert": "OK",
      "vis_m": 9999,
      "fzfg": false,
      "metar_trigger": false,
      "taf_trigger": false,
      "metar": "METAR EDDH 030720Z AUTO 10011KT 9999 SCT041 M07/M12 Q1010 TEMPO 09015G25KT",
      "taf": "TAF EDDH 030500Z 0306/0412 09013KT 9999 FEW020 BKN035"
    },
    {
      "icao": "EDDK",
      "alert": "OK",
      "vis_m": 9999,
      "fzfg": false,
      "metar_trigger": false,
      "taf_trigger": false,
      "metar": "METAR EDDK 030720Z AUTO 11009KT 070V150 CAVOK 01/M03 Q0997 NOSIG",
      "taf": "TAF EDDK 030500Z 0306/0412 12010KT 9999 FEW015 BKN045"
    },
    {
      "icao": "EDDN",
      "alert": "OK",
      "vis_m": 9999,
      "fzfg": false,
      "metar_trigger": false,
      "taf_trigger": false,
      "metar": "METAR EDDN 030720Z AUTO 09009KT 070V130 9999 FEW012 M00/M03 Q1000 NOSIG",
      "taf": ""
    },
    {
      "icao": "EDDS",
      "alert": "OK",
      "vis_m": 9000,
      "fzfg": false,
      "metar_trigger": false,
      "taf_trigger": false,
      "metar": "METAR EDDS 030720Z AUTO 07011KT 9000 NSC M01/M03 Q0996 TEMPO -FZRA",
      "taf": "TAF EDDS 030500Z 0306/0406 07004KT 9999 BKN045"
    },
    {
      "icao": "EDFH",
      "alert": "OK",
      "vis_m": 4400,
      "fzfg": false,
      "metar_trigger": false,
      "taf_trigger": false,
      "metar": "METAR EDFH 030720Z 13018KT 4400 -FZRA BR OVC002 M01/M02 Q0995",
      "taf": "TAF EDFH 030500Z 0306/0406 13015KT 6000 OVC005"
    },
    {
      "icao": "EDJA",
      "alert": "OK",
      "vis_m": 4500,
      "fzfg": false,
      "metar_trigger": false,
      "taf_trigger": false,
      "metar": "METAR EDJA 030720Z 07008KT 040V100 4500 BR OVC004 M03/M04 Q0996",
      "taf": ""
    },
    {
      "icao": "EDLW",
      "alert": "OK",
      "vis_m": 9999,
      "fzfg": false,
      "metar_trigger": false,
      "taf_trigger": false,
      "metar": "METAR EDLW 030650Z COR 03011KT CAVOK M02/M04 Q0998",
      "taf": "TAF EDLW 030500Z 0306/0406 08010KT 9999 SCT045"
    },
    {
      "icao": "EDNY",
      "alert": "OK",
      "vis_m": 9000,
      "fzfg": false,
      "metar_trigger": false,
      "taf_trigger": false,
      "metar": "METAR EDNY 030720Z 04013KT 9000 SCT043 00/M02 Q0994",
      "taf": "TAF EDNY 030500Z 0306/0315 03009KT CAVOK"
    },
    {
      "icao": "EDSB",
      "alert": "OK",
      "vis_m": 9000,
      "fzfg": false,
      "metar_trigger": false,
      "taf_trigger": false,
      "metar": "METAR EDSB 030720Z 02013KT 9000 NSC 02/M01 Q0995",
      "taf": "TAF EDSB 030500Z 0306/0406 03009KT 8000 BKN045"
    },
    {
      "icao": "EETN",
      "alert": "OK",
      "vis_m": 9999,
      "fzfg": false,
      "metar_trigger": false,
      "taf_trigger": false,
      "metar": "METAR EETN 030720Z 04006KT CAVOK M09/M11 Q1026 NOSIG",
      "taf": "TAF EETN 030530Z 0306/0406 03008KT CAVOK"
    },
    {
      "icao": "EFTU",
      "alert": "OK",
      "vis_m": 9999,
      "fzfg": false,
      "metar_trigger": false,
      "taf_trigger": false,
      "metar": "METAR EFTU 030720Z AUTO 05003KT 9999 FEW002 M21/M23 Q1029",
      "taf": "TAF EFTU 030522Z 0306/0406 04003KT CAVOK"
    },
    {
      "icao": "EGBB",
      "alert": "OK",
      "vis_m": 5000,
      "fzfg": false,
      "metar_trigger": false,
      "taf_trigger": false,
      "metar": "METAR EGBB 030720Z 09013KT 5000 HZ OVC008 04/02 Q0993",
      "taf": "TAF EGBB 030500Z 0306/0406 08012KT 7000 BKN010"
    },
    {
      "icao": "EGGP",
      "alert": "OK",
      "vis_m": 9999,
      "fzfg": false,
      "metar_trigger": false,
      "taf_trigger": false,
      "metar": "METAR EGGP 030720Z 09017KT 9999 BKN018 04/01 Q0994",
      "taf": "TAF EGGP 030502Z 0306/0406 09014KT 9999 BKN018"
    },
    {
      "icao": "EGGW",
      "alert": "OK",
      "vis_m": 9000,
      "fzfg": false,
      "metar_trigger": false,
      "taf_trigger": false,
      "metar": "METAR EGGW 030720Z AUTO 09011KT 9000 OVC008 04/02 Q0992",
      "taf": "TAF EGGW 030459Z 0306/0406 08012KT 9999 SCT007 BKN010"
    },
    {
      "icao": "EGKK",
      "alert": "OK",
      "vis_m": 6000,
      "fzfg": false,
      "metar_trigger": false,
      "taf_trigger": false,
      "metar": "METAR EGKK 030720Z 07012KT 6000 -RA OVC007 05/04 Q0991",
      "taf": "TAF EGKK 030459Z 0306/0412 08010KT 9999 BKN010"
    },
    {
      "icao": "EGNM",
      "alert": "OK",
      "vis_m": 7000,
      "fzfg": false,
      "metar_trigger": false,
      "taf_trigger": false,
      "metar": "METAR EGNM 030720Z 08012G22KT 7000 -RA SCT007 BKN009 02/01 Q0997",
      "taf": ""
    },
    {
      "icao": "EGPD",
      "alert": "OK",
      "vis_m": 4400,
      "fzfg": false,
      "metar_trigger": false,
      "taf_trigger": false,
      "metar": "METAR EGPD 030720Z AUTO 10016KT 4400 -RASN BKN008/// OVC016/// //////TCU 02/00 Q1005 RERA TEMPO 2000 RASN BKN004",
      "taf": ""
    },
    {
      "icao": "EGPF",
      "alert": "OK",
      "vis_m": 9999,
      "fzfg": false,
      "metar_trigger": false,
      "taf_trigger": false,
      "metar": "METAR EGPF 030720Z AUTO 07014KT 9999 -RA OVC014 05/03 Q0999",
      "taf": ""
    },
    {
      "icao": "EHBK",
      "alert": "OK",
      "vis_m": 9999,
      "fzfg": false,
      "metar_trigger": false,
      "taf_trigger": false,
      "metar": "METAR EHBK 030725Z AUTO 07013KT 9999 BKN049/// 02/M01 Q0995 NOSIG",
      "taf": "TAF EHBK 030511Z 0306/0412 08010KT 9999 SCT045"
    },
    {
      "icao": "EHEH",
      "alert": "OK",
      "vis_m": null,
      "fzfg": false,
      "metar_trigger": false,
      "taf_trigger": false,
      "metar": "",
      "taf": "TAF EHEH 030552Z 0306/0412 08011KT 9000 BKN018"
    },
    {
      "icao": "EKBI",
      "alert": "OK",
      "vis_m": 9999,
      "fzfg": false,
      "metar_trigger": false,
      "taf_trigger": false,
      "metar": "METAR EKBI 030720Z AUTO 10025G37KT 9999 OVC037/// M03/M12 Q1013",
      "taf": "TAF EKBI 030527Z 0306/0406 10018KT 9999 BKN030"
    },
    {
      "icao": "EKCH",
      "alert": "OK",
      "vis_m": 9999,
      "fzfg": false,
      "metar_trigger": false,
      "taf_trigger": false,
      "metar": "METAR EKCH 030720Z AUTO 11019G31KT 9999 NCD M04/M10 Q1019 TEMPO 10018G28KT",
      "taf": "TAF EKCH 030527Z 0306/0406 10020G30KT 9999 FEW030"
    },
    {
      "icao": "ENAL",
      "alert": "OK",
      "vis_m": 9999,
      "fzfg": false,
      "metar_trigger": false,
      "taf_trigger": false,
      "metar": "METAR ENAL 030720Z 14014KT 9999 BKN029 M02/M08 Q1019",
      "taf": "TAF ENAL 030500Z 0306/0315 14012KT 9999 BKN035"
    },
    {
      "icao": "ENBR",
      "alert": "OK",
      "vis_m": 9999,
      "fzfg": false,
      "metar_trigger": false,
      "taf_trigger": false,
      "metar": "METAR ENBR 030720Z VRB02KT CAVOK M08/M17 Q1019 NOSIG RMK WIND 1200FT 12010KT",
      "taf": "TAF ENBR 030500Z 0306/0406 06005KT CAVOK"
    },
    {
      "icao": "ENGM",
      "alert": "OK",
      "vis_m": 9999,
      "fzfg": false,
      "metar_trigger": false,
      "taf_trigger": false,
      "metar": "METAR ENGM 030720Z VRB02KT 9999 -SN FEW034 OVC041 M10/M12 Q1025 NOSIG",
      "taf": ""
    },
    {
      "icao": "ENHD",
      "alert": "OK",
      "vis_m": 9999,
      "fzfg": false,
      "metar_trigger": false,
      "taf_trigger": false,
      "metar": "METAR ENHD 030720Z 08008KT CAVOK M04/M16 Q1018",
      "taf": "TAF ENHD 030500Z 0306/0315 12010KT CAVOK"
    },
    {
      "icao": "ENTC",
      "alert": "OK",
      "vis_m": 9999,
      "fzfg": false,
      "metar_trigger": false,
      "taf_trigger": false,
      "metar": "METAR ENTC 030720Z 20008KT 9999 SCT038 M01/M03 Q1023 NOSIG RMK WIND 2600FT 23010KT",
      "taf": "TAF ENTC 030500Z 0306/0406 21009KT 9999 FEW020 BKN050"
    },
    {
      "icao": "ENTO",
      "alert": "OK",
      "vis_m": 9999,
      "fzfg": false,
      "metar_trigger": false,
      "taf_trigger": false,
      "metar": "METAR ENTO 030720Z 09006KT 040V120 9999 -SN FEW033 OVC043 M05/M09 Q1024 NOSIG",
      "taf": "TAF ENTO 030500Z 0306/0406 09005KT 9999 BKN040"
    },
    {
      "icao": "ENVA",
      "alert": "OK",
      "vis_m": 9999,
      "fzfg": false,
      "metar_trigger": false,
      "taf_trigger": false,
      "metar": "METAR ENVA 030720Z 07005KT CAVOK M10/M17 Q1022 NOSIG RMK WIND 670FT 14012KT",
      "taf": "TAF ENVA 030500Z 0306/0406 09007KT CAVOK"
    },
    {
      "icao": "ENZV",
      "alert": "OK",
      "vis_m": 9999,
      "fzfg": false,
      "metar_trigger": false,
      "taf_trigger": false,
      "metar": "METAR ENZV 030720Z 09010KT 9999 FEW045 M04/M14 Q1018 NOSIG",
      "taf": "TAF ENZV 030500Z 0306/0406 09010KT CAVOK"
    },
    {
      "icao": "EPGD",
      "alert": "OK",
      "vis_m": 7000,
      "fzfg": false,
      "metar_trigger": false,
      "taf_trigger": false,
      "metar": "METAR EPGD 030700Z 26002KT 7000 NSC M18/M20 Q1021",
      "taf": "TAF EPGD 030530Z 0306/0406 VRB03KT CAVOK"
    },
    {
      "icao": "EPKK",
      "alert": "OK",
      "vis_m": 9999,
      "fzfg": false,
      "metar_trigger": false,
      "taf_trigger": false,
      "metar": "METAR EPKK 030700Z 06012KT 9999 FEW047 OVC066 M11/M15 Q1015",
      "taf": "TAF EPKK 030530Z 0306/0406 06012KT 9999 BKN050"
    },
    {
      "icao": "EPKT",
      "alert": "OK",
      "vis_m": 9999,
      "fzfg": false,
      "metar_trigger": false,
      "taf_trigger": false,
      "metar": "METAR EPKT 030700Z 09010KT 9999 -SN FEW023 BKN049 M09/M13 Q1013",
      "taf": "TAF EPKT 030530Z 0306/0406 08010KT 9999 BKN040"
    },
    {
      "icao": "EPLB",
      "alert": "OK",
      "vis_m": 6000,
      "fzfg": false,
      "metar_trigger": false,
      "taf_trigger": false,
      "metar": "METAR EPLB 030700Z 06005KT 6000 NSC M23/M25 Q1019",
      "taf": "TAF EPLB 030530Z 0306/0406 07002KT 4000 BR NSC"
    },
    {
      "icao": "EPMO",
      "alert": "OK",
      "vis_m": 4800,
      "fzfg": false,
      "metar_trigger": false,
      "taf_trigger": false,
      "metar": "METAR EPMO 030700Z 05005KT 4800 BR NSC M22/M23 Q1020",
      "taf": "TAF EPMO 030530Z 0306/0406 07005KT 8000 NSC"
    },
    {
      "icao": "EPPO",
      "alert": "OK",
      "vis_m": 9999,
      "fzfg": false,
      "metar_trigger": false,
      "taf_trigger": false,
      "metar": "METAR EPPO 030700Z 09012KT CAVOK M12/M20 Q1017",
      "taf": "TAF EPPO 030530Z 0306/0406 09014KT CAVOK"
    },
    {
      "icao": "EPRA",
      "alert": "OK",
      "vis_m": 8000,
      "fzfg": false,
      "metar_trigger": false,
      "taf_trigger": false,
      "metar": "METAR EPRA 030700Z 06004KT 8000 NSC M21/M24 Q1018",
      "taf": "TAF EPRA 030530Z 0306/0315 09006KT CAVOK"
    },
    {
      "icao": "EPRZ",
      "alert": "OK",
      "vis_m": 9999,
      "fzfg": false,
      "metar_trigger": false,
      "taf_trigger": false,
      "metar": "METAR EPRZ 030700Z 08009KT 9999 OVC010 M10/M13 Q1017",
      "taf": ""
    },
    {
      "icao": "EPSC",
      "alert": "OK",
      "vis_m": 9999,
      "fzfg": false,
      "metar_trigger": false,
      "taf_trigger": false,
      "metar": "METAR EPSC 030700Z 08011KT CAVOK M11/M19 Q1017",
      "taf": "TAF EPSC 030530Z 0306/0406 09012KT CAVOK"
    },
    {
      "icao": "EPSY",
      "alert": "OK",
      "vis_m": 9999,
      "fzfg": false,
      "metar_trigger": false,
      "taf_trigger": false,
      "metar": "METAR EPSY 030700Z 00000KT CAVOK M26/M29 Q1021",
      "taf": "TAF EPSY 030530Z 0306/0315 VRB02KT CAVOK"
    },
    {
      "icao": "EPWA",
      "alert": "OK",
      "vis_m": 9999,
      "fzfg": false,
      "metar_trigger": false,
      "taf_trigger": false,
      "metar": "METAR EPWA 030700Z 10004KT 070V130 CAVOK M17/M21 Q1020 NOSIG",
      "taf": "TAF EPWA 030530Z 0306/0406 09006KT CAVOK"
    },
    {
      "icao": "EPWR",
      "alert": "OK",
      "vis_m": 9999,
      "fzfg": false,
      "metar_trigger": false,
      "taf_trigger": false,
      "metar": "METAR EPWR 030700Z 10011KT 9999 FEW010 BKN015 M08/M13 Q1014",
      "taf": "TAF EPWR 030530Z 0306/0406 09012KT 9999 BKN020"
    },
    {
      "icao": "ESGG",
      "alert": "OK",
      "vis_m": 9999,
      "fzfg": false,
      "metar_trigger": false,
      "taf_trigger": false,
      "metar": "METAR ESGG 030720Z 11010KT CAVOK M07/M10 Q1022",
      "taf": "TAF ESGG 030530Z 0306/0406 09010KT CAVOK"
    },
    {
      "icao": "ESKN",
      "alert": "OK",
      "vis_m": 9999,
      "fzfg": false,
      "metar_trigger": false,
      "taf_trigger": false,
      "metar": "METAR ESKN 030720Z 06008KT CAVOK M09/M11 Q1028",
      "taf": "TAF ESKN 030530Z 0306/0406 06005KT 9999 BKN030"
    },
    {
      "icao": "ESMS",
      "alert": "OK",
      "vis_m": 9999,
      "fzfg": false,
      "metar_trigger": false,
      "taf_trigger": false,
      "metar": "METAR ESMS 030720Z 11012KT CAVOK M04/M09 Q1019",
      "taf": "TAF ESMS 030527Z 0306/0406 10015KT 9999 FEW030"
    },
    {
      "icao": "ESSA",
      "alert": "OK",
      "vis_m": 9999,
      "fzfg": false,
      "metar_trigger": false,
      "taf_trigger": false,
      "metar": "METAR ESSA 030720Z 35003KT 9999 BKN023 M18/M21 Q1028 NOSIG",
      "taf": "TAF ESSA 030530Z 0306/0406 06005KT CAVOK"
    },
    {
      "icao": "EYKA",
      "alert": "OK",
      "vis_m": 5000,
      "fzfg": false,
      "metar_trigger": false,
      "taf_trigger": false,
      "metar": "METAR EYKA 030720Z 00000KT 5000 HZ NSC M21/M23 Q1023",
      "taf": "TAF EYKA 030500Z 0306/0406 VRB03KT 5000 BR NSC"
    },
    {
      "icao": "EYPA",
      "alert": "OK",
      "vis_m": 9999,
      "fzfg": false,
      "metar_trigger": false,
      "taf_trigger": false,
      "metar": "METAR EYPA 030720Z 08005KT CAVOK M11/M14 Q1024",
      "taf": "TAF EYPA 030500Z 0306/0406 VRB03KT 9000 NSC"
    },
    {
      "icao": "EYVI",
      "alert": "OK",
      "vis_m": 7000,
      "fzfg": false,
      "metar_trigger": false,
      "taf_trigger": false,
      "metar": "METAR EYVI 030720Z 35003KT 7000 NSC M18/M20 Q1020 NOSIG",
      "taf": "TAF EYVI 030500Z 0306/0406 VRB04KT 5000 BR NSC"
    },
    {
      "icao": "GCFV",
      "alert": "OK",
      "vis_m": 9999,
      "fzfg": false,
      "metar_trigger": false,
      "taf_trigger": false,
      "metar": "METAR GCFV 030700Z 29007KT 9999 FEW032 16/12 Q1017",
      "taf": "TAF GCFV 030200Z 0303/0403 30005KT 9999 SCT030 TX22/0314Z TN16/0306Z"
    },
    {
      "icao": "GCLP",
      "alert": "OK",
      "vis_m": 9999,
      "fzfg": false,
      "metar_trigger": false,
      "taf_trigger": false,
      "metar": "METAR GCLP 030700Z 34008KT 9999 FEW035 17/10 Q1017 NOSIG",
      "taf": "TAF GCLP 030200Z 0303/0403 36012KT 9999 SCT035 TX22/0314Z TN15/0306Z"
    },
    {
      "icao": "GCTS",
      "alert": "OK",
      "vis_m": 9999,
      "fzfg": false,
      "metar_trigger": false,
      "taf_trigger": false,
      "metar": "METAR GCTS 030700Z 04004KT 010V070 9999 FEW030 16/11 Q1017 NOSIG",
      "taf": "TAF GCTS 030200Z 0303/0403 VRB05KT 9999 SCT030 TX23/0314Z TN15/0306Z"
    },
    {
      "icao": "GMAD",
      "alert": "OK",
      "vis_m": 8000,
      "fzfg": false,
      "metar_trigger": false,
      "taf_trigger": false,
      "metar": "METAR GMAD 030700Z 17007KT 8000 SCT030 12/12 Q1015 NOSIG",
      "taf": "TAF GMAD 030500Z 0306/0412 06008KT 8000 BKN020"
    },
    {
      "icao": "GMMN",
      "alert": "OK",
      "vis_m": 9999,
      "fzfg": false,
      "metar_trigger": false,
      "taf_trigger": false,
      "metar": "METAR GMMN 030700Z 22013KT 9999 FEW008 BKN020 10/09 Q1012 NOSIG",
      "taf": "TAF GMMN 030500Z 0306/0412 20014KT 9999 SCT010 SCT020"
    },
    {
      "icao": "GMMX",
      "alert": "OK",
      "vis_m": 8000,
      "fzfg": false,
      "metar_trigger": false,
      "taf_trigger": false,
      "metar": "METAR GMMX 030700Z 20008KT 8000 SCT016 BKN023 10/08 Q1015 NOSIG",
      "taf": "TAF GMMX 030500Z 0306/0412 24006KT 8000 SCT023 SCT080"
    },
    {
      "icao": "HEGN",
      "alert": "OK",
      "vis_m": 9999,
      "fzfg": false,
      "metar_trigger": false,
      "taf_trigger": false,
      "metar": "METAR HEGN 030700Z 31016KT CAVOK 20/02 Q1020 NOSIG",
      "taf": "TAF HEGN 030500Z 0306/0412 32013G26KT 6000 NSC"
    },
    {
      "icao": "HEMA",
      "alert": "OK",
      "vis_m": 9999,
      "fzfg": false,
      "metar_trigger": false,
      "taf_trigger": false,
      "metar": "METAR HEMA 030700Z 32014KT CAVOK 21/03 Q1019 NOSIG",
      "taf": "TAF HEMA 030500Z 0306/0412 33008G20KT 6000 NSC"
    },
    {
      "icao": "HESH",
      "alert": "OK",
      "vis_m": 9999,
      "fzfg": false,
      "metar_trigger": false,
      "taf_trigger": false,
      "metar": "METAR HESH 030700Z 34009KT CAVOK 21/07 Q1019 NOSIG",
      "taf": "TAF HESH 030500Z 0306/0412 33008G20KT 6000 NSC"
    },
    {
      "icao": "HESX",
      "alert": "OK",
      "vis_m": 9999,
      "fzfg": false,
      "metar_trigger": false,
      "taf_trigger": false,
      "metar": "METAR HESX 030700Z 21008KT CAVOK 11/03 Q1020 NOSIG",
      "taf": "TAF HESX 030500Z 0306/0412 26008KT CAVOK"
    },
    {
      "icao": "LATI",
      "alert": "OK",
      "vis_m": 9999,
      "fzfg": false,
      "metar_trigger": false,
      "taf_trigger": false,
      "metar": "METAR LATI 030720Z 15004KT 9999 SCT043 BKN120 09/04 Q1016 NOSIG",
      "taf": "TAF LATI 030500Z 0306/0406 VRB05KT 9999 FEW030 BKN070 TX16/0312Z TN07/0405Z"
    },
    {
      "icao": "LBPD",
      "alert": "OK",
      "vis_m": 9999,
      "fzfg": false,
      "metar_trigger": false,
      "taf_trigger": false,
      "metar": "METAR LBPD 030700Z AUTO 11006KT 9999 BKN009/// OVC021/// M02/M03 Q1021 NOSIG",
      "taf": "TAF LBPD 030500Z 0306/0406 VRB03KT 8000 SCT008 BKN015"
    },
    {
      "icao": "LBSF",
      "alert": "OK",
      "vis_m": 9999,
      "fzfg": false,
      "metar_trigger": false,
      "taf_trigger": false,
      "metar": "METAR LBSF 030700Z VRB02KT 9999 OVC011 M02/M04 Q1018 NOSIG",
      "taf": "TAF LBSF 030500Z 0306/0406 VRB03KT 9999 BKN015 OVC030"
    },
    {
      "icao": "LBWN",
      "alert": "OK",
      "vis_m": 9999,
      "fzfg": false,
      "metar_trigger": false,
      "taf_trigger": false,
      "metar": "METAR LBWN 030700Z VRB02KT 9999 BKN033 M04/M09 Q1022 NOSIG",
      "taf": "TAF LBWN 030500Z 0306/0406 VRB04KT 9999 BKN040"
    },
    {
      "icao": "LCLK",
      "alert": "OK",
      "vis_m": 9999,
      "fzfg": false,
      "metar_trigger": false,
      "taf_trigger": false,
      "metar": "METAR LCLK 030700Z 23004KT 190V270 9999 FEW020 17/11 Q1014 BECMG 30016KT",
      "taf": "TAF LCLK 030530Z 0306/0406 24010KT 9999 FEW020"
    },
    {
      "icao": "LCPH",
      "alert": "OK",
      "vis_m": 9999,
      "fzfg": false,
      "metar_trigger": false,
      "taf_trigger": false,
      "metar": "METAR LCPH 030700Z 31023KT 9999 SCT035 17/09 Q1015 NOSIG",
      "taf": "TAF LCPH 030530Z 0306/0406 29020G30KT 9999 FEW020"
    },
    {
      "icao": "LEAL",
      "alert": "OK",
      "vis_m": 9999,
      "fzfg": false,
      "metar_trigger": false,
      "taf_trigger": false,
      "metar": "METAR LEAL 030700Z 29004KT 9999 FEW020 07/03 Q1005 NOSIG",
      "taf": ""
    },
    {
      "icao": "LEBB",
      "alert": "OK",
      "vis_m": 9999,
      "fzfg": false,
      "metar_trigger": false,
      "taf_trigger": false,
      "metar": "METAR LEBB 030700Z 18008G20KT 130V240 CAVOK 11/02 Q0996 WS ALL RWY NOSIG",
      "taf": "TAF LEBB 030500Z 0306/0406 21009KT 9999 SCT040 TX14/0314Z TN07/0406Z"
    },
    {
      "icao": "LEBL",
      "alert": "OK",
      "vis_m": 9999,
      "fzfg": false,
      "metar_trigger": false,
      "taf_trigger": false,
      "metar": "METAR LEBL 030700Z 32004KT 250V010 9999 FEW020 06/04 Q1002 NOSIG",
      "taf": "TAF LEBL 030500Z 0306/0406 29005KT 9999 FEW020 TX15/0314Z TN08/0306Z"
    },
    {
      "icao": "LECH",
      "alert": "OK",
      "vis_m": 9999,
      "fzfg": false,
      "metar_trigger": false,
      "taf_trigger": false,
      "metar": "METAR LECH 030700Z AUTO 22006KT CAVOK 05/00 Q1002",
      "taf": ""
    },
    {
      "icao": "LEMD",
      "alert": "OK",
      "vis_m": 9000,
      "fzfg": false,
      "metar_trigger": false,
      "taf_trigger": false,
      "metar": "METAR LEMD 030700Z 18008KT 140V220 9000 -RA FEW011 BKN025 05/05 Q1001 NOSIG",
      "taf": ""
    },
    {
      "icao": "LEMG",
      "alert": "OK",
      "vis_m": 9999,
      "fzfg": false,
      "metar_trigger": false,
      "taf_trigger": false,
      "metar": "METAR LEMG 030700Z 30002KT 9999 FEW030 BKN080 07/06 Q1007 NOSIG",
      "taf": "TAF LEMG 030500Z 0306/0406 29005KT 9999 FEW025 SCT040 TX17/0314Z TN09/0307Z"
    },
    {
      "icao": "LEVC",
      "alert": "OK",
      "vis_m": 9999,
      "fzfg": false,
      "metar_trigger": false,
      "taf_trigger": false,
      "metar": "METAR LEVC 030700Z 20005KT 140V270 9999 FEW050 09/03 Q1004 NOSIG",
      "taf": "TAF LEVC 030500Z 0306/0406 25007KT 9999 FEW030 TX16/0313Z TN08/0306Z"
    },
    {
      "icao": "LEXJ",
      "alert": "OK",
      "vis_m": 9999,
      "fzfg": false,
      "metar_trigger": false,
      "taf_trigger": false,
      "metar": "METAR LEXJ 030700Z 21011KT 170V260 9999 FEW085 11/01 Q0994",
      "taf": "TAF LEXJ 030200Z 0303/0403 23009KT 9999 FEW040 TX15/0312Z TN09/0304Z"
    },
    {
      "icao": "LEZG",
      "alert": "OK",
      "vis_m": 9999,
      "fzfg": false,
      "metar_trigger": false,
      "taf_trigger": false,
      "metar": "METAR LEZG 030700Z 19004KT 110V230 9999 FEW080 08/02 Q1001 NOSIG",
      "taf": "TAF LEZG 030500Z 0306/0406 23009KT 9999 FEW050 TX13/0314Z TN04/0306Z"
    },
    {
      "icao": "LEZL",
      "alert": "OK",
      "vis_m": 9999,
      "fzfg": false,
      "metar_trigger": false,
      "taf_trigger": false,
      "metar": "METAR LEZL 030700Z 20005KT 160V250 9999 FEW035 SCT046 11/09 Q1005 NOSIG",
      "taf": "TAF LEZL 030200Z 0303/0403 22008KT 9999 SCT020 TX15/0315Z TN08/0307Z"
    },
    {
      "icao": "LFBD",
      "alert": "OK",
      "vis_m": 9999,
      "fzfg": false,
      "metar_trigger": false,
      "taf_trigger": false,
      "metar": "METAR LFBD 030700Z AUTO 17010KT 9999 -RA SCT037/// BKN043/// BKN066/// ///TCU 07/06 Q0996 TEMPO 20015G25KT 2000 -TSRA BKN030CB",
      "taf": ""
    },
    {
      "icao": "LFLL",
      "alert": "OK",
      "vis_m": 9999,
      "fzfg": false,
      "metar_trigger": false,
      "taf_trigger": false,
      "metar": "METAR LFLL 030700Z 19017KT 9999 -RA BKN033 BKN039 07/06 Q0997 NOSIG",
      "taf": "TAF LFLL 030500Z 0306/0412 17010KT CAVOK"
    },
    {
      "icao": "LFLS",
      "alert": "OK",
      "vis_m": 9999,
      "fzfg": false,
      "metar_trigger": false,
      "taf_trigger": false,
      "metar": "METAR LFLS 030700Z AUTO 20014KT 170V230 9999 -RA FEW018/// SCT045/// OVC058/// ///TCU 07/05 Q0998 BECMG BKN040",
      "taf": "TAF LFLS 030200Z 0303/0403 18007KT 9999 BKN040"
    },
    {
      "icao": "LFMN",
      "alert": "OK",
      "vis_m": 9999,
      "fzfg": false,
      "metar_trigger": false,
      "taf_trigger": false,
      "metar": "METAR LFMN 030700Z 01005KT 9999 SCT027 BKN073 09/08 Q1002 NOSIG",
      "taf": "TAF LFMN 030200Z 0303/0409 08025KT 6000 SHRA SCT010 SCT020TCU BKN025"
    },
    {
      "icao": "LFOB",
      "alert": "OK",
      "vis_m": 3400,
      "fzfg": false,
      "metar_trigger": false,
      "taf_trigger": false,
      "metar": "METAR LFOB 030700Z AUTO 08006KT 3400 -DZ BR OVC005/// ///TCU 06/05 Q0989 TEMPO 2000 RA OVC004",
      "taf": ""
    },
    {
      "icao": "LFPO",
      "alert": "OK",
      "vis_m": 6000,
      "fzfg": false,
      "metar_trigger": false,
      "taf_trigger": false,
      "metar": "METAR LFPO 030700Z 15003KT 6000 -RA BKN004 08/08 Q0989 TEMPO 2500 RADZ BKN004",
      "taf": "TAF LFPO 030500Z 0306/0412 10008KT 9999 BKN012"
    },
    {
      "icao": "LFSB",
      "alert": "OK",
      "vis_m": 5000,
      "fzfg": false,
      "metar_trigger": false,
      "taf_trigger": false,
      "metar": "METAR LFSB 030700Z AUTO 33004KT 290V010 5000 BR OVC004 03/03 Q0996 TEMPO 0500 FG VV///",
      "taf": ""
    },
    {
      "icao": "LGAV",
      "alert": "OK",
      "vis_m": 9999,
      "fzfg": false,
      "metar_trigger": false,
      "taf_trigger": false,
      "metar": "METAR LGAV 030720Z 00000KT CAVOK 10/05 Q1020 NOSIG",
      "taf": "TAF LGAV 030500Z 0306/0406 VRB05KT 9999 FEW020"
    },
    {
      "icao": "LGTS",
      "alert": "OK",
      "vis_m": 9999,
      "fzfg": false,
      "metar_trigger": false,
      "taf_trigger": false,
      "metar": "METAR LGTS 030720Z VRB03KT 9999 FEW020 SCT025 07/07 Q1020 NOSIG",
      "taf": ""
    },
    {
      "icao": "LHBP",
      "alert": "OK",
      "vis_m": 3400,
      "fzfg": false,
      "metar_trigger": false,
      "taf_trigger": false,
      "metar": "SPECI LHBP 030724Z 11011KT 3400 SN SCT008 BKN019 M02/M03 Q1014 TEMPO 2000 SN BKN006 OVC020",
      "taf": "TAF LHBP 030515Z 0306/0406 11012KT 7000 -SN FEW008 OVC030"
    },
    {
      "icao": "LHDC",
      "alert": "OK",
      "vis_m": 8000,
      "fzfg": false,
      "metar_trigger": false,
      "taf_trigger": false,
      "metar": "METAR LHDC 030645Z AUTO 08007KT 8000 NSC M01/M02 Q1016 NOSIG",
      "taf": "TAF LHDC 030515Z 0306/0315 09005KT CAVOK"
    },
    {
      "icao": "LIBD",
      "alert": "OK",
      "vis_m": 9999,
      "fzfg": false,
      "metar_trigger": false,
      "taf_trigger": false,
      "metar": "METAR LIBD 030720Z 13008KT CAVOK 10/08 Q1011",
      "taf": "TAF LIBD 030500Z 0306/0406 18010KT 9999 FEW030"
    },
    {
      "icao": "LIBG",
      "alert": "OK",
      "vis_m": 9999,
      "fzfg": false,
      "metar_trigger": false,
      "taf_trigger": false,
      "metar": "SPECI LIBG 030657Z 09004KT 9999 SCT020 10/10 Q1013",
      "taf": "TAF LIBG 030710Z 0308/0315 15012KT 9999 FEW040"
    },
    {
      "icao": "LIBP",
      "alert": "OK",
      "vis_m": 9999,
      "fzfg": false,
      "metar_trigger": false,
      "taf_trigger": false,
      "metar": "METAR LIBP 030720Z AUTO 21004KT 9999 BKN180/// 06/05 Q1007",
      "taf": "TAF LIBP 030500Z 0306/0406 VRB05KT 9999 SCT050"
    },
    {
      "icao": "LIBR",
      "alert": "OK",
      "vis_m": 9999,
      "fzfg": false,
      "metar_trigger": false,
      "taf_trigger": false,
      "metar": "METAR LIBR 030720Z 16009KT 9999 FEW030 11/10 Q1013",
      "taf": "TAF LIBR 030500Z 0306/0406 16010KT 9999 FEW030"
    },
    {
      "icao": "LICA",
      "alert": "OK",
      "vis_m": 9999,
      "fzfg": false,
      "metar_trigger": false,
      "taf_trigger": false,
      "metar": "METAR LICA 030720Z AUTO 08015KT 9999 NCD 12/08 Q1012",
      "taf": "TAF LICA 030500Z 0306/0406 07013KT 9999 SCT025"
    },
    {
      "icao": "LICC",
      "alert": "OK",
      "vis_m": 9999,
      "fzfg": false,
      "metar_trigger": false,
      "taf_trigger": false,
      "metar": "METAR LICC 030720Z 24008KT CAVOK 09/06 Q1014",
      "taf": "TAF LICC 030500Z 0306/0406 24014KT 9999 FEW030"
    },
    {
      "icao": "LICJ",
      "alert": "OK",
      "vis_m": 9999,
      "fzfg": false,
      "metar_trigger": false,
      "taf_trigger": false,
      "metar": "METAR LICJ 030720Z 19018KT CAVOK 18/06 Q1009",
      "taf": "TAF LICJ 030500Z 0306/0406 18018G28KT 9999 SCT030"
    },
    {
      "icao": "LIMC",
      "alert": "OK",
      "vis_m": 2000,
      "fzfg": false,
      "metar_trigger": false,
      "taf_trigger": false,
      "metar": "METAR LIMC 030720Z 02005KT 2000 -SN FEW010 BKN020 01/01 Q1006 NOSIG",
      "taf": "TAF LIMC 030500Z 0306/0412 VRB05KT 3000 RA BKN010"
    },
    {
      "icao": "LIME",
      "alert": "OK",
      "vis_m": 4000,
      "fzfg": false,
      "metar_trigger": false,
      "taf_trigger": false,
      "metar": "METAR LIME 030720Z 25007KT 4000 RA BR SCT005 BKN020 04/04 Q1006 NOSIG",
      "taf": "TAF LIME 030500Z 0306/0406 VRB05KT 4000 RA BKN020"
    },
    {
      "icao": "LIMF",
      "alert": "OK",
      "vis_m": 4000,
      "fzfg": false,
      "metar_trigger": false,
      "taf_trigger": false,
      "metar": "METAR LIMF 030720Z 26002KT 4000 -DZ BR SCT012 BKN040 01/M00 Q1006",
      "taf": "TAF LIMF 030500Z 0306/0406 VRB05KT 2000 SNRA BKN015"
    },
    {
      "icao": "LIMJ",
      "alert": "OK",
      "vis_m": 9999,
      "fzfg": false,
      "metar_trigger": false,
      "taf_trigger": false,
      "metar": "METAR LIMJ 030720Z 04019KT 9999 SCT035 BKN045 05/01 Q1004",
      "taf": "TAF LIMJ 030500Z 0306/0406 04015KT 4000 RA SCT020 BKN030"
    },
    {
      "icao": "LIPE",
      "alert": "OK",
      "vis_m": 1300,
      "fzfg": false,
      "metar_trigger": false,
      "taf_trigger": false,
      "metar": "METAR LIPE 030720Z 25005KT 220V280 1300 R12/P2000N R30/P2000N BR OVC002 05/05 Q1005",
      "taf": "TAF LIPE 030500Z 0306/0406 VRB05KT 6000 BKN015"
    },
    {
      "icao": "LIPH",
      "alert": "OK",
      "vis_m": 3000,
      "fzfg": false,
      "metar_trigger": false,
      "taf_trigger": false,
      "metar": "METAR LIPH 030720Z 04007KT 3000 -RA BR SCT004 BKN020 05/05 Q1007",
      "taf": "TAF LIPH 030500Z 0306/0406 05010KT 5000 RA SCT010 BKN020"
    },
    {
      "icao": "LIPQ",
      "alert": "OK",
      "vis_m": 9000,
      "fzfg": false,
      "metar_trigger": false,
      "taf_trigger": false,
      "metar": "METAR LIPQ 030720Z AUTO 03005KT 9000 -RA OVC014/// 06/06 Q1007 RERA",
      "taf": "TAF LIPQ 030500Z 0306/0406 05006KT 4000 RA BKN020"
    },
    {
      "icao": "LIPR",
      "alert": "OK",
      "vis_m": 9999,
      "fzfg": false,
      "metar_trigger": false,
      "taf_trigger": false,
      "metar": "METAR LIPR 030720Z 14006KT 100V160 9999 BKN035 11/07 Q1005",
      "taf": "TAF LIPR 030500Z 0306/0406 14010KT 9999 BKN040"
    },
    {
      "icao": "LIPX",
      "alert": "OK",
      "vis_m": 7000,
      "fzfg": false,
      "metar_trigger": false,
      "taf_trigger": false,
      "metar": "METAR LIPX 030720Z 09004KT 040V130 7000 -RA BKN020 BKN030 06/05 Q1005",
      "taf": "TAF LIPX 030500Z 0306/0406 08010KT 4000 RA BKN030"
    },
    {
      "icao": "LIPY",
      "alert": "OK",
      "vis_m": 9999,
      "fzfg": false,
      "metar_trigger": false,
      "taf_trigger": false,
      "metar": "METAR LIPY 030720Z AUTO 21005KT 9999 BKN054/// 11/07 Q1007",
      "taf": "TAF LIPY 030500Z 0306/0406 15010KT 9999 BKN050"
    },
    {
      "icao": "LIPZ",
      "alert": "OK",
      "vis_m": 2500,
      "fzfg": false,
      "metar_trigger": false,
      "taf_trigger": false,
      "metar": "METAR LIPZ 030720Z 04010KT 2500 R04R/1300N -RA BR SCT005 BKN015 05/05 Q1007 NOSIG",
      "taf": "TAF LIPZ 030500Z 0306/0412 05012KT 5000 RA SCT010 BKN020"
    },
    {
      "icao": "LIRF",
      "alert": "OK",
      "vis_m": 9999,
      "fzfg": false,
      "metar_trigger": false,
      "taf_trigger": false,
      "metar": "METAR LIRF 030720Z 14015KT 9999 BKN030 13/10 Q1008 NOSIG",
      "taf": "TAF LIRF 030500Z 0306/0412 15015KT 9999 SCT030"
    },
    {
      "icao": "LIRN",
      "alert": "OK",
      "vis_m": 9999,
      "fzfg": false,
      "metar_trigger": false,
      "taf_trigger": false,
      "metar": "METAR LIRN 030720Z 34003KT 290V360 9999 FEW060 10/07 Q1011 NOSIG",
      "taf": "TAF LIRN 030500Z 0306/0406 18012KT 9999 SCT030"
    },
    {
      "icao": "LIRP",
      "alert": "OK",
      "vis_m": 9999,
      "fzfg": false,
      "metar_trigger": false,
      "taf_trigger": false,
      "metar": "METAR LIRP 030715Z 19015KT 9999 -RA FEW010 BKN015 14/14 Q1004 NOSIG",
      "taf": "TAF LIRP 030500Z 0306/0406 13010KT 9999 RA FEW020 SCT050"
    },
    {
      "icao": "LIRZ",
      "alert": "OK",
      "vis_m": 9999,
      "fzfg": false,
      "metar_trigger": false,
      "taf_trigger": false,
      "metar": "METAR LIRZ 030720Z AUTO 24005KT 9999 BKN035/// 10/07 Q1008",
      "taf": "TAF LIRZ 030500Z 0306/0406 18010KT 9999 BKN035"
    },
    {
      "icao": "LJLJ",
      "alert": "OK",
      "vis_m": 2000,
      "fzfg": false,
      "metar_trigger": false,
      "taf_trigger": false,
      "metar": "METAR LJLJ 030700Z VRB01KT 2000 -RA BR SCT002 OVC023 01/00 Q1008 NOSIG",
      "taf": "TAF LJLJ 030500Z 0306/0406 11002KT 3000 -RA BR SCT002 BKN005 OVC020"
    },
    {
      "icao": "LKMT",
      "alert": "OK",
      "vis_m": 9000,
      "fzfg": false,
      "metar_trigger": false,
      "taf_trigger": false,
      "metar": "METAR LKMT 030700Z 02006KT 9000 BKN038 OVC044 M08/M11 Q1013 NOSIG",
      "taf": "TAF LKMT 030500Z 0306/0406 02010KT 9999 BKN035"
    },
    {
      "icao": "LKPR",
      "alert": "OK",
      "vis_m": 5000,
      "fzfg": false,
      "metar_trigger": false,
      "taf_trigger": false,
      "metar": "METAR LKPR 030700Z 09011KT 5000 BR SCT006 OVC015 M01/M02 Q1006 NOSIG",
      "taf": ""
    },
    {
      "icao": "LLBG",
      "alert": "OK",
      "vis_m": 9999,
      "fzfg": false,
      "metar_trigger": false,
      "taf_trigger": false,
      "metar": "METAR LLBG 030720Z 18010KT 9999 FEW016 BKN023 14/13 Q1018 NOSIG RMK RERA",
      "taf": "TAF LLBG 030506Z 0306/0406 16008KT 8000 SCT030"
    },
    {
      "icao": "LMML",
      "alert": "OK",
      "vis_m": 9999,
      "fzfg": false,
      "metar_trigger": false,
      "taf_trigger": false,
      "metar": "METAR LMML 030715Z 17010KT CAVOK 15/13 Q1014 NOSIG",
      "taf": "TAF LMML 030500Z 0306/0406 19015KT CAVOK"
    },
    {
      "icao": "LOWW",
      "alert": "OK",
      "vis_m": 9999,
      "fzfg": false,
      "metar_trigger": false,
      "taf_trigger": false,
      "metar": "METAR LOWW 030720Z 11013KT 9999 FEW008 BKN010 M01/M03 Q1009 NOSIG",
      "taf": "TAF LOWW 030515Z 0306/0412 12015KT 9000 BKN012 TX01/0411Z TNM01/0313Z"
    },
    {
      "icao": "LPFR",
      "alert": "OK",
      "vis_m": 9999,
      "fzfg": false,
      "metar_trigger": false,
      "taf_trigger": false,
      "metar": "METAR LPFR 030700Z 29011KT 9999 -SHRA FEW016 FEW020CB SCT030 11/08 Q1005",
      "taf": "TAF LPFR 030500Z 0306/0406 28013KT 9999 FEW015 SCT030"
    },
    {
      "icao": "LPMA",
      "alert": "OK",
      "vis_m": 9999,
      "fzfg": false,
      "metar_trigger": false,
      "taf_trigger": false,
      "metar": "METAR LPMA 030700Z 26004KT 210V330 9999 FEW015 14/07 Q1015",
      "taf": "TAF LPMA 030500Z 0306/0406 VRB05KT 9999 SCT015"
    },
    {
      "icao": "LPPR",
      "alert": "OK",
      "vis_m": 9999,
      "fzfg": false,
      "metar_trigger": false,
      "taf_trigger": false,
      "metar": "METAR LPPR 030700Z 23007KT 200V260 9999 VCSH FEW020 FEW025CB BKN045 11/05 Q0997",
      "taf": "TAF LPPR 030500Z 0306/0406 22012KT 9999 FEW015 SCT030"
    },
    {
      "icao": "LPPS",
      "alert": "OK",
      "vis_m": 9999,
      "fzfg": false,
      "metar_trigger": false,
      "taf_trigger": false,
      "metar": "METAR LPPS 030700Z 29020KT 9999 FEW014 16/10 Q1014",
      "taf": "TAF LPPS 030500Z 0306/0412 30017KT 9999 SCT015"
    },
    {
      "icao": "LPPT",
      "alert": "OK",
      "vis_m": 9000,
      "fzfg": false,
      "metar_trigger": false,
      "taf_trigger": false,
      "metar": "METAR LPPT 030700Z 23006G17KT 190V300 9000 -SHRA SCT020 FEW025TCU 08/08 Q1002",
      "taf": "TAF LPPT 030500Z 0306/0412 23008KT 9999 FEW015 SCT030"
    },
    {
      "icao": "LQBK",
      "alert": "OK",
      "vis_m": 4000,
      "fzfg": false,
      "metar_trigger": false,
      "taf_trigger": false,
      "metar": "METAR LQBK 030700Z VRB01KT 4000 BR FEW015 01/01 Q1011 NOSIG",
      "taf": ""
    },
    {
      "icao": "LQSA",
      "alert": "OK",
      "vis_m": 7000,
      "fzfg": false,
      "metar_trigger": false,
      "taf_trigger": false,
      "metar": "METAR LQSA 030700Z VRB03KT 7000 FEW030 SCT055 M00/M00 Q1012 TEMPO 15012KT",
      "taf": "TAF LQSA 030500Z 0306/0406 10008KT 9999 SCT050 TX13/0313Z TNM02/0306Z"
    },
    {
      "icao": "LQTZ",
      "alert": "OK",
      "vis_m": 4000,
      "fzfg": false,
      "metar_trigger": false,
      "taf_trigger": false,
      "metar": "METAR LQTZ 030700Z 00000KT 4000 BR FEW055 BKN070 M01/M01 Q1012",
      "taf": "TAF LQTZ 030500Z 0306/0406 06005KT CAVOK TX13/0314Z TNM02/0306Z"
    },
    {
      "icao": "LRBC",
      "alert": "OK",
      "vis_m": 9999,
      "fzfg": false,
      "metar_trigger": false,
      "taf_trigger": false,
      "metar": "METAR LRBC 030700Z 16010KT 9999 BKN068 M07/M12 Q1019",
      "taf": "TAF LRBC 030500Z 0306/0315 16007KT CAVOK"
    },
    {
      "icao": "LRBS",
      "alert": "OK",
      "vis_m": 9999,
      "fzfg": false,
      "metar_trigger": false,
      "taf_trigger": false,
      "metar": "METAR LRBS 030700Z 26003KT CAVOK M07/M08 Q1022 NOSIG",
      "taf": "TAF LRBS 030500Z 0306/0406 23005KT 5000 BR NSC"
    },
    {
      "icao": "LRBV",
      "alert": "OK",
      "vis_m": 9999,
      "fzfg": false,
      "metar_trigger": false,
      "taf_trigger": false,
      "metar": "METAR LRBV 030700Z VRB03KT CAVOK M05/M08 Q1015",
      "taf": "TAF LRBV 030500Z 0306/0315 VRB04KT CAVOK"
    },
    {
      "icao": "LRCL",
      "alert": "OK",
      "vis_m": 9999,
      "fzfg": false,
      "metar_trigger": false,
      "taf_trigger": false,
      "metar": "METAR LRCL 030700Z 07004KT 9999 OVC006 M01/M02 Q1015",
      "taf": "TAF LRCL 030500Z 0306/0315 VRB04KT 9999 OVC010"
    },
    {
      "icao": "LRCV",
      "alert": "OK",
      "vis_m": 9999,
      "fzfg": false,
      "metar_trigger": false,
      "taf_trigger": false,
      "metar": "METAR LRCV 030700Z 15002KT 9999 BKN030 M07/M08 Q1020",
      "taf": "TAF LRCV 030500Z 0306/0315 VRB04KT 9999 OVC030"
    },
    {
      "icao": "LRIA",
      "alert": "OK",
      "vis_m": 9999,
      "fzfg": false,
      "metar_trigger": false,
      "taf_trigger": false,
      "metar": "METAR LRIA 030700Z 10009KT 9999 BKN045 M10/M15 Q1021",
      "taf": "TAF LRIA 030500Z 0306/0315 11008KT CAVOK"
    },
    {
      "icao": "LROP",
      "alert": "OK",
      "vis_m": 7000,
      "fzfg": false,
      "metar_trigger": false,
      "taf_trigger": false,
      "metar": "METAR LROP 030700Z COR 26003KT 7000 NSC M07/M10 Q1022 NOSIG",
      "taf": "TAF LROP 030500Z 0306/0406 23005KT 5000 BR NSC"
    },
    {
      "icao": "LRSB",
      "alert": "OK",
      "vis_m": 9999,
      "fzfg": false,
      "metar_trigger": false,
      "taf_trigger": false,
      "metar": "METAR LRSB 030700Z VRB01KT CAVOK M03/M06 Q1015",
      "taf": "TAF LRSB 030500Z 0306/0406 VRB04KT CAVOK"
    },
    {
      "icao": "LRSM",
      "alert": "OK",
      "vis_m": 5000,
      "fzfg": false,
      "metar_trigger": false,
      "taf_trigger": false,
      "metar": "METAR LRSM 030700Z 00000KT 5000 BR FEW004 SCT009 OVC039 M00/M01 Q1017",
      "taf": "TAF LRSM 030500Z 0306/0315 VRB04KT 9999 BKN040"
    },
    {
      "icao": "LRSV",
      "alert": "OK",
      "vis_m": 9999,
      "fzfg": false,
      "metar_trigger": false,
      "taf_trigger": false,
      "metar": "METAR LRSV 030700Z 11008KT 9999 BKN049 M10/M13 Q1017",
      "taf": "TAF LRSV 030500Z 0306/0315 12008KT 9999 BKN040"
    },
    {
      "icao": "LRTM",
      "alert": "OK",
      "vis_m": 9999,
      "fzfg": false,
      "metar_trigger": false,
      "taf_trigger": false,
      "metar": "METAR LRTM 030700Z VRB01KT 9999 FEW022 01/M02 Q1016",
      "taf": "TAF LRTM 030500Z 0306/0315 VRB04KT 5000 BR BKN025"
    },
    {
      "icao": "LRTR",
      "alert": "OK",
      "vis_m": 9999,
      "fzfg": false,
      "metar_trigger": false,
      "taf_trigger": false,
      "metar": "METAR LRTR 030700Z 10013KT CAVOK M02/M05 Q1015 NOSIG",
      "taf": "TAF LRTR 030500Z 0306/0406 10010KT 9999 BKN045"
    },
    {
      "icao": "LTAC",
      "alert": "OK",
      "vis_m": 9999,
      "fzfg": false,
      "metar_trigger": false,
      "taf_trigger": false,
      "metar": "METAR LTAC 030720Z 31012KT 9999 SCT036 SCT080 03/M03 Q1015 BECMG VRB02KT",
      "taf": "TAF LTAC 030440Z 0306/0406 VRB02KT 9999 SCT040 BKN100"
    },
    {
      "icao": "LTFM",
      "alert": "OK",
      "vis_m": 9999,
      "fzfg": false,
      "metar_trigger": false,
      "taf_trigger": false,
      "metar": "METAR LTFM 030720Z 01006KT 290V020 9999 BKN012 BKN028 02/M01 Q1022 RESHRASN NOSIG",
      "taf": "TAF LTFM 030440Z 0306/0412 36010KT 9999 BKN012 BKN028"
    },
    {
      "icao": "LUKK",
      "alert": "OK",
      "vis_m": 9999,
      "fzfg": false,
      "metar_trigger": false,
      "taf_trigger": false,
      "metar": "METAR LUKK 030700Z 09004KT 050V130 CAVOK M12/M16 Q1022 NOSIG",
      "taf": "TAF LUKK 030506Z 0306/0406 VRB06KT CAVOK"
    },
    {
      "icao": "LWOH",
      "alert": "OK",
      "vis_m": 9999,
      "fzfg": false,
      "metar_trigger": false,
      "taf_trigger": false,
      "metar": "METAR LWOH 030720Z 30003KT 9999 SCT040 00/M00 Q1016",
      "taf": "TAF LWOH 030530Z 0306/0406 01008KT 9999 SCT040"
    },
    {
      "icao": "LWSK",
      "alert": "OK",
      "vis_m": 9999,
      "fzfg": false,
      "metar_trigger": false,
      "taf_trigger": false,
      "metar": "METAR LWSK 030720Z VRB02KT 9999 OVC022 00/M01 Q1019 NOSIG",
      "taf": "TAF LWSK 030530Z 0306/0406 VRB02KT 9999 BKN020"
    },
    {
      "icao": "LYBE",
      "alert": "OK",
      "vis_m": 9999,
      "fzfg": false,
      "metar_trigger": false,
      "taf_trigger": false,
      "metar": "METAR LYBE 030700Z 11005KT CAVOK M01/M04 Q1014 NOSIG",
      "taf": "TAF LYBE 030500Z 0306/0406 10008KT CAVOK TX07/0313Z TNM03/0306Z"
    },
    {
      "icao": "LYNI",
      "alert": "OK",
      "vis_m": 9999,
      "fzfg": false,
      "metar_trigger": false,
      "taf_trigger": false,
      "metar": "METAR LYNI 030700Z VRB02KT CAVOK M02/M03 Q1017 NOSIG",
      "taf": "TAF LYNI 030500Z 0306/0406 08006KT CAVOK TX06/0313Z TNM03/0306Z"
    },
    {
      "icao": "LYPG",
      "alert": "OK",
      "vis_m": 9000,
      "fzfg": false,
      "metar_trigger": false,
      "taf_trigger": false,
      "metar": "METAR LYPG 030700Z 29003KT 250V340 9000 FEW010 SCT050 BKN080 05/04 Q1017 NOSIG",
      "taf": "TAF LYPG 030500Z 0306/0406 36005KT 9999 FEW020 BKN043 BKN080 TX12/0316Z TN04/0306Z"
    },
    {
      "icao": "LZIB",
      "alert": "OK",
      "vis_m": 9999,
      "fzfg": false,
      "metar_trigger": false,
      "taf_trigger": false,
      "metar": "METAR LZIB 030700Z 10014KT 9999 FEW011 BKN016 OVC021 M00/M03 Q1010 NOSIG",
      "taf": "TAF LZIB 030515Z 0306/0406 12014KT 9999 OVC025"
    },
    {
      "icao": "LZKZ",
      "alert": "OK",
      "vis_m": 9999,
      "fzfg": false,
      "metar_trigger": false,
      "taf_trigger": false,
      "metar": "METAR LZKZ 030700Z 00000KT 9999 BKN012 OVC023 M03/M05 Q1015 NOSIG",
      "taf": "TAF LZKZ 030515Z 0306/0406 VRB02KT 9999 BKN017"
    },
    {
      "icao": "LZTT",
      "alert": "OK",
      "vis_m": 9000,
      "fzfg": false,
      "metar_trigger": false,
      "taf_trigger": false,
      "metar": "METAR LZTT 030700Z 00000KT 9000 -SN SCT006 BKN028 M03/M04 Q1011 TEMPO BKN006 OVC026",
      "taf": "TAF LZTT 030515Z 0306/0406 17004KT 9999 OVC020"
    },
    {
      "icao": "OEJN",
      "alert": "OK",
      "vis_m": 9999,
      "fzfg": false,
      "metar_trigger": false,
      "taf_trigger": false,
      "metar": "METAR OEJN 030700Z 35004KT CAVOK 28/16 Q1016 NOSIG",
      "taf": "TAF OEJN 030500Z 0306/0412 33012KT 7000 SCT040"
    },
    {
      "icao": "OEMA",
      "alert": "OK",
      "vis_m": 9999,
      "fzfg": false,
      "metar_trigger": false,
      "taf_trigger": false,
      "metar": "METAR OEMA 030700Z 33004KT CAVOK 24/12 Q1019 NOSIG",
      "taf": "TAF OEMA 030500Z 0306/0412 30012KT 7000 NSC"
    },
    {
      "icao": "OJAI",
      "alert": "OK",
      "vis_m": null,
      "fzfg": false,
      "metar_trigger": false,
      "taf_trigger": false,
      "metar": "",
      "taf": ""
    },
    {
      "icao": "OMAA",
      "alert": "OK",
      "vis_m": 9999,
      "fzfg": false,
      "metar_trigger": false,
      "taf_trigger": false,
      "metar": "METAR OMAA 030700Z 06003KT 020V100 CAVOK 23/02 Q1019 NOSIG",
      "taf": "TAF OMAA 030500Z 0306/0412 20005KT 8000 NSC"
    },
    {
      "icao": "OMDB",
      "alert": "OK",
      "vis_m": 9999,
      "fzfg": false,
      "metar_trigger": false,
      "taf_trigger": false,
      "metar": "METAR OMDB 030700Z 09005KT 050V130 CAVOK 24/13 Q1019 NOSIG",
      "taf": "TAF OMDB 030500Z 0306/0412 VRB02KT 4000 HZ NSC"
    },
    {
      "icao": "UAAA",
      "alert": "OK",
      "vis_m": 9999,
      "fzfg": false,
      "metar_trigger": false,
      "taf_trigger": false,
      "metar": "METAR UAAA 030700Z 26006MPS 9999 SCT050 BKN100 08/03 Q1018 NOSIG",
      "taf": "TAF UAAA 030505Z 0306/0406 22003MPS 9999 SCT050CB BKN100 TX09/0309Z TNM01/0402Z"
    },
    {
      "icao": "UBBB",
      "alert": "OK",
      "vis_m": 9999,
      "fzfg": false,
      "metar_trigger": false,
      "taf_trigger": false,
      "metar": "METAR UBBB 030700Z 17016KT CAVOK 09/06 Q1006 NOSIG",
      "taf": "TAF UBBB 030506Z 0306/0406 19018G28KT 9999 SCT012 BKN030 TX09/0307Z TN02/0400Z"
    },
    {
      "icao": "UDSG",
      "alert": "OK",
      "vis_m": 8000,
      "fzfg": false,
      "metar_trigger": false,
      "taf_trigger": false,
      "metar": "METAR UDSG 030700Z 07002KT 8000 OVC008 02/02 Q1011 NOSIG",
      "taf": "TAF UDSG 030458Z 0306/0406 VRB06KT 5000 BR OVC030"
    },
    {
      "icao": "UDYZ",
      "alert": "OK",
      "vis_m": 1200,
      "fzfg": false,
      "metar_trigger": false,
      "taf_trigger": false,
      "metar": "METAR UDYZ 030700Z 09005KT 1200 0800W R08/0800N BCFG BKN036CB 03/02 Q1011 NOSIG",
      "taf": "TAF UDYZ 030500Z 0306/0406 24006KT 1500 BR BKN020"
    },
    {
      "icao": "UGKO",
      "alert": "OK",
      "vis_m": 9999,
      "fzfg": false,
      "metar_trigger": false,
      "taf_trigger": false,
      "metar": "METAR UGKO 030700Z 05004KT 020V080 9999 BKN056 11/07 Q1008 BECMG 25014KT",
      "taf": "TAF UGKO 030500Z 0306/0406 09007KT 9999 BKN050 TX11/0311Z TN04/0403Z"
    }
  ]
}