{
  "ts_utc": "2026-02-06T12:26:41Z",
  "threshold_m": 150,
  "source": "stations_override.txt (ICAO list) + aviationweather.gov (METAR/TAF raw)",
  "station_count": 159,
  "stations": [
    {
      "icao": "BIKF",
      "alert": "OK",
      "vis_m": 9999,
      "fzfg": false,
      "metar_trigger": false,
      "taf_trigger": false,
      "metar": "METAR BIKF 061200Z 08005KT 050V110 9999 FEW042 BKN055 BKN080 01/M02 Q1007",
      "taf": "TAF BIKF 061104Z 0612/0712 05008KT 3000 SNRA OVC008 TX04/0618Z TNM02/0710Z"
    },
    {
      "icao": "BKPR",
      "alert": "OK",
      "vis_m": null,
      "fzfg": false,
      "metar_trigger": false,
      "taf_trigger": false,
      "metar": "",
      "taf": "TAF BKPR 061130Z 0612/0712 17007KT 9999 SCT020 BKN040"
    },
    {
      "icao": "EBCI",
      "alert": "OK",
      "vis_m": 8000,
      "fzfg": false,
      "metar_trigger": false,
      "taf_trigger": false,
      "metar": "METAR EBCI 061220Z 19009KT 8000 BKN007 BKN009 09/07 Q0989 TEMPO 4500 RADZ",
      "taf": "TAF EBCI 061109Z 0612/0718 15006KT 6000 -RA BKN007"
    },
    {
      "icao": "EDDB",
      "alert": "OK",
      "vis_m": 1200,
      "fzfg": false,
      "metar_trigger": false,
      "taf_trigger": false,
      "metar": "METAR EDDB 061220Z AUTO 07005KT 1200 1000 R06L/1800N R06R/1700N BR OVC002 01/01 Q0995 NOSIG",
      "taf": "TAF EDDB 061100Z 0612/0712 09004KT 3000 BR BKN003"
    },
    {
      "icao": "EDDH",
      "alert": "OK",
      "vis_m": 3900,
      "fzfg": false,
      "metar_trigger": false,
      "taf_trigger": false,
      "metar": "METAR EDDH 061220Z AUTO 09006KT 070V130 3900 BR OVC005 01/M00 Q0995 TEMPO 2500 OVC004",
      "taf": "TAF EDDH 061100Z 0612/0718 09007KT 4000 BR OVC004"
    },
    {
      "icao": "EDDK",
      "alert": "OK",
      "vis_m": 9999,
      "fzfg": false,
      "metar_trigger": false,
      "taf_trigger": false,
      "metar": "METAR EDDK 061220Z AUTO 12007KT 090V150 9999 -RA BKN041 05/02 Q0992 NOSIG",
      "taf": "TAF EDDK 061100Z 0612/0718 12007KT 9999 BKN040"
    },
    {
      "icao": "EDDN",
      "alert": "OK",
      "vis_m": 9999,
      "fzfg": false,
      "metar_trigger": false,
      "taf_trigger": false,
      "metar": "METAR EDDN 061220Z AUTO 18003KT 150V210 9999 OVC009 02/M01 Q0994 BECMG OVC010",
      "taf": "TAF EDDN 061100Z 0612/0712 15004KT 9000 OVC006"
    },
    {
      "icao": "EDDS",
      "alert": "OK",
      "vis_m": 9999,
      "fzfg": false,
      "metar_trigger": false,
      "taf_trigger": false,
      "metar": "METAR EDDS 061220Z AUTO VRB02KT 9999 -SHRA FEW029 BKN037 OVC043 BKN///TCU 06/03 Q0993 RESHRA NOSIG",
      "taf": "TAF EDDS 061100Z 0612/0712 19004KT 9999 BKN030"
    },
    {
      "icao": "EDFH",
      "alert": "OK",
      "vis_m": 1200,
      "fzfg": false,
      "metar_trigger": false,
      "taf_trigger": false,
      "metar": "METAR EDFH 061220Z 14013KT 1200 R21/1500N -DZ BR OVC001 01/01 Q0991",
      "taf": "TAF EDFH 061100Z 0612/0712 15012KT 5000 BR BKN005"
    },
    {
      "icao": "EDJA",
      "alert": "OK",
      "vis_m": 9999,
      "fzfg": false,
      "metar_trigger": false,
      "taf_trigger": false,
      "metar": "METAR EDJA 061220Z 23011KT 9999 -DZ FEW007 BKN010 OVC020 05/04 Q0994",
      "taf": ""
    },
    {
      "icao": "EDLW",
      "alert": "OK",
      "vis_m": 9999,
      "fzfg": false,
      "metar_trigger": false,
      "taf_trigger": false,
      "metar": "METAR EDLW 061220Z 01003KT CAVOK 04/01 Q0991",
      "taf": "TAF EDLW 061100Z 0612/0712 08004KT 8000 NSC"
    },
    {
      "icao": "EDNY",
      "alert": "OK",
      "vis_m": 7000,
      "fzfg": false,
      "metar_trigger": false,
      "taf_trigger": false,
      "metar": "METAR EDNY 061220Z 14003KT 7000 BKN023 OVC033 05/03 Q0995",
      "taf": "TAF EDNY 061100Z 0612/0621 21004KT 6000 BKN020"
    },
    {
      "icao": "EDSB",
      "alert": "OK",
      "vis_m": 2100,
      "fzfg": false,
      "metar_trigger": false,
      "taf_trigger": false,
      "metar": "METAR EDSB 061220Z 00000KT 2100 -DZ BR OVC004 03/03 Q0994",
      "taf": "TAF EDSB 061100Z 0612/0712 20004KT 6000 SCT004 BKN005"
    },
    {
      "icao": "EETN",
      "alert": "OK",
      "vis_m": 9999,
      "fzfg": false,
      "metar_trigger": false,
      "taf_trigger": false,
      "metar": "METAR EETN 061220Z 08007KT 9999 BKN030 OVC046 M08/M10 Q1012 NOSIG",
      "taf": "TAF EETN 061130Z 0612/0712 08010KT 9999 OVC025"
    },
    {
      "icao": "EFTU",
      "alert": "OK",
      "vis_m": 9999,
      "fzfg": false,
      "metar_trigger": false,
      "taf_trigger": false,
      "metar": "METAR EFTU 061220Z AUTO 06006KT 9999 FEW028 M11/M15 Q1014",
      "taf": "TAF EFTU 061126Z 0612/0712 06006KT 9999 FEW027"
    },
    {
      "icao": "EGBB",
      "alert": "OK",
      "vis_m": 3500,
      "fzfg": false,
      "metar_trigger": false,
      "taf_trigger": false,
      "metar": "METAR EGBB 061220Z 09007KT 3500 RA OVC004 06/06 Q0985 REDZ",
      "taf": "TAF EGBB 061102Z 0612/0712 07009KT 9999 SCT004 BKN009"
    },
    {
      "icao": "EGGP",
      "alert": "OK",
      "vis_m": 9999,
      "fzfg": false,
      "metar_trigger": false,
      "taf_trigger": false,
      "metar": "METAR EGGP 061220Z 07015KT 9999 -RA FEW025 SCT038 OVC045 05/03 Q0986",
      "taf": "TAF EGGP 061059Z 0612/0712 08012KT 9999 FEW012 BKN040"
    },
    {
      "icao": "EGGW",
      "alert": "OK",
      "vis_m": 9999,
      "fzfg": false,
      "metar_trigger": false,
      "taf_trigger": false,
      "metar": "METAR EGGW 061220Z AUTO 12007KT 9999 OVC003 08/08 Q0985",
      "taf": "TAF EGGW 061057Z 0612/0712 11010KT 6000 -RA SCT006 BKN010"
    },
    {
      "icao": "EGKK",
      "alert": "OK",
      "vis_m": 2000,
      "fzfg": false,
      "metar_trigger": false,
      "taf_trigger": false,
      "metar": "METAR EGKK 061220Z 19005KT 150V220 2000 -RADZ BKN006CB 10/10 Q0985",
      "taf": "TAF EGKK 061057Z 0612/0718 19008KT 9999 SCT010"
    },
    {
      "icao": "EGNM",
      "alert": "OK",
      "vis_m": 1200,
      "fzfg": false,
      "metar_trigger": false,
      "taf_trigger": false,
      "metar": "METAR EGNM 061220Z 06008KT 1200 R14/P1500N -RADZ BR SCT001 OVC002 04/04 Q0988",
      "taf": "TAF EGNM 061100Z 0612/0712 07009KT 2000 -RA BR SCT002 BKN003"
    },
    {
      "icao": "EGPD",
      "alert": "OK",
      "vis_m": 6000,
      "fzfg": false,
      "metar_trigger": false,
      "taf_trigger": false,
      "metar": "METAR EGPD 061220Z 11014G24KT 070V140 6000 -RADZ SCT008 BKN015 03/01 Q0997 TEMPO 4000 RA BKN010",
      "taf": "TAF EGPD 061058Z 0612/0712 10012KT 9999 SCT012 BKN020"
    },
    {
      "icao": "EGPF",
      "alert": "OK",
      "vis_m": 9999,
      "fzfg": false,
      "metar_trigger": false,
      "taf_trigger": false,
      "metar": "METAR EGPF 061220Z AUTO 07018KT 9999 BKN019 BKN023 05/02 Q0992",
      "taf": "TAF EGPF 061103Z 0612/0712 07012KT 9999 SCT015 BKN025"
    },
    {
      "icao": "EHBK",
      "alert": "OK",
      "vis_m": 6000,
      "fzfg": false,
      "metar_trigger": false,
      "taf_trigger": false,
      "metar": "METAR EHBK 061155Z AUTO 10005KT 6000 -SHRA SCT002 FEW015CB OVC018 07/07 Q0990 REDZ TEMPO 4000 -RADZ",
      "taf": "TAF EHBK 061120Z 0612/0718 16006KT 9999 OVC020"
    },
    {
      "icao": "EHEH",
      "alert": "OK",
      "vis_m": 7000,
      "fzfg": false,
      "metar_trigger": false,
      "taf_trigger": false,
      "metar": "METAR EHEH 061155Z AUTO 12006KT 080V170 7000 DZ FEW006 OVC018 07/06 Q0990 WHT TEMPO 3000 RADZ SCT004 BKN005",
      "taf": ""
    },
    {
      "icao": "EKBI",
      "alert": "OK",
      "vis_m": 6000,
      "fzfg": false,
      "metar_trigger": false,
      "taf_trigger": false,
      "metar": "METAR EKBI 061220Z AUTO 07013KT 6000 OVC006/// M01/M01 Q0998",
      "taf": "TAF EKBI 061127Z 0612/0712 08018KT 8000 BKN010"
    },
    {
      "icao": "EKCH",
      "alert": "OK",
      "vis_m": 9000,
      "fzfg": false,
      "metar_trigger": false,
      "taf_trigger": false,
      "metar": "METAR EKCH 061220Z 08014KT 9000 -RADZ BKN008 01/M00 Q1000 TEMPO BKN012",
      "taf": "TAF EKCH 061127Z 0612/0712 07010KT 9000 BKN012"
    },
    {
      "icao": "ENAL",
      "alert": "OK",
      "vis_m": 9999,
      "fzfg": false,
      "metar_trigger": false,
      "taf_trigger": false,
      "metar": "METAR ENAL 061220Z 12005KT 090V220 CAVOK 04/M13 Q1007",
      "taf": "TAF ENAL 061100Z 0612/0621 06005KT CAVOK"
    },
    {
      "icao": "ENBR",
      "alert": "OK",
      "vis_m": 9999,
      "fzfg": false,
      "metar_trigger": false,
      "taf_trigger": false,
      "metar": "METAR ENBR 061220Z 35003KT 330V050 CAVOK M00/M06 Q1005 NOSIG RMK WIND 1200FT 08005KT",
      "taf": "TAF ENBR 061100Z 0612/0712 03005KT CAVOK"
    },
    {
      "icao": "ENGM",
      "alert": "OK",
      "vis_m": 9999,
      "fzfg": false,
      "metar_trigger": false,
      "taf_trigger": false,
      "metar": "METAR ENGM 061220Z 02014KT CAVOK M10/M15 Q1013 NOSIG",
      "taf": "TAF ENGM 061100Z 0612/0712 02012KT 9999 FEW010 SCT040"
    },
    {
      "icao": "ENHD",
      "alert": "OK",
      "vis_m": 9999,
      "fzfg": false,
      "metar_trigger": false,
      "taf_trigger": false,
      "metar": "METAR ENHD 061220Z 08011KT 9999 VCSH FEW026 BKN037 OVC043 02/M08 Q1004",
      "taf": "TAF ENHD 061100Z 0612/0621 08008KT 9999 BKN040"
    },
    {
      "icao": "ENTC",
      "alert": "OK",
      "vis_m": 9999,
      "fzfg": false,
      "metar_trigger": false,
      "taf_trigger": false,
      "metar": "METAR ENTC 061220Z VRB02KT 9999 FEW013 SCT024 BKN035 01/M01 Q1012 TEMPO 3500 -SHSN BKN014 RMK WIND 2600FT 33026KT",
      "taf": "TAF ENTC 061100Z 0612/0712 33006KT 9999 SCT020 BKN040"
    },
    {
      "icao": "ENTO",
      "alert": "OK",
      "vis_m": 3000,
      "fzfg": false,
      "metar_trigger": false,
      "taf_trigger": false,
      "metar": "METAR ENTO 061220Z 02016KT 3000 -SN OVC021 M08/M11 Q1010 TEMPO 02016G26KT 6000",
      "taf": ""
    },
    {
      "icao": "ENVA",
      "alert": "OK",
      "vis_m": 9999,
      "fzfg": false,
      "metar_trigger": false,
      "taf_trigger": false,
      "metar": "METAR ENVA 061220Z 12009KT CAVOK M09/M19 Q1015 NOSIG RMK WIND 670FT 11007KT",
      "taf": "TAF ENVA 061100Z 0612/0712 12008KT CAVOK"
    },
    {
      "icao": "ENZV",
      "alert": "OK",
      "vis_m": 9999,
      "fzfg": false,
      "metar_trigger": false,
      "taf_trigger": false,
      "metar": "METAR ENZV 061220Z 35004KT 9999 FEW029 OVC040 M01/M04 Q1004 RESN NOSIG",
      "taf": "TAF ENZV 061100Z 0612/0712 VRB03KT 9999 BKN030"
    },
    {
      "icao": "EPGD",
      "alert": "OK",
      "vis_m": 9999,
      "fzfg": false,
      "metar_trigger": false,
      "taf_trigger": false,
      "metar": "METAR EPGD 061200Z 11012KT 9999 -SN OVC006 M01/M02 Q1000",
      "taf": "TAF EPGD 061130Z 0612/0712 09010KT 9999 OVC005"
    },
    {
      "icao": "EPKK",
      "alert": "OK",
      "vis_m": 5000,
      "fzfg": false,
      "metar_trigger": false,
      "taf_trigger": false,
      "metar": "METAR EPKK 061200Z 03005KT 5000 BR OVC003 02/01 Q0995",
      "taf": "TAF EPKK 061130Z 0612/0712 06003KT 4000 BR OVC004"
    },
    {
      "icao": "EPKT",
      "alert": "OK",
      "vis_m": 9999,
      "fzfg": false,
      "metar_trigger": false,
      "taf_trigger": false,
      "metar": "METAR EPKT 061200Z 13003KT 080V160 9999 FEW048 06/02 Q0995",
      "taf": "TAF EPKT 061130Z 0612/0712 08003KT 9999 SCT040"
    },
    {
      "icao": "EPLB",
      "alert": "OK",
      "vis_m": 4200,
      "fzfg": false,
      "metar_trigger": false,
      "taf_trigger": false,
      "metar": "METAR EPLB 061200Z 10009KT 4200 BR OVC003 01/01 Q0998",
      "taf": "TAF EPLB 061130Z 0612/0712 10009KT 6000 BKN003 OVC005"
    },
    {
      "icao": "EPMO",
      "alert": "OK",
      "vis_m": 4200,
      "fzfg": false,
      "metar_trigger": false,
      "taf_trigger": false,
      "metar": "METAR EPMO 061200Z 08009KT 4200 BR OVC005 01/00 Q0998",
      "taf": "TAF EPMO 061130Z 0612/0712 09010KT 5000 BR OVC005"
    },
    {
      "icao": "EPPO",
      "alert": "OK",
      "vis_m": 5000,
      "fzfg": false,
      "metar_trigger": false,
      "taf_trigger": false,
      "metar": "METAR EPPO 061200Z 09006KT 5000 BR OVC005 01/00 Q0996",
      "taf": "TAF EPPO 061130Z 0612/0712 10008KT 6000 OVC006"
    },
    {
      "icao": "EPRA",
      "alert": "OK",
      "vis_m": 9000,
      "fzfg": false,
      "metar_trigger": false,
      "taf_trigger": false,
      "metar": "METAR EPRA 061200Z 11009KT 9000 OVC005 02/01 Q0997",
      "taf": "TAF EPRA 061130Z 0612/0621 11008KT 8000 OVC005"
    },
    {
      "icao": "EPRZ",
      "alert": "OK",
      "vis_m": 9999,
      "fzfg": false,
      "metar_trigger": false,
      "taf_trigger": false,
      "metar": "METAR EPRZ 061200Z 07010KT 9999 FEW020 02/01 Q0997",
      "taf": "TAF EPRZ 061130Z 0612/0712 07009KT 8000 SCT023"
    },
    {
      "icao": "EPSC",
      "alert": "OK",
      "vis_m": 5000,
      "fzfg": false,
      "metar_trigger": false,
      "taf_trigger": false,
      "metar": "METAR EPSC 061200Z 08005KT 5000 BR OVC006 01/M00 Q0997",
      "taf": "TAF EPSC 061130Z 0612/0712 07005KT 6000 OVC006"
    },
    {
      "icao": "EPSY",
      "alert": "OK",
      "vis_m": 7000,
      "fzfg": false,
      "metar_trigger": false,
      "taf_trigger": false,
      "metar": "METAR EPSY 061200Z 09006KT 040V140 7000 OVC003 M02/M02 Q1000",
      "taf": "TAF EPSY 061130Z 0612/0621 10006KT 7000 OVC005"
    },
    {
      "icao": "EPWA",
      "alert": "OK",
      "vis_m": 5000,
      "fzfg": false,
      "metar_trigger": false,
      "taf_trigger": false,
      "metar": "METAR EPWA 061200Z 10008KT 060V120 5000 BR OVC004 01/00 Q0998 NOSIG",
      "taf": "TAF EPWA 061130Z 0612/0712 10009KT 4000 BR OVC003"
    },
    {
      "icao": "EPWR",
      "alert": "OK",
      "vis_m": 6000,
      "fzfg": false,
      "metar_trigger": false,
      "taf_trigger": false,
      "metar": "METAR EPWR 061200Z 09004KT 6000 BKN008 BKN037 03/02 Q0995",
      "taf": "TAF EPWR 061130Z 0612/0712 10010KT 6000 FEW006 BKN030"
    },
    {
      "icao": "ESGG",
      "alert": "OK",
      "vis_m": 7000,
      "fzfg": false,
      "metar_trigger": false,
      "taf_trigger": false,
      "metar": "METAR ESGG 061220Z 05015KT 7000 -SN VV013 M04/M06 Q1003",
      "taf": "TAF ESGG 061130Z 0612/0712 05015G25KT 6000 -SN OVC015"
    },
    {
      "icao": "ESKN",
      "alert": "OK",
      "vis_m": 9999,
      "fzfg": false,
      "metar_trigger": false,
      "taf_trigger": false,
      "metar": "METAR ESKN 061220Z 02011KT 350V050 9999 BKN006 M08/M10 Q1010",
      "taf": "TAF ESKN 061130Z 0612/0712 03010KT 9999 OVC007"
    },
    {
      "icao": "ESMS",
      "alert": "OK",
      "vis_m": 9000,
      "fzfg": false,
      "metar_trigger": false,
      "taf_trigger": false,
      "metar": "METAR ESMS 061220Z 09019KT 9000 OVC007 01/M00 Q0999",
      "taf": "TAF ESMS 061127Z 0612/0712 09018KT 9000 -SNRADZ BKN010"
    },
    {
      "icao": "ESSA",
      "alert": "OK",
      "vis_m": 9999,
      "fzfg": false,
      "metar_trigger": false,
      "taf_trigger": false,
      "metar": "METAR ESSA 061220Z 01013KT 9999 BKN012 M07/M12 Q1012 TEMPO BKN009",
      "taf": "TAF ESSA 061130Z 0612/0712 04010KT 9999 SCT009 BKN015"
    },
    {
      "icao": "EYKA",
      "alert": "OK",
      "vis_m": 9999,
      "fzfg": false,
      "metar_trigger": false,
      "taf_trigger": false,
      "metar": "METAR EYKA 061220Z 10008KT 070V130 9999 OVC009 M04/M06 Q1005",
      "taf": "TAF EYKA 061105Z 0612/0712 09010KT 9000 OVC010"
    },
    {
      "icao": "EYPA",
      "alert": "OK",
      "vis_m": 9999,
      "fzfg": false,
      "metar_trigger": false,
      "taf_trigger": false,
      "metar": "METAR EYPA 061220Z 08010KT 9999 SCT013 OVC034 M03/M07 Q1004",
      "taf": "TAF EYPA 061105Z 0612/0712 08010KT 9000 OVC015"
    },
    {
      "icao": "EYVI",
      "alert": "OK",
      "vis_m": 9999,
      "fzfg": false,
      "metar_trigger": false,
      "taf_trigger": false,
      "metar": "METAR EYVI 061220Z 10007KT 070V130 9999 OVC010 M05/M07 Q1004 NOSIG",
      "taf": "TAF EYVI 061112Z 0612/0712 12012KT 9000 BKN005 OVC010"
    },
    {
      "icao": "GCFV",
      "alert": "OK",
      "vis_m": 9999,
      "fzfg": false,
      "metar_trigger": false,
      "taf_trigger": false,
      "metar": "METAR GCFV 061200Z 33016G30KT 290V360 9999 FEW030 22/11 Q1022",
      "taf": "TAF GCFV 060800Z 0609/0709 33015KT 9999 FEW020 TX21/0614Z TN14/0706Z"
    },
    {
      "icao": "GCLP",
      "alert": "OK",
      "vis_m": 9999,
      "fzfg": false,
      "metar_trigger": false,
      "taf_trigger": false,
      "metar": "METAR GCLP 061200Z 01023KT 9999 FEW035 22/12 Q1022 NOSIG",
      "taf": "TAF GCLP 060800Z 0609/0709 36018KT 9999 SCT020 TX22/0614Z TN15/0706Z"
    },
    {
      "icao": "GCTS",
      "alert": "OK",
      "vis_m": 9999,
      "fzfg": false,
      "metar_trigger": false,
      "taf_trigger": false,
      "metar": "METAR GCTS 061200Z 24010KT 210V270 9999 FEW040 21/13 Q1022 NOSIG",
      "taf": ""
    },
    {
      "icao": "GMAD",
      "alert": "OK",
      "vis_m": 8000,
      "fzfg": false,
      "metar_trigger": false,
      "taf_trigger": false,
      "metar": "METAR GMAD 061200Z 25012KT 8000 SCT010 SCT023 19/17 Q1019 NOSIG",
      "taf": "TAF GMAD 061100Z 0612/0718 28012KT 8000 SCT020"
    },
    {
      "icao": "GMMN",
      "alert": "OK",
      "vis_m": 9999,
      "fzfg": false,
      "metar_trigger": false,
      "taf_trigger": false,
      "metar": "METAR GMMN 061200Z 25016KT 220V290 9999 BKN020 17/14 Q1016 NOSIG",
      "taf": "TAF GMMN 061100Z 0612/0718 24014KT 9999 BKN026"
    },
    {
      "icao": "GMMX",
      "alert": "OK",
      "vis_m": 9999,
      "fzfg": false,
      "metar_trigger": false,
      "taf_trigger": false,
      "metar": "METAR GMMX 061200Z 27019KT 9999 BKN026 18/11 Q1018 NOSIG",
      "taf": "TAF GMMX 061100Z 0612/0718 18006KT 8000 SCT026"
    },
    {
      "icao": "HEGN",
      "alert": "OK",
      "vis_m": 9999,
      "fzfg": false,
      "metar_trigger": false,
      "taf_trigger": false,
      "metar": "METAR HEGN 061200Z 10008KT CAVOK 25/16 Q1012 NOSIG",
      "taf": "TAF HEGN 061110Z 0612/0718 12008KT CAVOK"
    },
    {
      "icao": "HEMA",
      "alert": "OK",
      "vis_m": 9999,
      "fzfg": false,
      "metar_trigger": false,
      "taf_trigger": false,
      "metar": "METAR HEMA 061200Z 09006KT CAVOK 26/08 Q1013 NOSIG",
      "taf": "TAF HEMA 061110Z 0612/0718 12008KT CAVOK"
    },
    {
      "icao": "HESH",
      "alert": "OK",
      "vis_m": 9999,
      "fzfg": false,
      "metar_trigger": false,
      "taf_trigger": false,
      "metar": "METAR HESH 061200Z 15010KT CAVOK 24/16 Q1012 NOSIG",
      "taf": "TAF HESH 061110Z 0612/0718 19008KT CAVOK"
    },
    {
      "icao": "HESX",
      "alert": "OK",
      "vis_m": 9999,
      "fzfg": false,
      "metar_trigger": false,
      "taf_trigger": false,
      "metar": "METAR HESX 061200Z 30010KT CAVOK 25/04 Q1012 NOSIG",
      "taf": "TAF HESX 061110Z 0612/0718 22009KT 9999 FEW025"
    },
    {
      "icao": "LATI",
      "alert": "OK",
      "vis_m": 9999,
      "fzfg": false,
      "metar_trigger": false,
      "taf_trigger": false,
      "metar": "METAR LATI 061220Z 10007KT 050V140 9999 -RA FEW026CB SCT035 BKN065 12/09 Q0995 NOSIG",
      "taf": "TAF LATI 061100Z 0612/0712 16016KT 9999 RA SCT020CB BKN030 OVC045 TX14/0711Z TN09/0705Z"
    },
    {
      "icao": "LBPD",
      "alert": "OK",
      "vis_m": 9999,
      "fzfg": false,
      "metar_trigger": false,
      "taf_trigger": false,
      "metar": "METAR LBPD 061200Z AUTO 07007KT 9999 BKN012/// BKN190/// 09/08 Q0999 NOSIG",
      "taf": "TAF LBPD 061100Z 0612/0712 VRB04KT 9999 SCT015 BKN033"
    },
    {
      "icao": "LBSF",
      "alert": "OK",
      "vis_m": 9999,
      "fzfg": false,
      "metar_trigger": false,
      "taf_trigger": false,
      "metar": "METAR LBSF 061200Z 13004KT 090V200 9999 FEW016 SCT065 BKN086 07/04 Q0998 NOSIG",
      "taf": "TAF LBSF 061100Z 0612/0712 10008KT 9999 SCT020 OVC040"
    },
    {
      "icao": "LBWN",
      "alert": "OK",
      "vis_m": 4600,
      "fzfg": false,
      "metar_trigger": false,
      "taf_trigger": false,
      "metar": "METAR LBWN 061200Z AUTO 24004KT 200V270 4600 BR OVC010/// 09/08 Q1000 NOSIG",
      "taf": "TAF LBWN 061100Z 0612/0712 25008KT 7000 BKN015"
    },
    {
      "icao": "LCLK",
      "alert": "OK",
      "vis_m": 9999,
      "fzfg": false,
      "metar_trigger": false,
      "taf_trigger": false,
      "metar": "METAR LCLK 061200Z 21003KT 170V280 9999 FEW020 SCT030 BKN070 19/15 Q1008 NOSIG",
      "taf": "TAF LCLK 061130Z 0612/0712 16010KT 9999 FEW020"
    },
    {
      "icao": "LCPH",
      "alert": "OK",
      "vis_m": 9999,
      "fzfg": false,
      "metar_trigger": false,
      "taf_trigger": false,
      "metar": "METAR LCPH 061200Z 15008KT 9999 FEW012 SCT040 BKN070 19/16 Q1008 NOSIG",
      "taf": "TAF LCPH 061130Z 0612/0712 14012KT 9999 FEW020"
    },
    {
      "icao": "LEAL",
      "alert": "OK",
      "vis_m": 9999,
      "fzfg": false,
      "metar_trigger": false,
      "taf_trigger": false,
      "metar": "METAR LEAL 061200Z 23009KT 190V280 9999 FEW020 19/06 Q1005 NOSIG",
      "taf": "TAF LEAL 061100Z 0612/0712 24010KT 9999 FEW020 TX20/0614Z TN08/0706Z"
    },
    {
      "icao": "LEBB",
      "alert": "OK",
      "vis_m": 9999,
      "fzfg": false,
      "metar_trigger": false,
      "taf_trigger": false,
      "metar": "METAR LEBB 061200Z VRB07KT 9999 FEW050 15/04 Q0998 NOSIG",
      "taf": "TAF LEBB 061100Z 0612/0712 22009KT 9999 FEW040 TX16/0613Z TN09/0707Z"
    },
    {
      "icao": "LEBL",
      "alert": "OK",
      "vis_m": 9999,
      "fzfg": false,
      "metar_trigger": false,
      "taf_trigger": false,
      "metar": "METAR LEBL 061200Z 27016KT 9999 FEW030 18/06 Q1000 NOSIG",
      "taf": "TAF LEBL 061100Z 0612/0712 24012KT 9999 FEW025 TX17/0613Z TN08/0706Z"
    },
    {
      "icao": "LECH",
      "alert": "OK",
      "vis_m": 9999,
      "fzfg": false,
      "metar_trigger": false,
      "taf_trigger": false,
      "metar": "METAR LECH 061200Z AUTO 16007KT 110V210 CAVOK 17/01 Q1001",
      "taf": ""
    },
    {
      "icao": "LEMD",
      "alert": "OK",
      "vis_m": 9999,
      "fzfg": false,
      "metar_trigger": false,
      "taf_trigger": false,
      "metar": "METAR LEMD 061200Z VRB05G16KT 9999 -RA FEW012 FEW030TCU SCT035 07/06 Q1003 RERA NOSIG",
      "taf": ""
    },
    {
      "icao": "LEMG",
      "alert": "OK",
      "vis_m": 9999,
      "fzfg": false,
      "metar_trigger": false,
      "taf_trigger": false,
      "metar": "METAR LEMG 061200Z 15005KT 110V200 9999 FEW012 SCT055 15/11 Q1009 NOSIG",
      "taf": "TAF LEMG 061100Z 0612/0712 VRB03KT 9999 FEW030 TX20/0614Z TN10/0707Z"
    },
    {
      "icao": "LEVC",
      "alert": "OK",
      "vis_m": 9999,
      "fzfg": false,
      "metar_trigger": false,
      "taf_trigger": false,
      "metar": "METAR LEVC 061200Z 26019KT 240V300 9999 SCT041 17/04 Q1003 NOSIG",
      "taf": "TAF LEVC 061100Z 0612/0712 26015KT 9999 FEW030 TX20/0614Z TN08/0706Z"
    },
    {
      "icao": "LEXJ",
      "alert": "OK",
      "vis_m": 9999,
      "fzfg": false,
      "metar_trigger": false,
      "taf_trigger": false,
      "metar": "METAR LEXJ 061200Z 21012G25KT 150V260 9999 FEW050 13/04 Q0996",
      "taf": ""
    },
    {
      "icao": "LEZG",
      "alert": "OK",
      "vis_m": 9999,
      "fzfg": false,
      "metar_trigger": false,
      "taf_trigger": false,
      "metar": "METAR LEZG 061200Z 24017KT 210V270 9999 FEW050 14/04 Q1000 NOSIG",
      "taf": "TAF LEZG 061100Z 0612/0712 25010KT 9999 FEW040 TX16/0615Z TN07/0706Z"
    },
    {
      "icao": "LEZL",
      "alert": "OK",
      "vis_m": 9999,
      "fzfg": false,
      "metar_trigger": false,
      "taf_trigger": false,
      "metar": "METAR LEZL 061200Z 23012KT 9999 FEW022 SCT032 BKN042 16/12 Q1007 NOSIG",
      "taf": "TAF LEZL 060800Z 0609/0709 24012KT 9999 SCT030 TX18/0615Z TN12/0707Z"
    },
    {
      "icao": "LFBD",
      "alert": "OK",
      "vis_m": 9999,
      "fzfg": false,
      "metar_trigger": false,
      "taf_trigger": false,
      "metar": "METAR LFBD 061200Z AUTO 25018KT 9999 BKN034 BKN040 BKN056 15/08 Q0997 NOSIG",
      "taf": "TAF LFBD 061100Z 0612/0718 24010KT 9999 BKN030 TX15/0614Z TN06/0704Z"
    },
    {
      "icao": "LFLL",
      "alert": "OK",
      "vis_m": 9999,
      "fzfg": false,
      "metar_trigger": false,
      "taf_trigger": false,
      "metar": "METAR LFLL 061200Z 23011KT CAVOK 14/06 Q0997 NOSIG",
      "taf": "TAF LFLL 061100Z 0612/0718 19008KT CAVOK"
    },
    {
      "icao": "LFLS",
      "alert": "OK",
      "vis_m": 9999,
      "fzfg": false,
      "metar_trigger": false,
      "taf_trigger": false,
      "metar": "METAR LFLS 061200Z AUTO 07006KT 9999 BKN052 OVC096 11/09 Q0997 TEMPO 4000 SHRA SCT040TCU BKN050",
      "taf": "TAF LFLS 060800Z 0609/0709 07007KT 9999 SCT050"
    },
    {
      "icao": "LFMN",
      "alert": "OK",
      "vis_m": 9999,
      "fzfg": false,
      "metar_trigger": false,
      "taf_trigger": false,
      "metar": "METAR LFMN 061200Z 15003KT 9999 FEW028 15/10 Q0995 NOSIG",
      "taf": "TAF LFMN 060800Z 0609/0715 34010KT CAVOK"
    },
    {
      "icao": "LFOB",
      "alert": "OK",
      "vis_m": 9999,
      "fzfg": false,
      "metar_trigger": false,
      "taf_trigger": false,
      "metar": "METAR LFOB 061200Z AUTO 22011KT 9999 BKN017 BKN023 BKN033 12/09 Q0989 TEMPO 2500 SHRA SCT020CB",
      "taf": "TAF LFOB 061100Z 0612/0712 22007KT 9999 BKN020"
    },
    {
      "icao": "LFPO",
      "alert": "OK",
      "vis_m": 9999,
      "fzfg": false,
      "metar_trigger": false,
      "taf_trigger": false,
      "metar": "METAR LFPO 061200Z 23013KT 9999 BKN020 BKN040 12/08 Q0990 TEMPO 4000 -SHRA BKN020TCU",
      "taf": "TAF LFPO 061100Z 0612/0718 22012KT 9999 BKN020"
    },
    {
      "icao": "LFSB",
      "alert": "OK",
      "vis_m": 9999,
      "fzfg": false,
      "metar_trigger": false,
      "taf_trigger": false,
      "metar": "METAR LFSB 061200Z AUTO 08005KT 050V110 9999 BKN024 BKN031 OVC040 08/07 Q0994 TEMPO FEW020CB BECMG 24010KT",
      "taf": "TAF LFSB 061100Z 0612/0712 24010KT 9999 SCT020 BKN040"
    },
    {
      "icao": "LGAV",
      "alert": "OK",
      "vis_m": 9999,
      "fzfg": false,
      "metar_trigger": false,
      "taf_trigger": false,
      "metar": "METAR LGAV 061220Z 19008KT 9999 FEW020 SCT060 18/09 Q1002 NOSIG",
      "taf": "TAF LGAV 061100Z 0612/0712 22012KT 9999 FEW025"
    },
    {
      "icao": "LGTS",
      "alert": "OK",
      "vis_m": 9000,
      "fzfg": false,
      "metar_trigger": false,
      "taf_trigger": false,
      "metar": "METAR LGTS 061220Z VRB02KT 9000 -RA FEW010 BKN025 12/12 Q0999 NOSIG",
      "taf": "TAF LGTS 061100Z 0612/0712 VRB03KT 9999 FEW010 SCT025"
    },
    {
      "icao": "LHBP",
      "alert": "OK",
      "vis_m": 7000,
      "fzfg": false,
      "metar_trigger": false,
      "taf_trigger": false,
      "metar": "METAR LHBP 061200Z 09007KT 7000 OVC008 08/06 Q0995 BECMG BKN012",
      "taf": "TAF LHBP 061115Z 0612/0712 09008KT 8000 BKN015"
    },
    {
      "icao": "LHDC",
      "alert": "OK",
      "vis_m": 9999,
      "fzfg": false,
      "metar_trigger": false,
      "taf_trigger": false,
      "metar": "METAR LHDC 061145Z AUTO 20005KT 110V250 9999 SCT020 BKN065 11/06 Q0996 NOSIG",
      "taf": "TAF LHDC 061115Z 0612/0621 16004KT CAVOK"
    },
    {
      "icao": "LIBD",
      "alert": "OK",
      "vis_m": 9999,
      "fzfg": false,
      "metar_trigger": false,
      "taf_trigger": false,
      "metar": "METAR LIBD 061220Z 25017KT CAVOK 19/08 Q0992",
      "taf": "TAF LIBD 061100Z 0612/0712 22018G28KT CAVOK"
    },
    {
      "icao": "LIBG",
      "alert": "OK",
      "vis_m": 9999,
      "fzfg": false,
      "metar_trigger": false,
      "taf_trigger": false,
      "metar": "METAR LIBG 061150Z 23012KT 9999 FEW030 19/11 Q0993",
      "taf": "TAF LIBG 061100Z 0612/0621 20009KT 9999 SCT030"
    },
    {
      "icao": "LIBP",
      "alert": "OK",
      "vis_m": 9999,
      "fzfg": false,
      "metar_trigger": false,
      "taf_trigger": false,
      "metar": "METAR LIBP 061220Z AUTO 06007KT 030V090 9999 FEW190/// 15/10 Q0991",
      "taf": "TAF LIBP 061100Z 0612/0712 25013KT 9999 BKN030"
    },
    {
      "icao": "LIBR",
      "alert": "OK",
      "vis_m": 9999,
      "fzfg": false,
      "metar_trigger": false,
      "taf_trigger": false,
      "metar": "METAR LIBR 061220Z 24014KT 9999 FEW030 20/10 Q0993",
      "taf": "TAF LIBR 061100Z 0612/0712 22018KT CAVOK"
    },
    {
      "icao": "LICA",
      "alert": "OK",
      "vis_m": 9999,
      "fzfg": false,
      "metar_trigger": false,
      "taf_trigger": false,
      "metar": "METAR LICA 061220Z AUTO 26018KT 9999 NCD 18/14 Q1000",
      "taf": "TAF LICA 061100Z 0612/0712 27020G30KT 9999 BKN020"
    },
    {
      "icao": "LICC",
      "alert": "OK",
      "vis_m": 9999,
      "fzfg": false,
      "metar_trigger": false,
      "taf_trigger": false,
      "metar": "METAR LICC 061220Z 27016KT CAVOK 23/19 Q1001",
      "taf": "TAF LICC 061100Z 0612/0712 25015KT 9999 FEW040"
    },
    {
      "icao": "LICJ",
      "alert": "OK",
      "vis_m": 9999,
      "fzfg": false,
      "metar_trigger": false,
      "taf_trigger": false,
      "metar": "METAR LICJ 061220Z 25025KT CAVOK 17/11 Q1003",
      "taf": "TAF LICJ 061100Z 0612/0712 26022KT 9999 FEW020"
    },
    {
      "icao": "LIMC",
      "alert": "OK",
      "vis_m": 9999,
      "fzfg": false,
      "metar_trigger": false,
      "taf_trigger": false,
      "metar": "METAR LIMC 061220Z 27006KT 230V310 CAVOK 12/06 Q0995 NOSIG",
      "taf": "TAF LIMC 061100Z 0612/0718 VRB05KT 9999 SCT030"
    },
    {
      "icao": "LIME",
      "alert": "OK",
      "vis_m": 9999,
      "fzfg": false,
      "metar_trigger": false,
      "taf_trigger": false,
      "metar": "METAR LIME 061220Z 28011KT 9999 FEW080 11/06 Q0994 NOSIG",
      "taf": "TAF LIME 061100Z 0612/0712 26010KT 9999 SCT070"
    },
    {
      "icao": "LIMF",
      "alert": "OK",
      "vis_m": 9999,
      "fzfg": false,
      "metar_trigger": false,
      "taf_trigger": false,
      "metar": "METAR LIMF 061220Z 18005KT 140V210 CAVOK 12/05 Q0994",
      "taf": "TAF LIMF 061100Z 0612/0712 VRB05KT CAVOK"
    },
    {
      "icao": "LIMJ",
      "alert": "OK",
      "vis_m": 9999,
      "fzfg": false,
      "metar_trigger": false,
      "taf_trigger": false,
      "metar": "METAR LIMJ 061220Z 04010KT 010V080 CAVOK 14/07 Q0994",
      "taf": "TAF LIMJ 061100Z 0612/0712 02012KT 9999 SCT040"
    },
    {
      "icao": "LIPE",
      "alert": "OK",
      "vis_m": 8000,
      "fzfg": false,
      "metar_trigger": false,
      "taf_trigger": false,
      "metar": "METAR LIPE 061220Z 26008KT 8000 -RA SCT008 BKN012 10/09 Q0994",
      "taf": "TAF LIPE 061100Z 0612/0712 VRB05KT 7000 BKN012"
    },
    {
      "icao": "LIPH",
      "alert": "OK",
      "vis_m": 9999,
      "fzfg": false,
      "metar_trigger": false,
      "taf_trigger": false,
      "metar": "METAR LIPH 061220Z 36004KT 330V030 9999 FEW050 BKN080 10/08 Q0993",
      "taf": "TAF LIPH 061100Z 0612/0712 VRB05KT 8000 BKN040"
    },
    {
      "icao": "LIPQ",
      "alert": "OK",
      "vis_m": 9999,
      "fzfg": false,
      "metar_trigger": false,
      "taf_trigger": false,
      "metar": "METAR LIPQ 061220Z AUTO 36004KT 9999 SCT041/// SCT069/// 12/10 Q0992",
      "taf": "TAF LIPQ 061100Z 0612/0712 03005KT 9999 BKN040"
    },
    {
      "icao": "LIPR",
      "alert": "OK",
      "vis_m": 9999,
      "fzfg": false,
      "metar_trigger": false,
      "taf_trigger": false,
      "metar": "METAR LIPR 061220Z 30016KT 9999 FEW035 BKN055 13/09 Q0991",
      "taf": "TAF LIPR 061100Z 0612/0712 33010KT 9999 BKN040"
    },
    {
      "icao": "LIPX",
      "alert": "OK",
      "vis_m": 9999,
      "fzfg": false,
      "metar_trigger": false,
      "taf_trigger": false,
      "metar": "METAR LIPX 061220Z 28005KT 250V320 9999 SCT090 12/07 Q0994",
      "taf": "TAF LIPX 061100Z 0612/0712 26010KT 9999 SCT070"
    },
    {
      "icao": "LIPY",
      "alert": "OK",
      "vis_m": 9999,
      "fzfg": false,
      "metar_trigger": false,
      "taf_trigger": false,
      "metar": "METAR LIPY 061220Z AUTO 26018KT 9999 OVC054/// 14/07 Q0991",
      "taf": "TAF LIPY 061100Z 0612/0712 28012KT 9999 BKN020"
    },
    {
      "icao": "LIPZ",
      "alert": "OK",
      "vis_m": 9999,
      "fzfg": false,
      "metar_trigger": false,
      "taf_trigger": false,
      "metar": "METAR LIPZ 061220Z 36005KT 330V030 9999 -RA BKN070 09/09 Q0993 NOSIG",
      "taf": "TAF LIPZ 061100Z 0612/0718 VRB05KT 9999 BKN020"
    },
    {
      "icao": "LIRF",
      "alert": "OK",
      "vis_m": 9999,
      "fzfg": false,
      "metar_trigger": false,
      "taf_trigger": false,
      "metar": "METAR LIRF 061220Z 27007KT CAVOK 16/10 Q0995 NOSIG",
      "taf": "TAF LIRF 061100Z 0612/0718 28010KT 9999 SCT030"
    },
    {
      "icao": "LIRN",
      "alert": "OK",
      "vis_m": 9999,
      "fzfg": false,
      "metar_trigger": false,
      "taf_trigger": false,
      "metar": "METAR LIRN 061220Z 26021KT 230V290 9999 SCT030 17/11 Q0996 WS R24 NOSIG",
      "taf": "TAF LIRN 061100Z 0612/0712 26016KT 9999 SCT030"
    },
    {
      "icao": "LIRP",
      "alert": "OK",
      "vis_m": 9999,
      "fzfg": false,
      "metar_trigger": false,
      "taf_trigger": false,
      "metar": "METAR LIRP 061145Z 30007KT 9999 FEW060 14/09 Q0993 NOSIG",
      "taf": "TAF LIRP 061100Z 0612/0712 27005KT CAVOK"
    },
    {
      "icao": "LIRZ",
      "alert": "OK",
      "vis_m": 9999,
      "fzfg": false,
      "metar_trigger": false,
      "taf_trigger": false,
      "metar": "METAR LIRZ 061220Z AUTO 28007KT 250V310 9999 -RA BKN016/// 10/09 Q0994",
      "taf": "TAF LIRZ 061100Z 0612/0712 24012KT 9999 BKN040"
    },
    {
      "icao": "LJLJ",
      "alert": "OK",
      "vis_m": 8000,
      "fzfg": false,
      "metar_trigger": false,
      "taf_trigger": false,
      "metar": "METAR LJLJ 061200Z VRB01KT 8000 FEW003 SCT008 BKN068 07/04 Q0993 NOSIG",
      "taf": "TAF LJLJ 061100Z 0612/0712 VRB02KT 9999 FEW004 BKN045"
    },
    {
      "icao": "LKMT",
      "alert": "OK",
      "vis_m": 2500,
      "fzfg": false,
      "metar_trigger": false,
      "taf_trigger": false,
      "metar": "METAR LKMT 061200Z 04003KT 360V070 2500 BR BKN032 03/01 Q0994 NOSIG",
      "taf": "TAF LKMT 061100Z 0612/0712 VRB02KT 4500 BR OVC035"
    },
    {
      "icao": "LKPR",
      "alert": "OK",
      "vis_m": 600,
      "fzfg": false,
      "metar_trigger": false,
      "taf_trigger": false,
      "metar": "METAR LKPR 061200Z 29003KT 240V320 0600 R24/0900N R30/1500D FG SCT001 BKN002 OVC017 03/03 Q0993 NOSIG",
      "taf": "TAF LKPR 061100Z 0612/0718 09003KT 3000 BR SCT002 OVC006"
    },
    {
      "icao": "LLBG",
      "alert": "OK",
      "vis_m": 9999,
      "fzfg": false,
      "metar_trigger": false,
      "taf_trigger": false,
      "metar": "METAR LLBG 061220Z 22007KT CAVOK 25/01 Q1010 NOSIG RMK BKN110",
      "taf": "TAF LLBG 061104Z 0612/0712 22010KT CAVOK"
    },
    {
      "icao": "LMML",
      "alert": "OK",
      "vis_m": 9999,
      "fzfg": false,
      "metar_trigger": false,
      "taf_trigger": false,
      "metar": "METAR LMML 061215Z 29019KT CAVOK 20/12 Q1006 NOSIG",
      "taf": "TAF LMML 061100Z 0612/0712 28016KT 9999 FEW018"
    },
    {
      "icao": "LOWW",
      "alert": "OK",
      "vis_m": 9999,
      "fzfg": false,
      "metar_trigger": false,
      "taf_trigger": false,
      "metar": "METAR LOWW 061220Z 28007KT 230V310 9999 SCT014 BKN017 07/03 Q0993 TEMPO BKN013",
      "taf": "TAF LOWW 061115Z 0612/0718 20007KT 9999 BKN020 TX07/0612Z TN03/0623Z"
    },
    {
      "icao": "LPFR",
      "alert": "OK",
      "vis_m": 9999,
      "fzfg": false,
      "metar_trigger": false,
      "taf_trigger": false,
      "metar": "METAR LPFR 061200Z 26014KT 9999 FEW018 FEW025CB 15/10 Q1009",
      "taf": "TAF LPFR 061100Z 0612/0712 26017KT 9999 SCT025"
    },
    {
      "icao": "LPMA",
      "alert": "OK",
      "vis_m": 9999,
      "fzfg": false,
      "metar_trigger": false,
      "taf_trigger": false,
      "metar": "METAR LPMA 061200Z 09009KT 010V130 9999 FEW016 20/06 Q1019",
      "taf": "TAF LPMA 061100Z 0612/0712 VRB05KT 9999 SCT015"
    },
    {
      "icao": "LPPR",
      "alert": "OK",
      "vis_m": 9999,
      "fzfg": false,
      "metar_trigger": false,
      "taf_trigger": false,
      "metar": "METAR LPPR 061200Z 22008KT 190V260 9999 FEW017CB SCT020 13/07 Q1001",
      "taf": "TAF LPPR 061100Z 0612/0712 25015KT 9999 SCT025"
    },
    {
      "icao": "LPPS",
      "alert": "OK",
      "vis_m": 9999,
      "fzfg": false,
      "metar_trigger": false,
      "taf_trigger": false,
      "metar": "METAR LPPS 061200Z 30017KT 9999 FEW014 18/10 Q1019",
      "taf": "TAF LPPS 061100Z 0612/0718 29018KT 9999 SCT015"
    },
    {
      "icao": "LPPT",
      "alert": "OK",
      "vis_m": 9999,
      "fzfg": false,
      "metar_trigger": false,
      "taf_trigger": false,
      "metar": "METAR LPPT 061200Z 26014KT 220V290 9999 SCT030 FEW035CB 14/08 Q1005",
      "taf": "TAF LPPT 061100Z 0612/0718 26015KT 9999 SCT025"
    },
    {
      "icao": "LQBK",
      "alert": "OK",
      "vis_m": 9999,
      "fzfg": false,
      "metar_trigger": false,
      "taf_trigger": false,
      "metar": "METAR LQBK 061200Z VRB01KT 9999 -RA FEW005 BKN043 06/06 Q0994 NOSIG",
      "taf": ""
    },
    {
      "icao": "LQSA",
      "alert": "OK",
      "vis_m": 9999,
      "fzfg": false,
      "metar_trigger": false,
      "taf_trigger": false,
      "metar": "METAR LQSA 061200Z 12005KT 060V140 9999 SCT050 BKN060 11/05 Q0992 NOSIG",
      "taf": ""
    },
    {
      "icao": "LQTZ",
      "alert": "OK",
      "vis_m": 9999,
      "fzfg": false,
      "metar_trigger": false,
      "taf_trigger": false,
      "metar": "METAR LQTZ 061200Z 12007KT 9999 -RA SCT044 BKN053 09/09 Q0994",
      "taf": "TAF LQTZ 061100Z 0612/0712 VRB02KT 7000 SCT035 BKN050 TX08/0613Z TN03/0705Z"
    },
    {
      "icao": "LRBC",
      "alert": "OK",
      "vis_m": 5000,
      "fzfg": false,
      "metar_trigger": false,
      "taf_trigger": false,
      "metar": "METAR LRBC 061200Z 15004KT 5000 -SN BR BKN003 OVC028 01/01 Q1000",
      "taf": "TAF LRBC 061100Z 0612/0621 VRB04KT 5000 -SN BR BKN005 OVC020"
    },
    {
      "icao": "LRBS",
      "alert": "OK",
      "vis_m": 9999,
      "fzfg": false,
      "metar_trigger": false,
      "taf_trigger": false,
      "metar": "METAR LRBS 061200Z 08007KT 9999 BKN006 04/04 Q1000 NOSIG",
      "taf": "TAF LRBS 061100Z 0612/0712 08012KT 9999 OVC005"
    },
    {
      "icao": "LRBV",
      "alert": "OK",
      "vis_m": 9999,
      "fzfg": false,
      "metar_trigger": false,
      "taf_trigger": false,
      "metar": "METAR LRBV 061200Z 08004KT 040V130 9999 FEW020 09/03 Q0996",
      "taf": "TAF LRBV 061100Z 0612/0621 VRB04KT 9999 SCT020 BKN055"
    },
    {
      "icao": "LRCL",
      "alert": "OK",
      "vis_m": 9999,
      "fzfg": false,
      "metar_trigger": false,
      "taf_trigger": false,
      "metar": "METAR LRCL 061200Z 11005KT 070V150 CAVOK 10/05 Q0996",
      "taf": "TAF LRCL 061100Z 0612/0621 VRB04KT CAVOK"
    },
    {
      "icao": "LRCV",
      "alert": "OK",
      "vis_m": 300,
      "fzfg": false,
      "metar_trigger": false,
      "taf_trigger": false,
      "metar": "METAR LRCV 061200Z 22002KT 0300 R26/0350N FG VV002 04/04 Q0999",
      "taf": "TAF LRCV 061100Z 0612/0621 12006KT 0600 FG VV002"
    },
    {
      "icao": "LRIA",
      "alert": "OK",
      "vis_m": 5000,
      "fzfg": false,
      "metar_trigger": false,
      "taf_trigger": false,
      "metar": "METAR LRIA 061200Z 10008KT 5000 -SN OVC004 M01/M02 Q1002 REFZRA",
      "taf": "TAF LRIA 061100Z 0612/0621 10008KT 5000 -FZRA OVC003"
    },
    {
      "icao": "LROP",
      "alert": "OK",
      "vis_m": 9999,
      "fzfg": false,
      "metar_trigger": false,
      "taf_trigger": false,
      "metar": "METAR LROP 061200Z COR 10008KT 9999 OVC007 05/04 Q1000 NOSIG",
      "taf": "TAF LROP 061100Z 0612/0712 08012KT 9999 OVC005"
    },
    {
      "icao": "LRSB",
      "alert": "OK",
      "vis_m": 9999,
      "fzfg": false,
      "metar_trigger": false,
      "taf_trigger": false,
      "metar": "METAR LRSB 061200Z 11009KT 9999 FEW048 13/04 Q0995 NOSIG",
      "taf": "TAF LRSB 061100Z 0612/0712 VRB04KT 9999 SCT050"
    },
    {
      "icao": "LRSM",
      "alert": "OK",
      "vis_m": 9999,
      "fzfg": false,
      "metar_trigger": false,
      "taf_trigger": false,
      "metar": "METAR LRSM 061200Z 26003KT 230V320 9999 FEW030 13/05 Q0996",
      "taf": "TAF LRSM 061100Z 0612/0621 VRB04KT CAVOK"
    },
    {
      "icao": "LRSV",
      "alert": "CRITICAL",
      "vis_m": 50,
      "fzfg": true,
      "metar_trigger": true,
      "taf_trigger": false,
      "metar": "METAR LRSV 061200Z 09009KT 0050 R34/0225N FZFG VV001 M01/M01 Q0999",
      "taf": "TAF LRSV 061100Z 0612/0621 10008KT 0300 -SN FZFG OVC001"
    },
    {
      "icao": "LRTM",
      "alert": "OK",
      "vis_m": 9999,
      "fzfg": false,
      "metar_trigger": false,
      "taf_trigger": false,
      "metar": "METAR LRTM 061200Z 11003KT 080V140 9999 FEW025 12/04 Q0996",
      "taf": "TAF LRTM 061100Z 0612/0621 VRB04KT CAVOK"
    },
    {
      "icao": "LRTR",
      "alert": "OK",
      "vis_m": 9999,
      "fzfg": false,
      "metar_trigger": false,
      "taf_trigger": false,
      "metar": "METAR LRTR 061200Z 18009KT 150V210 CAVOK 13/06 Q0995",
      "taf": "TAF LRTR 061100Z 0612/0712 VRB04KT CAVOK"
    },
    {
      "icao": "LTAC",
      "alert": "OK",
      "vis_m": 9999,
      "fzfg": false,
      "metar_trigger": false,
      "taf_trigger": false,
      "metar": "METAR LTAC 061220Z 22008KT 9999 BKN023 BKN080 08/04 Q1006 RESHRA NOSIG",
      "taf": "TAF LTAC 061040Z 0612/0712 18010KT 9999 BKN035 BKN080"
    },
    {
      "icao": "LTFM",
      "alert": "OK",
      "vis_m": 9999,
      "fzfg": false,
      "metar_trigger": false,
      "taf_trigger": false,
      "metar": "METAR LTFM 061220Z 22017KT 9999 FEW032 16/09 Q1001 NOSIG",
      "taf": "TAF LTFM 061040Z 0612/0718 22015KT 9999 FEW028 SCT080"
    },
    {
      "icao": "LUKK",
      "alert": "OK",
      "vis_m": 5000,
      "fzfg": false,
      "metar_trigger": false,
      "taf_trigger": false,
      "metar": "METAR LUKK 061200Z 09011KT 5000 -FZRA -SHGS BKN007 OVC023CB M03/M04 Q1003 TEMPO 3000 FZRA BKN004",
      "taf": "TAF LUKK 061101Z 0612/0712 07010KT 9999 BKN008"
    },
    {
      "icao": "LWOH",
      "alert": "OK",
      "vis_m": 8000,
      "fzfg": false,
      "metar_trigger": false,
      "taf_trigger": false,
      "metar": "METAR LWOH 061220Z 22006KT 130V280 8000 -RA SCT015 OVC035 08/07 Q0997",
      "taf": "TAF LWOH 061140Z 0612/0712 17012KT 7000 RA SCT015 OVC035"
    },
    {
      "icao": "LWSK",
      "alert": "OK",
      "vis_m": 7000,
      "fzfg": false,
      "metar_trigger": false,
      "taf_trigger": false,
      "metar": "METAR LWSK 061220Z 18003KT 140V220 7000 RA SCT014 BKN040 OVC071 08/07 Q0998 NOSIG",
      "taf": "TAF LWSK 061140Z 0612/0712 VRB02KT 9999 SCT015 OVC070"
    },
    {
      "icao": "LYBE",
      "alert": "OK",
      "vis_m": 9999,
      "fzfg": false,
      "metar_trigger": false,
      "taf_trigger": false,
      "metar": "METAR LYBE 061200Z 13009KT CAVOK 13/04 Q0994 NOSIG",
      "taf": "TAF LYBE 061100Z 0612/0712 12008KT CAVOK TX14/0613Z TN04/0706Z"
    },
    {
      "icao": "LYNI",
      "alert": "OK",
      "vis_m": 9999,
      "fzfg": false,
      "metar_trigger": false,
      "taf_trigger": false,
      "metar": "METAR LYNI 061200Z 14003KT 100V200 9999 FEW040 BKN070 13/05 Q0996 NOSIG",
      "taf": "TAF LYNI 061100Z 0612/0712 08007KT 9999 BKN040 OVC070 TX12/0612Z TN05/0706Z"
    },
    {
      "icao": "LYPG",
      "alert": "OK",
      "vis_m": 4000,
      "fzfg": false,
      "metar_trigger": false,
      "taf_trigger": false,
      "metar": "METAR LYPG 061200Z 33003KT 4000 RA FEW007 SCT013 BKN030 10/10 Q0994 NOSIG",
      "taf": "TAF LYPG 061100Z 0612/0712 16005KT 6000 FEW007 BKN030 OVC070 TX13/0712Z TN08/0705Z"
    },
    {
      "icao": "LZIB",
      "alert": "OK",
      "vis_m": 7000,
      "fzfg": false,
      "metar_trigger": false,
      "taf_trigger": false,
      "metar": "METAR LZIB 061200Z 13006KT 7000 SCT008 OVC014 07/06 Q0993 BECMG SCT009 BKN015",
      "taf": "TAF LZIB 061115Z 0612/0712 12007KT 9999 SCT013 BKN020"
    },
    {
      "icao": "LZKZ",
      "alert": "OK",
      "vis_m": 9999,
      "fzfg": false,
      "metar_trigger": false,
      "taf_trigger": false,
      "metar": "METAR LZKZ 061200Z 30002KT 9999 OVC020 07/05 Q0996 NOSIG",
      "taf": "TAF LZKZ 061115Z 0612/0712 VRB02KT 9999 SCT020 BKN030"
    },
    {
      "icao": "LZTT",
      "alert": "OK",
      "vis_m": 9999,
      "fzfg": false,
      "metar_trigger": false,
      "taf_trigger": false,
      "metar": "METAR LZTT 061200Z 01004KT 340V040 9999 SCT009 BKN030 04/03 Q0995 NOSIG",
      "taf": "TAF LZTT 061115Z 0612/0712 VRB02KT 8000 FEW005 OVC020"
    },
    {
      "icao": "OEJN",
      "alert": "OK",
      "vis_m": 9999,
      "fzfg": false,
      "metar_trigger": false,
      "taf_trigger": false,
      "metar": "METAR OEJN 061200Z 27007KT 9999 FEW040 29/17 Q1012 NOSIG",
      "taf": "TAF OEJN 061100Z 0612/0718 25010KT 7000 SCT040"
    },
    {
      "icao": "OEMA",
      "alert": "OK",
      "vis_m": 9999,
      "fzfg": false,
      "metar_trigger": false,
      "taf_trigger": false,
      "metar": "METAR OEMA 061200Z 29010KT 9999 SCT040 29/08 Q1014 NOSIG",
      "taf": "TAF OEMA 061100Z 0612/0718 24012KT 7000 SCT040"
    },
    {
      "icao": "OJAI",
      "alert": "OK",
      "vis_m": null,
      "fzfg": false,
      "metar_trigger": false,
      "taf_trigger": false,
      "metar": "",
      "taf": "TAF OJAI 061044Z 0612/0718 25010KT 4000 DU FEW040"
    },
    {
      "icao": "OMAA",
      "alert": "OK",
      "vis_m": 9999,
      "fzfg": false,
      "metar_trigger": false,
      "taf_trigger": false,
      "metar": "METAR OMAA 061200Z 32008KT 290V350 CAVOK 25/15 Q1019 NOSIG",
      "taf": "TAF OMAA 061100Z 0612/0718 33010KT 8000 NSC"
    },
    {
      "icao": "OMDB",
      "alert": "OK",
      "vis_m": 9999,
      "fzfg": false,
      "metar_trigger": false,
      "taf_trigger": false,
      "metar": "METAR OMDB 061200Z 32010KT CAVOK 25/17 Q1019 NOSIG",
      "taf": "TAF OMDB 061100Z 0612/0718 33010KT 8000 NSC"
    },
    {
      "icao": "UAAA",
      "alert": "OK",
      "vis_m": 1300,
      "fzfg": false,
      "metar_trigger": false,
      "taf_trigger": false,
      "metar": "SPECI UAAA 061222Z 06002MPS 1300 R05R/1800D -SHSN BR BKN003 BKN020CB OVC100 00/M00 Q1026 NOSIG RMK QBB100",
      "taf": "TAF UAAA 061102Z 0612/0712 01003G08MPS 1200 -SHSNRA BR BKN011CB OVC020 TX02/0707Z TNM04/0702Z"
    },
    {
      "icao": "UBBB",
      "alert": "OK",
      "vis_m": 9999,
      "fzfg": false,
      "metar_trigger": false,
      "taf_trigger": false,
      "metar": "METAR UBBB 061200Z 14010KT 9999 OVC019 06/03 Q1020 NOSIG",
      "taf": "TAF UBBB 061044Z 0612/0712 15014KT 9999 BKN020 TX06/0612Z TN03/0700Z"
    },
    {
      "icao": "UDSG",
      "alert": "OK",
      "vis_m": 9999,
      "fzfg": false,
      "metar_trigger": false,
      "taf_trigger": false,
      "metar": "METAR UDSG 061200Z 15002KT 9999 NSC M02/M07 Q1020 NOSIG",
      "taf": "TAF UDSG 061100Z 0612/0712 VRB06KT 9999 SCT040"
    },
    {
      "icao": "UDYZ",
      "alert": "OK",
      "vis_m": 9999,
      "fzfg": false,
      "metar_trigger": false,
      "taf_trigger": false,
      "metar": "METAR UDYZ 061200Z VRB02KT 9999 NSC 07/M04 Q1020 NOSIG",
      "taf": "TAF UDYZ 061100Z 0612/0712 VRB06KT 9999 FEW040"
    },
    {
      "icao": "UGKO",
      "alert": "OK",
      "vis_m": 9999,
      "fzfg": false,
      "metar_trigger": false,
      "taf_trigger": false,
      "metar": "METAR UGKO 061200Z 10021KT CAVOK 15/M03 Q1010 NOSIG",
      "taf": "TAF UGKO 061100Z 0612/0712 08022G33KT CAVOK TX18/0711Z TN09/0703Z"
    }
  ]
}