{
  "ts_utc": "2026-03-25T02:56:15Z",
  "threshold_m": 150,
  "source": "stations_override.txt (ICAO list) + aviationweather.gov (METAR/TAF raw)",
  "station_count": 159,
  "stations": [
    {
      "icao": "BIKF",
      "alert": "OK",
      "vis_m": 9999,
      "fzfg": false,
      "metar_trigger": false,
      "taf_trigger": false,
      "metar": "METAR BIKF 250230Z 03016KT CAVOK M03/M09 Q1006",
      "taf": "TAF BIKF 250105Z 2503/2603 02018KT 9999 SCT025 TXM02/2515Z TNM06/2508Z"
    },
    {
      "icao": "BKPR",
      "alert": "OK",
      "vis_m": null,
      "fzfg": false,
      "metar_trigger": false,
      "taf_trigger": false,
      "metar": "",
      "taf": "TAF BKPR 242330Z 2500/2524 34005KT 9999 BKN060"
    },
    {
      "icao": "EBCI",
      "alert": "OK",
      "vis_m": 9999,
      "fzfg": false,
      "metar_trigger": false,
      "taf_trigger": false,
      "metar": "METAR EBCI 250250Z 25018KT 9999 -RA BKN023 BKN045 08/05 Q1004 RESHRA TEMPO 25020G30KT",
      "taf": "TAF EBCI 242315Z 2500/2606 23015G25KT 9999 SCT025"
    },
    {
      "icao": "EDDB",
      "alert": "OK",
      "vis_m": 9999,
      "fzfg": false,
      "metar_trigger": false,
      "taf_trigger": false,
      "metar": "METAR EDDB 250250Z AUTO 19011KT CAVOK 10/01 Q1002 NOSIG",
      "taf": "TAF EDDB 242300Z 2500/2524 20012KT CAVOK"
    },
    {
      "icao": "EDDH",
      "alert": "OK",
      "vis_m": 9999,
      "fzfg": false,
      "metar_trigger": false,
      "taf_trigger": false,
      "metar": "METAR EDDH 250250Z AUTO 21022KT 170V230 CAVOK 12/05 Q0993 TEMPO 22020G35KT",
      "taf": "TAF EDDH 242300Z 2500/2606 22015G25KT 9999 BKN030"
    },
    {
      "icao": "EDDK",
      "alert": "OK",
      "vis_m": 9999,
      "fzfg": false,
      "metar_trigger": false,
      "taf_trigger": false,
      "metar": "METAR EDDK 250250Z AUTO 21012KT 9999 FEW045 12/03 Q1002 TEMPO 22015G25KT SHRA BKN040TCU",
      "taf": "TAF EDDK 242300Z 2500/2606 19009KT CAVOK"
    },
    {
      "icao": "EDDN",
      "alert": "OK",
      "vis_m": 9999,
      "fzfg": false,
      "metar_trigger": false,
      "taf_trigger": false,
      "metar": "METAR EDDN 250250Z AUTO 14005KT CAVOK 05/M00 Q1009",
      "taf": "TAF EDDN 242300Z 2500/2524 17004KT CAVOK"
    },
    {
      "icao": "EDDS",
      "alert": "OK",
      "vis_m": 9999,
      "fzfg": false,
      "metar_trigger": false,
      "taf_trigger": false,
      "metar": "METAR EDDS 250250Z AUTO 11001KT CAVOK 07/M00 Q1009",
      "taf": "TAF EDDS 242300Z 2500/2524 22005KT CAVOK"
    },
    {
      "icao": "EDFH",
      "alert": "OK",
      "vis_m": 9999,
      "fzfg": false,
      "metar_trigger": false,
      "taf_trigger": false,
      "metar": "METAR EDFH 250250Z 24017G31KT 200V270 CAVOK 09/02 Q1004",
      "taf": "TAF EDFH 242300Z 2500/2524 23012KT 9999 SCT030"
    },
    {
      "icao": "EDJA",
      "alert": "OK",
      "vis_m": 9999,
      "fzfg": false,
      "metar_trigger": false,
      "taf_trigger": false,
      "metar": "METAR EDJA 250250Z AUTO 22010KT 9999 // OVC150/// 06/M01 Q1012",
      "taf": "TAF EDJA 250200Z 2503/2512 22011KT CAVOK"
    },
    {
      "icao": "EDLW",
      "alert": "OK",
      "vis_m": 9999,
      "fzfg": false,
      "metar_trigger": false,
      "taf_trigger": false,
      "metar": "METAR EDLW 250250Z AUTO 21022KT 9999 // FEW041/// SCT053/// OVC072/// 11/04 Q0999",
      "taf": "TAF EDLW 241700Z 2418/2518 21013KT CAVOK"
    },
    {
      "icao": "EDNY",
      "alert": "OK",
      "vis_m": 9999,
      "fzfg": false,
      "metar_trigger": false,
      "taf_trigger": false,
      "metar": "METAR EDNY 250250Z AUTO 00000KT 9999 // BKN150/// 03/01 Q1013",
      "taf": "TAF EDNY 250200Z 2503/2512 23004KT CAVOK"
    },
    {
      "icao": "EDSB",
      "alert": "OK",
      "vis_m": 9999,
      "fzfg": false,
      "metar_trigger": false,
      "taf_trigger": false,
      "metar": "METAR EDSB 250250Z AUTO 20016KT 9999 // NCD 10/02 Q1010",
      "taf": "TAF EDSB 242300Z 2500/2524 21011KT CAVOK"
    },
    {
      "icao": "EETN",
      "alert": "OK",
      "vis_m": 9999,
      "fzfg": false,
      "metar_trigger": false,
      "taf_trigger": false,
      "metar": "METAR EETN 250250Z 19011KT 9999 BKN028 06/02 Q0996",
      "taf": "TAF EETN 242330Z 2500/2524 20014KT 9999 BKN040"
    },
    {
      "icao": "EFTU",
      "alert": "OK",
      "vis_m": 6000,
      "fzfg": false,
      "metar_trigger": false,
      "taf_trigger": false,
      "metar": "METAR EFTU 250250Z AUTO 19008KT 6000 -RA FEW009 BKN037 04/03 Q0991",
      "taf": "TAF EFTU 250237Z 2503/2603 20011KT 9999 FEW007 BKN040"
    },
    {
      "icao": "EGBB",
      "alert": "OK",
      "vis_m": 9999,
      "fzfg": false,
      "metar_trigger": false,
      "taf_trigger": false,
      "metar": "METAR EGBB 250250Z 28011KT 250V310 9999 BKN034 06/02 Q1002",
      "taf": "TAF EGBB 242302Z 2500/2524 29015G25KT 9999 SCT025"
    },
    {
      "icao": "EGGP",
      "alert": "OK",
      "vis_m": 9999,
      "fzfg": false,
      "metar_trigger": false,
      "taf_trigger": false,
      "metar": "METAR EGGP 250250Z AUTO 30013KT 9999 FEW020/// SCT025/// BKN031/// 06/03 Q1002",
      "taf": "TAF EGGP 242257Z 2500/2524 27025G38KT 9999 SCT020"
    },
    {
      "icao": "EGGW",
      "alert": "OK",
      "vis_m": 9999,
      "fzfg": false,
      "metar_trigger": false,
      "taf_trigger": false,
      "metar": "METAR EGGW 250250Z AUTO 27019KT 9999 FEW030 05/02 Q1001",
      "taf": "TAF EGGW 242256Z 2500/2524 26022G33KT 9999 SCT020"
    },
    {
      "icao": "EGKK",
      "alert": "OK",
      "vis_m": 9999,
      "fzfg": false,
      "metar_trigger": false,
      "taf_trigger": false,
      "metar": "METAR EGKK 250250Z 25008KT 9999 FEW030 06/03 Q1004",
      "taf": "TAF EGKK 242252Z 2500/2606 27015KT 9999 SCT016"
    },
    {
      "icao": "EGNM",
      "alert": "OK",
      "vis_m": null,
      "fzfg": false,
      "metar_trigger": false,
      "taf_trigger": false,
      "metar": "",
      "taf": "TAF EGNM 242254Z 2500/2524 27023G38KT 9999 SCT020"
    },
    {
      "icao": "EGPD",
      "alert": "OK",
      "vis_m": 9999,
      "fzfg": false,
      "metar_trigger": false,
      "taf_trigger": false,
      "metar": "METAR EGPD 250250Z COR AUTO 28015KT 9999 NCD 04/M01 Q0992 NOSIG",
      "taf": "TAF EGPD 242300Z 2500/2524 29012KT 9999 FEW030"
    },
    {
      "icao": "EGPF",
      "alert": "OK",
      "vis_m": 9999,
      "fzfg": false,
      "metar_trigger": false,
      "taf_trigger": false,
      "metar": "METAR EGPF 250250Z AUTO 26013KT 9999 -RA SCT035/// //////TCU 05/01 Q0998",
      "taf": "TAF EGPF 242301Z 2500/2524 29012KT 9999 FEW018 SCT030"
    },
    {
      "icao": "EHBK",
      "alert": "OK",
      "vis_m": 9999,
      "fzfg": false,
      "metar_trigger": false,
      "taf_trigger": false,
      "metar": "METAR EHBK 250225Z AUTO 22021KT 9999 OVC031/// 11/04 Q1002",
      "taf": "TAF EHBK 242308Z 2500/2606 22018G28KT CAVOK"
    },
    {
      "icao": "EHEH",
      "alert": "OK",
      "vis_m": 6000,
      "fzfg": false,
      "metar_trigger": false,
      "taf_trigger": false,
      "metar": "SPECI EHEH 250234Z AUTO 22019G31KT 190V250 6000 +DZ FEW015CB SCT022 BKN025 10/07 Q1000 WHT",
      "taf": "TAF EHEH 242330Z 2500/2606 22015G25KT CAVOK"
    },
    {
      "icao": "EKBI",
      "alert": "OK",
      "vis_m": 5000,
      "fzfg": false,
      "metar_trigger": false,
      "taf_trigger": false,
      "metar": "METAR EKBI 250250Z AUTO 20019G30KT 5000 RA OVC006/// 08/07 Q0986",
      "taf": "TAF EKBI 250227Z 2503/2603 21020KT 9000 BKN012"
    },
    {
      "icao": "EKCH",
      "alert": "OK",
      "vis_m": 9000,
      "fzfg": false,
      "metar_trigger": false,
      "taf_trigger": false,
      "metar": "METAR EKCH 250250Z AUTO 19013KT 9000 -RA OVC039/// 06/04 Q0992 NOSIG",
      "taf": "TAF EKCH 250227Z 2503/2603 20018KT 9999 BKN025"
    },
    {
      "icao": "ENAL",
      "alert": "OK",
      "vis_m": 9999,
      "fzfg": false,
      "metar_trigger": false,
      "taf_trigger": false,
      "metar": "METAR ENAL 250250Z AUTO 19014KT 9999 DZRA FEW005/// SCT036/// BKN042/// 04/02 Q0976",
      "taf": "TAF ENAL 250200Z 2503/2512 21018KT 9999 SCT020 BKN030"
    },
    {
      "icao": "ENBR",
      "alert": "OK",
      "vis_m": 9999,
      "fzfg": false,
      "metar_trigger": false,
      "taf_trigger": false,
      "metar": "METAR ENBR 250250Z AUTO VRB02KT 9999 SCT019/// BKN027/// BKN045/// 04/02 Q0981 RMK WIND 1200FT 27013KT",
      "taf": "TAF ENBR 242300Z 2500/2524 22009KT 9999 FEW008 BKN025"
    },
    {
      "icao": "ENGM",
      "alert": "OK",
      "vis_m": 8000,
      "fzfg": false,
      "metar_trigger": false,
      "taf_trigger": false,
      "metar": "METAR ENGM 250250Z VRB02KT 8000 -RA BKN005 04/03 Q0982",
      "taf": "TAF ENGM 242300Z 2500/2524 19008KT 8000 -RADZ BR BKN006"
    },
    {
      "icao": "ENHD",
      "alert": "OK",
      "vis_m": 9000,
      "fzfg": false,
      "metar_trigger": false,
      "taf_trigger": false,
      "metar": "METAR ENHD 250250Z AUTO 28008KT 9000 SCT020/// 05/04 Q0982",
      "taf": "TAF ENHD 250200Z 2503/2512 VRB05KT 9999 SCT020"
    },
    {
      "icao": "ENTC",
      "alert": "OK",
      "vis_m": 9999,
      "fzfg": false,
      "metar_trigger": false,
      "taf_trigger": false,
      "metar": "METAR ENTC 250250Z 08004KT CAVOK M03/M07 Q0979 RMK WIND 2600FT 12010KT",
      "taf": "TAF ENTC 242300Z 2500/2524 04008KT CAVOK"
    },
    {
      "icao": "ENTO",
      "alert": "OK",
      "vis_m": 6000,
      "fzfg": false,
      "metar_trigger": false,
      "taf_trigger": false,
      "metar": "METAR ENTO 250250Z AUTO 01004KT 6000 RA SCT001/// BKN017/// 04/04 Q0981",
      "taf": ""
    },
    {
      "icao": "ENVA",
      "alert": "OK",
      "vis_m": 9999,
      "fzfg": false,
      "metar_trigger": false,
      "taf_trigger": false,
      "metar": "METAR ENVA 250250Z AUTO 20003KT 9999 NCD 06/M05 Q0978 RMK WIND 670FT 18017KT",
      "taf": "TAF ENVA 242300Z 2500/2524 16008KT 9999 SCT050"
    },
    {
      "icao": "ENZV",
      "alert": "OK",
      "vis_m": 9999,
      "fzfg": false,
      "metar_trigger": false,
      "taf_trigger": false,
      "metar": "METAR ENZV 250250Z AUTO 36004KT 9999 FEW038/// 05/04 Q0982",
      "taf": ""
    },
    {
      "icao": "EPGD",
      "alert": "OK",
      "vis_m": 9999,
      "fzfg": false,
      "metar_trigger": false,
      "taf_trigger": false,
      "metar": "METAR EPGD 250230Z 19009KT CAVOK 09/03 Q1002",
      "taf": "TAF EPGD 242330Z 2500/2524 20008KT CAVOK"
    },
    {
      "icao": "EPKK",
      "alert": "OK",
      "vis_m": 8000,
      "fzfg": false,
      "metar_trigger": false,
      "taf_trigger": false,
      "metar": "METAR EPKK 250230Z VRB01KT 8000 NSC M00/M02 Q1012",
      "taf": "TAF EPKK 250230Z 2503/2603 VRB02KT CAVOK"
    },
    {
      "icao": "EPKT",
      "alert": "OK",
      "vis_m": 7000,
      "fzfg": false,
      "metar_trigger": false,
      "taf_trigger": false,
      "metar": "METAR EPKT 250230Z VRB01KT 7000 NSC M00/M02 Q1011",
      "taf": "TAF EPKT 242330Z 2500/2524 26004KT CAVOK"
    },
    {
      "icao": "EPLB",
      "alert": "OK",
      "vis_m": 9999,
      "fzfg": false,
      "metar_trigger": false,
      "taf_trigger": false,
      "metar": "METAR EPLB 250230Z VRB01KT CAVOK 05/M01 Q1012",
      "taf": "TAF EPLB 242330Z 2500/2524 19005KT CAVOK"
    },
    {
      "icao": "EPMO",
      "alert": "OK",
      "vis_m": 9999,
      "fzfg": false,
      "metar_trigger": false,
      "taf_trigger": false,
      "metar": "METAR EPMO 250230Z 19007KT CAVOK 06/00 Q1009",
      "taf": "TAF EPMO 242330Z 2500/2524 19007KT CAVOK"
    },
    {
      "icao": "EPPO",
      "alert": "OK",
      "vis_m": 9999,
      "fzfg": false,
      "metar_trigger": false,
      "taf_trigger": false,
      "metar": "METAR EPPO 250230Z 18009KT CAVOK 10/01 Q1005",
      "taf": "TAF EPPO 242330Z 2500/2524 20010KT CAVOK"
    },
    {
      "icao": "EPRA",
      "alert": "OK",
      "vis_m": 9999,
      "fzfg": false,
      "metar_trigger": false,
      "taf_trigger": false,
      "metar": "METAR EPRA 250230Z 21009KT CAVOK 04/M02 Q1011",
      "taf": "TAF EPRA 250230Z 2503/2512 20008KT CAVOK"
    },
    {
      "icao": "EPRZ",
      "alert": "OK",
      "vis_m": 9999,
      "fzfg": false,
      "metar_trigger": false,
      "taf_trigger": false,
      "metar": "METAR EPRZ 250230Z 04001KT CAVOK 00/M03 Q1013",
      "taf": "TAF EPRZ 242330Z 2500/2524 VRB02KT CAVOK"
    },
    {
      "icao": "EPSC",
      "alert": "OK",
      "vis_m": 9999,
      "fzfg": false,
      "metar_trigger": false,
      "taf_trigger": false,
      "metar": "METAR EPSC 250230Z 16008KT CAVOK 10/02 Q1001",
      "taf": "TAF EPSC 242330Z 2500/2524 18008KT CAVOK"
    },
    {
      "icao": "EPSY",
      "alert": "OK",
      "vis_m": 9999,
      "fzfg": false,
      "metar_trigger": false,
      "taf_trigger": false,
      "metar": "METAR EPSY 250230Z 19008KT CAVOK 08/00 Q1007",
      "taf": "TAF EPSY 250230Z 2503/2512 19010KT CAVOK"
    },
    {
      "icao": "EPWA",
      "alert": "OK",
      "vis_m": 9999,
      "fzfg": false,
      "metar_trigger": false,
      "taf_trigger": false,
      "metar": "METAR EPWA 250230Z 16005KT CAVOK 03/M01 Q1010 NOSIG",
      "taf": "TAF EPWA 250230Z 2503/2603 16005KT CAVOK"
    },
    {
      "icao": "EPWR",
      "alert": "OK",
      "vis_m": 9999,
      "fzfg": false,
      "metar_trigger": false,
      "taf_trigger": false,
      "metar": "METAR EPWR 250230Z 17006KT CAVOK 07/02 Q1008",
      "taf": "TAF EPWR 250230Z 2503/2603 18007KT CAVOK"
    },
    {
      "icao": "ESGG",
      "alert": "OK",
      "vis_m": 1000,
      "fzfg": false,
      "metar_trigger": false,
      "taf_trigger": false,
      "metar": "METAR ESGG 250250Z 20024KT 1000 R03/P2000N R21/P2000N BR OVC002 06/06 Q0985",
      "taf": "TAF ESGG 250230Z 2503/2603 20016G33KT 3000 -DZ BR OVC005"
    },
    {
      "icao": "ESKN",
      "alert": "OK",
      "vis_m": 5000,
      "fzfg": false,
      "metar_trigger": false,
      "taf_trigger": false,
      "metar": "METAR ESKN 250250Z 15010KT 5000 BR BKN024 OVC051 06/06 Q0989 RERA",
      "taf": "TAF ESKN 250230Z 2503/2603 19009KT 8000 SCT004 BKN020"
    },
    {
      "icao": "ESMS",
      "alert": "OK",
      "vis_m": 9999,
      "fzfg": false,
      "metar_trigger": false,
      "taf_trigger": false,
      "metar": "METAR ESMS 250250Z 20015KT 9999 OVC042 08/03 Q0992",
      "taf": "TAF ESMS 250227Z 2503/2603 20015KT 9999 BKN020"
    },
    {
      "icao": "ESSA",
      "alert": "OK",
      "vis_m": 9999,
      "fzfg": false,
      "metar_trigger": false,
      "taf_trigger": false,
      "metar": "METAR ESSA 250250Z 17007KT 9999 -DZ BKN010 06/05 Q0988 BECMG BKN008",
      "taf": "TAF ESSA 250230Z 2503/2603 21012KT 9999 BKN020"
    },
    {
      "icao": "EYKA",
      "alert": "OK",
      "vis_m": 9999,
      "fzfg": false,
      "metar_trigger": false,
      "taf_trigger": false,
      "metar": "METAR EYKA 250250Z 20005KT 160V230 CAVOK 08/01 Q1006",
      "taf": "TAF EYKA 242300Z 2500/2524 VRB05KT 9000 NSC"
    },
    {
      "icao": "EYPA",
      "alert": "OK",
      "vis_m": 9999,
      "fzfg": false,
      "metar_trigger": false,
      "taf_trigger": false,
      "metar": "METAR EYPA 250250Z 20012KT CAVOK 07/02 Q1002",
      "taf": "TAF EYPA 242300Z 2500/2524 20012KT 9000 NSC"
    },
    {
      "icao": "EYVI",
      "alert": "OK",
      "vis_m": 9999,
      "fzfg": false,
      "metar_trigger": false,
      "taf_trigger": false,
      "metar": "METAR EYVI 250250Z 19007KT CAVOK 03/M01 Q1008 NOSIG",
      "taf": "TAF EYVI 242300Z 2500/2524 VRB04KT 9000 NSC"
    },
    {
      "icao": "GCFV",
      "alert": "OK",
      "vis_m": 6000,
      "fzfg": false,
      "metar_trigger": false,
      "taf_trigger": false,
      "metar": "METAR GCFV 250230Z AUTO 34007KT 6000 NSC 18/16 Q1013",
      "taf": "TAF GCFV 250200Z 2503/2603 35009KT 9999 FEW040 TX24/2514Z TN16/2506Z"
    },
    {
      "icao": "GCLP",
      "alert": "OK",
      "vis_m": 9999,
      "fzfg": false,
      "metar_trigger": false,
      "taf_trigger": false,
      "metar": "METAR GCLP 250230Z 33004KT 9999 FEW015 16/15 Q1013 NOSIG",
      "taf": "TAF GCLP 250200Z 2503/2603 30005KT 9999 SCT020 TX22/2514Z TN15/2506Z"
    },
    {
      "icao": "GCTS",
      "alert": "OK",
      "vis_m": 9999,
      "fzfg": false,
      "metar_trigger": false,
      "taf_trigger": false,
      "metar": "METAR GCTS 250230Z 09015KT 9999 -DZ VCTS SCT015CB BKN040 18/16 Q1012 NOSIG",
      "taf": "TAF GCTS 250200Z 2503/2603 05008KT 9999 SCT040 TX22/2514Z TN16/2506Z"
    },
    {
      "icao": "GMAD",
      "alert": "OK",
      "vis_m": 9999,
      "fzfg": false,
      "metar_trigger": false,
      "taf_trigger": false,
      "metar": "METAR GMAD 250230Z 06005KT 9999 FEW023 14/12 Q1011 NOSIG",
      "taf": "TAF GMAD 242300Z 2500/2606 03004KT 9999 FEW023"
    },
    {
      "icao": "GMMN",
      "alert": "OK",
      "vis_m": 5000,
      "fzfg": false,
      "metar_trigger": false,
      "taf_trigger": false,
      "metar": "METAR GMMN 250230Z 11004KT 5000 NSC 14/12 Q1015 NOSIG",
      "taf": "TAF GMMN 242300Z 2500/2606 20005KT 5000 NSC"
    },
    {
      "icao": "GMMX",
      "alert": "OK",
      "vis_m": 8000,
      "fzfg": false,
      "metar_trigger": false,
      "taf_trigger": false,
      "metar": "METAR GMMX 250230Z 11004KT 080V140 8000 SCT020 BKN080 13/11 Q1014 NOSIG",
      "taf": "TAF GMMX 242300Z 2500/2606 06006KT 8000 SCT020 SCT080"
    },
    {
      "icao": "HEGN",
      "alert": "OK",
      "vis_m": 9999,
      "fzfg": false,
      "metar_trigger": false,
      "taf_trigger": false,
      "metar": "METAR HEGN 250200Z 30007KT 9999 BKN025 19/05 Q1002 NOSIG",
      "taf": "TAF HEGN 242300Z 2500/2606 30010KT 6000 SCT025"
    },
    {
      "icao": "HEMA",
      "alert": "OK",
      "vis_m": 9999,
      "fzfg": false,
      "metar_trigger": false,
      "taf_trigger": false,
      "metar": "METAR HEMA 250200Z 31010KT 9999 FEW020 20/14 Q1002 NOSIG",
      "taf": "TAF HEMA 242300Z 2500/2606 33010KT 6000 SCT025"
    },
    {
      "icao": "HESH",
      "alert": "OK",
      "vis_m": 9999,
      "fzfg": false,
      "metar_trigger": false,
      "taf_trigger": false,
      "metar": "METAR HESH 250200Z 35006KT CAVOK 19/08 Q1003 NOSIG",
      "taf": "TAF HESH 242300Z 2500/2606 02010KT 6000 SCT025"
    },
    {
      "icao": "HESX",
      "alert": "OK",
      "vis_m": 9999,
      "fzfg": false,
      "metar_trigger": false,
      "taf_trigger": false,
      "metar": "METAR HESX 250200Z 08005KT 9999 FEW020 SCT100 12/08 Q1004 NOSIG",
      "taf": "TAF HESX 242300Z 2500/2606 11007KT 9999 SCT020 SCT100"
    },
    {
      "icao": "LATI",
      "alert": "OK",
      "vis_m": 9999,
      "fzfg": false,
      "metar_trigger": false,
      "taf_trigger": false,
      "metar": "METAR LATI 250250Z 17003KT CAVOK 06/01 Q1012 NOSIG",
      "taf": "TAF LATI 242300Z 2500/2524 VRB04KT CAVOK TX22/2512Z TN04/2504Z"
    },
    {
      "icao": "LBPD",
      "alert": "OK",
      "vis_m": 9999,
      "fzfg": false,
      "metar_trigger": false,
      "taf_trigger": false,
      "metar": "METAR LBPD 250230Z AUTO 16004KT 130V210 9999 BKN066/// OVC077/// 08/05 Q1013",
      "taf": "TAF LBPD 242300Z 2500/2524 VRB03KT 9999 BKN050"
    },
    {
      "icao": "LBSF",
      "alert": "OK",
      "vis_m": 9999,
      "fzfg": false,
      "metar_trigger": false,
      "taf_trigger": false,
      "metar": "METAR LBSF 250230Z AUTO VRB02KT 9999 BKN060/// BKN085/// 03/00 Q1014 NOSIG",
      "taf": "TAF LBSF 242300Z 2500/2524 VRB03KT 9999 SCT030 BKN050"
    },
    {
      "icao": "LBWN",
      "alert": "OK",
      "vis_m": 9999,
      "fzfg": false,
      "metar_trigger": false,
      "taf_trigger": false,
      "metar": "METAR LBWN 250230Z AUTO 36010KT 9999 NCD 07/M01 Q1012 NOSIG",
      "taf": "TAF LBWN 242300Z 2500/2524 35006KT CAVOK"
    },
    {
      "icao": "LCLK",
      "alert": "OK",
      "vis_m": 9999,
      "fzfg": false,
      "metar_trigger": false,
      "taf_trigger": false,
      "metar": "METAR LCLK 250230Z 35003KT 9999 TS FEW022 FEW025CB FEW030TCU SCT060 12/11 Q1001 NOSIG",
      "taf": "TAF LCLK 242330Z 2500/2600 30006KT 9999 FEW020 SCT040"
    },
    {
      "icao": "LCPH",
      "alert": "OK",
      "vis_m": 9999,
      "fzfg": false,
      "metar_trigger": false,
      "taf_trigger": false,
      "metar": "METAR LCPH 250230Z AUTO 08006KT 020V080 9999 FEW060 11/09 Q1001 NOSIG",
      "taf": "TAF LCPH 242330Z 2500/2600 04007KT 9999 FEW020 SCT040"
    },
    {
      "icao": "LEAL",
      "alert": "OK",
      "vis_m": 9999,
      "fzfg": false,
      "metar_trigger": false,
      "taf_trigger": false,
      "metar": "METAR LEAL 250230Z 27004KT CAVOK 09/08 Q1022 NOSIG",
      "taf": "TAF LEAL 242300Z 2500/2524 28006KT 9999 FEW020 TX20/2512Z TN07/2506Z"
    },
    {
      "icao": "LEBB",
      "alert": "OK",
      "vis_m": 8000,
      "fzfg": false,
      "metar_trigger": false,
      "taf_trigger": false,
      "metar": "METAR LEBB 250230Z AUTO VRB01KT 8000 NCD 06/05 Q1022",
      "taf": "TAF LEBB 242300Z 2500/2524 29010KT 9999 FEW030 TX13/2509Z TN06/2504Z"
    },
    {
      "icao": "LEBL",
      "alert": "OK",
      "vis_m": 9999,
      "fzfg": false,
      "metar_trigger": false,
      "taf_trigger": false,
      "metar": "METAR LEBL 250230Z 30004KT 260V330 9999 FEW045 11/08 Q1020 NOSIG",
      "taf": "TAF LEBL 242300Z 2500/2524 23010KT CAVOK TX18/2512Z TN11/2507Z"
    },
    {
      "icao": "LECH",
      "alert": "OK",
      "vis_m": 9000,
      "fzfg": false,
      "metar_trigger": false,
      "taf_trigger": false,
      "metar": "METAR LECH 250230Z AUTO 20006KT 9000 NCD 07/03 Q1020",
      "taf": "TAF LECH 242300Z 2500/2524 VRB04KT CAVOK TX22/2513Z TN04/2506Z"
    },
    {
      "icao": "LEMD",
      "alert": "OK",
      "vis_m": 9999,
      "fzfg": false,
      "metar_trigger": false,
      "taf_trigger": false,
      "metar": "METAR LEMD 250230Z 31002KT CAVOK 05/04 Q1022 NOSIG",
      "taf": "TAF LEMD 242300Z 2500/2606 VRB04KT CAVOK TX23/2516Z TN04/2507Z"
    },
    {
      "icao": "LEMG",
      "alert": "OK",
      "vis_m": 9999,
      "fzfg": false,
      "metar_trigger": false,
      "taf_trigger": false,
      "metar": "METAR LEMG 250230Z 29004KT 9999 FEW018 SCT025 12/11 Q1022 NOSIG",
      "taf": "TAF LEMG 242300Z 2500/2524 VRB03KT 9999 SCT045 TX18/2513Z TN12/2506Z"
    },
    {
      "icao": "LEVC",
      "alert": "OK",
      "vis_m": 9999,
      "fzfg": false,
      "metar_trigger": false,
      "taf_trigger": false,
      "metar": "METAR LEVC 250230Z 27004KT CAVOK 07/05 Q1021 NOSIG",
      "taf": "TAF LEVC 242300Z 2500/2524 28004KT CAVOK TX24/2513Z TN07/2506Z"
    },
    {
      "icao": "LEXJ",
      "alert": "OK",
      "vis_m": 6000,
      "fzfg": false,
      "metar_trigger": false,
      "taf_trigger": false,
      "metar": "METAR LEXJ 250230Z AUTO 24006KT 200V260 6000 SCT022 10/08 Q1023",
      "taf": "TAF LEXJ 250200Z 2503/2603 29009KT 8000 FEW010 BKN025 TX12/2512Z TN11/2509Z"
    },
    {
      "icao": "LEZG",
      "alert": "OK",
      "vis_m": 9999,
      "fzfg": false,
      "metar_trigger": false,
      "taf_trigger": false,
      "metar": "METAR LEZG 250230Z 27005KT CAVOK 07/05 Q1020 NOSIG",
      "taf": "TAF LEZG 242300Z 2500/2524 VRB04KT 9999 FEW030 TX21/2514Z TN07/2506Z"
    },
    {
      "icao": "LEZL",
      "alert": "OK",
      "vis_m": 9000,
      "fzfg": false,
      "metar_trigger": false,
      "taf_trigger": false,
      "metar": "METAR LEZL 250230Z AUTO 04004KT 9000 NCD 11/09 Q1021",
      "taf": "TAF LEZL 250200Z 2503/2603 05007KT CAVOK TX25/2515Z TN09/2507Z"
    },
    {
      "icao": "LFBD",
      "alert": "OK",
      "vis_m": 5000,
      "fzfg": false,
      "metar_trigger": false,
      "taf_trigger": false,
      "metar": "METAR LFBD 250230Z AUTO 24005KT 5000 1700 R23/1300D BR NSC 07/06 Q1019 NOSIG",
      "taf": "TAF LFBD 242300Z 2500/2606 25005KT CAVOK TX13/2512Z TN04/2606Z"
    },
    {
      "icao": "LFLL",
      "alert": "OK",
      "vis_m": 9999,
      "fzfg": false,
      "metar_trigger": false,
      "taf_trigger": false,
      "metar": "METAR LFLL 250230Z VRB02KT CAVOK 06/03 Q1017 NOSIG",
      "taf": "TAF LFLL 242300Z 2500/2606 16005KT CAVOK"
    },
    {
      "icao": "LFLS",
      "alert": "OK",
      "vis_m": 9999,
      "fzfg": false,
      "metar_trigger": false,
      "taf_trigger": false,
      "metar": "METAR LFLS 250230Z AUTO 04008KT CAVOK 06/03 Q1017 NOSIG",
      "taf": "TAF LFLS 250200Z 2503/2603 08006KT CAVOK"
    },
    {
      "icao": "LFMN",
      "alert": "OK",
      "vis_m": 9999,
      "fzfg": false,
      "metar_trigger": false,
      "taf_trigger": false,
      "metar": "METAR LFMN 250230Z 33012KT CAVOK 10/02 Q1016 NOSIG",
      "taf": "TAF LFMN 250200Z 2503/2609 33010KT CAVOK"
    },
    {
      "icao": "LFOB",
      "alert": "OK",
      "vis_m": 8000,
      "fzfg": false,
      "metar_trigger": false,
      "taf_trigger": false,
      "metar": "METAR LFOB 250230Z AUTO 28020G30KT 8000 -RA SCT015 BKN020 BKN032 09/07 Q1008 TEMPO 4000 SHRA FEW014CB BKN018TCU",
      "taf": "TAF LFOB 242300Z 2500/2524 24015G25KT 9999 BKN020 OVC030"
    },
    {
      "icao": "LFPO",
      "alert": "OK",
      "vis_m": 9999,
      "fzfg": false,
      "metar_trigger": false,
      "taf_trigger": false,
      "metar": "METAR LFPO 250230Z AUTO 23013KT 9999 BKN021 BKN029 BKN034 10/06 Q1010 TEMPO 2500 RA BKN012 BECMG 26015G30KT",
      "taf": "TAF LFPO 242300Z 2500/2606 25015G25KT CAVOK"
    },
    {
      "icao": "LFSB",
      "alert": "OK",
      "vis_m": 9999,
      "fzfg": false,
      "metar_trigger": false,
      "taf_trigger": false,
      "metar": "METAR LFSB 250230Z AUTO 16004KT CAVOK 04/02 Q1013 BECMG 24013KT",
      "taf": "TAF LFSB 242330Z 2500/2524 18005KT CAVOK"
    },
    {
      "icao": "LGAV",
      "alert": "OK",
      "vis_m": 9999,
      "fzfg": false,
      "metar_trigger": false,
      "taf_trigger": false,
      "metar": "METAR LGAV 250250Z 35009KT 9999 DZ FEW020 BKN030 11/08 Q1007 NOSIG",
      "taf": "TAF LGAV 242300Z 2500/2524 35014KT 9999 FEW025 SCT030 BKN070"
    },
    {
      "icao": "LGTS",
      "alert": "OK",
      "vis_m": 9999,
      "fzfg": false,
      "metar_trigger": false,
      "taf_trigger": false,
      "metar": "METAR LGTS 250250Z 32005KT 9999 FEW010 SCT020 10/10 Q1012 NOSIG",
      "taf": "TAF LGTS 242300Z 2500/2524 34013KT 9999 FEW025"
    },
    {
      "icao": "LHBP",
      "alert": "OK",
      "vis_m": 9999,
      "fzfg": false,
      "metar_trigger": false,
      "taf_trigger": false,
      "metar": "METAR LHBP 250230Z 00000KT CAVOK M00/M02 Q1014 NOSIG",
      "taf": "TAF LHBP 242315Z 2500/2524 VRB02KT CAVOK"
    },
    {
      "icao": "LHDC",
      "alert": "OK",
      "vis_m": 9999,
      "fzfg": false,
      "metar_trigger": false,
      "taf_trigger": false,
      "metar": "METAR LHDC 250215Z AUTO 00000KT CAVOK 05/00 Q1014",
      "taf": ""
    },
    {
      "icao": "LIBD",
      "alert": "OK",
      "vis_m": 9999,
      "fzfg": false,
      "metar_trigger": false,
      "taf_trigger": false,
      "metar": "METAR LIBD 250250Z 27008KT CAVOK 10/06 Q1014",
      "taf": "TAF LIBD 242300Z 2500/2524 27008KT CAVOK"
    },
    {
      "icao": "LIBG",
      "alert": "OK",
      "vis_m": null,
      "fzfg": false,
      "metar_trigger": false,
      "taf_trigger": false,
      "metar": "",
      "taf": "TAF LIBG 241700Z 2418/2503 35012KT CAVOK"
    },
    {
      "icao": "LIBP",
      "alert": "OK",
      "vis_m": 9999,
      "fzfg": false,
      "metar_trigger": false,
      "taf_trigger": false,
      "metar": "METAR LIBP 250250Z AUTO 25005KT 9999 NCD 05/03 Q1017",
      "taf": "TAF LIBP 242300Z 2500/2524 25008KT CAVOK"
    },
    {
      "icao": "LIBR",
      "alert": "OK",
      "vis_m": 9999,
      "fzfg": false,
      "metar_trigger": false,
      "taf_trigger": false,
      "metar": "METAR LIBR 250250Z 32016KT CAVOK 12/09 Q1013",
      "taf": "TAF LIBR 242300Z 2500/2524 34014KT 9999 FEW025"
    },
    {
      "icao": "LICA",
      "alert": "OK",
      "vis_m": 9999,
      "fzfg": false,
      "metar_trigger": false,
      "taf_trigger": false,
      "metar": "METAR LICA 250250Z AUTO 08004KT 9999 NCD 04/03 Q1015",
      "taf": "TAF LICA 242300Z 2500/2524 08006KT 9999 SCT040"
    },
    {
      "icao": "LICC",
      "alert": "OK",
      "vis_m": 9999,
      "fzfg": false,
      "metar_trigger": false,
      "taf_trigger": false,
      "metar": "METAR LICC 250250Z 30003KT 280V340 CAVOK 08/05 Q1015",
      "taf": "TAF LICC 242300Z 2500/2524 25008KT 9999 FEW050"
    },
    {
      "icao": "LICJ",
      "alert": "OK",
      "vis_m": 9999,
      "fzfg": false,
      "metar_trigger": false,
      "taf_trigger": false,
      "metar": "METAR LICJ 250250Z VRB04KT CAVOK 14/09 Q1018",
      "taf": "TAF LICJ 242300Z 2500/2524 01012KT 9999 FEW020"
    },
    {
      "icao": "LIMC",
      "alert": "OK",
      "vis_m": 9999,
      "fzfg": false,
      "metar_trigger": false,
      "taf_trigger": false,
      "metar": "METAR LIMC 250250Z 34004KT CAVOK 03/01 Q1015 NOSIG",
      "taf": "TAF LIMC 242300Z 2500/2606 VRB05KT CAVOK"
    },
    {
      "icao": "LIME",
      "alert": "OK",
      "vis_m": 9999,
      "fzfg": false,
      "metar_trigger": false,
      "taf_trigger": false,
      "metar": "METAR LIME 250250Z 03004KT CAVOK 08/02 Q1015 NOSIG",
      "taf": "TAF LIME 242300Z 2500/2524 VRB05KT CAVOK"
    },
    {
      "icao": "LIMF",
      "alert": "OK",
      "vis_m": 9999,
      "fzfg": false,
      "metar_trigger": false,
      "taf_trigger": false,
      "metar": "METAR LIMF 250250Z 27003KT CAVOK 08/01 Q1015",
      "taf": "TAF LIMF 242300Z 2500/2524 VRB05KT CAVOK"
    },
    {
      "icao": "LIMJ",
      "alert": "OK",
      "vis_m": 9999,
      "fzfg": false,
      "metar_trigger": false,
      "taf_trigger": false,
      "metar": "METAR LIMJ 250250Z 02004KT CAVOK 10/02 Q1016",
      "taf": "TAF LIMJ 242300Z 2500/2524 04006KT 9999 FEW020"
    },
    {
      "icao": "LIPE",
      "alert": "OK",
      "vis_m": 9999,
      "fzfg": false,
      "metar_trigger": false,
      "taf_trigger": false,
      "metar": "METAR LIPE 250250Z 20008KT CAVOK 08/01 Q1016",
      "taf": "TAF LIPE 242300Z 2500/2524 23006KT CAVOK"
    },
    {
      "icao": "LIPH",
      "alert": "OK",
      "vis_m": 9999,
      "fzfg": false,
      "metar_trigger": false,
      "taf_trigger": false,
      "metar": "METAR LIPH 250250Z AUTO 35002KT 9999 NCD 06/03 Q1015",
      "taf": "TAF LIPH 242300Z 2500/2524 VRB05KT CAVOK"
    },
    {
      "icao": "LIPQ",
      "alert": "OK",
      "vis_m": 9999,
      "fzfg": false,
      "metar_trigger": false,
      "taf_trigger": false,
      "metar": "METAR LIPQ 250250Z AUTO VRB01KT 9999 NCD 04/03 Q1015",
      "taf": "TAF LIPQ 242300Z 2500/2524 VRB03KT CAVOK"
    },
    {
      "icao": "LIPR",
      "alert": "OK",
      "vis_m": 9999,
      "fzfg": false,
      "metar_trigger": false,
      "taf_trigger": false,
      "metar": "METAR LIPR 250250Z AUTO 22003KT 160V250 9999 NCD 05/02 Q1016",
      "taf": "TAF LIPR 242300Z 2500/2524 22005KT CAVOK"
    },
    {
      "icao": "LIPX",
      "alert": "OK",
      "vis_m": 9999,
      "fzfg": false,
      "metar_trigger": false,
      "taf_trigger": false,
      "metar": "METAR LIPX 250250Z 34003KT CAVOK 06/02 Q1015",
      "taf": "TAF LIPX 242300Z 2500/2524 VRB05KT CAVOK"
    },
    {
      "icao": "LIPY",
      "alert": "OK",
      "vis_m": 9999,
      "fzfg": false,
      "metar_trigger": false,
      "taf_trigger": false,
      "metar": "METAR LIPY 250250Z AUTO 18004KT 9999 NCD 07/03 Q1016",
      "taf": "TAF LIPY 242300Z 2500/2524 VRB05KT CAVOK"
    },
    {
      "icao": "LIPZ",
      "alert": "OK",
      "vis_m": 9999,
      "fzfg": false,
      "metar_trigger": false,
      "taf_trigger": false,
      "metar": "METAR LIPZ 250250Z 25006KT CAVOK 09/05 Q1015 NOSIG",
      "taf": "TAF LIPZ 242300Z 2500/2606 23007KT CAVOK"
    },
    {
      "icao": "LIRF",
      "alert": "OK",
      "vis_m": 9999,
      "fzfg": false,
      "metar_trigger": false,
      "taf_trigger": false,
      "metar": "METAR LIRF 250250Z 32003KT CAVOK 05/03 Q1017 NOSIG",
      "taf": "TAF LIRF 242300Z 2500/2606 04007KT CAVOK"
    },
    {
      "icao": "LIRN",
      "alert": "OK",
      "vis_m": 9999,
      "fzfg": false,
      "metar_trigger": false,
      "taf_trigger": false,
      "metar": "METAR LIRN 250250Z 35002KT CAVOK 07/02 Q1016 NOSIG",
      "taf": "TAF LIRN 242300Z 2500/2524 VRB05KT 9999 FEW040"
    },
    {
      "icao": "LIRP",
      "alert": "OK",
      "vis_m": 4000,
      "fzfg": false,
      "metar_trigger": false,
      "taf_trigger": false,
      "metar": "METAR LIRP 250245Z 12006KT 4000 BR NSC 04/04 Q1017 NOSIG",
      "taf": "TAF LIRP 242300Z 2500/2524 VRB03KT 9999 FEW080"
    },
    {
      "icao": "LIRZ",
      "alert": "OK",
      "vis_m": 9999,
      "fzfg": false,
      "metar_trigger": false,
      "taf_trigger": false,
      "metar": "METAR LIRZ 250250Z AUTO VRB03KT 9999 NCD 01/M00 Q1017",
      "taf": "TAF LIRZ 242300Z 2500/2524 VRB05KT 9999 FEW040"
    },
    {
      "icao": "LJLJ",
      "alert": "OK",
      "vis_m": 9999,
      "fzfg": false,
      "metar_trigger": false,
      "taf_trigger": false,
      "metar": "METAR LJLJ 250230Z 27002KT CAVOK M00/M02 Q1016 NOSIG",
      "taf": "TAF LJLJ 242300Z 2500/2600 VRB02KT 9999 FEW070"
    },
    {
      "icao": "LKMT",
      "alert": "OK",
      "vis_m": 9999,
      "fzfg": false,
      "metar_trigger": false,
      "taf_trigger": false,
      "metar": "METAR LKMT 250230Z 22007KT CAVOK 01/M02 Q1012 NOSIG",
      "taf": "TAF LKMT 242300Z 2500/2524 21006KT CAVOK"
    },
    {
      "icao": "LKPR",
      "alert": "OK",
      "vis_m": 9999,
      "fzfg": false,
      "metar_trigger": false,
      "taf_trigger": false,
      "metar": "METAR LKPR 250230Z 17010KT CAVOK 09/M01 Q1009 NOSIG",
      "taf": "TAF LKPR 250200Z 2503/2609 21015KT CAVOK"
    },
    {
      "icao": "LLBG",
      "alert": "OK",
      "vis_m": 9999,
      "fzfg": false,
      "metar_trigger": false,
      "taf_trigger": false,
      "metar": "METAR LLBG 250250Z VRB03KT 9999 FEW028 SCT040 12/08 Q1003 BECMG 7000 RA FEW025TCU BKN030",
      "taf": "TAF LLBG 242315Z 2500/2524 17005KT 9999 SCT040 TX17/2510Z TN10/2504Z"
    },
    {
      "icao": "LMML",
      "alert": "OK",
      "vis_m": 9999,
      "fzfg": false,
      "metar_trigger": false,
      "taf_trigger": false,
      "metar": "METAR LMML 250245Z 30010KT CAVOK 10/08 Q1016 NOSIG",
      "taf": "TAF LMML 242300Z 2500/2524 33010KT 9999 FEW020"
    },
    {
      "icao": "LOWW",
      "alert": "OK",
      "vis_m": 9999,
      "fzfg": false,
      "metar_trigger": false,
      "taf_trigger": false,
      "metar": "METAR LOWW 250250Z 16007KT CAVOK 03/M01 Q1013 NOSIG",
      "taf": "TAF LOWW 250215Z 2503/2609 24004KT CAVOK TX19/2513Z TN03/2504Z"
    },
    {
      "icao": "LPFR",
      "alert": "OK",
      "vis_m": 9999,
      "fzfg": false,
      "metar_trigger": false,
      "taf_trigger": false,
      "metar": "METAR LPFR 250230Z 03008KT CAVOK 13/10 Q1021",
      "taf": "TAF LPFR 242300Z 2500/2524 05007KT CAVOK"
    },
    {
      "icao": "LPMA",
      "alert": "OK",
      "vis_m": 9999,
      "fzfg": false,
      "metar_trigger": false,
      "taf_trigger": false,
      "metar": "METAR LPMA 250230Z 01015KT 330V030 9999 BKN015 17/11 Q1018",
      "taf": "TAF LPMA 242300Z 2500/2524 36015KT 9999 SCT015"
    },
    {
      "icao": "LPPR",
      "alert": "OK",
      "vis_m": 9999,
      "fzfg": false,
      "metar_trigger": false,
      "taf_trigger": false,
      "metar": "METAR LPPR 250230Z 00000KT CAVOK 08/07 Q1021",
      "taf": "TAF LPPR 242300Z 2500/2524 VRB02KT CAVOK"
    },
    {
      "icao": "LPPS",
      "alert": "OK",
      "vis_m": 9999,
      "fzfg": false,
      "metar_trigger": false,
      "taf_trigger": false,
      "metar": "METAR LPPS 250230Z 06017KT 9999 FEW012 16/12 Q1018",
      "taf": "TAF LPPS 242300Z 2500/2606 03017KT 9999 SCT015 SCT030"
    },
    {
      "icao": "LPPT",
      "alert": "OK",
      "vis_m": 9999,
      "fzfg": false,
      "metar_trigger": false,
      "taf_trigger": false,
      "metar": "METAR LPPT 250230Z VRB02KT CAVOK 13/08 Q1021",
      "taf": "TAF LPPT 242300Z 2500/2606 33008KT CAVOK"
    },
    {
      "icao": "LQBK",
      "alert": "OK",
      "vis_m": 9999,
      "fzfg": false,
      "metar_trigger": false,
      "taf_trigger": false,
      "metar": "METAR LQBK 250230Z 14006KT CAVOK 06/02 Q1015 NOSIG",
      "taf": "TAF LQBK 242300Z 2500/2524 15005KT CAVOK TX19/2514Z TN02/2505Z"
    },
    {
      "icao": "LQSA",
      "alert": "OK",
      "vis_m": 9999,
      "fzfg": false,
      "metar_trigger": false,
      "taf_trigger": false,
      "metar": "METAR LQSA 250230Z VRB01KT CAVOK M00/M01 Q1016",
      "taf": "TAF LQSA 242300Z 2500/2524 VRB02KT CAVOK TX16/2514Z TN02/2505Z"
    },
    {
      "icao": "LQTZ",
      "alert": "OK",
      "vis_m": 9999,
      "fzfg": false,
      "metar_trigger": false,
      "taf_trigger": false,
      "metar": "METAR LQTZ 250230Z 10002KT CAVOK 03/02 Q1015",
      "taf": "TAF LQTZ 242300Z 2500/2524 VRB02KT CAVOK TX17/2514Z TN02/2505Z"
    },
    {
      "icao": "LRBC",
      "alert": "OK",
      "vis_m": 9999,
      "fzfg": false,
      "metar_trigger": false,
      "taf_trigger": false,
      "metar": "METAR LRBC 250230Z 33003KT CAVOK 04/01 Q1014",
      "taf": "TAF LRBC 250200Z 2503/2512 VRB04KT CAVOK"
    },
    {
      "icao": "LRBS",
      "alert": "OK",
      "vis_m": 9999,
      "fzfg": false,
      "metar_trigger": false,
      "taf_trigger": false,
      "metar": "METAR LRBS 250230Z 00000KT CAVOK 09/02 Q1013 NOSIG",
      "taf": "TAF LRBS 242300Z 2500/2524 VRB04KT CAVOK"
    },
    {
      "icao": "LRBV",
      "alert": "OK",
      "vis_m": 9999,
      "fzfg": false,
      "metar_trigger": false,
      "taf_trigger": false,
      "metar": "METAR LRBV 250230Z AUTO 22005KT 9999 OVC061/// 06/02 Q1013",
      "taf": "TAF LRBV 250200Z 2503/2512 VRB04KT 9999 BKN060"
    },
    {
      "icao": "LRCL",
      "alert": "OK",
      "vis_m": 9999,
      "fzfg": false,
      "metar_trigger": false,
      "taf_trigger": false,
      "metar": "METAR LRCL 250230Z VRB02KT CAVOK 03/M04 Q1014",
      "taf": "TAF LRCL 250200Z 2503/2512 VRB04KT CAVOK"
    },
    {
      "icao": "LRCV",
      "alert": "OK",
      "vis_m": 9999,
      "fzfg": false,
      "metar_trigger": false,
      "taf_trigger": false,
      "metar": "METAR LRCV 250230Z 00000KT CAVOK 04/03 Q1013",
      "taf": "TAF LRCV 250200Z 2503/2512 VRB04KT CAVOK"
    },
    {
      "icao": "LRIA",
      "alert": "OK",
      "vis_m": 9999,
      "fzfg": false,
      "metar_trigger": false,
      "taf_trigger": false,
      "metar": "METAR LRIA 250230Z 26003KT CAVOK 05/M01 Q1014",
      "taf": "TAF LRIA 250200Z 2503/2512 VRB04KT CAVOK"
    },
    {
      "icao": "LROP",
      "alert": "OK",
      "vis_m": 9999,
      "fzfg": false,
      "metar_trigger": false,
      "taf_trigger": false,
      "metar": "METAR LROP 250230Z 02002KT CAVOK 10/M02 Q1014",
      "taf": "TAF LROP 242300Z 2500/2524 VRB04KT CAVOK"
    },
    {
      "icao": "LRSB",
      "alert": "OK",
      "vis_m": 9999,
      "fzfg": false,
      "metar_trigger": false,
      "taf_trigger": false,
      "metar": "METAR LRSB 250230Z 25003KT 220V280 CAVOK 06/01 Q1013",
      "taf": "TAF LRSB 242300Z 2500/2524 VRB04KT CAVOK"
    },
    {
      "icao": "LRSM",
      "alert": "OK",
      "vis_m": 9999,
      "fzfg": false,
      "metar_trigger": false,
      "taf_trigger": false,
      "metar": "METAR LRSM 250230Z AUTO 21005KT 9999 NCD 01/M03 Q1014",
      "taf": "TAF LRSM 250200Z 2503/2512 21006KT CAVOK"
    },
    {
      "icao": "LRSV",
      "alert": "OK",
      "vis_m": 9999,
      "fzfg": false,
      "metar_trigger": false,
      "taf_trigger": false,
      "metar": "METAR LRSV 250230Z VRB02KT CAVOK 08/M00 Q1013",
      "taf": "TAF LRSV 250200Z 2503/2512 VRB04KT CAVOK"
    },
    {
      "icao": "LRTM",
      "alert": "OK",
      "vis_m": 9999,
      "fzfg": false,
      "metar_trigger": false,
      "taf_trigger": false,
      "metar": "METAR LRTM 250230Z AUTO 24002KT 9999 NCD 04/M01 Q1014",
      "taf": "TAF LRTM 250200Z 2503/2512 VRB04KT CAVOK"
    },
    {
      "icao": "LRTR",
      "alert": "OK",
      "vis_m": 9999,
      "fzfg": false,
      "metar_trigger": false,
      "taf_trigger": false,
      "metar": "METAR LRTR 250230Z 10003KT CAVOK 03/00 Q1014",
      "taf": "TAF LRTR 242300Z 2500/2524 VRB04KT CAVOK"
    },
    {
      "icao": "LTAC",
      "alert": "OK",
      "vis_m": 9999,
      "fzfg": false,
      "metar_trigger": false,
      "taf_trigger": false,
      "metar": "METAR LTAC 250250Z 06009KT 9999 FEW015 SCT025 BKN080 07/04 Q1004 NOSIG",
      "taf": "TAF LTAC 242240Z 2500/2524 03009KT 9999 SCT035 BKN100"
    },
    {
      "icao": "LTFM",
      "alert": "OK",
      "vis_m": 8000,
      "fzfg": false,
      "metar_trigger": false,
      "taf_trigger": false,
      "metar": "METAR LTFM 250250Z 03010KT 8000 BKN007 BKN020 08/07 Q1010 NOSIG",
      "taf": "TAF LTFM 242240Z 2500/2606 02015KT 3200 BR BKN006 BKN022"
    },
    {
      "icao": "LUKK",
      "alert": "OK",
      "vis_m": 9999,
      "fzfg": false,
      "metar_trigger": false,
      "taf_trigger": false,
      "metar": "METAR LUKK 250230Z VRB01KT CAVOK 03/M01 Q1014 NOSIG",
      "taf": "TAF LUKK 242309Z 2500/2524 VRB04KT CAVOK"
    },
    {
      "icao": "LWOH",
      "alert": "OK",
      "vis_m": null,
      "fzfg": false,
      "metar_trigger": false,
      "taf_trigger": false,
      "metar": "",
      "taf": "TAF LWOH 242020Z 2421/2521 36010KT 9999 SCT050"
    },
    {
      "icao": "LWSK",
      "alert": "OK",
      "vis_m": 9999,
      "fzfg": false,
      "metar_trigger": false,
      "taf_trigger": false,
      "metar": "METAR LWSK 250250Z VRB02KT 9999 FEW070 03/00 Q1014 NOSIG",
      "taf": "TAF LWSK 242020Z 2421/2521 VRB02KT CAVOK"
    },
    {
      "icao": "LYBE",
      "alert": "OK",
      "vis_m": 9999,
      "fzfg": false,
      "metar_trigger": false,
      "taf_trigger": false,
      "metar": "METAR LYBE 250230Z 19006KT CAVOK 07/02 Q1015 NOSIG",
      "taf": "TAF LYBE 242300Z 2500/2524 23004KT CAVOK TX18/2513Z TN05/2505Z"
    },
    {
      "icao": "LYNI",
      "alert": "OK",
      "vis_m": 9999,
      "fzfg": false,
      "metar_trigger": false,
      "taf_trigger": false,
      "metar": "METAR LYNI 250230Z 30002KT CAVOK 07/03 Q1015 NOSIG",
      "taf": "TAF LYNI 242300Z 2500/2524 08004KT CAVOK TX19/2514Z TN04/2505Z"
    },
    {
      "icao": "LYPG",
      "alert": "OK",
      "vis_m": 9999,
      "fzfg": false,
      "metar_trigger": false,
      "taf_trigger": false,
      "metar": "METAR LYPG 250230Z 32008KT 290V010 CAVOK 11/00 Q1013 NOSIG",
      "taf": "TAF LYPG 242300Z 2500/2524 36008KT CAVOK TX20/2513Z TN06/2505Z"
    },
    {
      "icao": "LZIB",
      "alert": "OK",
      "vis_m": 9999,
      "fzfg": false,
      "metar_trigger": false,
      "taf_trigger": false,
      "metar": "METAR LZIB 250230Z VRB02KT CAVOK 05/M01 Q1013 NOSIG",
      "taf": "TAF LZIB 242315Z 2500/2600 23004KT CAVOK"
    },
    {
      "icao": "LZKZ",
      "alert": "OK",
      "vis_m": 9999,
      "fzfg": false,
      "metar_trigger": false,
      "taf_trigger": false,
      "metar": "METAR LZKZ 250230Z 36005KT CAVOK 03/M02 Q1014 NOSIG",
      "taf": "TAF LZKZ 242315Z 2500/2600 VRB02KT CAVOK"
    },
    {
      "icao": "LZTT",
      "alert": "OK",
      "vis_m": 9999,
      "fzfg": false,
      "metar_trigger": false,
      "taf_trigger": false,
      "metar": "METAR LZTT 250230Z 30003KT CAVOK M03/M05 Q1013",
      "taf": "TAF LZTT 242315Z 2500/2600 27007KT 9999 SCT050"
    },
    {
      "icao": "OEJN",
      "alert": "OK",
      "vis_m": 9999,
      "fzfg": false,
      "metar_trigger": false,
      "taf_trigger": false,
      "metar": "METAR OEJN 250200Z 19006KT 9999 FEW040 27/21 Q1002 NOSIG",
      "taf": "TAF OEJN 242300Z 2500/2606 18006KT 7000 NSC"
    },
    {
      "icao": "OEMA",
      "alert": "OK",
      "vis_m": 9999,
      "fzfg": false,
      "metar_trigger": false,
      "taf_trigger": false,
      "metar": "METAR OEMA 250200Z 13005KT CAVOK 20/07 Q1005 NOSIG",
      "taf": "TAF OEMA 242300Z 2500/2606 VRB03KT 9999 FEW045"
    },
    {
      "icao": "OJAI",
      "alert": "OK",
      "vis_m": 3500,
      "fzfg": false,
      "metar_trigger": false,
      "taf_trigger": false,
      "metar": "METAR OJAI 250200Z 10002KT 3500 BR NSC 06/05 Q1004 NOSIG",
      "taf": "TAF OJAI 242225Z 2500/2606 VRB02KT 4000 BR SCT035"
    },
    {
      "icao": "OMAA",
      "alert": "OK",
      "vis_m": null,
      "fzfg": false,
      "metar_trigger": false,
      "taf_trigger": false,
      "metar": "",
      "taf": ""
    },
    {
      "icao": "OMDB",
      "alert": "OK",
      "vis_m": null,
      "fzfg": false,
      "metar_trigger": false,
      "taf_trigger": false,
      "metar": "",
      "taf": ""
    },
    {
      "icao": "UAAA",
      "alert": "OK",
      "vis_m": 9999,
      "fzfg": false,
      "metar_trigger": false,
      "taf_trigger": false,
      "metar": "METAR UAAA 250230Z VRB01MPS 9999 NSC 07/M01 Q1022 NOSIG",
      "taf": "TAF UAAA 242302Z 2500/2524 35003MPS 9999 FEW050 SCT100 TX17/2509Z TN01/2501Z"
    },
    {
      "icao": "UBBB",
      "alert": "OK",
      "vis_m": 9999,
      "fzfg": false,
      "metar_trigger": false,
      "taf_trigger": false,
      "metar": "METAR UBBB 250230Z 34010KT CAVOK 09/08 Q1007 NOSIG",
      "taf": "TAF UBBB 242302Z 2500/2524 32006KT 9999 SCT015 TX13/2510Z TN08/2500Z"
    },
    {
      "icao": "UDSG",
      "alert": "OK",
      "vis_m": 9999,
      "fzfg": false,
      "metar_trigger": false,
      "taf_trigger": false,
      "metar": "METAR UDSG 250230Z 07005KT 9999 BKN049 06/01 Q1007 NOSIG",
      "taf": "TAF UDSG 242258Z 2500/2524 06006KT 9999 BKN050"
    },
    {
      "icao": "UDYZ",
      "alert": "OK",
      "vis_m": 9999,
      "fzfg": false,
      "metar_trigger": false,
      "taf_trigger": false,
      "metar": "METAR UDYZ 250230Z VRB02KT 9999 SCT043CB 09/05 Q1005 NOSIG",
      "taf": "TAF UDYZ 242300Z 2500/2524 04006KT 9999 SCT040"
    },
    {
      "icao": "UGKO",
      "alert": "OK",
      "vis_m": 9999,
      "fzfg": false,
      "metar_trigger": false,
      "taf_trigger": false,
      "metar": "METAR UGKO 250230Z VRB02KT 9999 SCT006 OVC023 08/08 Q1007 NOSIG",
      "taf": "TAF UGKO 242300Z 2500/2524 26007KT 9999 SCT023 BKN060 TX13/2511Z TN07/2503Z"
    }
  ]
}