{
  "ts_utc": "2026-04-13T17:11:50Z",
  "threshold_m": 150,
  "source": "stations_override.txt (ICAO list) + aviationweather.gov (METAR/TAF raw)",
  "station_count": 159,
  "stations": [
    {
      "icao": "BIKF",
      "alert": "OK",
      "vis_m": 9999,
      "fzfg": false,
      "metar_trigger": false,
      "taf_trigger": false,
      "metar": "METAR BIKF 131700Z 14003KT 9999 VCSH BKN016 OVC040 05/03 Q0997",
      "taf": "TAF BIKF 131633Z 1318/1418 07010KT 9999 -SHRA SCT018 BKN028 TX07/1415Z TN02/1404Z"
    },
    {
      "icao": "BKPR",
      "alert": "OK",
      "vis_m": 9999,
      "fzfg": false,
      "metar_trigger": false,
      "taf_trigger": false,
      "metar": "METAR BKPR 131700Z 12009KT 9999 SCT090 15/09 Q1014 NOSIG",
      "taf": ""
    },
    {
      "icao": "EBCI",
      "alert": "OK",
      "vis_m": 9999,
      "fzfg": false,
      "metar_trigger": false,
      "taf_trigger": false,
      "metar": "METAR EBCI 131650Z 29006KT 260V330 CAVOK 12/02 Q1013 NOSIG",
      "taf": "TAF EBCI 131115Z 1312/1418 32006KT 9999 SCT035"
    },
    {
      "icao": "EDDB",
      "alert": "OK",
      "vis_m": 9999,
      "fzfg": false,
      "metar_trigger": false,
      "taf_trigger": false,
      "metar": "METAR EDDB 131650Z AUTO 10013KT 070V130 CAVOK 14/02 Q1013 TEMPO 09015G25KT",
      "taf": "TAF EDDB 131100Z 1312/1412 09014KT CAVOK"
    },
    {
      "icao": "EDDH",
      "alert": "OK",
      "vis_m": 9999,
      "fzfg": false,
      "metar_trigger": false,
      "taf_trigger": false,
      "metar": "METAR EDDH 131650Z AUTO 08010KT 9999 -RADZ NSC 10/06 Q1013 NOSIG",
      "taf": "TAF EDDH 131100Z 1312/1418 08007KT 9999 BKN025"
    },
    {
      "icao": "EDDK",
      "alert": "OK",
      "vis_m": 9000,
      "fzfg": false,
      "metar_trigger": false,
      "taf_trigger": false,
      "metar": "METAR EDDK 131650Z AUTO 33006KT 9000 -RADZ FEW012 BKN023 OVC028 09/07 Q1012 TEMPO BKN013",
      "taf": "TAF EDDK 131100Z 1312/1418 VRB03KT 9999 BKN030"
    },
    {
      "icao": "EDDN",
      "alert": "OK",
      "vis_m": 9999,
      "fzfg": false,
      "metar_trigger": false,
      "taf_trigger": false,
      "metar": "METAR EDDN 131650Z AUTO 32003KT 290V360 9999 FEW036 14/07 Q1009 NOSIG",
      "taf": "TAF EDDN 131100Z 1312/1412 06005KT CAVOK"
    },
    {
      "icao": "EDDS",
      "alert": "OK",
      "vis_m": 9999,
      "fzfg": false,
      "metar_trigger": false,
      "taf_trigger": false,
      "metar": "METAR EDDS 131650Z AUTO 34006KT 290V020 9999 -RADZ BKN008 09/07 Q1010 NOSIG",
      "taf": "TAF EDDS 131100Z 1312/1412 36004KT 9000 SCT005 OVC015"
    },
    {
      "icao": "EDFH",
      "alert": "OK",
      "vis_m": 4200,
      "fzfg": false,
      "metar_trigger": false,
      "taf_trigger": false,
      "metar": "METAR EDFH 131650Z 30005KT 260V340 4200 -RA BKN002 OVC006 06/06 Q1011",
      "taf": "TAF EDFH 131100Z 1312/1412 01005KT 9999 SCT004 BKN015"
    },
    {
      "icao": "EDJA",
      "alert": "OK",
      "vis_m": 9999,
      "fzfg": false,
      "metar_trigger": false,
      "taf_trigger": false,
      "metar": "METAR EDJA 131650Z 26003KT 240V020 9999 OVC012 09/07 Q1009",
      "taf": ""
    },
    {
      "icao": "EDLW",
      "alert": "OK",
      "vis_m": 9999,
      "fzfg": false,
      "metar_trigger": false,
      "taf_trigger": false,
      "metar": "METAR EDLW 131650Z 01002KT 9999 BKN041 08/05 Q1012",
      "taf": "TAF EDLW 131100Z 1312/1412 04005KT 9999 BKN035"
    },
    {
      "icao": "EDNY",
      "alert": "OK",
      "vis_m": 7000,
      "fzfg": false,
      "metar_trigger": false,
      "taf_trigger": false,
      "metar": "METAR EDNY 131650Z 21003KT 7000 -DZ BKN014 OVC017 10/09 Q1010",
      "taf": "TAF EDNY 131400Z 1315/1324 24005KT 9999 SCT008 OVC015"
    },
    {
      "icao": "EDSB",
      "alert": "OK",
      "vis_m": 9999,
      "fzfg": false,
      "metar_trigger": false,
      "taf_trigger": false,
      "metar": "METAR EDSB 131650Z 24004KT 210V270 9999 FEW005 SCT014 OVC016 09/09 Q1012",
      "taf": ""
    },
    {
      "icao": "EETN",
      "alert": "OK",
      "vis_m": 9999,
      "fzfg": false,
      "metar_trigger": false,
      "taf_trigger": false,
      "metar": "METAR EETN 131650Z 06007KT CAVOK 09/01 Q1030 NOSIG",
      "taf": "TAF EETN 131130Z 1312/1412 04010KT CAVOK"
    },
    {
      "icao": "EFTU",
      "alert": "OK",
      "vis_m": 9999,
      "fzfg": false,
      "metar_trigger": false,
      "taf_trigger": false,
      "metar": "METAR EFTU 131650Z AUTO 21004KT 180V240 CAVOK 11/M03 Q1030",
      "taf": "TAF EFTU 131422Z 1315/1415 23006KT CAVOK"
    },
    {
      "icao": "EGBB",
      "alert": "OK",
      "vis_m": 9999,
      "fzfg": false,
      "metar_trigger": false,
      "taf_trigger": false,
      "metar": "METAR EGBB 131650Z 16011KT 9999 FEW048TCU 11/03 Q1012",
      "taf": "TAF EGBB 131056Z 1312/1412 18007KT 9999 SCT030"
    },
    {
      "icao": "EGGP",
      "alert": "OK",
      "vis_m": 9999,
      "fzfg": false,
      "metar_trigger": false,
      "taf_trigger": false,
      "metar": "METAR EGGP 131650Z 21006KT 180V240 9999 -RA SCT032 BKN042 08/03 Q1013",
      "taf": ""
    },
    {
      "icao": "EGGW",
      "alert": "OK",
      "vis_m": 9999,
      "fzfg": false,
      "metar_trigger": false,
      "taf_trigger": false,
      "metar": "METAR EGGW 131650Z AUTO 25006KT 9999 NCD 10/04 Q1013",
      "taf": "TAF EGGW 131055Z 1312/1412 23004KT 9999 SCT035"
    },
    {
      "icao": "EGKK",
      "alert": "OK",
      "vis_m": 9999,
      "fzfg": false,
      "metar_trigger": false,
      "taf_trigger": false,
      "metar": "METAR EGKK 131650Z 21006KT 160V240 9999 SCT038 12/04 Q1013",
      "taf": "TAF EGKK 131053Z 1312/1418 VRB04KT 9999 SCT030"
    },
    {
      "icao": "EGNM",
      "alert": "OK",
      "vis_m": 9999,
      "fzfg": false,
      "metar_trigger": false,
      "taf_trigger": false,
      "metar": "METAR EGNM 131650Z 19005KT 130V240 9999 FEW036 10/M00 Q1012",
      "taf": "TAF EGNM 131059Z 1312/1412 VRB03KT 9999 FEW040"
    },
    {
      "icao": "EGPD",
      "alert": "OK",
      "vis_m": 9999,
      "fzfg": false,
      "metar_trigger": false,
      "taf_trigger": false,
      "metar": "METAR EGPD 131650Z COR AUTO 17015KT 9999 NCD 10/01 Q1012 NOSIG",
      "taf": "TAF EGPD 131056Z 1312/1412 19010KT 9999 FEW040"
    },
    {
      "icao": "EGPF",
      "alert": "OK",
      "vis_m": 9999,
      "fzfg": false,
      "metar_trigger": false,
      "taf_trigger": false,
      "metar": "METAR EGPF 131650Z AUTO VRB03KT 9999 BKN044/// //////CB 09/03 Q1011",
      "taf": "TAF EGPF 131055Z 1312/1412 19008KT 9999 FEW020"
    },
    {
      "icao": "EHBK",
      "alert": "OK",
      "vis_m": 9999,
      "fzfg": false,
      "metar_trigger": false,
      "taf_trigger": false,
      "metar": "METAR EHBK 131655Z AUTO 06006KT 020V090 9999 FEW027/// SCT031/// OVC046/// 10/05 Q1013 NOSIG",
      "taf": "TAF EHBK 131112Z 1312/1418 34003KT CAVOK"
    },
    {
      "icao": "EHEH",
      "alert": "OK",
      "vis_m": 9999,
      "fzfg": false,
      "metar_trigger": false,
      "taf_trigger": false,
      "metar": "METAR EHEH 131655Z AUTO 09006KT 080V140 9999 FEW025 OVC062 11/06 Q1013 BLU BECMG VRB02KT",
      "taf": ""
    },
    {
      "icao": "EKBI",
      "alert": "OK",
      "vis_m": 9999,
      "fzfg": false,
      "metar_trigger": false,
      "taf_trigger": false,
      "metar": "METAR EKBI 131650Z AUTO 08009KT 9999 -RA OVC029/// 07/05 Q1017",
      "taf": "TAF EKBI 131427Z 1315/1415 10008KT 9999 BKN035"
    },
    {
      "icao": "EKCH",
      "alert": "OK",
      "vis_m": 9999,
      "fzfg": false,
      "metar_trigger": false,
      "taf_trigger": false,
      "metar": "METAR EKCH 131650Z AUTO 07015KT 9999 OVC085/// 07/03 Q1019 NOSIG",
      "taf": "TAF EKCH 131427Z 1315/1415 12014KT CAVOK"
    },
    {
      "icao": "ENAL",
      "alert": "OK",
      "vis_m": 9999,
      "fzfg": false,
      "metar_trigger": false,
      "taf_trigger": false,
      "metar": "METAR ENAL 131650Z 15009KT CAVOK 13/M02 Q1019",
      "taf": "TAF ENAL 131400Z 1315/1324 15010KT CAVOK"
    },
    {
      "icao": "ENBR",
      "alert": "OK",
      "vis_m": 9999,
      "fzfg": false,
      "metar_trigger": false,
      "taf_trigger": false,
      "metar": "METAR ENBR 131650Z 10005KT 9999 -SHRA FEW026 BKN046 07/04 Q1019 NOSIG RMK WIND 1200FT 13014KT",
      "taf": ""
    },
    {
      "icao": "ENGM",
      "alert": "OK",
      "vis_m": 9999,
      "fzfg": false,
      "metar_trigger": false,
      "taf_trigger": false,
      "metar": "METAR ENGM 131650Z 08004KT 030V140 CAVOK 10/00 Q1024 NOSIG",
      "taf": "TAF ENGM 131100Z 1312/1412 10005KT CAVOK"
    },
    {
      "icao": "ENHD",
      "alert": "OK",
      "vis_m": 9999,
      "fzfg": false,
      "metar_trigger": false,
      "taf_trigger": false,
      "metar": "METAR ENHD 131650Z 11011KT 9999 FEW020 SCT048 09/03 Q1018",
      "taf": "TAF ENHD 131400Z 1315/1322 14012KT 9999 -SHRA FEW030 SCT040"
    },
    {
      "icao": "ENTC",
      "alert": "OK",
      "vis_m": 9999,
      "fzfg": false,
      "metar_trigger": false,
      "taf_trigger": false,
      "metar": "METAR ENTC 131650Z VRB01KT CAVOK 10/M05 Q1026 NOSIG RMK WIND 2600FT 20010KT",
      "taf": "TAF ENTC 131100Z 1312/1412 02004KT CAVOK"
    },
    {
      "icao": "ENTO",
      "alert": "OK",
      "vis_m": 9999,
      "fzfg": false,
      "metar_trigger": false,
      "taf_trigger": false,
      "metar": "METAR ENTO 131650Z 01006KT CAVOK 08/03 Q1023 NOSIG",
      "taf": "TAF ENTO 131100Z 1312/1412 02005KT CAVOK"
    },
    {
      "icao": "ENVA",
      "alert": "OK",
      "vis_m": 9999,
      "fzfg": false,
      "metar_trigger": false,
      "taf_trigger": false,
      "metar": "METAR ENVA 131650Z 12008KT CAVOK 11/M00 Q1023 NOSIG RMK WIND 670FT 13012KT",
      "taf": ""
    },
    {
      "icao": "ENZV",
      "alert": "OK",
      "vis_m": 9999,
      "fzfg": false,
      "metar_trigger": false,
      "taf_trigger": false,
      "metar": "METAR ENZV 131650Z 12010KT CAVOK 11/01 Q1018 NOSIG",
      "taf": "TAF ENZV 131100Z 1312/1412 14015KT 9999 SCT030"
    },
    {
      "icao": "EPGD",
      "alert": "OK",
      "vis_m": 9999,
      "fzfg": false,
      "metar_trigger": false,
      "taf_trigger": false,
      "metar": "METAR EPGD 131700Z 07005KT CAVOK 10/M02 Q1021",
      "taf": "TAF EPGD 131130Z 1312/1412 11015KT CAVOK"
    },
    {
      "icao": "EPKK",
      "alert": "OK",
      "vis_m": 9999,
      "fzfg": false,
      "metar_trigger": false,
      "taf_trigger": false,
      "metar": "METAR EPKK 131700Z 08015KT CAVOK 12/M02 Q1017",
      "taf": "TAF EPKK 131430Z 1315/1415 07014KT CAVOK"
    },
    {
      "icao": "EPKT",
      "alert": "OK",
      "vis_m": 9999,
      "fzfg": false,
      "metar_trigger": false,
      "taf_trigger": false,
      "metar": "METAR EPKT 131700Z 10015KT CAVOK 11/M01 Q1017",
      "taf": "TAF EPKT 131130Z 1312/1412 09016KT CAVOK"
    },
    {
      "icao": "EPLB",
      "alert": "OK",
      "vis_m": 9999,
      "fzfg": false,
      "metar_trigger": false,
      "taf_trigger": false,
      "metar": "METAR EPLB 131700Z 10010KT CAVOK 10/M01 Q1022",
      "taf": "TAF EPLB 131130Z 1312/1412 10015KT CAVOK"
    },
    {
      "icao": "EPMO",
      "alert": "OK",
      "vis_m": 9999,
      "fzfg": false,
      "metar_trigger": false,
      "taf_trigger": false,
      "metar": "METAR EPMO 131700Z 10012KT CAVOK 11/M02 Q1021",
      "taf": "TAF EPMO 131130Z 1312/1412 11016KT CAVOK"
    },
    {
      "icao": "EPPO",
      "alert": "OK",
      "vis_m": 9999,
      "fzfg": false,
      "metar_trigger": false,
      "taf_trigger": false,
      "metar": "METAR EPPO 131700Z 10015KT CAVOK 12/M02 Q1017",
      "taf": "TAF EPPO 131130Z 1312/1412 11018KT CAVOK"
    },
    {
      "icao": "EPRA",
      "alert": "OK",
      "vis_m": 9999,
      "fzfg": false,
      "metar_trigger": false,
      "taf_trigger": false,
      "metar": "METAR EPRA 131700Z 09011KT CAVOK 10/M02 Q1020",
      "taf": "TAF EPRA 131430Z 1315/1324 12012KT CAVOK"
    },
    {
      "icao": "EPRZ",
      "alert": "OK",
      "vis_m": 9999,
      "fzfg": false,
      "metar_trigger": false,
      "taf_trigger": false,
      "metar": "METAR EPRZ 131700Z 10014KT CAVOK 12/M02 Q1020",
      "taf": "TAF EPRZ 131130Z 1312/1412 11014KT CAVOK"
    },
    {
      "icao": "EPSC",
      "alert": "OK",
      "vis_m": 9999,
      "fzfg": false,
      "metar_trigger": false,
      "taf_trigger": false,
      "metar": "METAR EPSC 131700Z 10011KT CAVOK 12/M02 Q1017",
      "taf": "TAF EPSC 131130Z 1312/1412 11014KT CAVOK"
    },
    {
      "icao": "EPSY",
      "alert": "OK",
      "vis_m": 9999,
      "fzfg": false,
      "metar_trigger": false,
      "taf_trigger": false,
      "metar": "METAR EPSY 131700Z 10005KT 060V150 CAVOK 11/M02 Q1023",
      "taf": "TAF EPSY 131430Z 1315/1324 11010KT CAVOK"
    },
    {
      "icao": "EPWA",
      "alert": "OK",
      "vis_m": 9999,
      "fzfg": false,
      "metar_trigger": false,
      "taf_trigger": false,
      "metar": "METAR EPWA 131700Z 11012KT CAVOK 12/M02 Q1021 NOSIG",
      "taf": "TAF EPWA 131430Z 1315/1415 10015KT CAVOK"
    },
    {
      "icao": "EPWR",
      "alert": "OK",
      "vis_m": 9999,
      "fzfg": false,
      "metar_trigger": false,
      "taf_trigger": false,
      "metar": "METAR EPWR 131700Z 12018KT CAVOK 13/M01 Q1015",
      "taf": "TAF EPWR 131430Z 1315/1415 10017KT CAVOK"
    },
    {
      "icao": "ESGG",
      "alert": "OK",
      "vis_m": 9999,
      "fzfg": false,
      "metar_trigger": false,
      "taf_trigger": false,
      "metar": "METAR ESGG 131650Z 11009KT CAVOK 12/M03 Q1021",
      "taf": "TAF ESGG 131430Z 1315/1415 12011KT CAVOK"
    },
    {
      "icao": "ESKN",
      "alert": "OK",
      "vis_m": 9999,
      "fzfg": false,
      "metar_trigger": false,
      "taf_trigger": false,
      "metar": "METAR ESKN 131650Z 11010KT CAVOK 07/M00 Q1028",
      "taf": "TAF ESKN 131430Z 1315/1415 12011KT CAVOK"
    },
    {
      "icao": "ESMS",
      "alert": "OK",
      "vis_m": 9999,
      "fzfg": false,
      "metar_trigger": false,
      "taf_trigger": false,
      "metar": "METAR ESMS 131650Z 07013KT CAVOK 07/02 Q1019",
      "taf": "TAF ESMS 131427Z 1315/1415 11014KT CAVOK"
    },
    {
      "icao": "ESSA",
      "alert": "OK",
      "vis_m": 9999,
      "fzfg": false,
      "metar_trigger": false,
      "taf_trigger": false,
      "metar": "METAR ESSA 131650Z 15008KT CAVOK 10/M02 Q1029 NOSIG",
      "taf": "TAF ESSA 131430Z 1315/1415 15011KT CAVOK"
    },
    {
      "icao": "EYKA",
      "alert": "OK",
      "vis_m": 9999,
      "fzfg": false,
      "metar_trigger": false,
      "taf_trigger": false,
      "metar": "METAR EYKA 131650Z 09005KT CAVOK 09/M00 Q1026",
      "taf": "TAF EYKA 131700Z 1318/1418 VRB05KT 9000 SCT045"
    },
    {
      "icao": "EYPA",
      "alert": "OK",
      "vis_m": 9999,
      "fzfg": false,
      "metar_trigger": false,
      "taf_trigger": false,
      "metar": "METAR EYPA 131650Z 10006KT 060V130 CAVOK 11/M01 Q1026",
      "taf": "TAF EYPA 131700Z 1318/1418 VRB05KT 9000 NSC"
    },
    {
      "icao": "EYVI",
      "alert": "OK",
      "vis_m": 9999,
      "fzfg": false,
      "metar_trigger": false,
      "taf_trigger": false,
      "metar": "METAR EYVI 131650Z 09006KT 060V120 CAVOK 09/M00 Q1026 NOSIG",
      "taf": "TAF EYVI 131700Z 1318/1418 VRB05KT 9000 NSC"
    },
    {
      "icao": "GCFV",
      "alert": "OK",
      "vis_m": 9999,
      "fzfg": false,
      "metar_trigger": false,
      "taf_trigger": false,
      "metar": "METAR GCFV 131700Z 02022KT 9999 FEW032 20/13 Q1019",
      "taf": "TAF GCFV 131400Z 1315/1415 03020KT 9999 FEW030 TX22/1414Z TN16/1406Z"
    },
    {
      "icao": "GCLP",
      "alert": "OK",
      "vis_m": 9999,
      "fzfg": false,
      "metar_trigger": false,
      "taf_trigger": false,
      "metar": "METAR GCLP 131700Z 01026KT 9999 SCT035 19/11 Q1020 NOSIG",
      "taf": "TAF GCLP 131400Z 1315/1415 02024KT 9999 SCT030 TX22/1414Z TN16/1406Z"
    },
    {
      "icao": "GCTS",
      "alert": "OK",
      "vis_m": 9999,
      "fzfg": false,
      "metar_trigger": false,
      "taf_trigger": false,
      "metar": "METAR GCTS 131700Z 06024KT 9999 FEW035 20/10 Q1020 NOSIG",
      "taf": "TAF GCTS 131400Z 1315/1415 08028KT 9999 FEW035 TX23/1414Z TN15/1406Z"
    },
    {
      "icao": "GMAD",
      "alert": "OK",
      "vis_m": 9999,
      "fzfg": false,
      "metar_trigger": false,
      "taf_trigger": false,
      "metar": "METAR GMAD 131700Z 22011KT CAVOK 25/09 Q1012 NOSIG",
      "taf": "TAF GMAD 131100Z 1312/1418 28008KT 8000 NSC"
    },
    {
      "icao": "GMMN",
      "alert": "OK",
      "vis_m": 9999,
      "fzfg": false,
      "metar_trigger": false,
      "taf_trigger": false,
      "metar": "METAR GMMN 131700Z 02011KT 350V050 9999 SCT030 16/08 Q1022 NOSIG",
      "taf": "TAF GMMN 131100Z 1312/1418 36012KT 9999 BKN030"
    },
    {
      "icao": "GMMX",
      "alert": "OK",
      "vis_m": 9999,
      "fzfg": false,
      "metar_trigger": false,
      "taf_trigger": false,
      "metar": "METAR GMMX 131700Z 04009KT 360V070 9999 SCT026 21/07 Q1018 NOSIG",
      "taf": "TAF GMMX 131100Z 1312/1418 08006KT CAVOK"
    },
    {
      "icao": "HEGN",
      "alert": "OK",
      "vis_m": 9999,
      "fzfg": false,
      "metar_trigger": false,
      "taf_trigger": false,
      "metar": "METAR HEGN 131600Z 35003KT CAVOK 26/05 Q1014 NOSIG",
      "taf": "TAF HEGN 131700Z 1318/1424 28012KT CAVOK"
    },
    {
      "icao": "HEMA",
      "alert": "OK",
      "vis_m": 9999,
      "fzfg": false,
      "metar_trigger": false,
      "taf_trigger": false,
      "metar": "METAR HEMA 131600Z 35012KT CAVOK 26/05 Q1013 NOSIG",
      "taf": "TAF HEMA 131700Z 1318/1424 29014KT CAVOK"
    },
    {
      "icao": "HESH",
      "alert": "OK",
      "vis_m": 9999,
      "fzfg": false,
      "metar_trigger": false,
      "taf_trigger": false,
      "metar": "METAR HESH 131600Z 02005KT CAVOK 28/03 Q1013 NOSIG",
      "taf": "TAF HESH 131700Z 1318/1424 35010KT CAVOK"
    },
    {
      "icao": "HESX",
      "alert": "OK",
      "vis_m": 9999,
      "fzfg": false,
      "metar_trigger": false,
      "taf_trigger": false,
      "metar": "METAR HESX 131600Z 03007KT CAVOK 23/09 Q1016 NOSIG",
      "taf": "TAF HESX 131700Z 1318/1424 01009KT CAVOK"
    },
    {
      "icao": "LATI",
      "alert": "OK",
      "vis_m": 9999,
      "fzfg": false,
      "metar_trigger": false,
      "taf_trigger": false,
      "metar": "METAR LATI 131650Z 32006KT 300V360 9999 SCT150 20/10 Q1011 NOSIG",
      "taf": "TAF LATI 131700Z 1318/1418 VRB05KT CAVOK TX27/1412Z TN11/1404Z"
    },
    {
      "icao": "LBPD",
      "alert": "OK",
      "vis_m": 9999,
      "fzfg": false,
      "metar_trigger": false,
      "taf_trigger": false,
      "metar": "METAR LBPD 131700Z AUTO 09008KT 9999 SCT170/// 13/05 Q1019 NOSIG",
      "taf": "TAF LBPD 131100Z 1312/1412 08010KT 9999 SCT060"
    },
    {
      "icao": "LBSF",
      "alert": "OK",
      "vis_m": 9999,
      "fzfg": false,
      "metar_trigger": false,
      "taf_trigger": false,
      "metar": "METAR LBSF 131700Z AUTO 11015KT 9999 NSC 13/04 Q1017 NOSIG",
      "taf": "TAF LBSF 131100Z 1312/1412 10014KT 9999 SCT050"
    },
    {
      "icao": "LBWN",
      "alert": "OK",
      "vis_m": 9999,
      "fzfg": false,
      "metar_trigger": false,
      "taf_trigger": false,
      "metar": "METAR LBWN 131700Z AUTO 12009KT 9999 NSC 09/04 Q1022 NOSIG",
      "taf": "TAF LBWN 131100Z 1312/1412 12010KT 9999 SCT040"
    },
    {
      "icao": "LCLK",
      "alert": "OK",
      "vis_m": 9999,
      "fzfg": false,
      "metar_trigger": false,
      "taf_trigger": false,
      "metar": "METAR LCLK 131700Z 22005KT CAVOK 16/11 Q1019 NOSIG",
      "taf": "TAF LCLK 131130Z 1312/1412 17012KT 9999 FEW035"
    },
    {
      "icao": "LCPH",
      "alert": "OK",
      "vis_m": 9999,
      "fzfg": false,
      "metar_trigger": false,
      "taf_trigger": false,
      "metar": "METAR LCPH 131700Z 09003KT 9999 FEW025 17/12 Q1019 NOSIG",
      "taf": "TAF LCPH 131130Z 1312/1412 16012KT 9999 FEW035"
    },
    {
      "icao": "LEAL",
      "alert": "OK",
      "vis_m": 9999,
      "fzfg": false,
      "metar_trigger": false,
      "taf_trigger": false,
      "metar": "METAR LEAL 131700Z 12006KT 080V160 9999 SCT045 BKN070 16/07 Q1013 NOSIG",
      "taf": "TAF LEAL 131100Z 1312/1412 33009KT 9999 FEW040 TX20/1313Z TN10/1406Z"
    },
    {
      "icao": "LEBB",
      "alert": "OK",
      "vis_m": 9999,
      "fzfg": false,
      "metar_trigger": false,
      "taf_trigger": false,
      "metar": "METAR LEBB 131700Z 30007KT 9999 FEW030 14/07 Q1018 NOSIG",
      "taf": "TAF LEBB 131100Z 1312/1412 31009KT 9999 FEW030 BKN045 TX14/1314Z TN06/1400Z"
    },
    {
      "icao": "LEBL",
      "alert": "OK",
      "vis_m": 9999,
      "fzfg": false,
      "metar_trigger": false,
      "taf_trigger": false,
      "metar": "METAR LEBL 131700Z 11005KT 9999 FEW040 15/09 Q1010 NOSIG",
      "taf": ""
    },
    {
      "icao": "LECH",
      "alert": "OK",
      "vis_m": 9999,
      "fzfg": false,
      "metar_trigger": false,
      "taf_trigger": false,
      "metar": "METAR LECH 131700Z AUTO 34012KT 300V020 CAVOK 17/M01 Q1012",
      "taf": "TAF LECH 131100Z 1312/1412 33019KT 9999 FEW030 TX20/1314Z TN07/1406Z"
    },
    {
      "icao": "LEMD",
      "alert": "OK",
      "vis_m": 9999,
      "fzfg": false,
      "metar_trigger": false,
      "taf_trigger": false,
      "metar": "METAR LEMD 131700Z 32010KT 290V350 9999 SCT074 15/M03 Q1016 NOSIG",
      "taf": ""
    },
    {
      "icao": "LEMG",
      "alert": "OK",
      "vis_m": 9999,
      "fzfg": false,
      "metar_trigger": false,
      "taf_trigger": false,
      "metar": "METAR LEMG 131700Z 32014G25KT 9999 FEW075 20/02 Q1016 NOSIG",
      "taf": "TAF LEMG 131100Z 1312/1412 31014KT CAVOK TX21/1314Z TN13/1407Z"
    },
    {
      "icao": "LEVC",
      "alert": "OK",
      "vis_m": 9999,
      "fzfg": false,
      "metar_trigger": false,
      "taf_trigger": false,
      "metar": "METAR LEVC 131700Z 13009KT 9999 FEW069 17/04 Q1011 NOSIG",
      "taf": "TAF LEVC 131100Z 1312/1412 33009KT 9999 FEW060 TX22/1313Z TN09/1406Z"
    },
    {
      "icao": "LEXJ",
      "alert": "OK",
      "vis_m": 9999,
      "fzfg": false,
      "metar_trigger": false,
      "taf_trigger": false,
      "metar": "METAR LEXJ 131700Z 30002KT 9999 FEW035 15/06 Q1018",
      "taf": "TAF LEXJ 131400Z 1315/1415 24009KT 9999 FEW030 BKN060 TX17/1412Z TN08/1321Z"
    },
    {
      "icao": "LEZG",
      "alert": "OK",
      "vis_m": 9999,
      "fzfg": false,
      "metar_trigger": false,
      "taf_trigger": false,
      "metar": "METAR LEZG 131700Z 30025KT 280V340 9999 FEW045 14/03 Q1014 NOSIG",
      "taf": "TAF LEZG 131100Z 1312/1412 31022KT 9999 FEW040 TX17/1313Z TN07/1406Z"
    },
    {
      "icao": "LEZL",
      "alert": "OK",
      "vis_m": 9999,
      "fzfg": false,
      "metar_trigger": false,
      "taf_trigger": false,
      "metar": "METAR LEZL 131700Z 31012KT CAVOK 20/06 Q1019 NOSIG",
      "taf": "TAF LEZL 131400Z 1315/1415 33012KT CAVOK TX25/1415Z TN10/1407Z"
    },
    {
      "icao": "LFBD",
      "alert": "OK",
      "vis_m": 9999,
      "fzfg": false,
      "metar_trigger": false,
      "taf_trigger": false,
      "metar": "METAR LFBD 131700Z AUTO 30012KT 9999 FEW039 14/05 Q1017 NOSIG",
      "taf": "TAF LFBD 131100Z 1312/1418 01005KT 9999 BKN040 TX19/1414Z TN03/1406Z"
    },
    {
      "icao": "LFLL",
      "alert": "OK",
      "vis_m": 9999,
      "fzfg": false,
      "metar_trigger": false,
      "taf_trigger": false,
      "metar": "METAR LFLL 131700Z 35007KT 9999 -RA FEW018 BKN026 08/06 Q1014 NOSIG",
      "taf": "TAF LFLL 131100Z 1312/1418 34012KT 9999 -RA BKN018"
    },
    {
      "icao": "LFLS",
      "alert": "OK",
      "vis_m": 9999,
      "fzfg": false,
      "metar_trigger": false,
      "taf_trigger": false,
      "metar": "METAR LFLS 131700Z AUTO 32006KT 9999 -RA BKN014 OVC020 07/05 Q1013 NOSIG",
      "taf": "TAF LFLS 131400Z 1315/1415 35007KT 9999 -RA SCT013 OVC020"
    },
    {
      "icao": "LFMN",
      "alert": "OK",
      "vis_m": 9999,
      "fzfg": false,
      "metar_trigger": false,
      "taf_trigger": false,
      "metar": "METAR LFMN 131700Z 18013KT 9999 FEW083 BKN096 17/13 Q1003 NOSIG",
      "taf": "TAF LFMN 131400Z 1315/1421 06010KT 9999 BKN090"
    },
    {
      "icao": "LFOB",
      "alert": "OK",
      "vis_m": 9999,
      "fzfg": false,
      "metar_trigger": false,
      "taf_trigger": false,
      "metar": "METAR LFOB 131700Z AUTO 34005KT CAVOK 10/07 Q1014 TEMPO SCT030TCU OVC050",
      "taf": "TAF LFOB 131100Z 1312/1412 VRB05KT 9999 SCT030TCU OVC050"
    },
    {
      "icao": "LFPO",
      "alert": "OK",
      "vis_m": 9999,
      "fzfg": false,
      "metar_trigger": false,
      "taf_trigger": false,
      "metar": "METAR LFPO 131700Z VRB03KT 9999 FEW056TCU SCT073 BKN093 13/06 Q1014 NOSIG",
      "taf": ""
    },
    {
      "icao": "LFSB",
      "alert": "OK",
      "vis_m": 9999,
      "fzfg": false,
      "metar_trigger": false,
      "taf_trigger": false,
      "metar": "METAR LFSB 131700Z AUTO 25007KT 220V290 9999 -RA FEW012 OVC023 08/07 Q1012 NOSIG",
      "taf": "TAF LFSB 131100Z 1312/1412 28007KT 9999 FEW010 BKN020"
    },
    {
      "icao": "LGAV",
      "alert": "OK",
      "vis_m": 9999,
      "fzfg": false,
      "metar_trigger": false,
      "taf_trigger": false,
      "metar": "METAR LGAV 131650Z 11007KT 9999 FEW025 16/08 Q1019 NOSIG",
      "taf": "TAF LGAV 131700Z 1318/1418 VRB05KT 9999 FEW020 SCT070"
    },
    {
      "icao": "LGTS",
      "alert": "OK",
      "vis_m": 9999,
      "fzfg": false,
      "metar_trigger": false,
      "taf_trigger": false,
      "metar": "METAR LGTS 131650Z 19007KT 9999 SCT025 15/08 Q1019 NOSIG",
      "taf": "TAF LGTS 131700Z 1318/1418 12010KT 9999 FEW025"
    },
    {
      "icao": "LHBP",
      "alert": "OK",
      "vis_m": 9999,
      "fzfg": false,
      "metar_trigger": false,
      "taf_trigger": false,
      "metar": "METAR LHBP 131700Z 08010KT CAVOK 15/00 Q1015 NOSIG",
      "taf": "TAF LHBP 131115Z 1312/1412 09012KT CAVOK"
    },
    {
      "icao": "LHDC",
      "alert": "OK",
      "vis_m": 9999,
      "fzfg": false,
      "metar_trigger": false,
      "taf_trigger": false,
      "metar": "METAR LHDC 131645Z AUTO 07009KT CAVOK 15/M02 Q1016 NOSIG",
      "taf": "TAF LHDC 131415Z 1315/1324 08012KT CAVOK"
    },
    {
      "icao": "LIBD",
      "alert": "OK",
      "vis_m": 9999,
      "fzfg": false,
      "metar_trigger": false,
      "taf_trigger": false,
      "metar": "METAR LIBD 131650Z 17013G24KT 9999 BKN025 18/14 Q1005",
      "taf": "TAF LIBD 131100Z 1312/1412 15025G40KT 9999 FEW030"
    },
    {
      "icao": "LIBG",
      "alert": "OK",
      "vis_m": 8000,
      "fzfg": false,
      "metar_trigger": false,
      "taf_trigger": false,
      "metar": "METAR LIBG 131650Z 15020G30KT 8000 SCT015 BKN020 17/14 Q1006",
      "taf": "TAF LIBG 131400Z 1315/1324 16020G30KT 9999 BKN015"
    },
    {
      "icao": "LIBP",
      "alert": "OK",
      "vis_m": 9999,
      "fzfg": false,
      "metar_trigger": false,
      "taf_trigger": false,
      "metar": "METAR LIBP 131650Z AUTO 02005KT 9999 NCD 18/14 Q1002",
      "taf": "TAF LIBP 131100Z 1312/1412 11012KT 9999 OVC012"
    },
    {
      "icao": "LIBR",
      "alert": "OK",
      "vis_m": 8000,
      "fzfg": false,
      "metar_trigger": false,
      "taf_trigger": false,
      "metar": "METAR LIBR 131650Z 18017KT 8000 BKN035 19/13 Q1008 WS FIN R13 400FT DOWN",
      "taf": "TAF LIBR 131100Z 1312/1412 16020G35KT CAVOK"
    },
    {
      "icao": "LICA",
      "alert": "OK",
      "vis_m": 9999,
      "fzfg": false,
      "metar_trigger": false,
      "taf_trigger": false,
      "metar": "METAR LICA 131650Z AUTO 07016KT 9999 FEW042/// 18/15 Q1006",
      "taf": "TAF LICA 131100Z 1312/1412 08020G30KT CAVOK"
    },
    {
      "icao": "LICC",
      "alert": "OK",
      "vis_m": 4000,
      "fzfg": false,
      "metar_trigger": false,
      "taf_trigger": false,
      "metar": "METAR LICC 131650Z 07012KT 4000 HZ NSC 18/14 Q1006",
      "taf": "TAF LICC 131100Z 1312/1412 07013KT 7000 FEW020"
    },
    {
      "icao": "LICJ",
      "alert": "OK",
      "vis_m": 9999,
      "fzfg": false,
      "metar_trigger": false,
      "taf_trigger": false,
      "metar": "METAR LICJ 131650Z 24011KT 9999 FEW050 19/14 Q1005",
      "taf": "TAF LICJ 131100Z 1312/1412 22014KT 7000 SCT030"
    },
    {
      "icao": "LIMC",
      "alert": "OK",
      "vis_m": 9999,
      "fzfg": false,
      "metar_trigger": false,
      "taf_trigger": false,
      "metar": "METAR LIMC 131650Z 33009KT 9999 BKN070 13/11 Q1007 NOSIG",
      "taf": "TAF LIMC 131100Z 1312/1418 35009KT 9999 BKN040"
    },
    {
      "icao": "LIME",
      "alert": "OK",
      "vis_m": 9999,
      "fzfg": false,
      "metar_trigger": false,
      "taf_trigger": false,
      "metar": "METAR LIME 131650Z 27004KT 230V300 9999 FEW060 17/11 Q1006 NOSIG",
      "taf": "TAF LIME 131100Z 1312/1412 VRB05KT 9999 BKN040"
    },
    {
      "icao": "LIMF",
      "alert": "OK",
      "vis_m": 6000,
      "fzfg": false,
      "metar_trigger": false,
      "taf_trigger": false,
      "metar": "METAR LIMF 131650Z 32011KT 6000 RA BKN030 OVC040 12/09 Q1008",
      "taf": "TAF LIMF 131100Z 1312/1412 36009KT 7000 OVC020"
    },
    {
      "icao": "LIMJ",
      "alert": "OK",
      "vis_m": 9999,
      "fzfg": false,
      "metar_trigger": false,
      "taf_trigger": false,
      "metar": "METAR LIMJ 131650Z AUTO 09009G20KT 330V140 9999 FEW043/// SCT086/// BKN110/// 18/13 Q1003",
      "taf": "TAF LIMJ 131100Z 1312/1412 02013KT 9999 SCT060"
    },
    {
      "icao": "LIPE",
      "alert": "OK",
      "vis_m": 8000,
      "fzfg": false,
      "metar_trigger": false,
      "taf_trigger": false,
      "metar": "METAR LIPE 131650Z 09007KT 8000 SCT015 BKN065 16/14 Q1005",
      "taf": "TAF LIPE 131100Z 1312/1412 07012KT 7000 BKN014"
    },
    {
      "icao": "LIPH",
      "alert": "OK",
      "vis_m": 9999,
      "fzfg": false,
      "metar_trigger": false,
      "taf_trigger": false,
      "metar": "METAR LIPH 131650Z 11007KT 080V140 9999 -RA BKN060 16/13 Q1007",
      "taf": "TAF LIPH 131100Z 1312/1412 10012KT 9999 BKN060"
    },
    {
      "icao": "LIPQ",
      "alert": "OK",
      "vis_m": 9999,
      "fzfg": false,
      "metar_trigger": false,
      "taf_trigger": false,
      "metar": "METAR LIPQ 131650Z AUTO 26003KT 210V300 9999 BKN087/// 19/09 Q1008",
      "taf": "TAF LIPQ 131100Z 1312/1412 10012KT 9999 FEW060"
    },
    {
      "icao": "LIPR",
      "alert": "OK",
      "vis_m": 5000,
      "fzfg": false,
      "metar_trigger": false,
      "taf_trigger": false,
      "metar": "METAR LIPR 131650Z 12005KT 5000 -RA BR SCT035 BKN045 15/14 Q1004",
      "taf": "TAF LIPR 131100Z 1312/1412 10012KT 8000 SCT012 BKN030"
    },
    {
      "icao": "LIPX",
      "alert": "OK",
      "vis_m": 9999,
      "fzfg": false,
      "metar_trigger": false,
      "taf_trigger": false,
      "metar": "METAR LIPX 131650Z 07014KT 9999 -RA BKN065 18/09 Q1006",
      "taf": "TAF LIPX 131100Z 1312/1412 09010KT 9999 SCT040"
    },
    {
      "icao": "LIPY",
      "alert": "OK",
      "vis_m": 9999,
      "fzfg": false,
      "metar_trigger": false,
      "taf_trigger": false,
      "metar": "METAR LIPY 131650Z AUTO 13006KT 090V160 9999 SCT013/// BKN110/// 17/14 Q1004",
      "taf": "TAF LIPY 131100Z 1312/1412 13012KT 8000 SCT012 BKN030"
    },
    {
      "icao": "LIPZ",
      "alert": "OK",
      "vis_m": 9999,
      "fzfg": false,
      "metar_trigger": false,
      "taf_trigger": false,
      "metar": "METAR LIPZ 131650Z 09010KT 9999 FEW025 BKN050 17/12 Q1007 NOSIG",
      "taf": "TAF LIPZ 131100Z 1312/1418 10012KT 9999 BKN050"
    },
    {
      "icao": "LIRF",
      "alert": "OK",
      "vis_m": 9000,
      "fzfg": false,
      "metar_trigger": false,
      "taf_trigger": false,
      "metar": "METAR LIRF 131650Z 15014KT 9000 FEW020 SCT040 18/14 Q1002 NOSIG",
      "taf": "TAF LIRF 131100Z 1312/1418 14018G28KT 9999 SCT020"
    },
    {
      "icao": "LIRN",
      "alert": "OK",
      "vis_m": 8000,
      "fzfg": false,
      "metar_trigger": false,
      "taf_trigger": false,
      "metar": "METAR LIRN 131650Z 18006KT 140V230 8000 FEW030 SCT040 18/14 Q1004 NOSIG",
      "taf": "TAF LIRN 131100Z 1312/1412 17012KT 9999 SCT050"
    },
    {
      "icao": "LIRP",
      "alert": "OK",
      "vis_m": 8000,
      "fzfg": false,
      "metar_trigger": false,
      "taf_trigger": false,
      "metar": "METAR LIRP 131645Z 10006KT 8000 -RA SCT050 BKN070 15/13 Q1003 NOSIG",
      "taf": "TAF LIRP 131100Z 1312/1412 09010KT 9999 RA BKN080"
    },
    {
      "icao": "LIRZ",
      "alert": "OK",
      "vis_m": 9999,
      "fzfg": false,
      "metar_trigger": false,
      "taf_trigger": false,
      "metar": "METAR LIRZ 131650Z AUTO 03004KT 290V070 9999 -RA BKN042/// 16/13 Q1002",
      "taf": "TAF LIRZ 131100Z 1312/1412 02011KT 9999 SCT040"
    },
    {
      "icao": "LJLJ",
      "alert": "OK",
      "vis_m": 9999,
      "fzfg": false,
      "metar_trigger": false,
      "taf_trigger": false,
      "metar": "METAR LJLJ 131700Z 13006KT 020V160 9999 FEW070 BKN110 BKN170 14/03 Q1010 NOSIG",
      "taf": "TAF LJLJ 131700Z 1318/1418 14010KT 9999 FEW070"
    },
    {
      "icao": "LKMT",
      "alert": "OK",
      "vis_m": 9999,
      "fzfg": false,
      "metar_trigger": false,
      "taf_trigger": false,
      "metar": "METAR LKMT 131700Z 05008KT CAVOK 12/03 Q1014 NOSIG",
      "taf": "TAF LKMT 131100Z 1312/1412 05012KT CAVOK"
    },
    {
      "icao": "LKPR",
      "alert": "OK",
      "vis_m": 9999,
      "fzfg": false,
      "metar_trigger": false,
      "taf_trigger": false,
      "metar": "METAR LKPR 131700Z 13012KT CAVOK 13/00 Q1011 NOSIG",
      "taf": "TAF LKPR 131400Z 1315/1421 11012KT CAVOK"
    },
    {
      "icao": "LLBG",
      "alert": "OK",
      "vis_m": 9999,
      "fzfg": false,
      "metar_trigger": false,
      "taf_trigger": false,
      "metar": "METAR LLBG 131650Z 01009KT CAVOK 18/11 Q1018 NOSIG",
      "taf": "TAF LLBG 131703Z 1318/1418 02007KT CAVOK TX30/1412Z TN10/1403Z"
    },
    {
      "icao": "LMML",
      "alert": "OK",
      "vis_m": 5000,
      "fzfg": false,
      "metar_trigger": false,
      "taf_trigger": false,
      "metar": "METAR LMML 131645Z 21005KT 180V240 5000 DU NSC 19/15 Q1005 BECMG 6000 NSW",
      "taf": "TAF LMML 131700Z 1318/1418 VRB05KT 7000 NSC"
    },
    {
      "icao": "LOWW",
      "alert": "OK",
      "vis_m": 9999,
      "fzfg": false,
      "metar_trigger": false,
      "taf_trigger": false,
      "metar": "METAR LOWW 131650Z 12010KT 080V150 CAVOK 15/03 Q1013 NOSIG",
      "taf": "TAF LOWW 131415Z 1315/1421 14012KT 9999 SCT050 TX17/1413Z TN09/1404Z"
    },
    {
      "icao": "LPFR",
      "alert": "OK",
      "vis_m": 9999,
      "fzfg": false,
      "metar_trigger": false,
      "taf_trigger": false,
      "metar": "METAR LPFR 131700Z 30013KT 9999 SCT030 18/07 Q1021",
      "taf": "TAF LPFR 131100Z 1312/1412 32015KT 9999 SCT030"
    },
    {
      "icao": "LPMA",
      "alert": "OK",
      "vis_m": 9999,
      "fzfg": false,
      "metar_trigger": false,
      "taf_trigger": false,
      "metar": "METAR LPMA 131700Z 02008KT 340V060 9999 BKN015 17/09 Q1025",
      "taf": "TAF LPMA 131100Z 1312/1412 02012KT 9999 SCT015 SCT030"
    },
    {
      "icao": "LPPR",
      "alert": "OK",
      "vis_m": 4800,
      "fzfg": false,
      "metar_trigger": false,
      "taf_trigger": false,
      "metar": "METAR LPPR 131700Z 24005KT 210V270 4800 -RADZ BR FEW006 BKN008 OVC015 12/11 Q1020",
      "taf": "TAF LPPR 131100Z 1312/1412 21008KT 9999 SCT008 BKN016"
    },
    {
      "icao": "LPPS",
      "alert": "OK",
      "vis_m": 9999,
      "fzfg": false,
      "metar_trigger": false,
      "taf_trigger": false,
      "metar": "METAR LPPS 131700Z 01010KT 9999 FEW015 17/07 Q1025",
      "taf": "TAF LPPS 131100Z 1312/1418 05010KT 9999 SCT015 BKN030"
    },
    {
      "icao": "LPPT",
      "alert": "OK",
      "vis_m": 9999,
      "fzfg": false,
      "metar_trigger": false,
      "taf_trigger": false,
      "metar": "METAR LPPT 131700Z 30007KT 260V340 9999 FEW030 BKN044 15/09 Q1021",
      "taf": "TAF LPPT 131100Z 1312/1418 32010KT 9999 SCT030"
    },
    {
      "icao": "LQBK",
      "alert": "OK",
      "vis_m": 9999,
      "fzfg": false,
      "metar_trigger": false,
      "taf_trigger": false,
      "metar": "METAR LQBK 131700Z 35003KT CAVOK 17/08 Q1009 NOSIG",
      "taf": "TAF LQBK 131700Z 1318/1418 08007KT CAVOK TX18/1413Z TN09/1404Z"
    },
    {
      "icao": "LQSA",
      "alert": "OK",
      "vis_m": 9999,
      "fzfg": false,
      "metar_trigger": false,
      "taf_trigger": false,
      "metar": "METAR LQSA 131700Z 20005KT 150V230 9999 FEW050 20/02 Q1009 NOSIG",
      "taf": "TAF LQSA 131700Z 1318/1418 11007KT CAVOK TX20/1413Z TN06/1404Z"
    },
    {
      "icao": "LQTZ",
      "alert": "OK",
      "vis_m": 9999,
      "fzfg": false,
      "metar_trigger": false,
      "taf_trigger": false,
      "metar": "METAR LQTZ 131700Z VRB02KT CAVOK 18/09 Q1009",
      "taf": "TAF LQTZ 131700Z 1318/1418 15005KT CAVOK TX22/1413Z TN08/1404Z"
    },
    {
      "icao": "LRBC",
      "alert": "OK",
      "vis_m": 9999,
      "fzfg": false,
      "metar_trigger": false,
      "taf_trigger": false,
      "metar": "METAR LRBC 131700Z 13003KT 9999 FEW045 10/02 Q1023",
      "taf": "TAF LRBC 131400Z 1315/1324 16008KT CAVOK"
    },
    {
      "icao": "LRBS",
      "alert": "OK",
      "vis_m": 9999,
      "fzfg": false,
      "metar_trigger": false,
      "taf_trigger": false,
      "metar": "METAR LRBS 131700Z 07014KT 040V100 CAVOK 13/05 Q1020 NOSIG",
      "taf": "TAF LRBS 131100Z 1312/1412 08012KT CAVOK"
    },
    {
      "icao": "LRBV",
      "alert": "OK",
      "vis_m": 9999,
      "fzfg": false,
      "metar_trigger": false,
      "taf_trigger": false,
      "metar": "METAR LRBV 131700Z VRB03KT 9999 SCT060 12/00 Q1019",
      "taf": "TAF LRBV 131400Z 1315/1324 10010KT CAVOK"
    },
    {
      "icao": "LRCL",
      "alert": "OK",
      "vis_m": 9999,
      "fzfg": false,
      "metar_trigger": false,
      "taf_trigger": false,
      "metar": "METAR LRCL 131700Z 12003KT 070V190 CAVOK 13/M00 Q1017",
      "taf": "TAF LRCL 131400Z 1315/1324 12008KT CAVOK"
    },
    {
      "icao": "LRCV",
      "alert": "OK",
      "vis_m": 9999,
      "fzfg": false,
      "metar_trigger": false,
      "taf_trigger": false,
      "metar": "METAR LRCV 131700Z 08008KT CAVOK 12/04 Q1018",
      "taf": "TAF LRCV 131400Z 1315/1324 09014KT CAVOK"
    },
    {
      "icao": "LRIA",
      "alert": "OK",
      "vis_m": 9999,
      "fzfg": false,
      "metar_trigger": false,
      "taf_trigger": false,
      "metar": "METAR LRIA 131700Z COR 08008KT CAVOK 10/00 Q1023",
      "taf": "TAF LRIA 131400Z 1315/1324 11006KT CAVOK"
    },
    {
      "icao": "LROP",
      "alert": "OK",
      "vis_m": 9999,
      "fzfg": false,
      "metar_trigger": false,
      "taf_trigger": false,
      "metar": "METAR LROP 131700Z 09014KT 9999 FEW050CB 13/02 Q1020 NOSIG",
      "taf": "TAF LROP 131100Z 1312/1412 08012KT CAVOK"
    },
    {
      "icao": "LRSB",
      "alert": "OK",
      "vis_m": 9999,
      "fzfg": false,
      "metar_trigger": false,
      "taf_trigger": false,
      "metar": "METAR LRSB 131700Z 14014KT 9999 FEW045CB BKN075 11/03 Q1017",
      "taf": "TAF LRSB 131100Z 1312/1412 12014KT CAVOK"
    },
    {
      "icao": "LRSM",
      "alert": "OK",
      "vis_m": 9999,
      "fzfg": false,
      "metar_trigger": false,
      "taf_trigger": false,
      "metar": "METAR LRSM 131700Z AUTO 06007KT 9999 FEW100/// BKN120/// 13/02 Q1017",
      "taf": "TAF LRSM 131400Z 1315/1324 13008KT CAVOK"
    },
    {
      "icao": "LRSV",
      "alert": "OK",
      "vis_m": 9999,
      "fzfg": false,
      "metar_trigger": false,
      "taf_trigger": false,
      "metar": "METAR LRSV 131700Z 08006KT CAVOK 08/00 Q1022",
      "taf": "TAF LRSV 131400Z 1315/1324 08006KT CAVOK"
    },
    {
      "icao": "LRTM",
      "alert": "OK",
      "vis_m": 9999,
      "fzfg": false,
      "metar_trigger": false,
      "taf_trigger": false,
      "metar": "METAR LRTM 131700Z 10004KT 9999 FEW047 13/01 Q1017",
      "taf": "TAF LRTM 131400Z 1315/1324 10008KT CAVOK"
    },
    {
      "icao": "LRTR",
      "alert": "OK",
      "vis_m": 9999,
      "fzfg": false,
      "metar_trigger": false,
      "taf_trigger": false,
      "metar": "METAR LRTR 131700Z 08006KT CAVOK 14/06 Q1014 NOSIG",
      "taf": "TAF LRTR 131100Z 1312/1412 10010KT CAVOK"
    },
    {
      "icao": "LTAC",
      "alert": "OK",
      "vis_m": 9999,
      "fzfg": false,
      "metar_trigger": false,
      "taf_trigger": false,
      "metar": "METAR LTAC 131650Z 26007KT CAVOK 08/M03 Q1019 NOSIG RMK RWY21C 25008KT RWY03L 26006KT RWY21R 25008KT RWY03R 25007KT RWY21L 26009KT",
      "taf": "TAF LTAC 131640Z 1318/1418 VRB02KT CAVOK"
    },
    {
      "icao": "LTFM",
      "alert": "OK",
      "vis_m": 9999,
      "fzfg": false,
      "metar_trigger": false,
      "taf_trigger": false,
      "metar": "METAR LTFM 131650Z 08012KT CAVOK 10/05 Q1022 NOSIG RMK RWY17L 09013KT RWY34L 07012KT RWY16R 09012KT RWY36 08012KT 030V090 RWY18 09013KT",
      "taf": "TAF LTFM 131640Z 1318/1424 11008KT CAVOK"
    },
    {
      "icao": "LUKK",
      "alert": "OK",
      "vis_m": 9999,
      "fzfg": false,
      "metar_trigger": false,
      "taf_trigger": false,
      "metar": "METAR LUKK 131700Z 22003KT 180V250 CAVOK 06/02 Q1024 NOSIG",
      "taf": "TAF LUKK 131703Z 1318/1418 VRB05KT CAVOK"
    },
    {
      "icao": "LWOH",
      "alert": "OK",
      "vis_m": 9999,
      "fzfg": false,
      "metar_trigger": false,
      "taf_trigger": false,
      "metar": "METAR LWOH 131650Z 21005KT 180V250 9999 FEW035 SCT090 14/08 Q1015",
      "taf": "TAF LWOH 131430Z 1315/1415 18010KT 9999 SCT040"
    },
    {
      "icao": "LWSK",
      "alert": "OK",
      "vis_m": 9999,
      "fzfg": false,
      "metar_trigger": false,
      "taf_trigger": false,
      "metar": "METAR LWSK 131650Z 13007KT 110V170 9999 FEW100 15/08 Q1016 NOSIG",
      "taf": "TAF LWSK 131430Z 1315/1415 14012KT 9999 SCT040"
    },
    {
      "icao": "LYBE",
      "alert": "OK",
      "vis_m": 9999,
      "fzfg": false,
      "metar_trigger": false,
      "taf_trigger": false,
      "metar": "METAR LYBE 131700Z 10016KT CAVOK 16/05 Q1011 NOSIG",
      "taf": "TAF LYBE 131100Z 1312/1412 11018KT CAVOK TX20/1313Z TN08/1404Z"
    },
    {
      "icao": "LYNI",
      "alert": "OK",
      "vis_m": 9999,
      "fzfg": false,
      "metar_trigger": false,
      "taf_trigger": false,
      "metar": "METAR LYNI 131700Z 09007KT 060V120 CAVOK 17/06 Q1014 NOSIG",
      "taf": "TAF LYNI 131100Z 1312/1412 11007KT CAVOK TX22/1313Z TN08/1404Z"
    },
    {
      "icao": "LYPG",
      "alert": "OK",
      "vis_m": 9999,
      "fzfg": false,
      "metar_trigger": false,
      "taf_trigger": false,
      "metar": "METAR LYPG 131700Z 22010KT CAVOK 21/07 Q1010 NOSIG",
      "taf": "TAF LYPG 131100Z 1312/1412 16005KT CAVOK TX22/1313Z TN10/1404Z"
    },
    {
      "icao": "LZIB",
      "alert": "OK",
      "vis_m": 9999,
      "fzfg": false,
      "metar_trigger": false,
      "taf_trigger": false,
      "metar": "METAR LZIB 131700Z 10010KT CAVOK 15/02 Q1014 NOSIG",
      "taf": ""
    },
    {
      "icao": "LZKZ",
      "alert": "OK",
      "vis_m": 9999,
      "fzfg": false,
      "metar_trigger": false,
      "taf_trigger": false,
      "metar": "METAR LZKZ 131700Z 05004KT CAVOK 13/M02 Q1017 NOSIG",
      "taf": ""
    },
    {
      "icao": "LZTT",
      "alert": "OK",
      "vis_m": 9999,
      "fzfg": false,
      "metar_trigger": false,
      "taf_trigger": false,
      "metar": "METAR LZTT 131700Z 13009KT CAVOK 10/M04 Q1017 NOSIG",
      "taf": ""
    },
    {
      "icao": "OEJN",
      "alert": "OK",
      "vis_m": 9999,
      "fzfg": false,
      "metar_trigger": false,
      "taf_trigger": false,
      "metar": "METAR OEJN 131700Z 32009KT 9999 FEW040 27/17 Q1011 NOSIG",
      "taf": "TAF OEJN 131700Z 1318/1424 36008KT CAVOK"
    },
    {
      "icao": "OEMA",
      "alert": "OK",
      "vis_m": 9999,
      "fzfg": false,
      "metar_trigger": false,
      "taf_trigger": false,
      "metar": "METAR OEMA 131700Z 28004KT CAVOK 31/M11 Q1014 NOSIG",
      "taf": "TAF OEMA 131700Z 1318/1424 VRB03KT CAVOK"
    },
    {
      "icao": "OJAI",
      "alert": "OK",
      "vis_m": 5000,
      "fzfg": false,
      "metar_trigger": false,
      "taf_trigger": false,
      "metar": "METAR OJAI 131700Z 29004KT 5000 HZ NSC 14/08 Q1020 NOSIG",
      "taf": "TAF OJAI 131100Z 1312/1418 30010KT 5000 HZ SCT035"
    },
    {
      "icao": "OMAA",
      "alert": "OK",
      "vis_m": null,
      "fzfg": false,
      "metar_trigger": false,
      "taf_trigger": false,
      "metar": "",
      "taf": ""
    },
    {
      "icao": "OMDB",
      "alert": "OK",
      "vis_m": null,
      "fzfg": false,
      "metar_trigger": false,
      "taf_trigger": false,
      "metar": "",
      "taf": ""
    },
    {
      "icao": "UAAA",
      "alert": "OK",
      "vis_m": 9000,
      "fzfg": false,
      "metar_trigger": false,
      "taf_trigger": false,
      "metar": "METAR UAAA 131700Z 18002MPS 9000 FEW100 12/04 Q1018 NOSIG",
      "taf": "TAF UAAA 131104Z 1312/1412 19002G07MPS 9999 FEW050CB SCT100 TX22/1409Z TN07/1401Z"
    },
    {
      "icao": "UBBB",
      "alert": "OK",
      "vis_m": 9999,
      "fzfg": false,
      "metar_trigger": false,
      "taf_trigger": false,
      "metar": "METAR UBBB 131700Z 34010KT 9999 -SHRA SCT009 SCT035CB OVC035 09/08 Q1016 NOSIG",
      "taf": "TAF UBBB 131703Z 1318/1418 33010KT 9999 SCT012 FEW040CB BKN040 TX14/1410Z TN09/1401Z"
    },
    {
      "icao": "UDSG",
      "alert": "OK",
      "vis_m": 9999,
      "fzfg": false,
      "metar_trigger": false,
      "taf_trigger": false,
      "metar": "METAR UDSG 131700Z 01006KT 320V050 9999 SCT036CB BKN046 01/M05 Q1017 NOSIG",
      "taf": "TAF UDSG 131058Z 1312/1412 36010KT 9999 BKN050"
    },
    {
      "icao": "UDYZ",
      "alert": "OK",
      "vis_m": 9999,
      "fzfg": false,
      "metar_trigger": false,
      "taf_trigger": false,
      "metar": "METAR UDYZ 131700Z 18003KT 9999 BKN043CB 08/01 Q1015 NOSIG",
      "taf": "TAF UDYZ 131100Z 1312/1412 12006KT 9999 BKN030"
    },
    {
      "icao": "UGKO",
      "alert": "OK",
      "vis_m": 9999,
      "fzfg": false,
      "metar_trigger": false,
      "taf_trigger": false,
      "metar": "METAR UGKO 131700Z 36005KT 290V030 9999 BKN018CB OVC026 07/05 Q1022 NOSIG",
      "taf": "TAF UGKO 131700Z 1318/1418 25007KT 9999 SCT023 OVC045 TX13/1411Z TN05/1403Z"
    }
  ]
}