{
  "ts_utc": "2025-12-28T11:43:47Z",
  "threshold_m": 150,
  "source": "stations_override.txt (ICAO list) + aviationweather.gov (METAR/TAF raw)",
  "station_count": 159,
  "stations": [
    {
      "icao": "BIKF",
      "alert": "OK",
      "vis_m": 9999,
      "fzfg": false,
      "metar_trigger": false,
      "taf_trigger": false,
      "metar": "METAR BIKF 281130Z 25012KT 9999 FEW004 SCT014 BKN040 06/06 Q1036",
      "taf": "TAF BIKF 281030Z 2812/2912 25013KT 8000 -DZRA SCT007 BKN014 OVC024 TX07/2815Z TN03/2911Z"
    },
    {
      "icao": "BKPR",
      "alert": "OK",
      "vis_m": 9999,
      "fzfg": false,
      "metar_trigger": false,
      "taf_trigger": false,
      "metar": "METAR BKPR 281100Z 36030KT 9999 FEW050 04/M03 Q1017 NOSIG",
      "taf": "TAF BKPR 281130Z 2812/2912 01012KT CAVOK"
    },
    {
      "icao": "EBCI",
      "alert": "OK",
      "vis_m": 9999,
      "fzfg": false,
      "metar_trigger": false,
      "taf_trigger": false,
      "metar": "METAR EBCI 281120Z 05010KT 9999 FEW014 04/00 Q1030 NOSIG",
      "taf": "TAF EBCI 281100Z 2812/2918 06006KT CAVOK"
    },
    {
      "icao": "EDDB",
      "alert": "OK",
      "vis_m": 9999,
      "fzfg": false,
      "metar_trigger": false,
      "taf_trigger": false,
      "metar": "METAR EDDB 281120Z AUTO 30007KT CAVOK 03/M01 Q1030 NOSIG",
      "taf": "TAF EDDB 281100Z 2812/2912 28007KT CAVOK"
    },
    {
      "icao": "EDDH",
      "alert": "OK",
      "vis_m": 9999,
      "fzfg": false,
      "metar_trigger": false,
      "taf_trigger": false,
      "metar": "METAR EDDH 281120Z AUTO 31004KT CAVOK 02/00 Q1032 NOSIG",
      "taf": "TAF EDDH 281100Z 2812/2918 25002KT CAVOK"
    },
    {
      "icao": "EDDK",
      "alert": "OK",
      "vis_m": 9999,
      "fzfg": false,
      "metar_trigger": false,
      "taf_trigger": false,
      "metar": "METAR EDDK 281120Z AUTO 26004KT 9999 0450 R13L/P2000N R24/P2000N BCFG FEW002 02/M00 Q1032 NOSIG",
      "taf": "TAF EDDK 281100Z 2812/2918 VRB03KT CAVOK"
    },
    {
      "icao": "EDDN",
      "alert": "OK",
      "vis_m": 9999,
      "fzfg": false,
      "metar_trigger": false,
      "taf_trigger": false,
      "metar": "METAR EDDN 281120Z AUTO 33003KT 300V010 CAVOK 02/M02 Q1030 NOSIG",
      "taf": "TAF EDDN 281100Z 2812/2912 VRB03KT CAVOK"
    },
    {
      "icao": "EDDS",
      "alert": "OK",
      "vis_m": 9999,
      "fzfg": false,
      "metar_trigger": false,
      "taf_trigger": false,
      "metar": "METAR EDDS 281120Z AUTO 10003KT 040V140 CAVOK 01/M02 Q1028 NOSIG",
      "taf": "TAF EDDS 281100Z 2812/2912 06005KT CAVOK"
    },
    {
      "icao": "EDFH",
      "alert": "OK",
      "vis_m": 9999,
      "fzfg": false,
      "metar_trigger": false,
      "taf_trigger": false,
      "metar": "METAR EDFH 281120Z 09009KT CAVOK 02/M01 Q1029",
      "taf": "TAF EDFH 281100Z 2812/2912 09008KT CAVOK"
    },
    {
      "icao": "EDJA",
      "alert": "OK",
      "vis_m": 9000,
      "fzfg": false,
      "metar_trigger": false,
      "taf_trigger": false,
      "metar": "METAR EDJA 281120Z 04009KT 9000 OVC003 M04/M04 Q1027",
      "taf": "TAF EDJA 281100Z 2812/2821 05009KT 8000 BKN003"
    },
    {
      "icao": "EDLW",
      "alert": "OK",
      "vis_m": 200,
      "fzfg": true,
      "metar_trigger": false,
      "taf_trigger": false,
      "metar": "METAR EDLW 281120Z VRB02KT 0200 R06/0300N FZFG NCD M02/M02 Q1032",
      "taf": "TAF EDLW 281100Z 2812/2912 VRB03KT 6000 NSC"
    },
    {
      "icao": "EDNY",
      "alert": "OK",
      "vis_m": 9999,
      "fzfg": false,
      "metar_trigger": false,
      "taf_trigger": false,
      "metar": "METAR EDNY 281120Z COR 02009KT CAVOK M00/M04 Q1027",
      "taf": "TAF EDNY 281100Z 2812/2821 04008KT 9999 FEW014"
    },
    {
      "icao": "EDSB",
      "alert": "OK",
      "vis_m": 9999,
      "fzfg": false,
      "metar_trigger": false,
      "taf_trigger": false,
      "metar": "METAR EDSB 281120Z 06005G16KT 010V130 CAVOK 03/M01 Q1029",
      "taf": "TAF EDSB 281100Z 2812/2912 VRB03KT CAVOK"
    },
    {
      "icao": "EETN",
      "alert": "OK",
      "vis_m": 9999,
      "fzfg": false,
      "metar_trigger": false,
      "taf_trigger": false,
      "metar": "METAR EETN 281120Z 34016G29KT 9999 FEW032 M00/M08 Q1009 NOSIG",
      "taf": "TAF EETN 281130Z 2812/2912 33016KT 9999 FEW030"
    },
    {
      "icao": "EFTU",
      "alert": "OK",
      "vis_m": 9999,
      "fzfg": false,
      "metar_trigger": false,
      "taf_trigger": false,
      "metar": "METAR EFTU 281120Z AUTO 31006KT 280V350 CAVOK M01/M06 Q1011",
      "taf": "TAF EFTU 281123Z 2812/2912 30008KT 9999 FEW035"
    },
    {
      "icao": "EGBB",
      "alert": "OK",
      "vis_m": 9999,
      "fzfg": false,
      "metar_trigger": false,
      "taf_trigger": false,
      "metar": "METAR EGBB 281120Z 07007KT 040V130 9999 OVC018 06/02 Q1034",
      "taf": "TAF EGBB 281053Z 2812/2912 06009KT 9999 BKN020"
    },
    {
      "icao": "EGGP",
      "alert": "OK",
      "vis_m": 9999,
      "fzfg": false,
      "metar_trigger": false,
      "taf_trigger": false,
      "metar": "METAR EGGP 281120Z 10008KT 9999 BKN023 06/01 Q1035",
      "taf": "TAF EGGP 281056Z 2812/2912 09008KT 9999 BKN023"
    },
    {
      "icao": "EGGW",
      "alert": "OK",
      "vis_m": 9999,
      "fzfg": false,
      "metar_trigger": false,
      "taf_trigger": false,
      "metar": "METAR EGGW 281120Z AUTO 05009KT 9999 OVC019 06/02 Q1033",
      "taf": "TAF EGGW 281100Z 2812/2912 04012KT 9999 SCT020"
    },
    {
      "icao": "EGKK",
      "alert": "OK",
      "vis_m": 9999,
      "fzfg": false,
      "metar_trigger": false,
      "taf_trigger": false,
      "metar": "METAR EGKK 281120Z 04010KT 010V100 9999 BKN021 07/04 Q1032",
      "taf": "TAF EGKK 281057Z 2812/2918 04009KT 9999 BKN022"
    },
    {
      "icao": "EGNM",
      "alert": "OK",
      "vis_m": 9999,
      "fzfg": false,
      "metar_trigger": false,
      "taf_trigger": false,
      "metar": "METAR EGNM 281120Z 06006KT 020V080 9999 BKN016 05/02 Q1035",
      "taf": "TAF EGNM 281056Z 2812/2912 06007KT 9999 BKN018"
    },
    {
      "icao": "EGPD",
      "alert": "OK",
      "vis_m": 9999,
      "fzfg": false,
      "metar_trigger": false,
      "taf_trigger": false,
      "metar": "METAR EGPD 281120Z COR AUTO 31003KT 250V350 9999 OVC023 05/01 Q1038 NOSIG",
      "taf": "TAF EGPD 281054Z 2812/2912 29005KT 9999 SCT020"
    },
    {
      "icao": "EGPF",
      "alert": "OK",
      "vis_m": 9999,
      "fzfg": false,
      "metar_trigger": false,
      "taf_trigger": false,
      "metar": "METAR EGPF 281120Z AUTO 09004KT 9999 OVC023 06/02 Q1038",
      "taf": "TAF EGPF 281100Z 2812/2912 05004KT 9999 BKN025"
    },
    {
      "icao": "EHBK",
      "alert": "OK",
      "vis_m": 9999,
      "fzfg": false,
      "metar_trigger": false,
      "taf_trigger": false,
      "metar": "METAR EHBK 281125Z AUTO 06008KT 9999 NCD 04/01 Q1031 NOSIG",
      "taf": "TAF EHBK 281119Z 2812/2918 05008KT CAVOK"
    },
    {
      "icao": "EHEH",
      "alert": "OK",
      "vis_m": 9999,
      "fzfg": false,
      "metar_trigger": false,
      "taf_trigger": false,
      "metar": "METAR EHEH 281125Z AUTO 07006KT 030V100 9999 NCD 05/01 Q1032 BLU NOSIG RMK TREND REMOTE BY EHWX",
      "taf": "TAF EHEH 280548Z 2806/2912 06003KT 9999 OVC020"
    },
    {
      "icao": "EKBI",
      "alert": "OK",
      "vis_m": 9999,
      "fzfg": false,
      "metar_trigger": false,
      "taf_trigger": false,
      "metar": "METAR EKBI 281120Z AUTO 23006KT 9999 NCD 02/02 Q1030",
      "taf": "TAF EKBI 281127Z 2812/2912 24004KT CAVOK"
    },
    {
      "icao": "EKCH",
      "alert": "OK",
      "vis_m": 9999,
      "fzfg": false,
      "metar_trigger": false,
      "taf_trigger": false,
      "metar": "METAR EKCH 281120Z AUTO 26006KT 220V290 9999 NCD 04/M03 Q1028 NOSIG",
      "taf": "TAF EKCH 281127Z 2812/2912 29008KT CAVOK"
    },
    {
      "icao": "ENAL",
      "alert": "OK",
      "vis_m": 9999,
      "fzfg": false,
      "metar_trigger": false,
      "taf_trigger": false,
      "metar": "METAR ENAL 281120Z 26017KT 240V300 9999 -DZRA FEW010 BKN025 06/03 Q1027",
      "taf": "TAF ENAL 281100Z 2812/2821 25018KT 9999 FEW020 BKN035"
    },
    {
      "icao": "ENBR",
      "alert": "OK",
      "vis_m": 9999,
      "fzfg": false,
      "metar_trigger": false,
      "taf_trigger": false,
      "metar": "METAR ENBR 281120Z 08002KT 9999 -SHRA FEW020 BKN034 01/M01 Q1032 NOSIG RMK WIND 1200FT 36007KT",
      "taf": "TAF ENBR 281100Z 2812/2912 VRB05KT 9999 -SHRA FEW015TCU BKN030"
    },
    {
      "icao": "ENGM",
      "alert": "OK",
      "vis_m": 9999,
      "fzfg": false,
      "metar_trigger": false,
      "taf_trigger": false,
      "metar": "METAR ENGM 281120Z VRB03KT CAVOK M05/M08 Q1022 NOSIG",
      "taf": "TAF ENGM 281100Z 2812/2912 VRB03KT CAVOK"
    },
    {
      "icao": "ENHD",
      "alert": "OK",
      "vis_m": 9999,
      "fzfg": false,
      "metar_trigger": false,
      "taf_trigger": false,
      "metar": "METAR ENHD 281120Z 36014KT 9999 BKN031 05/M01 Q1032",
      "taf": "TAF ENHD 281100Z 2812/2821 36015KT 9999 SCT040"
    },
    {
      "icao": "ENTC",
      "alert": "OK",
      "vis_m": 9999,
      "fzfg": false,
      "metar_trigger": false,
      "taf_trigger": false,
      "metar": "METAR ENTC 281120Z 31014KT 9999 -SHSNGS FEW017 SCT038 BKN047CB 01/M05 Q0994 TEMPO 28015G28KT 1500 -SHSN VV009 RMK WIND 2600FT 31038G50KT",
      "taf": "TAF ENTC 281100Z 2812/2912 29012KT 9999 -SHSNRA FEW012 SCT020CB BKN040"
    },
    {
      "icao": "ENTO",
      "alert": "OK",
      "vis_m": 9999,
      "fzfg": false,
      "metar_trigger": false,
      "taf_trigger": false,
      "metar": "METAR ENTO 281120Z 23007KT CAVOK 03/M07 Q1023 NOSIG",
      "taf": "TAF ENTO 281100Z 2812/2912 24008KT CAVOK"
    },
    {
      "icao": "ENVA",
      "alert": "OK",
      "vis_m": 9999,
      "fzfg": false,
      "metar_trigger": false,
      "taf_trigger": false,
      "metar": "METAR ENVA 281120Z 27030G41KT 9999 -DZRA BKN021 05/03 Q1017 TEMPO 27025KT 4000 SHRA BKN012CB RMK WIND 670FT 28028G47KT",
      "taf": "TAF ENVA 281100Z 2812/2912 26022KT 9999 FEW015TCU BKN030"
    },
    {
      "icao": "ENZV",
      "alert": "OK",
      "vis_m": 9999,
      "fzfg": false,
      "metar_trigger": false,
      "taf_trigger": false,
      "metar": "METAR ENZV 281120Z 35016KT CAVOK 04/M02 Q1031 NOSIG",
      "taf": "TAF ENZV 281100Z 2812/2912 35008KT CAVOK"
    },
    {
      "icao": "EPGD",
      "alert": "OK",
      "vis_m": 9999,
      "fzfg": false,
      "metar_trigger": false,
      "taf_trigger": false,
      "metar": "METAR EPGD 281130Z 32018KT 9999 BKN026 03/M03 Q1020",
      "taf": "TAF EPGD 281130Z 2812/2912 34018KT 9999 BKN025"
    },
    {
      "icao": "EPKK",
      "alert": "OK",
      "vis_m": 9999,
      "fzfg": false,
      "metar_trigger": false,
      "taf_trigger": false,
      "metar": "METAR EPKK 281130Z 27014KT 9999 SCT023 OVC040 01/M04 Q1021",
      "taf": "TAF EPKK 281130Z 2812/2912 27013KT 9999 SCT025 OVC040"
    },
    {
      "icao": "EPKT",
      "alert": "OK",
      "vis_m": 9999,
      "fzfg": false,
      "metar_trigger": false,
      "taf_trigger": false,
      "metar": "METAR EPKT 281130Z 30014KT 9999 BKN037 M00/M04 Q1022",
      "taf": "TAF EPKT 281130Z 2812/2912 29012KT 9999 BKN036"
    },
    {
      "icao": "EPLB",
      "alert": "OK",
      "vis_m": 9000,
      "fzfg": false,
      "metar_trigger": false,
      "taf_trigger": false,
      "metar": "METAR EPLB 281130Z 31014KT 9000 -RA SCT016 BKN024 OVC035 01/M01 Q1013",
      "taf": "TAF EPLB 281130Z 2812/2912 30015KT 9999 BKN024"
    },
    {
      "icao": "EPMO",
      "alert": "OK",
      "vis_m": 9999,
      "fzfg": false,
      "metar_trigger": false,
      "taf_trigger": false,
      "metar": "METAR EPMO 281130Z 29015KT 9999 BKN041 03/M03 Q1017",
      "taf": "TAF EPMO 281130Z 2812/2912 30015KT 9999 BKN035"
    },
    {
      "icao": "EPPO",
      "alert": "OK",
      "vis_m": 9999,
      "fzfg": false,
      "metar_trigger": false,
      "taf_trigger": false,
      "metar": "METAR EPPO 281130Z 31010KT CAVOK 03/M03 Q1025",
      "taf": "TAF EPPO 281130Z 2812/2912 31010KT CAVOK"
    },
    {
      "icao": "EPRA",
      "alert": "OK",
      "vis_m": 9999,
      "fzfg": false,
      "metar_trigger": false,
      "taf_trigger": false,
      "metar": "METAR EPRA 281130Z 31019KT 9999 SCT025 BKN040 01/M03 Q1016",
      "taf": "TAF EPRA 281130Z 2812/2821 30015KT 9999 BKN030"
    },
    {
      "icao": "EPRZ",
      "alert": "OK",
      "vis_m": 9999,
      "fzfg": false,
      "metar_trigger": false,
      "taf_trigger": false,
      "metar": "METAR EPRZ 281130Z 29019KT 9999 -SN BKN024 01/M03 Q1016",
      "taf": "TAF EPRZ 281130Z 2812/2912 28014KT 9999 BKN020"
    },
    {
      "icao": "EPSC",
      "alert": "OK",
      "vis_m": 9999,
      "fzfg": false,
      "metar_trigger": false,
      "taf_trigger": false,
      "metar": "METAR EPSC 281130Z 29013KT 9999 FEW026 03/M01 Q1027",
      "taf": "TAF EPSC 281130Z 2812/2912 27008KT CAVOK"
    },
    {
      "icao": "EPSY",
      "alert": "OK",
      "vis_m": 9999,
      "fzfg": false,
      "metar_trigger": false,
      "taf_trigger": false,
      "metar": "METAR EPSY 281130Z 33013G24KT 310V010 9999 BKN031 03/M03 Q1015",
      "taf": "TAF EPSY 281130Z 2812/2821 33015KT 9999 BKN035"
    },
    {
      "icao": "EPWA",
      "alert": "OK",
      "vis_m": 9999,
      "fzfg": false,
      "metar_trigger": false,
      "taf_trigger": false,
      "metar": "METAR EPWA 281130Z 30016KT 9999 BKN040 03/M03 Q1016 NOSIG",
      "taf": "TAF EPWA 281130Z 2812/2912 30015KT 9999 BKN040"
    },
    {
      "icao": "EPWR",
      "alert": "OK",
      "vis_m": 9999,
      "fzfg": false,
      "metar_trigger": false,
      "taf_trigger": false,
      "metar": "METAR EPWR 281130Z 29013KT 9999 SCT035 02/M02 Q1026",
      "taf": "TAF EPWR 281130Z 2812/2912 30012KT 9999 BKN036"
    },
    {
      "icao": "ESGG",
      "alert": "OK",
      "vis_m": 9999,
      "fzfg": false,
      "metar_trigger": false,
      "taf_trigger": false,
      "metar": "METAR ESGG 281120Z 23010KT CAVOK 03/M02 Q1024",
      "taf": ""
    },
    {
      "icao": "ESKN",
      "alert": "OK",
      "vis_m": 9999,
      "fzfg": false,
      "metar_trigger": false,
      "taf_trigger": false,
      "metar": "METAR ESKN 281120Z 27012KT CAVOK 02/M04 Q1020",
      "taf": "TAF ESKN 281130Z 2812/2912 26010KT CAVOK"
    },
    {
      "icao": "ESMS",
      "alert": "OK",
      "vis_m": 9999,
      "fzfg": false,
      "metar_trigger": false,
      "taf_trigger": false,
      "metar": "METAR ESMS 281120Z 32007KT CAVOK 03/M03 Q1027",
      "taf": "TAF ESMS 281127Z 2812/2912 30010KT CAVOK"
    },
    {
      "icao": "ESSA",
      "alert": "OK",
      "vis_m": 9999,
      "fzfg": false,
      "metar_trigger": false,
      "taf_trigger": false,
      "metar": "METAR ESSA 281120Z 29011KT CAVOK 01/M05 Q1017 NOSIG",
      "taf": "TAF ESSA 281130Z 2812/2912 28010KT CAVOK"
    },
    {
      "icao": "EYKA",
      "alert": "OK",
      "vis_m": 9999,
      "fzfg": false,
      "metar_trigger": false,
      "taf_trigger": false,
      "metar": "METAR EYKA 281120Z 34010KT 250V060 9999 OVC035 01/M06 Q1009",
      "taf": "TAF EYKA 281100Z 2812/2912 32012G22KT 9000 SCT035"
    },
    {
      "icao": "EYPA",
      "alert": "OK",
      "vis_m": 9999,
      "fzfg": false,
      "metar_trigger": false,
      "taf_trigger": false,
      "metar": "METAR EYPA 281120Z 36014G26KT 310V040 9999 BKN037 04/M03 Q1014",
      "taf": "TAF EYPA 281100Z 2812/2912 35014G25KT 9000 SCT035"
    },
    {
      "icao": "EYVI",
      "alert": "OK",
      "vis_m": 9999,
      "fzfg": false,
      "metar_trigger": false,
      "taf_trigger": false,
      "metar": "METAR EYVI 281120Z 33014KT 9999 VCSH BKN013CB M00/M02 Q1005 NOSIG",
      "taf": "TAF EYVI 281100Z 2812/2912 33015G25KT 9000 BKN015"
    },
    {
      "icao": "GCFV",
      "alert": "OK",
      "vis_m": 9999,
      "fzfg": false,
      "metar_trigger": false,
      "taf_trigger": false,
      "metar": "METAR GCFV 281130Z 28008KT 240V320 9999 FEW035 21/12 Q1020",
      "taf": "TAF GCFV 280800Z 2809/2909 20005KT 9999 SCT030 TX22/2814Z TN13/2906Z"
    },
    {
      "icao": "GCLP",
      "alert": "OK",
      "vis_m": 9999,
      "fzfg": false,
      "metar_trigger": false,
      "taf_trigger": false,
      "metar": "METAR GCLP 281130Z 13006KT 050V180 9999 BKN040 20/11 Q1021 NOSIG",
      "taf": ""
    },
    {
      "icao": "GCTS",
      "alert": "OK",
      "vis_m": 9999,
      "fzfg": false,
      "metar_trigger": false,
      "taf_trigger": false,
      "metar": "METAR GCTS 281130Z 16006KT 120V190 9999 SCT040 21/12 Q1021 NOSIG",
      "taf": "TAF GCTS 280800Z 2809/2909 13007KT 9999 SCT040 TX23/2814Z TN15/2906Z"
    },
    {
      "icao": "GMAD",
      "alert": "OK",
      "vis_m": 8000,
      "fzfg": false,
      "metar_trigger": false,
      "taf_trigger": false,
      "metar": "METAR GMAD 281130Z 23008KT 200V260 8000 FEW016TCU SCT100 15/15 Q1017 NOSIG",
      "taf": "TAF GMAD 281100Z 2812/2918 26008KT 6000 BKN020TCU BKN080"
    },
    {
      "icao": "GMMN",
      "alert": "OK",
      "vis_m": 9999,
      "fzfg": false,
      "metar_trigger": false,
      "taf_trigger": false,
      "metar": "METAR GMMN 281130Z 21020KT 9999 SCT026 14/10 Q1012 NOSIG",
      "taf": "TAF GMMN 281100Z 2812/2918 22018KT 9999 SCT026"
    },
    {
      "icao": "GMMX",
      "alert": "OK",
      "vis_m": 8000,
      "fzfg": false,
      "metar_trigger": false,
      "taf_trigger": false,
      "metar": "METAR GMMX 281130Z 24013KT 8000 FEW013 BKN020 13/10 Q1016 TEMPO 3000 RA",
      "taf": "TAF GMMX 281100Z 2812/2918 24010KT 6000 SCT013 BKN020"
    },
    {
      "icao": "HEGN",
      "alert": "OK",
      "vis_m": 9999,
      "fzfg": false,
      "metar_trigger": false,
      "taf_trigger": false,
      "metar": "METAR HEGN 281100Z 35007KT CAVOK 22/05 Q1012 NOSIG",
      "taf": "TAF HEGN 281100Z 2812/2918 34015KT CAVOK"
    },
    {
      "icao": "HEMA",
      "alert": "OK",
      "vis_m": 9999,
      "fzfg": false,
      "metar_trigger": false,
      "taf_trigger": false,
      "metar": "METAR HEMA 281100Z 35010KT CAVOK 22/03 Q1014 NOSIG",
      "taf": "TAF HEMA 281100Z 2812/2918 35014KT CAVOK"
    },
    {
      "icao": "HESH",
      "alert": "OK",
      "vis_m": 9999,
      "fzfg": false,
      "metar_trigger": false,
      "taf_trigger": false,
      "metar": "METAR HESH 281100Z 11005KT CAVOK 24/09 Q1013 NOSIG",
      "taf": "TAF HESH 281100Z 2812/2918 01012KT CAVOK"
    },
    {
      "icao": "HESX",
      "alert": "OK",
      "vis_m": 9999,
      "fzfg": false,
      "metar_trigger": false,
      "taf_trigger": false,
      "metar": "METAR HESX 281100Z 32009KT 9999 SCT025 19/08 Q1013 NOSIG",
      "taf": "TAF HESX 281100Z 2812/2918 30010KT 9999 SCT025"
    },
    {
      "icao": "LATI",
      "alert": "OK",
      "vis_m": 9999,
      "fzfg": false,
      "metar_trigger": false,
      "taf_trigger": false,
      "metar": "METAR LATI 281120Z VRB03KT CAVOK 13/02 Q1015 NOSIG",
      "taf": "TAF LATI 281100Z 2812/2912 VRB03KT CAVOK TX15/2812Z TNM02/2904Z"
    },
    {
      "icao": "LBPD",
      "alert": "OK",
      "vis_m": 9999,
      "fzfg": false,
      "metar_trigger": false,
      "taf_trigger": false,
      "metar": "METAR LBPD 281130Z AUTO 31026KT 9999 SCT064/// 08/M02 Q1012 NOSIG",
      "taf": "TAF LBPD 281100Z 2812/2912 30028G40KT 9999 BKN050"
    },
    {
      "icao": "LBSF",
      "alert": "OK",
      "vis_m": 9999,
      "fzfg": false,
      "metar_trigger": false,
      "taf_trigger": false,
      "metar": "METAR LBSF 281130Z 29020G31KT 9999 SCT031 02/M05 Q1014 WS ALL RWY NOSIG",
      "taf": "TAF LBSF 281100Z 2812/2912 29030G42KT 9999 BKN030"
    },
    {
      "icao": "LBWN",
      "alert": "OK",
      "vis_m": 9999,
      "fzfg": false,
      "metar_trigger": false,
      "taf_trigger": false,
      "metar": "METAR LBWN 281130Z 26009KT 9999 FEW011 SCT027 03/02 Q1009 NOSIG",
      "taf": "TAF LBWN 281100Z 2812/2912 27014KT 9999 SCT025 SCT045"
    },
    {
      "icao": "LCLK",
      "alert": "OK",
      "vis_m": 9999,
      "fzfg": false,
      "metar_trigger": false,
      "taf_trigger": false,
      "metar": "METAR LCLK 281130Z 20007KT 170V240 9999 FEW025 16/05 Q1007 NOSIG",
      "taf": "TAF LCLK 281130Z 2812/2912 21012KT 9999 FEW030 SCT060"
    },
    {
      "icao": "LCPH",
      "alert": "OK",
      "vis_m": 9999,
      "fzfg": false,
      "metar_trigger": false,
      "taf_trigger": false,
      "metar": "METAR LCPH 281130Z 31016KT 260V320 9999 SCT050 15/04 Q1008 NOSIG",
      "taf": "TAF LCPH 281130Z 2812/2912 30014KT 9999 FEW030 SCT060"
    },
    {
      "icao": "LEAL",
      "alert": "OK",
      "vis_m": 9999,
      "fzfg": false,
      "metar_trigger": false,
      "taf_trigger": false,
      "metar": "METAR LEAL 281130Z 07016KT 9999 FEW020TCU BKN025 17/14 Q1015 NOSIG",
      "taf": "TAF LEAL 281100Z 2812/2912 06014KT 9999 BKN020 TX17/2813Z TN08/2906Z"
    },
    {
      "icao": "LEBB",
      "alert": "OK",
      "vis_m": 9999,
      "fzfg": false,
      "metar_trigger": false,
      "taf_trigger": false,
      "metar": "METAR LEBB 281130Z 13007KT 080V160 9999 FEW040 16/08 Q1019 NOSIG",
      "taf": "TAF LEBB 281100Z 2812/2912 11008KT 9999 FEW040 TX15/2814Z TN04/2908Z"
    },
    {
      "icao": "LEBL",
      "alert": "OK",
      "vis_m": 9999,
      "fzfg": false,
      "metar_trigger": false,
      "taf_trigger": false,
      "metar": "METAR LEBL 281130Z 06008KT 030V090 9999 FEW020 15/12 Q1020 NOSIG",
      "taf": "TAF LEBL 281100Z 2812/2912 07012KT 9999 FEW020 TX15/2812Z TN08/2907Z"
    },
    {
      "icao": "LECH",
      "alert": "OK",
      "vis_m": 9999,
      "fzfg": false,
      "metar_trigger": false,
      "taf_trigger": false,
      "metar": "METAR LECH 281130Z AUTO 01005KT 340V060 9999 BKN013 OVC023 11/09 Q1019",
      "taf": ""
    },
    {
      "icao": "LEMD",
      "alert": "OK",
      "vis_m": 9999,
      "fzfg": false,
      "metar_trigger": false,
      "taf_trigger": false,
      "metar": "METAR LEMD 281130Z 03005KT 340V100 9999 SCT048 BKN056 09/03 Q1016 NOSIG",
      "taf": "TAF LEMD 281100Z 2812/2918 02006KT 9999 SCT040 TX12/2815Z TN03/2907Z"
    },
    {
      "icao": "LEMG",
      "alert": "OK",
      "vis_m": 9999,
      "fzfg": false,
      "metar_trigger": false,
      "taf_trigger": false,
      "metar": "METAR LEMG 281130Z VRB02KT 9999 FEW020 SCT050 BKN060 14/11 Q1013 NOSIG",
      "taf": "TAF LEMG 281100Z 2812/2912 VRB03KT 9999 FEW015 SCT040 TX16/2814Z TN09/2906Z"
    },
    {
      "icao": "LEVC",
      "alert": "OK",
      "vis_m": 9999,
      "fzfg": false,
      "metar_trigger": false,
      "taf_trigger": false,
      "metar": "METAR LEVC 281130Z 05012KT 010V090 9999 FEW018 SCT020 BKN025 14/11 Q1017 TEMPO 2500 TSRA SCT025CB",
      "taf": "TAF LEVC 281100Z 2812/2912 05010KT 9999 FEW015 SCT020 BKN025 TX14/2813Z TN06/2906Z"
    },
    {
      "icao": "LEXJ",
      "alert": "OK",
      "vis_m": 9999,
      "fzfg": false,
      "metar_trigger": false,
      "taf_trigger": false,
      "metar": "METAR LEXJ 281130Z 16002KT CAVOK 15/07 Q1019",
      "taf": "TAF LEXJ 280800Z 2809/2909 10009KT CAVOK TX15/2814Z TN07/2809Z"
    },
    {
      "icao": "LEZG",
      "alert": "OK",
      "vis_m": 9999,
      "fzfg": false,
      "metar_trigger": false,
      "taf_trigger": false,
      "metar": "METAR LEZG 281130Z VRB01KT 9999 FEW030 BKN040 OVC065 11/09 Q1020 NOSIG",
      "taf": "TAF LEZG 281100Z 2812/2912 28006KT 9999 BKN030 OVC050 TX10/2814Z TN06/2906Z"
    },
    {
      "icao": "LEZL",
      "alert": "OK",
      "vis_m": 9999,
      "fzfg": false,
      "metar_trigger": false,
      "taf_trigger": false,
      "metar": "METAR LEZL 281130Z 03003KT 330V080 9999 FEW035 14/10 Q1013 NOSIG",
      "taf": "TAF LEZL 280800Z 2809/2909 08005KT CAVOK TX17/2815Z TN05/2906Z"
    },
    {
      "icao": "LFBD",
      "alert": "OK",
      "vis_m": 9999,
      "fzfg": false,
      "metar_trigger": false,
      "taf_trigger": false,
      "metar": "METAR LFBD 281130Z AUTO 05004KT CAVOK 09/02 Q1021 NOSIG",
      "taf": "TAF LFBD 281100Z 2812/2918 04005KT CAVOK TX11/2815Z TN01/2906Z"
    },
    {
      "icao": "LFLL",
      "alert": "OK",
      "vis_m": 8000,
      "fzfg": false,
      "metar_trigger": false,
      "taf_trigger": false,
      "metar": "METAR LFLL 281130Z 35004KT 8000 BKN003 OVC004 M00/M01 Q1025 NOSIG",
      "taf": "TAF LFLL 281100Z 2812/2918 VRB03KT 6000 OVC006"
    },
    {
      "icao": "LFLS",
      "alert": "OK",
      "vis_m": 9999,
      "fzfg": false,
      "metar_trigger": false,
      "taf_trigger": false,
      "metar": "METAR LFLS 281130Z AUTO 06005KT 020V100 9999 FEW011 02/M01 Q1023 TEMPO BKN009",
      "taf": ""
    },
    {
      "icao": "LFMN",
      "alert": "OK",
      "vis_m": 9999,
      "fzfg": false,
      "metar_trigger": false,
      "taf_trigger": false,
      "metar": "METAR LFMN 281130Z 31009KT CAVOK 14/M02 Q1018 NOSIG",
      "taf": ""
    },
    {
      "icao": "LFOB",
      "alert": "OK",
      "vis_m": 9999,
      "fzfg": false,
      "metar_trigger": false,
      "taf_trigger": false,
      "metar": "METAR LFOB 281130Z AUTO 06011KT 030V090 9999 OVC015 04/01 Q1029",
      "taf": ""
    },
    {
      "icao": "LFPO",
      "alert": "OK",
      "vis_m": 9999,
      "fzfg": false,
      "metar_trigger": false,
      "taf_trigger": false,
      "metar": "METAR LFPO 281130Z AUTO 05013KT 9999 BKN011 02/M01 Q1029",
      "taf": "TAF LFPO 280500Z 2806/2912 02008KT 6000 BKN006"
    },
    {
      "icao": "LFSB",
      "alert": "OK",
      "vis_m": 5000,
      "fzfg": false,
      "metar_trigger": false,
      "taf_trigger": false,
      "metar": "METAR LFSB 281130Z AUTO 36007KT 330V030 5000 BR SCT003 BKN008 BKN015 00/M01 Q1027 TEMPO BKN004",
      "taf": "TAF LFSB 281100Z 2812/2912 34006KT 6000 BKN015"
    },
    {
      "icao": "LGAV",
      "alert": "OK",
      "vis_m": 9999,
      "fzfg": false,
      "metar_trigger": false,
      "taf_trigger": false,
      "metar": "METAR LGAV 281120Z 28009KT CAVOK 16/05 Q1010 NOSIG",
      "taf": "TAF LGAV 281100Z 2812/2912 28010KT 9999 FEW020"
    },
    {
      "icao": "LGTS",
      "alert": "OK",
      "vis_m": 9999,
      "fzfg": false,
      "metar_trigger": false,
      "taf_trigger": false,
      "metar": "METAR LGTS 281120Z 33035G45KT 9999 FEW025 14/01 Q1009 NOSIG",
      "taf": "TAF LGTS 281100Z 2812/2912 33030G45KT 9999 FEW030"
    },
    {
      "icao": "LHBP",
      "alert": "OK",
      "vis_m": 9999,
      "fzfg": false,
      "metar_trigger": false,
      "taf_trigger": false,
      "metar": "METAR LHBP 281130Z 32020G30KT 9999 FEW036 05/M05 Q1020 NOSIG",
      "taf": "TAF LHBP 281115Z 2812/2912 31020G30KT 9999 FEW040"
    },
    {
      "icao": "LHDC",
      "alert": "OK",
      "vis_m": 9999,
      "fzfg": false,
      "metar_trigger": false,
      "taf_trigger": false,
      "metar": "METAR LHDC 281115Z AUTO 31014KT 270V340 CAVOK 05/M05 Q1019 NOSIG",
      "taf": "TAF LHDC 281115Z 2812/2821 30014KT CAVOK"
    },
    {
      "icao": "LIBD",
      "alert": "OK",
      "vis_m": 9999,
      "fzfg": false,
      "metar_trigger": false,
      "taf_trigger": false,
      "metar": "METAR LIBD 281120Z 31007KT 270V360 9999 SCT025 13/07 Q1018",
      "taf": "TAF LIBD 281100Z 2812/2912 28012KT CAVOK"
    },
    {
      "icao": "LIBG",
      "alert": "OK",
      "vis_m": 9999,
      "fzfg": false,
      "metar_trigger": false,
      "taf_trigger": false,
      "metar": "METAR LIBG 281050Z 36008KT 310V030 9999 SCT020 14/11 Q1017",
      "taf": "TAF LIBG 281100Z 2812/2821 35013KT CAVOK"
    },
    {
      "icao": "LIBP",
      "alert": "OK",
      "vis_m": 9999,
      "fzfg": false,
      "metar_trigger": false,
      "taf_trigger": false,
      "metar": "METAR LIBP 281120Z AUTO VRB02KT 9999 NCD 14/02 Q1020",
      "taf": "TAF LIBP 281100Z 2812/2912 VRB05KT CAVOK"
    },
    {
      "icao": "LIBR",
      "alert": "OK",
      "vis_m": 9999,
      "fzfg": false,
      "metar_trigger": false,
      "taf_trigger": false,
      "metar": "METAR LIBR 281120Z 33016KT 9999 BKN020 13/08 Q1017",
      "taf": "TAF LIBR 281100Z 2812/2912 33013KT 9999 FEW025"
    },
    {
      "icao": "LICA",
      "alert": "OK",
      "vis_m": 9999,
      "fzfg": false,
      "metar_trigger": false,
      "taf_trigger": false,
      "metar": "METAR LICA 281120Z AUTO 26011KT 9999 NCD 16/09 Q1018",
      "taf": "TAF LICA 281100Z 2812/2912 27010KT CAVOK"
    },
    {
      "icao": "LICC",
      "alert": "OK",
      "vis_m": 9999,
      "fzfg": false,
      "metar_trigger": false,
      "taf_trigger": false,
      "metar": "METAR LICC 281120Z 23007KT CAVOK 16/14 Q1018",
      "taf": "TAF LICC 281100Z 2812/2912 VRB06KT 9999 FEW030"
    },
    {
      "icao": "LICJ",
      "alert": "OK",
      "vis_m": 9999,
      "fzfg": false,
      "metar_trigger": false,
      "taf_trigger": false,
      "metar": "METAR LICJ 281120Z 03008KT CAVOK 15/10 Q1019",
      "taf": "TAF LICJ 281100Z 2812/2912 04010KT CAVOK"
    },
    {
      "icao": "LIMC",
      "alert": "OK",
      "vis_m": 9999,
      "fzfg": false,
      "metar_trigger": false,
      "taf_trigger": false,
      "metar": "METAR LIMC 281120Z 12004KT 090V150 CAVOK 11/01 Q1019 NOSIG",
      "taf": "TAF LIMC 281100Z 2812/2918 VRB05KT CAVOK"
    },
    {
      "icao": "LIME",
      "alert": "OK",
      "vis_m": 9999,
      "fzfg": false,
      "metar_trigger": false,
      "taf_trigger": false,
      "metar": "METAR LIME 281120Z 11005KT CAVOK 10/01 Q1019 NOSIG",
      "taf": "TAF LIME 281100Z 2812/2912 VRB05KT CAVOK"
    },
    {
      "icao": "LIMF",
      "alert": "OK",
      "vis_m": 9999,
      "fzfg": false,
      "metar_trigger": false,
      "taf_trigger": false,
      "metar": "METAR LIMF 281120Z VRB01KT CAVOK 09/02 Q1019",
      "taf": "TAF LIMF 281100Z 2812/2912 VRB05KT CAVOK"
    },
    {
      "icao": "LIMJ",
      "alert": "OK",
      "vis_m": 9999,
      "fzfg": false,
      "metar_trigger": false,
      "taf_trigger": false,
      "metar": "METAR LIMJ 281120Z 12005KT CAVOK 14/08 Q1020",
      "taf": "TAF LIMJ 281100Z 2812/2912 03012KT CAVOK"
    },
    {
      "icao": "LIPE",
      "alert": "OK",
      "vis_m": 9999,
      "fzfg": false,
      "metar_trigger": false,
      "taf_trigger": false,
      "metar": "METAR LIPE 281120Z 32003KT 260V020 CAVOK 09/02 Q1020",
      "taf": "TAF LIPE 281100Z 2812/2912 VRB06KT CAVOK"
    },
    {
      "icao": "LIPH",
      "alert": "OK",
      "vis_m": 9999,
      "fzfg": false,
      "metar_trigger": false,
      "taf_trigger": false,
      "metar": "METAR LIPH 281120Z 07004KT 030V090 CAVOK 10/01 Q1020",
      "taf": "TAF LIPH 281100Z 2812/2912 VRB05KT CAVOK"
    },
    {
      "icao": "LIPQ",
      "alert": "OK",
      "vis_m": 9999,
      "fzfg": false,
      "metar_trigger": false,
      "taf_trigger": false,
      "metar": "METAR LIPQ 281120Z AUTO 16004KT 130V200 9999 NCD 13/01 Q1020",
      "taf": "TAF LIPQ 281100Z 2812/2912 VRB05KT CAVOK"
    },
    {
      "icao": "LIPR",
      "alert": "OK",
      "vis_m": 9999,
      "fzfg": false,
      "metar_trigger": false,
      "taf_trigger": false,
      "metar": "METAR LIPR 281120Z VRB03KT CAVOK 11/M01 Q1020",
      "taf": "TAF LIPR 281100Z 2812/2912 VRB06KT CAVOK"
    },
    {
      "icao": "LIPX",
      "alert": "OK",
      "vis_m": 9999,
      "fzfg": false,
      "metar_trigger": false,
      "taf_trigger": false,
      "metar": "METAR LIPX 281120Z VRB02KT CAVOK 08/03 Q1020",
      "taf": "TAF LIPX 281100Z 2812/2912 VRB06KT CAVOK"
    },
    {
      "icao": "LIPY",
      "alert": "OK",
      "vis_m": 9999,
      "fzfg": false,
      "metar_trigger": false,
      "taf_trigger": false,
      "metar": "METAR LIPY 281120Z AUTO VRB02KT 9999 NCD 12/04 Q1020",
      "taf": "TAF LIPY 281100Z 2812/2912 VRB05KT CAVOK"
    },
    {
      "icao": "LIPZ",
      "alert": "OK",
      "vis_m": 9999,
      "fzfg": false,
      "metar_trigger": false,
      "taf_trigger": false,
      "metar": "METAR LIPZ 281120Z 05006KT 9999 FEW003 09/03 Q1020 NOSIG",
      "taf": "TAF LIPZ 281100Z 2812/2918 VRB05KT CAVOK"
    },
    {
      "icao": "LIRF",
      "alert": "OK",
      "vis_m": 9999,
      "fzfg": false,
      "metar_trigger": false,
      "taf_trigger": false,
      "metar": "METAR LIRF 281120Z 06004KT 030V090 CAVOK 11/03 Q1020 NOSIG",
      "taf": "TAF LIRF 281100Z 2812/2918 02005KT CAVOK"
    },
    {
      "icao": "LIRN",
      "alert": "OK",
      "vis_m": 9999,
      "fzfg": false,
      "metar_trigger": false,
      "taf_trigger": false,
      "metar": "METAR LIRN 281120Z 31003KT 250V010 CAVOK 13/03 Q1019 NOSIG",
      "taf": "TAF LIRN 281100Z 2812/2912 VRB05KT CAVOK"
    },
    {
      "icao": "LIRP",
      "alert": "OK",
      "vis_m": 9999,
      "fzfg": false,
      "metar_trigger": false,
      "taf_trigger": false,
      "metar": "METAR LIRP 281115Z 11005KT CAVOK 09/04 Q1020 NOSIG",
      "taf": "TAF LIRP 281100Z 2812/2912 12005KT CAVOK"
    },
    {
      "icao": "LIRZ",
      "alert": "OK",
      "vis_m": 9999,
      "fzfg": false,
      "metar_trigger": false,
      "taf_trigger": false,
      "metar": "METAR LIRZ 281120Z AUTO VRB02KT 9999 NCD 06/00 Q1020",
      "taf": "TAF LIRZ 281100Z 2812/2912 VRB05KT CAVOK"
    },
    {
      "icao": "LJLJ",
      "alert": "OK",
      "vis_m": 8000,
      "fzfg": false,
      "metar_trigger": false,
      "taf_trigger": false,
      "metar": "METAR LJLJ 281130Z 18003KT 8000 FEW004 OVC013 00/M00 Q1025 NOSIG",
      "taf": "TAF LJLJ 281100Z 2812/2912 29003KT 8000 FEW004 OVC012"
    },
    {
      "icao": "LKMT",
      "alert": "OK",
      "vis_m": 9999,
      "fzfg": false,
      "metar_trigger": false,
      "taf_trigger": false,
      "metar": "METAR LKMT 281130Z 35012KT 9999 BKN042 02/M04 Q1025 NOSIG",
      "taf": "TAF LKMT 281100Z 2812/2912 35010KT 9999 BKN043"
    },
    {
      "icao": "LKPR",
      "alert": "OK",
      "vis_m": 9999,
      "fzfg": false,
      "metar_trigger": false,
      "taf_trigger": false,
      "metar": "METAR LKPR 281130Z 29009KT 250V310 9999 SCT021 01/M03 Q1028 NOSIG",
      "taf": "TAF LKPR 281100Z 2812/2918 28008KT 9999 FEW020"
    },
    {
      "icao": "LLBG",
      "alert": "OK",
      "vis_m": 4000,
      "fzfg": false,
      "metar_trigger": false,
      "taf_trigger": false,
      "metar": "METAR LLBG 281050Z 28008KT 4000 SHRA SCT025TCU BKN030 13/11 Q1009 NOSIG",
      "taf": "TAF LLBG 281126Z 2812/2912 29012KT 9999 SCT035"
    },
    {
      "icao": "LMML",
      "alert": "OK",
      "vis_m": 9999,
      "fzfg": false,
      "metar_trigger": false,
      "taf_trigger": false,
      "metar": "METAR LMML 281115Z 12005KT 070V190 9999 FEW030 17/11 Q1019 NOSIG",
      "taf": "TAF LMML 281100Z 2812/2912 VRB07KT 9999 FEW019"
    },
    {
      "icao": "LOWW",
      "alert": "OK",
      "vis_m": 9999,
      "fzfg": false,
      "metar_trigger": false,
      "taf_trigger": false,
      "metar": "METAR LOWW 281120Z 32018G29KT 9999 BKN030 03/M04 Q1026 NOSIG",
      "taf": "TAF LOWW 281115Z 2812/2918 32020G30KT 9999 SCT035 TX04/2812Z TNM04/2906Z"
    },
    {
      "icao": "LPFR",
      "alert": "OK",
      "vis_m": 9000,
      "fzfg": false,
      "metar_trigger": false,
      "taf_trigger": false,
      "metar": "METAR LPFR 281130Z 11010KT 9000 -SHRA FEW014 FEW018CB BKN040 12/11 Q1010",
      "taf": "TAF LPFR 281100Z 2812/2912 14015KT 9999 SCT015 FEW020CB BKN030"
    },
    {
      "icao": "LPMA",
      "alert": "OK",
      "vis_m": 9999,
      "fzfg": false,
      "metar_trigger": false,
      "taf_trigger": false,
      "metar": "METAR LPMA 281130Z 31005KT 230V020 9999 BKN015 17/09 Q1020",
      "taf": "TAF LPMA 281100Z 2812/2912 35008KT 9999 SCT015"
    },
    {
      "icao": "LPPR",
      "alert": "OK",
      "vis_m": 9999,
      "fzfg": false,
      "metar_trigger": false,
      "taf_trigger": false,
      "metar": "METAR LPPR 281130Z 05003KT 020V110 CAVOK 12/05 Q1016",
      "taf": "TAF LPPR 281100Z 2812/2912 08005KT CAVOK"
    },
    {
      "icao": "LPPS",
      "alert": "OK",
      "vis_m": 9999,
      "fzfg": false,
      "metar_trigger": false,
      "taf_trigger": false,
      "metar": "METAR LPPS 281130Z 35014KT 9999 SCT014 17/09 Q1019",
      "taf": "TAF LPPS 281100Z 2812/2918 34013KT 9999 SCT015"
    },
    {
      "icao": "LPPT",
      "alert": "OK",
      "vis_m": 9999,
      "fzfg": false,
      "metar_trigger": false,
      "taf_trigger": false,
      "metar": "METAR LPPT 281130Z 07014KT 030V090 9999 FEW018 11/09 Q1013",
      "taf": "TAF LPPT 281100Z 2812/2918 06015KT 9999 FEW020"
    },
    {
      "icao": "LQBK",
      "alert": "OK",
      "vis_m": 9999,
      "fzfg": false,
      "metar_trigger": false,
      "taf_trigger": false,
      "metar": "METAR LQBK 281130Z 30004KT 260V340 9999 FEW030 06/M01 Q1025 NOSIG",
      "taf": "TAF LQBK 281100Z 2812/2912 18005KT CAVOK TX07/2813Z TNM05/2905Z"
    },
    {
      "icao": "LQSA",
      "alert": "OK",
      "vis_m": 9999,
      "fzfg": false,
      "metar_trigger": false,
      "taf_trigger": false,
      "metar": "METAR LQSA 281130Z 32008KT 9999 BKN035 03/M04 Q1021 NOSIG",
      "taf": "TAF LQSA 281100Z 2812/2912 31012KT 9999 SCT040 TX04/2813Z TNM08/2905Z"
    },
    {
      "icao": "LQTZ",
      "alert": "OK",
      "vis_m": 9999,
      "fzfg": false,
      "metar_trigger": false,
      "taf_trigger": false,
      "metar": "METAR LQTZ 281130Z 29008KT 9999 BKN035 03/M00 Q1023",
      "taf": "TAF LQTZ 281100Z 2812/2912 36006KT 9999 SCT035 TX05/2813Z TNM07/2905Z"
    },
    {
      "icao": "LRBC",
      "alert": "OK",
      "vis_m": 9999,
      "fzfg": false,
      "metar_trigger": false,
      "taf_trigger": false,
      "metar": "METAR LRBC 281130Z 33018KT 9999 FEW043 OVC057 04/M04 Q1006",
      "taf": "TAF LRBC 281100Z 2812/2821 31018KT 9999 BKN050"
    },
    {
      "icao": "LRBS",
      "alert": "OK",
      "vis_m": 9999,
      "fzfg": false,
      "metar_trigger": false,
      "taf_trigger": false,
      "metar": "METAR LRBS 281130Z 29009KT 250V350 CAVOK 06/M03 Q1010 NOSIG",
      "taf": "TAF LRBS 281100Z 2812/2912 26010KT CAVOK"
    },
    {
      "icao": "LRBV",
      "alert": "OK",
      "vis_m": 9999,
      "fzfg": false,
      "metar_trigger": false,
      "taf_trigger": false,
      "metar": "METAR LRBV 281130Z 30014G25KT 270V340 9999 -SN BKN022 BKN029 M00/M04 Q1010",
      "taf": "TAF LRBV 281100Z 2812/2821 30018KT 9999 BKN020"
    },
    {
      "icao": "LRCL",
      "alert": "OK",
      "vis_m": 9999,
      "fzfg": false,
      "metar_trigger": false,
      "taf_trigger": false,
      "metar": "METAR LRCL 281130Z 30022KT 9999 BKN035 02/M05 Q1014",
      "taf": "TAF LRCL 281100Z 2812/2821 29020KT 9999 SCT030 BKN065"
    },
    {
      "icao": "LRCV",
      "alert": "OK",
      "vis_m": 9999,
      "fzfg": false,
      "metar_trigger": false,
      "taf_trigger": false,
      "metar": "METAR LRCV 281130Z 34012KT 9999 FEW045 04/M04 Q1013",
      "taf": "TAF LRCV 281100Z 2812/2821 33012KT CAVOK"
    },
    {
      "icao": "LRIA",
      "alert": "OK",
      "vis_m": 9999,
      "fzfg": false,
      "metar_trigger": false,
      "taf_trigger": false,
      "metar": "METAR LRIA 281130Z 30025G39KT 270V330 9999 -SN BKN021 02/M02 Q1004",
      "taf": "TAF LRIA 281100Z 2812/2821 31025G40KT 9999 BKN030"
    },
    {
      "icao": "LROP",
      "alert": "OK",
      "vis_m": 9999,
      "fzfg": false,
      "metar_trigger": false,
      "taf_trigger": false,
      "metar": "METAR LROP 281130Z 27011KT 240V300 CAVOK 07/M07 Q1010 NOSIG",
      "taf": "TAF LROP 281100Z 2812/2912 27011KT CAVOK"
    },
    {
      "icao": "LRSB",
      "alert": "OK",
      "vis_m": 9999,
      "fzfg": false,
      "metar_trigger": false,
      "taf_trigger": false,
      "metar": "METAR LRSB 281130Z 29020KT 9999 FEW033 BKN048 BKN068 02/M05 Q1013 NOSIG",
      "taf": "TAF LRSB 281100Z 2812/2912 30015KT 9999 BKN050"
    },
    {
      "icao": "LRSM",
      "alert": "OK",
      "vis_m": 9999,
      "fzfg": false,
      "metar_trigger": false,
      "taf_trigger": false,
      "metar": "METAR LRSM 281130Z 32016KT 9999 FEW035 SCT042 04/M04 Q1016",
      "taf": "TAF LRSM 281100Z 2812/2821 31015KT 9999 BKN030"
    },
    {
      "icao": "LRSV",
      "alert": "OK",
      "vis_m": 1000,
      "fzfg": false,
      "metar_trigger": false,
      "taf_trigger": false,
      "metar": "METAR LRSV 281130Z 30022G34KT 1000 R34/1300D -SN BLSN BKN013 BKN026 M01/M02 Q1004",
      "taf": "TAF LRSV 281100Z 2812/2821 31022KT 3000 -SN DRSN SCT010 BKN030"
    },
    {
      "icao": "LRTM",
      "alert": "OK",
      "vis_m": 9999,
      "fzfg": false,
      "metar_trigger": false,
      "taf_trigger": false,
      "metar": "METAR LRTM 281130Z 28018KT 9999 BKN026 BKN043 02/M04 Q1013",
      "taf": "TAF LRTM 281100Z 2812/2821 29019KT 9999 SCT025"
    },
    {
      "icao": "LRTR",
      "alert": "OK",
      "vis_m": 9999,
      "fzfg": false,
      "metar_trigger": false,
      "taf_trigger": false,
      "metar": "METAR LRTR 281130Z 31012KT CAVOK 03/M01 Q1020 NOSIG",
      "taf": "TAF LRTR 281100Z 2812/2912 31012KT CAVOK"
    },
    {
      "icao": "LTAC",
      "alert": "OK",
      "vis_m": 9999,
      "fzfg": false,
      "metar_trigger": false,
      "taf_trigger": false,
      "metar": "METAR LTAC 281120Z 24014KT 9999 SCT023 BKN080 01/M06 Q1003 NOSIG RMK RWY21C 23018KT RWY03L 24014KT RWY21R 22018KT RWY03R 24012KT RWY21L 23016KT",
      "taf": "TAF LTAC 281040Z 2812/2912 25015KT 9999 SCT030 BKN080"
    },
    {
      "icao": "LTFM",
      "alert": "OK",
      "vis_m": 9999,
      "fzfg": false,
      "metar_trigger": false,
      "taf_trigger": false,
      "metar": "METAR LTFM 281120Z COR 36024KT 9999 -SHRA SCT012 BKN022 04/02 Q1009 RESHRASN NOSIG RMK RWY17L 35023KT RWY34L 34022KT RWY16R 35020KT RWY36 36023KT RWY18 36022KT",
      "taf": "TAF LTFM 281040Z 2812/2918 32017G27KT 9999 SCT017 BKN025"
    },
    {
      "icao": "LUKK",
      "alert": "OK",
      "vis_m": 9999,
      "fzfg": false,
      "metar_trigger": false,
      "taf_trigger": false,
      "metar": "METAR LUKK 281130Z 33020G31KT 290V360 9999 -SHSN FEW018 SCT022CB BKN029 02/M01 Q1001 TEMPO 34024G36KT 4000 SHSN BLSN BKN010 SCT025CB",
      "taf": "TAF LUKK 281106Z 2812/2912 32018G28KT 9999 BKN020"
    },
    {
      "icao": "LWOH",
      "alert": "OK",
      "vis_m": 9999,
      "fzfg": false,
      "metar_trigger": false,
      "taf_trigger": false,
      "metar": "METAR LWOH 281120Z 15006KT 120V190 CAVOK 08/01 Q1014",
      "taf": "TAF LWOH 281110Z 2812/2912 16008KT CAVOK"
    },
    {
      "icao": "LWSK",
      "alert": "OK",
      "vis_m": 9999,
      "fzfg": false,
      "metar_trigger": false,
      "taf_trigger": false,
      "metar": "METAR LWSK 281120Z 36029G40KT 9999 FEW060 06/M03 Q1016 NOSIG",
      "taf": "TAF LWSK 281110Z 2812/2912 01015KT CAVOK"
    },
    {
      "icao": "LYBE",
      "alert": "OK",
      "vis_m": 9999,
      "fzfg": false,
      "metar_trigger": false,
      "taf_trigger": false,
      "metar": "METAR LYBE 281130Z COR 31015KT 9999 SCT023 04/M02 Q1023 NOSIG",
      "taf": "TAF LYBE 281100Z 2812/2912 29013KT 9999 SCT030 TX06/2912Z TNM03/2906Z"
    },
    {
      "icao": "LYNI",
      "alert": "OK",
      "vis_m": 9999,
      "fzfg": false,
      "metar_trigger": false,
      "taf_trigger": false,
      "metar": "METAR LYNI 281130Z 31012KT 270V340 9999 BKN033 03/M04 Q1020 NOSIG",
      "taf": "TAF LYNI 281100Z 2812/2912 29016KT 9999 BKN030 TX06/2912Z TNM03/2906Z"
    },
    {
      "icao": "LYPG",
      "alert": "OK",
      "vis_m": 9999,
      "fzfg": false,
      "metar_trigger": false,
      "taf_trigger": false,
      "metar": "METAR LYPG 281130Z VRB01KT CAVOK 12/01 Q1015 BECMG 36011KT",
      "taf": "TAF LYPG 281100Z 2812/2912 35009KT CAVOK TX13/2813Z TN01/2906Z"
    },
    {
      "icao": "LZIB",
      "alert": "OK",
      "vis_m": 9999,
      "fzfg": false,
      "metar_trigger": false,
      "taf_trigger": false,
      "metar": "METAR LZIB 281130Z 31016KT 9999 BKN035 04/M04 Q1025 NOSIG",
      "taf": "TAF LZIB 281115Z 2812/2912 32015KT 9999 SCT035 BKN038"
    },
    {
      "icao": "LZKZ",
      "alert": "OK",
      "vis_m": 9999,
      "fzfg": false,
      "metar_trigger": false,
      "taf_trigger": false,
      "metar": "METAR LZKZ 281130Z 34016KT 9999 BKN044 03/M06 Q1017 NOSIG",
      "taf": "TAF LZKZ 281115Z 2812/2912 35015KT 9999 BKN047"
    },
    {
      "icao": "LZTT",
      "alert": "OK",
      "vis_m": 9999,
      "fzfg": false,
      "metar_trigger": false,
      "taf_trigger": false,
      "metar": "METAR LZTT 281130Z 28021KT 9999 FEW016 SCT050 00/M08 Q1015 NOSIG",
      "taf": "TAF LZTT 281115Z 2812/2912 28017KT 9999 FEW016 SCT050"
    },
    {
      "icao": "OEJN",
      "alert": "OK",
      "vis_m": 9999,
      "fzfg": false,
      "metar_trigger": false,
      "taf_trigger": false,
      "metar": "METAR OEJN 281100Z 32008KT 9999 FEW040 28/13 Q1010 NOSIG",
      "taf": "TAF OEJN 281100Z 2812/2918 33010KT CAVOK"
    },
    {
      "icao": "OEMA",
      "alert": "OK",
      "vis_m": 9999,
      "fzfg": false,
      "metar_trigger": false,
      "taf_trigger": false,
      "metar": "METAR OEMA 281100Z 23010KT CAVOK 23/M01 Q1012 NOSIG",
      "taf": "TAF OEMA 281100Z 2812/2918 29014KT CAVOK"
    },
    {
      "icao": "OJAI",
      "alert": "OK",
      "vis_m": 3500,
      "fzfg": false,
      "metar_trigger": false,
      "taf_trigger": false,
      "metar": "METAR OJAI 281100Z 24015KT 3500 BR FEW025 SCT080 09/07 Q1009 NOSIG",
      "taf": "TAF OJAI 281100Z 2812/2918 29018G30KT 3000 RA BR SCT020TCU BKN030"
    },
    {
      "icao": "OMAA",
      "alert": "OK",
      "vis_m": 9999,
      "fzfg": false,
      "metar_trigger": false,
      "taf_trigger": false,
      "metar": "METAR OMAA 281100Z 16012KT CAVOK 27/10 Q1010 NOSIG",
      "taf": "TAF OMAA 281100Z 2812/2918 17012KT 8000 NSC"
    },
    {
      "icao": "OMDB",
      "alert": "OK",
      "vis_m": 9999,
      "fzfg": false,
      "metar_trigger": false,
      "taf_trigger": false,
      "metar": "METAR OMDB 281130Z 18010KT 150V220 9999 BKN045 27/12 Q1010 NOSIG",
      "taf": "TAF OMDB 281100Z 2812/2918 18008KT 8000 NSC"
    },
    {
      "icao": "UAAA",
      "alert": "OK",
      "vis_m": 2400,
      "fzfg": false,
      "metar_trigger": false,
      "taf_trigger": false,
      "metar": "METAR UAAA 281130Z VRB01MPS 2400 BR SCT100 BKN200 M01/M03 Q1014 NOSIG",
      "taf": "TAF UAAA 281109Z 2812/2912 20003MPS 1200 BR FU SCT050 BKN100 TX02/2909Z TNM03/2901Z"
    },
    {
      "icao": "UBBB",
      "alert": "OK",
      "vis_m": 9999,
      "fzfg": false,
      "metar_trigger": false,
      "taf_trigger": false,
      "metar": "METAR UBBB 281130Z 33012KT 9999 -RA BKN011 OVC022 05/04 Q1002 NOSIG",
      "taf": "TAF UBBB 281055Z 2812/2912 32012KT 9999 SCT012 BKN020 TX06/2812Z TN02/2902Z"
    },
    {
      "icao": "UDSG",
      "alert": "OK",
      "vis_m": 9999,
      "fzfg": false,
      "metar_trigger": false,
      "taf_trigger": false,
      "metar": "METAR UDSG 281130Z 23002KT 9999 NSC M04/M10 Q1000 NOSIG",
      "taf": "TAF UDSG 281100Z 2812/2912 VRB06KT 9999 SCT040"
    },
    {
      "icao": "UDYZ",
      "alert": "OK",
      "vis_m": 9999,
      "fzfg": false,
      "metar_trigger": false,
      "taf_trigger": false,
      "metar": "METAR UDYZ 281130Z 00000KT 9999 FEW046 02/M04 Q1001 NOSIG",
      "taf": "TAF UDYZ 281100Z 2812/2912 VRB04KT 6000 FEW040"
    },
    {
      "icao": "UGKO",
      "alert": "OK",
      "vis_m": 5000,
      "fzfg": false,
      "metar_trigger": false,
      "taf_trigger": false,
      "metar": "METAR UGKO 281130Z 07005KT 5000 -SNRA SCT007 BKN038 OVC043 01/00 Q1004 NOSIG",
      "taf": "TAF UGKO 281100Z 2812/2912 08007KT 9999 SCT015 OVC045 TX02/2812Z TNM01/2904Z"
    }
  ]
}