{
  "ts_utc": "2026-04-19T17:56:58Z",
  "threshold_m": 150,
  "source": "stations_override.txt (ICAO list) + aviationweather.gov (METAR/TAF raw)",
  "station_count": 159,
  "stations": [
    {
      "icao": "BIKF",
      "alert": "OK",
      "vis_m": 9999,
      "fzfg": false,
      "metar_trigger": false,
      "taf_trigger": false,
      "metar": "METAR BIKF 191730Z 13025KT 9999 BKN011 OVC037 08/06 Q1023",
      "taf": "TAF BIKF 191627Z 1918/2018 13025KT 9999 SCT015 BKN030 TX11/2015Z TN06/2006Z"
    },
    {
      "icao": "BKPR",
      "alert": "OK",
      "vis_m": null,
      "fzfg": false,
      "metar_trigger": false,
      "taf_trigger": false,
      "metar": "",
      "taf": "TAF BKPR 191730Z 1918/2018 VRB05KT CAVOK"
    },
    {
      "icao": "EBCI",
      "alert": "OK",
      "vis_m": 9999,
      "fzfg": false,
      "metar_trigger": false,
      "taf_trigger": false,
      "metar": "METAR EBCI 191750Z 35008KT 9999 FEW038 12/05 Q1022 NOSIG",
      "taf": "TAF EBCI 191714Z 1918/2024 33009KT 9999 FEW045"
    },
    {
      "icao": "EDDB",
      "alert": "OK",
      "vis_m": 9000,
      "fzfg": false,
      "metar_trigger": false,
      "taf_trigger": false,
      "metar": "METAR EDDB 191750Z AUTO 30017KT 9000 RA SCT011 OVC036 06/05 Q1014 TEMPO 32015G30KT 4000 +RA BKN009",
      "taf": "TAF EDDB 191700Z 1918/2018 30015G25KT 8000 SCT009 BKN020"
    },
    {
      "icao": "EDDH",
      "alert": "OK",
      "vis_m": 9999,
      "fzfg": false,
      "metar_trigger": false,
      "taf_trigger": false,
      "metar": "METAR EDDH 191750Z AUTO 34007KT 9999 FEW025 BKN037 BKN048 09/07 Q1018 TEMPO 34015KT SHRA BKN015CB",
      "taf": "TAF EDDH 191700Z 1918/2024 33008KT 9999 SCT020"
    },
    {
      "icao": "EDDK",
      "alert": "OK",
      "vis_m": 9999,
      "fzfg": false,
      "metar_trigger": false,
      "taf_trigger": false,
      "metar": "METAR EDDK 191750Z AUTO 35006KT 9999 FEW048 12/04 Q1020 NOSIG",
      "taf": "TAF EDDK 191700Z 1918/2024 35007KT 9999 SCT030"
    },
    {
      "icao": "EDDN",
      "alert": "OK",
      "vis_m": 9999,
      "fzfg": false,
      "metar_trigger": false,
      "taf_trigger": false,
      "metar": "METAR EDDN 191750Z AUTO 30005KT CAVOK 10/04 Q1019 NOSIG",
      "taf": "TAF EDDN 191700Z 1918/2018 31010KT CAVOK"
    },
    {
      "icao": "EDDS",
      "alert": "OK",
      "vis_m": 9999,
      "fzfg": false,
      "metar_trigger": false,
      "taf_trigger": false,
      "metar": "METAR EDDS 191750Z AUTO 32008KT CAVOK 12/00 Q1019 NOSIG",
      "taf": "TAF EDDS 191700Z 1918/2018 32010KT 9999 FEW045"
    },
    {
      "icao": "EDFH",
      "alert": "OK",
      "vis_m": 9999,
      "fzfg": false,
      "metar_trigger": false,
      "taf_trigger": false,
      "metar": "METAR EDFH 191750Z 32004KT CAVOK 09/04 Q1020",
      "taf": "TAF EDFH 191700Z 1918/2018 36006KT 9999 FEW045"
    },
    {
      "icao": "EDJA",
      "alert": "OK",
      "vis_m": 9999,
      "fzfg": false,
      "metar_trigger": false,
      "taf_trigger": false,
      "metar": "METAR EDJA 191750Z 34007KT CAVOK 10/02 Q1019",
      "taf": "TAF EDJA 191700Z 1918/2003 33009KT CAVOK"
    },
    {
      "icao": "EDLW",
      "alert": "OK",
      "vis_m": 9999,
      "fzfg": false,
      "metar_trigger": false,
      "taf_trigger": false,
      "metar": "METAR EDLW 191750Z 01010KT 9999 FEW025 SCT031 BKN035 10/06 Q1021",
      "taf": "TAF EDLW 191700Z 1918/2018 32007KT 9999 SCT040"
    },
    {
      "icao": "EDNY",
      "alert": "OK",
      "vis_m": 9999,
      "fzfg": false,
      "metar_trigger": false,
      "taf_trigger": false,
      "metar": "METAR EDNY 191750Z 03011KT CAVOK 13/05 Q1019",
      "taf": "TAF EDNY 191700Z 1918/2003 03004KT 9999 FEW060"
    },
    {
      "icao": "EDSB",
      "alert": "OK",
      "vis_m": 9999,
      "fzfg": false,
      "metar_trigger": false,
      "taf_trigger": false,
      "metar": "METAR EDSB 191750Z 02005KT CAVOK 14/01 Q1020",
      "taf": "TAF EDSB 191700Z 1918/2018 36005KT CAVOK"
    },
    {
      "icao": "EETN",
      "alert": "OK",
      "vis_m": 9999,
      "fzfg": false,
      "metar_trigger": false,
      "taf_trigger": false,
      "metar": "METAR EETN 191750Z 05006KT CAVOK 06/M05 Q1025 NOSIG",
      "taf": "TAF EETN 191730Z 1918/2018 05010KT CAVOK"
    },
    {
      "icao": "EFTU",
      "alert": "OK",
      "vis_m": 9999,
      "fzfg": false,
      "metar_trigger": false,
      "taf_trigger": false,
      "metar": "METAR EFTU 191750Z AUTO 06004KT CAVOK 09/M08 Q1026",
      "taf": "TAF EFTU 191729Z 1918/2018 05005KT CAVOK"
    },
    {
      "icao": "EGBB",
      "alert": "OK",
      "vis_m": 9999,
      "fzfg": false,
      "metar_trigger": false,
      "taf_trigger": false,
      "metar": "METAR EGBB 191750Z 35008KT CAVOK 12/01 Q1025",
      "taf": "TAF EGBB 191658Z 1918/2018 34008KT 9999 FEW045"
    },
    {
      "icao": "EGGP",
      "alert": "OK",
      "vis_m": 9999,
      "fzfg": false,
      "metar_trigger": false,
      "taf_trigger": false,
      "metar": "METAR EGGP 191750Z 33007KT 290V030 9999 FEW030 10/03 Q1026",
      "taf": "TAF EGGP 191658Z 1918/2018 30008KT 9999 FEW035"
    },
    {
      "icao": "EGGW",
      "alert": "OK",
      "vis_m": 9999,
      "fzfg": false,
      "metar_trigger": false,
      "taf_trigger": false,
      "metar": "METAR EGGW 191750Z AUTO 04007KT 010V110 9999 NCD 11/M00 Q1024",
      "taf": "TAF EGGW 191657Z 1918/2018 05005KT 9999 FEW045"
    },
    {
      "icao": "EGKK",
      "alert": "OK",
      "vis_m": 9999,
      "fzfg": false,
      "metar_trigger": false,
      "taf_trigger": false,
      "metar": "METAR EGKK 191750Z 02007KT CAVOK 14/M00 Q1024",
      "taf": "TAF EGKK 191659Z 1918/2024 03006KT CAVOK"
    },
    {
      "icao": "EGNM",
      "alert": "OK",
      "vis_m": 9999,
      "fzfg": false,
      "metar_trigger": false,
      "taf_trigger": false,
      "metar": "METAR EGNM 191750Z 31008KT 9999 FEW042 10/02 Q1025",
      "taf": "TAF EGNM 191700Z 1918/2018 32005KT 9999 FEW035"
    },
    {
      "icao": "EGPD",
      "alert": "OK",
      "vis_m": 9999,
      "fzfg": false,
      "metar_trigger": false,
      "taf_trigger": false,
      "metar": "METAR EGPD 191750Z COR AUTO 32012KT 9999 NCD 10/01 Q1025 NOSIG",
      "taf": "TAF EGPD 191655Z 1918/2018 33010KT 9999 SCT020"
    },
    {
      "icao": "EGPF",
      "alert": "OK",
      "vis_m": 9999,
      "fzfg": false,
      "metar_trigger": false,
      "taf_trigger": false,
      "metar": "METAR EGPF 191750Z AUTO 29011KT 9999 NCD 12/04 Q1026",
      "taf": "TAF EGPF 191659Z 1918/2018 29010KT 9999 FEW040"
    },
    {
      "icao": "EHBK",
      "alert": "OK",
      "vis_m": 9999,
      "fzfg": false,
      "metar_trigger": false,
      "taf_trigger": false,
      "metar": "METAR EHBK 191725Z AUTO 35007KT 310V030 9999 NSC 14/04 Q1021 NOSIG",
      "taf": "TAF EHBK 191714Z 1918/2024 35007KT 9999 BKN045"
    },
    {
      "icao": "EHEH",
      "alert": "OK",
      "vis_m": 9999,
      "fzfg": false,
      "metar_trigger": false,
      "taf_trigger": false,
      "metar": "METAR EHEH 191725Z AUTO 34006KT 300V040 9999 SCT210 12/03 Q1022 BLU NOSIG RMK TREND REMOTE BY EHWX",
      "taf": ""
    },
    {
      "icao": "EKBI",
      "alert": "OK",
      "vis_m": 9999,
      "fzfg": false,
      "metar_trigger": false,
      "taf_trigger": false,
      "metar": "METAR EKBI 191750Z AUTO 30009KT 9999 FEW022/// BKN039/// BKN068/// 10/06 Q1019",
      "taf": "TAF EKBI 191727Z 1918/2018 33008KT 9999 SCT025"
    },
    {
      "icao": "EKCH",
      "alert": "OK",
      "vis_m": 9999,
      "fzfg": false,
      "metar_trigger": false,
      "taf_trigger": false,
      "metar": "METAR EKCH 191750Z AUTO 05007KT 9999 BKN058/// OVC077/// 08/02 Q1019 NOSIG",
      "taf": "TAF EKCH 191727Z 1918/2018 05012KT CAVOK"
    },
    {
      "icao": "ENAL",
      "alert": "OK",
      "vis_m": 9999,
      "fzfg": false,
      "metar_trigger": false,
      "taf_trigger": false,
      "metar": "METAR ENAL 191750Z 31004KT 9999 BKN007 08/06 Q1020",
      "taf": "TAF ENAL 191700Z 1918/2003 VRB05KT 9999 SCT008"
    },
    {
      "icao": "ENBR",
      "alert": "OK",
      "vis_m": 9999,
      "fzfg": false,
      "metar_trigger": false,
      "taf_trigger": false,
      "metar": "METAR ENBR 191750Z 19005KT 9999 FEW013 SCT025 BKN049 08/05 Q1020 NOSIG RMK WIND 1200FT 17005KT",
      "taf": "TAF ENBR 191700Z 1918/2018 18008KT 9999 FEW008 SCT040"
    },
    {
      "icao": "ENGM",
      "alert": "OK",
      "vis_m": 9999,
      "fzfg": false,
      "metar_trigger": false,
      "taf_trigger": false,
      "metar": "METAR ENGM 191750Z VRB07KT 9999 -RA SCT026 BKN031 07/03 Q1024 NOSIG",
      "taf": "TAF ENGM 191700Z 1918/2018 04005KT 9999 BKN025"
    },
    {
      "icao": "ENHD",
      "alert": "OK",
      "vis_m": 9999,
      "fzfg": false,
      "metar_trigger": false,
      "taf_trigger": false,
      "metar": "METAR ENHD 191750Z VRB02KT 9999 FEW013 BKN020 BKN046 08/07 Q1020",
      "taf": "TAF ENHD 191400Z 1915/1922 26005KT 5000 -RA SCT003 BKN015"
    },
    {
      "icao": "ENTC",
      "alert": "OK",
      "vis_m": 9999,
      "fzfg": false,
      "metar_trigger": false,
      "taf_trigger": false,
      "metar": "METAR ENTC 191750Z 34003KT CAVOK 10/M01 Q1027 NOSIG RMK WIND 2600FT 35002KT",
      "taf": "TAF ENTC 191700Z 1918/2018 28006KT CAVOK"
    },
    {
      "icao": "ENTO",
      "alert": "OK",
      "vis_m": 9000,
      "fzfg": false,
      "metar_trigger": false,
      "taf_trigger": false,
      "metar": "METAR ENTO 191750Z 08007KT 030V110 9000 RA SCT006 OVC025 06/06 Q1022 BECMG NSW",
      "taf": "TAF ENTO 191700Z 1918/2018 09007KT 6000 RADZ BR BKN008"
    },
    {
      "icao": "ENVA",
      "alert": "OK",
      "vis_m": 9999,
      "fzfg": false,
      "metar_trigger": false,
      "taf_trigger": false,
      "metar": "METAR ENVA 191750Z 15010KT 110V190 CAVOK 14/M02 Q1023 RMK WIND 670FT 16015KT",
      "taf": "TAF ENVA 191700Z 1918/2018 12008KT CAVOK"
    },
    {
      "icao": "ENZV",
      "alert": "OK",
      "vis_m": 9999,
      "fzfg": false,
      "metar_trigger": false,
      "taf_trigger": false,
      "metar": "METAR ENZV 191750Z VRB02KT 9999 FEW010 BKN039 09/05 Q1020 NOSIG",
      "taf": "TAF ENZV 191700Z 1918/2018 VRB05KT 9999 FEW010 BKN040"
    },
    {
      "icao": "EPGD",
      "alert": "OK",
      "vis_m": 9999,
      "fzfg": false,
      "metar_trigger": false,
      "taf_trigger": false,
      "metar": "METAR EPGD 191730Z 04011KT CAVOK 08/01 Q1015",
      "taf": "TAF EPGD 191730Z 1918/2018 05010KT CAVOK"
    },
    {
      "icao": "EPKK",
      "alert": "OK",
      "vis_m": 9999,
      "fzfg": false,
      "metar_trigger": false,
      "taf_trigger": false,
      "metar": "METAR EPKK 191730Z 30006KT 9999 BKN056 14/07 Q1012",
      "taf": "TAF EPKK 191730Z 1918/2018 VRB05KT 9999 FEW020 BKN050"
    },
    {
      "icao": "EPKT",
      "alert": "OK",
      "vis_m": 9999,
      "fzfg": false,
      "metar_trigger": false,
      "taf_trigger": false,
      "metar": "METAR EPKT 191730Z 08003KT 070V140 9999 FEW040 12/07 Q1012",
      "taf": "TAF EPKT 191730Z 1918/2018 VRB05KT 9999 -RA BKN040"
    },
    {
      "icao": "EPLB",
      "alert": "OK",
      "vis_m": 9999,
      "fzfg": false,
      "metar_trigger": false,
      "taf_trigger": false,
      "metar": "METAR EPLB 191730Z 03004KT CAVOK 13/01 Q1013",
      "taf": "TAF EPLB 191730Z 1918/2018 03006KT CAVOK"
    },
    {
      "icao": "EPMO",
      "alert": "OK",
      "vis_m": 9999,
      "fzfg": false,
      "metar_trigger": false,
      "taf_trigger": false,
      "metar": "METAR EPMO 191730Z 03011KT CAVOK 13/03 Q1013",
      "taf": "TAF EPMO 191730Z 1918/2018 03010KT CAVOK"
    },
    {
      "icao": "EPPO",
      "alert": "OK",
      "vis_m": 9999,
      "fzfg": false,
      "metar_trigger": false,
      "taf_trigger": false,
      "metar": "METAR EPPO 191730Z 08011KT CAVOK 16/04 Q1011",
      "taf": "TAF EPPO 191730Z 1918/2018 08008KT CAVOK"
    },
    {
      "icao": "EPRA",
      "alert": "OK",
      "vis_m": 9999,
      "fzfg": false,
      "metar_trigger": false,
      "taf_trigger": false,
      "metar": "METAR EPRA 191730Z 10006KT CAVOK 14/01 Q1012",
      "taf": "TAF EPRA 191730Z 1918/2003 09008KT CAVOK"
    },
    {
      "icao": "EPRZ",
      "alert": "OK",
      "vis_m": 9999,
      "fzfg": false,
      "metar_trigger": false,
      "taf_trigger": false,
      "metar": "METAR EPRZ 191730Z 04004KT CAVOK 17/02 Q1012",
      "taf": "TAF EPRZ 191730Z 1918/2018 VRB06KT CAVOK"
    },
    {
      "icao": "EPSC",
      "alert": "OK",
      "vis_m": 9999,
      "fzfg": false,
      "metar_trigger": false,
      "taf_trigger": false,
      "metar": "METAR EPSC 191730Z 06009KT CAVOK 15/04 Q1011",
      "taf": "TAF EPSC 191730Z 1918/2018 06010KT CAVOK"
    },
    {
      "icao": "EPSY",
      "alert": "OK",
      "vis_m": 9999,
      "fzfg": false,
      "metar_trigger": false,
      "taf_trigger": false,
      "metar": "METAR EPSY 191730Z 02003KT CAVOK 08/07 Q1014",
      "taf": "TAF EPSY 191730Z 1918/2003 05007KT CAVOK"
    },
    {
      "icao": "EPWA",
      "alert": "OK",
      "vis_m": 9999,
      "fzfg": false,
      "metar_trigger": false,
      "taf_trigger": false,
      "metar": "METAR EPWA 191730Z 07006KT 030V090 CAVOK 17/M01 Q1012 NOSIG",
      "taf": "TAF EPWA 191730Z 1918/2018 06008KT CAVOK"
    },
    {
      "icao": "EPWR",
      "alert": "OK",
      "vis_m": 9999,
      "fzfg": false,
      "metar_trigger": false,
      "taf_trigger": false,
      "metar": "METAR EPWR 191730Z 10003KT 9999 -RA NSC 12/09 Q1011",
      "taf": "TAF EPWR 191730Z 1918/2018 10005KT 9999 BKN045"
    },
    {
      "icao": "ESGG",
      "alert": "OK",
      "vis_m": 9999,
      "fzfg": false,
      "metar_trigger": false,
      "taf_trigger": false,
      "metar": "METAR ESGG 191750Z 05005KT CAVOK 07/05 Q1020",
      "taf": "TAF ESGG 191730Z 1918/2018 08005KT 9999 -DZ BKN045"
    },
    {
      "icao": "ESKN",
      "alert": "OK",
      "vis_m": 9999,
      "fzfg": false,
      "metar_trigger": false,
      "taf_trigger": false,
      "metar": "METAR ESKN 191750Z 07008KT CAVOK 05/M03 Q1025",
      "taf": "TAF ESKN 191730Z 1918/2018 08010KT CAVOK"
    },
    {
      "icao": "ESMS",
      "alert": "OK",
      "vis_m": 9999,
      "fzfg": false,
      "metar_trigger": false,
      "taf_trigger": false,
      "metar": "METAR ESMS 191750Z 07015KT CAVOK 07/01 Q1018",
      "taf": "TAF ESMS 191727Z 1918/2018 06013KT CAVOK"
    },
    {
      "icao": "ESSA",
      "alert": "OK",
      "vis_m": 9999,
      "fzfg": false,
      "metar_trigger": false,
      "taf_trigger": false,
      "metar": "METAR ESSA 191750Z 08008KT CAVOK 07/M05 Q1026 NOSIG",
      "taf": "TAF ESSA 191730Z 1918/2018 07008KT CAVOK"
    },
    {
      "icao": "EYKA",
      "alert": "OK",
      "vis_m": 9999,
      "fzfg": false,
      "metar_trigger": false,
      "taf_trigger": false,
      "metar": "METAR EYKA 191750Z 04009KT CAVOK 09/M04 Q1018",
      "taf": "TAF EYKA 191700Z 1918/2018 05010KT 9000 NSC"
    },
    {
      "icao": "EYPA",
      "alert": "OK",
      "vis_m": 9999,
      "fzfg": false,
      "metar_trigger": false,
      "taf_trigger": false,
      "metar": "METAR EYPA 191750Z 07009KT CAVOK 10/M03 Q1019",
      "taf": "TAF EYPA 191700Z 1918/2018 05010KT 9000 NSC"
    },
    {
      "icao": "EYVI",
      "alert": "OK",
      "vis_m": 9999,
      "fzfg": false,
      "metar_trigger": false,
      "taf_trigger": false,
      "metar": "METAR EYVI 191750Z 06010KT CAVOK 07/M04 Q1018 NOSIG",
      "taf": "TAF EYVI 191700Z 1918/2018 06010KT 9000 NSC"
    },
    {
      "icao": "GCFV",
      "alert": "OK",
      "vis_m": 9999,
      "fzfg": false,
      "metar_trigger": false,
      "taf_trigger": false,
      "metar": "METAR GCFV 191730Z 01007KT CAVOK 26/13 Q1008",
      "taf": "TAF GCFV 191400Z 1915/2015 04005KT 8000 NSC TX26/2014Z TN18/2006Z"
    },
    {
      "icao": "GCLP",
      "alert": "OK",
      "vis_m": 9999,
      "fzfg": false,
      "metar_trigger": false,
      "taf_trigger": false,
      "metar": "METAR GCLP 191730Z 16011KT 140V200 9999 FEW035 25/14 Q1007 NOSIG",
      "taf": "TAF GCLP 191400Z 1915/2015 21015KT CAVOK TX24/2014Z TN16/2006Z"
    },
    {
      "icao": "GCTS",
      "alert": "OK",
      "vis_m": 9999,
      "fzfg": false,
      "metar_trigger": false,
      "taf_trigger": false,
      "metar": "METAR GCTS 191730Z 24011KT CAVOK 24/18 Q1008 NOSIG",
      "taf": "TAF GCTS 191400Z 1915/2015 25013KT CAVOK TX26/2014Z TN16/2006Z"
    },
    {
      "icao": "GMAD",
      "alert": "OK",
      "vis_m": 8000,
      "fzfg": false,
      "metar_trigger": false,
      "taf_trigger": false,
      "metar": "METAR GMAD 191730Z 26011KT 8000 NSC 34/00 Q1010 NOSIG",
      "taf": "TAF GMAD 191700Z 1918/2024 06007KT 8000 NSC"
    },
    {
      "icao": "GMMN",
      "alert": "OK",
      "vis_m": 9999,
      "fzfg": false,
      "metar_trigger": false,
      "taf_trigger": false,
      "metar": "METAR GMMN 191730Z 01009KT CAVOK 25/14 Q1013 NOSIG",
      "taf": "TAF GMMN 191700Z 1918/2024 02010KT CAVOK"
    },
    {
      "icao": "GMMX",
      "alert": "OK",
      "vis_m": 9999,
      "fzfg": false,
      "metar_trigger": false,
      "taf_trigger": false,
      "metar": "METAR GMMX 191730Z 04004KT 350V100 9999 FEW033 BKN200 31/08 Q1013 NOSIG",
      "taf": "TAF GMMX 191700Z 1918/2024 08006KT 8000 NSC"
    },
    {
      "icao": "HEGN",
      "alert": "OK",
      "vis_m": 9999,
      "fzfg": false,
      "metar_trigger": false,
      "taf_trigger": false,
      "metar": "METAR HEGN 191700Z 34006KT CAVOK 28/10 Q1009 NOSIG",
      "taf": "TAF HEGN 191700Z 1918/2024 30012KT CAVOK"
    },
    {
      "icao": "HEMA",
      "alert": "OK",
      "vis_m": 9999,
      "fzfg": false,
      "metar_trigger": false,
      "taf_trigger": false,
      "metar": "METAR HEMA 191700Z 01008KT 9999 FEW020 SCT100 25/11 Q1008 NOSIG",
      "taf": "TAF HEMA 191100Z 1912/2018 01014KT 9999 SCT025"
    },
    {
      "icao": "HESH",
      "alert": "OK",
      "vis_m": 9999,
      "fzfg": false,
      "metar_trigger": false,
      "taf_trigger": false,
      "metar": "METAR HESH 191700Z 05007KT CAVOK 28/11 Q1007 NOSIG",
      "taf": "TAF HESH 191700Z 1918/2024 35010KT CAVOK"
    },
    {
      "icao": "HESX",
      "alert": "OK",
      "vis_m": 9999,
      "fzfg": false,
      "metar_trigger": false,
      "taf_trigger": false,
      "metar": "METAR HESX 191700Z 33016KT CAVOK 22/10 Q1011 NOSIG",
      "taf": "TAF HESX 191700Z 1918/2024 31014KT CAVOK"
    },
    {
      "icao": "LATI",
      "alert": "OK",
      "vis_m": 9999,
      "fzfg": false,
      "metar_trigger": false,
      "taf_trigger": false,
      "metar": "METAR LATI 191750Z 24007KT 210V290 CAVOK 18/11 Q1016 NOSIG",
      "taf": "TAF LATI 191700Z 1918/2018 VRB03KT 9999 SCT050 TX24/2012Z TN10/2004Z"
    },
    {
      "icao": "LBPD",
      "alert": "OK",
      "vis_m": 9999,
      "fzfg": false,
      "metar_trigger": false,
      "taf_trigger": false,
      "metar": "METAR LBPD 191730Z AUTO 11008KT 9999 NCD 15/07 Q1013 NOSIG",
      "taf": "TAF LBPD 191700Z 1918/2018 VRB03KT 9999 SCT060"
    },
    {
      "icao": "LBSF",
      "alert": "OK",
      "vis_m": 9999,
      "fzfg": false,
      "metar_trigger": false,
      "taf_trigger": false,
      "metar": "METAR LBSF 191730Z AUTO 07003KT 020V090 9999 FEW084/// 16/04 Q1014 NOSIG",
      "taf": "TAF LBSF 191700Z 1918/2018 VRB03KT 9999 SCT050"
    },
    {
      "icao": "LBWN",
      "alert": "OK",
      "vis_m": 9999,
      "fzfg": false,
      "metar_trigger": false,
      "taf_trigger": false,
      "metar": "METAR LBWN 191730Z AUTO 12003KT 9999 NCD 10/06 Q1016 NOSIG",
      "taf": "TAF LBWN 191700Z 1918/2018 VRB03KT 9999 SCT040"
    },
    {
      "icao": "LCLK",
      "alert": "OK",
      "vis_m": 9999,
      "fzfg": false,
      "metar_trigger": false,
      "taf_trigger": false,
      "metar": "METAR LCLK 191730Z 25011KT 9999 FEW025 FEW030TCU SCT050 18/16 Q1007 NOSIG",
      "taf": "TAF LCLK 191730Z 1918/2018 24010KT 9999 FEW020 SCT040"
    },
    {
      "icao": "LCPH",
      "alert": "OK",
      "vis_m": 9999,
      "fzfg": false,
      "metar_trigger": false,
      "taf_trigger": false,
      "metar": "METAR LCPH 191730Z 31009KT 9999 FEW008 SCT025 BKN065 18/16 Q1008 NOSIG",
      "taf": "TAF LCPH 191730Z 1918/2018 34006KT 9999 SCT012 SCT020"
    },
    {
      "icao": "LEAL",
      "alert": "OK",
      "vis_m": 9999,
      "fzfg": false,
      "metar_trigger": false,
      "taf_trigger": false,
      "metar": "METAR LEAL 191730Z 19004G22KT 150V230 CAVOK 24/06 Q1016 NOSIG",
      "taf": "TAF LEAL 191700Z 1918/2018 VRB04KT CAVOK TX25/2012Z TN11/2005Z"
    },
    {
      "icao": "LEBB",
      "alert": "OK",
      "vis_m": 9999,
      "fzfg": false,
      "metar_trigger": false,
      "taf_trigger": false,
      "metar": "METAR LEBB 191730Z 29010KT CAVOK 18/15 Q1015 NOSIG",
      "taf": "TAF LEBB 191700Z 1918/2018 31009KT 9999 FEW030 TX25/2010Z TN12/2005Z"
    },
    {
      "icao": "LEBL",
      "alert": "OK",
      "vis_m": 9999,
      "fzfg": false,
      "metar_trigger": false,
      "taf_trigger": false,
      "metar": "METAR LEBL 191730Z 21007KT 9999 FEW040 18/16 Q1017 NOSIG",
      "taf": "TAF LEBL 191700Z 1918/2018 21008KT 9999 FEW030 TX21/2012Z TN14/2006Z"
    },
    {
      "icao": "LECH",
      "alert": "OK",
      "vis_m": 9999,
      "fzfg": false,
      "metar_trigger": false,
      "taf_trigger": false,
      "metar": "METAR LECH 191730Z AUTO 21004KT 180V250 CAVOK 18/11 Q1017",
      "taf": "TAF LECH 191700Z 1918/2018 VRB04KT CAVOK TX28/2013Z TN11/2005Z"
    },
    {
      "icao": "LEMD",
      "alert": "OK",
      "vis_m": 9999,
      "fzfg": false,
      "metar_trigger": false,
      "taf_trigger": false,
      "metar": "METAR LEMD 191730Z 26007KT 220V350 CAVOK 27/03 Q1015 NOSIG",
      "taf": "TAF LEMD 191700Z 1918/2024 VRB04KT CAVOK TX29/2016Z TN11/2006Z"
    },
    {
      "icao": "LEMG",
      "alert": "OK",
      "vis_m": 9999,
      "fzfg": false,
      "metar_trigger": false,
      "taf_trigger": false,
      "metar": "METAR LEMG 191730Z 13005KT 100V170 CAVOK 21/07 Q1016 NOSIG",
      "taf": "TAF LEMG 191700Z 1918/2018 29005KT CAVOK TX23/2014Z TN11/2006Z"
    },
    {
      "icao": "LEVC",
      "alert": "OK",
      "vis_m": 9999,
      "fzfg": false,
      "metar_trigger": false,
      "taf_trigger": false,
      "metar": "METAR LEVC 191730Z 04010KT 360V080 9999 FEW067 24/10 Q1016 NOSIG",
      "taf": "TAF LEVC 191700Z 1918/2018 07010KT 9999 FEW050 TX28/2012Z TN12/2005Z"
    },
    {
      "icao": "LEXJ",
      "alert": "OK",
      "vis_m": 9999,
      "fzfg": false,
      "metar_trigger": false,
      "taf_trigger": false,
      "metar": "METAR LEXJ 191730Z 05008KT 9999 FEW016 16/13 Q1016",
      "taf": "TAF LEXJ 191400Z 1915/2015 06009KT CAVOK TX22/2013Z TN12/2005Z"
    },
    {
      "icao": "LEZG",
      "alert": "OK",
      "vis_m": 9999,
      "fzfg": false,
      "metar_trigger": false,
      "taf_trigger": false,
      "metar": "METAR LEZG 191730Z 18012KT 9999 FEW040TCU 25/10 Q1014 NOSIG",
      "taf": "TAF LEZG 191700Z 1918/2018 10006KT CAVOK TX31/2015Z TN14/2005Z"
    },
    {
      "icao": "LEZL",
      "alert": "OK",
      "vis_m": 9999,
      "fzfg": false,
      "metar_trigger": false,
      "taf_trigger": false,
      "metar": "METAR LEZL 191730Z 25007KT 210V290 CAVOK 30/07 Q1013 NOSIG",
      "taf": "TAF LEZL 191400Z 1915/2015 VRB03KT CAVOK TX32/1915Z TN12/2006Z"
    },
    {
      "icao": "LFBD",
      "alert": "OK",
      "vis_m": 9999,
      "fzfg": false,
      "metar_trigger": false,
      "taf_trigger": false,
      "metar": "METAR LFBD 191730Z AUTO 01010KT CAVOK 23/08 Q1016 NOSIG",
      "taf": "TAF LFBD 191700Z 1918/2024 06010KT CAVOK TX26/2015Z TN12/2006Z"
    },
    {
      "icao": "LFLL",
      "alert": "OK",
      "vis_m": 9999,
      "fzfg": false,
      "metar_trigger": false,
      "taf_trigger": false,
      "metar": "METAR LFLL 191730Z 36010KT CAVOK 18/08 Q1017 NOSIG",
      "taf": "TAF LFLL 191700Z 1918/2024 36010KT CAVOK"
    },
    {
      "icao": "LFLS",
      "alert": "OK",
      "vis_m": 9999,
      "fzfg": false,
      "metar_trigger": false,
      "taf_trigger": false,
      "metar": "METAR LFLS 191730Z AUTO 33008KT CAVOK 17/09 Q1017 NOSIG",
      "taf": "TAF LFLS 191400Z 1915/2015 34008KT 9999 SCT030"
    },
    {
      "icao": "LFMN",
      "alert": "OK",
      "vis_m": 9999,
      "fzfg": false,
      "metar_trigger": false,
      "taf_trigger": false,
      "metar": "METAR LFMN 191730Z 08004KT 040V100 9999 FEW012 BKN260 18/15 Q1014 NOSIG",
      "taf": "TAF LFMN 191400Z 1915/2021 09008KT 9999 FEW012"
    },
    {
      "icao": "LFOB",
      "alert": "OK",
      "vis_m": 9999,
      "fzfg": false,
      "metar_trigger": false,
      "taf_trigger": false,
      "metar": "METAR LFOB 191730Z AUTO 01007KT CAVOK 14/06 Q1022 NOSIG",
      "taf": "TAF LFOB 191700Z 1918/2018 02008KT 9999 SCT035"
    },
    {
      "icao": "LFPO",
      "alert": "OK",
      "vis_m": 9999,
      "fzfg": false,
      "metar_trigger": false,
      "taf_trigger": false,
      "metar": "METAR LFPO 191730Z 06010KT CAVOK 16/04 Q1021 NOSIG",
      "taf": "TAF LFPO 191700Z 1918/2024 05010KT CAVOK"
    },
    {
      "icao": "LFSB",
      "alert": "OK",
      "vis_m": 9999,
      "fzfg": false,
      "metar_trigger": false,
      "taf_trigger": false,
      "metar": "METAR LFSB 191730Z AUTO 02008KT 350V050 CAVOK 16/03 Q1018 NOSIG",
      "taf": "TAF LFSB 191700Z 1918/2018 36008KT 9999 SCT055"
    },
    {
      "icao": "LGAV",
      "alert": "OK",
      "vis_m": 9999,
      "fzfg": false,
      "metar_trigger": false,
      "taf_trigger": false,
      "metar": "METAR LGAV 191750Z 16003KT CAVOK 14/09 Q1016 NOSIG",
      "taf": "TAF LGAV 191700Z 1918/2018 VRB05KT 9999 FEW025"
    },
    {
      "icao": "LGTS",
      "alert": "OK",
      "vis_m": 9999,
      "fzfg": false,
      "metar_trigger": false,
      "taf_trigger": false,
      "metar": "METAR LGTS 191750Z 10008KT 9999 FEW025 15/11 Q1015 NOSIG",
      "taf": "TAF LGTS 191700Z 1918/2018 14013KT 9999 FEW030"
    },
    {
      "icao": "LHBP",
      "alert": "OK",
      "vis_m": 9999,
      "fzfg": false,
      "metar_trigger": false,
      "taf_trigger": false,
      "metar": "METAR LHBP 191730Z 21005KT CAVOK 20/02 Q1011 TEMPO 31015G25KT",
      "taf": "TAF LHBP 191715Z 1918/2018 29008KT CAVOK"
    },
    {
      "icao": "LHDC",
      "alert": "OK",
      "vis_m": 9999,
      "fzfg": false,
      "metar_trigger": false,
      "taf_trigger": false,
      "metar": "METAR LHDC 191715Z AUTO 21005KT CAVOK 18/04 Q1012 NOSIG",
      "taf": "TAF LHDC 191715Z 1918/2003 21005KT CAVOK"
    },
    {
      "icao": "LIBD",
      "alert": "OK",
      "vis_m": 9999,
      "fzfg": false,
      "metar_trigger": false,
      "taf_trigger": false,
      "metar": "METAR LIBD 191750Z 08004KT CAVOK 16/11 Q1015",
      "taf": "TAF LIBD 191700Z 1918/2018 08010KT CAVOK"
    },
    {
      "icao": "LIBG",
      "alert": "OK",
      "vis_m": 9999,
      "fzfg": false,
      "metar_trigger": false,
      "taf_trigger": false,
      "metar": "METAR LIBG 191650Z 12005KT 080V170 CAVOK 21/12 Q1015",
      "taf": "TAF LIBG 191400Z 1915/1924 VRB05KT 9999 FEW050"
    },
    {
      "icao": "LIBP",
      "alert": "OK",
      "vis_m": 9999,
      "fzfg": false,
      "metar_trigger": false,
      "taf_trigger": false,
      "metar": "METAR LIBP 191750Z AUTO 06003KT 360V140 9999 FEW100/// 18/07 Q1014",
      "taf": "TAF LIBP 191700Z 1918/2018 VRB06KT CAVOK"
    },
    {
      "icao": "LIBR",
      "alert": "OK",
      "vis_m": 9999,
      "fzfg": false,
      "metar_trigger": false,
      "taf_trigger": false,
      "metar": "METAR LIBR 191750Z VRB01KT CAVOK 16/15 Q1015",
      "taf": "TAF LIBR 191700Z 1918/2018 20008KT CAVOK"
    },
    {
      "icao": "LICA",
      "alert": "OK",
      "vis_m": 9999,
      "fzfg": false,
      "metar_trigger": false,
      "taf_trigger": false,
      "metar": "METAR LICA 191750Z AUTO VRB02KT 9999 NCD 16/14 Q1017",
      "taf": "TAF LICA 191700Z 1918/2018 VRB05KT CAVOK"
    },
    {
      "icao": "LICC",
      "alert": "OK",
      "vis_m": 9999,
      "fzfg": false,
      "metar_trigger": false,
      "taf_trigger": false,
      "metar": "METAR LICC 191750Z 05006KT 9999 FEW060 SCT080 20/15 Q1016",
      "taf": "TAF LICC 191700Z 1918/2018 06012KT CAVOK"
    },
    {
      "icao": "LICJ",
      "alert": "OK",
      "vis_m": 9999,
      "fzfg": false,
      "metar_trigger": false,
      "taf_trigger": false,
      "metar": "METAR LICJ 191750Z AUTO 28003KT 9999 NCD 18/16 Q1017",
      "taf": "TAF LICJ 191700Z 1918/2018 VRB05KT CAVOK"
    },
    {
      "icao": "LIMC",
      "alert": "OK",
      "vis_m": 9999,
      "fzfg": false,
      "metar_trigger": false,
      "taf_trigger": false,
      "metar": "METAR LIMC 191750Z 15003KT CAVOK 22/10 Q1012 NOSIG",
      "taf": "TAF LIMC 191700Z 1918/2024 VRB05KT 9999 FEW040"
    },
    {
      "icao": "LIME",
      "alert": "OK",
      "vis_m": 9999,
      "fzfg": false,
      "metar_trigger": false,
      "taf_trigger": false,
      "metar": "METAR LIME 191750Z 11007KT 9999 TS VCSH SCT025CB SCT050 18/11 Q1013 BECMG TSRA",
      "taf": ""
    },
    {
      "icao": "LIMF",
      "alert": "OK",
      "vis_m": 9999,
      "fzfg": false,
      "metar_trigger": false,
      "taf_trigger": false,
      "metar": "METAR LIMF 191750Z 05004KT 9999 SCT040 22/13 Q1012",
      "taf": "TAF LIMF 191700Z 1918/2018 VRB05KT 9999 SCT035"
    },
    {
      "icao": "LIMJ",
      "alert": "OK",
      "vis_m": 9999,
      "fzfg": false,
      "metar_trigger": false,
      "taf_trigger": false,
      "metar": "METAR LIMJ 191750Z 14004KT 9999 FEW015 SCT023 18/15 Q1014",
      "taf": "TAF LIMJ 191700Z 1918/2018 VRB05KT 9999 FEW015"
    },
    {
      "icao": "LIPE",
      "alert": "OK",
      "vis_m": 9999,
      "fzfg": false,
      "metar_trigger": false,
      "taf_trigger": false,
      "metar": "METAR LIPE 191750Z 12012KT 9999 FEW070 16/12 Q1013",
      "taf": "TAF LIPE 191700Z 1918/2018 VRB05KT 9999 SCT040"
    },
    {
      "icao": "LIPH",
      "alert": "OK",
      "vis_m": 9999,
      "fzfg": false,
      "metar_trigger": false,
      "taf_trigger": false,
      "metar": "METAR LIPH 191750Z 07008KT CAVOK 17/14 Q1013",
      "taf": "TAF LIPH 191700Z 1918/2018 VRB05KT 9999 SCT050"
    },
    {
      "icao": "LIPQ",
      "alert": "OK",
      "vis_m": 9999,
      "fzfg": false,
      "metar_trigger": false,
      "taf_trigger": false,
      "metar": "METAR LIPQ 191750Z AUTO 01002KT 9999 BKN170/// 16/13 Q1014",
      "taf": "TAF LIPQ 191700Z 1918/2018 VRB05KT 9999 SCT060"
    },
    {
      "icao": "LIPR",
      "alert": "OK",
      "vis_m": 6000,
      "fzfg": false,
      "metar_trigger": false,
      "taf_trigger": false,
      "metar": "METAR LIPR 191750Z 05010KT 020V080 6000 -TSRA FEW020CB SCT040 16/13 Q1015",
      "taf": "TAF LIPR 191700Z 1918/2018 VRB05KT 9999 SCT050"
    },
    {
      "icao": "LIPX",
      "alert": "OK",
      "vis_m": 9999,
      "fzfg": false,
      "metar_trigger": false,
      "taf_trigger": false,
      "metar": "METAR LIPX 191750Z 30005KT CAVOK 18/12 Q1013",
      "taf": "TAF LIPX 191700Z 1918/2018 VRB05KT 9999 FEW040"
    },
    {
      "icao": "LIPY",
      "alert": "OK",
      "vis_m": 9999,
      "fzfg": false,
      "metar_trigger": false,
      "taf_trigger": false,
      "metar": "METAR LIPY 191750Z AUTO 14003KT 090V200 9999 BKN084/// BKN130/// 20/08 Q1012",
      "taf": "TAF LIPY 191700Z 1918/2018 VRB06KT 9999 SCT050"
    },
    {
      "icao": "LIPZ",
      "alert": "OK",
      "vis_m": 9999,
      "fzfg": false,
      "metar_trigger": false,
      "taf_trigger": false,
      "metar": "METAR LIPZ 191750Z 14007KT 110V170 CAVOK 18/10 Q1014 NOSIG",
      "taf": "TAF LIPZ 191700Z 1918/2024 VRB06KT 9999 SCT045"
    },
    {
      "icao": "LIRF",
      "alert": "OK",
      "vis_m": 9999,
      "fzfg": false,
      "metar_trigger": false,
      "taf_trigger": false,
      "metar": "METAR LIRF 191750Z 16004KT CAVOK 18/16 Q1015 NOSIG",
      "taf": "TAF LIRF 191700Z 1918/2024 VRB06KT CAVOK"
    },
    {
      "icao": "LIRN",
      "alert": "OK",
      "vis_m": 9999,
      "fzfg": false,
      "metar_trigger": false,
      "taf_trigger": false,
      "metar": "METAR LIRN 191750Z 19005KT 150V220 CAVOK 17/15 Q1016 NOSIG",
      "taf": "TAF LIRN 191700Z 1918/2018 VRB04KT CAVOK"
    },
    {
      "icao": "LIRP",
      "alert": "OK",
      "vis_m": 9999,
      "fzfg": false,
      "metar_trigger": false,
      "taf_trigger": false,
      "metar": "METAR LIRP 191745Z 27005KT 9999 SCT070 17/12 Q1015 NOSIG",
      "taf": "TAF LIRP 191700Z 1918/2018 25010KT 9999 SCT070"
    },
    {
      "icao": "LIRZ",
      "alert": "OK",
      "vis_m": 9999,
      "fzfg": false,
      "metar_trigger": false,
      "taf_trigger": false,
      "metar": "METAR LIRZ 191750Z AUTO 24007KT 9999 NCD 20/11 Q1014",
      "taf": "TAF LIRZ 191700Z 1918/2018 VRB05KT CAVOK"
    },
    {
      "icao": "LJLJ",
      "alert": "OK",
      "vis_m": 9999,
      "fzfg": false,
      "metar_trigger": false,
      "taf_trigger": false,
      "metar": "METAR LJLJ 191730Z 22004KT 180V270 9999 FEW047 SCT065 BKN250 14/08 Q1014 NOSIG",
      "taf": "TAF LJLJ 191700Z 1918/2018 30006KT 9999 FEW045"
    },
    {
      "icao": "LKMT",
      "alert": "OK",
      "vis_m": 9999,
      "fzfg": false,
      "metar_trigger": false,
      "taf_trigger": false,
      "metar": "METAR LKMT 191730Z 15003KT CAVOK 12/11 Q1013 NOSIG",
      "taf": "TAF LKMT 191700Z 1918/2018 23008KT 9999 BKN035"
    },
    {
      "icao": "LKPR",
      "alert": "OK",
      "vis_m": 9999,
      "fzfg": false,
      "metar_trigger": false,
      "taf_trigger": false,
      "metar": "METAR LKPR 191730Z 30015KT 9999 FEW025 BKN048 09/04 Q1015 NOSIG",
      "taf": "TAF LKPR 191700Z 1918/2024 27018KT 9999 BKN047"
    },
    {
      "icao": "LLBG",
      "alert": "OK",
      "vis_m": 9999,
      "fzfg": false,
      "metar_trigger": false,
      "taf_trigger": false,
      "metar": "METAR LLBG 191750Z 21004KT 9999 FEW018 19/14 Q1012 NOSIG",
      "taf": "TAF LLBG 191701Z 1918/2018 VRB03KT 9999 SCT025 TX20/2009Z TN15/2004Z"
    },
    {
      "icao": "LMML",
      "alert": "OK",
      "vis_m": 9999,
      "fzfg": false,
      "metar_trigger": false,
      "taf_trigger": false,
      "metar": "METAR LMML 191745Z 21004KT 170V240 9999 SCT014 16/14 Q1017 NOSIG",
      "taf": "TAF LMML 191700Z 1918/2018 VRB06KT 9999 SCT012"
    },
    {
      "icao": "LOWW",
      "alert": "OK",
      "vis_m": 9999,
      "fzfg": false,
      "metar_trigger": false,
      "taf_trigger": false,
      "metar": "METAR LOWW 191750Z 19007KT CAVOK 13/12 Q1014 BECMG TL1915 29012KT",
      "taf": "TAF LOWW 191715Z 1918/2024 20005KT 9999 SCT050 TX16/2013Z TN08/2024Z"
    },
    {
      "icao": "LPFR",
      "alert": "OK",
      "vis_m": 9999,
      "fzfg": false,
      "metar_trigger": false,
      "taf_trigger": false,
      "metar": "METAR LPFR 191730Z 11007KT CAVOK 21/14 Q1014",
      "taf": "TAF LPFR 191700Z 1918/2018 13007KT CAVOK"
    },
    {
      "icao": "LPMA",
      "alert": "OK",
      "vis_m": 9999,
      "fzfg": false,
      "metar_trigger": false,
      "taf_trigger": false,
      "metar": "METAR LPMA 191730Z 02010KT 340V070 9999 SCT016 BKN060 20/13 Q1009",
      "taf": "TAF LPMA 191700Z 1918/2018 01010KT 9999 SCT013"
    },
    {
      "icao": "LPPR",
      "alert": "OK",
      "vis_m": 9999,
      "fzfg": false,
      "metar_trigger": false,
      "taf_trigger": false,
      "metar": "METAR LPPR 191730Z 29004KT 260V320 9999 VCFG FEW005 FEW020TCU 15/13 Q1015",
      "taf": "TAF LPPR 191700Z 1918/2018 VRB02KT 9999 SCT008"
    },
    {
      "icao": "LPPS",
      "alert": "OK",
      "vis_m": 9999,
      "fzfg": false,
      "metar_trigger": false,
      "taf_trigger": false,
      "metar": "METAR LPPS 191730Z 07017KT 050V110 9999 FEW015 20/13 Q1009",
      "taf": "TAF LPPS 191700Z 1918/2024 09013KT 9999 SCT015"
    },
    {
      "icao": "LPPT",
      "alert": "OK",
      "vis_m": 9999,
      "fzfg": false,
      "metar_trigger": false,
      "taf_trigger": false,
      "metar": "METAR LPPT 191730Z 26007KT 220V320 CAVOK 24/13 Q1014",
      "taf": "TAF LPPT 191700Z 1918/2024 30007KT CAVOK"
    },
    {
      "icao": "LQBK",
      "alert": "OK",
      "vis_m": 9999,
      "fzfg": false,
      "metar_trigger": false,
      "taf_trigger": false,
      "metar": "METAR LQBK 191730Z 24001KT CAVOK 17/06 Q1012 NOSIG",
      "taf": "TAF LQBK 191700Z 1918/2018 03005KT 9999 BKN030 TX17/1918Z TN12/2018Z"
    },
    {
      "icao": "LQSA",
      "alert": "OK",
      "vis_m": 9999,
      "fzfg": false,
      "metar_trigger": false,
      "taf_trigger": false,
      "metar": "METAR LQSA 191730Z 30005KT 260V330 CAVOK 18/01 Q1013 NOSIG",
      "taf": "TAF LQSA 191700Z 1918/2018 VRB02KT 9999 SCT060 TX16/2014Z TN08/2005Z"
    },
    {
      "icao": "LQTZ",
      "alert": "OK",
      "vis_m": 9999,
      "fzfg": false,
      "metar_trigger": false,
      "taf_trigger": false,
      "metar": "METAR LQTZ 191730Z VRB02KT CAVOK 17/04 Q1012",
      "taf": "TAF LQTZ 191700Z 1918/2018 12005KT 9999 SCT050 TX17/1918Z TN08/2004Z"
    },
    {
      "icao": "LRBC",
      "alert": "OK",
      "vis_m": 9999,
      "fzfg": false,
      "metar_trigger": false,
      "taf_trigger": false,
      "metar": "METAR LRBC 191730Z 20007KT 9999 OVC066 13/09 Q1014",
      "taf": "TAF LRBC 191700Z 1918/2003 23010KT 9999 BKN065"
    },
    {
      "icao": "LRBS",
      "alert": "OK",
      "vis_m": 9999,
      "fzfg": false,
      "metar_trigger": false,
      "taf_trigger": false,
      "metar": "METAR LRBS 191730Z 16005KT CAVOK 17/06 Q1014 NOSIG",
      "taf": "TAF LRBS 191700Z 1918/2018 VRB04KT CAVOK"
    },
    {
      "icao": "LRBV",
      "alert": "OK",
      "vis_m": 9999,
      "fzfg": false,
      "metar_trigger": false,
      "taf_trigger": false,
      "metar": "METAR LRBV 191730Z 27005KT CAVOK 12/03 Q1013",
      "taf": "TAF LRBV 191700Z 1918/2003 VRB04KT 9999 SCT040"
    },
    {
      "icao": "LRCL",
      "alert": "OK",
      "vis_m": 9999,
      "fzfg": false,
      "metar_trigger": false,
      "taf_trigger": false,
      "metar": "METAR LRCL 191730Z 36004KT CAVOK 13/04 Q1013",
      "taf": "TAF LRCL 191700Z 1918/2003 VRB04KT CAVOK"
    },
    {
      "icao": "LRCV",
      "alert": "OK",
      "vis_m": 9999,
      "fzfg": false,
      "metar_trigger": false,
      "taf_trigger": false,
      "metar": "METAR LRCV 191730Z 18006KT CAVOK 16/08 Q1013",
      "taf": "TAF LRCV 191700Z 1918/2003 VRB04KT CAVOK"
    },
    {
      "icao": "LRIA",
      "alert": "OK",
      "vis_m": 9999,
      "fzfg": false,
      "metar_trigger": false,
      "taf_trigger": false,
      "metar": "METAR LRIA 191730Z 31003KT 9999 FEW050CB 16/03 Q1013",
      "taf": "TAF LRIA 191700Z 1918/2003 VRB04KT 9999 SCT045"
    },
    {
      "icao": "LROP",
      "alert": "OK",
      "vis_m": 9999,
      "fzfg": false,
      "metar_trigger": false,
      "taf_trigger": false,
      "metar": "METAR LROP 191730Z 16007KT 140V200 CAVOK 15/04 Q1014 NOSIG",
      "taf": "TAF LROP 191700Z 1918/2018 VRB04KT CAVOK"
    },
    {
      "icao": "LRSB",
      "alert": "OK",
      "vis_m": 9999,
      "fzfg": false,
      "metar_trigger": false,
      "taf_trigger": false,
      "metar": "METAR LRSB 191730Z 13002KT 9999 FEW075 16/02 Q1013",
      "taf": "TAF LRSB 191700Z 1918/2018 VRB04KT CAVOK"
    },
    {
      "icao": "LRSM",
      "alert": "OK",
      "vis_m": 9999,
      "fzfg": false,
      "metar_trigger": false,
      "taf_trigger": false,
      "metar": "METAR LRSM 191730Z AUTO 19003KT 9999 FEW080/// 17/05 Q1012",
      "taf": ""
    },
    {
      "icao": "LRSV",
      "alert": "OK",
      "vis_m": 9999,
      "fzfg": false,
      "metar_trigger": false,
      "taf_trigger": false,
      "metar": "METAR LRSV 191730Z 19004KT 9999 -RA NSC 12/05 Q1013",
      "taf": "TAF LRSV 191700Z 1918/2003 VRB04KT 9999 BKN045"
    },
    {
      "icao": "LRTM",
      "alert": "OK",
      "vis_m": 9999,
      "fzfg": false,
      "metar_trigger": false,
      "taf_trigger": false,
      "metar": "METAR LRTM 191730Z 31004KT CAVOK 14/04 Q1013",
      "taf": "TAF LRTM 191700Z 1918/2003 VRB04KT CAVOK"
    },
    {
      "icao": "LRTR",
      "alert": "OK",
      "vis_m": 9999,
      "fzfg": false,
      "metar_trigger": false,
      "taf_trigger": false,
      "metar": "METAR LRTR 191730Z 33002KT CAVOK 17/05 Q1013",
      "taf": "TAF LRTR 191700Z 1918/2018 VRB04KT CAVOK"
    },
    {
      "icao": "LTAC",
      "alert": "OK",
      "vis_m": 9999,
      "fzfg": false,
      "metar_trigger": false,
      "taf_trigger": false,
      "metar": "METAR LTAC 191750Z 05007KT 9999 SCT035 BKN100 08/02 Q1013 NOSIG",
      "taf": "TAF LTAC 191640Z 1918/2018 05012KT 9999 SCT040 BKN100"
    },
    {
      "icao": "LTFM",
      "alert": "OK",
      "vis_m": 9999,
      "fzfg": false,
      "metar_trigger": false,
      "taf_trigger": false,
      "metar": "METAR LTFM 191750Z 12005KT 080V140 CAVOK 12/05 Q1017 NOSIG",
      "taf": "TAF LTFM 191640Z 1918/2024 04010KT CAVOK"
    },
    {
      "icao": "LUKK",
      "alert": "OK",
      "vis_m": 9999,
      "fzfg": false,
      "metar_trigger": false,
      "taf_trigger": false,
      "metar": "METAR LUKK 191730Z VRB02KT CAVOK 13/06 Q1013 NOSIG",
      "taf": "TAF LUKK 191706Z 1918/2018 VRB04KT CAVOK"
    },
    {
      "icao": "LWOH",
      "alert": "OK",
      "vis_m": 9999,
      "fzfg": false,
      "metar_trigger": false,
      "taf_trigger": false,
      "metar": "METAR LWOH 191750Z 26005KT 230V290 9999 FEW040 14/06 Q1016",
      "taf": "TAF LWOH 191715Z 1918/2018 32005KT 9999 FEW040"
    },
    {
      "icao": "LWSK",
      "alert": "OK",
      "vis_m": 9999,
      "fzfg": false,
      "metar_trigger": false,
      "taf_trigger": false,
      "metar": "METAR LWSK 191750Z 11004KT 070V160 CAVOK 15/07 Q1013 NOSIG",
      "taf": "TAF LWSK 191715Z 1918/2018 VRB03KT CAVOK"
    },
    {
      "icao": "LYBE",
      "alert": "OK",
      "vis_m": 9999,
      "fzfg": false,
      "metar_trigger": false,
      "taf_trigger": false,
      "metar": "METAR LYBE 191730Z VRB02KT CAVOK 17/03 Q1013 NOSIG",
      "taf": "TAF LYBE 191700Z 1918/2018 18004KT CAVOK TX18/1918Z TN08/2002Z"
    },
    {
      "icao": "LYNI",
      "alert": "OK",
      "vis_m": 9999,
      "fzfg": false,
      "metar_trigger": false,
      "taf_trigger": false,
      "metar": "METAR LYNI 191730Z 34003KT CAVOK 19/04 Q1013 NOSIG",
      "taf": "TAF LYNI 191700Z 1918/2018 07004KT CAVOK TX19/1918Z TN07/2004Z"
    },
    {
      "icao": "LYPG",
      "alert": "OK",
      "vis_m": 9999,
      "fzfg": false,
      "metar_trigger": false,
      "taf_trigger": false,
      "metar": "METAR LYPG 191730Z 12006KT CAVOK 19/04 Q1014 NOSIG",
      "taf": "TAF LYPG 191700Z 1918/2018 VRB02KT CAVOK TX20/2013Z TN12/2002Z"
    },
    {
      "icao": "LZIB",
      "alert": "OK",
      "vis_m": 9999,
      "fzfg": false,
      "metar_trigger": false,
      "taf_trigger": false,
      "metar": "METAR LZIB 191730Z 22007KT 9999 FEW013 14/13 Q1013 NOSIG",
      "taf": "TAF LZIB 191715Z 1918/2018 28008KT 9999 FEW040"
    },
    {
      "icao": "LZKZ",
      "alert": "OK",
      "vis_m": 9999,
      "fzfg": false,
      "metar_trigger": false,
      "taf_trigger": false,
      "metar": "METAR LZKZ 191730Z 13006KT CAVOK 16/06 Q1011 NOSIG",
      "taf": "TAF LZKZ 191715Z 1918/2018 VRB02KT CAVOK"
    },
    {
      "icao": "LZTT",
      "alert": "OK",
      "vis_m": 9999,
      "fzfg": false,
      "metar_trigger": false,
      "taf_trigger": false,
      "metar": "METAR LZTT 191730Z 30004KT 260V070 9999 SCT060 BKN073 14/03 Q1012",
      "taf": "TAF LZTT 191715Z 1918/2018 27006KT 9999 FEW040 SCT060"
    },
    {
      "icao": "OEJN",
      "alert": "OK",
      "vis_m": 9999,
      "fzfg": false,
      "metar_trigger": false,
      "taf_trigger": false,
      "metar": "METAR OEJN 191700Z 23009KT CAVOK 32/18 Q1006 NOSIG",
      "taf": "TAF OEJN 191700Z 1918/2024 22010KT 7000 NSC"
    },
    {
      "icao": "OEMA",
      "alert": "OK",
      "vis_m": 9999,
      "fzfg": false,
      "metar_trigger": false,
      "taf_trigger": false,
      "metar": "METAR OEMA 191700Z 27009KT CAVOK 33/11 Q1011 NOSIG",
      "taf": "TAF OEMA 191700Z 1918/2024 35006KT 7000 SCT040"
    },
    {
      "icao": "OJAI",
      "alert": "OK",
      "vis_m": null,
      "fzfg": false,
      "metar_trigger": false,
      "taf_trigger": false,
      "metar": "",
      "taf": "TAF OJAI 191700Z 1918/2024 25012KT 5000 HZ SCT030"
    },
    {
      "icao": "OMAA",
      "alert": "OK",
      "vis_m": null,
      "fzfg": false,
      "metar_trigger": false,
      "taf_trigger": false,
      "metar": "",
      "taf": ""
    },
    {
      "icao": "OMDB",
      "alert": "OK",
      "vis_m": null,
      "fzfg": false,
      "metar_trigger": false,
      "taf_trigger": false,
      "metar": "",
      "taf": ""
    },
    {
      "icao": "UAAA",
      "alert": "OK",
      "vis_m": 750,
      "fzfg": false,
      "metar_trigger": false,
      "taf_trigger": false,
      "metar": "SPECI UAAA 191749Z 16001MPS 0750 R05R/1900 FG SCT100 BKN200 07/06 Q1018 NOSIG",
      "taf": "TAF UAAA 191702Z 1918/2018 17002MPS 3100 BR FU SCT020 BKN050 TX18/2009Z TN04/2001Z"
    },
    {
      "icao": "UBBB",
      "alert": "OK",
      "vis_m": 9999,
      "fzfg": false,
      "metar_trigger": false,
      "taf_trigger": false,
      "metar": "METAR UBBB 191730Z 33008KT CAVOK 13/10 Q1006 NOSIG",
      "taf": "TAF UBBB 191714Z 1918/2018 32012KT 9999 BKN030 TX15/2010Z TN10/2001Z"
    },
    {
      "icao": "UDSG",
      "alert": "OK",
      "vis_m": 9999,
      "fzfg": false,
      "metar_trigger": false,
      "taf_trigger": false,
      "metar": "METAR UDSG 191730Z 02006KT 340V050 9999 BKN040CB 08/05 Q1009 NOSIG",
      "taf": "TAF UDSG 191700Z 1918/2018 36006KT 9999 BKN040"
    },
    {
      "icao": "UDYZ",
      "alert": "OK",
      "vis_m": 9999,
      "fzfg": false,
      "metar_trigger": false,
      "taf_trigger": false,
      "metar": "METAR UDYZ 191730Z VRB01KT 9999 SCT043CB 15/10 Q1006 NOSIG",
      "taf": "TAF UDYZ 191700Z 1918/2018 04006KT 6000 SCT040"
    },
    {
      "icao": "UGKO",
      "alert": "OK",
      "vis_m": 9999,
      "fzfg": false,
      "metar_trigger": false,
      "taf_trigger": false,
      "metar": "METAR UGKO 191730Z 25003KT 9999 FEW006 SCT008 BKN025 11/10 Q1012 NOSIG",
      "taf": "TAF UGKO 191700Z 1918/2018 26007KT 9999 SCT020 BKN050 TX12/2010Z TN09/2003Z"
    }
  ]
}