{
  "ts_utc": "2026-03-14T22:19:35Z",
  "threshold_m": 150,
  "source": "stations_override.txt (ICAO list) + aviationweather.gov (METAR/TAF raw)",
  "station_count": 159,
  "stations": [
    {
      "icao": "BIKF",
      "alert": "OK",
      "vis_m": 5000,
      "fzfg": false,
      "metar_trigger": false,
      "taf_trigger": false,
      "metar": "METAR BIKF 142200Z 09024KT 5000 -SN BKN011 OVC032 00/M01 Q0974",
      "taf": "TAF BIKF 142210Z 1500/1600 07027G37KT 9999 BKN030 TX03/1515Z TN00/1500Z"
    },
    {
      "icao": "BKPR",
      "alert": "OK",
      "vis_m": 9999,
      "fzfg": false,
      "metar_trigger": false,
      "taf_trigger": false,
      "metar": "METAR BKPR 142200Z VRB02KT CAVOK 06/M00 Q1008 NOSIG",
      "taf": "TAF BKPR 141730Z 1418/1518 VRB05KT CAVOK"
    },
    {
      "icao": "EBCI",
      "alert": "OK",
      "vis_m": 9999,
      "fzfg": false,
      "metar_trigger": false,
      "taf_trigger": false,
      "metar": "METAR EBCI 142150Z VRB02KT 9999 FEW026 03/01 Q1010 NOSIG",
      "taf": "TAF EBCI 141709Z 1418/1524 30010KT 9999 SCT020"
    },
    {
      "icao": "EDDB",
      "alert": "OK",
      "vis_m": 9999,
      "fzfg": false,
      "metar_trigger": false,
      "taf_trigger": false,
      "metar": "METAR EDDB 142150Z AUTO 31008KT 9999 BKN013 OVC048 06/03 Q1005 NOSIG",
      "taf": "TAF EDDB 141700Z 1418/1518 31007KT 9999 BKN025"
    },
    {
      "icao": "EDDH",
      "alert": "OK",
      "vis_m": 9999,
      "fzfg": false,
      "metar_trigger": false,
      "taf_trigger": false,
      "metar": "METAR EDDH 142150Z AUTO 32004KT 9999 OVC023 04/04 Q1007 NOSIG",
      "taf": "TAF EDDH 141700Z 1418/1524 30003KT 9999 SCT015 BKN030"
    },
    {
      "icao": "EDDK",
      "alert": "OK",
      "vis_m": 9999,
      "fzfg": false,
      "metar_trigger": false,
      "taf_trigger": false,
      "metar": "METAR EDDK 142150Z AUTO 21002KT 9999 FEW017 BKN025 03/02 Q1009 NOSIG",
      "taf": "TAF EDDK 141700Z 1418/1524 28006KT 9999 SCT012 BKN015"
    },
    {
      "icao": "EDDN",
      "alert": "OK",
      "vis_m": 9999,
      "fzfg": false,
      "metar_trigger": false,
      "taf_trigger": false,
      "metar": "METAR EDDN 142150Z AUTO 30006KT 9999 -RA FEW049 04/00 Q1006 NOSIG",
      "taf": "TAF EDDN 141700Z 1418/1518 28010KT 9999 FEW008 BKN020"
    },
    {
      "icao": "EDDS",
      "alert": "OK",
      "vis_m": 9999,
      "fzfg": false,
      "metar_trigger": false,
      "taf_trigger": false,
      "metar": "METAR EDDS 142150Z AUTO 25005KT 9999 FEW034 02/M01 Q1007",
      "taf": "TAF EDDS 141700Z 1418/1518 26005KT 9999 BKN020"
    },
    {
      "icao": "EDFH",
      "alert": "OK",
      "vis_m": 9999,
      "fzfg": false,
      "metar_trigger": false,
      "taf_trigger": false,
      "metar": "METAR EDFH 142150Z 28006KT 9999 SCT003 01/01 Q1007",
      "taf": "TAF EDFH 141700Z 1418/1518 28010KT 9999 BKN010"
    },
    {
      "icao": "EDJA",
      "alert": "OK",
      "vis_m": 9999,
      "fzfg": false,
      "metar_trigger": false,
      "taf_trigger": false,
      "metar": "METAR EDJA 142120Z 18004KT 9999 SCT003 OVC005 01/00 Q1006",
      "taf": "TAF EDJA 141700Z 1418/1503 29005KT 9999 SCT004 OVC015"
    },
    {
      "icao": "EDLW",
      "alert": "OK",
      "vis_m": 6000,
      "fzfg": false,
      "metar_trigger": false,
      "taf_trigger": false,
      "metar": "METAR EDLW 142150Z 25007KT 6000 SCT006 SCT016 BKN021 04/03 Q1007",
      "taf": "TAF EDLW 141700Z 1418/1518 28005KT 9999 BKN007"
    },
    {
      "icao": "EDNY",
      "alert": "OK",
      "vis_m": 9999,
      "fzfg": false,
      "metar_trigger": false,
      "taf_trigger": false,
      "metar": "METAR EDNY 142150Z AUTO 24004KT 9999 // FEW006/// SCT008/// OVC058/// 02/02 Q1008",
      "taf": "TAF EDNY 141700Z 1418/1503 25005KT 9999 SCT008 OVC025"
    },
    {
      "icao": "EDSB",
      "alert": "OK",
      "vis_m": 9999,
      "fzfg": false,
      "metar_trigger": false,
      "taf_trigger": false,
      "metar": "METAR EDSB 142150Z 23003KT 210V300 9999 BKN043 04/01 Q1009",
      "taf": "TAF EDSB 141700Z 1418/1518 21005KT 9999 SCT030"
    },
    {
      "icao": "EETN",
      "alert": "OK",
      "vis_m": 9999,
      "fzfg": false,
      "metar_trigger": false,
      "taf_trigger": false,
      "metar": "METAR EETN 142150Z 18012KT CAVOK 10/M01 Q1009 TEMPO 18015G25KT",
      "taf": "TAF EETN 141730Z 1418/1518 18012KT CAVOK"
    },
    {
      "icao": "EFTU",
      "alert": "OK",
      "vis_m": 9999,
      "fzfg": false,
      "metar_trigger": false,
      "taf_trigger": false,
      "metar": "METAR EFTU 142150Z AUTO 19007KT 170V230 9999 -SHRA OVC045 //////CB 06/04 Q1005",
      "taf": "TAF EFTU 142030Z 1421/1521 19007KT CAVOK"
    },
    {
      "icao": "EGBB",
      "alert": "OK",
      "vis_m": 9999,
      "fzfg": false,
      "metar_trigger": false,
      "taf_trigger": false,
      "metar": "METAR EGBB 142150Z VRB02KT CAVOK 02/M00 Q1010",
      "taf": "TAF EGBB 141701Z 1418/1518 30008KT 9999 FEW045"
    },
    {
      "icao": "EGGP",
      "alert": "OK",
      "vis_m": 9999,
      "fzfg": false,
      "metar_trigger": false,
      "taf_trigger": false,
      "metar": "METAR EGGP 142150Z 19004KT 150V220 CAVOK 05/02 Q1010",
      "taf": "TAF EGGP 141658Z 1418/1518 29010KT 9999 FEW025"
    },
    {
      "icao": "EGGW",
      "alert": "OK",
      "vis_m": 9999,
      "fzfg": false,
      "metar_trigger": false,
      "taf_trigger": false,
      "metar": "METAR EGGW 142150Z AUTO 23003KT 9999 NCD 03/M03 Q1010",
      "taf": "TAF EGGW 141701Z 1418/1518 32011KT 9999 SCT040"
    },
    {
      "icao": "EGKK",
      "alert": "OK",
      "vis_m": 9999,
      "fzfg": false,
      "metar_trigger": false,
      "taf_trigger": false,
      "metar": "METAR EGKK 142150Z 19003KT CAVOK 02/M01 Q1011",
      "taf": "TAF EGKK 141658Z 1418/1524 32010KT 9999 FEW040"
    },
    {
      "icao": "EGNM",
      "alert": "OK",
      "vis_m": 9999,
      "fzfg": false,
      "metar_trigger": false,
      "taf_trigger": false,
      "metar": "METAR EGNM 142150Z 23007KT CAVOK 03/01 Q1009",
      "taf": "TAF EGNM 141657Z 1418/1518 27012KT 9999 FEW040"
    },
    {
      "icao": "EGPD",
      "alert": "OK",
      "vis_m": 9999,
      "fzfg": false,
      "metar_trigger": false,
      "taf_trigger": false,
      "metar": "METAR EGPD 142150Z COR AUTO 23011KT 9999 NCD 04/M01 Q1003 NOSIG",
      "taf": "TAF EGPD 141657Z 1418/1518 22006KT 9999 FEW045"
    },
    {
      "icao": "EGPF",
      "alert": "OK",
      "vis_m": 9999,
      "fzfg": false,
      "metar_trigger": false,
      "taf_trigger": false,
      "metar": "METAR EGPF 142150Z AUTO 14003KT 120V200 9999 FEW040/// //////TCU 05/03 Q1005",
      "taf": "TAF EGPF 141658Z 1418/1518 24009KT 9999 SCT025"
    },
    {
      "icao": "EHBK",
      "alert": "OK",
      "vis_m": 9999,
      "fzfg": false,
      "metar_trigger": false,
      "taf_trigger": false,
      "metar": "METAR EHBK 142155Z AUTO 25005KT 220V290 9999 SCT039/// BKN044/// 02/01 Q1009 TEMPO 7000 MIFG",
      "taf": "TAF EHBK 141711Z 1418/1524 25004KT 9999 SCT025"
    },
    {
      "icao": "EHEH",
      "alert": "OK",
      "vis_m": 6000,
      "fzfg": false,
      "metar_trigger": false,
      "taf_trigger": false,
      "metar": "METAR EHEH 142155Z AUTO 23003KT 6000 BR SCT028 SCT043 02/02 Q1009 WHT",
      "taf": "TAF EHEH 141756Z 1418/1524 25003KT 9999 FEW020 BKN030"
    },
    {
      "icao": "EKBI",
      "alert": "OK",
      "vis_m": 7000,
      "fzfg": false,
      "metar_trigger": false,
      "taf_trigger": false,
      "metar": "METAR EKBI 142150Z AUTO 25007KT 7000 OVC004/// 04/03 Q1006",
      "taf": ""
    },
    {
      "icao": "EKCH",
      "alert": "OK",
      "vis_m": 9999,
      "fzfg": false,
      "metar_trigger": false,
      "taf_trigger": false,
      "metar": "METAR EKCH 142150Z AUTO 36002KT 9999 OVC086/// 04/03 Q1006 NOSIG",
      "taf": "TAF EKCH 142027Z 1421/1521 02007KT 9999 SCT015"
    },
    {
      "icao": "ENAL",
      "alert": "OK",
      "vis_m": 9999,
      "fzfg": false,
      "metar_trigger": false,
      "taf_trigger": false,
      "metar": "METAR ENAL 142150Z 19012KT 9999 FEW037 SCT060 05/02 Q0998",
      "taf": "TAF ENAL 142000Z 1421/1506 21012KT 9999 FEW030 BKN050"
    },
    {
      "icao": "ENBR",
      "alert": "OK",
      "vis_m": 9999,
      "fzfg": false,
      "metar_trigger": false,
      "taf_trigger": false,
      "metar": "METAR ENBR 142150Z 17010KT 9999 VCSH SCT017 BKN022 04/02 Q1002 RMK WIND 1200FT 20013KT",
      "taf": "TAF ENBR 141700Z 1418/1518 16012KT 9999 FEW010 BKN020"
    },
    {
      "icao": "ENGM",
      "alert": "OK",
      "vis_m": 9999,
      "fzfg": false,
      "metar_trigger": false,
      "taf_trigger": false,
      "metar": "METAR ENGM 142150Z 19007KT 9999 FEW007 OVC009 02/01 Q1002 NOSIG",
      "taf": "TAF ENGM 141700Z 1418/1518 18008KT 9999 BKN015"
    },
    {
      "icao": "ENHD",
      "alert": "OK",
      "vis_m": 9999,
      "fzfg": false,
      "metar_trigger": false,
      "taf_trigger": false,
      "metar": "METAR ENHD 142150Z AUTO 19009KT 9999 SCT019/// SCT027/// 05/01 Q1003",
      "taf": "TAF ENHD 141400Z 1415/1423 20008KT 9999 FEW015 BKN030"
    },
    {
      "icao": "ENTC",
      "alert": "OK",
      "vis_m": 9999,
      "fzfg": false,
      "metar_trigger": false,
      "taf_trigger": false,
      "metar": "METAR ENTC 142150Z 18009KT CAVOK 03/M02 Q0994 RMK WIND 2600FT 17012KT",
      "taf": "TAF ENTC 141700Z 1418/1518 22009KT 9999 FEW040"
    },
    {
      "icao": "ENTO",
      "alert": "OK",
      "vis_m": 3200,
      "fzfg": false,
      "metar_trigger": false,
      "taf_trigger": false,
      "metar": "METAR ENTO 142150Z AUTO 20009KT 3200 BR BKN001/// BKN004/// OVC005/// 03/03 Q1004",
      "taf": "TAF ENTO 141700Z 1418/1518 20008KT 0400 FG VV001"
    },
    {
      "icao": "ENVA",
      "alert": "OK",
      "vis_m": 9999,
      "fzfg": false,
      "metar_trigger": false,
      "taf_trigger": false,
      "metar": "METAR ENVA 142150Z 10006KT CAVOK 02/M03 Q0997 RMK WIND 670FT 16013KT",
      "taf": "TAF ENVA 141700Z 1418/1518 11005KT CAVOK"
    },
    {
      "icao": "ENZV",
      "alert": "OK",
      "vis_m": 9999,
      "fzfg": false,
      "metar_trigger": false,
      "taf_trigger": false,
      "metar": "METAR ENZV 142150Z 17005KT 9999 FEW020 02/02 Q1004",
      "taf": ""
    },
    {
      "icao": "EPGD",
      "alert": "OK",
      "vis_m": 9999,
      "fzfg": false,
      "metar_trigger": false,
      "taf_trigger": false,
      "metar": "METAR EPGD 142200Z 14009KT CAVOK 11/01 Q1004",
      "taf": "TAF EPGD 141730Z 1418/1518 16010KT CAVOK"
    },
    {
      "icao": "EPKK",
      "alert": "OK",
      "vis_m": 9999,
      "fzfg": false,
      "metar_trigger": false,
      "taf_trigger": false,
      "metar": "METAR EPKK 142200Z 03003KT CAVOK 05/M02 Q1006",
      "taf": "TAF EPKK 142030Z 1421/1521 11004KT CAVOK"
    },
    {
      "icao": "EPKT",
      "alert": "OK",
      "vis_m": 9999,
      "fzfg": false,
      "metar_trigger": false,
      "taf_trigger": false,
      "metar": "METAR EPKT 142200Z 14008KT CAVOK 10/M02 Q1005",
      "taf": "TAF EPKT 141730Z 1418/1518 15009KT CAVOK"
    },
    {
      "icao": "EPLB",
      "alert": "OK",
      "vis_m": 9999,
      "fzfg": false,
      "metar_trigger": false,
      "taf_trigger": false,
      "metar": "METAR EPLB 142200Z 11006KT CAVOK 06/00 Q1010",
      "taf": "TAF EPLB 141730Z 1418/1518 13010KT CAVOK"
    },
    {
      "icao": "EPMO",
      "alert": "OK",
      "vis_m": 9999,
      "fzfg": false,
      "metar_trigger": false,
      "taf_trigger": false,
      "metar": "METAR EPMO 142200Z 11008KT CAVOK 10/M00 Q1007",
      "taf": "TAF EPMO 141730Z 1418/1518 12010KT CAVOK"
    },
    {
      "icao": "EPPO",
      "alert": "OK",
      "vis_m": 9999,
      "fzfg": false,
      "metar_trigger": false,
      "taf_trigger": false,
      "metar": "METAR EPPO 142200Z 22006KT 140V240 CAVOK 13/01 Q1002",
      "taf": "TAF EPPO 141730Z 1418/1518 16010KT CAVOK"
    },
    {
      "icao": "EPRA",
      "alert": "OK",
      "vis_m": 9999,
      "fzfg": false,
      "metar_trigger": false,
      "taf_trigger": false,
      "metar": "METAR EPRA 142200Z 14009KT CAVOK 08/M03 Q1007",
      "taf": "TAF EPRA 142030Z 1421/1506 16008KT CAVOK"
    },
    {
      "icao": "EPRZ",
      "alert": "OK",
      "vis_m": 9999,
      "fzfg": false,
      "metar_trigger": false,
      "taf_trigger": false,
      "metar": "METAR EPRZ 142200Z 09010KT CAVOK 06/M00 Q1008",
      "taf": "TAF EPRZ 141730Z 1418/1518 10005KT CAVOK"
    },
    {
      "icao": "EPSC",
      "alert": "OK",
      "vis_m": 9999,
      "fzfg": false,
      "metar_trigger": false,
      "taf_trigger": false,
      "metar": "METAR EPSC 142200Z 36008KT 320V030 9999 BKN003 FEW007TCU 04/04 Q1004",
      "taf": ""
    },
    {
      "icao": "EPSY",
      "alert": "OK",
      "vis_m": 9999,
      "fzfg": false,
      "metar_trigger": false,
      "taf_trigger": false,
      "metar": "METAR EPSY 142200Z 14006KT 100V190 CAVOK 10/M02 Q1007",
      "taf": "TAF EPSY 142030Z 1421/1506 14008KT CAVOK"
    },
    {
      "icao": "EPWA",
      "alert": "OK",
      "vis_m": 9999,
      "fzfg": false,
      "metar_trigger": false,
      "taf_trigger": false,
      "metar": "METAR EPWA 142200Z 13013KT CAVOK 10/M03 Q1007 NOSIG",
      "taf": "TAF EPWA 142030Z 1421/1521 14010KT CAVOK"
    },
    {
      "icao": "EPWR",
      "alert": "OK",
      "vis_m": 9999,
      "fzfg": false,
      "metar_trigger": false,
      "taf_trigger": false,
      "metar": "METAR EPWR 142200Z 13010KT CAVOK 12/03 Q1002",
      "taf": "TAF EPWR 142030Z 1421/1521 13010KT CAVOK"
    },
    {
      "icao": "ESGG",
      "alert": "OK",
      "vis_m": 4900,
      "fzfg": false,
      "metar_trigger": false,
      "taf_trigger": false,
      "metar": "METAR ESGG 142150Z 16004KT 4900 BR OVC003 02/02 Q1005",
      "taf": "TAF ESGG 142030Z 1421/1521 18005KT 5000 OVC003"
    },
    {
      "icao": "ESKN",
      "alert": "OK",
      "vis_m": 8000,
      "fzfg": false,
      "metar_trigger": false,
      "taf_trigger": false,
      "metar": "METAR ESKN 142150Z 28007KT 8000 BKN002 02/02 Q1005",
      "taf": "TAF ESKN 142030Z 1421/1521 30004KT 6000 -RA BKN008"
    },
    {
      "icao": "ESMS",
      "alert": "OK",
      "vis_m": 9999,
      "fzfg": false,
      "metar_trigger": false,
      "taf_trigger": false,
      "metar": "METAR ESMS 142150Z 33005KT CAVOK 03/03 Q1005",
      "taf": "TAF ESMS 142027Z 1421/1521 35012KT 9999 SCT020"
    },
    {
      "icao": "ESSA",
      "alert": "OK",
      "vis_m": 9999,
      "fzfg": false,
      "metar_trigger": false,
      "taf_trigger": false,
      "metar": "METAR ESSA 142150Z 00000KT 9999 BKN046 02/01 Q1004 NOSIG",
      "taf": ""
    },
    {
      "icao": "EYKA",
      "alert": "OK",
      "vis_m": 9999,
      "fzfg": false,
      "metar_trigger": false,
      "taf_trigger": false,
      "metar": "METAR EYKA 142150Z 14011KT CAVOK 09/M04 Q1012",
      "taf": "TAF EYKA 141707Z 1418/1518 14008KT 9000 NSC"
    },
    {
      "icao": "EYPA",
      "alert": "OK",
      "vis_m": 9999,
      "fzfg": false,
      "metar_trigger": false,
      "taf_trigger": false,
      "metar": "METAR EYPA 142150Z 15012KT CAVOK 10/00 Q1007",
      "taf": "TAF EYPA 141706Z 1418/1518 15008KT 9000 SCT030"
    },
    {
      "icao": "EYVI",
      "alert": "OK",
      "vis_m": 9999,
      "fzfg": false,
      "metar_trigger": false,
      "taf_trigger": false,
      "metar": "METAR EYVI 142150Z 15012KT CAVOK 07/M03 Q1014 NOSIG",
      "taf": "TAF EYVI 141707Z 1418/1518 15011KT 9000 NSC"
    },
    {
      "icao": "GCFV",
      "alert": "OK",
      "vis_m": 9999,
      "fzfg": false,
      "metar_trigger": false,
      "taf_trigger": false,
      "metar": "METAR GCFV 142200Z 03018KT 9999 FEW020 BKN025 17/11 Q1020",
      "taf": "TAF GCFV 142000Z 1421/1521 03016KT 9999 FEW025 TX20/1514Z TN16/1506Z"
    },
    {
      "icao": "GCLP",
      "alert": "OK",
      "vis_m": 9999,
      "fzfg": false,
      "metar_trigger": false,
      "taf_trigger": false,
      "metar": "METAR GCLP 142200Z 01020KT 9999 BKN030 17/11 Q1020 NOSIG",
      "taf": "TAF GCLP 142000Z 1421/1521 01020KT 9999 SCT025 TX20/1514Z TN16/1506Z"
    },
    {
      "icao": "GCTS",
      "alert": "OK",
      "vis_m": 9999,
      "fzfg": false,
      "metar_trigger": false,
      "taf_trigger": false,
      "metar": "METAR GCTS 142200Z 07019KT 9999 FEW030 17/10 Q1019 NOSIG",
      "taf": "TAF GCTS 142000Z 1421/1521 05018KT 9999 FEW030 TX23/1514Z TN16/1506Z"
    },
    {
      "icao": "GMAD",
      "alert": "OK",
      "vis_m": 8000,
      "fzfg": false,
      "metar_trigger": false,
      "taf_trigger": false,
      "metar": "METAR GMAD 142200Z 00000KT 8000 NSC 13/11 Q1016 NOSIG",
      "taf": "TAF GMAD 141700Z 1418/1524 22011KT 6000 NSC"
    },
    {
      "icao": "GMMN",
      "alert": "OK",
      "vis_m": 9999,
      "fzfg": false,
      "metar_trigger": false,
      "taf_trigger": false,
      "metar": "METAR GMMN 142200Z 35005KT 9999 FEW010 BKN026 13/11 Q1021 NOSIG",
      "taf": "TAF GMMN 141700Z 1418/1524 33006KT 9999 BKN030"
    },
    {
      "icao": "GMMX",
      "alert": "OK",
      "vis_m": 8000,
      "fzfg": false,
      "metar_trigger": false,
      "taf_trigger": false,
      "metar": "METAR GMMX 142200Z 04005KT 360V070 8000 SCT026 13/08 Q1019 NOSIG",
      "taf": "TAF GMMX 141700Z 1418/1524 06006KT 8000 SCT023"
    },
    {
      "icao": "HEGN",
      "alert": "OK",
      "vis_m": 4000,
      "fzfg": false,
      "metar_trigger": false,
      "taf_trigger": false,
      "metar": "METAR HEGN 142100Z 34012KT 4000 SA SCT020 BKN025 22/13 Q1003 NOSIG",
      "taf": "TAF HEGN 141706Z 1418/1524 33015G25KT 6000 SCT025"
    },
    {
      "icao": "HEMA",
      "alert": "OK",
      "vis_m": 9999,
      "fzfg": false,
      "metar_trigger": false,
      "taf_trigger": false,
      "metar": "METAR HEMA 142100Z 32013KT CAVOK 25/21 Q1003 NOSIG",
      "taf": "TAF HEMA 141706Z 1418/1524 32015G25KT 6000 SCT025"
    },
    {
      "icao": "HESH",
      "alert": "OK",
      "vis_m": 9999,
      "fzfg": false,
      "metar_trigger": false,
      "taf_trigger": false,
      "metar": "METAR HESH 142100Z 00000KT CAVOK 24/19 Q1002 NOSIG",
      "taf": "TAF HESH 141706Z 1418/1524 35015G25KT 6000 SCT025"
    },
    {
      "icao": "HESX",
      "alert": "OK",
      "vis_m": 9999,
      "fzfg": false,
      "metar_trigger": false,
      "taf_trigger": false,
      "metar": "METAR HESX 142100Z 24010KT CAVOK 13/09 Q1007 NOSIG",
      "taf": "TAF HESX 141706Z 1418/1524 20020G30KT 6000 BKN025"
    },
    {
      "icao": "LATI",
      "alert": "OK",
      "vis_m": null,
      "fzfg": false,
      "metar_trigger": false,
      "taf_trigger": false,
      "metar": "",
      "taf": "TAF LATI 141700Z 1418/1518 VRB04KT CAVOK TX20/1512Z TN03/1504Z"
    },
    {
      "icao": "LBPD",
      "alert": "OK",
      "vis_m": 9999,
      "fzfg": false,
      "metar_trigger": false,
      "taf_trigger": false,
      "metar": "METAR LBPD 142200Z AUTO 13006KT 9999 FEW067/// 03/02 Q1013",
      "taf": "TAF LBPD 141700Z 1418/1518 10010KT CAVOK"
    },
    {
      "icao": "LBSF",
      "alert": "OK",
      "vis_m": 9999,
      "fzfg": false,
      "metar_trigger": false,
      "taf_trigger": false,
      "metar": "METAR LBSF 142200Z AUTO 10013KT 9999 FEW085/// 04/M01 Q1011 NOSIG",
      "taf": "TAF LBSF 141700Z 1418/1518 10010KT CAVOK"
    },
    {
      "icao": "LBWN",
      "alert": "OK",
      "vis_m": 9999,
      "fzfg": false,
      "metar_trigger": false,
      "taf_trigger": false,
      "metar": "METAR LBWN 142200Z AUTO 30003KT 250V040 9999 SCT012/// 05/04 Q1012 NOSIG",
      "taf": "TAF LBWN 141700Z 1418/1518 06008KT 9999 SCT015"
    },
    {
      "icao": "LCLK",
      "alert": "OK",
      "vis_m": 9999,
      "fzfg": false,
      "metar_trigger": false,
      "taf_trigger": false,
      "metar": "METAR LCLK 142200Z 18018KT 9999 FEW020 FEW030CB SCT050 17/15 Q0999 NOSIG RMK CB TO N",
      "taf": "TAF LCLK 141730Z 1418/1518 05022KT 9999 SCT025"
    },
    {
      "icao": "LCPH",
      "alert": "OK",
      "vis_m": 9999,
      "fzfg": false,
      "metar_trigger": false,
      "taf_trigger": false,
      "metar": "METAR LCPH 142200Z 11020KT 090V160 9999 FEW020 BKN035 17/13 Q0996 NOSIG",
      "taf": ""
    },
    {
      "icao": "LEAL",
      "alert": "OK",
      "vis_m": 9999,
      "fzfg": false,
      "metar_trigger": false,
      "taf_trigger": false,
      "metar": "SPECI LEAL 142209Z 32011KT 280V350 9999 -RA FEW035 OVC050 15/10 Q1008 RERA NOSIG",
      "taf": "TAF LEAL 141700Z 1418/1518 30015KT 9999 FEW020 TX20/1512Z TN08/1506Z"
    },
    {
      "icao": "LEBB",
      "alert": "OK",
      "vis_m": 8000,
      "fzfg": false,
      "metar_trigger": false,
      "taf_trigger": false,
      "metar": "METAR LEBB 142200Z 31003KT 240V350 8000 -RA FEW019 BKN028 BKN042 09/07 Q1015 RERA NOSIG",
      "taf": "TAF LEBB 141700Z 1418/1518 28009KT 9999 SCT015 BKN025 TX12/1512Z TN08/1506Z"
    },
    {
      "icao": "LEBL",
      "alert": "OK",
      "vis_m": 9999,
      "fzfg": false,
      "metar_trigger": false,
      "taf_trigger": false,
      "metar": "METAR LEBL 142200Z 31006KT 9999 FEW015 07/06 Q1006 NOSIG",
      "taf": ""
    },
    {
      "icao": "LECH",
      "alert": "OK",
      "vis_m": 9999,
      "fzfg": false,
      "metar_trigger": false,
      "taf_trigger": false,
      "metar": "METAR LECH 142200Z AUTO 31004KT 270V050 CAVOK 09/M00 Q1008",
      "taf": ""
    },
    {
      "icao": "LEMD",
      "alert": "OK",
      "vis_m": 9999,
      "fzfg": false,
      "metar_trigger": false,
      "taf_trigger": false,
      "metar": "METAR LEMD 142200Z 06003KT 9999 SCT047 BKN058 10/04 Q1011 NOSIG",
      "taf": ""
    },
    {
      "icao": "LEMG",
      "alert": "OK",
      "vis_m": 9999,
      "fzfg": false,
      "metar_trigger": false,
      "taf_trigger": false,
      "metar": "METAR LEMG 142200Z 29004KT 250V330 9999 BKN042 16/10 Q1014 NOSIG",
      "taf": "TAF LEMG 141700Z 1418/1518 29010KT 9999 FEW030 SCT040 TX18/1515Z TN11/1507Z"
    },
    {
      "icao": "LEVC",
      "alert": "OK",
      "vis_m": 9999,
      "fzfg": false,
      "metar_trigger": false,
      "taf_trigger": false,
      "metar": "METAR LEVC 142200Z 33011KT 9999 SCT058 14/03 Q1009 NOSIG",
      "taf": "TAF LEVC 141700Z 1418/1518 VRB04KT 9999 FEW030 BKN060 TX18/1512Z TN08/1506Z"
    },
    {
      "icao": "LEXJ",
      "alert": "OK",
      "vis_m": 9999,
      "fzfg": false,
      "metar_trigger": false,
      "taf_trigger": false,
      "metar": "METAR LEXJ 142200Z 33006KT 290V010 9999 SCT020 BKN031 BKN043 09/05 Q1015",
      "taf": "TAF LEXJ 142000Z 1421/1521 29009KT 9999 SCT015 BKN025 TX13/1513Z TN09/1505Z"
    },
    {
      "icao": "LEZG",
      "alert": "OK",
      "vis_m": 9999,
      "fzfg": false,
      "metar_trigger": false,
      "taf_trigger": false,
      "metar": "METAR LEZG 142200Z 28015KT 9999 FEW065 BKN085 08/04 Q1011 NOSIG",
      "taf": "TAF LEZG 141700Z 1418/1518 30015KT 9999 FEW050 SCT070 TX13/1514Z TN06/1506Z"
    },
    {
      "icao": "LEZL",
      "alert": "OK",
      "vis_m": 9999,
      "fzfg": false,
      "metar_trigger": false,
      "taf_trigger": false,
      "metar": "METAR LEZL 142200Z 26011KT 230V290 9999 OVC029 16/12 Q1016 NOSIG",
      "taf": "TAF LEZL 142000Z 1421/1521 28010KT 9999 SCT035 TX21/1515Z TN10/1507Z"
    },
    {
      "icao": "LFBD",
      "alert": "OK",
      "vis_m": 9999,
      "fzfg": false,
      "metar_trigger": false,
      "taf_trigger": false,
      "metar": "METAR LFBD 142200Z AUTO 30005KT 9999 SCT034 SCT240 06/04 Q1013 NOSIG",
      "taf": "TAF LFBD 141700Z 1418/1524 29005KT CAVOK TX14/1514Z TN02/1506Z"
    },
    {
      "icao": "LFLL",
      "alert": "OK",
      "vis_m": 9999,
      "fzfg": false,
      "metar_trigger": false,
      "taf_trigger": false,
      "metar": "METAR LFLL 142200Z 34010KT CAVOK 04/02 Q1008 NOSIG",
      "taf": "TAF LFLL 141700Z 1418/1524 36010KT 9999 BKN030"
    },
    {
      "icao": "LFLS",
      "alert": "OK",
      "vis_m": 9999,
      "fzfg": false,
      "metar_trigger": false,
      "taf_trigger": false,
      "metar": "METAR LFLS 142200Z AUTO 35009KT 320V020 9999 BKN012 BKN017 BKN120 03/01 Q1006",
      "taf": ""
    },
    {
      "icao": "LFMN",
      "alert": "OK",
      "vis_m": 9999,
      "fzfg": false,
      "metar_trigger": false,
      "taf_trigger": false,
      "metar": "METAR LFMN 142200Z 10011KT 9999 FEW030 SCT070 BKN130 13/07 Q0995 NOSIG",
      "taf": "TAF LFMN 142000Z 1421/1603 34012KT 9999 SCT040 BKN100"
    },
    {
      "icao": "LFOB",
      "alert": "OK",
      "vis_m": 9999,
      "fzfg": false,
      "metar_trigger": false,
      "taf_trigger": false,
      "metar": "METAR LFOB 142200Z AUTO 31008KT CAVOK 03/01 Q1011 NOSIG",
      "taf": ""
    },
    {
      "icao": "LFPO",
      "alert": "OK",
      "vis_m": 9999,
      "fzfg": false,
      "metar_trigger": false,
      "taf_trigger": false,
      "metar": "METAR LFPO 142200Z 36008KT CAVOK 05/00 Q1012 NOSIG",
      "taf": "TAF LFPO 141700Z 1418/1524 30005KT CAVOK"
    },
    {
      "icao": "LFSB",
      "alert": "OK",
      "vis_m": 9999,
      "fzfg": false,
      "metar_trigger": false,
      "taf_trigger": false,
      "metar": "METAR LFSB 142200Z AUTO 23002KT CAVOK 04/02 Q1009 NOSIG",
      "taf": "TAF LFSB 141700Z 1418/1518 17003KT CAVOK"
    },
    {
      "icao": "LGAV",
      "alert": "OK",
      "vis_m": 9999,
      "fzfg": false,
      "metar_trigger": false,
      "taf_trigger": false,
      "metar": "METAR LGAV 142150Z 36007KT 9999 FEW030 07/01 Q1010 NOSIG",
      "taf": "TAF LGAV 141700Z 1418/1518 01008KT 9999 SCT030"
    },
    {
      "icao": "LGTS",
      "alert": "OK",
      "vis_m": 9999,
      "fzfg": false,
      "metar_trigger": false,
      "taf_trigger": false,
      "metar": "METAR LGTS 142150Z 11008KT 9999 FEW020 07/04 Q1010 NOSIG",
      "taf": "TAF LGTS 141700Z 1418/1518 VRB03KT 9999 FEW030"
    },
    {
      "icao": "LHBP",
      "alert": "OK",
      "vis_m": 9999,
      "fzfg": false,
      "metar_trigger": false,
      "taf_trigger": false,
      "metar": "METAR LHBP 142200Z 12004KT CAVOK 06/00 Q1007 NOSIG",
      "taf": "TAF LHBP 141715Z 1418/1518 12011KT CAVOK"
    },
    {
      "icao": "LHDC",
      "alert": "OK",
      "vis_m": 8000,
      "fzfg": false,
      "metar_trigger": false,
      "taf_trigger": false,
      "metar": "METAR LHDC 142145Z AUTO 07002KT 8000 NCD 04/M03 Q1008",
      "taf": "TAF LHDC 141415Z 1415/1424 13006KT CAVOK"
    },
    {
      "icao": "LIBD",
      "alert": "OK",
      "vis_m": 9999,
      "fzfg": false,
      "metar_trigger": false,
      "taf_trigger": false,
      "metar": "METAR LIBD 142150Z VRB02KT CAVOK 11/09 Q1005",
      "taf": "TAF LIBD 141700Z 1418/1518 16010KT 9999 SCT030"
    },
    {
      "icao": "LIBG",
      "alert": "OK",
      "vis_m": null,
      "fzfg": false,
      "metar_trigger": false,
      "taf_trigger": false,
      "metar": "",
      "taf": "TAF LIBG 141700Z 1418/1503 VRB05KT 9999 SCT020"
    },
    {
      "icao": "LIBP",
      "alert": "OK",
      "vis_m": 9999,
      "fzfg": false,
      "metar_trigger": false,
      "taf_trigger": false,
      "metar": "METAR LIBP 142150Z AUTO VRB02KT 9999 NCD 09/05 Q1002",
      "taf": "TAF LIBP 141700Z 1418/1518 24007KT 9999 FEW060"
    },
    {
      "icao": "LIBR",
      "alert": "OK",
      "vis_m": 9999,
      "fzfg": false,
      "metar_trigger": false,
      "taf_trigger": false,
      "metar": "METAR LIBR 142150Z 17005KT CAVOK 11/09 Q1007",
      "taf": "TAF LIBR 141700Z 1418/1518 20008KT 9999 SCT030"
    },
    {
      "icao": "LICA",
      "alert": "OK",
      "vis_m": 9999,
      "fzfg": false,
      "metar_trigger": false,
      "taf_trigger": false,
      "metar": "METAR LICA 142150Z AUTO 08008KT 9999 NCD 10/09 Q1006",
      "taf": "TAF LICA 141700Z 1418/1518 08014KT 9999 BKN040"
    },
    {
      "icao": "LICC",
      "alert": "OK",
      "vis_m": 9999,
      "fzfg": false,
      "metar_trigger": false,
      "taf_trigger": false,
      "metar": "METAR LICC 142150Z 28008KT 9999 SCT050 12/09 Q1006",
      "taf": "TAF LICC 141700Z 1418/1518 13010KT 9999 SCT030"
    },
    {
      "icao": "LICJ",
      "alert": "OK",
      "vis_m": 9999,
      "fzfg": false,
      "metar_trigger": false,
      "taf_trigger": false,
      "metar": "METAR LICJ 142150Z 19008KT CAVOK 13/05 Q1004",
      "taf": "TAF LICJ 141700Z 1418/1518 06008KT 9999 FEW040"
    },
    {
      "icao": "LIMC",
      "alert": "OK",
      "vis_m": 4000,
      "fzfg": false,
      "metar_trigger": false,
      "taf_trigger": false,
      "metar": "METAR LIMC 142150Z 01015KT 4000 RA BKN010 05/04 Q0999 NOSIG",
      "taf": "TAF LIMC 141700Z 1418/1524 10010KT 4000 RA BKN030"
    },
    {
      "icao": "LIME",
      "alert": "OK",
      "vis_m": 9999,
      "fzfg": false,
      "metar_trigger": false,
      "taf_trigger": false,
      "metar": "METAR LIME 142150Z 07011KT 9999 -RA SCT040 BKN050 11/06 Q0999 NOSIG",
      "taf": "TAF LIME 141700Z 1418/1518 08010KT 7000 RA BKN040"
    },
    {
      "icao": "LIMF",
      "alert": "OK",
      "vis_m": 9000,
      "fzfg": false,
      "metar_trigger": false,
      "taf_trigger": false,
      "metar": "METAR LIMF 142150Z 32006KT 9000 RA FEW010 OVC030 06/04 Q0998",
      "taf": "TAF LIMF 141700Z 1418/1518 34006KT 4000 RA FEW010 BKN030"
    },
    {
      "icao": "LIMJ",
      "alert": "OK",
      "vis_m": 5000,
      "fzfg": false,
      "metar_trigger": false,
      "taf_trigger": false,
      "metar": "METAR LIMJ 142150Z 36003KT 340V040 5000 RA SCT013 BKN022 BKN045 11/10 Q0996",
      "taf": "TAF LIMJ 141700Z 1418/1518 17016G30KT 9999 RA BKN020"
    },
    {
      "icao": "LIPE",
      "alert": "OK",
      "vis_m": 9999,
      "fzfg": false,
      "metar_trigger": false,
      "taf_trigger": false,
      "metar": "METAR LIPE 142150Z 14012KT 9999 SCT074 14/05 Q1000",
      "taf": "TAF LIPE 141700Z 1418/1518 09007KT 9999 FEW060"
    },
    {
      "icao": "LIPH",
      "alert": "OK",
      "vis_m": 9999,
      "fzfg": false,
      "metar_trigger": false,
      "taf_trigger": false,
      "metar": "METAR LIPH 142150Z 10007KT 9999 BKN012 13/12 Q1002",
      "taf": "TAF LIPH 141700Z 1418/1518 06010KT 9000 SCT040"
    },
    {
      "icao": "LIPQ",
      "alert": "OK",
      "vis_m": 9999,
      "fzfg": false,
      "metar_trigger": false,
      "taf_trigger": false,
      "metar": "METAR LIPQ 142150Z AUTO 07005KT 9999 BKN073/// OVC097/// 12/08 Q1004",
      "taf": "TAF LIPQ 141700Z 1418/1518 VRB05KT 9999 SCT040"
    },
    {
      "icao": "LIPR",
      "alert": "OK",
      "vis_m": 9999,
      "fzfg": false,
      "metar_trigger": false,
      "taf_trigger": false,
      "metar": "METAR LIPR 142150Z 15003KT 100V190 CAVOK 11/07 Q1001",
      "taf": "TAF LIPR 141700Z 1418/1518 14007KT 9999 SCT040"
    },
    {
      "icao": "LIPX",
      "alert": "OK",
      "vis_m": 9999,
      "fzfg": false,
      "metar_trigger": false,
      "taf_trigger": false,
      "metar": "METAR LIPX 142150Z 08009KT 9999 FEW015 BKN060 12/10 Q1000",
      "taf": "TAF LIPX 141700Z 1418/1518 09012KT 8000 BKN060"
    },
    {
      "icao": "LIPY",
      "alert": "OK",
      "vis_m": 9999,
      "fzfg": false,
      "metar_trigger": false,
      "taf_trigger": false,
      "metar": "METAR LIPY 142150Z AUTO 18002KT 9999 NCD 10/09 Q1002",
      "taf": "TAF LIPY 141700Z 1418/1518 VRB05KT 9999 SCT060"
    },
    {
      "icao": "LIPZ",
      "alert": "OK",
      "vis_m": 9999,
      "fzfg": false,
      "metar_trigger": false,
      "taf_trigger": false,
      "metar": "METAR LIPZ 142150Z 13014KT 9999 FEW025 BKN060 14/12 Q1002 NOSIG",
      "taf": "TAF LIPZ 141700Z 1418/1524 15013KT 9999 SCT040"
    },
    {
      "icao": "LIRF",
      "alert": "OK",
      "vis_m": 9999,
      "fzfg": false,
      "metar_trigger": false,
      "taf_trigger": false,
      "metar": "METAR LIRF 142150Z 12013KT 9999 FEW030 BKN055 12/08 Q1002 NOSIG",
      "taf": "TAF LIRF 141700Z 1418/1524 14013KT 9999 BKN025"
    },
    {
      "icao": "LIRN",
      "alert": "OK",
      "vis_m": 9999,
      "fzfg": false,
      "metar_trigger": false,
      "taf_trigger": false,
      "metar": "METAR LIRN 142150Z 17003KT 070V220 9999 SCT050 13/08 Q1005 NOSIG",
      "taf": "TAF LIRN 141700Z 1418/1518 21010KT 9999 BKN030"
    },
    {
      "icao": "LIRP",
      "alert": "OK",
      "vis_m": 9999,
      "fzfg": false,
      "metar_trigger": false,
      "taf_trigger": false,
      "metar": "METAR LIRP 142145Z 10013KT 9999 SCT030 13/09 Q0998 WS RWY 03R NOSIG",
      "taf": "TAF LIRP 141700Z 1418/1518 10012KT 9999 SCT020 SCT050"
    },
    {
      "icao": "LIRZ",
      "alert": "OK",
      "vis_m": 9999,
      "fzfg": false,
      "metar_trigger": false,
      "taf_trigger": false,
      "metar": "METAR LIRZ 142150Z AUTO 14003KT 100V180 9999 FEW200/// 11/07 Q1002",
      "taf": "TAF LIRZ 141700Z 1418/1518 19010KT 9999 BKN030"
    },
    {
      "icao": "LJLJ",
      "alert": "OK",
      "vis_m": 9999,
      "fzfg": false,
      "metar_trigger": false,
      "taf_trigger": false,
      "metar": "METAR LJLJ 142200Z 00000KT 9999 0800SE R30/1300N PRFG FEW001 SCT055 BKN240 04/04 Q1005 NOSIG",
      "taf": "TAF LJLJ 141700Z 1418/1518 VRB02KT 9999 BKN030"
    },
    {
      "icao": "LKMT",
      "alert": "OK",
      "vis_m": 9999,
      "fzfg": false,
      "metar_trigger": false,
      "taf_trigger": false,
      "metar": "METAR LKMT 142200Z 15007KT CAVOK 13/00 Q1004 NOSIG",
      "taf": "TAF LKMT 141700Z 1418/1518 18014KT CAVOK"
    },
    {
      "icao": "LKPR",
      "alert": "OK",
      "vis_m": 9999,
      "fzfg": false,
      "metar_trigger": false,
      "taf_trigger": false,
      "metar": "METAR LKPR 142200Z 31010KT CAVOK 06/04 Q1003 NOSIG",
      "taf": "TAF LKPR 142000Z 1421/1603 32010KT CAVOK"
    },
    {
      "icao": "LLBG",
      "alert": "OK",
      "vis_m": 9999,
      "fzfg": false,
      "metar_trigger": false,
      "taf_trigger": false,
      "metar": "METAR LLBG 142150Z 23006KT 9999 BKN050 18/12 Q1005 NOSIG",
      "taf": ""
    },
    {
      "icao": "LMML",
      "alert": "OK",
      "vis_m": 9999,
      "fzfg": false,
      "metar_trigger": false,
      "taf_trigger": false,
      "metar": "METAR LMML 142215Z 17006KT 9999 FEW018 12/10 Q1007 NOSIG",
      "taf": "TAF LMML 141700Z 1418/1518 23010KT 9999 FEW018"
    },
    {
      "icao": "LOWW",
      "alert": "OK",
      "vis_m": 9999,
      "fzfg": false,
      "metar_trigger": false,
      "taf_trigger": false,
      "metar": "METAR LOWW 142150Z 18011KT CAVOK 11/04 Q1004 NOSIG",
      "taf": "TAF LOWW 142015Z 1421/1603 15012KT CAVOK TX14/1515Z TN05/1505Z"
    },
    {
      "icao": "LPFR",
      "alert": "OK",
      "vis_m": 9999,
      "fzfg": false,
      "metar_trigger": false,
      "taf_trigger": false,
      "metar": "METAR LPFR 142200Z 27012KT 9999 FEW006 SCT038 15/13 Q1017",
      "taf": "TAF LPFR 141700Z 1418/1518 30015KT 9999 SCT030"
    },
    {
      "icao": "LPMA",
      "alert": "OK",
      "vis_m": 9999,
      "fzfg": false,
      "metar_trigger": false,
      "taf_trigger": false,
      "metar": "METAR LPMA 142200Z 02014G24KT 350V050 9999 VCSH BKN015 16/11 Q1024",
      "taf": "TAF LPMA 141700Z 1418/1518 01012KT 9999 SCT015"
    },
    {
      "icao": "LPPR",
      "alert": "OK",
      "vis_m": 9999,
      "fzfg": false,
      "metar_trigger": false,
      "taf_trigger": false,
      "metar": "METAR LPPR 142200Z 32008KT 9999 FEW008 12/11 Q1017",
      "taf": "TAF LPPR 141700Z 1418/1518 31012KT 2000 -DZRA BR SCT002 BKN004"
    },
    {
      "icao": "LPPS",
      "alert": "OK",
      "vis_m": 9999,
      "fzfg": false,
      "metar_trigger": false,
      "taf_trigger": false,
      "metar": "METAR LPPS 142200Z 04009KT 010V070 9999 FEW014 BKN030 15/12 Q1024",
      "taf": "TAF LPPS 141700Z 1418/1524 02012KT 9999 SCT015 BKN030"
    },
    {
      "icao": "LPPT",
      "alert": "OK",
      "vis_m": 9999,
      "fzfg": false,
      "metar_trigger": false,
      "taf_trigger": false,
      "metar": "METAR LPPT 142200Z 34015G25KT 9999 FEW010 BKN016 13/12 Q1018 WS R02",
      "taf": "TAF LPPT 141700Z 1418/1524 29010KT 9999 SCT008 SCT015"
    },
    {
      "icao": "LQBK",
      "alert": "OK",
      "vis_m": 9999,
      "fzfg": false,
      "metar_trigger": false,
      "taf_trigger": false,
      "metar": "METAR LQBK 142200Z 14004KT CAVOK 10/01 Q1005 NOSIG",
      "taf": "TAF LQBK 141700Z 1418/1518 15005KT CAVOK TX20/1513Z TN04/1505Z"
    },
    {
      "icao": "LQSA",
      "alert": "OK",
      "vis_m": 9999,
      "fzfg": false,
      "metar_trigger": false,
      "taf_trigger": false,
      "metar": "METAR LQSA 142200Z VRB01KT CAVOK 05/00 Q1006",
      "taf": "TAF LQSA 141700Z 1418/1518 16005KT CAVOK TX16/1514Z TN00/1505Z"
    },
    {
      "icao": "LQTZ",
      "alert": "OK",
      "vis_m": 9999,
      "fzfg": false,
      "metar_trigger": false,
      "taf_trigger": false,
      "metar": "METAR LQTZ 142200Z 28003KT 210V350 CAVOK 06/00 Q1005",
      "taf": "TAF LQTZ 141700Z 1418/1518 VRB02KT CAVOK TX20/1513Z TN00/1505Z"
    },
    {
      "icao": "LRBC",
      "alert": "OK",
      "vis_m": 7000,
      "fzfg": false,
      "metar_trigger": false,
      "taf_trigger": false,
      "metar": "METAR LRBC 142200Z 34003KT 7000 NSC 01/00 Q1016",
      "taf": "TAF LRBC 142000Z 1421/1506 VRB04KT CAVOK"
    },
    {
      "icao": "LRBS",
      "alert": "OK",
      "vis_m": 8000,
      "fzfg": false,
      "metar_trigger": false,
      "taf_trigger": false,
      "metar": "METAR LRBS 142200Z 03003KT 8000 NSC 04/02 Q1014 TEMPO 5000 BR",
      "taf": "TAF LRBS 141700Z 1418/1518 06008KT CAVOK"
    },
    {
      "icao": "LRBV",
      "alert": "OK",
      "vis_m": 9999,
      "fzfg": false,
      "metar_trigger": false,
      "taf_trigger": false,
      "metar": "METAR LRBV 142200Z AUTO 10005KT 9999 NCD 01/M06 Q1013",
      "taf": "TAF LRBV 142000Z 1421/1506 12007KT CAVOK"
    },
    {
      "icao": "LRCL",
      "alert": "OK",
      "vis_m": 9999,
      "fzfg": false,
      "metar_trigger": false,
      "taf_trigger": false,
      "metar": "METAR LRCL 142200Z 09008KT 050V120 CAVOK 06/M06 Q1011",
      "taf": "TAF LRCL 142000Z 1421/1506 09007KT CAVOK"
    },
    {
      "icao": "LRCV",
      "alert": "OK",
      "vis_m": 9999,
      "fzfg": false,
      "metar_trigger": false,
      "taf_trigger": false,
      "metar": "METAR LRCV 142200Z 05008KT CAVOK 04/02 Q1013",
      "taf": "TAF LRCV 142000Z 1421/1506 06012KT CAVOK"
    },
    {
      "icao": "LRIA",
      "alert": "OK",
      "vis_m": 9999,
      "fzfg": false,
      "metar_trigger": false,
      "taf_trigger": false,
      "metar": "METAR LRIA 142200Z 07005KT CAVOK 04/01 Q1016",
      "taf": "TAF LRIA 142000Z 1421/1506 14006KT CAVOK"
    },
    {
      "icao": "LROP",
      "alert": "OK",
      "vis_m": 7000,
      "fzfg": false,
      "metar_trigger": false,
      "taf_trigger": false,
      "metar": "METAR LROP 142200Z 04008KT 7000 NSC 04/02 Q1014 TEMPO 5000 BR",
      "taf": "TAF LROP 141700Z 1418/1518 06008KT CAVOK"
    },
    {
      "icao": "LRSB",
      "alert": "OK",
      "vis_m": 9999,
      "fzfg": false,
      "metar_trigger": false,
      "taf_trigger": false,
      "metar": "METAR LRSB 142200Z 18012KT 150V210 CAVOK 08/M07 Q1010",
      "taf": "TAF LRSB 141700Z 1418/1518 18012KT CAVOK"
    },
    {
      "icao": "LRSM",
      "alert": "OK",
      "vis_m": 9999,
      "fzfg": false,
      "metar_trigger": false,
      "taf_trigger": false,
      "metar": "METAR LRSM 142200Z AUTO 12010KT 9999 NCD 10/M06 Q1009",
      "taf": ""
    },
    {
      "icao": "LRSV",
      "alert": "OK",
      "vis_m": 9999,
      "fzfg": false,
      "metar_trigger": false,
      "taf_trigger": false,
      "metar": "METAR LRSV 142200Z 17009KT CAVOK 02/01 Q1015",
      "taf": "TAF LRSV 142000Z 1421/1506 16012KT CAVOK"
    },
    {
      "icao": "LRTM",
      "alert": "OK",
      "vis_m": 9999,
      "fzfg": false,
      "metar_trigger": false,
      "taf_trigger": false,
      "metar": "METAR LRTM 142200Z AUTO 09007KT 9999 NCD 02/M05 Q1012",
      "taf": "TAF LRTM 141400Z 1415/1424 12006KT CAVOK"
    },
    {
      "icao": "LRTR",
      "alert": "OK",
      "vis_m": 9999,
      "fzfg": false,
      "metar_trigger": false,
      "taf_trigger": false,
      "metar": "METAR LRTR 142200Z 11007KT CAVOK 03/M01 Q1009",
      "taf": "TAF LRTR 141700Z 1418/1518 17010KT CAVOK"
    },
    {
      "icao": "LTAC",
      "alert": "OK",
      "vis_m": 9999,
      "fzfg": false,
      "metar_trigger": false,
      "taf_trigger": false,
      "metar": "METAR LTAC 142150Z 06008KT CAVOK 03/M06 Q1006 NOSIG RMK RWY21C 04004KT 010V090 RWY03L 05007KT RWY21R 01007KT RWY03R 03008KT RWY21L 06006KT",
      "taf": "TAF LTAC 141640Z 1418/1518 VRB02KT CAVOK"
    },
    {
      "icao": "LTFM",
      "alert": "OK",
      "vis_m": 9999,
      "fzfg": false,
      "metar_trigger": false,
      "taf_trigger": false,
      "metar": "METAR LTFM 142150Z 05011KT 9999 FEW012 BKN022 08/05 Q1010 NOSIG RMK RWY17L 06009KT RWY34L 04009KT RWY16R 04008KT RWY36 05009KT RWY18 06008KT",
      "taf": "TAF LTFM 141640Z 1418/1524 04012KT 9999 BKN023"
    },
    {
      "icao": "LUKK",
      "alert": "OK",
      "vis_m": 9999,
      "fzfg": false,
      "metar_trigger": false,
      "taf_trigger": false,
      "metar": "METAR LUKK 142200Z 10006KT CAVOK 04/01 Q1017 NOSIG",
      "taf": "TAF LUKK 141703Z 1418/1518 VRB05KT CAVOK"
    },
    {
      "icao": "LWOH",
      "alert": "OK",
      "vis_m": null,
      "fzfg": false,
      "metar_trigger": false,
      "taf_trigger": false,
      "metar": "",
      "taf": "TAF LWOH 142010Z 1421/1521 VRB02KT FEW040"
    },
    {
      "icao": "LWSK",
      "alert": "OK",
      "vis_m": 9999,
      "fzfg": false,
      "metar_trigger": false,
      "taf_trigger": false,
      "metar": "METAR LWSK 142150Z 10003KT 020V140 CAVOK 06/01 Q1009 NOSIG",
      "taf": "TAF LWSK 142010Z 1421/1521 VRB02KT CAVOK"
    },
    {
      "icao": "LYBE",
      "alert": "OK",
      "vis_m": 9999,
      "fzfg": false,
      "metar_trigger": false,
      "taf_trigger": false,
      "metar": "METAR LYBE 142200Z 13017KT CAVOK 10/M00 Q1008 NOSIG",
      "taf": "TAF LYBE 141700Z 1418/1518 12016KT CAVOK TX18/1513Z TN07/1505Z"
    },
    {
      "icao": "LYNI",
      "alert": "OK",
      "vis_m": 9999,
      "fzfg": false,
      "metar_trigger": false,
      "taf_trigger": false,
      "metar": "METAR LYNI 142200Z 02005KT CAVOK 10/00 Q1009 NOSIG",
      "taf": "TAF LYNI 141700Z 1418/1518 04005KT CAVOK TX18/1513Z TN03/1505Z"
    },
    {
      "icao": "LYPG",
      "alert": "OK",
      "vis_m": 9999,
      "fzfg": false,
      "metar_trigger": false,
      "taf_trigger": false,
      "metar": "METAR LYPG 142200Z 35004KT CAVOK 09/05 Q1008 NOSIG",
      "taf": "TAF LYPG 141700Z 1418/1518 02005KT CAVOK TX21/1514Z TN06/1505Z"
    },
    {
      "icao": "LZIB",
      "alert": "OK",
      "vis_m": 9999,
      "fzfg": false,
      "metar_trigger": false,
      "taf_trigger": false,
      "metar": "METAR LZIB 142200Z 00000KT CAVOK 08/02 Q1005 NOSIG",
      "taf": "TAF LZIB 141715Z 1418/1518 16008KT CAVOK"
    },
    {
      "icao": "LZKZ",
      "alert": "OK",
      "vis_m": 9999,
      "fzfg": false,
      "metar_trigger": false,
      "taf_trigger": false,
      "metar": "METAR LZKZ 142200Z 34004KT CAVOK 06/M03 Q1009 NOSIG",
      "taf": "TAF LZKZ 141715Z 1418/1518 VRB02KT CAVOK"
    },
    {
      "icao": "LZTT",
      "alert": "OK",
      "vis_m": 9999,
      "fzfg": false,
      "metar_trigger": false,
      "taf_trigger": false,
      "metar": "METAR LZTT 142200Z 28007KT CAVOK 02/M04 Q1008",
      "taf": "TAF LZTT 141715Z 1418/1518 27005KT CAVOK"
    },
    {
      "icao": "OEJN",
      "alert": "OK",
      "vis_m": 9999,
      "fzfg": false,
      "metar_trigger": false,
      "taf_trigger": false,
      "metar": "METAR OEJN 142200Z 15010KT CAVOK 29/15 Q1006 NOSIG",
      "taf": "TAF OEJN 141700Z 1418/1524 18008KT 7000 NSC"
    },
    {
      "icao": "OEMA",
      "alert": "OK",
      "vis_m": 9999,
      "fzfg": false,
      "metar_trigger": false,
      "taf_trigger": false,
      "metar": "METAR OEMA 142200Z 20008KT CAVOK 28/12 Q1010 NOSIG",
      "taf": "TAF OEMA 141700Z 1418/1524 22005KT CAVOK"
    },
    {
      "icao": "OJAI",
      "alert": "OK",
      "vis_m": 4000,
      "fzfg": false,
      "metar_trigger": false,
      "taf_trigger": false,
      "metar": "METAR OJAI 142200Z 29006KT 4000 MIFG SCT030 12/09 Q1006 NOSIG",
      "taf": "TAF OJAI 141700Z 1418/1524 21012KT 3500 -RA FEW035TCU SCT045"
    },
    {
      "icao": "OMAA",
      "alert": "OK",
      "vis_m": null,
      "fzfg": false,
      "metar_trigger": false,
      "taf_trigger": false,
      "metar": "",
      "taf": ""
    },
    {
      "icao": "OMDB",
      "alert": "OK",
      "vis_m": null,
      "fzfg": false,
      "metar_trigger": false,
      "taf_trigger": false,
      "metar": "",
      "taf": ""
    },
    {
      "icao": "UAAA",
      "alert": "OK",
      "vis_m": 9999,
      "fzfg": false,
      "metar_trigger": false,
      "taf_trigger": false,
      "metar": "METAR UAAA 142200Z 24002MPS 9999 BKN200 M03/M06 Q1023 NOSIG",
      "taf": "TAF UAAA 141700Z 1418/1518 22003MPS 3100 BR FU SCT100 TX06/1509Z TNM06/1501Z"
    },
    {
      "icao": "UBBB",
      "alert": "OK",
      "vis_m": 9999,
      "fzfg": false,
      "metar_trigger": false,
      "taf_trigger": false,
      "metar": "METAR UBBB 142200Z 12004KT 9999 SCT023 09/06 Q1022 NOSIG",
      "taf": "TAF UBBB 141710Z 1418/1518 15008KT 9999 BKN030 TX12/1510Z TN04/1502Z"
    },
    {
      "icao": "UDSG",
      "alert": "OK",
      "vis_m": 650,
      "fzfg": false,
      "metar_trigger": false,
      "taf_trigger": false,
      "metar": "METAR UDSG 142200Z 25003KT 0650 R02/1700U SN FG SCT006 OVC020 00/00 Q1015 NOSIG",
      "taf": "TAF UDSG 141700Z 1418/1518 VRB06KT 1000 BR OVC010"
    },
    {
      "icao": "UDYZ",
      "alert": "OK",
      "vis_m": 9999,
      "fzfg": false,
      "metar_trigger": false,
      "taf_trigger": false,
      "metar": "METAR UDYZ 142200Z 21002KT 9999 BKN024CB 07/05 Q1015 NOSIG",
      "taf": "TAF UDYZ 141700Z 1418/1518 04006KT 6000 BKN040"
    },
    {
      "icao": "UGKO",
      "alert": "OK",
      "vis_m": 9999,
      "fzfg": false,
      "metar_trigger": false,
      "taf_trigger": false,
      "metar": "METAR UGKO 142200Z AUTO 08035G48KT CAVOK 12/01 Q1010 NOSIG",
      "taf": "TAF UGKO 141700Z 1418/1518 08031G45KT 9999 BKN080 TX14/1511Z TN10/1503Z"
    }
  ]
}