{
  "ts_utc": "2026-02-16T05:12:23Z",
  "threshold_m": 150,
  "source": "stations_override.txt (ICAO list) + aviationweather.gov (METAR/TAF raw)",
  "station_count": 159,
  "stations": [
    {
      "icao": "BIKF",
      "alert": "OK",
      "vis_m": 9999,
      "fzfg": false,
      "metar_trigger": false,
      "taf_trigger": false,
      "metar": "METAR BIKF 160500Z 03002KT CAVOK M06/M11 Q1007",
      "taf": "TAF BIKF 160435Z 1606/1706 04008KT CAVOK TXM01/1614Z TNM07/1703Z"
    },
    {
      "icao": "BKPR",
      "alert": "OK",
      "vis_m": 9999,
      "fzfg": false,
      "metar_trigger": false,
      "taf_trigger": false,
      "metar": "METAR BKPR 160500Z VRB01KT 9999 SCT015 BKN030 01/M01 Q1007 NOSIG",
      "taf": "TAF BKPR 152330Z 1600/1624 VRB05KT 9999 BKN030"
    },
    {
      "icao": "EBCI",
      "alert": "OK",
      "vis_m": 9999,
      "fzfg": false,
      "metar_trigger": false,
      "taf_trigger": false,
      "metar": "METAR EBCI 160450Z 24011KT 9999 RA SCT014 BKN020 05/04 Q0997 NOSIG",
      "taf": "TAF EBCI 152305Z 1600/1706 24010KT 9999 SCT003 BKN015"
    },
    {
      "icao": "EDDB",
      "alert": "OK",
      "vis_m": 9999,
      "fzfg": false,
      "metar_trigger": false,
      "taf_trigger": false,
      "metar": "METAR EDDB 160450Z AUTO 11013KT CAVOK M05/M09 Q1001 NOSIG",
      "taf": "TAF EDDB 152300Z 1600/1624 10011KT CAVOK"
    },
    {
      "icao": "EDDH",
      "alert": "OK",
      "vis_m": 4600,
      "fzfg": false,
      "metar_trigger": false,
      "taf_trigger": false,
      "metar": "METAR EDDH 160450Z AUTO 13014KT 4600 -SN BR FEW021 SCT032 M04/M06 Q0997 TEMPO BKN008",
      "taf": "TAF EDDH 152300Z 1600/1706 12013KT CAVOK"
    },
    {
      "icao": "EDDK",
      "alert": "OK",
      "vis_m": 9999,
      "fzfg": false,
      "metar_trigger": false,
      "taf_trigger": false,
      "metar": "METAR EDDK 160450Z AUTO 21008KT 9999 -SHRA BKN008 BKN012 BKN020 SCT///TCU 03/02 Q0995 RESHRA TEMPO SHRA BKN012",
      "taf": "TAF EDDK 152300Z 1600/1706 13007KT 8000 SCT006 BKN020"
    },
    {
      "icao": "EDDN",
      "alert": "OK",
      "vis_m": 9999,
      "fzfg": false,
      "metar_trigger": false,
      "taf_trigger": false,
      "metar": "METAR EDDN 160450Z AUTO 14006KT 9999 OVC009 01/M00 Q0996",
      "taf": "TAF EDDN 152300Z 1600/1624 15010KT 4000 -SN BKN007"
    },
    {
      "icao": "EDDS",
      "alert": "OK",
      "vis_m": 9999,
      "fzfg": false,
      "metar_trigger": false,
      "taf_trigger": false,
      "metar": "METAR EDDS 160450Z AUTO 24009KT 210V270 9999 -SHRA FEW036 SCT045 FEW///TCU 04/02 Q0997 RESHRA",
      "taf": "TAF EDDS 152300Z 1600/1624 18006KT 9999 FEW005 BKN020"
    },
    {
      "icao": "EDFH",
      "alert": "OK",
      "vis_m": 9999,
      "fzfg": false,
      "metar_trigger": false,
      "taf_trigger": false,
      "metar": "METAR EDFH 160450Z 27019G29KT 9999 OVC004 03/02 Q0995",
      "taf": ""
    },
    {
      "icao": "EDJA",
      "alert": "OK",
      "vis_m": 9999,
      "fzfg": false,
      "metar_trigger": false,
      "taf_trigger": false,
      "metar": "METAR EDJA 160450Z 22015G28KT 9999 BKN010 OVC060 03/02 Q0997",
      "taf": "TAF EDJA 160200Z 1603/1612 23015G25KT 9999 FEW009 BKN030"
    },
    {
      "icao": "EDLW",
      "alert": "OK",
      "vis_m": 9000,
      "fzfg": false,
      "metar_trigger": false,
      "taf_trigger": false,
      "metar": "METAR EDLW 160450Z 20009KT 9000 -RA SCT006 OVC008 02/01 Q0993",
      "taf": "TAF EDLW 160420Z 1605/1624 23010KT 9999 BKN007"
    },
    {
      "icao": "EDNY",
      "alert": "OK",
      "vis_m": 9999,
      "fzfg": false,
      "metar_trigger": false,
      "taf_trigger": false,
      "metar": "METAR EDNY 160450Z 25013KT 9999 BKN021 BKN044 05/03 Q1000",
      "taf": "TAF EDNY 160200Z 1603/1612 23008KT 9999 FEW010 BKN040"
    },
    {
      "icao": "EDSB",
      "alert": "OK",
      "vis_m": 9999,
      "fzfg": false,
      "metar_trigger": false,
      "taf_trigger": false,
      "metar": "METAR EDSB 160450Z 20013KT 9999 FEW023 SCT032 BKN042 06/04 Q0999",
      "taf": "TAF EDSB 152300Z 1600/1624 21013KT 9999 BKN020"
    },
    {
      "icao": "EETN",
      "alert": "OK",
      "vis_m": 9999,
      "fzfg": false,
      "metar_trigger": false,
      "taf_trigger": false,
      "metar": "METAR EETN 160450Z VRB02KT 9999 OVC023 M06/M08 Q1012 NOSIG",
      "taf": "TAF EETN 152330Z 1600/1624 VRB02KT 9999 SCT008 BKN025"
    },
    {
      "icao": "EFTU",
      "alert": "OK",
      "vis_m": 9999,
      "fzfg": false,
      "metar_trigger": false,
      "taf_trigger": false,
      "metar": "METAR EFTU 160450Z AUTO VRB02KT 9999 -SHSN OVC005 M09/M11 Q1012",
      "taf": "TAF EFTU 160236Z 1603/1703 VRB02KT 9999 OVC006"
    },
    {
      "icao": "EGBB",
      "alert": "OK",
      "vis_m": 9999,
      "fzfg": false,
      "metar_trigger": false,
      "taf_trigger": false,
      "metar": "METAR EGBB 160450Z COR 21004KT 9999 BKN035 05/02 Q0993",
      "taf": "TAF EGBB 160458Z 1606/1706 23009KT 9999 SCT030"
    },
    {
      "icao": "EGGP",
      "alert": "OK",
      "vis_m": 9999,
      "fzfg": false,
      "metar_trigger": false,
      "taf_trigger": false,
      "metar": "METAR EGGP 160450Z 26016KT 9999 FEW026 BKN035 05/03 Q0992",
      "taf": "TAF EGGP 160454Z 1606/1706 26014KT 9999 SCT025"
    },
    {
      "icao": "EGGW",
      "alert": "OK",
      "vis_m": 9999,
      "fzfg": false,
      "metar_trigger": false,
      "taf_trigger": false,
      "metar": "METAR EGGW 160450Z 25013KT 9999 SCT037 05/03 Q0993",
      "taf": "TAF EGGW 160454Z 1606/1706 25014KT 9999 FEW030"
    },
    {
      "icao": "EGKK",
      "alert": "OK",
      "vis_m": 9999,
      "fzfg": false,
      "metar_trigger": false,
      "taf_trigger": false,
      "metar": "METAR EGKK 160450Z 23008KT CAVOK 06/04 Q0996",
      "taf": "TAF EGKK 160454Z 1606/1712 25010KT 9999 FEW040"
    },
    {
      "icao": "EGNM",
      "alert": "OK",
      "vis_m": 9999,
      "fzfg": false,
      "metar_trigger": false,
      "taf_trigger": false,
      "metar": "METAR EGNM 160450Z 27013KT 9999 -RA SCT016 BKN037 04/02 Q0989",
      "taf": "TAF EGNM 160453Z 1606/1706 28012KT 9999 SCT015"
    },
    {
      "icao": "EGPD",
      "alert": "OK",
      "vis_m": 9999,
      "fzfg": false,
      "metar_trigger": false,
      "taf_trigger": false,
      "metar": "METAR EGPD 160450Z COR AUTO VRB01KT 9999 NCD M02/M03 Q0985 NOSIG",
      "taf": "TAF EGPD 160452Z 1606/1706 VRB03KT 9999 FEW030"
    },
    {
      "icao": "EGPF",
      "alert": "OK",
      "vis_m": 9999,
      "fzfg": false,
      "metar_trigger": false,
      "taf_trigger": false,
      "metar": "METAR EGPF 160450Z AUTO 28003KT 9999 FEW030 BKN045 03/02 Q0988",
      "taf": "TAF EGPF 160456Z 1606/1706 26005KT 9999 FEW015 SCT025"
    },
    {
      "icao": "EHBK",
      "alert": "OK",
      "vis_m": 9999,
      "fzfg": false,
      "metar_trigger": false,
      "taf_trigger": false,
      "metar": "METAR EHBK 160455Z COR AUTO 24010KT 200V280 9999 -RA SCT007 BKN008 BKN010 FEW015CB 04/04 Q0995 NOSIG",
      "taf": "TAF EHBK 152311Z 1600/1706 21010KT 9999 BKN005"
    },
    {
      "icao": "EHEH",
      "alert": "OK",
      "vis_m": 5000,
      "fzfg": false,
      "metar_trigger": false,
      "taf_trigger": false,
      "metar": "METAR EHEH 160455Z AUTO 24008KT 5000 BR FEW003 SCT005 BKN007 FEW015CB 04/04 Q0994 GRN",
      "taf": ""
    },
    {
      "icao": "EKBI",
      "alert": "OK",
      "vis_m": 9999,
      "fzfg": false,
      "metar_trigger": false,
      "taf_trigger": false,
      "metar": "METAR EKBI 160450Z AUTO 12014KT 9999 FEW020/// BKN087/// M03/M07 Q0997",
      "taf": "TAF EKBI 160227Z 1603/1703 15015KT CAVOK"
    },
    {
      "icao": "EKCH",
      "alert": "OK",
      "vis_m": 9999,
      "fzfg": false,
      "metar_trigger": false,
      "taf_trigger": false,
      "metar": "METAR EKCH 160450Z AUTO 13018KT 9999 SCT018/// M03/M07 Q1004 TEMPO 15018G28KT",
      "taf": "TAF EKCH 160227Z 1603/1703 15012KT CAVOK"
    },
    {
      "icao": "ENAL",
      "alert": "OK",
      "vis_m": 9999,
      "fzfg": false,
      "metar_trigger": false,
      "taf_trigger": false,
      "metar": "METAR ENAL 160450Z 19012KT CAVOK 04/M08 Q0991",
      "taf": "TAF ENAL 160200Z 1603/1612 17015KT CAVOK"
    },
    {
      "icao": "ENBR",
      "alert": "OK",
      "vis_m": 9999,
      "fzfg": false,
      "metar_trigger": false,
      "taf_trigger": false,
      "metar": "METAR ENBR 160450Z 14013KT CAVOK 01/M10 Q0993 RMK WIND 1200FT 14030KT",
      "taf": "TAF ENBR 152300Z 1600/1624 14020KT 9999 SCT012 BKN030"
    },
    {
      "icao": "ENGM",
      "alert": "OK",
      "vis_m": 9999,
      "fzfg": false,
      "metar_trigger": false,
      "taf_trigger": false,
      "metar": "METAR ENGM 160450Z 17009KT 9999 -SN OVC019 M06/M09 Q1003 NOSIG",
      "taf": ""
    },
    {
      "icao": "ENHD",
      "alert": "OK",
      "vis_m": 9999,
      "fzfg": false,
      "metar_trigger": false,
      "taf_trigger": false,
      "metar": "METAR ENHD 160450Z AUTO 12019KT 9999 NCD 00/M07 Q0993",
      "taf": "TAF ENHD 160200Z 1603/1612 14018KT 9999 SCT008 BKN018"
    },
    {
      "icao": "ENTC",
      "alert": "OK",
      "vis_m": 9999,
      "fzfg": false,
      "metar_trigger": false,
      "taf_trigger": false,
      "metar": "METAR ENTC 160450Z 32003KT 290V350 9999 -SHSN SCT016 BKN022 M02/M04 Q0995 RMK WIND 2600FT 16017KT",
      "taf": ""
    },
    {
      "icao": "ENTO",
      "alert": "OK",
      "vis_m": 9999,
      "fzfg": false,
      "metar_trigger": false,
      "taf_trigger": false,
      "metar": "METAR ENTO 160450Z 12008KT 9999 -SN OVC014 M05/M07 Q1003",
      "taf": "TAF ENTO 152300Z 1600/1624 18015KT 9999 OVC018"
    },
    {
      "icao": "ENVA",
      "alert": "OK",
      "vis_m": 9999,
      "fzfg": false,
      "metar_trigger": false,
      "taf_trigger": false,
      "metar": "METAR ENVA 160450Z 14009KT 110V190 CAVOK M01/M10 Q0995 RMK WIND 670FT 17022KT",
      "taf": ""
    },
    {
      "icao": "ENZV",
      "alert": "OK",
      "vis_m": 9999,
      "fzfg": false,
      "metar_trigger": false,
      "taf_trigger": false,
      "metar": "METAR ENZV 160420Z AUTO 12015KT 9999 NCD M00/M07 Q0994",
      "taf": "TAF ENZV 152300Z 1600/1624 14018KT 9999 SCT035"
    },
    {
      "icao": "EPGD",
      "alert": "OK",
      "vis_m": 9999,
      "fzfg": false,
      "metar_trigger": false,
      "taf_trigger": false,
      "metar": "METAR EPGD 160500Z 11009KT CAVOK M17/M20 Q1010",
      "taf": ""
    },
    {
      "icao": "EPKK",
      "alert": "OK",
      "vis_m": 9999,
      "fzfg": false,
      "metar_trigger": false,
      "taf_trigger": false,
      "metar": "METAR EPKK 160500Z 09008KT 9999 SCT011 OVC015 M07/M10 Q1006",
      "taf": "TAF EPKK 160230Z 1603/1703 08007KT 9999 OVC020"
    },
    {
      "icao": "EPKT",
      "alert": "OK",
      "vis_m": 9999,
      "fzfg": false,
      "metar_trigger": false,
      "taf_trigger": false,
      "metar": "METAR EPKT 160500Z 09006KT 9999 -SN BKN005 M09/M11 Q1005",
      "taf": ""
    },
    {
      "icao": "EPLB",
      "alert": "OK",
      "vis_m": 9999,
      "fzfg": false,
      "metar_trigger": false,
      "taf_trigger": false,
      "metar": "METAR EPLB 160500Z VRB01KT CAVOK M16/M17 Q1008",
      "taf": "TAF EPLB 152330Z 1600/1624 36010KT CAVOK"
    },
    {
      "icao": "EPMO",
      "alert": "OK",
      "vis_m": 9999,
      "fzfg": false,
      "metar_trigger": false,
      "taf_trigger": false,
      "metar": "METAR EPMO 160500Z 05006KT CAVOK M16/M18 Q1009",
      "taf": "TAF EPMO 152330Z 1600/1624 02007KT CAVOK"
    },
    {
      "icao": "EPPO",
      "alert": "OK",
      "vis_m": 9999,
      "fzfg": false,
      "metar_trigger": false,
      "taf_trigger": false,
      "metar": "METAR EPPO 160500Z 09009KT CAVOK M09/M11 Q1006",
      "taf": "TAF EPPO 152330Z 1600/1624 09007KT CAVOK"
    },
    {
      "icao": "EPRA",
      "alert": "OK",
      "vis_m": 9999,
      "fzfg": false,
      "metar_trigger": false,
      "taf_trigger": false,
      "metar": "METAR EPRA 160500Z VRB01KT CAVOK M13/M16 Q1008",
      "taf": "TAF EPRA 160230Z 1603/1612 01005KT CAVOK"
    },
    {
      "icao": "EPRZ",
      "alert": "OK",
      "vis_m": 9999,
      "fzfg": false,
      "metar_trigger": false,
      "taf_trigger": false,
      "metar": "METAR EPRZ 160500Z VRB01KT 9999 BKN014 M10/M12 Q1007",
      "taf": ""
    },
    {
      "icao": "EPSC",
      "alert": "OK",
      "vis_m": 9999,
      "fzfg": false,
      "metar_trigger": false,
      "taf_trigger": false,
      "metar": "METAR EPSC 160500Z 11014KT CAVOK M08/M11 Q1005",
      "taf": "TAF EPSC 152330Z 1600/1624 12015KT CAVOK"
    },
    {
      "icao": "EPSY",
      "alert": "OK",
      "vis_m": 9999,
      "fzfg": false,
      "metar_trigger": false,
      "taf_trigger": false,
      "metar": "METAR EPSY 160500Z 05005KT CAVOK M16/M20 Q1010",
      "taf": "TAF EPSY 160230Z 1603/1612 05007KT CAVOK"
    },
    {
      "icao": "EPWA",
      "alert": "OK",
      "vis_m": 9999,
      "fzfg": false,
      "metar_trigger": false,
      "taf_trigger": false,
      "metar": "METAR EPWA 160500Z 07007KT CAVOK M13/M17 Q1009 NOSIG",
      "taf": "TAF EPWA 160230Z 1603/1703 03008KT CAVOK"
    },
    {
      "icao": "EPWR",
      "alert": "OK",
      "vis_m": 9999,
      "fzfg": false,
      "metar_trigger": false,
      "taf_trigger": false,
      "metar": "METAR EPWR 160500Z 14013KT 9999 OVC020 M05/M09 Q1004",
      "taf": "TAF EPWR 160230Z 1603/1703 12010KT 9999 BKN020"
    },
    {
      "icao": "ESGG",
      "alert": "OK",
      "vis_m": 9999,
      "fzfg": false,
      "metar_trigger": false,
      "taf_trigger": false,
      "metar": "METAR ESGG 160450Z 14011KT CAVOK M08/M10 Q1004",
      "taf": "TAF ESGG 160230Z 1603/1703 14012KT CAVOK"
    },
    {
      "icao": "ESKN",
      "alert": "OK",
      "vis_m": 9999,
      "fzfg": false,
      "metar_trigger": false,
      "taf_trigger": false,
      "metar": "METAR ESKN 160450Z 09003KT CAVOK M14/M15 Q1010",
      "taf": "TAF ESKN 160230Z 1603/1703 VRB03KT CAVOK"
    },
    {
      "icao": "ESMS",
      "alert": "OK",
      "vis_m": 9999,
      "fzfg": false,
      "metar_trigger": false,
      "taf_trigger": false,
      "metar": "METAR ESMS 160450Z 13014KT CAVOK M04/M09 Q1004",
      "taf": "TAF ESMS 160227Z 1603/1703 15008KT CAVOK"
    },
    {
      "icao": "ESSA",
      "alert": "OK",
      "vis_m": 9999,
      "fzfg": false,
      "metar_trigger": false,
      "taf_trigger": false,
      "metar": "METAR ESSA 160450Z 19005KT CAVOK M14/M16 Q1010 NOSIG",
      "taf": "TAF ESSA 160230Z 1603/1703 18007KT CAVOK"
    },
    {
      "icao": "EYKA",
      "alert": "OK",
      "vis_m": 5000,
      "fzfg": false,
      "metar_trigger": false,
      "taf_trigger": false,
      "metar": "METAR EYKA 160450Z 34002KT 5000 BR OVC027 M22/M24 Q1013",
      "taf": "TAF EYKA 160501Z 1606/1706 VRB04KT 9000 NSC"
    },
    {
      "icao": "EYPA",
      "alert": "OK",
      "vis_m": 9999,
      "fzfg": false,
      "metar_trigger": false,
      "taf_trigger": false,
      "metar": "METAR EYPA 160450Z VRB02KT CAVOK M21/M23 Q1013",
      "taf": "TAF EYPA 160500Z 1606/1706 VRB04KT 9000 NSC"
    },
    {
      "icao": "EYVI",
      "alert": "OK",
      "vis_m": 9999,
      "fzfg": false,
      "metar_trigger": false,
      "taf_trigger": false,
      "metar": "METAR EYVI 160450Z 02005KT CAVOK M19/M22 Q1010 NOSIG",
      "taf": "TAF EYVI 160500Z 1606/1706 02008KT 8000 SCT020"
    },
    {
      "icao": "GCFV",
      "alert": "OK",
      "vis_m": 6000,
      "fzfg": false,
      "metar_trigger": false,
      "taf_trigger": false,
      "metar": "METAR GCFV 160500Z AUTO 02009KT 6000 BKN010 OVC037 17/15 Q1027",
      "taf": "TAF GCFV 160200Z 1603/1703 01008KT 7000 NSC TX25/1614Z TN17/1606Z"
    },
    {
      "icao": "GCLP",
      "alert": "OK",
      "vis_m": 9999,
      "fzfg": false,
      "metar_trigger": false,
      "taf_trigger": false,
      "metar": "METAR GCLP 160500Z 33005KT 320V030 CAVOK 18/06 Q1026 NOSIG",
      "taf": "TAF GCLP 160200Z 1603/1703 36010KT 7000 NSC TX26/1614Z TN16/1606Z"
    },
    {
      "icao": "GCTS",
      "alert": "OK",
      "vis_m": 9999,
      "fzfg": false,
      "metar_trigger": false,
      "taf_trigger": false,
      "metar": "METAR GCTS 160500Z 03003KT 350V150 9999 SCT025 17/05 Q1025 NOSIG",
      "taf": "TAF GCTS 160200Z 1603/1703 07014KT 7000 FEW030 TX27/1614Z TN18/1606Z"
    },
    {
      "icao": "GMAD",
      "alert": "OK",
      "vis_m": 9999,
      "fzfg": false,
      "metar_trigger": false,
      "taf_trigger": false,
      "metar": "METAR GMAD 160500Z 08008KT CAVOK 08/06 Q1026 NOSIG",
      "taf": "TAF GMAD 152300Z 1600/1706 06008KT CAVOK"
    },
    {
      "icao": "GMMN",
      "alert": "OK",
      "vis_m": 9999,
      "fzfg": false,
      "metar_trigger": false,
      "taf_trigger": false,
      "metar": "METAR GMMN 160500Z 06008KT CAVOK 08/06 Q1031 NOSIG",
      "taf": "TAF GMMN 152300Z 1600/1706 06008KT CAVOK"
    },
    {
      "icao": "GMMX",
      "alert": "OK",
      "vis_m": 9999,
      "fzfg": false,
      "metar_trigger": false,
      "taf_trigger": false,
      "metar": "METAR GMMX 160500Z 10004KT CAVOK 06/04 Q1028 NOSIG",
      "taf": "TAF GMMX 152300Z 1600/1706 33003KT CAVOK"
    },
    {
      "icao": "HEGN",
      "alert": "OK",
      "vis_m": 9999,
      "fzfg": false,
      "metar_trigger": false,
      "taf_trigger": false,
      "metar": "METAR HEGN 160400Z 00000KT CAVOK 14/M02 Q1015 NOSIG",
      "taf": "TAF HEGN 160500Z 1606/1712 27008KT 6000 NSC"
    },
    {
      "icao": "HEMA",
      "alert": "OK",
      "vis_m": 9999,
      "fzfg": false,
      "metar_trigger": false,
      "taf_trigger": false,
      "metar": "METAR HEMA 160400Z 2511KT CAVOK 19/M04 Q1013 NOSIG",
      "taf": "TAF HEMA 160500Z 1606/1712 26008KT 6000 NSC"
    },
    {
      "icao": "HESH",
      "alert": "OK",
      "vis_m": 9999,
      "fzfg": false,
      "metar_trigger": false,
      "taf_trigger": false,
      "metar": "METAR HESH 160400Z 34006KT CAVOK 19/M02 Q1014 NOSIG",
      "taf": "TAF HESH 160500Z 1606/1712 31008KT 6000 NSC"
    },
    {
      "icao": "HESX",
      "alert": "OK",
      "vis_m": 9999,
      "fzfg": false,
      "metar_trigger": false,
      "taf_trigger": false,
      "metar": "METAR HESX 160400Z 18006KT CAVOK 15/M03 Q1012 NOSIG",
      "taf": "TAF HESX 160500Z 1606/1712 18007KT 6000 NSC"
    },
    {
      "icao": "LATI",
      "alert": "OK",
      "vis_m": 9999,
      "fzfg": false,
      "metar_trigger": false,
      "taf_trigger": false,
      "metar": "METAR LATI 160450Z 31004KT 270V340 9999 FEW004 BKN036 08/06 Q1007 NOSIG",
      "taf": "TAF LATI 160500Z 1606/1706 VRB05KT 9999 BKN040 TX13/1612Z TN08/1606Z"
    },
    {
      "icao": "LBPD",
      "alert": "OK",
      "vis_m": 9999,
      "fzfg": false,
      "metar_trigger": false,
      "taf_trigger": false,
      "metar": "METAR LBPD 160500Z AUTO 29011KT 9999 NCD 04/02 Q1006 NOSIG",
      "taf": "TAF LBPD 152300Z 1600/1624 25015KT 9999 SCT030 BKN050"
    },
    {
      "icao": "LBSF",
      "alert": "OK",
      "vis_m": 8000,
      "fzfg": false,
      "metar_trigger": false,
      "taf_trigger": false,
      "metar": "METAR LBSF 160500Z 27007KT 8000 -SN SCT016 BKN040 BKN051 M00/M02 Q1007 TEMPO 4000 SN SCT007",
      "taf": "TAF LBSF 152300Z 1600/1624 29015KT 9999 BKN050"
    },
    {
      "icao": "LBWN",
      "alert": "OK",
      "vis_m": 9999,
      "fzfg": false,
      "metar_trigger": false,
      "taf_trigger": false,
      "metar": "METAR LBWN 160500Z AUTO 29011KT 9999 NCD 05/M00 Q1007 NOSIG",
      "taf": "TAF LBWN 152300Z 1600/1624 28012KT 9999 SCT045"
    },
    {
      "icao": "LCLK",
      "alert": "OK",
      "vis_m": 8000,
      "fzfg": false,
      "metar_trigger": false,
      "taf_trigger": false,
      "metar": "METAR LCLK 160500Z 35006KT 8000 NSC 15/14 Q1016 NOSIG",
      "taf": "TAF LCLK 152330Z 1600/1700 34007KT 9999 FEW025"
    },
    {
      "icao": "LCPH",
      "alert": "OK",
      "vis_m": 8000,
      "fzfg": false,
      "metar_trigger": false,
      "taf_trigger": false,
      "metar": "METAR LCPH 160500Z 09012G24KT 8000 FEW040 19/05 Q1014 NOSIG",
      "taf": "TAF LCPH 152330Z 1600/1700 06009KT 9999 FEW020"
    },
    {
      "icao": "LEAL",
      "alert": "OK",
      "vis_m": 9999,
      "fzfg": false,
      "metar_trigger": false,
      "taf_trigger": false,
      "metar": "METAR LEAL 160500Z 26012KT 230V300 CAVOK 16/06 Q1021 NOSIG",
      "taf": "TAF LEAL 152300Z 1600/1624 29012KT CAVOK TX22/1613Z TN13/1606Z"
    },
    {
      "icao": "LEBB",
      "alert": "OK",
      "vis_m": 9000,
      "fzfg": false,
      "metar_trigger": false,
      "taf_trigger": false,
      "metar": "METAR LEBB 160500Z 22007KT 170V270 9000 -RA SCT025 OVC031 12/11 Q1018 NOSIG",
      "taf": "TAF LEBB 152300Z 1600/1624 20008KT 9999 BKN035 TX14/1609Z TN10/1614Z"
    },
    {
      "icao": "LEBL",
      "alert": "OK",
      "vis_m": 9999,
      "fzfg": false,
      "metar_trigger": false,
      "taf_trigger": false,
      "metar": "METAR LEBL 160500Z 35001KT 9999 FEW035 14/07 Q1014 NOSIG",
      "taf": "TAF LEBL 152300Z 1600/1624 30013KT 9999 FEW035 TX21/1613Z TN13/1606Z"
    },
    {
      "icao": "LECH",
      "alert": "OK",
      "vis_m": 9999,
      "fzfg": false,
      "metar_trigger": false,
      "taf_trigger": false,
      "metar": "METAR LECH 160500Z AUTO 23007KT CAVOK 12/03 Q1018",
      "taf": ""
    },
    {
      "icao": "LEMD",
      "alert": "OK",
      "vis_m": 9999,
      "fzfg": false,
      "metar_trigger": false,
      "taf_trigger": false,
      "metar": "METAR LEMD 160500Z 13005KT 020V170 9999 BKN070 07/07 Q1024 NOSIG",
      "taf": ""
    },
    {
      "icao": "LEMG",
      "alert": "OK",
      "vis_m": 9999,
      "fzfg": false,
      "metar_trigger": false,
      "taf_trigger": false,
      "metar": "METAR LEMG 160500Z 29016G26KT 250V320 9999 SCT040 13/06 Q1028 NOSIG",
      "taf": "TAF LEMG 152300Z 1600/1624 30012KT CAVOK TX19/1614Z TN12/1607Z"
    },
    {
      "icao": "LEVC",
      "alert": "OK",
      "vis_m": 9999,
      "fzfg": false,
      "metar_trigger": false,
      "taf_trigger": false,
      "metar": "METAR LEVC 160500Z 24012KT CAVOK 13/06 Q1020 NOSIG",
      "taf": "TAF LEVC 152300Z 1600/1624 27014KT CAVOK TX23/1614Z TN13/1606Z"
    },
    {
      "icao": "LEXJ",
      "alert": "OK",
      "vis_m": 9000,
      "fzfg": false,
      "metar_trigger": false,
      "taf_trigger": false,
      "metar": "METAR LEXJ 160500Z 26007KT 9000 BKN042 OVC050 14/09 Q1017",
      "taf": "TAF LEXJ 160200Z 1603/1703 24009KT 9999 FEW025 BKN050 TX14/1608Z TN11/1615Z"
    },
    {
      "icao": "LEZG",
      "alert": "OK",
      "vis_m": 9999,
      "fzfg": false,
      "metar_trigger": false,
      "taf_trigger": false,
      "metar": "METAR LEZG 160500Z 25022G35KT CAVOK 13/07 Q1018 NOSIG",
      "taf": "TAF LEZG 152300Z 1600/1624 27012KT CAVOK TX17/1612Z TN11/1606Z"
    },
    {
      "icao": "LEZL",
      "alert": "OK",
      "vis_m": 9999,
      "fzfg": false,
      "metar_trigger": false,
      "taf_trigger": false,
      "metar": "METAR LEZL 160500Z 26005KT 9999 OVC040 13/11 Q1031 NOSIG",
      "taf": "TAF LEZL 160200Z 1603/1703 27006KT 9999 SCT040 TX19/1615Z TN06/1607Z"
    },
    {
      "icao": "LFBD",
      "alert": "OK",
      "vis_m": 4900,
      "fzfg": false,
      "metar_trigger": false,
      "taf_trigger": false,
      "metar": "METAR LFBD 160500Z AUTO 27018KT 4900 DZ BR OVC006 13/12 Q1012 TEMPO 30020G30KT SHRA BKN015TCU",
      "taf": "TAF LFBD 152300Z 1600/1706 27015KT 9999 BKN012 TX14/1614Z TN10/1621Z"
    },
    {
      "icao": "LFLL",
      "alert": "OK",
      "vis_m": 9999,
      "fzfg": false,
      "metar_trigger": false,
      "taf_trigger": false,
      "metar": "METAR LFLL 160500Z 19008G18KT 160V230 9999 FEW040TCU BKN050 BKN100 08/04 Q1008 TEMPO VRB10KT 4000 SHRA FEW020CB BKN030TCU",
      "taf": "TAF LFLL 152300Z 1600/1706 18010KT 9999 OVC040"
    },
    {
      "icao": "LFLS",
      "alert": "OK",
      "vis_m": 9999,
      "fzfg": false,
      "metar_trigger": false,
      "taf_trigger": false,
      "metar": "METAR LFLS 160500Z AUTO 06008KT 9999 FEW045 BKN110 BKN140 05/04 Q1008 TEMPO VRB15G25KT 4000 SHRA SCT020TCU BKN030",
      "taf": "TAF LFLS 160200Z 1603/1703 09008KT 9999 BKN045"
    },
    {
      "icao": "LFMN",
      "alert": "OK",
      "vis_m": 9999,
      "fzfg": false,
      "metar_trigger": false,
      "taf_trigger": false,
      "metar": "METAR LFMN 160500Z 33009KT CAVOK 08/03 Q1004 NOSIG",
      "taf": "TAF LFMN 160200Z 1603/1709 33010KT CAVOK"
    },
    {
      "icao": "LFOB",
      "alert": "OK",
      "vis_m": 9999,
      "fzfg": false,
      "metar_trigger": false,
      "taf_trigger": false,
      "metar": "METAR LFOB 160500Z AUTO 24010KT CAVOK 07/05 Q0999 TEMPO 27018G35KT 3500 SHRA SCT014 SCT020CB SCT030TCU",
      "taf": ""
    },
    {
      "icao": "LFPO",
      "alert": "OK",
      "vis_m": 9999,
      "fzfg": false,
      "metar_trigger": false,
      "taf_trigger": false,
      "metar": "METAR LFPO 160500Z 25013KT CAVOK 07/05 Q1001 NOSIG",
      "taf": ""
    },
    {
      "icao": "LFSB",
      "alert": "OK",
      "vis_m": 9999,
      "fzfg": false,
      "metar_trigger": false,
      "taf_trigger": false,
      "metar": "METAR LFSB 160500Z AUTO 25019KT 9999 FEW025/// SCT040/// BKN150/// ///TCU 08/05 Q1002 TEMPO 25020G35KT 3500 SHRA SCT020TCU FEW033CB",
      "taf": "TAF LFSB 152300Z 1600/1624 25012G22KT 9999 BKN030"
    },
    {
      "icao": "LGAV",
      "alert": "OK",
      "vis_m": 9999,
      "fzfg": false,
      "metar_trigger": false,
      "taf_trigger": false,
      "metar": "METAR LGAV 160450Z VRB02KT 9999 FEW018 SCT030 09/07 Q1008 NOSIG",
      "taf": "TAF LGAV 160500Z 1606/1706 24010KT 9999 FEW018 SCT025"
    },
    {
      "icao": "LGTS",
      "alert": "OK",
      "vis_m": 9999,
      "fzfg": false,
      "metar_trigger": false,
      "taf_trigger": false,
      "metar": "METAR LGTS 160450Z 33007KT 9999 FEW025 10/08 Q1005 NOSIG",
      "taf": "TAF LGTS 160500Z 1606/1706 VRB03KT 9999 FEW025"
    },
    {
      "icao": "LHBP",
      "alert": "OK",
      "vis_m": 9999,
      "fzfg": false,
      "metar_trigger": false,
      "taf_trigger": false,
      "metar": "METAR LHBP 160500Z 14005KT CAVOK M08/M09 Q1007 NOSIG",
      "taf": "TAF LHBP 152315Z 1600/1624 30007KT 9999 BKN040"
    },
    {
      "icao": "LHDC",
      "alert": "OK",
      "vis_m": 9999,
      "fzfg": false,
      "metar_trigger": false,
      "taf_trigger": false,
      "metar": "METAR LHDC 160445Z AUTO 12004KT 100V160 CAVOK M05/M07 Q1008 NOSIG",
      "taf": "TAF LHDC 160215Z 1603/1612 VRB03KT CAVOK"
    },
    {
      "icao": "LIBD",
      "alert": "OK",
      "vis_m": 9999,
      "fzfg": false,
      "metar_trigger": false,
      "taf_trigger": false,
      "metar": "METAR LIBD 160450Z 25006KT CAVOK 06/04 Q1008",
      "taf": "TAF LIBD 152300Z 1600/1624 27010KT 9999 FEW030"
    },
    {
      "icao": "LIBG",
      "alert": "OK",
      "vis_m": null,
      "fzfg": false,
      "metar_trigger": false,
      "taf_trigger": false,
      "metar": "",
      "taf": ""
    },
    {
      "icao": "LIBP",
      "alert": "OK",
      "vis_m": 9999,
      "fzfg": false,
      "metar_trigger": false,
      "taf_trigger": false,
      "metar": "METAR LIBP 160450Z AUTO 23004KT 9999 BKN190/// 03/03 Q1007",
      "taf": "TAF LIBP 152300Z 1600/1624 VRB05KT 9999 FEW030 SCT060"
    },
    {
      "icao": "LIBR",
      "alert": "OK",
      "vis_m": 9999,
      "fzfg": false,
      "metar_trigger": false,
      "taf_trigger": false,
      "metar": "METAR LIBR 160450Z 29007KT CAVOK 08/03 Q1007",
      "taf": "TAF LIBR 152300Z 1600/1624 29013KT 9999 SCT030"
    },
    {
      "icao": "LICA",
      "alert": "OK",
      "vis_m": 9999,
      "fzfg": false,
      "metar_trigger": false,
      "taf_trigger": false,
      "metar": "METAR LICA 160450Z AUTO 28009KT 9999 -RA BKN021/// 13/10 Q1009",
      "taf": "TAF LICA 152300Z 1600/1624 28015KT 9999 FEW030"
    },
    {
      "icao": "LICC",
      "alert": "OK",
      "vis_m": 9999,
      "fzfg": false,
      "metar_trigger": false,
      "taf_trigger": false,
      "metar": "METAR LICC 160450Z 27011KT CAVOK 11/08 Q1010",
      "taf": "TAF LICC 152300Z 1600/1624 27016KT 9999 SCT020"
    },
    {
      "icao": "LICJ",
      "alert": "OK",
      "vis_m": 9999,
      "fzfg": false,
      "metar_trigger": false,
      "taf_trigger": false,
      "metar": "METAR LICJ 160450Z 20011KT 9999 FEW016 SCT025 BKN040 12/09 Q1012",
      "taf": "TAF LICJ 152300Z 1600/1624 28017KT 9999 SCT030"
    },
    {
      "icao": "LIMC",
      "alert": "OK",
      "vis_m": 9999,
      "fzfg": false,
      "metar_trigger": false,
      "taf_trigger": false,
      "metar": "METAR LIMC 160450Z 08005KT CAVOK 03/M01 Q1004 NOSIG",
      "taf": "TAF LIMC 152300Z 1600/1706 VRB05KT CAVOK"
    },
    {
      "icao": "LIME",
      "alert": "OK",
      "vis_m": 9999,
      "fzfg": false,
      "metar_trigger": false,
      "taf_trigger": false,
      "metar": "METAR LIME 160450Z AUTO 02004KT 9999 NCD 06/01 Q1004",
      "taf": "TAF LIME 152300Z 1600/1624 VRB05KT CAVOK"
    },
    {
      "icao": "LIMF",
      "alert": "OK",
      "vis_m": 9999,
      "fzfg": false,
      "metar_trigger": false,
      "taf_trigger": false,
      "metar": "METAR LIMF 160450Z VRB01KT 9999 FEW130 03/M00 Q1004",
      "taf": "TAF LIMF 152300Z 1600/1624 VRB05KT CAVOK"
    },
    {
      "icao": "LIMJ",
      "alert": "OK",
      "vis_m": 9999,
      "fzfg": false,
      "metar_trigger": false,
      "taf_trigger": false,
      "metar": "METAR LIMJ 160450Z 03004KT 010V080 CAVOK 09/06 Q1004",
      "taf": "TAF LIMJ 152300Z 1600/1624 VRB05KT CAVOK"
    },
    {
      "icao": "LIPE",
      "alert": "OK",
      "vis_m": 9999,
      "fzfg": false,
      "metar_trigger": false,
      "taf_trigger": false,
      "metar": "METAR LIPE 160450Z VRB02KT CAVOK 05/03 Q1003",
      "taf": "TAF LIPE 152300Z 1600/1624 VRB05KT 9999 FEW060"
    },
    {
      "icao": "LIPH",
      "alert": "OK",
      "vis_m": 9999,
      "fzfg": false,
      "metar_trigger": false,
      "taf_trigger": false,
      "metar": "METAR LIPH 160450Z AUTO 04004KT 010V070 9999 FEW100/// SCT190/// 05/02 Q1005",
      "taf": "TAF LIPH 152300Z 1600/1624 04007KT 9999 FEW020 SCT060"
    },
    {
      "icao": "LIPQ",
      "alert": "OK",
      "vis_m": 9999,
      "fzfg": false,
      "metar_trigger": false,
      "taf_trigger": false,
      "metar": "METAR LIPQ 160450Z AUTO 04003KT 9999 OVC052/// 05/M00 Q1005",
      "taf": "TAF LIPQ 152300Z 1600/1624 07007KT 9999 FEW060"
    },
    {
      "icao": "LIPR",
      "alert": "OK",
      "vis_m": 9999,
      "fzfg": false,
      "metar_trigger": false,
      "taf_trigger": false,
      "metar": "METAR LIPR 160450Z AUTO 18004KT 9999 NCD 06/03 Q1004",
      "taf": "TAF LIPR 152300Z 1600/1624 15007KT CAVOK"
    },
    {
      "icao": "LIPX",
      "alert": "OK",
      "vis_m": 9999,
      "fzfg": false,
      "metar_trigger": false,
      "taf_trigger": false,
      "metar": "METAR LIPX 160450Z 35003KT 320V050 9999 SCT080 03/M01 Q1004",
      "taf": "TAF LIPX 152300Z 1600/1624 VRB05KT CAVOK"
    },
    {
      "icao": "LIPY",
      "alert": "OK",
      "vis_m": 9999,
      "fzfg": false,
      "metar_trigger": false,
      "taf_trigger": false,
      "metar": "METAR LIPY 160450Z AUTO 17003KT 9999 NCD 05/04 Q1005",
      "taf": "TAF LIPY 152300Z 1600/1624 VRB05KT 9999 FEW020"
    },
    {
      "icao": "LIPZ",
      "alert": "OK",
      "vis_m": 9999,
      "fzfg": false,
      "metar_trigger": false,
      "taf_trigger": false,
      "metar": "METAR LIPZ 160450Z 05008KT 9999 FEW025 04/02 Q1005 NOSIG",
      "taf": "TAF LIPZ 152300Z 1600/1706 VRB05KT 9999 FEW060"
    },
    {
      "icao": "LIRF",
      "alert": "OK",
      "vis_m": 9999,
      "fzfg": false,
      "metar_trigger": false,
      "taf_trigger": false,
      "metar": "METAR LIRF 160450Z 07005KT CAVOK 07/05 Q1008 NOSIG",
      "taf": "TAF LIRF 152300Z 1600/1706 VRB05KT CAVOK"
    },
    {
      "icao": "LIRN",
      "alert": "OK",
      "vis_m": 9999,
      "fzfg": false,
      "metar_trigger": false,
      "taf_trigger": false,
      "metar": "METAR LIRN 160450Z VRB01KT 9999 FEW040 07/05 Q1008 NOSIG",
      "taf": "TAF LIRN 152300Z 1600/1624 VRB05KT CAVOK"
    },
    {
      "icao": "LIRP",
      "alert": "OK",
      "vis_m": 9999,
      "fzfg": false,
      "metar_trigger": false,
      "taf_trigger": false,
      "metar": "METAR LIRP 160445Z VRB03KT 9999 FEW020 SCT025 10/09 Q1005 NOSIG",
      "taf": "TAF LIRP 152300Z 1600/1624 VRB03KT 9999 SCT080"
    },
    {
      "icao": "LIRZ",
      "alert": "OK",
      "vis_m": 9999,
      "fzfg": false,
      "metar_trigger": false,
      "taf_trigger": false,
      "metar": "METAR LIRZ 160450Z AUTO 16002KT 9999 SCT041/// SCT220/// 03/02 Q1007",
      "taf": "TAF LIRZ 152300Z 1600/1624 VRB05KT CAVOK"
    },
    {
      "icao": "LJLJ",
      "alert": "OK",
      "vis_m": 9999,
      "fzfg": false,
      "metar_trigger": false,
      "taf_trigger": false,
      "metar": "METAR LJLJ 160500Z 00000KT 9999 OVC040 M00/M02 Q1004 NOSIG",
      "taf": "TAF LJLJ 160500Z 1606/1706 VRB02KT 9999 BKN040"
    },
    {
      "icao": "LKMT",
      "alert": "OK",
      "vis_m": 9999,
      "fzfg": false,
      "metar_trigger": false,
      "taf_trigger": false,
      "metar": "METAR LKMT 160500Z 22004KT CAVOK M12/M13 Q1004 NOSIG",
      "taf": "TAF LKMT 152300Z 1600/1624 04006KT 9999 SCT030"
    },
    {
      "icao": "LKPR",
      "alert": "OK",
      "vis_m": 7000,
      "fzfg": false,
      "metar_trigger": false,
      "taf_trigger": false,
      "metar": "METAR LKPR 160500Z 11009KT 7000 -SN SCT006 BKN018 OVC030 M06/M07 Q0998 NOSIG",
      "taf": "TAF LKPR 160200Z 1603/1709 14007KT CAVOK"
    },
    {
      "icao": "LLBG",
      "alert": "OK",
      "vis_m": 8000,
      "fzfg": false,
      "metar_trigger": false,
      "taf_trigger": false,
      "metar": "METAR LLBG 160450Z VRB02KT 8000 NSC 12/06 Q1014 NOSIG",
      "taf": "TAF LLBG 160502Z 1606/1706 VRB04KT 8000 NSC"
    },
    {
      "icao": "LMML",
      "alert": "OK",
      "vis_m": 9999,
      "fzfg": false,
      "metar_trigger": false,
      "taf_trigger": false,
      "metar": "METAR LMML 160445Z 29010KT 9999 BKN040 12/09 Q1013 NOSIG",
      "taf": "TAF LMML 160500Z 1606/1706 29018G30KT 9999 SCT020"
    },
    {
      "icao": "LOWW",
      "alert": "OK",
      "vis_m": 9999,
      "fzfg": false,
      "metar_trigger": false,
      "taf_trigger": false,
      "metar": "METAR LOWW 160450Z 14011KT 9999 FEW050 M04/M08 Q1004 NOSIG",
      "taf": "TAF LOWW 160215Z 1603/1709 10006KT 9999 SCT040 TX03/1709Z TNM05/1603Z"
    },
    {
      "icao": "LPFR",
      "alert": "OK",
      "vis_m": 9999,
      "fzfg": false,
      "metar_trigger": false,
      "taf_trigger": false,
      "metar": "METAR LPFR 160500Z 33004KT 300V360 9999 BKN028 13/10 Q1032",
      "taf": "TAF LPFR 152300Z 1600/1624 VRB02KT 9999 BKN030"
    },
    {
      "icao": "LPMA",
      "alert": "OK",
      "vis_m": 9999,
      "fzfg": false,
      "metar_trigger": false,
      "taf_trigger": false,
      "metar": "METAR LPMA 160500Z 03013KT 9999 SCT016 15/12 Q1030",
      "taf": "TAF LPMA 152300Z 1600/1624 03010KT 9999 SCT016"
    },
    {
      "icao": "LPPR",
      "alert": "OK",
      "vis_m": 9999,
      "fzfg": false,
      "metar_trigger": false,
      "taf_trigger": false,
      "metar": "METAR LPPR 160500Z 25007KT 210V290 9999 BKN011 14/12 Q1027",
      "taf": "TAF LPPR 152300Z 1600/1624 24010KT 9999 SCT006 BKN018"
    },
    {
      "icao": "LPPS",
      "alert": "OK",
      "vis_m": 9999,
      "fzfg": false,
      "metar_trigger": false,
      "taf_trigger": false,
      "metar": "METAR LPPS 160500Z 09015KT 9999 SCT015 15/13 Q1030",
      "taf": "TAF LPPS 152300Z 1600/1706 10015KT 9999 SCT015"
    },
    {
      "icao": "LPPT",
      "alert": "OK",
      "vis_m": 9000,
      "fzfg": false,
      "metar_trigger": false,
      "taf_trigger": false,
      "metar": "METAR LPPT 160500Z 27005KT 240V310 9000 -DZRA SCT011 BKN015 12/11 Q1031",
      "taf": "TAF LPPT 152300Z 1600/1706 26010KT 9999 BKN035"
    },
    {
      "icao": "LQBK",
      "alert": "OK",
      "vis_m": 9999,
      "fzfg": false,
      "metar_trigger": false,
      "taf_trigger": false,
      "metar": "METAR LQBK 160500Z COR 14005KT CAVOK M04/M05 Q1007 TEMPO 1200 BCFG",
      "taf": "TAF LQBK 160500Z 1606/1706 09004KT CAVOK TX07/1613Z TNM05/1606Z"
    },
    {
      "icao": "LQSA",
      "alert": "OK",
      "vis_m": 9999,
      "fzfg": false,
      "metar_trigger": false,
      "taf_trigger": false,
      "metar": "METAR LQSA 160500Z 14001KT 9999 FEW020 SCT035 M02/M02 Q1006 NOSIG",
      "taf": "TAF LQSA 160500Z 1606/1706 VRB02KT 9999 SCT035 TX06/1614Z TNM03/1606Z"
    },
    {
      "icao": "LQTZ",
      "alert": "OK",
      "vis_m": 6000,
      "fzfg": false,
      "metar_trigger": false,
      "taf_trigger": false,
      "metar": "METAR LQTZ 160500Z 00000KT 6000 NSC M04/M04 Q1008",
      "taf": "TAF LQTZ 160500Z 1606/1706 09005KT CAVOK TX07/1614Z TNM04/1606Z"
    },
    {
      "icao": "LRBC",
      "alert": "OK",
      "vis_m": 9999,
      "fzfg": false,
      "metar_trigger": false,
      "taf_trigger": false,
      "metar": "METAR LRBC 160500Z 01007KT 9999 SCT026 BKN048 M03/M07 Q1006",
      "taf": "TAF LRBC 160200Z 1603/1612 35011KT 9999 SCT015 BKN050"
    },
    {
      "icao": "LRBS",
      "alert": "OK",
      "vis_m": 9999,
      "fzfg": false,
      "metar_trigger": false,
      "taf_trigger": false,
      "metar": "METAR LRBS 160500Z 24006KT 9999 FEW014 BKN017 OVC019 03/00 Q1006 NOSIG",
      "taf": "TAF LRBS 152300Z 1600/1624 24014KT 9999 OVC010"
    },
    {
      "icao": "LRBV",
      "alert": "OK",
      "vis_m": 9999,
      "fzfg": false,
      "metar_trigger": false,
      "taf_trigger": false,
      "metar": "METAR LRBV 160500Z 29010KT 260V320 9999 SCT013 BKN034 00/M02 Q1004",
      "taf": "TAF LRBV 160200Z 1603/1612 30011KT 9999 SCT005 BKN055"
    },
    {
      "icao": "LRCL",
      "alert": "OK",
      "vis_m": 9999,
      "fzfg": false,
      "metar_trigger": false,
      "taf_trigger": false,
      "metar": "METAR LRCL 160500Z 34007KT 9999 BKN016 M03/M07 Q1007",
      "taf": "TAF LRCL 160200Z 1603/1612 29010KT 9999 OVC015"
    },
    {
      "icao": "LRCV",
      "alert": "OK",
      "vis_m": 9999,
      "fzfg": false,
      "metar_trigger": false,
      "taf_trigger": false,
      "metar": "METAR LRCV 160500Z 29010KT 9999 FEW012 M00/M02 Q1006",
      "taf": "TAF LRCV 160200Z 1603/1612 27020KT CAVOK"
    },
    {
      "icao": "LRIA",
      "alert": "OK",
      "vis_m": 9999,
      "fzfg": false,
      "metar_trigger": false,
      "taf_trigger": false,
      "metar": "METAR LRIA 160500Z 30012KT 280V340 9999 FEW018 M05/M08 Q1006",
      "taf": "TAF LRIA 160200Z 1603/1612 30018KT 9999 BR OVC015"
    },
    {
      "icao": "LROP",
      "alert": "OK",
      "vis_m": 9999,
      "fzfg": false,
      "metar_trigger": false,
      "taf_trigger": false,
      "metar": "METAR LROP 160500Z 23007KT 9999 OVC016 03/00 Q1006 NOSIG",
      "taf": "TAF LROP 152300Z 1600/1624 24014KT 9999 OVC010"
    },
    {
      "icao": "LRSB",
      "alert": "OK",
      "vis_m": 9999,
      "fzfg": false,
      "metar_trigger": false,
      "taf_trigger": false,
      "metar": "METAR LRSB 160500Z 34006KT 9999 FEW035 M01/M03 Q1006",
      "taf": "TAF LRSB 152300Z 1600/1624 34010KT 9999 BKN030"
    },
    {
      "icao": "LRSM",
      "alert": "OK",
      "vis_m": 9999,
      "fzfg": false,
      "metar_trigger": false,
      "taf_trigger": false,
      "metar": "METAR LRSM 160500Z 22005KT CAVOK M05/M07 Q1008",
      "taf": "TAF LRSM 160200Z 1603/1612 VRB04KT CAVOK"
    },
    {
      "icao": "LRSV",
      "alert": "OK",
      "vis_m": 9999,
      "fzfg": false,
      "metar_trigger": false,
      "taf_trigger": false,
      "metar": "METAR LRSV 160500Z 31017KT 9999 SCT040 M07/M09 Q1004",
      "taf": "TAF LRSV 160200Z 1603/1612 30016KT 9999 SCT015 BKN025"
    },
    {
      "icao": "LRTM",
      "alert": "OK",
      "vis_m": 9999,
      "fzfg": false,
      "metar_trigger": false,
      "taf_trigger": false,
      "metar": "METAR LRTM 160500Z 31003KT 250V340 9999 BKN012 BKN033 M01/M05 Q1007",
      "taf": "TAF LRTM 160200Z 1603/1612 VRB04KT 9999 SCT015 BKN025"
    },
    {
      "icao": "LRTR",
      "alert": "OK",
      "vis_m": 9999,
      "fzfg": false,
      "metar_trigger": false,
      "taf_trigger": false,
      "metar": "METAR LRTR 160500Z 14006KT 9999 SCT010 BKN014 BKN038 M00/M02 Q1008",
      "taf": "TAF LRTR 152300Z 1600/1624 VRB04KT 9999 OVC045"
    },
    {
      "icao": "LTAC",
      "alert": "OK",
      "vis_m": 9999,
      "fzfg": false,
      "metar_trigger": false,
      "taf_trigger": false,
      "metar": "METAR LTAC 160450Z VRB02KT CAVOK 07/M00 Q1013 NOSIG RMK RWY21C 04004KT 350V110 RWY03L 06005KT 010V130 RWY21R 04005KT 330V100 RWY03R 17007KT RWY21L VRB03KT",
      "taf": "TAF LTAC 160440Z 1606/1706 VRB02KT CAVOK"
    },
    {
      "icao": "LTFM",
      "alert": "OK",
      "vis_m": 9999,
      "fzfg": false,
      "metar_trigger": false,
      "taf_trigger": false,
      "metar": "METAR LTFM 160450Z 20010KT CAVOK 12/09 Q1007 NOSIG RMK RWY17L 20016KT RWY34L 17010KT RWY16R 19015KT RWY36 21013KT RWY18 21019KT",
      "taf": "TAF LTFM 160440Z 1606/1712 21012KT CAVOK"
    },
    {
      "icao": "LUKK",
      "alert": "OK",
      "vis_m": 9999,
      "fzfg": false,
      "metar_trigger": false,
      "taf_trigger": false,
      "metar": "METAR LUKK 160500Z 33011KT 9999 SCT017 BKN028 M05/M07 Q1005 NOSIG",
      "taf": "TAF LUKK 160507Z 1606/1706 32010KT 9999 BKN025"
    },
    {
      "icao": "LWOH",
      "alert": "OK",
      "vis_m": null,
      "fzfg": false,
      "metar_trigger": false,
      "taf_trigger": false,
      "metar": "",
      "taf": "TAF LWOH 160210Z 1603/1703 VRB02KT 9999 FEW015 BKN040"
    },
    {
      "icao": "LWSK",
      "alert": "OK",
      "vis_m": 9999,
      "fzfg": false,
      "metar_trigger": false,
      "taf_trigger": false,
      "metar": "METAR LWSK 160450Z 02004KT 350V050 9999 BKN020 OVC040 03/00 Q1008 NOSIG",
      "taf": "TAF LWSK 160210Z 1603/1703 01010KT 9999 FEW010 BKN020 OVC040"
    },
    {
      "icao": "LYBE",
      "alert": "OK",
      "vis_m": 9999,
      "fzfg": false,
      "metar_trigger": false,
      "taf_trigger": false,
      "metar": "METAR LYBE 160500Z 16003KT CAVOK M03/M03 Q1009 NOSIG",
      "taf": "TAF LYBE 152300Z 1600/1624 25005KT 9999 SCT035 TX07/1613Z TNM02/1606Z"
    },
    {
      "icao": "LYNI",
      "alert": "OK",
      "vis_m": 9999,
      "fzfg": false,
      "metar_trigger": false,
      "taf_trigger": false,
      "metar": "METAR LYNI 160500Z 00000KT 9999 FEW015 BKN023 01/M01 Q1009 NOSIG",
      "taf": "TAF LYNI 152300Z 1600/1624 02004KT 9999 SCT015 BKN027 TX08/1613Z TN00/1606Z"
    },
    {
      "icao": "LYPG",
      "alert": "OK",
      "vis_m": 9999,
      "fzfg": false,
      "metar_trigger": false,
      "taf_trigger": false,
      "metar": "METAR LYPG 160500Z 33005KT 9999 FEW034 BKN050 05/02 Q1007 NOSIG",
      "taf": "TAF LYPG 152300Z 1600/1624 36005KT 9999 FEW020 SCT040 TX13/1612Z TN05/1605Z"
    },
    {
      "icao": "LZIB",
      "alert": "OK",
      "vis_m": 9999,
      "fzfg": false,
      "metar_trigger": false,
      "taf_trigger": false,
      "metar": "METAR LZIB 160500Z 09005KT CAVOK M05/M08 Q1005 NOSIG",
      "taf": ""
    },
    {
      "icao": "LZKZ",
      "alert": "OK",
      "vis_m": 9999,
      "fzfg": false,
      "metar_trigger": false,
      "taf_trigger": false,
      "metar": "METAR LZKZ 160500Z 02008KT 9999 SCT043 M05/M08 Q1006 NOSIG",
      "taf": ""
    },
    {
      "icao": "LZTT",
      "alert": "OK",
      "vis_m": 9999,
      "fzfg": false,
      "metar_trigger": false,
      "taf_trigger": false,
      "metar": "METAR LZTT 160500Z 30004KT 9999 FEW012 M11/M13 Q1002",
      "taf": ""
    },
    {
      "icao": "OEJN",
      "alert": "OK",
      "vis_m": 9999,
      "fzfg": false,
      "metar_trigger": false,
      "taf_trigger": false,
      "metar": "METAR OEJN 160500Z 11004KT CAVOK 25/15 Q1013 NOSIG",
      "taf": "TAF OEJN 160500Z 1606/1712 25010KT CAVOK"
    },
    {
      "icao": "OEMA",
      "alert": "OK",
      "vis_m": 5000,
      "fzfg": false,
      "metar_trigger": false,
      "taf_trigger": false,
      "metar": "METAR OEMA 160500Z 02004KT 5000 DU NSC 18/M05 Q1023 NOSIG",
      "taf": "TAF OEMA 160500Z 1606/1712 09010KT 7000 NSC"
    },
    {
      "icao": "OJAI",
      "alert": "OK",
      "vis_m": 3000,
      "fzfg": false,
      "metar_trigger": false,
      "taf_trigger": false,
      "metar": "METAR OJAI 160500Z 09010KT 3000 DU NSC 09/M03 Q1021 NOSIG",
      "taf": "TAF OJAI 160500Z 1606/1712 13010KT 3000 DU NSC"
    },
    {
      "icao": "OMAA",
      "alert": "OK",
      "vis_m": 6000,
      "fzfg": false,
      "metar_trigger": false,
      "taf_trigger": false,
      "metar": "METAR OMAA 160500Z 29014KT 6000 NSC 22/15 Q1015 TEMPO 4000 BLDU",
      "taf": "TAF OMAA 160500Z 1606/1712 30014KT 7000 NSC"
    },
    {
      "icao": "OMDB",
      "alert": "OK",
      "vis_m": 5000,
      "fzfg": false,
      "metar_trigger": false,
      "taf_trigger": false,
      "metar": "METAR OMDB 160500Z 27014KT 190V300 5000 DU NSC 23/14 Q1014 TEMPO 4000",
      "taf": "TAF OMDB 160500Z 1606/1712 30014KT 7000 NSC"
    },
    {
      "icao": "UAAA",
      "alert": "OK",
      "vis_m": 3000,
      "fzfg": false,
      "metar_trigger": false,
      "taf_trigger": false,
      "metar": "METAR UAAA 160500Z VRB01MPS 3000 BR FU FEW050 BKN100 04/01 Q1016 NOSIG",
      "taf": "TAF UAAA 152303Z 1600/1624 26003MPS 1700 BR FU BKN011CB OVC050 TX03/1609Z TNM02/1602Z"
    },
    {
      "icao": "UBBB",
      "alert": "OK",
      "vis_m": 9999,
      "fzfg": false,
      "metar_trigger": false,
      "taf_trigger": false,
      "metar": "METAR UBBB 160500Z 18018KT 9999 BKN002 09/08 Q1020 NOSIG",
      "taf": "TAF UBBB 160502Z 1606/1706 17018G28KT 9999 FEW030 TX15/1610Z TN06/1701Z"
    },
    {
      "icao": "UDSG",
      "alert": "OK",
      "vis_m": 9999,
      "fzfg": false,
      "metar_trigger": false,
      "taf_trigger": false,
      "metar": "METAR UDSG 160500Z 00000KT 9999 NSC M05/M06 Q1026 NOSIG",
      "taf": "TAF UDSG 152258Z 1600/1624 VRB06KT 9999 FEW040"
    },
    {
      "icao": "UDYZ",
      "alert": "OK",
      "vis_m": 7000,
      "fzfg": false,
      "metar_trigger": false,
      "taf_trigger": false,
      "metar": "METAR UDYZ 160500Z VRB01KT 7000 NSC 01/M00 Q1025 NOSIG",
      "taf": "TAF UDYZ 152300Z 1600/1624 16006KT 9999 FEW050"
    },
    {
      "icao": "UGKO",
      "alert": "OK",
      "vis_m": 9999,
      "fzfg": false,
      "metar_trigger": false,
      "taf_trigger": false,
      "metar": "METAR UGKO 160500Z 08027G39KT CAVOK 16/04 Q1013 NOSIG",
      "taf": "TAF UGKO 160500Z 1606/1706 08015KT CAVOK TX23/1611Z TN13/1703Z"
    }
  ]
}