{
  "ts_utc": "2025-12-27T16:23:54Z",
  "threshold_m": 150,
  "source": "stations_override.txt (ICAO list) + aviationweather.gov (METAR/TAF raw)",
  "station_count": 159,
  "stations": [
    {
      "icao": "BIKF",
      "alert": "OK",
      "vis_m": 9999,
      "fzfg": false,
      "metar_trigger": false,
      "taf_trigger": false,
      "metar": "METAR BIKF 271600Z 18011KT 9999 BKN015 OVC029 05/05 Q1040",
      "taf": "TAF BIKF 271330Z 2715/2815 18015KT 9999 SCT015 OVC024 TX07/2721Z TN06/2815Z"
    },
    {
      "icao": "BKPR",
      "alert": "OK",
      "vis_m": null,
      "fzfg": false,
      "metar_trigger": false,
      "taf_trigger": false,
      "metar": "",
      "taf": "TAF BKPR 271130Z 2712/2812 35008KT 9999 FEW030"
    },
    {
      "icao": "EBCI",
      "alert": "OK",
      "vis_m": 9999,
      "fzfg": false,
      "metar_trigger": false,
      "taf_trigger": false,
      "metar": "METAR EBCI 271550Z 04008KT 360V060 CAVOK 01/M07 Q1030 NOSIG",
      "taf": "TAF EBCI 271100Z 2712/2818 05008KT CAVOK"
    },
    {
      "icao": "EDDB",
      "alert": "OK",
      "vis_m": 5000,
      "fzfg": false,
      "metar_trigger": false,
      "taf_trigger": false,
      "metar": "METAR EDDB 271550Z AUTO 28010KT 5000 BR OVC002 01/01 Q1025 TEMPO 3000 BR",
      "taf": "TAF EDDB 271100Z 2712/2812 26010KT 5000 BR BKN005"
    },
    {
      "icao": "EDDH",
      "alert": "OK",
      "vis_m": 9999,
      "fzfg": false,
      "metar_trigger": false,
      "taf_trigger": false,
      "metar": "METAR EDDH 271550Z AUTO 29005KT 9999 FEW019 05/04 Q1028 NOSIG",
      "taf": "TAF EDDH 271100Z 2712/2818 27004KT 8000 OVC008"
    },
    {
      "icao": "EDDK",
      "alert": "OK",
      "vis_m": 9999,
      "fzfg": false,
      "metar_trigger": false,
      "taf_trigger": false,
      "metar": "METAR EDDK 271550Z AUTO VRB02KT CAVOK 00/M03 Q1031 NOSIG",
      "taf": "TAF EDDK 271100Z 2712/2818 VRB03KT CAVOK"
    },
    {
      "icao": "EDDN",
      "alert": "OK",
      "vis_m": 9999,
      "fzfg": false,
      "metar_trigger": false,
      "taf_trigger": false,
      "metar": "METAR EDDN 271550Z AUTO 23001KT CAVOK 03/M05 Q1027 NOSIG",
      "taf": "TAF EDDN 271100Z 2712/2812 VRB02KT CAVOK"
    },
    {
      "icao": "EDDS",
      "alert": "OK",
      "vis_m": 9999,
      "fzfg": false,
      "metar_trigger": false,
      "taf_trigger": false,
      "metar": "METAR EDDS 271550Z AUTO 15002KT CAVOK M01/M03 Q1028 NOSIG",
      "taf": "TAF EDDS 271100Z 2712/2812 04003KT CAVOK"
    },
    {
      "icao": "EDFH",
      "alert": "OK",
      "vis_m": 9999,
      "fzfg": false,
      "metar_trigger": false,
      "taf_trigger": false,
      "metar": "METAR EDFH 271550Z 09002KT CAVOK 03/M08 Q1028",
      "taf": "TAF EDFH 271100Z 2712/2812 07007KT CAVOK"
    },
    {
      "icao": "EDJA",
      "alert": "OK",
      "vis_m": 2200,
      "fzfg": false,
      "metar_trigger": false,
      "taf_trigger": false,
      "metar": "METAR EDJA 271550Z VRB01KT 2200 BR SCT002 OVC004 M03/M03 Q1027",
      "taf": "TAF EDJA 271400Z 2715/2724 VRB03KT 3500 BR OVC002"
    },
    {
      "icao": "EDLW",
      "alert": "OK",
      "vis_m": 7000,
      "fzfg": false,
      "metar_trigger": false,
      "taf_trigger": false,
      "metar": "METAR EDLW 271550Z 15004KT 110V170 7000 OVC005 01/M00 Q1032",
      "taf": "TAF EDLW 271100Z 2712/2812 VRB03KT CAVOK"
    },
    {
      "icao": "EDNY",
      "alert": "OK",
      "vis_m": 9999,
      "fzfg": false,
      "metar_trigger": false,
      "taf_trigger": false,
      "metar": "METAR EDNY 271550Z 06003KT 9999 OVC010 M01/M03 Q1029",
      "taf": "TAF EDNY 271400Z 2715/2724 05003KT 9999 OVC010"
    },
    {
      "icao": "EDSB",
      "alert": "OK",
      "vis_m": 9999,
      "fzfg": false,
      "metar_trigger": false,
      "taf_trigger": false,
      "metar": "METAR EDSB 271550Z 19003KT CAVOK 01/M02 Q1029",
      "taf": "TAF EDSB 271100Z 2712/2812 VRB03KT 9000 FEW010"
    },
    {
      "icao": "EETN",
      "alert": "OK",
      "vis_m": 9999,
      "fzfg": false,
      "metar_trigger": false,
      "taf_trigger": false,
      "metar": "METAR EETN 271620Z 31020G31KT 9999 FEW018CB OVC024 03/00 Q0995 NOSIG",
      "taf": "TAF EETN 271130Z 2712/2812 30016G28KT 9999 SCT025"
    },
    {
      "icao": "EFTU",
      "alert": "OK",
      "vis_m": 9999,
      "fzfg": false,
      "metar_trigger": false,
      "taf_trigger": false,
      "metar": "METAR EFTU 271620Z AUTO 34015G27KT 290V010 9999 -SHRA OVC033 04/M01 Q0999",
      "taf": "TAF EFTU 271447Z 2715/2815 31020G40KT 9999 BKN015"
    },
    {
      "icao": "EGBB",
      "alert": "OK",
      "vis_m": 9999,
      "fzfg": false,
      "metar_trigger": false,
      "taf_trigger": false,
      "metar": "METAR EGBB 271550Z 06011KT 9999 -RA BKN010 06/05 Q1036",
      "taf": ""
    },
    {
      "icao": "EGGP",
      "alert": "OK",
      "vis_m": 9999,
      "fzfg": false,
      "metar_trigger": false,
      "taf_trigger": false,
      "metar": "METAR EGGP 271550Z 06009KT 9999 FEW019 BKN024 06/02 Q1038",
      "taf": "TAF EGGP 271100Z 2712/2812 04008KT 9999 SCT018"
    },
    {
      "icao": "EGGW",
      "alert": "OK",
      "vis_m": 9999,
      "fzfg": false,
      "metar_trigger": false,
      "taf_trigger": false,
      "metar": "METAR EGGW 271550Z AUTO 04011KT 9999 OVC014 05/04 Q1034",
      "taf": ""
    },
    {
      "icao": "EGKK",
      "alert": "OK",
      "vis_m": 9999,
      "fzfg": false,
      "metar_trigger": false,
      "taf_trigger": false,
      "metar": "METAR EGKK 271550Z 06015KT 9999 BKN018 07/05 Q1033",
      "taf": "TAF EGKK 271055Z 2712/2818 05012KT 9999 SCT018"
    },
    {
      "icao": "EGNM",
      "alert": "OK",
      "vis_m": 9999,
      "fzfg": false,
      "metar_trigger": false,
      "taf_trigger": false,
      "metar": "METAR EGNM 271550Z 03009KT 010V070 9999 FEW012 OVC016 05/04 Q1038",
      "taf": "TAF EGNM 271100Z 2712/2812 04008KT 9999 BKN018"
    },
    {
      "icao": "EGPD",
      "alert": "OK",
      "vis_m": 9999,
      "fzfg": false,
      "metar_trigger": false,
      "taf_trigger": false,
      "metar": "METAR EGPD 271550Z COR AUTO 36004KT 320V030 9999 OVC029 06/02 Q1043 NOSIG",
      "taf": "TAF EGPD 271056Z 2712/2812 33006KT 9999 SCT015"
    },
    {
      "icao": "EGPF",
      "alert": "OK",
      "vis_m": 9999,
      "fzfg": false,
      "metar_trigger": false,
      "taf_trigger": false,
      "metar": "METAR EGPF 271550Z AUTO 06005KT 9999 OVC024 06/04 Q1041",
      "taf": "TAF EGPF 271055Z 2712/2812 06006KT 9999 SCT025"
    },
    {
      "icao": "EHBK",
      "alert": "OK",
      "vis_m": 9999,
      "fzfg": false,
      "metar_trigger": false,
      "taf_trigger": false,
      "metar": "METAR EHBK 271555Z AUTO 03006KT 9999 NSC M00/M06 Q1031 BECMG BKN003",
      "taf": ""
    },
    {
      "icao": "EHEH",
      "alert": "OK",
      "vis_m": 3600,
      "fzfg": false,
      "metar_trigger": false,
      "taf_trigger": false,
      "metar": "SPECI EHEH 271611Z AUTO 03005KT 340V050 3600 R03/P3000N BR BKN001 OVC002 02/02 Q1033 RED BECMG 5000 SCT003 BKN005 RMK TREND REMOTE BY EHWX",
      "taf": "TAF EHEH 271129Z 2712/2818 05007KT CAVOK"
    },
    {
      "icao": "EKBI",
      "alert": "OK",
      "vis_m": 9999,
      "fzfg": false,
      "metar_trigger": false,
      "taf_trigger": false,
      "metar": "METAR EKBI 271550Z AUTO 33006KT 9999 NCD 04/02 Q1029",
      "taf": "TAF EKBI 271427Z 2715/2815 31008KT CAVOK"
    },
    {
      "icao": "EKCH",
      "alert": "OK",
      "vis_m": 9999,
      "fzfg": false,
      "metar_trigger": false,
      "taf_trigger": false,
      "metar": "METAR EKCH 271550Z AUTO 34011KT 9999 NCD 06/M04 Q1026 NOSIG",
      "taf": "TAF EKCH 271427Z 2715/2815 34015KT CAVOK"
    },
    {
      "icao": "ENAL",
      "alert": "OK",
      "vis_m": 9999,
      "fzfg": false,
      "metar_trigger": false,
      "taf_trigger": false,
      "metar": "METAR ENAL 271550Z 36011KT 330V030 9999 FEW015 SCT032 BKN045 04/M04 Q1038",
      "taf": "TAF ENAL 271400Z 2715/2724 36012KT 9999 FEW018 BKN035"
    },
    {
      "icao": "ENBR",
      "alert": "OK",
      "vis_m": 9999,
      "fzfg": false,
      "metar_trigger": false,
      "taf_trigger": false,
      "metar": "METAR ENBR 271550Z 34014KT 9999 SCT039 04/M02 Q1035 TEMPO 33018G28KT RMK WIND 1200FT 34027G38KT",
      "taf": "TAF ENBR 271100Z 2712/2812 34018KT 9999 FEW040"
    },
    {
      "icao": "ENGM",
      "alert": "OK",
      "vis_m": 9999,
      "fzfg": false,
      "metar_trigger": false,
      "taf_trigger": false,
      "metar": "METAR ENGM 271550Z 35006KT 290V030 CAVOK 03/M09 Q1026 NOSIG",
      "taf": "TAF ENGM 271100Z 2712/2812 34015G28KT CAVOK"
    },
    {
      "icao": "ENHD",
      "alert": "OK",
      "vis_m": 9999,
      "fzfg": false,
      "metar_trigger": false,
      "taf_trigger": false,
      "metar": "METAR ENHD 271550Z 35030KT 9999 BKN036 06/M01 Q1035",
      "taf": "TAF ENHD 271400Z 2715/2723 01028G38KT 9999 SCT035"
    },
    {
      "icao": "ENTC",
      "alert": "OK",
      "vis_m": 9999,
      "fzfg": false,
      "metar_trigger": false,
      "taf_trigger": false,
      "metar": "METAR ENTC 271550Z 33018KT 9999 -SHSN SCT028 SCT040 BKN054 M02/M06 Q1015 BECMG 24015KT TEMPO 0500 +SHSN VV004 RMK WIND 2600FT 35055KT",
      "taf": "TAF ENTC 271100Z 2712/2812 36018KT 9999 SCT018CB BKN025"
    },
    {
      "icao": "ENTO",
      "alert": "OK",
      "vis_m": 9999,
      "fzfg": false,
      "metar_trigger": false,
      "taf_trigger": false,
      "metar": "METAR ENTO 271550Z 28007KT CAVOK 03/M05 Q1027 NOSIG",
      "taf": "TAF ENTO 271100Z 2712/2812 32008KT CAVOK"
    },
    {
      "icao": "ENVA",
      "alert": "OK",
      "vis_m": 9999,
      "fzfg": false,
      "metar_trigger": false,
      "taf_trigger": false,
      "metar": "METAR ENVA 271550Z 29020KT 9999 SCT026CB 02/M01 Q1031 RMK WIND 670FT 30034KT",
      "taf": ""
    },
    {
      "icao": "ENZV",
      "alert": "OK",
      "vis_m": 9999,
      "fzfg": false,
      "metar_trigger": false,
      "taf_trigger": false,
      "metar": "METAR ENZV 271550Z 34021KT CAVOK 05/M03 Q1035 NOSIG",
      "taf": "TAF ENZV 271100Z 2712/2812 34025KT 9999 FEW008"
    },
    {
      "icao": "EPGD",
      "alert": "OK",
      "vis_m": 9999,
      "fzfg": false,
      "metar_trigger": false,
      "taf_trigger": false,
      "metar": "METAR EPGD 271600Z 31014KT 9999 FEW028 03/01 Q1015",
      "taf": ""
    },
    {
      "icao": "EPKK",
      "alert": "OK",
      "vis_m": 9999,
      "fzfg": false,
      "metar_trigger": false,
      "taf_trigger": false,
      "metar": "METAR EPKK 271600Z 27014KT 9999 SCT004 BKN027 M01/M01 Q1018",
      "taf": "TAF EPKK 271430Z 2715/2815 25015KT 2000 BR OVC003"
    },
    {
      "icao": "EPKT",
      "alert": "OK",
      "vis_m": 2800,
      "fzfg": false,
      "metar_trigger": false,
      "taf_trigger": false,
      "metar": "METAR EPKT 271600Z 24012KT 2800 BR OVC002 M02/M02 Q1018",
      "taf": ""
    },
    {
      "icao": "EPLB",
      "alert": "OK",
      "vis_m": 1900,
      "fzfg": false,
      "metar_trigger": false,
      "taf_trigger": false,
      "metar": "METAR EPLB 271600Z 28016KT 1900 -FZDZ BR OVC002 M00/M00 Q1012",
      "taf": ""
    },
    {
      "icao": "EPMO",
      "alert": "OK",
      "vis_m": 3500,
      "fzfg": false,
      "metar_trigger": false,
      "taf_trigger": false,
      "metar": "METAR EPMO 271600Z 25018KT 3500 -FZDZ BR OVC006 M00/M00 Q1013",
      "taf": ""
    },
    {
      "icao": "EPPO",
      "alert": "OK",
      "vis_m": 2500,
      "fzfg": false,
      "metar_trigger": false,
      "taf_trigger": false,
      "metar": "METAR EPPO 271600Z 27014KT 2500 -FZDZ BR OVC002 M00/M01 Q1020",
      "taf": ""
    },
    {
      "icao": "EPRA",
      "alert": "OK",
      "vis_m": 3200,
      "fzfg": false,
      "metar_trigger": false,
      "taf_trigger": false,
      "metar": "METAR EPRA 271600Z 30015KT 3200 BR OVC003 M01/M01 Q1014",
      "taf": "TAF EPRA 271430Z 2715/2724 27014KT 4000 BR OVC003"
    },
    {
      "icao": "EPRZ",
      "alert": "OK",
      "vis_m": 1400,
      "fzfg": false,
      "metar_trigger": false,
      "taf_trigger": false,
      "metar": "METAR EPRZ 271600Z 25018KT 1400 R27/P2000N BR OVC002 M01/M01 Q1015",
      "taf": ""
    },
    {
      "icao": "EPSC",
      "alert": "OK",
      "vis_m": 9999,
      "fzfg": false,
      "metar_trigger": false,
      "taf_trigger": false,
      "metar": "METAR EPSC 271600Z 29011KT 9999 SCT004 OVC005 04/04 Q1021",
      "taf": ""
    },
    {
      "icao": "EPSY",
      "alert": "OK",
      "vis_m": 9999,
      "fzfg": false,
      "metar_trigger": false,
      "taf_trigger": false,
      "metar": "METAR EPSY 271600Z 29009KT 250V330 9999 BKN008 03/02 Q1010",
      "taf": "TAF EPSY 271430Z 2715/2724 31012KT 8000 BKN007"
    },
    {
      "icao": "EPWA",
      "alert": "OK",
      "vis_m": 5000,
      "fzfg": false,
      "metar_trigger": false,
      "taf_trigger": false,
      "metar": "METAR EPWA 271600Z 27016KT 5000 -FZDZ BR OVC003 M00/M00 Q1014 BECMG BKN005",
      "taf": "TAF EPWA 271430Z 2715/2815 26015KT 2000 BR OVC002"
    },
    {
      "icao": "EPWR",
      "alert": "OK",
      "vis_m": 9999,
      "fzfg": false,
      "metar_trigger": false,
      "taf_trigger": false,
      "metar": "METAR EPWR 271600Z 31019KT 9999 FEW021 01/M03 Q1022",
      "taf": "TAF EPWR 271430Z 2715/2815 29015KT CAVOK"
    },
    {
      "icao": "ESGG",
      "alert": "OK",
      "vis_m": 9999,
      "fzfg": false,
      "metar_trigger": false,
      "taf_trigger": false,
      "metar": "METAR ESGG 271550Z 32006KT CAVOK 02/M04 Q1026",
      "taf": "TAF ESGG 271430Z 2715/2815 36012KT CAVOK"
    },
    {
      "icao": "ESKN",
      "alert": "OK",
      "vis_m": 9999,
      "fzfg": false,
      "metar_trigger": false,
      "taf_trigger": false,
      "metar": "METAR ESKN 271550Z 29016KT CAVOK 03/M06 Q1015",
      "taf": "TAF ESKN 271430Z 2715/2815 33018G32KT CAVOK"
    },
    {
      "icao": "ESMS",
      "alert": "OK",
      "vis_m": 9999,
      "fzfg": false,
      "metar_trigger": false,
      "taf_trigger": false,
      "metar": "METAR ESMS 271550Z 35013KT CAVOK 04/M05 Q1024",
      "taf": "TAF ESMS 271427Z 2715/2815 33012KT CAVOK"
    },
    {
      "icao": "ESSA",
      "alert": "OK",
      "vis_m": 9999,
      "fzfg": false,
      "metar_trigger": false,
      "taf_trigger": false,
      "metar": "METAR ESSA 271550Z 33017G29KT CAVOK 03/M09 Q1011 NOSIG",
      "taf": "TAF ESSA 271430Z 2715/2815 33015G25KT CAVOK"
    },
    {
      "icao": "EYKA",
      "alert": "OK",
      "vis_m": 9999,
      "fzfg": false,
      "metar_trigger": false,
      "taf_trigger": false,
      "metar": "METAR EYKA 271620Z 31008KT 250V030 9999 FEW040 03/M01 Q1004",
      "taf": "TAF EYKA 271114Z 2712/2812 30015KT 9000 BKN030"
    },
    {
      "icao": "EYPA",
      "alert": "OK",
      "vis_m": 9999,
      "fzfg": false,
      "metar_trigger": false,
      "taf_trigger": false,
      "metar": "METAR EYPA 271620Z 35011G24KT 310V030 9999 FEW043 06/M02 Q1009",
      "taf": "TAF EYPA 271106Z 2712/2812 33012G23KT 9000 SCT030"
    },
    {
      "icao": "EYVI",
      "alert": "OK",
      "vis_m": 1100,
      "fzfg": false,
      "metar_trigger": false,
      "taf_trigger": false,
      "metar": "METAR EYVI 271620Z 34021G36KT 1100 R01/1700VP2000N SHSNRA BKN012CB 01/M01 Q1001 TEMPO 35020G40KT 0800 +SHSNRA",
      "taf": "TAF EYVI 271110Z 2712/2812 26016G26KT 9000 OVC002"
    },
    {
      "icao": "GCFV",
      "alert": "OK",
      "vis_m": 9999,
      "fzfg": false,
      "metar_trigger": false,
      "taf_trigger": false,
      "metar": "METAR GCFV 271600Z 27016G28KT 240V310 9999 SCT035 21/12 Q1017",
      "taf": "TAF GCFV 271400Z 2715/2815 28015KT 9999 SCT040 TX22/2814Z TN13/2806Z"
    },
    {
      "icao": "GCLP",
      "alert": "OK",
      "vis_m": 9999,
      "fzfg": false,
      "metar_trigger": false,
      "taf_trigger": false,
      "metar": "METAR GCLP 271600Z 09008KT 060V120 9999 BKN050 21/13 Q1017 NOSIG",
      "taf": ""
    },
    {
      "icao": "GCTS",
      "alert": "OK",
      "vis_m": 9999,
      "fzfg": false,
      "metar_trigger": false,
      "taf_trigger": false,
      "metar": "METAR GCTS 271600Z 11011KT 9999 SCT045 21/10 Q1017 WS R07 NOSIG",
      "taf": "TAF GCTS 271400Z 2715/2815 VRB07KT 9999 FEW040 TX24/2814Z TN14/2806Z"
    },
    {
      "icao": "GMAD",
      "alert": "OK",
      "vis_m": 6000,
      "fzfg": false,
      "metar_trigger": false,
      "taf_trigger": false,
      "metar": "METAR GMAD 271600Z 07004KT 6000 BKN020TCU BKN080 14/14 Q1015 NOSIG",
      "taf": "TAF GMAD 271100Z 2712/2818 05004KT 6000 BKN020TCU BKN080"
    },
    {
      "icao": "GMMN",
      "alert": "OK",
      "vis_m": 9999,
      "fzfg": false,
      "metar_trigger": false,
      "taf_trigger": false,
      "metar": "METAR GMMN 271600Z 26010KT 9999 BKN016TCU SCT023CB 15/11 Q1011 RETSRA NOSIG",
      "taf": "TAF GMMN 271100Z 2712/2818 20018KT 9999 SCT008 SCT013TCU BKN020"
    },
    {
      "icao": "GMMX",
      "alert": "OK",
      "vis_m": 4000,
      "fzfg": false,
      "metar_trigger": false,
      "taf_trigger": false,
      "metar": "METAR GMMX 271600Z 22004KT 180V270 4000 -RA SCT010 BKN016 12/11 Q1013 TEMPO 1200 RA",
      "taf": ""
    },
    {
      "icao": "HEGN",
      "alert": "OK",
      "vis_m": 9999,
      "fzfg": false,
      "metar_trigger": false,
      "taf_trigger": false,
      "metar": "METAR HEGN 271600Z 34015KT CAVOK 20/08 Q1011 NOSIG",
      "taf": "TAF HEGN 271100Z 2712/2818 34016KT CAVOK"
    },
    {
      "icao": "HEMA",
      "alert": "OK",
      "vis_m": 9999,
      "fzfg": false,
      "metar_trigger": false,
      "taf_trigger": false,
      "metar": "METAR HEMA 271600Z 33008KT CAVOK 21/11 Q1011 NOSIG",
      "taf": "TAF HEMA 271100Z 2712/2818 35016KT CAVOK"
    },
    {
      "icao": "HESH",
      "alert": "OK",
      "vis_m": 9999,
      "fzfg": false,
      "metar_trigger": false,
      "taf_trigger": false,
      "metar": "METAR HESH 271600Z 02006KT CAVOK 21/07 Q1010 NOSIG",
      "taf": "TAF HESH 271100Z 2712/2818 36014KT CAVOK"
    },
    {
      "icao": "HESX",
      "alert": "OK",
      "vis_m": 9999,
      "fzfg": false,
      "metar_trigger": false,
      "taf_trigger": false,
      "metar": "METAR HESX 271600Z 32010KT 9999 SCT020 17/10 Q1013 NOSIG",
      "taf": "TAF HESX 271103Z 2712/2818 28012KT 9999 FEW025"
    },
    {
      "icao": "LATI",
      "alert": "OK",
      "vis_m": 9999,
      "fzfg": false,
      "metar_trigger": false,
      "taf_trigger": false,
      "metar": "METAR LATI 271620Z 03004KT 340V060 CAVOK 09/M02 Q1019 NOSIG",
      "taf": "TAF LATI 271100Z 2712/2812 VRB05KT CAVOK TX16/2712Z TNM01/2805Z"
    },
    {
      "icao": "LBPD",
      "alert": "OK",
      "vis_m": 9999,
      "fzfg": false,
      "metar_trigger": false,
      "taf_trigger": false,
      "metar": "METAR LBPD 271600Z AUTO 31017KT 9999 NCD 04/M01 Q1019 NOSIG",
      "taf": "TAF LBPD 271100Z 2712/2812 29018KT 9999 SCT020"
    },
    {
      "icao": "LBSF",
      "alert": "OK",
      "vis_m": 9999,
      "fzfg": false,
      "metar_trigger": false,
      "taf_trigger": false,
      "metar": "METAR LBSF 271600Z AUTO 29014KT 9999 OVC017/// 00/M03 Q1021 NOSIG",
      "taf": "TAF LBSF 271100Z 2712/2812 29018KT 9999 BKN015"
    },
    {
      "icao": "LBWN",
      "alert": "OK",
      "vis_m": 9999,
      "fzfg": false,
      "metar_trigger": false,
      "taf_trigger": false,
      "metar": "METAR LBWN 271600Z AUTO 32006KT 9999 NCD 00/M02 Q1018 NOSIG",
      "taf": "TAF LBWN 271100Z 2712/2812 32012KT 9999 SCT030"
    },
    {
      "icao": "LCLK",
      "alert": "OK",
      "vis_m": 9999,
      "fzfg": false,
      "metar_trigger": false,
      "taf_trigger": false,
      "metar": "METAR LCLK 271600Z 36011KT 9999 FEW025 SCT060 14/08 Q1006 NOSIG",
      "taf": "TAF LCLK 271130Z 2712/2812 31009KT 9999 FEW025"
    },
    {
      "icao": "LCPH",
      "alert": "OK",
      "vis_m": 9999,
      "fzfg": false,
      "metar_trigger": false,
      "taf_trigger": false,
      "metar": "METAR LCPH 271600Z 35004KT 9999 FEW030 SCT050 15/05 Q1006 NOSIG",
      "taf": "TAF LCPH 271130Z 2712/2812 30014KT 9999 FEW020 SCT035"
    },
    {
      "icao": "LEAL",
      "alert": "OK",
      "vis_m": 9999,
      "fzfg": false,
      "metar_trigger": false,
      "taf_trigger": false,
      "metar": "METAR LEAL 271600Z 09006KT 9999 FEW020 15/11 Q1015 NOSIG",
      "taf": "TAF LEAL 271100Z 2712/2812 31005KT 9999 SCT030 TX15/2713Z TN11/2806Z"
    },
    {
      "icao": "LEBB",
      "alert": "OK",
      "vis_m": 9999,
      "fzfg": false,
      "metar_trigger": false,
      "taf_trigger": false,
      "metar": "METAR LEBB 271600Z 10003KT 060V150 CAVOK 13/10 Q1018 NOSIG",
      "taf": "TAF LEBB 271100Z 2712/2812 11005KT 9999 FEW040 TX14/2715Z TN04/2806Z"
    },
    {
      "icao": "LEBL",
      "alert": "OK",
      "vis_m": 2000,
      "fzfg": false,
      "metar_trigger": false,
      "taf_trigger": false,
      "metar": "METAR LEBL 271600Z 07020KT 2000 R24R/1100N R06L/1800D R06R/1900N R24L/P2000 +RA BKN012 BKN023 OVC038 12/12 Q1017 NOSIG",
      "taf": "TAF LEBL 271100Z 2712/2812 07012KT 9999 SCT014 TX14/2712Z TN11/2807Z"
    },
    {
      "icao": "LECH",
      "alert": "OK",
      "vis_m": 9999,
      "fzfg": false,
      "metar_trigger": false,
      "taf_trigger": false,
      "metar": "METAR LECH 271600Z AUTO 03006KT 300V080 9999 -RA BKN040 BKN055 BKN070 09/09 Q1016",
      "taf": ""
    },
    {
      "icao": "LEMD",
      "alert": "OK",
      "vis_m": 9999,
      "fzfg": false,
      "metar_trigger": false,
      "taf_trigger": false,
      "metar": "METAR LEMD 271600Z VRB02KT 9999 SCT039 SCT050 10/04 Q1014 NOSIG",
      "taf": "TAF LEMD 271100Z 2712/2818 VRB03KT CAVOK TX12/2715Z TN00/2806Z"
    },
    {
      "icao": "LEMG",
      "alert": "OK",
      "vis_m": 9999,
      "fzfg": false,
      "metar_trigger": false,
      "taf_trigger": false,
      "metar": "METAR LEMG 271600Z 09025KT 9999 SCT017 OVC060 14/11 Q1009 NOSIG",
      "taf": "TAF LEMG 271100Z 2712/2812 11020KT 9999 FEW045 TX15/2714Z TN12/2806Z"
    },
    {
      "icao": "LEVC",
      "alert": "OK",
      "vis_m": 9999,
      "fzfg": false,
      "metar_trigger": false,
      "taf_trigger": false,
      "metar": "METAR LEVC 271600Z 05005KT 340V080 9999 FEW015 SCT020 BKN050 13/09 Q1015 NOSIG",
      "taf": "TAF LEVC 271100Z 2712/2812 30005KT 9999 FEW015 BKN030 TX14/2713Z TN09/2806Z"
    },
    {
      "icao": "LEXJ",
      "alert": "OK",
      "vis_m": 9999,
      "fzfg": false,
      "metar_trigger": false,
      "taf_trigger": false,
      "metar": "METAR LEXJ 271600Z 07006KT 020V110 CAVOK 13/09 Q1016",
      "taf": "TAF LEXJ 271400Z 2715/2815 10009KT 9999 FEW060 TX15/2814Z TN07/2809Z"
    },
    {
      "icao": "LEZG",
      "alert": "OK",
      "vis_m": 9999,
      "fzfg": false,
      "metar_trigger": false,
      "taf_trigger": false,
      "metar": "METAR LEZG 271600Z VRB02KT 9999 2000SW BKN050 10/09 Q1018 NOSIG",
      "taf": "TAF LEZG 271100Z 2712/2812 VRB05KT 9999 FEW010 BKN015 TX11/2714Z TN05/2806Z"
    },
    {
      "icao": "LEZL",
      "alert": "OK",
      "vis_m": 9000,
      "fzfg": false,
      "metar_trigger": false,
      "taf_trigger": false,
      "metar": "METAR LEZL 271600Z 10008KT 060V140 9000 -RA FEW048 12/10 Q1009 NOSIG",
      "taf": "TAF LEZL 271400Z 2715/2815 09008KT CAVOK TX16/2715Z TN08/2806Z"
    },
    {
      "icao": "LFBD",
      "alert": "OK",
      "vis_m": 9999,
      "fzfg": false,
      "metar_trigger": false,
      "taf_trigger": false,
      "metar": "METAR LFBD 271600Z AUTO 09003KT 9999 FEW039 11/05 Q1021 NOSIG",
      "taf": "TAF LFBD 271100Z 2712/2818 06010KT CAVOK TX13/2714Z TN03/2805Z"
    },
    {
      "icao": "LFLL",
      "alert": "OK",
      "vis_m": 5000,
      "fzfg": false,
      "metar_trigger": false,
      "taf_trigger": false,
      "metar": "METAR LFLL 271600Z 03005KT 350V070 5000 BR OVC005 02/01 Q1027 NOSIG",
      "taf": "TAF LFLL 271100Z 2712/2818 36004KT 7000 BKN007"
    },
    {
      "icao": "LFLS",
      "alert": "OK",
      "vis_m": 9999,
      "fzfg": false,
      "metar_trigger": false,
      "taf_trigger": false,
      "metar": "METAR LFLS 271600Z AUTO 08006KT CAVOK 02/M00 Q1025 NOSIG",
      "taf": "TAF LFLS 271400Z 2715/2815 VRB02KT CAVOK"
    },
    {
      "icao": "LFMN",
      "alert": "OK",
      "vis_m": 9999,
      "fzfg": false,
      "metar_trigger": false,
      "taf_trigger": false,
      "metar": "METAR LFMN 271600Z 32010KT CAVOK 13/03 Q1023 NOSIG",
      "taf": ""
    },
    {
      "icao": "LFOB",
      "alert": "OK",
      "vis_m": 9999,
      "fzfg": false,
      "metar_trigger": false,
      "taf_trigger": false,
      "metar": "METAR LFOB 271600Z AUTO 03006KT 320V050 9999 FEW013 02/M01 Q1029 NOSIG",
      "taf": "TAF LFOB 271100Z 2712/2812 01006KT 8000 NSC"
    },
    {
      "icao": "LFPO",
      "alert": "OK",
      "vis_m": 9000,
      "fzfg": false,
      "metar_trigger": false,
      "taf_trigger": false,
      "metar": "METAR LFPO 271600Z AUTO VRB02KT 9000 NSC 00/M02 Q1029",
      "taf": "TAF LFPO 270500Z 2706/2812 03008KT CAVOK"
    },
    {
      "icao": "LFSB",
      "alert": "OK",
      "vis_m": 9999,
      "fzfg": false,
      "metar_trigger": false,
      "taf_trigger": false,
      "metar": "METAR LFSB 271600Z AUTO 11006KT 9999 4100 NSC 01/M02 Q1028 NOSIG",
      "taf": "TAF LFSB 271100Z 2712/2812 11008KT 9999 FEW016"
    },
    {
      "icao": "LGAV",
      "alert": "OK",
      "vis_m": 9999,
      "fzfg": false,
      "metar_trigger": false,
      "taf_trigger": false,
      "metar": "METAR LGAV 271550Z 35006KT 9999 FEW018 BKN035 09/07 Q1020 NOSIG",
      "taf": "TAF LGAV 271100Z 2712/2812 02013KT 9999 FEW020 BKN030"
    },
    {
      "icao": "LGTS",
      "alert": "OK",
      "vis_m": 9999,
      "fzfg": false,
      "metar_trigger": false,
      "taf_trigger": false,
      "metar": "METAR LGTS 271550Z 32015KT CAVOK 09/01 Q1021 NOSIG",
      "taf": "TAF LGTS 271100Z 2712/2812 33015KT 9999 FEW025"
    },
    {
      "icao": "LHBP",
      "alert": "OK",
      "vis_m": 9999,
      "fzfg": false,
      "metar_trigger": false,
      "taf_trigger": false,
      "metar": "METAR LHBP 271600Z 26009KT CAVOK 01/M02 Q1021 NOSIG",
      "taf": "TAF LHBP 271115Z 2712/2812 24007KT CAVOK"
    },
    {
      "icao": "LHDC",
      "alert": "OK",
      "vis_m": 9999,
      "fzfg": false,
      "metar_trigger": false,
      "taf_trigger": false,
      "metar": "METAR LHDC 271545Z AUTO 22011KT CAVOK M00/M01 Q1022",
      "taf": "TAF LHDC 270815Z 2709/2718 22005KT CAVOK"
    },
    {
      "icao": "LIBD",
      "alert": "OK",
      "vis_m": 9999,
      "fzfg": false,
      "metar_trigger": false,
      "taf_trigger": false,
      "metar": "METAR LIBD 271550Z 33009KT 300V360 9999 SCT025 12/08 Q1022",
      "taf": "TAF LIBD 271100Z 2712/2812 32013KT 9999 SCT020"
    },
    {
      "icao": "LIBG",
      "alert": "OK",
      "vis_m": 9999,
      "fzfg": false,
      "metar_trigger": false,
      "taf_trigger": false,
      "metar": "METAR LIBG 271550Z 33007KT 300V360 CAVOK 12/09 Q1020",
      "taf": "TAF LIBG 271400Z 2715/2724 35016KT 9999 FEW025"
    },
    {
      "icao": "LIBP",
      "alert": "OK",
      "vis_m": 9999,
      "fzfg": false,
      "metar_trigger": false,
      "taf_trigger": false,
      "metar": "METAR LIBP 271550Z AUTO 31002KT 9999 NCD 09/04 Q1025",
      "taf": "TAF LIBP 271100Z 2712/2812 VRB05KT 9999 BKN030"
    },
    {
      "icao": "LIBR",
      "alert": "OK",
      "vis_m": 9999,
      "fzfg": false,
      "metar_trigger": false,
      "taf_trigger": false,
      "metar": "METAR LIBR 271550Z 35013KT CAVOK 13/06 Q1020",
      "taf": "TAF LIBR 271100Z 2712/2812 35015KT 9999 SCT030"
    },
    {
      "icao": "LICA",
      "alert": "OK",
      "vis_m": 9999,
      "fzfg": false,
      "metar_trigger": false,
      "taf_trigger": false,
      "metar": "METAR LICA 271550Z AUTO 06004KT 9999 NCD 13/07 Q1019",
      "taf": "TAF LICA 271100Z 2712/2812 04010KT CAVOK"
    },
    {
      "icao": "LICC",
      "alert": "OK",
      "vis_m": 9999,
      "fzfg": false,
      "metar_trigger": false,
      "taf_trigger": false,
      "metar": "METAR LICC 271550Z 07011KT 9999 FEW025 BKN070 15/12 Q1020",
      "taf": "TAF LICC 271100Z 2712/2812 07016KT 9999 SCT040"
    },
    {
      "icao": "LICJ",
      "alert": "OK",
      "vis_m": 9999,
      "fzfg": false,
      "metar_trigger": false,
      "taf_trigger": false,
      "metar": "METAR LICJ 271550Z 07011KT CAVOK 15/11 Q1019",
      "taf": "TAF LICJ 271100Z 2712/2812 05012KT 9999 FEW040"
    },
    {
      "icao": "LIMC",
      "alert": "OK",
      "vis_m": 9999,
      "fzfg": false,
      "metar_trigger": false,
      "taf_trigger": false,
      "metar": "METAR LIMC 271550Z 24004KT CAVOK 08/03 Q1025 NOSIG",
      "taf": "TAF LIMC 271100Z 2712/2818 VRB05KT CAVOK"
    },
    {
      "icao": "LIME",
      "alert": "OK",
      "vis_m": 9999,
      "fzfg": false,
      "metar_trigger": false,
      "taf_trigger": false,
      "metar": "METAR LIME 271550Z AUTO 27006KT 9999 NCD 07/03 Q1025",
      "taf": "TAF LIME 271100Z 2712/2812 VRB05KT CAVOK"
    },
    {
      "icao": "LIMF",
      "alert": "OK",
      "vis_m": 9999,
      "fzfg": false,
      "metar_trigger": false,
      "taf_trigger": false,
      "metar": "METAR LIMF 271550Z 19001KT CAVOK 10/02 Q1025",
      "taf": "TAF LIMF 271100Z 2712/2812 VRB06KT CAVOK"
    },
    {
      "icao": "LIMJ",
      "alert": "OK",
      "vis_m": 9999,
      "fzfg": false,
      "metar_trigger": false,
      "taf_trigger": false,
      "metar": "METAR LIMJ 271550Z 04015KT CAVOK 13/M01 Q1023 WS R10",
      "taf": "TAF LIMJ 271100Z 2712/2812 03015KT CAVOK"
    },
    {
      "icao": "LIPE",
      "alert": "OK",
      "vis_m": 9999,
      "fzfg": false,
      "metar_trigger": false,
      "taf_trigger": false,
      "metar": "METAR LIPE 271550Z 26005KT CAVOK 08/03 Q1025",
      "taf": "TAF LIPE 271100Z 2712/2812 27010KT CAVOK"
    },
    {
      "icao": "LIPH",
      "alert": "OK",
      "vis_m": 9999,
      "fzfg": false,
      "metar_trigger": false,
      "taf_trigger": false,
      "metar": "METAR LIPH 271550Z 23005KT CAVOK 08/03 Q1024",
      "taf": "TAF LIPH 271100Z 2712/2812 VRB03KT CAVOK"
    },
    {
      "icao": "LIPQ",
      "alert": "OK",
      "vis_m": 9999,
      "fzfg": false,
      "metar_trigger": false,
      "taf_trigger": false,
      "metar": "METAR LIPQ 271550Z AUTO 31002KT 9999 NCD 08/02 Q1023",
      "taf": "TAF LIPQ 271100Z 2712/2812 VRB04KT CAVOK"
    },
    {
      "icao": "LIPR",
      "alert": "OK",
      "vis_m": 9999,
      "fzfg": false,
      "metar_trigger": false,
      "taf_trigger": false,
      "metar": "METAR LIPR 271550Z 32006KT CAVOK 07/02 Q1025",
      "taf": "TAF LIPR 271100Z 2712/2812 31012KT CAVOK"
    },
    {
      "icao": "LIPX",
      "alert": "OK",
      "vis_m": 9999,
      "fzfg": false,
      "metar_trigger": false,
      "taf_trigger": false,
      "metar": "METAR LIPX 271550Z 25007KT CAVOK 07/04 Q1024",
      "taf": "TAF LIPX 271100Z 2712/2812 VRB06KT CAVOK"
    },
    {
      "icao": "LIPY",
      "alert": "OK",
      "vis_m": 9999,
      "fzfg": false,
      "metar_trigger": false,
      "taf_trigger": false,
      "metar": "METAR LIPY 271550Z AUTO 30004KT 9999 NCD 08/03 Q1025",
      "taf": "TAF LIPY 271100Z 2712/2812 31010KT 9999 SCT030"
    },
    {
      "icao": "LIPZ",
      "alert": "OK",
      "vis_m": 9999,
      "fzfg": false,
      "metar_trigger": false,
      "taf_trigger": false,
      "metar": "METAR LIPZ 271550Z 23004KT CAVOK 07/05 Q1024 NOSIG",
      "taf": "TAF LIPZ 271100Z 2712/2818 VRB05KT CAVOK"
    },
    {
      "icao": "LIRF",
      "alert": "OK",
      "vis_m": 9999,
      "fzfg": false,
      "metar_trigger": false,
      "taf_trigger": false,
      "metar": "METAR LIRF 271550Z 29004KT CAVOK 12/06 Q1022 NOSIG",
      "taf": "TAF LIRF 271100Z 2712/2818 05010KT CAVOK"
    },
    {
      "icao": "LIRN",
      "alert": "OK",
      "vis_m": 9999,
      "fzfg": false,
      "metar_trigger": false,
      "taf_trigger": false,
      "metar": "METAR LIRN 271550Z 03005KT CAVOK 11/04 Q1021 NOSIG",
      "taf": "TAF LIRN 271100Z 2712/2812 03011KT CAVOK"
    },
    {
      "icao": "LIRP",
      "alert": "OK",
      "vis_m": 9999,
      "fzfg": false,
      "metar_trigger": false,
      "taf_trigger": false,
      "metar": "METAR LIRP 271545Z VRB03KT CAVOK 12/03 Q1023 NOSIG",
      "taf": "TAF LIRP 271100Z 2712/2812 09008KT CAVOK"
    },
    {
      "icao": "LIRZ",
      "alert": "OK",
      "vis_m": 9999,
      "fzfg": false,
      "metar_trigger": false,
      "taf_trigger": false,
      "metar": "METAR LIRZ 271550Z AUTO 01008KT 9999 NCD 09/02 Q1022",
      "taf": "TAF LIRZ 271100Z 2712/2812 01010KT 9999 FEW030"
    },
    {
      "icao": "LJLJ",
      "alert": "OK",
      "vis_m": 400,
      "fzfg": true,
      "metar_trigger": false,
      "taf_trigger": false,
      "metar": "METAR LJLJ 271600Z 00000KT 0400 R30/0600N FZFG VV002 M01/M02 Q1025 NOSIG",
      "taf": "TAF LJLJ 271100Z 2712/2812 30002KT 0400 FZFG VV002"
    },
    {
      "icao": "LKMT",
      "alert": "OK",
      "vis_m": 9999,
      "fzfg": false,
      "metar_trigger": false,
      "taf_trigger": false,
      "metar": "METAR LKMT 271600Z 23011KT 9999 BKN036 M01/M03 Q1021 NOSIG",
      "taf": "TAF LKMT 271100Z 2712/2812 23008KT 6000 OVC007"
    },
    {
      "icao": "LKPR",
      "alert": "OK",
      "vis_m": 9999,
      "fzfg": false,
      "metar_trigger": false,
      "taf_trigger": false,
      "metar": "METAR LKPR 271600Z 24005KT CAVOK 01/M03 Q1024 NOSIG",
      "taf": "TAF LKPR 271400Z 2715/2821 23010KT CAVOK"
    },
    {
      "icao": "LLBG",
      "alert": "OK",
      "vis_m": 9999,
      "fzfg": false,
      "metar_trigger": false,
      "taf_trigger": false,
      "metar": "METAR LLBG 271620Z VRB02KT 9999 FEW023TCU SCT031 BKN037 15/13 Q1008 RERA TEMPO 5000 RA FEW025TCU",
      "taf": "TAF LLBG 271111Z 2712/2812 22012KT 9999 SCT030 BKN040"
    },
    {
      "icao": "LMML",
      "alert": "OK",
      "vis_m": 9999,
      "fzfg": false,
      "metar_trigger": false,
      "taf_trigger": false,
      "metar": "METAR LMML 271615Z 07015KT 9999 BKN017 16/12 Q1018 NOSIG",
      "taf": "TAF LMML 271100Z 2712/2812 07017KT 9999 SCT020"
    },
    {
      "icao": "LOWW",
      "alert": "OK",
      "vis_m": 9999,
      "fzfg": false,
      "metar_trigger": false,
      "taf_trigger": false,
      "metar": "METAR LOWW 271550Z 29014KT CAVOK 03/M03 Q1023 NOSIG",
      "taf": "TAF LOWW 271415Z 2715/2821 35007KT CAVOK TX04/2812Z TN00/2821Z"
    },
    {
      "icao": "LPFR",
      "alert": "OK",
      "vis_m": 9999,
      "fzfg": false,
      "metar_trigger": false,
      "taf_trigger": false,
      "metar": "METAR LPFR 271600Z 06006KT 040V110 9999 VCSH FEW014 FEW020CB BKN025 13/12 Q1004",
      "taf": "TAF LPFR 271100Z 2712/2812 09017KT 9999 SCT015 BKN030"
    },
    {
      "icao": "LPMA",
      "alert": "OK",
      "vis_m": 9999,
      "fzfg": false,
      "metar_trigger": false,
      "taf_trigger": false,
      "metar": "METAR LPMA 271600Z 34011KT 300V020 9999 SCT016 FEW018TCU 18/08 Q1015",
      "taf": "TAF LPMA 271100Z 2712/2812 32010KT 9999 SCT015"
    },
    {
      "icao": "LPPR",
      "alert": "OK",
      "vis_m": 9999,
      "fzfg": false,
      "metar_trigger": false,
      "taf_trigger": false,
      "metar": "METAR LPPR 271600Z 08008KT 050V120 CAVOK 14/01 Q1011",
      "taf": "TAF LPPR 271100Z 2712/2812 08010KT CAVOK"
    },
    {
      "icao": "LPPS",
      "alert": "OK",
      "vis_m": 9999,
      "fzfg": false,
      "metar_trigger": false,
      "taf_trigger": false,
      "metar": "METAR LPPS 271600Z 32015KT 9999 FEW015 FEW018TCU 16/09 Q1015",
      "taf": "TAF LPPS 271100Z 2712/2818 30017KT 9999 SCT015"
    },
    {
      "icao": "LPPT",
      "alert": "OK",
      "vis_m": 9999,
      "fzfg": false,
      "metar_trigger": false,
      "taf_trigger": false,
      "metar": "METAR LPPT 271600Z 04014KT 9999 -RA FEW025TCU BKN032 09/06 Q1007",
      "taf": "TAF LPPT 271100Z 2712/2818 05013KT 9999 FEW030"
    },
    {
      "icao": "LQBK",
      "alert": "OK",
      "vis_m": 9999,
      "fzfg": false,
      "metar_trigger": false,
      "taf_trigger": false,
      "metar": "METAR LQBK 271600Z 26003KT 220V290 CAVOK 03/M00 Q1025 NOSIG",
      "taf": "TAF LQBK 271100Z 2712/2812 VRB03KT CAVOK TX08/2713Z TNM03/2805Z"
    },
    {
      "icao": "LQSA",
      "alert": "OK",
      "vis_m": 9999,
      "fzfg": false,
      "metar_trigger": false,
      "taf_trigger": false,
      "metar": "METAR LQSA 271600Z VRB02KT 9999 BKN035 01/M01 Q1025 NOSIG",
      "taf": "TAF LQSA 271100Z 2712/2812 VRB02KT 9999 FEW025 BKN030 TX04/2713Z TNM04/2805Z"
    },
    {
      "icao": "LQTZ",
      "alert": "OK",
      "vis_m": 9999,
      "fzfg": false,
      "metar_trigger": false,
      "taf_trigger": false,
      "metar": "METAR LQTZ 271600Z VRB02KT CAVOK 02/M01 Q1024",
      "taf": "TAF LQTZ 271100Z 2712/2812 30005KT CAVOK TX06/2713Z TNM04/2805Z"
    },
    {
      "icao": "LRBC",
      "alert": "OK",
      "vis_m": 9999,
      "fzfg": false,
      "metar_trigger": false,
      "taf_trigger": false,
      "metar": "METAR LRBC 271600Z 19005KT 9999 BKN060 M01/M02 Q1014",
      "taf": "TAF LRBC 271400Z 2715/2724 VRB04KT 9999 SCT025"
    },
    {
      "icao": "LRBS",
      "alert": "OK",
      "vis_m": 600,
      "fzfg": true,
      "metar_trigger": false,
      "taf_trigger": false,
      "metar": "METAR LRBS 271600Z 25004KT 210V290 0600 R07/1200U FZFG OVC001 M02/M02 Q1019 NOSIG",
      "taf": "TAF LRBS 271100Z 2712/2812 25008KT 0800 FZFG OVC002"
    },
    {
      "icao": "LRBV",
      "alert": "OK",
      "vis_m": 9999,
      "fzfg": false,
      "metar_trigger": false,
      "taf_trigger": false,
      "metar": "METAR LRBV 271600Z VRB04KT 9999 FEW019 BKN027 M00/M04 Q1018",
      "taf": "TAF LRBV 271400Z 2715/2724 28009KT 9999 BKN020"
    },
    {
      "icao": "LRCL",
      "alert": "OK",
      "vis_m": 9999,
      "fzfg": false,
      "metar_trigger": false,
      "taf_trigger": false,
      "metar": "METAR LRCL 271600Z VRB02KT CAVOK M00/M03 Q1020",
      "taf": "TAF LRCL 271400Z 2715/2724 30008KT 9999 SCT030"
    },
    {
      "icao": "LRCV",
      "alert": "OK",
      "vis_m": 9999,
      "fzfg": false,
      "metar_trigger": false,
      "taf_trigger": false,
      "metar": "METAR LRCV 271600Z 28014KT CAVOK 01/M01 Q1018",
      "taf": "TAF LRCV 271400Z 2715/2724 26010KT CAVOK"
    },
    {
      "icao": "LRIA",
      "alert": "OK",
      "vis_m": 9999,
      "fzfg": false,
      "metar_trigger": false,
      "taf_trigger": false,
      "metar": "METAR LRIA 271600Z 27005KT 230V300 9999 OVC011 01/M01 Q1014",
      "taf": "TAF LRIA 271400Z 2715/2724 32012KT 9999 BKN015"
    },
    {
      "icao": "LROP",
      "alert": "OK",
      "vis_m": 500,
      "fzfg": true,
      "metar_trigger": false,
      "taf_trigger": false,
      "metar": "METAR LROP 271600Z 27006KT 240V300 0500 R08R/1100U R08L/1600U FZFG OVC001 M02/M02 Q1019 NOSIG",
      "taf": "TAF LROP 271100Z 2712/2812 25008KT 0600 FZFG OVC002"
    },
    {
      "icao": "LRSB",
      "alert": "OK",
      "vis_m": 9999,
      "fzfg": false,
      "metar_trigger": false,
      "taf_trigger": false,
      "metar": "METAR LRSB 271600Z 28002KT 9999 FEW018 M02/M03 Q1020",
      "taf": "TAF LRSB 271100Z 2712/2812 VRB04KT 9999 SCT020"
    },
    {
      "icao": "LRSM",
      "alert": "OK",
      "vis_m": 9999,
      "fzfg": false,
      "metar_trigger": false,
      "taf_trigger": false,
      "metar": "METAR LRSM 271600Z AUTO 24008KT 9999 NCD 01/M01 Q1021",
      "taf": ""
    },
    {
      "icao": "LRSV",
      "alert": "OK",
      "vis_m": 9999,
      "fzfg": false,
      "metar_trigger": false,
      "taf_trigger": false,
      "metar": "METAR LRSV 271600Z 25006KT CAVOK M02/M03 Q1012",
      "taf": "TAF LRSV 271400Z 2715/2724 VRB03KT CAVOK"
    },
    {
      "icao": "LRTM",
      "alert": "OK",
      "vis_m": 9999,
      "fzfg": false,
      "metar_trigger": false,
      "taf_trigger": false,
      "metar": "METAR LRTM 271600Z 06004KT 9999 SCT025 BKN035 M00/M03 Q1021",
      "taf": "TAF LRTM 271400Z 2715/2724 31006KT 9999 SCT020 BKN035"
    },
    {
      "icao": "LRTR",
      "alert": "OK",
      "vis_m": 9999,
      "fzfg": false,
      "metar_trigger": false,
      "taf_trigger": false,
      "metar": "METAR LRTR 271600Z 22006KT 9999 OVC012 01/M01 Q1024",
      "taf": "TAF LRTR 271100Z 2712/2812 30006KT 9999 BKN010"
    },
    {
      "icao": "LTAC",
      "alert": "OK",
      "vis_m": 9999,
      "fzfg": false,
      "metar_trigger": false,
      "taf_trigger": false,
      "metar": "METAR LTAC 271550Z 28004KT 9999 SCT040 BKN100 M01/M06 Q1010 NOSIG RMK RWY21C 25003KT 180V340 RWY03L 28003KT 220V340 RWY21R 23003KT 190V260 RWY03R 28005KT 240V320 RWY21L VRB02KT",
      "taf": "TAF LTAC 271040Z 2712/2812 32012KT 9999 SCT040 BKN100"
    },
    {
      "icao": "LTFM",
      "alert": "OK",
      "vis_m": 9999,
      "fzfg": false,
      "metar_trigger": false,
      "taf_trigger": false,
      "metar": "METAR LTFM 271550Z 34015KT 9999 BKN027 05/M02 Q1019 NOSIG RMK RWY17L 34017KT RWY34L 34015KT RWY16R 34015KT RWY36 34019KT RWY18 35019KT",
      "taf": "TAF LTFM 271040Z 2712/2818 35020G30KT 9999 BKN025"
    },
    {
      "icao": "LUKK",
      "alert": "OK",
      "vis_m": 9999,
      "fzfg": false,
      "metar_trigger": false,
      "taf_trigger": false,
      "metar": "METAR LUKK 271600Z 28007KT 9999 OVC021 02/M02 Q1013 NOSIG",
      "taf": "TAF LUKK 271109Z 2712/2812 33014KT 9999 SCT015 OVC020"
    },
    {
      "icao": "LWOH",
      "alert": "OK",
      "vis_m": 9999,
      "fzfg": false,
      "metar_trigger": false,
      "taf_trigger": false,
      "metar": "METAR LWOH 271620Z VRB02KT CAVOK 04/M03 Q1020",
      "taf": "TAF LWOH 271438Z 2715/2815 32008KT CAVOK"
    },
    {
      "icao": "LWSK",
      "alert": "OK",
      "vis_m": 9999,
      "fzfg": false,
      "metar_trigger": false,
      "taf_trigger": false,
      "metar": "METAR LWSK 271620Z 04006KT 360V070 CAVOK 03/M02 Q1023 NOSIG",
      "taf": "TAF LWSK 271438Z 2715/2815 02012KT CAVOK"
    },
    {
      "icao": "LYBE",
      "alert": "OK",
      "vis_m": 9999,
      "fzfg": false,
      "metar_trigger": false,
      "taf_trigger": false,
      "metar": "METAR LYBE 271600Z 23005KT CAVOK 03/M01 Q1024 NOSIG",
      "taf": "TAF LYBE 271100Z 2712/2812 30008KT 9999 BKN015 TX04/2812Z TNM01/2803Z"
    },
    {
      "icao": "LYNI",
      "alert": "OK",
      "vis_m": 9999,
      "fzfg": false,
      "metar_trigger": false,
      "taf_trigger": false,
      "metar": "METAR LYNI 271600Z 33004KT 300V360 9999 BKN017 02/M01 Q1025 NOSIG",
      "taf": "TAF LYNI 271100Z 2712/2812 31008KT 9999 BKN012 TX02/2712Z TNM01/2802Z"
    },
    {
      "icao": "LYPG",
      "alert": "OK",
      "vis_m": 9999,
      "fzfg": false,
      "metar_trigger": false,
      "taf_trigger": false,
      "metar": "METAR LYPG 271600Z 21001KT CAVOK 07/00 Q1021 NOSIG",
      "taf": "TAF LYPG 271100Z 2712/2812 16007KT CAVOK TX15/2713Z TN02/2801Z"
    },
    {
      "icao": "LZIB",
      "alert": "OK",
      "vis_m": 9999,
      "fzfg": false,
      "metar_trigger": false,
      "taf_trigger": false,
      "metar": "METAR LZIB 271600Z 22006KT 190V270 CAVOK 02/M03 Q1022 NOSIG",
      "taf": "TAF LZIB 271115Z 2712/2812 30011KT CAVOK"
    },
    {
      "icao": "LZKZ",
      "alert": "OK",
      "vis_m": 9999,
      "fzfg": false,
      "metar_trigger": false,
      "taf_trigger": false,
      "metar": "METAR LZKZ 271600Z 19005KT CAVOK M00/M02 Q1019 NOSIG",
      "taf": "TAF LZKZ 271115Z 2712/2812 VRB02KT CAVOK"
    },
    {
      "icao": "LZTT",
      "alert": "OK",
      "vis_m": 9999,
      "fzfg": false,
      "metar_trigger": false,
      "taf_trigger": false,
      "metar": "METAR LZTT 271600Z 30017KT CAVOK 03/M04 Q1016 NOSIG",
      "taf": "TAF LZTT 271115Z 2712/2812 26010KT CAVOK"
    },
    {
      "icao": "OEJN",
      "alert": "OK",
      "vis_m": 9999,
      "fzfg": false,
      "metar_trigger": false,
      "taf_trigger": false,
      "metar": "METAR OEJN 271600Z 32009KT CAVOK 26/19 Q1010 NOSIG",
      "taf": "TAF OEJN 271100Z 2712/2818 30010KT 9999 SCT040"
    },
    {
      "icao": "OEMA",
      "alert": "OK",
      "vis_m": 9999,
      "fzfg": false,
      "metar_trigger": false,
      "taf_trigger": false,
      "metar": "METAR OEMA 271600Z 22008KT CAVOK 23/02 Q1013 NOSIG",
      "taf": "TAF OEMA 271100Z 2712/2818 27014KT 7000 SCT045"
    },
    {
      "icao": "OJAI",
      "alert": "OK",
      "vis_m": 3500,
      "fzfg": false,
      "metar_trigger": false,
      "taf_trigger": false,
      "metar": "METAR OJAI 271600Z 23015KT 3500 -RA SCT025 SCT030 10/08 Q1010 NOSIG",
      "taf": "TAF OJAI 271100Z 2712/2818 25018KT 3000 RA BR SCT025TCU BKN030"
    },
    {
      "icao": "OMAA",
      "alert": "OK",
      "vis_m": 9999,
      "fzfg": false,
      "metar_trigger": false,
      "taf_trigger": false,
      "metar": "METAR OMAA 271600Z 36006KT CAVOK 22/16 Q1014 NOSIG",
      "taf": "TAF OMAA 271100Z 2712/2818 34008KT 8000 FEW040"
    },
    {
      "icao": "OMDB",
      "alert": "OK",
      "vis_m": 9000,
      "fzfg": false,
      "metar_trigger": false,
      "taf_trigger": false,
      "metar": "METAR OMDB 271600Z 34005KT 9000 NSC 23/17 Q1014 NOSIG",
      "taf": "TAF OMDB 271100Z 2712/2818 32010KT 8000 FEW040"
    },
    {
      "icao": "UAAA",
      "alert": "OK",
      "vis_m": 2400,
      "fzfg": false,
      "metar_trigger": false,
      "taf_trigger": false,
      "metar": "METAR UAAA 271600Z VRB01MPS 2400 BR OVC006 M01/M02 Q1019 NOSIG RMK QBB200",
      "taf": "TAF UAAA 271102Z 2712/2812 20003MPS 1500 BR FU BKN011 OVC030 TX00/2809Z TNM05/2801Z"
    },
    {
      "icao": "UBBB",
      "alert": "OK",
      "vis_m": 9999,
      "fzfg": false,
      "metar_trigger": false,
      "taf_trigger": false,
      "metar": "METAR UBBB 271600Z 15008KT 9999 BKN017 09/07 Q1002 NOSIG",
      "taf": "TAF UBBB 271036Z 2712/2812 20020G30KT 9999 SCT025 TX09/2711Z TN04/2802Z"
    },
    {
      "icao": "UDSG",
      "alert": "OK",
      "vis_m": 5000,
      "fzfg": false,
      "metar_trigger": false,
      "taf_trigger": false,
      "metar": "METAR UDSG 271600Z 02007KT 5000 -SN BR OVC016 M03/M06 Q1002 NOSIG",
      "taf": "TAF UDSG 271100Z 2712/2812 VRB06KT 3000 BR BKN020"
    },
    {
      "icao": "UDYZ",
      "alert": "OK",
      "vis_m": 3400,
      "fzfg": false,
      "metar_trigger": false,
      "taf_trigger": false,
      "metar": "METAR UDYZ 271600Z 18006KT 3400 BR BKN036 04/M00 Q1001 NOSIG",
      "taf": "TAF UDYZ 271100Z 2712/2812 VRB06KT 3500 BR SCT040"
    },
    {
      "icao": "UGKO",
      "alert": "OK",
      "vis_m": 9999,
      "fzfg": false,
      "metar_trigger": false,
      "taf_trigger": false,
      "metar": "METAR UGKO 271600Z 03004KT 9999 SCT023 OVC050 02/02 Q1009 NOSIG",
      "taf": "TAF UGKO 271100Z 2712/2812 24007KT 9999 SCT015 OVC050 TX04/2811Z TNM01/2804Z"
    }
  ]
}