{
  "ts_utc": "2026-01-30T07:52:58Z",
  "threshold_m": 150,
  "source": "stations_override.txt (ICAO list) + aviationweather.gov (METAR/TAF raw)",
  "station_count": 159,
  "stations": [
    {
      "icao": "BIKF",
      "alert": "OK",
      "vis_m": 9999,
      "fzfg": false,
      "metar_trigger": false,
      "taf_trigger": false,
      "metar": "METAR BIKF 300730Z 01007KT CAVOK 02/01 Q0997",
      "taf": "TAF BIKF 300733Z 3009/3109 36007KT 9999 FEW040 TX03/3014Z TNM02/3022Z"
    },
    {
      "icao": "BKPR",
      "alert": "OK",
      "vis_m": null,
      "fzfg": false,
      "metar_trigger": false,
      "taf_trigger": false,
      "metar": "",
      "taf": "TAF BKPR 300530Z 3006/3106 31006KT 9999 SCT015 BKN030"
    },
    {
      "icao": "EBCI",
      "alert": "OK",
      "vis_m": 9999,
      "fzfg": false,
      "metar_trigger": false,
      "taf_trigger": false,
      "metar": "METAR EBCI 300720Z 14006KT CAVOK 01/M00 Q0995 NOSIG",
      "taf": "TAF EBCI 300515Z 3006/3112 13006KT 9999 FEW015"
    },
    {
      "icao": "EDDB",
      "alert": "OK",
      "vis_m": 2700,
      "fzfg": false,
      "metar_trigger": false,
      "taf_trigger": false,
      "metar": "METAR EDDB 300720Z AUTO 08011KT 2700 -SHSN BR FEW008 SCT023 BKN045 FEW///TCU M04/M05 Q1005 TEMPO 4000 -SN BKN008",
      "taf": "TAF EDDB 300500Z 3006/3106 07011KT 6000 OVC007"
    },
    {
      "icao": "EDDH",
      "alert": "OK",
      "vis_m": 4500,
      "fzfg": false,
      "metar_trigger": false,
      "taf_trigger": false,
      "metar": "METAR EDDH 300720Z AUTO 10010KT 050V110 4500 -SN BR BKN012 M02/M04 Q1004 TEMPO 4000 OVC009",
      "taf": "TAF EDDH 300500Z 3006/3112 09010KT 6000 OVC012"
    },
    {
      "icao": "EDDK",
      "alert": "OK",
      "vis_m": 9999,
      "fzfg": false,
      "metar_trigger": false,
      "taf_trigger": false,
      "metar": "METAR EDDK 300720Z AUTO 12009KT 100V160 9999 OVC007 01/M01 Q0999 NOSIG",
      "taf": "TAF EDDK 300500Z 3006/3112 11005KT 9999 SCT009"
    },
    {
      "icao": "EDDN",
      "alert": "OK",
      "vis_m": 3500,
      "fzfg": false,
      "metar_trigger": false,
      "taf_trigger": false,
      "metar": "METAR EDDN 300720Z AUTO 11004KT 3500 1200 R10/P2000N BR BKN034 M00/M01 Q1000 NOSIG",
      "taf": ""
    },
    {
      "icao": "EDDS",
      "alert": "OK",
      "vis_m": 300,
      "fzfg": true,
      "metar_trigger": false,
      "taf_trigger": false,
      "metar": "METAR EDDS 300720Z AUTO VRB01KT 0300 0250 R07/1700D FZFG VV002 M03/M04 Q0998 TEMPO 0600",
      "taf": "TAF EDDS 300500Z 3006/3106 VRB03KT 0600 FZFG VV002"
    },
    {
      "icao": "EDFH",
      "alert": "OK",
      "vis_m": 350,
      "fzfg": true,
      "metar_trigger": false,
      "taf_trigger": false,
      "metar": "METAR EDFH 300720Z 14015KT 0350 R21/0550N FZFG VV/// M01/M01 Q0996",
      "taf": "TAF EDFH 300500Z 3006/3106 14012KT 0600 FZFG VV002"
    },
    {
      "icao": "EDJA",
      "alert": "OK",
      "vis_m": 9999,
      "fzfg": false,
      "metar_trigger": false,
      "taf_trigger": false,
      "metar": "METAR EDJA 300720Z 00000KT 9999 R24/0900U BCFG NSC M06/M07 Q0998",
      "taf": ""
    },
    {
      "icao": "EDLW",
      "alert": "OK",
      "vis_m": 9999,
      "fzfg": false,
      "metar_trigger": false,
      "taf_trigger": false,
      "metar": "METAR EDLW 300720Z 09004KT CAVOK M00/M02 Q0998",
      "taf": "TAF EDLW 300500Z 3006/3106 11007KT 9999 FEW035"
    },
    {
      "icao": "EDNY",
      "alert": "OK",
      "vis_m": 900,
      "fzfg": true,
      "metar_trigger": false,
      "taf_trigger": false,
      "metar": "METAR EDNY 300720Z 03003KT 340V080 0900 R24/1200N FZFG VV// M00/M00 Q1000",
      "taf": "TAF EDNY 300500Z 3006/3015 VRB03KT 2000 BR OVC002"
    },
    {
      "icao": "EDSB",
      "alert": "OK",
      "vis_m": 450,
      "fzfg": true,
      "metar_trigger": false,
      "taf_trigger": false,
      "metar": "METAR EDSB 300720Z 05004KT 020V090 0450 R21/0500D FZFG VV/// M01/M01 Q0999",
      "taf": "TAF EDSB 300500Z 3006/3106 VRB03KT 0600 FZFG VV002"
    },
    {
      "icao": "EETN",
      "alert": "OK",
      "vis_m": 8000,
      "fzfg": false,
      "metar_trigger": false,
      "taf_trigger": false,
      "metar": "METAR EETN 300750Z 11004KT 8000 -SG BCFG BKN003 M15/M16 Q1025 TEMPO 2000 BR",
      "taf": ""
    },
    {
      "icao": "EFTU",
      "alert": "OK",
      "vis_m": 9999,
      "fzfg": false,
      "metar_trigger": false,
      "taf_trigger": false,
      "metar": "METAR EFTU 300750Z AUTO 07002KT CAVOK M20/M22 Q1026",
      "taf": "TAF EFTU 300524Z 3006/3106 08003KT CAVOK"
    },
    {
      "icao": "EGBB",
      "alert": "OK",
      "vis_m": 3100,
      "fzfg": false,
      "metar_trigger": false,
      "taf_trigger": false,
      "metar": "METAR EGBB 300720Z 13010KT 3100 RADZ OVC003 04/03 Q0987",
      "taf": "TAF EGBB 300454Z 3006/3106 11012KT 9999 BKN006"
    },
    {
      "icao": "EGGP",
      "alert": "OK",
      "vis_m": 9999,
      "fzfg": false,
      "metar_trigger": false,
      "taf_trigger": false,
      "metar": "METAR EGGP 300720Z 11014KT 9999 -RA SCT014 OVC019 03/01 Q0987",
      "taf": "TAF EGGP 300506Z 3006/3106 10014KT 9999 BKN020"
    },
    {
      "icao": "EGGW",
      "alert": "OK",
      "vis_m": 5000,
      "fzfg": false,
      "metar_trigger": false,
      "taf_trigger": false,
      "metar": "METAR EGGW 300720Z AUTO 13011KT 5000 -RA OVC002/// //////CB 04/04 Q0989",
      "taf": ""
    },
    {
      "icao": "EGKK",
      "alert": "OK",
      "vis_m": 9999,
      "fzfg": false,
      "metar_trigger": false,
      "taf_trigger": false,
      "metar": "METAR EGKK 300720Z 12004KT 9999 -RA BKN009 07/07 Q0989",
      "taf": ""
    },
    {
      "icao": "EGNM",
      "alert": "OK",
      "vis_m": 1600,
      "fzfg": false,
      "metar_trigger": false,
      "taf_trigger": false,
      "metar": "METAR EGNM 300720Z 09014KT 1600 -SN SCT003 BKN004 00/M00 Q0989",
      "taf": "TAF EGNM 300507Z 3006/3106 10009KT 6000 BKN008"
    },
    {
      "icao": "EGPD",
      "alert": "OK",
      "vis_m": 9999,
      "fzfg": false,
      "metar_trigger": false,
      "taf_trigger": false,
      "metar": "METAR EGPD 300720Z 12014KT 9999 -RA SCT014 BKN019 04/01 Q0995 TEMPO SHRA BKN014",
      "taf": "TAF EGPD 300500Z 3006/3106 13015G25KT 9999 SCT018 BKN030"
    },
    {
      "icao": "EGPF",
      "alert": "OK",
      "vis_m": 9999,
      "fzfg": false,
      "metar_trigger": false,
      "taf_trigger": false,
      "metar": "METAR EGPF 300720Z AUTO 09015G25KT 9999 OVC026 04/M01 Q0989",
      "taf": "TAF EGPF 300501Z 3006/3106 09016G26KT 9999 FEW018 SCT030"
    },
    {
      "icao": "EHBK",
      "alert": "OK",
      "vis_m": 9999,
      "fzfg": false,
      "metar_trigger": false,
      "taf_trigger": false,
      "metar": "METAR EHBK 300725Z AUTO 08007KT 9999 NCD M02/M03 Q0996 NOSIG",
      "taf": "TAF EHBK 300515Z 3006/3112 11005KT 1200 BR FEW035"
    },
    {
      "icao": "EHEH",
      "alert": "OK",
      "vis_m": null,
      "fzfg": false,
      "metar_trigger": false,
      "taf_trigger": false,
      "metar": "",
      "taf": "TAF EHEH 300537Z 3006/3112 10006KT 2000 BR BKN003"
    },
    {
      "icao": "EKBI",
      "alert": "OK",
      "vis_m": 9999,
      "fzfg": false,
      "metar_trigger": false,
      "taf_trigger": false,
      "metar": "METAR EKBI 300720Z AUTO 10015KT 9999 -FZDZ OVC016/// M01/M04 Q1006",
      "taf": "TAF EKBI 300527Z 3006/3106 10020KT 9999 -SN OVC016"
    },
    {
      "icao": "EKCH",
      "alert": "OK",
      "vis_m": 9999,
      "fzfg": false,
      "metar_trigger": false,
      "taf_trigger": false,
      "metar": "METAR EKCH 300720Z AUTO 09017KT 9999 -SN OVC020/// M01/M04 Q1011 NOSIG",
      "taf": "TAF EKCH 300527Z 3006/3106 09018KT 9999 -SN OVC016"
    },
    {
      "icao": "ENAL",
      "alert": "OK",
      "vis_m": 9999,
      "fzfg": false,
      "metar_trigger": false,
      "taf_trigger": false,
      "metar": "METAR ENAL 300720Z 14015KT 9999 BKN039 M02/M09 Q1010",
      "taf": "TAF ENAL 300500Z 3006/3015 14012KT 9999 FEW025 BKN035"
    },
    {
      "icao": "ENBR",
      "alert": "OK",
      "vis_m": 9999,
      "fzfg": false,
      "metar_trigger": false,
      "taf_trigger": false,
      "metar": "METAR ENBR 300720Z 08003KT CAVOK M06/M14 Q1010 NOSIG RMK WIND 1200FT 19003KT",
      "taf": "TAF ENBR 300500Z 3006/3106 09005KT CAVOK"
    },
    {
      "icao": "ENGM",
      "alert": "OK",
      "vis_m": 9000,
      "fzfg": false,
      "metar_trigger": false,
      "taf_trigger": false,
      "metar": "METAR ENGM 300720Z 03008KT 9000 -SN OVC028 M09/M11 Q1018 NOSIG",
      "taf": ""
    },
    {
      "icao": "ENHD",
      "alert": "OK",
      "vis_m": 9999,
      "fzfg": false,
      "metar_trigger": false,
      "taf_trigger": false,
      "metar": "METAR ENHD 300720Z 08006KT CAVOK M04/M12 Q1010",
      "taf": "TAF ENHD 300500Z 3006/3015 10008KT CAVOK"
    },
    {
      "icao": "ENTC",
      "alert": "OK",
      "vis_m": 9999,
      "fzfg": false,
      "metar_trigger": false,
      "taf_trigger": false,
      "metar": "METAR ENTC 300720Z VRB02KT CAVOK M11/M13 Q1022 NOSIG RMK WIND 2600FT 17021KT",
      "taf": "TAF ENTC 300500Z 3006/3106 18008KT 9999 FEW020"
    },
    {
      "icao": "ENTO",
      "alert": "OK",
      "vis_m": 9999,
      "fzfg": false,
      "metar_trigger": false,
      "taf_trigger": false,
      "metar": "METAR ENTO 300720Z 01009KT 9999 -SN OVC034 M08/M09 Q1017 NOSIG",
      "taf": "TAF ENTO 300500Z 3006/3106 02010KT 9999 -SN FEW012 BKN030"
    },
    {
      "icao": "ENVA",
      "alert": "OK",
      "vis_m": 9999,
      "fzfg": false,
      "metar_trigger": false,
      "taf_trigger": false,
      "metar": "METAR ENVA 300720Z 11010KT CAVOK M07/M15 Q1015 NOSIG RMK WIND 670FT 14016KT",
      "taf": "TAF ENVA 300500Z 3006/3106 12009KT CAVOK"
    },
    {
      "icao": "ENZV",
      "alert": "OK",
      "vis_m": 9999,
      "fzfg": false,
      "metar_trigger": false,
      "taf_trigger": false,
      "metar": "METAR ENZV 300720Z 10007KT 9999 SCT041 M02/M11 Q1010 NOSIG",
      "taf": "TAF ENZV 300500Z 3006/3106 09005KT 9999 SCT040"
    },
    {
      "icao": "EPGD",
      "alert": "OK",
      "vis_m": 8000,
      "fzfg": false,
      "metar_trigger": false,
      "taf_trigger": false,
      "metar": "METAR EPGD 300730Z 09008KT 8000 OVC005 M08/M09 Q1012",
      "taf": "TAF EPGD 300530Z 3006/3106 09012KT 9999 OVC007"
    },
    {
      "icao": "EPKK",
      "alert": "OK",
      "vis_m": 9999,
      "fzfg": false,
      "metar_trigger": false,
      "taf_trigger": false,
      "metar": "METAR EPKK 300730Z 07011KT 9999 SCT008 BKN010 M01/M02 Q1004",
      "taf": "TAF EPKK 300530Z 3006/3106 06010KT 9999 -SN OVC012"
    },
    {
      "icao": "EPKT",
      "alert": "OK",
      "vis_m": 9999,
      "fzfg": false,
      "metar_trigger": false,
      "taf_trigger": false,
      "metar": "METAR EPKT 300730Z 07009KT 9999 OVC013 M01/M03 Q1003",
      "taf": "TAF EPKT 300530Z 3006/3106 09012KT 9999 -SN OVC011"
    },
    {
      "icao": "EPLB",
      "alert": "OK",
      "vis_m": 3700,
      "fzfg": false,
      "metar_trigger": false,
      "taf_trigger": false,
      "metar": "METAR EPLB 300730Z 06012KT 3700 BR OVC004 M05/M05 Q1008",
      "taf": "TAF EPLB 300530Z 3006/3106 07010KT 8000 OVC010"
    },
    {
      "icao": "EPMO",
      "alert": "OK",
      "vis_m": 8000,
      "fzfg": false,
      "metar_trigger": false,
      "taf_trigger": false,
      "metar": "METAR EPMO 300730Z 06013KT 8000 BKN010 M06/M08 Q1010",
      "taf": "TAF EPMO 300530Z 3006/3106 07012KT 8000 OVC010"
    },
    {
      "icao": "EPPO",
      "alert": "OK",
      "vis_m": 5000,
      "fzfg": false,
      "metar_trigger": false,
      "taf_trigger": false,
      "metar": "METAR EPPO 300730Z 08010KT 5000 BR BKN006 OVC020 M05/M06 Q1008",
      "taf": "TAF EPPO 300530Z 3006/3106 06008KT 9999 OVC008"
    },
    {
      "icao": "EPRA",
      "alert": "OK",
      "vis_m": 4500,
      "fzfg": false,
      "metar_trigger": false,
      "taf_trigger": false,
      "metar": "METAR EPRA 300730Z 06012KT 4500 BR OVC004 M04/M05 Q1007",
      "taf": "TAF EPRA 300530Z 3006/3015 06008KT 7000 OVC004"
    },
    {
      "icao": "EPRZ",
      "alert": "OK",
      "vis_m": 9999,
      "fzfg": false,
      "metar_trigger": false,
      "taf_trigger": false,
      "metar": "METAR EPRZ 300730Z 05011KT 9999 OVC010 00/M02 Q1004",
      "taf": "TAF EPRZ 300530Z 3006/3106 06012KT 9999 OVC012"
    },
    {
      "icao": "EPSC",
      "alert": "OK",
      "vis_m": 9999,
      "fzfg": false,
      "metar_trigger": false,
      "taf_trigger": false,
      "metar": "METAR EPSC 300730Z 09008KT 040V110 9999 BKN008 M05/M07 Q1008",
      "taf": "TAF EPSC 300530Z 3006/3106 08012KT 9999 SCT008 OVC020"
    },
    {
      "icao": "EPSY",
      "alert": "OK",
      "vis_m": 9999,
      "fzfg": false,
      "metar_trigger": false,
      "taf_trigger": false,
      "metar": "METAR EPSY 300730Z 06006KT 020V090 9999 BKN008 OVC040 M09/M10 Q1012",
      "taf": "TAF EPSY 300530Z 3006/3015 08008KT 9999 OVC010"
    },
    {
      "icao": "EPWA",
      "alert": "OK",
      "vis_m": 8000,
      "fzfg": false,
      "metar_trigger": false,
      "taf_trigger": false,
      "metar": "METAR EPWA 300730Z 06010KT 040V100 8000 BKN009 M05/M07 Q1009 BECMG BKN010",
      "taf": "TAF EPWA 300530Z 3006/3106 07012KT 8000 OVC010"
    },
    {
      "icao": "EPWR",
      "alert": "OK",
      "vis_m": 7000,
      "fzfg": false,
      "metar_trigger": false,
      "taf_trigger": false,
      "metar": "METAR EPWR 300730Z 08007KT 7000 BKN010 OVC030 M01/M03 Q1005",
      "taf": "TAF EPWR 300530Z 3006/3106 07008KT 9999 BKN009"
    },
    {
      "icao": "ESGG",
      "alert": "OK",
      "vis_m": 9999,
      "fzfg": false,
      "metar_trigger": false,
      "taf_trigger": false,
      "metar": "METAR ESGG 300720Z 10009KT 080V140 9999 BKN029 M04/M10 Q1013",
      "taf": "TAF ESGG 300530Z 3006/3106 10010KT 9999 BKN030"
    },
    {
      "icao": "ESKN",
      "alert": "OK",
      "vis_m": 9999,
      "fzfg": false,
      "metar_trigger": false,
      "taf_trigger": false,
      "metar": "METAR ESKN 300720Z 10013KT 9999 BKN030 M03/M09 Q1020",
      "taf": "TAF ESKN 300530Z 3006/3106 10010KT 9999 BKN030"
    },
    {
      "icao": "ESMS",
      "alert": "OK",
      "vis_m": 9000,
      "fzfg": false,
      "metar_trigger": false,
      "taf_trigger": false,
      "metar": "METAR ESMS 300720Z 09016KT 9000 SG OVC020 M02/M05 Q1010",
      "taf": ""
    },
    {
      "icao": "ESSA",
      "alert": "OK",
      "vis_m": 9999,
      "fzfg": false,
      "metar_trigger": false,
      "taf_trigger": false,
      "metar": "METAR ESSA 300720Z 07007KT 9999 FEW038 M13/M15 Q1022 NOSIG",
      "taf": "TAF ESSA 300530Z 3006/3106 05007KT 9999 SCT030"
    },
    {
      "icao": "EYKA",
      "alert": "OK",
      "vis_m": 9999,
      "fzfg": false,
      "metar_trigger": false,
      "taf_trigger": false,
      "metar": "METAR EYKA 300750Z 06007KT CAVOK M16/M19 Q1018",
      "taf": "TAF EYKA 300500Z 3006/3106 06008KT 7000 NSC"
    },
    {
      "icao": "EYPA",
      "alert": "OK",
      "vis_m": 9999,
      "fzfg": false,
      "metar_trigger": false,
      "taf_trigger": false,
      "metar": "METAR EYPA 300750Z 08008KT 050V110 CAVOK M15/M20 Q1019",
      "taf": "TAF EYPA 300500Z 3006/3106 08008KT 9000 NSC"
    },
    {
      "icao": "EYVI",
      "alert": "OK",
      "vis_m": 9999,
      "fzfg": false,
      "metar_trigger": false,
      "taf_trigger": false,
      "metar": "METAR EYVI 300750Z 07009KT CAVOK M16/M19 Q1016 NOSIG",
      "taf": "TAF EYVI 300500Z 3006/3106 06010KT 9000 NSC"
    },
    {
      "icao": "GCFV",
      "alert": "OK",
      "vis_m": 9999,
      "fzfg": false,
      "metar_trigger": false,
      "taf_trigger": false,
      "metar": "METAR GCFV 300730Z 34010KT 9999 BKN025 19/13 Q1023",
      "taf": "TAF GCFV 300200Z 3003/3103 34007KT 9999 BKN020 TX23/3014Z TN15/3006Z"
    },
    {
      "icao": "GCLP",
      "alert": "OK",
      "vis_m": 9999,
      "fzfg": false,
      "metar_trigger": false,
      "taf_trigger": false,
      "metar": "METAR GCLP 300730Z 36007KT 330V030 9999 BKN024 19/14 Q1023 NOSIG",
      "taf": "TAF GCLP 300200Z 3003/3103 36010KT 9999 BKN025 TX23/3014Z TN16/3006Z"
    },
    {
      "icao": "GCTS",
      "alert": "OK",
      "vis_m": 9999,
      "fzfg": false,
      "metar_trigger": false,
      "taf_trigger": false,
      "metar": "METAR GCTS 300730Z 01005KT 360V060 9999 FEW030 15/11 Q1024 NOSIG",
      "taf": "TAF GCTS 300200Z 3003/3103 33005KT 9999 BKN020 TX24/3014Z TN16/3006Z"
    },
    {
      "icao": "GMAD",
      "alert": "OK",
      "vis_m": 8000,
      "fzfg": false,
      "metar_trigger": false,
      "taf_trigger": false,
      "metar": "METAR GMAD 300730Z 07003KT 030V140 8000 SCT010 BKN016 15/15 Q1020 NOSIG",
      "taf": "TAF GMAD 300500Z 3006/3112 24003KT 8000 BKN015"
    },
    {
      "icao": "GMMN",
      "alert": "OK",
      "vis_m": 9999,
      "fzfg": false,
      "metar_trigger": false,
      "taf_trigger": false,
      "metar": "METAR GMMN 300730Z 23007KT 200V260 9999 BKN020 14/13 Q1022 NOSIG",
      "taf": "TAF GMMN 300500Z 3006/3112 23008KT 8000 BKN020"
    },
    {
      "icao": "GMMX",
      "alert": "OK",
      "vis_m": 6000,
      "fzfg": false,
      "metar_trigger": false,
      "taf_trigger": false,
      "metar": "METAR GMMX 300730Z VRB01KT 6000 SCT006 SCT020 13/13 Q1022 TEMPO 8000",
      "taf": "TAF GMMX 300500Z 3006/3112 26006KT 8000 SCT023 SCT080"
    },
    {
      "icao": "HEGN",
      "alert": "OK",
      "vis_m": 9999,
      "fzfg": false,
      "metar_trigger": false,
      "taf_trigger": false,
      "metar": "METAR HEGN 300700Z 26006KT CAVOK 19/05 Q1017 NOSIG",
      "taf": "TAF HEGN 300500Z 3006/3112 24008KT CAVOK"
    },
    {
      "icao": "HEMA",
      "alert": "OK",
      "vis_m": 9999,
      "fzfg": false,
      "metar_trigger": false,
      "taf_trigger": false,
      "metar": "METAR HEMA 300700Z 25004KT CAVOK 19/08 Q1017 NOSIG",
      "taf": "TAF HEMA 300500Z 3006/3112 24008KT CAVOK"
    },
    {
      "icao": "HESH",
      "alert": "OK",
      "vis_m": 9999,
      "fzfg": false,
      "metar_trigger": false,
      "taf_trigger": false,
      "metar": "METAR HESH 300700Z 34007KT CAVOK 19/11 Q1016 NOSIG",
      "taf": "TAF HESH 300500Z 3006/3112 25008KT CAVOK"
    },
    {
      "icao": "HESX",
      "alert": "OK",
      "vis_m": 9999,
      "fzfg": false,
      "metar_trigger": false,
      "taf_trigger": false,
      "metar": "METAR HESX 300700Z 21018KT CAVOK 16/02 Q1013 NOSIG",
      "taf": "TAF HESX 300500Z 3006/3112 20020G30KT 8000 NSC"
    },
    {
      "icao": "LATI",
      "alert": "OK",
      "vis_m": 9999,
      "fzfg": false,
      "metar_trigger": false,
      "taf_trigger": false,
      "metar": "METAR LATI 300750Z 15005KT 9999 SCT050 BKN075 10/07 Q1001 NOSIG",
      "taf": "TAF LATI 300500Z 3006/3106 VRB05KT 9999 SCT025 BKN060 TX13/3012Z TN05/3105Z"
    },
    {
      "icao": "LBPD",
      "alert": "OK",
      "vis_m": 9999,
      "fzfg": false,
      "metar_trigger": false,
      "taf_trigger": false,
      "metar": "METAR LBPD 300730Z AUTO 26014KT 9999 -RA BKN055/// OVC076/// 09/06 Q0997 NOSIG",
      "taf": "TAF LBPD 300500Z 3006/3106 27016KT 7000 RA SCT020 OVC040"
    },
    {
      "icao": "LBSF",
      "alert": "OK",
      "vis_m": 9999,
      "fzfg": false,
      "metar_trigger": false,
      "taf_trigger": false,
      "metar": "METAR LBSF 300730Z 29007KT 9999 FEW010 SCT030 BKN045 05/03 Q0999 NOSIG",
      "taf": "TAF LBSF 300500Z 3006/3106 28010KT 9999 SCT030 BKN050"
    },
    {
      "icao": "LBWN",
      "alert": "OK",
      "vis_m": 6000,
      "fzfg": false,
      "metar_trigger": false,
      "taf_trigger": false,
      "metar": "METAR LBWN 300730Z 31009KT 280V360 6000 -RA SCT011 OVC020 04/04 Q0996 NOSIG",
      "taf": "TAF LBWN 300500Z 3006/3106 34014KT 7000 RA BKN010 OVC020"
    },
    {
      "icao": "LCLK",
      "alert": "OK",
      "vis_m": 8000,
      "fzfg": false,
      "metar_trigger": false,
      "taf_trigger": false,
      "metar": "METAR LCLK 300730Z 20021KT 8000 FEW030 SCT050 19/14 Q1007 NOSIG",
      "taf": ""
    },
    {
      "icao": "LCPH",
      "alert": "OK",
      "vis_m": 1500,
      "fzfg": false,
      "metar_trigger": false,
      "taf_trigger": false,
      "metar": "METAR LCPH 300730Z 28013KT 250V320 1500 DU FEW020 SCT030 18/14 Q1007 NOSIG",
      "taf": ""
    },
    {
      "icao": "LEAL",
      "alert": "OK",
      "vis_m": 9999,
      "fzfg": false,
      "metar_trigger": false,
      "taf_trigger": false,
      "metar": "METAR LEAL 300730Z 27007KT CAVOK 13/05 Q1011 NOSIG",
      "taf": "TAF LEAL 300500Z 3006/3106 27009KT CAVOK TX20/3014Z TN11/3006Z"
    },
    {
      "icao": "LEBB",
      "alert": "OK",
      "vis_m": 9999,
      "fzfg": false,
      "metar_trigger": false,
      "taf_trigger": false,
      "metar": "METAR LEBB 300730Z VRB02KT 9999 FEW030 09/03 Q1004 NOSIG",
      "taf": "TAF LEBB 300500Z 3006/3106 22009KT 9999 SCT025 BKN040 TX14/3012Z TN06/3024Z"
    },
    {
      "icao": "LEBL",
      "alert": "OK",
      "vis_m": 9999,
      "fzfg": false,
      "metar_trigger": false,
      "taf_trigger": false,
      "metar": "METAR LEBL 300730Z 32012KT 280V350 9999 FEW025 11/04 Q1005 NOSIG",
      "taf": "TAF LEBL 300500Z 3006/3106 28010KT 9999 FEW050 TX16/3012Z TN09/3006Z"
    },
    {
      "icao": "LECH",
      "alert": "OK",
      "vis_m": 9000,
      "fzfg": false,
      "metar_trigger": false,
      "taf_trigger": false,
      "metar": "METAR LECH 300730Z AUTO 24008KT 220V280 9000 NCD 11/00 Q1007",
      "taf": ""
    },
    {
      "icao": "LEMD",
      "alert": "OK",
      "vis_m": 9999,
      "fzfg": false,
      "metar_trigger": false,
      "taf_trigger": false,
      "metar": "METAR LEMD 300730Z COR 23009KT 9999 SCT012 06/06 Q1010 NOSIG",
      "taf": ""
    },
    {
      "icao": "LEMG",
      "alert": "OK",
      "vis_m": 9999,
      "fzfg": false,
      "metar_trigger": false,
      "taf_trigger": false,
      "metar": "METAR LEMG 300730Z 00000KT 9999 FEW070 13/11 Q1015 NOSIG",
      "taf": "TAF LEMG 300500Z 3006/3106 29010KT 9999 FEW035 TX21/3015Z TN12/3006Z"
    },
    {
      "icao": "LEVC",
      "alert": "OK",
      "vis_m": 9999,
      "fzfg": false,
      "metar_trigger": false,
      "taf_trigger": false,
      "metar": "METAR LEVC 300730Z 29015KT CAVOK 13/05 Q1009 NOSIG",
      "taf": "TAF LEVC 300500Z 3006/3106 27010KT CAVOK TX18/3014Z TN12/3006Z"
    },
    {
      "icao": "LEXJ",
      "alert": "OK",
      "vis_m": 8000,
      "fzfg": false,
      "metar_trigger": false,
      "taf_trigger": false,
      "metar": "METAR LEXJ 300730Z 20013G23KT 160V280 8000 FEW030 11/03 Q1002",
      "taf": "TAF LEXJ 300200Z 3003/3103 22011KT 9999 SCT030 BKN040 TX16/3012Z TN08/3102Z"
    },
    {
      "icao": "LEZG",
      "alert": "OK",
      "vis_m": 9999,
      "fzfg": false,
      "metar_trigger": false,
      "taf_trigger": false,
      "metar": "METAR LEZG 300730Z VRB02KT CAVOK 05/04 Q1008 NOSIG",
      "taf": "TAF LEZG 300500Z 3006/3106 25012KT CAVOK TX14/3013Z TN08/3006Z"
    },
    {
      "icao": "LEZL",
      "alert": "OK",
      "vis_m": 9999,
      "fzfg": false,
      "metar_trigger": false,
      "taf_trigger": false,
      "metar": "METAR LEZL 300730Z 25007KT 9999 SCT030 12/12 Q1016 NOSIG",
      "taf": "TAF LEZL 300200Z 3003/3103 VRB04KT 9999 FEW030 TX18/3015Z TN10/3007Z"
    },
    {
      "icao": "LFBD",
      "alert": "OK",
      "vis_m": 9999,
      "fzfg": false,
      "metar_trigger": false,
      "taf_trigger": false,
      "metar": "METAR LFBD 300730Z AUTO 22008KT 9999 SCT036 BKN090 10/08 Q1002 TEMPO 27015G25KT 4000 SHRA BKN015 FEW025CB BKN030TCU",
      "taf": "TAF LFBD 300500Z 3006/3112 27010KT 9999 BKN040 TX13/3011Z TN06/3106Z"
    },
    {
      "icao": "LFLL",
      "alert": "OK",
      "vis_m": 9999,
      "fzfg": false,
      "metar_trigger": false,
      "taf_trigger": false,
      "metar": "METAR LFLL 300730Z 21009KT 9999 -RA SCT033 BKN046 06/05 Q0999 NOSIG",
      "taf": "TAF LFLL 300500Z 3006/3112 18010KT 9999 BKN045"
    },
    {
      "icao": "LFLS",
      "alert": "OK",
      "vis_m": 7000,
      "fzfg": false,
      "metar_trigger": false,
      "taf_trigger": false,
      "metar": "METAR LFLS 300730Z AUTO 06005KT 7000 -RA BKN016/// BKN023/// BKN028/// ///TCU 04/04 Q1000 BECMG BKN050",
      "taf": ""
    },
    {
      "icao": "LFMN",
      "alert": "OK",
      "vis_m": 9999,
      "fzfg": false,
      "metar_trigger": false,
      "taf_trigger": false,
      "metar": "METAR LFMN 300730Z 33011KT 9999 FEW026 SCT160 BKN200 07/01 Q0999 NOSIG",
      "taf": "TAF LFMN 300200Z 3003/3109 34010KT CAVOK"
    },
    {
      "icao": "LFOB",
      "alert": "OK",
      "vis_m": 4300,
      "fzfg": false,
      "metar_trigger": false,
      "taf_trigger": false,
      "metar": "METAR LFOB 300730Z AUTO 13003KT 4300 BR OVC006/// ///TCU 04/04 Q0993 BECMG 22010KT 9999 NSW BKN020",
      "taf": "TAF LFOB 300500Z 3006/3106 14010KT 9999 BKN012"
    },
    {
      "icao": "LFPO",
      "alert": "OK",
      "vis_m": 6000,
      "fzfg": false,
      "metar_trigger": false,
      "taf_trigger": false,
      "metar": "METAR LFPO 300730Z 18005KT 6000 FEW004 SCT030 05/05 Q0994 NOSIG",
      "taf": ""
    },
    {
      "icao": "LFSB",
      "alert": "OK",
      "vis_m": 8000,
      "fzfg": false,
      "metar_trigger": false,
      "taf_trigger": false,
      "metar": "METAR LFSB 300730Z AUTO 16005KT 8000 SCT037/// BKN080/// BKN120/// ///CB 01/00 Q0999 BECMG BKN025",
      "taf": ""
    },
    {
      "icao": "LGAV",
      "alert": "OK",
      "vis_m": 9999,
      "fzfg": false,
      "metar_trigger": false,
      "taf_trigger": false,
      "metar": "METAR LGAV 300720Z 26014G24KT 9999 FEW025 14/06 Q1001 NOSIG",
      "taf": "TAF LGAV 300500Z 3006/3106 26015KT 9999 SCT020"
    },
    {
      "icao": "LGTS",
      "alert": "OK",
      "vis_m": 9999,
      "fzfg": false,
      "metar_trigger": false,
      "taf_trigger": false,
      "metar": "METAR LGTS 300720Z 28007KT 9999 FEW020 11/07 Q0998 NOSIG",
      "taf": ""
    },
    {
      "icao": "LHBP",
      "alert": "OK",
      "vis_m": 2900,
      "fzfg": false,
      "metar_trigger": false,
      "taf_trigger": false,
      "metar": "METAR LHBP 300730Z 31004KT 2900 -RA BR SCT002 BKN019 OVC027 04/04 Q1001 TEMPO DZRA BKN002",
      "taf": "TAF LHBP 300515Z 3006/3106 VRB03KT 6000 -RA SCT006 OVC025"
    },
    {
      "icao": "LHDC",
      "alert": "OK",
      "vis_m": 9999,
      "fzfg": false,
      "metar_trigger": false,
      "taf_trigger": false,
      "metar": "METAR LHDC 300715Z AUTO 04007KT 9999 OVC033 03/M00 Q1000 NOSIG",
      "taf": "TAF LHDC 300515Z 3006/3015 03011KT 9999 BKN030"
    },
    {
      "icao": "LIBD",
      "alert": "OK",
      "vis_m": 9999,
      "fzfg": false,
      "metar_trigger": false,
      "taf_trigger": false,
      "metar": "METAR LIBD 300720Z 25007KT CAVOK 08/04 Q1001",
      "taf": "TAF LIBD 300500Z 3006/3106 26010KT 9999 FEW040"
    },
    {
      "icao": "LIBG",
      "alert": "OK",
      "vis_m": 9999,
      "fzfg": false,
      "metar_trigger": false,
      "taf_trigger": false,
      "metar": "SPECI LIBG 300657Z VRB02KT CAVOK 03/02 Q1001",
      "taf": "TAF LIBG 300714Z 3008/3015 VRB05KT CAVOK"
    },
    {
      "icao": "LIBP",
      "alert": "OK",
      "vis_m": 9999,
      "fzfg": false,
      "metar_trigger": false,
      "taf_trigger": false,
      "metar": "METAR LIBP 300720Z AUTO 22005KT 9999 NCD 03/03 Q1001",
      "taf": "TAF LIBP 300500Z 3006/3106 VRB05KT 6000 SCT030"
    },
    {
      "icao": "LIBR",
      "alert": "OK",
      "vis_m": 9999,
      "fzfg": false,
      "metar_trigger": false,
      "taf_trigger": false,
      "metar": "METAR LIBR 300720Z 25009KT CAVOK 07/04 Q1001",
      "taf": "TAF LIBR 300500Z 3006/3106 26010KT 9999 FEW020"
    },
    {
      "icao": "LICA",
      "alert": "OK",
      "vis_m": 9999,
      "fzfg": false,
      "metar_trigger": false,
      "taf_trigger": false,
      "metar": "METAR LICA 300720Z AUTO 18005KT 150V220 9999 -DZRA OVC036/// 12/10 Q1002",
      "taf": "TAF LICA 300500Z 3006/3106 28011KT 9999 SCT025"
    },
    {
      "icao": "LICC",
      "alert": "OK",
      "vis_m": 9999,
      "fzfg": false,
      "metar_trigger": false,
      "taf_trigger": false,
      "metar": "METAR LICC 300720Z 23007KT 9999 SCT030 SCT070 11/07 Q1003",
      "taf": "TAF LICC 300500Z 3006/3106 26012KT 9999 FEW020"
    },
    {
      "icao": "LICJ",
      "alert": "OK",
      "vis_m": 8000,
      "fzfg": false,
      "metar_trigger": false,
      "taf_trigger": false,
      "metar": "METAR LICJ 300720Z 20011KT 8000 RA BKN020 14/12 Q1002",
      "taf": "TAF LICJ 300500Z 3006/3106 20013KT 9999 FEW035"
    },
    {
      "icao": "LIMC",
      "alert": "OK",
      "vis_m": 4000,
      "fzfg": false,
      "metar_trigger": false,
      "taf_trigger": false,
      "metar": "METAR LIMC 300720Z 35004KT 4000 BR SCT020 02/02 Q1001 NOSIG",
      "taf": ""
    },
    {
      "icao": "LIME",
      "alert": "OK",
      "vis_m": 9999,
      "fzfg": false,
      "metar_trigger": false,
      "taf_trigger": false,
      "metar": "METAR LIME 300720Z 35002KT 9999 FEW025 02/02 Q1000 NOSIG",
      "taf": "TAF LIME 300500Z 3006/3106 VRB04KT 3000 BR SCT015"
    },
    {
      "icao": "LIMF",
      "alert": "OK",
      "vis_m": 200,
      "fzfg": false,
      "metar_trigger": false,
      "taf_trigger": false,
      "metar": "METAR LIMF 300720Z 27003KT 230V290 0200 R36/0600N FG VV002 01/00 Q1001",
      "taf": "TAF LIMF 300500Z 3006/3106 VRB04KT 0200 FG BKN004"
    },
    {
      "icao": "LIMJ",
      "alert": "OK",
      "vis_m": 9999,
      "fzfg": false,
      "metar_trigger": false,
      "taf_trigger": false,
      "metar": "METAR LIMJ 300720Z 06009KT 9999 SCT035 SCT050 09/05 Q0999",
      "taf": "TAF LIMJ 300500Z 3006/3106 04010KT 9999 SCT020"
    },
    {
      "icao": "LIPE",
      "alert": "OK",
      "vis_m": 2800,
      "fzfg": false,
      "metar_trigger": false,
      "taf_trigger": false,
      "metar": "METAR LIPE 300720Z VRB02KT 2800 VCFG FEW002 BKN009 M00/M00 Q1001",
      "taf": "TAF LIPE 300500Z 3006/3106 VRB04KT 0350 FG OVC001"
    },
    {
      "icao": "LIPH",
      "alert": "OK",
      "vis_m": 2500,
      "fzfg": false,
      "metar_trigger": false,
      "taf_trigger": false,
      "metar": "METAR LIPH 300720Z 23005KT 2500 BR SCT002 BKN006 04/04 Q1001",
      "taf": "TAF LIPH 300500Z 3006/3106 VRB04KT 0400 FG OVC001"
    },
    {
      "icao": "LIPQ",
      "alert": "OK",
      "vis_m": 9999,
      "fzfg": false,
      "metar_trigger": false,
      "taf_trigger": false,
      "metar": "METAR LIPQ 300720Z AUTO 06002KT 9999 BKN006/// OVC089/// 04/04 Q1001",
      "taf": "TAF LIPQ 300500Z 3006/3106 VRB04KT 9999 SCT040"
    },
    {
      "icao": "LIPR",
      "alert": "OK",
      "vis_m": 100,
      "fzfg": false,
      "metar_trigger": false,
      "taf_trigger": false,
      "metar": "METAR LIPR 300720Z 27004KT 260V320 0100 R30/0350N FG VV001 03/03 Q1001",
      "taf": "TAF LIPR 300500Z 3006/3106 VRB05KT 0500 FG OVC001"
    },
    {
      "icao": "LIPX",
      "alert": "OK",
      "vis_m": 150,
      "fzfg": false,
      "metar_trigger": false,
      "taf_trigger": false,
      "metar": "METAR LIPX 300720Z VRB02KT 0150 R04/0350N FG VV001 02/02 Q1001",
      "taf": "TAF LIPX 300500Z 3006/3106 VRB05KT 0300 FG OVC004"
    },
    {
      "icao": "LIPY",
      "alert": "OK",
      "vis_m": 4400,
      "fzfg": false,
      "metar_trigger": false,
      "taf_trigger": false,
      "metar": "METAR LIPY 300720Z AUTO 19003KT 150V210 4400 BR BKN003/// BKN066/// 04/04 Q1001",
      "taf": "TAF LIPY 300500Z 3006/3106 VRB05KT 6000 SCT020"
    },
    {
      "icao": "LIPZ",
      "alert": "OK",
      "vis_m": 1000,
      "fzfg": false,
      "metar_trigger": false,
      "taf_trigger": false,
      "metar": "METAR LIPZ 300720Z 25004KT 1000 R04R/P2000N BCFG BKN002 04/04 Q1001 NOSIG",
      "taf": "TAF LIPZ 300500Z 3006/3112 VRB04KT 0300 FG BKN002"
    },
    {
      "icao": "LIRF",
      "alert": "OK",
      "vis_m": 9999,
      "fzfg": false,
      "metar_trigger": false,
      "taf_trigger": false,
      "metar": "METAR LIRF 300720Z 09008KT 9999 VCSH SCT030 06/05 Q1000 REDZ NOSIG",
      "taf": "TAF LIRF 300500Z 3006/3112 08010KT 9999 FEW040"
    },
    {
      "icao": "LIRN",
      "alert": "OK",
      "vis_m": 9999,
      "fzfg": false,
      "metar_trigger": false,
      "taf_trigger": false,
      "metar": "METAR LIRN 300720Z 34003KT 280V050 CAVOK 07/05 Q1001 NOSIG",
      "taf": "TAF LIRN 300500Z 3006/3106 VRB05KT 8000 SCT020"
    },
    {
      "icao": "LIRP",
      "alert": "OK",
      "vis_m": 9999,
      "fzfg": false,
      "metar_trigger": false,
      "taf_trigger": false,
      "metar": "METAR LIRP 300715Z 12007KT 9999 FEW020 SCT040 06/06 Q1000 NOSIG",
      "taf": "TAF LIRP 300500Z 3006/3106 12005KT 9999 SCT030 BKN050"
    },
    {
      "icao": "LIRZ",
      "alert": "OK",
      "vis_m": 3200,
      "fzfg": false,
      "metar_trigger": false,
      "taf_trigger": false,
      "metar": "METAR LIRZ 300720Z AUTO 28002KT 3200 BR VV002 05/05 Q1001",
      "taf": "TAF LIRZ 300500Z 3006/3106 VRB03KT 2500 BR BKN030"
    },
    {
      "icao": "LJLJ",
      "alert": "OK",
      "vis_m": 9999,
      "fzfg": false,
      "metar_trigger": false,
      "taf_trigger": false,
      "metar": "METAR LJLJ 300730Z VRB01KT 9999 FEW003 SCT025 BKN063 03/02 Q1001 NOSIG",
      "taf": "TAF LJLJ 300500Z 3006/3106 VRB02KT 6000 FEW003 BKN020 BKN040"
    },
    {
      "icao": "LKMT",
      "alert": "OK",
      "vis_m": 6000,
      "fzfg": false,
      "metar_trigger": false,
      "taf_trigger": false,
      "metar": "METAR LKMT 300730Z 05011KT 6000 OVC009 M00/M02 Q1002 NOSIG",
      "taf": "TAF LKMT 300500Z 3006/3106 01010KT 9999 BKN030"
    },
    {
      "icao": "LKPR",
      "alert": "OK",
      "vis_m": 400,
      "fzfg": true,
      "metar_trigger": false,
      "taf_trigger": false,
      "metar": "METAR LKPR 300730Z VRB02KT 0400 R24/1000U R30/0375N FZFG VV002 M01/M01 Q1001 NOSIG",
      "taf": "TAF LKPR 300500Z 3006/3112 09003KT 0500 FZFG SCT001 OVC002"
    },
    {
      "icao": "LLBG",
      "alert": "OK",
      "vis_m": 9999,
      "fzfg": false,
      "metar_trigger": false,
      "taf_trigger": false,
      "metar": "METAR LLBG 300720Z 18011KT CAVOK 19/04 Q1013 NOSIG RMK FEW120",
      "taf": "TAF LLBG 300503Z 3006/3106 17008KT CAVOK"
    },
    {
      "icao": "LMML",
      "alert": "OK",
      "vis_m": 7000,
      "fzfg": false,
      "metar_trigger": false,
      "taf_trigger": false,
      "metar": "METAR LMML 300745Z 23005KT 200V260 7000 -RA BKN008 BKN024 14/14 Q1004 NOSIG",
      "taf": "TAF LMML 300500Z 3006/3106 26008KT 9999 FEW015"
    },
    {
      "icao": "LOWW",
      "alert": "OK",
      "vis_m": 6000,
      "fzfg": false,
      "metar_trigger": false,
      "taf_trigger": false,
      "metar": "METAR LOWW 300720Z 34005KT 6000 FEW038 BKN040 M00/M01 Q1002 NOSIG",
      "taf": "TAF LOWW 300515Z 3006/3112 35007KT 9999 SCT012 BKN020 TX03/3013Z TNM00/3006Z"
    },
    {
      "icao": "LPFR",
      "alert": "OK",
      "vis_m": 9000,
      "fzfg": false,
      "metar_trigger": false,
      "taf_trigger": false,
      "metar": "METAR LPFR 300730Z 04003KT 340V050 9000 SCT005 SCT012 12/12 Q1015",
      "taf": "TAF LPFR 300500Z 3006/3106 26007KT 9999 SCT012"
    },
    {
      "icao": "LPMA",
      "alert": "OK",
      "vis_m": 9999,
      "fzfg": false,
      "metar_trigger": false,
      "taf_trigger": false,
      "metar": "METAR LPMA 300730Z VRB02KT 9999 FEW015 16/13 Q1022",
      "taf": "TAF LPMA 300500Z 3006/3106 VRB05KT 9999 SCT015"
    },
    {
      "icao": "LPPR",
      "alert": "OK",
      "vis_m": 6000,
      "fzfg": false,
      "metar_trigger": false,
      "taf_trigger": false,
      "metar": "METAR LPPR 300730Z 19012KT 6000 -SHRA FEW010 FEW020CB BKN025 12/11 Q1008",
      "taf": "TAF LPPR 300500Z 3006/3106 21010KT 9999 SCT025"
    },
    {
      "icao": "LPPS",
      "alert": "OK",
      "vis_m": 9999,
      "fzfg": false,
      "metar_trigger": false,
      "taf_trigger": false,
      "metar": "METAR LPPS 300730Z 28014KT 9999 SCT013 18/16 Q1022",
      "taf": "TAF LPPS 300500Z 3006/3112 27013KT 9999 SCT013"
    },
    {
      "icao": "LPPT",
      "alert": "OK",
      "vis_m": 9999,
      "fzfg": false,
      "metar_trigger": false,
      "taf_trigger": false,
      "metar": "METAR LPPT 300730Z 22008KT 9999 FEW012 13/12 Q1013",
      "taf": "TAF LPPT 300500Z 3006/3112 21005KT 9999 SCT015"
    },
    {
      "icao": "LQBK",
      "alert": "OK",
      "vis_m": 9999,
      "fzfg": false,
      "metar_trigger": false,
      "taf_trigger": false,
      "metar": "METAR LQBK 300730Z 15002KT 9999 SCT033 03/02 Q1002 NOSIG",
      "taf": "TAF LQBK 300500Z 3006/3106 33005KT CAVOK TX08/3013Z TN02/3105Z"
    },
    {
      "icao": "LQSA",
      "alert": "OK",
      "vis_m": 4000,
      "fzfg": false,
      "metar_trigger": false,
      "taf_trigger": false,
      "metar": "METAR LQSA 300730Z VRB01KT 4000 -DZ BR SCT003 BKN015 OVC025 05/05 Q1000 NOSIG",
      "taf": "TAF LQSA 300500Z 3006/3106 VRB02KT 9999 SCT012 BKN030 TX07/3013Z TN01/3106Z"
    },
    {
      "icao": "LQTZ",
      "alert": "OK",
      "vis_m": 9999,
      "fzfg": false,
      "metar_trigger": false,
      "taf_trigger": false,
      "metar": "METAR LQTZ 300730Z 32004KT 9999 OVC016 05/04 Q1001",
      "taf": "TAF LQTZ 300500Z 3006/3106 27005KT 9999 FEW014 SCT040 TX09/3013Z TN02/3105Z"
    },
    {
      "icao": "LRBC",
      "alert": "OK",
      "vis_m": 7000,
      "fzfg": false,
      "metar_trigger": false,
      "taf_trigger": false,
      "metar": "METAR LRBC 300730Z 35014KT 7000 OVC008 02/01 Q1002",
      "taf": "TAF LRBC 300500Z 3006/3015 35014KT 9999 BKN010 OVC015"
    },
    {
      "icao": "LRBS",
      "alert": "OK",
      "vis_m": 9999,
      "fzfg": false,
      "metar_trigger": false,
      "taf_trigger": false,
      "metar": "METAR LRBS 300730Z 26005KT 230V290 9999 FEW016 04/03 Q1000 NOSIG",
      "taf": "TAF LRBS 300500Z 3006/3106 VRB04KT 9999 BKN045"
    },
    {
      "icao": "LRBV",
      "alert": "OK",
      "vis_m": 9999,
      "fzfg": false,
      "metar_trigger": false,
      "taf_trigger": false,
      "metar": "METAR LRBV 300730Z VRB02KT 9999 SCT025 SCT060 01/M00 Q0999",
      "taf": "TAF LRBV 300500Z 3006/3015 10005KT 9999 BKN045"
    },
    {
      "icao": "LRCL",
      "alert": "OK",
      "vis_m": 800,
      "fzfg": false,
      "metar_trigger": false,
      "taf_trigger": false,
      "metar": "METAR LRCL 300730Z 10003KT 0800 R25/1400U -DZ FG BKN012 OVC024 02/02 Q0999",
      "taf": "TAF LRCL 300500Z 3006/3015 VRB04KT 0800 FG BKN002 OVC030"
    },
    {
      "icao": "LRCV",
      "alert": "OK",
      "vis_m": 9999,
      "fzfg": false,
      "metar_trigger": false,
      "taf_trigger": false,
      "metar": "METAR LRCV 300730Z 17007KT 9999 OVC025 04/04 Q0999",
      "taf": "TAF LRCV 300500Z 3006/3015 VRB04KT 5000 BR OVC030"
    },
    {
      "icao": "LRIA",
      "alert": "OK",
      "vis_m": 9999,
      "fzfg": false,
      "metar_trigger": false,
      "taf_trigger": false,
      "metar": "METAR LRIA 300730Z 33009KT 9999 OVC004 01/00 Q1002",
      "taf": "TAF LRIA 300500Z 3006/3015 34009KT 3000 BR OVC002"
    },
    {
      "icao": "LROP",
      "alert": "OK",
      "vis_m": 9000,
      "fzfg": false,
      "metar_trigger": false,
      "taf_trigger": false,
      "metar": "METAR LROP 300730Z COR 24004KT 210V270 9000 FEW008 BKN015 04/03 Q0999 NOSIG",
      "taf": "TAF LROP 300500Z 3006/3106 VRB04KT 9999 BKN045"
    },
    {
      "icao": "LRSB",
      "alert": "OK",
      "vis_m": 8000,
      "fzfg": false,
      "metar_trigger": false,
      "taf_trigger": false,
      "metar": "METAR LRSB 300730Z 12003KT 8000 SCT009 BKN034 03/02 Q0999",
      "taf": "TAF LRSB 300500Z 3006/3106 VRB04KT 5000 BR BKN040"
    },
    {
      "icao": "LRSM",
      "alert": "OK",
      "vis_m": 9999,
      "fzfg": false,
      "metar_trigger": false,
      "taf_trigger": false,
      "metar": "METAR LRSM 300730Z VRB01KT 9999 OVC035 03/02 Q0999",
      "taf": "TAF LRSM 300500Z 3006/3015 VRB04KT 9999 BKN040"
    },
    {
      "icao": "LRSV",
      "alert": "OK",
      "vis_m": 4000,
      "fzfg": false,
      "metar_trigger": false,
      "taf_trigger": false,
      "metar": "METAR LRSV 300730Z 01013KT 4000 BR BKN003 M01/M01 Q1002",
      "taf": "TAF LRSV 300500Z 3006/3015 35010KT 5000 -SN BR BKN005 BKN015"
    },
    {
      "icao": "LRTM",
      "alert": "OK",
      "vis_m": 1600,
      "fzfg": false,
      "metar_trigger": false,
      "taf_trigger": false,
      "metar": "METAR LRTM 300730Z 10003KT 1600 -RA BR FEW001 SCT005 BKN038 01/01 Q0999",
      "taf": "TAF LRTM 300500Z 3006/3015 VRB04KT 1500 BR SCT005 OVC045"
    },
    {
      "icao": "LRTR",
      "alert": "OK",
      "vis_m": 400,
      "fzfg": false,
      "metar_trigger": false,
      "taf_trigger": false,
      "metar": "METAR LRTR 300730Z 24005KT 0400 R29/P2000 PRFG BR FEW001 BKN002 OVC009 05/05 Q1000 TEMPO 1500 BR",
      "taf": "TAF LRTR 300500Z 3006/3106 23006KT 0800 -DZ FG VV002"
    },
    {
      "icao": "LTAC",
      "alert": "OK",
      "vis_m": 9999,
      "fzfg": false,
      "metar_trigger": false,
      "taf_trigger": false,
      "metar": "METAR LTAC 300720Z 20007KT 170V230 9999 -SHRA FEW017 BKN023 BKN080 07/05 Q1001 NOSIG RMK RWY21C 19008KT 160V220 RWY03L 20006KT 170V230 RWY21R 19009KT 160V220 RWY03R 20005KT RWY21L 20006KT 170V240",
      "taf": "TAF LTAC 300440Z 3006/3106 19013KT 9999 SCT040 BKN100"
    },
    {
      "icao": "LTFM",
      "alert": "OK",
      "vis_m": 9999,
      "fzfg": false,
      "metar_trigger": false,
      "taf_trigger": false,
      "metar": "METAR LTFM 300720Z 19014KT 9999 BKN035 BKN090 12/10 Q0994 NOSIG RMK RWY17L 18018KT RWY34L 18014KT RWY16R 18014KT RWY36 19016KT RWY18 19018KT",
      "taf": "TAF LTFM 300440Z 3006/3112 20012KT 9999 -SHRA BKN035 BKN080"
    },
    {
      "icao": "LUKK",
      "alert": "OK",
      "vis_m": 9999,
      "fzfg": false,
      "metar_trigger": false,
      "taf_trigger": false,
      "metar": "METAR LUKK 300730Z 36014KT 9999 -RA OVC006 01/01 Q0999 NOSIG",
      "taf": "TAF LUKK 300526Z 3006/3106 35012KT 5000 -RA OVC004"
    },
    {
      "icao": "LWOH",
      "alert": "OK",
      "vis_m": 9999,
      "fzfg": false,
      "metar_trigger": false,
      "taf_trigger": false,
      "metar": "METAR LWOH 300750Z VRB02KT 9999 SCT010 BKN035 04/03 Q1000",
      "taf": ""
    },
    {
      "icao": "LWSK",
      "alert": "OK",
      "vis_m": 9999,
      "fzfg": false,
      "metar_trigger": false,
      "taf_trigger": false,
      "metar": "METAR LWSK 300750Z 02005KT 9999 SCT040 BKN080 07/06 Q1000 NOSIG",
      "taf": ""
    },
    {
      "icao": "LYBE",
      "alert": "OK",
      "vis_m": 8000,
      "fzfg": false,
      "metar_trigger": false,
      "taf_trigger": false,
      "metar": "METAR LYBE 300730Z 27009KT 8000 BKN004 OVC008 05/04 Q1001 NOSIG",
      "taf": "TAF LYBE 300500Z 3006/3106 27010KT 4000 BR BKN002 BKN022 TX07/3013Z TN03/3106Z"
    },
    {
      "icao": "LYNI",
      "alert": "OK",
      "vis_m": 8000,
      "fzfg": false,
      "metar_trigger": false,
      "taf_trigger": false,
      "metar": "METAR LYNI 300730Z 31007KT 280V340 8000 BKN012 BKN050 07/05 Q1000 NOSIG",
      "taf": "TAF LYNI 300500Z 3006/3106 33006KT 8000 BKN010 BKN020 TX07/3013Z TN04/3006Z"
    },
    {
      "icao": "LYPG",
      "alert": "OK",
      "vis_m": 7000,
      "fzfg": false,
      "metar_trigger": false,
      "taf_trigger": false,
      "metar": "METAR LYPG 300730Z VRB01KT 7000 -RA FEW007 SCT034 OVC070 08/08 Q1001 NOSIG",
      "taf": "TAF LYPG 300500Z 3006/3106 36005KT 6000 FEW010 SCT040 BKN070 TX11/3013Z TN05/3106Z"
    },
    {
      "icao": "LZIB",
      "alert": "OK",
      "vis_m": 8000,
      "fzfg": false,
      "metar_trigger": false,
      "taf_trigger": false,
      "metar": "METAR LZIB 300730Z VRB01KT 8000 FEW010 01/00 Q1001 NOSIG",
      "taf": "TAF LZIB 300516Z 3006/3106 23006KT 9999 SCT007 BKN040"
    },
    {
      "icao": "LZKZ",
      "alert": "OK",
      "vis_m": 9999,
      "fzfg": false,
      "metar_trigger": false,
      "taf_trigger": false,
      "metar": "METAR LZKZ 300730Z 36014KT 9999 FEW018 BKN043 02/M02 Q1001 NOSIG",
      "taf": "TAF LZKZ 300516Z 3006/3106 03015KT 9999 BKN040"
    },
    {
      "icao": "LZTT",
      "alert": "OK",
      "vis_m": 9000,
      "fzfg": false,
      "metar_trigger": false,
      "taf_trigger": false,
      "metar": "METAR LZTT 300730Z 06009KT 9000 SCT002 OVC005 M03/M04 Q1000 NOSIG",
      "taf": "TAF LZTT 300516Z 3006/3106 06009KT 9999 SCT002 BKN009"
    },
    {
      "icao": "OEJN",
      "alert": "OK",
      "vis_m": 9999,
      "fzfg": false,
      "metar_trigger": false,
      "taf_trigger": false,
      "metar": "METAR OEJN 300700Z 36007KT CAVOK 26/13 Q1015 NOSIG",
      "taf": "TAF OEJN 300500Z 3006/3112 33012KT CAVOK"
    },
    {
      "icao": "OEMA",
      "alert": "OK",
      "vis_m": 9999,
      "fzfg": false,
      "metar_trigger": false,
      "taf_trigger": false,
      "metar": "METAR OEMA 300700Z 12006KT CAVOK 18/M07 Q1021 NOSIG",
      "taf": "TAF OEMA 300500Z 3006/3112 09010KT CAVOK"
    },
    {
      "icao": "OJAI",
      "alert": "OK",
      "vis_m": null,
      "fzfg": false,
      "metar_trigger": false,
      "taf_trigger": false,
      "metar": "",
      "taf": "TAF OJAI 300500Z 3006/3112 23006KT 5000 HZ NSC"
    },
    {
      "icao": "OMAA",
      "alert": "OK",
      "vis_m": 9999,
      "fzfg": false,
      "metar_trigger": false,
      "taf_trigger": false,
      "metar": "METAR OMAA 300730Z 27009KT 250V320 9999 FEW030 22/12 Q1018 NOSIG",
      "taf": "TAF OMAA 300500Z 3006/3112 30012KT 8000 FEW045"
    },
    {
      "icao": "OMDB",
      "alert": "OK",
      "vis_m": 9999,
      "fzfg": false,
      "metar_trigger": false,
      "taf_trigger": false,
      "metar": "METAR OMDB 300730Z 27007KT 220V320 9999 FEW030 23/15 Q1018 NOSIG",
      "taf": "TAF OMDB 300500Z 3006/3112 27013KT 8000 NSC"
    },
    {
      "icao": "UAAA",
      "alert": "OK",
      "vis_m": 5000,
      "fzfg": false,
      "metar_trigger": false,
      "taf_trigger": false,
      "metar": "METAR UAAA 300730Z VRB01MPS 5000 BR FU BKN015 M01/M05 Q1019 NOSIG",
      "taf": "TAF UAAA 300509Z 3006/3106 01003MPS 3100 BR FU BKN011 OVC015 TXM00/3010Z TNM06/3102Z"
    },
    {
      "icao": "UBBB",
      "alert": "OK",
      "vis_m": 9999,
      "fzfg": false,
      "metar_trigger": false,
      "taf_trigger": false,
      "metar": "METAR UBBB 300730Z 19014KT 9999 BKN011 09/07 Q1011 NOSIG",
      "taf": "TAF UBBB 300502Z 3006/3106 17012KT 8000 BKN009 BKN030 TX09/3010Z TN04/3101Z"
    },
    {
      "icao": "UDSG",
      "alert": "OK",
      "vis_m": 2600,
      "fzfg": false,
      "metar_trigger": false,
      "taf_trigger": false,
      "metar": "METAR UDSG 300730Z 09002KT 2600 BR VV003 M11/M11 Q1017 NOSIG",
      "taf": "TAF UDSG 300458Z 3006/3106 VRB06KT 1000 BR OVC010"
    },
    {
      "icao": "UDYZ",
      "alert": "OK",
      "vis_m": 3500,
      "fzfg": false,
      "metar_trigger": false,
      "taf_trigger": false,
      "metar": "METAR UDYZ 300730Z VRB01KT 3500 BR BKN011 M02/M05 Q1019 NOSIG",
      "taf": "TAF UDYZ 300500Z 3006/3106 20006KT 3000 BR BKN010"
    },
    {
      "icao": "UGKO",
      "alert": "OK",
      "vis_m": 9999,
      "fzfg": false,
      "metar_trigger": false,
      "taf_trigger": false,
      "metar": "METAR UGKO 300730Z 09015KT CAVOK 13/M02 Q1007 NOSIG",
      "taf": "TAF UGKO 300500Z 3006/3106 09010KT CAVOK TX18/3011Z TN07/3106Z"
    }
  ]
}