{
  "ts_utc": "2026-02-02T15:48:33Z",
  "threshold_m": 150,
  "source": "stations_override.txt (ICAO list) + aviationweather.gov (METAR/TAF raw)",
  "station_count": 159,
  "stations": [
    {
      "icao": "BIKF",
      "alert": "OK",
      "vis_m": 9999,
      "fzfg": false,
      "metar_trigger": false,
      "taf_trigger": false,
      "metar": "METAR BIKF 021530Z 12016KT 9999 FEW041 BKN240 07/03 Q1003",
      "taf": "TAF BIKF 021330Z 0215/0315 09017KT 9999 FEW020 SCT035 TX07/0215Z TN04/0306Z"
    },
    {
      "icao": "BKPR",
      "alert": "OK",
      "vis_m": 4000,
      "fzfg": false,
      "metar_trigger": false,
      "taf_trigger": false,
      "metar": "METAR BKPR 021530Z VRB01KT 4000 -SN BR FEW010 BKN030 M00/M03 Q1010 TEMPO 3000 BR",
      "taf": ""
    },
    {
      "icao": "EBCI",
      "alert": "OK",
      "vis_m": 9999,
      "fzfg": false,
      "metar_trigger": false,
      "taf_trigger": false,
      "metar": "METAR EBCI 021520Z 10008KT 9999 FEW017 BKN030 07/04 Q0997 NOSIG",
      "taf": "TAF EBCI 021110Z 0212/0318 12005KT 9999 SCT015 BKN020"
    },
    {
      "icao": "EDDB",
      "alert": "OK",
      "vis_m": 9999,
      "fzfg": false,
      "metar_trigger": false,
      "taf_trigger": false,
      "metar": "METAR EDDB 021520Z AUTO 08013KT 9999 OVC033 OVC044 M08/M12 Q1012 NOSIG",
      "taf": "TAF EDDB 021100Z 0212/0312 08012KT 9999 BKN035"
    },
    {
      "icao": "EDDH",
      "alert": "OK",
      "vis_m": 9999,
      "fzfg": false,
      "metar_trigger": false,
      "taf_trigger": false,
      "metar": "METAR EDDH 021520Z AUTO 09014KT 9999 FEW017 OVC036 M07/M11 Q1011 TEMPO BKN014",
      "taf": "TAF EDDH 021100Z 0212/0318 09012KT 9999 BKN025"
    },
    {
      "icao": "EDDK",
      "alert": "OK",
      "vis_m": 9999,
      "fzfg": false,
      "metar_trigger": false,
      "taf_trigger": false,
      "metar": "METAR EDDK 021520Z AUTO 12011KT 080V140 9999 SCT028 OVC038 06/M00 Q1001 NOSIG",
      "taf": "TAF EDDK 021100Z 0212/0318 11010KT 9999 BKN040"
    },
    {
      "icao": "EDDN",
      "alert": "OK",
      "vis_m": 9999,
      "fzfg": false,
      "metar_trigger": false,
      "taf_trigger": false,
      "metar": "METAR EDDN 021520Z AUTO 08007KT 9999 SCT023 SCT029 BKN048 02/M03 Q1003 NOSIG",
      "taf": "TAF EDDN 021100Z 0212/0312 11007KT 9999 BKN025"
    },
    {
      "icao": "EDDS",
      "alert": "OK",
      "vis_m": 9999,
      "fzfg": false,
      "metar_trigger": false,
      "taf_trigger": false,
      "metar": "METAR EDDS 021520Z AUTO 09003KT 060V120 CAVOK 03/01 Q1000 NOSIG",
      "taf": "TAF EDDS 021100Z 0212/0312 VRB03KT 9999 SCT020 BKN025"
    },
    {
      "icao": "EDFH",
      "alert": "OK",
      "vis_m": 2100,
      "fzfg": false,
      "metar_trigger": false,
      "taf_trigger": false,
      "metar": "METAR EDFH 021520Z 13014G26KT 100V170 2100 BR OVC001 00/00 Q0999",
      "taf": "TAF EDFH 021100Z 0212/0312 13015G25KT 4500 BR SCT001 BKN003"
    },
    {
      "icao": "EDJA",
      "alert": "OK",
      "vis_m": 9999,
      "fzfg": false,
      "metar_trigger": false,
      "taf_trigger": false,
      "metar": "METAR EDJA 021520Z 02007KT CAVOK 03/M00 Q1000",
      "taf": "TAF EDJA 021400Z 0215/0224 06006KT CAVOK"
    },
    {
      "icao": "EDLW",
      "alert": "OK",
      "vis_m": 9999,
      "fzfg": false,
      "metar_trigger": false,
      "taf_trigger": false,
      "metar": "METAR EDLW 021520Z 03010KT CAVOK 04/M00 Q1001",
      "taf": "TAF EDLW 021100Z 0212/0312 07009KT CAVOK"
    },
    {
      "icao": "EDNY",
      "alert": "OK",
      "vis_m": 9999,
      "fzfg": false,
      "metar_trigger": false,
      "taf_trigger": false,
      "metar": "METAR EDNY 021520Z 00000KT CAVOK 07/01 Q1000",
      "taf": "TAF EDNY 021400Z 0215/0224 23005KT CAVOK"
    },
    {
      "icao": "EDSB",
      "alert": "OK",
      "vis_m": 9999,
      "fzfg": false,
      "metar_trigger": false,
      "taf_trigger": false,
      "metar": "METAR EDSB 021520Z 01007KT 9999 BKN009 05/03 Q1000",
      "taf": "TAF EDSB 021100Z 0212/0312 01004KT 9000 SCT003 BKN020"
    },
    {
      "icao": "EETN",
      "alert": "OK",
      "vis_m": 9999,
      "fzfg": false,
      "metar_trigger": false,
      "taf_trigger": false,
      "metar": "METAR EETN 021520Z 36007KT 330V030 CAVOK M08/M14 Q1025 NOSIG",
      "taf": "TAF EETN 021130Z 0212/0312 01012KT CAVOK"
    },
    {
      "icao": "EFTU",
      "alert": "OK",
      "vis_m": 9999,
      "fzfg": false,
      "metar_trigger": false,
      "taf_trigger": false,
      "metar": "METAR EFTU 021520Z AUTO 36002KT CAVOK M15/M18 Q1028",
      "taf": "TAF EFTU 021434Z 0215/0315 36003KT CAVOK"
    },
    {
      "icao": "EGBB",
      "alert": "OK",
      "vis_m": 4000,
      "fzfg": false,
      "metar_trigger": false,
      "taf_trigger": false,
      "metar": "METAR EGBB 021520Z 08011KT 4000 -DZ BKN009 07/05 Q0995",
      "taf": "TAF EGBB 021056Z 0212/0312 08012KT 9999 BKN012"
    },
    {
      "icao": "EGGP",
      "alert": "OK",
      "vis_m": 9999,
      "fzfg": false,
      "metar_trigger": false,
      "taf_trigger": false,
      "metar": "METAR EGGP 021520Z 10012KT 9999 FEW025 BKN029 07/02 Q0996",
      "taf": "TAF EGGP 021055Z 0212/0312 09012KT 9999 BKN030"
    },
    {
      "icao": "EGGW",
      "alert": "OK",
      "vis_m": 9999,
      "fzfg": false,
      "metar_trigger": false,
      "taf_trigger": false,
      "metar": "METAR EGGW 021520Z AUTO 09010KT 070V130 9999 BKN010 OVC030 07/05 Q0995",
      "taf": "TAF EGGW 021052Z 0212/0312 09009KT 4000 DZ BR BKN005"
    },
    {
      "icao": "EGKK",
      "alert": "OK",
      "vis_m": 9999,
      "fzfg": false,
      "metar_trigger": false,
      "taf_trigger": false,
      "metar": "METAR EGKK 021520Z 09010KT 9999 SCT015 BKN023 07/06 Q0994",
      "taf": "TAF EGKK 021057Z 0212/0318 10008KT 9999 SCT009 BKN030"
    },
    {
      "icao": "EGNM",
      "alert": "OK",
      "vis_m": 1500,
      "fzfg": false,
      "metar_trigger": false,
      "taf_trigger": false,
      "metar": "METAR EGNM 021520Z 06008G19KT 030V090 1500 BR OVC001 04/03 Q0998",
      "taf": ""
    },
    {
      "icao": "EGPD",
      "alert": "OK",
      "vis_m": 9999,
      "fzfg": false,
      "metar_trigger": false,
      "taf_trigger": false,
      "metar": "METAR EGPD 021520Z AUTO 11014KT 9999 -RA BKN009 OVC012 04/03 Q1005 TEMPO BKN006",
      "taf": "TAF EGPD 021054Z 0212/0312 11013KT 9999 SCT012 BKN018"
    },
    {
      "icao": "EGPF",
      "alert": "OK",
      "vis_m": 9999,
      "fzfg": false,
      "metar_trigger": false,
      "taf_trigger": false,
      "metar": "METAR EGPF 021520Z AUTO 07013KT 9999 BKN017 BKN022 08/05 Q1000",
      "taf": "TAF EGPF 021100Z 0212/0312 08010KT 9999 SCT030"
    },
    {
      "icao": "EHBK",
      "alert": "OK",
      "vis_m": 9999,
      "fzfg": false,
      "metar_trigger": false,
      "taf_trigger": false,
      "metar": "METAR EHBK 021525Z AUTO 10011KT 9999 NCD 06/03 Q0999 NOSIG",
      "taf": "TAF EHBK 021113Z 0212/0318 14005KT 9999 BKN017"
    },
    {
      "icao": "EHEH",
      "alert": "OK",
      "vis_m": null,
      "fzfg": false,
      "metar_trigger": false,
      "taf_trigger": false,
      "metar": "",
      "taf": "TAF EHEH 021126Z 0212/0318 09010KT 9999 BKN030"
    },
    {
      "icao": "EKBI",
      "alert": "OK",
      "vis_m": 9999,
      "fzfg": false,
      "metar_trigger": false,
      "taf_trigger": false,
      "metar": "METAR EKBI 021520Z AUTO 09018G29KT 070V140 9999 NCD M04/M11 Q1014",
      "taf": "TAF EKBI 021427Z 0215/0315 10020KT 9999 SCT025"
    },
    {
      "icao": "EKCH",
      "alert": "OK",
      "vis_m": 9999,
      "fzfg": false,
      "metar_trigger": false,
      "taf_trigger": false,
      "metar": "METAR EKCH 021520Z AUTO 09022KT 9999 NCD M04/M11 Q1018 TEMPO 10018G28KT",
      "taf": "TAF EKCH 021427Z 0215/0315 10018KT 9999 SCT025"
    },
    {
      "icao": "ENAL",
      "alert": "OK",
      "vis_m": 9999,
      "fzfg": false,
      "metar_trigger": false,
      "taf_trigger": false,
      "metar": "METAR ENAL 021520Z 15006KT CAVOK M02/M12 Q1018",
      "taf": "TAF ENAL 021400Z 0215/0224 14009KT CAVOK"
    },
    {
      "icao": "ENBR",
      "alert": "OK",
      "vis_m": 9999,
      "fzfg": false,
      "metar_trigger": false,
      "taf_trigger": false,
      "metar": "METAR ENBR 021520Z 09003KT CAVOK M02/M15 Q1018 NOSIG RMK WIND 1200FT 12004KT",
      "taf": "TAF ENBR 021100Z 0212/0312 09005KT CAVOK"
    },
    {
      "icao": "ENGM",
      "alert": "OK",
      "vis_m": 9999,
      "fzfg": false,
      "metar_trigger": false,
      "taf_trigger": false,
      "metar": "METAR ENGM 021520Z 08006KT 9999 -SN BKN035 M08/M13 Q1024 NOSIG",
      "taf": "TAF ENGM 021100Z 0212/0312 10005KT 9999 -SN BKN030"
    },
    {
      "icao": "ENHD",
      "alert": "OK",
      "vis_m": 9999,
      "fzfg": false,
      "metar_trigger": false,
      "taf_trigger": false,
      "metar": "METAR ENHD 021520Z 12011KT CAVOK M03/M14 Q1019",
      "taf": "TAF ENHD 021400Z 0215/0223 12010KT CAVOK"
    },
    {
      "icao": "ENTC",
      "alert": "OK",
      "vis_m": 9999,
      "fzfg": false,
      "metar_trigger": false,
      "taf_trigger": false,
      "metar": "METAR ENTC 021520Z 19012KT 9999 SCT041 SCT058 M00/M03 Q1022 NOSIG RMK WIND 2600FT 27008KT",
      "taf": "TAF ENTC 021100Z 0212/0312 20009KT 9999 FEW025 BKN040"
    },
    {
      "icao": "ENTO",
      "alert": "OK",
      "vis_m": 2400,
      "fzfg": false,
      "metar_trigger": false,
      "taf_trigger": false,
      "metar": "METAR ENTO 021520Z 07005KT 040V100 2400 -SN OVC024 M06/M09 Q1023 TEMPO 6000",
      "taf": ""
    },
    {
      "icao": "ENVA",
      "alert": "OK",
      "vis_m": 9999,
      "fzfg": false,
      "metar_trigger": false,
      "taf_trigger": false,
      "metar": "METAR ENVA 021520Z 11005KT 060V140 CAVOK M05/M14 Q1021 NOSIG RMK WIND 670FT 14012KT",
      "taf": "TAF ENVA 021100Z 0212/0312 11008KT CAVOK"
    },
    {
      "icao": "ENZV",
      "alert": "OK",
      "vis_m": 9999,
      "fzfg": false,
      "metar_trigger": false,
      "taf_trigger": false,
      "metar": "METAR ENZV 021520Z 10017KT CAVOK M03/M14 Q1019 NOSIG",
      "taf": ""
    },
    {
      "icao": "EPGD",
      "alert": "OK",
      "vis_m": 9999,
      "fzfg": false,
      "metar_trigger": false,
      "taf_trigger": false,
      "metar": "METAR EPGD 021530Z 09007KT CAVOK M12/M21 Q1021",
      "taf": "TAF EPGD 021130Z 0212/0312 11011KT CAVOK"
    },
    {
      "icao": "EPKK",
      "alert": "OK",
      "vis_m": 9999,
      "fzfg": false,
      "metar_trigger": false,
      "taf_trigger": false,
      "metar": "METAR EPKK 021530Z 07011KT CAVOK M09/M15 Q1014",
      "taf": "TAF EPKK 021430Z 0215/0315 06012KT CAVOK"
    },
    {
      "icao": "EPKT",
      "alert": "OK",
      "vis_m": 9999,
      "fzfg": false,
      "metar_trigger": false,
      "taf_trigger": false,
      "metar": "METAR EPKT 021530Z 08012KT CAVOK M07/M17 Q1012",
      "taf": "TAF EPKT 021130Z 0212/0312 08010KT 9999 BKN033"
    },
    {
      "icao": "EPLB",
      "alert": "OK",
      "vis_m": 9999,
      "fzfg": false,
      "metar_trigger": false,
      "taf_trigger": false,
      "metar": "METAR EPLB 021530Z 05006KT CAVOK M14/M19 Q1018",
      "taf": "TAF EPLB 021130Z 0212/0312 08008KT CAVOK"
    },
    {
      "icao": "EPMO",
      "alert": "OK",
      "vis_m": 9999,
      "fzfg": false,
      "metar_trigger": false,
      "taf_trigger": false,
      "metar": "METAR EPMO 021530Z 06008KT CAVOK M14/M19 Q1020",
      "taf": "TAF EPMO 021130Z 0212/0312 07012KT CAVOK"
    },
    {
      "icao": "EPPO",
      "alert": "OK",
      "vis_m": 9999,
      "fzfg": false,
      "metar_trigger": false,
      "taf_trigger": false,
      "metar": "METAR EPPO 021530Z 09015KT 9999 OVC032 M08/M18 Q1015",
      "taf": "TAF EPPO 021130Z 0212/0312 10014KT 9999 BKN048"
    },
    {
      "icao": "EPRA",
      "alert": "OK",
      "vis_m": 9999,
      "fzfg": false,
      "metar_trigger": false,
      "taf_trigger": false,
      "metar": "METAR EPRA 021530Z 07007KT CAVOK M13/M20 Q1018",
      "taf": "TAF EPRA 021430Z 0215/0224 08004KT CAVOK"
    },
    {
      "icao": "EPRZ",
      "alert": "OK",
      "vis_m": 9999,
      "fzfg": false,
      "metar_trigger": false,
      "taf_trigger": false,
      "metar": "METAR EPRZ 021530Z 06009KT 9999 OVC027 M09/M17 Q1015",
      "taf": "TAF EPRZ 021130Z 0212/0312 09014KT 9999 BKN045"
    },
    {
      "icao": "EPSC",
      "alert": "OK",
      "vis_m": 9999,
      "fzfg": false,
      "metar_trigger": false,
      "taf_trigger": false,
      "metar": "METAR EPSC 021530Z 10012KT CAVOK M08/M16 Q1016",
      "taf": "TAF EPSC 021130Z 0212/0312 08012KT 9999 SCT025"
    },
    {
      "icao": "EPSY",
      "alert": "OK",
      "vis_m": 9999,
      "fzfg": false,
      "metar_trigger": false,
      "taf_trigger": false,
      "metar": "METAR EPSY 021530Z 06002KT CAVOK M16/M22 Q1021",
      "taf": "TAF EPSY 021430Z 0215/0224 07006KT CAVOK"
    },
    {
      "icao": "EPWA",
      "alert": "OK",
      "vis_m": 9999,
      "fzfg": false,
      "metar_trigger": false,
      "taf_trigger": false,
      "metar": "METAR EPWA 021530Z 08008KT CAVOK M11/M19 Q1019 NOSIG",
      "taf": "TAF EPWA 021430Z 0215/0315 07008KT CAVOK"
    },
    {
      "icao": "EPWR",
      "alert": "OK",
      "vis_m": 9999,
      "fzfg": false,
      "metar_trigger": false,
      "taf_trigger": false,
      "metar": "METAR EPWR 021530Z 08006KT 9999 FEW021 OVC034 M06/M12 Q1013",
      "taf": "TAF EPWR 021430Z 0215/0315 10010KT 9999 OVC019"
    },
    {
      "icao": "ESGG",
      "alert": "OK",
      "vis_m": 9999,
      "fzfg": false,
      "metar_trigger": false,
      "taf_trigger": false,
      "metar": "METAR ESGG 021520Z 10008KT 060V150 9999 FEW030 M06/M13 Q1021",
      "taf": "TAF ESGG 021430Z 0215/0315 10010KT 9999 -SN BKN030"
    },
    {
      "icao": "ESKN",
      "alert": "OK",
      "vis_m": 9999,
      "fzfg": false,
      "metar_trigger": false,
      "taf_trigger": false,
      "metar": "METAR ESKN 021520Z 13005KT 090V160 9999 BKN029 M06/M11 Q1026",
      "taf": "TAF ESKN 021430Z 0215/0315 11005KT 9000 -SN BKN025"
    },
    {
      "icao": "ESMS",
      "alert": "OK",
      "vis_m": 9999,
      "fzfg": false,
      "metar_trigger": false,
      "taf_trigger": false,
      "metar": "METAR ESMS 021520Z 09019KT CAVOK M05/M11 Q1018",
      "taf": "TAF ESMS 021427Z 0215/0315 10018KT 9999 SCT025"
    },
    {
      "icao": "ESSA",
      "alert": "OK",
      "vis_m": 9999,
      "fzfg": false,
      "metar_trigger": false,
      "taf_trigger": false,
      "metar": "METAR ESSA 021520Z 04006KT 9999 SCT034 M07/M12 Q1027 NOSIG",
      "taf": "TAF ESSA 021430Z 0215/0315 04004KT 9999 BKN025"
    },
    {
      "icao": "EYKA",
      "alert": "OK",
      "vis_m": 9000,
      "fzfg": false,
      "metar_trigger": false,
      "taf_trigger": false,
      "metar": "METAR EYKA 021520Z 28002KT 9000 4300W NSC M15/M17 Q1022",
      "taf": "TAF EYKA 021100Z 0212/0312 VRB04KT 8000 NSC"
    },
    {
      "icao": "EYPA",
      "alert": "OK",
      "vis_m": 9999,
      "fzfg": false,
      "metar_trigger": false,
      "taf_trigger": false,
      "metar": "METAR EYPA 021520Z 02002KT CAVOK M13/M17 Q1025",
      "taf": "TAF EYPA 021100Z 0212/0312 VRB05KT CAVOK"
    },
    {
      "icao": "EYVI",
      "alert": "OK",
      "vis_m": 9000,
      "fzfg": false,
      "metar_trigger": false,
      "taf_trigger": false,
      "metar": "METAR EYVI 021520Z 33005KT 9000 NSC M16/M20 Q1019 NOSIG",
      "taf": "TAF EYVI 021100Z 0212/0312 VRB04KT 9000 NSC"
    },
    {
      "icao": "GCFV",
      "alert": "OK",
      "vis_m": 9999,
      "fzfg": false,
      "metar_trigger": false,
      "taf_trigger": false,
      "metar": "METAR GCFV 021530Z 32014KT 9999 VCSH FEW018 SCT022TCU 19/14 Q1015",
      "taf": "TAF GCFV 021400Z 0215/0315 33014KT 9999 SCT030 TX22/0314Z TN16/0306Z"
    },
    {
      "icao": "GCLP",
      "alert": "OK",
      "vis_m": 9999,
      "fzfg": false,
      "metar_trigger": false,
      "taf_trigger": false,
      "metar": "METAR GCLP 021530Z VRB04G16KT 9999 SCT025 BKN031 20/15 Q1016 NOSIG",
      "taf": "TAF GCLP 021400Z 0215/0315 35018KT 9999 SCT030 TX22/0314Z TN15/0306Z"
    },
    {
      "icao": "GCTS",
      "alert": "OK",
      "vis_m": 9999,
      "fzfg": false,
      "metar_trigger": false,
      "taf_trigger": false,
      "metar": "METAR GCTS 021530Z 11008KT 080V140 9999 SCT030 20/14 Q1016 NOSIG",
      "taf": "TAF GCTS 021400Z 0215/0315 12008KT 9999 BKN030 TX23/0314Z TN15/0306Z"
    },
    {
      "icao": "GMAD",
      "alert": "OK",
      "vis_m": 2000,
      "fzfg": false,
      "metar_trigger": false,
      "taf_trigger": false,
      "metar": "METAR GMAD 021530Z 35003KT 320V040 2000 R27/0750N DZ SCT010 BKN016 15/15 Q1013 NOSIG",
      "taf": ""
    },
    {
      "icao": "GMMN",
      "alert": "OK",
      "vis_m": 3000,
      "fzfg": false,
      "metar_trigger": false,
      "taf_trigger": false,
      "metar": "SPECI GMMN 021540Z 23012KT 3000 RA SCT006 BKN013 13/11 Q1011 BECMG 6000",
      "taf": "TAF GMMN 021100Z 0212/0318 26014KT 5000 RA SCT004 OVC010"
    },
    {
      "icao": "GMMX",
      "alert": "OK",
      "vis_m": 2500,
      "fzfg": false,
      "metar_trigger": false,
      "taf_trigger": false,
      "metar": "METAR GMMX 021530Z 30007KT 260V360 2500 -RA SCT006 BKN016 10/09 Q1014 TEMPO RA 1200",
      "taf": "TAF GMMX 021100Z 0212/0318 28006KT 8000 BKN023 SCT080"
    },
    {
      "icao": "HEGN",
      "alert": "OK",
      "vis_m": 9999,
      "fzfg": false,
      "metar_trigger": false,
      "taf_trigger": false,
      "metar": "METAR HEGN 021500Z 00000KT CAVOK 25/15 Q1014 NOSIG",
      "taf": "TAF HEGN 021100Z 0212/0318 10008KT CAVOK"
    },
    {
      "icao": "HEMA",
      "alert": "OK",
      "vis_m": 9999,
      "fzfg": false,
      "metar_trigger": false,
      "taf_trigger": false,
      "metar": "METAR HEMA 021500Z 09010KT CAVOK 25/18 Q1012 NOSIG",
      "taf": "TAF HEMA 021100Z 0212/0318 11008KT CAVOK"
    },
    {
      "icao": "HESH",
      "alert": "OK",
      "vis_m": 9999,
      "fzfg": false,
      "metar_trigger": false,
      "taf_trigger": false,
      "metar": "METAR HESH 021500Z 14013KT CAVOK 25/16 Q1013 NOSIG",
      "taf": "TAF HESH 021100Z 0212/0318 30008KT CAVOK"
    },
    {
      "icao": "HESX",
      "alert": "OK",
      "vis_m": 9999,
      "fzfg": false,
      "metar_trigger": false,
      "taf_trigger": false,
      "metar": "METAR HESX 021500Z 27009KT CAVOK 21/03 Q1016 NOSIG",
      "taf": "TAF HESX 021100Z 0212/0318 26014G24KT 6000 NSC"
    },
    {
      "icao": "LATI",
      "alert": "OK",
      "vis_m": null,
      "fzfg": false,
      "metar_trigger": false,
      "taf_trigger": false,
      "metar": "",
      "taf": "TAF LATI 021100Z 0212/0312 VRB05KT 9999 SCT060 BKN080 TX16/0312Z TN06/0304Z"
    },
    {
      "icao": "LBPD",
      "alert": "OK",
      "vis_m": 9999,
      "fzfg": false,
      "metar_trigger": false,
      "taf_trigger": false,
      "metar": "METAR LBPD 021530Z AUTO 12005KT 9999 BKN038/// OVC066/// M00/M00 Q1013 NOSIG",
      "taf": "TAF LBPD 021100Z 0212/0312 10010KT 7000 SCT005 BKN015 OVC060"
    },
    {
      "icao": "LBSF",
      "alert": "OK",
      "vis_m": 9999,
      "fzfg": false,
      "metar_trigger": false,
      "taf_trigger": false,
      "metar": "METAR LBSF 021530Z 13002KT 9999 FEW035 OVC041 M02/M05 Q1011 NOSIG",
      "taf": "TAF LBSF 021100Z 0212/0312 VRB03KT 8000 SCT010 BKN020 OVC045"
    },
    {
      "icao": "LBWN",
      "alert": "OK",
      "vis_m": 9999,
      "fzfg": false,
      "metar_trigger": false,
      "taf_trigger": false,
      "metar": "METAR LBWN 021530Z AUTO 29007KT 250V340 9999 FEW019/// OVC039/// M05/M10 Q1015 NOSIG",
      "taf": "TAF LBWN 021100Z 0212/0312 34012KT 5000 -SN SCT010 OVC020"
    },
    {
      "icao": "LCLK",
      "alert": "OK",
      "vis_m": 6000,
      "fzfg": false,
      "metar_trigger": false,
      "taf_trigger": false,
      "metar": "METAR LCLK 021530Z 23010KT 6000 FEW030 17/14 Q1011 NOSIG",
      "taf": "TAF LCLK 021130Z 0212/0312 22020KT 3000 DU FEW020"
    },
    {
      "icao": "LCPH",
      "alert": "OK",
      "vis_m": 9999,
      "fzfg": false,
      "metar_trigger": false,
      "taf_trigger": false,
      "metar": "METAR LCPH 021530Z 26012G25KT 240V320 9999 FEW027 SCT036TCU BKN045 16/13 Q1011 RERA NOSIG",
      "taf": "TAF LCPH 021130Z 0212/0312 25020KT 2000 DU FEW020"
    },
    {
      "icao": "LEAL",
      "alert": "OK",
      "vis_m": 9999,
      "fzfg": false,
      "metar_trigger": false,
      "taf_trigger": false,
      "metar": "METAR LEAL 021530Z 22008KT 180V260 CAVOK 17/03 Q0998 NOSIG",
      "taf": "TAF LEAL 021100Z 0212/0312 VRB04KT 9999 FEW030 TX19/0213Z TN05/0306Z"
    },
    {
      "icao": "LEBB",
      "alert": "OK",
      "vis_m": 9999,
      "fzfg": false,
      "metar_trigger": false,
      "taf_trigger": false,
      "metar": "METAR LEBB 021530Z 22011G25KT 150V280 9999 FEW050 15/04 Q0988 NOSIG",
      "taf": ""
    },
    {
      "icao": "LEBL",
      "alert": "OK",
      "vis_m": 3000,
      "fzfg": false,
      "metar_trigger": false,
      "taf_trigger": false,
      "metar": "METAR LEBL 021530Z 34003KT 290V020 3000 -DZ BR SCT005 BKN012 11/11 Q0995 NOSIG",
      "taf": ""
    },
    {
      "icao": "LECH",
      "alert": "OK",
      "vis_m": 8000,
      "fzfg": false,
      "metar_trigger": false,
      "taf_trigger": false,
      "metar": "METAR LECH 021530Z AUTO 10007KT 8000 NSC 11/10 Q0994",
      "taf": ""
    },
    {
      "icao": "LEMD",
      "alert": "OK",
      "vis_m": 9999,
      "fzfg": false,
      "metar_trigger": false,
      "taf_trigger": false,
      "metar": "METAR LEMD 021530Z 24022G34KT 200V270 9999 -RA VCTS VCSH SCT030CB BKN045 07/03 Q0996 TEMPO 4000 SHRA",
      "taf": ""
    },
    {
      "icao": "LEMG",
      "alert": "OK",
      "vis_m": 9999,
      "fzfg": false,
      "metar_trigger": false,
      "taf_trigger": false,
      "metar": "METAR LEMG 021530Z VRB02KT 9999 FEW020 13/10 Q1005 NOSIG",
      "taf": "TAF LEMG 021100Z 0212/0312 29006KT 9999 SCT025 TX16/0215Z TN09/0307Z"
    },
    {
      "icao": "LEVC",
      "alert": "OK",
      "vis_m": 9999,
      "fzfg": false,
      "metar_trigger": false,
      "taf_trigger": false,
      "metar": "METAR LEVC 021530Z 26016G26KT 9999 FEW015 SCT044 13/05 Q0997 NOSIG",
      "taf": ""
    },
    {
      "icao": "LEXJ",
      "alert": "OK",
      "vis_m": 9999,
      "fzfg": false,
      "metar_trigger": false,
      "taf_trigger": false,
      "metar": "METAR LEXJ 021530Z 25007KT 200V290 9999 FEW048 15/04 Q0987",
      "taf": "TAF LEXJ 021400Z 0215/0315 23009KT 9999 FEW040 TX15/0312Z TN09/0304Z"
    },
    {
      "icao": "LEZG",
      "alert": "OK",
      "vis_m": 9999,
      "fzfg": false,
      "metar_trigger": false,
      "taf_trigger": false,
      "metar": "METAR LEZG 021530Z 28014KT 9999 FEW030 SCT050 BKN070 11/06 Q0994 NOSIG",
      "taf": "TAF LEZG 021100Z 0212/0312 11009KT 9999 FEW050 TX14/0214Z TN04/0306Z"
    },
    {
      "icao": "LEZL",
      "alert": "OK",
      "vis_m": 9999,
      "fzfg": false,
      "metar_trigger": false,
      "taf_trigger": false,
      "metar": "METAR LEZL 021530Z 26017G27KT 9999 FEW049 16/06 Q1004 NOSIG",
      "taf": "TAF LEZL 021400Z 0215/0315 23009KT 9999 SCT025 TX16/0215Z TN10/0307Z"
    },
    {
      "icao": "LFBD",
      "alert": "OK",
      "vis_m": 9999,
      "fzfg": false,
      "metar_trigger": false,
      "taf_trigger": false,
      "metar": "METAR LFBD 021530Z AUTO 15010KT 9999 -RA ///TCU 13/10 Q0988 TEMPO 14015G25KT 1500 RA BKN020",
      "taf": "TAF LFBD 021100Z 0212/0318 14010KT CAVOK TX13/0214Z TN06/0307Z"
    },
    {
      "icao": "LFLL",
      "alert": "OK",
      "vis_m": 9999,
      "fzfg": false,
      "metar_trigger": false,
      "taf_trigger": false,
      "metar": "METAR LFLL 021530Z 17014G26KT 140V210 9999 FEW050 BKN120 11/05 Q0996 NOSIG",
      "taf": "TAF LFLL 021100Z 0212/0318 18015KT 9999 SCT025"
    },
    {
      "icao": "LFLS",
      "alert": "OK",
      "vis_m": 9999,
      "fzfg": false,
      "metar_trigger": false,
      "taf_trigger": false,
      "metar": "METAR LFLS 021530Z AUTO 22006KT 9999 -RA FEW040/// BKN068/// OVC110/// ///CB 09/07 Q0997 BECMG BKN050",
      "taf": "TAF LFLS 021400Z 0215/0315 21010KT 9999 BKN050"
    },
    {
      "icao": "LFMN",
      "alert": "OK",
      "vis_m": 6000,
      "fzfg": false,
      "metar_trigger": false,
      "taf_trigger": false,
      "metar": "METAR LFMN 021530Z 07011KT 6000 RA BKN009 10/08 Q1005 NOSIG",
      "taf": ""
    },
    {
      "icao": "LFOB",
      "alert": "OK",
      "vis_m": 9999,
      "fzfg": false,
      "metar_trigger": false,
      "taf_trigger": false,
      "metar": "METAR LFOB 021530Z AUTO 10010KT 9999 BKN027 OVC033 08/05 Q0994 TEMPO BKN014",
      "taf": ""
    },
    {
      "icao": "LFPO",
      "alert": "OK",
      "vis_m": 9999,
      "fzfg": false,
      "metar_trigger": false,
      "taf_trigger": false,
      "metar": "METAR LFPO 021530Z 10010KT 9999 SCT020 BKN026 09/06 Q0994 NOSIG",
      "taf": "TAF LFPO 021100Z 0212/0318 12006KT 9999 SCT012"
    },
    {
      "icao": "LFSB",
      "alert": "OK",
      "vis_m": 9999,
      "fzfg": false,
      "metar_trigger": false,
      "taf_trigger": false,
      "metar": "METAR LFSB 021530Z AUTO 04004KT 350V090 9999 OVC056 08/03 Q0998 NOSIG",
      "taf": "TAF LFSB 021100Z 0212/0312 12005KT 9999 SCT040 BKN060"
    },
    {
      "icao": "LGAV",
      "alert": "OK",
      "vis_m": 9999,
      "fzfg": false,
      "metar_trigger": false,
      "taf_trigger": false,
      "metar": "METAR LGAV 021520Z 10007KT 9999 FEW020 13/06 Q1010 NOSIG",
      "taf": "TAF LGAV 021100Z 0212/0312 30010KT 9999 SCT025 SCT070"
    },
    {
      "icao": "LGTS",
      "alert": "OK",
      "vis_m": 9999,
      "fzfg": false,
      "metar_trigger": false,
      "taf_trigger": false,
      "metar": "METAR LGTS 021520Z 28004KT 9999 FEW025 10/03 Q1011 NOSIG",
      "taf": "TAF LGTS 021100Z 0212/0312 VRB03KT 9999 SCT025"
    },
    {
      "icao": "LHBP",
      "alert": "OK",
      "vis_m": 9999,
      "fzfg": false,
      "metar_trigger": false,
      "taf_trigger": false,
      "metar": "METAR LHBP 021530Z 13005KT 9999 BKN009 OVC014 01/M00 Q1011 NOSIG",
      "taf": "TAF LHBP 021115Z 0212/0312 17006KT 9999 SCT008 OVC040"
    },
    {
      "icao": "LHDC",
      "alert": "OK",
      "vis_m": 9999,
      "fzfg": false,
      "metar_trigger": false,
      "taf_trigger": false,
      "metar": "METAR LHDC 021515Z AUTO 23009KT 9999 BKN006 M00/M02 Q1013 TEMPO BKN004",
      "taf": "TAF LHDC 021415Z 0215/0224 VRB03KT 9999 BKN025"
    },
    {
      "icao": "LIBD",
      "alert": "OK",
      "vis_m": 9999,
      "fzfg": false,
      "metar_trigger": false,
      "taf_trigger": false,
      "metar": "METAR LIBD 021520Z 03004KT 360V070 CAVOK 12/05 Q1010",
      "taf": "TAF LIBD 021100Z 0212/0312 33008KT 9999 FEW030"
    },
    {
      "icao": "LIBG",
      "alert": "OK",
      "vis_m": 9999,
      "fzfg": false,
      "metar_trigger": false,
      "taf_trigger": false,
      "metar": "METAR LIBG 021450Z 21005KT 180V240 CAVOK 14/04 Q1010",
      "taf": "TAF LIBG 021400Z 0215/0224 VRB05KT 9999 FEW040"
    },
    {
      "icao": "LIBP",
      "alert": "OK",
      "vis_m": 9999,
      "fzfg": false,
      "metar_trigger": false,
      "taf_trigger": false,
      "metar": "METAR LIBP 021520Z AUTO 07007KT 9999 NCD 11/03 Q1009",
      "taf": "TAF LIBP 021100Z 0212/0312 VRB05KT 9999 FEW040"
    },
    {
      "icao": "LIBR",
      "alert": "OK",
      "vis_m": 9999,
      "fzfg": false,
      "metar_trigger": false,
      "taf_trigger": false,
      "metar": "METAR LIBR 021520Z 34005KT 310V010 CAVOK 12/04 Q1010",
      "taf": "TAF LIBR 021100Z 0212/0312 30010KT 9999 SCT030"
    },
    {
      "icao": "LICA",
      "alert": "OK",
      "vis_m": 9999,
      "fzfg": false,
      "metar_trigger": false,
      "taf_trigger": false,
      "metar": "METAR LICA 021520Z 29010KT 9999 BKN055 14/09 Q1011",
      "taf": "TAF LICA 021100Z 0212/0312 28012KT 9999 SCT025"
    },
    {
      "icao": "LICC",
      "alert": "OK",
      "vis_m": 9999,
      "fzfg": false,
      "metar_trigger": false,
      "taf_trigger": false,
      "metar": "METAR LICC 021520Z 25013KT 9999 SCT060 15/11 Q1011",
      "taf": "TAF LICC 021100Z 0212/0312 24016KT 9999 FEW040"
    },
    {
      "icao": "LICJ",
      "alert": "OK",
      "vis_m": 9999,
      "fzfg": false,
      "metar_trigger": false,
      "taf_trigger": false,
      "metar": "METAR LICJ 021520Z 19008KT 160V220 CAVOK 16/09 Q1009",
      "taf": "TAF LICJ 021100Z 0212/0312 28015KT 9999 SCT030"
    },
    {
      "icao": "LIMC",
      "alert": "OK",
      "vis_m": 6000,
      "fzfg": false,
      "metar_trigger": false,
      "taf_trigger": false,
      "metar": "METAR LIMC 021520Z VRB02KT 6000 BKN040 06/03 Q1007 NOSIG",
      "taf": "TAF LIMC 021100Z 0212/0318 VRB05KT 6000 BKN040"
    },
    {
      "icao": "LIME",
      "alert": "OK",
      "vis_m": 6000,
      "fzfg": false,
      "metar_trigger": false,
      "taf_trigger": false,
      "metar": "METAR LIME 021520Z VRB02KT 6000 FEW035 SCT070 06/03 Q1007 NOSIG",
      "taf": "TAF LIME 021100Z 0212/0312 VRB05KT 7000 BKN040"
    },
    {
      "icao": "LIMF",
      "alert": "OK",
      "vis_m": 5000,
      "fzfg": false,
      "metar_trigger": false,
      "taf_trigger": false,
      "metar": "METAR LIMF 021520Z 08002KT 5000 BR OVC050 05/02 Q1007",
      "taf": "TAF LIMF 021100Z 0212/0312 VRB04KT 6000 BKN040"
    },
    {
      "icao": "LIMJ",
      "alert": "OK",
      "vis_m": 9999,
      "fzfg": false,
      "metar_trigger": false,
      "taf_trigger": false,
      "metar": "METAR LIMJ 021520Z 05014KT 9999 -RA SCT018 BKN027 06/04 Q1006",
      "taf": "TAF LIMJ 021100Z 0212/0312 04014KT 7000 BKN020"
    },
    {
      "icao": "LIPE",
      "alert": "OK",
      "vis_m": 9999,
      "fzfg": false,
      "metar_trigger": false,
      "taf_trigger": false,
      "metar": "METAR LIPE 021520Z 08008KT 9999 BKN072 08/04 Q1007",
      "taf": "TAF LIPE 021100Z 0212/0312 VRB05KT 8000 SCT050"
    },
    {
      "icao": "LIPH",
      "alert": "OK",
      "vis_m": 9999,
      "fzfg": false,
      "metar_trigger": false,
      "taf_trigger": false,
      "metar": "METAR LIPH 021520Z VRB02KT 9999 BKN060 08/00 Q1008",
      "taf": "TAF LIPH 021100Z 0212/0312 VRB05KT 9999 BKN040"
    },
    {
      "icao": "LIPQ",
      "alert": "OK",
      "vis_m": 9999,
      "fzfg": false,
      "metar_trigger": false,
      "taf_trigger": false,
      "metar": "METAR LIPQ 021520Z 27002KT 9999 BKN080 09/01 Q1008",
      "taf": "TAF LIPQ 021100Z 0212/0312 VRB05KT 9999 SCT040"
    },
    {
      "icao": "LIPR",
      "alert": "OK",
      "vis_m": 9999,
      "fzfg": false,
      "metar_trigger": false,
      "taf_trigger": false,
      "metar": "METAR LIPR 021520Z 09003KT 060V120 9999 SCT070 08/05 Q1008",
      "taf": "TAF LIPR 021100Z 0212/0312 07008KT 9999 SCT040"
    },
    {
      "icao": "LIPX",
      "alert": "OK",
      "vis_m": 9999,
      "fzfg": false,
      "metar_trigger": false,
      "taf_trigger": false,
      "metar": "METAR LIPX 021520Z VRB01KT 9999 BKN045 06/03 Q1008",
      "taf": "TAF LIPX 021100Z 0212/0312 VRB05KT 7000 SCT040 BKN060"
    },
    {
      "icao": "LIPY",
      "alert": "OK",
      "vis_m": 9999,
      "fzfg": false,
      "metar_trigger": false,
      "taf_trigger": false,
      "metar": "METAR LIPY 021520Z 07004KT 020V100 CAVOK 09/05 Q1008",
      "taf": "TAF LIPY 021100Z 0212/0312 VRB05KT 9999 FEW040"
    },
    {
      "icao": "LIPZ",
      "alert": "OK",
      "vis_m": 9999,
      "fzfg": false,
      "metar_trigger": false,
      "taf_trigger": false,
      "metar": "METAR LIPZ 021520Z 17002KT 9999 BKN060 07/02 Q1008 NOSIG",
      "taf": "TAF LIPZ 021100Z 0212/0318 VRB05KT 9999 SCT040"
    },
    {
      "icao": "LIRF",
      "alert": "OK",
      "vis_m": 9999,
      "fzfg": false,
      "metar_trigger": false,
      "taf_trigger": false,
      "metar": "METAR LIRF 021520Z 16006KT 140V200 CAVOK 12/05 Q1008 NOSIG",
      "taf": "TAF LIRF 021100Z 0212/0318 05007KT CAVOK"
    },
    {
      "icao": "LIRN",
      "alert": "OK",
      "vis_m": 9999,
      "fzfg": false,
      "metar_trigger": false,
      "taf_trigger": false,
      "metar": "METAR LIRN 021520Z 20006KT 170V230 9999 FEW040 13/05 Q1009 NOSIG",
      "taf": "TAF LIRN 021100Z 0212/0312 VRB05KT 9999 FEW030"
    },
    {
      "icao": "LIRP",
      "alert": "OK",
      "vis_m": 9999,
      "fzfg": false,
      "metar_trigger": false,
      "taf_trigger": false,
      "metar": "METAR LIRP 021515Z 11005KT 9999 SCT025 SCT030 09/07 Q1007 NOSIG",
      "taf": "TAF LIRP 021100Z 0212/0312 11008KT 9999 SCT040 BKN080"
    },
    {
      "icao": "LIRZ",
      "alert": "OK",
      "vis_m": 9999,
      "fzfg": false,
      "metar_trigger": false,
      "taf_trigger": false,
      "metar": "METAR LIRZ 021520Z AUTO VRB02KT 9999 BKN081/// 11/02 Q1007",
      "taf": "TAF LIRZ 021100Z 0212/0312 VRB06KT CAVOK"
    },
    {
      "icao": "LJLJ",
      "alert": "OK",
      "vis_m": 9999,
      "fzfg": false,
      "metar_trigger": false,
      "taf_trigger": false,
      "metar": "METAR LJLJ 021530Z 12004KT 9999 FEW030 SCT050 02/M02 Q1008 NOSIG",
      "taf": "TAF LJLJ 021100Z 0212/0312 VRB02KT 9999 BKN025"
    },
    {
      "icao": "LKMT",
      "alert": "OK",
      "vis_m": 9999,
      "fzfg": false,
      "metar_trigger": false,
      "taf_trigger": false,
      "metar": "METAR LKMT 021530Z 04008KT 9999 OVC034 M06/M09 Q1011 NOSIG",
      "taf": "TAF LKMT 021100Z 0212/0312 04006KT 9999 SCT012 OVC035"
    },
    {
      "icao": "LKPR",
      "alert": "OK",
      "vis_m": 6000,
      "fzfg": false,
      "metar_trigger": false,
      "taf_trigger": false,
      "metar": "METAR LKPR 021530Z 08013KT 6000 FEW013 OVC018 M02/M03 Q1006 NOSIG",
      "taf": "TAF LKPR 021400Z 0215/0321 08008KT 5000 BR SCT009 OVC012"
    },
    {
      "icao": "LLBG",
      "alert": "OK",
      "vis_m": 3000,
      "fzfg": false,
      "metar_trigger": false,
      "taf_trigger": false,
      "metar": "METAR LLBG 021520Z 25008KT 3000 DU NSC 19/10 Q1015 BECMG 6000 NSW",
      "taf": ""
    },
    {
      "icao": "LMML",
      "alert": "OK",
      "vis_m": 9999,
      "fzfg": false,
      "metar_trigger": false,
      "taf_trigger": false,
      "metar": "METAR LMML 021545Z 20007KT 160V230 9999 FEW030 15/10 Q1013 NOSIG",
      "taf": "TAF LMML 021100Z 0212/0312 26015KT 9999 FEW025"
    },
    {
      "icao": "LOWW",
      "alert": "OK",
      "vis_m": 9000,
      "fzfg": false,
      "metar_trigger": false,
      "taf_trigger": false,
      "metar": "METAR LOWW 021520Z 14017KT 9000 FEW009 BKN011 02/M01 Q1007 TEMPO SCT011",
      "taf": "TAF LOWW 021420Z 0215/0321 13015KT 6000 BKN020 TX01/0215Z TNM01/0308Z"
    },
    {
      "icao": "LPFR",
      "alert": "OK",
      "vis_m": 9999,
      "fzfg": false,
      "metar_trigger": false,
      "taf_trigger": false,
      "metar": "METAR LPFR 021530Z 27013KT 9999 FEW012 FEW018CB 13/09 Q1004",
      "taf": "TAF LPFR 021100Z 0212/0312 27020KT 9999 FEW018 SCT030"
    },
    {
      "icao": "LPMA",
      "alert": "OK",
      "vis_m": 9999,
      "fzfg": false,
      "metar_trigger": false,
      "taf_trigger": false,
      "metar": "METAR LPMA 021530Z 14005KT 090V200 9999 SCT015 18/08 Q1014",
      "taf": "TAF LPMA 021100Z 0212/0312 34015KT 9999 SCT015"
    },
    {
      "icao": "LPPR",
      "alert": "OK",
      "vis_m": 9999,
      "fzfg": false,
      "metar_trigger": false,
      "taf_trigger": false,
      "metar": "METAR LPPR 021530Z 23006KT 200V260 9999 -SHRA FEW015 FEW018CB BKN028 11/08 Q0994",
      "taf": "TAF LPPR 021100Z 0212/0312 25012KT 9999 FEW015 SCT025"
    },
    {
      "icao": "LPPS",
      "alert": "OK",
      "vis_m": 9999,
      "fzfg": false,
      "metar_trigger": false,
      "taf_trigger": false,
      "metar": "METAR LPPS 021530Z 29020KT 9999 FEW015 17/09 Q1014",
      "taf": "TAF LPPS 021100Z 0212/0318 30018KT 9999 SCT015 SCT030"
    },
    {
      "icao": "LPPT",
      "alert": "OK",
      "vis_m": 9999,
      "fzfg": false,
      "metar_trigger": false,
      "taf_trigger": false,
      "metar": "METAR LPPT 021530Z 26016G27KT 9999 FEW020 FEW025TCU 12/07 Q1000 WS R20",
      "taf": "TAF LPPT 021100Z 0212/0318 27013KT 9999 FEW018 SCT030"
    },
    {
      "icao": "LQBK",
      "alert": "OK",
      "vis_m": 9999,
      "fzfg": false,
      "metar_trigger": false,
      "taf_trigger": false,
      "metar": "METAR LQBK 021530Z 07005KT 030V120 9999 BKN013 02/M01 Q1011 NOSIG",
      "taf": "TAF LQBK 021100Z 0212/0312 07005KT 9999 BKN012 SCT035 TX04/0214Z TNM02/0305Z"
    },
    {
      "icao": "LQSA",
      "alert": "OK",
      "vis_m": 9999,
      "fzfg": false,
      "metar_trigger": false,
      "taf_trigger": false,
      "metar": "METAR LQSA 021530Z 15003KT 110V210 9999 FEW030 03/M01 Q1008 NOSIG",
      "taf": "TAF LQSA 021100Z 0212/0312 VRB02KT 9999 SCT030 TX10/0312Z TNM03/0301Z"
    },
    {
      "icao": "LQTZ",
      "alert": "OK",
      "vis_m": 9999,
      "fzfg": false,
      "metar_trigger": false,
      "taf_trigger": false,
      "metar": "METAR LQTZ 021530Z 00000KT 9999 OVC020 02/M01 Q1011",
      "taf": "TAF LQTZ 021100Z 0212/0312 10005KT 9999 SCT015 BKN030 TX04/0214Z TNM04/0305Z"
    },
    {
      "icao": "LRBC",
      "alert": "OK",
      "vis_m": 9999,
      "fzfg": false,
      "metar_trigger": false,
      "taf_trigger": false,
      "metar": "METAR LRBC 021530Z 32006KT CAVOK M06/M14 Q1016",
      "taf": "TAF LRBC 021400Z 0215/0224 01008KT CAVOK"
    },
    {
      "icao": "LRBS",
      "alert": "OK",
      "vis_m": 9999,
      "fzfg": false,
      "metar_trigger": false,
      "taf_trigger": false,
      "metar": "METAR LRBS 021530Z VRB02KT CAVOK M04/M13 Q1017 NOSIG",
      "taf": "TAF LRBS 021100Z 0212/0312 07010KT 9999 BKN045"
    },
    {
      "icao": "LRBV",
      "alert": "OK",
      "vis_m": 9999,
      "fzfg": false,
      "metar_trigger": false,
      "taf_trigger": false,
      "metar": "METAR LRBV 021530Z 12002KT 9999 SCT027 M00/M07 Q1010",
      "taf": "TAF LRBV 021400Z 0215/0224 VRB04KT 9999 SCT015 BKN060"
    },
    {
      "icao": "LRCL",
      "alert": "OK",
      "vis_m": 4000,
      "fzfg": false,
      "metar_trigger": false,
      "taf_trigger": false,
      "metar": "METAR LRCL 021530Z 00000KT 4000 -SN BR OVC022 01/M01 Q1011",
      "taf": "TAF LRCL 021400Z 0215/0224 VRB04KT 9999 SCT015 BKN060"
    },
    {
      "icao": "LRCV",
      "alert": "OK",
      "vis_m": 9999,
      "fzfg": false,
      "metar_trigger": false,
      "taf_trigger": false,
      "metar": "METAR LRCV 021530Z 16006KT 9999 -SN FEW010 M07/M09 Q1016",
      "taf": "TAF LRCV 021400Z 0215/0224 VRB04KT 9999 SCT015 BKN035"
    },
    {
      "icao": "LRIA",
      "alert": "OK",
      "vis_m": 9999,
      "fzfg": false,
      "metar_trigger": false,
      "taf_trigger": false,
      "metar": "METAR LRIA 021530Z 01004KT CAVOK M07/M15 Q1017",
      "taf": "TAF LRIA 021400Z 0215/0224 02008KT CAVOK"
    },
    {
      "icao": "LROP",
      "alert": "OK",
      "vis_m": 9999,
      "fzfg": false,
      "metar_trigger": false,
      "taf_trigger": false,
      "metar": "METAR LROP 021530Z 00000KT CAVOK M04/M17 Q1017 NOSIG",
      "taf": "TAF LROP 021100Z 0212/0312 07010KT 9999 BKN045"
    },
    {
      "icao": "LRSB",
      "alert": "OK",
      "vis_m": 3000,
      "fzfg": false,
      "metar_trigger": false,
      "taf_trigger": false,
      "metar": "METAR LRSB 021530Z COR 13003KT 100V180 3000 -SN BR SCT017 SCT024 BKN055 00/M01 Q1011 BECMG 5000",
      "taf": "TAF LRSB 021100Z 0212/0312 VRB04KT 9999 SCT015 OVC045"
    },
    {
      "icao": "LRSM",
      "alert": "OK",
      "vis_m": 9000,
      "fzfg": false,
      "metar_trigger": false,
      "taf_trigger": false,
      "metar": "METAR LRSM 021530Z 23009KT 9000 -SN FEW005 OVC007 M00/M02 Q1013",
      "taf": "TAF LRSM 021400Z 0215/0224 24006KT 9999 BKN010 OVC030"
    },
    {
      "icao": "LRSV",
      "alert": "OK",
      "vis_m": 9999,
      "fzfg": false,
      "metar_trigger": false,
      "taf_trigger": false,
      "metar": "METAR LRSV 021530Z 04006KT CAVOK M13/M16 Q1014",
      "taf": "TAF LRSV 021400Z 0215/0224 06006KT CAVOK"
    },
    {
      "icao": "LRTM",
      "alert": "OK",
      "vis_m": 9999,
      "fzfg": false,
      "metar_trigger": false,
      "taf_trigger": false,
      "metar": "METAR LRTM 021530Z 24004KT CAVOK 01/M02 Q1011",
      "taf": "TAF LRTM 021400Z 0215/0224 VRB04KT 9999 SCT015 BKN030"
    },
    {
      "icao": "LRTR",
      "alert": "OK",
      "vis_m": 9999,
      "fzfg": false,
      "metar_trigger": false,
      "taf_trigger": false,
      "metar": "METAR LRTR 021530Z VRB02KT 9999 BKN011 M01/M03 Q1014",
      "taf": "TAF LRTR 021100Z 0212/0312 VRB04KT 9999 BKN010 BKN035"
    },
    {
      "icao": "LTAC",
      "alert": "OK",
      "vis_m": 9999,
      "fzfg": false,
      "metar_trigger": false,
      "taf_trigger": false,
      "metar": "METAR LTAC 021520Z 22007KT 9999 -SHRA FEW025CB BKN035 BKN080 08/06 Q1003 NOSIG",
      "taf": ""
    },
    {
      "icao": "LTFM",
      "alert": "OK",
      "vis_m": 7000,
      "fzfg": false,
      "metar_trigger": false,
      "taf_trigger": false,
      "metar": "METAR LTFM 021520Z 35022KT 7000 3000N -SHSNRA BR BKN004 BKN022 02/01 Q1011 NOSIG",
      "taf": "TAF LTFM 021040Z 0212/0318 34024G34KT 9999 -SHRASN BKN007 BKN022"
    },
    {
      "icao": "LUKK",
      "alert": "OK",
      "vis_m": 9999,
      "fzfg": false,
      "metar_trigger": false,
      "taf_trigger": false,
      "metar": "METAR LUKK 021530Z 02008KT CAVOK M09/M15 Q1017 NOSIG",
      "taf": "TAF LUKK 021101Z 0212/0312 03010KT CAVOK"
    },
    {
      "icao": "LWOH",
      "alert": "OK",
      "vis_m": null,
      "fzfg": false,
      "metar_trigger": false,
      "taf_trigger": false,
      "metar": "",
      "taf": "TAF LWOH 021435Z 0215/0315 15010KT 9999 SCT020 BKN035"
    },
    {
      "icao": "LWSK",
      "alert": "OK",
      "vis_m": null,
      "fzfg": false,
      "metar_trigger": false,
      "taf_trigger": false,
      "metar": "",
      "taf": "TAF LWSK 021435Z 0215/0315 VRB03KT 9999 FEW040 SCT050"
    },
    {
      "icao": "LYBE",
      "alert": "OK",
      "vis_m": 9999,
      "fzfg": false,
      "metar_trigger": false,
      "taf_trigger": false,
      "metar": "METAR LYBE 021530Z 11008KT CAVOK 01/M06 Q1013 NOSIG",
      "taf": "TAF LYBE 021100Z 0212/0312 12009KT CAVOK TX05/0312Z TNM03/0306Z"
    },
    {
      "icao": "LYNI",
      "alert": "OK",
      "vis_m": 9999,
      "fzfg": false,
      "metar_trigger": false,
      "taf_trigger": false,
      "metar": "METAR LYNI 021530Z 05006KT 9999 SCT033 BKN085 M01/M06 Q1013 NOSIG",
      "taf": "TAF LYNI 021100Z 0212/0312 07006KT 9999 SCT040 TX06/0312Z TNM05/0306Z"
    },
    {
      "icao": "LYPG",
      "alert": "OK",
      "vis_m": 9999,
      "fzfg": false,
      "metar_trigger": false,
      "taf_trigger": false,
      "metar": "METAR LYPG 021530Z 18003KT 9999 FEW033 SCT050 07/04 Q1010 NOSIG",
      "taf": "TAF LYPG 021100Z 0212/0312 18005KT 9999 FEW030 SCT050 TX09/0212Z TN03/0303Z"
    },
    {
      "icao": "LZIB",
      "alert": "OK",
      "vis_m": 5000,
      "fzfg": false,
      "metar_trigger": false,
      "taf_trigger": false,
      "metar": "METAR LZIB 021530Z 13010KT 5000 BR BKN007 BKN013 02/01 Q1009 NOSIG",
      "taf": "TAF LZIB 021115Z 0212/0312 13004KT 9999 BKN017"
    },
    {
      "icao": "LZKZ",
      "alert": "OK",
      "vis_m": 9999,
      "fzfg": false,
      "metar_trigger": false,
      "taf_trigger": false,
      "metar": "METAR LZKZ 021530Z 08003KT 9999 OVC020 M00/M05 Q1011 NOSIG",
      "taf": ""
    },
    {
      "icao": "LZTT",
      "alert": "OK",
      "vis_m": 9999,
      "fzfg": false,
      "metar_trigger": false,
      "taf_trigger": false,
      "metar": "METAR LZTT 021530Z VRB01KT 9999 SCT012 BKN050 M04/M06 Q1008 BECMG BKN012",
      "taf": "TAF LZTT 021115Z 0212/0312 VRB02KT 9999 FEW008 BKN017"
    },
    {
      "icao": "OEJN",
      "alert": "OK",
      "vis_m": 9999,
      "fzfg": false,
      "metar_trigger": false,
      "taf_trigger": false,
      "metar": "METAR OEJN 021500Z 27007KT CAVOK 28/18 Q1013 NOSIG",
      "taf": "TAF OEJN 021100Z 0212/0318 26010KT 7000 NSC"
    },
    {
      "icao": "OEMA",
      "alert": "OK",
      "vis_m": 9999,
      "fzfg": false,
      "metar_trigger": false,
      "taf_trigger": false,
      "metar": "METAR OEMA 021500Z 24008KT 9999 SCT045 29/11 Q1016 NOSIG",
      "taf": "TAF OEMA 021100Z 0212/0318 26010KT 9999 SCT045"
    },
    {
      "icao": "OJAI",
      "alert": "OK",
      "vis_m": 2000,
      "fzfg": false,
      "metar_trigger": false,
      "taf_trigger": false,
      "metar": "METAR OJAI 021500Z 27020KT 2000 BLDU NSC 16/06 Q1016 NOSIG",
      "taf": "TAF OJAI 021100Z 0212/0318 24014KT 5000 DU NSC"
    },
    {
      "icao": "OMAA",
      "alert": "OK",
      "vis_m": 9999,
      "fzfg": false,
      "metar_trigger": false,
      "taf_trigger": false,
      "metar": "METAR OMAA 021530Z 33003KT CAVOK 23/09 Q1018 NOSIG",
      "taf": "TAF OMAA 021100Z 0212/0318 33010KT 8000 NSC"
    },
    {
      "icao": "OMDB",
      "alert": "OK",
      "vis_m": 9999,
      "fzfg": false,
      "metar_trigger": false,
      "taf_trigger": false,
      "metar": "METAR OMDB 021530Z 26004KT CAVOK 24/07 Q1018 NOSIG",
      "taf": "TAF OMDB 021100Z 0212/0318 31010KT 8000 NSC"
    },
    {
      "icao": "UAAA",
      "alert": "OK",
      "vis_m": 2100,
      "fzfg": false,
      "metar_trigger": false,
      "taf_trigger": false,
      "metar": "METAR UAAA 021530Z 10002MPS 080V160 2100 BR FU SCT100 BKN200 M01/M04 Q1019 NOSIG",
      "taf": "TAF UAAA 021103Z 0212/0312 20003MPS 4000 BR FU SCT050 BKN100 TX06/0309Z TNM06/0302Z"
    },
    {
      "icao": "UBBB",
      "alert": "OK",
      "vis_m": 9999,
      "fzfg": false,
      "metar_trigger": false,
      "taf_trigger": false,
      "metar": "METAR UBBB 021530Z 18020G30KT 9999 BKN012 08/06 Q1014 NOSIG",
      "taf": "TAF UBBB 021100Z 0212/0312 16016KT 9999 SCT010 BKN020 TX08/0212Z TN05/0300Z"
    },
    {
      "icao": "UDSG",
      "alert": "OK",
      "vis_m": 1700,
      "fzfg": false,
      "metar_trigger": false,
      "taf_trigger": false,
      "metar": "METAR UDSG 021530Z 26002KT 1700 R02/P2000D SNRA BR OVC030 01/01 Q1016 NOSIG",
      "taf": "TAF UDSG 021100Z 0212/0312 VRB06KT 2000 BR OVC020"
    },
    {
      "icao": "UDYZ",
      "alert": "OK",
      "vis_m": 750,
      "fzfg": false,
      "metar_trigger": false,
      "taf_trigger": false,
      "metar": "METAR UDYZ 021530Z 26003KT 0750 0700N R08/1800D -SHRA FG BKN043CB 02/01 Q1017 NOSIG",
      "taf": "TAF UDYZ 021100Z 0212/0312 24006KT 1500 BR BKN030"
    },
    {
      "icao": "UGKO",
      "alert": "OK",
      "vis_m": 9999,
      "fzfg": false,
      "metar_trigger": false,
      "taf_trigger": false,
      "metar": "METAR UGKO 021530Z 07020G32KT 050V110 9999 BKN058 13/05 Q1008 NOSIG",
      "taf": "TAF UGKO 021100Z 0212/0312 08017KT 9999 BKN050 TX12/0212Z TN08/0303Z"
    }
  ]
}