{
  "ts_utc": "2026-06-20T04:37:29Z",
  "threshold_m": 150,
  "source": "stations_override.txt (ICAO list) + aviationweather.gov (METAR/TAF raw)",
  "station_count": 159,
  "stations": [
    {
      "icao": "BIKF",
      "alert": "OK",
      "vis_m": 9999,
      "fzfg": false,
      "metar_trigger": false,
      "taf_trigger": false,
      "metar": "METAR BIKF 200430Z 06004KT CAVOK 09/04 Q0999",
      "taf": "TAF BIKF 200422Z 2006/2106 02010KT 9999 SCT040 TX13/2013Z TN05/2103Z"
    },
    {
      "icao": "BKPR",
      "alert": "OK",
      "vis_m": 9999,
      "fzfg": false,
      "metar_trigger": false,
      "taf_trigger": false,
      "metar": "METAR BKPR 200430Z 10002KT CAVOK 14/12 Q1024 NOSIG",
      "taf": "TAF BKPR 192330Z 2000/2024 01007KT CAVOK"
    },
    {
      "icao": "EBCI",
      "alert": "OK",
      "vis_m": 9999,
      "fzfg": false,
      "metar_trigger": false,
      "taf_trigger": false,
      "metar": "METAR EBCI 200420Z 25003KT 210V310 CAVOK 19/17 Q1017 NOSIG",
      "taf": "TAF EBCI 192310Z 2000/2106 26005KT CAVOK"
    },
    {
      "icao": "EDDB",
      "alert": "OK",
      "vis_m": 9999,
      "fzfg": false,
      "metar_trigger": false,
      "taf_trigger": false,
      "metar": "METAR EDDB 200420Z AUTO VRB02KT CAVOK 20/19 Q1017 NOSIG",
      "taf": "TAF EDDB 192300Z 2000/2024 10004KT CAVOK"
    },
    {
      "icao": "EDDH",
      "alert": "OK",
      "vis_m": 9999,
      "fzfg": false,
      "metar_trigger": false,
      "taf_trigger": false,
      "metar": "METAR EDDH 200420Z AUTO 10009KT 060V120 9999 -SHRA FEW045 FEW///TCU 19/18 Q1016 RESHRA NOSIG",
      "taf": "TAF EDDH 192300Z 2000/2106 13003KT CAVOK"
    },
    {
      "icao": "EDDK",
      "alert": "OK",
      "vis_m": 9999,
      "fzfg": false,
      "metar_trigger": false,
      "taf_trigger": false,
      "metar": "METAR EDDK 200420Z AUTO 11005KT 060V140 CAVOK 22/17 Q1016 NOSIG",
      "taf": ""
    },
    {
      "icao": "EDDN",
      "alert": "OK",
      "vis_m": 9999,
      "fzfg": false,
      "metar_trigger": false,
      "taf_trigger": false,
      "metar": "METAR EDDN 200420Z AUTO 04003KT CAVOK 20/15 Q1019 NOSIG",
      "taf": ""
    },
    {
      "icao": "EDDS",
      "alert": "OK",
      "vis_m": 9999,
      "fzfg": false,
      "metar_trigger": false,
      "taf_trigger": false,
      "metar": "METAR EDDS 200420Z AUTO VRB01KT CAVOK 20/14 Q1020",
      "taf": "TAF EDDS 192300Z 2000/2024 VRB03KT 9999 SCT040"
    },
    {
      "icao": "EDFH",
      "alert": "OK",
      "vis_m": 9999,
      "fzfg": false,
      "metar_trigger": false,
      "taf_trigger": false,
      "metar": "METAR EDFH 200420Z 13009KT CAVOK 20/14 Q1019",
      "taf": "TAF EDFH 192300Z 2000/2024 16006KT CAVOK"
    },
    {
      "icao": "EDJA",
      "alert": "OK",
      "vis_m": 9999,
      "fzfg": false,
      "metar_trigger": false,
      "taf_trigger": false,
      "metar": "METAR EDJA 200420Z 20003KT CAVOK 16/14 Q1023",
      "taf": "TAF EDJA 200200Z 2003/2012 20003KT CAVOK"
    },
    {
      "icao": "EDLW",
      "alert": "OK",
      "vis_m": 9999,
      "fzfg": false,
      "metar_trigger": false,
      "taf_trigger": false,
      "metar": "METAR EDLW 200420Z 12008KT CAVOK 20/16 Q1016",
      "taf": "TAF EDLW 200321Z 2004/2024 12008KT CAVOK"
    },
    {
      "icao": "EDNY",
      "alert": "OK",
      "vis_m": 9999,
      "fzfg": false,
      "metar_trigger": false,
      "taf_trigger": false,
      "metar": "METAR EDNY 200420Z 00000KT CAVOK 15/15 Q1022",
      "taf": "TAF EDNY 200200Z 2003/2012 04002KT CAVOK"
    },
    {
      "icao": "EDSB",
      "alert": "OK",
      "vis_m": 9999,
      "fzfg": false,
      "metar_trigger": false,
      "taf_trigger": false,
      "metar": "METAR EDSB 200420Z VRB02KT CAVOK 19/18 Q1018",
      "taf": "TAF EDSB 192300Z 2000/2024 VRB03KT CAVOK"
    },
    {
      "icao": "EETN",
      "alert": "OK",
      "vis_m": 9999,
      "fzfg": false,
      "metar_trigger": false,
      "taf_trigger": false,
      "metar": "METAR EETN 200420Z 21003KT CAVOK 16/13 Q1019 NOSIG",
      "taf": "TAF EETN 192330Z 2000/2024 22008KT CAVOK"
    },
    {
      "icao": "EFTU",
      "alert": "OK",
      "vis_m": 9999,
      "fzfg": false,
      "metar_trigger": false,
      "taf_trigger": false,
      "metar": "METAR EFTU 200420Z AUTO 19006KT 170V230 CAVOK 17/14 Q1017",
      "taf": "TAF EFTU 200231Z 2003/2103 21006KT CAVOK"
    },
    {
      "icao": "EGBB",
      "alert": "OK",
      "vis_m": 9999,
      "fzfg": false,
      "metar_trigger": false,
      "taf_trigger": false,
      "metar": "METAR EGBB 200420Z 20005KT 170V250 9999 3000N SHRA BKN008 17/16 Q1015",
      "taf": "TAF EGBB 192257Z 2000/2024 22007KT 9999 FEW025"
    },
    {
      "icao": "EGGP",
      "alert": "OK",
      "vis_m": 9999,
      "fzfg": false,
      "metar_trigger": false,
      "taf_trigger": false,
      "metar": "METAR EGGP 200420Z 24011KT 9999 FEW023 16/12 Q1014",
      "taf": "TAF EGGP 192254Z 2000/2024 21005KT 9999 FEW035"
    },
    {
      "icao": "EGGW",
      "alert": "OK",
      "vis_m": 9999,
      "fzfg": false,
      "metar_trigger": false,
      "taf_trigger": false,
      "metar": "METAR EGGW 200420Z AUTO 22006KT 9999 BKN006 16/15 Q1015",
      "taf": "TAF EGGW 192259Z 2000/2024 22007KT 9999 FEW030"
    },
    {
      "icao": "EGKK",
      "alert": "OK",
      "vis_m": 9999,
      "fzfg": false,
      "metar_trigger": false,
      "taf_trigger": false,
      "metar": "METAR EGKK 200420Z 23007KT 9999 OVC006 17/16 Q1016",
      "taf": "TAF EGKK 192255Z 2000/2106 23008KT 9999 FEW045"
    },
    {
      "icao": "EGNM",
      "alert": "OK",
      "vis_m": 9999,
      "fzfg": false,
      "metar_trigger": false,
      "taf_trigger": false,
      "metar": "METAR EGNM 200420Z 23008KT 9999 FEW025 16/14 Q1013",
      "taf": "TAF EGNM 192253Z 2000/2024 22009KT 9999 FEW020"
    },
    {
      "icao": "EGPD",
      "alert": "OK",
      "vis_m": 9999,
      "fzfg": false,
      "metar_trigger": false,
      "taf_trigger": false,
      "metar": "METAR EGPD 200420Z AUTO 36001KT 9999 FEW001 11/11 Q1010",
      "taf": ""
    },
    {
      "icao": "EGPF",
      "alert": "OK",
      "vis_m": 9999,
      "fzfg": false,
      "metar_trigger": false,
      "taf_trigger": false,
      "metar": "METAR EGPF 200420Z AUTO 24003KT 9999 NCD 10/10 Q1012",
      "taf": "TAF EGPF 192259Z 2000/2024 VRB04KT 9999 SCT030"
    },
    {
      "icao": "EHBK",
      "alert": "OK",
      "vis_m": 9999,
      "fzfg": false,
      "metar_trigger": false,
      "taf_trigger": false,
      "metar": "METAR EHBK 200425Z AUTO 22003KT 9999 NCD 18/16 Q1015 NOSIG",
      "taf": "TAF EHBK 192315Z 2000/2106 20005KT CAVOK"
    },
    {
      "icao": "EHEH",
      "alert": "OK",
      "vis_m": 9999,
      "fzfg": false,
      "metar_trigger": false,
      "taf_trigger": false,
      "metar": "METAR EHEH 200425Z AUTO 03005KT 9999 NCD 19/17 Q1015 BLU",
      "taf": "TAF EHEH 192318Z 2000/2106 04008KT CAVOK"
    },
    {
      "icao": "EKBI",
      "alert": "OK",
      "vis_m": 9000,
      "fzfg": false,
      "metar_trigger": false,
      "taf_trigger": false,
      "metar": "METAR EKBI 200420Z AUTO VRB02KT 9000 -RA OVC100/// 18/18 Q1015",
      "taf": ""
    },
    {
      "icao": "EKCH",
      "alert": "OK",
      "vis_m": 9999,
      "fzfg": false,
      "metar_trigger": false,
      "taf_trigger": false,
      "metar": "METAR EKCH 200420Z AUTO 20008KT 9999 FEW024/// SCT065/// SCT100/// 18/17 Q1017 NOSIG",
      "taf": "TAF EKCH 200227Z 2003/2103 16008KT CAVOK"
    },
    {
      "icao": "ENAL",
      "alert": "OK",
      "vis_m": 9999,
      "fzfg": false,
      "metar_trigger": false,
      "taf_trigger": false,
      "metar": "METAR ENAL 200420Z 27010KT 9999 -DZ SCT015 BKN027 12/11 Q1008",
      "taf": "TAF ENAL 200200Z 2003/2012 25008KT 9999 -RA SCT007 BKN015"
    },
    {
      "icao": "ENBR",
      "alert": "OK",
      "vis_m": 3000,
      "fzfg": false,
      "metar_trigger": false,
      "taf_trigger": false,
      "metar": "METAR ENBR 200420Z 18008KT 3000 -RADZ BR BKN002 13/13 Q1009 RMK WIND 1200FT 20017KT",
      "taf": "TAF ENBR 192300Z 2000/2024 18018KT 8000 -RA SCT004 BKN007"
    },
    {
      "icao": "ENGM",
      "alert": "OK",
      "vis_m": 9999,
      "fzfg": false,
      "metar_trigger": false,
      "taf_trigger": false,
      "metar": "METAR ENGM 200420Z 19008KT 9999 OVC006 17/16 Q1012 TEMPO BKN004",
      "taf": ""
    },
    {
      "icao": "ENHD",
      "alert": "OK",
      "vis_m": 5000,
      "fzfg": false,
      "metar_trigger": false,
      "taf_trigger": false,
      "metar": "METAR ENHD 200420Z 17011KT 5000 RA BR VV005 15/14 Q1009",
      "taf": "TAF ENHD 200200Z 2003/2012 18015KT 7000 -RA SCT005 BKN008"
    },
    {
      "icao": "ENTC",
      "alert": "OK",
      "vis_m": 9999,
      "fzfg": false,
      "metar_trigger": false,
      "taf_trigger": false,
      "metar": "METAR ENTC 200420Z 02010KT 9999 SCT008 10/07 Q1008 RMK WIND 2600FT 15014KT",
      "taf": "TAF ENTC 192300Z 2000/2024 02006KT 9999 BKN040"
    },
    {
      "icao": "ENTO",
      "alert": "OK",
      "vis_m": 2200,
      "fzfg": false,
      "metar_trigger": false,
      "taf_trigger": false,
      "metar": "METAR ENTO 200420Z 15004KT 2200 BR VV002 16/16 Q1012 TEMPO 4000",
      "taf": ""
    },
    {
      "icao": "ENVA",
      "alert": "OK",
      "vis_m": 9999,
      "fzfg": false,
      "metar_trigger": false,
      "taf_trigger": false,
      "metar": "METAR ENVA 200420Z 25010KT 9999 SCT014 16/15 Q1007 RMK WIND 670FT 28014KT",
      "taf": "TAF ENVA 192300Z 2000/2024 10007KT 9999 BKN055"
    },
    {
      "icao": "ENZV",
      "alert": "OK",
      "vis_m": 6000,
      "fzfg": false,
      "metar_trigger": false,
      "taf_trigger": false,
      "metar": "METAR ENZV 200420Z 19008KT 6000 RA SCT047 16/15 Q1010",
      "taf": "TAF ENZV 192300Z 2000/2024 16012KT 9999 FEW010"
    },
    {
      "icao": "EPGD",
      "alert": "OK",
      "vis_m": 9999,
      "fzfg": false,
      "metar_trigger": false,
      "taf_trigger": false,
      "metar": "METAR EPGD 200430Z 16005KT 130V190 CAVOK 20/15 Q1020",
      "taf": "TAF EPGD 192330Z 2000/2024 VRB03KT CAVOK"
    },
    {
      "icao": "EPKK",
      "alert": "OK",
      "vis_m": 9999,
      "fzfg": false,
      "metar_trigger": false,
      "taf_trigger": false,
      "metar": "METAR EPKK 200430Z 23003KT 180V250 9999 -SHRA SCT040CB BKN055 20/17 Q1021",
      "taf": "TAF EPKK 200230Z 2003/2103 04005KT CAVOK"
    },
    {
      "icao": "EPKT",
      "alert": "OK",
      "vis_m": 9999,
      "fzfg": false,
      "metar_trigger": false,
      "taf_trigger": false,
      "metar": "METAR EPKT 200430Z 13009KT 9999 -SHRA FEW008 SCT023CB 19/18 Q1021",
      "taf": "TAF EPKT 192330Z 2000/2024 03005KT CAVOK"
    },
    {
      "icao": "EPLB",
      "alert": "OK",
      "vis_m": 9999,
      "fzfg": false,
      "metar_trigger": false,
      "taf_trigger": false,
      "metar": "METAR EPLB 200430Z VRB01KT CAVOK 18/14 Q1022",
      "taf": "TAF EPLB 192330Z 2000/2024 VRB01KT CAVOK"
    },
    {
      "icao": "EPMO",
      "alert": "OK",
      "vis_m": 9999,
      "fzfg": false,
      "metar_trigger": false,
      "taf_trigger": false,
      "metar": "METAR EPMO 200430Z 11003KT 080V150 CAVOK 19/15 Q1021",
      "taf": "TAF EPMO 192330Z 2000/2024 08003KT CAVOK"
    },
    {
      "icao": "EPPO",
      "alert": "OK",
      "vis_m": 9999,
      "fzfg": false,
      "metar_trigger": false,
      "taf_trigger": false,
      "metar": "METAR EPPO 200430Z 12006KT CAVOK 19/18 Q1019",
      "taf": "TAF EPPO 192330Z 2000/2024 11006KT CAVOK"
    },
    {
      "icao": "EPRA",
      "alert": "OK",
      "vis_m": 9999,
      "fzfg": false,
      "metar_trigger": false,
      "taf_trigger": false,
      "metar": "METAR EPRA 200430Z 16006KT CAVOK 18/13 Q1022",
      "taf": "TAF EPRA 200230Z 2003/2012 15005KT CAVOK"
    },
    {
      "icao": "EPRZ",
      "alert": "OK",
      "vis_m": 9999,
      "fzfg": false,
      "metar_trigger": false,
      "taf_trigger": false,
      "metar": "METAR EPRZ 200430Z 08006KT CAVOK 18/14 Q1022",
      "taf": "TAF EPRZ 192330Z 2000/2024 06004KT CAVOK"
    },
    {
      "icao": "EPSC",
      "alert": "OK",
      "vis_m": 9999,
      "fzfg": false,
      "metar_trigger": false,
      "taf_trigger": false,
      "metar": "METAR EPSC 200430Z 13008KT CAVOK 19/18 Q1018",
      "taf": "TAF EPSC 192330Z 2000/2024 12004KT CAVOK"
    },
    {
      "icao": "EPSY",
      "alert": "OK",
      "vis_m": 9999,
      "fzfg": false,
      "metar_trigger": false,
      "taf_trigger": false,
      "metar": "METAR EPSY 200430Z VRB02KT CAVOK 17/14 Q1022",
      "taf": "TAF EPSY 200230Z 2003/2012 VRB02KT CAVOK"
    },
    {
      "icao": "EPWA",
      "alert": "OK",
      "vis_m": 9999,
      "fzfg": false,
      "metar_trigger": false,
      "taf_trigger": false,
      "metar": "METAR EPWA 200430Z 13005KT CAVOK 19/14 Q1021 NOSIG",
      "taf": "TAF EPWA 200230Z 2003/2103 12004KT CAVOK"
    },
    {
      "icao": "EPWR",
      "alert": "OK",
      "vis_m": 9999,
      "fzfg": false,
      "metar_trigger": false,
      "taf_trigger": false,
      "metar": "METAR EPWR 200430Z 12008KT CAVOK 20/20 Q1019",
      "taf": "TAF EPWR 200230Z 2003/2103 16008KT CAVOK"
    },
    {
      "icao": "ESGG",
      "alert": "OK",
      "vis_m": 9999,
      "fzfg": false,
      "metar_trigger": false,
      "taf_trigger": false,
      "metar": "METAR ESGG 200420Z 16009KT CAVOK 19/16 Q1014",
      "taf": "TAF ESGG 200230Z 2003/2103 18008KT CAVOK"
    },
    {
      "icao": "ESKN",
      "alert": "OK",
      "vis_m": 9999,
      "fzfg": false,
      "metar_trigger": false,
      "taf_trigger": false,
      "metar": "METAR ESKN 200420Z VRB02KT CAVOK 19/17 Q1016",
      "taf": ""
    },
    {
      "icao": "ESMS",
      "alert": "OK",
      "vis_m": 9000,
      "fzfg": false,
      "metar_trigger": false,
      "taf_trigger": false,
      "metar": "METAR ESMS 200420Z 14004KT 9000 NSC 19/19 Q1017",
      "taf": "TAF ESMS 200227Z 2003/2103 11004KT CAVOK"
    },
    {
      "icao": "ESSA",
      "alert": "OK",
      "vis_m": 9999,
      "fzfg": false,
      "metar_trigger": false,
      "taf_trigger": false,
      "metar": "METAR ESSA 200420Z 17007KT CAVOK 17/14 Q1016 NOSIG",
      "taf": "TAF ESSA 200230Z 2003/2103 20008KT CAVOK"
    },
    {
      "icao": "EYKA",
      "alert": "OK",
      "vis_m": 9999,
      "fzfg": false,
      "metar_trigger": false,
      "taf_trigger": false,
      "metar": "METAR EYKA 200420Z VRB01KT CAVOK 17/14 Q1022",
      "taf": "TAF EYKA 192300Z 2000/2024 VRB03KT 8000 NSC"
    },
    {
      "icao": "EYPA",
      "alert": "OK",
      "vis_m": 9999,
      "fzfg": false,
      "metar_trigger": false,
      "taf_trigger": false,
      "metar": "METAR EYPA 200420Z 15005KT CAVOK 16/13 Q1021",
      "taf": "TAF EYPA 192300Z 2000/2024 VRB03KT 8000 NSC"
    },
    {
      "icao": "EYVI",
      "alert": "OK",
      "vis_m": 9999,
      "fzfg": false,
      "metar_trigger": false,
      "taf_trigger": false,
      "metar": "METAR EYVI 200420Z 18002KT CAVOK 15/13 Q1022 NOSIG",
      "taf": "TAF EYVI 192300Z 2000/2024 VRB03KT 5000 MIFG BR NSC"
    },
    {
      "icao": "GCFV",
      "alert": "OK",
      "vis_m": 9999,
      "fzfg": false,
      "metar_trigger": false,
      "taf_trigger": false,
      "metar": "METAR GCFV 200430Z AUTO 31003KT 280V360 CAVOK 19/14 Q1016",
      "taf": "TAF GCFV 200200Z 2003/2103 01009KT 9999 SCT020 TX25/2014Z TN20/2006Z"
    },
    {
      "icao": "GCLP",
      "alert": "OK",
      "vis_m": 9999,
      "fzfg": false,
      "metar_trigger": false,
      "taf_trigger": false,
      "metar": "METAR GCLP 200430Z 01014KT 9999 FEW025 20/15 Q1016 NOSIG",
      "taf": "TAF GCLP 200200Z 2003/2103 01015KT 9999 SCT025 TX26/2014Z TN20/2006Z"
    },
    {
      "icao": "GCTS",
      "alert": "OK",
      "vis_m": 9999,
      "fzfg": false,
      "metar_trigger": false,
      "taf_trigger": false,
      "metar": "METAR GCTS 200430Z 11003KT 070V240 9999 BKN018 21/16 Q1017 NOSIG",
      "taf": "TAF GCTS 200200Z 2003/2103 06005KT 9999 SCT025 TX26/2014Z TN19/2006Z"
    },
    {
      "icao": "GMAD",
      "alert": "OK",
      "vis_m": 8000,
      "fzfg": false,
      "metar_trigger": false,
      "taf_trigger": false,
      "metar": "METAR GMAD 200430Z 24004KT 220V280 8000 SCT010 BKN020 20/17 Q1013 NOSIG",
      "taf": "TAF GMAD 192300Z 2000/2106 12005KT 8000 SCT020"
    },
    {
      "icao": "GMMN",
      "alert": "OK",
      "vis_m": 9999,
      "fzfg": false,
      "metar_trigger": false,
      "taf_trigger": false,
      "metar": "METAR GMMN 200430Z 22005KT 150V270 9999 BKN015 21/17 Q1013 NOSIG",
      "taf": "TAF GMMN 192300Z 2000/2106 26006KT 9999 BKN015"
    },
    {
      "icao": "GMMX",
      "alert": "OK",
      "vis_m": 9999,
      "fzfg": false,
      "metar_trigger": false,
      "taf_trigger": false,
      "metar": "METAR GMMX 200430Z 23005KT CAVOK 18/15 Q1014 NOSIG",
      "taf": "TAF GMMX 192300Z 2000/2106 06006KT 8000 NSC"
    },
    {
      "icao": "HEGN",
      "alert": "OK",
      "vis_m": 9999,
      "fzfg": false,
      "metar_trigger": false,
      "taf_trigger": false,
      "metar": "METAR HEGN 200400Z 30013KT CAVOK 28/15 Q1009 NOSIG",
      "taf": "TAF HEGN 192300Z 2000/2106 30012KT CAVOK"
    },
    {
      "icao": "HEMA",
      "alert": "OK",
      "vis_m": 9999,
      "fzfg": false,
      "metar_trigger": false,
      "taf_trigger": false,
      "metar": "METAR HEMA 200400Z 33015KT CAVOK 30/11 Q1008 NOSIG",
      "taf": "TAF HEMA 192300Z 2000/2106 26010KT CAVOK"
    },
    {
      "icao": "HESH",
      "alert": "OK",
      "vis_m": 9999,
      "fzfg": false,
      "metar_trigger": false,
      "taf_trigger": false,
      "metar": "METAR HESH 200400Z 34014KT CAVOK 28/16 Q1008 NOSIG",
      "taf": "TAF HESH 192300Z 2000/2106 32010KT CAVOK"
    },
    {
      "icao": "HESX",
      "alert": "OK",
      "vis_m": 3000,
      "fzfg": false,
      "metar_trigger": false,
      "taf_trigger": false,
      "metar": "METAR HESX 200400Z 34006KT 3000 BR NSC 22/18 Q1013 NOSIG",
      "taf": "TAF HESX 192300Z 2000/2106 36010KT CAVOK"
    },
    {
      "icao": "LATI",
      "alert": "OK",
      "vis_m": 9999,
      "fzfg": false,
      "metar_trigger": false,
      "taf_trigger": false,
      "metar": "METAR LATI 200420Z 17005KT CAVOK 20/14 Q1019 NOSIG",
      "taf": "TAF LATI 192300Z 2000/2024 VRB03KT CAVOK TX35/2012Z TN18/2004Z"
    },
    {
      "icao": "LBPD",
      "alert": "OK",
      "vis_m": 9999,
      "fzfg": false,
      "metar_trigger": false,
      "taf_trigger": false,
      "metar": "METAR LBPD 200430Z AUTO VRB02KT 9999 FEW074/// 17/12 Q1022 NOSIG",
      "taf": "TAF LBPD 192300Z 2000/2024 VRB04KT 9999 SCT070"
    },
    {
      "icao": "LBSF",
      "alert": "OK",
      "vis_m": 9999,
      "fzfg": false,
      "metar_trigger": false,
      "taf_trigger": false,
      "metar": "METAR LBSF 200430Z 11004KT 090V150 9999 BKN080 14/11 Q1024 NOSIG",
      "taf": "TAF LBSF 192300Z 2000/2024 VRB04KT CAVOK"
    },
    {
      "icao": "LBWN",
      "alert": "OK",
      "vis_m": 9999,
      "fzfg": false,
      "metar_trigger": false,
      "taf_trigger": false,
      "metar": "METAR LBWN 200430Z 28004KT 220V360 CAVOK 20/14 Q1020 NOSIG",
      "taf": "TAF LBWN 192300Z 2000/2024 VRB03KT CAVOK"
    },
    {
      "icao": "LCLK",
      "alert": "OK",
      "vis_m": 8000,
      "fzfg": false,
      "metar_trigger": false,
      "taf_trigger": false,
      "metar": "METAR LCLK 200430Z VRB01KT 8000 NSC 25/21 Q1011 NOSIG",
      "taf": "TAF LCLK 192330Z 2000/2100 24006KT 9999 SCT025"
    },
    {
      "icao": "LCPH",
      "alert": "OK",
      "vis_m": 9999,
      "fzfg": false,
      "metar_trigger": false,
      "taf_trigger": false,
      "metar": "METAR LCPH 200430Z VRB02KT 9999 FEW020 24/17 Q1012 NOSIG",
      "taf": "TAF LCPH 192330Z 2000/2100 02006KT 9999 FEW018"
    },
    {
      "icao": "LEAL",
      "alert": "OK",
      "vis_m": 9999,
      "fzfg": false,
      "metar_trigger": false,
      "taf_trigger": false,
      "metar": "METAR LEAL 200430Z VRB02KT CAVOK 26/16 Q1014 NOSIG",
      "taf": "TAF LEAL 192300Z 2000/2024 VRB04KT CAVOK TX33/2012Z TN23/2005Z"
    },
    {
      "icao": "LEBB",
      "alert": "OK",
      "vis_m": 8000,
      "fzfg": false,
      "metar_trigger": false,
      "taf_trigger": false,
      "metar": "METAR LEBB 200430Z 00000KT 8000 OVC021 21/20 Q1017 NOSIG",
      "taf": "TAF LEBB 192300Z 2000/2024 VRB03KT 9999 SCT020 TX31/2012Z TN19/2005Z"
    },
    {
      "icao": "LEBL",
      "alert": "OK",
      "vis_m": 9999,
      "fzfg": false,
      "metar_trigger": false,
      "taf_trigger": false,
      "metar": "METAR LEBL 200430Z 33005KT CAVOK 22/15 Q1019 NOSIG",
      "taf": ""
    },
    {
      "icao": "LECH",
      "alert": "OK",
      "vis_m": 9999,
      "fzfg": false,
      "metar_trigger": false,
      "taf_trigger": false,
      "metar": "METAR LECH 200430Z AUTO 03010KT 350V060 CAVOK 22/14 Q1019",
      "taf": "TAF LECH 192300Z 2000/2024 04010KT CAVOK TX35/2012Z TN19/2005Z"
    },
    {
      "icao": "LEMD",
      "alert": "OK",
      "vis_m": 9999,
      "fzfg": false,
      "metar_trigger": false,
      "taf_trigger": false,
      "metar": "METAR LEMD 200430Z 33004KT CAVOK 21/15 Q1018 NOSIG",
      "taf": "TAF LEMD 192300Z 2000/2106 VRB04KT CAVOK TX37/2015Z TN19/2005Z"
    },
    {
      "icao": "LEMG",
      "alert": "OK",
      "vis_m": 9999,
      "fzfg": false,
      "metar_trigger": false,
      "taf_trigger": false,
      "metar": "METAR LEMG 200430Z 12003KT CAVOK 23/17 Q1012 NOSIG",
      "taf": "TAF LEMG 192300Z 2000/2024 29009KT CAVOK TX31/2014Z TN22/2006Z"
    },
    {
      "icao": "LEVC",
      "alert": "OK",
      "vis_m": 9999,
      "fzfg": false,
      "metar_trigger": false,
      "taf_trigger": false,
      "metar": "METAR LEVC 200430Z 33004KT 9999 FEW011 22/20 Q1017 NOSIG",
      "taf": "TAF LEVC 192300Z 2000/2024 VRB04KT 9999 FEW015 TX32/2012Z TN20/2005Z"
    },
    {
      "icao": "LEXJ",
      "alert": "OK",
      "vis_m": 7000,
      "fzfg": false,
      "metar_trigger": false,
      "taf_trigger": false,
      "metar": "METAR LEXJ 200430Z VRB01KT 7000 SCT014 OVC022 20/19 Q1017",
      "taf": "TAF LEXJ 200200Z 2003/2103 06009KT 9999 SCT016 TX25/2015Z TN19/2005Z"
    },
    {
      "icao": "LEZG",
      "alert": "OK",
      "vis_m": 9999,
      "fzfg": false,
      "metar_trigger": false,
      "taf_trigger": false,
      "metar": "METAR LEZG 200430Z 07004KT 040V100 CAVOK 24/13 Q1018 NOSIG",
      "taf": "TAF LEZG 192300Z 2000/2024 12007KT CAVOK TX39/2015Z TN22/2005Z"
    },
    {
      "icao": "LEZL",
      "alert": "OK",
      "vis_m": 9999,
      "fzfg": false,
      "metar_trigger": false,
      "taf_trigger": false,
      "metar": "METAR LEZL 200430Z 14004KT CAVOK 23/19 Q1013 NOSIG",
      "taf": "TAF LEZL 200200Z 2003/2103 VRB03KT CAVOK TX38/2015Z TN22/2006Z"
    },
    {
      "icao": "LFBD",
      "alert": "OK",
      "vis_m": 9999,
      "fzfg": false,
      "metar_trigger": false,
      "taf_trigger": false,
      "metar": "METAR LFBD 200430Z AUTO 28003KT CAVOK 19/18 Q1017 NOSIG",
      "taf": ""
    },
    {
      "icao": "LFLL",
      "alert": "OK",
      "vis_m": 9999,
      "fzfg": false,
      "metar_trigger": false,
      "taf_trigger": false,
      "metar": "METAR LFLL 200430Z 13008KT CAVOK 21/10 Q1020 NOSIG",
      "taf": "TAF LFLL 192300Z 2000/2106 19010KT CAVOK"
    },
    {
      "icao": "LFLS",
      "alert": "OK",
      "vis_m": 9999,
      "fzfg": false,
      "metar_trigger": false,
      "taf_trigger": false,
      "metar": "METAR LFLS 200430Z AUTO 08008KT CAVOK 15/12 Q1021 NOSIG",
      "taf": "TAF LFLS 200200Z 2003/2103 09005KT CAVOK"
    },
    {
      "icao": "LFMN",
      "alert": "OK",
      "vis_m": 9999,
      "fzfg": false,
      "metar_trigger": false,
      "taf_trigger": false,
      "metar": "METAR LFMN 200430Z VRB03KT CAVOK 23/14 Q1019 NOSIG",
      "taf": "TAF LFMN 200200Z 2003/2109 VRB04KT CAVOK"
    },
    {
      "icao": "LFOB",
      "alert": "OK",
      "vis_m": 9999,
      "fzfg": false,
      "metar_trigger": false,
      "taf_trigger": false,
      "metar": "METAR LFOB 200430Z AUTO 29003KT CAVOK 15/15 Q1018 NOSIG",
      "taf": ""
    },
    {
      "icao": "LFPO",
      "alert": "OK",
      "vis_m": 9999,
      "fzfg": false,
      "metar_trigger": false,
      "taf_trigger": false,
      "metar": "METAR LFPO 200430Z AUTO VRB01KT CAVOK 20/16 Q1017 NOSIG",
      "taf": "TAF LFPO 192300Z 2000/2106 29008KT CAVOK"
    },
    {
      "icao": "LFSB",
      "alert": "OK",
      "vis_m": 9999,
      "fzfg": false,
      "metar_trigger": false,
      "taf_trigger": false,
      "metar": "METAR LFSB 200430Z AUTO 17005KT CAVOK 19/16 Q1020 NOSIG",
      "taf": "TAF LFSB 192300Z 2000/2024 13005KT CAVOK"
    },
    {
      "icao": "LGAV",
      "alert": "OK",
      "vis_m": 9999,
      "fzfg": false,
      "metar_trigger": false,
      "taf_trigger": false,
      "metar": "METAR LGAV 200420Z 01010KT 340V040 9999 FEW020 23/08 Q1019 NOSIG",
      "taf": "TAF LGAV 192300Z 2000/2024 01010KT 9999 FEW025"
    },
    {
      "icao": "LGTS",
      "alert": "OK",
      "vis_m": 9999,
      "fzfg": false,
      "metar_trigger": false,
      "taf_trigger": false,
      "metar": "METAR LGTS 200420Z 10005KT 9999 FEW025 19/14 Q1021 NOSIG",
      "taf": "TAF LGTS 192300Z 2000/2024 VRB03KT 9999 FEW030"
    },
    {
      "icao": "LHBP",
      "alert": "OK",
      "vis_m": 9999,
      "fzfg": false,
      "metar_trigger": false,
      "taf_trigger": false,
      "metar": "METAR LHBP 200430Z VRB01KT CAVOK 20/15 Q1021 NOSIG",
      "taf": "TAF LHBP 192315Z 2000/2024 VRB04KT CAVOK"
    },
    {
      "icao": "LHDC",
      "alert": "OK",
      "vis_m": 9999,
      "fzfg": false,
      "metar_trigger": false,
      "taf_trigger": false,
      "metar": "METAR LHDC 200415Z AUTO 00000KT CAVOK 21/16 Q1021",
      "taf": "TAF LHDC 200215Z 2003/2012 VRB03KT CAVOK"
    },
    {
      "icao": "LIBD",
      "alert": "OK",
      "vis_m": 9999,
      "fzfg": false,
      "metar_trigger": false,
      "taf_trigger": false,
      "metar": "METAR LIBD 200420Z AUTO 23004KT 9999 NCD 22/15 Q1019",
      "taf": "TAF LIBD 192300Z 2000/2024 VRB05KT CAVOK"
    },
    {
      "icao": "LIBG",
      "alert": "OK",
      "vis_m": 9999,
      "fzfg": false,
      "metar_trigger": false,
      "taf_trigger": false,
      "metar": "METAR LIBG 200420Z AUTO VRB01KT 9999 NCD 20/15 Q1019",
      "taf": "TAF LIBG 192300Z 2000/2024 VRB05KT CAVOK"
    },
    {
      "icao": "LIBP",
      "alert": "OK",
      "vis_m": 9999,
      "fzfg": false,
      "metar_trigger": false,
      "taf_trigger": false,
      "metar": "METAR LIBP 200420Z AUTO 23004KT 9999 NCD 19/15 Q1019",
      "taf": "TAF LIBP 192300Z 2000/2024 VRB05KT CAVOK"
    },
    {
      "icao": "LIBR",
      "alert": "OK",
      "vis_m": 9999,
      "fzfg": false,
      "metar_trigger": false,
      "taf_trigger": false,
      "metar": "METAR LIBR 200420Z 32009KT CAVOK 24/19 Q1018",
      "taf": "TAF LIBR 192300Z 2000/2024 35012KT CAVOK"
    },
    {
      "icao": "LICA",
      "alert": "OK",
      "vis_m": 9999,
      "fzfg": false,
      "metar_trigger": false,
      "taf_trigger": false,
      "metar": "METAR LICA 200420Z AUTO 09004KT 9999 NCD 19/18 Q1019",
      "taf": "TAF LICA 192300Z 2000/2024 VRB05KT 9999 SCT015"
    },
    {
      "icao": "LICC",
      "alert": "OK",
      "vis_m": 9999,
      "fzfg": false,
      "metar_trigger": false,
      "taf_trigger": false,
      "metar": "METAR LICC 200320Z 23004KT CAVOK 20/12 Q1018",
      "taf": "TAF LICC 192300Z 2000/2024 VRB05KT 9999 FEW040"
    },
    {
      "icao": "LICJ",
      "alert": "OK",
      "vis_m": 9999,
      "fzfg": false,
      "metar_trigger": false,
      "taf_trigger": false,
      "metar": "METAR LICJ 200420Z 14002KT CAVOK 22/19 Q1018",
      "taf": "TAF LICJ 192300Z 2000/2024 VRB05KT CAVOK"
    },
    {
      "icao": "LIMC",
      "alert": "OK",
      "vis_m": 9999,
      "fzfg": false,
      "metar_trigger": false,
      "taf_trigger": false,
      "metar": "METAR LIMC 200420Z 03003KT 010V080 CAVOK 22/19 Q1020 NOSIG",
      "taf": "TAF LIMC 192300Z 2000/2106 VRB05KT 9999 FEW050"
    },
    {
      "icao": "LIME",
      "alert": "OK",
      "vis_m": 9999,
      "fzfg": false,
      "metar_trigger": false,
      "taf_trigger": false,
      "metar": "METAR LIME 200420Z 01003KT CAVOK 24/17 Q1020 NOSIG",
      "taf": "TAF LIME 192300Z 2000/2024 VRB05KT 9999 FEW040"
    },
    {
      "icao": "LIMF",
      "alert": "OK",
      "vis_m": 9999,
      "fzfg": false,
      "metar_trigger": false,
      "taf_trigger": false,
      "metar": "METAR LIMF 200420Z VRB01KT CAVOK 22/17 Q1021",
      "taf": "TAF LIMF 192300Z 2000/2024 VRB05KT 9999 FEW060"
    },
    {
      "icao": "LIMJ",
      "alert": "OK",
      "vis_m": 9999,
      "fzfg": false,
      "metar_trigger": false,
      "taf_trigger": false,
      "metar": "METAR LIMJ 200420Z VRB02KT CAVOK 23/15 Q1019",
      "taf": "TAF LIMJ 192300Z 2000/2024 VRB05KT CAVOK"
    },
    {
      "icao": "LIPE",
      "alert": "OK",
      "vis_m": 9999,
      "fzfg": false,
      "metar_trigger": false,
      "taf_trigger": false,
      "metar": "METAR LIPE 200420Z 20004KT 160V230 CAVOK 23/16 Q1019",
      "taf": "TAF LIPE 192300Z 2000/2024 VRB05KT CAVOK"
    },
    {
      "icao": "LIPH",
      "alert": "OK",
      "vis_m": 9999,
      "fzfg": false,
      "metar_trigger": false,
      "taf_trigger": false,
      "metar": "METAR LIPH 200420Z AUTO 05002KT 9999 NCD 23/20 Q1019",
      "taf": "TAF LIPH 192300Z 2000/2024 VRB05KT CAVOK"
    },
    {
      "icao": "LIPQ",
      "alert": "OK",
      "vis_m": 9999,
      "fzfg": false,
      "metar_trigger": false,
      "taf_trigger": false,
      "metar": "METAR LIPQ 200420Z AUTO 36004KT 9999 NCD 20/18 Q1019",
      "taf": "TAF LIPQ 192300Z 2000/2024 VRB05KT CAVOK"
    },
    {
      "icao": "LIPR",
      "alert": "OK",
      "vis_m": 9999,
      "fzfg": false,
      "metar_trigger": false,
      "taf_trigger": false,
      "metar": "METAR LIPR 200420Z AUTO 29002KT 9999 NCD 21/17 Q1018",
      "taf": "TAF LIPR 192300Z 2000/2024 VRB05KT CAVOK"
    },
    {
      "icao": "LIPX",
      "alert": "OK",
      "vis_m": 9999,
      "fzfg": false,
      "metar_trigger": false,
      "taf_trigger": false,
      "metar": "METAR LIPX 200420Z 36004KT CAVOK 23/19 Q1019",
      "taf": "TAF LIPX 192300Z 2000/2024 VRB05KT CAVOK"
    },
    {
      "icao": "LIPY",
      "alert": "OK",
      "vis_m": 9999,
      "fzfg": false,
      "metar_trigger": false,
      "taf_trigger": false,
      "metar": "METAR LIPY 200420Z AUTO 21004KT 9999 NCD 19/16 Q1019",
      "taf": "TAF LIPY 192300Z 2000/2024 VRB05KT CAVOK"
    },
    {
      "icao": "LIPZ",
      "alert": "OK",
      "vis_m": 9999,
      "fzfg": false,
      "metar_trigger": false,
      "taf_trigger": false,
      "metar": "METAR LIPZ 200420Z 04004KT CAVOK 23/20 Q1019 NOSIG",
      "taf": "TAF LIPZ 192300Z 2000/2106 VRB05KT CAVOK"
    },
    {
      "icao": "LIRF",
      "alert": "OK",
      "vis_m": 9999,
      "fzfg": false,
      "metar_trigger": false,
      "taf_trigger": false,
      "metar": "METAR LIRF 200420Z 01002KT CAVOK 20/19 Q1018 NOSIG",
      "taf": "TAF LIRF 192300Z 2000/2106 VRB05KT CAVOK"
    },
    {
      "icao": "LIRN",
      "alert": "OK",
      "vis_m": 9999,
      "fzfg": false,
      "metar_trigger": false,
      "taf_trigger": false,
      "metar": "METAR LIRN 200420Z 35003KT 310V040 CAVOK 24/15 Q1019 NOSIG",
      "taf": "TAF LIRN 192300Z 2000/2024 VRB05KT CAVOK"
    },
    {
      "icao": "LIRP",
      "alert": "OK",
      "vis_m": 9999,
      "fzfg": false,
      "metar_trigger": false,
      "taf_trigger": false,
      "metar": "METAR LIRP 200415Z 13004KT CAVOK 16/13 Q1019 NOSIG",
      "taf": "TAF LIRP 192300Z 2000/2024 VRB03KT CAVOK"
    },
    {
      "icao": "LIRZ",
      "alert": "OK",
      "vis_m": 9999,
      "fzfg": false,
      "metar_trigger": false,
      "taf_trigger": false,
      "metar": "METAR LIRZ 200420Z AUTO 36003KT 9999 NCD 20/16 Q1020",
      "taf": "TAF LIRZ 192300Z 2000/2024 VRB05KT 9999 FEW035"
    },
    {
      "icao": "LJLJ",
      "alert": "OK",
      "vis_m": 9999,
      "fzfg": false,
      "metar_trigger": false,
      "taf_trigger": false,
      "metar": "METAR LJLJ 200430Z 32006KT CAVOK 20/18 Q1021 NOSIG",
      "taf": "TAF LJLJ 192300Z 2000/2100 08005KT 9999 FEW060"
    },
    {
      "icao": "LKMT",
      "alert": "OK",
      "vis_m": 9999,
      "fzfg": false,
      "metar_trigger": false,
      "taf_trigger": false,
      "metar": "METAR LKMT 200430Z 18003KT CAVOK 19/17 Q1020 NOSIG",
      "taf": "TAF LKMT 192300Z 2000/2024 VRB02KT CAVOK"
    },
    {
      "icao": "LKPR",
      "alert": "OK",
      "vis_m": 9999,
      "fzfg": false,
      "metar_trigger": false,
      "taf_trigger": false,
      "metar": "METAR LKPR 200430Z 23004KT 190V250 CAVOK 22/17 Q1019 NOSIG",
      "taf": "TAF LKPR 200200Z 2003/2109 17006KT CAVOK"
    },
    {
      "icao": "LLBG",
      "alert": "OK",
      "vis_m": 9999,
      "fzfg": false,
      "metar_trigger": false,
      "taf_trigger": false,
      "metar": "METAR LLBG 200420Z 12004KT 9999 FEW025 25/16 Q1012 NOSIG",
      "taf": "TAF LLBG 192311Z 2000/2024 VRB03KT CAVOK TX31/2011Z TN20/2003Z"
    },
    {
      "icao": "LMML",
      "alert": "OK",
      "vis_m": 9999,
      "fzfg": false,
      "metar_trigger": false,
      "taf_trigger": false,
      "metar": "METAR LMML 200415Z 29004KT CAVOK 23/18 Q1019 NOSIG",
      "taf": "TAF LMML 192300Z 2000/2024 VRB05KT CAVOK"
    },
    {
      "icao": "LOWW",
      "alert": "OK",
      "vis_m": 9999,
      "fzfg": false,
      "metar_trigger": false,
      "taf_trigger": false,
      "metar": "METAR LOWW 200420Z 13003KT 090V180 CAVOK 22/18 Q1019 NOSIG",
      "taf": "TAF LOWW 200215Z 2003/2109 14004KT CAVOK TX34/2013Z TN19/2003Z"
    },
    {
      "icao": "LPFR",
      "alert": "OK",
      "vis_m": 9999,
      "fzfg": false,
      "metar_trigger": false,
      "taf_trigger": false,
      "metar": "METAR LPFR 200430Z 35003KT 300V010 CAVOK 22/10 Q1012",
      "taf": "TAF LPFR 192300Z 2000/2024 VRB02KT CAVOK"
    },
    {
      "icao": "LPMA",
      "alert": "OK",
      "vis_m": 9999,
      "fzfg": false,
      "metar_trigger": false,
      "taf_trigger": false,
      "metar": "METAR LPMA 200430Z 28005KT 9999 SCT015 20/16 Q1017",
      "taf": "TAF LPMA 192300Z 2000/2024 VRB05KT 9999 SCT015"
    },
    {
      "icao": "LPPR",
      "alert": "OK",
      "vis_m": 9999,
      "fzfg": false,
      "metar_trigger": false,
      "taf_trigger": false,
      "metar": "METAR LPPR 200430Z 00000KT CAVOK 15/15 Q1016",
      "taf": "TAF LPPR 192300Z 2000/2024 VRB02KT 6000 SCT006"
    },
    {
      "icao": "LPPS",
      "alert": "OK",
      "vis_m": 9999,
      "fzfg": false,
      "metar_trigger": false,
      "taf_trigger": false,
      "metar": "METAR LPPS 200430Z 30004KT 9999 FEW015 19/17 Q1017",
      "taf": "TAF LPPS 192300Z 2000/2106 VRB05KT 9999 SCT015"
    },
    {
      "icao": "LPPT",
      "alert": "OK",
      "vis_m": 9999,
      "fzfg": false,
      "metar_trigger": false,
      "taf_trigger": false,
      "metar": "METAR LPPT 200430Z 33006KT 290V360 9999 FEW012 18/16 Q1015",
      "taf": "TAF LPPT 192300Z 2000/2106 33008KT 9999 SCT012"
    },
    {
      "icao": "LQBK",
      "alert": "OK",
      "vis_m": 9999,
      "fzfg": false,
      "metar_trigger": false,
      "taf_trigger": false,
      "metar": "METAR LQBK 200430Z 14005KT CAVOK 18/15 Q1021 NOSIG",
      "taf": "TAF LQBK 192300Z 2000/2024 VRB02KT CAVOK TX32/2014Z TN16/2003Z"
    },
    {
      "icao": "LQSA",
      "alert": "OK",
      "vis_m": 9999,
      "fzfg": false,
      "metar_trigger": false,
      "taf_trigger": false,
      "metar": "METAR LQSA 200430Z VRB03KT CAVOK 15/13 Q1024 NOSIG",
      "taf": "TAF LQSA 192300Z 2000/2024 VRB02KT CAVOK TX32/2014Z TN15/2003Z"
    },
    {
      "icao": "LQTZ",
      "alert": "OK",
      "vis_m": 9999,
      "fzfg": false,
      "metar_trigger": false,
      "taf_trigger": false,
      "metar": "METAR LQTZ 200430Z VRB01KT CAVOK 15/15 Q1022",
      "taf": "TAF LQTZ 192300Z 2000/2024 VRB02KT CAVOK TX31/2014Z TN13/2003Z"
    },
    {
      "icao": "LRBC",
      "alert": "OK",
      "vis_m": 9999,
      "fzfg": false,
      "metar_trigger": false,
      "taf_trigger": false,
      "metar": "METAR LRBC 200430Z 34002KT CAVOK 18/16 Q1022",
      "taf": "TAF LRBC 200200Z 2003/2012 VRB04KT CAVOK"
    },
    {
      "icao": "LRBS",
      "alert": "OK",
      "vis_m": 9999,
      "fzfg": false,
      "metar_trigger": false,
      "taf_trigger": false,
      "metar": "METAR LRBS 200430Z 26002KT CAVOK 20/16 Q1021 NOSIG",
      "taf": "TAF LRBS 192300Z 2000/2024 VRB04KT CAVOK"
    },
    {
      "icao": "LRBV",
      "alert": "OK",
      "vis_m": 9999,
      "fzfg": false,
      "metar_trigger": false,
      "taf_trigger": false,
      "metar": "METAR LRBV 200430Z VRB01KT 9999 BKN050 17/14 Q1024",
      "taf": "TAF LRBV 200200Z 2003/2012 VRB04KT CAVOK"
    },
    {
      "icao": "LRCL",
      "alert": "OK",
      "vis_m": 9999,
      "fzfg": false,
      "metar_trigger": false,
      "taf_trigger": false,
      "metar": "METAR LRCL 200430Z VRB02KT CAVOK 18/14 Q1022",
      "taf": "TAF LRCL 200200Z 2003/2012 VRB04KT CAVOK"
    },
    {
      "icao": "LRCV",
      "alert": "OK",
      "vis_m": 9999,
      "fzfg": false,
      "metar_trigger": false,
      "taf_trigger": false,
      "metar": "METAR LRCV 200430Z 06003KT CAVOK 19/15 Q1022",
      "taf": "TAF LRCV 200200Z 2003/2012 VRB04KT CAVOK"
    },
    {
      "icao": "LRIA",
      "alert": "OK",
      "vis_m": 9999,
      "fzfg": false,
      "metar_trigger": false,
      "taf_trigger": false,
      "metar": "METAR LRIA 200430Z VRB01KT CAVOK 20/15 Q1021",
      "taf": "TAF LRIA 200200Z 2003/2012 VRB04KT CAVOK"
    },
    {
      "icao": "LROP",
      "alert": "OK",
      "vis_m": 9999,
      "fzfg": false,
      "metar_trigger": false,
      "taf_trigger": false,
      "metar": "METAR LROP 200430Z 28003KT CAVOK 21/17 Q1021 NOSIG",
      "taf": "TAF LROP 192300Z 2000/2024 VRB04KT CAVOK"
    },
    {
      "icao": "LRSB",
      "alert": "OK",
      "vis_m": 9999,
      "fzfg": false,
      "metar_trigger": false,
      "taf_trigger": false,
      "metar": "METAR LRSB 200430Z 10003KT CAVOK 18/14 Q1023",
      "taf": "TAF LRSB 192300Z 2000/2024 VRB04KT CAVOK"
    },
    {
      "icao": "LRSM",
      "alert": "OK",
      "vis_m": 9999,
      "fzfg": false,
      "metar_trigger": false,
      "taf_trigger": false,
      "metar": "METAR LRSM 200430Z AUTO 00000KT 9999 NCD 20/16 Q1021",
      "taf": ""
    },
    {
      "icao": "LRSV",
      "alert": "OK",
      "vis_m": 9999,
      "fzfg": false,
      "metar_trigger": false,
      "taf_trigger": false,
      "metar": "METAR LRSV 200430Z 31009KT CAVOK 21/14 Q1022",
      "taf": "TAF LRSV 200200Z 2003/2012 29008KT CAVOK"
    },
    {
      "icao": "LRTM",
      "alert": "OK",
      "vis_m": 9999,
      "fzfg": false,
      "metar_trigger": false,
      "taf_trigger": false,
      "metar": "METAR LRTM 200430Z VRB02KT CAVOK 17/16 Q1022",
      "taf": "TAF LRTM 200200Z 2003/2012 VRB04KT CAVOK"
    },
    {
      "icao": "LRTR",
      "alert": "OK",
      "vis_m": 9999,
      "fzfg": false,
      "metar_trigger": false,
      "taf_trigger": false,
      "metar": "METAR LRTR 200430Z 10005KT CAVOK 19/16 Q1021",
      "taf": "TAF LRTR 192300Z 2000/2024 VRB04KT CAVOK"
    },
    {
      "icao": "LTAC",
      "alert": "OK",
      "vis_m": 9999,
      "fzfg": false,
      "metar_trigger": false,
      "taf_trigger": false,
      "metar": "METAR LTAC 200420Z 02005KT 350V050 9999 SCT040 BKN080 15/11 Q1019 NOSIG RMK RWY21C 01005KT RWY03L 02006KT RWY21R 35004KT 320V020 RWY03R 36005KT RWY21L 35005KT",
      "taf": "TAF LTAC 192240Z 2000/2024 03009KT 9999 SCT040 SCT100"
    },
    {
      "icao": "LTFM",
      "alert": "OK",
      "vis_m": 9999,
      "fzfg": false,
      "metar_trigger": false,
      "taf_trigger": false,
      "metar": "METAR LTFM 200420Z 04014KT 9999 BKN015 21/17 Q1019 NOSIG RMK RWY17L 04013KT RWY34L 03011KT RWY16R 04011KT RWY36 04014KT RWY18 05010KT",
      "taf": "TAF LTFM 192240Z 2000/2106 04015KT 9999 FEW012"
    },
    {
      "icao": "LUKK",
      "alert": "OK",
      "vis_m": 9999,
      "fzfg": false,
      "metar_trigger": false,
      "taf_trigger": false,
      "metar": "METAR LUKK 200430Z 00000KT CAVOK 18/15 Q1021 NOSIG",
      "taf": "TAF LUKK 192319Z 2000/2024 VRB05KT CAVOK"
    },
    {
      "icao": "LWOH",
      "alert": "OK",
      "vis_m": 9999,
      "fzfg": false,
      "metar_trigger": false,
      "taf_trigger": false,
      "metar": "METAR LWOH 200350Z 33005KT CAVOK 13/11 Q1023",
      "taf": "TAF LWOH 200215Z 2003/2103 35006KT 9999 FEW040"
    },
    {
      "icao": "LWSK",
      "alert": "OK",
      "vis_m": 9999,
      "fzfg": false,
      "metar_trigger": false,
      "taf_trigger": false,
      "metar": "METAR LWSK 200420Z VRB02KT CAVOK 18/13 Q1022 NOSIG",
      "taf": "TAF LWSK 200215Z 2003/2102 02006KT CAVOK"
    },
    {
      "icao": "LYBE",
      "alert": "OK",
      "vis_m": 9999,
      "fzfg": false,
      "metar_trigger": false,
      "taf_trigger": false,
      "metar": "METAR LYBE 200430Z 22004KT 190V250 CAVOK 20/16 Q1021 NOSIG",
      "taf": "TAF LYBE 192300Z 2000/2024 24004KT CAVOK TX32/2014Z TN18/2003Z"
    },
    {
      "icao": "LYNI",
      "alert": "OK",
      "vis_m": 9999,
      "fzfg": false,
      "metar_trigger": false,
      "taf_trigger": false,
      "metar": "METAR LYNI 200430Z VRB02KT CAVOK 17/14 Q1023 NOSIG",
      "taf": "TAF LYNI 192300Z 2000/2024 11004KT CAVOK TX32/2014Z TN15/2003Z"
    },
    {
      "icao": "LYPG",
      "alert": "OK",
      "vis_m": 9999,
      "fzfg": false,
      "metar_trigger": false,
      "taf_trigger": false,
      "metar": "METAR LYPG 200430Z 31007KT 280V340 CAVOK 25/14 Q1019 NOSIG",
      "taf": "TAF LYPG 192300Z 2000/2024 36010KT CAVOK TX34/2014Z TN24/2003Z"
    },
    {
      "icao": "LZIB",
      "alert": "OK",
      "vis_m": 9999,
      "fzfg": false,
      "metar_trigger": false,
      "taf_trigger": false,
      "metar": "METAR LZIB 200430Z 05004KT CAVOK 21/16 Q1020 NOSIG",
      "taf": "TAF LZIB 192315Z 2000/2100 10004KT CAVOK"
    },
    {
      "icao": "LZKZ",
      "alert": "OK",
      "vis_m": 9999,
      "fzfg": false,
      "metar_trigger": false,
      "taf_trigger": false,
      "metar": "METAR LZKZ 200430Z 00000KT CAVOK 21/17 Q1021 NOSIG",
      "taf": "TAF LZKZ 192315Z 2000/2100 01003KT CAVOK"
    },
    {
      "icao": "LZTT",
      "alert": "OK",
      "vis_m": 9999,
      "fzfg": false,
      "metar_trigger": false,
      "taf_trigger": false,
      "metar": "METAR LZTT 200430Z 32003KT CAVOK 15/14 Q1024",
      "taf": "TAF LZTT 192315Z 2000/2100 28004KT 9999 FEW055"
    },
    {
      "icao": "OEJN",
      "alert": "OK",
      "vis_m": 9999,
      "fzfg": false,
      "metar_trigger": false,
      "taf_trigger": false,
      "metar": "METAR OEJN 200400Z 03003KT CAVOK 29/21 Q1005 NOSIG",
      "taf": "TAF OEJN 192300Z 2000/2106 VRB03KT CAVOK"
    },
    {
      "icao": "OEMA",
      "alert": "OK",
      "vis_m": 9999,
      "fzfg": false,
      "metar_trigger": false,
      "taf_trigger": false,
      "metar": "METAR OEMA 200400Z 35003KT CAVOK 32/M07 Q1012 NOSIG",
      "taf": "TAF OEMA 192300Z 2000/2106 VRB03KT CAVOK"
    },
    {
      "icao": "OJAI",
      "alert": "OK",
      "vis_m": 5000,
      "fzfg": false,
      "metar_trigger": false,
      "taf_trigger": false,
      "metar": "METAR OJAI 200400Z 12003KT 5000 HZ NSC 17/06 Q1016 NOSIG",
      "taf": "TAF OJAI 192226Z 2000/2106 VRB02KT 5000 HZ NSC"
    },
    {
      "icao": "OMAA",
      "alert": "OK",
      "vis_m": 9999,
      "fzfg": false,
      "metar_trigger": false,
      "taf_trigger": false,
      "metar": "METAR OMAA 200430Z 34006KT CAVOK 35/08 Q1004 NOSIG",
      "taf": "TAF OMAA 192300Z 2000/2106 VRB02KT 8000 NSC"
    },
    {
      "icao": "OMDB",
      "alert": "OK",
      "vis_m": 9999,
      "fzfg": false,
      "metar_trigger": false,
      "taf_trigger": false,
      "metar": "METAR OMDB 200430Z VRB03KT CAVOK 39/11 Q1004 NOSIG",
      "taf": "TAF OMDB 192300Z 2000/2106 10005KT CAVOK"
    },
    {
      "icao": "UAAA",
      "alert": "OK",
      "vis_m": 9999,
      "fzfg": false,
      "metar_trigger": false,
      "taf_trigger": false,
      "metar": "METAR UAAA 200430Z 23006MPS 9999 SCT050CB OVC100 26/13 Q1013 NOSIG",
      "taf": "TAF UAAA 192304Z 2000/2024 26003G08MPS 9999 SCT050CB BKN100 TX29/2010Z TN23/2001Z"
    },
    {
      "icao": "UBBB",
      "alert": "OK",
      "vis_m": 9999,
      "fzfg": false,
      "metar_trigger": false,
      "taf_trigger": false,
      "metar": "METAR UBBB 200430Z 34012KT 9999 FEW060CB 29/17 Q1011 NOSIG",
      "taf": "TAF UBBB 192301Z 2000/2024 31008KT CAVOK TX33/2010Z TN22/2000Z"
    },
    {
      "icao": "UDSG",
      "alert": "OK",
      "vis_m": 9999,
      "fzfg": false,
      "metar_trigger": false,
      "taf_trigger": false,
      "metar": "METAR UDSG 200430Z 23006KT 9999 NSC 18/14 Q1020 NOSIG",
      "taf": "TAF UDSG 192258Z 2000/2024 24006KT 9999 FEW050"
    },
    {
      "icao": "UDYZ",
      "alert": "OK",
      "vis_m": 9999,
      "fzfg": false,
      "metar_trigger": false,
      "taf_trigger": false,
      "metar": "METAR UDYZ 200430Z 17006KT 9999 NSC 24/15 Q1014 NOSIG",
      "taf": "TAF UDYZ 192300Z 2000/2024 04006KT 9999 FEW040"
    },
    {
      "icao": "UGKO",
      "alert": "OK",
      "vis_m": 9999,
      "fzfg": false,
      "metar_trigger": false,
      "taf_trigger": false,
      "metar": "METAR UGKO 200430Z VRB02KT 9999 SCT011 BKN029 20/19 Q1013 NOSIG",
      "taf": "TAF UGKO 192300Z 2000/2024 25006KT 9999 SCT030 OVC050 TX24/2011Z TN19/2002Z"
    }
  ]
}