{
  "ts_utc": "2025-12-31T09:51:10Z",
  "threshold_m": 150,
  "source": "stations_override.txt (ICAO list) + aviationweather.gov (METAR/TAF raw)",
  "station_count": 159,
  "stations": [
    {
      "icao": "BIKF",
      "alert": "OK",
      "vis_m": 9999,
      "fzfg": false,
      "metar_trigger": false,
      "taf_trigger": false,
      "metar": "METAR BIKF 310930Z 31021KT 9999 FEW022 SCT300 05/00 Q1025",
      "taf": "TAF BIKF 310731Z 3109/0109 31022KT 9999 FEW020 BKN040 TX05/3109Z TNM04/0105Z"
    },
    {
      "icao": "BKPR",
      "alert": "OK",
      "vis_m": 9999,
      "fzfg": false,
      "metar_trigger": false,
      "taf_trigger": false,
      "metar": "METAR BKPR 310930Z 34010KT 310V010 9999 SCT040 M02/M10 Q1017 NOSIG",
      "taf": "TAF BKPR 310530Z 3106/0106 33008KT 9999 FEW050"
    },
    {
      "icao": "EBCI",
      "alert": "OK",
      "vis_m": 6000,
      "fzfg": false,
      "metar_trigger": false,
      "taf_trigger": false,
      "metar": "METAR EBCI 310920Z 26004KT 6000 BKN021 M00/M01 Q1028 NOSIG",
      "taf": "TAF EBCI 310510Z 3106/0112 26005KT 3500 BR FEW012 SCT040"
    },
    {
      "icao": "EDDB",
      "alert": "OK",
      "vis_m": 1800,
      "fzfg": false,
      "metar_trigger": false,
      "taf_trigger": false,
      "metar": "METAR EDDB 310920Z AUTO 24012KT 1800 1400 R24R/1900N R24L/1900N -SHSN BR BKN005 BKN018 FEW///TCU M01/M01 Q1014 RESHSN BECMG 5000 NSW",
      "taf": "TAF EDDB 310500Z 3106/0106 26010KT 9999 SCT030"
    },
    {
      "icao": "EDDH",
      "alert": "OK",
      "vis_m": 9999,
      "fzfg": false,
      "metar_trigger": false,
      "taf_trigger": false,
      "metar": "METAR EDDH 310920Z AUTO 28010KT 9999 -SHRA FEW008 BKN033 OVC043 FEW///TCU 05/05 Q1015 RESHRA NOSIG",
      "taf": "TAF EDDH 310500Z 3106/0112 28009KT 9999 BKN025"
    },
    {
      "icao": "EDDK",
      "alert": "OK",
      "vis_m": 5000,
      "fzfg": false,
      "metar_trigger": false,
      "taf_trigger": false,
      "metar": "METAR EDDK 310920Z AUTO VRB01KT 5000 BR SCT008 BKN017 OVC031 M00/M01 Q1026 REFZRA TEMPO 6000 BKN009",
      "taf": ""
    },
    {
      "icao": "EDDN",
      "alert": "OK",
      "vis_m": 9999,
      "fzfg": false,
      "metar_trigger": false,
      "taf_trigger": false,
      "metar": "METAR EDDN 310920Z AUTO 10006KT 9999 BKN018 BKN044 M05/M08 Q1023 BECMG 22007KT",
      "taf": ""
    },
    {
      "icao": "EDDS",
      "alert": "OK",
      "vis_m": 9999,
      "fzfg": false,
      "metar_trigger": false,
      "taf_trigger": false,
      "metar": "METAR EDDS 310920Z AUTO VRB02KT 9999 OVC036 M04/M08 Q1025 NOSIG",
      "taf": "TAF EDDS 310500Z 3106/0106 VRB02KT CAVOK"
    },
    {
      "icao": "EDFH",
      "alert": "OK",
      "vis_m": 9999,
      "fzfg": false,
      "metar_trigger": false,
      "taf_trigger": false,
      "metar": "METAR EDFH 310920Z 27008KT 9999 SCT001 OVC003 M03/M04 Q1024",
      "taf": ""
    },
    {
      "icao": "EDJA",
      "alert": "OK",
      "vis_m": 9999,
      "fzfg": false,
      "metar_trigger": false,
      "taf_trigger": false,
      "metar": "METAR EDJA 310920Z 19004KT CAVOK M07/M09 Q1024",
      "taf": "TAF EDJA 310800Z 3109/3118 19004KT CAVOK"
    },
    {
      "icao": "EDLW",
      "alert": "OK",
      "vis_m": 3300,
      "fzfg": false,
      "metar_trigger": false,
      "taf_trigger": false,
      "metar": "METAR EDLW 310920Z COR 23011KT 3300 BR SCT002 OVC004 00/00 Q1024",
      "taf": ""
    },
    {
      "icao": "EDNY",
      "alert": "OK",
      "vis_m": 9999,
      "fzfg": false,
      "metar_trigger": false,
      "taf_trigger": false,
      "metar": "METAR EDNY 310920Z 05005KT CAVOK M05/M07 Q1026",
      "taf": "TAF EDNY 310800Z 3109/3118 VRB03KT CAVOK"
    },
    {
      "icao": "EDSB",
      "alert": "OK",
      "vis_m": 9999,
      "fzfg": false,
      "metar_trigger": false,
      "taf_trigger": false,
      "metar": "METAR EDSB 310920Z 20005KT 9999 OVC042 M04/M05 Q1028",
      "taf": "TAF EDSB 310500Z 3106/0106 20005KT CAVOK"
    },
    {
      "icao": "EETN",
      "alert": "OK",
      "vis_m": 9999,
      "fzfg": false,
      "metar_trigger": false,
      "taf_trigger": false,
      "metar": "METAR EETN 310950Z 36010KT 320V020 9999 FEW030 M05/M12 Q1006 NOSIG",
      "taf": "TAF EETN 310530Z 3106/0106 36012KT CAVOK"
    },
    {
      "icao": "EFTU",
      "alert": "OK",
      "vis_m": 9999,
      "fzfg": false,
      "metar_trigger": false,
      "taf_trigger": false,
      "metar": "METAR EFTU 310920Z AUTO VRB01KT CAVOK M12/M13 Q1008",
      "taf": "TAF EFTU 310824Z 3109/0109 VRB01KT CAVOK"
    },
    {
      "icao": "EGBB",
      "alert": "OK",
      "vis_m": 9000,
      "fzfg": false,
      "metar_trigger": false,
      "taf_trigger": false,
      "metar": "METAR EGBB 310920Z COR 27005KT 9000 NSC M02/M03 Q1031",
      "taf": "TAF EGBB 310454Z 3106/0106 VRB04KT 9999 SCT035"
    },
    {
      "icao": "EGGP",
      "alert": "OK",
      "vis_m": 9999,
      "fzfg": false,
      "metar_trigger": false,
      "taf_trigger": false,
      "metar": "METAR EGGP 310920Z 29005KT 9999 BKN030 04/00 Q1031",
      "taf": ""
    },
    {
      "icao": "EGGW",
      "alert": "OK",
      "vis_m": 7000,
      "fzfg": false,
      "metar_trigger": false,
      "taf_trigger": false,
      "metar": "METAR EGGW 310920Z AUTO 28007KT 7000 NCD M00/M01 Q1030",
      "taf": "TAF EGGW 310500Z 3106/0106 31006KT 9999 SCT025"
    },
    {
      "icao": "EGKK",
      "alert": "OK",
      "vis_m": 7000,
      "fzfg": false,
      "metar_trigger": false,
      "taf_trigger": false,
      "metar": "METAR EGKK 310920Z 32004KT 290V010 7000 2000W PRFG FEW022 01/00 Q1031",
      "taf": ""
    },
    {
      "icao": "EGNM",
      "alert": "OK",
      "vis_m": 9999,
      "fzfg": false,
      "metar_trigger": false,
      "taf_trigger": false,
      "metar": "METAR EGNM 310920Z 27020G31KT 9999 FEW011 01/M01 Q1027",
      "taf": ""
    },
    {
      "icao": "EGPD",
      "alert": "OK",
      "vis_m": 9999,
      "fzfg": false,
      "metar_trigger": false,
      "taf_trigger": false,
      "metar": "METAR EGPD 310920Z COR AUTO 27005KT 240V320 9999 NCD 04/M00 Q1023 NOSIG",
      "taf": "TAF EGPD 310457Z 3106/0106 28009KT 9999 SCT030"
    },
    {
      "icao": "EGPF",
      "alert": "OK",
      "vis_m": 9999,
      "fzfg": false,
      "metar_trigger": false,
      "taf_trigger": false,
      "metar": "METAR EGPF 310920Z AUTO 23007KT 9999 BKN023 OVC034 03/02 Q1028",
      "taf": "TAF EGPF 310452Z 3106/0106 VRB02KT 9999 FEW040"
    },
    {
      "icao": "EHBK",
      "alert": "OK",
      "vis_m": 4300,
      "fzfg": false,
      "metar_trigger": false,
      "taf_trigger": false,
      "metar": "METAR EHBK 310925Z AUTO 22008KT 4300 BR SCT002 OVC003 M00/M00 Q1026 BECMG SCT040",
      "taf": "TAF EHBK 310517Z 3106/0112 24003KT 6000 BKN002"
    },
    {
      "icao": "EHEH",
      "alert": "OK",
      "vis_m": 9000,
      "fzfg": false,
      "metar_trigger": false,
      "taf_trigger": false,
      "metar": "METAR EHEH 310925Z AUTO 23007KT 9000 BR BKN026 OVC029 01/01 Q1026 BLU TEMPO 3500 BR MIFG RMK TREND REMOTE BY EHWX",
      "taf": ""
    },
    {
      "icao": "EKBI",
      "alert": "OK",
      "vis_m": 9999,
      "fzfg": false,
      "metar_trigger": false,
      "taf_trigger": false,
      "metar": "METAR EKBI 310920Z AUTO 28007KT 9999 BKN031/// 04/03 Q1013",
      "taf": "TAF EKBI 310827Z 3109/0109 29010KT 9999 SCT020"
    },
    {
      "icao": "EKCH",
      "alert": "OK",
      "vis_m": 9999,
      "fzfg": false,
      "metar_trigger": false,
      "taf_trigger": false,
      "metar": "METAR EKCH 310920Z 29005KT 9999 BKN015 01/01 Q1011 TEMPO BKN020",
      "taf": "TAF EKCH 310827Z 3109/0109 28010KT 9999 BKN020"
    },
    {
      "icao": "ENAL",
      "alert": "OK",
      "vis_m": 9999,
      "fzfg": false,
      "metar_trigger": false,
      "taf_trigger": false,
      "metar": "METAR ENAL 310920Z 24013KT 9999 VCSH SCT020 BKN035 04/01 Q1009",
      "taf": "TAF ENAL 310800Z 3109/3118 25012KT 9999 -SHRA FEW020 BKN030"
    },
    {
      "icao": "ENBR",
      "alert": "OK",
      "vis_m": 9999,
      "fzfg": false,
      "metar_trigger": false,
      "taf_trigger": false,
      "metar": "METAR ENBR 310920Z 12003KT 9999 -SHRA FEW011 BKN018 01/01 Q1013 TEMPO 1500 SHSNRA VV010 RMK WIND 1200FT VRB02KT",
      "taf": "TAF ENBR 310500Z 3106/0106 VRB05KT 9999 -SHRASN SCT010 BKN020"
    },
    {
      "icao": "ENGM",
      "alert": "OK",
      "vis_m": 9999,
      "fzfg": false,
      "metar_trigger": false,
      "taf_trigger": false,
      "metar": "METAR ENGM 310920Z 29003KT 9999 BKN049 M02/M06 Q1009",
      "taf": "TAF ENGM 310500Z 3106/0106 35005KT CAVOK"
    },
    {
      "icao": "ENHD",
      "alert": "OK",
      "vis_m": 9999,
      "fzfg": false,
      "metar_trigger": false,
      "taf_trigger": false,
      "metar": "METAR ENHD 310920Z 09004KT 360V120 9999 -SHRA FEW011 SCT021 BKN031 03/02 Q1014",
      "taf": "TAF ENHD 310800Z 3109/3118 VRB05KT 9999 -SHRA FEW012 BKN025"
    },
    {
      "icao": "ENTC",
      "alert": "OK",
      "vis_m": 9999,
      "fzfg": false,
      "metar_trigger": false,
      "taf_trigger": false,
      "metar": "METAR ENTC 310920Z 14003KT 070V190 9999 FEW016 M12/M14 Q1009 NOSIG RMK WIND 2600FT 08004KT",
      "taf": "TAF ENTC 310500Z 3106/0106 22006KT 9999 -SHSN SCT040"
    },
    {
      "icao": "ENTO",
      "alert": "OK",
      "vis_m": 9999,
      "fzfg": false,
      "metar_trigger": false,
      "taf_trigger": false,
      "metar": "METAR ENTO 310920Z 34003KT CAVOK M02/M06 Q1011 NOSIG",
      "taf": "TAF ENTO 310500Z 3106/0106 28005KT CAVOK"
    },
    {
      "icao": "ENVA",
      "alert": "OK",
      "vis_m": 9999,
      "fzfg": false,
      "metar_trigger": false,
      "taf_trigger": false,
      "metar": "METAR ENVA 310920Z 06005KT 9999 -SN BKN021 M02/M02 Q1007 TEMPO 1500 SHSN FEW010 BKN018CB RMK WIND 670FT 21008KT",
      "taf": "TAF ENVA 310500Z 3106/0106 12008KT 9999 -SHSNRA FEW010TCU BKN025"
    },
    {
      "icao": "ENZV",
      "alert": "OK",
      "vis_m": 9999,
      "fzfg": false,
      "metar_trigger": false,
      "taf_trigger": false,
      "metar": "METAR ENZV 310920Z 02003KT 9999 SCT019 BKN028 03/03 Q1015 TEMPO 4000 SHRA BKN010 SCT015CB",
      "taf": "TAF ENZV 310500Z 3106/0106 35005KT 9999 FEW015 BKN030"
    },
    {
      "icao": "EPGD",
      "alert": "OK",
      "vis_m": 6000,
      "fzfg": false,
      "metar_trigger": false,
      "taf_trigger": false,
      "metar": "METAR EPGD 310930Z 26006KT 6000 -SHSN FEW007 FEW015CB BKN025 M02/M03 Q1008 RESHSN",
      "taf": "TAF EPGD 310530Z 3106/0106 30012KT 9999 SCT035"
    },
    {
      "icao": "EPKK",
      "alert": "OK",
      "vis_m": 9999,
      "fzfg": false,
      "metar_trigger": false,
      "taf_trigger": false,
      "metar": "METAR EPKK 310930Z 28007KT 9999 -SHSN FEW016 BKN020CB M03/M06 Q1014",
      "taf": "TAF EPKK 310830Z 3109/0109 27012KT 9999 BKN020"
    },
    {
      "icao": "EPKT",
      "alert": "OK",
      "vis_m": 9999,
      "fzfg": false,
      "metar_trigger": false,
      "taf_trigger": false,
      "metar": "METAR EPKT 310930Z 29012KT 9999 FEW010 SCT015 M04/M06 Q1014",
      "taf": ""
    },
    {
      "icao": "EPLB",
      "alert": "OK",
      "vis_m": 9999,
      "fzfg": false,
      "metar_trigger": false,
      "taf_trigger": false,
      "metar": "METAR EPLB 310930Z 29016KT 9999 FEW018 M04/M06 Q1008",
      "taf": "TAF EPLB 310504Z 3106/0106 30014KT 9999 DRSN BKN025"
    },
    {
      "icao": "EPMO",
      "alert": "OK",
      "vis_m": 9999,
      "fzfg": false,
      "metar_trigger": false,
      "taf_trigger": false,
      "metar": "METAR EPMO 310930Z 27010KT 9999 SCT018 BKN023 M04/M06 Q1011",
      "taf": ""
    },
    {
      "icao": "EPPO",
      "alert": "OK",
      "vis_m": 9999,
      "fzfg": false,
      "metar_trigger": false,
      "taf_trigger": false,
      "metar": "METAR EPPO 310930Z 26011KT CAVOK M02/M06 Q1013",
      "taf": ""
    },
    {
      "icao": "EPRA",
      "alert": "OK",
      "vis_m": 9999,
      "fzfg": false,
      "metar_trigger": false,
      "taf_trigger": false,
      "metar": "METAR EPRA 310930Z 31010KT 280V340 9999 SCT018 M04/M07 Q1010",
      "taf": "TAF EPRA 310830Z 3109/3118 29010KT 9999 BKN025"
    },
    {
      "icao": "EPRZ",
      "alert": "OK",
      "vis_m": 9999,
      "fzfg": false,
      "metar_trigger": false,
      "taf_trigger": false,
      "metar": "METAR EPRZ 310930Z 29015KT 9999 BKN017 M04/M07 Q1011",
      "taf": ""
    },
    {
      "icao": "EPSC",
      "alert": "OK",
      "vis_m": 2200,
      "fzfg": false,
      "metar_trigger": false,
      "taf_trigger": false,
      "metar": "METAR EPSC 310930Z 19005KT 170V230 2200 SN BR BKN010 BKN013 OVC016 M02/M04 Q1012",
      "taf": ""
    },
    {
      "icao": "EPSY",
      "alert": "OK",
      "vis_m": 9999,
      "fzfg": false,
      "metar_trigger": false,
      "taf_trigger": false,
      "metar": "METAR EPSY 310930Z 29005KT 9999 BKN034 M04/M06 Q1009",
      "taf": "TAF EPSY 310830Z 3109/3118 31006KT 9999 BKN040"
    },
    {
      "icao": "EPWA",
      "alert": "OK",
      "vis_m": 9999,
      "fzfg": false,
      "metar_trigger": false,
      "taf_trigger": false,
      "metar": "METAR EPWA 310930Z 27010KT 9999 SCT010 BKN025 M04/M05 Q1010 TEMPO BKN010",
      "taf": "TAF EPWA 310830Z 3109/0109 28010KT 9999 FEW023"
    },
    {
      "icao": "EPWR",
      "alert": "OK",
      "vis_m": 9999,
      "fzfg": false,
      "metar_trigger": false,
      "taf_trigger": false,
      "metar": "METAR EPWR 310930Z 28013KT CAVOK M02/M05 Q1016",
      "taf": "TAF EPWR 310830Z 3109/0109 29012KT 9999 FEW020 SCT030"
    },
    {
      "icao": "ESGG",
      "alert": "OK",
      "vis_m": 9999,
      "fzfg": false,
      "metar_trigger": false,
      "taf_trigger": false,
      "metar": "METAR ESGG 310920Z 04005KT CAVOK M02/M03 Q1009",
      "taf": "TAF ESGG 310830Z 3109/0109 36006KT CAVOK"
    },
    {
      "icao": "ESKN",
      "alert": "OK",
      "vis_m": 9999,
      "fzfg": false,
      "metar_trigger": false,
      "taf_trigger": false,
      "metar": "METAR ESKN 310920Z 36003KT 320V030 CAVOK M05/M06 Q1010",
      "taf": "TAF ESKN 310830Z 3109/0109 36005KT CAVOK"
    },
    {
      "icao": "ESMS",
      "alert": "OK",
      "vis_m": 3300,
      "fzfg": false,
      "metar_trigger": false,
      "taf_trigger": false,
      "metar": "METAR ESMS 310920Z 25003KT 3300 BR BKN002 OVC004 00/00 Q1010",
      "taf": ""
    },
    {
      "icao": "ESSA",
      "alert": "OK",
      "vis_m": 9999,
      "fzfg": false,
      "metar_trigger": false,
      "taf_trigger": false,
      "metar": "METAR ESSA 310920Z 26003KT 240V300 CAVOK M09/M10 Q1010 NOSIG",
      "taf": "TAF ESSA 310830Z 3109/0109 31003KT CAVOK"
    },
    {
      "icao": "EYKA",
      "alert": "OK",
      "vis_m": 9999,
      "fzfg": false,
      "metar_trigger": false,
      "taf_trigger": false,
      "metar": "METAR EYKA 310950Z 33006KT 270V020 CAVOK M06/M12 Q1005",
      "taf": "TAF EYKA 310500Z 3106/0106 VRB04KT 8000 SCT030"
    },
    {
      "icao": "EYPA",
      "alert": "OK",
      "vis_m": 9999,
      "fzfg": false,
      "metar_trigger": false,
      "taf_trigger": false,
      "metar": "METAR EYPA 310950Z 08005KT CAVOK M05/M14 Q1008",
      "taf": "TAF EYPA 310500Z 3106/0106 VRB05KT 8000 SCT040"
    },
    {
      "icao": "EYVI",
      "alert": "OK",
      "vis_m": 9999,
      "fzfg": false,
      "metar_trigger": false,
      "taf_trigger": false,
      "metar": "METAR EYVI 310920Z 34012KT 9999 BKN014 M06/M10 Q1002 NOSIG",
      "taf": ""
    },
    {
      "icao": "GCFV",
      "alert": "OK",
      "vis_m": 9999,
      "fzfg": false,
      "metar_trigger": false,
      "taf_trigger": false,
      "metar": "METAR GCFV 310930Z VRB01KT 9999 FEW025 17/12 Q1021",
      "taf": "TAF GCFV 310800Z 3109/0109 16008KT 9999 FEW025 TX21/3114Z TN14/0106Z"
    },
    {
      "icao": "GCLP",
      "alert": "OK",
      "vis_m": 9999,
      "fzfg": false,
      "metar_trigger": false,
      "taf_trigger": false,
      "metar": "METAR GCLP 310930Z VRB01KT 9999 FEW016 18/14 Q1021 NOSIG",
      "taf": "TAF GCLP 310800Z 3109/0109 19014KT 9999 FEW030 TX22/3114Z TN15/0106Z"
    },
    {
      "icao": "GCTS",
      "alert": "OK",
      "vis_m": 9999,
      "fzfg": false,
      "metar_trigger": false,
      "taf_trigger": false,
      "metar": "METAR GCTS 310930Z 00000KT 9999 FEW025 19/14 Q1021 NOSIG",
      "taf": "TAF GCTS 310800Z 3109/0109 22010KT 9999 SCT030 TX24/3114Z TN17/0106Z"
    },
    {
      "icao": "GMAD",
      "alert": "OK",
      "vis_m": 9999,
      "fzfg": false,
      "metar_trigger": false,
      "taf_trigger": false,
      "metar": "METAR GMAD 310930Z 06007KT 9999 SCT040 13/11 Q1021 NOSIG",
      "taf": "TAF GMAD 310500Z 3106/0112 06008KT CAVOK"
    },
    {
      "icao": "GMMN",
      "alert": "OK",
      "vis_m": 9999,
      "fzfg": false,
      "metar_trigger": false,
      "taf_trigger": false,
      "metar": "METAR GMMN 310930Z 20013KT 9999 BKN013 14/12 Q1019 NOSIG",
      "taf": ""
    },
    {
      "icao": "GMMX",
      "alert": "OK",
      "vis_m": 9999,
      "fzfg": false,
      "metar_trigger": false,
      "taf_trigger": false,
      "metar": "METAR GMMX 310930Z VRB02KT 9999 FEW023 SCT080 14/11 Q1021 NOSIG",
      "taf": "TAF GMMX 310500Z 3106/0112 06006KT 8000 SCT020 SCT080"
    },
    {
      "icao": "HEGN",
      "alert": "OK",
      "vis_m": 9999,
      "fzfg": false,
      "metar_trigger": false,
      "taf_trigger": false,
      "metar": "METAR HEGN 310900Z 36005KT CAVOK 21/10 Q1017 NOSIG",
      "taf": "TAF HEGN 310500Z 3106/0112 32010KT CAVOK"
    },
    {
      "icao": "HEMA",
      "alert": "OK",
      "vis_m": 9999,
      "fzfg": false,
      "metar_trigger": false,
      "taf_trigger": false,
      "metar": "METAR HEMA 310900Z 10008KT CAVOK 23/11 Q1016 NOSIG",
      "taf": "TAF HEMA 310500Z 3106/0112 29010KT CAVOK"
    },
    {
      "icao": "HESH",
      "alert": "OK",
      "vis_m": 9999,
      "fzfg": false,
      "metar_trigger": false,
      "taf_trigger": false,
      "metar": "METAR HESH 310900Z 18010KT 9999 SCT020 23/11 Q1016 NOSIG",
      "taf": "TAF HESH 310500Z 3106/0112 25010KT CAVOK"
    },
    {
      "icao": "HESX",
      "alert": "OK",
      "vis_m": 9999,
      "fzfg": false,
      "metar_trigger": false,
      "taf_trigger": false,
      "metar": "METAR HESX 310900Z 20012KT CAVOK 17/03 Q1014 NOSIG",
      "taf": "TAF HESX 310501Z 3106/0112 20009KT 6000 NSC"
    },
    {
      "icao": "LATI",
      "alert": "OK",
      "vis_m": 9999,
      "fzfg": false,
      "metar_trigger": false,
      "taf_trigger": false,
      "metar": "METAR LATI 310950Z 32004KT 250V020 CAVOK 07/M13 Q1015 NOSIG",
      "taf": "TAF LATI 310500Z 3106/0106 31008KT CAVOK TX07/3112Z TNM05/0105Z"
    },
    {
      "icao": "LBPD",
      "alert": "OK",
      "vis_m": 9999,
      "fzfg": false,
      "metar_trigger": false,
      "taf_trigger": false,
      "metar": "METAR LBPD 310930Z AUTO 28020KT 9999 NCD 01/M11 Q1016 NOSIG",
      "taf": "TAF LBPD 310500Z 3106/0106 27016KT CAVOK"
    },
    {
      "icao": "LBSF",
      "alert": "OK",
      "vis_m": 9999,
      "fzfg": false,
      "metar_trigger": false,
      "taf_trigger": false,
      "metar": "METAR LBSF 310930Z 30013KT 270V330 9999 SCT030 M03/M10 Q1015 NOSIG",
      "taf": "TAF LBSF 310500Z 3106/0106 28012KT CAVOK"
    },
    {
      "icao": "LBWN",
      "alert": "OK",
      "vis_m": 9999,
      "fzfg": false,
      "metar_trigger": false,
      "taf_trigger": false,
      "metar": "METAR LBWN 310930Z AUTO 27018KT 9999 NCD 01/M07 Q1012 NOSIG",
      "taf": "TAF LBWN 310500Z 3106/0106 29012KT 9999 SCT030"
    },
    {
      "icao": "LCLK",
      "alert": "OK",
      "vis_m": 9999,
      "fzfg": false,
      "metar_trigger": false,
      "taf_trigger": false,
      "metar": "METAR LCLK 310930Z 24017KT 9999 FEW025 FEW030CB SCT040 19/13 Q1006 NOSIG",
      "taf": ""
    },
    {
      "icao": "LCPH",
      "alert": "OK",
      "vis_m": 9999,
      "fzfg": false,
      "metar_trigger": false,
      "taf_trigger": false,
      "metar": "METAR LCPH 310930Z 26017KT 250V310 9999 FEW020 FEW025CB SCT040 BKN070 18/12 Q1007 TEMPO 3000 TSRA SCT025CB",
      "taf": ""
    },
    {
      "icao": "LEAL",
      "alert": "OK",
      "vis_m": 9999,
      "fzfg": false,
      "metar_trigger": false,
      "taf_trigger": false,
      "metar": "METAR LEAL 310930Z 29011KT 260V320 CAVOK 13/05 Q1019 NOSIG",
      "taf": "TAF LEAL 310500Z 3106/0106 29006KT CAVOK TX17/3114Z TN07/3106Z"
    },
    {
      "icao": "LEBB",
      "alert": "OK",
      "vis_m": 9999,
      "fzfg": false,
      "metar_trigger": false,
      "taf_trigger": false,
      "metar": "METAR LEBB 310930Z VRB01KT 9999 FEW023 SCT027 BKN037 08/04 Q1023 NOSIG",
      "taf": "TAF LEBB 310500Z 3106/0106 VRB03KT 9999 SCT010 BKN020 TX10/3114Z TN01/3124Z"
    },
    {
      "icao": "LEBL",
      "alert": "OK",
      "vis_m": 9999,
      "fzfg": false,
      "metar_trigger": false,
      "taf_trigger": false,
      "metar": "METAR LEBL 310930Z 36012KT 9999 BKN035 09/05 Q1019 NOSIG",
      "taf": "TAF LEBL 310500Z 3106/0106 34010KT 9999 FEW020 TX15/3112Z TN08/3107Z"
    },
    {
      "icao": "LECH",
      "alert": "OK",
      "vis_m": 9000,
      "fzfg": false,
      "metar_trigger": false,
      "taf_trigger": false,
      "metar": "METAR LECH 310930Z AUTO VRB03KT 9000 NCD 08/01 Q1019",
      "taf": ""
    },
    {
      "icao": "LEMD",
      "alert": "OK",
      "vis_m": 9999,
      "fzfg": false,
      "metar_trigger": false,
      "taf_trigger": false,
      "metar": "METAR LEMD 310930Z 00000KT CAVOK 00/00 Q1020 NOSIG",
      "taf": "TAF LEMD 310500Z 3106/0112 VRB03KT CAVOK TX08/3114Z TNM02/0106Z"
    },
    {
      "icao": "LEMG",
      "alert": "OK",
      "vis_m": 9999,
      "fzfg": false,
      "metar_trigger": false,
      "taf_trigger": false,
      "metar": "METAR LEMG 310930Z 31007KT CAVOK 08/06 Q1019 NOSIG",
      "taf": "TAF LEMG 310500Z 3106/0106 29010KT CAVOK TX18/3114Z TN08/3106Z"
    },
    {
      "icao": "LEVC",
      "alert": "OK",
      "vis_m": 9999,
      "fzfg": false,
      "metar_trigger": false,
      "taf_trigger": false,
      "metar": "METAR LEVC 310930Z 28003KT 230V330 9999 FEW040 07/03 Q1019 NOSIG",
      "taf": "TAF LEVC 310500Z 3106/0106 29006KT 9999 FEW020 TX17/3114Z TN05/3106Z"
    },
    {
      "icao": "LEXJ",
      "alert": "OK",
      "vis_m": 9999,
      "fzfg": false,
      "metar_trigger": false,
      "taf_trigger": false,
      "metar": "METAR LEXJ 310930Z VRB02KT 9999 FEW024 BKN040 08/06 Q1023",
      "taf": "TAF LEXJ 310800Z 3109/0109 VRB03KT 9999 SCT020 BKN030 TX10/3115Z TN03/0103Z"
    },
    {
      "icao": "LEZG",
      "alert": "OK",
      "vis_m": 9999,
      "fzfg": false,
      "metar_trigger": false,
      "taf_trigger": false,
      "metar": "METAR LEZG 310930Z 27012KT 240V300 CAVOK 07/03 Q1020 NOSIG",
      "taf": "TAF LEZG 310500Z 3106/0106 29010KT 9999 FEW020 TX12/3114Z TN05/3106Z"
    },
    {
      "icao": "LEZL",
      "alert": "OK",
      "vis_m": 1000,
      "fzfg": false,
      "metar_trigger": false,
      "taf_trigger": false,
      "metar": "METAR LEZL 310930Z 05007KT 1000 R27/P2000 R09/1700U BCFG BR VV002 07/07 Q1020 BECMG 3000",
      "taf": "TAF LEZL 310800Z 3109/0109 05005KT CAVOK TX15/3115Z TN10/0106Z"
    },
    {
      "icao": "LFBD",
      "alert": "OK",
      "vis_m": 9999,
      "fzfg": false,
      "metar_trigger": false,
      "taf_trigger": false,
      "metar": "METAR LFBD 310930Z AUTO 05005KT 020V090 CAVOK M00/M03 Q1024 NOSIG",
      "taf": "TAF LFBD 310500Z 3106/0112 04005KT CAVOK TX04/3114Z TNM05/0106Z"
    },
    {
      "icao": "LFLL",
      "alert": "OK",
      "vis_m": 9999,
      "fzfg": false,
      "metar_trigger": false,
      "taf_trigger": false,
      "metar": "METAR LFLL 310930Z 32007KT 9999 FEW014 M02/M05 Q1025 NOSIG",
      "taf": ""
    },
    {
      "icao": "LFLS",
      "alert": "OK",
      "vis_m": 9999,
      "fzfg": false,
      "metar_trigger": false,
      "taf_trigger": false,
      "metar": "METAR LFLS 310930Z AUTO 34007KT CAVOK M02/M05 Q1024 TEMPO BKN011",
      "taf": "TAF LFLS 310800Z 3109/0109 36005KT CAVOK"
    },
    {
      "icao": "LFMN",
      "alert": "OK",
      "vis_m": 9999,
      "fzfg": false,
      "metar_trigger": false,
      "taf_trigger": false,
      "metar": "METAR LFMN 310930Z 33010KT 9999 FEW043 08/00 Q1018 NOSIG",
      "taf": "TAF LFMN 310800Z 3109/0115 33008KT 9999 FEW043"
    },
    {
      "icao": "LFOB",
      "alert": "OK",
      "vis_m": 9999,
      "fzfg": false,
      "metar_trigger": false,
      "taf_trigger": false,
      "metar": "METAR LFOB 310930Z AUTO 28002KT 9999 SCT030 M01/M02 Q1030 NOSIG",
      "taf": "TAF LFOB 310500Z 3106/0106 26005KT CAVOK"
    },
    {
      "icao": "LFPO",
      "alert": "OK",
      "vis_m": 6000,
      "fzfg": false,
      "metar_trigger": false,
      "taf_trigger": false,
      "metar": "METAR LFPO 310930Z 33003KT 6000 NSC 01/M01 Q1030 NOSIG",
      "taf": "TAF LFPO 310500Z 3106/0112 36005KT CAVOK"
    },
    {
      "icao": "LFSB",
      "alert": "OK",
      "vis_m": 9999,
      "fzfg": false,
      "metar_trigger": false,
      "taf_trigger": false,
      "metar": "METAR LFSB 310930Z AUTO 16004KT CAVOK M04/M05 Q1027 NOSIG",
      "taf": "TAF LFSB 310500Z 3106/0106 VRB03KT 6000 NSC"
    },
    {
      "icao": "LGAV",
      "alert": "OK",
      "vis_m": 9999,
      "fzfg": false,
      "metar_trigger": false,
      "taf_trigger": false,
      "metar": "METAR LGAV 310920Z 03014KT 9999 FEW018 BKN045 08/03 Q1012 NOSIG",
      "taf": "TAF LGAV 310500Z 3106/0106 01020G30KT 9999 SCT020"
    },
    {
      "icao": "LGTS",
      "alert": "OK",
      "vis_m": 9999,
      "fzfg": false,
      "metar_trigger": false,
      "taf_trigger": false,
      "metar": "METAR LGTS 310920Z 32020KT 9999 FEW025 03/M10 Q1017 NOSIG",
      "taf": "TAF LGTS 310500Z 3106/0106 34017G27KT 9999 SCT030"
    },
    {
      "icao": "LHBP",
      "alert": "OK",
      "vis_m": 9999,
      "fzfg": false,
      "metar_trigger": false,
      "taf_trigger": false,
      "metar": "METAR LHBP 310930Z 30017KT 9999 SCT025 BKN110 M02/M07 Q1018 NOSIG",
      "taf": "TAF LHBP 310515Z 3106/0106 31014G24KT CAVOK"
    },
    {
      "icao": "LHDC",
      "alert": "OK",
      "vis_m": 9999,
      "fzfg": false,
      "metar_trigger": false,
      "taf_trigger": false,
      "metar": "METAR LHDC 310915Z AUTO 21004KT 180V250 CAVOK M04/M07 Q1015 NOSIG",
      "taf": "TAF LHDC 310815Z 3109/3118 27008KT CAVOK"
    },
    {
      "icao": "LIBD",
      "alert": "OK",
      "vis_m": 9999,
      "fzfg": false,
      "metar_trigger": false,
      "taf_trigger": false,
      "metar": "METAR LIBD 310920Z 01009KT 320V040 9999 FEW030 07/M04 Q1019",
      "taf": "TAF LIBD 310500Z 3106/0106 36015KT 9999 FEW050"
    },
    {
      "icao": "LIBG",
      "alert": "OK",
      "vis_m": 9999,
      "fzfg": false,
      "metar_trigger": false,
      "taf_trigger": false,
      "metar": "METAR LIBG 310850Z 35017KT CAVOK 07/M03 Q1017",
      "taf": "TAF LIBG 310800Z 3108/3115 35014KT CAVOK"
    },
    {
      "icao": "LIBP",
      "alert": "OK",
      "vis_m": 9999,
      "fzfg": false,
      "metar_trigger": false,
      "taf_trigger": false,
      "metar": "METAR LIBP 310920Z AUTO 09007KT 060V130 9999 FEW058/// 08/M05 Q1021",
      "taf": "TAF LIBP 310500Z 3106/0106 04012KT 9999 SCT045"
    },
    {
      "icao": "LIBR",
      "alert": "OK",
      "vis_m": 9999,
      "fzfg": false,
      "metar_trigger": false,
      "taf_trigger": false,
      "metar": "METAR LIBR 310920Z 36019KT 9999 SCT035 08/M03 Q1016",
      "taf": "TAF LIBR 310500Z 3106/0106 35016KT 9999 FEW030"
    },
    {
      "icao": "LICA",
      "alert": "OK",
      "vis_m": 9999,
      "fzfg": false,
      "metar_trigger": false,
      "taf_trigger": false,
      "metar": "METAR LICA 310920Z AUTO 02013KT 9999 FEW058/// 11/00 Q1014",
      "taf": "TAF LICA 310500Z 3106/0106 08010KT 9999 SCT060"
    },
    {
      "icao": "LICC",
      "alert": "OK",
      "vis_m": 9999,
      "fzfg": false,
      "metar_trigger": false,
      "taf_trigger": false,
      "metar": "METAR LICC 310920Z 16003KT 130V200 9999 SCT030 BKN050 13/09 Q1015",
      "taf": "TAF LICC 310500Z 3106/0106 30007KT 9999 SCT030"
    },
    {
      "icao": "LICJ",
      "alert": "OK",
      "vis_m": 9999,
      "fzfg": false,
      "metar_trigger": false,
      "taf_trigger": false,
      "metar": "METAR LICJ 310920Z 23004KT 9999 VCSH FEW030 14/11 Q1015",
      "taf": "TAF LICJ 310500Z 3106/0106 22007KT 9999 SCT030"
    },
    {
      "icao": "LIMC",
      "alert": "OK",
      "vis_m": 9999,
      "fzfg": false,
      "metar_trigger": false,
      "taf_trigger": false,
      "metar": "METAR LIMC 310920Z VRB01KT 9999 FEW030 05/01 Q1020 NOSIG",
      "taf": "TAF LIMC 310500Z 3106/0112 03006KT 9999 BKN030"
    },
    {
      "icao": "LIME",
      "alert": "OK",
      "vis_m": 9999,
      "fzfg": false,
      "metar_trigger": false,
      "taf_trigger": false,
      "metar": "METAR LIME 310920Z VRB01KT 9999 FEW050 03/00 Q1020 NOSIG",
      "taf": "TAF LIME 310500Z 3106/0106 VRB05KT 9999 BKN030"
    },
    {
      "icao": "LIMF",
      "alert": "OK",
      "vis_m": 3000,
      "fzfg": false,
      "metar_trigger": false,
      "taf_trigger": false,
      "metar": "METAR LIMF 310920Z 09003KT 3000 BR NSC 03/01 Q1020",
      "taf": "TAF LIMF 310500Z 3106/0106 VRB05KT 3000 BR SCT010"
    },
    {
      "icao": "LIMJ",
      "alert": "OK",
      "vis_m": 9999,
      "fzfg": false,
      "metar_trigger": false,
      "taf_trigger": false,
      "metar": "METAR LIMJ 310920Z 03013KT CAVOK 07/01 Q1020",
      "taf": "TAF LIMJ 310500Z 3106/0106 02018KT 9999 FEW020"
    },
    {
      "icao": "LIPE",
      "alert": "OK",
      "vis_m": 5000,
      "fzfg": false,
      "metar_trigger": false,
      "taf_trigger": false,
      "metar": "METAR LIPE 310920Z 27004KT 5000 BR SCT005 03/02 Q1021",
      "taf": "TAF LIPE 310500Z 3106/0106 VRB04KT 3000 BR BKN020"
    },
    {
      "icao": "LIPH",
      "alert": "OK",
      "vis_m": 9999,
      "fzfg": false,
      "metar_trigger": false,
      "taf_trigger": false,
      "metar": "METAR LIPH 310920Z 04005KT 010V070 9999 FEW050 03/M04 Q1021",
      "taf": "TAF LIPH 310500Z 3106/0106 VRB04KT 9999 SCT045"
    },
    {
      "icao": "LIPQ",
      "alert": "OK",
      "vis_m": 9999,
      "fzfg": false,
      "metar_trigger": false,
      "taf_trigger": false,
      "metar": "METAR LIPQ 310920Z AUTO VRB02KT 9999 FEW050/// 02/M05 Q1021",
      "taf": "TAF LIPQ 310500Z 3106/0106 VRB05KT 9999 SCT050"
    },
    {
      "icao": "LIPR",
      "alert": "OK",
      "vis_m": 6000,
      "fzfg": false,
      "metar_trigger": false,
      "taf_trigger": false,
      "metar": "METAR LIPR 310920Z 32005KT 6000 FEW045 05/03 Q1021",
      "taf": "TAF LIPR 310500Z 3106/0106 17008KT 3000 BR BKN020"
    },
    {
      "icao": "LIPX",
      "alert": "OK",
      "vis_m": 9999,
      "fzfg": false,
      "metar_trigger": false,
      "taf_trigger": false,
      "metar": "METAR LIPX 310920Z VRB02KT 9999 FEW050 SCT065 05/M01 Q1021",
      "taf": "TAF LIPX 310500Z 3106/0106 VRB05KT 9999 SCT040"
    },
    {
      "icao": "LIPY",
      "alert": "OK",
      "vis_m": 9999,
      "fzfg": false,
      "metar_trigger": false,
      "taf_trigger": false,
      "metar": "METAR LIPY 310920Z AUTO 30002KT 9999 OVC072/// 06/M01 Q1021",
      "taf": "TAF LIPY 310500Z 3106/0106 13006KT 6000 SCT045"
    },
    {
      "icao": "LIPZ",
      "alert": "OK",
      "vis_m": 9999,
      "fzfg": false,
      "metar_trigger": false,
      "taf_trigger": false,
      "metar": "METAR LIPZ 310920Z 02006KT CAVOK 02/M04 Q1021 NOSIG",
      "taf": "TAF LIPZ 310500Z 3106/0112 06006KT 9999 SCT040"
    },
    {
      "icao": "LIRF",
      "alert": "OK",
      "vis_m": 9999,
      "fzfg": false,
      "metar_trigger": false,
      "taf_trigger": false,
      "metar": "METAR LIRF 310920Z 03009KT 9999 SCT045 08/M02 Q1017 NOSIG",
      "taf": "TAF LIRF 310500Z 3106/0112 03010KT 9999 SCT040"
    },
    {
      "icao": "LIRN",
      "alert": "OK",
      "vis_m": 9999,
      "fzfg": false,
      "metar_trigger": false,
      "taf_trigger": false,
      "metar": "METAR LIRN 310920Z 06009KT 9999 FEW070 07/M08 Q1017 NOSIG",
      "taf": "TAF LIRN 310500Z 3106/0106 05015KT 9999 FEW060"
    },
    {
      "icao": "LIRP",
      "alert": "OK",
      "vis_m": 9999,
      "fzfg": false,
      "metar_trigger": false,
      "taf_trigger": false,
      "metar": "METAR LIRP 310915Z 11012KT 9999 FEW050 08/M02 Q1019 NOSIG",
      "taf": "TAF LIRP 310500Z 3106/0106 09011KT 9999 FEW060"
    },
    {
      "icao": "LIRZ",
      "alert": "OK",
      "vis_m": 9999,
      "fzfg": false,
      "metar_trigger": false,
      "taf_trigger": false,
      "metar": "METAR LIRZ 310920Z AUTO 04010KT 9999 NCD 06/M04 Q1018",
      "taf": "TAF LIRZ 310500Z 3106/0106 04010KT CAVOK"
    },
    {
      "icao": "LJLJ",
      "alert": "OK",
      "vis_m": 9999,
      "fzfg": false,
      "metar_trigger": false,
      "taf_trigger": false,
      "metar": "METAR LJLJ 310930Z 09003KT 070V150 9999 0800SE R30/1400U PRFG MIFG FEW001 M06/M06 Q1021 NOSIG",
      "taf": "TAF LJLJ 310500Z 3106/0106 VRB02KT 9999 FEW005"
    },
    {
      "icao": "LKMT",
      "alert": "OK",
      "vis_m": 9999,
      "fzfg": false,
      "metar_trigger": false,
      "taf_trigger": false,
      "metar": "METAR LKMT 310930Z 21009KT 9999 -SN OVC035 M04/M07 Q1016 NOSIG",
      "taf": "TAF LKMT 310500Z 3106/0106 24012KT 9999 BKN030"
    },
    {
      "icao": "LKPR",
      "alert": "OK",
      "vis_m": 9999,
      "fzfg": false,
      "metar_trigger": false,
      "taf_trigger": false,
      "metar": "METAR LKPR 310930Z 22018KT 9999 FEW024 BKN048 M03/M07 Q1017 BECMG -SN BKN025",
      "taf": "TAF LKPR 310800Z 3109/0115 22010KT CAVOK"
    },
    {
      "icao": "LLBG",
      "alert": "OK",
      "vis_m": 9999,
      "fzfg": false,
      "metar_trigger": false,
      "taf_trigger": false,
      "metar": "METAR LLBG 310920Z 20013KT 9999 FEW050 18/09 Q1013 NOSIG",
      "taf": "TAF LLBG 310504Z 3106/0106 17007KT 9999 FEW035"
    },
    {
      "icao": "LMML",
      "alert": "OK",
      "vis_m": 9999,
      "fzfg": false,
      "metar_trigger": false,
      "taf_trigger": false,
      "metar": "METAR LMML 310945Z 28016KT 9999 -RA FEW015CB 12/10 Q1015 BECMG NSW",
      "taf": "TAF LMML 310500Z 3106/0106 29012KT 9999 SCT020TCU"
    },
    {
      "icao": "LOWW",
      "alert": "OK",
      "vis_m": 9999,
      "fzfg": false,
      "metar_trigger": false,
      "taf_trigger": false,
      "metar": "METAR LOWW 310920Z 30018G28KT 9999 FEW048 M01/M08 Q1020 NOSIG",
      "taf": "TAF LOWW 310815Z 3109/0115 30015KT CAVOK TX06/0111Z TNM02/3109Z"
    },
    {
      "icao": "LPFR",
      "alert": "OK",
      "vis_m": 9999,
      "fzfg": false,
      "metar_trigger": false,
      "taf_trigger": false,
      "metar": "METAR LPFR 310930Z 07009G19KT 050V120 9999 FEW015 BKN033 12/07 Q1019",
      "taf": "TAF LPFR 310500Z 3106/0106 04007KT CAVOK"
    },
    {
      "icao": "LPMA",
      "alert": "OK",
      "vis_m": 9999,
      "fzfg": false,
      "metar_trigger": false,
      "taf_trigger": false,
      "metar": "METAR LPMA 310930Z 21016KT 9999 SCT015 19/14 Q1016",
      "taf": "TAF LPMA 310500Z 3106/0106 VRB05KT 9999 SCT015"
    },
    {
      "icao": "LPPR",
      "alert": "OK",
      "vis_m": 9999,
      "fzfg": false,
      "metar_trigger": false,
      "taf_trigger": false,
      "metar": "METAR LPPR 310930Z 10007KT CAVOK 09/05 Q1020",
      "taf": "TAF LPPR 310500Z 3106/0106 09005KT CAVOK"
    },
    {
      "icao": "LPPS",
      "alert": "OK",
      "vis_m": 9999,
      "fzfg": false,
      "metar_trigger": false,
      "taf_trigger": false,
      "metar": "METAR LPPS 310930Z 17008KT 9999 FEW010 18/16 Q1017",
      "taf": "TAF LPPS 310500Z 3106/0112 20007KT 9999 SCT010"
    },
    {
      "icao": "LPPT",
      "alert": "OK",
      "vis_m": 150,
      "fzfg": false,
      "metar_trigger": false,
      "taf_trigger": false,
      "metar": "METAR LPPT 310930Z 03003KT 350V060 0150 R02/0300 FG VV001 05/05 Q1020",
      "taf": "TAF LPPT 310500Z 3106/0112 06005KT 5000 BR SCT002"
    },
    {
      "icao": "LQBK",
      "alert": "OK",
      "vis_m": 9999,
      "fzfg": false,
      "metar_trigger": false,
      "taf_trigger": false,
      "metar": "METAR LQBK 310930Z 18004KT CAVOK 01/M08 Q1022 NOSIG",
      "taf": ""
    },
    {
      "icao": "LQSA",
      "alert": "OK",
      "vis_m": 9999,
      "fzfg": false,
      "metar_trigger": false,
      "taf_trigger": false,
      "metar": "METAR LQSA 310930Z 30005KT 250V010 9999 SCT050 M03/M10 Q1020 NOSIG",
      "taf": "TAF LQSA 310500Z 3106/0106 29005KT 9999 SCT045 TXM00/3113Z TNM08/0104Z"
    },
    {
      "icao": "LQTZ",
      "alert": "OK",
      "vis_m": 9999,
      "fzfg": false,
      "metar_trigger": false,
      "taf_trigger": false,
      "metar": "METAR LQTZ 310930Z 26008KT 9999 FEW035 M01/M06 Q1021",
      "taf": "TAF LQTZ 310500Z 3106/0106 27006KT 9999 SCT040 TX00/3113Z TNM09/3106Z"
    },
    {
      "icao": "LRBC",
      "alert": "OK",
      "vis_m": 9999,
      "fzfg": false,
      "metar_trigger": false,
      "taf_trigger": false,
      "metar": "METAR LRBC 310930Z 28011KT CAVOK 01/M11 Q1008",
      "taf": "TAF LRBC 310800Z 3109/3118 28012KT 9999 BKN055"
    },
    {
      "icao": "LRBS",
      "alert": "OK",
      "vis_m": 9999,
      "fzfg": false,
      "metar_trigger": false,
      "taf_trigger": false,
      "metar": "METAR LRBS 310930Z 30008KT 250V020 CAVOK 01/M10 Q1013 NOSIG",
      "taf": "TAF LRBS 310500Z 3106/0106 27010KT CAVOK"
    },
    {
      "icao": "LRBV",
      "alert": "OK",
      "vis_m": 9999,
      "fzfg": false,
      "metar_trigger": false,
      "taf_trigger": false,
      "metar": "METAR LRBV 310930Z 28010KT 250V320 9999 SCT021 OVC033 M05/M10 Q1010",
      "taf": "TAF LRBV 310800Z 3109/3118 28010KT 9999 SCT025 BKN040"
    },
    {
      "icao": "LRCL",
      "alert": "OK",
      "vis_m": 9999,
      "fzfg": false,
      "metar_trigger": false,
      "taf_trigger": false,
      "metar": "METAR LRCL 310930Z 29012KT 9999 SCT064 M01/M10 Q1012",
      "taf": "TAF LRCL 310800Z 3109/3118 30010KT 9999 BKN050"
    },
    {
      "icao": "LRCV",
      "alert": "OK",
      "vis_m": 9999,
      "fzfg": false,
      "metar_trigger": false,
      "taf_trigger": false,
      "metar": "METAR LRCV 310930Z 30017KT CAVOK M01/M07 Q1014",
      "taf": "TAF LRCV 310800Z 3109/3118 28014KT CAVOK"
    },
    {
      "icao": "LRIA",
      "alert": "OK",
      "vis_m": 9999,
      "fzfg": false,
      "metar_trigger": false,
      "taf_trigger": false,
      "metar": "METAR LRIA 310930Z 27012KT 220V300 9999 BKN030 M01/M06 Q1007",
      "taf": "TAF LRIA 310800Z 3109/3118 28012KT 9999 BKN035"
    },
    {
      "icao": "LROP",
      "alert": "OK",
      "vis_m": 9999,
      "fzfg": false,
      "metar_trigger": false,
      "taf_trigger": false,
      "metar": "METAR LROP 310930Z 28010KT CAVOK 01/M12 Q1012 NOSIG",
      "taf": "TAF LROP 310500Z 3106/0106 27010KT CAVOK"
    },
    {
      "icao": "LRSB",
      "alert": "OK",
      "vis_m": 9999,
      "fzfg": false,
      "metar_trigger": false,
      "taf_trigger": false,
      "metar": "METAR LRSB 310930Z 27012KT 9999 BKN050 M04/M09 Q1012",
      "taf": "TAF LRSB 310500Z 3106/0106 29010KT 9999 SCT045"
    },
    {
      "icao": "LRSM",
      "alert": "OK",
      "vis_m": 9999,
      "fzfg": false,
      "metar_trigger": false,
      "taf_trigger": false,
      "metar": "METAR LRSM 310930Z 26011KT 9999 FEW045 M03/M08 Q1013",
      "taf": "TAF LRSM 310800Z 3109/3118 26012KT 9999 BKN040"
    },
    {
      "icao": "LRSV",
      "alert": "OK",
      "vis_m": 9999,
      "fzfg": false,
      "metar_trigger": false,
      "taf_trigger": false,
      "metar": "METAR LRSV 310930Z COR 31014KT 9999 -SN DRSN BKN042 M03/M08 Q1005",
      "taf": "TAF LRSV 310800Z 3109/3118 29014KT 5000 -SN BKN025"
    },
    {
      "icao": "LRTM",
      "alert": "OK",
      "vis_m": 9999,
      "fzfg": false,
      "metar_trigger": false,
      "taf_trigger": false,
      "metar": "METAR LRTM 310930Z 24010KT 9999 FEW024 SCT048 M02/M09 Q1012",
      "taf": "TAF LRTM 310800Z 3109/3118 25010KT 9999 SCT025 OVC040"
    },
    {
      "icao": "LRTR",
      "alert": "OK",
      "vis_m": 9999,
      "fzfg": false,
      "metar_trigger": false,
      "taf_trigger": false,
      "metar": "METAR LRTR 310930Z 30011KT 9999 FEW019 M02/M05 Q1017",
      "taf": "TAF LRTR 310500Z 3106/0106 28008KT CAVOK"
    },
    {
      "icao": "LTAC",
      "alert": "OK",
      "vis_m": 9999,
      "fzfg": false,
      "metar_trigger": false,
      "taf_trigger": false,
      "metar": "METAR LTAC 310920Z 31008KT 260V340 9999 FEW015 BKN030 BKN080 01/M03 Q1004 NOSIG RMK RWY21C 29010KT RWY03L 31008KT RWY21R 29008KT RWY03R 30006KT 270V330 RWY21L 29010KT",
      "taf": "TAF LTAC 310440Z 3106/0106 VRB02KT 9999 SCT040 BKN100"
    },
    {
      "icao": "LTFM",
      "alert": "OK",
      "vis_m": 9999,
      "fzfg": false,
      "metar_trigger": false,
      "taf_trigger": false,
      "metar": "METAR LTFM 310920Z 33015G26KT 9999 FEW035 BKN080 02/M08 Q1013 NOSIG RMK RWY17L 33015KT RWY34L 33013KT RWY16R 32011KT RWY36 33015KT RWY18 32015KT",
      "taf": "TAF LTFM 310440Z 3106/0112 33018G28KT 9999 SCT035 BKN080"
    },
    {
      "icao": "LUKK",
      "alert": "OK",
      "vis_m": 9999,
      "fzfg": false,
      "metar_trigger": false,
      "taf_trigger": false,
      "metar": "METAR LUKK 310930Z 29015KT 9999 -SHSN FEW020 BKN034CB BKN045 M02/M06 Q1006 TEMPO 31016G26KT 1500 SHSN BKN012 SCT020CB",
      "taf": ""
    },
    {
      "icao": "LWOH",
      "alert": "OK",
      "vis_m": 9999,
      "fzfg": false,
      "metar_trigger": false,
      "taf_trigger": false,
      "metar": "METAR LWOH 310950Z 35010KT 310V030 9999 FEW045 M01/M13 Q1014",
      "taf": "TAF LWOH 310805Z 3109/0109 33010KT 9999 BKN050"
    },
    {
      "icao": "LWSK",
      "alert": "OK",
      "vis_m": 9999,
      "fzfg": false,
      "metar_trigger": false,
      "taf_trigger": false,
      "metar": "METAR LWSK 310950Z 36009KT 330V030 9999 FEW054 02/M11 Q1018 NOSIG",
      "taf": "TAF LWSK 310805Z 3109/0109 VRB02KT CAVOK"
    },
    {
      "icao": "LYBE",
      "alert": "OK",
      "vis_m": 9999,
      "fzfg": false,
      "metar_trigger": false,
      "taf_trigger": false,
      "metar": "METAR LYBE 310930Z 28012KT 9999 FEW030 M00/M06 Q1020 NOSIG",
      "taf": "TAF LYBE 310500Z 3106/0106 30014KT CAVOK TX00/3112Z TNM06/3106Z"
    },
    {
      "icao": "LYNI",
      "alert": "OK",
      "vis_m": 9999,
      "fzfg": false,
      "metar_trigger": false,
      "taf_trigger": false,
      "metar": "METAR LYNI 310930Z 31015KT 280V340 9999 BKN033 M01/M09 Q1019 NOSIG",
      "taf": "TAF LYNI 310500Z 3106/0106 28008KT 9999 SCT040 TXM00/3112Z TNM03/3106Z"
    },
    {
      "icao": "LYPG",
      "alert": "OK",
      "vis_m": 9999,
      "fzfg": false,
      "metar_trigger": false,
      "taf_trigger": false,
      "metar": "METAR LYPG 310930Z 35016KT 320V020 CAVOK 04/M15 Q1019 NOSIG",
      "taf": "TAF LYPG 310500Z 3106/0106 36015G25KT CAVOK TX07/3112Z TNM05/0106Z"
    },
    {
      "icao": "LZIB",
      "alert": "OK",
      "vis_m": 9999,
      "fzfg": false,
      "metar_trigger": false,
      "taf_trigger": false,
      "metar": "METAR LZIB 310930Z 29014KT 9999 SCT031 M00/M07 Q1019 NOSIG",
      "taf": "TAF LZIB 310515Z 3106/0106 31012KT 9999 FEW035"
    },
    {
      "icao": "LZKZ",
      "alert": "OK",
      "vis_m": 9999,
      "fzfg": false,
      "metar_trigger": false,
      "taf_trigger": false,
      "metar": "METAR LZKZ 310930Z 31009KT 9999 SCT047 M02/M11 Q1013 NOSIG",
      "taf": "TAF LZKZ 310515Z 3106/0106 31009KT 9999 SCT030"
    },
    {
      "icao": "LZTT",
      "alert": "OK",
      "vis_m": 9999,
      "fzfg": false,
      "metar_trigger": false,
      "taf_trigger": false,
      "metar": "METAR LZTT 310930Z 26013KT 9999 4500W -SHSN FEW033 BKN056 M06/M11 Q1009 NOSIG",
      "taf": ""
    },
    {
      "icao": "OEJN",
      "alert": "OK",
      "vis_m": 9999,
      "fzfg": false,
      "metar_trigger": false,
      "taf_trigger": false,
      "metar": "METAR OEJN 310900Z 31003KT 240V020 CAVOK 28/M04 Q1015 NOSIG",
      "taf": "TAF OEJN 310500Z 3106/0112 27005KT CAVOK"
    },
    {
      "icao": "OEMA",
      "alert": "OK",
      "vis_m": 9999,
      "fzfg": false,
      "metar_trigger": false,
      "taf_trigger": false,
      "metar": "METAR OEMA 310900Z 14006KT CAVOK 21/M04 Q1019 NOSIG",
      "taf": "TAF OEMA 310500Z 3106/0112 12010KT 7000 NSC"
    },
    {
      "icao": "OJAI",
      "alert": "OK",
      "vis_m": 4000,
      "fzfg": false,
      "metar_trigger": false,
      "taf_trigger": false,
      "metar": "METAR OJAI 310900Z 24017KT 4000 BLDU FEW030 SCT200 13/06 Q1015 NOSIG",
      "taf": "TAF OJAI 310420Z 3106/0112 VRB02KT 3000 BR FEW030"
    },
    {
      "icao": "OMAA",
      "alert": "OK",
      "vis_m": 9999,
      "fzfg": false,
      "metar_trigger": false,
      "taf_trigger": false,
      "metar": "METAR OMAA 310900Z 31017KT 280V340 9999 SCT040 21/10 Q1018 NOSIG",
      "taf": "TAF OMAA 310500Z 3106/0112 31014KT 8000 SCT040"
    },
    {
      "icao": "OMDB",
      "alert": "OK",
      "vis_m": 9999,
      "fzfg": false,
      "metar_trigger": false,
      "taf_trigger": false,
      "metar": "METAR OMDB 310930Z 29011KT 240V320 9999 SCT040 22/10 Q1016 NOSIG",
      "taf": "TAF OMDB 310500Z 3106/0112 29012KT 8000 FEW040"
    },
    {
      "icao": "UAAA",
      "alert": "OK",
      "vis_m": 5000,
      "fzfg": false,
      "metar_trigger": false,
      "taf_trigger": false,
      "metar": "METAR UAAA 310930Z 03002MPS 5000 BR SCT050 BKN100 06/01 Q1012 NOSIG",
      "taf": "TAF UAAA 310505Z 3106/0106 29003G08MPS 5000 BR FU BKN050CB BKN100 TX08/3109Z TNM01/0101Z"
    },
    {
      "icao": "UBBB",
      "alert": "OK",
      "vis_m": 9999,
      "fzfg": false,
      "metar_trigger": false,
      "taf_trigger": false,
      "metar": "METAR UBBB 310930Z 18020G30KT CAVOK 09/M03 Q1005 NOSIG",
      "taf": "TAF UBBB 310509Z 3106/0106 19020G30KT CAVOK TX11/3110Z TN04/0103Z"
    },
    {
      "icao": "UDSG",
      "alert": "OK",
      "vis_m": 9999,
      "fzfg": false,
      "metar_trigger": false,
      "taf_trigger": false,
      "metar": "METAR UDSG 310930Z 08003KT 9999 SCT033 OVC049 M07/M11 Q1010 NOSIG",
      "taf": "TAF UDSG 310458Z 3106/0106 VRB06KT 5000 BR BKN030"
    },
    {
      "icao": "UDYZ",
      "alert": "OK",
      "vis_m": 9999,
      "fzfg": false,
      "metar_trigger": false,
      "taf_trigger": false,
      "metar": "METAR UDYZ 310930Z 07003KT 020V090 9999 SCT046 M02/M09 Q1014 NOSIG",
      "taf": "TAF UDYZ 310500Z 3106/0106 VRB04KT 9999 SCT040"
    },
    {
      "icao": "UGKO",
      "alert": "OK",
      "vis_m": 9999,
      "fzfg": false,
      "metar_trigger": false,
      "taf_trigger": false,
      "metar": "METAR UGKO 310930Z 06013KT 9999 BKN080 04/M04 Q1005 NOSIG",
      "taf": "TAF UGKO 310500Z 3106/0106 08007KT CAVOK TX05/3112Z TNM00/0101Z"
    }
  ]
}