{
  "ts_utc": "2026-02-11T09:30:54Z",
  "threshold_m": 150,
  "source": "stations_override.txt (ICAO list) + aviationweather.gov (METAR/TAF raw)",
  "station_count": 159,
  "stations": [
    {
      "icao": "BIKF",
      "alert": "OK",
      "vis_m": 9999,
      "fzfg": false,
      "metar_trigger": false,
      "taf_trigger": false,
      "metar": "METAR BIKF 110900Z 05004KT CAVOK M02/M08 Q1006",
      "taf": "TAF BIKF 110733Z 1109/1209 08012KT CAVOK TXM00/1114Z TNM06/1206Z"
    },
    {
      "icao": "BKPR",
      "alert": "OK",
      "vis_m": 9999,
      "fzfg": false,
      "metar_trigger": false,
      "taf_trigger": false,
      "metar": "METAR BKPR 110930Z 17010KT 9999 FEW014 BKN030 06/05 Q1004 NOSIG",
      "taf": "TAF BKPR 110530Z 1106/1206 17008KT 9999 BKN050"
    },
    {
      "icao": "EBCI",
      "alert": "OK",
      "vis_m": 9000,
      "fzfg": false,
      "metar_trigger": false,
      "taf_trigger": false,
      "metar": "METAR EBCI 110920Z 25013KT 9000 SCT003 BKN006 10/09 Q0985 TEMPO 1400 RADZ BR",
      "taf": "TAF EBCI 110508Z 1106/1212 25010KT 4000 -DZ -RADZ SCT003 BKN005"
    },
    {
      "icao": "EDDB",
      "alert": "OK",
      "vis_m": 9999,
      "fzfg": false,
      "metar_trigger": false,
      "taf_trigger": false,
      "metar": "METAR EDDB 110920Z AUTO 16008KT 9999 -SHRA FEW024 BKN029 OVC037 FEW///TCU 04/03 Q0986 RESHRA NOSIG",
      "taf": "TAF EDDB 110500Z 1106/1206 15006KT 9999 BKN025"
    },
    {
      "icao": "EDDH",
      "alert": "OK",
      "vis_m": 4500,
      "fzfg": false,
      "metar_trigger": false,
      "taf_trigger": false,
      "metar": "METAR EDDH 110920Z AUTO 06008KT 4500 BR OVC003 02/02 Q0985 TEMPO 2500 -DZ BR",
      "taf": "TAF EDDH 110500Z 1106/1212 08007KT 4000 BR OVC003"
    },
    {
      "icao": "EDDK",
      "alert": "OK",
      "vis_m": 9999,
      "fzfg": false,
      "metar_trigger": false,
      "taf_trigger": false,
      "metar": "METAR EDDK 110920Z AUTO 31005KT 9999 BKN009 BKN012 OVC017 10/09 Q0985 BECMG SCT008 BKN014",
      "taf": ""
    },
    {
      "icao": "EDDN",
      "alert": "OK",
      "vis_m": 9999,
      "fzfg": false,
      "metar_trigger": false,
      "taf_trigger": false,
      "metar": "METAR EDDN 110920Z AUTO 20007KT 9999 -RA FEW012 BKN023 OVC029 08/06 Q0987 NOSIG",
      "taf": "TAF EDDN 110500Z 1106/1206 14010KT 9999 BKN020"
    },
    {
      "icao": "EDDS",
      "alert": "OK",
      "vis_m": 9999,
      "fzfg": false,
      "metar_trigger": false,
      "taf_trigger": false,
      "metar": "METAR EDDS 110920Z AUTO 22009KT 170V260 9999 FEW021 SCT044 10/06 Q0988 NOSIG",
      "taf": "TAF EDDS 110500Z 1106/1206 17007KT 9999 SCT020 BKN035"
    },
    {
      "icao": "EDFH",
      "alert": "OK",
      "vis_m": 9999,
      "fzfg": false,
      "metar_trigger": false,
      "taf_trigger": false,
      "metar": "METAR EDFH 110920Z 25013KT 230V290 9999 -RA BKN005 OVC045 08/07 Q0986",
      "taf": "TAF EDFH 110500Z 1106/1206 23011KT 9000 SCT005 BKN012"
    },
    {
      "icao": "EDJA",
      "alert": "OK",
      "vis_m": 9999,
      "fzfg": false,
      "metar_trigger": false,
      "taf_trigger": false,
      "metar": "METAR EDJA 110920Z 24024G35KT 9999 BKN018 OVC058 08/04 Q0991",
      "taf": "TAF EDJA 110800Z 1109/1118 23015G25KT 9999 SCT030 BKN040"
    },
    {
      "icao": "EDLW",
      "alert": "OK",
      "vis_m": 2500,
      "fzfg": false,
      "metar_trigger": false,
      "taf_trigger": false,
      "metar": "METAR EDLW 110920Z 20007KT 2500 BR SCT005 BKN008 OVC015 09/09 Q0983",
      "taf": "TAF EDLW 110500Z 1106/1206 16005KT 9999 BKN020"
    },
    {
      "icao": "EDNY",
      "alert": "OK",
      "vis_m": 9999,
      "fzfg": false,
      "metar_trigger": false,
      "taf_trigger": false,
      "metar": "METAR EDNY 110920Z 22008KT 9999 -RA FEW036 BKN044 OVC053 08/06 Q0992",
      "taf": "TAF EDNY 110800Z 1109/1118 23006KT 9999 FEW035 SCT045"
    },
    {
      "icao": "EDSB",
      "alert": "OK",
      "vis_m": 9999,
      "fzfg": false,
      "metar_trigger": false,
      "taf_trigger": false,
      "metar": "METAR EDSB 110920Z 20016KT 9999 OVC027 11/09 Q0989",
      "taf": "TAF EDSB 110500Z 1106/1206 20015KT 9999 SCT020 OVC030"
    },
    {
      "icao": "EETN",
      "alert": "OK",
      "vis_m": 3200,
      "fzfg": false,
      "metar_trigger": false,
      "taf_trigger": false,
      "metar": "METAR EETN 110920Z 18006KT 3200 SHSN FEW027CB BKN038 M07/M09 Q0996 TEMPO 2000",
      "taf": "TAF EETN 110530Z 1106/1206 17010KT 9999 SCT010 OVC035"
    },
    {
      "icao": "EFTU",
      "alert": "OK",
      "vis_m": 9999,
      "fzfg": false,
      "metar_trigger": false,
      "taf_trigger": false,
      "metar": "METAR EFTU 110920Z AUTO 10004KT 9999 -SHSN OVC007 M05/M06 Q0994",
      "taf": "TAF EFTU 110827Z 1109/1209 08005KT 9999 -SN BKN007"
    },
    {
      "icao": "EGBB",
      "alert": "OK",
      "vis_m": 9999,
      "fzfg": false,
      "metar_trigger": false,
      "taf_trigger": false,
      "metar": "METAR EGBB 110920Z 21005KT 180V240 9999 BKN008 10/09 Q0981",
      "taf": "TAF EGBB 110456Z 1106/1206 17004KT 1400 RADZ BR BKN003"
    },
    {
      "icao": "EGGP",
      "alert": "OK",
      "vis_m": 9999,
      "fzfg": false,
      "metar_trigger": false,
      "taf_trigger": false,
      "metar": "METAR EGGP 110920Z 25005KT 9999 SCT005 BKN013 08/08 Q0980",
      "taf": "TAF EGGP 110456Z 1106/1206 09006KT 9999 BKN006"
    },
    {
      "icao": "EGGW",
      "alert": "OK",
      "vis_m": 9999,
      "fzfg": false,
      "metar_trigger": false,
      "taf_trigger": false,
      "metar": "METAR EGGW 110920Z AUTO 24009KT 9999 BKN011 OVC015 10/09 Q0982",
      "taf": "TAF EGGW 110457Z 1106/1206 24010KT 1200 BR BKN002"
    },
    {
      "icao": "EGKK",
      "alert": "OK",
      "vis_m": 9999,
      "fzfg": false,
      "metar_trigger": false,
      "taf_trigger": false,
      "metar": "METAR EGKK 110920Z 23010KT 9999 FEW007 BKN014 11/10 Q0984",
      "taf": "TAF EGKK 110453Z 1106/1212 22010KT 9999 SCT015"
    },
    {
      "icao": "EGNM",
      "alert": "OK",
      "vis_m": 300,
      "fzfg": false,
      "metar_trigger": false,
      "taf_trigger": false,
      "metar": "METAR EGNM 110920Z 06004KT 0300 R14/1300U -DZ FG VV/// 06/06 Q0980",
      "taf": "TAF EGNM 110457Z 1106/1206 05009KT 0300 FG BKN000"
    },
    {
      "icao": "EGPD",
      "alert": "OK",
      "vis_m": 9999,
      "fzfg": false,
      "metar_trigger": false,
      "taf_trigger": false,
      "metar": "METAR EGPD 110920Z COR AUTO 10011KT 9999 BKN024 OVC036 04/00 Q0988 NOSIG",
      "taf": "TAF EGPD 110453Z 1106/1206 08012KT 9999 BKN016"
    },
    {
      "icao": "EGPF",
      "alert": "OK",
      "vis_m": 9999,
      "fzfg": false,
      "metar_trigger": false,
      "taf_trigger": false,
      "metar": "METAR EGPF 110920Z AUTO 07014KT 9999 -RA BKN013 BKN043 05/03 Q0983",
      "taf": "TAF EGPF 110452Z 1106/1206 07009KT 9999 BKN016"
    },
    {
      "icao": "EHBK",
      "alert": "OK",
      "vis_m": 2500,
      "fzfg": false,
      "metar_trigger": false,
      "taf_trigger": false,
      "metar": "METAR EHBK 110925Z AUTO 23011KT 2500 DZ SCT003 BKN005 OVC006 10/10 Q0985 TEMPO 8000 -DZ",
      "taf": "TAF EHBK 110503Z 1106/1212 24007KT 2500 BR -DZRA OVC001"
    },
    {
      "icao": "EHEH",
      "alert": "OK",
      "vis_m": 2700,
      "fzfg": false,
      "metar_trigger": false,
      "taf_trigger": false,
      "metar": "METAR EHEH 110925Z AUTO 24007KT 180V300 2700 R21/2600D +DZ FEW004 BKN005 OVC007 10/10 Q0983 YLO 0800 FG RMK TREND REMOTE BY EHWX",
      "taf": "TAF EHEH 110554Z 1106/1212 18003KT 1500 BR OVC002"
    },
    {
      "icao": "EKBI",
      "alert": "OK",
      "vis_m": 9999,
      "fzfg": false,
      "metar_trigger": false,
      "taf_trigger": false,
      "metar": "METAR EKBI 110920Z AUTO 05011KT 9999 OVC005/// M00/M01 Q0989",
      "taf": "TAF EKBI 110827Z 1109/1209 06012KT 9000 BKN006"
    },
    {
      "icao": "EKCH",
      "alert": "OK",
      "vis_m": 5000,
      "fzfg": false,
      "metar_trigger": false,
      "taf_trigger": false,
      "metar": "METAR EKCH 110920Z AUTO 06009KT 5000 SCT005/// OVC040/// 00/M00 Q0990 TEMPO 6000 NSW BKN007",
      "taf": "TAF EKCH 110828Z 1109/1209 06012KT 6000 SCT007 BKN035"
    },
    {
      "icao": "ENAL",
      "alert": "OK",
      "vis_m": 9999,
      "fzfg": false,
      "metar_trigger": false,
      "taf_trigger": false,
      "metar": "METAR ENAL 110920Z 07012KT CAVOK 00/M05 Q0995",
      "taf": "TAF ENAL 110800Z 1109/1118 07012KT CAVOK"
    },
    {
      "icao": "ENBR",
      "alert": "OK",
      "vis_m": 9999,
      "fzfg": false,
      "metar_trigger": false,
      "taf_trigger": false,
      "metar": "METAR ENBR 110920Z 00000KT CAVOK M03/M04 Q0994 NOSIG RMK WIND 1200FT 24004KT",
      "taf": "TAF ENBR 110500Z 1106/1206 VRB03KT CAVOK"
    },
    {
      "icao": "ENGM",
      "alert": "OK",
      "vis_m": 9999,
      "fzfg": false,
      "metar_trigger": false,
      "taf_trigger": false,
      "metar": "METAR ENGM 110920Z 36008KT 9999 BKN047 M05/M10 Q0995 NOSIG",
      "taf": "TAF ENGM 110500Z 1106/1206 01005KT 9999 BKN025"
    },
    {
      "icao": "ENHD",
      "alert": "OK",
      "vis_m": 9999,
      "fzfg": false,
      "metar_trigger": false,
      "taf_trigger": false,
      "metar": "METAR ENHD 110920Z 09006KT CAVOK M02/M09 Q0994",
      "taf": "TAF ENHD 110800Z 1109/1118 09008KT CAVOK"
    },
    {
      "icao": "ENTC",
      "alert": "OK",
      "vis_m": 9999,
      "fzfg": false,
      "metar_trigger": false,
      "taf_trigger": false,
      "metar": "METAR ENTC 110920Z 21012KT 9999 SCT030 BKN040 M05/M10 Q0997 NOSIG RMK WIND 2600FT 17017KT",
      "taf": "TAF ENTC 110500Z 1106/1206 21009KT 9999 FEW020 SCT040"
    },
    {
      "icao": "ENTO",
      "alert": "OK",
      "vis_m": 9999,
      "fzfg": false,
      "metar_trigger": false,
      "taf_trigger": false,
      "metar": "METAR ENTO 110920Z 01005KT 9999 BKN012 OVC017 M05/M07 Q0995 TEMPO BKN018",
      "taf": ""
    },
    {
      "icao": "ENVA",
      "alert": "OK",
      "vis_m": 9999,
      "fzfg": false,
      "metar_trigger": false,
      "taf_trigger": false,
      "metar": "METAR ENVA 110920Z 11004KT 9999 SCT012 M10/M10 Q0997 NOSIG RMK WIND 670FT 09007KT",
      "taf": "TAF ENVA 110500Z 1106/1206 09005KT 9999 BKN040"
    },
    {
      "icao": "ENZV",
      "alert": "OK",
      "vis_m": 9999,
      "fzfg": false,
      "metar_trigger": false,
      "taf_trigger": false,
      "metar": "METAR ENZV 110920Z 10007KT CAVOK M00/M09 Q0994 NOSIG",
      "taf": "TAF ENZV 110500Z 1106/1206 09008KT 9999 BKN040"
    },
    {
      "icao": "EPGD",
      "alert": "OK",
      "vis_m": 1500,
      "fzfg": false,
      "metar_trigger": false,
      "taf_trigger": false,
      "metar": "METAR EPGD 110900Z 15006KT 1500 -SN BR BKN004 M02/M03 Q0989",
      "taf": "TAF EPGD 110530Z 1106/1206 14008KT 3000 -SN BR OVC002"
    },
    {
      "icao": "EPKK",
      "alert": "OK",
      "vis_m": 9999,
      "fzfg": false,
      "metar_trigger": false,
      "taf_trigger": false,
      "metar": "METAR EPKK 110900Z 04005KT 350V060 CAVOK 02/M01 Q0992",
      "taf": "TAF EPKK 110830Z 1109/1209 06004KT CAVOK"
    },
    {
      "icao": "EPKT",
      "alert": "OK",
      "vis_m": 9999,
      "fzfg": false,
      "metar_trigger": false,
      "taf_trigger": false,
      "metar": "METAR EPKT 110900Z 19007KT CAVOK 03/01 Q0991",
      "taf": "TAF EPKT 110530Z 1106/1206 20004KT CAVOK"
    },
    {
      "icao": "EPLB",
      "alert": "OK",
      "vis_m": 9999,
      "fzfg": false,
      "metar_trigger": false,
      "taf_trigger": false,
      "metar": "METAR EPLB 110900Z 20009KT CAVOK 02/M01 Q0995",
      "taf": "TAF EPLB 110530Z 1106/1206 17008KT CAVOK"
    },
    {
      "icao": "EPMO",
      "alert": "OK",
      "vis_m": 9999,
      "fzfg": false,
      "metar_trigger": false,
      "taf_trigger": false,
      "metar": "METAR EPMO 110900Z 15006KT 100V200 9999 FEW018 01/M00 Q0992",
      "taf": "TAF EPMO 110530Z 1106/1206 16006KT 4500 BR BKN025"
    },
    {
      "icao": "EPPO",
      "alert": "OK",
      "vis_m": 9999,
      "fzfg": false,
      "metar_trigger": false,
      "taf_trigger": false,
      "metar": "METAR EPPO 110900Z 16005KT 9999 BKN025 02/M00 Q0988",
      "taf": "TAF EPPO 110530Z 1106/1206 14006KT 8000 BKN040"
    },
    {
      "icao": "EPRA",
      "alert": "OK",
      "vis_m": 9999,
      "fzfg": false,
      "metar_trigger": false,
      "taf_trigger": false,
      "metar": "METAR EPRA 110900Z 17009KT CAVOK 02/M02 Q0993",
      "taf": "TAF EPRA 110830Z 1109/1118 16010KT CAVOK"
    },
    {
      "icao": "EPRZ",
      "alert": "OK",
      "vis_m": 9999,
      "fzfg": false,
      "metar_trigger": false,
      "taf_trigger": false,
      "metar": "METAR EPRZ 110900Z 17012KT 9999 BKN016 03/M00 Q0995",
      "taf": "TAF EPRZ 110530Z 1106/1206 18012KT CAVOK"
    },
    {
      "icao": "EPSC",
      "alert": "OK",
      "vis_m": 1700,
      "fzfg": false,
      "metar_trigger": false,
      "taf_trigger": false,
      "metar": "METAR EPSC 110900Z 13007KT 1700 -DZ BR OVC003 01/01 Q0987",
      "taf": ""
    },
    {
      "icao": "EPSY",
      "alert": "OK",
      "vis_m": 1600,
      "fzfg": false,
      "metar_trigger": false,
      "taf_trigger": false,
      "metar": "METAR EPSY 110900Z 15005KT 110V170 1600 BR OVC002 M00/M00 Q0991",
      "taf": "TAF EPSY 110830Z 1109/1118 16006KT 4000 BR BKN002 OVC005"
    },
    {
      "icao": "EPWA",
      "alert": "OK",
      "vis_m": 9999,
      "fzfg": false,
      "metar_trigger": false,
      "taf_trigger": false,
      "metar": "METAR EPWA 110900Z 16006KT 9999 FEW030 01/M01 Q0992 NOSIG",
      "taf": "TAF EPWA 110830Z 1109/1209 16008KT CAVOK"
    },
    {
      "icao": "EPWR",
      "alert": "OK",
      "vis_m": 9999,
      "fzfg": false,
      "metar_trigger": false,
      "taf_trigger": false,
      "metar": "METAR EPWR 110900Z 17007KT 9999 -RA SCT046 04/00 Q0989",
      "taf": "TAF EPWR 110830Z 1109/1209 17008KT CAVOK"
    },
    {
      "icao": "ESGG",
      "alert": "OK",
      "vis_m": 9000,
      "fzfg": false,
      "metar_trigger": false,
      "taf_trigger": false,
      "metar": "METAR ESGG 110920Z 02009KT 9000 BKN004 OVC039 M04/M05 Q0992",
      "taf": "TAF ESGG 110830Z 1109/1209 03008KT 7000 BKN003"
    },
    {
      "icao": "ESKN",
      "alert": "OK",
      "vis_m": 9999,
      "fzfg": false,
      "metar_trigger": false,
      "taf_trigger": false,
      "metar": "METAR ESKN 110920Z VRB02KT 9999 BKN004 M07/M08 Q0995",
      "taf": ""
    },
    {
      "icao": "ESMS",
      "alert": "OK",
      "vis_m": 6000,
      "fzfg": false,
      "metar_trigger": false,
      "taf_trigger": false,
      "metar": "METAR ESMS 110920Z 06007KT 6000 OVC005 01/01 Q0989",
      "taf": "TAF ESMS 110851Z 1109/1209 09012KT 3000 BR OVC004"
    },
    {
      "icao": "ESSA",
      "alert": "OK",
      "vis_m": 9999,
      "fzfg": false,
      "metar_trigger": false,
      "taf_trigger": false,
      "metar": "METAR ESSA 110920Z 34006KT 9999 OVC006 M05/M05 Q0995 TEMPO 5000 -SN BKN006",
      "taf": "TAF ESSA 110830Z 1109/1209 32005KT 9999 BKN005 OVC030"
    },
    {
      "icao": "EYKA",
      "alert": "OK",
      "vis_m": 4000,
      "fzfg": false,
      "metar_trigger": false,
      "taf_trigger": false,
      "metar": "METAR EYKA 110920Z VRB02KT 4000 BR OVC005 M05/M05 Q0994",
      "taf": "TAF EYKA 110516Z 1106/1206 VRB04KT 5000 BR OVC005"
    },
    {
      "icao": "EYPA",
      "alert": "OK",
      "vis_m": 7000,
      "fzfg": false,
      "metar_trigger": false,
      "taf_trigger": false,
      "metar": "METAR EYPA 110920Z 10006KT 7000 OVC008 M06/M08 Q0993",
      "taf": "TAF EYPA 110516Z 1106/1206 VRB05KT 6000 SCT010 OVC015"
    },
    {
      "icao": "EYVI",
      "alert": "OK",
      "vis_m": 4300,
      "fzfg": false,
      "metar_trigger": false,
      "taf_trigger": false,
      "metar": "METAR EYVI 110920Z 16009KT 4300 BR OVC003 M04/M05 Q0995 TEMPO 3000 BR OVC002",
      "taf": ""
    },
    {
      "icao": "GCFV",
      "alert": "OK",
      "vis_m": 9999,
      "fzfg": false,
      "metar_trigger": false,
      "taf_trigger": false,
      "metar": "METAR GCFV 110900Z 01010KT 9999 BKN012 19/16 Q1024",
      "taf": "TAF GCFV 110800Z 1109/1209 04013KT 9999 BKN016 TX24/1114Z TN17/1206Z"
    },
    {
      "icao": "GCLP",
      "alert": "OK",
      "vis_m": 9999,
      "fzfg": false,
      "metar_trigger": false,
      "taf_trigger": false,
      "metar": "METAR GCLP 110900Z 01014KT 9999 FEW017 18/16 Q1024 NOSIG",
      "taf": "TAF GCLP 110800Z 1109/1209 02018KT 9999 FEW018 TX24/1114Z TN17/1206Z"
    },
    {
      "icao": "GCTS",
      "alert": "OK",
      "vis_m": 9999,
      "fzfg": false,
      "metar_trigger": false,
      "taf_trigger": false,
      "metar": "METAR GCTS 110900Z 04003KT 360V090 9999 SCT015 18/15 Q1025 NOSIG",
      "taf": "TAF GCTS 110800Z 1109/1209 04005KT 9999 FEW020 TX25/1114Z TN17/1206Z"
    },
    {
      "icao": "GMAD",
      "alert": "OK",
      "vis_m": 400,
      "fzfg": false,
      "metar_trigger": false,
      "taf_trigger": false,
      "metar": "METAR GMAD 110900Z 09003KT 030V140 0400 R27/0450N FG BKN001 12/12 Q1022 BECMG 3000 BR OVC002",
      "taf": "TAF GMAD 110500Z 1106/1212 06005KT 0200 FG OVC002"
    },
    {
      "icao": "GMMN",
      "alert": "OK",
      "vis_m": 400,
      "fzfg": false,
      "metar_trigger": false,
      "taf_trigger": false,
      "metar": "METAR GMMN 110900Z 14003KT 100V190 0400 R35L/1000V1400U FG BKN001 14/14 Q1024 TEMPO 2000 BR BKN004",
      "taf": "TAF GMMN 110500Z 1106/1212 34005KT 0400 FG BKN002"
    },
    {
      "icao": "GMMX",
      "alert": "OK",
      "vis_m": 9999,
      "fzfg": false,
      "metar_trigger": false,
      "taf_trigger": false,
      "metar": "METAR GMMX 110900Z 08003KT 040V110 CAVOK 16/13 Q1024 NOSIG",
      "taf": "TAF GMMX 110500Z 1106/1212 24008KT 8000 SCT030"
    },
    {
      "icao": "HEGN",
      "alert": "OK",
      "vis_m": 9999,
      "fzfg": false,
      "metar_trigger": false,
      "taf_trigger": false,
      "metar": "METAR HEGN 110900Z 35011KT CAVOK 24/10 Q1016 NOSIG",
      "taf": "TAF HEGN 110500Z 1106/1212 31012KT 6000 SCT025"
    },
    {
      "icao": "HEMA",
      "alert": "OK",
      "vis_m": 9999,
      "fzfg": false,
      "metar_trigger": false,
      "taf_trigger": false,
      "metar": "METAR HEMA 110900Z 01013KT CAVOK 27/09 Q1016 NOSIG",
      "taf": "TAF HEMA 110500Z 1106/1212 36008KT 6000 SCT025"
    },
    {
      "icao": "HESH",
      "alert": "OK",
      "vis_m": 9999,
      "fzfg": false,
      "metar_trigger": false,
      "taf_trigger": false,
      "metar": "METAR HESH 110900Z 15006KT CAVOK 26/19 Q1016 NOSIG",
      "taf": "TAF HESH 110500Z 1106/1212 33006KT 6000 SCT025"
    },
    {
      "icao": "HESX",
      "alert": "OK",
      "vis_m": 9999,
      "fzfg": false,
      "metar_trigger": false,
      "taf_trigger": false,
      "metar": "METAR HESX 110900Z 04012KT CAVOK 19/07 Q1017 NOSIG",
      "taf": "TAF HESX 110500Z 1106/1212 22012G22KT 6000 NSC"
    },
    {
      "icao": "LATI",
      "alert": "OK",
      "vis_m": 9999,
      "fzfg": false,
      "metar_trigger": false,
      "taf_trigger": false,
      "metar": "METAR LATI 110920Z 14010KT 9999 FEW035 SCT049 BKN072 14/06 Q1004 NOSIG",
      "taf": "TAF LATI 110500Z 1106/1206 VRB05KT 9999 SCT030 BKN070 TX15/1112Z TN07/1205Z"
    },
    {
      "icao": "LBPD",
      "alert": "OK",
      "vis_m": 9999,
      "fzfg": false,
      "metar_trigger": false,
      "taf_trigger": false,
      "metar": "METAR LBPD 110930Z AUTO VRB02KT 9999 OVC013/// 03/01 Q1009 NOSIG",
      "taf": "TAF LBPD 110500Z 1106/1206 VRB04KT 9999 BKN020"
    },
    {
      "icao": "LBSF",
      "alert": "OK",
      "vis_m": 9999,
      "fzfg": false,
      "metar_trigger": false,
      "taf_trigger": false,
      "metar": "METAR LBSF 110930Z 11009KT 9999 SCT040 SCT051 06/00 Q1005 NOSIG",
      "taf": "TAF LBSF 110500Z 1106/1206 11012KT 9999 SCT030 BKN050"
    },
    {
      "icao": "LBWN",
      "alert": "OK",
      "vis_m": 9999,
      "fzfg": false,
      "metar_trigger": false,
      "taf_trigger": false,
      "metar": "METAR LBWN 110930Z 18009KT 9999 BKN021 07/02 Q1007 NOSIG",
      "taf": "TAF LBWN 110500Z 1106/1206 VRB03KT 9999 BKN025"
    },
    {
      "icao": "LCLK",
      "alert": "OK",
      "vis_m": 9999,
      "fzfg": false,
      "metar_trigger": false,
      "taf_trigger": false,
      "metar": "METAR LCLK 110900Z 21020KT 9999 FEW030 FEW035CB SCT040 19/14 Q1011 NOSIG RMK CB TO E AND SE",
      "taf": "TAF LCLK 110530Z 1106/1206 24008KT 9999 FEW025"
    },
    {
      "icao": "LCPH",
      "alert": "OK",
      "vis_m": 9999,
      "fzfg": false,
      "metar_trigger": false,
      "taf_trigger": false,
      "metar": "METAR LCPH 110900Z 27011KT 250V320 9999 FEW020 FEW025TCU SCT035 19/12 Q1012 NOSIG",
      "taf": "TAF LCPH 110530Z 1106/1206 28015KT 9999 FEW020 SCT045"
    },
    {
      "icao": "LEAL",
      "alert": "OK",
      "vis_m": 9999,
      "fzfg": false,
      "metar_trigger": false,
      "taf_trigger": false,
      "metar": "METAR LEAL 110900Z 15003KT CAVOK 21/12 Q1013 NOSIG",
      "taf": "TAF LEAL 110500Z 1106/1206 24015KT 9999 FEW030 TX24/1112Z TN15/1106Z"
    },
    {
      "icao": "LEBB",
      "alert": "OK",
      "vis_m": 9999,
      "fzfg": false,
      "metar_trigger": false,
      "taf_trigger": false,
      "metar": "METAR LEBB 110900Z VRB05KT CAVOK 14/09 Q1006 NOSIG",
      "taf": "TAF LEBB 110500Z 1106/1206 20009KT 9999 FEW040 TX19/1118Z TN10/1205Z"
    },
    {
      "icao": "LEBL",
      "alert": "OK",
      "vis_m": 9999,
      "fzfg": false,
      "metar_trigger": false,
      "taf_trigger": false,
      "metar": "METAR LEBL 110900Z 24015KT CAVOK 17/08 Q1006 NOSIG",
      "taf": ""
    },
    {
      "icao": "LECH",
      "alert": "OK",
      "vis_m": 9999,
      "fzfg": false,
      "metar_trigger": false,
      "taf_trigger": false,
      "metar": "METAR LECH 110900Z AUTO 28018G29KT 240V320 CAVOK 19/02 Q1009",
      "taf": ""
    },
    {
      "icao": "LEMD",
      "alert": "OK",
      "vis_m": 9999,
      "fzfg": false,
      "metar_trigger": false,
      "taf_trigger": false,
      "metar": "METAR LEMD 110900Z 16005KT 130V200 9999 BKN014 BKN080 11/11 Q1014 NOSIG",
      "taf": "TAF LEMD 110500Z 1106/1212 24010KT 9999 FEW015 TX15/1114Z TN07/1207Z"
    },
    {
      "icao": "LEMG",
      "alert": "OK",
      "vis_m": 9999,
      "fzfg": false,
      "metar_trigger": false,
      "taf_trigger": false,
      "metar": "METAR LEMG 110900Z 29003KT 260V340 9999 FEW012 18/15 Q1019 NOSIG",
      "taf": "TAF LEMG 110500Z 1106/1206 VRB02KT 9999 SCT040 TX22/1114Z TN16/1107Z"
    },
    {
      "icao": "LEVC",
      "alert": "OK",
      "vis_m": 9999,
      "fzfg": false,
      "metar_trigger": false,
      "taf_trigger": false,
      "metar": "METAR LEVC 110900Z 29024G36KT CAVOK 19/08 Q1011 NOSIG",
      "taf": ""
    },
    {
      "icao": "LEXJ",
      "alert": "OK",
      "vis_m": 9999,
      "fzfg": false,
      "metar_trigger": false,
      "taf_trigger": false,
      "metar": "METAR LEXJ 110900Z 17003KT 9999 FEW085 15/07 Q1004",
      "taf": ""
    },
    {
      "icao": "LEZG",
      "alert": "OK",
      "vis_m": 9999,
      "fzfg": false,
      "metar_trigger": false,
      "taf_trigger": false,
      "metar": "METAR LEZG 110900Z 24017KT 9999 FEW050 16/07 Q1010 NOSIG",
      "taf": "TAF LEZG 110500Z 1106/1206 25015KT 9999 FEW050 TX19/1112Z TN13/1106Z"
    },
    {
      "icao": "LEZL",
      "alert": "OK",
      "vis_m": 2500,
      "fzfg": false,
      "metar_trigger": false,
      "taf_trigger": false,
      "metar": "SPECI LEZL 110917Z 22015KT 2500 BR OVC004 16/16 Q1020 NOSIG",
      "taf": "TAF LEZL 110800Z 1109/1209 24010KT 9999 BKN030 TX19/1115Z TN13/1207Z"
    },
    {
      "icao": "LFBD",
      "alert": "OK",
      "vis_m": 8000,
      "fzfg": false,
      "metar_trigger": false,
      "taf_trigger": false,
      "metar": "METAR LFBD 110900Z AUTO 25009KT 8000 -RA SCT020 BKN025 BKN031 13/11 Q1004 TEMPO 26015G25KT 2500 SHRA BKN013 BKN020TCU SCT025CB",
      "taf": "TAF LFBD 110500Z 1106/1212 27010G20KT 9999 SCT020 BKN025 TX14/1121Z TN10/1205Z"
    },
    {
      "icao": "LFLL",
      "alert": "OK",
      "vis_m": 9999,
      "fzfg": false,
      "metar_trigger": false,
      "taf_trigger": false,
      "metar": "METAR LFLL 110900Z 18007KT 9999 -RA FEW030TCU SCT035 BKN053 10/08 Q0998 TEMPO 4000 RA",
      "taf": "TAF LFLL 110500Z 1106/1212 20010KT CAVOK"
    },
    {
      "icao": "LFLS",
      "alert": "OK",
      "vis_m": 9999,
      "fzfg": false,
      "metar_trigger": false,
      "taf_trigger": false,
      "metar": "METAR LFLS 110900Z AUTO 32004KT 210V010 9999 -RA BKN041/// OVC047/// ///TCU 10/07 Q0999 TEMPO 23015G25KT 3000 SHRA",
      "taf": "TAF LFLS 110800Z 1109/1209 20010KT 9999 BKN040"
    },
    {
      "icao": "LFMN",
      "alert": "OK",
      "vis_m": 9999,
      "fzfg": false,
      "metar_trigger": false,
      "taf_trigger": false,
      "metar": "METAR LFMN 110900Z 05004KT 280V080 9999 FEW026 13/09 Q0995 NOSIG",
      "taf": ""
    },
    {
      "icao": "LFOB",
      "alert": "OK",
      "vis_m": 9999,
      "fzfg": false,
      "metar_trigger": false,
      "taf_trigger": false,
      "metar": "METAR LFOB 110900Z AUTO 24011KT 9999 SCT013 BKN018 BKN024 11/10 Q0988 TEMPO 24020G30KT 3000 RA BKN007 BKN013TCU",
      "taf": "TAF LFOB 110500Z 1106/1206 24012KT 9999 BKN015"
    },
    {
      "icao": "LFPO",
      "alert": "OK",
      "vis_m": 9999,
      "fzfg": false,
      "metar_trigger": false,
      "taf_trigger": false,
      "metar": "METAR LFPO 110900Z 24015KT 9999 BKN016 BKN070 11/09 Q0991 TEMPO BKN012",
      "taf": "TAF LFPO 110500Z 1106/1212 24015KT 9999 BKN025"
    },
    {
      "icao": "LFSB",
      "alert": "OK",
      "vis_m": 9999,
      "fzfg": false,
      "metar_trigger": false,
      "taf_trigger": false,
      "metar": "METAR LFSB 110900Z AUTO 24013KT 210V270 9999 -RA SCT029/// SCT045/// BKN054/// ///CB 11/08 Q0992 TEMPO 24015G25KT 4000 -SHRA",
      "taf": "TAF LFSB 110500Z 1106/1206 22010KT 9999 SCT030 BKN050"
    },
    {
      "icao": "LGAV",
      "alert": "OK",
      "vis_m": 9999,
      "fzfg": false,
      "metar_trigger": false,
      "taf_trigger": false,
      "metar": "METAR LGAV 110920Z 14004KT 070V160 9999 SCT020 BKN050 14/08 Q1010 NOSIG",
      "taf": "TAF LGAV 110500Z 1106/1206 VRB03KT 9999 FEW025 BKN070"
    },
    {
      "icao": "LGTS",
      "alert": "OK",
      "vis_m": 9999,
      "fzfg": false,
      "metar_trigger": false,
      "taf_trigger": false,
      "metar": "METAR LGTS 110920Z 28006KT 9999 SCT020 BKN035 11/08 Q1008 NOSIG",
      "taf": "TAF LGTS 110500Z 1106/1206 VRB03KT 9999 FEW010 SCT025"
    },
    {
      "icao": "LHBP",
      "alert": "OK",
      "vis_m": 4200,
      "fzfg": false,
      "metar_trigger": false,
      "taf_trigger": false,
      "metar": "METAR LHBP 110900Z 11009KT 4200 BR OVC005 02/01 Q0997 BECMG 5000 BR TEMPO OVC004",
      "taf": "TAF LHBP 110515Z 1106/1206 12008KT 9999 BKN015"
    },
    {
      "icao": "LHDC",
      "alert": "OK",
      "vis_m": 9999,
      "fzfg": false,
      "metar_trigger": false,
      "taf_trigger": false,
      "metar": "METAR LHDC 110845Z AUTO 15007KT 9999 OVC022 05/03 Q1000 NOSIG",
      "taf": "TAF LHDC 110815Z 1109/1118 16009KT 9999 BKN040 BKN060"
    },
    {
      "icao": "LIBD",
      "alert": "OK",
      "vis_m": 9999,
      "fzfg": false,
      "metar_trigger": false,
      "taf_trigger": false,
      "metar": "METAR LIBD 110920Z 18005KT CAVOK 13/08 Q1000",
      "taf": "TAF LIBD 110500Z 1106/1206 22013KT 9999 FEW040"
    },
    {
      "icao": "LIBG",
      "alert": "OK",
      "vis_m": 9999,
      "fzfg": false,
      "metar_trigger": false,
      "taf_trigger": false,
      "metar": "METAR LIBG 110850Z 15006KT 9999 FEW020 14/11 Q1002",
      "taf": "TAF LIBG 110800Z 1109/1118 VRB05KT 9999 SCT030"
    },
    {
      "icao": "LIBP",
      "alert": "OK",
      "vis_m": 9999,
      "fzfg": false,
      "metar_trigger": false,
      "taf_trigger": false,
      "metar": "METAR LIBP 110920Z AUTO 34006KT 9999 OVC093/// 14/06 Q0997",
      "taf": "TAF LIBP 110500Z 1106/1206 21013KT 6000 BKN060"
    },
    {
      "icao": "LIBR",
      "alert": "OK",
      "vis_m": 9999,
      "fzfg": false,
      "metar_trigger": false,
      "taf_trigger": false,
      "metar": "METAR LIBR 110920Z 18012KT CAVOK 14/09 Q1002",
      "taf": "TAF LIBR 110500Z 1106/1206 22012KT 9999 FEW040"
    },
    {
      "icao": "LICA",
      "alert": "OK",
      "vis_m": 5000,
      "fzfg": false,
      "metar_trigger": false,
      "taf_trigger": false,
      "metar": "METAR LICA 110920Z AUTO 05009KT 5000 -RA BR OVC021/// 11/11 Q1003",
      "taf": "TAF LICA 110500Z 1106/1206 VRB05KT 9999 BKN020"
    },
    {
      "icao": "LICC",
      "alert": "OK",
      "vis_m": 9999,
      "fzfg": false,
      "metar_trigger": false,
      "taf_trigger": false,
      "metar": "METAR LICC 110920Z 26013KT 9999 SCT020 BKN040 16/13 Q1003",
      "taf": "TAF LICC 110500Z 1106/1206 26013KT 9999 SCT030"
    },
    {
      "icao": "LICJ",
      "alert": "OK",
      "vis_m": 9999,
      "fzfg": false,
      "metar_trigger": false,
      "taf_trigger": false,
      "metar": "METAR LICJ 110920Z 25022KT 9999 -RA BKN020 16/14 Q1003",
      "taf": "TAF LICJ 110500Z 1106/1206 21015KT 9999 SCT020"
    },
    {
      "icao": "LIMC",
      "alert": "OK",
      "vis_m": 9999,
      "fzfg": false,
      "metar_trigger": false,
      "taf_trigger": false,
      "metar": "METAR LIMC 110920Z 34003KT 310V020 9999 BKN040 08/06 Q0997 NOSIG",
      "taf": "TAF LIMC 110500Z 1106/1212 VRB04KT 3000 -RA BR SCT015"
    },
    {
      "icao": "LIME",
      "alert": "OK",
      "vis_m": 9999,
      "fzfg": false,
      "metar_trigger": false,
      "taf_trigger": false,
      "metar": "METAR LIME 110920Z VRB01KT 9999 SCT025 SCT040 09/06 Q0996 NOSIG",
      "taf": "TAF LIME 110500Z 1106/1206 VRB04KT 2000 -RA BR BKN007"
    },
    {
      "icao": "LIMF",
      "alert": "OK",
      "vis_m": 9999,
      "fzfg": false,
      "metar_trigger": false,
      "taf_trigger": false,
      "metar": "METAR LIMF 110920Z VRB02KT 9999 BKN050 08/04 Q0997",
      "taf": "TAF LIMF 110500Z 1106/1206 VRB03KT 8000 BKN035"
    },
    {
      "icao": "LIMJ",
      "alert": "OK",
      "vis_m": 9999,
      "fzfg": false,
      "metar_trigger": false,
      "taf_trigger": false,
      "metar": "METAR LIMJ 110920Z 03011KT 9999 SCT040 12/07 Q0995",
      "taf": "TAF LIMJ 110500Z 1106/1206 VRB05KT 8000 BKN020"
    },
    {
      "icao": "LIPE",
      "alert": "OK",
      "vis_m": 2000,
      "fzfg": false,
      "metar_trigger": false,
      "taf_trigger": false,
      "metar": "METAR LIPE 110920Z 26009KT 2000 BR BKN003 09/09 Q0996",
      "taf": ""
    },
    {
      "icao": "LIPH",
      "alert": "OK",
      "vis_m": 3000,
      "fzfg": false,
      "metar_trigger": false,
      "taf_trigger": false,
      "metar": "METAR LIPH 110920Z 04006KT 360V060 3000 BR SCT003 BKN004 09/09 Q0996",
      "taf": ""
    },
    {
      "icao": "LIPQ",
      "alert": "OK",
      "vis_m": 3800,
      "fzfg": false,
      "metar_trigger": false,
      "taf_trigger": false,
      "metar": "METAR LIPQ 110920Z AUTO 03003KT 3800 RA OVC011/// 09/09 Q0997",
      "taf": "TAF LIPQ 110500Z 1106/1206 VRB05KT 6000 SCT020 BKN040"
    },
    {
      "icao": "LIPR",
      "alert": "OK",
      "vis_m": 9999,
      "fzfg": false,
      "metar_trigger": false,
      "taf_trigger": false,
      "metar": "METAR LIPR 110920Z 19008KT 9999 SCT020 BKN070 12/08 Q0996 RERA",
      "taf": "TAF LIPR 110500Z 1106/1206 16010KT 9999 BKN030"
    },
    {
      "icao": "LIPX",
      "alert": "OK",
      "vis_m": 9999,
      "fzfg": false,
      "metar_trigger": false,
      "taf_trigger": false,
      "metar": "METAR LIPX 110920Z 29003KT 9999 FEW002 SCT015 BKN030 10/08 Q0996",
      "taf": "TAF LIPX 110500Z 1106/1206 VRB05KT 2000 -RA BR BKN035"
    },
    {
      "icao": "LIPY",
      "alert": "OK",
      "vis_m": 9999,
      "fzfg": false,
      "metar_trigger": false,
      "taf_trigger": false,
      "metar": "METAR LIPY 110920Z AUTO 19004KT 140V260 9999 BKN048/// BKN094/// 14/07 Q0996",
      "taf": "TAF LIPY 110500Z 1106/1206 13008KT 9999 SCT050"
    },
    {
      "icao": "LIPZ",
      "alert": "OK",
      "vis_m": 7000,
      "fzfg": false,
      "metar_trigger": false,
      "taf_trigger": false,
      "metar": "METAR LIPZ 110920Z 05008KT 7000 R04R/1400U BKN003 09/09 Q0996 NOSIG",
      "taf": "TAF LIPZ 110500Z 1106/1212 VRB05KT 4000 RA BKN015"
    },
    {
      "icao": "LIRF",
      "alert": "OK",
      "vis_m": 9999,
      "fzfg": false,
      "metar_trigger": false,
      "taf_trigger": false,
      "metar": "METAR LIRF 110920Z 12008KT 9999 VCSH SCT009 BKN030 12/11 Q0998 TEMPO 4000 SHRA",
      "taf": "TAF LIRF 110500Z 1106/1212 16012KT 9999 SCT020"
    },
    {
      "icao": "LIRN",
      "alert": "OK",
      "vis_m": 9999,
      "fzfg": false,
      "metar_trigger": false,
      "taf_trigger": false,
      "metar": "METAR LIRN 110920Z 02003KT 9999 -RA BKN040 12/11 Q0999 NOSIG",
      "taf": "TAF LIRN 110500Z 1106/1206 19007KT 9999 SCT015"
    },
    {
      "icao": "LIRP",
      "alert": "OK",
      "vis_m": 9999,
      "fzfg": false,
      "metar_trigger": false,
      "taf_trigger": false,
      "metar": "METAR LIRP 110915Z 24012KT 9999 FEW015 SCT025 BKN050 14/12 Q0995 NOSIG",
      "taf": "TAF LIRP 110500Z 1106/1206 09005KT 7000 -RA BKN020"
    },
    {
      "icao": "LIRZ",
      "alert": "OK",
      "vis_m": 9999,
      "fzfg": false,
      "metar_trigger": false,
      "taf_trigger": false,
      "metar": "METAR LIRZ 110920Z AUTO VRB02KT 9999 -RA BKN021/// 10/09 Q0998",
      "taf": "TAF LIRZ 110500Z 1106/1206 19008KT 4000 RA SCT020 BKN030"
    },
    {
      "icao": "LJLJ",
      "alert": "OK",
      "vis_m": 9999,
      "fzfg": false,
      "metar_trigger": false,
      "taf_trigger": false,
      "metar": "METAR LJLJ 110900Z VRB02KT 9999 FEW003 SCT035 BKN043 06/06 Q0996 NOSIG",
      "taf": "TAF LJLJ 110500Z 1106/1206 20003KT 9999 FEW003 OVC030"
    },
    {
      "icao": "LKMT",
      "alert": "OK",
      "vis_m": 9999,
      "fzfg": false,
      "metar_trigger": false,
      "taf_trigger": false,
      "metar": "METAR LKMT 110900Z 21016KT 9999 BKN021 06/02 Q0992 TEMPO BKN018",
      "taf": "TAF LKMT 110500Z 1106/1206 22012KT 9999 BKN025"
    },
    {
      "icao": "LKPR",
      "alert": "OK",
      "vis_m": 9999,
      "fzfg": false,
      "metar_trigger": false,
      "taf_trigger": false,
      "metar": "METAR LKPR 110900Z 13007KT 9999 -RA FEW011 SCT030 03/01 Q0989 NOSIG",
      "taf": "TAF LKPR 110800Z 1109/1215 16008KT 6000 -RA SCT010 BKN035"
    },
    {
      "icao": "LLBG",
      "alert": "OK",
      "vis_m": 9999,
      "fzfg": false,
      "metar_trigger": false,
      "taf_trigger": false,
      "metar": "METAR LLBG 110920Z 24013KT 9999 SCT032 20/10 Q1015 NOSIG",
      "taf": "TAF LLBG 110506Z 1106/1206 VRB04KT 9999 SCT030"
    },
    {
      "icao": "LMML",
      "alert": "OK",
      "vis_m": 9999,
      "fzfg": false,
      "metar_trigger": false,
      "taf_trigger": false,
      "metar": "METAR LMML 110915Z 23016KT 200V260 CAVOK 18/14 Q1007 NOSIG",
      "taf": "TAF LMML 110500Z 1106/1206 26010KT 9999 SCT018 SCT045"
    },
    {
      "icao": "LOWW",
      "alert": "OK",
      "vis_m": 8000,
      "fzfg": false,
      "metar_trigger": false,
      "taf_trigger": false,
      "metar": "METAR LOWW 110920Z 11008KT 8000 SCT006 BKN011 04/03 Q0993 BECMG BKN020",
      "taf": "TAF LOWW 110815Z 1109/1215 13011KT 8000 OVC006 TX08/1114Z TN04/1203Z"
    },
    {
      "icao": "LPFR",
      "alert": "OK",
      "vis_m": 1500,
      "fzfg": false,
      "metar_trigger": false,
      "taf_trigger": false,
      "metar": "METAR LPFR 110900Z 26010KT 1500 -DZ BR OVC002 15/15 Q1021",
      "taf": "TAF LPFR 110500Z 1106/1206 25012KT 8000 SCT004 BKN008"
    },
    {
      "icao": "LPMA",
      "alert": "OK",
      "vis_m": 9999,
      "fzfg": false,
      "metar_trigger": false,
      "taf_trigger": false,
      "metar": "METAR LPMA 110900Z 34003KT 310V040 9999 FEW015 BKN030 17/12 Q1025",
      "taf": "TAF LPMA 110500Z 1106/1206 VRB05KT 9999 SCT015"
    },
    {
      "icao": "LPPR",
      "alert": "OK",
      "vis_m": 1200,
      "fzfg": false,
      "metar_trigger": false,
      "taf_trigger": false,
      "metar": "METAR LPPR 110900Z 21012KT 1200 R17/1600U -RADZ BR BKN002 BKN005 15/14 Q1011",
      "taf": "TAF LPPR 110500Z 1106/1206 19010KT 6000 SCT004 BKN008"
    },
    {
      "icao": "LPPS",
      "alert": "OK",
      "vis_m": 9999,
      "fzfg": false,
      "metar_trigger": false,
      "taf_trigger": false,
      "metar": "METAR LPPS 110900Z 26006KT 220V290 9999 FEW015 BKN030 17/12 Q1025",
      "taf": "TAF LPPS 110500Z 1106/1212 27007KT 9999 FEW015 SCT030"
    },
    {
      "icao": "LPPT",
      "alert": "OK",
      "vis_m": 1200,
      "fzfg": false,
      "metar_trigger": false,
      "taf_trigger": false,
      "metar": "METAR LPPT 110900Z 23019G29KT 1200 R20/1800N -DZ BR FEW001 BKN002 15/15 Q1017",
      "taf": ""
    },
    {
      "icao": "LQBK",
      "alert": "OK",
      "vis_m": 1500,
      "fzfg": false,
      "metar_trigger": false,
      "taf_trigger": false,
      "metar": "METAR LQBK 110900Z VRB02KT 1500 BR BKN002 05/05 Q0997 NOSIG",
      "taf": ""
    },
    {
      "icao": "LQSA",
      "alert": "OK",
      "vis_m": 9999,
      "fzfg": false,
      "metar_trigger": false,
      "taf_trigger": false,
      "metar": "METAR LQSA 110900Z 31004KT 280V350 9999 BKN050 07/05 Q0999 NOSIG",
      "taf": "TAF LQSA 110500Z 1106/1206 11006KT 9999 SCT050 TX13/1113Z TN02/1106Z"
    },
    {
      "icao": "LQTZ",
      "alert": "OK",
      "vis_m": 9999,
      "fzfg": false,
      "metar_trigger": false,
      "taf_trigger": false,
      "metar": "METAR LQTZ 110900Z 12006KT 090V150 CAVOK 12/06 Q0998",
      "taf": "TAF LQTZ 110500Z 1106/1206 VRB03KT 7000 SCT045 TX12/1113Z TN02/1106Z"
    },
    {
      "icao": "LRBC",
      "alert": "OK",
      "vis_m": 9999,
      "fzfg": false,
      "metar_trigger": false,
      "taf_trigger": false,
      "metar": "METAR LRBC 110900Z 16012KT 9999 OVC005 00/M01 Q1003",
      "taf": "TAF LRBC 110800Z 1109/1118 17010KT 9999 OVC005"
    },
    {
      "icao": "LRBS",
      "alert": "OK",
      "vis_m": 6000,
      "fzfg": false,
      "metar_trigger": false,
      "taf_trigger": false,
      "metar": "METAR LRBS 110900Z 26005KT 6000 OVC006 01/00 Q1007 BECMG BKN010",
      "taf": "TAF LRBS 110500Z 1106/1206 VRB04KT 3000 BR BKN005 OVC020"
    },
    {
      "icao": "LRBV",
      "alert": "OK",
      "vis_m": 9999,
      "fzfg": false,
      "metar_trigger": false,
      "taf_trigger": false,
      "metar": "METAR LRBV 110900Z 10008KT 070V130 9999 FEW070 03/M02 Q1001",
      "taf": "TAF LRBV 110800Z 1109/1118 11007KT 9999 SCT070"
    },
    {
      "icao": "LRCL",
      "alert": "OK",
      "vis_m": 9999,
      "fzfg": false,
      "metar_trigger": false,
      "taf_trigger": false,
      "metar": "METAR LRCL 110900Z 10008KT 9999 FEW065 04/M01 Q1001",
      "taf": "TAF LRCL 110800Z 1109/1118 10008KT 9999 BKN060"
    },
    {
      "icao": "LRCV",
      "alert": "OK",
      "vis_m": 8000,
      "fzfg": false,
      "metar_trigger": false,
      "taf_trigger": false,
      "metar": "METAR LRCV 110900Z VRB02KT 8000 BKN007 BKN036 01/M02 Q1007",
      "taf": "TAF LRCV 110800Z 1109/1118 VRB04KT 9999 BKN035"
    },
    {
      "icao": "LRIA",
      "alert": "OK",
      "vis_m": 9999,
      "fzfg": false,
      "metar_trigger": false,
      "taf_trigger": false,
      "metar": "METAR LRIA 110900Z 15009KT 9999 SCT016 03/M02 Q1004",
      "taf": "TAF LRIA 110800Z 1109/1118 16010KT 9999 BKN015"
    },
    {
      "icao": "LROP",
      "alert": "OK",
      "vis_m": 6000,
      "fzfg": false,
      "metar_trigger": false,
      "taf_trigger": false,
      "metar": "METAR LROP 110900Z 26007KT 6000 OVC006 02/01 Q1007 BECMG BKN010",
      "taf": "TAF LROP 110500Z 1106/1206 VRB04KT 3000 BR BKN005 OVC020"
    },
    {
      "icao": "LRSB",
      "alert": "OK",
      "vis_m": 9999,
      "fzfg": false,
      "metar_trigger": false,
      "taf_trigger": false,
      "metar": "METAR LRSB 110900Z VRB01KT 9999 FEW065 SCT087 06/M00 Q1001",
      "taf": "TAF LRSB 110500Z 1106/1206 VRB04KT 9999 SCT060"
    },
    {
      "icao": "LRSM",
      "alert": "OK",
      "vis_m": 9999,
      "fzfg": false,
      "metar_trigger": false,
      "taf_trigger": false,
      "metar": "METAR LRSM 110900Z 14008KT 9999 OVC027 04/01 Q1001",
      "taf": "TAF LRSM 110800Z 1109/1118 14008KT 9999 BKN030"
    },
    {
      "icao": "LRSV",
      "alert": "OK",
      "vis_m": 9999,
      "fzfg": false,
      "metar_trigger": false,
      "taf_trigger": false,
      "metar": "METAR LRSV 110900Z 18009KT CAVOK M00/M02 Q1000",
      "taf": "TAF LRSV 110800Z 1109/1118 20008KT CAVOK"
    },
    {
      "icao": "LRTM",
      "alert": "OK",
      "vis_m": 9999,
      "fzfg": false,
      "metar_trigger": false,
      "taf_trigger": false,
      "metar": "METAR LRTM 110900Z 13005KT 090V160 9999 FEW035 SCT048 04/M02 Q1002",
      "taf": "TAF LRTM 110800Z 1109/1118 VRB04KT 9999 BKN035"
    },
    {
      "icao": "LRTR",
      "alert": "OK",
      "vis_m": 9999,
      "fzfg": false,
      "metar_trigger": false,
      "taf_trigger": false,
      "metar": "METAR LRTR 110900Z 13008KT CAVOK 06/03 Q1001 NOSIG",
      "taf": "TAF LRTR 110500Z 1106/1206 10007KT 9999 BKN045"
    },
    {
      "icao": "LTAC",
      "alert": "OK",
      "vis_m": 9999,
      "fzfg": false,
      "metar_trigger": false,
      "taf_trigger": false,
      "metar": "METAR LTAC 110920Z 21003KT 9999 SCT019 BKN025 BKN100 05/02 Q1009 NOSIG RMK RWY21C 16003KT 130V190 RWY03L VRB02KT RWY21R 16003KT 130V190 RWY03R 00000KT RWY21L VRB02KT",
      "taf": "TAF LTAC 110440Z 1106/1206 VRB02KT 9999 SCT025 BKN080"
    },
    {
      "icao": "LTFM",
      "alert": "OK",
      "vis_m": 9999,
      "fzfg": false,
      "metar_trigger": false,
      "taf_trigger": false,
      "metar": "METAR LTFM 110920Z 21006KT 170V230 9999 BKN022 08/03 Q1010 NOSIG RMK RWY17L 18005KT 140V200 RWY34L 17006KT 150V210 RWY16R 18006KT 150V220 RWY36 17007KT 120V200 RWY18 17006KT",
      "taf": "TAF LTFM 110440Z 1106/1212 VRB02KT 9999 BKN022"
    },
    {
      "icao": "LUKK",
      "alert": "OK",
      "vis_m": 9999,
      "fzfg": false,
      "metar_trigger": false,
      "taf_trigger": false,
      "metar": "METAR LUKK 110900Z 17010KT 9999 OVC029 01/M01 Q1006 NOSIG",
      "taf": "TAF LUKK 110518Z 1106/1206 16012KT 9999 BKN020"
    },
    {
      "icao": "LWOH",
      "alert": "OK",
      "vis_m": 9999,
      "fzfg": false,
      "metar_trigger": false,
      "taf_trigger": false,
      "metar": "METAR LWOH 110850Z 18007KT 140V200 9999 FEW014 SCT039 08/05 Q1005",
      "taf": "TAF LWOH 110830Z 1109/1209 16010KT 9999 FEW015 BKN040"
    },
    {
      "icao": "LWSK",
      "alert": "OK",
      "vis_m": 9999,
      "fzfg": false,
      "metar_trigger": false,
      "taf_trigger": false,
      "metar": "METAR LWSK 110920Z 14006KT 120V190 9999 SCT010 BKN017 08/05 Q1006 NOSIG",
      "taf": "TAF LWSK 110830Z 1109/1209 14008KT 9999 SCT010 BKN020"
    },
    {
      "icao": "LYBE",
      "alert": "OK",
      "vis_m": 9999,
      "fzfg": false,
      "metar_trigger": false,
      "taf_trigger": false,
      "metar": "METAR LYBE 110900Z 13008KT CAVOK 09/04 Q1000 NOSIG",
      "taf": "TAF LYBE 110500Z 1106/1206 13007KT CAVOK TX14/1113Z TN01/1106Z"
    },
    {
      "icao": "LYNI",
      "alert": "OK",
      "vis_m": 9999,
      "fzfg": false,
      "metar_trigger": false,
      "taf_trigger": false,
      "metar": "METAR LYNI 110900Z 11005KT 070V170 9999 BKN040 08/04 Q1004 NOSIG",
      "taf": "TAF LYNI 110500Z 1106/1206 10008KT 9999 SCT040 BKN080 TX12/1113Z TN03/1106Z"
    },
    {
      "icao": "LYPG",
      "alert": "OK",
      "vis_m": 9999,
      "fzfg": false,
      "metar_trigger": false,
      "taf_trigger": false,
      "metar": "METAR LYPG 110900Z VRB01KT 9999 -RA FEW010 SCT050 OVC070 09/08 Q1004 NOSIG",
      "taf": "TAF LYPG 110500Z 1106/1206 16005KT 9999 FEW010 BKN040 BKN070 TX11/1113Z TN08/1106Z"
    },
    {
      "icao": "LZIB",
      "alert": "OK",
      "vis_m": 4000,
      "fzfg": false,
      "metar_trigger": false,
      "taf_trigger": false,
      "metar": "METAR LZIB 110900Z 04007KT 4000 -DZ BR FEW003 BKN004 OVC005 02/02 Q0994 NOSIG",
      "taf": ""
    },
    {
      "icao": "LZKZ",
      "alert": "OK",
      "vis_m": 9999,
      "fzfg": false,
      "metar_trigger": false,
      "taf_trigger": false,
      "metar": "METAR LZKZ 110900Z 20008KT 9999 OVC009 01/00 Q0999 NOSIG",
      "taf": "TAF LZKZ 110515Z 1106/1206 21011KT 9999 SCT004 OVC015"
    },
    {
      "icao": "LZTT",
      "alert": "OK",
      "vis_m": 9999,
      "fzfg": false,
      "metar_trigger": false,
      "taf_trigger": false,
      "metar": "METAR LZTT 110900Z 15009KT 110V210 9999 BKN033 01/M01 Q0994 NOSIG",
      "taf": "TAF LZTT 110515Z 1106/1206 11007KT 9999 FEW005 BKN020"
    },
    {
      "icao": "OEJN",
      "alert": "OK",
      "vis_m": 9999,
      "fzfg": false,
      "metar_trigger": false,
      "taf_trigger": false,
      "metar": "METAR OEJN 110900Z 24005KT CAVOK 32/16 Q1013 NOSIG",
      "taf": "TAF OEJN 110500Z 1106/1212 27010KT 7000 NSC"
    },
    {
      "icao": "OEMA",
      "alert": "OK",
      "vis_m": 9999,
      "fzfg": false,
      "metar_trigger": false,
      "taf_trigger": false,
      "metar": "METAR OEMA 110900Z VRB03KT CAVOK 28/09 Q1018 NOSIG",
      "taf": "TAF OEMA 110500Z 1106/1212 26010KT CAVOK"
    },
    {
      "icao": "OJAI",
      "alert": "OK",
      "vis_m": 4000,
      "fzfg": false,
      "metar_trigger": false,
      "taf_trigger": false,
      "metar": "METAR OJAI 110900Z 27012KT 4000 HZ NSC 15/06 Q1016 NOSIG",
      "taf": "TAF OJAI 110441Z 1106/1212 27010KT 5000 HZ FEW035"
    },
    {
      "icao": "OMAA",
      "alert": "OK",
      "vis_m": 9999,
      "fzfg": false,
      "metar_trigger": false,
      "taf_trigger": false,
      "metar": "METAR OMAA 110930Z 36006KT 320V060 CAVOK 28/10 Q1017 NOSIG",
      "taf": "TAF OMAA 110500Z 1106/1212 VRB02KT 1500 BR NSC"
    },
    {
      "icao": "OMDB",
      "alert": "OK",
      "vis_m": 9999,
      "fzfg": false,
      "metar_trigger": false,
      "taf_trigger": false,
      "metar": "METAR OMDB 110930Z 08007KT 030V160 CAVOK 30/07 Q1017 BECMG 34012KT",
      "taf": "TAF OMDB 110500Z 1106/1212 08005KT 4000 HZ NSC"
    },
    {
      "icao": "UAAA",
      "alert": "OK",
      "vis_m": 9999,
      "fzfg": false,
      "metar_trigger": false,
      "taf_trigger": false,
      "metar": "METAR UAAA 110900Z 28004MPS 250V320 9999 SCT012 BKN028CB OVC100 03/00 Q1019 TEMPO 3000 SHRASN BR SCT005 BKN011CB",
      "taf": "TAF UAAA 110509Z 1106/1206 26003G08MPS 3100 -SHRA BR BKN050CB OVC100 TX10/1106Z TNM03/1203Z"
    },
    {
      "icao": "UBBB",
      "alert": "OK",
      "vis_m": 9999,
      "fzfg": false,
      "metar_trigger": false,
      "taf_trigger": false,
      "metar": "METAR UBBB 110900Z 10010KT 9999 -RA SCT007 BKN025 02/01 Q1018 NOSIG",
      "taf": "TAF UBBB 110459Z 1106/1206 13008KT 9999 SCT015 OVC030 TX04/1110Z TN02/1202Z"
    },
    {
      "icao": "UDSG",
      "alert": "OK",
      "vis_m": 9999,
      "fzfg": false,
      "metar_trigger": false,
      "taf_trigger": false,
      "metar": "METAR UDSG 110900Z 22001KT 9999 OVC016 M00/M03 Q1010 NOSIG",
      "taf": "TAF UDSG 110458Z 1106/1206 VRB06KT 3000 BR OVC020"
    },
    {
      "icao": "UDYZ",
      "alert": "OK",
      "vis_m": 9000,
      "fzfg": false,
      "metar_trigger": false,
      "taf_trigger": false,
      "metar": "METAR UDYZ 110900Z VRB02KT 9000 BKN023 02/00 Q1011 NOSIG",
      "taf": "TAF UDYZ 110500Z 1106/1206 16006KT 2300 BR BKN020"
    },
    {
      "icao": "UGKO",
      "alert": "OK",
      "vis_m": 9999,
      "fzfg": false,
      "metar_trigger": false,
      "taf_trigger": false,
      "metar": "METAR UGKO 110900Z 09022KT 9999 BKN081 07/M01 Q1010 NOSIG",
      "taf": "TAF UGKO 110500Z 1106/1206 08017KT 9999 BKN050 TX08/1111Z TN04/1202Z"
    }
  ]
}