{
  "ts_utc": "2026-05-09T06:56:54Z",
  "threshold_m": 150,
  "source": "stations_override.txt (ICAO list) + aviationweather.gov (METAR/TAF raw)",
  "station_count": 159,
  "stations": [
    {
      "icao": "BIKF",
      "alert": "OK",
      "vis_m": 9999,
      "fzfg": false,
      "metar_trigger": false,
      "taf_trigger": false,
      "metar": "METAR BIKF 090630Z 26007KT 9999 SCT014 BKN024 06/04 Q1025",
      "taf": "TAF BIKF 090452Z 0906/1006 27012KT 9999 SCT013 BKN023 TX06/0915Z TN05/0906Z"
    },
    {
      "icao": "BKPR",
      "alert": "OK",
      "vis_m": null,
      "fzfg": false,
      "metar_trigger": false,
      "taf_trigger": false,
      "metar": "",
      "taf": "TAF BKPR 090530Z 0906/1006 VRB03KT 9999 SCT015 BKN030"
    },
    {
      "icao": "EBCI",
      "alert": "OK",
      "vis_m": 9999,
      "fzfg": false,
      "metar_trigger": false,
      "taf_trigger": false,
      "metar": "METAR EBCI 090650Z 08005KT 040V100 CAVOK 13/06 Q1018 NOSIG",
      "taf": "TAF EBCI 090501Z 0906/1012 09003KT CAVOK"
    },
    {
      "icao": "EDDB",
      "alert": "OK",
      "vis_m": 9999,
      "fzfg": false,
      "metar_trigger": false,
      "taf_trigger": false,
      "metar": "METAR EDDB 090650Z AUTO 04003KT 350V120 CAVOK 11/07 Q1021 NOSIG",
      "taf": "TAF EDDB 090500Z 0906/1006 06005KT 9999 SCT045"
    },
    {
      "icao": "EDDH",
      "alert": "OK",
      "vis_m": 9999,
      "fzfg": false,
      "metar_trigger": false,
      "taf_trigger": false,
      "metar": "METAR EDDH 090650Z AUTO 09006KT CAVOK 11/03 Q1022 NOSIG",
      "taf": "TAF EDDH 090500Z 0906/1012 06005KT 9999 SCT040"
    },
    {
      "icao": "EDDK",
      "alert": "OK",
      "vis_m": 9999,
      "fzfg": false,
      "metar_trigger": false,
      "taf_trigger": false,
      "metar": "METAR EDDK 090650Z AUTO 12004KT 060V160 CAVOK 12/08 Q1019 NOSIG",
      "taf": "TAF EDDK 090500Z 0906/1012 05003KT CAVOK"
    },
    {
      "icao": "EDDN",
      "alert": "OK",
      "vis_m": 9999,
      "fzfg": false,
      "metar_trigger": false,
      "taf_trigger": false,
      "metar": "METAR EDDN 090650Z AUTO 06004KT 020V090 CAVOK 10/07 Q1019 NOSIG",
      "taf": "TAF EDDN 090500Z 0906/1006 VRB02KT CAVOK"
    },
    {
      "icao": "EDDS",
      "alert": "OK",
      "vis_m": 9999,
      "fzfg": false,
      "metar_trigger": false,
      "taf_trigger": false,
      "metar": "METAR EDDS 090650Z AUTO 12003KT 060V190 CAVOK 12/08 Q1017 NOSIG",
      "taf": "TAF EDDS 090500Z 0906/1006 VRB02KT CAVOK"
    },
    {
      "icao": "EDFH",
      "alert": "OK",
      "vis_m": 9999,
      "fzfg": false,
      "metar_trigger": false,
      "taf_trigger": false,
      "metar": "METAR EDFH 090650Z 14008KT CAVOK 10/07 Q1018",
      "taf": "TAF EDFH 090500Z 0906/1006 11006KT CAVOK"
    },
    {
      "icao": "EDJA",
      "alert": "OK",
      "vis_m": 9999,
      "fzfg": false,
      "metar_trigger": false,
      "taf_trigger": false,
      "metar": "METAR EDJA 090650Z 17004KT 140V210 9999 FEW050 13/09 Q1017",
      "taf": "TAF EDJA 090500Z 0906/0915 05004KT 9999 SCT020"
    },
    {
      "icao": "EDLW",
      "alert": "OK",
      "vis_m": 9999,
      "fzfg": false,
      "metar_trigger": false,
      "taf_trigger": false,
      "metar": "METAR EDLW 090650Z 16003KT 110V210 CAVOK 11/07 Q1019",
      "taf": "TAF EDLW 090500Z 0906/1006 08004KT CAVOK"
    },
    {
      "icao": "EDNY",
      "alert": "OK",
      "vis_m": 9999,
      "fzfg": false,
      "metar_trigger": false,
      "taf_trigger": false,
      "metar": "METAR EDNY 090650Z 07003KT CAVOK 15/08 Q1017",
      "taf": "TAF EDNY 090500Z 0906/0915 04004KT 9999 FEW010 SCT045"
    },
    {
      "icao": "EDSB",
      "alert": "OK",
      "vis_m": 9999,
      "fzfg": false,
      "metar_trigger": false,
      "taf_trigger": false,
      "metar": "METAR EDSB 090650Z 03005KT CAVOK 12/08 Q1017",
      "taf": "TAF EDSB 090500Z 0906/1006 01006KT CAVOK"
    },
    {
      "icao": "EETN",
      "alert": "OK",
      "vis_m": 9999,
      "fzfg": false,
      "metar_trigger": false,
      "taf_trigger": false,
      "metar": "METAR EETN 090650Z 08009KT CAVOK 10/M00 Q1028 NOSIG",
      "taf": "TAF EETN 090530Z 0906/1006 08007KT CAVOK"
    },
    {
      "icao": "EFTU",
      "alert": "OK",
      "vis_m": 9999,
      "fzfg": false,
      "metar_trigger": false,
      "taf_trigger": false,
      "metar": "METAR EFTU 090650Z AUTO 15009KT 120V200 CAVOK 12/M05 Q1028",
      "taf": "TAF EFTU 090524Z 0906/1006 14004KT CAVOK"
    },
    {
      "icao": "EGBB",
      "alert": "OK",
      "vis_m": 9999,
      "fzfg": false,
      "metar_trigger": false,
      "taf_trigger": false,
      "metar": "METAR EGBB 090650Z 11004KT 060V160 CAVOK 13/06 Q1019",
      "taf": "TAF EGBB 090456Z 0906/1006 13003KT 9999 FEW045"
    },
    {
      "icao": "EGGP",
      "alert": "OK",
      "vis_m": 7000,
      "fzfg": false,
      "metar_trigger": false,
      "taf_trigger": false,
      "metar": "METAR EGGP 090650Z VRB02KT 7000 SCT046 12/10 Q1019",
      "taf": "TAF EGGP 090458Z 0906/1006 VRB04KT 9999 FEW045"
    },
    {
      "icao": "EGGW",
      "alert": "OK",
      "vis_m": 9999,
      "fzfg": false,
      "metar_trigger": false,
      "taf_trigger": false,
      "metar": "METAR EGGW 090650Z AUTO 05006KT 9999 NCD 11/07 Q1018",
      "taf": ""
    },
    {
      "icao": "EGKK",
      "alert": "OK",
      "vis_m": 9000,
      "fzfg": false,
      "metar_trigger": false,
      "taf_trigger": false,
      "metar": "METAR EGKK 090650Z 07006KT 9000 NSC 11/09 Q1018",
      "taf": "TAF EGKK 090459Z 0906/1012 05003KT CAVOK"
    },
    {
      "icao": "EGNM",
      "alert": "OK",
      "vis_m": 4000,
      "fzfg": false,
      "metar_trigger": false,
      "taf_trigger": false,
      "metar": "METAR EGNM 090650Z 02003KT 340V080 4000 -RADZ SCT040 08/08 Q1020",
      "taf": ""
    },
    {
      "icao": "EGPD",
      "alert": "OK",
      "vis_m": 9999,
      "fzfg": false,
      "metar_trigger": false,
      "taf_trigger": false,
      "metar": "METAR EGPD 090650Z COR AUTO 31009KT 9999 NCD 07/04 Q1024 NOSIG",
      "taf": "TAF EGPD 090455Z 0906/1006 34007KT 9999 FEW020 SCT025"
    },
    {
      "icao": "EGPF",
      "alert": "OK",
      "vis_m": 9999,
      "fzfg": false,
      "metar_trigger": false,
      "taf_trigger": false,
      "metar": "METAR EGPF 090650Z AUTO VRB01KT 9999 BKN038 08/05 Q1023",
      "taf": "TAF EGPF 090501Z 0906/1006 23004KT 9999 SCT030"
    },
    {
      "icao": "EHBK",
      "alert": "OK",
      "vis_m": 9999,
      "fzfg": false,
      "metar_trigger": false,
      "taf_trigger": false,
      "metar": "METAR EHBK 090625Z AUTO 08004KT 050V120 9999 NCD 13/08 Q1018 NOSIG",
      "taf": "TAF EHBK 090448Z 0906/1012 06005KT CAVOK"
    },
    {
      "icao": "EHEH",
      "alert": "OK",
      "vis_m": 9999,
      "fzfg": false,
      "metar_trigger": false,
      "taf_trigger": false,
      "metar": "METAR EHEH 090625Z AUTO 07004KT 050V120 9999 NCD 11/08 Q1019 BLU NOSIG RMK TREND REMOTE BY EHWX",
      "taf": "TAF EHEH 090507Z 0906/1012 04003KT 8000 BR NSC"
    },
    {
      "icao": "EKBI",
      "alert": "OK",
      "vis_m": 9999,
      "fzfg": false,
      "metar_trigger": false,
      "taf_trigger": false,
      "metar": "METAR EKBI 090650Z AUTO 12007KT 070V150 9999 NCD 10/03 Q1023",
      "taf": "TAF EKBI 090527Z 0906/1006 09008KT CAVOK"
    },
    {
      "icao": "EKCH",
      "alert": "OK",
      "vis_m": 9999,
      "fzfg": false,
      "metar_trigger": false,
      "taf_trigger": false,
      "metar": "METAR EKCH 090650Z AUTO 06005KT 040V100 9999 NCD 09/M00 Q1024 NOSIG",
      "taf": "TAF EKCH 090527Z 0906/1006 05005KT CAVOK"
    },
    {
      "icao": "ENAL",
      "alert": "OK",
      "vis_m": 9999,
      "fzfg": false,
      "metar_trigger": false,
      "taf_trigger": false,
      "metar": "METAR ENAL 090650Z 21012KT 9999 FEW037 BKN045 09/03 Q1017",
      "taf": "TAF ENAL 090500Z 0906/0915 20015KT 9999 -RA FEW020 BKN040"
    },
    {
      "icao": "ENBR",
      "alert": "OK",
      "vis_m": 9999,
      "fzfg": false,
      "metar_trigger": false,
      "taf_trigger": false,
      "metar": "METAR ENBR 090650Z 25006KT 220V280 9999 -RA FEW007 SCT011 BKN020 06/04 Q1021 TEMPO 4000 RA BKN008 RMK WIND 1200FT 26012KT",
      "taf": "TAF ENBR 090500Z 0906/1006 16010KT 9999 SCT008 BKN018"
    },
    {
      "icao": "ENGM",
      "alert": "OK",
      "vis_m": 9999,
      "fzfg": false,
      "metar_trigger": false,
      "taf_trigger": false,
      "metar": "METAR ENGM 090650Z 21005KT 190V250 CAVOK 10/01 Q1022 NOSIG",
      "taf": "TAF ENGM 090500Z 0906/1006 VRB03KT CAVOK"
    },
    {
      "icao": "ENHD",
      "alert": "OK",
      "vis_m": 9999,
      "fzfg": false,
      "metar_trigger": false,
      "taf_trigger": false,
      "metar": "METAR ENHD 090620Z 19011KT 9999 -DZ BKN006 BKN007 09/07 Q1021",
      "taf": "TAF ENHD 090500Z 0906/0915 17012KT 9999 FEW008 BKN050"
    },
    {
      "icao": "ENTC",
      "alert": "OK",
      "vis_m": 9999,
      "fzfg": false,
      "metar_trigger": false,
      "taf_trigger": false,
      "metar": "METAR ENTC 090650Z 24002KT CAVOK 05/00 Q1020 NOSIG RMK WIND 2600FT 16022KT",
      "taf": "TAF ENTC 090500Z 0906/1006 20006KT CAVOK"
    },
    {
      "icao": "ENTO",
      "alert": "OK",
      "vis_m": 9999,
      "fzfg": false,
      "metar_trigger": false,
      "taf_trigger": false,
      "metar": "METAR ENTO 090650Z 21009KT CAVOK 11/06 Q1023 NOSIG",
      "taf": "TAF ENTO 090500Z 0906/1006 VRB03KT CAVOK"
    },
    {
      "icao": "ENVA",
      "alert": "OK",
      "vis_m": 9999,
      "fzfg": false,
      "metar_trigger": false,
      "taf_trigger": false,
      "metar": "METAR ENVA 090650Z 00000KT CAVOK 12/01 Q1017 NOSIG RMK WIND 670FT 21009KT",
      "taf": "TAF ENVA 090500Z 0906/1006 18008KT CAVOK"
    },
    {
      "icao": "ENZV",
      "alert": "OK",
      "vis_m": 9999,
      "fzfg": false,
      "metar_trigger": false,
      "taf_trigger": false,
      "metar": "METAR ENZV 090650Z 19011KT 9999 FEW045 11/06 Q1021 NOSIG",
      "taf": "TAF ENZV 090500Z 0906/1006 17008KT CAVOK"
    },
    {
      "icao": "EPGD",
      "alert": "OK",
      "vis_m": 9999,
      "fzfg": false,
      "metar_trigger": false,
      "taf_trigger": false,
      "metar": "METAR EPGD 090630Z 32004KT 300V360 CAVOK 12/03 Q1021",
      "taf": "TAF EPGD 090530Z 0906/1006 32005KT CAVOK"
    },
    {
      "icao": "EPKK",
      "alert": "OK",
      "vis_m": 9999,
      "fzfg": false,
      "metar_trigger": false,
      "taf_trigger": false,
      "metar": "METAR EPKK 090630Z VRB02KT 9999 OVC040 11/06 Q1019",
      "taf": "TAF EPKK 090530Z 0906/1006 34006KT 9999 BKN040"
    },
    {
      "icao": "EPKT",
      "alert": "OK",
      "vis_m": 9999,
      "fzfg": false,
      "metar_trigger": false,
      "taf_trigger": false,
      "metar": "METAR EPKT 090630Z 34005KT 300V020 9999 FEW014 BKN046 11/06 Q1019",
      "taf": "TAF EPKT 090530Z 0906/1006 31003KT 9999 BKN040"
    },
    {
      "icao": "EPLB",
      "alert": "OK",
      "vis_m": 9999,
      "fzfg": false,
      "metar_trigger": false,
      "taf_trigger": false,
      "metar": "METAR EPLB 090630Z 30006KT 9999 SCT013 BKN016 11/08 Q1018",
      "taf": "TAF EPLB 090530Z 0906/1006 30006KT 9999 BKN030"
    },
    {
      "icao": "EPMO",
      "alert": "OK",
      "vis_m": 9999,
      "fzfg": false,
      "metar_trigger": false,
      "taf_trigger": false,
      "metar": "METAR EPMO 090630Z 36008KT 330V040 9999 FEW016 BKN026 09/07 Q1020",
      "taf": "TAF EPMO 090530Z 0906/1006 34005KT 9999 BKN025"
    },
    {
      "icao": "EPPO",
      "alert": "OK",
      "vis_m": 9999,
      "fzfg": false,
      "metar_trigger": false,
      "taf_trigger": false,
      "metar": "METAR EPPO 090630Z COR 07007KT 9999 SCT035 12/05 Q1021",
      "taf": "TAF EPPO 090530Z 0906/1006 32002KT CAVOK"
    },
    {
      "icao": "EPRA",
      "alert": "OK",
      "vis_m": 9999,
      "fzfg": false,
      "metar_trigger": false,
      "taf_trigger": false,
      "metar": "METAR EPRA 090630Z 32006KT 9999 BKN012 OVC021 10/06 Q1019",
      "taf": "TAF EPRA 090530Z 0906/0915 30008KT 9999 OVC009"
    },
    {
      "icao": "EPRZ",
      "alert": "OK",
      "vis_m": 9999,
      "fzfg": false,
      "metar_trigger": false,
      "taf_trigger": false,
      "metar": "METAR EPRZ 090630Z 34005KT 310V020 9999 FEW023 BKN043 12/06 Q1019",
      "taf": "TAF EPRZ 090530Z 0906/1006 30003KT 9999 BKN040"
    },
    {
      "icao": "EPSC",
      "alert": "OK",
      "vis_m": 9999,
      "fzfg": false,
      "metar_trigger": false,
      "taf_trigger": false,
      "metar": "METAR EPSC 090630Z VRB01KT CAVOK 13/05 Q1022",
      "taf": "TAF EPSC 090530Z 0906/1006 04004KT CAVOK"
    },
    {
      "icao": "EPSY",
      "alert": "OK",
      "vis_m": 9999,
      "fzfg": false,
      "metar_trigger": false,
      "taf_trigger": false,
      "metar": "METAR EPSY 090630Z 01007KT 340V040 9999 SCT018 BKN042 09/05 Q1020",
      "taf": "TAF EPSY 090530Z 0906/0915 02008KT 9999 BKN035"
    },
    {
      "icao": "EPWA",
      "alert": "OK",
      "vis_m": 9999,
      "fzfg": false,
      "metar_trigger": false,
      "taf_trigger": false,
      "metar": "METAR EPWA 090630Z 35006KT 320V020 9999 BKN015 BKN029 10/06 Q1019 NOSIG",
      "taf": "TAF EPWA 090530Z 0906/1006 34005KT 9999 BKN025"
    },
    {
      "icao": "EPWR",
      "alert": "OK",
      "vis_m": 9999,
      "fzfg": false,
      "metar_trigger": false,
      "taf_trigger": false,
      "metar": "METAR EPWR 090630Z 29004KT CAVOK 10/08 Q1021",
      "taf": "TAF EPWR 090530Z 0906/1006 30002KT 8000 NSC"
    },
    {
      "icao": "ESGG",
      "alert": "OK",
      "vis_m": 9999,
      "fzfg": false,
      "metar_trigger": false,
      "taf_trigger": false,
      "metar": "METAR ESGG 090650Z 12004KT CAVOK 11/03 Q1024",
      "taf": "TAF ESGG 090530Z 0906/1006 14008KT CAVOK"
    },
    {
      "icao": "ESKN",
      "alert": "OK",
      "vis_m": 9999,
      "fzfg": false,
      "metar_trigger": false,
      "taf_trigger": false,
      "metar": "METAR ESKN 090650Z 14006KT 110V170 CAVOK 11/M00 Q1026",
      "taf": "TAF ESKN 090530Z 0906/1006 VRB02KT CAVOK"
    },
    {
      "icao": "ESMS",
      "alert": "OK",
      "vis_m": 9999,
      "fzfg": false,
      "metar_trigger": false,
      "taf_trigger": false,
      "metar": "METAR ESMS 090650Z 09006KT CAVOK 11/M00 Q1023",
      "taf": "TAF ESMS 090527Z 0906/1006 06005KT CAVOK"
    },
    {
      "icao": "ESSA",
      "alert": "OK",
      "vis_m": 9999,
      "fzfg": false,
      "metar_trigger": false,
      "taf_trigger": false,
      "metar": "METAR ESSA 090650Z 14009KT CAVOK 10/M03 Q1026 NOSIG",
      "taf": "TAF ESSA 090530Z 0906/1006 VRB02KT CAVOK"
    },
    {
      "icao": "EYKA",
      "alert": "OK",
      "vis_m": 9999,
      "fzfg": false,
      "metar_trigger": false,
      "taf_trigger": false,
      "metar": "METAR EYKA 090650Z 03009KT 350V050 9999 -RA BKN015 OVC020 07/05 Q1018",
      "taf": "TAF EYKA 090500Z 0906/1006 02008KT 5000 RA BR SCT010 BKN015"
    },
    {
      "icao": "EYPA",
      "alert": "OK",
      "vis_m": 9999,
      "fzfg": false,
      "metar_trigger": false,
      "taf_trigger": false,
      "metar": "METAR EYPA 090650Z 09009KT CAVOK 12/M02 Q1022",
      "taf": "TAF EYPA 090500Z 0906/1006 08008KT 9000 NSC"
    },
    {
      "icao": "EYVI",
      "alert": "OK",
      "vis_m": 9999,
      "fzfg": false,
      "metar_trigger": false,
      "taf_trigger": false,
      "metar": "METAR EYVI 090650Z 02016KT 9999 -RA BKN008 OVC012 05/04 Q1016 NOSIG",
      "taf": "TAF EYVI 090500Z 0906/1006 03012KT 5000 RA BR OVC010"
    },
    {
      "icao": "GCFV",
      "alert": "OK",
      "vis_m": 9999,
      "fzfg": false,
      "metar_trigger": false,
      "taf_trigger": false,
      "metar": "METAR GCFV 090630Z 31011KT 9999 FEW025 19/14 Q1014",
      "taf": "TAF GCFV 090200Z 0903/1003 27005KT 9999 SCT030 TX24/0914Z TN17/0906Z"
    },
    {
      "icao": "GCLP",
      "alert": "OK",
      "vis_m": 9999,
      "fzfg": false,
      "metar_trigger": false,
      "taf_trigger": false,
      "metar": "METAR GCLP 090630Z 02003KT 340V050 9999 SCT020 BKN035 18/14 Q1015 NOSIG",
      "taf": "TAF GCLP 090200Z 0903/1003 VRB05KT 9999 BKN030 TX22/0914Z TN16/0906Z"
    },
    {
      "icao": "GCTS",
      "alert": "OK",
      "vis_m": 9999,
      "fzfg": false,
      "metar_trigger": false,
      "taf_trigger": false,
      "metar": "METAR GCTS 090630Z 36006KT 9999 SCT030 18/10 Q1015 NOSIG",
      "taf": "TAF GCTS 090200Z 0903/1003 30005KT 9999 SCT025 TX24/0914Z TN16/0906Z"
    },
    {
      "icao": "GMAD",
      "alert": "OK",
      "vis_m": 9999,
      "fzfg": false,
      "metar_trigger": false,
      "taf_trigger": false,
      "metar": "METAR GMAD 090630Z 04004KT 9999 BKN033 14/13 Q1014 NOSIG",
      "taf": "TAF GMAD 090500Z 0906/1012 06005KT 8000 BKN016"
    },
    {
      "icao": "GMMN",
      "alert": "OK",
      "vis_m": 9999,
      "fzfg": false,
      "metar_trigger": false,
      "taf_trigger": false,
      "metar": "METAR GMMN 090630Z 19011KT 9999 SCT020 15/10 Q1012 NOSIG",
      "taf": "TAF GMMN 090500Z 0906/1012 19009KT 9999 FEW020"
    },
    {
      "icao": "GMMX",
      "alert": "OK",
      "vis_m": 9999,
      "fzfg": false,
      "metar_trigger": false,
      "taf_trigger": false,
      "metar": "METAR GMMX 090630Z 16004KT 120V200 9999 SCT080 15/08 Q1013 NOSIG",
      "taf": "TAF GMMX 090500Z 0906/1012 26006KT 9999 SCT080"
    },
    {
      "icao": "HEGN",
      "alert": "OK",
      "vis_m": 9999,
      "fzfg": false,
      "metar_trigger": false,
      "taf_trigger": false,
      "metar": "METAR HEGN 090600Z 32013KT CAVOK 25/06 Q1012 NOSIG",
      "taf": "TAF HEGN 090500Z 0906/1012 32010G20KT CAVOK"
    },
    {
      "icao": "HEMA",
      "alert": "OK",
      "vis_m": 9999,
      "fzfg": false,
      "metar_trigger": false,
      "taf_trigger": false,
      "metar": "METAR HEMA 090600Z 33018KT CAVOK 29/09 Q1011 NOSIG",
      "taf": "TAF HEMA 090500Z 0906/1012 33010G20KT CAVOK"
    },
    {
      "icao": "HESH",
      "alert": "OK",
      "vis_m": 9999,
      "fzfg": false,
      "metar_trigger": false,
      "taf_trigger": false,
      "metar": "METAR HESH 090600Z 35018KT CAVOK 26/16 Q1011 NOSIG",
      "taf": "TAF HESH 090500Z 0906/1012 36010G20KT CAVOK"
    },
    {
      "icao": "HESX",
      "alert": "OK",
      "vis_m": 6000,
      "fzfg": false,
      "metar_trigger": false,
      "taf_trigger": false,
      "metar": "METAR HESX 090600Z 07011KT 6000 NSC 19/14 Q1016 NOSIG",
      "taf": "TAF HESX 090500Z 0906/1012 05006KT 6000 NSC"
    },
    {
      "icao": "LATI",
      "alert": "OK",
      "vis_m": 9999,
      "fzfg": false,
      "metar_trigger": false,
      "taf_trigger": false,
      "metar": "METAR LATI 090650Z VRB02KT 9999 SCT018 OVC047 16/13 Q1016 NOSIG",
      "taf": "TAF LATI 090500Z 0906/1006 VRB05KT 9999 BKN015 OVC030 TX22/0911Z TN12/1004Z"
    },
    {
      "icao": "LBPD",
      "alert": "OK",
      "vis_m": 9999,
      "fzfg": false,
      "metar_trigger": false,
      "taf_trigger": false,
      "metar": "METAR LBPD 090630Z AUTO 28003KT 230V330 9999 BKN009/// BKN160/// 16/16 Q1014 NOSIG",
      "taf": "TAF LBPD 090500Z 0906/1006 VRB03KT 9999 BKN070"
    },
    {
      "icao": "LBSF",
      "alert": "OK",
      "vis_m": 9999,
      "fzfg": false,
      "metar_trigger": false,
      "taf_trigger": false,
      "metar": "METAR LBSF 090630Z 28004KT 250V330 9999 FEW025 OVC054 14/11 Q1015 NOSIG",
      "taf": "TAF LBSF 090500Z 0906/1006 VRB03KT 9999 SCT025 BKN050"
    },
    {
      "icao": "LBWN",
      "alert": "OK",
      "vis_m": 9999,
      "fzfg": false,
      "metar_trigger": false,
      "taf_trigger": false,
      "metar": "METAR LBWN 090630Z 12008KT 9999 FEW013 BKN049 16/13 Q1014 NOSIG",
      "taf": "TAF LBWN 090500Z 0906/1006 VRB04KT 9999 SCT020 OVC045"
    },
    {
      "icao": "LCLK",
      "alert": "OK",
      "vis_m": 9999,
      "fzfg": false,
      "metar_trigger": false,
      "taf_trigger": false,
      "metar": "METAR LCLK 090630Z 10004KT 070V130 CAVOK 28/09 Q1016 NOSIG",
      "taf": "TAF LCLK 090530Z 0906/1006 32007KT CAVOK"
    },
    {
      "icao": "LCPH",
      "alert": "OK",
      "vis_m": 9999,
      "fzfg": false,
      "metar_trigger": false,
      "taf_trigger": false,
      "metar": "METAR LCPH 090630Z AUTO 31011KT 9999 NCD 22/17 Q1017 NOSIG",
      "taf": "TAF LCPH 090530Z 0906/1006 04007KT CAVOK"
    },
    {
      "icao": "LEAL",
      "alert": "OK",
      "vis_m": 5000,
      "fzfg": false,
      "metar_trigger": false,
      "taf_trigger": false,
      "metar": "METAR LEAL 090630Z 30006KT 270V330 5000 +TSRA FEW016CB SCT025 15/15 Q1010 BECMG NSW",
      "taf": "TAF LEAL 090500Z 0906/1006 VRB05KT 9999 FEW035 TX24/0912Z TN14/1005Z"
    },
    {
      "icao": "LEBB",
      "alert": "OK",
      "vis_m": 9999,
      "fzfg": false,
      "metar_trigger": false,
      "taf_trigger": false,
      "metar": "METAR LEBB 090630Z 08006KT 350V140 CAVOK 17/12 Q1009 NOSIG",
      "taf": "TAF LEBB 090500Z 0906/1006 13009KT 9999 FEW055 TX23/0912Z TN13/1003Z"
    },
    {
      "icao": "LEBL",
      "alert": "OK",
      "vis_m": 9999,
      "fzfg": false,
      "metar_trigger": false,
      "taf_trigger": false,
      "metar": "METAR LEBL 090630Z 09007KT 9999 BKN018 17/14 Q1013 NOSIG",
      "taf": "TAF LEBL 090500Z 0906/1006 08006KT 9999 FEW020 TX19/0913Z TN14/1005Z"
    },
    {
      "icao": "LECH",
      "alert": "OK",
      "vis_m": 9000,
      "fzfg": false,
      "metar_trigger": false,
      "taf_trigger": false,
      "metar": "METAR LECH 090630Z AUTO 02004KT 340V070 9000 FEW020 14/12 Q1013",
      "taf": "TAF LECH 090500Z 0906/1006 VRB04KT 9999 FEW020 TX19/0914Z TN11/1005Z"
    },
    {
      "icao": "LEMD",
      "alert": "OK",
      "vis_m": 9999,
      "fzfg": false,
      "metar_trigger": false,
      "taf_trigger": false,
      "metar": "METAR LEMD 090630Z 16005KT 090V210 9999 VCSH BKN025CB 13/09 Q1010 NOSIG",
      "taf": "TAF LEMD 090500Z 0906/1012 18007KT 9999 FEW045 TX17/0913Z TN08/1005Z"
    },
    {
      "icao": "LEMG",
      "alert": "OK",
      "vis_m": 9999,
      "fzfg": false,
      "metar_trigger": false,
      "taf_trigger": false,
      "metar": "METAR LEMG 090630Z 12003KT 080V190 9999 -DZ SCT030 BKN055 16/15 Q1010 NOSIG",
      "taf": "TAF LEMG 090500Z 0906/1006 17008KT 9999 SCT015 TX20/0914Z TN16/0906Z"
    },
    {
      "icao": "LEVC",
      "alert": "OK",
      "vis_m": 9999,
      "fzfg": false,
      "metar_trigger": false,
      "taf_trigger": false,
      "metar": "METAR LEVC 090630Z 33007KT 9999 FEW016 16/13 Q1011 NOSIG",
      "taf": "TAF LEVC 090500Z 0906/1006 02005KT 9999 BKN020 TX20/0912Z TN14/1005Z"
    },
    {
      "icao": "LEXJ",
      "alert": "OK",
      "vis_m": 9999,
      "fzfg": false,
      "metar_trigger": false,
      "taf_trigger": false,
      "metar": "METAR LEXJ 090630Z VRB02KT CAVOK 13/12 Q1008",
      "taf": ""
    },
    {
      "icao": "LEZG",
      "alert": "OK",
      "vis_m": 9999,
      "fzfg": false,
      "metar_trigger": false,
      "taf_trigger": false,
      "metar": "METAR LEZG 090630Z 13006KT 100V170 9999 OVC020 14/12 Q1013 NOSIG",
      "taf": "TAF LEZG 090500Z 0906/1006 12010KT 9999 FEW020 TX20/0914Z TN13/1005Z"
    },
    {
      "icao": "LEZL",
      "alert": "OK",
      "vis_m": 9999,
      "fzfg": false,
      "metar_trigger": false,
      "taf_trigger": false,
      "metar": "METAR LEZL 090630Z 17010KT 140V210 9999 -RA FEW030 17/15 Q1008 NOSIG",
      "taf": "TAF LEZL 090200Z 0903/1003 20009KT CAVOK TX22/0914Z TN15/0906Z"
    },
    {
      "icao": "LFBD",
      "alert": "OK",
      "vis_m": 9999,
      "fzfg": false,
      "metar_trigger": false,
      "taf_trigger": false,
      "metar": "METAR LFBD 090630Z AUTO 14009KT CAVOK 16/12 Q1012 NOSIG",
      "taf": "TAF LFBD 090500Z 0906/1012 12010KT CAVOK TX24/0914Z TN14/0906Z"
    },
    {
      "icao": "LFLL",
      "alert": "OK",
      "vis_m": 9999,
      "fzfg": false,
      "metar_trigger": false,
      "taf_trigger": false,
      "metar": "METAR LFLL 090630Z 13007KT CAVOK 16/07 Q1016 NOSIG",
      "taf": "TAF LFLL 090500Z 0906/1012 16008KT CAVOK"
    },
    {
      "icao": "LFLS",
      "alert": "OK",
      "vis_m": 9999,
      "fzfg": false,
      "metar_trigger": false,
      "taf_trigger": false,
      "metar": "METAR LFLS 090630Z AUTO 07005KT 040V100 CAVOK 14/12 Q1016 NOSIG",
      "taf": "TAF LFLS 090200Z 0903/1003 09005KT CAVOK"
    },
    {
      "icao": "LFMN",
      "alert": "OK",
      "vis_m": 9999,
      "fzfg": false,
      "metar_trigger": false,
      "taf_trigger": false,
      "metar": "METAR LFMN 090630Z 34007KT CAVOK 18/09 Q1016 NOSIG",
      "taf": "TAF LFMN 090200Z 0903/1009 33010KT CAVOK"
    },
    {
      "icao": "LFOB",
      "alert": "OK",
      "vis_m": 9999,
      "fzfg": false,
      "metar_trigger": false,
      "taf_trigger": false,
      "metar": "METAR LFOB 090630Z AUTO VRB02KT CAVOK 11/10 Q1016 NOSIG",
      "taf": "TAF LFOB 090500Z 0906/1006 VRB03KT CAVOK"
    },
    {
      "icao": "LFPO",
      "alert": "OK",
      "vis_m": 9999,
      "fzfg": false,
      "metar_trigger": false,
      "taf_trigger": false,
      "metar": "METAR LFPO 090630Z 05006KT CAVOK 14/09 Q1015 NOSIG",
      "taf": "TAF LFPO 090500Z 0906/1012 04006KT CAVOK"
    },
    {
      "icao": "LFSB",
      "alert": "OK",
      "vis_m": 9999,
      "fzfg": false,
      "metar_trigger": false,
      "taf_trigger": false,
      "metar": "METAR LFSB 090630Z AUTO VRB02KT CAVOK 12/10 Q1017 NOSIG",
      "taf": "TAF LFSB 090500Z 0906/1006 VRB03KT CAVOK"
    },
    {
      "icao": "LGAV",
      "alert": "OK",
      "vis_m": 9999,
      "fzfg": false,
      "metar_trigger": false,
      "taf_trigger": false,
      "metar": "METAR LGAV 090650Z VRB02KT 9999 FEW025 22/11 Q1015 NOSIG",
      "taf": "TAF LGAV 090500Z 0906/1006 19010KT 9999 SCT025"
    },
    {
      "icao": "LGTS",
      "alert": "OK",
      "vis_m": 5000,
      "fzfg": false,
      "metar_trigger": false,
      "taf_trigger": false,
      "metar": "METAR LGTS 090650Z 29003KT 5000 BR SCT006 SCT020 16/16 Q1016 NOSIG",
      "taf": "TAF LGTS 090500Z 0906/1006 VRB03KT 9999 SCT025"
    },
    {
      "icao": "LHBP",
      "alert": "OK",
      "vis_m": 9999,
      "fzfg": false,
      "metar_trigger": false,
      "taf_trigger": false,
      "metar": "METAR LHBP 090630Z 11003KT 040V160 CAVOK 17/11 Q1017 NOSIG",
      "taf": "TAF LHBP 090515Z 0906/1006 33007KT CAVOK"
    },
    {
      "icao": "LHDC",
      "alert": "OK",
      "vis_m": 9999,
      "fzfg": false,
      "metar_trigger": false,
      "taf_trigger": false,
      "metar": "METAR LHDC 090615Z AUTO 02009KT 340V060 CAVOK 15/11 Q1016 NOSIG",
      "taf": "TAF LHDC 090515Z 0906/0915 02008KT CAVOK"
    },
    {
      "icao": "LIBD",
      "alert": "OK",
      "vis_m": 9999,
      "fzfg": false,
      "metar_trigger": false,
      "taf_trigger": false,
      "metar": "METAR LIBD 090650Z 27004KT 230V320 CAVOK 19/13 Q1016",
      "taf": "TAF LIBD 090500Z 0906/1006 28008KT CAVOK"
    },
    {
      "icao": "LIBG",
      "alert": "OK",
      "vis_m": 9999,
      "fzfg": false,
      "metar_trigger": false,
      "taf_trigger": false,
      "metar": "METAR LIBG 090550Z VRB02KT CAVOK 17/17 Q1016",
      "taf": "TAF LIBG 090605Z 0907/0915 VRB05KT CAVOK"
    },
    {
      "icao": "LIBP",
      "alert": "OK",
      "vis_m": 9999,
      "fzfg": false,
      "metar_trigger": false,
      "taf_trigger": false,
      "metar": "METAR LIBP 090650Z AUTO VRB01KT 9999 NCD 20/13 Q1017",
      "taf": "TAF LIBP 090500Z 0906/1006 VRB05KT CAVOK"
    },
    {
      "icao": "LIBR",
      "alert": "OK",
      "vis_m": 9999,
      "fzfg": false,
      "metar_trigger": false,
      "taf_trigger": false,
      "metar": "METAR LIBR 090650Z 31009KT CAVOK 17/14 Q1016",
      "taf": "TAF LIBR 090500Z 0906/1006 02010KT 9999 FEW020"
    },
    {
      "icao": "LICA",
      "alert": "OK",
      "vis_m": 9999,
      "fzfg": false,
      "metar_trigger": false,
      "taf_trigger": false,
      "metar": "METAR LICA 090650Z AUTO 22008KT 9999 NCD 20/16 Q1017",
      "taf": ""
    },
    {
      "icao": "LICC",
      "alert": "OK",
      "vis_m": 9999,
      "fzfg": false,
      "metar_trigger": false,
      "taf_trigger": false,
      "metar": "METAR LICC 090650Z VRB02KT CAVOK 20/18 Q1016",
      "taf": ""
    },
    {
      "icao": "LICJ",
      "alert": "OK",
      "vis_m": 9999,
      "fzfg": false,
      "metar_trigger": false,
      "taf_trigger": false,
      "metar": "METAR LICJ 090650Z 04010KT CAVOK 18/15 Q1016",
      "taf": ""
    },
    {
      "icao": "LIMC",
      "alert": "OK",
      "vis_m": 9999,
      "fzfg": false,
      "metar_trigger": false,
      "taf_trigger": false,
      "metar": "METAR LIMC 090650Z 02005KT CAVOK 16/12 Q1018 NOSIG",
      "taf": ""
    },
    {
      "icao": "LIME",
      "alert": "OK",
      "vis_m": 9999,
      "fzfg": false,
      "metar_trigger": false,
      "taf_trigger": false,
      "metar": "METAR LIME 090650Z VRB01KT CAVOK 17/10 Q1017 NOSIG",
      "taf": ""
    },
    {
      "icao": "LIMF",
      "alert": "OK",
      "vis_m": 9999,
      "fzfg": false,
      "metar_trigger": false,
      "taf_trigger": false,
      "metar": "METAR LIMF 090650Z VRB01KT CAVOK 15/10 Q1018",
      "taf": ""
    },
    {
      "icao": "LIMJ",
      "alert": "OK",
      "vis_m": 9999,
      "fzfg": false,
      "metar_trigger": false,
      "taf_trigger": false,
      "metar": "METAR LIMJ 090650Z 06009KT CAVOK 20/12 Q1016",
      "taf": ""
    },
    {
      "icao": "LIPE",
      "alert": "OK",
      "vis_m": 9999,
      "fzfg": false,
      "metar_trigger": false,
      "taf_trigger": false,
      "metar": "METAR LIPE 090650Z 20005KT 170V230 CAVOK 16/10 Q1017",
      "taf": "TAF LIPE 090500Z 0906/1006 VRB05KT CAVOK"
    },
    {
      "icao": "LIPH",
      "alert": "OK",
      "vis_m": 9999,
      "fzfg": false,
      "metar_trigger": false,
      "taf_trigger": false,
      "metar": "METAR LIPH 090650Z 04003KT 350V100 CAVOK 18/13 Q1017",
      "taf": "TAF LIPH 090500Z 0906/1006 VRB05KT CAVOK"
    },
    {
      "icao": "LIPQ",
      "alert": "OK",
      "vis_m": 9999,
      "fzfg": false,
      "metar_trigger": false,
      "taf_trigger": false,
      "metar": "METAR LIPQ 090650Z AUTO VRB01KT 9999 NCD 18/12 Q1017",
      "taf": "TAF LIPQ 090500Z 0906/1006 VRB05KT CAVOK"
    },
    {
      "icao": "LIPR",
      "alert": "OK",
      "vis_m": 9999,
      "fzfg": false,
      "metar_trigger": false,
      "taf_trigger": false,
      "metar": "METAR LIPR 090650Z 32003KT 280V040 CAVOK 18/13 Q1017",
      "taf": "TAF LIPR 090500Z 0906/1006 VRB05KT CAVOK"
    },
    {
      "icao": "LIPX",
      "alert": "OK",
      "vis_m": 9999,
      "fzfg": false,
      "metar_trigger": false,
      "taf_trigger": false,
      "metar": "METAR LIPX 090650Z 15004KT CAVOK 17/12 Q1017",
      "taf": ""
    },
    {
      "icao": "LIPY",
      "alert": "OK",
      "vis_m": 9999,
      "fzfg": false,
      "metar_trigger": false,
      "taf_trigger": false,
      "metar": "METAR LIPY 090650Z AUTO 22003KT 180V250 9999 NCD 18/14 Q1017",
      "taf": "TAF LIPY 090500Z 0906/1006 VRB05KT CAVOK"
    },
    {
      "icao": "LIPZ",
      "alert": "OK",
      "vis_m": 9999,
      "fzfg": false,
      "metar_trigger": false,
      "taf_trigger": false,
      "metar": "METAR LIPZ 090650Z VRB01KT CAVOK 19/13 Q1017 NOSIG",
      "taf": "TAF LIPZ 090500Z 0906/1012 VRB05KT CAVOK"
    },
    {
      "icao": "LIRF",
      "alert": "OK",
      "vis_m": 9999,
      "fzfg": false,
      "metar_trigger": false,
      "taf_trigger": false,
      "metar": "METAR LIRF 090650Z 06006KT CAVOK 18/15 Q1017 NOSIG",
      "taf": ""
    },
    {
      "icao": "LIRN",
      "alert": "OK",
      "vis_m": 9999,
      "fzfg": false,
      "metar_trigger": false,
      "taf_trigger": false,
      "metar": "METAR LIRN 090650Z 05005KT CAVOK 17/10 Q1017 NOSIG",
      "taf": ""
    },
    {
      "icao": "LIRP",
      "alert": "OK",
      "vis_m": 9999,
      "fzfg": false,
      "metar_trigger": false,
      "taf_trigger": false,
      "metar": "METAR LIRP 090645Z 11006KT CAVOK 16/13 Q1017 NOSIG",
      "taf": "TAF LIRP 090500Z 0906/1006 09005KT CAVOK"
    },
    {
      "icao": "LIRZ",
      "alert": "OK",
      "vis_m": 9999,
      "fzfg": false,
      "metar_trigger": false,
      "taf_trigger": false,
      "metar": "METAR LIRZ 090650Z AUTO 10003KT 030V150 9999 OVC002/// 12/12 Q1018",
      "taf": ""
    },
    {
      "icao": "LJLJ",
      "alert": "OK",
      "vis_m": 9999,
      "fzfg": false,
      "metar_trigger": false,
      "taf_trigger": false,
      "metar": "METAR LJLJ 090630Z VRB02KT 9999 FEW050 14/10 Q1018 NOSIG",
      "taf": "TAF LJLJ 090500Z 0906/1006 VRB02KT CAVOK"
    },
    {
      "icao": "LKMT",
      "alert": "OK",
      "vis_m": 9999,
      "fzfg": false,
      "metar_trigger": false,
      "taf_trigger": false,
      "metar": "METAR LKMT 090630Z 03008KT 9999 FEW020 SCT042 11/06 Q1020 NOSIG",
      "taf": "TAF LKMT 090500Z 0906/1006 02008KT 9999 SCT030"
    },
    {
      "icao": "LKPR",
      "alert": "OK",
      "vis_m": 9999,
      "fzfg": false,
      "metar_trigger": false,
      "taf_trigger": false,
      "metar": "METAR LKPR 090630Z 06004KT 010V100 9999 FEW008 10/08 Q1020 NOSIG",
      "taf": "TAF LKPR 090500Z 0906/1012 35005KT 6000 NSC"
    },
    {
      "icao": "LLBG",
      "alert": "OK",
      "vis_m": 9999,
      "fzfg": false,
      "metar_trigger": false,
      "taf_trigger": false,
      "metar": "METAR LLBG 090650Z VRB02KT 9999 SCT018 23/15 Q1015 NOSIG",
      "taf": "TAF LLBG 090507Z 0906/1006 VRB04KT 9999 SCT018 TX28/0911Z TN15/1003Z"
    },
    {
      "icao": "LMML",
      "alert": "OK",
      "vis_m": 9999,
      "fzfg": false,
      "metar_trigger": false,
      "taf_trigger": false,
      "metar": "METAR LMML 090645Z 33008KT CAVOK 21/16 Q1016 NOSIG",
      "taf": "TAF LMML 090500Z 0906/1006 33010KT 9999 FEW011"
    },
    {
      "icao": "LOWW",
      "alert": "OK",
      "vis_m": 9999,
      "fzfg": false,
      "metar_trigger": false,
      "taf_trigger": false,
      "metar": "METAR LOWW 090650Z 32006KT 300V010 CAVOK 13/08 Q1019 NOSIG",
      "taf": "TAF LOWW 090515Z 0906/1012 36008KT CAVOK TX22/1012Z TN08/1004Z"
    },
    {
      "icao": "LPFR",
      "alert": "OK",
      "vis_m": 9999,
      "fzfg": false,
      "metar_trigger": false,
      "taf_trigger": false,
      "metar": "METAR LPFR 090630Z 17016KT 9999 FEW014 FEW022CB 17/14 Q1004",
      "taf": "TAF LPFR 090500Z 0906/1006 19015KT 9999 SCT020"
    },
    {
      "icao": "LPMA",
      "alert": "OK",
      "vis_m": 9999,
      "fzfg": false,
      "metar_trigger": false,
      "taf_trigger": false,
      "metar": "METAR LPMA 090630Z 31003KT 260V070 9999 FEW015TCU 15/11 Q1010",
      "taf": "TAF LPMA 090500Z 0906/1006 VRB05KT 9999 SCT015"
    },
    {
      "icao": "LPPR",
      "alert": "OK",
      "vis_m": 9999,
      "fzfg": false,
      "metar_trigger": false,
      "taf_trigger": false,
      "metar": "METAR LPPR 090630Z 11006KT 060V130 9999 FEW018 15/09 Q1003",
      "taf": "TAF LPPR 090500Z 0906/1006 13007KT 9999 SCT020"
    },
    {
      "icao": "LPPS",
      "alert": "OK",
      "vis_m": 9999,
      "fzfg": false,
      "metar_trigger": false,
      "taf_trigger": false,
      "metar": "METAR LPPS 090630Z 28016KT 9999 SCT014 FEW018TCU 16/12 Q1010",
      "taf": "TAF LPPS 090500Z 0906/1012 28015KT 9999 SCT015 SCT030"
    },
    {
      "icao": "LPPT",
      "alert": "OK",
      "vis_m": 9999,
      "fzfg": false,
      "metar_trigger": false,
      "taf_trigger": false,
      "metar": "METAR LPPT 090630Z 18003KT 100V220 9999 FEW010 12/12 Q1003",
      "taf": "TAF LPPT 090500Z 0906/1012 16012KT 9999 SCT020"
    },
    {
      "icao": "LQBK",
      "alert": "OK",
      "vis_m": 9999,
      "fzfg": false,
      "metar_trigger": false,
      "taf_trigger": false,
      "metar": "METAR LQBK 090630Z 18007KT 140V220 CAVOK 18/11 Q1017 NOSIG",
      "taf": "TAF LQBK 090500Z 0906/1006 15005KT CAVOK TX23/0913Z TN11/1004Z"
    },
    {
      "icao": "LQSA",
      "alert": "OK",
      "vis_m": 9999,
      "fzfg": false,
      "metar_trigger": false,
      "taf_trigger": false,
      "metar": "METAR LQSA 090630Z 32004KT 300V360 9999 FEW010 BKN045 13/11 Q1018 NOSIG",
      "taf": "TAF LQSA 090500Z 0906/1006 VRB02KT 9999 BKN040 TX20/0913Z TN09/1004Z"
    },
    {
      "icao": "LQTZ",
      "alert": "OK",
      "vis_m": 9999,
      "fzfg": false,
      "metar_trigger": false,
      "taf_trigger": false,
      "metar": "METAR LQTZ 090630Z VRB01KT 9999 -RA FEW005 SCT015 BKN065 15/14 Q1017 RERA",
      "taf": "TAF LQTZ 090500Z 0906/1006 27005KT 9999 SCT045 TX21/0913Z TN10/1004Z"
    },
    {
      "icao": "LRBC",
      "alert": "OK",
      "vis_m": 6000,
      "fzfg": false,
      "metar_trigger": false,
      "taf_trigger": false,
      "metar": "METAR LRBC 090630Z 33009KT 6000 RA FEW006 OVC025 14/14 Q1016",
      "taf": ""
    },
    {
      "icao": "LRBS",
      "alert": "OK",
      "vis_m": 9999,
      "fzfg": false,
      "metar_trigger": false,
      "taf_trigger": false,
      "metar": "METAR LRBS 090630Z 07010KT 9999 FEW005 SCT008 15/13 Q1014 TEMPO 5000 -RA BR BKN005 BKN030",
      "taf": "TAF LRBS 090500Z 0906/1006 06010KT 9999 SCT035"
    },
    {
      "icao": "LRBV",
      "alert": "OK",
      "vis_m": 9000,
      "fzfg": false,
      "metar_trigger": false,
      "taf_trigger": false,
      "metar": "METAR LRBV 090630Z VRB02KT 9000 -RA FEW010 BKN022 BKN027 14/13 Q1015",
      "taf": "TAF LRBV 090500Z 0906/0915 VRB04KT 9999 -RA BKN010 OVC045"
    },
    {
      "icao": "LRCL",
      "alert": "OK",
      "vis_m": 9999,
      "fzfg": false,
      "metar_trigger": false,
      "taf_trigger": false,
      "metar": "METAR LRCL 090630Z VRB01KT CAVOK 16/12 Q1015",
      "taf": "TAF LRCL 090500Z 0906/0915 VRB04KT 9999 SCT045"
    },
    {
      "icao": "LRCV",
      "alert": "OK",
      "vis_m": 1900,
      "fzfg": false,
      "metar_trigger": false,
      "taf_trigger": false,
      "metar": "METAR LRCV 090630Z 35004KT 1900 +RA BKN004 OVC021 15/15 Q1014",
      "taf": "TAF LRCV 090500Z 0906/0915 01007KT 7000 -RA BKN015 OVC040"
    },
    {
      "icao": "LRIA",
      "alert": "OK",
      "vis_m": 7000,
      "fzfg": false,
      "metar_trigger": false,
      "taf_trigger": false,
      "metar": "METAR LRIA 090630Z 29003KT 7000 BKN002 14/14 Q1017",
      "taf": "TAF LRIA 090500Z 0906/0915 VRB04KT 3000 BR BKN002"
    },
    {
      "icao": "LROP",
      "alert": "OK",
      "vis_m": 4000,
      "fzfg": false,
      "metar_trigger": false,
      "taf_trigger": false,
      "metar": "METAR LROP 090630Z 09008KT 4000 -RA BR BKN005 BKN037 14/14 Q1015 TEMPO BKN010 BKN030",
      "taf": "TAF LROP 090500Z 0906/1006 08010KT 9999 SCT035"
    },
    {
      "icao": "LRSB",
      "alert": "OK",
      "vis_m": 8000,
      "fzfg": false,
      "metar_trigger": false,
      "taf_trigger": false,
      "metar": "METAR LRSB 090630Z VRB01KT 8000 -RA FEW005 SCT036 BKN045 15/14 Q1015",
      "taf": "TAF LRSB 090500Z 0906/1006 VRB04KT 9999 BKN050"
    },
    {
      "icao": "LRSM",
      "alert": "OK",
      "vis_m": 9999,
      "fzfg": false,
      "metar_trigger": false,
      "taf_trigger": false,
      "metar": "METAR LRSM 090630Z VRB01KT 9999 SCT002 13/12 Q1016",
      "taf": "TAF LRSM 090500Z 0906/0915 31005KT 5000 BR BKN002"
    },
    {
      "icao": "LRSV",
      "alert": "OK",
      "vis_m": 9999,
      "fzfg": false,
      "metar_trigger": false,
      "taf_trigger": false,
      "metar": "METAR LRSV 090630Z 02008KT 9999 FEW011 OVC045 13/12 Q1017",
      "taf": "TAF LRSV 090500Z 0906/0915 01008KT 9999 BKN040"
    },
    {
      "icao": "LRTM",
      "alert": "OK",
      "vis_m": 9999,
      "fzfg": false,
      "metar_trigger": false,
      "taf_trigger": false,
      "metar": "METAR LRTM 090630Z VRB02KT CAVOK 16/12 Q1015",
      "taf": "TAF LRTM 090500Z 0906/0915 VRB04KT 9999 SCT045"
    },
    {
      "icao": "LRTR",
      "alert": "OK",
      "vis_m": 9999,
      "fzfg": false,
      "metar_trigger": false,
      "taf_trigger": false,
      "metar": "METAR LRTR 090630Z 11005KT CAVOK 16/13 Q1015",
      "taf": "TAF LRTR 090500Z 0906/1006 VRB04KT CAVOK"
    },
    {
      "icao": "LTAC",
      "alert": "OK",
      "vis_m": 9999,
      "fzfg": false,
      "metar_trigger": false,
      "taf_trigger": false,
      "metar": "METAR LTAC 090650Z VRB02KT 9999 SCT040 BKN100 16/08 Q1020 NOSIG",
      "taf": "TAF LTAC 090440Z 0906/1006 VRB02KT 9999 SCT040 BKN100"
    },
    {
      "icao": "LTFM",
      "alert": "OK",
      "vis_m": 9999,
      "fzfg": false,
      "metar_trigger": false,
      "taf_trigger": false,
      "metar": "METAR LTFM 090650Z 20016KT 9999 BKN032 BKN080 19/12 Q1015 NOSIG",
      "taf": "TAF LTFM 090440Z 0906/1012 20014KT 9999 SCT035 BKN080"
    },
    {
      "icao": "LUKK",
      "alert": "OK",
      "vis_m": 9999,
      "fzfg": false,
      "metar_trigger": false,
      "taf_trigger": false,
      "metar": "METAR LUKK 090630Z 06005KT 030V100 9999 OVC015 15/12 Q1017 NOSIG",
      "taf": "TAF LUKK 090517Z 0906/1006 11008KT CAVOK"
    },
    {
      "icao": "LWOH",
      "alert": "OK",
      "vis_m": 9999,
      "fzfg": false,
      "metar_trigger": false,
      "taf_trigger": false,
      "metar": "METAR LWOH 090650Z VRB02KT 9999 SCT010 OVC020 12/10 Q1016",
      "taf": "TAF LWOH 090525Z 0906/1006 VRB02KT 9999 SCT010 OVC020"
    },
    {
      "icao": "LWSK",
      "alert": "OK",
      "vis_m": 9999,
      "fzfg": false,
      "metar_trigger": false,
      "taf_trigger": false,
      "metar": "METAR LWSK 090650Z VRB02KT 9999 -DZ SCT005 BKN055 OVC075 15/13 Q1016 NOSIG",
      "taf": "TAF LWSK 090525Z 0906/1006 VRB02KT 9999 SCT020 OVC080"
    },
    {
      "icao": "LYBE",
      "alert": "OK",
      "vis_m": 9999,
      "fzfg": false,
      "metar_trigger": false,
      "taf_trigger": false,
      "metar": "METAR LYBE 090630Z 24009KT 9999 -RA SCT040 15/14 Q1016 NOSIG",
      "taf": "TAF LYBE 090500Z 0906/1006 29007KT 9999 SCT040 TX22/0913Z TN11/1003Z"
    },
    {
      "icao": "LYNI",
      "alert": "OK",
      "vis_m": 6000,
      "fzfg": false,
      "metar_trigger": false,
      "taf_trigger": false,
      "metar": "METAR LYNI 090630Z VRB01KT 6000 -RA BKN013 OVC023 14/14 Q1016 TEMPO 4000 RA",
      "taf": "TAF LYNI 090500Z 0906/1006 16004KT 9999 SCT050 BKN070 TX18/0914Z TN09/1003Z"
    },
    {
      "icao": "LYPG",
      "alert": "OK",
      "vis_m": 9999,
      "fzfg": false,
      "metar_trigger": false,
      "taf_trigger": false,
      "metar": "METAR LYPG 090630Z 00000KT 9999 FEW013 SCT060 16/15 Q1015 NOSIG",
      "taf": "TAF LYPG 090500Z 0906/1006 16005KT 9999 FEW040 SCT080 TX24/0914Z TN13/1005Z"
    },
    {
      "icao": "LZIB",
      "alert": "OK",
      "vis_m": 9999,
      "fzfg": false,
      "metar_trigger": false,
      "taf_trigger": false,
      "metar": "METAR LZIB 090630Z 33003KT 290V010 CAVOK 15/07 Q1018 NOSIG",
      "taf": "TAF LZIB 090515Z 0906/1006 VRB04KT CAVOK"
    },
    {
      "icao": "LZKZ",
      "alert": "OK",
      "vis_m": 9999,
      "fzfg": false,
      "metar_trigger": false,
      "taf_trigger": false,
      "metar": "METAR LZKZ 090630Z 36017KT 9999 FEW047 13/07 Q1017 NOSIG",
      "taf": "TAF LZKZ 090515Z 0906/1006 02012KT CAVOK"
    },
    {
      "icao": "LZTT",
      "alert": "OK",
      "vis_m": 7000,
      "fzfg": false,
      "metar_trigger": false,
      "taf_trigger": false,
      "metar": "METAR LZTT 090630Z 07007KT 7000 3500W PRFG FEW004 OVC006 08/08 Q1018 NOSIG",
      "taf": "TAF LZTT 090515Z 0906/1006 04005KT 5000 BR SCT004 OVC016"
    },
    {
      "icao": "OEJN",
      "alert": "OK",
      "vis_m": 9999,
      "fzfg": false,
      "metar_trigger": false,
      "taf_trigger": false,
      "metar": "METAR OEJN 090600Z 34012KT CAVOK 30/20 Q1007 NOSIG",
      "taf": "TAF OEJN 090500Z 0906/1012 32016KT 7000 NSC"
    },
    {
      "icao": "OEMA",
      "alert": "OK",
      "vis_m": 9000,
      "fzfg": false,
      "metar_trigger": false,
      "taf_trigger": false,
      "metar": "METAR OEMA 090600Z 07007KT 9000 NSC 30/09 Q1016 NOSIG",
      "taf": "TAF OEMA 090500Z 0906/1012 14014KT 6000 FEW045"
    },
    {
      "icao": "OJAI",
      "alert": "OK",
      "vis_m": 5000,
      "fzfg": false,
      "metar_trigger": false,
      "taf_trigger": false,
      "metar": "METAR OJAI 090600Z 03004KT 5000 HZ NSC 22/08 Q1018 NOSIG",
      "taf": "TAF OJAI 090435Z 0906/1012 VRB02KT 5000 HZ NSC"
    },
    {
      "icao": "OMAA",
      "alert": "OK",
      "vis_m": 9999,
      "fzfg": false,
      "metar_trigger": false,
      "taf_trigger": false,
      "metar": "METAR OMAA 090630Z 30016KT CAVOK 36/16 Q1009 NOSIG",
      "taf": "TAF OMAA 090500Z 0906/1012 32015KT 8000 NSC"
    },
    {
      "icao": "OMDB",
      "alert": "OK",
      "vis_m": 9999,
      "fzfg": false,
      "metar_trigger": false,
      "taf_trigger": false,
      "metar": "SPECI OMDB 090636Z 31010KT CAVOK 37/16 Q1008 NOSIG",
      "taf": "TAF OMDB 090500Z 0906/1012 22008KT 8000 NSC"
    },
    {
      "icao": "UAAA",
      "alert": "OK",
      "vis_m": 9999,
      "fzfg": false,
      "metar_trigger": false,
      "taf_trigger": false,
      "metar": "METAR UAAA 090630Z 28004MPS 250V340 9999 SCT050CB BKN100 27/09 Q1015 NOSIG",
      "taf": "TAF UAAA 090505Z 0906/1006 32002G07MPS 9999 SCT050CB BKN100 TX30/0910Z TN17/1000Z"
    },
    {
      "icao": "UBBB",
      "alert": "OK",
      "vis_m": 9999,
      "fzfg": false,
      "metar_trigger": false,
      "taf_trigger": false,
      "metar": "METAR UBBB 090630Z VRB02KT CAVOK 22/10 Q1018 NOSIG",
      "taf": "TAF UBBB 090503Z 0906/1006 VRB04KT CAVOK TX24/0910Z TN13/1001Z"
    },
    {
      "icao": "UDSG",
      "alert": "OK",
      "vis_m": 9999,
      "fzfg": false,
      "metar_trigger": false,
      "taf_trigger": false,
      "metar": "METAR UDSG 090630Z 21001KT 9999 NSC 13/02 Q1023 NOSIG",
      "taf": "TAF UDSG 090500Z 0906/1006 22006KT 9999 FEW050"
    },
    {
      "icao": "UDYZ",
      "alert": "OK",
      "vis_m": 9999,
      "fzfg": false,
      "metar_trigger": false,
      "taf_trigger": false,
      "metar": "METAR UDYZ 090630Z VRB02KT 9999 NSC 17/04 Q1021 NOSIG",
      "taf": "TAF UDYZ 090500Z 0906/1006 24006KT 9999 FEW040"
    },
    {
      "icao": "UGKO",
      "alert": "OK",
      "vis_m": 9999,
      "fzfg": false,
      "metar_trigger": false,
      "taf_trigger": false,
      "metar": "METAR UGKO 090630Z 11008KT 070V140 CAVOK 20/10 Q1018 NOSIG",
      "taf": "TAF UGKO 090500Z 0906/1006 09007KT CAVOK TX26/0912Z TN12/0920Z"
    }
  ]
}