{
  "ts_utc": "2026-05-14T16:53:33Z",
  "threshold_m": 150,
  "source": "stations_override.txt (ICAO list) + aviationweather.gov (METAR/TAF raw)",
  "station_count": 159,
  "stations": [
    {
      "icao": "BIKF",
      "alert": "OK",
      "vis_m": 9999,
      "fzfg": false,
      "metar_trigger": false,
      "taf_trigger": false,
      "metar": "METAR BIKF 141630Z 16012KT 9999 -DZRA BKN011 OVC037 08/06 Q1013",
      "taf": "TAF BIKF 140754Z 1409/1509 16010KT 9999 FEW010 BKN020 TX09/1413Z TN06/1506Z"
    },
    {
      "icao": "BKPR",
      "alert": "OK",
      "vis_m": null,
      "fzfg": false,
      "metar_trigger": false,
      "taf_trigger": false,
      "metar": "",
      "taf": "TAF BKPR 140530Z 1406/1506 VRB05KT 9999 SCT060"
    },
    {
      "icao": "EBCI",
      "alert": "OK",
      "vis_m": 9999,
      "fzfg": false,
      "metar_trigger": false,
      "taf_trigger": false,
      "metar": "METAR EBCI 141620Z VRB01KT 9999 SCT031 10/03 Q0998 TEMPO 3500 SHRA",
      "taf": "TAF EBCI 140506Z 1406/1512 24010KT 9999 SCT025"
    },
    {
      "icao": "EDDB",
      "alert": "OK",
      "vis_m": 9999,
      "fzfg": false,
      "metar_trigger": false,
      "taf_trigger": false,
      "metar": "METAR EDDB 141620Z AUTO 29008KT 230V310 9999 +TSRA FEW040 SCT///CB 14/06 Q0997 NOSIG",
      "taf": "TAF EDDB 140500Z 1406/1506 21009KT 9999 BKN030"
    },
    {
      "icao": "EDDH",
      "alert": "OK",
      "vis_m": 9999,
      "fzfg": false,
      "metar_trigger": false,
      "taf_trigger": false,
      "metar": "METAR EDDH 141620Z AUTO 23006KT 9999 -SHRA FEW042 FEW///CB 10/05 Q0996 TEMPO 29007KT SHRA BKN025CB",
      "taf": "TAF EDDH 140500Z 1406/1512 VRB03KT 9999 BKN030"
    },
    {
      "icao": "EDDK",
      "alert": "OK",
      "vis_m": 9999,
      "fzfg": false,
      "metar_trigger": false,
      "taf_trigger": false,
      "metar": "METAR EDDK 141620Z AUTO 27010KT 230V300 9999 FEW044 12/03 Q0998 TEMPO SHRA BKN020CB",
      "taf": ""
    },
    {
      "icao": "EDDN",
      "alert": "OK",
      "vis_m": 9999,
      "fzfg": false,
      "metar_trigger": false,
      "taf_trigger": false,
      "metar": "METAR EDDN 141620Z AUTO 26008KT 230V300 CAVOK 13/03 Q0999 NOSIG",
      "taf": "TAF EDDN 140500Z 1406/1506 24010KT 9999 SCT015 BKN040"
    },
    {
      "icao": "EDDS",
      "alert": "OK",
      "vis_m": 9999,
      "fzfg": false,
      "metar_trigger": false,
      "taf_trigger": false,
      "metar": "METAR EDDS 141620Z AUTO 29006KT 250V310 CAVOK 11/03 Q0999 NOSIG",
      "taf": "TAF EDDS 140500Z 1406/1506 22007KT 9999 SCT035"
    },
    {
      "icao": "EDFH",
      "alert": "OK",
      "vis_m": 9999,
      "fzfg": false,
      "metar_trigger": false,
      "taf_trigger": false,
      "metar": "METAR EDFH 141620Z 27009KT 9999 VCSH FEW034 SCT039CB 07/05 Q0998",
      "taf": "TAF EDFH 140500Z 1406/1506 25009KT 9999 BKN007"
    },
    {
      "icao": "EDJA",
      "alert": "OK",
      "vis_m": 9999,
      "fzfg": false,
      "metar_trigger": false,
      "taf_trigger": false,
      "metar": "METAR EDJA 141620Z 21012KT 9999 FEW032 10/03 Q0999",
      "taf": "TAF EDJA 140800Z 1409/1418 23015G25KT 9999 SCT020 BKN040"
    },
    {
      "icao": "EDLW",
      "alert": "OK",
      "vis_m": 9999,
      "fzfg": false,
      "metar_trigger": false,
      "taf_trigger": false,
      "metar": "METAR EDLW 141620Z 29003KT 220V360 9999 BKN022 10/05 Q0998",
      "taf": ""
    },
    {
      "icao": "EDNY",
      "alert": "OK",
      "vis_m": 9999,
      "fzfg": false,
      "metar_trigger": false,
      "taf_trigger": false,
      "metar": "METAR EDNY 141620Z 16006KT 120V190 9999 FEW029 SCT045 11/05 Q0999",
      "taf": "TAF EDNY 140800Z 1409/1418 24009KT 9999 SCT020 BKN040"
    },
    {
      "icao": "EDSB",
      "alert": "OK",
      "vis_m": 9999,
      "fzfg": false,
      "metar_trigger": false,
      "taf_trigger": false,
      "metar": "METAR EDSB 141620Z 21007KT 180V240 CAVOK 11/04 Q0999",
      "taf": "TAF EDSB 140500Z 1406/1506 20007KT 9999 SCT035"
    },
    {
      "icao": "EETN",
      "alert": "OK",
      "vis_m": 9999,
      "fzfg": false,
      "metar_trigger": false,
      "taf_trigger": false,
      "metar": "METAR EETN 141650Z 22004KT CAVOK 15/03 Q1004 NOSIG",
      "taf": "TAF EETN 140530Z 1406/1506 19010KT 9999 BKN025"
    },
    {
      "icao": "EFTU",
      "alert": "OK",
      "vis_m": 9999,
      "fzfg": false,
      "metar_trigger": false,
      "taf_trigger": false,
      "metar": "METAR EFTU 141650Z AUTO 16008KT CAVOK 11/03 Q1003",
      "taf": "TAF EFTU 140829Z 1409/1509 18012KT 9999 -RA OVC007"
    },
    {
      "icao": "EGBB",
      "alert": "OK",
      "vis_m": 9999,
      "fzfg": false,
      "metar_trigger": false,
      "taf_trigger": false,
      "metar": "METAR EGBB 141620Z 02006KT 9999 VCSH SCT042CB 11/03 Q1002",
      "taf": "TAF EGBB 140457Z 1406/1506 34008KT 9999 FEW030"
    },
    {
      "icao": "EGGP",
      "alert": "OK",
      "vis_m": 9999,
      "fzfg": false,
      "metar_trigger": false,
      "taf_trigger": false,
      "metar": "METAR EGGP 141620Z 33023KT 300V360 9999 5000E VCSH SCT037CB BKN045 12/03 Q1003",
      "taf": "TAF EGGP 140455Z 1406/1506 33009KT 9999 SCT040"
    },
    {
      "icao": "EGGW",
      "alert": "OK",
      "vis_m": 9999,
      "fzfg": false,
      "metar_trigger": false,
      "taf_trigger": false,
      "metar": "METAR EGGW 141620Z AUTO 05005KT 030V090 9999 //////CB 09/03 Q1001",
      "taf": ""
    },
    {
      "icao": "EGKK",
      "alert": "OK",
      "vis_m": 9999,
      "fzfg": false,
      "metar_trigger": false,
      "taf_trigger": false,
      "metar": "METAR EGKK 141620Z 08005KT 9999 VCSH SCT017 SCT033CB 08/06 Q1001 RETS RESHRA",
      "taf": "TAF EGKK 140500Z 1406/1512 33010KT 9999 FEW015"
    },
    {
      "icao": "EGNM",
      "alert": "OK",
      "vis_m": 9999,
      "fzfg": false,
      "metar_trigger": false,
      "taf_trigger": false,
      "metar": "METAR EGNM 141620Z 32010KT 290V350 9999 FEW028CB SCT046 08/05 Q1002",
      "taf": ""
    },
    {
      "icao": "EGPD",
      "alert": "OK",
      "vis_m": 9999,
      "fzfg": false,
      "metar_trigger": false,
      "taf_trigger": false,
      "metar": "METAR EGPD 141620Z 33018KT 9999 VCSH SCT026TCU 09/04 Q1003 TEMPO SHRA",
      "taf": "TAF EGPD 140458Z 1406/1506 33009KT 9999 SCT025"
    },
    {
      "icao": "EGPF",
      "alert": "OK",
      "vis_m": 9999,
      "fzfg": false,
      "metar_trigger": false,
      "taf_trigger": false,
      "metar": "METAR EGPF 141620Z AUTO 33011KT 290V360 9999 BKN044 13/03 Q1005",
      "taf": "TAF EGPF 140456Z 1406/1506 29012KT 9999 SCT025"
    },
    {
      "icao": "EHBK",
      "alert": "OK",
      "vis_m": 9999,
      "fzfg": false,
      "metar_trigger": false,
      "taf_trigger": false,
      "metar": "METAR EHBK 141625Z AUTO 36005KT 320V040 9999 FEW002/// SCT047/// 09/06 Q0998 NOSIG",
      "taf": "TAF EHBK 140512Z 1406/1512 24010KT 9999 FEW012 BKN015"
    },
    {
      "icao": "EHEH",
      "alert": "OK",
      "vis_m": 9999,
      "fzfg": false,
      "metar_trigger": false,
      "taf_trigger": false,
      "metar": "METAR EHEH 141625Z AUTO 11004KT 090V160 9999 FEW015CB SCT058 BKN120 09/06 Q0999 BLU TEMPO 30007G17KT 3500 SHRA SCT008 SCT020CB",
      "taf": "TAF EHEH 140505Z 1406/1512 24008KT 9999 FEW020 SCT030"
    },
    {
      "icao": "EKBI",
      "alert": "OK",
      "vis_m": 9999,
      "fzfg": false,
      "metar_trigger": false,
      "taf_trigger": false,
      "metar": "METAR EKBI 141620Z AUTO 25012KT 210V270 9999 BKN029/// BKN058/// 10/04 Q0994",
      "taf": "TAF EKBI 140827Z 1409/1509 25008KT 9999 SCT020"
    },
    {
      "icao": "EKCH",
      "alert": "OK",
      "vis_m": 9999,
      "fzfg": false,
      "metar_trigger": false,
      "taf_trigger": false,
      "metar": "METAR EKCH 141620Z AUTO 18012KT 9999 NCD 12/05 Q0995 NOSIG",
      "taf": "TAF EKCH 140827Z 1409/1509 22012KT 9999 SCT025"
    },
    {
      "icao": "ENAL",
      "alert": "OK",
      "vis_m": 9999,
      "fzfg": false,
      "metar_trigger": false,
      "taf_trigger": false,
      "metar": "METAR ENAL 141620Z 05009KT 9999 -RA SCT007 BKN039 08/07 Q0989",
      "taf": "TAF ENAL 140800Z 1409/1418 03022KT 9999 -RA SCT015 BKN020"
    },
    {
      "icao": "ENBR",
      "alert": "OK",
      "vis_m": 9999,
      "fzfg": false,
      "metar_trigger": false,
      "taf_trigger": false,
      "metar": "METAR ENBR 141620Z 34009KT 9999 FEW025 09/04 Q0986 NOSIG RMK WIND 1200FT 34012KT",
      "taf": "TAF ENBR 140500Z 1406/1506 34008KT 9999 FEW030"
    },
    {
      "icao": "ENGM",
      "alert": "OK",
      "vis_m": 9999,
      "fzfg": false,
      "metar_trigger": false,
      "taf_trigger": false,
      "metar": "METAR ENGM 141620Z 15009KT 120V180 9999 -SHRA SCT010CB BKN043 07/05 Q0989 RWY 19 TEMPO 4000 SHRA BKN012 FEW020CB",
      "taf": ""
    },
    {
      "icao": "ENHD",
      "alert": "OK",
      "vis_m": 9999,
      "fzfg": false,
      "metar_trigger": false,
      "taf_trigger": false,
      "metar": "METAR ENHD 141620Z 34013KT 9999 FEW024 SCT049 09/06 Q0986",
      "taf": "TAF ENHD 140800Z 1409/1418 33020KT 9999 FEW010 BKN030"
    },
    {
      "icao": "ENTC",
      "alert": "OK",
      "vis_m": 9999,
      "fzfg": false,
      "metar_trigger": false,
      "taf_trigger": false,
      "metar": "METAR ENTC 141620Z 19008KT 9999 FEW064 SCT070 11/M01 Q1004 NOSIG RMK WIND 2600FT 13016KT",
      "taf": ""
    },
    {
      "icao": "ENTO",
      "alert": "OK",
      "vis_m": 9999,
      "fzfg": false,
      "metar_trigger": false,
      "taf_trigger": false,
      "metar": "METAR ENTO 141620Z 06004KT 9999 -RA VV014 06/06 Q0988 TEMPO 4000 SHRA FEW015CB BKN020",
      "taf": "TAF ENTO 140500Z 1406/1506 35008KT 9999 -RA BKN020"
    },
    {
      "icao": "ENVA",
      "alert": "OK",
      "vis_m": 9999,
      "fzfg": false,
      "metar_trigger": false,
      "taf_trigger": false,
      "metar": "METAR ENVA 141620Z 16005KT 9999 VCSH FEW042CB SCT042 12/06 Q0990 NOSIG RMK WIND 670FT 15012KT",
      "taf": "TAF ENVA 140500Z 1406/1506 03008KT 9999 -RA FEW012 BKN025"
    },
    {
      "icao": "ENZV",
      "alert": "OK",
      "vis_m": 9999,
      "fzfg": false,
      "metar_trigger": false,
      "taf_trigger": false,
      "metar": "METAR ENZV 141620Z 30009KT 9999 SCT045 10/05 Q0986 RERA NOSIG",
      "taf": "TAF ENZV 140500Z 1406/1506 32010KT 9999 SCT008 BKN030"
    },
    {
      "icao": "EPGD",
      "alert": "OK",
      "vis_m": 9999,
      "fzfg": false,
      "metar_trigger": false,
      "taf_trigger": false,
      "metar": "METAR EPGD 141630Z 22009KT 9999 BKN038 12/05 Q0999",
      "taf": "TAF EPGD 140530Z 1406/1506 18007KT 9999 SCT030"
    },
    {
      "icao": "EPKK",
      "alert": "OK",
      "vis_m": 9999,
      "fzfg": false,
      "metar_trigger": false,
      "taf_trigger": false,
      "metar": "METAR EPKK 141630Z 21003KT 9999 FEW060TCU 17/03 Q1001",
      "taf": "TAF EPKK 140830Z 1409/1509 22012KT CAVOK"
    },
    {
      "icao": "EPKT",
      "alert": "OK",
      "vis_m": 9999,
      "fzfg": false,
      "metar_trigger": false,
      "taf_trigger": false,
      "metar": "METAR EPKT 141630Z 20011KT CAVOK 17/02 Q1001",
      "taf": ""
    },
    {
      "icao": "EPLB",
      "alert": "OK",
      "vis_m": 9999,
      "fzfg": false,
      "metar_trigger": false,
      "taf_trigger": false,
      "metar": "METAR EPLB 141630Z 18006KT 140V210 CAVOK 18/03 Q1002",
      "taf": "TAF EPLB 140530Z 1406/1506 VRB02KT CAVOK"
    },
    {
      "icao": "EPMO",
      "alert": "OK",
      "vis_m": 9999,
      "fzfg": false,
      "metar_trigger": false,
      "taf_trigger": false,
      "metar": "METAR EPMO 141630Z 15004KT 090V190 CAVOK 16/08 Q1001",
      "taf": "TAF EPMO 140530Z 1406/1506 17008KT CAVOK"
    },
    {
      "icao": "EPPO",
      "alert": "OK",
      "vis_m": 9999,
      "fzfg": false,
      "metar_trigger": false,
      "taf_trigger": false,
      "metar": "METAR EPPO 141630Z 20011KT CAVOK 16/02 Q0999",
      "taf": ""
    },
    {
      "icao": "EPRA",
      "alert": "OK",
      "vis_m": 9999,
      "fzfg": false,
      "metar_trigger": false,
      "taf_trigger": false,
      "metar": "METAR EPRA 141630Z 19005KT 150V210 CAVOK 17/03 Q1002",
      "taf": "TAF EPRA 140830Z 1409/1418 21012KT 9999 SCT040"
    },
    {
      "icao": "EPRZ",
      "alert": "OK",
      "vis_m": 9999,
      "fzfg": false,
      "metar_trigger": false,
      "taf_trigger": false,
      "metar": "METAR EPRZ 141630Z 13007KT CAVOK 17/04 Q1002",
      "taf": "TAF EPRZ 140530Z 1406/1506 VRB02KT CAVOK"
    },
    {
      "icao": "EPSC",
      "alert": "OK",
      "vis_m": 9999,
      "fzfg": false,
      "metar_trigger": false,
      "taf_trigger": false,
      "metar": "METAR EPSC 141630Z VRB02KT 9999 FEW042CB 12/07 Q0998",
      "taf": "TAF EPSC 140530Z 1406/1506 17010KT 9999 BKN025"
    },
    {
      "icao": "EPSY",
      "alert": "OK",
      "vis_m": 9999,
      "fzfg": false,
      "metar_trigger": false,
      "taf_trigger": false,
      "metar": "METAR EPSY 141630Z 18008KT CAVOK 15/05 Q1001",
      "taf": "TAF EPSY 140830Z 1409/1418 18010KT CAVOK"
    },
    {
      "icao": "EPWA",
      "alert": "OK",
      "vis_m": 9999,
      "fzfg": false,
      "metar_trigger": false,
      "taf_trigger": false,
      "metar": "METAR EPWA 141630Z 22008KT 180V260 CAVOK 17/05 Q1001 NOSIG",
      "taf": "TAF EPWA 140830Z 1409/1509 19012KT CAVOK"
    },
    {
      "icao": "EPWR",
      "alert": "OK",
      "vis_m": 9999,
      "fzfg": false,
      "metar_trigger": false,
      "taf_trigger": false,
      "metar": "METAR EPWR 141630Z 21005KT 170V230 9999 FEW030CB 16/04 Q0999",
      "taf": "TAF EPWR 140830Z 1409/1509 22012KT CAVOK"
    },
    {
      "icao": "ESGG",
      "alert": "OK",
      "vis_m": 9999,
      "fzfg": false,
      "metar_trigger": false,
      "taf_trigger": false,
      "metar": "METAR ESGG 141620Z 20014KT 9999 -DZ BKN010CB 08/06 Q0992",
      "taf": "TAF ESGG 140830Z 1409/1509 22010KT 9999 SCT010 BKN030"
    },
    {
      "icao": "ESKN",
      "alert": "OK",
      "vis_m": 9999,
      "fzfg": false,
      "metar_trigger": false,
      "taf_trigger": false,
      "metar": "METAR ESKN 141620Z 14012KT 9999 FEW018 SCT036 08/07 Q0996",
      "taf": "TAF ESKN 140830Z 1409/1509 17012KT 9999 SCT020 BKN030"
    },
    {
      "icao": "ESMS",
      "alert": "OK",
      "vis_m": 9999,
      "fzfg": false,
      "metar_trigger": false,
      "taf_trigger": false,
      "metar": "METAR ESMS 141620Z 19014KT CAVOK 11/03 Q0995",
      "taf": "TAF ESMS 140827Z 1409/1509 20006KT 9999 SCT025"
    },
    {
      "icao": "ESSA",
      "alert": "OK",
      "vis_m": 9999,
      "fzfg": false,
      "metar_trigger": false,
      "taf_trigger": false,
      "metar": "METAR ESSA 141620Z 16016KT 9999 FEW039 10/03 Q0997 NOSIG",
      "taf": "TAF ESSA 140830Z 1409/1509 17015KT 9999 BKN025"
    },
    {
      "icao": "EYKA",
      "alert": "OK",
      "vis_m": 9999,
      "fzfg": false,
      "metar_trigger": false,
      "taf_trigger": false,
      "metar": "METAR EYKA 141650Z 14004KT CAVOK 16/05 Q1003",
      "taf": "TAF EYKA 140500Z 1406/1506 18010KT 9000 SCT045"
    },
    {
      "icao": "EYPA",
      "alert": "OK",
      "vis_m": 9999,
      "fzfg": false,
      "metar_trigger": false,
      "taf_trigger": false,
      "metar": "METAR EYPA 141650Z 11003KT 080V140 9999 SCT052CB 11/10 Q1000",
      "taf": "TAF EYPA 140500Z 1406/1506 18010KT 9000 SCT030"
    },
    {
      "icao": "EYVI",
      "alert": "OK",
      "vis_m": 9999,
      "fzfg": false,
      "metar_trigger": false,
      "taf_trigger": false,
      "metar": "METAR EYVI 141650Z 14004KT 110V170 CAVOK 16/06 Q1004 NOSIG",
      "taf": "TAF EYVI 140500Z 1406/1506 18010KT 9000 SCT035"
    },
    {
      "icao": "GCFV",
      "alert": "OK",
      "vis_m": 9999,
      "fzfg": false,
      "metar_trigger": false,
      "taf_trigger": false,
      "metar": "METAR GCFV 141630Z 36019KT 9999 FEW040 SCT045 22/10 Q1017",
      "taf": "TAF GCFV 140800Z 1409/1509 02015KT 9999 SCT030 TX24/1414Z TN17/1506Z"
    },
    {
      "icao": "GCLP",
      "alert": "OK",
      "vis_m": 9999,
      "fzfg": false,
      "metar_trigger": false,
      "taf_trigger": false,
      "metar": "METAR GCLP 141630Z 02024KT 9999 SCT030 21/13 Q1017 NOSIG",
      "taf": "TAF GCLP 140800Z 1409/1509 36020KT 9999 BKN035 TX23/1414Z TN17/1506Z"
    },
    {
      "icao": "GCTS",
      "alert": "OK",
      "vis_m": 9999,
      "fzfg": false,
      "metar_trigger": false,
      "taf_trigger": false,
      "metar": "METAR GCTS 141630Z 08012KT 050V110 9999 BKN042 22/10 Q1018 WS R07 NOSIG",
      "taf": "TAF GCTS 140800Z 1409/1509 10010KT 9999 BKN035 TX23/1414Z TN16/1506Z"
    },
    {
      "icao": "GMAD",
      "alert": "OK",
      "vis_m": 8000,
      "fzfg": false,
      "metar_trigger": false,
      "taf_trigger": false,
      "metar": "METAR GMAD 141630Z 22010KT 180V240 8000 FEW020 23/12 Q1012 NOSIG",
      "taf": "TAF GMAD 140500Z 1406/1512 12005KT 8000 SCT020"
    },
    {
      "icao": "GMMN",
      "alert": "OK",
      "vis_m": 9999,
      "fzfg": false,
      "metar_trigger": false,
      "taf_trigger": false,
      "metar": "METAR GMMN 141630Z 32009KT 290V360 9999 BKN030 21/12 Q1014 NOSIG",
      "taf": "TAF GMMN 140500Z 1406/1512 06006KT 9999 BKN014"
    },
    {
      "icao": "GMMX",
      "alert": "OK",
      "vis_m": 9999,
      "fzfg": false,
      "metar_trigger": false,
      "taf_trigger": false,
      "metar": "METAR GMMX 141630Z VRB06KT 9999 SCT023 BKN080 23/11 Q1013 NOSIG",
      "taf": "TAF GMMX 140500Z 1406/1512 26006KT 9999 SCT090 SCT200"
    },
    {
      "icao": "HEGN",
      "alert": "OK",
      "vis_m": 9999,
      "fzfg": false,
      "metar_trigger": false,
      "taf_trigger": false,
      "metar": "METAR HEGN 141600Z 00000KT CAVOK 35/M02 Q1006 NOSIG",
      "taf": "TAF HEGN 140500Z 1406/1512 01014KT CAVOK"
    },
    {
      "icao": "HEMA",
      "alert": "OK",
      "vis_m": 9999,
      "fzfg": false,
      "metar_trigger": false,
      "taf_trigger": false,
      "metar": "METAR HEMA 141600Z 33015KT CAVOK 33/03 Q1006 NOSIG",
      "taf": "TAF HEMA 140500Z 1406/1512 35015KT CAVOK"
    },
    {
      "icao": "HESH",
      "alert": "OK",
      "vis_m": 9999,
      "fzfg": false,
      "metar_trigger": false,
      "taf_trigger": false,
      "metar": "METAR HESH 141600Z 17006KT CAVOK 33/07 Q1006 NOSIG",
      "taf": "TAF HESH 140500Z 1406/1512 02014KT CAVOK"
    },
    {
      "icao": "HESX",
      "alert": "OK",
      "vis_m": 9999,
      "fzfg": false,
      "metar_trigger": false,
      "taf_trigger": false,
      "metar": "METAR HESX 141600Z 36016KT CAVOK 33/06 Q1007 NOSIG",
      "taf": "TAF HESX 140500Z 1406/1512 25010KT CAVOK"
    },
    {
      "icao": "LATI",
      "alert": "OK",
      "vis_m": 9999,
      "fzfg": false,
      "metar_trigger": false,
      "taf_trigger": false,
      "metar": "METAR LATI 141650Z 25004KT 170V290 CAVOK 20/10 Q1005 NOSIG",
      "taf": "TAF LATI 140500Z 1406/1506 VRB05KT 9999 FEW040 BKN070 TX23/1412Z TN12/1504Z"
    },
    {
      "icao": "LBPD",
      "alert": "OK",
      "vis_m": 9999,
      "fzfg": false,
      "metar_trigger": false,
      "taf_trigger": false,
      "metar": "METAR LBPD 141630Z AUTO 10009KT 9999 NCD 19/05 Q1004 NOSIG",
      "taf": "TAF LBPD 140500Z 1406/1506 30008KT 9999 SCT070"
    },
    {
      "icao": "LBSF",
      "alert": "OK",
      "vis_m": 9999,
      "fzfg": false,
      "metar_trigger": false,
      "taf_trigger": false,
      "metar": "METAR LBSF 141630Z AUTO 28005KT 9999 NCD 19/M02 Q1003 NOSIG",
      "taf": "TAF LBSF 140500Z 1406/1506 VRB03KT 9999 SCT070"
    },
    {
      "icao": "LBWN",
      "alert": "OK",
      "vis_m": 9999,
      "fzfg": false,
      "metar_trigger": false,
      "taf_trigger": false,
      "metar": "METAR LBWN 141630Z AUTO 12006KT 9999 NSC 14/09 Q1005 NOSIG",
      "taf": "TAF LBWN 140500Z 1406/1506 33008KT 9999 SCT040"
    },
    {
      "icao": "LCLK",
      "alert": "OK",
      "vis_m": 9999,
      "fzfg": false,
      "metar_trigger": false,
      "taf_trigger": false,
      "metar": "METAR LCLK 141630Z 27014KT 230V300 9999 -SHRA FEW025 FEW040CB 22/17 Q1004 RETS NOSIG RMK CB TO SE-E",
      "taf": "TAF LCLK 140530Z 1406/1506 24008KT 9999 FEW030"
    },
    {
      "icao": "LCPH",
      "alert": "OK",
      "vis_m": 9999,
      "fzfg": false,
      "metar_trigger": false,
      "taf_trigger": false,
      "metar": "METAR LCPH 141630Z 31008KT 250V320 9999 FEW020 FEW050CB 21/17 Q1005 NOSIG RMK DISTANT CB TO E-SE",
      "taf": "TAF LCPH 140530Z 1406/1506 10007KT CAVOK"
    },
    {
      "icao": "LEAL",
      "alert": "OK",
      "vis_m": 9999,
      "fzfg": false,
      "metar_trigger": false,
      "taf_trigger": false,
      "metar": "METAR LEAL 141630Z 18011KT 110V210 CAVOK 25/10 Q1005 NOSIG",
      "taf": "TAF LEAL 140500Z 1406/1506 VRB03KT 9999 FEW020 TX26/1412Z TN16/1406Z"
    },
    {
      "icao": "LEBB",
      "alert": "OK",
      "vis_m": 7000,
      "fzfg": false,
      "metar_trigger": false,
      "taf_trigger": false,
      "metar": "METAR LEBB 141630Z 28015G25KT 240V310 7000 -RA SCT033 BKN064 13/10 Q1011 TEMPO 3000 RA BKN010",
      "taf": "TAF LEBB 140500Z 1406/1506 30009KT 9999 SCT030 TX16/1413Z TN11/1409Z"
    },
    {
      "icao": "LEBL",
      "alert": "OK",
      "vis_m": 9999,
      "fzfg": false,
      "metar_trigger": false,
      "taf_trigger": false,
      "metar": "METAR LEBL 141630Z 28022KT 9999 FEW040 23/05 Q1003 NOSIG",
      "taf": "TAF LEBL 140500Z 1406/1506 VRB04KT 9999 FEW020 TX24/1412Z TN12/1505Z"
    },
    {
      "icao": "LECH",
      "alert": "OK",
      "vis_m": 9000,
      "fzfg": false,
      "metar_trigger": false,
      "taf_trigger": false,
      "metar": "METAR LECH 141630Z AUTO 10003KT 050V140 9000 BKN060 15/13 Q1006",
      "taf": "TAF LECH 140500Z 1406/1506 32008KT 9999 FEW040 TX22/1414Z TN09/1406Z"
    },
    {
      "icao": "LEMD",
      "alert": "OK",
      "vis_m": 9999,
      "fzfg": false,
      "metar_trigger": false,
      "taf_trigger": false,
      "metar": "METAR LEMD 141630Z 29011KT 250V320 9999 FEW060 21/02 Q1007 NOSIG",
      "taf": "TAF LEMD 140500Z 1406/1512 VRB04KT CAVOK TX22/1416Z TN07/1505Z"
    },
    {
      "icao": "LEMG",
      "alert": "OK",
      "vis_m": 9999,
      "fzfg": false,
      "metar_trigger": false,
      "taf_trigger": false,
      "metar": "METAR LEMG 141630Z 18009KT 140V230 9999 FEW069 26/12 Q1006 NOSIG",
      "taf": "TAF LEMG 140500Z 1406/1506 28010KT CAVOK TX28/1414Z TN15/1406Z"
    },
    {
      "icao": "LEVC",
      "alert": "OK",
      "vis_m": 9999,
      "fzfg": false,
      "metar_trigger": false,
      "taf_trigger": false,
      "metar": "METAR LEVC 141630Z 05021G32KT 010V080 9999 FEW049 23/14 Q1003 WS R30 NOSIG",
      "taf": "TAF LEVC 140500Z 1406/1506 VRB03KT CAVOK TX28/1412Z TN14/1406Z"
    },
    {
      "icao": "LEXJ",
      "alert": "OK",
      "vis_m": 2500,
      "fzfg": false,
      "metar_trigger": false,
      "taf_trigger": false,
      "metar": "SPECI LEXJ 141641Z 27017G27KT 2500 +RA BKN032 BKN043 BKN066 12/10 Q1011",
      "taf": "TAF LEXJ 140800Z 1409/1509 28013KT 9999 FEW020 BKN035 TX16/1414Z TN11/1503Z"
    },
    {
      "icao": "LEZG",
      "alert": "OK",
      "vis_m": 9999,
      "fzfg": false,
      "metar_trigger": false,
      "taf_trigger": false,
      "metar": "METAR LEZG 141630Z 32012KT 290V360 9999 BKN070 17/06 Q1008 NOSIG",
      "taf": "TAF LEZG 140500Z 1406/1506 30010KT 9999 FEW050 TX21/1418Z TN10/1505Z"
    },
    {
      "icao": "LEZL",
      "alert": "OK",
      "vis_m": 9999,
      "fzfg": false,
      "metar_trigger": false,
      "taf_trigger": false,
      "metar": "METAR LEZL 141630Z 26012KT 230V300 CAVOK 28/09 Q1008 NOSIG",
      "taf": "TAF LEZL 140800Z 1409/1509 VRB03KT CAVOK TX27/1415Z TN13/1506Z"
    },
    {
      "icao": "LFBD",
      "alert": "OK",
      "vis_m": 9999,
      "fzfg": false,
      "metar_trigger": false,
      "taf_trigger": false,
      "metar": "METAR LFBD 141630Z AUTO 27007KT 240V310 9999 -RA FEW041/// BKN048/// OVC056/// ///CB 11/08 Q1006 TEMPO 30020G35KT 4000 SHRA",
      "taf": "TAF LFBD 140500Z 1406/1512 27010KT 9999 BKN040 TX14/1412Z TN06/1506Z"
    },
    {
      "icao": "LFLL",
      "alert": "OK",
      "vis_m": 9999,
      "fzfg": false,
      "metar_trigger": false,
      "taf_trigger": false,
      "metar": "METAR LFLL 141630Z 24007KT 210V280 9999 VCSH FEW040CB FEW050TCU SCT066 BKN090 10/07 Q1002 RETSRA TEMPO 30015G35KT 2000 TSRAGS BKN030CB",
      "taf": "TAF LFLL 140500Z 1406/1512 15005KT 9999 BKN045"
    },
    {
      "icao": "LFLS",
      "alert": "OK",
      "vis_m": 9999,
      "fzfg": false,
      "metar_trigger": false,
      "taf_trigger": false,
      "metar": "METAR LFLS 141630Z AUTO 06009KT 9999 SCT029/// SCT042/// BKN052/// ///CB 10/08 Q1002 TEMPO VRB20G35KT 1500 TSRAGS BKN013 BKN033CB",
      "taf": "TAF LFLS 140800Z 1409/1509 25005KT 9999 SCT040 BKN060"
    },
    {
      "icao": "LFMN",
      "alert": "OK",
      "vis_m": 9999,
      "fzfg": false,
      "metar_trigger": false,
      "taf_trigger": false,
      "metar": "METAR LFMN 141630Z 25023KT 9999 FEW033 BKN200 19/06 Q0999 NOSIG",
      "taf": "TAF LFMN 140800Z 1409/1515 25020KT CAVOK"
    },
    {
      "icao": "LFOB",
      "alert": "OK",
      "vis_m": 9999,
      "fzfg": false,
      "metar_trigger": false,
      "taf_trigger": false,
      "metar": "METAR LFOB 141630Z AUTO 32014KT 9999 ///TCU 11/05 Q1000 TEMPO VRB15G25KT 3000 SHRA BKN014 BKN020CB",
      "taf": ""
    },
    {
      "icao": "LFPO",
      "alert": "OK",
      "vis_m": 9999,
      "fzfg": false,
      "metar_trigger": false,
      "taf_trigger": false,
      "metar": "METAR LFPO 141630Z 20003KT 150V250 9999 FEW026TCU SCT110 11/07 Q1000 TEMPO 4000 SHRA BKN030TCU",
      "taf": "TAF LFPO 140500Z 1406/1512 24010KT 9999 SCT040"
    },
    {
      "icao": "LFSB",
      "alert": "OK",
      "vis_m": 9999,
      "fzfg": false,
      "metar_trigger": false,
      "taf_trigger": false,
      "metar": "METAR LFSB 141630Z AUTO 24010G25KT 210V270 9999 -RA SCT039/// SCT056/// BKN070/// ///CB 10/06 Q1000 TEMPO TSRA",
      "taf": ""
    },
    {
      "icao": "LGAV",
      "alert": "OK",
      "vis_m": 9999,
      "fzfg": false,
      "metar_trigger": false,
      "taf_trigger": false,
      "metar": "METAR LGAV 141620Z 12005KT 9999 SCT025 19/13 Q1005 NOSIG",
      "taf": ""
    },
    {
      "icao": "LGTS",
      "alert": "OK",
      "vis_m": 9999,
      "fzfg": false,
      "metar_trigger": false,
      "taf_trigger": false,
      "metar": "METAR LGTS 141620Z 17013KT 9999 FEW025 21/13 Q1004 NOSIG",
      "taf": "TAF LGTS 140500Z 1406/1506 33013KT 9999 SCT030"
    },
    {
      "icao": "LHBP",
      "alert": "OK",
      "vis_m": 9999,
      "fzfg": false,
      "metar_trigger": false,
      "taf_trigger": false,
      "metar": "METAR LHBP 141630Z 17011KT 150V210 CAVOK 19/M00 Q1001 NOSIG",
      "taf": "TAF LHBP 140515Z 1406/1506 VRB03KT CAVOK"
    },
    {
      "icao": "LHDC",
      "alert": "OK",
      "vis_m": 9999,
      "fzfg": false,
      "metar_trigger": false,
      "taf_trigger": false,
      "metar": "METAR LHDC 141615Z AUTO 15004KT 100V200 CAVOK 18/03 Q1003 NOSIG",
      "taf": "TAF LHDC 140815Z 1409/1418 17005KT CAVOK"
    },
    {
      "icao": "LIBD",
      "alert": "OK",
      "vis_m": 9999,
      "fzfg": false,
      "metar_trigger": false,
      "taf_trigger": false,
      "metar": "METAR LIBD 141620Z 16005KT 110V210 9999 FEW040 18/14 Q1004",
      "taf": "TAF LIBD 141100Z 1412/1512 10012KT 9999 SCT040"
    },
    {
      "icao": "LIBG",
      "alert": "OK",
      "vis_m": 9999,
      "fzfg": false,
      "metar_trigger": false,
      "taf_trigger": false,
      "metar": "METAR LIBG 141550Z 18005KT 9999 SCT040 18/15 Q1005 RERA",
      "taf": "TAF LIBG 141400Z 1415/1424 22012KT 9999 SCT040"
    },
    {
      "icao": "LIBP",
      "alert": "OK",
      "vis_m": 9999,
      "fzfg": false,
      "metar_trigger": false,
      "taf_trigger": false,
      "metar": "METAR LIBP 141620Z AUTO 24013KT 9999 FEW091/// SCT110/// 22/08 Q1000",
      "taf": "TAF LIBP 141100Z 1412/1512 10013KT 9999 SCT050"
    },
    {
      "icao": "LIBR",
      "alert": "OK",
      "vis_m": 9999,
      "fzfg": false,
      "metar_trigger": false,
      "taf_trigger": false,
      "metar": "METAR LIBR 141620Z 23009KT CAVOK 20/13 Q1005",
      "taf": "TAF LIBR 141100Z 1412/1512 12012KT 9999 SCT040"
    },
    {
      "icao": "LICA",
      "alert": "OK",
      "vis_m": 9999,
      "fzfg": false,
      "metar_trigger": false,
      "taf_trigger": false,
      "metar": "METAR LICA 141620Z AUTO 25017KT 9999 SCT026/// BKN030/// 20/14 Q1008",
      "taf": "TAF LICA 141100Z 1412/1512 27013KT 9999 BKN020"
    },
    {
      "icao": "LICC",
      "alert": "OK",
      "vis_m": 9999,
      "fzfg": false,
      "metar_trigger": false,
      "taf_trigger": false,
      "metar": "METAR LICC 141620Z 08007KT 9999 FEW040 SCT090 21/13 Q1008",
      "taf": "TAF LICC 141100Z 1412/1512 26012KT 9999 SCT040"
    },
    {
      "icao": "LICJ",
      "alert": "OK",
      "vis_m": 9999,
      "fzfg": false,
      "metar_trigger": false,
      "taf_trigger": false,
      "metar": "METAR LICJ 141620Z 28013KT 9999 FEW050 19/15 Q1009",
      "taf": "TAF LICJ 141100Z 1412/1512 26016KT 9999 FEW040"
    },
    {
      "icao": "LIMC",
      "alert": "OK",
      "vis_m": 9999,
      "fzfg": false,
      "metar_trigger": false,
      "taf_trigger": false,
      "metar": "METAR LIMC 141620Z 09010KT 9999 FEW040 SCT100 16/09 Q0995 NOSIG",
      "taf": "TAF LIMC 141100Z 1412/1518 11010KT 9999 BKN020"
    },
    {
      "icao": "LIME",
      "alert": "OK",
      "vis_m": 9999,
      "fzfg": false,
      "metar_trigger": false,
      "taf_trigger": false,
      "metar": "METAR LIME 141620Z 10009KT 9999 RA FEW050 BKN070 11/09 Q0997 NOSIG",
      "taf": "TAF LIME 141100Z 1412/1512 VRB05KT 9999 BKN050"
    },
    {
      "icao": "LIMF",
      "alert": "OK",
      "vis_m": 9999,
      "fzfg": false,
      "metar_trigger": false,
      "taf_trigger": false,
      "metar": "METAR LIMF 141620Z 31013KT 9999 TS SCT015CB BKN020 17/M00 Q0995",
      "taf": "TAF LIMF 141100Z 1412/1512 VRB05KT 9999 FEW040"
    },
    {
      "icao": "LIMJ",
      "alert": "OK",
      "vis_m": 9999,
      "fzfg": false,
      "metar_trigger": false,
      "taf_trigger": false,
      "metar": "METAR LIMJ 141620Z 22027KT 9999 FEW070 18/12 Q0995",
      "taf": "TAF LIMJ 141100Z 1412/1512 15010KT 9999 FEW020"
    },
    {
      "icao": "LIPE",
      "alert": "OK",
      "vis_m": 9999,
      "fzfg": false,
      "metar_trigger": false,
      "taf_trigger": false,
      "metar": "METAR LIPE 141620Z 22010KT 190V250 9999 FEW070 21/03 Q0997",
      "taf": "TAF LIPE 141100Z 1412/1512 22013KT 9999 SCT060"
    },
    {
      "icao": "LIPH",
      "alert": "OK",
      "vis_m": 9999,
      "fzfg": false,
      "metar_trigger": false,
      "taf_trigger": false,
      "metar": "METAR LIPH 141620Z 05007KT 9999 BKN060 11/10 Q0998",
      "taf": "TAF LIPH 141100Z 1412/1512 06012KT 9999 SCT020 BKN040"
    },
    {
      "icao": "LIPQ",
      "alert": "OK",
      "vis_m": 9999,
      "fzfg": false,
      "metar_trigger": false,
      "taf_trigger": false,
      "metar": "METAR LIPQ 141620Z AUTO 31004KT 270V030 9999 TS BKN020/// BKN086/// BKN100/// 15/12 Q0997",
      "taf": "TAF LIPQ 141100Z 1412/1512 07006KT 9999 SCT020 BKN060"
    },
    {
      "icao": "LIPR",
      "alert": "OK",
      "vis_m": 9999,
      "fzfg": false,
      "metar_trigger": false,
      "taf_trigger": false,
      "metar": "METAR LIPR 141620Z 22012KT 180V240 9999 FEW060 21/00 Q0999",
      "taf": "TAF LIPR 141100Z 1412/1512 23013KT 9999 SCT060"
    },
    {
      "icao": "LIPX",
      "alert": "OK",
      "vis_m": 9999,
      "fzfg": false,
      "metar_trigger": false,
      "taf_trigger": false,
      "metar": "METAR LIPX 141620Z 04007KT 9999 TS FEW010 SCT030CB BKN050 11/10 Q0998 RERA",
      "taf": "TAF LIPX 141100Z 1412/1512 07012KT 9999 BKN050"
    },
    {
      "icao": "LIPY",
      "alert": "OK",
      "vis_m": 9999,
      "fzfg": false,
      "metar_trigger": false,
      "taf_trigger": false,
      "metar": "METAR LIPY 141620Z AUTO 23014KT 9999 FEW170/// BKN210/// 22/01 Q1000",
      "taf": "TAF LIPY 141100Z 1412/1512 23013KT 9999 SCT060"
    },
    {
      "icao": "LIPZ",
      "alert": "OK",
      "vis_m": 9999,
      "fzfg": false,
      "metar_trigger": false,
      "taf_trigger": false,
      "metar": "METAR LIPZ 141620Z 04011KT 9999 FEW010 BKN050 12/11 Q0998 NOSIG",
      "taf": "TAF LIPZ 141100Z 1412/1518 05014KT 9999 SCT020 BKN040"
    },
    {
      "icao": "LIRF",
      "alert": "OK",
      "vis_m": 9999,
      "fzfg": false,
      "metar_trigger": false,
      "taf_trigger": false,
      "metar": "METAR LIRF 141620Z 27014KT CAVOK 19/10 Q1004 NOSIG",
      "taf": "TAF LIRF 141100Z 1412/1518 26016KT 9999 FEW030"
    },
    {
      "icao": "LIRN",
      "alert": "OK",
      "vis_m": 9999,
      "fzfg": false,
      "metar_trigger": false,
      "taf_trigger": false,
      "metar": "METAR LIRN 141620Z 23009KT 200V260 9999 SCT040 SCT080 18/13 Q1006 RERA NOSIG",
      "taf": "TAF LIRN 141100Z 1412/1512 24013KT 9999 BKN040"
    },
    {
      "icao": "LIRP",
      "alert": "OK",
      "vis_m": 9999,
      "fzfg": false,
      "metar_trigger": false,
      "taf_trigger": false,
      "metar": "METAR LIRP 141615Z 23016G26KT 9999 FEW025 17/10 Q1001 TEMPO 22015G25KT",
      "taf": "TAF LIRP 141100Z 1412/1512 24020KT 9999 FEW020 SCT040"
    },
    {
      "icao": "LIRZ",
      "alert": "OK",
      "vis_m": 9999,
      "fzfg": false,
      "metar_trigger": false,
      "taf_trigger": false,
      "metar": "METAR LIRZ 141620Z AUTO 22014KT 9999 BKN066/// 19/08 Q1002",
      "taf": "TAF LIRZ 141100Z 1412/1512 22014KT 9999 BKN040"
    },
    {
      "icao": "LJLJ",
      "alert": "OK",
      "vis_m": 9999,
      "fzfg": false,
      "metar_trigger": false,
      "taf_trigger": false,
      "metar": "METAR LJLJ 141630Z 30008KT 9999 -SHRA FEW006 SCT034TCU BKN080 08/07 Q1000 NOSIG",
      "taf": "TAF LJLJ 141100Z 1412/1512 14005KT 9999 BKN040 OVC060"
    },
    {
      "icao": "LKMT",
      "alert": "OK",
      "vis_m": 9999,
      "fzfg": false,
      "metar_trigger": false,
      "taf_trigger": false,
      "metar": "METAR LKMT 141630Z 19008KT CAVOK 16/03 Q1000 NOSIG",
      "taf": "TAF LKMT 141100Z 1412/1512 21014KT CAVOK"
    },
    {
      "icao": "LKPR",
      "alert": "OK",
      "vis_m": 9999,
      "fzfg": false,
      "metar_trigger": false,
      "taf_trigger": false,
      "metar": "METAR LKPR 141630Z 19009KT CAVOK 13/02 Q0998 NOSIG",
      "taf": "TAF LKPR 141400Z 1415/1521 21011KT 9999 SCT040"
    },
    {
      "icao": "LLBG",
      "alert": "OK",
      "vis_m": 9999,
      "fzfg": false,
      "metar_trigger": false,
      "taf_trigger": false,
      "metar": "METAR LLBG 141650Z 33010KT CAVOK 28/07 Q1007 NOSIG",
      "taf": "TAF LLBG 141104Z 1412/1512 27008KT CAVOK TX33/1412Z TN19/1503Z"
    },
    {
      "icao": "LMML",
      "alert": "OK",
      "vis_m": 9999,
      "fzfg": false,
      "metar_trigger": false,
      "taf_trigger": false,
      "metar": "METAR LMML 141645Z 24006KT 210V290 CAVOK 19/13 Q1011 NOSIG",
      "taf": "TAF LMML 141100Z 1412/1512 28012KT 9999 FEW015"
    },
    {
      "icao": "LOWW",
      "alert": "OK",
      "vis_m": 9999,
      "fzfg": false,
      "metar_trigger": false,
      "taf_trigger": false,
      "metar": "METAR LOWW 141620Z 26007KT 240V300 9999 -SHRA FEW046 BKN050 14/08 Q1000 TEMPO SHRA",
      "taf": "TAF LOWW 141419Z 1415/1521 VRB05KT 9999 SCT050 TX14/1513Z TN09/1502Z"
    },
    {
      "icao": "LPFR",
      "alert": "OK",
      "vis_m": 9999,
      "fzfg": false,
      "metar_trigger": false,
      "taf_trigger": false,
      "metar": "METAR LPFR 141630Z 25019KT 9999 FEW020 20/14 Q1010",
      "taf": "TAF LPFR 141100Z 1412/1512 25013KT CAVOK"
    },
    {
      "icao": "LPMA",
      "alert": "OK",
      "vis_m": 9999,
      "fzfg": false,
      "metar_trigger": false,
      "taf_trigger": false,
      "metar": "METAR LPMA 141630Z 01014G24KT 340V040 9999 SCT015 FEW016TCU 17/13 Q1019",
      "taf": "TAF LPMA 141100Z 1412/1512 36013KT 9999 SCT015"
    },
    {
      "icao": "LPPR",
      "alert": "OK",
      "vis_m": 9999,
      "fzfg": false,
      "metar_trigger": false,
      "taf_trigger": false,
      "metar": "METAR LPPR 141630Z 34019KT 300V360 9999 FEW025 SCT045 17/10 Q1014",
      "taf": "TAF LPPR 141100Z 1412/1512 36018KT 9999 FEW020"
    },
    {
      "icao": "LPPS",
      "alert": "OK",
      "vis_m": 9999,
      "fzfg": false,
      "metar_trigger": false,
      "taf_trigger": false,
      "metar": "METAR LPPS 141630Z 01020KT 9999 FEW014 18/12 Q1019",
      "taf": "TAF LPPS 141100Z 1412/1518 35015KT 9999 SCT015"
    },
    {
      "icao": "LPPT",
      "alert": "OK",
      "vis_m": 9999,
      "fzfg": false,
      "metar_trigger": false,
      "taf_trigger": false,
      "metar": "METAR LPPT 141630Z 34019KT 9999 FEW030 18/09 Q1012",
      "taf": "TAF LPPT 141100Z 1412/1518 34015KT 9999 FEW020"
    },
    {
      "icao": "LQBK",
      "alert": "OK",
      "vis_m": 9999,
      "fzfg": false,
      "metar_trigger": false,
      "taf_trigger": false,
      "metar": "METAR LQBK 141630Z VRB03KT CAVOK 21/08 Q1000 NOSIG",
      "taf": "TAF LQBK 141100Z 1412/1512 12005KT CAVOK TX22/1413Z TN08/1504Z"
    },
    {
      "icao": "LQSA",
      "alert": "OK",
      "vis_m": 9999,
      "fzfg": false,
      "metar_trigger": false,
      "taf_trigger": false,
      "metar": "METAR LQSA 141630Z 21005KT 160V290 9999 FEW060 19/02 Q1002 NOSIG",
      "taf": "TAF LQSA 141100Z 1412/1512 VRB02KT CAVOK TX22/1413Z TN09/1504Z"
    },
    {
      "icao": "LQTZ",
      "alert": "OK",
      "vis_m": 9999,
      "fzfg": false,
      "metar_trigger": false,
      "taf_trigger": false,
      "metar": "METAR LQTZ 141630Z 10005KT 060V120 CAVOK 21/08 Q1000",
      "taf": "TAF LQTZ 141100Z 1412/1512 06006KT CAVOK TX21/1413Z TN08/1504Z"
    },
    {
      "icao": "LRBC",
      "alert": "OK",
      "vis_m": 9999,
      "fzfg": false,
      "metar_trigger": false,
      "taf_trigger": false,
      "metar": "METAR LRBC 141630Z 05004KT 360V080 CAVOK 17/05 Q1004",
      "taf": "TAF LRBC 141400Z 1415/1424 VRB03KT CAVOK"
    },
    {
      "icao": "LRBS",
      "alert": "OK",
      "vis_m": 9999,
      "fzfg": false,
      "metar_trigger": false,
      "taf_trigger": false,
      "metar": "METAR LRBS 141630Z 24005KT 200V270 CAVOK 18/05 Q1005 NOSIG",
      "taf": "TAF LRBS 141100Z 1412/1512 VRB04KT CAVOK"
    },
    {
      "icao": "LRBV",
      "alert": "OK",
      "vis_m": 9999,
      "fzfg": false,
      "metar_trigger": false,
      "taf_trigger": false,
      "metar": "METAR LRBV 141630Z 02005KT 9999 FEW059 14/06 Q1005",
      "taf": "TAF LRBV 141400Z 1415/1424 VRB04KT 9999 SCT060"
    },
    {
      "icao": "LRCL",
      "alert": "OK",
      "vis_m": 9999,
      "fzfg": false,
      "metar_trigger": false,
      "taf_trigger": false,
      "metar": "METAR LRCL 141630Z 05004KT 360V080 9999 SCT065 16/03 Q1004",
      "taf": "TAF LRCL 141400Z 1415/1424 VRB04KT CAVOK"
    },
    {
      "icao": "LRCV",
      "alert": "OK",
      "vis_m": 9999,
      "fzfg": false,
      "metar_trigger": false,
      "taf_trigger": false,
      "metar": "METAR LRCV 141630Z 17004KT 140V200 CAVOK 17/07 Q1005",
      "taf": "TAF LRCV 141400Z 1415/1424 20005KT CAVOK"
    },
    {
      "icao": "LRIA",
      "alert": "OK",
      "vis_m": 9999,
      "fzfg": false,
      "metar_trigger": false,
      "taf_trigger": false,
      "metar": "METAR LRIA 141630Z 36006KT 330V030 CAVOK 16/04 Q1004",
      "taf": "TAF LRIA 141400Z 1415/1424 32012KT CAVOK"
    },
    {
      "icao": "LROP",
      "alert": "OK",
      "vis_m": 9999,
      "fzfg": false,
      "metar_trigger": false,
      "taf_trigger": false,
      "metar": "METAR LROP 141630Z 26006KT CAVOK 17/05 Q1005 NOSIG",
      "taf": "TAF LROP 141100Z 1412/1512 VRB04KT CAVOK"
    },
    {
      "icao": "LRSB",
      "alert": "OK",
      "vis_m": 9999,
      "fzfg": false,
      "metar_trigger": false,
      "taf_trigger": false,
      "metar": "METAR LRSB 141630Z COR 02005KT 340V040 9999 FEW056 17/04 Q1004",
      "taf": "TAF LRSB 141100Z 1412/1512 VRB04KT CAVOK"
    },
    {
      "icao": "LRSM",
      "alert": "OK",
      "vis_m": 9999,
      "fzfg": false,
      "metar_trigger": false,
      "taf_trigger": false,
      "metar": "METAR LRSM 141630Z 34003KT CAVOK 18/04 Q1004",
      "taf": "TAF LRSM 141400Z 1415/1424 VRB04KT CAVOK"
    },
    {
      "icao": "LRSV",
      "alert": "OK",
      "vis_m": 9999,
      "fzfg": false,
      "metar_trigger": false,
      "taf_trigger": false,
      "metar": "METAR LRSV 141630Z 02006KT CAVOK 14/04 Q1004",
      "taf": "TAF LRSV 141400Z 1415/1424 VRB04KT CAVOK"
    },
    {
      "icao": "LRTM",
      "alert": "OK",
      "vis_m": 9999,
      "fzfg": false,
      "metar_trigger": false,
      "taf_trigger": false,
      "metar": "METAR LRTM 141630Z 07003KT CAVOK 16/06 Q1004",
      "taf": "TAF LRTM 141400Z 1415/1424 VRB04KT CAVOK"
    },
    {
      "icao": "LRTR",
      "alert": "OK",
      "vis_m": 9999,
      "fzfg": false,
      "metar_trigger": false,
      "taf_trigger": false,
      "metar": "METAR LRTR 141630Z 17006KT 140V200 CAVOK 20/02 Q1002",
      "taf": "TAF LRTR 141100Z 1412/1512 13007KT CAVOK"
    },
    {
      "icao": "LTAC",
      "alert": "OK",
      "vis_m": 9999,
      "fzfg": false,
      "metar_trigger": false,
      "taf_trigger": false,
      "metar": "METAR LTAC 141620Z 22005KT 9999 -SHRA BKN036 BKN080 12/09 Q1002 NOSIG RMK RWY21C 12003KT 040V180 RWY03L 22005KT RWY21R VRB01KT RWY03R 19004KT RWY21L 15005KT",
      "taf": "TAF LTAC 141040Z 1412/1512 VRB02KT 9999 SCT040 SCT100"
    },
    {
      "icao": "LTFM",
      "alert": "OK",
      "vis_m": 9999,
      "fzfg": false,
      "metar_trigger": false,
      "taf_trigger": false,
      "metar": "METAR LTFM 141620Z 05009KT 9999 SCT035 14/09 Q1006 NOSIG RMK RWY17L 06008KT RWY34L 06008KT RWY16R 06008KT RWY36 06009KT RWY18 08007KT",
      "taf": "TAF LTFM 141040Z 1412/1518 05012KT 9999 SCT035"
    },
    {
      "icao": "LUKK",
      "alert": "OK",
      "vis_m": 9999,
      "fzfg": false,
      "metar_trigger": false,
      "taf_trigger": false,
      "metar": "METAR LUKK 141630Z 33006KT CAVOK 16/04 Q1004 NOSIG",
      "taf": "TAF LUKK 141104Z 1412/1512 33010KT CAVOK"
    },
    {
      "icao": "LWOH",
      "alert": "OK",
      "vis_m": 9999,
      "fzfg": false,
      "metar_trigger": false,
      "taf_trigger": false,
      "metar": "METAR LWOH 141650Z VRB03KT 9999 SCT040 SCT090 16/07 Q1006",
      "taf": "TAF LWOH 141440Z 1415/1515 VRB02KT 9999 FEW040 SCT090"
    },
    {
      "icao": "LWSK",
      "alert": "OK",
      "vis_m": 9999,
      "fzfg": false,
      "metar_trigger": false,
      "taf_trigger": false,
      "metar": "METAR LWSK 141650Z 16004KT 130V200 9999 FEW065 22/09 Q1002 NOSIG",
      "taf": ""
    },
    {
      "icao": "LYBE",
      "alert": "OK",
      "vis_m": 9999,
      "fzfg": false,
      "metar_trigger": false,
      "taf_trigger": false,
      "metar": "METAR LYBE 141630Z 15004KT 110V180 CAVOK 21/05 Q1001 NOSIG",
      "taf": "TAF LYBE 141100Z 1412/1512 13008KT CAVOK TX21/1413Z TN11/1504Z"
    },
    {
      "icao": "LYNI",
      "alert": "OK",
      "vis_m": 9999,
      "fzfg": false,
      "metar_trigger": false,
      "taf_trigger": false,
      "metar": "METAR LYNI 141630Z 08005KT CAVOK 21/01 Q1002 NOSIG",
      "taf": "TAF LYNI 141100Z 1412/1512 07005KT CAVOK TX25/1512Z TN07/1503Z"
    },
    {
      "icao": "LYPG",
      "alert": "OK",
      "vis_m": 9999,
      "fzfg": false,
      "metar_trigger": false,
      "taf_trigger": false,
      "metar": "METAR LYPG 141630Z 23005KT 190V270 9999 FEW034 21/08 Q1004 NOSIG",
      "taf": "TAF LYPG 141100Z 1412/1512 16009KT 9999 FEW020 SCT040 TX24/1413Z TN13/1504Z"
    },
    {
      "icao": "LZIB",
      "alert": "OK",
      "vis_m": 9999,
      "fzfg": false,
      "metar_trigger": false,
      "taf_trigger": false,
      "metar": "METAR LZIB 141630Z 17005KT 9999 FEW040TCU 18/04 Q0999 TEMPO SHRA FEW025TCU BKN040",
      "taf": "TAF LZIB 141115Z 1412/1512 21005KT CAVOK"
    },
    {
      "icao": "LZKZ",
      "alert": "OK",
      "vis_m": 9999,
      "fzfg": false,
      "metar_trigger": false,
      "taf_trigger": false,
      "metar": "METAR LZKZ 141630Z 19008KT CAVOK 17/04 Q1003 NOSIG",
      "taf": "TAF LZKZ 141115Z 1412/1512 22008KT CAVOK"
    },
    {
      "icao": "LZTT",
      "alert": "OK",
      "vis_m": 9999,
      "fzfg": false,
      "metar_trigger": false,
      "taf_trigger": false,
      "metar": "METAR LZTT 141630Z 20007KT 9999 FEW060 13/02 Q1003 NOSIG",
      "taf": "TAF LZTT 141115Z 1412/1512 25007KT 9999 FEW050"
    },
    {
      "icao": "OEJN",
      "alert": "OK",
      "vis_m": 9999,
      "fzfg": false,
      "metar_trigger": false,
      "taf_trigger": false,
      "metar": "METAR OEJN 141600Z 31008KT CAVOK 31/21 Q1004 NOSIG",
      "taf": "TAF OEJN 141100Z 1412/1518 34012KT CAVOK"
    },
    {
      "icao": "OEMA",
      "alert": "OK",
      "vis_m": 9999,
      "fzfg": false,
      "metar_trigger": false,
      "taf_trigger": false,
      "metar": "METAR OEMA 141600Z 28009KT CAVOK 38/M08 Q1008 NOSIG",
      "taf": "TAF OEMA 141100Z 1412/1518 30012KT CAVOK"
    },
    {
      "icao": "OJAI",
      "alert": "OK",
      "vis_m": 4000,
      "fzfg": false,
      "metar_trigger": false,
      "taf_trigger": false,
      "metar": "METAR OJAI 141600Z 28009KT 4000 HZ NSC 28/05 Q1012 NOSIG",
      "taf": "TAF OJAI 141100Z 1412/1518 25012KT 4000 DU NSC"
    },
    {
      "icao": "OMAA",
      "alert": "OK",
      "vis_m": 9999,
      "fzfg": false,
      "metar_trigger": false,
      "taf_trigger": false,
      "metar": "METAR OMAA 141630Z 25006KT 220V290 CAVOK 33/14 Q1002 NOSIG",
      "taf": "TAF OMAA 141100Z 1412/1518 29012KT 8000 NSC"
    },
    {
      "icao": "OMDB",
      "alert": "OK",
      "vis_m": 9999,
      "fzfg": false,
      "metar_trigger": false,
      "taf_trigger": false,
      "metar": "METAR OMDB 141630Z 25010KT CAVOK 32/17 Q1001 NOSIG",
      "taf": ""
    },
    {
      "icao": "UAAA",
      "alert": "OK",
      "vis_m": 9999,
      "fzfg": false,
      "metar_trigger": false,
      "taf_trigger": false,
      "metar": "METAR UAAA 141630Z 09003MPS 9999 FEW100 14/00 Q1018 NOSIG",
      "taf": "TAF UAAA 141100Z 1412/1512 23002MPS 9999 FEW050CB SCT100 TX21/1506Z TN06/1501Z"
    },
    {
      "icao": "UBBB",
      "alert": "OK",
      "vis_m": 9999,
      "fzfg": false,
      "metar_trigger": false,
      "taf_trigger": false,
      "metar": "METAR UBBB 141630Z 34008KT CAVOK 18/14 Q1006 NOSIG",
      "taf": "TAF UBBB 141053Z 1412/1512 32010KT 9999 SCT040 TX22/1412Z TN15/1423Z"
    },
    {
      "icao": "UDSG",
      "alert": "OK",
      "vis_m": 9999,
      "fzfg": false,
      "metar_trigger": false,
      "taf_trigger": false,
      "metar": "METAR UDSG 141630Z 03013KT 9999 BKN036CB 11/07 Q1010 NOSIG",
      "taf": "TAF UDSG 141058Z 1412/1512 24006KT 9999 SCT040"
    },
    {
      "icao": "UDYZ",
      "alert": "OK",
      "vis_m": 9999,
      "fzfg": false,
      "metar_trigger": false,
      "taf_trigger": false,
      "metar": "METAR UDYZ 141630Z 10007KT 9999 VCTS BKN043CB 19/11 Q1006 TEMPO 23016G26KT",
      "taf": "TAF UDYZ 141100Z 1412/1512 22006KT 9999 FEW040"
    },
    {
      "icao": "UGKO",
      "alert": "OK",
      "vis_m": 9999,
      "fzfg": false,
      "metar_trigger": false,
      "taf_trigger": false,
      "metar": "METAR UGKO 141630Z 08008KT CAVOK 22/12 Q0998 NOSIG",
      "taf": "TAF UGKO 141100Z 1412/1512 09010KT CAVOK TX29/1412Z TN14/1502Z"
    }
  ]
}