{
  "ts_utc": "2025-12-22T23:54:58Z",
  "threshold_m": 150,
  "source": "stations_override.txt (ICAO list) + aviationweather.gov (METAR/TAF raw)",
  "station_count": 159,
  "stations": [
    {
      "icao": "BIKF",
      "alert": "OK",
      "vis_m": 9999,
      "fzfg": false,
      "metar_trigger": false,
      "taf_trigger": false,
      "metar": "METAR BIKF 222330Z 27012KT 9999 -DZ FEW019 BKN040 BKN060 04/01 Q1002",
      "taf": "TAF BIKF 222243Z 2300/2400 26018G30KT 7000 -SHRA SCT015 BKN030 TX07/2318Z TN02/2306Z"
    },
    {
      "icao": "BKPR",
      "alert": "OK",
      "vis_m": null,
      "fzfg": false,
      "metar_trigger": false,
      "taf_trigger": false,
      "metar": "",
      "taf": "TAF BKPR 222330Z 2300/2324 22006KT 8000 BKN010"
    },
    {
      "icao": "EBCI",
      "alert": "OK",
      "vis_m": 6000,
      "fzfg": false,
      "metar_trigger": false,
      "taf_trigger": false,
      "metar": "METAR EBCI 222320Z 04005KT 6000 NSC 00/M00 Q1010 NOSIG",
      "taf": "TAF EBCI 222300Z 2300/2406 04003KT 7000 SCT010"
    },
    {
      "icao": "EDDB",
      "alert": "OK",
      "vis_m": 4200,
      "fzfg": false,
      "metar_trigger": false,
      "taf_trigger": false,
      "metar": "METAR EDDB 222350Z AUTO 06013KT 4200 BR OVC005 01/00 Q1020 TEMPO 2500 -DZ BR BKN004",
      "taf": "TAF EDDB 222300Z 2300/2324 06010KT 6000 BKN005"
    },
    {
      "icao": "EDDH",
      "alert": "OK",
      "vis_m": 5000,
      "fzfg": false,
      "metar_trigger": false,
      "taf_trigger": false,
      "metar": "METAR EDDH 222350Z AUTO 09010KT 5000 BR OVC003 02/01 Q1021 TEMPO OVC005",
      "taf": "TAF EDDH 222300Z 2300/2406 08010KT 8000 OVC003"
    },
    {
      "icao": "EDDK",
      "alert": "OK",
      "vis_m": 9999,
      "fzfg": false,
      "metar_trigger": false,
      "taf_trigger": false,
      "metar": "METAR EDDK 222350Z AUTO 12004KT 080V160 9999 OVC017 04/01 Q1013 NOSIG",
      "taf": "TAF EDDK 222300Z 2300/2406 10007KT 9999 OVC015"
    },
    {
      "icao": "EDDN",
      "alert": "OK",
      "vis_m": 9999,
      "fzfg": false,
      "metar_trigger": false,
      "taf_trigger": false,
      "metar": "METAR EDDN 222350Z AUTO 09005KT 060V120 9999 OVC012 03/00 Q1013",
      "taf": "TAF EDDN 222300Z 2300/2324 08006KT 9000 BKN012"
    },
    {
      "icao": "EDDS",
      "alert": "OK",
      "vis_m": 9999,
      "fzfg": false,
      "metar_trigger": false,
      "taf_trigger": false,
      "metar": "METAR EDDS 222350Z AUTO 08003KT 9999 OVC011 01/M01 Q1010",
      "taf": "TAF EDDS 222300Z 2300/2324 VRB03KT 9999 OVC005"
    },
    {
      "icao": "EDFH",
      "alert": "OK",
      "vis_m": 9999,
      "fzfg": false,
      "metar_trigger": false,
      "taf_trigger": false,
      "metar": "METAR EDFH 222320Z 11009KT 9999 BKN007 02/00 Q1010",
      "taf": "TAF EDFH 222300Z 2300/2324 10010KT 9999 OVC005"
    },
    {
      "icao": "EDJA",
      "alert": "OK",
      "vis_m": 3300,
      "fzfg": false,
      "metar_trigger": false,
      "taf_trigger": false,
      "metar": "METAR EDJA 222320Z AUTO 08006KT 3300 // BKN002/// OVC006/// M02/M03 Q1010",
      "taf": "TAF EDJA 221700Z 2218/2303 05008KT 3000 BR OVC002"
    },
    {
      "icao": "EDLW",
      "alert": "OK",
      "vis_m": 9999,
      "fzfg": false,
      "metar_trigger": false,
      "taf_trigger": false,
      "metar": "METAR EDLW 222320Z AUTO 05010KT 9999 // OVC019/// 04/01 Q1013",
      "taf": "TAF EDLW 221700Z 2218/2318 07008KT 9999 SCT020"
    },
    {
      "icao": "EDNY",
      "alert": "OK",
      "vis_m": 9999,
      "fzfg": false,
      "metar_trigger": false,
      "taf_trigger": false,
      "metar": "METAR EDNY 222320Z AUTO 03005KT 9999 // OVC009/// M01/M02 Q1010",
      "taf": "TAF EDNY 221700Z 2218/2303 02005KT 9999 SCT012"
    },
    {
      "icao": "EDSB",
      "alert": "OK",
      "vis_m": 9000,
      "fzfg": false,
      "metar_trigger": false,
      "taf_trigger": false,
      "metar": "METAR EDSB 222320Z AUTO 03005KT 9000 // SCT016/// M01/M02 Q1011",
      "taf": "TAF EDSB 222300Z 2300/2324 02005KT 9999 OVC015"
    },
    {
      "icao": "EETN",
      "alert": "OK",
      "vis_m": 9999,
      "fzfg": false,
      "metar_trigger": false,
      "taf_trigger": false,
      "metar": "METAR EETN 222350Z 10008KT 9999 -SN OVC037 M04/M07 Q1031",
      "taf": "TAF EETN 222330Z 2300/2324 10010KT 9999 BKN035"
    },
    {
      "icao": "EFTU",
      "alert": "OK",
      "vis_m": 9999,
      "fzfg": false,
      "metar_trigger": false,
      "taf_trigger": false,
      "metar": "METAR EFTU 222350Z AUTO 07005KT CAVOK M07/M11 Q1033",
      "taf": "TAF EFTU 222333Z 2300/2324 07006KT CAVOK"
    },
    {
      "icao": "EGBB",
      "alert": "OK",
      "vis_m": 5000,
      "fzfg": false,
      "metar_trigger": false,
      "taf_trigger": false,
      "metar": "METAR EGBB 222320Z 05005KT 5000 BR OVC006 08/07 Q1012",
      "taf": "TAF EGBB 222258Z 2300/2324 07008KT 5000 BR BKN005"
    },
    {
      "icao": "EGGP",
      "alert": "OK",
      "vis_m": 9000,
      "fzfg": false,
      "metar_trigger": false,
      "taf_trigger": false,
      "metar": "METAR EGGP 222320Z 06005KT 9000 OVC014 08/06 Q1013",
      "taf": "TAF EGGP 222253Z 2300/2324 11006KT 9999 SCT012"
    },
    {
      "icao": "EGGW",
      "alert": "OK",
      "vis_m": 5000,
      "fzfg": false,
      "metar_trigger": false,
      "taf_trigger": false,
      "metar": "METAR EGGW 222320Z AUTO 06004KT 5000 BR OVC004 07/06 Q1012",
      "taf": "TAF EGGW 222255Z 2300/2324 08007KT 6000 BKN004"
    },
    {
      "icao": "EGKK",
      "alert": "OK",
      "vis_m": 6000,
      "fzfg": false,
      "metar_trigger": false,
      "taf_trigger": false,
      "metar": "METAR EGKK 222320Z 06005KT 6000 SCT003 07/07 Q1011",
      "taf": "TAF EGKK 222255Z 2300/2406 06007KT 6000 SCT008"
    },
    {
      "icao": "EGNM",
      "alert": "OK",
      "vis_m": 8000,
      "fzfg": false,
      "metar_trigger": false,
      "taf_trigger": false,
      "metar": "METAR EGNM 222250Z 07007KT 8000 BKN008 06/06 Q1014",
      "taf": "TAF EGNM 222253Z 2300/2324 07005KT 6000 SCT003 BKN006"
    },
    {
      "icao": "EGPD",
      "alert": "OK",
      "vis_m": 9999,
      "fzfg": false,
      "metar_trigger": false,
      "taf_trigger": false,
      "metar": "METAR EGPD 222320Z COR AUTO 14008KT 9999 FEW016 OVC021 09/07 Q1017 NOSIG",
      "taf": "TAF EGPD 222253Z 2300/2324 15009KT 9999 FEW007 BKN016"
    },
    {
      "icao": "EGPF",
      "alert": "OK",
      "vis_m": 8000,
      "fzfg": false,
      "metar_trigger": false,
      "taf_trigger": false,
      "metar": "METAR EGPF 222320Z AUTO 05006KT 8000 NCD 07/06 Q1015",
      "taf": "TAF EGPF 222256Z 2300/2324 07008KT 9999 SCT040"
    },
    {
      "icao": "EHBK",
      "alert": "OK",
      "vis_m": 9999,
      "fzfg": false,
      "metar_trigger": false,
      "taf_trigger": false,
      "metar": "METAR EHBK 222325Z AUTO 08008KT 9999 NSC 02/01 Q1011",
      "taf": "TAF EHBK 222318Z 2300/2406 08010KT 9999 SCT018"
    },
    {
      "icao": "EHEH",
      "alert": "OK",
      "vis_m": 9999,
      "fzfg": false,
      "metar_trigger": false,
      "taf_trigger": false,
      "metar": "METAR EHEH 222325Z AUTO 06008KT 9999 OVC017 03/01 Q1013 WHT",
      "taf": ""
    },
    {
      "icao": "EKBI",
      "alert": "OK",
      "vis_m": 9999,
      "fzfg": false,
      "metar_trigger": false,
      "taf_trigger": false,
      "metar": "METAR EKBI 222350Z AUTO 09012KT 9999 OVC020/// 05/00 Q1024",
      "taf": "TAF EKBI 222327Z 2300/2324 09012KT 9999 OVC020"
    },
    {
      "icao": "EKCH",
      "alert": "OK",
      "vis_m": 9999,
      "fzfg": false,
      "metar_trigger": false,
      "taf_trigger": false,
      "metar": "METAR EKCH 222350Z AUTO 07010KT 040V100 9999 OVC031/// 05/02 Q1025 NOSIG",
      "taf": "TAF EKCH 222327Z 2300/2324 06012KT 9999 OVC030"
    },
    {
      "icao": "ENAL",
      "alert": "OK",
      "vis_m": 9999,
      "fzfg": false,
      "metar_trigger": false,
      "taf_trigger": false,
      "metar": "METAR ENAL 222320Z AUTO 15009KT 9999 NCD 02/M04 Q1025",
      "taf": "TAF ENAL 222300Z 2300/2309 16010KT CAVOK"
    },
    {
      "icao": "ENBR",
      "alert": "OK",
      "vis_m": 9999,
      "fzfg": false,
      "metar_trigger": false,
      "taf_trigger": false,
      "metar": "METAR ENBR 222320Z VRB01KT CAVOK 00/M03 Q1025 RMK WIND 1200FT 13008KT",
      "taf": "TAF ENBR 222300Z 2300/2324 10003KT CAVOK"
    },
    {
      "icao": "ENGM",
      "alert": "OK",
      "vis_m": 9999,
      "fzfg": false,
      "metar_trigger": false,
      "taf_trigger": false,
      "metar": "METAR ENGM 222320Z 03003KT 9999 OVC010 M04/M05 Q1032",
      "taf": "TAF ENGM 222300Z 2300/2324 02005KT 9999 BKN008"
    },
    {
      "icao": "ENHD",
      "alert": "OK",
      "vis_m": 9999,
      "fzfg": false,
      "metar_trigger": false,
      "taf_trigger": false,
      "metar": "METAR ENHD 222320Z AUTO 14006KT 050V160 9999 NCD 05/01 Q1025",
      "taf": "TAF ENHD 221400Z 2215/2223 09007KT CAVOK"
    },
    {
      "icao": "ENTC",
      "alert": "OK",
      "vis_m": 9999,
      "fzfg": false,
      "metar_trigger": false,
      "taf_trigger": false,
      "metar": "METAR ENTC 222320Z 18014KT 9999 RA OVC009 02/00 Q1027 RMK WIND 2600FT 25020KT",
      "taf": "TAF ENTC 222300Z 2300/2324 20012KT 9999 -RADZ BKN009"
    },
    {
      "icao": "ENTO",
      "alert": "OK",
      "vis_m": 9999,
      "fzfg": false,
      "metar_trigger": false,
      "taf_trigger": false,
      "metar": "METAR ENTO 222320Z AUTO 01006KT 9999 OVC005/// M02/M02 Q1031",
      "taf": "TAF ENTO 222300Z 2300/2324 02008KT 9999 BKN004"
    },
    {
      "icao": "ENVA",
      "alert": "OK",
      "vis_m": 9999,
      "fzfg": false,
      "metar_trigger": false,
      "taf_trigger": false,
      "metar": "METAR ENVA 222320Z 00000KT CAVOK M03/M05 Q1029 RMK WIND 670FT 11010KT",
      "taf": "TAF ENVA 222300Z 2300/2324 11005KT CAVOK"
    },
    {
      "icao": "ENZV",
      "alert": "OK",
      "vis_m": 9999,
      "fzfg": false,
      "metar_trigger": false,
      "taf_trigger": false,
      "metar": "METAR ENZV 222320Z VRB02KT CAVOK 02/M02 Q1025",
      "taf": "TAF ENZV 222300Z 2300/2324 12003KT CAVOK"
    },
    {
      "icao": "EPGD",
      "alert": "OK",
      "vis_m": 9999,
      "fzfg": false,
      "metar_trigger": false,
      "taf_trigger": false,
      "metar": "METAR EPGD 222330Z VRB02KT 9999 -SHRA FEW013TCU BKN022 02/01 Q1024",
      "taf": "TAF EPGD 222330Z 2300/2324 07005KT 9999 BKN030"
    },
    {
      "icao": "EPKK",
      "alert": "OK",
      "vis_m": 2500,
      "fzfg": false,
      "metar_trigger": false,
      "taf_trigger": false,
      "metar": "METAR EPKK 222330Z 06006KT 2500 BR OVC003 01/01 Q1019",
      "taf": "TAF EPKK 222330Z 2300/2324 06008KT 3000 BR OVC003"
    },
    {
      "icao": "EPKT",
      "alert": "OK",
      "vis_m": 1500,
      "fzfg": false,
      "metar_trigger": false,
      "taf_trigger": false,
      "metar": "METAR EPKT 222330Z 07005KT 1500 -DZ BR OVC002 01/01 Q1019",
      "taf": "TAF EPKT 222330Z 2300/2324 07006KT 3000 BR OVC002"
    },
    {
      "icao": "EPLB",
      "alert": "OK",
      "vis_m": 9999,
      "fzfg": false,
      "metar_trigger": false,
      "taf_trigger": false,
      "metar": "METAR EPLB 222330Z 10003KT 9999 OVC021 01/M00 Q1022",
      "taf": "TAF EPLB 222330Z 2300/2324 09005KT 9999 OVC020"
    },
    {
      "icao": "EPMO",
      "alert": "OK",
      "vis_m": 9999,
      "fzfg": false,
      "metar_trigger": false,
      "taf_trigger": false,
      "metar": "METAR EPMO 222330Z 07004KT 9999 OVC027 02/M01 Q1023",
      "taf": "TAF EPMO 222330Z 2300/2324 08006KT 9999 BKN030"
    },
    {
      "icao": "EPPO",
      "alert": "OK",
      "vis_m": 9999,
      "fzfg": false,
      "metar_trigger": false,
      "taf_trigger": false,
      "metar": "METAR EPPO 222330Z 09011KT 9999 OVC013 02/M01 Q1022",
      "taf": "TAF EPPO 222330Z 2300/2324 09010KT 9999 OVC013"
    },
    {
      "icao": "EPRA",
      "alert": "OK",
      "vis_m": 9999,
      "fzfg": false,
      "metar_trigger": false,
      "taf_trigger": false,
      "metar": "METAR EPRA 222330Z 08009KT 9999 OVC019 01/M03 Q1022",
      "taf": "TAF EPRA 222330Z 2300/2309 11008KT 9999 OVC018"
    },
    {
      "icao": "EPRZ",
      "alert": "OK",
      "vis_m": 9999,
      "fzfg": false,
      "metar_trigger": false,
      "taf_trigger": false,
      "metar": "METAR EPRZ 222330Z 07009KT 9999 OVC011 01/M01 Q1020",
      "taf": "TAF EPRZ 222330Z 2300/2324 07008KT 9999 BKN012"
    },
    {
      "icao": "EPSC",
      "alert": "OK",
      "vis_m": 9999,
      "fzfg": false,
      "metar_trigger": false,
      "taf_trigger": false,
      "metar": "METAR EPSC 222330Z 09007KT 9999 OVC019 03/M01 Q1023",
      "taf": "TAF EPSC 222330Z 2300/2324 10010KT 9999 BKN020"
    },
    {
      "icao": "EPSY",
      "alert": "OK",
      "vis_m": 9999,
      "fzfg": false,
      "metar_trigger": false,
      "taf_trigger": false,
      "metar": "METAR EPSY 222330Z 04004KT 020V080 9999 OVC028 03/M02 Q1023",
      "taf": "TAF EPSY 222330Z 2300/2309 06005KT 9999 BKN030"
    },
    {
      "icao": "EPWA",
      "alert": "OK",
      "vis_m": 9999,
      "fzfg": false,
      "metar_trigger": false,
      "taf_trigger": false,
      "metar": "METAR EPWA 222330Z 10005KT 9999 BKN026 02/M02 Q1023 NOSIG",
      "taf": "TAF EPWA 222330Z 2300/2324 09006KT 9999 BKN030"
    },
    {
      "icao": "EPWR",
      "alert": "OK",
      "vis_m": 4000,
      "fzfg": false,
      "metar_trigger": false,
      "taf_trigger": false,
      "metar": "METAR EPWR 222330Z 12007KT 4000 BR BKN004 03/03 Q1019",
      "taf": "TAF EPWR 222330Z 2300/2324 12008KT 5000 BR OVC005"
    },
    {
      "icao": "ESGG",
      "alert": "OK",
      "vis_m": 9999,
      "fzfg": false,
      "metar_trigger": false,
      "taf_trigger": false,
      "metar": "METAR ESGG 222320Z 07009KT 9999 OVC004 M01/M01 Q1028",
      "taf": "TAF ESGG 222330Z 2300/2324 07008KT 9999 OVC003"
    },
    {
      "icao": "ESKN",
      "alert": "OK",
      "vis_m": 9999,
      "fzfg": false,
      "metar_trigger": false,
      "taf_trigger": false,
      "metar": "METAR ESKN 222320Z 04004KT 010V070 9999 OVC009 01/00 Q1030",
      "taf": "TAF ESKN 222330Z 2300/2324 05005KT 9999 BKN020"
    },
    {
      "icao": "ESMS",
      "alert": "OK",
      "vis_m": 9999,
      "fzfg": false,
      "metar_trigger": false,
      "taf_trigger": false,
      "metar": "METAR ESMS 222320Z 09010KT 9999 BKN027 05/M00 Q1025",
      "taf": "TAF ESMS 222327Z 2300/2324 07010KT 9999 BKN030"
    },
    {
      "icao": "ESSA",
      "alert": "OK",
      "vis_m": 9999,
      "fzfg": false,
      "metar_trigger": false,
      "taf_trigger": false,
      "metar": "METAR ESSA 222320Z 36006KT 9999 OVC005 M01/M01 Q1030 BECMG BKN015",
      "taf": "TAF ESSA 222330Z 2300/2324 01005KT 9999 BKN020"
    },
    {
      "icao": "EYKA",
      "alert": "OK",
      "vis_m": 8000,
      "fzfg": false,
      "metar_trigger": false,
      "taf_trigger": false,
      "metar": "METAR EYKA 222350Z AUTO VRB02KT 8000 -RA BKN005/// OVC021/// 02/01 Q1024",
      "taf": "TAF EYKA 222311Z 2300/2324 VRB04KT 5000 BR OVC010"
    },
    {
      "icao": "EYPA",
      "alert": "OK",
      "vis_m": 9999,
      "fzfg": false,
      "metar_trigger": false,
      "taf_trigger": false,
      "metar": "METAR EYPA 222350Z AUTO 07004KT 9999 FEW018/// 00/00 Q1025",
      "taf": "TAF EYPA 222304Z 2300/2324 06010KT 5000 BR SCT010 BKN015"
    },
    {
      "icao": "EYVI",
      "alert": "OK",
      "vis_m": 9999,
      "fzfg": false,
      "metar_trigger": false,
      "taf_trigger": false,
      "metar": "METAR EYVI 222350Z 02004KT 9999 BKN003 OVC025 01/M00 Q1022 NOSIG",
      "taf": "TAF EYVI 222324Z 2300/2324 VRB04KT 5000 BR BKN005"
    },
    {
      "icao": "GCFV",
      "alert": "OK",
      "vis_m": 9999,
      "fzfg": false,
      "metar_trigger": false,
      "taf_trigger": false,
      "metar": "METAR GCFV 222330Z AUTO 34010KT 9999 BKN026 17/12 Q1021",
      "taf": "TAF GCFV 222000Z 2221/2321 02015KT 9999 SCT025 TX22/2314Z TN15/2306Z"
    },
    {
      "icao": "GCLP",
      "alert": "OK",
      "vis_m": 9999,
      "fzfg": false,
      "metar_trigger": false,
      "taf_trigger": false,
      "metar": "METAR GCLP 222330Z 36011KT 9999 FEW025 BKN040 18/13 Q1022 NOSIG",
      "taf": "TAF GCLP 222000Z 2221/2321 01015KT 9999 BKN020 TX21/2314Z TN16/2306Z"
    },
    {
      "icao": "GCTS",
      "alert": "OK",
      "vis_m": 9999,
      "fzfg": false,
      "metar_trigger": false,
      "taf_trigger": false,
      "metar": "METAR GCTS 222330Z 07014KT 9999 FEW035 18/10 Q1022 NOSIG",
      "taf": "TAF GCTS 222000Z 2221/2321 02009KT 9999 BKN030 TX24/2314Z TN15/2306Z"
    },
    {
      "icao": "GMAD",
      "alert": "OK",
      "vis_m": 9999,
      "fzfg": false,
      "metar_trigger": false,
      "taf_trigger": false,
      "metar": "METAR GMAD 222330Z 04003KT 020V130 CAVOK 11/08 Q1016 NOSIG",
      "taf": "TAF GMAD 222300Z 2300/2406 12004KT 6000 SCT020"
    },
    {
      "icao": "GMMN",
      "alert": "OK",
      "vis_m": 9999,
      "fzfg": false,
      "metar_trigger": false,
      "taf_trigger": false,
      "metar": "METAR GMMN 222330Z 20006KT 9999 SCT020 08/07 Q1020 NOSIG",
      "taf": "TAF GMMN 222300Z 2300/2406 20008KT 9999 SCT020"
    },
    {
      "icao": "GMMX",
      "alert": "OK",
      "vis_m": 8000,
      "fzfg": false,
      "metar_trigger": false,
      "taf_trigger": false,
      "metar": "METAR GMMX 222330Z 10004KT 8000 SCT023 09/07 Q1020 NOSIG",
      "taf": "TAF GMMX 221700Z 2218/2324 12006KT 8000 SCT023"
    },
    {
      "icao": "HEGN",
      "alert": "OK",
      "vis_m": 9999,
      "fzfg": false,
      "metar_trigger": false,
      "taf_trigger": false,
      "metar": "METAR HEGN 222300Z 26004KT CAVOK 15/12 Q1015 NOSIG",
      "taf": "TAF HEGN 222300Z 2300/2406 29010KT CAVOK"
    },
    {
      "icao": "HEMA",
      "alert": "OK",
      "vis_m": 9999,
      "fzfg": false,
      "metar_trigger": false,
      "taf_trigger": false,
      "metar": "METAR HEMA 222300Z 27005KT CAVOK 18/12 Q1014 NOSIG",
      "taf": "TAF HEMA 222300Z 2300/2406 28010KT CAVOK"
    },
    {
      "icao": "HESH",
      "alert": "OK",
      "vis_m": 9999,
      "fzfg": false,
      "metar_trigger": false,
      "taf_trigger": false,
      "metar": "METAR HESH 222300Z 26005KT CAVOK 18/12 Q1014 NOSIG",
      "taf": "TAF HESH 222300Z 2300/2406 32010KT CAVOK"
    },
    {
      "icao": "HESX",
      "alert": "OK",
      "vis_m": 9999,
      "fzfg": false,
      "metar_trigger": false,
      "taf_trigger": false,
      "metar": "METAR HESX 222300Z 20006KT CAVOK 11/03 Q1015 NOSIG",
      "taf": "TAF HESX 222300Z 2300/2406 23009KT CAVOK"
    },
    {
      "icao": "LATI",
      "alert": "OK",
      "vis_m": 7000,
      "fzfg": false,
      "metar_trigger": false,
      "taf_trigger": false,
      "metar": "METAR LATI 222350Z VRB02KT 7000 NSC 03/01 Q1016 NOSIG",
      "taf": "TAF LATI 222300Z 2300/2324 VRB05KT CAVOK TX14/2312Z TN02/2302Z"
    },
    {
      "icao": "LBPD",
      "alert": "OK",
      "vis_m": 9999,
      "fzfg": false,
      "metar_trigger": false,
      "taf_trigger": false,
      "metar": "METAR LBPD 222330Z AUTO 10005KT 9999 SCT006/// OVC014/// 07/07 Q1020",
      "taf": "TAF LBPD 222300Z 2300/2324 VRB03KT 3000 BR SCT015 OVC020"
    },
    {
      "icao": "LBSF",
      "alert": "OK",
      "vis_m": 7000,
      "fzfg": false,
      "metar_trigger": false,
      "taf_trigger": false,
      "metar": "METAR LBSF 222330Z AUTO 30004KT 7000 OVC050/// 03/01 Q1019 TEMPO 4000 BR",
      "taf": "TAF LBSF 222300Z 2300/2324 VRB03KT 7000 SCT015 BKN040"
    },
    {
      "icao": "LBWN",
      "alert": "OK",
      "vis_m": 9999,
      "fzfg": false,
      "metar_trigger": false,
      "taf_trigger": false,
      "metar": "METAR LBWN 222330Z AUTO 36007KT 9999 SCT011/// OVC013/// 02/01 Q1022 NOSIG",
      "taf": "TAF LBWN 222300Z 2300/2324 VRB03KT 7000 SCT005 OVC008"
    },
    {
      "icao": "LCLK",
      "alert": "OK",
      "vis_m": 9999,
      "fzfg": false,
      "metar_trigger": false,
      "taf_trigger": false,
      "metar": "METAR LCLK 222330Z 08016KT 9999 FEW025 SCT054 19/13 Q1013 NOSIG",
      "taf": "TAF LCLK 222330Z 2300/2400 06009KT 9999 FEW020 SCT030"
    },
    {
      "icao": "LCPH",
      "alert": "OK",
      "vis_m": 9999,
      "fzfg": false,
      "metar_trigger": false,
      "taf_trigger": false,
      "metar": "METAR LCPH 222330Z 10012KT 9999 TS FEW025TCU FEW030CB BKN050 BKN080 17/12 Q1013 NOSIG",
      "taf": "TAF LCPH 222330Z 2300/2400 10009KT 9999 FEW022 SCT030"
    },
    {
      "icao": "LEAL",
      "alert": "OK",
      "vis_m": 9999,
      "fzfg": false,
      "metar_trigger": false,
      "taf_trigger": false,
      "metar": "METAR LEAL 222330Z 28007KT CAVOK 10/01 Q1011 NOSIG",
      "taf": "TAF LEAL 222300Z 2300/2324 30010KT 9999 FEW040 TX15/2313Z TN08/2307Z"
    },
    {
      "icao": "LEBB",
      "alert": "OK",
      "vis_m": 9999,
      "fzfg": false,
      "metar_trigger": false,
      "taf_trigger": false,
      "metar": "METAR LEBB 222330Z AUTO 08003KT 9999 -RA FEW057 BKN070 07/06 Q1009",
      "taf": "TAF LEBB 222300Z 2300/2324 20008KT 9999 FEW040 SCT070 TX11/2313Z TN06/2307Z"
    },
    {
      "icao": "LEBL",
      "alert": "OK",
      "vis_m": 9999,
      "fzfg": false,
      "metar_trigger": false,
      "taf_trigger": false,
      "metar": "METAR LEBL 222330Z 33007KT 9999 FEW020 07/04 Q1005 NOSIG",
      "taf": "TAF LEBL 222300Z 2300/2324 34005KT 9999 FEW020 TX10/2313Z TN06/2306Z"
    },
    {
      "icao": "LECH",
      "alert": "OK",
      "vis_m": 9999,
      "fzfg": false,
      "metar_trigger": false,
      "taf_trigger": false,
      "metar": "METAR LECH 222330Z AUTO 27008KT 230V320 CAVOK 08/M03 Q1007",
      "taf": ""
    },
    {
      "icao": "LEMD",
      "alert": "OK",
      "vis_m": 9999,
      "fzfg": false,
      "metar_trigger": false,
      "taf_trigger": false,
      "metar": "METAR LEMD 222330Z 12003KT 070V180 CAVOK 01/01 Q1011 NOSIG",
      "taf": "TAF LEMD 222300Z 2300/2406 VRB04KT 9999 SCT025 TX07/2315Z TNM01/2306Z"
    },
    {
      "icao": "LEMG",
      "alert": "OK",
      "vis_m": 9999,
      "fzfg": false,
      "metar_trigger": false,
      "taf_trigger": false,
      "metar": "METAR LEMG 222330Z 30002KT 9999 FEW050 06/04 Q1015 NOSIG",
      "taf": "TAF LEMG 222300Z 2300/2324 32007KT 9999 FEW040 TX15/2314Z TN05/2306Z"
    },
    {
      "icao": "LEVC",
      "alert": "OK",
      "vis_m": 9999,
      "fzfg": false,
      "metar_trigger": false,
      "taf_trigger": false,
      "metar": "METAR LEVC 222330Z 28010KT CAVOK 09/00 Q1009 NOSIG",
      "taf": "TAF LEVC 222300Z 2300/2324 27010KT CAVOK TX14/2313Z TN07/2307Z"
    },
    {
      "icao": "LEXJ",
      "alert": "OK",
      "vis_m": 9999,
      "fzfg": false,
      "metar_trigger": false,
      "taf_trigger": false,
      "metar": "METAR LEXJ 222330Z AUTO 22008KT 180V250 9999 BKN075 09/02 Q1009",
      "taf": ""
    },
    {
      "icao": "LEZG",
      "alert": "OK",
      "vis_m": 9999,
      "fzfg": false,
      "metar_trigger": false,
      "taf_trigger": false,
      "metar": "METAR LEZG 222330Z 23009KT 9999 FEW080 05/01 Q1008 NOSIG",
      "taf": "TAF LEZG 222300Z 2300/2324 27006KT 9999 FEW040 TX11/2314Z TN03/2306Z"
    },
    {
      "icao": "LEZL",
      "alert": "OK",
      "vis_m": 9999,
      "fzfg": false,
      "metar_trigger": false,
      "taf_trigger": false,
      "metar": "METAR LEZL 222330Z 27001KT 9999 -RA FEW046 09/09 Q1016 NOSIG",
      "taf": ""
    },
    {
      "icao": "LFBD",
      "alert": "OK",
      "vis_m": 9999,
      "fzfg": false,
      "metar_trigger": false,
      "taf_trigger": false,
      "metar": "METAR LFBD 222330Z AUTO 15004KT 9999 SCT006 BKN240 04/04 Q1008 TEMPO 3000 BR BKN005",
      "taf": "TAF LFBD 222300Z 2300/2406 15005KT CAVOK TX09/2314Z TN03/2306Z"
    },
    {
      "icao": "LFLL",
      "alert": "OK",
      "vis_m": 1900,
      "fzfg": false,
      "metar_trigger": false,
      "taf_trigger": false,
      "metar": "METAR LFLL 222330Z 34006KT 1900 0900N R35L/P2000 R17R/1800D R35R/P2000 R17L/1400D PRFG BR SCT001 OVC002 08/08 Q1007 NOSIG",
      "taf": "TAF LFLL 222300Z 2300/2406 VRB03KT 4500 BR SCT005 BKN090"
    },
    {
      "icao": "LFLS",
      "alert": "OK",
      "vis_m": 5000,
      "fzfg": false,
      "metar_trigger": false,
      "taf_trigger": false,
      "metar": "METAR LFLS 222330Z AUTO 06003KT 5000 BR FEW001 OVC200 04/04 Q1006",
      "taf": ""
    },
    {
      "icao": "LFMN",
      "alert": "OK",
      "vis_m": 9999,
      "fzfg": false,
      "metar_trigger": false,
      "taf_trigger": false,
      "metar": "METAR LFMN 222330Z 03021KT 9999 -RA SCT046 BKN050 12/07 Q1006 TEMPO 8000 RA",
      "taf": "TAF LFMN 222000Z 2221/2403 04015KT 9999 BKN040"
    },
    {
      "icao": "LFOB",
      "alert": "OK",
      "vis_m": 9999,
      "fzfg": false,
      "metar_trigger": false,
      "taf_trigger": false,
      "metar": "METAR LFOB 222330Z AUTO VRB01KT CAVOK 06/06 Q1010 TEMPO 4000 BR",
      "taf": "TAF LFOB 222300Z 2300/2324 06004KT CAVOK"
    },
    {
      "icao": "LFPO",
      "alert": "OK",
      "vis_m": null,
      "fzfg": false,
      "metar_trigger": false,
      "taf_trigger": false,
      "metar": "",
      "taf": "TAF LFPO 221700Z 2218/2324 09008KT CAVOK"
    },
    {
      "icao": "LFSB",
      "alert": "OK",
      "vis_m": 9999,
      "fzfg": false,
      "metar_trigger": false,
      "taf_trigger": false,
      "metar": "METAR LFSB 222330Z AUTO 34002KT 9999 OVC010 02/02 Q1010 TEMPO 0500 FG VV///",
      "taf": "TAF LFSB 222300Z 2300/2324 35006KT 7000 OVC009"
    },
    {
      "icao": "LGAV",
      "alert": "OK",
      "vis_m": 9999,
      "fzfg": false,
      "metar_trigger": false,
      "taf_trigger": false,
      "metar": "METAR LGAV 222320Z 35007G17KT 9999 FEW020 SCT035 BKN070 14/09 Q1016 NOSIG",
      "taf": "TAF LGAV 222300Z 2300/2324 36012KT 9999 FEW018 SCT035 BKN070"
    },
    {
      "icao": "LGTS",
      "alert": "OK",
      "vis_m": 9999,
      "fzfg": false,
      "metar_trigger": false,
      "taf_trigger": false,
      "metar": "METAR LGTS 222320Z 08003KT 9999 FEW018 SCT035 09/07 Q1019 NOSIG",
      "taf": "TAF LGTS 222300Z 2300/2324 VRB03KT 9999 FEW010 SCT025"
    },
    {
      "icao": "LHBP",
      "alert": "OK",
      "vis_m": 9000,
      "fzfg": false,
      "metar_trigger": false,
      "taf_trigger": false,
      "metar": "METAR LHBP 222330Z 12004KT 9000 -DZ OVC010 03/03 Q1019 NOSIG",
      "taf": "TAF LHBP 222315Z 2300/2324 11006KT 9999 OVC017"
    },
    {
      "icao": "LHDC",
      "alert": "OK",
      "vis_m": 7000,
      "fzfg": false,
      "metar_trigger": false,
      "taf_trigger": false,
      "metar": "METAR LHDC 222315Z AUTO 25003KT 7000 OVC017 04/04 Q1020",
      "taf": ""
    },
    {
      "icao": "LIBD",
      "alert": "OK",
      "vis_m": 9999,
      "fzfg": false,
      "metar_trigger": false,
      "taf_trigger": false,
      "metar": "METAR LIBD 222320Z 11005KT 060V140 CAVOK 08/08 Q1013",
      "taf": "TAF LIBD 222300Z 2300/2324 14007KT 9999 FEW040"
    },
    {
      "icao": "LIBG",
      "alert": "OK",
      "vis_m": null,
      "fzfg": false,
      "metar_trigger": false,
      "taf_trigger": false,
      "metar": "",
      "taf": "TAF LIBG 221700Z 2218/2303 10007KT 9999 FEW040"
    },
    {
      "icao": "LIBP",
      "alert": "OK",
      "vis_m": 9999,
      "fzfg": false,
      "metar_trigger": false,
      "taf_trigger": false,
      "metar": "METAR LIBP 222320Z AUTO 25004KT 9999 OVC032/// 10/09 Q1013",
      "taf": "TAF LIBP 222300Z 2300/2324 VRB05KT 9999 BKN020"
    },
    {
      "icao": "LIBR",
      "alert": "OK",
      "vis_m": 9999,
      "fzfg": false,
      "metar_trigger": false,
      "taf_trigger": false,
      "metar": "METAR LIBR 222320Z 12005KT 9999 BKN045 14/12 Q1014",
      "taf": "TAF LIBR 222300Z 2300/2324 15008KT 9999 SCT040"
    },
    {
      "icao": "LICA",
      "alert": "OK",
      "vis_m": 9999,
      "fzfg": false,
      "metar_trigger": false,
      "taf_trigger": false,
      "metar": "METAR LICA 222320Z AUTO 08005KT 9999 NCD 13/11 Q1012",
      "taf": "TAF LICA 222300Z 2300/2324 07015KT 9999 SCT040"
    },
    {
      "icao": "LICC",
      "alert": "OK",
      "vis_m": 8000,
      "fzfg": false,
      "metar_trigger": false,
      "taf_trigger": false,
      "metar": "METAR LICC 222320Z 26004KT 8000 FEW015 11/10 Q1012",
      "taf": "TAF LICC 222300Z 2300/2324 VRB05KT 9999 SCT030"
    },
    {
      "icao": "LICJ",
      "alert": "OK",
      "vis_m": 9999,
      "fzfg": false,
      "metar_trigger": false,
      "taf_trigger": false,
      "metar": "METAR LICJ 222320Z VRB02KT CAVOK 16/12 Q1010",
      "taf": "TAF LICJ 222300Z 2300/2324 19012KT 9999 SCT040"
    },
    {
      "icao": "LIMC",
      "alert": "OK",
      "vis_m": 9999,
      "fzfg": false,
      "metar_trigger": false,
      "taf_trigger": false,
      "metar": "METAR LIMC 222320Z VRB02KT 9999 BKN055 08/05 Q1014 NOSIG",
      "taf": "TAF LIMC 222300Z 2300/2406 VRB04KT 9000 BKN050"
    },
    {
      "icao": "LIME",
      "alert": "OK",
      "vis_m": 9999,
      "fzfg": false,
      "metar_trigger": false,
      "taf_trigger": false,
      "metar": "METAR LIME 222320Z 02003KT 9999 SCT065 07/04 Q1013 NOSIG",
      "taf": "TAF LIME 222300Z 2300/2324 VRB04KT 9000 SCT050"
    },
    {
      "icao": "LIMF",
      "alert": "OK",
      "vis_m": 7000,
      "fzfg": false,
      "metar_trigger": false,
      "taf_trigger": false,
      "metar": "METAR LIMF 222320Z 30006KT 7000 OVC070 08/05 Q1013",
      "taf": "TAF LIMF 222300Z 2300/2324 VRB04KT 6000 RA SCT030 OVC060"
    },
    {
      "icao": "LIMJ",
      "alert": "OK",
      "vis_m": 9999,
      "fzfg": false,
      "metar_trigger": false,
      "taf_trigger": false,
      "metar": "METAR LIMJ 222320Z 04011KT 9999 -RA BKN045 10/07 Q1010",
      "taf": "TAF LIMJ 222300Z 2300/2324 03015KT 8000 RA BKN040"
    },
    {
      "icao": "LIPE",
      "alert": "OK",
      "vis_m": 3500,
      "fzfg": false,
      "metar_trigger": false,
      "taf_trigger": false,
      "metar": "METAR LIPE 222320Z 28004KT 3500 -DZ BR BKN005 BKN012 07/07 Q1014",
      "taf": "TAF LIPE 222300Z 2300/2324 VRB04KT 4000 BR BKN010"
    },
    {
      "icao": "LIPH",
      "alert": "OK",
      "vis_m": 9999,
      "fzfg": false,
      "metar_trigger": false,
      "taf_trigger": false,
      "metar": "METAR LIPH 222320Z AUTO 02003KT 9999 FEW057/// OVC085/// 07/04 Q1014",
      "taf": "TAF LIPH 222300Z 2300/2324 05005KT 9999 SCT050"
    },
    {
      "icao": "LIPQ",
      "alert": "OK",
      "vis_m": 9999,
      "fzfg": false,
      "metar_trigger": false,
      "taf_trigger": false,
      "metar": "METAR LIPQ 222320Z AUTO 08004KT 9999 FEW044/// BKN054/// OVC083/// 08/04 Q1014",
      "taf": "TAF LIPQ 222300Z 2300/2324 06005KT 9999 BKN050"
    },
    {
      "icao": "LIPR",
      "alert": "OK",
      "vis_m": 5000,
      "fzfg": false,
      "metar_trigger": false,
      "taf_trigger": false,
      "metar": "METAR LIPR 222320Z AUTO 32002KT 5000 BR SCT016/// SCT022/// BKN083/// 09/08 Q1013",
      "taf": "TAF LIPR 222300Z 2300/2324 30007KT 4000 BR BKN020"
    },
    {
      "icao": "LIPX",
      "alert": "OK",
      "vis_m": 9999,
      "fzfg": false,
      "metar_trigger": false,
      "taf_trigger": false,
      "metar": "METAR LIPX 222320Z 36002KT 9999 BKN070 06/04 Q1014",
      "taf": "TAF LIPX 222300Z 2300/2324 VRB05KT 8000 SCT050"
    },
    {
      "icao": "LIPY",
      "alert": "OK",
      "vis_m": 2000,
      "fzfg": false,
      "metar_trigger": false,
      "taf_trigger": false,
      "metar": "METAR LIPY 222320Z AUTO VRB02KT 2000 -RA BR OVC016/// 11/10 Q1013 REDZ",
      "taf": "TAF LIPY 222300Z 2300/2324 VRB05KT 6000 BKN030"
    },
    {
      "icao": "LIPZ",
      "alert": "OK",
      "vis_m": 9999,
      "fzfg": false,
      "metar_trigger": false,
      "taf_trigger": false,
      "metar": "METAR LIPZ 222320Z 04007KT 9999 SCT070 07/04 Q1014 NOSIG",
      "taf": "TAF LIPZ 222300Z 2300/2406 03007KT 9999 SCT050"
    },
    {
      "icao": "LIRF",
      "alert": "OK",
      "vis_m": 9999,
      "fzfg": false,
      "metar_trigger": false,
      "taf_trigger": false,
      "metar": "METAR LIRF 222320Z 11011KT 9999 -RA FEW025 SCT050 14/11 Q1009 NOSIG",
      "taf": "TAF LIRF 222300Z 2300/2406 12015KT 9999 BKN030"
    },
    {
      "icao": "LIRN",
      "alert": "OK",
      "vis_m": 9999,
      "fzfg": false,
      "metar_trigger": false,
      "taf_trigger": false,
      "metar": "METAR LIRN 222320Z VRB02KT 9999 FEW060 11/08 Q1011 NOSIG",
      "taf": "TAF LIRN 222300Z 2300/2324 05005KT 9999 SCT040"
    },
    {
      "icao": "LIRP",
      "alert": "OK",
      "vis_m": 9999,
      "fzfg": false,
      "metar_trigger": false,
      "taf_trigger": false,
      "metar": "METAR LIRP 222315Z 12012KT 9999 FEW050 BKN070 12/09 Q1009 NOSIG",
      "taf": "TAF LIRP 222300Z 2300/2324 12012KT 9999 SCT040 BKN050"
    },
    {
      "icao": "LIRZ",
      "alert": "OK",
      "vis_m": 6000,
      "fzfg": false,
      "metar_trigger": false,
      "taf_trigger": false,
      "metar": "METAR LIRZ 222320Z AUTO 10004KT 6000 BKN059/// 07/06 Q1011",
      "taf": "TAF LIRZ 222300Z 2300/2324 VRB05KT 9999 SCT040"
    },
    {
      "icao": "LJLJ",
      "alert": "OK",
      "vis_m": 6000,
      "fzfg": false,
      "metar_trigger": false,
      "taf_trigger": false,
      "metar": "METAR LJLJ 222330Z 13002KT 6000 SCT004 OVC008 02/01 Q1016 NOSIG",
      "taf": "TAF LJLJ 222300Z 2300/2400 VRB02KT 8000 OVC010"
    },
    {
      "icao": "LKMT",
      "alert": "OK",
      "vis_m": 8000,
      "fzfg": false,
      "metar_trigger": false,
      "taf_trigger": false,
      "metar": "METAR LKMT 222330Z 10005KT 8000 OVC006 02/01 Q1019 NOSIG",
      "taf": "TAF LKMT 222300Z 2300/2324 03008KT 4500 BR OVC005"
    },
    {
      "icao": "LKPR",
      "alert": "OK",
      "vis_m": 7000,
      "fzfg": false,
      "metar_trigger": false,
      "taf_trigger": false,
      "metar": "METAR LKPR 222330Z 06010KT 7000 SCT002 BKN003 OVC006 02/02 Q1015 NOSIG",
      "taf": "TAF LKPR 222300Z 2300/2406 09009KT 6000 -DZ BKN004 OVC008"
    },
    {
      "icao": "LLBG",
      "alert": "OK",
      "vis_m": 9999,
      "fzfg": false,
      "metar_trigger": false,
      "taf_trigger": false,
      "metar": "METAR LLBG 222350Z VRB03KT CAVOK 12/08 Q1014 NOSIG",
      "taf": "TAF LLBG 222310Z 2300/2324 VRB04KT CAVOK"
    },
    {
      "icao": "LMML",
      "alert": "OK",
      "vis_m": 5000,
      "fzfg": false,
      "metar_trigger": false,
      "taf_trigger": false,
      "metar": "METAR LMML 222345Z 20004KT 160V260 5000 SHRA SCT015TCU BKN043 15/13 Q1012 NOSIG",
      "taf": "TAF LMML 222300Z 2300/2324 19008KT 9999 FEW019"
    },
    {
      "icao": "LOWW",
      "alert": "OK",
      "vis_m": 9999,
      "fzfg": false,
      "metar_trigger": false,
      "taf_trigger": false,
      "metar": "METAR LOWW 222320Z 14014KT 9999 FEW006 SCT008 BKN010 04/03 Q1016 TEMPO BKN009",
      "taf": "TAF LOWW 222315Z 2300/2406 14013KT 8000 BKN008 TX04/2300Z TN01/2406Z"
    },
    {
      "icao": "LPFR",
      "alert": "OK",
      "vis_m": 9999,
      "fzfg": false,
      "metar_trigger": false,
      "taf_trigger": false,
      "metar": "METAR LPFR 222330Z 31004KT 9999 FEW020 11/10 Q1016",
      "taf": "TAF LPFR 222300Z 2300/2324 VRB02KT 9999 SCT020"
    },
    {
      "icao": "LPMA",
      "alert": "OK",
      "vis_m": 9999,
      "fzfg": false,
      "metar_trigger": false,
      "taf_trigger": false,
      "metar": "METAR LPMA 222330Z 32005KT 270V020 9999 FEW015 16/09 Q1024",
      "taf": "TAF LPMA 222300Z 2300/2324 33010KT 9999 SCT015"
    },
    {
      "icao": "LPPR",
      "alert": "OK",
      "vis_m": 9999,
      "fzfg": false,
      "metar_trigger": false,
      "taf_trigger": false,
      "metar": "METAR LPPR 222330Z 13007KT 9999 FEW020 BKN026 BKN048 09/09 Q1012",
      "taf": "TAF LPPR 222300Z 2300/2324 13007KT 9999 FEW015 BKN030"
    },
    {
      "icao": "LPPS",
      "alert": "OK",
      "vis_m": 9999,
      "fzfg": false,
      "metar_trigger": false,
      "taf_trigger": false,
      "metar": "METAR LPPS 222330Z 31006KT 9999 SCT015 17/10 Q1024",
      "taf": "TAF LPPS 222300Z 2300/2406 33007KT 9999 SCT015 SCT030"
    },
    {
      "icao": "LPPT",
      "alert": "OK",
      "vis_m": 9999,
      "fzfg": false,
      "metar_trigger": false,
      "taf_trigger": false,
      "metar": "METAR LPPT 222330Z 21007KT 9999 FEW020 12/10 Q1014",
      "taf": "TAF LPPT 222300Z 2300/2406 26005KT 9999 SCT025"
    },
    {
      "icao": "LQBK",
      "alert": "OK",
      "vis_m": 7000,
      "fzfg": false,
      "metar_trigger": false,
      "taf_trigger": false,
      "metar": "METAR LQBK 222330Z 16002KT 7000 OVC013 04/02 Q1018 NOSIG",
      "taf": "TAF LQBK 222300Z 2300/2324 16005KT 8000 OVC015 TX05/2313Z TN01/2305Z"
    },
    {
      "icao": "LQSA",
      "alert": "OK",
      "vis_m": 8000,
      "fzfg": false,
      "metar_trigger": false,
      "taf_trigger": false,
      "metar": "METAR LQSA 222330Z 14004KT 8000 OVC008 01/00 Q1018",
      "taf": ""
    },
    {
      "icao": "LQTZ",
      "alert": "OK",
      "vis_m": 9999,
      "fzfg": false,
      "metar_trigger": false,
      "taf_trigger": false,
      "metar": "METAR LQTZ 222330Z VRB02KT 9999 OVC016 03/02 Q1018",
      "taf": ""
    },
    {
      "icao": "LRBC",
      "alert": "OK",
      "vis_m": 9999,
      "fzfg": false,
      "metar_trigger": false,
      "taf_trigger": false,
      "metar": "METAR LRBC 222330Z 14008KT 9999 OVC013 03/03 Q1022",
      "taf": "TAF LRBC 222300Z 2300/2309 15007KT 9999 OVC010"
    },
    {
      "icao": "LRBS",
      "alert": "OK",
      "vis_m": 9999,
      "fzfg": false,
      "metar_trigger": false,
      "taf_trigger": false,
      "metar": "METAR LRBS 222330Z 07007KT 9999 OVC004 02/01 Q1023 NOSIG",
      "taf": "TAF LRBS 222300Z 2300/2324 07008KT 9999 OVC010"
    },
    {
      "icao": "LRBV",
      "alert": "OK",
      "vis_m": 400,
      "fzfg": true,
      "metar_trigger": false,
      "taf_trigger": false,
      "metar": "METAR LRBV 222330Z AUTO 19004KT 0400 R21/0500N SG VV001 M03/M03 Q1019",
      "taf": "TAF LRBV 222000Z 2221/2306 VRB04KT 0300 FZFG VV001"
    },
    {
      "icao": "LRCL",
      "alert": "OK",
      "vis_m": 9999,
      "fzfg": false,
      "metar_trigger": false,
      "taf_trigger": false,
      "metar": "METAR LRCL 222330Z 12003KT 9999 OVC008 02/01 Q1020",
      "taf": "TAF LRCL 222300Z 2300/2309 VRB04KT 9999 OVC010"
    },
    {
      "icao": "LRCV",
      "alert": "OK",
      "vis_m": 2500,
      "fzfg": false,
      "metar_trigger": false,
      "taf_trigger": false,
      "metar": "METAR LRCV 222330Z 10008KT 2500 BR OVC001 03/03 Q1022",
      "taf": "TAF LRCV 222300Z 2300/2309 10008KT 1500 BR OVC002"
    },
    {
      "icao": "LRIA",
      "alert": "OK",
      "vis_m": 9999,
      "fzfg": false,
      "metar_trigger": false,
      "taf_trigger": false,
      "metar": "METAR LRIA 222330Z 11006KT 9999 OVC018 02/00 Q1023",
      "taf": "TAF LRIA 222300Z 2300/2309 11006KT 9999 OVC020"
    },
    {
      "icao": "LROP",
      "alert": "OK",
      "vis_m": 6000,
      "fzfg": false,
      "metar_trigger": false,
      "taf_trigger": false,
      "metar": "METAR LROP 222330Z 09007KT 6000 OVC003 02/02 Q1023 NOSIG",
      "taf": "TAF LROP 222300Z 2300/2324 08008KT 9999 OVC010"
    },
    {
      "icao": "LRSB",
      "alert": "OK",
      "vis_m": 300,
      "fzfg": true,
      "metar_trigger": false,
      "taf_trigger": false,
      "metar": "METAR LRSB 222330Z 28002KT 0300 R27/0800N FZFG VV001 M01/M01 Q1019",
      "taf": "TAF LRSB 222300Z 2300/2324 VRB04KT 0350 FZFG VV001"
    },
    {
      "icao": "LRSM",
      "alert": "OK",
      "vis_m": 9999,
      "fzfg": false,
      "metar_trigger": false,
      "taf_trigger": false,
      "metar": "METAR LRSM 222330Z AUTO 24002KT 9999 SCT012/// BKN019/// 04/03 Q1020",
      "taf": "TAF LRSM 221400Z 2215/2224 VRB04KT 5000 BR OVC030"
    },
    {
      "icao": "LRSV",
      "alert": "OK",
      "vis_m": 100,
      "fzfg": false,
      "metar_trigger": false,
      "taf_trigger": false,
      "metar": "METAR LRSV 222330Z 10006KT 0100 R34/0450N -DZ FG VV002 00/00 Q1020",
      "taf": "TAF LRSV 222300Z 2300/2309 11006KT 0100 FG VV001"
    },
    {
      "icao": "LRTM",
      "alert": "OK",
      "vis_m": 9000,
      "fzfg": false,
      "metar_trigger": false,
      "taf_trigger": false,
      "metar": "METAR LRTM 222330Z AUTO VRB02KT 9000 BKN002/// 00/M00 Q1021 REDZ",
      "taf": "TAF LRTM 221400Z 2215/2224 VRB04KT 3000 BR BKN002 OVC005"
    },
    {
      "icao": "LRTR",
      "alert": "OK",
      "vis_m": 6000,
      "fzfg": false,
      "metar_trigger": false,
      "taf_trigger": false,
      "metar": "METAR LRTR 222330Z 08005KT 6000 SCT002 OVC004 02/02 Q1020",
      "taf": "TAF LRTR 222300Z 2300/2324 09006KT 5000 BR OVC005"
    },
    {
      "icao": "LTAC",
      "alert": "OK",
      "vis_m": 6000,
      "fzfg": false,
      "metar_trigger": false,
      "taf_trigger": false,
      "metar": "METAR LTAC 222320Z 05006KT 6000 -RA SCT017 BKN030 BKN080 04/03 Q1017 TEMPO 4000 BR RMK RWY21C 03007KT RWY03L 04007KT RWY21R 02008KT RWY03R VRB02KT RWY21L 04003KT",
      "taf": "TAF LTAC 222240Z 2300/2324 VRB02KT 7000 SCT035 BKN090"
    },
    {
      "icao": "LTFM",
      "alert": "OK",
      "vis_m": 9999,
      "fzfg": false,
      "metar_trigger": false,
      "taf_trigger": false,
      "metar": "METAR LTFM 222320Z 01018KT 9999 -SHRA SCT012 BKN022 10/08 Q1019 NOSIG RMK RWY17L 01016KT RWY34L 01016KT RWY16R 01015KT RWY36 01018KT RWY18 01017KT",
      "taf": "TAF LTFM 222240Z 2300/2406 03014KT 9999 SCT012 BKN022"
    },
    {
      "icao": "LUKK",
      "alert": "OK",
      "vis_m": null,
      "fzfg": false,
      "metar_trigger": false,
      "taf_trigger": false,
      "metar": "",
      "taf": "TAF LUKK 221713Z 2218/2318 VRB05KT 9999 BKN015"
    },
    {
      "icao": "LWOH",
      "alert": "OK",
      "vis_m": null,
      "fzfg": false,
      "metar_trigger": false,
      "taf_trigger": false,
      "metar": "",
      "taf": "TAF LWOH 222325Z 2300/2324 VRB03KT 9999 SCT045"
    },
    {
      "icao": "LWSK",
      "alert": "OK",
      "vis_m": 3000,
      "fzfg": false,
      "metar_trigger": false,
      "taf_trigger": false,
      "metar": "METAR LWSK 222350Z VRB01KT 3000 BR OVC005 03/02 Q1020 NOSIG",
      "taf": "TAF LWSK 222325Z 2300/2324 VRB02KT 3000 BR OVC005"
    },
    {
      "icao": "LYBE",
      "alert": "OK",
      "vis_m": 9999,
      "fzfg": false,
      "metar_trigger": false,
      "taf_trigger": false,
      "metar": "METAR LYBE 222330Z 12009KT 9999 BKN023 05/01 Q1019 NOSIG",
      "taf": "TAF LYBE 222300Z 2300/2324 12005KT 9999 BKN023 TX09/2313Z TN02/2306Z"
    },
    {
      "icao": "LYNI",
      "alert": "OK",
      "vis_m": 9999,
      "fzfg": false,
      "metar_trigger": false,
      "taf_trigger": false,
      "metar": "METAR LYNI 222330Z 11003KT 9999 BKN015 02/00 Q1020 NOSIG",
      "taf": "TAF LYNI 222300Z 2300/2324 07005KT 9999 BKN015 TX09/2312Z TNM01/2306Z"
    },
    {
      "icao": "LYPG",
      "alert": "OK",
      "vis_m": 6000,
      "fzfg": false,
      "metar_trigger": false,
      "taf_trigger": false,
      "metar": "METAR LYPG 222330Z 32003KT 6000 NSC 02/01 Q1017 NOSIG",
      "taf": "TAF LYPG 222300Z 2300/2324 35005KT 9999 FEW040 SCT080 TX11/2313Z TN02/2305Z"
    },
    {
      "icao": "LZIB",
      "alert": "OK",
      "vis_m": 9999,
      "fzfg": false,
      "metar_trigger": false,
      "taf_trigger": false,
      "metar": "METAR LZIB 222330Z 11012KT 9999 FEW009 OVC017 03/02 Q1017 TEMPO OVC010",
      "taf": "TAF LZIB 222315Z 2300/2400 12013KT 9999 SCT005 OVC015"
    },
    {
      "icao": "LZKZ",
      "alert": "OK",
      "vis_m": 9999,
      "fzfg": false,
      "metar_trigger": false,
      "taf_trigger": false,
      "metar": "METAR LZKZ 222330Z 18003KT 9999 OVC020 05/04 Q1019 NOSIG",
      "taf": "TAF LZKZ 222315Z 2300/2400 21006KT 5000 BR BKN016"
    },
    {
      "icao": "LZTT",
      "alert": "OK",
      "vis_m": 9000,
      "fzfg": false,
      "metar_trigger": false,
      "taf_trigger": false,
      "metar": "METAR LZTT 222330Z VRB01KT 9000 OVC002 01/01 Q1017",
      "taf": "TAF LZTT 222315Z 2300/2400 10005KT 5000 BR OVC004"
    },
    {
      "icao": "OEJN",
      "alert": "OK",
      "vis_m": 9999,
      "fzfg": false,
      "metar_trigger": false,
      "taf_trigger": false,
      "metar": "METAR OEJN 222300Z 03004KT CAVOK 25/21 Q1012 NOSIG",
      "taf": "TAF OEJN 222300Z 2300/2406 VRB03KT 9999 FEW040"
    },
    {
      "icao": "OEMA",
      "alert": "OK",
      "vis_m": 9999,
      "fzfg": false,
      "metar_trigger": false,
      "taf_trigger": false,
      "metar": "METAR OEMA 222300Z 06004KT 9999 FEW040 19/03 Q1018 NOSIG",
      "taf": "TAF OEMA 222300Z 2300/2406 12005KT 9999 FEW040"
    },
    {
      "icao": "OJAI",
      "alert": "OK",
      "vis_m": null,
      "fzfg": false,
      "metar_trigger": false,
      "taf_trigger": false,
      "metar": "",
      "taf": "TAF OJAI 222250Z 2300/2406 VRB01KT 5000 HZ NSC"
    },
    {
      "icao": "OMAA",
      "alert": "OK",
      "vis_m": 9999,
      "fzfg": false,
      "metar_trigger": false,
      "taf_trigger": false,
      "metar": "METAR OMAA 222300Z 05006KT CAVOK 17/10 Q1019 NOSIG",
      "taf": "TAF OMAA 222300Z 2300/2406 05005KT 8000 NSC"
    },
    {
      "icao": "OMDB",
      "alert": "OK",
      "vis_m": 9999,
      "fzfg": false,
      "metar_trigger": false,
      "taf_trigger": false,
      "metar": "METAR OMDB 222300Z 11003KT CAVOK 18/10 Q1019 NOSIG",
      "taf": "TAF OMDB 222300Z 2300/2406 12005KT CAVOK"
    },
    {
      "icao": "UAAA",
      "alert": "OK",
      "vis_m": 3500,
      "fzfg": false,
      "metar_trigger": false,
      "taf_trigger": false,
      "metar": "METAR UAAA 222330Z 00000MPS 3500 BR OVC015 M03/M03 Q1026 NOSIG",
      "taf": "TAF UAAA 222305Z 2300/2324 04003MPS 1200 BR BKN011 OVC030 TXM01/2308Z TNM06/2301Z"
    },
    {
      "icao": "UBBB",
      "alert": "OK",
      "vis_m": 4000,
      "fzfg": false,
      "metar_trigger": false,
      "taf_trigger": false,
      "metar": "METAR UBBB 222330Z 31004KT 4000 BR BCFG SCT015 02/02 Q1020 NOSIG",
      "taf": "TAF UBBB 222301Z 2300/2324 30006KT 8000 SCT012 TX11/2310Z TN04/2300Z"
    },
    {
      "icao": "UDSG",
      "alert": "OK",
      "vis_m": 4700,
      "fzfg": false,
      "metar_trigger": false,
      "taf_trigger": false,
      "metar": "METAR UDSG 222330Z 08003KT 4700 BR NSC M10/M11 Q1022 NOSIG",
      "taf": "TAF UDSG 222258Z 2300/2324 VRB06KT 5000 BR SCT050"
    },
    {
      "icao": "UDYZ",
      "alert": "OK",
      "vis_m": 2500,
      "fzfg": false,
      "metar_trigger": false,
      "taf_trigger": false,
      "metar": "METAR UDYZ 222330Z 00000KT 2500 BR NSC M05/M07 Q1023 NOSIG",
      "taf": "TAF UDYZ 222300Z 2300/2324 VRB04KT 2300 BR FEW040"
    },
    {
      "icao": "UGKO",
      "alert": "OK",
      "vis_m": 9999,
      "fzfg": false,
      "metar_trigger": false,
      "taf_trigger": false,
      "metar": "METAR UGKO 222330Z AUTO 09003KT CAVOK 07/01 Q1018 NOSIG",
      "taf": "TAF UGKO 222300Z 2300/2324 08007KT 9999 BKN080 TX16/2312Z TN05/2303Z"
    }
  ]
}