{
  "ts_utc": "2025-12-26T21:40:56Z",
  "threshold_m": 150,
  "source": "stations_override.txt (ICAO list) + aviationweather.gov (METAR/TAF raw)",
  "station_count": 159,
  "stations": [
    {
      "icao": "BIKF",
      "alert": "OK",
      "vis_m": 9999,
      "fzfg": false,
      "metar_trigger": false,
      "taf_trigger": false,
      "metar": "METAR BIKF 262130Z 24002KT 9999 SCT032 02/M02 Q1044",
      "taf": "TAF BIKF 261931Z 2621/2721 24007KT 9999 BKN030 TX07/2718Z TNM01/2703Z"
    },
    {
      "icao": "BKPR",
      "alert": "OK",
      "vis_m": 9999,
      "fzfg": false,
      "metar_trigger": false,
      "taf_trigger": false,
      "metar": "METAR BKPR 262130Z 34008KT 9999 FEW015 BKN025 00/M01 Q1026 NOSIG",
      "taf": "TAF BKPR 261730Z 2618/2718 02006KT 9999 FEW012 SCT030"
    },
    {
      "icao": "EBCI",
      "alert": "OK",
      "vis_m": 9999,
      "fzfg": false,
      "metar_trigger": false,
      "taf_trigger": false,
      "metar": "METAR EBCI 262120Z 07007KT CAVOK M02/M04 Q1029 NOSIG",
      "taf": "TAF EBCI 261700Z 2618/2724 05008KT CAVOK"
    },
    {
      "icao": "EDDB",
      "alert": "OK",
      "vis_m": 3100,
      "fzfg": false,
      "metar_trigger": false,
      "taf_trigger": false,
      "metar": "METAR EDDB 262120Z AUTO 25004KT 3100 BR OVC002 M02/M02 Q1035 TEMPO 2500 -FZDZ",
      "taf": ""
    },
    {
      "icao": "EDDH",
      "alert": "OK",
      "vis_m": 2000,
      "fzfg": false,
      "metar_trigger": false,
      "taf_trigger": false,
      "metar": "METAR EDDH 262120Z AUTO 30003KT 270V330 2000 1400 R23/P2000N R33/P2000N BR OVC001 01/00 Q1036 TEMPO 0500 FG",
      "taf": "TAF EDDH 261700Z 2618/2724 VRB03KT 2000 BR OVC003"
    },
    {
      "icao": "EDDK",
      "alert": "OK",
      "vis_m": 9999,
      "fzfg": false,
      "metar_trigger": false,
      "taf_trigger": false,
      "metar": "METAR EDDK 262120Z AUTO VRB01KT CAVOK M03/M04 Q1032 NOSIG",
      "taf": "TAF EDDK 261700Z 2618/2724 VRB03KT CAVOK"
    },
    {
      "icao": "EDDN",
      "alert": "OK",
      "vis_m": 9999,
      "fzfg": false,
      "metar_trigger": false,
      "taf_trigger": false,
      "metar": "METAR EDDN 262120Z AUTO 33002KT CAVOK M04/M05 Q1030",
      "taf": "TAF EDDN 261700Z 2618/2718 06003KT CAVOK"
    },
    {
      "icao": "EDDS",
      "alert": "OK",
      "vis_m": 9999,
      "fzfg": false,
      "metar_trigger": false,
      "taf_trigger": false,
      "metar": "METAR EDDS 262120Z AUTO 05004KT CAVOK M02/M04 Q1028",
      "taf": "TAF EDDS 261700Z 2618/2718 05004KT CAVOK"
    },
    {
      "icao": "EDFH",
      "alert": "OK",
      "vis_m": 9999,
      "fzfg": false,
      "metar_trigger": false,
      "taf_trigger": false,
      "metar": "METAR EDFH 262120Z COR 10011KT CAVOK 01/M02 Q1028",
      "taf": "TAF EDFH 261700Z 2618/2718 10009KT CAVOK"
    },
    {
      "icao": "EDJA",
      "alert": "OK",
      "vis_m": 9000,
      "fzfg": false,
      "metar_trigger": false,
      "taf_trigger": false,
      "metar": "METAR EDJA 262120Z 07010KT 9000 OVC005 M02/M03 Q1026",
      "taf": "TAF EDJA 261700Z 2618/2703 06010KT 9999 OVC005"
    },
    {
      "icao": "EDLW",
      "alert": "OK",
      "vis_m": 9999,
      "fzfg": false,
      "metar_trigger": false,
      "taf_trigger": false,
      "metar": "METAR EDLW 262120Z 03003KT 360V070 CAVOK M02/M04 Q1032",
      "taf": "TAF EDLW 261700Z 2618/2718 04004KT CAVOK"
    },
    {
      "icao": "EDNY",
      "alert": "OK",
      "vis_m": 9999,
      "fzfg": false,
      "metar_trigger": false,
      "taf_trigger": false,
      "metar": "METAR EDNY 262120Z AUTO 08005KT 9999 // OVC014/// M01/M03 Q1027",
      "taf": "TAF EDNY 261700Z 2618/2703 03007KT 9999 BKN015"
    },
    {
      "icao": "EDSB",
      "alert": "OK",
      "vis_m": 9999,
      "fzfg": false,
      "metar_trigger": false,
      "taf_trigger": false,
      "metar": "METAR EDSB 262120Z 00000KT CAVOK M02/M03 Q1028",
      "taf": ""
    },
    {
      "icao": "EETN",
      "alert": "OK",
      "vis_m": 500,
      "fzfg": false,
      "metar_trigger": false,
      "taf_trigger": false,
      "metar": "METAR EETN 262120Z 32006KT 0500 R26/P2000N FG VV001 04/04 Q1020 TEMPO 2000 BR",
      "taf": ""
    },
    {
      "icao": "EFTU",
      "alert": "OK",
      "vis_m": 700,
      "fzfg": true,
      "metar_trigger": false,
      "taf_trigger": false,
      "metar": "METAR EFTU 262120Z AUTO VRB02KT 0700 R26/1000 FZFG VV003 M01/M01 Q1020",
      "taf": ""
    },
    {
      "icao": "EGBB",
      "alert": "OK",
      "vis_m": 9999,
      "fzfg": false,
      "metar_trigger": false,
      "taf_trigger": false,
      "metar": "METAR EGBB 262120Z 35005KT 310V020 CAVOK 02/01 Q1034",
      "taf": ""
    },
    {
      "icao": "EGGP",
      "alert": "OK",
      "vis_m": 9999,
      "fzfg": false,
      "metar_trigger": false,
      "taf_trigger": false,
      "metar": "METAR EGGP 262120Z 03005KT CAVOK 03/01 Q1036",
      "taf": "TAF EGGP 261656Z 2618/2718 04007KT CAVOK"
    },
    {
      "icao": "EGGW",
      "alert": "OK",
      "vis_m": 8000,
      "fzfg": false,
      "metar_trigger": false,
      "taf_trigger": false,
      "metar": "METAR EGGW 262120Z AUTO 03006KT 010V080 8000 FEW008 01/00 Q1032",
      "taf": ""
    },
    {
      "icao": "EGKK",
      "alert": "OK",
      "vis_m": 9999,
      "fzfg": false,
      "metar_trigger": false,
      "taf_trigger": false,
      "metar": "METAR EGKK 262120Z 06008KT 9999 BKN014 04/03 Q1031",
      "taf": "TAF EGKK 261657Z 2618/2724 06009KT 9999 SCT018"
    },
    {
      "icao": "EGNM",
      "alert": "OK",
      "vis_m": 9999,
      "fzfg": false,
      "metar_trigger": false,
      "taf_trigger": false,
      "metar": "METAR EGNM 262120Z 04007KT 010V070 CAVOK 02/01 Q1036",
      "taf": ""
    },
    {
      "icao": "EGPD",
      "alert": "OK",
      "vis_m": 9999,
      "fzfg": false,
      "metar_trigger": false,
      "taf_trigger": false,
      "metar": "METAR EGPD 262120Z COR AUTO 31009KT 9999 OVC018 04/02 Q1041 NOSIG",
      "taf": "TAF EGPD 261654Z 2618/2718 VRB02KT 9999 BKN020"
    },
    {
      "icao": "EGPF",
      "alert": "OK",
      "vis_m": 9999,
      "fzfg": false,
      "metar_trigger": false,
      "taf_trigger": false,
      "metar": "METAR EGPF 262120Z AUTO VRB02KT 9999 BKN024 04/01 Q1040",
      "taf": "TAF EGPF 261700Z 2618/2718 VRB03KT 9999 SCT025"
    },
    {
      "icao": "EHBK",
      "alert": "OK",
      "vis_m": 9999,
      "fzfg": false,
      "metar_trigger": false,
      "taf_trigger": false,
      "metar": "METAR EHBK 262125Z AUTO 05009KT 9999 NCD M01/M03 Q1031 NOSIG",
      "taf": "TAF EHBK 261720Z 2618/2724 05007KT CAVOK"
    },
    {
      "icao": "EHEH",
      "alert": "OK",
      "vis_m": 9999,
      "fzfg": false,
      "metar_trigger": false,
      "taf_trigger": false,
      "metar": "METAR EHEH 262125Z AUTO 06007KT 9999 NCD M00/M04 Q1032 BLU NOSIG RMK TREND REMOTE BY EHWX",
      "taf": "TAF EHEH 261718Z 2618/2724 06006KT CAVOK"
    },
    {
      "icao": "EKBI",
      "alert": "OK",
      "vis_m": 9999,
      "fzfg": false,
      "metar_trigger": false,
      "taf_trigger": false,
      "metar": "METAR EKBI 262120Z AUTO 28005KT 9999 OVC004/// 05/04 Q1035",
      "taf": "TAF EKBI 262027Z 2621/2721 28004KT 9000 NSC"
    },
    {
      "icao": "EKCH",
      "alert": "OK",
      "vis_m": 5000,
      "fzfg": false,
      "metar_trigger": false,
      "taf_trigger": false,
      "metar": "METAR EKCH 262120Z 30005KT 5000 OVC003 04/03 Q1033 TEMPO 3000 BR",
      "taf": "TAF EKCH 262027Z 2621/2721 30006KT 2000 BR OVC003"
    },
    {
      "icao": "ENAL",
      "alert": "OK",
      "vis_m": 2600,
      "fzfg": false,
      "metar_trigger": false,
      "taf_trigger": false,
      "metar": "METAR ENAL 262120Z 24017KT 2600 DZRA SCT003 BKN005 06/06 Q1032",
      "taf": ""
    },
    {
      "icao": "ENBR",
      "alert": "OK",
      "vis_m": 9999,
      "fzfg": false,
      "metar_trigger": false,
      "taf_trigger": false,
      "metar": "METAR ENBR 262120Z 36004KT 9999 FEW005 BKN009 04/03 Q1035 RMK WIND 1200FT 35010KT",
      "taf": ""
    },
    {
      "icao": "ENGM",
      "alert": "OK",
      "vis_m": 9999,
      "fzfg": false,
      "metar_trigger": false,
      "taf_trigger": false,
      "metar": "METAR ENGM 262120Z 00000KT CAVOK M06/M07 Q1027 NOSIG",
      "taf": "TAF ENGM 261700Z 2618/2718 VRB03KT CAVOK"
    },
    {
      "icao": "ENHD",
      "alert": "OK",
      "vis_m": 2100,
      "fzfg": false,
      "metar_trigger": false,
      "taf_trigger": false,
      "metar": "METAR ENHD 262120Z AUTO 35010KT 2100 +RA SCT002/// SCT004/// BKN006/// 06/05 Q1035 REDZ",
      "taf": "TAF ENHD 261400Z 2615/2623 32005KT CAVOK"
    },
    {
      "icao": "ENTC",
      "alert": "OK",
      "vis_m": 9999,
      "fzfg": false,
      "metar_trigger": false,
      "taf_trigger": false,
      "metar": "METAR ENTC 262120Z 22018KT 9999 -DZ FEW025 SCT031 BKN037 06/03 Q1001 TEMPO 4000 RADZ BKN014 RMK WIND 2600FT 20024KT",
      "taf": "TAF ENTC 261700Z 2618/2718 20018KT 9999 -RA FEW020 BKN035"
    },
    {
      "icao": "ENTO",
      "alert": "OK",
      "vis_m": 9999,
      "fzfg": false,
      "metar_trigger": false,
      "taf_trigger": false,
      "metar": "METAR ENTO 262120Z AUTO 00000KT 9999 NCD M02/M02 Q1028",
      "taf": "TAF ENTO 261700Z 2618/2718 20005KT CAVOK"
    },
    {
      "icao": "ENVA",
      "alert": "OK",
      "vis_m": 9999,
      "fzfg": false,
      "metar_trigger": false,
      "taf_trigger": false,
      "metar": "METAR ENVA 262120Z 21015KT 9999 SCT019 BKN026 05/02 Q1025 RMK WIND 670FT 21015KT",
      "taf": "TAF ENVA 261700Z 2618/2718 23008KT 9999 SCT012 BKN025"
    },
    {
      "icao": "ENZV",
      "alert": "OK",
      "vis_m": 9999,
      "fzfg": false,
      "metar_trigger": false,
      "taf_trigger": false,
      "metar": "METAR ENZV 262120Z 08004KT 9999 OVC013 01/00 Q1035",
      "taf": ""
    },
    {
      "icao": "EPGD",
      "alert": "OK",
      "vis_m": 9999,
      "fzfg": false,
      "metar_trigger": false,
      "taf_trigger": false,
      "metar": "METAR EPGD 262130Z 30010KT 9999 OVC002 04/04 Q1029",
      "taf": "TAF EPGD 261730Z 2618/2718 31010KT 9999 OVC004"
    },
    {
      "icao": "EPKK",
      "alert": "OK",
      "vis_m": 3000,
      "fzfg": false,
      "metar_trigger": false,
      "taf_trigger": false,
      "metar": "METAR EPKK 262130Z 24007KT 3000 -FZDZ BR BKN005 OVC007 M03/M04 Q1031",
      "taf": "TAF EPKK 262030Z 2621/2721 26007KT 5000 BR OVC009"
    },
    {
      "icao": "EPKT",
      "alert": "OK",
      "vis_m": 2300,
      "fzfg": false,
      "metar_trigger": false,
      "taf_trigger": false,
      "metar": "METAR EPKT 262130Z VRB02KT 2300 -FZDZ BR OVC002 M03/M03 Q1031",
      "taf": "TAF EPKT 261730Z 2618/2718 31006KT 8000 -SG OVC007"
    },
    {
      "icao": "EPLB",
      "alert": "OK",
      "vis_m": 4000,
      "fzfg": false,
      "metar_trigger": false,
      "taf_trigger": false,
      "metar": "METAR EPLB 262130Z 30011KT 4000 BR OVC003 M00/M00 Q1026",
      "taf": "TAF EPLB 261730Z 2618/2718 29010KT 3000 BR OVC003"
    },
    {
      "icao": "EPMO",
      "alert": "OK",
      "vis_m": 3200,
      "fzfg": false,
      "metar_trigger": false,
      "taf_trigger": false,
      "metar": "METAR EPMO 262130Z 27009KT 3200 BR OVC003 01/01 Q1029",
      "taf": "TAF EPMO 261730Z 2618/2718 27008KT 3000 BR OVC003"
    },
    {
      "icao": "EPPO",
      "alert": "OK",
      "vis_m": 1200,
      "fzfg": false,
      "metar_trigger": false,
      "taf_trigger": false,
      "metar": "METAR EPPO 262130Z 28005KT 1200 R28/P2000N -FZDZ BR OVC001 M01/M02 Q1033",
      "taf": "TAF EPPO 261730Z 2618/2718 28004KT 1200 -FZDZ BR OVC002"
    },
    {
      "icao": "EPRA",
      "alert": "OK",
      "vis_m": 3500,
      "fzfg": false,
      "metar_trigger": false,
      "taf_trigger": false,
      "metar": "METAR EPRA 262130Z 28009KT 3500 BR OVC003 M00/M01 Q1029",
      "taf": "TAF EPRA 262030Z 2621/2706 29007KT 4000 BR OVC003"
    },
    {
      "icao": "EPRZ",
      "alert": "OK",
      "vis_m": 4500,
      "fzfg": false,
      "metar_trigger": false,
      "taf_trigger": false,
      "metar": "METAR EPRZ 262130Z 27012KT 4500 -FZDZ BR OVC003 M02/M02 Q1028",
      "taf": "TAF EPRZ 261730Z 2618/2718 28012KT 4500 -FZDZ -SG BR OVC004"
    },
    {
      "icao": "EPSC",
      "alert": "OK",
      "vis_m": 250,
      "fzfg": false,
      "metar_trigger": false,
      "taf_trigger": false,
      "metar": "METAR EPSC 262130Z VRB01KT 0250 R31/0650N FG VV001 00/00 Q1033",
      "taf": ""
    },
    {
      "icao": "EPSY",
      "alert": "OK",
      "vis_m": 9999,
      "fzfg": false,
      "metar_trigger": false,
      "taf_trigger": false,
      "metar": "METAR EPSY 262130Z 32008KT 280V350 9999 OVC002 04/04 Q1028",
      "taf": "TAF EPSY 262030Z 2621/2706 31006KT 8000 OVC003"
    },
    {
      "icao": "EPWA",
      "alert": "OK",
      "vis_m": 2000,
      "fzfg": false,
      "metar_trigger": false,
      "taf_trigger": false,
      "metar": "METAR EPWA 262130Z 27009KT 2000 BR OVC001 00/00 Q1029 TEMPO 1400 BR",
      "taf": "TAF EPWA 262030Z 2621/2721 28008KT 3000 BR OVC003"
    },
    {
      "icao": "EPWR",
      "alert": "OK",
      "vis_m": 3500,
      "fzfg": false,
      "metar_trigger": false,
      "taf_trigger": false,
      "metar": "METAR EPWR 262130Z 32005KT 3500 SG BR FEW003 BKN005 M02/M03 Q1033",
      "taf": "TAF EPWR 262030Z 2621/2721 30005KT 9999 OVC007"
    },
    {
      "icao": "ESGG",
      "alert": "OK",
      "vis_m": 600,
      "fzfg": true,
      "metar_trigger": false,
      "taf_trigger": false,
      "metar": "METAR ESGG 262120Z 21004KT 0600 R03/P2000N R21/1500D FZFG VV002 M01/M01 Q1030",
      "taf": "TAF ESGG 262030Z 2621/2721 VRB02KT 9999 FEW002"
    },
    {
      "icao": "ESKN",
      "alert": "OK",
      "vis_m": 9999,
      "fzfg": false,
      "metar_trigger": false,
      "taf_trigger": false,
      "metar": "METAR ESKN 262120Z 27005KT CAVOK M01/M01 Q1026",
      "taf": "TAF ESKN 262030Z 2621/2721 28005KT CAVOK"
    },
    {
      "icao": "ESMS",
      "alert": "OK",
      "vis_m": 200,
      "fzfg": false,
      "metar_trigger": false,
      "taf_trigger": false,
      "metar": "METAR ESMS 262120Z 32006KT 0200 R17/0800N R35/0800N FG VV002 03/03 Q1032",
      "taf": "TAF ESMS 262027Z 2621/2721 33004KT 0100 FG VV001"
    },
    {
      "icao": "ESSA",
      "alert": "OK",
      "vis_m": 450,
      "fzfg": false,
      "metar_trigger": false,
      "taf_trigger": false,
      "metar": "METAR ESSA 262120Z 25005KT 0450 R01L/P2000N R19R/P2000N R01R/P2000N R19L/P2000N MIFG NSC M02/M02 Q1024 NOSIG",
      "taf": ""
    },
    {
      "icao": "EYKA",
      "alert": "OK",
      "vis_m": 5000,
      "fzfg": false,
      "metar_trigger": false,
      "taf_trigger": false,
      "metar": "METAR EYKA 262120Z 29005KT 250V320 5000 BR OVC004 04/04 Q1024",
      "taf": "TAF EYKA 261715Z 2618/2718 VRB04KT 5000 BR OVC005"
    },
    {
      "icao": "EYPA",
      "alert": "OK",
      "vis_m": 9999,
      "fzfg": false,
      "metar_trigger": false,
      "taf_trigger": false,
      "metar": "METAR EYPA 262120Z VRB03KT 9999 OVC008 06/05 Q1026",
      "taf": ""
    },
    {
      "icao": "EYVI",
      "alert": "OK",
      "vis_m": 9999,
      "fzfg": false,
      "metar_trigger": false,
      "taf_trigger": false,
      "metar": "METAR EYVI 262120Z 34010KT 9999 OVC003 02/01 Q1022 NOSIG",
      "taf": "TAF EYVI 261713Z 2618/2718 34010KT 5000 BR OVC005"
    },
    {
      "icao": "GCFV",
      "alert": "OK",
      "vis_m": 9999,
      "fzfg": false,
      "metar_trigger": false,
      "taf_trigger": false,
      "metar": "METAR GCFV 262130Z 28006KT 9999 FEW025 16/12 Q1020",
      "taf": "TAF GCFV 262000Z 2621/2721 32005KT 9999 SCT030 TX22/2714Z TN14/2706Z"
    },
    {
      "icao": "GCLP",
      "alert": "OK",
      "vis_m": 9999,
      "fzfg": false,
      "metar_trigger": false,
      "taf_trigger": false,
      "metar": "METAR GCLP 262130Z 33004KT 290V350 9999 FEW030 16/10 Q1020 NOSIG",
      "taf": "TAF GCLP 262000Z 2621/2721 VRB07KT 9999 SCT030 TX20/2714Z TN14/2706Z"
    },
    {
      "icao": "GCTS",
      "alert": "OK",
      "vis_m": 9999,
      "fzfg": false,
      "metar_trigger": false,
      "taf_trigger": false,
      "metar": "METAR GCTS 262130Z 04010KT 9999 FEW040 18/11 Q1020 NOSIG",
      "taf": "TAF GCTS 262000Z 2621/2721 36009KT 9999 FEW035 TX23/2714Z TN15/2706Z"
    },
    {
      "icao": "GMAD",
      "alert": "OK",
      "vis_m": 9999,
      "fzfg": false,
      "metar_trigger": false,
      "taf_trigger": false,
      "metar": "METAR GMAD 262130Z 00000KT 9999 FEW020 SCT100 12/12 Q1018 NOSIG",
      "taf": "TAF GMAD 261700Z 2618/2724 25003KT 9999 FEW026 BKN080"
    },
    {
      "icao": "GMMN",
      "alert": "OK",
      "vis_m": 9999,
      "fzfg": false,
      "metar_trigger": false,
      "taf_trigger": false,
      "metar": "METAR GMMN 262130Z 19009KT 9999 BKN030 11/09 Q1015 NOSIG",
      "taf": "TAF GMMN 261700Z 2618/2724 22006KT 9999 SCT018 SCT030"
    },
    {
      "icao": "GMMX",
      "alert": "OK",
      "vis_m": 8000,
      "fzfg": false,
      "metar_trigger": false,
      "taf_trigger": false,
      "metar": "METAR GMMX 262130Z 18006KT 8000 SCT023 BKN080 11/09 Q1017 NOSIG",
      "taf": "TAF GMMX 261700Z 2618/2724 26006KT 8000 SCT023 BKN090"
    },
    {
      "icao": "HEGN",
      "alert": "OK",
      "vis_m": 9999,
      "fzfg": false,
      "metar_trigger": false,
      "taf_trigger": false,
      "metar": "METAR HEGN 262100Z 29012KT CAVOK 17/10 Q1014 NOSIG",
      "taf": "TAF HEGN 261700Z 2618/2724 29015KT CAVOK"
    },
    {
      "icao": "HEMA",
      "alert": "OK",
      "vis_m": 9999,
      "fzfg": false,
      "metar_trigger": false,
      "taf_trigger": false,
      "metar": "METAR HEMA 262100Z 29010KT CAVOK 18/11 Q1013 NOSIG",
      "taf": "TAF HEMA 261700Z 2618/2724 30014KT CAVOK"
    },
    {
      "icao": "HESH",
      "alert": "OK",
      "vis_m": 9999,
      "fzfg": false,
      "metar_trigger": false,
      "taf_trigger": false,
      "metar": "METAR HESH 262100Z 33007KT CAVOK 19/06 Q1013 NOSIG",
      "taf": "TAF HESH 261700Z 2618/2724 35012KT CAVOK"
    },
    {
      "icao": "HESX",
      "alert": "OK",
      "vis_m": 6000,
      "fzfg": false,
      "metar_trigger": false,
      "taf_trigger": false,
      "metar": "METAR HESX 262100Z 26002KT 6000 NSC 13/11 Q1017 NOSIG",
      "taf": "TAF HESX 261700Z 2618/2724 33010KT 9999 SCT025"
    },
    {
      "icao": "LATI",
      "alert": "OK",
      "vis_m": 9999,
      "fzfg": false,
      "metar_trigger": false,
      "taf_trigger": false,
      "metar": "METAR LATI 262120Z VRB02KT CAVOK 05/02 Q1022 NOSIG",
      "taf": "TAF LATI 261700Z 2618/2718 VRB05KT CAVOK TX15/2712Z TN02/2705Z"
    },
    {
      "icao": "LBPD",
      "alert": "OK",
      "vis_m": 9999,
      "fzfg": false,
      "metar_trigger": false,
      "taf_trigger": false,
      "metar": "METAR LBPD 262130Z AUTO 29021KT 9999 SCT110/// 04/01 Q1020",
      "taf": "TAF LBPD 261700Z 2618/2718 28018KT 9999 SCT020"
    },
    {
      "icao": "LBSF",
      "alert": "OK",
      "vis_m": 9999,
      "fzfg": false,
      "metar_trigger": false,
      "taf_trigger": false,
      "metar": "METAR LBSF 262130Z AUTO 29013KT 9999 OVC012/// M00/M02 Q1024 NOSIG",
      "taf": "TAF LBSF 261700Z 2618/2718 29016KT 9999 SCT012 BKN020"
    },
    {
      "icao": "LBWN",
      "alert": "OK",
      "vis_m": 9999,
      "fzfg": false,
      "metar_trigger": false,
      "taf_trigger": false,
      "metar": "METAR LBWN 262130Z AUTO 30008KT 270V340 9999 NSC 00/M02 Q1021 NOSIG",
      "taf": "TAF LBWN 261700Z 2618/2718 26012KT 9999 SCT015 BKN040"
    },
    {
      "icao": "LCLK",
      "alert": "OK",
      "vis_m": 9999,
      "fzfg": false,
      "metar_trigger": false,
      "taf_trigger": false,
      "metar": "METAR LCLK 262130Z 31005KT 9999 FEW030 12/10 Q1012 NOSIG",
      "taf": "TAF LCLK 261730Z 2618/2718 29007KT 9999 FEW025 FEW030TCU"
    },
    {
      "icao": "LCPH",
      "alert": "OK",
      "vis_m": 9999,
      "fzfg": false,
      "metar_trigger": false,
      "taf_trigger": false,
      "metar": "METAR LCPH 262130Z 07004KT 360V080 9999 FEW035 SCT050 17/11 Q1012 NOSIG",
      "taf": "TAF LCPH 261730Z 2618/2718 33008KT 9999 FEW025 FEW030TCU SCT035"
    },
    {
      "icao": "LEAL",
      "alert": "OK",
      "vis_m": 9999,
      "fzfg": false,
      "metar_trigger": false,
      "taf_trigger": false,
      "metar": "METAR LEAL 262130Z 01005KT 350V050 9999 FEW030 12/09 Q1015 NOSIG",
      "taf": "TAF LEAL 261700Z 2618/2718 VRB05KT 9999 SCT040 TX15/2713Z TN07/2706Z"
    },
    {
      "icao": "LEBB",
      "alert": "OK",
      "vis_m": 9999,
      "fzfg": false,
      "metar_trigger": false,
      "taf_trigger": false,
      "metar": "METAR LEBB 262130Z VRB01KT 9999 -RA FEW010 SCT070 07/07 Q1017 NOSIG",
      "taf": "TAF LEBB 261700Z 2618/2718 VRB03KT 9999 BKN045 TX14/2714Z TN03/2708Z"
    },
    {
      "icao": "LEBL",
      "alert": "OK",
      "vis_m": 9000,
      "fzfg": false,
      "metar_trigger": false,
      "taf_trigger": false,
      "metar": "METAR LEBL 262130Z 09012KT 9000 FEW011 SCT043 BKN060 13/11 Q1017 NOSIG",
      "taf": ""
    },
    {
      "icao": "LECH",
      "alert": "OK",
      "vis_m": 9999,
      "fzfg": false,
      "metar_trigger": false,
      "taf_trigger": false,
      "metar": "METAR LECH 262130Z AUTO 03007KT 9999 BKN020 BKN050 08/07 Q1015",
      "taf": ""
    },
    {
      "icao": "LEMD",
      "alert": "OK",
      "vis_m": 9999,
      "fzfg": false,
      "metar_trigger": false,
      "taf_trigger": false,
      "metar": "METAR LEMD 262130Z VRB01KT 9999 FEW040 BKN050 04/02 Q1014 NOSIG",
      "taf": "TAF LEMD 261700Z 2618/2724 VRB03KT CAVOK TX12/2715Z TN00/2706Z"
    },
    {
      "icao": "LEMG",
      "alert": "OK",
      "vis_m": 9999,
      "fzfg": false,
      "metar_trigger": false,
      "taf_trigger": false,
      "metar": "METAR LEMG 262130Z VRB02KT 9999 FEW012 08/06 Q1014 NOSIG",
      "taf": "TAF LEMG 261700Z 2618/2718 29006KT 9999 FEW045 TX15/2714Z TN05/2706Z"
    },
    {
      "icao": "LEVC",
      "alert": "OK",
      "vis_m": 9999,
      "fzfg": false,
      "metar_trigger": false,
      "taf_trigger": false,
      "metar": "METAR LEVC 262130Z 04003KT 330V090 9999 SCT033 BKN042 11/09 Q1015 NOSIG",
      "taf": "TAF LEVC 261700Z 2618/2718 VRB04KT 9999 FEW025 BKN035 TX14/2713Z TN07/2706Z"
    },
    {
      "icao": "LEXJ",
      "alert": "OK",
      "vis_m": 8000,
      "fzfg": false,
      "metar_trigger": false,
      "taf_trigger": false,
      "metar": "METAR LEXJ 262130Z VRB02KT 8000 -RA FEW045 BKN070 08/06 Q1017",
      "taf": "TAF LEXJ 262000Z 2621/2721 VRB03KT 9999 BKN045 TX13/2714Z TN03/2708Z"
    },
    {
      "icao": "LEZG",
      "alert": "OK",
      "vis_m": 4000,
      "fzfg": false,
      "metar_trigger": false,
      "taf_trigger": false,
      "metar": "METAR LEZG 262130Z 16001KT 4000 -RA BR BKN007 07/07 Q1017 NOSIG",
      "taf": ""
    },
    {
      "icao": "LEZL",
      "alert": "OK",
      "vis_m": 9999,
      "fzfg": false,
      "metar_trigger": false,
      "taf_trigger": false,
      "metar": "METAR LEZL 262130Z VRB01KT CAVOK 09/06 Q1014 NOSIG",
      "taf": "TAF LEZL 262000Z 2621/2721 VRB03KT 9999 FEW030 TX16/2715Z TN06/2707Z"
    },
    {
      "icao": "LFBD",
      "alert": "OK",
      "vis_m": 9999,
      "fzfg": false,
      "metar_trigger": false,
      "taf_trigger": false,
      "metar": "METAR LFBD 262130Z AUTO 06007KT CAVOK 10/04 Q1019 NOSIG",
      "taf": "TAF LFBD 261700Z 2618/2724 06010KT CAVOK TX12/2714Z TN03/2707Z"
    },
    {
      "icao": "LFLL",
      "alert": "OK",
      "vis_m": 4700,
      "fzfg": false,
      "metar_trigger": false,
      "taf_trigger": false,
      "metar": "METAR LFLL 262130Z AUTO VRB03KT 4700 BR OVC003 00/M00 Q1024",
      "taf": ""
    },
    {
      "icao": "LFLS",
      "alert": "OK",
      "vis_m": 4500,
      "fzfg": false,
      "metar_trigger": false,
      "taf_trigger": false,
      "metar": "METAR LFLS 262130Z AUTO 09002KT 4500 BR SCT005 BKN009 M02/M03 Q1023",
      "taf": "TAF LFLS 261400Z 2615/2715 36006KT CAVOK"
    },
    {
      "icao": "LFMN",
      "alert": "OK",
      "vis_m": 9999,
      "fzfg": false,
      "metar_trigger": false,
      "taf_trigger": false,
      "metar": "METAR LFMN 262130Z 33009KT CAVOK 08/03 Q1022 NOSIG",
      "taf": "TAF LFMN 262000Z 2621/2803 33010KT CAVOK"
    },
    {
      "icao": "LFOB",
      "alert": "OK",
      "vis_m": 6000,
      "fzfg": false,
      "metar_trigger": false,
      "taf_trigger": false,
      "metar": "METAR LFOB 262130Z AUTO 03006KT 340V050 6000 NSC M02/M03 Q1029 NOSIG",
      "taf": "TAF LFOB 261700Z 2618/2718 06008KT 8000 NSC"
    },
    {
      "icao": "LFPO",
      "alert": "OK",
      "vis_m": 9000,
      "fzfg": false,
      "metar_trigger": false,
      "taf_trigger": false,
      "metar": "METAR LFPO 262130Z AUTO 04009KT 9000 NSC 00/M02 Q1027",
      "taf": "TAF LFPO 261700Z 2618/2724 04007KT CAVOK"
    },
    {
      "icao": "LFSB",
      "alert": "OK",
      "vis_m": 8000,
      "fzfg": false,
      "metar_trigger": false,
      "taf_trigger": false,
      "metar": "METAR LFSB 262130Z AUTO 01004KT 330V040 8000 OVC019 M00/M01 Q1027 TEMPO 4000 BR BKN010",
      "taf": "TAF LFSB 261700Z 2618/2718 34004KT 8000 OVC016"
    },
    {
      "icao": "LGAV",
      "alert": "OK",
      "vis_m": 9999,
      "fzfg": false,
      "metar_trigger": false,
      "taf_trigger": false,
      "metar": "METAR LGAV 262120Z 36005KT 9999 FEW020 09/05 Q1021 NOSIG",
      "taf": "TAF LGAV 261700Z 2618/2718 01014KT 9999 FEW018 SCT030 BKN070"
    },
    {
      "icao": "LGTS",
      "alert": "OK",
      "vis_m": 9999,
      "fzfg": false,
      "metar_trigger": false,
      "taf_trigger": false,
      "metar": "METAR LGTS 262120Z 33014G24KT 9999 FEW025 08/03 Q1022 NOSIG",
      "taf": "TAF LGTS 261700Z 2618/2718 34015KT 9999 FEW025"
    },
    {
      "icao": "LHBP",
      "alert": "OK",
      "vis_m": 9000,
      "fzfg": false,
      "metar_trigger": false,
      "taf_trigger": false,
      "metar": "METAR LHBP 262130Z 35001KT 9000 NSC M02/M03 Q1028 TEMPO 4000 BCFG",
      "taf": "TAF LHBP 261715Z 2618/2718 29006KT CAVOK"
    },
    {
      "icao": "LHDC",
      "alert": "OK",
      "vis_m": 8000,
      "fzfg": false,
      "metar_trigger": false,
      "taf_trigger": false,
      "metar": "METAR LHDC 262115Z AUTO 00000KT 8000 BKN035 02/M00 Q1028",
      "taf": ""
    },
    {
      "icao": "LIBD",
      "alert": "OK",
      "vis_m": 9999,
      "fzfg": false,
      "metar_trigger": false,
      "taf_trigger": false,
      "metar": "METAR LIBD 262120Z 27005KT 9999 FEW025 08/08 Q1024",
      "taf": "TAF LIBD 261700Z 2618/2718 VRB05KT 9999 SCT020"
    },
    {
      "icao": "LIBG",
      "alert": "OK",
      "vis_m": null,
      "fzfg": false,
      "metar_trigger": false,
      "taf_trigger": false,
      "metar": "",
      "taf": "TAF LIBG 261700Z 2618/2703 03007KT CAVOK"
    },
    {
      "icao": "LIBP",
      "alert": "OK",
      "vis_m": 9999,
      "fzfg": false,
      "metar_trigger": false,
      "taf_trigger": false,
      "metar": "METAR LIBP 262120Z AUTO 25003KT 200V300 9999 SCT026/// OVC045/// 09/06 Q1027",
      "taf": "TAF LIBP 261700Z 2618/2718 VRB05KT 9999 OVC025"
    },
    {
      "icao": "LIBR",
      "alert": "OK",
      "vis_m": 9999,
      "fzfg": false,
      "metar_trigger": false,
      "taf_trigger": false,
      "metar": "METAR LIBR 262120Z 36010KT 9999 BKN022 14/09 Q1023",
      "taf": "TAF LIBR 261700Z 2618/2718 03012KT 9999 SCT040"
    },
    {
      "icao": "LICA",
      "alert": "OK",
      "vis_m": 9999,
      "fzfg": false,
      "metar_trigger": false,
      "taf_trigger": false,
      "metar": "METAR LICA 262120Z AUTO 03009KT 9999 NCD 11/08 Q1021",
      "taf": "TAF LICA 261700Z 2618/2718 09013KT CAVOK"
    },
    {
      "icao": "LICC",
      "alert": "OK",
      "vis_m": 9999,
      "fzfg": false,
      "metar_trigger": false,
      "taf_trigger": false,
      "metar": "METAR LICC 262120Z 07021KT 9999 FEW020 SCT070 16/14 Q1019",
      "taf": "TAF LICC 261700Z 2618/2718 07013KT 9999 SCT040"
    },
    {
      "icao": "LICJ",
      "alert": "OK",
      "vis_m": 9999,
      "fzfg": false,
      "metar_trigger": false,
      "taf_trigger": false,
      "metar": "METAR LICJ 262120Z 03004KT 350V060 CAVOK 15/11 Q1018",
      "taf": "TAF LICJ 261700Z 2618/2718 07009KT 9999 SCT040"
    },
    {
      "icao": "LIMC",
      "alert": "OK",
      "vis_m": 9999,
      "fzfg": false,
      "metar_trigger": false,
      "taf_trigger": false,
      "metar": "METAR LIMC 262120Z 05003KT 020V090 9999 BKN030 06/03 Q1029 NOSIG",
      "taf": "TAF LIMC 261700Z 2618/2724 VRB05KT 9999 FEW030"
    },
    {
      "icao": "LIME",
      "alert": "OK",
      "vis_m": 9999,
      "fzfg": false,
      "metar_trigger": false,
      "taf_trigger": false,
      "metar": "METAR LIME 262120Z 33003KT CAVOK 03/02 Q1028 NOSIG",
      "taf": "TAF LIME 261700Z 2618/2718 VRB05KT 9999 SCT030"
    },
    {
      "icao": "LIMF",
      "alert": "OK",
      "vis_m": 9999,
      "fzfg": false,
      "metar_trigger": false,
      "taf_trigger": false,
      "metar": "METAR LIMF 262120Z 34007KT 9999 BKN030 04/02 Q1028",
      "taf": "TAF LIMF 261700Z 2618/2718 VRB05KT 9999 FEW040"
    },
    {
      "icao": "LIMJ",
      "alert": "OK",
      "vis_m": 9999,
      "fzfg": false,
      "metar_trigger": false,
      "taf_trigger": false,
      "metar": "METAR LIMJ 262120Z 04016KT CAVOK 09/00 Q1025",
      "taf": "TAF LIMJ 261700Z 2618/2718 03015KT CAVOK"
    },
    {
      "icao": "LIPE",
      "alert": "OK",
      "vis_m": 9999,
      "fzfg": false,
      "metar_trigger": false,
      "taf_trigger": false,
      "metar": "METAR LIPE 262120Z 27007KT 9999 SCT030 05/03 Q1028",
      "taf": "TAF LIPE 261700Z 2618/2718 28007KT 9999 BKN025"
    },
    {
      "icao": "LIPH",
      "alert": "OK",
      "vis_m": 9999,
      "fzfg": false,
      "metar_trigger": false,
      "taf_trigger": false,
      "metar": "METAR LIPH 262120Z 35003KT CAVOK 03/M00 Q1029",
      "taf": "TAF LIPH 261700Z 2618/2718 VRB04KT CAVOK"
    },
    {
      "icao": "LIPQ",
      "alert": "OK",
      "vis_m": 9999,
      "fzfg": false,
      "metar_trigger": false,
      "taf_trigger": false,
      "metar": "METAR LIPQ 262120Z AUTO 01003KT 330V070 9999 NCD 00/M01 Q1028",
      "taf": "TAF LIPQ 261700Z 2618/2718 VRB04KT CAVOK"
    },
    {
      "icao": "LIPR",
      "alert": "OK",
      "vis_m": 9999,
      "fzfg": false,
      "metar_trigger": false,
      "taf_trigger": false,
      "metar": "METAR LIPR 262120Z 30004KT 9999 BKN035 07/04 Q1028",
      "taf": "TAF LIPR 261700Z 2618/2718 30008KT 9999 BKN035"
    },
    {
      "icao": "LIPX",
      "alert": "OK",
      "vis_m": 9999,
      "fzfg": false,
      "metar_trigger": false,
      "taf_trigger": false,
      "metar": "METAR LIPX 262120Z 36004KT CAVOK 02/00 Q1029",
      "taf": "TAF LIPX 261700Z 2618/2718 VRB05KT 9999 FEW030"
    },
    {
      "icao": "LIPY",
      "alert": "OK",
      "vis_m": 9999,
      "fzfg": false,
      "metar_trigger": false,
      "taf_trigger": false,
      "metar": "METAR LIPY 262120Z AUTO 28004KT 250V330 9999 OVC033/// 08/05 Q1028",
      "taf": "TAF LIPY 261700Z 2618/2718 28007KT 9999 SCT020"
    },
    {
      "icao": "LIPZ",
      "alert": "OK",
      "vis_m": 9999,
      "fzfg": false,
      "metar_trigger": false,
      "taf_trigger": false,
      "metar": "METAR LIPZ 262120Z 03007KT CAVOK 04/00 Q1029 NOSIG",
      "taf": "TAF LIPZ 261700Z 2618/2724 VRB06KT CAVOK"
    },
    {
      "icao": "LIRF",
      "alert": "OK",
      "vis_m": 9999,
      "fzfg": false,
      "metar_trigger": false,
      "taf_trigger": false,
      "metar": "METAR LIRF 262120Z 03005KT CAVOK 09/05 Q1022 NOSIG",
      "taf": "TAF LIRF 261700Z 2618/2724 05012KT CAVOK"
    },
    {
      "icao": "LIRN",
      "alert": "OK",
      "vis_m": 9999,
      "fzfg": false,
      "metar_trigger": false,
      "taf_trigger": false,
      "metar": "METAR LIRN 262120Z 04009KT 360V060 CAVOK 11/06 Q1022 NOSIG",
      "taf": "TAF LIRN 261700Z 2618/2718 06009KT CAVOK"
    },
    {
      "icao": "LIRP",
      "alert": "OK",
      "vis_m": 9999,
      "fzfg": false,
      "metar_trigger": false,
      "taf_trigger": false,
      "metar": "METAR LIRP 262115Z 12014KT CAVOK 07/03 Q1024 NOSIG",
      "taf": "TAF LIRP 261700Z 2618/2718 11012KT CAVOK"
    },
    {
      "icao": "LIRZ",
      "alert": "OK",
      "vis_m": 9999,
      "fzfg": false,
      "metar_trigger": false,
      "taf_trigger": false,
      "metar": "METAR LIRZ 262120Z AUTO 36010KT 9999 NCD 06/03 Q1025",
      "taf": "TAF LIRZ 261700Z 2618/2718 04011KT 9999 FEW030"
    },
    {
      "icao": "LJLJ",
      "alert": "OK",
      "vis_m": 9999,
      "fzfg": true,
      "metar_trigger": false,
      "taf_trigger": false,
      "metar": "METAR LJLJ 262130Z 29004KT 9999 MIFG VCFG FEW005 M03/M03 Q1030 BECMG 0600 FZFG VV002",
      "taf": "TAF LJLJ 261700Z 2618/2718 VRB02KT 9999 SCT013 BKN033"
    },
    {
      "icao": "LKMT",
      "alert": "OK",
      "vis_m": 4500,
      "fzfg": false,
      "metar_trigger": false,
      "taf_trigger": false,
      "metar": "METAR LKMT 262130Z 03002KT 4500 BR BKN029 M05/M05 Q1032 NOSIG",
      "taf": "TAF LKMT 261700Z 2618/2718 06004KT 3500 BR NSC"
    },
    {
      "icao": "LKPR",
      "alert": "OK",
      "vis_m": 9999,
      "fzfg": false,
      "metar_trigger": false,
      "taf_trigger": false,
      "metar": "METAR LKPR 262130Z 21005KT CAVOK M04/M05 Q1032 NOSIG",
      "taf": "TAF LKPR 262000Z 2621/2803 23004KT CAVOK"
    },
    {
      "icao": "LLBG",
      "alert": "OK",
      "vis_m": 9000,
      "fzfg": false,
      "metar_trigger": false,
      "taf_trigger": false,
      "metar": "METAR LLBG 262120Z VRB03KT 9000 SCT035 15/12 Q1014 TEMPO 7000 RA FEW020TCU BKN025 RMK RERA BKN085",
      "taf": "TAF LLBG 261706Z 2618/2718 VRB04KT 9999 SCT030"
    },
    {
      "icao": "LMML",
      "alert": "OK",
      "vis_m": 9999,
      "fzfg": false,
      "metar_trigger": false,
      "taf_trigger": false,
      "metar": "METAR LMML 262115Z 10013KT 9999 SCT025 16/11 Q1017 NOSIG",
      "taf": "TAF LMML 261700Z 2618/2718 11015KT 9999 FEW020"
    },
    {
      "icao": "LOWW",
      "alert": "OK",
      "vis_m": 9999,
      "fzfg": false,
      "metar_trigger": false,
      "taf_trigger": false,
      "metar": "METAR LOWW 262120Z 32006KT CAVOK M02/M04 Q1031 NOSIG",
      "taf": "TAF LOWW 262015Z 2621/2803 33007KT CAVOK TX03/2722Z TNM02/2700Z"
    },
    {
      "icao": "LPFR",
      "alert": "OK",
      "vis_m": 9999,
      "fzfg": false,
      "metar_trigger": false,
      "taf_trigger": false,
      "metar": "METAR LPFR 262130Z 03007KT CAVOK 09/05 Q1013",
      "taf": "TAF LPFR 261700Z 2618/2718 24007KT CAVOK"
    },
    {
      "icao": "LPMA",
      "alert": "OK",
      "vis_m": 9999,
      "fzfg": false,
      "metar_trigger": false,
      "taf_trigger": false,
      "metar": "METAR LPMA 262130Z 34004KT 290V060 9999 FEW015 15/09 Q1016",
      "taf": "TAF LPMA 261700Z 2618/2718 34008KT 9999 SCT015"
    },
    {
      "icao": "LPPR",
      "alert": "OK",
      "vis_m": 9999,
      "fzfg": false,
      "metar_trigger": false,
      "taf_trigger": false,
      "metar": "METAR LPPR 262130Z 10008KT CAVOK 07/00 Q1014",
      "taf": "TAF LPPR 261700Z 2618/2718 13007KT CAVOK"
    },
    {
      "icao": "LPPS",
      "alert": "OK",
      "vis_m": 9999,
      "fzfg": false,
      "metar_trigger": false,
      "taf_trigger": false,
      "metar": "METAR LPPS 262130Z 28019KT 9999 SCT015 17/11 Q1015",
      "taf": "TAF LPPS 261700Z 2618/2724 30015KT 9999 SCT015"
    },
    {
      "icao": "LPPT",
      "alert": "OK",
      "vis_m": 9999,
      "fzfg": false,
      "metar_trigger": false,
      "taf_trigger": false,
      "metar": "METAR LPPT 262130Z 13004KT CAVOK 09/06 Q1013",
      "taf": "TAF LPPT 261700Z 2618/2724 18007KT 9999 FEW030"
    },
    {
      "icao": "LQBK",
      "alert": "OK",
      "vis_m": 9999,
      "fzfg": false,
      "metar_trigger": false,
      "taf_trigger": false,
      "metar": "METAR LQBK 262130Z 20003KT 9999 BKN030 02/01 Q1031 NOSIG",
      "taf": "TAF LQBK 261700Z 2618/2718 16003KT 8000 SCT012 BKN035 TX03/2713Z TNM03/2705Z"
    },
    {
      "icao": "LQSA",
      "alert": "OK",
      "vis_m": 8000,
      "fzfg": false,
      "metar_trigger": false,
      "taf_trigger": false,
      "metar": "METAR LQSA 262130Z 33002KT 8000 OVC020 01/M01 Q1028 NOSIG",
      "taf": "TAF LQSA 261700Z 2618/2718 VRB02KT 9999 SCT015 BKN025 TX06/2713Z TNM01/2705Z"
    },
    {
      "icao": "LQTZ",
      "alert": "OK",
      "vis_m": 6000,
      "fzfg": false,
      "metar_trigger": false,
      "taf_trigger": false,
      "metar": "METAR LQTZ 262130Z VRB03KT 6000 FEW015 OVC025 01/01 Q1031",
      "taf": "TAF LQTZ 261700Z 2618/2718 29004KT 8000 FEW012 BKN030 TX03/2713Z TNM04/2705Z"
    },
    {
      "icao": "LRBC",
      "alert": "OK",
      "vis_m": 9999,
      "fzfg": false,
      "metar_trigger": false,
      "taf_trigger": false,
      "metar": "METAR LRBC 262130Z COR 36014KT CAVOK 01/M03 Q1021",
      "taf": "TAF LRBC 262000Z 2621/2706 36015KT 9999 BKN040"
    },
    {
      "icao": "LRBS",
      "alert": "OK",
      "vis_m": 5000,
      "fzfg": false,
      "metar_trigger": false,
      "taf_trigger": false,
      "metar": "METAR LRBS 262130Z VRB02KT 5000 BR NSC M03/M04 Q1022 BECMG 3000 BR",
      "taf": "TAF LRBS 261700Z 2618/2718 24008KT CAVOK"
    },
    {
      "icao": "LRBV",
      "alert": "OK",
      "vis_m": 9999,
      "fzfg": false,
      "metar_trigger": false,
      "taf_trigger": false,
      "metar": "METAR LRBV 262130Z AUTO 30012G23KT 9999 BKN032/// OVC042/// 01/M05 Q1022",
      "taf": "TAF LRBV 262000Z 2621/2706 30012KT 9999 BKN020 BKN050"
    },
    {
      "icao": "LRCL",
      "alert": "OK",
      "vis_m": 9999,
      "fzfg": false,
      "metar_trigger": false,
      "taf_trigger": false,
      "metar": "METAR LRCL 262130Z 31009KT 9999 OVC033 01/M03 Q1025",
      "taf": "TAF LRCL 262000Z 2621/2706 30010KT 9999 BKN035"
    },
    {
      "icao": "LRCV",
      "alert": "OK",
      "vis_m": 9999,
      "fzfg": false,
      "metar_trigger": false,
      "taf_trigger": false,
      "metar": "METAR LRCV 262130Z 28009KT CAVOK M02/M02 Q1022",
      "taf": "TAF LRCV 262000Z 2621/2706 26006KT CAVOK"
    },
    {
      "icao": "LRIA",
      "alert": "OK",
      "vis_m": 9999,
      "fzfg": false,
      "metar_trigger": false,
      "taf_trigger": false,
      "metar": "METAR LRIA 262130Z 30013KT 270V340 9999 -FZDZ BKN014 OVC023 M00/M02 Q1021",
      "taf": "TAF LRIA 262000Z 2621/2706 31015KT 9999 OVC015"
    },
    {
      "icao": "LROP",
      "alert": "OK",
      "vis_m": 5000,
      "fzfg": false,
      "metar_trigger": false,
      "taf_trigger": false,
      "metar": "METAR LROP 262130Z 15002KT 5000 BR NSC M04/M04 Q1022 BECMG 1500 BR",
      "taf": "TAF LROP 261700Z 2618/2718 24008KT CAVOK"
    },
    {
      "icao": "LRSB",
      "alert": "OK",
      "vis_m": 9999,
      "fzfg": false,
      "metar_trigger": false,
      "taf_trigger": false,
      "metar": "METAR LRSB 262130Z VRB02KT 9999 BKN040 01/M01 Q1024",
      "taf": "TAF LRSB 261700Z 2618/2718 VRB04KT 9999 BKN045"
    },
    {
      "icao": "LRSM",
      "alert": "OK",
      "vis_m": 9999,
      "fzfg": false,
      "metar_trigger": false,
      "taf_trigger": false,
      "metar": "METAR LRSM 262130Z AUTO 27004KT 9999 NCD M01/M04 Q1027",
      "taf": "TAF LRSM 261400Z 2615/2624 29008KT CAVOK"
    },
    {
      "icao": "LRSV",
      "alert": "OK",
      "vis_m": 9999,
      "fzfg": false,
      "metar_trigger": false,
      "taf_trigger": false,
      "metar": "METAR LRSV 262130Z 33018KT 9999 BKN017 M01/M04 Q1020",
      "taf": "TAF LRSV 262000Z 2621/2706 33020KT 9999 BKN020"
    },
    {
      "icao": "LRTM",
      "alert": "OK",
      "vis_m": 9999,
      "fzfg": false,
      "metar_trigger": false,
      "taf_trigger": false,
      "metar": "METAR LRTM 262130Z AUTO VRB02KT 9999 R25////// BKN032/// 00/M05 Q1025",
      "taf": "TAF LRTM 261400Z 2615/2624 26012KT CAVOK"
    },
    {
      "icao": "LRTR",
      "alert": "OK",
      "vis_m": 9999,
      "fzfg": false,
      "metar_trigger": false,
      "taf_trigger": false,
      "metar": "METAR LRTR 262130Z 28005KT 9999 SCT007 OVC021 02/02 Q1029",
      "taf": "TAF LRTR 261700Z 2618/2718 VRB04KT 9999 BKN015"
    },
    {
      "icao": "LTAC",
      "alert": "OK",
      "vis_m": 9999,
      "fzfg": false,
      "metar_trigger": false,
      "taf_trigger": false,
      "metar": "METAR LTAC 262120Z 31006KT 280V360 9999 BKN026 BKN080 02/M05 Q1012 NOSIG RMK RWY21C 28007KT 260V320 RWY03L 30005KT RWY21R 28006KT RWY03R 29004KT RWY21L 27005KT",
      "taf": "TAF LTAC 261640Z 2618/2718 VRB02KT 9999 BKN025 BKN080"
    },
    {
      "icao": "LTFM",
      "alert": "OK",
      "vis_m": 9999,
      "fzfg": false,
      "metar_trigger": false,
      "taf_trigger": false,
      "metar": "METAR LTFM 262120Z 28008KT 9999 -RA SCT016 BKN020 05/01 Q1019 NOSIG RMK RWY17L 27009KT RWY34L 28006KT 240V330 RWY16R 26007KT RWY36 28009KT RWY18 28010KT",
      "taf": "TAF LTFM 261640Z 2618/2724 26008KT 9999 FEW035"
    },
    {
      "icao": "LUKK",
      "alert": "OK",
      "vis_m": 9999,
      "fzfg": false,
      "metar_trigger": false,
      "taf_trigger": false,
      "metar": "METAR LUKK 262130Z 33014KT 300V360 9999 -SN OVC012 M00/M02 Q1018 TEMPO 35018G30KT BKN008",
      "taf": "TAF LUKK 261721Z 2618/2718 32014KT 9999 BKN015"
    },
    {
      "icao": "LWOH",
      "alert": "OK",
      "vis_m": null,
      "fzfg": false,
      "metar_trigger": false,
      "taf_trigger": false,
      "metar": "",
      "taf": "TAF LWOH 262015Z 2621/2721 34006KT 9999 SCT040"
    },
    {
      "icao": "LWSK",
      "alert": "OK",
      "vis_m": 9999,
      "fzfg": false,
      "metar_trigger": false,
      "taf_trigger": false,
      "metar": "METAR LWSK 262120Z 02010KT 9999 SCT025 BKN050 03/M00 Q1027 NOSIG",
      "taf": "TAF LWSK 262015Z 2621/2721 02008KT 9999 SCT020 BKN050"
    },
    {
      "icao": "LYBE",
      "alert": "OK",
      "vis_m": 8000,
      "fzfg": false,
      "metar_trigger": false,
      "taf_trigger": false,
      "metar": "METAR LYBE 262130Z 26007KT 220V280 8000 NSC 00/M01 Q1030 NOSIG",
      "taf": "TAF LYBE 261700Z 2618/2718 26005KT 9999 BKN027 TX04/2713Z TNM00/2706Z"
    },
    {
      "icao": "LYNI",
      "alert": "OK",
      "vis_m": 9999,
      "fzfg": false,
      "metar_trigger": false,
      "taf_trigger": false,
      "metar": "METAR LYNI 262130Z 18003KT 150V220 9999 OVC010 01/M00 Q1028 NOSIG",
      "taf": "TAF LYNI 261700Z 2618/2718 30007KT 9999 SCT010 OVC020 TX02/2712Z TN00/2706Z"
    },
    {
      "icao": "LYPG",
      "alert": "OK",
      "vis_m": 9999,
      "fzfg": false,
      "metar_trigger": false,
      "taf_trigger": false,
      "metar": "METAR LYPG 262130Z 01009KT 340V040 CAVOK 06/00 Q1024 NOSIG",
      "taf": "TAF LYPG 261700Z 2618/2718 34008KT CAVOK TX14/2713Z TN03/2620Z"
    },
    {
      "icao": "LZIB",
      "alert": "OK",
      "vis_m": 9999,
      "fzfg": false,
      "metar_trigger": false,
      "taf_trigger": false,
      "metar": "METAR LZIB 262130Z 32005KT 290V350 CAVOK 03/M11 Q1030 WS R31 NOSIG",
      "taf": "TAF LZIB 261715Z 2618/2718 29006KT 9999 FEW045"
    },
    {
      "icao": "LZKZ",
      "alert": "OK",
      "vis_m": 9999,
      "fzfg": false,
      "metar_trigger": false,
      "taf_trigger": false,
      "metar": "METAR LZKZ 262130Z 03013KT CAVOK 01/M03 Q1027 NOSIG",
      "taf": "TAF LZKZ 261715Z 2618/2718 VRB02KT 9999 FEW045"
    },
    {
      "icao": "LZTT",
      "alert": "OK",
      "vis_m": 9999,
      "fzfg": false,
      "metar_trigger": false,
      "taf_trigger": false,
      "metar": "METAR LZTT 262130Z VRB03KT CAVOK M07/M09 Q1026",
      "taf": "TAF LZTT 261715Z 2618/2718 28005KT 9999 FEW070"
    },
    {
      "icao": "OEJN",
      "alert": "OK",
      "vis_m": 9999,
      "fzfg": false,
      "metar_trigger": false,
      "taf_trigger": false,
      "metar": "METAR OEJN 262100Z 36003KT CAVOK 23/22 Q1011 NOSIG",
      "taf": "TAF OEJN 261700Z 2618/2724 34008KT CAVOK"
    },
    {
      "icao": "OEMA",
      "alert": "OK",
      "vis_m": 9999,
      "fzfg": false,
      "metar_trigger": false,
      "taf_trigger": false,
      "metar": "METAR OEMA 262100Z 00000KT CAVOK 20/11 Q1014 NOSIG",
      "taf": "TAF OEMA 261700Z 2618/2724 26008KT 9999 FEW045"
    },
    {
      "icao": "OJAI",
      "alert": "OK",
      "vis_m": 3000,
      "fzfg": false,
      "metar_trigger": false,
      "taf_trigger": false,
      "metar": "METAR OJAI 262100Z 28003KT 3000 HZ NSC 08/05 Q1016 NOSIG",
      "taf": "TAF OJAI 261646Z 2618/2724 28010KT 4000 HZ FEW030"
    },
    {
      "icao": "OMAA",
      "alert": "OK",
      "vis_m": 8000,
      "fzfg": false,
      "metar_trigger": false,
      "taf_trigger": false,
      "metar": "METAR OMAA 262100Z 00000KT 8000 NSC 20/16 Q1014 NOSIG",
      "taf": "TAF OMAA 261700Z 2618/2800 VRB02KT 8000 FEW030"
    },
    {
      "icao": "OMDB",
      "alert": "OK",
      "vis_m": 9999,
      "fzfg": false,
      "metar_trigger": false,
      "taf_trigger": false,
      "metar": "METAR OMDB 262130Z 14003KT 110V170 CAVOK 20/14 Q1014 NOSIG",
      "taf": "TAF OMDB 261700Z 2618/2800 11005KT 8000 NSC"
    },
    {
      "icao": "UAAA",
      "alert": "OK",
      "vis_m": 9999,
      "fzfg": false,
      "metar_trigger": false,
      "taf_trigger": false,
      "metar": "METAR UAAA 262130Z 04004MPS 9999 OVC004 M01/M02 Q1024 NOSIG RMK QBB130",
      "taf": "TAF UAAA 261701Z 2618/2718 34003G08MPS 1100 BR BKN011CB OVC030 TX00/2709Z TNM03/2701Z"
    },
    {
      "icao": "UBBB",
      "alert": "OK",
      "vis_m": 9999,
      "fzfg": false,
      "metar_trigger": false,
      "taf_trigger": false,
      "metar": "METAR UBBB 262130Z 18012KT CAVOK 04/03 Q1010 NOSIG",
      "taf": "TAF UBBB 261702Z 2618/2718 19006KT 9999 SCT035 TX09/2710Z TN03/2701Z"
    },
    {
      "icao": "UDSG",
      "alert": "OK",
      "vis_m": 1300,
      "fzfg": false,
      "metar_trigger": false,
      "taf_trigger": false,
      "metar": "METAR UDSG 262130Z 30002KT 1300 R02/P2000D SN BR OVC020 M02/M02 Q1009 NOSIG",
      "taf": "TAF UDSG 261658Z 2618/2718 VRB06KT 3000 BR OVC020"
    },
    {
      "icao": "UDYZ",
      "alert": "OK",
      "vis_m": 1500,
      "fzfg": false,
      "metar_trigger": false,
      "taf_trigger": false,
      "metar": "METAR UDYZ 262130Z 00000KT 1500 R08/P2000N BR BKN046 01/M01 Q1010 NOSIG",
      "taf": "TAF UDYZ 261700Z 2618/2718 VRB06KT 2000 BR BKN030"
    },
    {
      "icao": "UGKO",
      "alert": "OK",
      "vis_m": 9999,
      "fzfg": false,
      "metar_trigger": false,
      "taf_trigger": false,
      "metar": "METAR UGKO 262130Z 09005KT 9999 -SHRA SCT026CB OVC061 05/05 Q1011 NOSIG",
      "taf": "TAF UGKO 261700Z 2618/2718 24007KT 9999 OVC050 TX06/2711Z TN02/2717Z"
    }
  ]
}