{
  "ts_utc": "2026-02-07T23:27:48Z",
  "threshold_m": 150,
  "source": "stations_override.txt (ICAO list) + aviationweather.gov (METAR/TAF raw)",
  "station_count": 159,
  "stations": [
    {
      "icao": "BIKF",
      "alert": "OK",
      "vis_m": 9999,
      "fzfg": false,
      "metar_trigger": false,
      "taf_trigger": false,
      "metar": "METAR BIKF 072300Z 04008KT CAVOK M00/M04 Q1010",
      "taf": "TAF BIKF 072239Z 0800/0900 05008KT 9999 FEW034 TX02/0815Z TNM03/0806Z"
    },
    {
      "icao": "BKPR",
      "alert": "OK",
      "vis_m": null,
      "fzfg": false,
      "metar_trigger": false,
      "taf_trigger": false,
      "metar": "",
      "taf": ""
    },
    {
      "icao": "EBCI",
      "alert": "OK",
      "vis_m": 9999,
      "fzfg": false,
      "metar_trigger": false,
      "taf_trigger": false,
      "metar": "METAR EBCI 072320Z 16005KT CAVOK 06/04 Q1005 NOSIG",
      "taf": "TAF EBCI 072310Z 0800/0906 15004KT CAVOK"
    },
    {
      "icao": "EDDB",
      "alert": "OK",
      "vis_m": 2200,
      "fzfg": false,
      "metar_trigger": false,
      "taf_trigger": false,
      "metar": "METAR EDDB 072320Z AUTO 05005KT 2200 BR OVC002 01/01 Q1009 TEMPO 0800 FG OVC001",
      "taf": "TAF EDDB 072300Z 0800/0824 04006KT 3000 BR OVC002"
    },
    {
      "icao": "EDDH",
      "alert": "OK",
      "vis_m": 8000,
      "fzfg": false,
      "metar_trigger": false,
      "taf_trigger": false,
      "metar": "METAR EDDH 072320Z AUTO 08007KT 8000 -SHSN OVC004 FEW///TCU 01/00 Q1010 NOSIG",
      "taf": "TAF EDDH 072300Z 0800/0906 08007KT 7000 OVC006"
    },
    {
      "icao": "EDDK",
      "alert": "OK",
      "vis_m": 9999,
      "fzfg": false,
      "metar_trigger": false,
      "taf_trigger": false,
      "metar": "METAR EDDK 072320Z AUTO 09006KT 060V130 CAVOK 04/03 Q1007 NOSIG",
      "taf": "TAF EDDK 072300Z 0800/0906 12006KT CAVOK"
    },
    {
      "icao": "EDDN",
      "alert": "OK",
      "vis_m": 650,
      "fzfg": false,
      "metar_trigger": false,
      "taf_trigger": false,
      "metar": "METAR EDDN 072320Z AUTO VRB01KT 0650 R28/0800N FG FEW000 BKN004 03/03 Q1007",
      "taf": "TAF EDDN 072300Z 0800/0824 VRB02KT 0400 FG OVC001"
    },
    {
      "icao": "EDDS",
      "alert": "OK",
      "vis_m": 9999,
      "fzfg": false,
      "metar_trigger": false,
      "taf_trigger": false,
      "metar": "METAR EDDS 072320Z AUTO 04002KT CAVOK 01/01 Q1006",
      "taf": "TAF EDDS 072300Z 0800/0824 VRB02KT 4000 BR SCT003"
    },
    {
      "icao": "EDFH",
      "alert": "OK",
      "vis_m": 300,
      "fzfg": false,
      "metar_trigger": false,
      "taf_trigger": false,
      "metar": "METAR EDFH 072320Z 14012KT 0300 R21/0325N FG VV/// 01/01 Q1006",
      "taf": "TAF EDFH 072300Z 0800/0824 14010KT 0300 FG VV001"
    },
    {
      "icao": "EDJA",
      "alert": "OK",
      "vis_m": 800,
      "fzfg": false,
      "metar_trigger": false,
      "taf_trigger": false,
      "metar": "METAR EDJA 072320Z AUTO VRB01KT 0800 0450 R24/1500D // FEW003/// M01/M02 Q1006",
      "taf": "TAF EDJA 071700Z 0718/0803 VRB03KT 9999 FEW030"
    },
    {
      "icao": "EDLW",
      "alert": "OK",
      "vis_m": 9999,
      "fzfg": false,
      "metar_trigger": false,
      "taf_trigger": false,
      "metar": "METAR EDLW 072320Z AUTO 16009KT 9999 // NCD 05/03 Q1006",
      "taf": "TAF EDLW 071700Z 0718/0818 14004KT 9999 FEW030"
    },
    {
      "icao": "EDNY",
      "alert": "OK",
      "vis_m": 9999,
      "fzfg": false,
      "metar_trigger": false,
      "taf_trigger": false,
      "metar": "METAR EDNY 072320Z AUTO 07004KT 020V100 9999 // NCD M00/M00 Q1006",
      "taf": "TAF EDNY 071700Z 0718/0803 04003KT 9999 FEW040"
    },
    {
      "icao": "EDSB",
      "alert": "OK",
      "vis_m": 450,
      "fzfg": false,
      "metar_trigger": false,
      "taf_trigger": false,
      "metar": "METAR EDSB 072320Z AUTO VRB02KT 0450 0300 R21/0550D // VV/// 02/01 Q1007",
      "taf": "TAF EDSB 072300Z 0800/0824 VRB02KT 0600 FG VV003"
    },
    {
      "icao": "EETN",
      "alert": "OK",
      "vis_m": 9999,
      "fzfg": false,
      "metar_trigger": false,
      "taf_trigger": false,
      "metar": "METAR EETN 072320Z 08013KT 9999 OVC007 M10/M11 Q1022",
      "taf": "TAF EETN 071730Z 0718/0818 05009KT 9999 BKN008"
    },
    {
      "icao": "EFTU",
      "alert": "OK",
      "vis_m": 9999,
      "fzfg": false,
      "metar_trigger": false,
      "taf_trigger": false,
      "metar": "METAR EFTU 072320Z AUTO 08007KT 9999 -SHSN OVC009 M10/M12 Q1024",
      "taf": "TAF EFTU 072027Z 0721/0821 08009KT 9999 BKN008"
    },
    {
      "icao": "EGBB",
      "alert": "OK",
      "vis_m": 9999,
      "fzfg": false,
      "metar_trigger": false,
      "taf_trigger": false,
      "metar": "METAR EGBB 072320Z 18006KT 9999 SCT034 08/07 Q0997",
      "taf": "TAF EGBB 072257Z 0800/0824 17007KT 9999 SCT020"
    },
    {
      "icao": "EGGP",
      "alert": "OK",
      "vis_m": 9999,
      "fzfg": false,
      "metar_trigger": false,
      "taf_trigger": false,
      "metar": "METAR EGGP 072320Z 19005KT 9999 SCT020 SCT040 07/07 Q0994",
      "taf": "TAF EGGP 072255Z 0800/0824 18008KT 9999 FEW020"
    },
    {
      "icao": "EGGW",
      "alert": "OK",
      "vis_m": 9999,
      "fzfg": false,
      "metar_trigger": false,
      "taf_trigger": false,
      "metar": "METAR EGGW 072320Z AUTO 18007KT 150V210 9999 SCT005 SCT008 BKN015 07/07 Q0999",
      "taf": "TAF EGGW 072257Z 0800/0824 18008KT 9999 SCT008 BKN015"
    },
    {
      "icao": "EGKK",
      "alert": "OK",
      "vis_m": 9999,
      "fzfg": false,
      "metar_trigger": false,
      "taf_trigger": false,
      "metar": "METAR EGKK 072320Z 14003KT 110V170 9999 FEW015 08/08 Q1000",
      "taf": "TAF EGKK 072302Z 0800/0906 17006KT 9999 SCT015"
    },
    {
      "icao": "EGNM",
      "alert": "OK",
      "vis_m": 2000,
      "fzfg": false,
      "metar_trigger": false,
      "taf_trigger": false,
      "metar": "METAR EGNM 072220Z 14010KT 2000 -RA BR SCT001 OVC002 08/08 Q0994",
      "taf": "TAF EGNM 072255Z 0800/0824 16006KT 2000 BR OVC002"
    },
    {
      "icao": "EGPD",
      "alert": "OK",
      "vis_m": 3900,
      "fzfg": false,
      "metar_trigger": false,
      "taf_trigger": false,
      "metar": "METAR EGPD 072320Z AUTO 12014KT 3900 -RADZ OVC002/// //////CB 06/06 Q1001 RERA TEMPO 6000",
      "taf": "TAF EGPD 072254Z 0800/0824 12015G28KT 8000 SCT002 BKN006"
    },
    {
      "icao": "EGPF",
      "alert": "OK",
      "vis_m": 9999,
      "fzfg": false,
      "metar_trigger": false,
      "taf_trigger": false,
      "metar": "METAR EGPF 072320Z AUTO 06010KT 9999 OVC006 07/06 Q0996",
      "taf": "TAF EGPF 072255Z 0800/0824 07010KT 9999 BKN020"
    },
    {
      "icao": "EHBK",
      "alert": "OK",
      "vis_m": 9999,
      "fzfg": false,
      "metar_trigger": false,
      "taf_trigger": false,
      "metar": "METAR EHBK 072255Z AUTO 16007KT 9999 NSC 05/03 Q1006",
      "taf": "TAF EHBK 072315Z 0800/0906 15005KT CAVOK"
    },
    {
      "icao": "EHEH",
      "alert": "OK",
      "vis_m": 9999,
      "fzfg": false,
      "metar_trigger": false,
      "taf_trigger": false,
      "metar": "METAR EHEH 072255Z AUTO 15005KT 9999 OVC270 06/04 Q1006 BLU NOSIG RMK TREND REMOTE BY EHWX",
      "taf": "TAF EHEH 071709Z 0718/0824 16005KT CAVOK"
    },
    {
      "icao": "EKBI",
      "alert": "OK",
      "vis_m": 9000,
      "fzfg": false,
      "metar_trigger": false,
      "taf_trigger": false,
      "metar": "METAR EKBI 072320Z AUTO 08013KT 9000 -SN OVC008/// M00/M01 Q1013",
      "taf": "TAF EKBI 072027Z 0721/0821 09014KT 9999 BKN007"
    },
    {
      "icao": "EKCH",
      "alert": "OK",
      "vis_m": 9999,
      "fzfg": false,
      "metar_trigger": false,
      "taf_trigger": false,
      "metar": "METAR EKCH 072320Z 06011KT 9999 BKN013 M00/M03 Q1015 NOSIG",
      "taf": "TAF EKCH 072027Z 0721/0821 07012KT 9999 OVC015"
    },
    {
      "icao": "ENAL",
      "alert": "OK",
      "vis_m": 9999,
      "fzfg": false,
      "metar_trigger": false,
      "taf_trigger": false,
      "metar": "METAR ENAL 072320Z AUTO 12005KT 9999 NCD 03/M04 Q1014",
      "taf": "TAF ENAL 072000Z 0721/0806 14007KT CAVOK"
    },
    {
      "icao": "ENBR",
      "alert": "OK",
      "vis_m": 9999,
      "fzfg": false,
      "metar_trigger": false,
      "taf_trigger": false,
      "metar": "METAR ENBR 072320Z 00000KT CAVOK 01/M01 Q1014 RMK WIND 1200FT 12009KT",
      "taf": "TAF ENBR 071700Z 0718/0818 VRB03KT CAVOK"
    },
    {
      "icao": "ENGM",
      "alert": "OK",
      "vis_m": 9999,
      "fzfg": false,
      "metar_trigger": false,
      "taf_trigger": false,
      "metar": "METAR ENGM 072320Z 06006KT 9999 FEW017 M11/M15 Q1023",
      "taf": ""
    },
    {
      "icao": "ENHD",
      "alert": "OK",
      "vis_m": 9999,
      "fzfg": false,
      "metar_trigger": false,
      "taf_trigger": false,
      "metar": "METAR ENHD 072320Z AUTO 11014KT 9999 FEW022/// BKN037/// OVC047/// 03/M07 Q1014",
      "taf": "TAF ENHD 071400Z 0715/0723 10010KT CAVOK"
    },
    {
      "icao": "ENTC",
      "alert": "OK",
      "vis_m": 9999,
      "fzfg": false,
      "metar_trigger": false,
      "taf_trigger": false,
      "metar": "METAR ENTC 072320Z AUTO 22014KT 9999 OVC041/// M04/M07 Q1021 RMK WIND 2600FT 25007KT",
      "taf": "TAF ENTC 071700Z 0718/0818 18005KT 9999 FEW040"
    },
    {
      "icao": "ENTO",
      "alert": "OK",
      "vis_m": 9999,
      "fzfg": false,
      "metar_trigger": false,
      "taf_trigger": false,
      "metar": "METAR ENTO 072320Z AUTO 04006KT 9999 NCD M08/M12 Q1022",
      "taf": "TAF ENTO 071700Z 0718/0818 02010KT 9999 FEW040"
    },
    {
      "icao": "ENVA",
      "alert": "OK",
      "vis_m": 9999,
      "fzfg": false,
      "metar_trigger": false,
      "taf_trigger": false,
      "metar": "METAR ENVA 072320Z 10011KT 070V130 CAVOK M03/M12 Q1020 RMK WIND 670FT 14021KT",
      "taf": "TAF ENVA 071700Z 0718/0818 10007KT CAVOK"
    },
    {
      "icao": "ENZV",
      "alert": "OK",
      "vis_m": 9999,
      "fzfg": false,
      "metar_trigger": false,
      "taf_trigger": false,
      "metar": "METAR ENZV 072320Z 09008KT 9999 BKN042 02/M07 Q1014",
      "taf": "TAF ENZV 071700Z 0718/0818 12012KT CAVOK"
    },
    {
      "icao": "EPGD",
      "alert": "OK",
      "vis_m": 3000,
      "fzfg": false,
      "metar_trigger": false,
      "taf_trigger": false,
      "metar": "METAR EPGD 072300Z 05006KT 3000 -SN BR OVC003 M03/M03 Q1010",
      "taf": "TAF EPGD 071730Z 0718/0818 06007KT 4000 -SN BR OVC006"
    },
    {
      "icao": "EPKK",
      "alert": "OK",
      "vis_m": 900,
      "fzfg": false,
      "metar_trigger": false,
      "taf_trigger": false,
      "metar": "METAR EPKK 072300Z 25001KT 0900 R25/P2000N -RA FG BKN007 02/01 Q1006",
      "taf": "TAF EPKK 072030Z 0721/0821 01001KT 1500 BR OVC005"
    },
    {
      "icao": "EPKT",
      "alert": "OK",
      "vis_m": 1200,
      "fzfg": false,
      "metar_trigger": false,
      "taf_trigger": false,
      "metar": "METAR EPKT 072300Z 33002KT 1200 R26/P2000N -RA BR BKN002 OVC004 00/00 Q1006",
      "taf": ""
    },
    {
      "icao": "EPLB",
      "alert": "OK",
      "vis_m": 4300,
      "fzfg": false,
      "metar_trigger": false,
      "taf_trigger": false,
      "metar": "METAR EPLB 072300Z 06006KT 4300 -SN BR BKN004 OVC007 M02/M02 Q1007",
      "taf": "TAF EPLB 071730Z 0718/0818 06005KT 5000 BR SCT004 BKN007"
    },
    {
      "icao": "EPMO",
      "alert": "OK",
      "vis_m": 4400,
      "fzfg": false,
      "metar_trigger": false,
      "taf_trigger": false,
      "metar": "METAR EPMO 072300Z 06006KT 4400 BR OVC006 M01/M01 Q1008",
      "taf": ""
    },
    {
      "icao": "EPPO",
      "alert": "OK",
      "vis_m": 3700,
      "fzfg": false,
      "metar_trigger": false,
      "taf_trigger": false,
      "metar": "METAR EPPO 072300Z 04005KT 3700 BR OVC002 M00/M01 Q1009",
      "taf": ""
    },
    {
      "icao": "EPRA",
      "alert": "OK",
      "vis_m": 4000,
      "fzfg": false,
      "metar_trigger": false,
      "taf_trigger": false,
      "metar": "METAR EPRA 072300Z 06003KT 4000 BR OVC004 M00/M01 Q1007",
      "taf": "TAF EPRA 072030Z 0721/0806 05005KT 3000 BR OVC004"
    },
    {
      "icao": "EPRZ",
      "alert": "OK",
      "vis_m": 500,
      "fzfg": false,
      "metar_trigger": false,
      "taf_trigger": false,
      "metar": "METAR EPRZ 072300Z 28003KT 0500 R27/1900N -DZ FG OVC001 01/01 Q1006",
      "taf": "TAF EPRZ 071730Z 0718/0818 30002KT 0100 FG OVC001"
    },
    {
      "icao": "EPSC",
      "alert": "OK",
      "vis_m": 9999,
      "fzfg": false,
      "metar_trigger": false,
      "taf_trigger": false,
      "metar": "METAR EPSC 072300Z 03004KT 010V070 9999 SCT008 BKN010 BKN032 M00/M02 Q1010",
      "taf": "TAF EPSC 071730Z 0718/0818 05005KT 4000 BR OVC006"
    },
    {
      "icao": "EPSY",
      "alert": "OK",
      "vis_m": 3000,
      "fzfg": false,
      "metar_trigger": false,
      "taf_trigger": false,
      "metar": "METAR EPSY 072300Z VRB02KT 3000 -SN BR SCT002 BKN021 OVC029 M02/M03 Q1009",
      "taf": "TAF EPSY 072030Z 0721/0806 03005KT 5000 -SN BR BKN020"
    },
    {
      "icao": "EPWA",
      "alert": "OK",
      "vis_m": 7000,
      "fzfg": false,
      "metar_trigger": false,
      "taf_trigger": false,
      "metar": "METAR EPWA 072300Z 05005KT 030V090 7000 BKN006 00/M01 Q1008 TEMPO 4000 BR",
      "taf": "TAF EPWA 072030Z 0721/0821 04004KT 2000 -DZ BR OVC003"
    },
    {
      "icao": "EPWR",
      "alert": "OK",
      "vis_m": 2000,
      "fzfg": false,
      "metar_trigger": false,
      "taf_trigger": false,
      "metar": "METAR EPWR 072300Z 03002KT 2000 -DZ BR OVC005 01/01 Q1008",
      "taf": ""
    },
    {
      "icao": "ESGG",
      "alert": "OK",
      "vis_m": 9999,
      "fzfg": false,
      "metar_trigger": false,
      "taf_trigger": false,
      "metar": "METAR ESGG 072320Z 05010KT CAVOK M08/M10 Q1018",
      "taf": "TAF ESGG 072030Z 0721/0821 07010KT 9999 SCT025"
    },
    {
      "icao": "ESKN",
      "alert": "OK",
      "vis_m": 9999,
      "fzfg": false,
      "metar_trigger": false,
      "taf_trigger": false,
      "metar": "METAR ESKN 072320Z 03008KT 350V050 CAVOK M07/M08 Q1021",
      "taf": "TAF ESKN 072030Z 0721/0821 01007KT CAVOK"
    },
    {
      "icao": "ESMS",
      "alert": "OK",
      "vis_m": 9999,
      "fzfg": false,
      "metar_trigger": false,
      "taf_trigger": false,
      "metar": "METAR ESMS 072320Z AUTO 06016KT 9999 OVC014/// M01/M03 Q1013",
      "taf": "TAF ESMS 072027Z 0721/0821 07014KT 9999 BKN012"
    },
    {
      "icao": "ESSA",
      "alert": "OK",
      "vis_m": 9999,
      "fzfg": false,
      "metar_trigger": false,
      "taf_trigger": false,
      "metar": "METAR ESSA 072320Z 08008KT 9999 BKN014 M03/M06 Q1022 NOSIG",
      "taf": "TAF ESSA 072030Z 0721/0821 03008KT 9999 OVC013"
    },
    {
      "icao": "EYKA",
      "alert": "OK",
      "vis_m": 9000,
      "fzfg": false,
      "metar_trigger": false,
      "taf_trigger": false,
      "metar": "METAR EYKA 072320Z 03005KT 350V060 9000 -SN OVC010 M03/M05 Q1012",
      "taf": "TAF EYKA 072322Z 0800/0824 04008KT 8000 BKN010"
    },
    {
      "icao": "EYPA",
      "alert": "OK",
      "vis_m": 9999,
      "fzfg": false,
      "metar_trigger": false,
      "taf_trigger": false,
      "metar": "METAR EYPA 072320Z AUTO 07009KT 9999 OVC047/// M03/M06 Q1014",
      "taf": "TAF EYPA 072321Z 0800/0824 06012KT 8000 BKN030"
    },
    {
      "icao": "EYVI",
      "alert": "OK",
      "vis_m": 9999,
      "fzfg": false,
      "metar_trigger": false,
      "taf_trigger": false,
      "metar": "METAR EYVI 072320Z 05009KT 9999 OVC007 M04/M06 Q1011 NOSIG",
      "taf": "TAF EYVI 072323Z 0800/0824 05011KT 8000 BKN010"
    },
    {
      "icao": "GCFV",
      "alert": "OK",
      "vis_m": 9999,
      "fzfg": false,
      "metar_trigger": false,
      "taf_trigger": false,
      "metar": "METAR GCFV 072300Z 29004KT 9999 FEW030 16/10 Q1027",
      "taf": "TAF GCFV 072000Z 0721/0821 31005KT 9999 FEW030 TX21/0814Z TN13/0806Z"
    },
    {
      "icao": "GCLP",
      "alert": "OK",
      "vis_m": 9999,
      "fzfg": false,
      "metar_trigger": false,
      "taf_trigger": false,
      "metar": "METAR GCLP 072300Z 31004KT 280V340 9999 FEW035 16/11 Q1027 NOSIG",
      "taf": "TAF GCLP 072000Z 0721/0821 33007KT 9999 FEW035 TX21/0814Z TN15/0806Z"
    },
    {
      "icao": "GCTS",
      "alert": "OK",
      "vis_m": 9999,
      "fzfg": false,
      "metar_trigger": false,
      "taf_trigger": false,
      "metar": "METAR GCTS 072300Z 02005KT 9999 FEW030 17/11 Q1027 NOSIG",
      "taf": "TAF GCTS 072000Z 0721/0821 02006KT 9999 SCT035 TX22/0814Z TN14/0806Z"
    },
    {
      "icao": "GMAD",
      "alert": "OK",
      "vis_m": 9999,
      "fzfg": false,
      "metar_trigger": false,
      "taf_trigger": false,
      "metar": "METAR GMAD 072300Z 21007KT CAVOK 14/12 Q1025 NOSIG",
      "taf": "TAF GMAD 072300Z 0800/0906 26008KT 9999 SCT020 SCT080"
    },
    {
      "icao": "GMMN",
      "alert": "OK",
      "vis_m": 4000,
      "fzfg": false,
      "metar_trigger": false,
      "taf_trigger": false,
      "metar": "METAR GMMN 072300Z 23023KT 4000 RA SCT004 BKN017 14/12 Q1020 RERA NOSIG",
      "taf": "TAF GMMN 072300Z 0800/0906 22025G35KT 9999 SCT005 BKN017"
    },
    {
      "icao": "GMMX",
      "alert": "OK",
      "vis_m": 9999,
      "fzfg": false,
      "metar_trigger": false,
      "taf_trigger": false,
      "metar": "METAR GMMX 072300Z 21006KT 9999 FEW080 SCT200 14/08 Q1025 NOSIG",
      "taf": "TAF GMMX 071700Z 0718/0824 24015KT 9999 SCT026 SCT100"
    },
    {
      "icao": "HEGN",
      "alert": "OK",
      "vis_m": 9999,
      "fzfg": false,
      "metar_trigger": false,
      "taf_trigger": false,
      "metar": "METAR HEGN 072300Z 26003KT CAVOK 18/06 Q1016 NOSIG",
      "taf": "TAF HEGN 072300Z 0800/0906 27007KT CAVOK"
    },
    {
      "icao": "HEMA",
      "alert": "OK",
      "vis_m": 9999,
      "fzfg": false,
      "metar_trigger": false,
      "taf_trigger": false,
      "metar": "METAR HEMA 072300Z 22007KT CAVOK 19/07 Q1016 NOSIG",
      "taf": "TAF HEMA 072300Z 0800/0906 26008KT CAVOK"
    },
    {
      "icao": "HESH",
      "alert": "OK",
      "vis_m": 9999,
      "fzfg": false,
      "metar_trigger": false,
      "taf_trigger": false,
      "metar": "METAR HESH 072300Z 29005KT CAVOK 19/17 Q1016 NOSIG",
      "taf": "TAF HESH 072300Z 0800/0906 28008KT CAVOK"
    },
    {
      "icao": "HESX",
      "alert": "OK",
      "vis_m": 9999,
      "fzfg": false,
      "metar_trigger": false,
      "taf_trigger": false,
      "metar": "METAR HESX 072300Z 18006KT CAVOK 18/05 Q1015 NOSIG",
      "taf": "TAF HESX 072300Z 0800/0906 20009KT CAVOK"
    },
    {
      "icao": "LATI",
      "alert": "OK",
      "vis_m": 5000,
      "fzfg": false,
      "metar_trigger": false,
      "taf_trigger": false,
      "metar": "METAR LATI 072320Z 01008KT 5000 +RA FEW025CB BKN040 OVC055 11/09 Q1007 NOSIG",
      "taf": "TAF LATI 072300Z 0800/0824 VRB06KT 9999 -RA FEW025 BKN050 OVC070 TX15/0812Z TN10/0804Z"
    },
    {
      "icao": "LBPD",
      "alert": "OK",
      "vis_m": 9999,
      "fzfg": false,
      "metar_trigger": false,
      "taf_trigger": false,
      "metar": "METAR LBPD 072300Z AUTO 06003KT 030V100 9999 FEW050/// SCT073/// BKN220/// 07/06 Q1006",
      "taf": "TAF LBPD 072300Z 0800/0824 VRB03KT 2000 BR SCT005 BKN015"
    },
    {
      "icao": "LBSF",
      "alert": "OK",
      "vis_m": 1400,
      "fzfg": false,
      "metar_trigger": false,
      "taf_trigger": false,
      "metar": "METAR LBSF 072300Z AUTO 12005KT 090V150 1400 0750N R27/1300U BR FEW003/// SCT073/// 03/02 Q1006 TEMPO 0800 BCFG",
      "taf": "TAF LBSF 072300Z 0800/0824 VRB03KT 1500 BR SCT010 BKN020"
    },
    {
      "icao": "LBWN",
      "alert": "OK",
      "vis_m": 6000,
      "fzfg": false,
      "metar_trigger": false,
      "taf_trigger": false,
      "metar": "METAR LBWN 072300Z AUTO 34001KT 6000 NSC 05/05 Q1006 TEMPO 5000 BR",
      "taf": "TAF LBWN 072300Z 0800/0824 VRB03KT 5000 BR SCT015 SCT040"
    },
    {
      "icao": "LCLK",
      "alert": "OK",
      "vis_m": 9999,
      "fzfg": false,
      "metar_trigger": false,
      "taf_trigger": false,
      "metar": "METAR LCLK 072300Z 33003KT 240V050 CAVOK 11/09 Q1010 NOSIG",
      "taf": "TAF LCLK 071730Z 0718/0818 22010KT 9999 FEW025"
    },
    {
      "icao": "LCPH",
      "alert": "OK",
      "vis_m": 9999,
      "fzfg": false,
      "metar_trigger": false,
      "taf_trigger": false,
      "metar": "METAR LCPH 072300Z 06003KT 360V090 9999 FEW014 17/14 Q1010 NOSIG",
      "taf": "TAF LCPH 071730Z 0718/0818 30010KT 9999 FEW020"
    },
    {
      "icao": "LEAL",
      "alert": "OK",
      "vis_m": 9999,
      "fzfg": false,
      "metar_trigger": false,
      "taf_trigger": false,
      "metar": "METAR LEAL 072300Z 24006KT 9999 BKN060 13/09 Q1007 NOSIG",
      "taf": "TAF LEAL 072300Z 0800/0824 23008KT 9999 FEW040 TX17/0814Z TN08/0806Z"
    },
    {
      "icao": "LEBB",
      "alert": "OK",
      "vis_m": 9999,
      "fzfg": false,
      "metar_trigger": false,
      "taf_trigger": false,
      "metar": "METAR LEBB 072300Z 13011KT 100V160 9999 FEW035 12/04 Q0998 NOSIG",
      "taf": "TAF LEBB 072300Z 0800/0824 13009KT 9999 FEW030 TX12/0814Z TN05/0824Z"
    },
    {
      "icao": "LEBL",
      "alert": "OK",
      "vis_m": 9999,
      "fzfg": false,
      "metar_trigger": false,
      "taf_trigger": false,
      "metar": "METAR LEBL 072300Z 30002KT 9999 -RA FEW020TCU BKN060 11/07 Q1005 NOSIG",
      "taf": "TAF LEBL 072300Z 0800/0824 34009KT 9999 FEW025 TX16/0813Z TN07/0806Z"
    },
    {
      "icao": "LECH",
      "alert": "OK",
      "vis_m": 9000,
      "fzfg": false,
      "metar_trigger": false,
      "taf_trigger": false,
      "metar": "METAR LECH 072300Z AUTO 21005KT 9000 FEW047 09/03 Q1003",
      "taf": ""
    },
    {
      "icao": "LEMD",
      "alert": "OK",
      "vis_m": 8000,
      "fzfg": false,
      "metar_trigger": false,
      "taf_trigger": false,
      "metar": "METAR LEMD 072300Z VRB02KT 8000 -DZ FEW015 BKN030 BKN043 04/04 Q1002 NOSIG",
      "taf": "TAF LEMD 072300Z 0800/0906 22012KT 9999 SCT030 TX10/0815Z TN04/0805Z"
    },
    {
      "icao": "LEMG",
      "alert": "OK",
      "vis_m": 9999,
      "fzfg": false,
      "metar_trigger": false,
      "taf_trigger": false,
      "metar": "METAR LEMG 072300Z 31002KT 9999 FEW060 09/09 Q1012 NOSIG",
      "taf": "TAF LEMG 072300Z 0800/0824 VRB03KT 9999 FEW040 TX17/0814Z TN07/0806Z"
    },
    {
      "icao": "LEVC",
      "alert": "OK",
      "vis_m": 9999,
      "fzfg": false,
      "metar_trigger": false,
      "taf_trigger": false,
      "metar": "METAR LEVC 072300Z 28004KT CAVOK 08/06 Q1005 NOSIG",
      "taf": "TAF LEVC 072300Z 0800/0824 VRB04KT 9999 SCT055 TX18/0814Z TN08/0806Z"
    },
    {
      "icao": "LEXJ",
      "alert": "OK",
      "vis_m": 9999,
      "fzfg": false,
      "metar_trigger": false,
      "taf_trigger": false,
      "metar": "METAR LEXJ 072300Z AUTO 21013G25KT 140V260 CAVOK 13/03 Q0996",
      "taf": ""
    },
    {
      "icao": "LEZG",
      "alert": "OK",
      "vis_m": 9999,
      "fzfg": false,
      "metar_trigger": false,
      "taf_trigger": false,
      "metar": "METAR LEZG 072300Z 07004KT 9999 OVC050 08/07 Q1002 NOSIG",
      "taf": "TAF LEZG 072300Z 0800/0824 VRB04KT 9999 FEW020 TX13/0815Z TN05/0806Z"
    },
    {
      "icao": "LEZL",
      "alert": "OK",
      "vis_m": 9999,
      "fzfg": false,
      "metar_trigger": false,
      "taf_trigger": false,
      "metar": "METAR LEZL 072300Z 26010KT 9999 FEW036 12/09 Q1011 NOSIG",
      "taf": "TAF LEZL 072000Z 0721/0821 26008KT 9999 FEW030 TX15/0815Z TN09/0807Z"
    },
    {
      "icao": "LFBD",
      "alert": "OK",
      "vis_m": 9999,
      "fzfg": false,
      "metar_trigger": false,
      "taf_trigger": false,
      "metar": "METAR LFBD 072300Z AUTO 11008KT CAVOK 09/04 Q1001 NOSIG",
      "taf": "TAF LFBD 071700Z 0718/0824 12005KT CAVOK TX12/0814Z TN06/0806Z"
    },
    {
      "icao": "LFLL",
      "alert": "OK",
      "vis_m": 9000,
      "fzfg": false,
      "metar_trigger": false,
      "taf_trigger": false,
      "metar": "METAR LFLL 072300Z VRB02KT 9000 NSC 04/03 Q1005 NOSIG",
      "taf": "TAF LFLL 072300Z 0800/0906 14006KT CAVOK"
    },
    {
      "icao": "LFLS",
      "alert": "OK",
      "vis_m": 9999,
      "fzfg": false,
      "metar_trigger": false,
      "taf_trigger": false,
      "metar": "METAR LFLS 072300Z AUTO 08004KT 060V130 CAVOK 03/03 Q1005",
      "taf": "TAF LFLS 071400Z 0715/0815 VRB03KT CAVOK"
    },
    {
      "icao": "LFMN",
      "alert": "OK",
      "vis_m": 9999,
      "fzfg": false,
      "metar_trigger": false,
      "taf_trigger": false,
      "metar": "METAR LFMN 072300Z 33008KT 9999 SCT056 09/07 Q1007 NOSIG",
      "taf": "TAF LFMN 072000Z 0721/0903 33010KT 9999 FEW040"
    },
    {
      "icao": "LFOB",
      "alert": "OK",
      "vis_m": 9999,
      "fzfg": false,
      "metar_trigger": false,
      "taf_trigger": false,
      "metar": "METAR LFOB 072300Z AUTO 12007KT 9999 FEW049 OVC062 07/05 Q1003 TEMPO BKN007 BKN012 BECMG 18010KT",
      "taf": "TAF LFOB 072300Z 0800/0824 18010KT 9999 SCT030"
    },
    {
      "icao": "LFPO",
      "alert": "OK",
      "vis_m": 9999,
      "fzfg": false,
      "metar_trigger": false,
      "taf_trigger": false,
      "metar": "METAR LFPO 072300Z 17004KT CAVOK 08/04 Q1004 NOSIG",
      "taf": "TAF LFPO 071700Z 0718/0824 17008KT CAVOK"
    },
    {
      "icao": "LFSB",
      "alert": "OK",
      "vis_m": 9999,
      "fzfg": false,
      "metar_trigger": false,
      "taf_trigger": false,
      "metar": "METAR LFSB 072300Z AUTO 00000KT CAVOK 01/01 Q1006 TEMPO 3000 BCFG",
      "taf": "TAF LFSB 072300Z 0800/0824 VRB03KT CAVOK"
    },
    {
      "icao": "LGAV",
      "alert": "OK",
      "vis_m": 9999,
      "fzfg": false,
      "metar_trigger": false,
      "taf_trigger": false,
      "metar": "METAR LGAV 072250Z 27006KT 240V300 CAVOK 15/05 Q1007 NOSIG",
      "taf": "TAF LGAV 072300Z 0800/0824 23012KT 9999 FEW020"
    },
    {
      "icao": "LGTS",
      "alert": "OK",
      "vis_m": 9999,
      "fzfg": false,
      "metar_trigger": false,
      "taf_trigger": false,
      "metar": "METAR LGTS 072320Z 10004KT 9999 FEW018 11/07 Q1005 NOSIG",
      "taf": "TAF LGTS 072300Z 0800/0824 33010KT 9999 SCT025"
    },
    {
      "icao": "LHBP",
      "alert": "OK",
      "vis_m": 9000,
      "fzfg": false,
      "metar_trigger": false,
      "taf_trigger": false,
      "metar": "METAR LHBP 072300Z VRB02KT 9000 MIFG NSC 01/00 Q1006 NOSIG",
      "taf": "TAF LHBP 072315Z 0800/0824 VRB02KT CAVOK"
    },
    {
      "icao": "LHDC",
      "alert": "OK",
      "vis_m": 5000,
      "fzfg": false,
      "metar_trigger": false,
      "taf_trigger": false,
      "metar": "METAR LHDC 072245Z AUTO 25002KT 5000 -DZ BR BKN009 OVC035 06/05 Q1005",
      "taf": "TAF LHDC 071415Z 0715/0724 24008KT 9999 BKN020"
    },
    {
      "icao": "LIBD",
      "alert": "OK",
      "vis_m": 9999,
      "fzfg": false,
      "metar_trigger": false,
      "taf_trigger": false,
      "metar": "METAR LIBD 072320Z 21005KT 9999 FEW045 10/09 Q1005",
      "taf": "TAF LIBD 072300Z 0800/0824 26010KT 9999 FEW040"
    },
    {
      "icao": "LIBG",
      "alert": "OK",
      "vis_m": null,
      "fzfg": false,
      "metar_trigger": false,
      "taf_trigger": false,
      "metar": "",
      "taf": "TAF LIBG 071700Z 0718/0803 20010KT 9999 SCT040"
    },
    {
      "icao": "LIBP",
      "alert": "OK",
      "vis_m": 9999,
      "fzfg": false,
      "metar_trigger": false,
      "taf_trigger": false,
      "metar": "METAR LIBP 072320Z AUTO 23004KT 210V270 9999 OVC110/// 09/06 Q1006",
      "taf": "TAF LIBP 072300Z 0800/0824 VRB05KT 7000 SCT020"
    },
    {
      "icao": "LIBR",
      "alert": "OK",
      "vis_m": 9999,
      "fzfg": false,
      "metar_trigger": false,
      "taf_trigger": false,
      "metar": "METAR LIBR 072320Z 22012KT 9999 BKN045 13/10 Q1005 RERA",
      "taf": "TAF LIBR 072300Z 0800/0824 25010KT 9999 SCT040"
    },
    {
      "icao": "LICA",
      "alert": "OK",
      "vis_m": 9999,
      "fzfg": false,
      "metar_trigger": false,
      "taf_trigger": false,
      "metar": "METAR LICA 072320Z AUTO 24020KT 9999 BKN027/// 14/10 Q1009",
      "taf": "TAF LICA 072300Z 0800/0824 27015KT 9999 BKN020"
    },
    {
      "icao": "LICC",
      "alert": "OK",
      "vis_m": 9999,
      "fzfg": false,
      "metar_trigger": false,
      "taf_trigger": false,
      "metar": "METAR LICC 072320Z 27014KT 9999 FEW060 13/09 Q1011",
      "taf": "TAF LICC 072300Z 0800/0824 26015KT 9999 SCT040"
    },
    {
      "icao": "LICJ",
      "alert": "OK",
      "vis_m": 9999,
      "fzfg": false,
      "metar_trigger": false,
      "taf_trigger": false,
      "metar": "METAR LICJ 072320Z 26023KT 9999 FEW030 SCT070 15/10 Q1012",
      "taf": "TAF LICJ 072300Z 0800/0824 26020G30KT 9999 SCT040"
    },
    {
      "icao": "LIMC",
      "alert": "OK",
      "vis_m": 9999,
      "fzfg": false,
      "metar_trigger": false,
      "taf_trigger": false,
      "metar": "METAR LIMC 072320Z 01004KT 9999 VCFG BKN085 06/06 Q1006 BECMG 4000 BCFG",
      "taf": "TAF LIMC 072300Z 0800/0906 VRB04KT 6000 SCT050"
    },
    {
      "icao": "LIME",
      "alert": "OK",
      "vis_m": 6000,
      "fzfg": false,
      "metar_trigger": false,
      "taf_trigger": false,
      "metar": "METAR LIME 072320Z 01003KT 6000 SCT015 SCT070 09/08 Q1007 NOSIG",
      "taf": "TAF LIME 072300Z 0800/0824 VRB04KT 6000 SCT050"
    },
    {
      "icao": "LIMF",
      "alert": "OK",
      "vis_m": 9999,
      "fzfg": false,
      "metar_trigger": false,
      "taf_trigger": false,
      "metar": "METAR LIMF 072320Z 10002KT 9999 SCT100 06/04 Q1006",
      "taf": "TAF LIMF 072300Z 0800/0824 VRB04KT 9999 SCT050"
    },
    {
      "icao": "LIMJ",
      "alert": "OK",
      "vis_m": 9999,
      "fzfg": false,
      "metar_trigger": false,
      "taf_trigger": false,
      "metar": "METAR LIMJ 072320Z AUTO 05003KT 020V080 9999 OVC071/// 10/08 Q1007",
      "taf": "TAF LIMJ 072300Z 0800/0824 04007KT 9999 BKN040"
    },
    {
      "icao": "LIPE",
      "alert": "OK",
      "vis_m": 500,
      "fzfg": false,
      "metar_trigger": false,
      "taf_trigger": false,
      "metar": "METAR LIPE 072320Z 25003KT 0500 R12/1600D R30/1600U -RA FG BKN002 09/09 Q1007",
      "taf": "TAF LIPE 072300Z 0800/0824 VRB05KT 1200 BR BKN005"
    },
    {
      "icao": "LIPH",
      "alert": "OK",
      "vis_m": 8000,
      "fzfg": false,
      "metar_trigger": false,
      "taf_trigger": false,
      "metar": "METAR LIPH 072320Z AUTO VRB02KT 8000 OVC070/// 08/08 Q1006",
      "taf": "TAF LIPH 072300Z 0800/0824 VRB05KT 4000 BR SCT060"
    },
    {
      "icao": "LIPQ",
      "alert": "OK",
      "vis_m": 9999,
      "fzfg": false,
      "metar_trigger": false,
      "taf_trigger": false,
      "metar": "METAR LIPQ 072320Z AUTO 11004KT 9999 BKN041/// 08/07 Q1006",
      "taf": "TAF LIPQ 072300Z 0800/0824 VRB05KT 9999 BKN045"
    },
    {
      "icao": "LIPR",
      "alert": "OK",
      "vis_m": 9999,
      "fzfg": false,
      "metar_trigger": false,
      "taf_trigger": false,
      "metar": "METAR LIPR 072320Z AUTO 29002KT 9999 OVC091/// 08/07 Q1005",
      "taf": "TAF LIPR 072300Z 0800/0824 VRB05KT 7000 SCT030"
    },
    {
      "icao": "LIPX",
      "alert": "OK",
      "vis_m": 1500,
      "fzfg": false,
      "metar_trigger": false,
      "taf_trigger": false,
      "metar": "METAR LIPX 072320Z 28003KT 1500 BCFG BKN030 06/06 Q1006",
      "taf": "TAF LIPX 072300Z 0800/0824 VRB04KT 2000 BR BKN040"
    },
    {
      "icao": "LIPY",
      "alert": "OK",
      "vis_m": 9999,
      "fzfg": false,
      "metar_trigger": false,
      "taf_trigger": false,
      "metar": "METAR LIPY 072320Z AUTO 18004KT 9999 BKN054/// BKN076/// 09/08 Q1005",
      "taf": "TAF LIPY 072300Z 0800/0824 VRB05KT 7000 SCT060"
    },
    {
      "icao": "LIPZ",
      "alert": "OK",
      "vis_m": 9999,
      "fzfg": false,
      "metar_trigger": false,
      "taf_trigger": false,
      "metar": "METAR LIPZ 072320Z VRB02KT 9999 BKN070 07/07 Q1006 NOSIG",
      "taf": "TAF LIPZ 072300Z 0800/0906 VRB05KT 7000 SCT050"
    },
    {
      "icao": "LIRF",
      "alert": "OK",
      "vis_m": 9999,
      "fzfg": false,
      "metar_trigger": false,
      "taf_trigger": false,
      "metar": "METAR LIRF 072320Z 25008KT 9999 FEW020 SCT040 13/11 Q1007 NOSIG",
      "taf": "TAF LIRF 072300Z 0800/0906 27010KT 9999 SCT030"
    },
    {
      "icao": "LIRN",
      "alert": "OK",
      "vis_m": 9999,
      "fzfg": false,
      "metar_trigger": false,
      "taf_trigger": false,
      "metar": "METAR LIRN 072320Z 25002KT CAVOK 10/09 Q1007 NOSIG",
      "taf": "TAF LIRN 072300Z 0800/0824 28006KT 9999 SCT040"
    },
    {
      "icao": "LIRP",
      "alert": "OK",
      "vis_m": 9999,
      "fzfg": false,
      "metar_trigger": false,
      "taf_trigger": false,
      "metar": "METAR LIRP 072315Z 03003KT 9999 -RA SCT030 BKN040 10/10 Q1007 NOSIG",
      "taf": "TAF LIRP 072300Z 0800/0824 11004KT 9999 FEW020 SCT050"
    },
    {
      "icao": "LIRZ",
      "alert": "OK",
      "vis_m": 9999,
      "fzfg": false,
      "metar_trigger": false,
      "taf_trigger": false,
      "metar": "METAR LIRZ 072320Z AUTO 36002KT 9999 BKN015/// BKN060/// 08/08 Q1006",
      "taf": "TAF LIRZ 072300Z 0800/0824 VRB05KT 9999 BKN020"
    },
    {
      "icao": "LJLJ",
      "alert": "OK",
      "vis_m": 9999,
      "fzfg": false,
      "metar_trigger": false,
      "taf_trigger": false,
      "metar": "METAR LJLJ 072300Z VRB02KT 9999 MIFG FEW003 SCT055 04/03 Q1006 NOSIG",
      "taf": "TAF LJLJ 072300Z 0800/0900 VRB02KT 9999 SCT003 BKN070"
    },
    {
      "icao": "LKMT",
      "alert": "OK",
      "vis_m": 500,
      "fzfg": false,
      "metar_trigger": false,
      "taf_trigger": false,
      "metar": "METAR LKMT 072300Z 06003KT 0500 R22/0700N R04/0800N -RA FG VV003 02/02 Q1007 NOSIG",
      "taf": "TAF LKMT 072300Z 0800/0824 02005KT 0600 -DZ FG OVC003"
    },
    {
      "icao": "LKPR",
      "alert": "OK",
      "vis_m": 500,
      "fzfg": false,
      "metar_trigger": false,
      "taf_trigger": false,
      "metar": "METAR LKPR 072300Z 31003KT 0500 R24/0900N R30/0800D -RA FG VV002 02/02 Q1007 NOSIG",
      "taf": "TAF LKPR 072300Z 0800/0906 VRB02KT 1400 BR BKN004"
    },
    {
      "icao": "LLBG",
      "alert": "OK",
      "vis_m": 9999,
      "fzfg": false,
      "metar_trigger": false,
      "taf_trigger": false,
      "metar": "METAR LLBG 072320Z 16005KT CAVOK 17/12 Q1013 NOSIG",
      "taf": "TAF LLBG 072317Z 0800/0824 VRB04KT CAVOK"
    },
    {
      "icao": "LMML",
      "alert": "OK",
      "vis_m": 9999,
      "fzfg": false,
      "metar_trigger": false,
      "taf_trigger": false,
      "metar": "METAR LMML 072315Z 26009KT CAVOK 12/10 Q1014 NOSIG",
      "taf": "TAF LMML 072300Z 0800/0824 29014KT 9999 FEW025"
    },
    {
      "icao": "LOWW",
      "alert": "OK",
      "vis_m": 7000,
      "fzfg": false,
      "metar_trigger": false,
      "taf_trigger": false,
      "metar": "METAR LOWW 072320Z VRB01KT 7000 FEW009 SCT014 BKN024 05/04 Q1007 NOSIG",
      "taf": "TAF LOWW 072315Z 0800/0906 VRB03KT 9999 BKN020 TX07/0813Z TN01/0906Z"
    },
    {
      "icao": "LPFR",
      "alert": "OK",
      "vis_m": 9999,
      "fzfg": false,
      "metar_trigger": false,
      "taf_trigger": false,
      "metar": "METAR LPFR 072300Z 31005KT 9999 FEW020 12/10 Q1012",
      "taf": "TAF LPFR 072300Z 0800/0824 29008KT 9999 SCT020"
    },
    {
      "icao": "LPMA",
      "alert": "OK",
      "vis_m": 9999,
      "fzfg": false,
      "metar_trigger": false,
      "taf_trigger": false,
      "metar": "METAR LPMA 072300Z 32004KT 9999 FEW015 17/12 Q1023",
      "taf": "TAF LPMA 072300Z 0800/0824 VRB05KT 9999 SCT015"
    },
    {
      "icao": "LPPR",
      "alert": "OK",
      "vis_m": 9999,
      "fzfg": false,
      "metar_trigger": false,
      "taf_trigger": false,
      "metar": "METAR LPPR 072300Z 34015G25KT 310V010 9999 -SHRA FEW015CB BKN025 10/08 Q1005 RESHRA",
      "taf": "TAF LPPR 072300Z 0800/0824 32012KT 9999 SCT025"
    },
    {
      "icao": "LPPS",
      "alert": "OK",
      "vis_m": 9999,
      "fzfg": false,
      "metar_trigger": false,
      "taf_trigger": false,
      "metar": "METAR LPPS 072300Z 28014KT 9999 SCT011 17/15 Q1023",
      "taf": "TAF LPPS 072300Z 0800/0906 27015KT 9999 SCT012"
    },
    {
      "icao": "LPPT",
      "alert": "OK",
      "vis_m": 9999,
      "fzfg": false,
      "metar_trigger": false,
      "taf_trigger": false,
      "metar": "METAR LPPT 072300Z 30012KT 270V330 9999 FEW025 FEW028TCU 11/08 Q1010",
      "taf": "TAF LPPT 072300Z 0800/0906 29012KT 9999 SCT025"
    },
    {
      "icao": "LQBK",
      "alert": "OK",
      "vis_m": 9999,
      "fzfg": false,
      "metar_trigger": false,
      "taf_trigger": false,
      "metar": "METAR LQBK 072300Z 14004KT CAVOK 07/06 Q1006 NOSIG",
      "taf": "TAF LQBK 072300Z 0800/0824 15005KT 7000 NSC TX10/0814Z TN04/0805Z"
    },
    {
      "icao": "LQSA",
      "alert": "OK",
      "vis_m": 6000,
      "fzfg": false,
      "metar_trigger": false,
      "taf_trigger": false,
      "metar": "METAR LQSA 072300Z VRB01KT 6000 SCT005 BKN040 05/05 Q1006",
      "taf": "TAF LQSA 072300Z 0800/0824 VRB02KT 8000 SCT015 BKN050 TX10/0813Z TN02/0805Z"
    },
    {
      "icao": "LQTZ",
      "alert": "OK",
      "vis_m": 200,
      "fzfg": false,
      "metar_trigger": false,
      "taf_trigger": false,
      "metar": "METAR LQTZ 072300Z 26001KT 0200 R09/0225N FG VV002 05/05 Q1007",
      "taf": "TAF LQTZ 072300Z 0800/0824 VRB02KT 2000 BR BKN007 TX10/0813Z TN03/0805Z"
    },
    {
      "icao": "LRBC",
      "alert": "OK",
      "vis_m": 450,
      "fzfg": false,
      "metar_trigger": false,
      "taf_trigger": false,
      "metar": "METAR LRBC 072300Z VRB02KT 0450 R16/0500N FG VV002 01/00 Q1005",
      "taf": "TAF LRBC 072000Z 0721/0806 VRB04KT 0800 FG OVC002"
    },
    {
      "icao": "LRBS",
      "alert": "OK",
      "vis_m": 4000,
      "fzfg": false,
      "metar_trigger": false,
      "taf_trigger": false,
      "metar": "METAR LRBS 072300Z 25005KT 4000 BR OVC006 05/04 Q1006 BECMG 3000 BR",
      "taf": "TAF LRBS 071700Z 0718/0818 26007KT 9999 OVC010"
    },
    {
      "icao": "LRBV",
      "alert": "OK",
      "vis_m": 9999,
      "fzfg": false,
      "metar_trigger": false,
      "taf_trigger": false,
      "metar": "METAR LRBV 072300Z AUTO 19004KT 9999 BKN024/// BKN045/// OVC061/// 03/02 Q1004",
      "taf": "TAF LRBV 072000Z 0721/0806 24006KT 9999 SCT030"
    },
    {
      "icao": "LRCL",
      "alert": "OK",
      "vis_m": 6000,
      "fzfg": false,
      "metar_trigger": false,
      "taf_trigger": false,
      "metar": "METAR LRCL 072300Z 00000KT 6000 NSC 05/04 Q1004",
      "taf": "TAF LRCL 072000Z 0721/0806 VRB04KT 9999 SCT030 OVC060"
    },
    {
      "icao": "LRCV",
      "alert": "OK",
      "vis_m": 2500,
      "fzfg": false,
      "metar_trigger": false,
      "taf_trigger": false,
      "metar": "METAR LRCV 072300Z 00000KT 2500 BR FEW008 SCT012 04/04 Q1005",
      "taf": "TAF LRCV 072000Z 0721/0806 VRB04KT 3000 BR SCT010"
    },
    {
      "icao": "LRIA",
      "alert": "OK",
      "vis_m": 8000,
      "fzfg": false,
      "metar_trigger": false,
      "taf_trigger": false,
      "metar": "METAR LRIA 072300Z 01002KT 8000 NSC M01/M02 Q1005",
      "taf": "TAF LRIA 072000Z 0721/0806 VRB04KT 9999 SCT010"
    },
    {
      "icao": "LROP",
      "alert": "OK",
      "vis_m": 4500,
      "fzfg": false,
      "metar_trigger": false,
      "taf_trigger": false,
      "metar": "METAR LROP 072300Z 22006KT 4500 BR OVC008 05/05 Q1006 BECMG 3000 BR",
      "taf": "TAF LROP 071700Z 0718/0818 26010KT 9999 OVC010"
    },
    {
      "icao": "LRSB",
      "alert": "OK",
      "vis_m": 9999,
      "fzfg": false,
      "metar_trigger": false,
      "taf_trigger": false,
      "metar": "METAR LRSB 072300Z 22003KT 9999 SCT038 BKN048 05/04 Q1005",
      "taf": "TAF LRSB 071700Z 0718/0818 VRB04KT CAVOK"
    },
    {
      "icao": "LRSM",
      "alert": "OK",
      "vis_m": 3700,
      "fzfg": false,
      "metar_trigger": false,
      "taf_trigger": false,
      "metar": "METAR LRSM 072300Z AUTO 21003KT 3700 FEW002/// BKN020/// OVC024/// 06/05 Q1005 REDZ",
      "taf": ""
    },
    {
      "icao": "LRSV",
      "alert": "OK",
      "vis_m": 1000,
      "fzfg": false,
      "metar_trigger": false,
      "taf_trigger": false,
      "metar": "METAR LRSV 072300Z 02003KT 1000 R34/P2000 BR BKN006 00/M00 Q1004",
      "taf": ""
    },
    {
      "icao": "LRTM",
      "alert": "OK",
      "vis_m": 400,
      "fzfg": false,
      "metar_trigger": false,
      "taf_trigger": false,
      "metar": "METAR LRTM 072300Z AUTO 08002KT 0400 R07/0600N FG FEW000/// 04/04 Q1004",
      "taf": "TAF LRTM 072000Z 0721/0806 VRB04KT 5000 BR SCT010 OVC045"
    },
    {
      "icao": "LRTR",
      "alert": "OK",
      "vis_m": 3500,
      "fzfg": false,
      "metar_trigger": false,
      "taf_trigger": false,
      "metar": "METAR LRTR 072300Z 29004KT 3500 BR SCT030 OVC042 07/07 Q1006",
      "taf": "TAF LRTR 071700Z 0718/0818 VRB04KT 9999 SCT025"
    },
    {
      "icao": "LTAC",
      "alert": "OK",
      "vis_m": 9999,
      "fzfg": false,
      "metar_trigger": false,
      "taf_trigger": false,
      "metar": "METAR LTAC 072320Z 22007KT 9999 FEW019 BKN030 BKN080 06/04 Q1007 NOSIG",
      "taf": "TAF LTAC 072240Z 0800/0824 23009KT 9999 SCT040 BKN100"
    },
    {
      "icao": "LTFM",
      "alert": "OK",
      "vis_m": 1200,
      "fzfg": false,
      "metar_trigger": false,
      "taf_trigger": false,
      "metar": "METAR LTFM 072320Z 06008KT 1200 0600NW R35R/1000U R17L/P1500N R34L/0800N R36/0900N BCFG BKN004 BKN022 08/07 Q1006 NOSIG",
      "taf": "TAF LTFM 072240Z 0800/0906 VRB02KT 1200 BCFG BKN004 BKN022"
    },
    {
      "icao": "LUKK",
      "alert": "OK",
      "vis_m": 9999,
      "fzfg": false,
      "metar_trigger": false,
      "taf_trigger": false,
      "metar": "METAR LUKK 072300Z 33006KT CAVOK M01/M02 Q1005 BECMG BKN012",
      "taf": "TAF LUKK 072319Z 0800/0824 33006KT 9999 BKN015"
    },
    {
      "icao": "LWOH",
      "alert": "OK",
      "vis_m": null,
      "fzfg": false,
      "metar_trigger": false,
      "taf_trigger": false,
      "metar": "",
      "taf": ""
    },
    {
      "icao": "LWSK",
      "alert": "OK",
      "vis_m": 9999,
      "fzfg": false,
      "metar_trigger": false,
      "taf_trigger": false,
      "metar": "METAR LWSK 072320Z 01003KT 320V080 9999 FEW050 04/03 Q1006 NOSIG",
      "taf": ""
    },
    {
      "icao": "LYBE",
      "alert": "OK",
      "vis_m": 1500,
      "fzfg": false,
      "metar_trigger": false,
      "taf_trigger": false,
      "metar": "METAR LYBE 072300Z 22004KT 1500 -RA BR BKN040 08/07 Q1007 BECMG 0800 FG",
      "taf": "TAF LYBE 072300Z 0800/0824 22004KT 1500 BR NSC TX11/0813Z TN05/0806Z"
    },
    {
      "icao": "LYNI",
      "alert": "OK",
      "vis_m": 2500,
      "fzfg": false,
      "metar_trigger": false,
      "taf_trigger": false,
      "metar": "METAR LYNI 072300Z 31003KT 2500 BR SCT008 BKN033 OVC070 07/07 Q1007 NOSIG",
      "taf": "TAF LYNI 072300Z 0800/0824 30003KT 3000 BR SCT010 BKN030 TX10/0813Z TN04/0806Z"
    },
    {
      "icao": "LYPG",
      "alert": "OK",
      "vis_m": 5000,
      "fzfg": false,
      "metar_trigger": false,
      "taf_trigger": false,
      "metar": "METAR LYPG 072300Z 28004KT 5000 BR FEW010 BKN040 OVC070 09/09 Q1006 NOSIG",
      "taf": "TAF LYPG 072300Z 0800/0824 36005KT 9999 FEW010 BKN040 OVC070 TX14/0813Z TN09/0806Z"
    },
    {
      "icao": "LZIB",
      "alert": "OK",
      "vis_m": 9999,
      "fzfg": false,
      "metar_trigger": false,
      "taf_trigger": false,
      "metar": "METAR LZIB 072300Z 17003KT 9999 FEW019 05/03 Q1007 NOSIG",
      "taf": "TAF LZIB 072315Z 0800/0900 13005KT 9999 FEW005 BKN030"
    },
    {
      "icao": "LZKZ",
      "alert": "OK",
      "vis_m": 600,
      "fzfg": false,
      "metar_trigger": false,
      "taf_trigger": false,
      "metar": "METAR LZKZ 072300Z 21001KT 0600 R01/1300D FG FEW002 OVC015 04/04 Q1005 NOSIG",
      "taf": "TAF LZKZ 072315Z 0800/0900 20005KT 3000 BR SCT005 BKN015"
    },
    {
      "icao": "LZTT",
      "alert": "OK",
      "vis_m": 9999,
      "fzfg": false,
      "metar_trigger": false,
      "taf_trigger": false,
      "metar": "METAR LZTT 072300Z 30004KT 270V330 9999 SCT006 BKN033 02/02 Q1004",
      "taf": "TAF LZTT 072315Z 0800/0900 26007KT 9999 SCT003 BKN020"
    },
    {
      "icao": "OEJN",
      "alert": "OK",
      "vis_m": 9999,
      "fzfg": false,
      "metar_trigger": false,
      "taf_trigger": false,
      "metar": "METAR OEJN 072300Z 36004KT CAVOK 21/15 Q1015 NOSIG",
      "taf": "TAF OEJN 072300Z 0800/0906 VRB03KT 7000 NSC"
    },
    {
      "icao": "OEMA",
      "alert": "OK",
      "vis_m": 9999,
      "fzfg": false,
      "metar_trigger": false,
      "taf_trigger": false,
      "metar": "METAR OEMA 072300Z 06003KT CAVOK 19/00 Q1019 NOSIG",
      "taf": "TAF OEMA 072300Z 0800/0906 VRB03KT CAVOK"
    },
    {
      "icao": "OJAI",
      "alert": "OK",
      "vis_m": 4000,
      "fzfg": false,
      "metar_trigger": false,
      "taf_trigger": false,
      "metar": "METAR OJAI 072300Z 26008KT 4000 HZ NSC 12/06 Q1016 NOSIG",
      "taf": "TAF OJAI 072300Z 0800/0906 25014KT 4000 HZ NSC"
    },
    {
      "icao": "OMAA",
      "alert": "OK",
      "vis_m": 9999,
      "fzfg": false,
      "metar_trigger": false,
      "taf_trigger": false,
      "metar": "METAR OMAA 072300Z 05005KT CAVOK 21/15 Q1015 NOSIG",
      "taf": "TAF OMAA 072300Z 0800/0906 16009KT 8000 NSC"
    },
    {
      "icao": "OMDB",
      "alert": "OK",
      "vis_m": 9999,
      "fzfg": false,
      "metar_trigger": false,
      "taf_trigger": false,
      "metar": "METAR OMDB 072300Z 10003KT 040V140 CAVOK 22/17 Q1014 NOSIG",
      "taf": "TAF OMDB 072300Z 0800/0906 10005KT 8000 NSC"
    },
    {
      "icao": "UAAA",
      "alert": "OK",
      "vis_m": 8000,
      "fzfg": false,
      "metar_trigger": false,
      "taf_trigger": false,
      "metar": "METAR UAAA 072300Z 02001MPS 8000 -SN BKN007 OVC025 M03/M03 Q1028 NOSIG",
      "taf": "TAF UAAA 072303Z 0800/0824 01003MPS 3100 BR BKN011 OVC100 TX00/0807Z TNM04/0802Z"
    },
    {
      "icao": "UBBB",
      "alert": "OK",
      "vis_m": 9999,
      "fzfg": false,
      "metar_trigger": false,
      "taf_trigger": false,
      "metar": "METAR UBBB 072300Z 32004KT CAVOK 05/03 Q1004 NOSIG",
      "taf": "TAF UBBB 072249Z 0800/0824 32005KT 5000 BR SCT030 TX06/0810Z TN04/0802Z"
    },
    {
      "icao": "UDSG",
      "alert": "OK",
      "vis_m": 3300,
      "fzfg": false,
      "metar_trigger": false,
      "taf_trigger": false,
      "metar": "METAR UDSG 072230Z 08001KT 3300 BR OVC023 M02/M02 Q1007 NOSIG",
      "taf": "TAF UDSG 072316Z 0800/0824 VRB06KT 2000 BR OVC020"
    },
    {
      "icao": "UDYZ",
      "alert": "OK",
      "vis_m": 2500,
      "fzfg": false,
      "metar_trigger": false,
      "taf_trigger": false,
      "metar": "METAR UDYZ 072300Z 00000KT 2500 -RA BR BKN040 02/01 Q1007 NOSIG",
      "taf": "TAF UDYZ 072300Z 0800/0824 VRB04KT 2000 BR BKN030"
    },
    {
      "icao": "UGKO",
      "alert": "OK",
      "vis_m": 9999,
      "fzfg": false,
      "metar_trigger": false,
      "taf_trigger": false,
      "metar": "METAR UGKO 072300Z 18005KT 9999 BKN072 09/04 Q1003 NOSIG",
      "taf": "TAF UGKO 072300Z 0800/0824 25007KT 9000 SCT030 OVC050 TX10/0810Z TN07/0824Z"
    }
  ]
}