{
  "ts_utc": "2026-01-28T15:18:02Z",
  "threshold_m": 150,
  "source": "stations_override.txt (ICAO list) + aviationweather.gov (METAR/TAF raw)",
  "station_count": 159,
  "stations": [
    {
      "icao": "BIKF",
      "alert": "OK",
      "vis_m": 9999,
      "fzfg": false,
      "metar_trigger": false,
      "taf_trigger": false,
      "metar": "METAR BIKF 281500Z 07018KT CAVOK 04/M05 Q0998",
      "taf": "TAF BIKF 281332Z 2815/2915 07020G30KT CAVOK TX04/2815Z TN02/2904Z"
    },
    {
      "icao": "BKPR",
      "alert": "OK",
      "vis_m": 9999,
      "fzfg": false,
      "metar_trigger": false,
      "taf_trigger": false,
      "metar": "METAR BKPR 281500Z 19012KT CAVOK 06/01 Q1000 NOSIG",
      "taf": "TAF BKPR 281130Z 2812/2912 17012KT 9999 BKN050"
    },
    {
      "icao": "EBCI",
      "alert": "OK",
      "vis_m": 800,
      "fzfg": false,
      "metar_trigger": false,
      "taf_trigger": false,
      "metar": "METAR EBCI 281450Z 04004KT 010V070 0800 R24/P2000N FG SCT001 OVC002 05/05 Q0995 TEMPO 0400 FG",
      "taf": "TAF EBCI 281101Z 2812/2918 02003KT 1200 BR MIFG SCT002 BKN003"
    },
    {
      "icao": "EDDB",
      "alert": "OK",
      "vis_m": 9999,
      "fzfg": false,
      "metar_trigger": false,
      "taf_trigger": false,
      "metar": "METAR EDDB 281450Z AUTO 07011KT 9999 OVC012 M01/M03 Q1000 NOSIG",
      "taf": ""
    },
    {
      "icao": "EDDH",
      "alert": "OK",
      "vis_m": 9999,
      "fzfg": false,
      "metar_trigger": false,
      "taf_trigger": false,
      "metar": "METAR EDDH 281450Z AUTO 08010KT 060V120 9999 OVC013 01/M02 Q1001 TEMPO OVC009",
      "taf": "TAF EDDH 281100Z 2812/2918 09011KT 9999 OVC013"
    },
    {
      "icao": "EDDK",
      "alert": "OK",
      "vis_m": 1500,
      "fzfg": false,
      "metar_trigger": false,
      "taf_trigger": false,
      "metar": "METAR EDDK 281450Z AUTO 29004KT 1500 1400 R13L/1900N R24/1900N -RADZ BR BKN003 05/05 Q0994 REDZ TEMPO 3000 -RADZ BKN005",
      "taf": ""
    },
    {
      "icao": "EDDN",
      "alert": "OK",
      "vis_m": 9999,
      "fzfg": false,
      "metar_trigger": false,
      "taf_trigger": false,
      "metar": "METAR EDDN 281450Z AUTO 03005KT 360V060 CAVOK 04/M00 Q0991 NOSIG",
      "taf": "TAF EDDN 281100Z 2812/2912 05005KT CAVOK"
    },
    {
      "icao": "EDDS",
      "alert": "OK",
      "vis_m": 9999,
      "fzfg": false,
      "metar_trigger": false,
      "taf_trigger": false,
      "metar": "METAR EDDS 281450Z AUTO 34004KT 9999 SCT008 SCT040 03/01 Q0990 TEMPO BKN008",
      "taf": "TAF EDDS 281100Z 2812/2912 34003KT 9999 OVC025"
    },
    {
      "icao": "EDFH",
      "alert": "OK",
      "vis_m": 700,
      "fzfg": false,
      "metar_trigger": false,
      "taf_trigger": false,
      "metar": "METAR EDFH 281450Z 35007KT 0700 R03/P2000N -RA FG VV/// 02/02 Q0992",
      "taf": "TAF EDFH 281100Z 2812/2912 05005KT 2000 -RADZ OVC004"
    },
    {
      "icao": "EDJA",
      "alert": "OK",
      "vis_m": 8000,
      "fzfg": false,
      "metar_trigger": false,
      "taf_trigger": false,
      "metar": "METAR EDJA 281450Z COR 00000KT 8000 SCT006 OVC008 00/M01 Q0989",
      "taf": "TAF EDJA 281400Z 2815/2824 29004KT 9000 SCT005 OVC010"
    },
    {
      "icao": "EDLW",
      "alert": "OK",
      "vis_m": 9999,
      "fzfg": false,
      "metar_trigger": false,
      "taf_trigger": false,
      "metar": "METAR EDLW 281450Z 01007KT 9999 OVC006 01/00 Q0994",
      "taf": ""
    },
    {
      "icao": "EDNY",
      "alert": "OK",
      "vis_m": 8000,
      "fzfg": false,
      "metar_trigger": false,
      "taf_trigger": false,
      "metar": "METAR EDNY 281450Z VRB02KT 8000 -RA BKN011 BKN015 OVC032 02/01 Q0990",
      "taf": "TAF EDNY 281400Z 2815/2824 VRB03KT 7000 SCT010 BKN015"
    },
    {
      "icao": "EDSB",
      "alert": "OK",
      "vis_m": 5000,
      "fzfg": false,
      "metar_trigger": false,
      "taf_trigger": false,
      "metar": "METAR EDSB 281450Z 02008KT 5000 BR OVC004 04/04 Q0991",
      "taf": ""
    },
    {
      "icao": "EETN",
      "alert": "OK",
      "vis_m": 9999,
      "fzfg": false,
      "metar_trigger": false,
      "taf_trigger": false,
      "metar": "METAR EETN 281450Z 07012KT 9999 OVC013 M07/M09 Q1014 NOSIG",
      "taf": "TAF EETN 281130Z 2812/2912 07012KT 9999 OVC008"
    },
    {
      "icao": "EFTU",
      "alert": "OK",
      "vis_m": 9999,
      "fzfg": false,
      "metar_trigger": false,
      "taf_trigger": false,
      "metar": "METAR EFTU 281450Z AUTO 08010KT 9999 -SHSN OVC009 M12/M13 Q1016",
      "taf": "TAF EFTU 281435Z 2815/2915 08005KT 9999 BKN008"
    },
    {
      "icao": "EGBB",
      "alert": "OK",
      "vis_m": 9999,
      "fzfg": false,
      "metar_trigger": false,
      "taf_trigger": false,
      "metar": "METAR EGBB 281450Z 12005KT 9999 FEW016 08/04 Q0994",
      "taf": "TAF EGBB 281101Z 2812/2912 14004KT 9999 FEW025"
    },
    {
      "icao": "EGGP",
      "alert": "OK",
      "vis_m": 9999,
      "fzfg": false,
      "metar_trigger": false,
      "taf_trigger": false,
      "metar": "METAR EGGP 281450Z 16005KT 9999 FEW032 08/03 Q0994",
      "taf": "TAF EGGP 281055Z 2812/2912 12006KT 9999 FEW035"
    },
    {
      "icao": "EGGW",
      "alert": "OK",
      "vis_m": 9999,
      "fzfg": false,
      "metar_trigger": false,
      "taf_trigger": false,
      "metar": "METAR EGGW 281450Z AUTO 11004KT 9999 SCT017 08/04 Q0994",
      "taf": ""
    },
    {
      "icao": "EGKK",
      "alert": "OK",
      "vis_m": 9999,
      "fzfg": false,
      "metar_trigger": false,
      "taf_trigger": false,
      "metar": "METAR EGKK 281450Z 14003KT 110V170 9999 SCT043 09/05 Q0994",
      "taf": ""
    },
    {
      "icao": "EGNM",
      "alert": "OK",
      "vis_m": 200,
      "fzfg": false,
      "metar_trigger": false,
      "taf_trigger": false,
      "metar": "METAR EGNM 281450Z 07004KT 0200 R14/0250N FG SCT001 01/01 Q0995",
      "taf": ""
    },
    {
      "icao": "EGPD",
      "alert": "OK",
      "vis_m": 9999,
      "fzfg": false,
      "metar_trigger": false,
      "taf_trigger": false,
      "metar": "METAR EGPD 281450Z COR AUTO 13010KT 9999 BKN006 OVC010 07/06 Q0996 NOSIG",
      "taf": "TAF EGPD 281053Z 2812/2912 13011KT 9999 BKN010"
    },
    {
      "icao": "EGPF",
      "alert": "OK",
      "vis_m": 9999,
      "fzfg": false,
      "metar_trigger": false,
      "taf_trigger": false,
      "metar": "METAR EGPF 281450Z AUTO 07004KT 9999 SCT045 07/04 Q0995",
      "taf": "TAF EGPF 281056Z 2812/2912 09005KT 9999 SCT040"
    },
    {
      "icao": "EHBK",
      "alert": "OK",
      "vis_m": 1800,
      "fzfg": false,
      "metar_trigger": false,
      "taf_trigger": false,
      "metar": "METAR EHBK 281455Z AUTO 02006KT 1800 BR BKN001/// OVC003/// 05/05 Q0994 TEMPO 1200",
      "taf": "TAF EHBK 281105Z 2812/2918 01005KT 2000 BR BKN001"
    },
    {
      "icao": "EHEH",
      "alert": "OK",
      "vis_m": null,
      "fzfg": false,
      "metar_trigger": false,
      "taf_trigger": false,
      "metar": "",
      "taf": "TAF EHEH 281143Z 2812/2918 05004KT 3000 BR BKN005 OVC006"
    },
    {
      "icao": "EKBI",
      "alert": "OK",
      "vis_m": 9999,
      "fzfg": false,
      "metar_trigger": false,
      "taf_trigger": false,
      "metar": "METAR EKBI 281450Z AUTO 07013KT 9999 OVC011/// M01/M03 Q1005",
      "taf": "TAF EKBI 281427Z 2815/2915 08015KT 9999 BKN012"
    },
    {
      "icao": "EKCH",
      "alert": "OK",
      "vis_m": 9999,
      "fzfg": false,
      "metar_trigger": false,
      "taf_trigger": false,
      "metar": "METAR EKCH 281450Z AUTO 05013KT 9999 OVC021/// M01/M05 Q1007 NOSIG",
      "taf": "TAF EKCH 281427Z 2815/2915 05015KT 9999 BKN018"
    },
    {
      "icao": "ENAL",
      "alert": "OK",
      "vis_m": 9999,
      "fzfg": false,
      "metar_trigger": false,
      "taf_trigger": false,
      "metar": "METAR ENAL 281450Z 16007KT 9999 BKN022 00/M04 Q1008",
      "taf": "TAF ENAL 281400Z 2815/2824 16006KT 9999 SCT020"
    },
    {
      "icao": "ENBR",
      "alert": "OK",
      "vis_m": 9999,
      "fzfg": false,
      "metar_trigger": false,
      "taf_trigger": false,
      "metar": "METAR ENBR 281450Z 03003KT CAVOK M00/M06 Q1008 NOSIG RMK WIND 1200FT 27004KT",
      "taf": "TAF ENBR 281100Z 2812/2912 14005KT CAVOK"
    },
    {
      "icao": "ENGM",
      "alert": "OK",
      "vis_m": 9999,
      "fzfg": false,
      "metar_trigger": false,
      "taf_trigger": false,
      "metar": "METAR ENGM 281450Z 03010KT 9999 -SN OVC028 M09/M12 Q1014 NOSIG",
      "taf": "TAF ENGM 281100Z 2812/2912 02007KT 9999 -SN BKN025"
    },
    {
      "icao": "ENHD",
      "alert": "OK",
      "vis_m": 9999,
      "fzfg": false,
      "metar_trigger": false,
      "taf_trigger": false,
      "metar": "METAR ENHD 281450Z 11014KT CAVOK M01/M15 Q1008",
      "taf": "TAF ENHD 281400Z 2815/2823 10008KT CAVOK"
    },
    {
      "icao": "ENTC",
      "alert": "OK",
      "vis_m": 9999,
      "fzfg": false,
      "metar_trigger": false,
      "taf_trigger": false,
      "metar": "METAR ENTC 281450Z 24006KT 220V010 9999 SCT009 M06/M08 Q1014 NOSIG RMK WIND 2600FT VRB02KT",
      "taf": "TAF ENTC 281100Z 2812/2912 22015KT 9999 FEW010 SCT015"
    },
    {
      "icao": "ENTO",
      "alert": "OK",
      "vis_m": 9999,
      "fzfg": false,
      "metar_trigger": false,
      "taf_trigger": false,
      "metar": "METAR ENTO 281450Z 01011KT 9999 -SN FEW019 OVC028 M06/M10 Q1013 NOSIG",
      "taf": "TAF ENTO 281100Z 2812/2912 02008KT 9999 -SN BKN025"
    },
    {
      "icao": "ENVA",
      "alert": "OK",
      "vis_m": 9999,
      "fzfg": false,
      "metar_trigger": false,
      "taf_trigger": false,
      "metar": "METAR ENVA 281450Z 08007KT CAVOK M08/M16 Q1011 NOSIG RMK WIND 670FT 12012KT",
      "taf": "TAF ENVA 281100Z 2812/2912 10008KT CAVOK"
    },
    {
      "icao": "ENZV",
      "alert": "OK",
      "vis_m": 9999,
      "fzfg": false,
      "metar_trigger": false,
      "taf_trigger": false,
      "metar": "METAR ENZV 281450Z 11009KT CAVOK M02/M15 Q1009 NOSIG",
      "taf": "TAF ENZV 281100Z 2812/2912 14006KT CAVOK"
    },
    {
      "icao": "EPGD",
      "alert": "OK",
      "vis_m": 7000,
      "fzfg": false,
      "metar_trigger": false,
      "taf_trigger": false,
      "metar": "METAR EPGD 281500Z 03007KT 350V060 7000 OVC005 M03/M04 Q1002",
      "taf": "TAF EPGD 281130Z 2812/2912 05008KT 9999 BKN007"
    },
    {
      "icao": "EPKK",
      "alert": "OK",
      "vis_m": 7000,
      "fzfg": false,
      "metar_trigger": false,
      "taf_trigger": false,
      "metar": "METAR EPKK 281500Z 06008KT 7000 SCT010 BKN046 02/M01 Q0997",
      "taf": "TAF EPKK 281430Z 2815/2915 06007KT 9999 BKN040"
    },
    {
      "icao": "EPKT",
      "alert": "OK",
      "vis_m": 5000,
      "fzfg": false,
      "metar_trigger": false,
      "taf_trigger": false,
      "metar": "METAR EPKT 281500Z 06010KT 5000 BR BKN005 00/M01 Q0997",
      "taf": "TAF EPKT 281130Z 2812/2912 04005KT 6000 OVC040"
    },
    {
      "icao": "EPLB",
      "alert": "OK",
      "vis_m": 2000,
      "fzfg": false,
      "metar_trigger": false,
      "taf_trigger": false,
      "metar": "METAR EPLB 281500Z 31003KT 2000 BR OVC004 00/M00 Q0998",
      "taf": "TAF EPLB 281130Z 2812/2912 VRB02KT 6000 BKN010"
    },
    {
      "icao": "EPMO",
      "alert": "OK",
      "vis_m": 3200,
      "fzfg": false,
      "metar_trigger": false,
      "taf_trigger": false,
      "metar": "METAR EPMO 281500Z 32003KT 3200 BR BKN021 M00/M01 Q1000",
      "taf": ""
    },
    {
      "icao": "EPPO",
      "alert": "OK",
      "vis_m": 9999,
      "fzfg": false,
      "metar_trigger": false,
      "taf_trigger": false,
      "metar": "METAR EPPO 281500Z 08007KT 9999 OVC014 M00/M03 Q1001",
      "taf": ""
    },
    {
      "icao": "EPRA",
      "alert": "OK",
      "vis_m": 4000,
      "fzfg": false,
      "metar_trigger": false,
      "taf_trigger": false,
      "metar": "METAR EPRA 281500Z 01005KT 4000 BR OVC004 00/M01 Q0999",
      "taf": "TAF EPRA 281430Z 2815/2824 02006KT 5000 BR OVC005"
    },
    {
      "icao": "EPRZ",
      "alert": "OK",
      "vis_m": 9999,
      "fzfg": false,
      "metar_trigger": false,
      "taf_trigger": false,
      "metar": "METAR EPRZ 281500Z 24006KT 9999 OVC015 03/00 Q0998",
      "taf": "TAF EPRZ 281130Z 2812/2912 19010KT 9999 OVC035"
    },
    {
      "icao": "EPSC",
      "alert": "OK",
      "vis_m": 8000,
      "fzfg": false,
      "metar_trigger": false,
      "taf_trigger": false,
      "metar": "METAR EPSC 281500Z 03005KT 010V070 8000 OVC005 M01/M01 Q1002",
      "taf": "TAF EPSC 281130Z 2812/2912 06008KT 9999 BKN005 BKN011"
    },
    {
      "icao": "EPSY",
      "alert": "OK",
      "vis_m": 4200,
      "fzfg": false,
      "metar_trigger": false,
      "taf_trigger": false,
      "metar": "METAR EPSY 281500Z 01007KT 4200 BR OVC004 M03/M04 Q1001",
      "taf": "TAF EPSY 281430Z 2815/2824 02008KT 5000 BR OVC005"
    },
    {
      "icao": "EPWA",
      "alert": "OK",
      "vis_m": 6000,
      "fzfg": false,
      "metar_trigger": false,
      "taf_trigger": false,
      "metar": "METAR EPWA 281500Z 35006KT 320V020 6000 BKN008 01/M01 Q1000 BECMG BKN010",
      "taf": "TAF EPWA 281430Z 2815/2915 35008KT 6000 BKN010"
    },
    {
      "icao": "EPWR",
      "alert": "OK",
      "vis_m": 9999,
      "fzfg": false,
      "metar_trigger": false,
      "taf_trigger": false,
      "metar": "METAR EPWR 281500Z 06005KT 9999 BKN015 01/M01 Q0999",
      "taf": "TAF EPWR 281430Z 2815/2915 08008KT 9999 BKN020"
    },
    {
      "icao": "ESGG",
      "alert": "OK",
      "vis_m": 9999,
      "fzfg": false,
      "metar_trigger": false,
      "taf_trigger": false,
      "metar": "METAR ESGG 281450Z 06010KT CAVOK M03/M09 Q1009",
      "taf": "TAF ESGG 281430Z 2815/2915 07012KT CAVOK"
    },
    {
      "icao": "ESKN",
      "alert": "OK",
      "vis_m": 9999,
      "fzfg": false,
      "metar_trigger": false,
      "taf_trigger": false,
      "metar": "METAR ESKN 281450Z 01008KT 9999 BKN035 M03/M06 Q1013",
      "taf": "TAF ESKN 281430Z 2815/2915 02008KT 9999 BKN035"
    },
    {
      "icao": "ESMS",
      "alert": "OK",
      "vis_m": 9999,
      "fzfg": false,
      "metar_trigger": false,
      "taf_trigger": false,
      "metar": "METAR ESMS 281450Z 05012KT 9999 OVC016 M01/M04 Q1005",
      "taf": "TAF ESMS 281427Z 2815/2915 06014KT 9999 OVC012"
    },
    {
      "icao": "ESSA",
      "alert": "OK",
      "vis_m": 9999,
      "fzfg": false,
      "metar_trigger": false,
      "taf_trigger": false,
      "metar": "METAR ESSA 281450Z 01007KT CAVOK M08/M09 Q1015 NOSIG",
      "taf": "TAF ESSA 281430Z 2815/2915 03010KT 9999 FEW020"
    },
    {
      "icao": "EYKA",
      "alert": "OK",
      "vis_m": 9000,
      "fzfg": false,
      "metar_trigger": false,
      "taf_trigger": false,
      "metar": "METAR EYKA 281450Z 01007KT 340V040 9000 -SN OVC013 M08/M10 Q1003",
      "taf": "TAF EYKA 281100Z 2812/2912 03008KT 5000 SN BR OVC010"
    },
    {
      "icao": "EYPA",
      "alert": "OK",
      "vis_m": 9999,
      "fzfg": false,
      "metar_trigger": false,
      "taf_trigger": false,
      "metar": "METAR EYPA 281450Z 07009KT 040V100 9999 -SN FEW015 M07/M10 Q1006",
      "taf": "TAF EYPA 281100Z 2812/2912 06011KT 5000 SN BR SCT020"
    },
    {
      "icao": "EYVI",
      "alert": "OK",
      "vis_m": 3700,
      "fzfg": false,
      "metar_trigger": false,
      "taf_trigger": false,
      "metar": "METAR EYVI 281450Z 04008KT 3700 SN BR FEW007 OVC016 M06/M07 Q1001 TEMPO 3000 SN BR",
      "taf": ""
    },
    {
      "icao": "GCFV",
      "alert": "OK",
      "vis_m": 9999,
      "fzfg": false,
      "metar_trigger": false,
      "taf_trigger": false,
      "metar": "METAR GCFV 281500Z 27011KT 230V310 9999 SCT025 BKN032 21/15 Q1021",
      "taf": "TAF GCFV 281400Z 2815/2915 31013KT 9999 FEW020 BKN030 TX23/2914Z TN14/2906Z"
    },
    {
      "icao": "GCLP",
      "alert": "OK",
      "vis_m": 9999,
      "fzfg": false,
      "metar_trigger": false,
      "taf_trigger": false,
      "metar": "METAR GCLP 281500Z 20007KT 150V230 9999 BKN025 21/16 Q1021 NOSIG",
      "taf": "TAF GCLP 281400Z 2815/2915 10004KT 9999 FEW020 BKN030 TX22/2914Z TN15/2906Z"
    },
    {
      "icao": "GCTS",
      "alert": "OK",
      "vis_m": 9999,
      "fzfg": false,
      "metar_trigger": false,
      "taf_trigger": false,
      "metar": "METAR GCTS 281500Z 16006KT 120V200 9999 BKN030 21/14 Q1021 NOSIG",
      "taf": "TAF GCTS 281400Z 2815/2915 17007KT 9999 SCT030 TX23/2914Z TN16/2906Z"
    },
    {
      "icao": "GMAD",
      "alert": "OK",
      "vis_m": 6000,
      "fzfg": false,
      "metar_trigger": false,
      "taf_trigger": false,
      "metar": "METAR GMAD 281500Z 27013KT 6000 FEW008 BKN016 18/17 Q1019 NOSIG",
      "taf": "TAF GMAD 281100Z 2812/2918 28012KT 8000 SCT020 BKN080"
    },
    {
      "icao": "GMMN",
      "alert": "OK",
      "vis_m": 9999,
      "fzfg": false,
      "metar_trigger": false,
      "taf_trigger": false,
      "metar": "METAR GMMN 281500Z 24015KT 190V260 9999 BKN020 17/14 Q1017 TEMPO 24018G30KT",
      "taf": "TAF GMMN 281100Z 2812/2918 23018KT 9999 SCT016 BKN023"
    },
    {
      "icao": "GMMX",
      "alert": "OK",
      "vis_m": 9999,
      "fzfg": false,
      "metar_trigger": false,
      "taf_trigger": false,
      "metar": "METAR GMMX 281500Z 28009KT 240V340 9999 SCT020 SCT090 19/12 Q1019 NOSIG",
      "taf": "TAF GMMX 281100Z 2812/2918 06006KT 8000 SCT033 SCT100"
    },
    {
      "icao": "HEGN",
      "alert": "OK",
      "vis_m": 4000,
      "fzfg": false,
      "metar_trigger": false,
      "taf_trigger": false,
      "metar": "METAR HEGN 281400Z 36009KT 4000 DU NSC 22/06 Q1017 NOSIG",
      "taf": "TAF HEGN 281100Z 2812/2918 34018KT 34018KT 6000 NSC"
    },
    {
      "icao": "HEMA",
      "alert": "OK",
      "vis_m": 2500,
      "fzfg": false,
      "metar_trigger": false,
      "taf_trigger": false,
      "metar": "METAR HEMA 281400Z 05013KT 2500 SA NSC 22/04 Q1017 NOSIG",
      "taf": "TAF HEMA 281100Z 2812/2918 36018KT 6000 NSC"
    },
    {
      "icao": "HESH",
      "alert": "OK",
      "vis_m": 4000,
      "fzfg": false,
      "metar_trigger": false,
      "taf_trigger": false,
      "metar": "METAR HESH 281400Z 05005KT 4000 HZ NSC 23/03 Q1016 NOSIG",
      "taf": "TAF HESH 281100Z 2812/2918 36012KT 6000 NSC"
    },
    {
      "icao": "HESX",
      "alert": "OK",
      "vis_m": 9999,
      "fzfg": false,
      "metar_trigger": false,
      "taf_trigger": false,
      "metar": "METAR HESX 281400Z 24010KT 9999 SCT025 19/05 Q1015 NOSIG",
      "taf": "TAF HESX 281100Z 2812/2918 22010KT 9999 SCT020"
    },
    {
      "icao": "LATI",
      "alert": "OK",
      "vis_m": 9999,
      "fzfg": false,
      "metar_trigger": false,
      "taf_trigger": false,
      "metar": "METAR LATI 281450Z 15008KT 9999 -RA FEW050 OVC070 12/06 Q0999 NOSIG",
      "taf": "TAF LATI 281100Z 2812/2912 14012KT 9999 SCT060 BKN080 TX15/2812Z TN06/2905Z"
    },
    {
      "icao": "LBPD",
      "alert": "OK",
      "vis_m": 9999,
      "fzfg": false,
      "metar_trigger": false,
      "taf_trigger": false,
      "metar": "METAR LBPD 281500Z AUTO 12005KT 9999 BKN160/// BKN180/// BKN210/// 10/04 Q1003 NOSIG",
      "taf": "TAF LBPD 281100Z 2812/2912 VRB04KT CAVOK"
    },
    {
      "icao": "LBSF",
      "alert": "OK",
      "vis_m": 8000,
      "fzfg": false,
      "metar_trigger": false,
      "taf_trigger": false,
      "metar": "METAR LBSF 281500Z 08003KT 8000 NSC 03/01 Q1003 NOSIG",
      "taf": "TAF LBSF 281100Z 2812/2912 VRB04KT 9999 SCT050"
    },
    {
      "icao": "LBWN",
      "alert": "OK",
      "vis_m": 9999,
      "fzfg": false,
      "metar_trigger": false,
      "taf_trigger": false,
      "metar": "METAR LBWN 281500Z AUTO 12009KT 9999 NCD 09/07 Q1004 NOSIG",
      "taf": "TAF LBWN 281100Z 2812/2912 16010KT 9999 SCT040"
    },
    {
      "icao": "LCLK",
      "alert": "OK",
      "vis_m": 5000,
      "fzfg": false,
      "metar_trigger": false,
      "taf_trigger": false,
      "metar": "METAR LCLK 281500Z VRB03KT 5000 DU FEW025 SCT050 16/14 Q1012 BECMG 8000",
      "taf": "TAF LCLK 281130Z 2812/2912 20010KT 8000 FEW020 SCT040"
    },
    {
      "icao": "LCPH",
      "alert": "OK",
      "vis_m": 9999,
      "fzfg": false,
      "metar_trigger": false,
      "taf_trigger": false,
      "metar": "METAR LCPH 281500Z VRB03KT 9999 FEW020 SCT029 FEW035TCU BKN050 16/11 Q1012 NOSIG",
      "taf": "TAF LCPH 281130Z 2812/2912 24006KT 5000 DU SCT030 SCT040"
    },
    {
      "icao": "LEAL",
      "alert": "OK",
      "vis_m": 9999,
      "fzfg": false,
      "metar_trigger": false,
      "taf_trigger": false,
      "metar": "METAR LEAL 281500Z 28030G54KT 9999 FEW050 19/04 Q0995 NOSIG",
      "taf": ""
    },
    {
      "icao": "LEBB",
      "alert": "OK",
      "vis_m": 9999,
      "fzfg": false,
      "metar_trigger": false,
      "taf_trigger": false,
      "metar": "METAR LEBB 281500Z 24008KT 200V290 9999 FEW038 13/03 Q0995 NOSIG",
      "taf": "TAF LEBB 281100Z 2812/2912 22009KT 9999 FEW030 TX10/2816Z TN08/2906Z"
    },
    {
      "icao": "LEBL",
      "alert": "OK",
      "vis_m": 9999,
      "fzfg": false,
      "metar_trigger": false,
      "taf_trigger": false,
      "metar": "METAR LEBL 281500Z 33009KT 260V030 9999 FEW020 SCT056 11/04 Q0992 NOSIG",
      "taf": "TAF LEBL 281100Z 2812/2912 23008KT 9999 FEW020 TX11/2812Z TN07/2906Z"
    },
    {
      "icao": "LECH",
      "alert": "OK",
      "vis_m": 9999,
      "fzfg": false,
      "metar_trigger": false,
      "taf_trigger": false,
      "metar": "METAR LECH 281500Z AUTO 35008KT 310V040 9999 FEW024 09/04 Q0993",
      "taf": ""
    },
    {
      "icao": "LEMD",
      "alert": "OK",
      "vis_m": 9999,
      "fzfg": false,
      "metar_trigger": false,
      "taf_trigger": false,
      "metar": "METAR LEMD 281500Z 27017KT 240V310 9999 FEW038 SCT045 09/02 Q0999 NOSIG",
      "taf": ""
    },
    {
      "icao": "LEMG",
      "alert": "OK",
      "vis_m": 9999,
      "fzfg": false,
      "metar_trigger": false,
      "taf_trigger": false,
      "metar": "METAR LEMG 281500Z 29009KT 250V320 9999 FEW060 16/09 Q1005 NOSIG",
      "taf": "TAF LEMG 281100Z 2812/2912 29012KT 9999 SCT020 TX19/2814Z TN13/2907Z"
    },
    {
      "icao": "LEVC",
      "alert": "OK",
      "vis_m": 9999,
      "fzfg": false,
      "metar_trigger": false,
      "taf_trigger": false,
      "metar": "METAR LEVC 281500Z 29021G36KT 260V320 9999 FEW050 14/04 Q0994 NOSIG",
      "taf": "TAF LEVC 281100Z 2812/2912 15005KT 9999 FEW030 TX17/2814Z TN09/2907Z"
    },
    {
      "icao": "LEXJ",
      "alert": "OK",
      "vis_m": 9999,
      "fzfg": false,
      "metar_trigger": false,
      "taf_trigger": false,
      "metar": "METAR LEXJ 281500Z 29004KT 250V310 9999 -RA BKN079 12/05 Q0995",
      "taf": "TAF LEXJ 281400Z 2815/2915 20009KT 9999 FEW040 TX16/2914Z TN09/2905Z"
    },
    {
      "icao": "LEZG",
      "alert": "OK",
      "vis_m": 9999,
      "fzfg": false,
      "metar_trigger": false,
      "taf_trigger": false,
      "metar": "METAR LEZG 281500Z 30004KT 270V340 9999 -RA SCT020 BKN060 07/05 Q0997 NOSIG",
      "taf": "TAF LEZG 281100Z 2812/2912 09009KT 9999 FEW040 TX08/2813Z TN06/2900Z"
    },
    {
      "icao": "LEZL",
      "alert": "OK",
      "vis_m": 9999,
      "fzfg": false,
      "metar_trigger": false,
      "taf_trigger": false,
      "metar": "METAR LEZL 281500Z 26013KT 9999 SCT030 18/12 Q1006 NOSIG",
      "taf": "TAF LEZL 281400Z 2815/2915 24012KT 9999 SCT020 TX18/2915Z TN14/2907Z"
    },
    {
      "icao": "LFBD",
      "alert": "OK",
      "vis_m": 9999,
      "fzfg": false,
      "metar_trigger": false,
      "taf_trigger": false,
      "metar": "METAR LFBD 281500Z AUTO VRB03KT 9999 FEW024 BKN032 OVC041 11/06 Q0995 NOSIG",
      "taf": "TAF LFBD 281100Z 2812/2918 VRB03KT 9999 BKN008 TX12/2815Z TN06/2906Z"
    },
    {
      "icao": "LFLL",
      "alert": "OK",
      "vis_m": 9999,
      "fzfg": false,
      "metar_trigger": false,
      "taf_trigger": false,
      "metar": "METAR LFLL 281500Z 35007KT 9999 -RA SCT018 BKN033 06/05 Q0993 TEMPO 4000 RA SCT020TCU BKN030",
      "taf": "TAF LFLL 281100Z 2812/2918 33006KT 9999 BKN016 BKN035"
    },
    {
      "icao": "LFLS",
      "alert": "OK",
      "vis_m": 9999,
      "fzfg": false,
      "metar_trigger": false,
      "taf_trigger": false,
      "metar": "METAR LFLS 281500Z AUTO 07006KT 9999 -RA FEW003 OVC017 03/03 Q0992 TEMPO 4000 RA OVC008",
      "taf": "TAF LFLS 281400Z 2815/2915 VRB05KT 6000 -RA SCT012 OVC020"
    },
    {
      "icao": "LFMN",
      "alert": "OK",
      "vis_m": 5000,
      "fzfg": false,
      "metar_trigger": false,
      "taf_trigger": false,
      "metar": "METAR LFMN 281430Z 22005KT 180V280 5000 -RA BR SCT013 BKN023 10/08 Q0989 WS ALL RWY NOSIG",
      "taf": "TAF LFMN 281400Z 2815/2921 24010KT 9999 BKN020"
    },
    {
      "icao": "LFOB",
      "alert": "OK",
      "vis_m": 9999,
      "fzfg": false,
      "metar_trigger": false,
      "taf_trigger": false,
      "metar": "METAR LFOB 281500Z AUTO VRB02KT CAVOK 06/05 Q0995 TEMPO BKN010",
      "taf": "TAF LFOB 281100Z 2812/2912 VRB03KT CAVOK"
    },
    {
      "icao": "LFPO",
      "alert": "OK",
      "vis_m": 9999,
      "fzfg": false,
      "metar_trigger": false,
      "taf_trigger": false,
      "metar": "METAR LFPO 281500Z AUTO 33006KT CAVOK 08/03 Q0995 NOSIG",
      "taf": "TAF LFPO 281100Z 2812/2918 VRB03KT CAVOK"
    },
    {
      "icao": "LFSB",
      "alert": "OK",
      "vis_m": 9999,
      "fzfg": false,
      "metar_trigger": false,
      "taf_trigger": false,
      "metar": "METAR LFSB 281500Z AUTO 24006KT 9999 -RA BKN012 OVC018 04/03 Q0991 TEMPO 4000 -RA BKN005",
      "taf": "TAF LFSB 281100Z 2812/2912 32004KT 9999 SCT012 BKN020"
    },
    {
      "icao": "LGAV",
      "alert": "OK",
      "vis_m": 9999,
      "fzfg": false,
      "metar_trigger": false,
      "taf_trigger": false,
      "metar": "METAR LGAV 281450Z 22004KT 9999 FEW025 14/08 Q1008 NOSIG",
      "taf": "TAF LGAV 281100Z 2812/2912 22010KT 9999 FEW018 SCT070"
    },
    {
      "icao": "LGTS",
      "alert": "OK",
      "vis_m": 9999,
      "fzfg": false,
      "metar_trigger": false,
      "taf_trigger": false,
      "metar": "METAR LGTS 281450Z VRB02KT 9999 FEW030 12/07 Q1005 NOSIG",
      "taf": "TAF LGTS 281100Z 2812/2912 15010KT 9999 SCT030"
    },
    {
      "icao": "LHBP",
      "alert": "OK",
      "vis_m": 3800,
      "fzfg": false,
      "metar_trigger": false,
      "taf_trigger": false,
      "metar": "METAR LHBP 281500Z 09006KT 3800 -RA BR FEW012 BKN056 03/02 Q0997 NOSIG",
      "taf": "TAF LHBP 281115Z 2812/2912 08009KT 8000 BKN045"
    },
    {
      "icao": "LHDC",
      "alert": "OK",
      "vis_m": 9999,
      "fzfg": false,
      "metar_trigger": false,
      "taf_trigger": false,
      "metar": "METAR LHDC 281445Z AUTO 07005KT 9999 -RA OVC036 05/04 Q0999 NOSIG",
      "taf": "TAF LHDC 281415Z 2815/2824 13006KT 9999 BKN045 OVC080"
    },
    {
      "icao": "LIBD",
      "alert": "OK",
      "vis_m": 9999,
      "fzfg": false,
      "metar_trigger": false,
      "taf_trigger": false,
      "metar": "METAR LIBD 281450Z 21013KT CAVOK 14/09 Q0996",
      "taf": "TAF LIBD 281100Z 2812/2912 17016KT 9999 SCT040"
    },
    {
      "icao": "LIBG",
      "alert": "OK",
      "vis_m": 9999,
      "fzfg": false,
      "metar_trigger": false,
      "taf_trigger": false,
      "metar": "METAR LIBG 281450Z 21008KT 9999 -RA FEW010 SCT040 13/10 Q0997",
      "taf": "TAF LIBG 281400Z 2815/2824 21012KT 9999 FEW020"
    },
    {
      "icao": "LIBP",
      "alert": "OK",
      "vis_m": 9999,
      "fzfg": false,
      "metar_trigger": false,
      "taf_trigger": false,
      "metar": "METAR LIBP 281450Z AUTO 22022KT 9999 BKN140/// 14/05 Q0990",
      "taf": "TAF LIBP 281100Z 2812/2912 23012KT 9999 SCT080"
    },
    {
      "icao": "LIBR",
      "alert": "OK",
      "vis_m": 9999,
      "fzfg": false,
      "metar_trigger": false,
      "taf_trigger": false,
      "metar": "METAR LIBR 281450Z 20013KT 9999 BKN045 14/11 Q0997",
      "taf": "TAF LIBR 281100Z 2812/2912 18016KT 9999 SCT030"
    },
    {
      "icao": "LICA",
      "alert": "OK",
      "vis_m": 9999,
      "fzfg": false,
      "metar_trigger": false,
      "taf_trigger": false,
      "metar": "METAR LICA 281450Z AUTO 26012KT 9999 FEW035/// 16/12 Q1002",
      "taf": "TAF LICA 281100Z 2812/2912 27016KT 9999 SCT040"
    },
    {
      "icao": "LICC",
      "alert": "OK",
      "vis_m": 9999,
      "fzfg": false,
      "metar_trigger": false,
      "taf_trigger": false,
      "metar": "METAR LICC 281450Z 26015G26KT 9999 FEW120 18/15 Q1002",
      "taf": "TAF LICC 281100Z 2812/2912 25012KT 9999 SCT030"
    },
    {
      "icao": "LICJ",
      "alert": "OK",
      "vis_m": 9999,
      "fzfg": false,
      "metar_trigger": false,
      "taf_trigger": false,
      "metar": "METAR LICJ 281450Z 22017KT 9999 -RA VCSH SCT045CB 16/10 Q1003",
      "taf": "TAF LICJ 281100Z 2812/2912 23022G32KT 9999 SCT040"
    },
    {
      "icao": "LIMC",
      "alert": "OK",
      "vis_m": 9999,
      "fzfg": false,
      "metar_trigger": false,
      "taf_trigger": false,
      "metar": "METAR LIMC 281450Z 03004KT 9999 FEW006 OVC035 06/05 Q0990 NOSIG",
      "taf": "TAF LIMC 281100Z 2812/2918 36010KT 3000 RA BKN014"
    },
    {
      "icao": "LIME",
      "alert": "OK",
      "vis_m": 9000,
      "fzfg": false,
      "metar_trigger": false,
      "taf_trigger": false,
      "metar": "METAR LIME 281450Z 26006KT 9000 SCT010 BKN035 07/06 Q0990 NOSIG",
      "taf": "TAF LIME 281100Z 2812/2912 VRB04KT 3000 RA BKN014"
    },
    {
      "icao": "LIMF",
      "alert": "OK",
      "vis_m": 9999,
      "fzfg": false,
      "metar_trigger": false,
      "taf_trigger": false,
      "metar": "METAR LIMF 281450Z 20004KT 170V230 9999 SCT015 BKN040 06/03 Q0990",
      "taf": "TAF LIMF 281100Z 2812/2912 VRB04KT 7000 FEW040"
    },
    {
      "icao": "LIMJ",
      "alert": "OK",
      "vis_m": 9999,
      "fzfg": false,
      "metar_trigger": false,
      "taf_trigger": false,
      "metar": "METAR LIMJ 281450Z 04009KT 9999 SCT047 SCT060 08/03 Q0990",
      "taf": "TAF LIMJ 281100Z 2812/2912 04015KT 4000 RA BKN014"
    },
    {
      "icao": "LIPE",
      "alert": "OK",
      "vis_m": 8000,
      "fzfg": false,
      "metar_trigger": false,
      "taf_trigger": false,
      "metar": "METAR LIPE 281450Z 27007KT 8000 -RA BKN005 08/07 Q0990",
      "taf": "TAF LIPE 281100Z 2812/2912 28008KT 6000 SCT010"
    },
    {
      "icao": "LIPH",
      "alert": "OK",
      "vis_m": 9999,
      "fzfg": false,
      "metar_trigger": false,
      "taf_trigger": false,
      "metar": "METAR LIPH 281450Z 05006KT 9999 BKN012 09/09 Q0989",
      "taf": ""
    },
    {
      "icao": "LIPQ",
      "alert": "OK",
      "vis_m": 9999,
      "fzfg": false,
      "metar_trigger": false,
      "taf_trigger": false,
      "metar": "METAR LIPQ 281450Z AUTO 14010KT 9999 -RA OVC014/// 11/10 Q0990 RERA",
      "taf": "TAF LIPQ 281100Z 2812/2912 12010KT 6000 RA OVC012"
    },
    {
      "icao": "LIPR",
      "alert": "OK",
      "vis_m": 9999,
      "fzfg": false,
      "metar_trigger": false,
      "taf_trigger": false,
      "metar": "METAR LIPR 281450Z AUTO 26009KT 9999 -RA BKN048/// BKN110/// 13/08 Q0989",
      "taf": "TAF LIPR 281100Z 2812/2912 14010KT 8000 SCT040"
    },
    {
      "icao": "LIPX",
      "alert": "OK",
      "vis_m": 9999,
      "fzfg": false,
      "metar_trigger": false,
      "taf_trigger": false,
      "metar": "METAR LIPX 281450Z 24006KT 190V260 9999 -DZ OVC020 08/05 Q0990",
      "taf": ""
    },
    {
      "icao": "LIPY",
      "alert": "OK",
      "vis_m": 9999,
      "fzfg": false,
      "metar_trigger": false,
      "taf_trigger": false,
      "metar": "METAR LIPY 281450Z AUTO VRB02KT 9999 OVC110/// 13/08 Q0989",
      "taf": "TAF LIPY 281100Z 2812/2912 14010KT 9999 FEW040 BKN070"
    },
    {
      "icao": "LIPZ",
      "alert": "OK",
      "vis_m": 9000,
      "fzfg": false,
      "metar_trigger": false,
      "taf_trigger": false,
      "metar": "METAR LIPZ 281450Z VRB02KT 9000 FEW025 SCT070 10/09 Q0989 NOSIG",
      "taf": ""
    },
    {
      "icao": "LIRF",
      "alert": "OK",
      "vis_m": 9999,
      "fzfg": false,
      "metar_trigger": false,
      "taf_trigger": false,
      "metar": "METAR LIRF 281450Z 25021G35KT 9999 BKN035 14/07 Q0994 NOSIG",
      "taf": "TAF LIRF 281100Z 2812/2918 24021G33KT 9999 SCT030"
    },
    {
      "icao": "LIRN",
      "alert": "OK",
      "vis_m": 9999,
      "fzfg": false,
      "metar_trigger": false,
      "taf_trigger": false,
      "metar": "METAR LIRN 281450Z 25015KT 9999 FEW020 BKN035 14/06 Q0996 NOSIG",
      "taf": "TAF LIRN 281100Z 2812/2912 23018G30KT 9999 SCT030"
    },
    {
      "icao": "LIRP",
      "alert": "OK",
      "vis_m": 9999,
      "fzfg": false,
      "metar_trigger": false,
      "taf_trigger": false,
      "metar": "METAR LIRP 281445Z 26008KT 9999 SCT030 BKN040 11/08 Q0991 NOSIG",
      "taf": "TAF LIRP 281100Z 2812/2912 26010KT 9999 SCT020 SCT040"
    },
    {
      "icao": "LIRZ",
      "alert": "OK",
      "vis_m": 9999,
      "fzfg": false,
      "metar_trigger": false,
      "taf_trigger": false,
      "metar": "METAR LIRZ 281450Z AUTO 15004KT 9999 -RA BKN028/// 08/07 Q0992 RERA",
      "taf": "TAF LIRZ 281100Z 2812/2912 20016KT 7000 BKN025"
    },
    {
      "icao": "LJLJ",
      "alert": "OK",
      "vis_m": 7000,
      "fzfg": false,
      "metar_trigger": false,
      "taf_trigger": false,
      "metar": "METAR LJLJ 281500Z VRB02KT 7000 -RA FEW002 SCT015 BKN030 06/05 Q0991 NOSIG",
      "taf": "TAF LJLJ 281100Z 2812/2912 29005KT 7000 -RA SCT003 BKN020 OVC033"
    },
    {
      "icao": "LKMT",
      "alert": "OK",
      "vis_m": 2500,
      "fzfg": false,
      "metar_trigger": false,
      "taf_trigger": false,
      "metar": "METAR LKMT 281500Z 01005KT 2500 BR BKN013 OVC037 02/00 Q0996 NOSIG",
      "taf": ""
    },
    {
      "icao": "LKPR",
      "alert": "OK",
      "vis_m": 4500,
      "fzfg": false,
      "metar_trigger": false,
      "taf_trigger": false,
      "metar": "METAR LKPR 281500Z 07009KT 4500 -DZ BR SCT007 BKN009 OVC015 00/M00 Q0994 NOSIG",
      "taf": "TAF LKPR 281400Z 2815/2921 06008KT 6000 BKN008"
    },
    {
      "icao": "LLBG",
      "alert": "OK",
      "vis_m": 9999,
      "fzfg": false,
      "metar_trigger": false,
      "taf_trigger": false,
      "metar": "METAR LLBG 281450Z 24012KT 9999 DZ SCT025 BKN040 16/11 Q1015 TEMPO 5000 TSRA FEW025CB BKN030",
      "taf": "TAF LLBG 281108Z 2812/2912 22017KT 8000 SCT035"
    },
    {
      "icao": "LMML",
      "alert": "OK",
      "vis_m": 9999,
      "fzfg": false,
      "metar_trigger": false,
      "taf_trigger": false,
      "metar": "METAR LMML 281515Z 24010KT 210V270 CAVOK 16/12 Q1006 NOSIG",
      "taf": "TAF LMML 281100Z 2812/2912 25011KT 9999 FEW030"
    },
    {
      "icao": "LOWW",
      "alert": "OK",
      "vis_m": 2000,
      "fzfg": false,
      "metar_trigger": false,
      "taf_trigger": false,
      "metar": "METAR LOWW 281450Z 18004KT 2000 0800E R16/P1500D R29/P1500D BR BCFG FEW001 OVC002 01/01 Q0993 NOSIG",
      "taf": ""
    },
    {
      "icao": "LPFR",
      "alert": "OK",
      "vis_m": 7000,
      "fzfg": false,
      "metar_trigger": false,
      "taf_trigger": false,
      "metar": "METAR LPFR 281500Z 25015KT 7000 SCT018 16/14 Q1007",
      "taf": "TAF LPFR 281100Z 2812/2912 26013KT 9999 SCT025"
    },
    {
      "icao": "LPMA",
      "alert": "OK",
      "vis_m": 9999,
      "fzfg": false,
      "metar_trigger": false,
      "taf_trigger": false,
      "metar": "METAR LPMA 281500Z 05005KT 350V090 9999 FEW014 20/15 Q1017",
      "taf": "TAF LPMA 281100Z 2812/2912 VRB05KT 9999 SCT015"
    },
    {
      "icao": "LPPR",
      "alert": "OK",
      "vis_m": 8000,
      "fzfg": false,
      "metar_trigger": false,
      "taf_trigger": false,
      "metar": "METAR LPPR 281500Z 25005KT 200V320 8000 -SHRA FEW015 FEW020TCU SCT030 12/10 Q1001",
      "taf": "TAF LPPR 281100Z 2812/2912 26012KT 9999 SCT025"
    },
    {
      "icao": "LPPS",
      "alert": "OK",
      "vis_m": 9999,
      "fzfg": false,
      "metar_trigger": false,
      "taf_trigger": false,
      "metar": "METAR LPPS 281500Z 28017G27KT 9999 FEW013 19/15 Q1017",
      "taf": "TAF LPPS 281100Z 2812/2918 27015KT 9999 SCT015 SCT030"
    },
    {
      "icao": "LPPT",
      "alert": "OK",
      "vis_m": 9999,
      "fzfg": false,
      "metar_trigger": false,
      "taf_trigger": false,
      "metar": "METAR LPPT 281500Z 25014KT 9999 SCT022 15/11 Q1005",
      "taf": "TAF LPPT 281100Z 2812/2918 27012KT 9999 SCT025"
    },
    {
      "icao": "LQBK",
      "alert": "OK",
      "vis_m": 9999,
      "fzfg": false,
      "metar_trigger": false,
      "taf_trigger": false,
      "metar": "METAR LQBK 281500Z 31004KT 9999 FEW040 BKN047 08/06 Q0992 NOSIG",
      "taf": ""
    },
    {
      "icao": "LQSA",
      "alert": "OK",
      "vis_m": 9999,
      "fzfg": false,
      "metar_trigger": false,
      "taf_trigger": false,
      "metar": "METAR LQSA 281500Z 14019KT 9999 SCT050 11/03 Q0994 TEMPO 15015G30KT",
      "taf": "TAF LQSA 281100Z 2812/2912 15020KT 9999 SCT050 TX12/2814Z TN03/2905Z"
    },
    {
      "icao": "LQTZ",
      "alert": "OK",
      "vis_m": 9999,
      "fzfg": false,
      "metar_trigger": false,
      "taf_trigger": false,
      "metar": "METAR LQTZ 281500Z 12005KT CAVOK 12/03 Q0994",
      "taf": "TAF LQTZ 281100Z 2812/2912 10005KT 9999 SCT060 TX14/2813Z TN02/2905Z"
    },
    {
      "icao": "LRBC",
      "alert": "OK",
      "vis_m": 700,
      "fzfg": false,
      "metar_trigger": false,
      "taf_trigger": false,
      "metar": "METAR LRBC 281500Z 20004KT 0700 R16/1200N FG VV003 01/01 Q1001",
      "taf": "TAF LRBC 281400Z 2815/2824 17008KT 0200 FG VV001"
    },
    {
      "icao": "LRBS",
      "alert": "OK",
      "vis_m": 9999,
      "fzfg": false,
      "metar_trigger": false,
      "taf_trigger": false,
      "metar": "METAR LRBS 281500Z 25004KT CAVOK 09/04 Q1003 NOSIG",
      "taf": "TAF LRBS 281100Z 2812/2912 24008KT 9999 SCT020"
    },
    {
      "icao": "LRBV",
      "alert": "OK",
      "vis_m": 9999,
      "fzfg": false,
      "metar_trigger": false,
      "taf_trigger": false,
      "metar": "METAR LRBV 281500Z 12008KT CAVOK 05/03 Q0999",
      "taf": "TAF LRBV 281400Z 2815/2824 11007KT CAVOK"
    },
    {
      "icao": "LRCL",
      "alert": "OK",
      "vis_m": 9999,
      "fzfg": false,
      "metar_trigger": false,
      "taf_trigger": false,
      "metar": "METAR LRCL 281500Z 07003KT 9999 BKN005 02/01 Q1000",
      "taf": "TAF LRCL 281400Z 2815/2824 08005KT 9999 OVC005"
    },
    {
      "icao": "LRCV",
      "alert": "OK",
      "vis_m": 400,
      "fzfg": false,
      "metar_trigger": false,
      "taf_trigger": false,
      "metar": "METAR LRCV 281500Z 08008KT 0400 R26/1100D FG BKN001 04/04 Q1002",
      "taf": "TAF LRCV 281400Z 2815/2824 08008KT 3000 BR BKN002"
    },
    {
      "icao": "LRIA",
      "alert": "OK",
      "vis_m": 9999,
      "fzfg": false,
      "metar_trigger": false,
      "taf_trigger": false,
      "metar": "METAR LRIA 281500Z 15005KT 130V190 9999 OVC005 02/02 Q1001",
      "taf": "TAF LRIA 281400Z 2815/2824 12008KT 9999 BKN001 OVC005"
    },
    {
      "icao": "LROP",
      "alert": "OK",
      "vis_m": 9999,
      "fzfg": false,
      "metar_trigger": false,
      "taf_trigger": false,
      "metar": "METAR LROP 281500Z 29003KT CAVOK 06/05 Q1002 NOSIG",
      "taf": "TAF LROP 281100Z 2812/2912 24008KT 9999 SCT020"
    },
    {
      "icao": "LRSB",
      "alert": "OK",
      "vis_m": 6000,
      "fzfg": false,
      "metar_trigger": false,
      "taf_trigger": false,
      "metar": "METAR LRSB 281500Z 28004KT 6000 NSC 04/04 Q0999",
      "taf": "TAF LRSB 281100Z 2812/2912 VRB04KT 9999 SCT005"
    },
    {
      "icao": "LRSM",
      "alert": "OK",
      "vis_m": 9999,
      "fzfg": false,
      "metar_trigger": false,
      "taf_trigger": false,
      "metar": "METAR LRSM 281500Z 17007KT 9999 BKN047 05/02 Q0999",
      "taf": "TAF LRSM 281400Z 2815/2824 11005KT 9999 BKN040"
    },
    {
      "icao": "LRSV",
      "alert": "OK",
      "vis_m": 100,
      "fzfg": false,
      "metar_trigger": false,
      "taf_trigger": false,
      "metar": "METAR LRSV 281500Z 10005KT 0100 R34/0225N FG VV001 00/00 Q0999",
      "taf": "TAF LRSV 281400Z 2815/2824 VRB04KT 0100 FG VV001"
    },
    {
      "icao": "LRTM",
      "alert": "OK",
      "vis_m": 300,
      "fzfg": false,
      "metar_trigger": false,
      "taf_trigger": false,
      "metar": "METAR LRTM 281500Z 22003KT 0300 R07/0900U FG BKN001 OVC004 01/01 Q1000",
      "taf": "TAF LRTM 281400Z 2815/2824 VRB04KT 0300 FG BKN001 OVC005"
    },
    {
      "icao": "LRTR",
      "alert": "OK",
      "vis_m": 9999,
      "fzfg": false,
      "metar_trigger": false,
      "taf_trigger": false,
      "metar": "METAR LRTR 281500Z 13007KT 9999 -RA NSC 09/03 Q0997 NOSIG",
      "taf": "TAF LRTR 281100Z 2812/2912 11010KT CAVOK"
    },
    {
      "icao": "LTAC",
      "alert": "OK",
      "vis_m": 9999,
      "fzfg": false,
      "metar_trigger": false,
      "taf_trigger": false,
      "metar": "METAR LTAC 281450Z 21005KT 9999 FEW021 BKN030 BKN080 06/03 Q1010 NOSIG RMK RWY21C 22007KT RWY03L 20004KT RWY21R 21006KT RWY03R 20006KT RWY21L 21006KT",
      "taf": "TAF LTAC 281040Z 2812/2912 VRB02KT 9999 SCT040 BKN100"
    },
    {
      "icao": "LTFM",
      "alert": "OK",
      "vis_m": 9999,
      "fzfg": false,
      "metar_trigger": false,
      "taf_trigger": false,
      "metar": "METAR LTFM 281450Z 21011KT 9999 SCT035 12/08 Q1007 NOSIG RMK RWY17L 21012KT RWY34L 21010KT RWY16R 21009KT RWY36 21010KT RWY18 21013KT",
      "taf": "TAF LTFM 281040Z 2812/2918 VRB02KT 9999 SCT018 BKN028"
    },
    {
      "icao": "LUKK",
      "alert": "OK",
      "vis_m": 350,
      "fzfg": false,
      "metar_trigger": false,
      "taf_trigger": false,
      "metar": "METAR LUKK 281500Z 14003KT 110V180 0350 R08/0450N -DZ FG VV002 01/01 Q1002 NOSIG",
      "taf": ""
    },
    {
      "icao": "LWOH",
      "alert": "OK",
      "vis_m": null,
      "fzfg": false,
      "metar_trigger": false,
      "taf_trigger": false,
      "metar": "",
      "taf": "TAF LWOH 281445Z 2815/2915 VRB03KT 9999 -RA BKN040"
    },
    {
      "icao": "LWSK",
      "alert": "OK",
      "vis_m": null,
      "fzfg": false,
      "metar_trigger": false,
      "taf_trigger": false,
      "metar": "",
      "taf": "TAF LWSK 281445Z 2815/2915 VRB02KT 9999 BKN060"
    },
    {
      "icao": "LYBE",
      "alert": "OK",
      "vis_m": 9999,
      "fzfg": false,
      "metar_trigger": false,
      "taf_trigger": false,
      "metar": "METAR LYBE 281500Z 13011KT CAVOK 11/02 Q0996 NOSIG",
      "taf": "TAF LYBE 281100Z 2812/2912 12012KT CAVOK TX14/2912Z TN06/2906Z"
    },
    {
      "icao": "LYNI",
      "alert": "OK",
      "vis_m": 9999,
      "fzfg": false,
      "metar_trigger": false,
      "taf_trigger": false,
      "metar": "METAR LYNI 281500Z 14007KT 110V170 CAVOK 11/M00 Q1000 NOSIG",
      "taf": "TAF LYNI 281100Z 2812/2912 13007KT CAVOK TX12/2813Z TN05/2906Z"
    },
    {
      "icao": "LYPG",
      "alert": "OK",
      "vis_m": 7000,
      "fzfg": false,
      "metar_trigger": false,
      "taf_trigger": false,
      "metar": "METAR LYPG 281500Z VRB02KT 7000 3000S -RA FEW010 BKN040 OVC070 08/08 Q1000 TEMPO 3000 BR",
      "taf": "TAF LYPG 281100Z 2812/2912 16006KT 9999 FEW010 BKN040 OVC070 TX10/2813Z TN05/2905Z"
    },
    {
      "icao": "LZIB",
      "alert": "OK",
      "vis_m": 9999,
      "fzfg": false,
      "metar_trigger": false,
      "taf_trigger": false,
      "metar": "METAR LZIB 281500Z 05010KT 9999 FEW009 BKN025 04/02 Q0994 NOSIG",
      "taf": "TAF LZIB 281115Z 2812/2912 06009KT 9999 BKN014 OVC030"
    },
    {
      "icao": "LZKZ",
      "alert": "OK",
      "vis_m": 700,
      "fzfg": false,
      "metar_trigger": false,
      "taf_trigger": false,
      "metar": "METAR LZKZ 281500Z 36003KT 0700 R01/1700D FG OVC010 00/00 Q0998 NOSIG",
      "taf": "TAF LZKZ 281115Z 2812/2912 VRB02KT 5000 BR BKN014 OVC025"
    },
    {
      "icao": "LZTT",
      "alert": "OK",
      "vis_m": 9999,
      "fzfg": false,
      "metar_trigger": false,
      "taf_trigger": false,
      "metar": "METAR LZTT 281500Z 08003KT 9999 FEW012 01/M01 Q0995 NOSIG",
      "taf": ""
    },
    {
      "icao": "OEJN",
      "alert": "OK",
      "vis_m": 9999,
      "fzfg": false,
      "metar_trigger": false,
      "taf_trigger": false,
      "metar": "METAR OEJN 281500Z 33015KT CAVOK 26/15 Q1015 NOSIG",
      "taf": "TAF OEJN 281100Z 2812/2918 30015KT 9999 SCT040"
    },
    {
      "icao": "OEMA",
      "alert": "OK",
      "vis_m": 9999,
      "fzfg": false,
      "metar_trigger": false,
      "taf_trigger": false,
      "metar": "METAR OEMA 281500Z 22010KT CAVOK 26/00 Q1017 NOSIG",
      "taf": "TAF OEMA 281100Z 2812/2918 25015KT 7000 FEW040"
    },
    {
      "icao": "OJAI",
      "alert": "OK",
      "vis_m": 3000,
      "fzfg": false,
      "metar_trigger": false,
      "taf_trigger": false,
      "metar": "METAR OJAI 281500Z 26016KT 3000 BLDU SCT030 11/05 Q1016 NOSIG",
      "taf": "TAF OJAI 281035Z 2812/2918 24014KT 2500 DU SCT035"
    },
    {
      "icao": "OMAA",
      "alert": "OK",
      "vis_m": 9999,
      "fzfg": false,
      "metar_trigger": false,
      "taf_trigger": false,
      "metar": "METAR OMAA 281500Z 33009KT CAVOK 21/14 Q1018 NOSIG",
      "taf": "TAF OMAA 281100Z 2812/2918 21008KT 8000 NSC"
    },
    {
      "icao": "OMDB",
      "alert": "OK",
      "vis_m": 9999,
      "fzfg": false,
      "metar_trigger": false,
      "taf_trigger": false,
      "metar": "METAR OMDB 281500Z 02007KT 340V070 CAVOK 23/14 Q1019 NOSIG",
      "taf": "TAF OMDB 281100Z 2812/2918 34010KT 8000 NSC"
    },
    {
      "icao": "UAAA",
      "alert": "CRITICAL",
      "vis_m": 50,
      "fzfg": true,
      "metar_trigger": true,
      "taf_trigger": false,
      "metar": "METAR UAAA 281500Z VRB01MPS 0050 R23L/0350N FZFG VV002 M02/M02 Q1024 NOSIG RMK QBB070",
      "taf": ""
    },
    {
      "icao": "UBBB",
      "alert": "OK",
      "vis_m": 9999,
      "fzfg": false,
      "metar_trigger": false,
      "taf_trigger": false,
      "metar": "METAR UBBB 281500Z 15010KT 9999 BKN036 06/03 Q1017 NOSIG",
      "taf": "TAF UBBB 281058Z 2812/2912 15012KT 8000 SCT012 OVC025 TX07/2812Z TN05/2901Z"
    },
    {
      "icao": "UDSG",
      "alert": "OK",
      "vis_m": 3100,
      "fzfg": false,
      "metar_trigger": false,
      "taf_trigger": false,
      "metar": "METAR UDSG 281500Z 13006KT 3100 BR FEW040 M11/M12 Q1015 NOSIG",
      "taf": "TAF UDSG 281058Z 2812/2912 VRB06KT 3000 BR SCT020"
    },
    {
      "icao": "UDYZ",
      "alert": "OK",
      "vis_m": 4700,
      "fzfg": false,
      "metar_trigger": false,
      "taf_trigger": false,
      "metar": "METAR UDYZ 281500Z VRB01KT 4700 BR BKN012 M04/M06 Q1018 NOSIG",
      "taf": "TAF UDYZ 281100Z 2812/2912 VRB04KT 3500 BR BKN010"
    },
    {
      "icao": "UGKO",
      "alert": "OK",
      "vis_m": 9999,
      "fzfg": false,
      "metar_trigger": false,
      "taf_trigger": false,
      "metar": "METAR UGKO 281500Z 09014KT CAVOK 11/M01 Q1010 NOSIG",
      "taf": "TAF UGKO 281100Z 2812/2912 09007KT CAVOK TX16/2911Z TN03/2905Z"
    }
  ]
}