{
  "ts_utc": "2026-01-21T02:53:35Z",
  "threshold_m": 150,
  "source": "stations_override.txt (ICAO list) + aviationweather.gov (METAR/TAF raw)",
  "station_count": 159,
  "stations": [
    {
      "icao": "BIKF",
      "alert": "OK",
      "vis_m": 9999,
      "fzfg": false,
      "metar_trigger": false,
      "taf_trigger": false,
      "metar": "METAR BIKF 210230Z 03010KT CAVOK 01/M00 Q1000",
      "taf": "TAF BIKF 210103Z 2103/2203 05012KT 9999 FEW020 BKN045 TX05/2116Z TN02/2103Z"
    },
    {
      "icao": "BKPR",
      "alert": "OK",
      "vis_m": null,
      "fzfg": false,
      "metar_trigger": false,
      "taf_trigger": false,
      "metar": "",
      "taf": "TAF BKPR 202330Z 2100/2124 13008KT SCT030 SCT070"
    },
    {
      "icao": "EBCI",
      "alert": "OK",
      "vis_m": 9999,
      "fzfg": false,
      "metar_trigger": false,
      "taf_trigger": false,
      "metar": "METAR EBCI 210220Z 17007KT 9999 BKN045 06/00 Q1007 NOSIG",
      "taf": "TAF EBCI 202310Z 2100/2206 15009KT 9999 SCT040"
    },
    {
      "icao": "EDDB",
      "alert": "OK",
      "vis_m": 9999,
      "fzfg": false,
      "metar_trigger": false,
      "taf_trigger": false,
      "metar": "METAR EDDB 210220Z AUTO 12004KT CAVOK M07/M09 Q1014 NOSIG",
      "taf": "TAF EDDB 202300Z 2100/2124 12005KT CAVOK"
    },
    {
      "icao": "EDDH",
      "alert": "OK",
      "vis_m": 9999,
      "fzfg": false,
      "metar_trigger": false,
      "taf_trigger": false,
      "metar": "METAR EDDH 210220Z AUTO 13005KT CAVOK M03/M06 Q1012 NOSIG",
      "taf": "TAF EDDH 202300Z 2100/2206 10006KT CAVOK"
    },
    {
      "icao": "EDDK",
      "alert": "OK",
      "vis_m": 9999,
      "fzfg": false,
      "metar_trigger": false,
      "taf_trigger": false,
      "metar": "METAR EDDK 210220Z AUTO 12011KT 090V150 CAVOK 02/M03 Q1010 NOSIG",
      "taf": "TAF EDDK 202300Z 2100/2206 12009KT CAVOK"
    },
    {
      "icao": "EDDN",
      "alert": "OK",
      "vis_m": 9999,
      "fzfg": false,
      "metar_trigger": false,
      "taf_trigger": false,
      "metar": "METAR EDDN 210220Z AUTO 10006KT CAVOK M06/M09 Q1014",
      "taf": "TAF EDDN 202300Z 2100/2124 11006KT CAVOK"
    },
    {
      "icao": "EDDS",
      "alert": "OK",
      "vis_m": 2400,
      "fzfg": false,
      "metar_trigger": false,
      "taf_trigger": false,
      "metar": "METAR EDDS 210220Z AUTO 07002KT 2400 BR NCD M05/M05 Q1011",
      "taf": "TAF EDDS 202300Z 2100/2124 VRB03KT CAVOK"
    },
    {
      "icao": "EDFH",
      "alert": "OK",
      "vis_m": 6000,
      "fzfg": false,
      "metar_trigger": false,
      "taf_trigger": false,
      "metar": "METAR EDFH 210220Z 13016KT 6000 NSC M02/M03 Q1010",
      "taf": ""
    },
    {
      "icao": "EDJA",
      "alert": "OK",
      "vis_m": 550,
      "fzfg": false,
      "metar_trigger": false,
      "taf_trigger": false,
      "metar": "METAR EDJA 210220Z AUTO 00000KT 0550 R24/0700D // SCT002/// M06/M08 Q1011",
      "taf": "TAF EDJA 210200Z 2103/2112 VRB02KT 1200 BCFG NSC"
    },
    {
      "icao": "EDLW",
      "alert": "OK",
      "vis_m": 9999,
      "fzfg": false,
      "metar_trigger": false,
      "taf_trigger": false,
      "metar": "METAR EDLW 210220Z AUTO 13011KT 9999 // NCD 05/M03 Q1009",
      "taf": "TAF EDLW 201700Z 2018/2118 14005KT CAVOK"
    },
    {
      "icao": "EDNY",
      "alert": "OK",
      "vis_m": 550,
      "fzfg": true,
      "metar_trigger": false,
      "taf_trigger": false,
      "metar": "METAR EDNY 210220Z AUTO VRB02KT 0550 R24/0650U // VV/// M03/M04 Q1013",
      "taf": "TAF EDNY 210200Z 2103/2112 VRB02KT 0500 FZFG VV001"
    },
    {
      "icao": "EDSB",
      "alert": "OK",
      "vis_m": 1300,
      "fzfg": true,
      "metar_trigger": false,
      "taf_trigger": false,
      "metar": "METAR EDSB 210220Z AUTO 16003KT 1300 0900 R21/1700D VV/// M01/M02 Q1013",
      "taf": "TAF EDSB 202300Z 2100/2124 VRB03KT 0600 FZFG VV003"
    },
    {
      "icao": "EETN",
      "alert": "OK",
      "vis_m": 4300,
      "fzfg": false,
      "metar_trigger": false,
      "taf_trigger": false,
      "metar": "METAR EETN 210250Z 08004KT 4300 -SN BR SCT002 OVC004 M03/M03 Q1022",
      "taf": "TAF EETN 202330Z 2100/2124 VRB02KT 5000 BR OVC006"
    },
    {
      "icao": "EFTU",
      "alert": "OK",
      "vis_m": 8000,
      "fzfg": false,
      "metar_trigger": false,
      "taf_trigger": false,
      "metar": "METAR EFTU 210250Z AUTO VRB02KT 8000 -SN OVC015 M03/M04 Q1023",
      "taf": "TAF EFTU 210237Z 2103/2203 04003KT 9000 -SN BKN006"
    },
    {
      "icao": "EGBB",
      "alert": "OK",
      "vis_m": 9999,
      "fzfg": false,
      "metar_trigger": false,
      "taf_trigger": false,
      "metar": "METAR EGBB 210220Z 16006KT 9999 FEW008 BKN023 05/04 Q0995",
      "taf": "TAF EGBB 202258Z 2100/2124 14017KT 9999 BKN020"
    },
    {
      "icao": "EGGP",
      "alert": "OK",
      "vis_m": 9999,
      "fzfg": false,
      "metar_trigger": false,
      "taf_trigger": false,
      "metar": "METAR EGGP 210220Z 16004KT 130V210 9999 FEW044 04/03 Q0993",
      "taf": ""
    },
    {
      "icao": "EGGW",
      "alert": "OK",
      "vis_m": 9999,
      "fzfg": false,
      "metar_trigger": false,
      "taf_trigger": false,
      "metar": "METAR EGGW 210220Z AUTO 19010KT 160V220 9999 FEW039/// //////TCU 05/04 Q0996",
      "taf": "TAF EGGW 202258Z 2100/2124 17012KT 9999 BKN020"
    },
    {
      "icao": "EGKK",
      "alert": "OK",
      "vis_m": 9999,
      "fzfg": false,
      "metar_trigger": false,
      "taf_trigger": false,
      "metar": "METAR EGKK 210220Z 20007KT 9999 BKN016 07/06 Q0998",
      "taf": "TAF EGKK 202256Z 2100/2206 15009KT 9999 SCT020"
    },
    {
      "icao": "EGNM",
      "alert": "OK",
      "vis_m": null,
      "fzfg": false,
      "metar_trigger": false,
      "taf_trigger": false,
      "metar": "",
      "taf": "TAF EGNM 201704Z 2018/2118 13015G25KT 9999 BKN015"
    },
    {
      "icao": "EGPD",
      "alert": "OK",
      "vis_m": 9999,
      "fzfg": false,
      "metar_trigger": false,
      "taf_trigger": false,
      "metar": "METAR EGPD 210220Z AUTO 13015G27KT 9999 BKN012 OVC025 07/05 Q0999 TEMPO BKN008",
      "taf": "TAF EGPD 202255Z 2100/2124 13018G32KT 9999 SCT012 BKN020"
    },
    {
      "icao": "EGPF",
      "alert": "OK",
      "vis_m": 9999,
      "fzfg": false,
      "metar_trigger": false,
      "taf_trigger": false,
      "metar": "METAR EGPF 210220Z AUTO 09011KT 9999 -RA OVC020/// //////TCU 07/05 Q0993",
      "taf": "TAF EGPF 202302Z 2100/2124 11015G28KT 9999 SCT035"
    },
    {
      "icao": "EHBK",
      "alert": "OK",
      "vis_m": 9999,
      "fzfg": false,
      "metar_trigger": false,
      "taf_trigger": false,
      "metar": "METAR EHBK 210225Z AUTO 12004KT 9999 NSC 04/02 Q1008",
      "taf": "TAF EHBK 202320Z 2100/2206 17006KT CAVOK"
    },
    {
      "icao": "EHEH",
      "alert": "OK",
      "vis_m": 9999,
      "fzfg": false,
      "metar_trigger": false,
      "taf_trigger": false,
      "metar": "METAR EHEH 210225Z AUTO 16003KT 130V190 9999 OVC092 01/M00 Q1008 BLU",
      "taf": "TAF EHEH 202326Z 2100/2206 13006KT CAVOK"
    },
    {
      "icao": "EKBI",
      "alert": "OK",
      "vis_m": 9000,
      "fzfg": false,
      "metar_trigger": false,
      "taf_trigger": false,
      "metar": "METAR EKBI 210220Z AUTO 07013KT 9000 OVC010/// 00/M01 Q1014",
      "taf": "TAF EKBI 210227Z 2103/2203 08010KT 7000 BKN010"
    },
    {
      "icao": "EKCH",
      "alert": "OK",
      "vis_m": 9999,
      "fzfg": false,
      "metar_trigger": false,
      "taf_trigger": false,
      "metar": "METAR EKCH 210220Z AUTO 07007KT 9999 NCD M01/M03 Q1016 NOSIG",
      "taf": "TAF EKCH 210227Z 2103/2203 07010KT 8000 NSC"
    },
    {
      "icao": "ENAL",
      "alert": "OK",
      "vis_m": 9999,
      "fzfg": false,
      "metar_trigger": false,
      "taf_trigger": false,
      "metar": "METAR ENAL 210220Z AUTO 14011KT 9999 NCD 02/01 Q1016",
      "taf": "TAF ENAL 210200Z 2103/2112 13012KT 9999 FEW025"
    },
    {
      "icao": "ENBR",
      "alert": "OK",
      "vis_m": 9999,
      "fzfg": false,
      "metar_trigger": false,
      "taf_trigger": false,
      "metar": "METAR ENBR 210220Z AUTO VRB02KT 9999 NCD M01/M02 Q1013 RMK WIND 1200FT 05005KT",
      "taf": "TAF ENBR 202300Z 2100/2124 08005KT CAVOK"
    },
    {
      "icao": "ENGM",
      "alert": "OK",
      "vis_m": 9999,
      "fzfg": false,
      "metar_trigger": false,
      "taf_trigger": false,
      "metar": "METAR ENGM 210220Z 02006KT 9999 OVC015 M04/M07 Q1022",
      "taf": "TAF ENGM 202300Z 2100/2124 02008KT 9999 OVC012"
    },
    {
      "icao": "ENHD",
      "alert": "OK",
      "vis_m": 9999,
      "fzfg": false,
      "metar_trigger": false,
      "taf_trigger": false,
      "metar": "METAR ENHD 210220Z AUTO 22002KT 9999 NCD M02/M03 Q1014",
      "taf": "TAF ENHD 210200Z 2103/2112 17005KT CAVOK"
    },
    {
      "icao": "ENTC",
      "alert": "OK",
      "vis_m": 9999,
      "fzfg": false,
      "metar_trigger": false,
      "taf_trigger": false,
      "metar": "METAR ENTC 210220Z AUTO VRB02KT 9999 NCD M08/M09 Q1026 RMK WIND 2600FT 07003KT",
      "taf": "TAF ENTC 202300Z 2100/2124 VRB02KT 9999 NSC"
    },
    {
      "icao": "ENTO",
      "alert": "OK",
      "vis_m": 9999,
      "fzfg": false,
      "metar_trigger": false,
      "taf_trigger": false,
      "metar": "METAR ENTO 210220Z AUTO 03011KT 360V070 9999 OVC013/// M04/M06 Q1022",
      "taf": "TAF ENTO 202300Z 2100/2124 03010KT 9999 OVC012"
    },
    {
      "icao": "ENVA",
      "alert": "OK",
      "vis_m": 9999,
      "fzfg": false,
      "metar_trigger": false,
      "taf_trigger": false,
      "metar": "METAR ENVA 210220Z AUTO 08004KT 9999 NCD M03/M07 Q1021 RMK WIND 670FT 12010KT",
      "taf": "TAF ENVA 202300Z 2100/2124 09008KT CAVOK"
    },
    {
      "icao": "ENZV",
      "alert": "OK",
      "vis_m": 9999,
      "fzfg": false,
      "metar_trigger": false,
      "taf_trigger": false,
      "metar": "METAR ENZV 210220Z AUTO 14003KT 9999 NCD M02/M03 Q1014",
      "taf": "TAF ENZV 202300Z 2100/2124 10005KT CAVOK"
    },
    {
      "icao": "EPGD",
      "alert": "CRITICAL",
      "vis_m": 100,
      "fzfg": true,
      "metar_trigger": true,
      "taf_trigger": false,
      "metar": "METAR EPGD 210230Z VRB01KT 0100 R29/0375N FZFG SCT000 M14/M15 Q1017",
      "taf": "TAF EPGD 202330Z 2100/2124 VRB02KT 1200 BR NSC"
    },
    {
      "icao": "EPKK",
      "alert": "OK",
      "vis_m": 2500,
      "fzfg": false,
      "metar_trigger": false,
      "taf_trigger": false,
      "metar": "METAR EPKK 210230Z 06004KT 2500 BR NSC M13/M15 Q1019",
      "taf": "TAF EPKK 210230Z 2103/2203 VRB02KT 3000 BR NSC"
    },
    {
      "icao": "EPKT",
      "alert": "OK",
      "vis_m": 3800,
      "fzfg": false,
      "metar_trigger": false,
      "taf_trigger": false,
      "metar": "METAR EPKT 210230Z VRB02KT 3800 BR NSC M13/M14 Q1018",
      "taf": "TAF EPKT 202330Z 2100/2124 11004KT 6000 NSC"
    },
    {
      "icao": "EPLB",
      "alert": "OK",
      "vis_m": 8000,
      "fzfg": false,
      "metar_trigger": false,
      "taf_trigger": false,
      "metar": "METAR EPLB 210230Z VRB02KT 8000 NSC M10/M10 Q1020",
      "taf": ""
    },
    {
      "icao": "EPMO",
      "alert": "OK",
      "vis_m": 3500,
      "fzfg": false,
      "metar_trigger": false,
      "taf_trigger": false,
      "metar": "METAR EPMO 210230Z 12003KT 3500 BR NSC M12/M13 Q1019",
      "taf": "TAF EPMO 202330Z 2100/2124 12004KT 3000 BR NSC"
    },
    {
      "icao": "EPPO",
      "alert": "OK",
      "vis_m": 9999,
      "fzfg": false,
      "metar_trigger": false,
      "taf_trigger": false,
      "metar": "METAR EPPO 210230Z 12003KT CAVOK M07/M09 Q1016",
      "taf": "TAF EPPO 202330Z 2100/2124 13005KT CAVOK"
    },
    {
      "icao": "EPRA",
      "alert": "OK",
      "vis_m": 8000,
      "fzfg": false,
      "metar_trigger": false,
      "taf_trigger": false,
      "metar": "METAR EPRA 210230Z 14004KT 110V170 8000 NSC M10/M13 Q1019",
      "taf": "TAF EPRA 210230Z 2103/2112 15006KT 8000 NSC"
    },
    {
      "icao": "EPRZ",
      "alert": "OK",
      "vis_m": 9999,
      "fzfg": false,
      "metar_trigger": false,
      "taf_trigger": false,
      "metar": "METAR EPRZ 210230Z 08003KT CAVOK M11/M13 Q1021",
      "taf": "TAF EPRZ 202330Z 2100/2124 20006KT 6000 NSC"
    },
    {
      "icao": "EPSC",
      "alert": "OK",
      "vis_m": 9999,
      "fzfg": false,
      "metar_trigger": false,
      "taf_trigger": false,
      "metar": "METAR EPSC 210230Z 12005KT CAVOK M06/M08 Q1016",
      "taf": "TAF EPSC 202330Z 2100/2124 13005KT CAVOK"
    },
    {
      "icao": "EPSY",
      "alert": "OK",
      "vis_m": 1800,
      "fzfg": false,
      "metar_trigger": false,
      "taf_trigger": false,
      "metar": "METAR EPSY 210230Z VRB01KT 1800 BR NSC M17/M18 Q1018",
      "taf": "TAF EPSY 210230Z 2103/2112 VRB02KT 3000 BR NSC"
    },
    {
      "icao": "EPWA",
      "alert": "OK",
      "vis_m": 4800,
      "fzfg": false,
      "metar_trigger": false,
      "taf_trigger": false,
      "metar": "METAR EPWA 210230Z 13006KT 4800 BR NSC M12/M13 Q1020 TEMPO 3000 BR",
      "taf": "TAF EPWA 210230Z 2103/2203 13005KT 7000 NSC"
    },
    {
      "icao": "EPWR",
      "alert": "OK",
      "vis_m": 9999,
      "fzfg": false,
      "metar_trigger": false,
      "taf_trigger": false,
      "metar": "METAR EPWR 210230Z 16011KT CAVOK M02/M09 Q1016",
      "taf": "TAF EPWR 210230Z 2103/2203 18010KT CAVOK"
    },
    {
      "icao": "ESGG",
      "alert": "OK",
      "vis_m": 9999,
      "fzfg": false,
      "metar_trigger": false,
      "taf_trigger": false,
      "metar": "METAR ESGG 210220Z 08009KT 9999 OVC008 M03/M05 Q1018",
      "taf": "TAF ESGG 210230Z 2103/2203 07010KT 9000 OVC004"
    },
    {
      "icao": "ESKN",
      "alert": "OK",
      "vis_m": 9999,
      "fzfg": false,
      "metar_trigger": false,
      "taf_trigger": false,
      "metar": "METAR ESKN 210220Z 01007KT 330V030 9999 OVC009 M02/M03 Q1020",
      "taf": "TAF ESKN 210230Z 2103/2203 36007KT 9999 OVC012"
    },
    {
      "icao": "ESMS",
      "alert": "OK",
      "vis_m": 6000,
      "fzfg": false,
      "metar_trigger": false,
      "taf_trigger": false,
      "metar": "METAR ESMS 210220Z 08005KT 6000 NSC M03/M04 Q1015",
      "taf": "TAF ESMS 210227Z 2103/2203 07008KT 8000 NSC"
    },
    {
      "icao": "ESSA",
      "alert": "OK",
      "vis_m": 9999,
      "fzfg": false,
      "metar_trigger": false,
      "taf_trigger": false,
      "metar": "METAR ESSA 210220Z 03008KT 9999 OVC017 M02/M04 Q1021 TEMPO OVC020",
      "taf": "TAF ESSA 210230Z 2103/2203 03008KT 9999 OVC020"
    },
    {
      "icao": "EYKA",
      "alert": "OK",
      "vis_m": 3100,
      "fzfg": false,
      "metar_trigger": false,
      "taf_trigger": false,
      "metar": "METAR EYKA 210250Z VRB01KT 3100 BR SCT005 M16/M18 Q1019",
      "taf": "TAF EYKA 202300Z 2100/2124 VRB03KT 3000 BR NSC"
    },
    {
      "icao": "EYPA",
      "alert": "OK",
      "vis_m": 6000,
      "fzfg": false,
      "metar_trigger": false,
      "taf_trigger": false,
      "metar": "METAR EYPA 210250Z 11006KT 6000 BKN004 OVC008 M10/M12 Q1019",
      "taf": ""
    },
    {
      "icao": "EYVI",
      "alert": "OK",
      "vis_m": 3700,
      "fzfg": false,
      "metar_trigger": false,
      "taf_trigger": false,
      "metar": "METAR EYVI 210250Z COR 17005KT 3700 BR NSC M15/M17 Q1019 NOSIG",
      "taf": "TAF EYVI 202300Z 2100/2124 VRB04KT 3000 BR NSC"
    },
    {
      "icao": "GCFV",
      "alert": "OK",
      "vis_m": 9999,
      "fzfg": false,
      "metar_trigger": false,
      "taf_trigger": false,
      "metar": "METAR GCFV 210230Z AUTO 33007KT CAVOK 15/09 Q1022",
      "taf": "TAF GCFV 210200Z 2103/2203 30005KT 9999 SCT035 TX21/2114Z TN14/2106Z"
    },
    {
      "icao": "GCLP",
      "alert": "OK",
      "vis_m": 9999,
      "fzfg": false,
      "metar_trigger": false,
      "taf_trigger": false,
      "metar": "METAR GCLP 210230Z 34008KT 9999 BKN040 16/11 Q1023 NOSIG",
      "taf": "TAF GCLP 210200Z 2103/2203 33008KT 9999 BKN025 TX21/2114Z TN14/2106Z"
    },
    {
      "icao": "GCTS",
      "alert": "OK",
      "vis_m": 9999,
      "fzfg": false,
      "metar_trigger": false,
      "taf_trigger": false,
      "metar": "METAR GCTS 210230Z 03004KT 010V070 9999 SCT040 16/09 Q1023 NOSIG",
      "taf": "TAF GCTS 210200Z 2103/2203 36005KT 9999 FEW035 TX22/2114Z TN14/2106Z"
    },
    {
      "icao": "GMAD",
      "alert": "OK",
      "vis_m": 9999,
      "fzfg": false,
      "metar_trigger": false,
      "taf_trigger": false,
      "metar": "METAR GMAD 210230Z 05005KT CAVOK 08/08 Q1019 NOSIG",
      "taf": "TAF GMAD 202300Z 2100/2206 05003KT"
    },
    {
      "icao": "GMMN",
      "alert": "OK",
      "vis_m": 8000,
      "fzfg": false,
      "metar_trigger": false,
      "taf_trigger": false,
      "metar": "METAR GMMN 210230Z 20006KT 8000 BKN023 08/07 Q1020 NOSIG",
      "taf": "TAF GMMN 202300Z 2100/2206 20005KT 8000 BKN034"
    },
    {
      "icao": "GMMX",
      "alert": "OK",
      "vis_m": 8000,
      "fzfg": false,
      "metar_trigger": false,
      "taf_trigger": false,
      "metar": "METAR GMMX 210230Z 16003KT 8000 NSC 08/05 Q1020 NOSIG",
      "taf": "TAF GMMX 202300Z 2100/2206 28006KT 8000 SCT026"
    },
    {
      "icao": "HEGN",
      "alert": "OK",
      "vis_m": 9999,
      "fzfg": false,
      "metar_trigger": false,
      "taf_trigger": false,
      "metar": "METAR HEGN 210200Z 29006KT CAVOK 12/04 Q1019 NOSIG",
      "taf": "TAF HEGN 202300Z 2100/2206 30012KT CAVOK"
    },
    {
      "icao": "HEMA",
      "alert": "OK",
      "vis_m": 9999,
      "fzfg": false,
      "metar_trigger": false,
      "taf_trigger": false,
      "metar": "METAR HEMA 210200Z 26010KT 9999 FEW025 17/11 Q1017 NOSIG",
      "taf": "TAF HEMA 202300Z 2100/2206 29012KT CAVOK"
    },
    {
      "icao": "HESH",
      "alert": "OK",
      "vis_m": 9999,
      "fzfg": false,
      "metar_trigger": false,
      "taf_trigger": false,
      "metar": "METAR HESH 210200Z 35012KT CAVOK 16/06 Q1019 NOSIG",
      "taf": "TAF HESH 202300Z 2100/2206 34010KT CAVOK"
    },
    {
      "icao": "HESX",
      "alert": "OK",
      "vis_m": 9999,
      "fzfg": false,
      "metar_trigger": false,
      "taf_trigger": false,
      "metar": "METAR HESX 210200Z 06011KT CAVOK 10/04 Q1020 NOSIG",
      "taf": "TAF HESX 202300Z 2100/2206 07014KT 6000 NSC"
    },
    {
      "icao": "LATI",
      "alert": "OK",
      "vis_m": 9999,
      "fzfg": false,
      "metar_trigger": false,
      "taf_trigger": false,
      "metar": "METAR LATI 210250Z 15007KT 110V190 9999 -RA SCT045 OVC070 07/02 Q1015 NOSIG",
      "taf": "TAF LATI 202300Z 2100/2124 VRB05KT 9999 OVC080 TX11/2112Z TN04/2101Z"
    },
    {
      "icao": "LBPD",
      "alert": "OK",
      "vis_m": 9999,
      "fzfg": false,
      "metar_trigger": false,
      "taf_trigger": false,
      "metar": "METAR LBPD 210230Z AUTO 27003KT 9999 OVC240/// M05/M05 Q1028",
      "taf": "TAF LBPD 202300Z 2100/2124 VRB03KT 9999 SCT040 BKN070"
    },
    {
      "icao": "LBSF",
      "alert": "OK",
      "vis_m": 9999,
      "fzfg": false,
      "metar_trigger": false,
      "taf_trigger": false,
      "metar": "METAR LBSF 210230Z AUTO 10008KT 9999 NSC M04/M08 Q1024 NOSIG",
      "taf": "TAF LBSF 202300Z 2100/2124 11012KT 9999 SCT060"
    },
    {
      "icao": "LBWN",
      "alert": "OK",
      "vis_m": 9000,
      "fzfg": false,
      "metar_trigger": false,
      "taf_trigger": false,
      "metar": "METAR LBWN 210230Z AUTO VRB01KT 9000 OVC022/// M06/M06 Q1028 TEMPO 3000 BR",
      "taf": "TAF LBWN 202300Z 2100/2124 VRB03KT 5000 BR BKN012"
    },
    {
      "icao": "LCLK",
      "alert": "OK",
      "vis_m": 9999,
      "fzfg": false,
      "metar_trigger": false,
      "taf_trigger": false,
      "metar": "METAR LCLK 210230Z 34006KT CAVOK 06/02 Q1025 NOSIG",
      "taf": "TAF LCLK 202330Z 2100/2200 32008KT CAVOK"
    },
    {
      "icao": "LCPH",
      "alert": "OK",
      "vis_m": 9999,
      "fzfg": false,
      "metar_trigger": false,
      "taf_trigger": false,
      "metar": "METAR LCPH 210230Z AUTO 02003KT 9999 NCD 06/M02 Q1024 NOSIG",
      "taf": "TAF LCPH 202330Z 2100/2200 06008KT CAVOK"
    },
    {
      "icao": "LEAL",
      "alert": "OK",
      "vis_m": 9999,
      "fzfg": false,
      "metar_trigger": false,
      "taf_trigger": false,
      "metar": "METAR LEAL 210230Z 30014KT 9999 -RA BKN045 11/07 Q1011 NOSIG",
      "taf": "TAF LEAL 202300Z 2100/2124 33009KT 9999 BKN050 TX19/2113Z TN10/2106Z"
    },
    {
      "icao": "LEBB",
      "alert": "OK",
      "vis_m": 9999,
      "fzfg": false,
      "metar_trigger": false,
      "taf_trigger": false,
      "metar": "METAR LEBB 210230Z AUTO 14009KT 110V170 CAVOK 13/05 Q1006",
      "taf": "TAF LEBB 202300Z 2100/2124 20009KT 9999 FEW060 TX14/2115Z TN09/2124Z"
    },
    {
      "icao": "LEBL",
      "alert": "OK",
      "vis_m": 9000,
      "fzfg": false,
      "metar_trigger": false,
      "taf_trigger": false,
      "metar": "METAR LEBL 210230Z 34006KT 9000 FEW025 SCT060 11/10 Q1012 NOSIG",
      "taf": "TAF LEBL 202300Z 2100/2124 35007KT 9999 BKN020 TX14/2113Z TN08/2106Z"
    },
    {
      "icao": "LECH",
      "alert": "OK",
      "vis_m": 9999,
      "fzfg": false,
      "metar_trigger": false,
      "taf_trigger": false,
      "metar": "METAR LECH 210230Z AUTO 03006KT 350V060 9999 SCT021 BKN035 09/06 Q1012",
      "taf": ""
    },
    {
      "icao": "LEMD",
      "alert": "OK",
      "vis_m": 9999,
      "fzfg": false,
      "metar_trigger": false,
      "taf_trigger": false,
      "metar": "METAR LEMD 210230Z 32002KT CAVOK M00/M01 Q1014 NOSIG",
      "taf": "TAF LEMD 202300Z 2100/2206 VRB03KT CAVOK TX08/2114Z TNM02/2106Z"
    },
    {
      "icao": "LEMG",
      "alert": "OK",
      "vis_m": 9999,
      "fzfg": false,
      "metar_trigger": false,
      "taf_trigger": false,
      "metar": "METAR LEMG 210230Z 29013KT 260V320 CAVOK 10/03 Q1016 NOSIG",
      "taf": "TAF LEMG 202300Z 2100/2124 30012KT CAVOK TX17/2114Z TN08/2107Z"
    },
    {
      "icao": "LEVC",
      "alert": "OK",
      "vis_m": 9999,
      "fzfg": false,
      "metar_trigger": false,
      "taf_trigger": false,
      "metar": "METAR LEVC 210230Z 28003KT 9999 -RA BKN019 OVC028 09/08 Q1013 NOSIG",
      "taf": "TAF LEVC 202300Z 2100/2124 30007KT 9999 BKN030 OVC035 TX15/2113Z TN09/2106Z"
    },
    {
      "icao": "LEXJ",
      "alert": "OK",
      "vis_m": 9999,
      "fzfg": false,
      "metar_trigger": false,
      "taf_trigger": false,
      "metar": "METAR LEXJ 210230Z AUTO 22020G33KT 170V270 CAVOK 14/05 Q1003",
      "taf": "TAF LEXJ 210200Z 2103/2203 22009KT 9999 SCT040 TX15/2115Z TN09/2103Z"
    },
    {
      "icao": "LEZG",
      "alert": "OK",
      "vis_m": 9999,
      "fzfg": false,
      "metar_trigger": false,
      "taf_trigger": false,
      "metar": "METAR LEZG 210230Z 13007KT CAVOK 04/01 Q1013 NOSIG",
      "taf": "TAF LEZG 202300Z 2100/2124 VRB04KT 9999 FEW040 TX14/2115Z TN05/2106Z"
    },
    {
      "icao": "LEZL",
      "alert": "OK",
      "vis_m": 8000,
      "fzfg": false,
      "metar_trigger": false,
      "taf_trigger": false,
      "metar": "METAR LEZL 210230Z AUTO VRB02KT 8000 FEW035 06/06 Q1017",
      "taf": "TAF LEZL 210200Z 2103/2203 VRB03KT CAVOK TX15/2115Z TN05/2107Z"
    },
    {
      "icao": "LFBD",
      "alert": "OK",
      "vis_m": 9999,
      "fzfg": false,
      "metar_trigger": false,
      "taf_trigger": false,
      "metar": "METAR LFBD 210230Z AUTO 16008KT CAVOK 06/04 Q1006 NOSIG",
      "taf": "TAF LFBD 202300Z 2100/2206 16010KT CAVOK TX14/2114Z TN05/2102Z"
    },
    {
      "icao": "LFLL",
      "alert": "OK",
      "vis_m": 550,
      "fzfg": false,
      "metar_trigger": false,
      "taf_trigger": false,
      "metar": "METAR LFLL 210230Z VRB02KT 0550 R35L/P2000 R17R/1000D R35R/1000D R17L/0700D FG VV/// 00/00 Q1012 NOSIG",
      "taf": ""
    },
    {
      "icao": "LFLS",
      "alert": "OK",
      "vis_m": 9999,
      "fzfg": false,
      "metar_trigger": false,
      "taf_trigger": false,
      "metar": "METAR LFLS 210230Z AUTO 09009KT CAVOK 01/M01 Q1011 NOSIG",
      "taf": "TAF LFLS 210200Z 2103/2203 09005KT CAVOK"
    },
    {
      "icao": "LFMN",
      "alert": "OK",
      "vis_m": 9999,
      "fzfg": false,
      "metar_trigger": false,
      "taf_trigger": false,
      "metar": "METAR LFMN 210230Z 33012KT CAVOK 07/00 Q1012 NOSIG",
      "taf": "TAF LFMN 210200Z 2103/2209 33010KT CAVOK"
    },
    {
      "icao": "LFOB",
      "alert": "OK",
      "vis_m": 9999,
      "fzfg": false,
      "metar_trigger": false,
      "taf_trigger": false,
      "metar": "METAR LFOB 210230Z AUTO 15008KT 9999 -RA FEW022 OVC047 08/07 Q1003 TEMPO 4500 -RA BKN013 OVC045",
      "taf": "TAF LFOB 202300Z 2100/2124 14010G20KT 9999 OVC045"
    },
    {
      "icao": "LFPO",
      "alert": "OK",
      "vis_m": 9999,
      "fzfg": false,
      "metar_trigger": false,
      "taf_trigger": false,
      "metar": "METAR LFPO 210230Z 17009KT CAVOK 09/05 Q1005 NOSIG",
      "taf": "TAF LFPO 202300Z 2100/2206 16010KT CAVOK"
    },
    {
      "icao": "LFSB",
      "alert": "OK",
      "vis_m": 9999,
      "fzfg": false,
      "metar_trigger": false,
      "taf_trigger": false,
      "metar": "METAR LFSB 210230Z AUTO 15004KT 3100 BR VV/// M01/M02 Q1012 BECMG CAVOK",
      "taf": ""
    },
    {
      "icao": "LGAV",
      "alert": "OK",
      "vis_m": 9999,
      "fzfg": false,
      "metar_trigger": false,
      "taf_trigger": false,
      "metar": "METAR LGAV 210220Z 01011KT 9999 BKN025 09/04 Q1020 NOSIG",
      "taf": "TAF LGAV 202300Z 2100/2124 06018KT 9999 FEW018 BKN025"
    },
    {
      "icao": "LGTS",
      "alert": "OK",
      "vis_m": 9999,
      "fzfg": false,
      "metar_trigger": false,
      "taf_trigger": false,
      "metar": "METAR LGTS 210220Z 20004KT 9999 FEW012 SCT020 05/00 Q1025 NOSIG",
      "taf": "TAF LGTS 202300Z 2100/2124 11010KT 9999 FEW010 BKN025"
    },
    {
      "icao": "LHBP",
      "alert": "OK",
      "vis_m": 5000,
      "fzfg": false,
      "metar_trigger": false,
      "taf_trigger": false,
      "metar": "METAR LHBP 210230Z 36002KT 5000 BR NSC M12/M14 Q1023 NOSIG",
      "taf": "TAF LHBP 202315Z 2100/2124 VRB03KT 6000 NSC"
    },
    {
      "icao": "LHDC",
      "alert": "OK",
      "vis_m": 4600,
      "fzfg": false,
      "metar_trigger": false,
      "taf_trigger": false,
      "metar": "METAR LHDC 210215Z AUTO 07005KT 4600 BR NCD M10/M11 Q1024",
      "taf": ""
    },
    {
      "icao": "LIBD",
      "alert": "OK",
      "vis_m": 9999,
      "fzfg": false,
      "metar_trigger": false,
      "taf_trigger": false,
      "metar": "METAR LIBD 210220Z 14006KT 9999 -RA BKN040 06/05 Q1014",
      "taf": "TAF LIBD 202300Z 2100/2124 12008KT CAVOK"
    },
    {
      "icao": "LIBG",
      "alert": "OK",
      "vis_m": null,
      "fzfg": false,
      "metar_trigger": false,
      "taf_trigger": false,
      "metar": "",
      "taf": "TAF LIBG 201700Z 2018/2103 12007KT CAVOK"
    },
    {
      "icao": "LIBP",
      "alert": "OK",
      "vis_m": 7000,
      "fzfg": false,
      "metar_trigger": false,
      "taf_trigger": false,
      "metar": "METAR LIBP 210220Z AUTO 21005KT 7000 OVC097/// 06/06 Q1014",
      "taf": "TAF LIBP 202300Z 2100/2124 VRB05KT 9999 FEW050"
    },
    {
      "icao": "LIBR",
      "alert": "OK",
      "vis_m": 7000,
      "fzfg": false,
      "metar_trigger": false,
      "taf_trigger": false,
      "metar": "METAR LIBR 210220Z 13004KT 110V170 7000 -RA BKN025 07/05 Q1014",
      "taf": "TAF LIBR 202300Z 2100/2124 VRB05KT 9999 SCT040"
    },
    {
      "icao": "LICA",
      "alert": "OK",
      "vis_m": 9999,
      "fzfg": false,
      "metar_trigger": false,
      "taf_trigger": false,
      "metar": "METAR LICA 210220Z AUTO 08015G26KT 050V110 9999 -RA OVC044/// 09/06 Q1003",
      "taf": "TAF LICA 202300Z 2100/2124 08025G48KT 7000 RA BKN040"
    },
    {
      "icao": "LICC",
      "alert": "OK",
      "vis_m": 5000,
      "fzfg": false,
      "metar_trigger": false,
      "taf_trigger": false,
      "metar": "METAR LICC 210220Z 06024KT 5000 -RA VCTS BKN010CB OVC030 13/12 Q0999",
      "taf": "TAF LICC 202300Z 2100/2124 08030G48KT 4000 RA OVC010"
    },
    {
      "icao": "LICJ",
      "alert": "OK",
      "vis_m": 9999,
      "fzfg": false,
      "metar_trigger": false,
      "taf_trigger": false,
      "metar": "METAR LICJ 210220Z 07029G41KT 9999 -RA BKN025 12/09 Q0999",
      "taf": "TAF LICJ 202300Z 2100/2124 08033G50KT 8000 BKN030"
    },
    {
      "icao": "LIMC",
      "alert": "OK",
      "vis_m": 9999,
      "fzfg": false,
      "metar_trigger": false,
      "taf_trigger": false,
      "metar": "METAR LIMC 210220Z 03005KT 9999 SCT070 M01/M02 Q1016 NOSIG",
      "taf": "TAF LIMC 202300Z 2100/2206 VRB04KT 9999 SCT080"
    },
    {
      "icao": "LIME",
      "alert": "OK",
      "vis_m": 9999,
      "fzfg": false,
      "metar_trigger": false,
      "taf_trigger": false,
      "metar": "METAR LIME 210220Z 02003KT CAVOK M02/M02 Q1016 NOSIG",
      "taf": "TAF LIME 202300Z 2100/2124 VRB04KT CAVOK"
    },
    {
      "icao": "LIMF",
      "alert": "OK",
      "vis_m": 3000,
      "fzfg": false,
      "metar_trigger": false,
      "taf_trigger": false,
      "metar": "METAR LIMF 210220Z VRB01KT 3000 BR SCT060 00/M01 Q1016",
      "taf": "TAF LIMF 202300Z 2100/2124 VRB04KT 9999 SCT060"
    },
    {
      "icao": "LIMJ",
      "alert": "OK",
      "vis_m": 9999,
      "fzfg": false,
      "metar_trigger": false,
      "taf_trigger": false,
      "metar": "METAR LIMJ 210220Z AUTO 04018KT 9999 NCD 06/M03 Q1014",
      "taf": "TAF LIMJ 202300Z 2100/2124 02015KT CAVOK"
    },
    {
      "icao": "LIPE",
      "alert": "OK",
      "vis_m": 7000,
      "fzfg": false,
      "metar_trigger": false,
      "taf_trigger": false,
      "metar": "METAR LIPE 210220Z 25003KT 7000 NSC M01/M01 Q1017",
      "taf": "TAF LIPE 202300Z 2100/2124 VRB05KT 9999 FEW040"
    },
    {
      "icao": "LIPH",
      "alert": "OK",
      "vis_m": 9999,
      "fzfg": false,
      "metar_trigger": false,
      "taf_trigger": false,
      "metar": "METAR LIPH 210220Z AUTO VRB01KT 9999 NCD M03/M05 Q1017",
      "taf": "TAF LIPH 202300Z 2100/2124 VRB05KT CAVOK"
    },
    {
      "icao": "LIPQ",
      "alert": "OK",
      "vis_m": 9999,
      "fzfg": false,
      "metar_trigger": false,
      "taf_trigger": false,
      "metar": "METAR LIPQ 210220Z AUTO VRB02KT 9999 NCD M02/M09 Q1016",
      "taf": "TAF LIPQ 202300Z 2100/2124 09007KT CAVOK"
    },
    {
      "icao": "LIPR",
      "alert": "OK",
      "vis_m": 9999,
      "fzfg": false,
      "metar_trigger": false,
      "taf_trigger": false,
      "metar": "METAR LIPR 210220Z AUTO 30008KT 9999 FEW020/// SCT064/// 02/M02 Q1016",
      "taf": "TAF LIPR 202300Z 2100/2124 30010KT 9999 SCT040"
    },
    {
      "icao": "LIPX",
      "alert": "OK",
      "vis_m": 9999,
      "fzfg": false,
      "metar_trigger": false,
      "taf_trigger": false,
      "metar": "METAR LIPX 210220Z VRB02KT CAVOK M02/M03 Q1016",
      "taf": "TAF LIPX 202300Z 2100/2124 VRB04KT CAVOK"
    },
    {
      "icao": "LIPY",
      "alert": "OK",
      "vis_m": 7000,
      "fzfg": false,
      "metar_trigger": false,
      "taf_trigger": false,
      "metar": "METAR LIPY 210220Z AUTO 26003KT 230V290 7000 -RA FEW023/// SCT046/// OVC065/// 04/03 Q1015",
      "taf": "TAF LIPY 202300Z 2100/2124 32008KT 9999 BKN020"
    },
    {
      "icao": "LIPZ",
      "alert": "OK",
      "vis_m": 9999,
      "fzfg": false,
      "metar_trigger": false,
      "taf_trigger": false,
      "metar": "METAR LIPZ 210220Z 36005KT CAVOK M02/M06 Q1017 NOSIG",
      "taf": "TAF LIPZ 202300Z 2100/2206 02007KT CAVOK"
    },
    {
      "icao": "LIRF",
      "alert": "OK",
      "vis_m": 9999,
      "fzfg": false,
      "metar_trigger": false,
      "taf_trigger": false,
      "metar": "METAR LIRF 210220Z 01007KT CAVOK 08/01 Q1009 NOSIG",
      "taf": "TAF LIRF 202300Z 2100/2206 03010KT 9999 SCT055"
    },
    {
      "icao": "LIRN",
      "alert": "OK",
      "vis_m": 9999,
      "fzfg": false,
      "metar_trigger": false,
      "taf_trigger": false,
      "metar": "METAR LIRN 210220Z 05013KT 9999 -RA BKN060 07/03 Q1009 NOSIG",
      "taf": "TAF LIRN 202300Z 2100/2124 05016G28KT 9999 BKN060"
    },
    {
      "icao": "LIRP",
      "alert": "OK",
      "vis_m": 9999,
      "fzfg": false,
      "metar_trigger": false,
      "taf_trigger": false,
      "metar": "METAR LIRP 210215Z 09004KT CAVOK 06/M01 Q1014 NOSIG",
      "taf": "TAF LIRP 202300Z 2100/2124 08015KT CAVOK"
    },
    {
      "icao": "LIRZ",
      "alert": "OK",
      "vis_m": 9999,
      "fzfg": false,
      "metar_trigger": false,
      "taf_trigger": false,
      "metar": "METAR LIRZ 210220Z AUTO 04010KT 9999 SCT230/// 08/M00 Q1011",
      "taf": "TAF LIRZ 202300Z 2100/2124 06013KT 9999 FEW070"
    },
    {
      "icao": "LJLJ",
      "alert": "OK",
      "vis_m": 8000,
      "fzfg": false,
      "metar_trigger": false,
      "taf_trigger": false,
      "metar": "METAR LJLJ 210230Z 14003KT 8000 OVC015 M05/M08 Q1019 NOSIG",
      "taf": "TAF LJLJ 202300Z 2100/2200 12003KT 9999 OVC015"
    },
    {
      "icao": "LKMT",
      "alert": "OK",
      "vis_m": 9999,
      "fzfg": false,
      "metar_trigger": false,
      "taf_trigger": false,
      "metar": "METAR LKMT 210230Z 25016KT CAVOK M03/M07 Q1019 NOSIG",
      "taf": "TAF LKMT 202300Z 2100/2124 23014KT CAVOK"
    },
    {
      "icao": "LKPR",
      "alert": "OK",
      "vis_m": 9999,
      "fzfg": false,
      "metar_trigger": false,
      "taf_trigger": false,
      "metar": "METAR LKPR 210230Z 15006KT 9999 OVC011 M06/M08 Q1016 NOSIG",
      "taf": "TAF LKPR 210200Z 2103/2209 13005KT 9999 OVC011"
    },
    {
      "icao": "LLBG",
      "alert": "OK",
      "vis_m": 9999,
      "fzfg": false,
      "metar_trigger": false,
      "taf_trigger": false,
      "metar": "METAR LLBG 210250Z 02005KT CAVOK 07/02 Q1023 NOSIG",
      "taf": "TAF LLBG 202317Z 2100/2124 VRB04KT CAVOK"
    },
    {
      "icao": "LMML",
      "alert": "OK",
      "vis_m": 9999,
      "fzfg": false,
      "metar_trigger": false,
      "taf_trigger": false,
      "metar": "METAR LMML 210245Z 20005KT 160V220 9999 FEW018 11/09 Q1000 NOSIG",
      "taf": "TAF LMML 202300Z 2100/2124 23015KT 9999 SCT015"
    },
    {
      "icao": "LOWW",
      "alert": "OK",
      "vis_m": 9000,
      "fzfg": false,
      "metar_trigger": false,
      "taf_trigger": false,
      "metar": "METAR LOWW 210220Z 15015KT 9000 FEW006 BKN007 M06/M08 Q1021 NOSIG",
      "taf": "TAF LOWW 210215Z 2103/2209 14013KT 9999 FEW008 BKN010 TXM05/2114Z TNM07/2205Z"
    },
    {
      "icao": "LPFR",
      "alert": "OK",
      "vis_m": 9999,
      "fzfg": false,
      "metar_trigger": false,
      "taf_trigger": false,
      "metar": "METAR LPFR 210230Z VRB05KT 9999 FEW016 BKN022 14/11 Q1016",
      "taf": "TAF LPFR 202230Z 2100/2124 VRB05KT 9999 SCT020"
    },
    {
      "icao": "LPMA",
      "alert": "OK",
      "vis_m": 9999,
      "fzfg": false,
      "metar_trigger": false,
      "taf_trigger": false,
      "metar": "METAR LPMA 210230Z 27006KT 9999 FEW015 15/08 Q1022",
      "taf": "TAF LPMA 202230Z 2100/2124 VRB05KT 9999 SCT015"
    },
    {
      "icao": "LPPR",
      "alert": "OK",
      "vis_m": 3000,
      "fzfg": false,
      "metar_trigger": false,
      "taf_trigger": false,
      "metar": "METAR LPPR 210230Z 18020KT 3000 -RA BR BKN004 BKN014 12/11 Q1007",
      "taf": "TAF LPPR 202230Z 2100/2124 19012KT 8000 -RA SCT008 BKN025"
    },
    {
      "icao": "LPPS",
      "alert": "OK",
      "vis_m": 9999,
      "fzfg": false,
      "metar_trigger": false,
      "taf_trigger": false,
      "metar": "METAR LPPS 210230Z 29012KT 9999 FEW014 16/11 Q1022",
      "taf": "TAF LPPS 202230Z 2100/2206 30012KT 9999 SCT015"
    },
    {
      "icao": "LPPT",
      "alert": "OK",
      "vis_m": 7000,
      "fzfg": false,
      "metar_trigger": false,
      "taf_trigger": false,
      "metar": "METAR LPPT 210230Z 21015KT 7000 -RA SCT005 SCT010 12/12 Q1012",
      "taf": "TAF LPPT 202230Z 2100/2206 21008KT 9999 SCT015"
    },
    {
      "icao": "LQBK",
      "alert": "OK",
      "vis_m": 9999,
      "fzfg": false,
      "metar_trigger": false,
      "taf_trigger": false,
      "metar": "METAR LQBK 210230Z 05003KT 9999 OVC016 M03/M05 Q1022 NOSIG",
      "taf": "TAF LQBK 202300Z 2100/2124 VRB02KT 9999 BKN020 TXM01/2113Z TNM05/2106Z"
    },
    {
      "icao": "LQSA",
      "alert": "OK",
      "vis_m": 3000,
      "fzfg": false,
      "metar_trigger": false,
      "taf_trigger": false,
      "metar": "METAR LQSA 210230Z 00000KT 3000 BR BKN008 M07/M07 Q1019",
      "taf": "TAF LQSA 202300Z 2100/2124 VRB02KT 8000 NSC TXM00/2113Z TNM09/2106Z"
    },
    {
      "icao": "LQTZ",
      "alert": "OK",
      "vis_m": 3000,
      "fzfg": false,
      "metar_trigger": false,
      "taf_trigger": false,
      "metar": "METAR LQTZ 210230Z 21001KT 3000 BR OVC008 M06/M06 Q1021",
      "taf": "TAF LQTZ 202300Z 2100/2124 VRB02KT 3000 BR BKN010 TXM01/2114Z TNM08/2101Z"
    },
    {
      "icao": "LRBC",
      "alert": "OK",
      "vis_m": 450,
      "fzfg": true,
      "metar_trigger": false,
      "taf_trigger": false,
      "metar": "METAR LRBC 210230Z 18006KT 0450 R16/0500U FZFG VV001 M07/M09 Q1025",
      "taf": "TAF LRBC 210200Z 2103/2112 17009KT 0600 FZFG VV002"
    },
    {
      "icao": "LRBS",
      "alert": "OK",
      "vis_m": 2000,
      "fzfg": false,
      "metar_trigger": false,
      "taf_trigger": false,
      "metar": "METAR LRBS 210230Z 11002KT 2000 BR NSC M10/M11 Q1027 TEMPO 1500 BR",
      "taf": "TAF LRBS 202300Z 2100/2124 VRB04KT 1500 BR NSC"
    },
    {
      "icao": "LRBV",
      "alert": "OK",
      "vis_m": 7000,
      "fzfg": false,
      "metar_trigger": false,
      "taf_trigger": false,
      "metar": "METAR LRBV 210230Z AUTO 20005KT 7000 NCD M13/M15 Q1024",
      "taf": "TAF LRBV 210200Z 2103/2112 VRB04KT 3000 BR NSC"
    },
    {
      "icao": "LRCL",
      "alert": "OK",
      "vis_m": 800,
      "fzfg": true,
      "metar_trigger": false,
      "taf_trigger": false,
      "metar": "METAR LRCL 210230Z 00000KT 0800 R25/0550N FZFG VV003 M15/M17 Q1026",
      "taf": "TAF LRCL 210200Z 2103/2112 VRB04KT 1500 BR BKN003"
    },
    {
      "icao": "LRCV",
      "alert": "OK",
      "vis_m": 3500,
      "fzfg": false,
      "metar_trigger": false,
      "taf_trigger": false,
      "metar": "METAR LRCV 210230Z 32003KT 3500 BR NSC M08/M09 Q1026",
      "taf": "TAF LRCV 210200Z 2103/2112 VRB04KT 3000 BR NSC"
    },
    {
      "icao": "LRIA",
      "alert": "OK",
      "vis_m": 3500,
      "fzfg": false,
      "metar_trigger": false,
      "taf_trigger": false,
      "metar": "METAR LRIA 210230Z 08006KT 3500 BR NSC M12/M14 Q1026",
      "taf": "TAF LRIA 210200Z 2103/2112 VRB04KT 1500 BR NSC"
    },
    {
      "icao": "LROP",
      "alert": "OK",
      "vis_m": 2100,
      "fzfg": true,
      "metar_trigger": false,
      "taf_trigger": false,
      "metar": "METAR LROP 210230Z 07003KT 050V130 2100 BR NSC M10/M12 Q1027 TEMPO 0800 FZFG",
      "taf": "TAF LROP 202300Z 2100/2124 VRB04KT 1500 BR NSC"
    },
    {
      "icao": "LRSB",
      "alert": "OK",
      "vis_m": 800,
      "fzfg": true,
      "metar_trigger": false,
      "taf_trigger": false,
      "metar": "METAR LRSB 210230Z VRB01KT 0800 R27/P2000 FZFG NSC M15/M17 Q1024",
      "taf": "TAF LRSB 202300Z 2100/2124 VRB04KT 3000 BR NSC"
    },
    {
      "icao": "LRSM",
      "alert": "OK",
      "vis_m": 6000,
      "fzfg": false,
      "metar_trigger": false,
      "taf_trigger": false,
      "metar": "METAR LRSM 210230Z AUTO VRB01KT 6000 NCD M14/M16 Q1024",
      "taf": "TAF LRSM 210200Z 2103/2112 05006KT 5000 BR NSC"
    },
    {
      "icao": "LRSV",
      "alert": "OK",
      "vis_m": 9999,
      "fzfg": false,
      "metar_trigger": false,
      "taf_trigger": false,
      "metar": "METAR LRSV 210230Z 20006KT CAVOK M09/M10 Q1022",
      "taf": "TAF LRSV 210200Z 2103/2112 VRB04KT 5000 BR NSC"
    },
    {
      "icao": "LRTM",
      "alert": "OK",
      "vis_m": 150,
      "fzfg": true,
      "metar_trigger": false,
      "taf_trigger": false,
      "metar": "METAR LRTM 210230Z AUTO 07003KT 0150 R07/0225N +SN BKN000/// OVC002/// M15/M17 Q1026",
      "taf": "TAF LRTM 210200Z 2103/2112 VRB04KT 0200 FZFG VV001"
    },
    {
      "icao": "LRTR",
      "alert": "OK",
      "vis_m": 9999,
      "fzfg": false,
      "metar_trigger": false,
      "taf_trigger": false,
      "metar": "METAR LRTR 210230Z 10005KT CAVOK M08/M09 Q1022",
      "taf": "TAF LRTR 202300Z 2100/2124 11008KT CAVOK"
    },
    {
      "icao": "LTAC",
      "alert": "OK",
      "vis_m": 9999,
      "fzfg": false,
      "metar_trigger": false,
      "taf_trigger": false,
      "metar": "METAR LTAC 210220Z VRB02KT CAVOK M09/M12 Q1027 NOSIG RMK RWY21C 12003KT RWY03L 11003KT RWY21R 11003KT RWY03R 10002KT RWY21L 12003KT",
      "taf": "TAF LTAC 202240Z 2100/2124 VRB02KT CAVOK"
    },
    {
      "icao": "LTFM",
      "alert": "OK",
      "vis_m": 9999,
      "fzfg": false,
      "metar_trigger": false,
      "taf_trigger": false,
      "metar": "METAR LTFM 210220Z 10011KT 9999 SCT035 03/M01 Q1027 NOSIG RMK RWY17L 10008KT RWY34L 09011KT RWY16R 10008KT RWY36 10010G21KT 060V120 RWY18 10009KT",
      "taf": "TAF LTFM 202240Z 2100/2206 10006KT 9999 SCT035"
    },
    {
      "icao": "LUKK",
      "alert": "OK",
      "vis_m": 3700,
      "fzfg": false,
      "metar_trigger": false,
      "taf_trigger": false,
      "metar": "METAR LUKK 210230Z VRB03KT 3700 BR NSC M15/M16 Q1027 TEMPO 1500 BR",
      "taf": "TAF LUKK 202319Z 2100/2124 VRB04KT 3000 BR NSC"
    },
    {
      "icao": "LWOH",
      "alert": "OK",
      "vis_m": null,
      "fzfg": false,
      "metar_trigger": false,
      "taf_trigger": false,
      "metar": "",
      "taf": "TAF LWOH 210225Z 2103/2203 03010KT 9999 SCT035 BKN070"
    },
    {
      "icao": "LWSK",
      "alert": "OK",
      "vis_m": 9999,
      "fzfg": false,
      "metar_trigger": false,
      "taf_trigger": false,
      "metar": "METAR LWSK 210250Z 13002KT 9999 BKN090 M03/M05 Q1024 NOSIG",
      "taf": "TAF LWSK 210225Z 2103/2203 VRB02KT CAVOK"
    },
    {
      "icao": "LYBE",
      "alert": "OK",
      "vis_m": 9999,
      "fzfg": true,
      "metar_trigger": false,
      "taf_trigger": false,
      "metar": "METAR LYBE 210230Z 28005KT CAVOK M07/M08 Q1022 TEMPO 0500 FZFG",
      "taf": "TAF LYBE 202300Z 2100/2124 13007KT CAVOK TX05/2113Z TNM05/2106Z"
    },
    {
      "icao": "LYNI",
      "alert": "OK",
      "vis_m": 9999,
      "fzfg": false,
      "metar_trigger": false,
      "taf_trigger": false,
      "metar": "METAR LYNI 210230Z 17005KT 130V210 CAVOK 00/M08 Q1023 NOSIG",
      "taf": "TAF LYNI 202300Z 2100/2124 08004KT CAVOK TX05/2113Z TNM07/2106Z"
    },
    {
      "icao": "LYPG",
      "alert": "OK",
      "vis_m": 9999,
      "fzfg": false,
      "metar_trigger": false,
      "taf_trigger": false,
      "metar": "METAR LYPG 210230Z 34003KT 320V030 CAVOK 01/M03 Q1017 NOSIG",
      "taf": "TAF LYPG 202300Z 2100/2124 36005KT 9999 SCT040 BKN080 TX08/2113Z TN01/2100Z"
    },
    {
      "icao": "LZIB",
      "alert": "OK",
      "vis_m": 6000,
      "fzfg": false,
      "metar_trigger": false,
      "taf_trigger": false,
      "metar": "METAR LZIB 210230Z 10008KT 6000 OVC005 M06/M07 Q1022 NOSIG",
      "taf": "TAF LZIB 202315Z 2100/2200 12008KT 7000 OVC006"
    },
    {
      "icao": "LZKZ",
      "alert": "OK",
      "vis_m": 9999,
      "fzfg": false,
      "metar_trigger": false,
      "taf_trigger": false,
      "metar": "METAR LZKZ 210230Z 35002KT CAVOK M12/M14 Q1024 NOSIG",
      "taf": "TAF LZKZ 202315Z 2100/2200 VRB02KT 4500 BR NSC"
    },
    {
      "icao": "LZTT",
      "alert": "OK",
      "vis_m": 9999,
      "fzfg": false,
      "metar_trigger": false,
      "taf_trigger": false,
      "metar": "METAR LZTT 210230Z VRB03KT CAVOK M07/M11 Q1019",
      "taf": "TAF LZTT 202315Z 2100/2200 20005KT CAVOK"
    },
    {
      "icao": "OEJN",
      "alert": "OK",
      "vis_m": 9999,
      "fzfg": false,
      "metar_trigger": false,
      "taf_trigger": false,
      "metar": "METAR OEJN 210200Z 35004KT CAVOK 20/10 Q1014 NOSIG",
      "taf": "TAF OEJN 202300Z 2100/2206 VRB03KT CAVOK"
    },
    {
      "icao": "OEMA",
      "alert": "OK",
      "vis_m": 9999,
      "fzfg": false,
      "metar_trigger": false,
      "taf_trigger": false,
      "metar": "METAR OEMA 210200Z VRB02KT CAVOK 15/M02 Q1021 NOSIG",
      "taf": "TAF OEMA 202300Z 2100/2206 VRB03KT CAVOK"
    },
    {
      "icao": "OJAI",
      "alert": "OK",
      "vis_m": 4000,
      "fzfg": false,
      "metar_trigger": false,
      "taf_trigger": false,
      "metar": "METAR OJAI 210200Z 00000KT 4000 BR NSC 03/01 Q1023 NOSIG",
      "taf": "TAF OJAI 202245Z 2100/2206 11010KT 5000 HZ FEW030"
    },
    {
      "icao": "OMAA",
      "alert": "OK",
      "vis_m": 7000,
      "fzfg": false,
      "metar_trigger": false,
      "taf_trigger": false,
      "metar": "METAR OMAA 210200Z 18004KT 7000 NSC 16/14 Q1015 BECMG 4000 HZ",
      "taf": "TAF OMAA 202300Z 2100/2206 VRB02KT 8000 FEW030"
    },
    {
      "icao": "OMDB",
      "alert": "OK",
      "vis_m": 8000,
      "fzfg": false,
      "metar_trigger": false,
      "taf_trigger": false,
      "metar": "METAR OMDB 210230Z 20005KT 170V230 8000 NSC 18/14 Q1015 NOSIG",
      "taf": "TAF OMDB 202300Z 2100/2206 29012KT 8000 NSC"
    },
    {
      "icao": "UAAA",
      "alert": "OK",
      "vis_m": 1100,
      "fzfg": false,
      "metar_trigger": false,
      "taf_trigger": false,
      "metar": "METAR UAAA 210230Z VRB01MPS 1100 R23L/1100 BR OVC003 M11/M13 Q1021 NOSIG RMK QBB110",
      "taf": ""
    },
    {
      "icao": "UBBB",
      "alert": "OK",
      "vis_m": 9999,
      "fzfg": false,
      "metar_trigger": false,
      "taf_trigger": false,
      "metar": "METAR UBBB 210230Z 31020G30KT 9999 BKN022 01/M03 Q1025 NOSIG",
      "taf": "TAF UBBB 202301Z 2100/2124 31020G30KT 8000 SCT010 BKN020 TX04/2110Z TN00/2101Z"
    },
    {
      "icao": "UDSG",
      "alert": "OK",
      "vis_m": 9999,
      "fzfg": false,
      "metar_trigger": false,
      "taf_trigger": false,
      "metar": "METAR UDSG 210230Z 29004KT 9999 SCT049 M10/M13 Q1021 NOSIG",
      "taf": "TAF UDSG 202300Z 2100/2124 VRB06KT 9999 BKN040"
    },
    {
      "icao": "UDYZ",
      "alert": "OK",
      "vis_m": 9999,
      "fzfg": false,
      "metar_trigger": false,
      "taf_trigger": false,
      "metar": "METAR UDYZ 210230Z VRB02KT 9999 NSC M09/M11 Q1023 NOSIG",
      "taf": "TAF UDYZ 202300Z 2100/2124 VRB04KT 3500 BR FEW040"
    },
    {
      "icao": "UGKO",
      "alert": "OK",
      "vis_m": 9999,
      "fzfg": false,
      "metar_trigger": false,
      "taf_trigger": false,
      "metar": "METAR UGKO 210230Z 26016KT 9999 SCT021 OVC035 03/01 Q1028 NOSIG",
      "taf": "TAF UGKO 202300Z 2100/2124 26007KT 9999 SCT020 OVC050 TX07/2111Z TNM02/2124Z"
    }
  ]
}