{
  "ts_utc": "2025-12-22T15:53:54Z",
  "threshold_m": 150,
  "source": "stations_override.txt (ICAO list) + aviationweather.gov (METAR/TAF raw)",
  "station_count": 159,
  "stations": [
    {
      "icao": "BIKF",
      "alert": "OK",
      "vis_m": 9999,
      "fzfg": false,
      "metar_trigger": false,
      "taf_trigger": false,
      "metar": "METAR BIKF 221530Z 13022G33KT 9999 VCSH BKN015 08/06 Q0996",
      "taf": "TAF BIKF 221342Z 2215/2315 13030G40KT 9999 -SHRA SCT015 BKN025 TX08/2216Z TN02/2306Z"
    },
    {
      "icao": "BKPR",
      "alert": "OK",
      "vis_m": null,
      "fzfg": false,
      "metar_trigger": false,
      "taf_trigger": false,
      "metar": "",
      "taf": "TAF BKPR 221130Z 2212/2312 VRB03KT 6000 SCT010 BKB020"
    },
    {
      "icao": "EBCI",
      "alert": "OK",
      "vis_m": 9999,
      "fzfg": false,
      "metar_trigger": false,
      "taf_trigger": false,
      "metar": "METAR EBCI 221520Z 04006KT CAVOK 07/05 Q1009 NOSIG",
      "taf": "TAF EBCI 221106Z 2212/2318 VRB03KT CAVOK"
    },
    {
      "icao": "EDDB",
      "alert": "OK",
      "vis_m": 5000,
      "fzfg": false,
      "metar_trigger": false,
      "taf_trigger": false,
      "metar": "METAR EDDB 221520Z AUTO 08010KT 5000 BR OVC004 02/01 Q1019 TEMPO 4000 BR OVC005",
      "taf": "TAF EDDB 221100Z 2212/2312 07011KT 8000 BKN003"
    },
    {
      "icao": "EDDH",
      "alert": "OK",
      "vis_m": 9000,
      "fzfg": false,
      "metar_trigger": false,
      "taf_trigger": false,
      "metar": "METAR EDDH 221520Z AUTO 09010KT 060V120 9000 OVC003 03/02 Q1018 NOSIG",
      "taf": ""
    },
    {
      "icao": "EDDK",
      "alert": "OK",
      "vis_m": 9999,
      "fzfg": false,
      "metar_trigger": false,
      "taf_trigger": false,
      "metar": "METAR EDDK 221520Z AUTO 14007KT 9999 OVC018 05/01 Q1012 NOSIG",
      "taf": "TAF EDDK 221100Z 2212/2318 11007KT 9999 BKN020"
    },
    {
      "icao": "EDDN",
      "alert": "OK",
      "vis_m": 9999,
      "fzfg": false,
      "metar_trigger": false,
      "taf_trigger": false,
      "metar": "METAR EDDN 221520Z AUTO 08007KT 050V120 9999 OVC015 03/M00 Q1011 BECMG BKN012",
      "taf": "TAF EDDN 221100Z 2212/2312 10008KT 9999 BKN015"
    },
    {
      "icao": "EDDS",
      "alert": "OK",
      "vis_m": 9999,
      "fzfg": false,
      "metar_trigger": false,
      "taf_trigger": false,
      "metar": "METAR EDDS 221520Z AUTO 07007KT 9999 OVC009 02/M00 Q1009 NOSIG",
      "taf": "TAF EDDS 221100Z 2212/2312 06004KT 9999 FEW005"
    },
    {
      "icao": "EDFH",
      "alert": "OK",
      "vis_m": 8000,
      "fzfg": false,
      "metar_trigger": false,
      "taf_trigger": false,
      "metar": "METAR EDFH 221520Z 09007KT 8000 SCT002 OVC004 01/M00 Q1010",
      "taf": "TAF EDFH 221100Z 2212/2312 13011KT 8000 OVC002"
    },
    {
      "icao": "EDJA",
      "alert": "OK",
      "vis_m": 4800,
      "fzfg": false,
      "metar_trigger": false,
      "taf_trigger": false,
      "metar": "METAR EDJA 221520Z 05009KT 4800 BR BKN002 OVC013 M02/M02 Q1009",
      "taf": "TAF EDJA 221400Z 2215/2224 06005KT 7000 OVC003"
    },
    {
      "icao": "EDLW",
      "alert": "OK",
      "vis_m": 9999,
      "fzfg": false,
      "metar_trigger": false,
      "taf_trigger": false,
      "metar": "METAR EDLW 221520Z 04008KT CAVOK 04/01 Q1011",
      "taf": "TAF EDLW 221100Z 2212/2312 07008KT 9999 SCT020"
    },
    {
      "icao": "EDNY",
      "alert": "OK",
      "vis_m": 9999,
      "fzfg": false,
      "metar_trigger": false,
      "taf_trigger": false,
      "metar": "METAR EDNY 221520Z 35004KT 310V020 9999 FEW012 01/M01 Q1009",
      "taf": "TAF EDNY 221400Z 2215/2224 03005KT 9999 BKN010"
    },
    {
      "icao": "EDSB",
      "alert": "OK",
      "vis_m": 9000,
      "fzfg": false,
      "metar_trigger": false,
      "taf_trigger": false,
      "metar": "METAR EDSB 221520Z 03008KT 9000 OVC016 03/01 Q1010",
      "taf": "TAF EDSB 221100Z 2212/2312 03004KT 8000 SCT010"
    },
    {
      "icao": "EETN",
      "alert": "OK",
      "vis_m": 9999,
      "fzfg": false,
      "metar_trigger": false,
      "taf_trigger": false,
      "metar": "METAR EETN 221550Z 07009KT 9999 FEW015 OVC022 M01/M03 Q1025 NOSIG",
      "taf": "TAF EETN 221130Z 2212/2312 36005KT 9999 SCT008 FEW015CB BKN025"
    },
    {
      "icao": "EFTU",
      "alert": "OK",
      "vis_m": 9999,
      "fzfg": false,
      "metar_trigger": false,
      "taf_trigger": false,
      "metar": "METAR EFTU 221550Z AUTO 07008KT 9999 -SHSN BKN009 OVC023 M00/M01 Q1026",
      "taf": ""
    },
    {
      "icao": "EGBB",
      "alert": "OK",
      "vis_m": 5000,
      "fzfg": false,
      "metar_trigger": false,
      "taf_trigger": false,
      "metar": "METAR EGBB 221520Z 06005KT 020V170 5000 HZ OVC007 09/08 Q1009",
      "taf": "TAF EGBB 221104Z 2212/2312 09006KT 9999 BKN012"
    },
    {
      "icao": "EGGP",
      "alert": "OK",
      "vis_m": 8000,
      "fzfg": false,
      "metar_trigger": false,
      "taf_trigger": false,
      "metar": "METAR EGGP 221520Z 10006KT 8000 BKN011 OVC020 09/07 Q1009",
      "taf": "TAF EGGP 221058Z 2212/2312 08008KT 9999 FEW010 BKN030"
    },
    {
      "icao": "EGGW",
      "alert": "OK",
      "vis_m": 7000,
      "fzfg": false,
      "metar_trigger": false,
      "taf_trigger": false,
      "metar": "METAR EGGW 221520Z 10004KT 7000 BKN005 08/07 Q1008",
      "taf": ""
    },
    {
      "icao": "EGKK",
      "alert": "OK",
      "vis_m": 9999,
      "fzfg": false,
      "metar_trigger": false,
      "taf_trigger": false,
      "metar": "METAR EGKK 221520Z 08007KT 9999 SCT010 10/09 Q1008",
      "taf": ""
    },
    {
      "icao": "EGNM",
      "alert": "OK",
      "vis_m": 2500,
      "fzfg": false,
      "metar_trigger": false,
      "taf_trigger": false,
      "metar": "METAR EGNM 221520Z 07005KT 2500 BR BKN005 07/07 Q1010",
      "taf": "TAF EGNM 221057Z 2212/2312 07006KT 6000 SCT004 BKN007"
    },
    {
      "icao": "EGPD",
      "alert": "OK",
      "vis_m": 3000,
      "fzfg": false,
      "metar_trigger": false,
      "taf_trigger": false,
      "metar": "METAR EGPD 221520Z 14011KT 3000 RADZ BKN005 08/07 Q1013 RERA REDZ TEMPO BKN004",
      "taf": ""
    },
    {
      "icao": "EGPF",
      "alert": "OK",
      "vis_m": 9999,
      "fzfg": false,
      "metar_trigger": false,
      "taf_trigger": false,
      "metar": "METAR EGPF 221520Z AUTO 06009KT 9999 BKN043 09/07 Q1011",
      "taf": "TAF EGPF 221057Z 2212/2312 07008KT 9999 FEW012 SCT025"
    },
    {
      "icao": "EHBK",
      "alert": "OK",
      "vis_m": 9999,
      "fzfg": false,
      "metar_trigger": false,
      "taf_trigger": false,
      "metar": "METAR EHBK 221525Z AUTO 07011KT 9999 NSC 04/02 Q1010 NOSIG",
      "taf": "TAF EHBK 221111Z 2212/2318 07007KT CAVOK"
    },
    {
      "icao": "EHEH",
      "alert": "OK",
      "vis_m": 9999,
      "fzfg": false,
      "metar_trigger": false,
      "taf_trigger": false,
      "metar": "METAR EHEH 221525Z AUTO 09006KT 030V160 9999 FEW017 OVC140 06/02 Q1011 BLU NOSIG",
      "taf": "TAF EHEH 221105Z 2212/2318 08007KT CAVOK"
    },
    {
      "icao": "EKBI",
      "alert": "OK",
      "vis_m": 9999,
      "fzfg": false,
      "metar_trigger": false,
      "taf_trigger": false,
      "metar": "METAR EKBI 221520Z AUTO 09014KT 9999 OVC016/// 05/02 Q1020",
      "taf": "TAF EKBI 221427Z 2215/2315 09012KT 9999 BKN015"
    },
    {
      "icao": "EKCH",
      "alert": "OK",
      "vis_m": 9999,
      "fzfg": false,
      "metar_trigger": false,
      "taf_trigger": false,
      "metar": "METAR EKCH 221520Z AUTO 10011KT 9999 OVC024/// 06/01 Q1023 NOSIG",
      "taf": "TAF EKCH 221427Z 2215/2315 10012KT 9999 BKN020"
    },
    {
      "icao": "ENAL",
      "alert": "OK",
      "vis_m": 9999,
      "fzfg": false,
      "metar_trigger": false,
      "taf_trigger": false,
      "metar": "METAR ENAL 221520Z 14007KT CAVOK 02/M03 Q1023",
      "taf": "TAF ENAL 221400Z 2215/2224 14008KT CAVOK"
    },
    {
      "icao": "ENBR",
      "alert": "OK",
      "vis_m": 9999,
      "fzfg": false,
      "metar_trigger": false,
      "taf_trigger": false,
      "metar": "METAR ENBR 221520Z VRB02KT CAVOK 00/M01 Q1022 NOSIG RMK WIND 1200FT 10008KT",
      "taf": "TAF ENBR 221100Z 2212/2312 VRB03KT CAVOK"
    },
    {
      "icao": "ENGM",
      "alert": "OK",
      "vis_m": 9999,
      "fzfg": false,
      "metar_trigger": false,
      "taf_trigger": false,
      "metar": "METAR ENGM 221520Z 36003KT CAVOK M05/M05 Q1027 NOSIG",
      "taf": "TAF ENGM 221100Z 2212/2312 36005KT 9999 FEW002"
    },
    {
      "icao": "ENHD",
      "alert": "OK",
      "vis_m": 9999,
      "fzfg": false,
      "metar_trigger": false,
      "taf_trigger": false,
      "metar": "METAR ENHD 221520Z 09006KT CAVOK 06/00 Q1022",
      "taf": "TAF ENHD 221400Z 2215/2223 09007KT CAVOK"
    },
    {
      "icao": "ENTC",
      "alert": "OK",
      "vis_m": 9999,
      "fzfg": false,
      "metar_trigger": false,
      "taf_trigger": false,
      "metar": "METAR ENTC 221520Z 22016KT 9999 BKN033 03/M00 Q1027 NOSIG RMK WIND 2600FT 24015KT",
      "taf": "TAF ENTC 221100Z 2212/2312 22010KT 9999 -DZRA FEW006 BKN014"
    },
    {
      "icao": "ENTO",
      "alert": "OK",
      "vis_m": 9999,
      "fzfg": false,
      "metar_trigger": false,
      "taf_trigger": false,
      "metar": "METAR ENTO 221520Z 36009KT CAVOK M03/M04 Q1026 NOSIG",
      "taf": "TAF ENTO 221100Z 2212/2312 01008KT CAVOK"
    },
    {
      "icao": "ENVA",
      "alert": "OK",
      "vis_m": 9999,
      "fzfg": false,
      "metar_trigger": false,
      "taf_trigger": false,
      "metar": "METAR ENVA 221520Z 11004KT CAVOK M03/M03 Q1027 NOSIG RMK WIND 670FT 10009KT",
      "taf": "TAF ENVA 221100Z 2212/2312 10005KT 9999 FEW001"
    },
    {
      "icao": "ENZV",
      "alert": "OK",
      "vis_m": 9999,
      "fzfg": false,
      "metar_trigger": false,
      "taf_trigger": false,
      "metar": "METAR ENZV 221520Z 22002KT CAVOK 04/M00 Q1022 NOSIG",
      "taf": "TAF ENZV 221100Z 2212/2312 14005KT CAVOK"
    },
    {
      "icao": "EPGD",
      "alert": "OK",
      "vis_m": 9999,
      "fzfg": false,
      "metar_trigger": false,
      "taf_trigger": false,
      "metar": "METAR EPGD 221530Z 12003KT 100V170 9999 BKN026 03/M00 Q1023",
      "taf": "TAF EPGD 221130Z 2212/2312 VRB03KT 9999 BKN020"
    },
    {
      "icao": "EPKK",
      "alert": "OK",
      "vis_m": 6000,
      "fzfg": false,
      "metar_trigger": false,
      "taf_trigger": false,
      "metar": "METAR EPKK 221530Z 06010KT 6000 OVC004 02/02 Q1019",
      "taf": "TAF EPKK 221430Z 2215/2315 06010KT 4000 BR OVC003"
    },
    {
      "icao": "EPKT",
      "alert": "OK",
      "vis_m": 3400,
      "fzfg": false,
      "metar_trigger": false,
      "taf_trigger": false,
      "metar": "METAR EPKT 221530Z 07007KT 3400 -DZ BR OVC003 02/02 Q1019",
      "taf": ""
    },
    {
      "icao": "EPLB",
      "alert": "OK",
      "vis_m": 9999,
      "fzfg": false,
      "metar_trigger": false,
      "taf_trigger": false,
      "metar": "METAR EPLB 221530Z 13005KT 9999 OVC020 02/M01 Q1022",
      "taf": "TAF EPLB 221130Z 2212/2312 16005KT 9999 OVC022"
    },
    {
      "icao": "EPMO",
      "alert": "OK",
      "vis_m": 9999,
      "fzfg": false,
      "metar_trigger": false,
      "taf_trigger": false,
      "metar": "METAR EPMO 221530Z 11007KT 9999 BKN021 03/M01 Q1022",
      "taf": "TAF EPMO 221130Z 2212/2312 09005KT 9999 BKN020"
    },
    {
      "icao": "EPPO",
      "alert": "OK",
      "vis_m": 9999,
      "fzfg": false,
      "metar_trigger": false,
      "taf_trigger": false,
      "metar": "METAR EPPO 221530Z 10008KT 9999 OVC010 01/M01 Q1021",
      "taf": "TAF EPPO 221130Z 2212/2312 09010KT 9999 OVC009"
    },
    {
      "icao": "EPRA",
      "alert": "OK",
      "vis_m": 9999,
      "fzfg": false,
      "metar_trigger": false,
      "taf_trigger": false,
      "metar": "METAR EPRA 221530Z 12006KT 9999 OVC015 01/M02 Q1022",
      "taf": "TAF EPRA 221430Z 2215/2224 12008KT 9999 OVC014"
    },
    {
      "icao": "EPRZ",
      "alert": "OK",
      "vis_m": 9999,
      "fzfg": false,
      "metar_trigger": false,
      "taf_trigger": false,
      "metar": "METAR EPRZ 221530Z 06007KT 9999 OVC016 02/M00 Q1021",
      "taf": "TAF EPRZ 221130Z 2212/2312 08010KT 9999 OVC015"
    },
    {
      "icao": "EPSC",
      "alert": "OK",
      "vis_m": 9999,
      "fzfg": false,
      "metar_trigger": false,
      "taf_trigger": false,
      "metar": "METAR EPSC 221530Z 09007KT 070V130 9999 BKN016 02/M01 Q1021",
      "taf": "TAF EPSC 221130Z 2212/2312 10010KT 9999 OVC012"
    },
    {
      "icao": "EPSY",
      "alert": "OK",
      "vis_m": 9999,
      "fzfg": false,
      "metar_trigger": false,
      "taf_trigger": false,
      "metar": "METAR EPSY 221530Z 05001KT 9999 SCT018 BKN025 03/01 Q1023",
      "taf": "TAF EPSY 221430Z 2215/2224 VRB02KT 9999 BKN020"
    },
    {
      "icao": "EPWA",
      "alert": "OK",
      "vis_m": 9999,
      "fzfg": false,
      "metar_trigger": false,
      "taf_trigger": false,
      "metar": "METAR EPWA 221530Z 10008KT 9999 BKN020 03/M01 Q1022 NOSIG",
      "taf": "TAF EPWA 221430Z 2215/2315 11007KT 9999 BKN019"
    },
    {
      "icao": "EPWR",
      "alert": "OK",
      "vis_m": 5000,
      "fzfg": false,
      "metar_trigger": false,
      "taf_trigger": false,
      "metar": "METAR EPWR 221530Z 09007KT 5000 BR OVC005 04/03 Q1019",
      "taf": "TAF EPWR 221430Z 2215/2315 09009KT 6000 OVC005"
    },
    {
      "icao": "ESGG",
      "alert": "OK",
      "vis_m": 9999,
      "fzfg": false,
      "metar_trigger": false,
      "taf_trigger": false,
      "metar": "METAR ESGG 221520Z 07003KT CAVOK M01/M02 Q1024",
      "taf": ""
    },
    {
      "icao": "ESKN",
      "alert": "OK",
      "vis_m": 9999,
      "fzfg": false,
      "metar_trigger": false,
      "taf_trigger": false,
      "metar": "METAR ESKN 221520Z VRB03KT 9999 BKN005 M00/M00 Q1026",
      "taf": ""
    },
    {
      "icao": "ESMS",
      "alert": "OK",
      "vis_m": 9999,
      "fzfg": false,
      "metar_trigger": false,
      "taf_trigger": false,
      "metar": "METAR ESMS 221520Z 10010KT 9999 BKN023 05/01 Q1022",
      "taf": "TAF ESMS 221427Z 2215/2315 10010KT 9999 BKN020"
    },
    {
      "icao": "ESSA",
      "alert": "OK",
      "vis_m": 9999,
      "fzfg": false,
      "metar_trigger": false,
      "taf_trigger": false,
      "metar": "METAR ESSA 221520Z 36005KT 330V030 9999 FEW015 BKN020 M00/M01 Q1026 NOSIG",
      "taf": "TAF ESSA 221430Z 2215/2315 35004KT 9999 BKN020"
    },
    {
      "icao": "EYKA",
      "alert": "OK",
      "vis_m": 9999,
      "fzfg": false,
      "metar_trigger": false,
      "taf_trigger": false,
      "metar": "METAR EYKA 221550Z VRB01KT 9999 OVC018 03/00 Q1023",
      "taf": "TAF EYKA 221100Z 2212/2312 VRB04KT 9000 SCT010 OVC020"
    },
    {
      "icao": "EYPA",
      "alert": "OK",
      "vis_m": 9999,
      "fzfg": false,
      "metar_trigger": false,
      "taf_trigger": false,
      "metar": "METAR EYPA 221550Z VRB01KT 9999 BKN028 BKN043 03/02 Q1023",
      "taf": "TAF EYPA 221100Z 2212/2312 VRB04KT 9000 OVC020"
    },
    {
      "icao": "EYVI",
      "alert": "OK",
      "vis_m": 9999,
      "fzfg": false,
      "metar_trigger": false,
      "taf_trigger": false,
      "metar": "METAR EYVI 221550Z 30006KT 9999 OVC009 02/00 Q1022 NOSIG",
      "taf": ""
    },
    {
      "icao": "GCFV",
      "alert": "OK",
      "vis_m": 9999,
      "fzfg": false,
      "metar_trigger": false,
      "taf_trigger": false,
      "metar": "METAR GCFV 221530Z 02017KT 9999 SCT035 20/11 Q1019",
      "taf": "TAF GCFV 221400Z 2215/2315 02015KT 9999 SCT025 TX21/2314Z TN15/2306Z"
    },
    {
      "icao": "GCLP",
      "alert": "OK",
      "vis_m": 9999,
      "fzfg": false,
      "metar_trigger": false,
      "taf_trigger": false,
      "metar": "METAR GCLP 221530Z 02018KT 9999 BKN025 19/14 Q1019 NOSIG",
      "taf": "TAF GCLP 221400Z 2215/2315 02017KT 9999 BKN020 TX21/2314Z TN16/2306Z"
    },
    {
      "icao": "GCTS",
      "alert": "OK",
      "vis_m": 9999,
      "fzfg": false,
      "metar_trigger": false,
      "taf_trigger": false,
      "metar": "METAR GCTS 221530Z 08019KT 9999 SCT040 21/12 Q1019 NOSIG",
      "taf": "TAF GCTS 221400Z 2215/2315 08018KT 9999 BKN030 TX24/2314Z TN15/2306Z"
    },
    {
      "icao": "GMAD",
      "alert": "OK",
      "vis_m": 9999,
      "fzfg": false,
      "metar_trigger": false,
      "taf_trigger": false,
      "metar": "METAR GMAD 221530Z 26019KT 9999 FEW026 21/10 Q1013 NOSIG",
      "taf": "TAF GMAD 221100Z 2212/2318 23013KT 9999 FEW026"
    },
    {
      "icao": "GMMN",
      "alert": "OK",
      "vis_m": 9999,
      "fzfg": false,
      "metar_trigger": false,
      "taf_trigger": false,
      "metar": "METAR GMMN 221530Z 29012KT 9999 BKN030 14/09 Q1017 NOSIG",
      "taf": "TAF GMMN 221100Z 2212/2318 24008KT 9999 BKN030"
    },
    {
      "icao": "GMMX",
      "alert": "OK",
      "vis_m": 8000,
      "fzfg": false,
      "metar_trigger": false,
      "taf_trigger": false,
      "metar": "METAR GMMX 221530Z 32005KT 260V030 8000 SCT023 14/08 Q1018 NOSIG",
      "taf": "TAF GMMX 221100Z 2212/2318 24005KT 8000 SCT020"
    },
    {
      "icao": "HEGN",
      "alert": "OK",
      "vis_m": 9999,
      "fzfg": false,
      "metar_trigger": false,
      "taf_trigger": false,
      "metar": "METAR HEGN 221500Z 12003KT 9999 FEW020 23/14 Q1013 NOSIG",
      "taf": "TAF HEGN 221100Z 2212/2318 13008KT CAVOK"
    },
    {
      "icao": "HEMA",
      "alert": "OK",
      "vis_m": 9999,
      "fzfg": false,
      "metar_trigger": false,
      "taf_trigger": false,
      "metar": "METAR HEMA 221500Z 02006KT CAVOK 23/13 Q1013 NOSIG",
      "taf": "TAF HEMA 221100Z 2212/2318 06008KT CAVOK"
    },
    {
      "icao": "HESH",
      "alert": "OK",
      "vis_m": 9999,
      "fzfg": false,
      "metar_trigger": false,
      "taf_trigger": false,
      "metar": "METAR HESH 221500Z 15009KT CAVOK 23/14 Q1013 NOSIG",
      "taf": "TAF HESH 221100Z 2212/2318 20008KT CAVOK"
    },
    {
      "icao": "HESX",
      "alert": "OK",
      "vis_m": 9999,
      "fzfg": false,
      "metar_trigger": false,
      "taf_trigger": false,
      "metar": "METAR HESX 221500Z 23009KT CAVOK 19/00 Q1013 NOSIG",
      "taf": "TAF HESX 221100Z 2212/2318 23012KT CAVOK"
    },
    {
      "icao": "LATI",
      "alert": "OK",
      "vis_m": 9999,
      "fzfg": false,
      "metar_trigger": false,
      "taf_trigger": false,
      "metar": "METAR LATI 221550Z 03003KT 340V060 CAVOK 10/03 Q1015 NOSIG",
      "taf": "TAF LATI 221100Z 2212/2312 VRB05KT CAVOK TX17/2212Z TN03/2305Z"
    },
    {
      "icao": "LBPD",
      "alert": "OK",
      "vis_m": 7000,
      "fzfg": false,
      "metar_trigger": false,
      "taf_trigger": false,
      "metar": "METAR LBPD 221530Z AUTO 10004KT 7000 FEW011/// BKN016/// OVC020/// 07/07 Q1020 NOSIG",
      "taf": "TAF LBPD 221100Z 2212/2312 VRB04KT 7000 SCT010 BKN030"
    },
    {
      "icao": "LBSF",
      "alert": "OK",
      "vis_m": 7000,
      "fzfg": false,
      "metar_trigger": false,
      "taf_trigger": false,
      "metar": "METAR LBSF 221530Z 00000KT 7000 OVC041 05/02 Q1019 TEMPO 5000 BR",
      "taf": "TAF LBSF 221100Z 2212/2312 10010KT 6000 FEW010 SCT025"
    },
    {
      "icao": "LBWN",
      "alert": "OK",
      "vis_m": 9999,
      "fzfg": false,
      "metar_trigger": false,
      "taf_trigger": false,
      "metar": "METAR LBWN 221530Z AUTO 36008KT 9999 OVC007/// 03/03 Q1022 TEMPO BKN005",
      "taf": "TAF LBWN 221100Z 2212/2312 35010KT 9999 BKN012 OVC020"
    },
    {
      "icao": "LCLK",
      "alert": "OK",
      "vis_m": 9999,
      "fzfg": false,
      "metar_trigger": false,
      "taf_trigger": false,
      "metar": "METAR LCLK 221530Z 05013KT 9999 SCT020 SCT035 18/15 Q1014 NOSIG",
      "taf": "TAF LCLK 221130Z 2212/2312 07013KT 9999 FEW025TCU SCT035"
    },
    {
      "icao": "LCPH",
      "alert": "OK",
      "vis_m": 9999,
      "fzfg": false,
      "metar_trigger": false,
      "taf_trigger": false,
      "metar": "METAR LCPH 221530Z 10007KT 9999 FEW025 18/13 Q1013 NOSIG",
      "taf": "TAF LCPH 221130Z 2212/2312 14015KT 9999 FEW025 SCT035"
    },
    {
      "icao": "LEAL",
      "alert": "OK",
      "vis_m": 9999,
      "fzfg": false,
      "metar_trigger": false,
      "taf_trigger": false,
      "metar": "METAR LEAL 221530Z 29013KT 250V320 9999 SCT064 13/01 Q1009 NOSIG",
      "taf": "TAF LEAL 221100Z 2212/2312 30010KT 9999 FEW040 TX14/2213Z TN08/2307Z"
    },
    {
      "icao": "LEBB",
      "alert": "OK",
      "vis_m": 9999,
      "fzfg": false,
      "metar_trigger": false,
      "taf_trigger": false,
      "metar": "METAR LEBB 221530Z 23004KT 200V260 9999 BKN050 BKN066 11/04 Q1007 TEMPO 3000 RA",
      "taf": "TAF LEBB 221100Z 2212/2312 22008KT 9999 BKN035 TX11/2212Z TN06/2307Z"
    },
    {
      "icao": "LEBL",
      "alert": "OK",
      "vis_m": 9999,
      "fzfg": false,
      "metar_trigger": false,
      "taf_trigger": false,
      "metar": "METAR LEBL 221530Z 31007KT 260V360 9999 FEW013 10/04 Q1005 NOSIG",
      "taf": ""
    },
    {
      "icao": "LECH",
      "alert": "OK",
      "vis_m": 9000,
      "fzfg": false,
      "metar_trigger": false,
      "taf_trigger": false,
      "metar": "METAR LECH 221530Z AUTO 32005KT 250V020 9000 FEW058 10/M03 Q1006",
      "taf": ""
    },
    {
      "icao": "LEMD",
      "alert": "OK",
      "vis_m": 9999,
      "fzfg": false,
      "metar_trigger": false,
      "taf_trigger": false,
      "metar": "METAR LEMD 221530Z 16003KT 110V240 9999 FEW025 SCT035 06/01 Q1009 NOSIG",
      "taf": "TAF LEMD 221100Z 2212/2318 VRB04KT 9999 SCT020 TX07/2215Z TNM01/2306Z"
    },
    {
      "icao": "LEMG",
      "alert": "OK",
      "vis_m": 9999,
      "fzfg": false,
      "metar_trigger": false,
      "taf_trigger": false,
      "metar": "METAR LEMG 221530Z 32013KT 9999 FEW040 SCT055 12/03 Q1013 NOSIG",
      "taf": "TAF LEMG 221100Z 2212/2312 31012KT 9999 FEW040 TX12/2214Z TN07/2306Z"
    },
    {
      "icao": "LEVC",
      "alert": "OK",
      "vis_m": 9999,
      "fzfg": false,
      "metar_trigger": false,
      "taf_trigger": false,
      "metar": "METAR LEVC 221530Z 28015KT 9999 FEW040 12/M00 Q1007 NOSIG",
      "taf": "TAF LEVC 221100Z 2212/2312 27010KT 9999 FEW040 TX13/2213Z TN07/2307Z"
    },
    {
      "icao": "LEXJ",
      "alert": "OK",
      "vis_m": 9999,
      "fzfg": false,
      "metar_trigger": false,
      "taf_trigger": false,
      "metar": "METAR LEXJ 221530Z 27008KT 240V300 9999 SCT050 BKN080 11/04 Q1006",
      "taf": "TAF LEXJ 221400Z 2215/2315 25009KT 9999 SCT040 TX13/2313Z TN07/2307Z"
    },
    {
      "icao": "LEZG",
      "alert": "OK",
      "vis_m": 9999,
      "fzfg": false,
      "metar_trigger": false,
      "taf_trigger": false,
      "metar": "METAR LEZG 221530Z 28005KT CAVOK 09/03 Q1007 NOSIG",
      "taf": "TAF LEZG 221100Z 2212/2312 30010KT 9999 FEW040 TX09/2214Z TN03/2306Z"
    },
    {
      "icao": "LEZL",
      "alert": "OK",
      "vis_m": 9999,
      "fzfg": false,
      "metar_trigger": false,
      "taf_trigger": false,
      "metar": "METAR LEZL 221530Z 22005KT CAVOK 12/07 Q1013 NOSIG",
      "taf": ""
    },
    {
      "icao": "LFBD",
      "alert": "OK",
      "vis_m": 9999,
      "fzfg": false,
      "metar_trigger": false,
      "taf_trigger": false,
      "metar": "METAR LFBD 221530Z AUTO 15008KT 9999 OVC017 08/05 Q1006 NOSIG",
      "taf": "TAF LFBD 221100Z 2212/2318 18010KT 9999 BKN040 TX10/2214Z TN04/2302Z"
    },
    {
      "icao": "LFLL",
      "alert": "OK",
      "vis_m": 7000,
      "fzfg": false,
      "metar_trigger": false,
      "taf_trigger": false,
      "metar": "METAR LFLL 221530Z 26002KT 7000 -RA SCT006 BKN060 09/08 Q1006 NOSIG",
      "taf": "TAF LFLL 221100Z 2212/2318 33004KT 7000 FEW006 BKN100"
    },
    {
      "icao": "LFLS",
      "alert": "OK",
      "vis_m": 7000,
      "fzfg": false,
      "metar_trigger": false,
      "taf_trigger": false,
      "metar": "METAR LFLS 221530Z AUTO VRB02KT 7000 ///TCU 08/07 Q1006 BECMG BKN045",
      "taf": "TAF LFLS 221400Z 2215/2315 08006KT 9999 BKN045"
    },
    {
      "icao": "LFMN",
      "alert": "OK",
      "vis_m": 9999,
      "fzfg": false,
      "metar_trigger": false,
      "taf_trigger": false,
      "metar": "METAR LFMN 221530Z 06020G31KT 030V090 9999 BKN055 15/06 Q1007 NOSIG",
      "taf": "TAF LFMN 221400Z 2215/2321 06015KT 9999 BKN048"
    },
    {
      "icao": "LFOB",
      "alert": "OK",
      "vis_m": 9999,
      "fzfg": false,
      "metar_trigger": false,
      "taf_trigger": false,
      "metar": "METAR LFOB 221530Z AUTO 06005KT 040V140 CAVOK 08/07 Q1008 TEMPO 4000 BR",
      "taf": "TAF LFOB 221100Z 2212/2312 07006KT CAVOK"
    },
    {
      "icao": "LFPO",
      "alert": "OK",
      "vis_m": 9999,
      "fzfg": false,
      "metar_trigger": false,
      "taf_trigger": false,
      "metar": "METAR LFPO 221530Z 07003KT CAVOK 09/07 Q1008 NOSIG",
      "taf": "TAF LFPO 221100Z 2212/2318 10004KT 9999 FEW013 SCT110 BKN180"
    },
    {
      "icao": "LFSB",
      "alert": "OK",
      "vis_m": 5000,
      "fzfg": false,
      "metar_trigger": false,
      "taf_trigger": false,
      "metar": "METAR LFSB 221530Z AUTO 35006KT 320V020 5000 BR OVC003 03/03 Q1009 TEMPO 0500 FG VV///",
      "taf": "TAF LFSB 221100Z 2212/2312 35004KT 9999 BKN007"
    },
    {
      "icao": "LGAV",
      "alert": "OK",
      "vis_m": 9999,
      "fzfg": false,
      "metar_trigger": false,
      "taf_trigger": false,
      "metar": "METAR LGAV 221520Z 36011KT 9999 FEW020 SCT040 BKN070 14/09 Q1015 NOSIG",
      "taf": "TAF LGAV 221100Z 2212/2312 04015KT 9999 SCT035 BKN070"
    },
    {
      "icao": "LGTS",
      "alert": "OK",
      "vis_m": 9999,
      "fzfg": false,
      "metar_trigger": false,
      "taf_trigger": false,
      "metar": "METAR LGTS 221520Z VRB02KT 9999 FEW018 11/07 Q1018 NOSIG",
      "taf": "TAF LGTS 221100Z 2212/2312 VRB03KT 9999 FEW010 SCT025"
    },
    {
      "icao": "LHBP",
      "alert": "OK",
      "vis_m": 8000,
      "fzfg": false,
      "metar_trigger": false,
      "taf_trigger": false,
      "metar": "METAR LHBP 221530Z 16005KT 8000 OVC007 04/03 Q1020 NOSIG",
      "taf": "TAF LHBP 221115Z 2212/2312 12007KT 8000 SCT006 OVC015"
    },
    {
      "icao": "LHDC",
      "alert": "OK",
      "vis_m": 2800,
      "fzfg": false,
      "metar_trigger": false,
      "taf_trigger": false,
      "metar": "METAR LHDC 221515Z AUTO 22001KT 2800 BR OVC007 05/05 Q1020 NOSIG",
      "taf": ""
    },
    {
      "icao": "LIBD",
      "alert": "OK",
      "vis_m": 7000,
      "fzfg": false,
      "metar_trigger": false,
      "taf_trigger": false,
      "metar": "METAR LIBD 221520Z 10004KT 7000 FEW040 12/12 Q1013",
      "taf": "TAF LIBD 221100Z 2212/2312 11007KT 9999 FEW040"
    },
    {
      "icao": "LIBG",
      "alert": "OK",
      "vis_m": 9999,
      "fzfg": false,
      "metar_trigger": false,
      "taf_trigger": false,
      "metar": "METAR LIBG 221450Z 11003KT 9999 SCT030 15/15 Q1013",
      "taf": "TAF LIBG 221400Z 2215/2224 10007KT 9999 FEW040"
    },
    {
      "icao": "LIBP",
      "alert": "OK",
      "vis_m": 9999,
      "fzfg": false,
      "metar_trigger": false,
      "taf_trigger": false,
      "metar": "METAR LIBP 221520Z AUTO 06003KT 9999 SCT016/// OVC035/// 12/09 Q1013",
      "taf": "TAF LIBP 221100Z 2212/2312 VRB04KT 9999 FEW010 BKN030"
    },
    {
      "icao": "LIBR",
      "alert": "OK",
      "vis_m": 9999,
      "fzfg": false,
      "metar_trigger": false,
      "taf_trigger": false,
      "metar": "METAR LIBR 221520Z 11005KT CAVOK 14/12 Q1014",
      "taf": "TAF LIBR 221100Z 2212/2312 11010KT 9999 SCT020"
    },
    {
      "icao": "LICA",
      "alert": "OK",
      "vis_m": 9999,
      "fzfg": false,
      "metar_trigger": false,
      "taf_trigger": false,
      "metar": "METAR LICA 221520Z AUTO 07014KT 9999 SCT063/// 16/12 Q1012",
      "taf": "TAF LICA 221100Z 2212/2312 08018G28KT 9999 BKN050"
    },
    {
      "icao": "LICC",
      "alert": "OK",
      "vis_m": 9999,
      "fzfg": false,
      "metar_trigger": false,
      "taf_trigger": false,
      "metar": "METAR LICC 221520Z 06005KT 9999 FEW020 SCT050 16/15 Q1012",
      "taf": "TAF LICC 221100Z 2212/2312 07012KT 9999 SCT040"
    },
    {
      "icao": "LICJ",
      "alert": "OK",
      "vis_m": 9999,
      "fzfg": false,
      "metar_trigger": false,
      "taf_trigger": false,
      "metar": "METAR LICJ 221520Z VRB04KT CAVOK 16/11 Q1009",
      "taf": "TAF LICJ 221100Z 2212/2312 19012KT 9999 SCT040"
    },
    {
      "icao": "LIMC",
      "alert": "OK",
      "vis_m": 9999,
      "fzfg": false,
      "metar_trigger": false,
      "taf_trigger": false,
      "metar": "METAR LIMC 221520Z 14002KT 9999 BKN060 10/05 Q1014 NOSIG",
      "taf": "TAF LIMC 221100Z 2212/2318 VRB03KT 9999 BKN040"
    },
    {
      "icao": "LIME",
      "alert": "OK",
      "vis_m": 9999,
      "fzfg": false,
      "metar_trigger": false,
      "taf_trigger": false,
      "metar": "METAR LIME 221520Z VRB02KT 9999 SCT070 09/05 Q1014 NOSIG",
      "taf": "TAF LIME 221100Z 2212/2312 VRB03KT 8000 SCT050"
    },
    {
      "icao": "LIMF",
      "alert": "OK",
      "vis_m": 7000,
      "fzfg": false,
      "metar_trigger": false,
      "taf_trigger": false,
      "metar": "METAR LIMF 221520Z 15002KT 7000 BKN040 OVC070 08/06 Q1014",
      "taf": "TAF LIMF 221100Z 2212/2312 VRB03KT 8000 SCT030 BKN050"
    },
    {
      "icao": "LIMJ",
      "alert": "OK",
      "vis_m": 9999,
      "fzfg": false,
      "metar_trigger": false,
      "taf_trigger": false,
      "metar": "METAR LIMJ 221520Z 02015KT 9999 SCT080 12/05 Q1011",
      "taf": "TAF LIMJ 221100Z 2212/2312 03015KT 9999 BKN050"
    },
    {
      "icao": "LIPE",
      "alert": "OK",
      "vis_m": 5000,
      "fzfg": false,
      "metar_trigger": false,
      "taf_trigger": false,
      "metar": "METAR LIPE 221520Z VRB01KT 5000 BR OVC009 08/06 Q1014",
      "taf": "TAF LIPE 221100Z 2212/2312 VRB04KT 5000 BR BKN020"
    },
    {
      "icao": "LIPH",
      "alert": "OK",
      "vis_m": 9999,
      "fzfg": false,
      "metar_trigger": false,
      "taf_trigger": false,
      "metar": "METAR LIPH 221520Z 10001KT 9999 BKN060 09/04 Q1014",
      "taf": "TAF LIPH 221100Z 2212/2312 05005KT 9999 FEW050"
    },
    {
      "icao": "LIPQ",
      "alert": "OK",
      "vis_m": 9999,
      "fzfg": false,
      "metar_trigger": false,
      "taf_trigger": false,
      "metar": "METAR LIPQ 221520Z AUTO 05005KT 9999 OVC073/// 10/03 Q1014",
      "taf": "TAF LIPQ 221100Z 2212/2312 07006KT 9999 FEW060"
    },
    {
      "icao": "LIPR",
      "alert": "OK",
      "vis_m": 7000,
      "fzfg": false,
      "metar_trigger": false,
      "taf_trigger": false,
      "metar": "METAR LIPR 221520Z 30006KT 7000 FEW010 BKN020 10/09 Q1013",
      "taf": "TAF LIPR 221100Z 2212/2312 30007KT 3000 BR BKN010"
    },
    {
      "icao": "LIPX",
      "alert": "OK",
      "vis_m": 9999,
      "fzfg": false,
      "metar_trigger": false,
      "taf_trigger": false,
      "metar": "METAR LIPX 221520Z 19001KT 9999 BKN060 09/05 Q1014",
      "taf": "TAF LIPX 221100Z 2212/2312 VRB03KT 9999 BKN040"
    },
    {
      "icao": "LIPY",
      "alert": "OK",
      "vis_m": 6000,
      "fzfg": false,
      "metar_trigger": false,
      "taf_trigger": false,
      "metar": "METAR LIPY 221520Z AUTO 36003KT 6000 FEW015/// OVC042/// 11/11 Q1013",
      "taf": "TAF LIPY 221100Z 2212/2312 VRB05KT 6000 BKN040"
    },
    {
      "icao": "LIPZ",
      "alert": "OK",
      "vis_m": 9999,
      "fzfg": false,
      "metar_trigger": false,
      "taf_trigger": false,
      "metar": "METAR LIPZ 221520Z 01004KT 9999 BKN065 09/05 Q1014 NOSIG",
      "taf": "TAF LIPZ 221100Z 2212/2318 03007KT 9999 SCT050"
    },
    {
      "icao": "LIRF",
      "alert": "OK",
      "vis_m": 9999,
      "fzfg": false,
      "metar_trigger": false,
      "taf_trigger": false,
      "metar": "METAR LIRF 221520Z AUTO 12010KT 9999 FEW046/// OVC079/// 17/08 Q1009",
      "taf": "TAF LIRF 221100Z 2212/2318 06010KT 9999 SCT040"
    },
    {
      "icao": "LIRN",
      "alert": "OK",
      "vis_m": 9999,
      "fzfg": false,
      "metar_trigger": false,
      "taf_trigger": false,
      "metar": "METAR LIRN 221520Z VRB02KT 9999 SCT060 16/09 Q1011 NOSIG",
      "taf": "TAF LIRN 221100Z 2212/2312 05005KT 9999 FEW040"
    },
    {
      "icao": "LIRP",
      "alert": "OK",
      "vis_m": 9999,
      "fzfg": false,
      "metar_trigger": false,
      "taf_trigger": false,
      "metar": "METAR LIRP 221515Z 09008KT 9999 SCT040 BKN050 12/08 Q1010 TEMPO RA",
      "taf": "TAF LIRP 221100Z 2212/2312 11007KT 9999 SCT060"
    },
    {
      "icao": "LIRZ",
      "alert": "OK",
      "vis_m": 9999,
      "fzfg": false,
      "metar_trigger": false,
      "taf_trigger": false,
      "metar": "METAR LIRZ 221520Z AUTO 00000KT 9999 SCT076/// BKN110/// 10/08 Q1011",
      "taf": ""
    },
    {
      "icao": "LJLJ",
      "alert": "OK",
      "vis_m": 9999,
      "fzfg": false,
      "metar_trigger": false,
      "taf_trigger": false,
      "metar": "METAR LJLJ 221530Z 16003KT 110V190 9999 OVC012 03/01 Q1017 NOSIG",
      "taf": "TAF LJLJ 221100Z 2212/2312 VRB02KT 3500 -DZ BR FEW003 OVC010"
    },
    {
      "icao": "LKMT",
      "alert": "OK",
      "vis_m": 4500,
      "fzfg": false,
      "metar_trigger": false,
      "taf_trigger": false,
      "metar": "METAR LKMT 221530Z 11003KT 4500 BR SCT006 OVC008 02/02 Q1019 NOSIG",
      "taf": "TAF LKMT 221100Z 2212/2312 04004KT 2800 -DZ BR OVC005"
    },
    {
      "icao": "LKPR",
      "alert": "OK",
      "vis_m": 9999,
      "fzfg": false,
      "metar_trigger": false,
      "taf_trigger": false,
      "metar": "METAR LKPR 221530Z 08007KT 060V130 9999 SCT007 OVC014 02/02 Q1014 NOSIG",
      "taf": "TAF LKPR 221400Z 2215/2321 11010KT 9999 SCT004 OVC012"
    },
    {
      "icao": "LLBG",
      "alert": "OK",
      "vis_m": 9999,
      "fzfg": false,
      "metar_trigger": false,
      "taf_trigger": false,
      "metar": "METAR LLBG 221550Z VRB03KT CAVOK 18/08 Q1014 NOSIG",
      "taf": "TAF LLBG 221106Z 2212/2312 31008KT CAVOK"
    },
    {
      "icao": "LMML",
      "alert": "OK",
      "vis_m": 9999,
      "fzfg": false,
      "metar_trigger": false,
      "taf_trigger": false,
      "metar": "METAR LMML 221545Z 08005KT 040V160 9999 FEW017 SCT025 16/13 Q1011 NOSIG",
      "taf": "TAF LMML 221100Z 2212/2312 VRB06KT 9999 FEW020"
    },
    {
      "icao": "LOWW",
      "alert": "OK",
      "vis_m": 9999,
      "fzfg": false,
      "metar_trigger": false,
      "taf_trigger": false,
      "metar": "METAR LOWW 221520Z 15017KT 9999 FEW009 BKN011 04/02 Q1016 NOSIG",
      "taf": "TAF LOWW 221415Z 2215/2321 15014KT 9999 BKN012 TX04/2221Z TN03/2321Z"
    },
    {
      "icao": "LPFR",
      "alert": "OK",
      "vis_m": 9999,
      "fzfg": false,
      "metar_trigger": false,
      "taf_trigger": false,
      "metar": "METAR LPFR 221530Z 29012KT 9999 FEW025 15/06 Q1014",
      "taf": ""
    },
    {
      "icao": "LPMA",
      "alert": "OK",
      "vis_m": 9999,
      "fzfg": false,
      "metar_trigger": false,
      "taf_trigger": false,
      "metar": "METAR LPMA 221530Z 36006KT 300V050 9999 SCT015 19/09 Q1022",
      "taf": ""
    },
    {
      "icao": "LPPR",
      "alert": "OK",
      "vis_m": 9999,
      "fzfg": false,
      "metar_trigger": false,
      "taf_trigger": false,
      "metar": "METAR LPPR 221530Z 20006KT 9999 FEW016 SCT045 11/07 Q1011",
      "taf": ""
    },
    {
      "icao": "LPPS",
      "alert": "OK",
      "vis_m": 9999,
      "fzfg": false,
      "metar_trigger": false,
      "taf_trigger": false,
      "metar": "METAR LPPS 221530Z 33009KT 300V360 9999 SCT015 18/12 Q1022",
      "taf": ""
    },
    {
      "icao": "LPPT",
      "alert": "OK",
      "vis_m": 9999,
      "fzfg": false,
      "metar_trigger": false,
      "taf_trigger": false,
      "metar": "METAR LPPT 221530Z 31004KT 280V350 9999 FEW033 13/07 Q1014",
      "taf": ""
    },
    {
      "icao": "LQBK",
      "alert": "OK",
      "vis_m": 7000,
      "fzfg": false,
      "metar_trigger": false,
      "taf_trigger": false,
      "metar": "METAR LQBK 221530Z 14002KT 7000 OVC015 05/03 Q1019 NOSIG",
      "taf": "TAF LQBK 221100Z 2212/2312 VRB02KT 7000 BKN005 OVC015 TX06/2213Z TN01/2305Z"
    },
    {
      "icao": "LQSA",
      "alert": "OK",
      "vis_m": 9999,
      "fzfg": false,
      "metar_trigger": false,
      "taf_trigger": false,
      "metar": "METAR LQSA 221530Z VRB02KT 9999 OVC012 02/00 Q1017 NOSIG",
      "taf": "TAF LQSA 221100Z 2212/2312 VRB02KT 9999 BKN012 TX04/2213Z TNM04/2305Z"
    },
    {
      "icao": "LQTZ",
      "alert": "OK",
      "vis_m": 9999,
      "fzfg": false,
      "metar_trigger": false,
      "taf_trigger": false,
      "metar": "METAR LQTZ 221530Z 31002KT 9999 SCT016 BKN035 05/03 Q1018",
      "taf": "TAF LQTZ 221100Z 2212/2312 VRB02KT 9999 SCT015 BKN035 TX05/2213Z TNM01/2305Z"
    },
    {
      "icao": "LRBC",
      "alert": "OK",
      "vis_m": 6000,
      "fzfg": false,
      "metar_trigger": false,
      "taf_trigger": false,
      "metar": "METAR LRBC 221530Z 00000KT 6000 OVC006 04/03 Q1022",
      "taf": "TAF LRBC 221400Z 2215/2224 VRB04KT 5000 BR OVC005"
    },
    {
      "icao": "LRBS",
      "alert": "OK",
      "vis_m": 8000,
      "fzfg": false,
      "metar_trigger": false,
      "taf_trigger": false,
      "metar": "METAR LRBS 221530Z 06006KT 8000 -DZ OVC005 04/03 Q1023 BECMG 5000 -DZ BR",
      "taf": "TAF LRBS 221100Z 2212/2312 06006KT 9999 BKN005 OVC010"
    },
    {
      "icao": "LRBV",
      "alert": "OK",
      "vis_m": 150,
      "fzfg": true,
      "metar_trigger": false,
      "taf_trigger": false,
      "metar": "METAR LRBV 221530Z VRB03KT 0150 R21/0450N FZFG VV001 M00/M00 Q1019",
      "taf": ""
    },
    {
      "icao": "LRCL",
      "alert": "OK",
      "vis_m": 7000,
      "fzfg": false,
      "metar_trigger": false,
      "taf_trigger": false,
      "metar": "METAR LRCL 221530Z 04003KT 7000 OVC007 02/01 Q1020",
      "taf": "TAF LRCL 221400Z 2215/2224 VRB04KT 9999 OVC005"
    },
    {
      "icao": "LRCV",
      "alert": "OK",
      "vis_m": 4000,
      "fzfg": false,
      "metar_trigger": false,
      "taf_trigger": false,
      "metar": "METAR LRCV 221530Z 10006KT 4000 BR OVC004 05/04 Q1021",
      "taf": "TAF LRCV 221400Z 2215/2224 11006KT 3000 BR OVC005"
    },
    {
      "icao": "LRIA",
      "alert": "OK",
      "vis_m": 9999,
      "fzfg": false,
      "metar_trigger": false,
      "taf_trigger": false,
      "metar": "METAR LRIA 221530Z 03005KT 9999 BKN014 BKN028 03/02 Q1023",
      "taf": "TAF LRIA 221400Z 2215/2224 VRB04KT 5000 BR BKN005 OVC010"
    },
    {
      "icao": "LROP",
      "alert": "OK",
      "vis_m": 8000,
      "fzfg": false,
      "metar_trigger": false,
      "taf_trigger": false,
      "metar": "METAR LROP 221530Z 09007KT 050V110 8000 BKN005 OVC006 04/03 Q1023 BECMG 5000 -DZ BR",
      "taf": "TAF LROP 221100Z 2212/2312 06006KT 9999 BKN005 OVC010"
    },
    {
      "icao": "LRSB",
      "alert": "OK",
      "vis_m": 400,
      "fzfg": true,
      "metar_trigger": false,
      "taf_trigger": false,
      "metar": "METAR LRSB 221530Z 26004KT 0400 R27/1300U FZFG VV002 M01/M01 Q1020",
      "taf": "TAF LRSB 221100Z 2212/2312 VRB04KT 0350 FZFG VV001"
    },
    {
      "icao": "LRSM",
      "alert": "OK",
      "vis_m": 3000,
      "fzfg": false,
      "metar_trigger": false,
      "taf_trigger": false,
      "metar": "METAR LRSM 221530Z 27004KT 3000 BR SCT015 OVC020 06/05 Q1020",
      "taf": "TAF LRSM 221400Z 2215/2224 VRB04KT 5000 BR OVC030"
    },
    {
      "icao": "LRSV",
      "alert": "OK",
      "vis_m": 7000,
      "fzfg": false,
      "metar_trigger": false,
      "taf_trigger": false,
      "metar": "METAR LRSV 221530Z 09004KT 7000 OVC006 01/01 Q1021",
      "taf": "TAF LRSV 221400Z 2215/2224 VRB04KT 3000 BR OVC002"
    },
    {
      "icao": "LRTM",
      "alert": "OK",
      "vis_m": 2500,
      "fzfg": false,
      "metar_trigger": false,
      "taf_trigger": false,
      "metar": "METAR LRTM 221530Z 22002KT 2500 BR SCT002 BKN004 BKN006 02/01 Q1020",
      "taf": "TAF LRTM 221400Z 2215/2224 VRB04KT 3000 BR BKN002 OVC005"
    },
    {
      "icao": "LRTR",
      "alert": "OK",
      "vis_m": 9999,
      "fzfg": false,
      "metar_trigger": false,
      "taf_trigger": false,
      "metar": "METAR LRTR 221530Z 09006KT 9999 OVC010 04/04 Q1020",
      "taf": "TAF LRTR 221100Z 2212/2312 VRB04KT 9999 BKN005 OVC010"
    },
    {
      "icao": "LTAC",
      "alert": "OK",
      "vis_m": 9999,
      "fzfg": false,
      "metar_trigger": false,
      "taf_trigger": false,
      "metar": "METAR LTAC 221520Z 07004KT 010V090 9999 BKN030 BKN080 06/02 Q1016 NOSIG RMK RWY21C 02004KT RWY03L 05005KT RWY21R 02006KT RWY03R VRB01KT RWY21L 04003KT 360V060",
      "taf": "TAF LTAC 221040Z 2212/2312 VRB02KT 9999 SCT040 BKN100"
    },
    {
      "icao": "LTFM",
      "alert": "OK",
      "vis_m": 9999,
      "fzfg": false,
      "metar_trigger": false,
      "taf_trigger": false,
      "metar": "METAR LTFM 221520Z 05017KT 9999 FEW014 BKN022 12/07 Q1018 NOSIG RMK RWY17L 05016KT RWY34L 04016KT RWY16R 04017KT RWY36 04017KT RWY18 06015KT",
      "taf": "TAF LTFM 221040Z 2212/2318 03018G28KT 9999 -SHRA SCT014 BKN022"
    },
    {
      "icao": "LUKK",
      "alert": "OK",
      "vis_m": 9999,
      "fzfg": false,
      "metar_trigger": false,
      "taf_trigger": false,
      "metar": "METAR LUKK 221530Z 04005KT 9999 OVC022 03/01 Q1023 NOSIG",
      "taf": "TAF LUKK 221118Z 2212/2312 VRB05KT 9999 OVC010"
    },
    {
      "icao": "LWOH",
      "alert": "OK",
      "vis_m": 9999,
      "fzfg": false,
      "metar_trigger": false,
      "taf_trigger": false,
      "metar": "METAR LWOH 221550Z 04003KT 9999 BKN040 08/04 Q1016",
      "taf": "TAF LWOH 221430Z 2215/2315 VRB02KT 9999 SCT040"
    },
    {
      "icao": "LWSK",
      "alert": "OK",
      "vis_m": 6000,
      "fzfg": false,
      "metar_trigger": false,
      "taf_trigger": false,
      "metar": "METAR LWSK 221550Z VRB02KT 6000 SCT009 BKN023 04/02 Q1019 NOSIG",
      "taf": "TAF LWSK 221430Z 2215/2315 VRB02KT 6000 SCT010 BKN030"
    },
    {
      "icao": "LYBE",
      "alert": "OK",
      "vis_m": 9999,
      "fzfg": false,
      "metar_trigger": false,
      "taf_trigger": false,
      "metar": "METAR LYBE 221530Z 11005KT 9999 OVC020 06/03 Q1019 NOSIG",
      "taf": "TAF LYBE 221100Z 2212/2312 12008KT 9999 OVC017 TX08/2312Z TN02/2306Z"
    },
    {
      "icao": "LYNI",
      "alert": "OK",
      "vis_m": 9999,
      "fzfg": false,
      "metar_trigger": false,
      "taf_trigger": false,
      "metar": "METAR LYNI 221530Z VRB02KT 9999 BKN013 05/03 Q1019 NOSIG",
      "taf": "TAF LYNI 221100Z 2212/2312 07005KT 9999 SCT023 TX09/2312Z TNM01/2306Z"
    },
    {
      "icao": "LYPG",
      "alert": "OK",
      "vis_m": 9999,
      "fzfg": false,
      "metar_trigger": false,
      "taf_trigger": false,
      "metar": "METAR LYPG 221530Z 14003KT CAVOK 08/04 Q1016 NOSIG",
      "taf": "TAF LYPG 221100Z 2212/2312 VRB02KT CAVOK TX13/2213Z TN05/2222Z"
    },
    {
      "icao": "LZIB",
      "alert": "OK",
      "vis_m": 9999,
      "fzfg": false,
      "metar_trigger": false,
      "taf_trigger": false,
      "metar": "METAR LZIB 221530Z 12009KT 9999 -DZ SCT006 BKN009 04/03 Q1018 NOSIG",
      "taf": "TAF LZIB 221115Z 2212/2312 12011KT 8000 SCT004 OVC013"
    },
    {
      "icao": "LZKZ",
      "alert": "OK",
      "vis_m": 9000,
      "fzfg": false,
      "metar_trigger": false,
      "taf_trigger": false,
      "metar": "METAR LZKZ 221530Z VRB02KT 9000 OVC016 06/04 Q1020 NOSIG",
      "taf": "TAF LZKZ 221115Z 2212/2312 VRB02KT 6000 BKN008"
    },
    {
      "icao": "LZTT",
      "alert": "OK",
      "vis_m": 2500,
      "fzfg": false,
      "metar_trigger": false,
      "taf_trigger": false,
      "metar": "METAR LZTT 221530Z VRB01KT 2500 BR OVC002 02/01 Q1018 NOSIG",
      "taf": "TAF LZTT 221115Z 2212/2312 VRB02KT 4000 BR FEW002 BKN006"
    },
    {
      "icao": "OEJN",
      "alert": "OK",
      "vis_m": 7000,
      "fzfg": false,
      "metar_trigger": false,
      "taf_trigger": false,
      "metar": "METAR OEJN 221500Z 26005KT 7000 NSC 28/23 Q1011 NOSIG",
      "taf": "TAF OEJN 221100Z 2212/2318 25010KT 9999 SCT040"
    },
    {
      "icao": "OEMA",
      "alert": "OK",
      "vis_m": 9999,
      "fzfg": false,
      "metar_trigger": false,
      "taf_trigger": false,
      "metar": "METAR OEMA 221500Z 04004KT CAVOK 25/02 Q1016 NOSIG",
      "taf": "TAF OEMA 221100Z 2212/2318 10008KT CAVOK"
    },
    {
      "icao": "OJAI",
      "alert": "OK",
      "vis_m": 5000,
      "fzfg": false,
      "metar_trigger": false,
      "taf_trigger": false,
      "metar": "METAR OJAI 221500Z 08005KT 5000 HZ NSC 13/02 Q1016 NOSIG",
      "taf": "TAF OJAI 221044Z 2212/2318 12010KT 5000 HZ NSC"
    },
    {
      "icao": "OMAA",
      "alert": "OK",
      "vis_m": 9999,
      "fzfg": false,
      "metar_trigger": false,
      "taf_trigger": false,
      "metar": "METAR OMAA 221500Z 35007KT CAVOK 21/09 Q1019 NOSIG",
      "taf": "TAF OMAA 221100Z 2212/2318 01011KT 8000 NSC"
    },
    {
      "icao": "OMDB",
      "alert": "OK",
      "vis_m": 9999,
      "fzfg": false,
      "metar_trigger": false,
      "taf_trigger": false,
      "metar": "METAR OMDB 221530Z 02008KT 360V060 CAVOK 22/10 Q1020 NOSIG",
      "taf": "TAF OMDB 221100Z 2212/2318 35012KT CAVOK"
    },
    {
      "icao": "UAAA",
      "alert": "OK",
      "vis_m": 4000,
      "fzfg": false,
      "metar_trigger": false,
      "taf_trigger": false,
      "metar": "METAR UAAA 221530Z 30002MPS 260V340 4000 BR BKN010 OVC100 M02/M03 Q1029 NOSIG",
      "taf": ""
    },
    {
      "icao": "UBBB",
      "alert": "OK",
      "vis_m": 9999,
      "fzfg": false,
      "metar_trigger": false,
      "taf_trigger": false,
      "metar": "METAR UBBB 221530Z 00000KT CAVOK 06/02 Q1018 NOSIG",
      "taf": "TAF UBBB 221053Z 2212/2312 VRB04KT 9999 SCT030 TX09/2212Z TN04/2302Z"
    },
    {
      "icao": "UDSG",
      "alert": "OK",
      "vis_m": 6000,
      "fzfg": false,
      "metar_trigger": false,
      "taf_trigger": false,
      "metar": "METAR UDSG 221530Z 34002KT 6000 NSC M02/M05 Q1021 NOSIG",
      "taf": "TAF UDSG 221058Z 2212/2312 VRB06KT 9999 SCT050"
    },
    {
      "icao": "UDYZ",
      "alert": "OK",
      "vis_m": 3000,
      "fzfg": false,
      "metar_trigger": false,
      "taf_trigger": false,
      "metar": "METAR UDYZ 221530Z 35001KT 3000 BR NSC M00/M04 Q1022 NOSIG",
      "taf": "TAF UDYZ 221100Z 2212/2312 VRB04KT 6000 NSC"
    },
    {
      "icao": "UGKO",
      "alert": "OK",
      "vis_m": 9999,
      "fzfg": false,
      "metar_trigger": false,
      "taf_trigger": false,
      "metar": "METAR UGKO 221530Z VRB02KT 9999 SCT035 OVC080 08/01 Q1018 NOSIG",
      "taf": "TAF UGKO 221100Z 2212/2312 08007KT 9999 BKN080 TX15/2312Z TN03/2303Z"
    }
  ]
}