{
  "ts_utc": "2026-03-19T23:59:35Z",
  "threshold_m": 150,
  "source": "stations_override.txt (ICAO list) + aviationweather.gov (METAR/TAF raw)",
  "station_count": 159,
  "stations": [
    {
      "icao": "BIKF",
      "alert": "OK",
      "vis_m": 9999,
      "fzfg": false,
      "metar_trigger": false,
      "taf_trigger": false,
      "metar": "METAR BIKF 192330Z 23039G52KT 9999 VCSH FEW016CB SCT029 BKN051 02/M02 Q0990",
      "taf": "TAF BIKF 192246Z 2000/2100 23038G53KT 9999 -SHSN SCT010 BKN020 TX01/1924Z TNM02/2020Z"
    },
    {
      "icao": "BKPR",
      "alert": "OK",
      "vis_m": null,
      "fzfg": false,
      "metar_trigger": false,
      "taf_trigger": false,
      "metar": "",
      "taf": "TAF BKPR 192330Z 2000/2024 36007KT 9999 SCT080"
    },
    {
      "icao": "EBCI",
      "alert": "OK",
      "vis_m": 9999,
      "fzfg": false,
      "metar_trigger": false,
      "taf_trigger": false,
      "metar": "METAR EBCI 192350Z 04003KT CAVOK 07/01 Q1022 NOSIG",
      "taf": "TAF EBCI 192312Z 2000/2106 04005KT CAVOK"
    },
    {
      "icao": "EDDB",
      "alert": "OK",
      "vis_m": 9999,
      "fzfg": false,
      "metar_trigger": false,
      "taf_trigger": false,
      "metar": "METAR EDDB 192350Z AUTO 28002KT CAVOK 06/02 Q1021 NOSIG",
      "taf": "TAF EDDB 192300Z 2000/2024 28005KT CAVOK"
    },
    {
      "icao": "EDDH",
      "alert": "OK",
      "vis_m": 9999,
      "fzfg": false,
      "metar_trigger": false,
      "taf_trigger": false,
      "metar": "METAR EDDH 192350Z AUTO 36003KT 320V030 CAVOK 08/05 Q1023 NOSIG",
      "taf": "TAF EDDH 192300Z 2000/2106 33004KT CAVOK"
    },
    {
      "icao": "EDDK",
      "alert": "OK",
      "vis_m": 9999,
      "fzfg": false,
      "metar_trigger": false,
      "taf_trigger": false,
      "metar": "METAR EDDK 192350Z AUTO 05003KT 030V090 CAVOK 04/01 Q1022 NOSIG",
      "taf": "TAF EDDK 192300Z 2000/2106 VRB02KT CAVOK"
    },
    {
      "icao": "EDDN",
      "alert": "OK",
      "vis_m": 9999,
      "fzfg": false,
      "metar_trigger": false,
      "taf_trigger": false,
      "metar": "METAR EDDN 192350Z AUTO VRB01KT CAVOK 00/M02 Q1021",
      "taf": "TAF EDDN 192300Z 2000/2024 VRB03KT CAVOK"
    },
    {
      "icao": "EDDS",
      "alert": "OK",
      "vis_m": 9999,
      "fzfg": false,
      "metar_trigger": false,
      "taf_trigger": false,
      "metar": "METAR EDDS 192350Z AUTO 32004KT CAVOK 03/M02 Q1019",
      "taf": "TAF EDDS 192300Z 2000/2024 VRB02KT CAVOK"
    },
    {
      "icao": "EDFH",
      "alert": "OK",
      "vis_m": 9999,
      "fzfg": false,
      "metar_trigger": false,
      "taf_trigger": false,
      "metar": "METAR EDFH 192350Z 12003KT 080V150 CAVOK 06/M01 Q1020",
      "taf": "TAF EDFH 192300Z 2000/2024 09005KT CAVOK"
    },
    {
      "icao": "EDJA",
      "alert": "OK",
      "vis_m": 9999,
      "fzfg": false,
      "metar_trigger": false,
      "taf_trigger": false,
      "metar": "METAR EDJA 192350Z AUTO 05004KT 9999 // NCD M01/M03 Q1019",
      "taf": "TAF EDJA 191700Z 1918/2003 06007KT CAVOK"
    },
    {
      "icao": "EDLW",
      "alert": "OK",
      "vis_m": 9999,
      "fzfg": false,
      "metar_trigger": false,
      "taf_trigger": false,
      "metar": "METAR EDLW 192350Z AUTO 36002KT 9999 // NCD 06/01 Q1022",
      "taf": "TAF EDLW 191700Z 1918/2018 VRB03KT CAVOK"
    },
    {
      "icao": "EDNY",
      "alert": "OK",
      "vis_m": 9999,
      "fzfg": false,
      "metar_trigger": false,
      "taf_trigger": false,
      "metar": "METAR EDNY 192350Z AUTO 07005KT 9999 // NCD 04/M02 Q1019",
      "taf": "TAF EDNY 191700Z 1918/2003 04011KT CAVOK"
    },
    {
      "icao": "EDSB",
      "alert": "OK",
      "vis_m": 9999,
      "fzfg": false,
      "metar_trigger": false,
      "taf_trigger": false,
      "metar": "METAR EDSB 192350Z AUTO 03006KT 9999 NCD 05/M01 Q1020",
      "taf": "TAF EDSB 192300Z 2000/2024 03005KT CAVOK"
    },
    {
      "icao": "EETN",
      "alert": "OK",
      "vis_m": 9999,
      "fzfg": false,
      "metar_trigger": false,
      "taf_trigger": false,
      "metar": "METAR EETN 192350Z 32007KT CAVOK 02/M01 Q1017",
      "taf": "TAF EETN 192330Z 2000/2024 31010KT CAVOK"
    },
    {
      "icao": "EFTU",
      "alert": "OK",
      "vis_m": 9999,
      "fzfg": false,
      "metar_trigger": false,
      "taf_trigger": false,
      "metar": "METAR EFTU 192350Z AUTO 30004KT CAVOK M01/M03 Q1018",
      "taf": "TAF EFTU 192327Z 2000/2024 31005KT CAVOK"
    },
    {
      "icao": "EGBB",
      "alert": "OK",
      "vis_m": 7000,
      "fzfg": false,
      "metar_trigger": false,
      "taf_trigger": false,
      "metar": "METAR EGBB 192350Z 03003KT 7000 NSC 04/03 Q1026",
      "taf": ""
    },
    {
      "icao": "EGGP",
      "alert": "OK",
      "vis_m": 9999,
      "fzfg": false,
      "metar_trigger": false,
      "taf_trigger": false,
      "metar": "METAR EGGP 192350Z 11004KT CAVOK 07/05 Q1025",
      "taf": "TAF EGGP 192259Z 2000/2024 13004KT CAVOK"
    },
    {
      "icao": "EGGW",
      "alert": "OK",
      "vis_m": 9999,
      "fzfg": false,
      "metar_trigger": false,
      "taf_trigger": false,
      "metar": "METAR EGGW 192350Z AUTO 02005KT 9999 NCD 06/03 Q1025",
      "taf": "TAF EGGW 192257Z 2000/2024 04005KT CAVOK"
    },
    {
      "icao": "EGKK",
      "alert": "OK",
      "vis_m": 9999,
      "fzfg": false,
      "metar_trigger": false,
      "taf_trigger": false,
      "metar": "METAR EGKK 192350Z 09002KT CAVOK 05/02 Q1024",
      "taf": "TAF EGKK 192258Z 2000/2106 VRB02KT CAVOK"
    },
    {
      "icao": "EGNM",
      "alert": "OK",
      "vis_m": null,
      "fzfg": false,
      "metar_trigger": false,
      "taf_trigger": false,
      "metar": "",
      "taf": "TAF EGNM 192259Z 2000/2024 07005KT 9999 FEW030"
    },
    {
      "icao": "EGPD",
      "alert": "OK",
      "vis_m": 9999,
      "fzfg": false,
      "metar_trigger": false,
      "taf_trigger": false,
      "metar": "METAR EGPD 192350Z COR AUTO 15004KT 090V220 9999 NCD 06/02 Q1025 NOSIG",
      "taf": "TAF EGPD 192257Z 2000/2024 17009KT CAVOK"
    },
    {
      "icao": "EGPF",
      "alert": "OK",
      "vis_m": 9999,
      "fzfg": false,
      "metar_trigger": false,
      "taf_trigger": false,
      "metar": "METAR EGPF 192350Z AUTO 05003KT 9999 BKN036 BKN048 06/05 Q1025",
      "taf": "TAF EGPF 192257Z 2000/2024 07006KT 9999 FEW045"
    },
    {
      "icao": "EHBK",
      "alert": "OK",
      "vis_m": 9999,
      "fzfg": false,
      "metar_trigger": false,
      "taf_trigger": false,
      "metar": "METAR EHBK 192325Z AUTO 03004KT 9999 NSC 07/02 Q1022",
      "taf": "TAF EHBK 192314Z 2000/2106 04004KT CAVOK"
    },
    {
      "icao": "EHEH",
      "alert": "OK",
      "vis_m": 9999,
      "fzfg": false,
      "metar_trigger": false,
      "taf_trigger": false,
      "metar": "METAR EHEH 192325Z AUTO 01004KT 9999 BKN170 05/03 Q1023 BLU",
      "taf": "TAF EHEH 191732Z 1918/2024 04005KT CAVOK"
    },
    {
      "icao": "EKBI",
      "alert": "OK",
      "vis_m": 250,
      "fzfg": false,
      "metar_trigger": false,
      "taf_trigger": false,
      "metar": "METAR EKBI 192350Z AUTO 30004KT 0250 R09/0800N R27/1000N FG VV002 03/03 Q1024",
      "taf": "TAF EKBI 192327Z 2000/2024 31005KT 0200 FG VV002"
    },
    {
      "icao": "EKCH",
      "alert": "OK",
      "vis_m": 4000,
      "fzfg": false,
      "metar_trigger": false,
      "taf_trigger": false,
      "metar": "METAR EKCH 192350Z 34004KT 290V350 4000 MIFG NSC 02/02 Q1022 TEMPO 1200 BR BKN006",
      "taf": ""
    },
    {
      "icao": "ENAL",
      "alert": "OK",
      "vis_m": 9999,
      "fzfg": false,
      "metar_trigger": false,
      "taf_trigger": false,
      "metar": "METAR ENAL 192350Z AUTO 21012KT 9999 SCT030/// 07/02 Q1021",
      "taf": "TAF ENAL 192300Z 2000/2009 23014KT 9999 FEW015 BKN025"
    },
    {
      "icao": "ENBR",
      "alert": "OK",
      "vis_m": 9999,
      "fzfg": false,
      "metar_trigger": false,
      "taf_trigger": false,
      "metar": "METAR ENBR 192350Z 13004KT 9999 SCT003 SCT008 BKN010 04/04 Q1025 RMK WIND 1200FT 24007KT",
      "taf": "TAF ENBR 192300Z 2000/2024 22005KT 9999 FEW008 BKN018"
    },
    {
      "icao": "ENGM",
      "alert": "OK",
      "vis_m": 9999,
      "fzfg": false,
      "metar_trigger": false,
      "taf_trigger": false,
      "metar": "METAR ENGM 192350Z VRB02KT CAVOK 02/M03 Q1022",
      "taf": "TAF ENGM 192300Z 2000/2024 VRB03KT CAVOK"
    },
    {
      "icao": "ENHD",
      "alert": "OK",
      "vis_m": 1100,
      "fzfg": false,
      "metar_trigger": false,
      "taf_trigger": false,
      "metar": "METAR ENHD 192350Z AUTO 00000KT 1100 R13/P2000N R31/P2000N BR VV006 03/03 Q1025",
      "taf": "TAF ENHD 191400Z 1915/1923 28008KT 9999 BKN016"
    },
    {
      "icao": "ENTC",
      "alert": "OK",
      "vis_m": 9999,
      "fzfg": false,
      "metar_trigger": false,
      "taf_trigger": false,
      "metar": "METAR ENTC 192350Z 20013KT 9999 -DZ FEW011 BKN036 02/00 Q1005 RMK WIND 2600FT 21016KT",
      "taf": "TAF ENTC 192300Z 2000/2024 22008KT 9999 BKN020"
    },
    {
      "icao": "ENTO",
      "alert": "OK",
      "vis_m": 9999,
      "fzfg": false,
      "metar_trigger": false,
      "taf_trigger": false,
      "metar": "METAR ENTO 192350Z AUTO 33002KT 9999 // NCD 04/M01 Q1022",
      "taf": "TAF ENTO 192300Z 2000/2024 VRB03KT CAVOK"
    },
    {
      "icao": "ENVA",
      "alert": "OK",
      "vis_m": 9999,
      "fzfg": false,
      "metar_trigger": false,
      "taf_trigger": false,
      "metar": "METAR ENVA 192350Z AUTO 23007KT 9999 BKN024/// OVC029/// 06/03 Q1020 RMK WIND 670FT 24008KT",
      "taf": "TAF ENVA 192300Z 2000/2024 23005KT 9999 BKN030"
    },
    {
      "icao": "ENZV",
      "alert": "OK",
      "vis_m": 7000,
      "fzfg": false,
      "metar_trigger": false,
      "taf_trigger": false,
      "metar": "METAR ENZV 192350Z 23001KT 7000 BKN022 05/05 Q1025",
      "taf": "TAF ENZV 192300Z 2000/2024 VRB05KT 9999 BKN004"
    },
    {
      "icao": "EPGD",
      "alert": "OK",
      "vis_m": 9999,
      "fzfg": false,
      "metar_trigger": false,
      "taf_trigger": false,
      "metar": "METAR EPGD 192330Z 27003KT 9999 FEW038 06/01 Q1020",
      "taf": "TAF EPGD 192330Z 2000/2024 30005KT 9999 BKN045"
    },
    {
      "icao": "EPKK",
      "alert": "OK",
      "vis_m": 9999,
      "fzfg": false,
      "metar_trigger": false,
      "taf_trigger": false,
      "metar": "METAR EPKK 192330Z VRB02KT CAVOK 02/M01 Q1019",
      "taf": "TAF EPKK 192330Z 2000/2024 VRB02KT CAVOK"
    },
    {
      "icao": "EPKT",
      "alert": "OK",
      "vis_m": 4500,
      "fzfg": false,
      "metar_trigger": false,
      "taf_trigger": false,
      "metar": "METAR EPKT 192330Z 33001KT 4500 0900NW BCFG BR NSC M04/M05 Q1020",
      "taf": "TAF EPKT 192330Z 2000/2024 VRB02KT 5000 BR NSC"
    },
    {
      "icao": "EPLB",
      "alert": "OK",
      "vis_m": 7000,
      "fzfg": false,
      "metar_trigger": false,
      "taf_trigger": false,
      "metar": "METAR EPLB 192330Z 29003KT 7000 NSC 00/M02 Q1019",
      "taf": "TAF EPLB 192330Z 2000/2024 VRB02KT CAVOK"
    },
    {
      "icao": "EPMO",
      "alert": "OK",
      "vis_m": 9999,
      "fzfg": false,
      "metar_trigger": false,
      "taf_trigger": false,
      "metar": "METAR EPMO 192330Z 26002KT CAVOK 01/M02 Q1020",
      "taf": "TAF EPMO 192330Z 2000/2024 29004KT CAVOK"
    },
    {
      "icao": "EPPO",
      "alert": "OK",
      "vis_m": 8000,
      "fzfg": false,
      "metar_trigger": false,
      "taf_trigger": false,
      "metar": "METAR EPPO 192330Z 01002KT 8000 NSC 03/00 Q1020",
      "taf": "TAF EPPO 192330Z 2000/2024 VRB02KT 6000 NSC"
    },
    {
      "icao": "EPRA",
      "alert": "OK",
      "vis_m": 9999,
      "fzfg": false,
      "metar_trigger": false,
      "taf_trigger": false,
      "metar": "METAR EPRA 192330Z 32004KT CAVOK 04/M02 Q1019",
      "taf": "TAF EPRA 192330Z 2000/2009 31005KT CAVOK"
    },
    {
      "icao": "EPRZ",
      "alert": "OK",
      "vis_m": 6000,
      "fzfg": false,
      "metar_trigger": false,
      "taf_trigger": false,
      "metar": "METAR EPRZ 192330Z 27003KT 6000 NSC 06/01 Q1019",
      "taf": "TAF EPRZ 192330Z 2000/2024 28002KT CAVOK"
    },
    {
      "icao": "EPSC",
      "alert": "OK",
      "vis_m": 9999,
      "fzfg": false,
      "metar_trigger": false,
      "taf_trigger": false,
      "metar": "METAR EPSC 192330Z 30002KT 9999 FEW047 07/02 Q1021",
      "taf": "TAF EPSC 192330Z 2000/2024 30005KT CAVOK"
    },
    {
      "icao": "EPSY",
      "alert": "OK",
      "vis_m": 9999,
      "fzfg": false,
      "metar_trigger": false,
      "taf_trigger": false,
      "metar": "METAR EPSY 192330Z VRB03KT 9999 FEW003 BKN020 BKN030 05/03 Q1019",
      "taf": "TAF EPSY 192330Z 2000/2009 VRB02KT 9999 BKN040"
    },
    {
      "icao": "EPWA",
      "alert": "OK",
      "vis_m": 9999,
      "fzfg": false,
      "metar_trigger": false,
      "taf_trigger": false,
      "metar": "METAR EPWA 192330Z 24002KT CAVOK 00/M02 Q1019 NOSIG",
      "taf": "TAF EPWA 192330Z 2000/2024 30003KT CAVOK"
    },
    {
      "icao": "EPWR",
      "alert": "OK",
      "vis_m": 9999,
      "fzfg": false,
      "metar_trigger": false,
      "taf_trigger": false,
      "metar": "METAR EPWR 192330Z 30002KT CAVOK 01/M02 Q1021",
      "taf": "TAF EPWR 192330Z 2000/2024 VRB02KT CAVOK"
    },
    {
      "icao": "ESGG",
      "alert": "OK",
      "vis_m": 9999,
      "fzfg": false,
      "metar_trigger": false,
      "taf_trigger": false,
      "metar": "METAR ESGG 192350Z 35004KT CAVOK 02/01 Q1022",
      "taf": "TAF ESGG 192330Z 2000/2024 VRB03KT CAVOK"
    },
    {
      "icao": "ESKN",
      "alert": "OK",
      "vis_m": 9999,
      "fzfg": false,
      "metar_trigger": false,
      "taf_trigger": false,
      "metar": "METAR ESKN 192350Z 29006KT CAVOK 01/01 Q1021",
      "taf": "TAF ESKN 192330Z 2000/2024 27003KT CAVOK"
    },
    {
      "icao": "ESMS",
      "alert": "OK",
      "vis_m": 3800,
      "fzfg": false,
      "metar_trigger": false,
      "taf_trigger": false,
      "metar": "METAR ESMS 192350Z 35010KT 3800 BR OVC003 04/04 Q1021",
      "taf": "TAF ESMS 192327Z 2000/2024 36007KT 1500 BR BKN003"
    },
    {
      "icao": "ESSA",
      "alert": "OK",
      "vis_m": 9999,
      "fzfg": false,
      "metar_trigger": false,
      "taf_trigger": false,
      "metar": "METAR ESSA 192350Z 01002KT CAVOK M02/M03 Q1021 NOSIG",
      "taf": "TAF ESSA 192330Z 2000/2024 VRB02KT CAVOK"
    },
    {
      "icao": "EYKA",
      "alert": "OK",
      "vis_m": 4200,
      "fzfg": false,
      "metar_trigger": false,
      "taf_trigger": false,
      "metar": "METAR EYKA 192350Z 29005KT 240V340 4200 -RA BR OVC004 04/03 Q1017",
      "taf": "TAF EYKA 192308Z 2000/2024 VRB04KT 5000 BR OVC005"
    },
    {
      "icao": "EYPA",
      "alert": "OK",
      "vis_m": 5000,
      "fzfg": false,
      "metar_trigger": false,
      "taf_trigger": false,
      "metar": "METAR EYPA 192350Z AUTO VRB02KT 5000 BR OVC014/// 03/03 Q1019",
      "taf": "TAF EYPA 192308Z 2000/2024 VRB04KT 5000 BR SCT002 OVC015"
    },
    {
      "icao": "EYVI",
      "alert": "OK",
      "vis_m": 9999,
      "fzfg": false,
      "metar_trigger": false,
      "taf_trigger": false,
      "metar": "METAR EYVI 192350Z 24004KT 9999 -RA OVC019 04/M00 Q1016 BECMG 5000 RA BR OVC015",
      "taf": "TAF EYVI 192306Z 2000/2024 VRB04KT 5000 RA BR OVC015"
    },
    {
      "icao": "GCFV",
      "alert": "OK",
      "vis_m": 9999,
      "fzfg": false,
      "metar_trigger": false,
      "taf_trigger": false,
      "metar": "METAR GCFV 192330Z AUTO 19018KT 9999 BKN026 BKN032 18/13 Q1002",
      "taf": "TAF GCFV 192000Z 1921/2021 20018KT 9999 SCT035 TX22/2014Z TN17/2006Z"
    },
    {
      "icao": "GCLP",
      "alert": "OK",
      "vis_m": 9999,
      "fzfg": false,
      "metar_trigger": false,
      "taf_trigger": false,
      "metar": "METAR GCLP 192330Z 21021KT 9999 SCT025 BKN035 17/14 Q1000 TEMPO 4500 SHRA SCT025TCU",
      "taf": "TAF GCLP 192000Z 1921/2021 21020KT 9999 SCT035 TX23/2014Z TN16/2006Z"
    },
    {
      "icao": "GCTS",
      "alert": "OK",
      "vis_m": 9999,
      "fzfg": false,
      "metar_trigger": false,
      "taf_trigger": false,
      "metar": "METAR GCTS 192330Z 25014KT 220V280 9999 -RA FEW015TCU BKN030 17/15 Q1000 RESHRA TEMPO 4500 SHRA SCT020TCU",
      "taf": ""
    },
    {
      "icao": "GMAD",
      "alert": "OK",
      "vis_m": 8000,
      "fzfg": false,
      "metar_trigger": false,
      "taf_trigger": false,
      "metar": "METAR GMAD 192330Z 00000KT 8000 -RA BKN023 SCT090 17/15 Q1006 NOSIG",
      "taf": "TAF GMAD 191700Z 1918/2024 27003KT 6000 BKN023"
    },
    {
      "icao": "GMMN",
      "alert": "OK",
      "vis_m": 6000,
      "fzfg": false,
      "metar_trigger": false,
      "taf_trigger": false,
      "metar": "METAR GMMN 192330Z 10003KT 6000 -RA BKN003 BKN014TCU FEW030CB 13/12 Q1007 NOSIG",
      "taf": "TAF GMMN 192300Z 2000/2106 VRB06KT 6000 BKN010 BKN020"
    },
    {
      "icao": "GMMX",
      "alert": "OK",
      "vis_m": 8000,
      "fzfg": false,
      "metar_trigger": false,
      "taf_trigger": false,
      "metar": "METAR GMMX 192330Z 05007KT 020V080 8000 BKN020 15/11 Q1006 NOSIG",
      "taf": "TAF GMMX 192300Z 2000/2106 06008KT 8000 BKN020"
    },
    {
      "icao": "HEGN",
      "alert": "OK",
      "vis_m": 6000,
      "fzfg": false,
      "metar_trigger": false,
      "taf_trigger": false,
      "metar": "METAR HEGN 192300Z 30007KT 6000 NSC 18/05 Q1009 NOSIG",
      "taf": "TAF HEGN 192308Z 2000/2106 27014KT CAVOK"
    },
    {
      "icao": "HEMA",
      "alert": "OK",
      "vis_m": 9999,
      "fzfg": false,
      "metar_trigger": false,
      "taf_trigger": false,
      "metar": "METAR HEMA 192300Z 28010KT CAVOK 20/06 Q1009 NOSIG",
      "taf": "TAF HEMA 192300Z 2000/2106 29015KT CAVOK"
    },
    {
      "icao": "HESH",
      "alert": "OK",
      "vis_m": 9999,
      "fzfg": false,
      "metar_trigger": false,
      "taf_trigger": false,
      "metar": "METAR HESH 192300Z 23005KT CAVOK 19/10 Q1008 NOSIG",
      "taf": "TAF HESH 192308Z 2000/2106 28012KT CAVOK"
    },
    {
      "icao": "HESX",
      "alert": "OK",
      "vis_m": 9999,
      "fzfg": false,
      "metar_trigger": false,
      "taf_trigger": false,
      "metar": "METAR HESX 192300Z 24004KT CAVOK 13/06 Q1008 NOSIG",
      "taf": "TAF HESX 192300Z 2000/2106 23006KT CAVOK"
    },
    {
      "icao": "LATI",
      "alert": "OK",
      "vis_m": 9999,
      "fzfg": false,
      "metar_trigger": false,
      "taf_trigger": false,
      "metar": "METAR LATI 192350Z VRB01KT 9999 FEW096 06/01 Q1010 NOSIG",
      "taf": "TAF LATI 192300Z 2000/2024 VRB04KT CAVOK TX20/2012Z TN04/2004Z"
    },
    {
      "icao": "LBPD",
      "alert": "OK",
      "vis_m": 9999,
      "fzfg": false,
      "metar_trigger": false,
      "taf_trigger": false,
      "metar": "METAR LBPD 192330Z AUTO 13006KT 9999 OVC056/// 06/M01 Q1014",
      "taf": "TAF LBPD 192300Z 2000/2024 VRB04KT 9999 OVC045"
    },
    {
      "icao": "LBSF",
      "alert": "OK",
      "vis_m": 9999,
      "fzfg": false,
      "metar_trigger": false,
      "taf_trigger": false,
      "metar": "METAR LBSF 192330Z AUTO 24004KT 9999 SCT064/// 00/M03 Q1014 NOSIG",
      "taf": "TAF LBSF 192300Z 2000/2024 02006KT 9999 SCT040 OVC060"
    },
    {
      "icao": "LBWN",
      "alert": "OK",
      "vis_m": 9999,
      "fzfg": false,
      "metar_trigger": false,
      "taf_trigger": false,
      "metar": "METAR LBWN 192330Z AUTO 36005KT 300V060 9999 NSC 06/M00 Q1013 NOSIG",
      "taf": "TAF LBWN 192300Z 2000/2024 35010KT 9999 BKN040"
    },
    {
      "icao": "LCLK",
      "alert": "OK",
      "vis_m": 9999,
      "fzfg": false,
      "metar_trigger": false,
      "taf_trigger": false,
      "metar": "METAR LCLK 192330Z 28004KT 220V330 9999 FEW020 SCT040 15/13 Q1001 NOSIG",
      "taf": "TAF LCLK 192330Z 2000/2100 27009KT 9999 FEW030 SCT050"
    },
    {
      "icao": "LCPH",
      "alert": "OK",
      "vis_m": 9999,
      "fzfg": false,
      "metar_trigger": false,
      "taf_trigger": false,
      "metar": "METAR LCPH 192330Z 31015KT 250V320 9999 FEW030 SCT050 16/12 Q1002 NOSIG",
      "taf": "TAF LCPH 192330Z 2000/2100 28014KT 9999 FEW030 SCT050"
    },
    {
      "icao": "LEAL",
      "alert": "OK",
      "vis_m": 9999,
      "fzfg": false,
      "metar_trigger": false,
      "taf_trigger": false,
      "metar": "METAR LEAL 192330Z 06009KT 9999 FEW025 14/11 Q1014 NOSIG",
      "taf": "TAF LEAL 192300Z 2000/2024 07015KT 9999 BKN025 TX17/2012Z TN11/2007Z"
    },
    {
      "icao": "LEBB",
      "alert": "OK",
      "vis_m": 9999,
      "fzfg": false,
      "metar_trigger": false,
      "taf_trigger": false,
      "metar": "METAR LEBB 192330Z AUTO 12010KT 080V150 CAVOK 15/06 Q1013",
      "taf": "TAF LEBB 192300Z 2000/2024 14009KT CAVOK TX20/2015Z TN08/2006Z"
    },
    {
      "icao": "LEBL",
      "alert": "OK",
      "vis_m": 9999,
      "fzfg": false,
      "metar_trigger": false,
      "taf_trigger": false,
      "metar": "METAR LEBL 192330Z 33008KT CAVOK 09/07 Q1017 NOSIG",
      "taf": "TAF LEBL 192300Z 2000/2024 34009KT CAVOK TX17/2012Z TN08/2006Z"
    },
    {
      "icao": "LECH",
      "alert": "OK",
      "vis_m": 7000,
      "fzfg": false,
      "metar_trigger": false,
      "taf_trigger": false,
      "metar": "METAR LECH 192330Z AUTO 02006KT 350V050 7000 NCD 08/06 Q1017",
      "taf": "TAF LECH 192300Z 2000/2024 01006KT 9999 BKN020 TX16/2012Z TN06/2007Z"
    },
    {
      "icao": "LEMD",
      "alert": "OK",
      "vis_m": 9999,
      "fzfg": false,
      "metar_trigger": false,
      "taf_trigger": false,
      "metar": "METAR LEMD 192330Z VRB01KT 9999 FEW050 10/05 Q1014 NOSIG",
      "taf": "TAF LEMD 192300Z 2000/2106 VRB04KT CAVOK TX14/2016Z TN05/2007Z"
    },
    {
      "icao": "LEMG",
      "alert": "OK",
      "vis_m": 9999,
      "fzfg": false,
      "metar_trigger": false,
      "taf_trigger": false,
      "metar": "METAR LEMG 192330Z 16010KT 120V210 9999 BKN025 15/10 Q1010 NOSIG",
      "taf": "TAF LEMG 192300Z 2000/2024 14010KT 9999 FEW020 BKN030 TX16/2013Z TN11/2006Z"
    },
    {
      "icao": "LEVC",
      "alert": "OK",
      "vis_m": 9999,
      "fzfg": false,
      "metar_trigger": false,
      "taf_trigger": false,
      "metar": "METAR LEVC 192330Z 01004KT 340V050 9999 FEW021 12/07 Q1016 NOSIG",
      "taf": "TAF LEVC 192300Z 2000/2024 34006KT 9999 BKN030 TX16/2012Z TN10/2007Z"
    },
    {
      "icao": "LEXJ",
      "alert": "OK",
      "vis_m": 9999,
      "fzfg": false,
      "metar_trigger": false,
      "taf_trigger": false,
      "metar": "METAR LEXJ 192330Z AUTO VRB01KT CAVOK 09/06 Q1011",
      "taf": "TAF LEXJ 192000Z 1921/2021 VRB03KT CAVOK TX21/2014Z TN07/2007Z"
    },
    {
      "icao": "LEZG",
      "alert": "OK",
      "vis_m": 9999,
      "fzfg": false,
      "metar_trigger": false,
      "taf_trigger": false,
      "metar": "METAR LEZG 192330Z 11007KT CAVOK 09/05 Q1016 NOSIG",
      "taf": "TAF LEZG 192300Z 2000/2024 11012KT 9999 FEW010 TX18/2014Z TN06/2007Z"
    },
    {
      "icao": "LEZL",
      "alert": "OK",
      "vis_m": 9999,
      "fzfg": false,
      "metar_trigger": false,
      "taf_trigger": false,
      "metar": "METAR LEZL 192330Z 28016KT CAVOK 16/12 Q1009 NOSIG",
      "taf": "TAF LEZL 192000Z 1921/2021 VRB03KT 9999 FEW035 TX21/2015Z TN13/2007Z"
    },
    {
      "icao": "LFBD",
      "alert": "OK",
      "vis_m": 9999,
      "fzfg": false,
      "metar_trigger": false,
      "taf_trigger": false,
      "metar": "METAR LFBD 192330Z AUTO 09005KT 050V120 CAVOK 10/05 Q1016 NOSIG",
      "taf": "TAF LFBD 192300Z 2000/2106 10007KT CAVOK TX20/2015Z TN05/2006Z"
    },
    {
      "icao": "LFLL",
      "alert": "OK",
      "vis_m": 9999,
      "fzfg": false,
      "metar_trigger": false,
      "taf_trigger": false,
      "metar": "METAR LFLL 192330Z 28002KT CAVOK 08/03 Q1017 NOSIG",
      "taf": "TAF LFLL 192300Z 2000/2106 36005KT CAVOK"
    },
    {
      "icao": "LFLS",
      "alert": "OK",
      "vis_m": 9999,
      "fzfg": false,
      "metar_trigger": false,
      "taf_trigger": false,
      "metar": "METAR LFLS 192330Z AUTO 08004KT CAVOK 03/02 Q1017",
      "taf": "TAF LFLS 191400Z 1915/2015 36008KT CAVOK"
    },
    {
      "icao": "LFMN",
      "alert": "OK",
      "vis_m": 9999,
      "fzfg": false,
      "metar_trigger": false,
      "taf_trigger": false,
      "metar": "METAR LFMN 192330Z 34007KT CAVOK 11/01 Q1017 NOSIG",
      "taf": "TAF LFMN 192000Z 1921/2103 34006KT CAVOK"
    },
    {
      "icao": "LFOB",
      "alert": "OK",
      "vis_m": 9999,
      "fzfg": false,
      "metar_trigger": false,
      "taf_trigger": false,
      "metar": "METAR LFOB 192330Z AUTO 02007KT CAVOK 06/02 Q1021 NOSIG",
      "taf": "TAF LFOB 192300Z 2000/2024 VRB03KT CAVOK"
    },
    {
      "icao": "LFPO",
      "alert": "OK",
      "vis_m": 9999,
      "fzfg": false,
      "metar_trigger": false,
      "taf_trigger": false,
      "metar": "METAR LFPO 192330Z 03007KT CAVOK 09/03 Q1021 NOSIG",
      "taf": "TAF LFPO 192300Z 2000/2106 03007KT CAVOK"
    },
    {
      "icao": "LFSB",
      "alert": "OK",
      "vis_m": 9999,
      "fzfg": false,
      "metar_trigger": false,
      "taf_trigger": false,
      "metar": "METAR LFSB 192330Z AUTO VRB02KT CAVOK 02/M01 Q1019 NOSIG",
      "taf": "TAF LFSB 192300Z 2000/2024 27004KT CAVOK"
    },
    {
      "icao": "LGAV",
      "alert": "OK",
      "vis_m": 9999,
      "fzfg": false,
      "metar_trigger": false,
      "taf_trigger": false,
      "metar": "METAR LGAV 192350Z 03021KT 9999 FEW015 BKN025 08/04 Q1008 NOSIG",
      "taf": "TAF LGAV 192300Z 2000/2024 01016KT 9999 FEW018 BKN025 BKN070"
    },
    {
      "icao": "LGTS",
      "alert": "OK",
      "vis_m": 9999,
      "fzfg": false,
      "metar_trigger": false,
      "taf_trigger": false,
      "metar": "METAR LGTS 192350Z VRB02KT 9999 BKN025 09/03 Q1012 NOSIG",
      "taf": "TAF LGTS 192300Z 2000/2024 VRB03KT 9999 SCT025"
    },
    {
      "icao": "LHBP",
      "alert": "OK",
      "vis_m": 9999,
      "fzfg": false,
      "metar_trigger": false,
      "taf_trigger": false,
      "metar": "METAR LHBP 192330Z 02004KT CAVOK 00/M03 Q1019 NOSIG",
      "taf": "TAF LHBP 192315Z 2000/2024 01004KT CAVOK"
    },
    {
      "icao": "LHDC",
      "alert": "OK",
      "vis_m": 9999,
      "fzfg": false,
      "metar_trigger": false,
      "taf_trigger": false,
      "metar": "METAR LHDC 192315Z AUTO 03010KT CAVOK 07/M01 Q1018",
      "taf": "TAF LHDC 191415Z 1915/1924 03009KT CAVOK"
    },
    {
      "icao": "LIBD",
      "alert": "OK",
      "vis_m": 9999,
      "fzfg": false,
      "metar_trigger": false,
      "taf_trigger": false,
      "metar": "METAR LIBD 192350Z 28007KT 9999 FEW030 10/06 Q1011",
      "taf": "TAF LIBD 192300Z 2000/2024 28010KT 9999 FEW040"
    },
    {
      "icao": "LIBG",
      "alert": "OK",
      "vis_m": null,
      "fzfg": false,
      "metar_trigger": false,
      "taf_trigger": false,
      "metar": "",
      "taf": "TAF LIBG 191700Z 1918/2003 34011KT 9999 FEW040"
    },
    {
      "icao": "LIBP",
      "alert": "OK",
      "vis_m": 9999,
      "fzfg": false,
      "metar_trigger": false,
      "taf_trigger": false,
      "metar": "METAR LIBP 192350Z AUTO 22003KT 180V270 9999 FEW049/// 09/05 Q1015",
      "taf": "TAF LIBP 192300Z 2000/2024 25008KT 9999 FEW040"
    },
    {
      "icao": "LIBR",
      "alert": "OK",
      "vis_m": 9999,
      "fzfg": false,
      "metar_trigger": false,
      "taf_trigger": false,
      "metar": "METAR LIBR 192350Z 05013KT CAVOK 13/05 Q1010",
      "taf": "TAF LIBR 192300Z 2000/2024 04010KT 9999 FEW030"
    },
    {
      "icao": "LICA",
      "alert": "OK",
      "vis_m": 9999,
      "fzfg": false,
      "metar_trigger": false,
      "taf_trigger": false,
      "metar": "METAR LICA 192350Z AUTO 05004KT 020V120 9999 NCD 05/04 Q1011",
      "taf": "TAF LICA 192300Z 2000/2024 VRB05KT 9999 FEW025"
    },
    {
      "icao": "LICC",
      "alert": "OK",
      "vis_m": 9999,
      "fzfg": false,
      "metar_trigger": false,
      "taf_trigger": false,
      "metar": "METAR LICC 192350Z 25005KT 220V280 CAVOK 07/04 Q1012",
      "taf": "TAF LICC 192300Z 2000/2024 26010KT 8000 SCT020"
    },
    {
      "icao": "LICJ",
      "alert": "OK",
      "vis_m": 9999,
      "fzfg": false,
      "metar_trigger": false,
      "taf_trigger": false,
      "metar": "METAR LICJ 192350Z 10003KT 9999 FEW030 12/07 Q1013",
      "taf": "TAF LICJ 192300Z 2000/2024 VRB06KT 9999 SCT020"
    },
    {
      "icao": "LIMC",
      "alert": "OK",
      "vis_m": 9999,
      "fzfg": false,
      "metar_trigger": false,
      "taf_trigger": false,
      "metar": "METAR LIMC 192350Z 06004KT 020V090 CAVOK 09/01 Q1018 NOSIG",
      "taf": "TAF LIMC 192300Z 2000/2106 VRB05KT CAVOK"
    },
    {
      "icao": "LIME",
      "alert": "OK",
      "vis_m": 9999,
      "fzfg": false,
      "metar_trigger": false,
      "taf_trigger": false,
      "metar": "METAR LIME 192350Z 36004KT 9999 BKN065 09/01 Q1019 NOSIG",
      "taf": "TAF LIME 192300Z 2000/2024 VRB05KT 9999 SCT060"
    },
    {
      "icao": "LIMF",
      "alert": "OK",
      "vis_m": 9999,
      "fzfg": false,
      "metar_trigger": false,
      "taf_trigger": false,
      "metar": "METAR LIMF 192350Z 34008KT CAVOK 07/M02 Q1018",
      "taf": "TAF LIMF 192300Z 2000/2024 VRB05KT CAVOK"
    },
    {
      "icao": "LIMJ",
      "alert": "OK",
      "vis_m": 9999,
      "fzfg": false,
      "metar_trigger": false,
      "taf_trigger": false,
      "metar": "METAR LIMJ 192350Z 06007KT CAVOK 12/M03 Q1017",
      "taf": "TAF LIMJ 192300Z 2000/2024 04008KT CAVOK"
    },
    {
      "icao": "LIPE",
      "alert": "OK",
      "vis_m": 9999,
      "fzfg": false,
      "metar_trigger": false,
      "taf_trigger": false,
      "metar": "METAR LIPE 192350Z 23004KT CAVOK 06/00 Q1019",
      "taf": "TAF LIPE 192300Z 2000/2024 VRB05KT CAVOK"
    },
    {
      "icao": "LIPH",
      "alert": "OK",
      "vis_m": 9999,
      "fzfg": false,
      "metar_trigger": false,
      "taf_trigger": false,
      "metar": "METAR LIPH 192350Z AUTO 34004KT 9999 NCD 08/01 Q1020",
      "taf": "TAF LIPH 192300Z 2000/2024 VRB05KT CAVOK"
    },
    {
      "icao": "LIPQ",
      "alert": "OK",
      "vis_m": 9999,
      "fzfg": false,
      "metar_trigger": false,
      "taf_trigger": false,
      "metar": "METAR LIPQ 192350Z AUTO 07004KT 360V110 9999 NCD 11/M03 Q1019",
      "taf": "TAF LIPQ 192300Z 2000/2024 VRB05KT CAVOK"
    },
    {
      "icao": "LIPR",
      "alert": "OK",
      "vis_m": 9999,
      "fzfg": false,
      "metar_trigger": false,
      "taf_trigger": false,
      "metar": "METAR LIPR 192350Z AUTO 07010KT 9999 NCD 12/05 Q1017",
      "taf": "TAF LIPR 192300Z 2000/2024 06010KT CAVOK"
    },
    {
      "icao": "LIPX",
      "alert": "OK",
      "vis_m": 9999,
      "fzfg": false,
      "metar_trigger": false,
      "taf_trigger": false,
      "metar": "METAR LIPX 192350Z 04004KT CAVOK 06/M01 Q1019",
      "taf": "TAF LIPX 192300Z 2000/2024 VRB05KT 9999 FEW060"
    },
    {
      "icao": "LIPY",
      "alert": "OK",
      "vis_m": 9999,
      "fzfg": false,
      "metar_trigger": false,
      "taf_trigger": false,
      "metar": "METAR LIPY 192350Z AUTO 22006KT 9999 FEW096/// 07/06 Q1016",
      "taf": "TAF LIPY 192300Z 2000/2024 VRB05KT CAVOK"
    },
    {
      "icao": "LIPZ",
      "alert": "OK",
      "vis_m": 9999,
      "fzfg": false,
      "metar_trigger": false,
      "taf_trigger": false,
      "metar": "METAR LIPZ 192350Z 05005KT 010V080 CAVOK 09/02 Q1019 NOSIG",
      "taf": "TAF LIPZ 192300Z 2000/2106 VRB05KT CAVOK"
    },
    {
      "icao": "LIRF",
      "alert": "OK",
      "vis_m": 9999,
      "fzfg": false,
      "metar_trigger": false,
      "taf_trigger": false,
      "metar": "METAR LIRF 192350Z 05008KT CAVOK 10/01 Q1013 NOSIG",
      "taf": "TAF LIRF 192300Z 2000/2106 04011KT 9999 SCT050"
    },
    {
      "icao": "LIRN",
      "alert": "OK",
      "vis_m": 9999,
      "fzfg": false,
      "metar_trigger": false,
      "taf_trigger": false,
      "metar": "METAR LIRN 192350Z 01006KT CAVOK 10/02 Q1013 NOSIG",
      "taf": "TAF LIRN 192300Z 2000/2024 04008KT CAVOK"
    },
    {
      "icao": "LIRP",
      "alert": "OK",
      "vis_m": 9999,
      "fzfg": false,
      "metar_trigger": false,
      "taf_trigger": false,
      "metar": "METAR LIRP 192345Z 04008KT CAVOK 10/M02 Q1017 NOSIG",
      "taf": "TAF LIRP 192300Z 2000/2024 04008KT CAVOK"
    },
    {
      "icao": "LIRZ",
      "alert": "OK",
      "vis_m": 9999,
      "fzfg": false,
      "metar_trigger": false,
      "taf_trigger": false,
      "metar": "METAR LIRZ 192350Z AUTO 36007KT 9999 FEW083/// 06/02 Q1015",
      "taf": "TAF LIRZ 192300Z 2000/2024 VRB05KT 9999 FEW040"
    },
    {
      "icao": "LJLJ",
      "alert": "OK",
      "vis_m": 9999,
      "fzfg": false,
      "metar_trigger": false,
      "taf_trigger": false,
      "metar": "METAR LJLJ 192330Z VRB02KT 9999 FEW060 01/M02 Q1019 NOSIG",
      "taf": "TAF LJLJ 192300Z 2000/2100 09008KT 9999 FEW060"
    },
    {
      "icao": "LKMT",
      "alert": "OK",
      "vis_m": 9000,
      "fzfg": false,
      "metar_trigger": false,
      "taf_trigger": false,
      "metar": "METAR LKMT 192330Z VRB02KT 9000 NSC 03/M01 Q1020 NOSIG",
      "taf": "TAF LKMT 192300Z 2000/2024 VRB02KT CAVOK"
    },
    {
      "icao": "LKPR",
      "alert": "OK",
      "vis_m": 9999,
      "fzfg": false,
      "metar_trigger": false,
      "taf_trigger": false,
      "metar": "METAR LKPR 192330Z VRB02KT CAVOK 03/M01 Q1021 NOSIG",
      "taf": "TAF LKPR 192300Z 2000/2106 35005KT CAVOK"
    },
    {
      "icao": "LLBG",
      "alert": "OK",
      "vis_m": 9999,
      "fzfg": false,
      "metar_trigger": false,
      "taf_trigger": false,
      "metar": "METAR LLBG 192350Z 23008KT 9999 SCT023 16/12 Q1006 NOSIG",
      "taf": "TAF LLBG 192315Z 2000/2024 16010KT 9999 BKN035 TX20/2012Z TN13/2004Z"
    },
    {
      "icao": "LMML",
      "alert": "OK",
      "vis_m": 9999,
      "fzfg": false,
      "metar_trigger": false,
      "taf_trigger": false,
      "metar": "METAR LMML 192345Z 28004KT CAVOK 10/07 Q1012 NOSIG",
      "taf": "TAF LMML 192300Z 2000/2024 36009KT 9999 FEW025"
    },
    {
      "icao": "LOWW",
      "alert": "OK",
      "vis_m": 9999,
      "fzfg": false,
      "metar_trigger": false,
      "taf_trigger": false,
      "metar": "METAR LOWW 192350Z 34005KT CAVOK 05/M01 Q1020 NOSIG",
      "taf": "TAF LOWW 192315Z 2000/2106 36005KT CAVOK TX14/2013Z TN02/2004Z"
    },
    {
      "icao": "LPFR",
      "alert": "OK",
      "vis_m": 9999,
      "fzfg": false,
      "metar_trigger": false,
      "taf_trigger": false,
      "metar": "METAR LPFR 192330Z 11022KT 9999 SCT006 15/14 Q1007",
      "taf": "TAF LPFR 192300Z 2000/2024 13015KT 9999 SCT015"
    },
    {
      "icao": "LPMA",
      "alert": "OK",
      "vis_m": 9999,
      "fzfg": false,
      "metar_trigger": false,
      "taf_trigger": false,
      "metar": "METAR LPMA 192330Z 24029G41KT 9999 -SHRA SCT014 13/09 Q0993",
      "taf": "TAF LPMA 192300Z 2000/2024 21025G38KT 9999 SCT015"
    },
    {
      "icao": "LPPR",
      "alert": "OK",
      "vis_m": 9999,
      "fzfg": false,
      "metar_trigger": false,
      "taf_trigger": false,
      "metar": "METAR LPPR 192330Z 13003KT 090V170 9999 VCSH FEW018 14/13 Q1009",
      "taf": "TAF LPPR 192300Z 2000/2024 VRB05KT 9999 SCT030"
    },
    {
      "icao": "LPPS",
      "alert": "OK",
      "vis_m": 9999,
      "fzfg": false,
      "metar_trigger": false,
      "taf_trigger": false,
      "metar": "METAR LPPS 192330Z 20025KT 9999 SCT014 FEW018TCU 15/09 Q0995",
      "taf": "TAF LPPS 192300Z 2000/2106 19020KT 9999 SCT015 SCT030"
    },
    {
      "icao": "LPPT",
      "alert": "OK",
      "vis_m": 9999,
      "fzfg": false,
      "metar_trigger": false,
      "taf_trigger": false,
      "metar": "METAR LPPT 192330Z 11008KT 9999 -RA FEW004 BKN006 13/13 Q1007",
      "taf": "TAF LPPT 192300Z 2000/2106 11007KT 9999 SCT012"
    },
    {
      "icao": "LQBK",
      "alert": "OK",
      "vis_m": 9999,
      "fzfg": false,
      "metar_trigger": false,
      "taf_trigger": false,
      "metar": "METAR LQBK 192330Z 30005KT CAVOK 07/02 Q1018 NOSIG",
      "taf": "TAF LQBK 192300Z 2000/2024 32005KT CAVOK TX13/2013Z TN00/2005Z"
    },
    {
      "icao": "LQSA",
      "alert": "OK",
      "vis_m": 9999,
      "fzfg": false,
      "metar_trigger": false,
      "taf_trigger": false,
      "metar": "METAR LQSA 192330Z 26002KT 9999 BKN060 04/01 Q1016",
      "taf": "TAF LQSA 192300Z 2000/2024 30005KT 9999 SCT060 TX09/2013Z TN00/2005Z"
    },
    {
      "icao": "LQTZ",
      "alert": "OK",
      "vis_m": 6000,
      "fzfg": false,
      "metar_trigger": false,
      "taf_trigger": false,
      "metar": "METAR LQTZ 192330Z 32003KT 6000 NSC 05/03 Q1017",
      "taf": "TAF LQTZ 192300Z 2000/2024 28004KT 9999 SCT050 TX12/2013Z TNM00/2005Z"
    },
    {
      "icao": "LRBC",
      "alert": "OK",
      "vis_m": 9999,
      "fzfg": false,
      "metar_trigger": false,
      "taf_trigger": false,
      "metar": "METAR LRBC 192330Z 35005KT 9999 FEW029 OVC062 05/02 Q1017",
      "taf": "TAF LRBC 192300Z 2000/2009 34006KT 9999 BKN020 OVC060"
    },
    {
      "icao": "LRBS",
      "alert": "OK",
      "vis_m": 9999,
      "fzfg": false,
      "metar_trigger": false,
      "taf_trigger": false,
      "metar": "METAR LRBS 192330Z 00000KT CAVOK 05/00 Q1016 NOSIG",
      "taf": "TAF LRBS 192300Z 2000/2024 VRB04KT CAVOK"
    },
    {
      "icao": "LRBV",
      "alert": "OK",
      "vis_m": 9999,
      "fzfg": false,
      "metar_trigger": false,
      "taf_trigger": false,
      "metar": "METAR LRBV 192330Z AUTO 24003KT 9999 OVC044/// 02/M01 Q1016",
      "taf": "TAF LRBV 192000Z 1921/2006 VRB04KT 9999 OVC050"
    },
    {
      "icao": "LRCL",
      "alert": "OK",
      "vis_m": 9999,
      "fzfg": false,
      "metar_trigger": false,
      "taf_trigger": false,
      "metar": "METAR LRCL 192330Z VRB02KT 9999 OVC057 05/M01 Q1017",
      "taf": "TAF LRCL 192300Z 2000/2009 VRB04KT 9999 BKN050"
    },
    {
      "icao": "LRCV",
      "alert": "OK",
      "vis_m": 9999,
      "fzfg": false,
      "metar_trigger": false,
      "taf_trigger": false,
      "metar": "METAR LRCV 192330Z 16001KT 9999 SCT038 05/01 Q1017",
      "taf": "TAF LRCV 192300Z 2000/2009 VRB04KT 9999 SCT040"
    },
    {
      "icao": "LRIA",
      "alert": "OK",
      "vis_m": 9999,
      "fzfg": false,
      "metar_trigger": false,
      "taf_trigger": false,
      "metar": "METAR LRIA 192330Z 32009KT 9999 BKN031 05/01 Q1017",
      "taf": "TAF LRIA 192300Z 2000/2009 34006KT 9999 SCT035"
    },
    {
      "icao": "LROP",
      "alert": "OK",
      "vis_m": 9999,
      "fzfg": false,
      "metar_trigger": false,
      "taf_trigger": false,
      "metar": "METAR LROP 192330Z 33003KT 300V360 CAVOK 05/M02 Q1016 NOSIG",
      "taf": "TAF LROP 192300Z 2000/2024 VRB04KT CAVOK"
    },
    {
      "icao": "LRSB",
      "alert": "OK",
      "vis_m": 9999,
      "fzfg": false,
      "metar_trigger": false,
      "taf_trigger": false,
      "metar": "METAR LRSB 192330Z VRB01KT 9999 BKN065 04/00 Q1016",
      "taf": "TAF LRSB 192300Z 2000/2024 VRB04KT 9999 BKN050"
    },
    {
      "icao": "LRSM",
      "alert": "OK",
      "vis_m": 9999,
      "fzfg": false,
      "metar_trigger": false,
      "taf_trigger": false,
      "metar": "METAR LRSM 192330Z AUTO 04004KT 9999 OVC090/// 05/M00 Q1018",
      "taf": "TAF LRSM 191400Z 1915/1924 03007KT CAVOK"
    },
    {
      "icao": "LRSV",
      "alert": "OK",
      "vis_m": 9999,
      "fzfg": false,
      "metar_trigger": false,
      "taf_trigger": false,
      "metar": "METAR LRSV 192330Z 32008KT 9999 BKN027 04/01 Q1017",
      "taf": "TAF LRSV 192300Z 2000/2009 32008KT 9999 SCT035"
    },
    {
      "icao": "LRTM",
      "alert": "OK",
      "vis_m": 9999,
      "fzfg": false,
      "metar_trigger": false,
      "taf_trigger": false,
      "metar": "METAR LRTM 192330Z AUTO 29001KT 9999 NCD 02/M01 Q1017",
      "taf": "TAF LRTM 191400Z 1915/1924 06006KT 9999 BKN040"
    },
    {
      "icao": "LRTR",
      "alert": "OK",
      "vis_m": 9999,
      "fzfg": false,
      "metar_trigger": false,
      "taf_trigger": false,
      "metar": "METAR LRTR 192330Z VRB01KT CAVOK 06/M01 Q1017 NOSIG",
      "taf": "TAF LRTR 192300Z 2000/2024 VRB04KT CAVOK"
    },
    {
      "icao": "LTAC",
      "alert": "OK",
      "vis_m": 9999,
      "fzfg": false,
      "metar_trigger": false,
      "taf_trigger": false,
      "metar": "METAR LTAC 192350Z 06010KT 9999 -SHRA BKN023 BKN080 06/03 Q1000 NOSIG",
      "taf": "TAF LTAC 192240Z 2000/2024 04009KT 9999 -SHRA BKN030 BKN080"
    },
    {
      "icao": "LTFM",
      "alert": "OK",
      "vis_m": 3800,
      "fzfg": false,
      "metar_trigger": false,
      "taf_trigger": false,
      "metar": "METAR LTFM 192350Z 03020KT 3800 1100S R35R/P1500N R17L/P1500N R34L/P1500N R36/1300N -RA BR BKN012 BKN022 06/04 Q1009 NOSIG",
      "taf": "TAF LTFM 192240Z 2000/2106 03023G35KT 6000 -RA BKN011 BKN025"
    },
    {
      "icao": "LUKK",
      "alert": "OK",
      "vis_m": 9999,
      "fzfg": false,
      "metar_trigger": false,
      "taf_trigger": false,
      "metar": "METAR LUKK 192330Z 02006KT 360V090 9999 SCT038 04/01 Q1016 NOSIG",
      "taf": "TAF LUKK 192307Z 2000/2024 01008KT 9999 SCT035"
    },
    {
      "icao": "LWOH",
      "alert": "OK",
      "vis_m": null,
      "fzfg": false,
      "metar_trigger": false,
      "taf_trigger": false,
      "metar": "",
      "taf": "TAF LWOH 192345Z 2000/2024 36010KT 9999 SCT040"
    },
    {
      "icao": "LWSK",
      "alert": "OK",
      "vis_m": 9999,
      "fzfg": false,
      "metar_trigger": false,
      "taf_trigger": false,
      "metar": "METAR LWSK 192350Z 03005KT CAVOK 04/M03 Q1014 NOSIG",
      "taf": "TAF LWSK 192345Z 2000/2024 02010KT CAVOK"
    },
    {
      "icao": "LYBE",
      "alert": "OK",
      "vis_m": 9999,
      "fzfg": false,
      "metar_trigger": false,
      "taf_trigger": false,
      "metar": "METAR LYBE 192330Z 01004KT CAVOK 07/M01 Q1016 NOSIG",
      "taf": "TAF LYBE 192300Z 2000/2024 32004KT CAVOK TX13/2013Z TN02/2005Z"
    },
    {
      "icao": "LYNI",
      "alert": "OK",
      "vis_m": 9999,
      "fzfg": false,
      "metar_trigger": false,
      "taf_trigger": false,
      "metar": "METAR LYNI 192330Z VRB02KT CAVOK 05/M02 Q1016 NOSIG",
      "taf": "TAF LYNI 192300Z 2000/2024 03005KT 9999 SCT070 TX12/2013Z TN00/2005Z"
    },
    {
      "icao": "LYPG",
      "alert": "OK",
      "vis_m": 9999,
      "fzfg": false,
      "metar_trigger": false,
      "taf_trigger": false,
      "metar": "METAR LYPG 192330Z 36012KT CAVOK 10/M04 Q1012 NOSIG",
      "taf": "TAF LYPG 192300Z 2000/2024 36009KT CAVOK TX17/2012Z TN07/2005Z"
    },
    {
      "icao": "LZIB",
      "alert": "OK",
      "vis_m": 9999,
      "fzfg": false,
      "metar_trigger": false,
      "taf_trigger": false,
      "metar": "METAR LZIB 192330Z 02009KT CAVOK 06/M02 Q1019 NOSIG",
      "taf": "TAF LZIB 192315Z 2000/2100 02009KT CAVOK"
    },
    {
      "icao": "LZKZ",
      "alert": "OK",
      "vis_m": 9999,
      "fzfg": false,
      "metar_trigger": false,
      "taf_trigger": false,
      "metar": "METAR LZKZ 192330Z 01008KT CAVOK 06/M00 Q1019 NOSIG",
      "taf": "TAF LZKZ 192315Z 2000/2100 02008KT CAVOK"
    },
    {
      "icao": "LZTT",
      "alert": "OK",
      "vis_m": 9999,
      "fzfg": false,
      "metar_trigger": false,
      "taf_trigger": false,
      "metar": "METAR LZTT 192330Z 28006KT 9999 FEW047 BKN061 02/M05 Q1018",
      "taf": "TAF LZTT 192315Z 2000/2100 27007KT 9999 BKN045"
    },
    {
      "icao": "OEJN",
      "alert": "OK",
      "vis_m": 9999,
      "fzfg": false,
      "metar_trigger": false,
      "taf_trigger": false,
      "metar": "METAR OEJN 192300Z 36003KT CAVOK 24/05 Q1008 NOSIG",
      "taf": "TAF OEJN 192300Z 2000/2106 03006KT 7000 NSC"
    },
    {
      "icao": "OEMA",
      "alert": "OK",
      "vis_m": 7000,
      "fzfg": false,
      "metar_trigger": false,
      "taf_trigger": false,
      "metar": "METAR OEMA 192300Z 27011KT 7000 NSC 20/M05 Q1011 NOSIG",
      "taf": "TAF OEMA 192300Z 2000/2106 VRB03KT 7000 NSC"
    },
    {
      "icao": "OJAI",
      "alert": "OK",
      "vis_m": 2500,
      "fzfg": false,
      "metar_trigger": false,
      "taf_trigger": false,
      "metar": "METAR OJAI 192300Z 25017KT 2500 -DZ BKN015 10/09 Q1006 NOSIG",
      "taf": ""
    },
    {
      "icao": "OMAA",
      "alert": "OK",
      "vis_m": null,
      "fzfg": false,
      "metar_trigger": false,
      "taf_trigger": false,
      "metar": "",
      "taf": ""
    },
    {
      "icao": "OMDB",
      "alert": "OK",
      "vis_m": null,
      "fzfg": false,
      "metar_trigger": false,
      "taf_trigger": false,
      "metar": "",
      "taf": ""
    },
    {
      "icao": "UAAA",
      "alert": "OK",
      "vis_m": 9000,
      "fzfg": false,
      "metar_trigger": false,
      "taf_trigger": false,
      "metar": "METAR UAAA 192330Z 14001MPS 9000 SCT100 01/M03 Q1019 NOSIG",
      "taf": "TAF UAAA 192304Z 2000/2024 16002MPS 9999 SCT100 TX16/2010Z TN00/2000Z"
    },
    {
      "icao": "UBBB",
      "alert": "OK",
      "vis_m": 9999,
      "fzfg": false,
      "metar_trigger": false,
      "taf_trigger": false,
      "metar": "METAR UBBB 192330Z 00000KT CAVOK 08/07 Q1011 NOSIG",
      "taf": "TAF UBBB 192255Z 2000/2024 16005KT 5000 BR SCT020 TX14/2010Z TN07/2000Z"
    },
    {
      "icao": "UDSG",
      "alert": "OK",
      "vis_m": 9999,
      "fzfg": false,
      "metar_trigger": false,
      "taf_trigger": false,
      "metar": "METAR UDSG 192330Z 07027G40KT 9999 BKN043 04/M01 Q1005 WS R02 NOSIG",
      "taf": "TAF UDSG 192258Z 2000/2024 VRB06KT 9999 BKN040"
    },
    {
      "icao": "UDYZ",
      "alert": "OK",
      "vis_m": 9999,
      "fzfg": false,
      "metar_trigger": false,
      "taf_trigger": false,
      "metar": "METAR UDYZ 192330Z 11006KT 9999 SCT043CB 09/03 Q1003 NOSIG",
      "taf": "TAF UDYZ 192300Z 2000/2024 16006KT 9999 SCT040"
    },
    {
      "icao": "UGKO",
      "alert": "OK",
      "vis_m": 9999,
      "fzfg": false,
      "metar_trigger": false,
      "taf_trigger": false,
      "metar": "METAR UGKO 192330Z 08030G40KT CAVOK 15/03 Q1001 NOSIG",
      "taf": "TAF UGKO 192300Z 2000/2024 08030G43KT CAVOK TX16/2010Z TN08/2024Z"
    }
  ]
}