{
  "ts_utc": "2026-03-19T13:52:06Z",
  "threshold_m": 150,
  "source": "stations_override.txt (ICAO list) + aviationweather.gov (METAR/TAF raw)",
  "station_count": 159,
  "stations": [
    {
      "icao": "BIKF",
      "alert": "OK",
      "vis_m": 9999,
      "fzfg": false,
      "metar_trigger": false,
      "taf_trigger": false,
      "metar": "METAR BIKF 191330Z 22035G47KT 9999 VCSH SCT016 BKN045 06/04 Q0991",
      "taf": "TAF BIKF 191340Z 1915/2015 22037G50KT 9999 -SHRA SCT010 BKN020 TX06/1915Z TNM01/2009Z"
    },
    {
      "icao": "BKPR",
      "alert": "OK",
      "vis_m": 9999,
      "fzfg": false,
      "metar_trigger": false,
      "taf_trigger": false,
      "metar": "METAR BKPR 191330Z 01017KT 9999 BKN055 10/M02 Q1013 NOSIG",
      "taf": "TAF BKPR 191130Z 1912/2012 04015KT 9999 SCT050 BKN090"
    },
    {
      "icao": "EBCI",
      "alert": "OK",
      "vis_m": 9999,
      "fzfg": false,
      "metar_trigger": false,
      "taf_trigger": false,
      "metar": "METAR EBCI 191320Z 04012KT 340V070 CAVOK 15/03 Q1024 NOSIG",
      "taf": "TAF EBCI 191104Z 1912/2018 05007KT CAVOK"
    },
    {
      "icao": "EDDB",
      "alert": "OK",
      "vis_m": 9999,
      "fzfg": false,
      "metar_trigger": false,
      "taf_trigger": false,
      "metar": "METAR EDDB 191320Z AUTO VRB04KT CAVOK 15/01 Q1024 NOSIG",
      "taf": "TAF EDDB 191100Z 1912/2012 35005KT CAVOK"
    },
    {
      "icao": "EDDH",
      "alert": "OK",
      "vis_m": 9999,
      "fzfg": false,
      "metar_trigger": false,
      "taf_trigger": false,
      "metar": "METAR EDDH 191320Z AUTO 32006KT 250V350 CAVOK 15/03 Q1025 NOSIG",
      "taf": "TAF EDDH 191100Z 1912/2018 29004KT CAVOK"
    },
    {
      "icao": "EDDK",
      "alert": "OK",
      "vis_m": 9999,
      "fzfg": false,
      "metar_trigger": false,
      "taf_trigger": false,
      "metar": "METAR EDDK 191320Z AUTO 07007KT 040V110 CAVOK 17/M03 Q1024 NOSIG",
      "taf": "TAF EDDK 191100Z 1912/2018 36007KT CAVOK"
    },
    {
      "icao": "EDDN",
      "alert": "OK",
      "vis_m": 9999,
      "fzfg": false,
      "metar_trigger": false,
      "taf_trigger": false,
      "metar": "METAR EDDN 191320Z AUTO 07008KT 030V110 CAVOK 13/M02 Q1023 NOSIG",
      "taf": "TAF EDDN 191100Z 1912/2012 07008KT CAVOK"
    },
    {
      "icao": "EDDS",
      "alert": "OK",
      "vis_m": 9999,
      "fzfg": false,
      "metar_trigger": false,
      "taf_trigger": false,
      "metar": "METAR EDDS 191320Z AUTO 04010KT 010V070 CAVOK 15/M01 Q1020 NOSIG",
      "taf": "TAF EDDS 191100Z 1912/2012 06008KT CAVOK"
    },
    {
      "icao": "EDFH",
      "alert": "OK",
      "vis_m": 9999,
      "fzfg": false,
      "metar_trigger": false,
      "taf_trigger": false,
      "metar": "METAR EDFH 191320Z 03008KT 350V090 CAVOK 13/00 Q1023",
      "taf": "TAF EDFH 191100Z 1912/2012 07007KT CAVOK"
    },
    {
      "icao": "EDJA",
      "alert": "OK",
      "vis_m": 9999,
      "fzfg": false,
      "metar_trigger": false,
      "taf_trigger": false,
      "metar": "METAR EDJA 191320Z 05012KT CAVOK 10/00 Q1021",
      "taf": "TAF EDJA 191100Z 1912/1921 05010KT CAVOK"
    },
    {
      "icao": "EDLW",
      "alert": "OK",
      "vis_m": 9999,
      "fzfg": false,
      "metar_trigger": false,
      "taf_trigger": false,
      "metar": "METAR EDLW 191320Z 04006KT 350V110 CAVOK 15/01 Q1024",
      "taf": "TAF EDLW 191100Z 1912/2012 04005KT CAVOK"
    },
    {
      "icao": "EDNY",
      "alert": "OK",
      "vis_m": 9999,
      "fzfg": false,
      "metar_trigger": false,
      "taf_trigger": false,
      "metar": "METAR EDNY 191320Z 05014KT CAVOK 13/M01 Q1020",
      "taf": "TAF EDNY 191100Z 1912/1921 02008KT CAVOK"
    },
    {
      "icao": "EDSB",
      "alert": "OK",
      "vis_m": 9999,
      "fzfg": false,
      "metar_trigger": false,
      "taf_trigger": false,
      "metar": "METAR EDSB 191320Z 03013KT 360V060 CAVOK 15/02 Q1021",
      "taf": "TAF EDSB 191100Z 1912/2012 03013KT CAVOK"
    },
    {
      "icao": "EETN",
      "alert": "OK",
      "vis_m": 8000,
      "fzfg": false,
      "metar_trigger": false,
      "taf_trigger": false,
      "metar": "METAR EETN 191350Z 23006KT 8000 OVC005 03/02 Q1018 NOSIG",
      "taf": "TAF EETN 191130Z 1912/2012 23010KT 8000 OVC007"
    },
    {
      "icao": "EFTU",
      "alert": "OK",
      "vis_m": 9999,
      "fzfg": false,
      "metar_trigger": false,
      "taf_trigger": false,
      "metar": "METAR EFTU 191350Z AUTO 31009KT 280V340 CAVOK 09/00 Q1017",
      "taf": "TAF EFTU 191123Z 1912/2012 30007KT CAVOK"
    },
    {
      "icao": "EGBB",
      "alert": "OK",
      "vis_m": 9999,
      "fzfg": false,
      "metar_trigger": false,
      "taf_trigger": false,
      "metar": "METAR EGBB 191320Z 07006KT 040V120 CAVOK 15/03 Q1027",
      "taf": "TAF EGBB 191053Z 1912/2012 08006KT CAVOK"
    },
    {
      "icao": "EGGP",
      "alert": "OK",
      "vis_m": 9999,
      "fzfg": false,
      "metar_trigger": false,
      "taf_trigger": false,
      "metar": "METAR EGGP 191320Z 12005KT CAVOK 15/04 Q1027",
      "taf": "TAF EGGP 191058Z 1912/2012 10004KT CAVOK"
    },
    {
      "icao": "EGGW",
      "alert": "OK",
      "vis_m": 9999,
      "fzfg": false,
      "metar_trigger": false,
      "taf_trigger": false,
      "metar": "METAR EGGW 191320Z AUTO 12009KT 080V150 9999 NCD 15/03 Q1026",
      "taf": "TAF EGGW 191059Z 1912/2012 07007KT CAVOK"
    },
    {
      "icao": "EGKK",
      "alert": "OK",
      "vis_m": 9999,
      "fzfg": false,
      "metar_trigger": false,
      "taf_trigger": false,
      "metar": "METAR EGKK 191320Z 06011KT CAVOK 16/04 Q1025",
      "taf": "TAF EGKK 191059Z 1912/2018 07011KT CAVOK"
    },
    {
      "icao": "EGNM",
      "alert": "OK",
      "vis_m": 9999,
      "fzfg": false,
      "metar_trigger": false,
      "taf_trigger": false,
      "metar": "METAR EGNM 191320Z 06005KT 030V100 9999 FEW017 SCT034 13/08 Q1028",
      "taf": "TAF EGNM 191059Z 1912/2012 07005KT 9999 FEW030"
    },
    {
      "icao": "EGPD",
      "alert": "OK",
      "vis_m": 9999,
      "fzfg": false,
      "metar_trigger": false,
      "taf_trigger": false,
      "metar": "METAR EGPD 191320Z COR 13007KT 090V150 9999 FEW036 11/03 Q1030 NOSIG",
      "taf": "TAF EGPD 191057Z 1912/2012 VRB03KT 9999 FEW040"
    },
    {
      "icao": "EGPF",
      "alert": "OK",
      "vis_m": 9999,
      "fzfg": false,
      "metar_trigger": false,
      "taf_trigger": false,
      "metar": "METAR EGPF 191320Z AUTO 04009KT 9999 NCD 14/07 Q1029",
      "taf": "TAF EGPF 191056Z 1912/2012 08006KT 9999 SCT040"
    },
    {
      "icao": "EHBK",
      "alert": "OK",
      "vis_m": 9999,
      "fzfg": false,
      "metar_trigger": false,
      "taf_trigger": false,
      "metar": "METAR EHBK 191325Z AUTO 06011KT 020V100 9999 NCD 16/02 Q1024 NOSIG",
      "taf": "TAF EHBK 191106Z 1912/2018 05006KT CAVOK"
    },
    {
      "icao": "EHEH",
      "alert": "OK",
      "vis_m": 9999,
      "fzfg": false,
      "metar_trigger": false,
      "taf_trigger": false,
      "metar": "METAR EHEH 191325Z AUTO 06004KT 9999 NCD 16/03 Q1025 BLU NOSIG",
      "taf": "TAF EHEH 191129Z 1912/2018 05003KT CAVOK"
    },
    {
      "icao": "EKBI",
      "alert": "OK",
      "vis_m": 9999,
      "fzfg": false,
      "metar_trigger": false,
      "taf_trigger": false,
      "metar": "METAR EKBI 191320Z AUTO 31007KT 9999 OVC043/// 10/06 Q1026",
      "taf": "TAF EKBI 191127Z 1912/2012 30008KT 9999 BKN005"
    },
    {
      "icao": "EKCH",
      "alert": "OK",
      "vis_m": 9999,
      "fzfg": false,
      "metar_trigger": false,
      "taf_trigger": false,
      "metar": "METAR EKCH 191320Z AUTO 24006KT 9999 OVC050/// 12/02 Q1024 NOSIG",
      "taf": "TAF EKCH 191127Z 1912/2012 26004KT 9999 BKN045"
    },
    {
      "icao": "ENAL",
      "alert": "OK",
      "vis_m": 9999,
      "fzfg": false,
      "metar_trigger": false,
      "taf_trigger": false,
      "metar": "METAR ENAL 191320Z 23010KT 9999 BKN028 08/05 Q1023",
      "taf": "TAF ENAL 191100Z 1912/1921 24008KT 9999 -SHRA FEW010 SCT020 BKN040"
    },
    {
      "icao": "ENBR",
      "alert": "OK",
      "vis_m": 9999,
      "fzfg": false,
      "metar_trigger": false,
      "taf_trigger": false,
      "metar": "METAR ENBR 191320Z 19007KT 9999 SCT014 BKN020 08/05 Q1026 TEMPO SCT008 BKN014TCU RMK WIND 1200FT 22008KT",
      "taf": "TAF ENBR 191100Z 1912/2012 18008KT 9999 FEW012 BKN020"
    },
    {
      "icao": "ENGM",
      "alert": "OK",
      "vis_m": 9999,
      "fzfg": false,
      "metar_trigger": false,
      "taf_trigger": false,
      "metar": "METAR ENGM 191320Z 03005KT CAVOK 12/M00 Q1022 NOSIG",
      "taf": "TAF ENGM 191100Z 1912/2012 35008KT CAVOK"
    },
    {
      "icao": "ENHD",
      "alert": "OK",
      "vis_m": 9999,
      "fzfg": false,
      "metar_trigger": false,
      "taf_trigger": false,
      "metar": "METAR ENHD 191320Z 28004KT 9999 SCT011 BKN019 08/05 Q1027",
      "taf": "TAF ENHD 191100Z 1912/1921 33008KT 9999 FEW003 BKN008"
    },
    {
      "icao": "ENTC",
      "alert": "OK",
      "vis_m": 9000,
      "fzfg": false,
      "metar_trigger": false,
      "taf_trigger": false,
      "metar": "METAR ENTC 191320Z 28018KT 9000 -SHRA BKN031 03/00 Q1002 TEMPO 27030G40KT 4500 SHRASN SCT025CB RMK WIND 2600FT 31041G53KT",
      "taf": ""
    },
    {
      "icao": "ENTO",
      "alert": "OK",
      "vis_m": 9999,
      "fzfg": false,
      "metar_trigger": false,
      "taf_trigger": false,
      "metar": "METAR ENTO 191320Z 32005KT 270V360 CAVOK 12/M02 Q1023 NOSIG",
      "taf": "TAF ENTO 191100Z 1912/2012 35005KT CAVOK"
    },
    {
      "icao": "ENVA",
      "alert": "OK",
      "vis_m": 9999,
      "fzfg": false,
      "metar_trigger": false,
      "taf_trigger": false,
      "metar": "METAR ENVA 191320Z 28016KT 9999 VCSH BKN034 06/02 Q1022 NOSIG RMK WIND 670FT 28016KT",
      "taf": "TAF ENVA 191100Z 1912/2012 28018KT 9999 -SHRA FEW020 BKN035"
    },
    {
      "icao": "ENZV",
      "alert": "OK",
      "vis_m": 9999,
      "fzfg": false,
      "metar_trigger": false,
      "taf_trigger": false,
      "metar": "METAR ENZV 191320Z 33010KT 9999 SCT007 BKN014 08/06 Q1028 TEMPO BKN007",
      "taf": ""
    },
    {
      "icao": "EPGD",
      "alert": "OK",
      "vis_m": 9999,
      "fzfg": false,
      "metar_trigger": false,
      "taf_trigger": false,
      "metar": "METAR EPGD 191330Z 29008KT 9999 BKN043 10/00 Q1023",
      "taf": "TAF EPGD 191130Z 1912/2012 29007KT 9999 SCT048"
    },
    {
      "icao": "EPKK",
      "alert": "OK",
      "vis_m": 9999,
      "fzfg": false,
      "metar_trigger": false,
      "taf_trigger": false,
      "metar": "METAR EPKK 191330Z 04007KT 9999 SCT066 12/M03 Q1022",
      "taf": "TAF EPKK 191130Z 1912/2012 VRB02KT 9999 SCT050"
    },
    {
      "icao": "EPKT",
      "alert": "OK",
      "vis_m": 9999,
      "fzfg": false,
      "metar_trigger": false,
      "taf_trigger": false,
      "metar": "METAR EPKT 191330Z 04004KT 9999 FEW050TCU 10/00 Q1022",
      "taf": "TAF EPKT 191130Z 1912/2012 VRB02KT 9999 SCT045"
    },
    {
      "icao": "EPLB",
      "alert": "OK",
      "vis_m": 9999,
      "fzfg": false,
      "metar_trigger": false,
      "taf_trigger": false,
      "metar": "METAR EPLB 191330Z 05003KT 010V100 CAVOK 11/M01 Q1022",
      "taf": "TAF EPLB 191130Z 1912/2012 05006KT CAVOK"
    },
    {
      "icao": "EPMO",
      "alert": "OK",
      "vis_m": 9999,
      "fzfg": false,
      "metar_trigger": false,
      "taf_trigger": false,
      "metar": "METAR EPMO 191330Z 29005KT 250V330 9999 FEW049 12/M01 Q1023",
      "taf": "TAF EPMO 191130Z 1912/2012 35005KT 9999 SCT040"
    },
    {
      "icao": "EPPO",
      "alert": "OK",
      "vis_m": 9999,
      "fzfg": false,
      "metar_trigger": false,
      "taf_trigger": false,
      "metar": "METAR EPPO 191330Z 31004KT 270V350 CAVOK 13/M01 Q1024",
      "taf": "TAF EPPO 191130Z 1912/2012 32004KT CAVOK"
    },
    {
      "icao": "EPRA",
      "alert": "OK",
      "vis_m": 9999,
      "fzfg": false,
      "metar_trigger": false,
      "taf_trigger": false,
      "metar": "METAR EPRA 191330Z VRB03KT CAVOK 12/M00 Q1022",
      "taf": "TAF EPRA 191130Z 1912/1921 VRB03KT CAVOK"
    },
    {
      "icao": "EPRZ",
      "alert": "OK",
      "vis_m": 9999,
      "fzfg": false,
      "metar_trigger": false,
      "taf_trigger": false,
      "metar": "METAR EPRZ 191330Z 02007KT CAVOK 10/M01 Q1022",
      "taf": "TAF EPRZ 191130Z 1912/2012 35010KT CAVOK"
    },
    {
      "icao": "EPSC",
      "alert": "OK",
      "vis_m": 9999,
      "fzfg": false,
      "metar_trigger": false,
      "taf_trigger": false,
      "metar": "METAR EPSC 191330Z 29009KT CAVOK 14/M01 Q1024",
      "taf": "TAF EPSC 191130Z 1912/2012 VRB03KT CAVOK"
    },
    {
      "icao": "EPSY",
      "alert": "OK",
      "vis_m": 9999,
      "fzfg": false,
      "metar_trigger": false,
      "taf_trigger": false,
      "metar": "METAR EPSY 191330Z VRB04KT CAVOK 11/M04 Q1022",
      "taf": "TAF EPSY 191130Z 1912/1921 33006KT CAVOK"
    },
    {
      "icao": "EPWA",
      "alert": "OK",
      "vis_m": 9999,
      "fzfg": false,
      "metar_trigger": false,
      "taf_trigger": false,
      "metar": "METAR EPWA 191330Z 32005KT 280V040 9999 FEW045 12/M01 Q1022 NOSIG",
      "taf": "TAF EPWA 191130Z 1912/2012 36005KT 9999 BKN045"
    },
    {
      "icao": "EPWR",
      "alert": "OK",
      "vis_m": 9999,
      "fzfg": false,
      "metar_trigger": false,
      "taf_trigger": false,
      "metar": "METAR EPWR 191330Z 36009KT 9999 SCT044 12/03 Q1023",
      "taf": "TAF EPWR 191130Z 1912/2012 02005KT CAVOK"
    },
    {
      "icao": "ESGG",
      "alert": "OK",
      "vis_m": 9999,
      "fzfg": false,
      "metar_trigger": false,
      "taf_trigger": false,
      "metar": "METAR ESGG 191320Z 20004KT 160V220 9999 FEW010 08/05 Q1022",
      "taf": "TAF ESGG 191130Z 1912/2012 24010KT 5000 BR OVC005"
    },
    {
      "icao": "ESKN",
      "alert": "OK",
      "vis_m": 9999,
      "fzfg": false,
      "metar_trigger": false,
      "taf_trigger": false,
      "metar": "METAR ESKN 191320Z 29008KT 9999 FEW020 09/04 Q1020",
      "taf": "TAF ESKN 191130Z 1912/2012 30008KT 9999 SCT017"
    },
    {
      "icao": "ESMS",
      "alert": "OK",
      "vis_m": 9999,
      "fzfg": false,
      "metar_trigger": false,
      "taf_trigger": false,
      "metar": "METAR ESMS 191320Z 24008KT 9999 BKN047 11/02 Q1023",
      "taf": "TAF ESMS 191127Z 1912/2012 30006KT 9999 BKN045"
    },
    {
      "icao": "ESSA",
      "alert": "OK",
      "vis_m": 9999,
      "fzfg": false,
      "metar_trigger": false,
      "taf_trigger": false,
      "metar": "METAR ESSA 191320Z 36006KT 330V040 CAVOK 11/M02 Q1019 NOSIG",
      "taf": "TAF ESSA 191130Z 1912/2012 34006KT CAVOK"
    },
    {
      "icao": "EYKA",
      "alert": "OK",
      "vis_m": 9999,
      "fzfg": false,
      "metar_trigger": false,
      "taf_trigger": false,
      "metar": "METAR EYKA 191350Z 27005KT 220V350 CAVOK 10/M01 Q1022",
      "taf": "TAF EYKA 191100Z 1912/2012 VRB04KT 8000 SCT045"
    },
    {
      "icao": "EYPA",
      "alert": "OK",
      "vis_m": 9999,
      "fzfg": false,
      "metar_trigger": false,
      "taf_trigger": false,
      "metar": "METAR EYPA 191350Z 20008KT 180V250 9999 OVC030 04/01 Q1022",
      "taf": "TAF EYPA 191100Z 1912/2012 VRB05KT 8000 SCT015 BKN030"
    },
    {
      "icao": "EYVI",
      "alert": "OK",
      "vis_m": 9999,
      "fzfg": false,
      "metar_trigger": false,
      "taf_trigger": false,
      "metar": "METAR EYVI 191350Z 28005KT 250V330 9999 BKN035 10/01 Q1021 NOSIG",
      "taf": "TAF EYVI 191110Z 1912/2012 VRB03KT 9000 SCT040"
    },
    {
      "icao": "GCFV",
      "alert": "OK",
      "vis_m": 9999,
      "fzfg": false,
      "metar_trigger": false,
      "taf_trigger": false,
      "metar": "METAR GCFV 191330Z 19019KT 160V230 9999 FEW030 SCT035 20/12 Q1003",
      "taf": "TAF GCFV 190800Z 1909/2009 21020KT 9999 SCT030 TX22/1914Z TN16/2006Z"
    },
    {
      "icao": "GCLP",
      "alert": "OK",
      "vis_m": 9999,
      "fzfg": false,
      "metar_trigger": false,
      "taf_trigger": false,
      "metar": "METAR GCLP 191330Z 21020KT 9999 SCT035 BKN075 18/12 Q1002 RERA TEMPO 4500 SHRA SCT025TCU",
      "taf": ""
    },
    {
      "icao": "GCTS",
      "alert": "OK",
      "vis_m": 9999,
      "fzfg": false,
      "metar_trigger": false,
      "taf_trigger": false,
      "metar": "METAR GCTS 191330Z COR 28015KT 250V310 9999 -RA SCT030 BKN060 18/11 Q1002 NOSIG",
      "taf": "TAF GCTS 190800Z 1909/2009 28018KT 9999 SCT030 BKN100 TX23/1914Z TN16/2006Z"
    },
    {
      "icao": "GMAD",
      "alert": "OK",
      "vis_m": 6000,
      "fzfg": false,
      "metar_trigger": false,
      "taf_trigger": false,
      "metar": "METAR GMAD 191330Z 28012KT 250V310 6000 SCT020 SCT083 20/15 Q1005 NOSIG",
      "taf": "TAF GMAD 191100Z 1912/2018 28016KT 8000 SCT020 SCT080"
    },
    {
      "icao": "GMMN",
      "alert": "OK",
      "vis_m": 9999,
      "fzfg": false,
      "metar_trigger": false,
      "taf_trigger": false,
      "metar": "METAR GMMN 191330Z 02008KT 340V040 9999 SCT014 BKN020 18/14 Q1004 NOSIG",
      "taf": "TAF GMMN 191100Z 1912/2018 02006KT 320V080 9999 SCT014 BKN020"
    },
    {
      "icao": "GMMX",
      "alert": "OK",
      "vis_m": 8000,
      "fzfg": false,
      "metar_trigger": false,
      "taf_trigger": false,
      "metar": "METAR GMMX 191330Z VRB08KT 8000 SCT023 SCT200 23/12 Q1002 NOSIG",
      "taf": ""
    },
    {
      "icao": "HEGN",
      "alert": "OK",
      "vis_m": 1000,
      "fzfg": false,
      "metar_trigger": false,
      "taf_trigger": false,
      "metar": "METAR HEGN 191300Z 29012KT 1000 R34/100 R16/100 SA NSC 25/04 Q1005 NOSIG",
      "taf": "TAF HEGN 191100Z 1912/2018 29015G25KT 6000 NSC"
    },
    {
      "icao": "HEMA",
      "alert": "OK",
      "vis_m": 200,
      "fzfg": false,
      "metar_trigger": false,
      "taf_trigger": false,
      "metar": "METAR HEMA 191300Z 30017KT 0200 R15/0200 SS NSC 26/05 Q1006 NOSIG",
      "taf": "TAF HEMA 191100Z 1912/2018 29015G25KT 6000 NSC"
    },
    {
      "icao": "HESH",
      "alert": "OK",
      "vis_m": 1000,
      "fzfg": false,
      "metar_trigger": false,
      "taf_trigger": false,
      "metar": "METAR HESH 191300Z 26010KT 1000 R22/1000 SA NSC 25/05 Q1005 NOSIG",
      "taf": "TAF HESH 191100Z 1912/2018 28010G20KT 6000 NSC"
    },
    {
      "icao": "HESX",
      "alert": "OK",
      "vis_m": 9999,
      "fzfg": false,
      "metar_trigger": false,
      "taf_trigger": false,
      "metar": "METAR HESX 191300Z 30015KT 9999 SCT020 21/06 Q1006 NOSIG",
      "taf": "TAF HESX 191100Z 1912/2018 26013KT 9999 SCT025"
    },
    {
      "icao": "LATI",
      "alert": "OK",
      "vis_m": 9999,
      "fzfg": false,
      "metar_trigger": false,
      "taf_trigger": false,
      "metar": "METAR LATI 191350Z 05007KT 360V120 9999 FEW078 18/02 Q1008 NOSIG",
      "taf": "TAF LATI 191100Z 1912/2012 12010KT 9999 FEW100 TX20/2012Z TN04/2005Z"
    },
    {
      "icao": "LBPD",
      "alert": "OK",
      "vis_m": 9999,
      "fzfg": false,
      "metar_trigger": false,
      "taf_trigger": false,
      "metar": "METAR LBPD 191330Z AUTO VRB03KT 9999 OVC060/// 09/M02 Q1015 NOSIG",
      "taf": "TAF LBPD 191100Z 1912/2012 VRB04KT 9999 SCT040 BKN060"
    },
    {
      "icao": "LBSF",
      "alert": "OK",
      "vis_m": 9999,
      "fzfg": false,
      "metar_trigger": false,
      "taf_trigger": false,
      "metar": "METAR LBSF 191330Z 09005KT 050V120 9999 BKN048 OVC057 07/M04 Q1015 NOSIG",
      "taf": "TAF LBSF 191100Z 1912/2012 05014KT 9999 SCT025 OVC040"
    },
    {
      "icao": "LBWN",
      "alert": "OK",
      "vis_m": 9999,
      "fzfg": false,
      "metar_trigger": false,
      "taf_trigger": false,
      "metar": "METAR LBWN 191330Z 02010KT 350V050 9999 BKN040 08/M01 Q1015 NOSIG",
      "taf": "TAF LBWN 191100Z 1912/2012 02014KT 9999 BKN025"
    },
    {
      "icao": "LCLK",
      "alert": "OK",
      "vis_m": 9999,
      "fzfg": false,
      "metar_trigger": false,
      "taf_trigger": false,
      "metar": "METAR LCLK 191330Z VRB03KT 9999 FEW020 FEW030CB SCT050 17/15 Q1000 NOSIG",
      "taf": "TAF LCLK 191130Z 1912/2012 07010KT 9999 FEW030 SCT050"
    },
    {
      "icao": "LCPH",
      "alert": "OK",
      "vis_m": 9999,
      "fzfg": false,
      "metar_trigger": false,
      "taf_trigger": false,
      "metar": "METAR LCPH 191330Z 15009KT 9999 FEW025CB 19/15 Q1000 NOSIG",
      "taf": "TAF LCPH 191130Z 1912/2012 25010KT 9999 FEW030 SCT050"
    },
    {
      "icao": "LEAL",
      "alert": "OK",
      "vis_m": 9999,
      "fzfg": false,
      "metar_trigger": false,
      "taf_trigger": false,
      "metar": "METAR LEAL 191330Z 08021KT 9999 FEW016 17/12 Q1013 NOSIG",
      "taf": "TAF LEAL 191100Z 1912/2012 08018KT 9999 FEW020 TX18/1912Z TN11/2007Z"
    },
    {
      "icao": "LEBB",
      "alert": "OK",
      "vis_m": 9999,
      "fzfg": false,
      "metar_trigger": false,
      "taf_trigger": false,
      "metar": "METAR LEBB 191330Z 12013KT 080V150 CAVOK 21/08 Q1011 NOSIG",
      "taf": "TAF LEBB 191100Z 1912/2012 14009KT CAVOK TX20/1914Z TN08/2006Z"
    },
    {
      "icao": "LEBL",
      "alert": "OK",
      "vis_m": 9000,
      "fzfg": false,
      "metar_trigger": false,
      "taf_trigger": false,
      "metar": "METAR LEBL 191330Z 06012KT 9000 SCT027 BKN056 15/08 Q1017 NOSIG",
      "taf": "TAF LEBL 191100Z 1912/2012 07012KT 9999 FEW030 TX17/1912Z TN08/2006Z"
    },
    {
      "icao": "LECH",
      "alert": "OK",
      "vis_m": 9999,
      "fzfg": false,
      "metar_trigger": false,
      "taf_trigger": false,
      "metar": "METAR LECH 191330Z AUTO 10008KT 050V130 9999 BKN033 12/06 Q1016",
      "taf": "TAF LECH 191100Z 1912/2012 08008KT 9999 SCT020 BKN040 TX17/1912Z TN06/2007Z"
    },
    {
      "icao": "LEMD",
      "alert": "OK",
      "vis_m": 9999,
      "fzfg": false,
      "metar_trigger": false,
      "taf_trigger": false,
      "metar": "METAR LEMD 191330Z 01004KT 270V080 CAVOK 17/04 Q1012 NOSIG",
      "taf": "TAF LEMD 191100Z 1912/2018 VRB04KT CAVOK TX20/1915Z TN05/2007Z"
    },
    {
      "icao": "LEMG",
      "alert": "OK",
      "vis_m": 9999,
      "fzfg": false,
      "metar_trigger": false,
      "taf_trigger": false,
      "metar": "METAR LEMG 191330Z 14011KT 110V170 9999 FEW020 18/12 Q1009 NOSIG",
      "taf": "TAF LEMG 191100Z 1912/2012 13011KT 9999 SCT020 TX20/1913Z TN11/2006Z"
    },
    {
      "icao": "LEVC",
      "alert": "OK",
      "vis_m": 9999,
      "fzfg": false,
      "metar_trigger": false,
      "taf_trigger": false,
      "metar": "METAR LEVC 191330Z 09015KT 9999 FEW029 SCT054 15/08 Q1016 NOSIG",
      "taf": "TAF LEVC 191100Z 1912/2012 07014KT 9999 FEW020 BKN035 TX17/1912Z TN10/2007Z"
    },
    {
      "icao": "LEXJ",
      "alert": "OK",
      "vis_m": 9999,
      "fzfg": false,
      "metar_trigger": false,
      "taf_trigger": false,
      "metar": "METAR LEXJ 191330Z 06009KT 020V100 CAVOK 18/08 Q1010",
      "taf": "TAF LEXJ 190800Z 1909/2009 VRB03KT CAVOK TX21/1913Z TN07/2007Z"
    },
    {
      "icao": "LEZG",
      "alert": "OK",
      "vis_m": 9999,
      "fzfg": false,
      "metar_trigger": false,
      "taf_trigger": false,
      "metar": "METAR LEZG 191330Z 10013G23KT 060V140 9999 BKN040 17/06 Q1015 NOSIG",
      "taf": "TAF LEZG 191100Z 1912/2012 11012KT 9999 SCT025 TX18/1914Z TN06/2007Z"
    },
    {
      "icao": "LEZL",
      "alert": "OK",
      "vis_m": 9999,
      "fzfg": false,
      "metar_trigger": false,
      "taf_trigger": false,
      "metar": "METAR LEZL 191330Z 32001KT CAVOK 24/10 Q1006 NOSIG",
      "taf": "TAF LEZL 190800Z 1909/2009 08007KT 9999 FEW035 TX24/1915Z TN13/2007Z"
    },
    {
      "icao": "LFBD",
      "alert": "OK",
      "vis_m": 9999,
      "fzfg": false,
      "metar_trigger": false,
      "taf_trigger": false,
      "metar": "METAR LFBD 191330Z AUTO 11015KT 080V140 CAVOK 19/05 Q1015 TEMPO 10015G25KT",
      "taf": "TAF LFBD 191100Z 1912/2018 11012KT CAVOK TX18/1915Z TN04/2006Z"
    },
    {
      "icao": "LFLL",
      "alert": "OK",
      "vis_m": 9999,
      "fzfg": false,
      "metar_trigger": false,
      "taf_trigger": false,
      "metar": "METAR LFLL 191330Z 33007KT 290V360 CAVOK 15/04 Q1018 NOSIG",
      "taf": "TAF LFLL 191100Z 1912/2018 31003KT CAVOK"
    },
    {
      "icao": "LFLS",
      "alert": "OK",
      "vis_m": 9999,
      "fzfg": false,
      "metar_trigger": false,
      "taf_trigger": false,
      "metar": "METAR LFLS 191330Z AUTO 01007KT 300V070 CAVOK 15/03 Q1018 NOSIG",
      "taf": "TAF LFLS 190800Z 1909/2009 09007KT CAVOK"
    },
    {
      "icao": "LFMN",
      "alert": "OK",
      "vis_m": 9999,
      "fzfg": false,
      "metar_trigger": false,
      "taf_trigger": false,
      "metar": "METAR LFMN 191330Z 11017KT 9999 FEW040 17/06 Q1016 NOSIG",
      "taf": ""
    },
    {
      "icao": "LFOB",
      "alert": "OK",
      "vis_m": 9999,
      "fzfg": false,
      "metar_trigger": false,
      "taf_trigger": false,
      "metar": "METAR LFOB 191330Z AUTO 08013KT CAVOK 17/03 Q1022 NOSIG",
      "taf": "TAF LFOB 191100Z 1912/2012 07010KT CAVOK"
    },
    {
      "icao": "LFPO",
      "alert": "OK",
      "vis_m": 9999,
      "fzfg": false,
      "metar_trigger": false,
      "taf_trigger": false,
      "metar": "METAR LFPO 191330Z 06010KT 030V090 CAVOK 17/04 Q1021 NOSIG",
      "taf": "TAF LFPO 191100Z 1912/2018 07008KT CAVOK"
    },
    {
      "icao": "LFSB",
      "alert": "OK",
      "vis_m": 9999,
      "fzfg": false,
      "metar_trigger": false,
      "taf_trigger": false,
      "metar": "METAR LFSB 191330Z AUTO 36005KT 320V050 CAVOK 15/03 Q1020 NOSIG",
      "taf": "TAF LFSB 191100Z 1912/2012 35005KT CAVOK"
    },
    {
      "icao": "LGAV",
      "alert": "OK",
      "vis_m": 9999,
      "fzfg": false,
      "metar_trigger": false,
      "taf_trigger": false,
      "metar": "METAR LGAV 191320Z 36018KT 9999 FEW018 BKN025 11/06 Q1009 NOSIG",
      "taf": "TAF LGAV 191100Z 1912/2012 01016KT 9999 FEW018 SCT025 BKN070"
    },
    {
      "icao": "LGTS",
      "alert": "OK",
      "vis_m": 9999,
      "fzfg": false,
      "metar_trigger": false,
      "taf_trigger": false,
      "metar": "METAR LGTS 191320Z 29007KT 9999 SCT025 13/03 Q1012 NOSIG",
      "taf": "TAF LGTS 191100Z 1912/2012 VRB03KT 9999 SCT025"
    },
    {
      "icao": "LHBP",
      "alert": "OK",
      "vis_m": 9999,
      "fzfg": false,
      "metar_trigger": false,
      "taf_trigger": false,
      "metar": "METAR LHBP 191330Z 07006KT 020V100 CAVOK 12/M02 Q1020 NOSIG",
      "taf": "TAF LHBP 191115Z 1912/2012 07014KT CAVOK"
    },
    {
      "icao": "LHDC",
      "alert": "OK",
      "vis_m": 9999,
      "fzfg": false,
      "metar_trigger": false,
      "taf_trigger": false,
      "metar": "METAR LHDC 191315Z AUTO 03009KT 350V070 CAVOK 12/M02 Q1020 NOSIG",
      "taf": "TAF LHDC 191115Z 1912/1921 04009KT CAVOK"
    },
    {
      "icao": "LIBD",
      "alert": "OK",
      "vis_m": 9999,
      "fzfg": false,
      "metar_trigger": false,
      "taf_trigger": false,
      "metar": "METAR LIBD 191320Z 05009KT 9999 FEW030 15/07 Q1010",
      "taf": "TAF LIBD 191100Z 1912/2012 VRB05KT 9999 SCT030"
    },
    {
      "icao": "LIBG",
      "alert": "OK",
      "vis_m": 9999,
      "fzfg": false,
      "metar_trigger": false,
      "taf_trigger": false,
      "metar": "METAR LIBG 191250Z 01007KT 9999 FEW040 12/10 Q1009",
      "taf": "TAF LIBG 191100Z 1912/1921 01012KT 9999 SCT025"
    },
    {
      "icao": "LIBP",
      "alert": "OK",
      "vis_m": 9999,
      "fzfg": false,
      "metar_trigger": false,
      "taf_trigger": false,
      "metar": "METAR LIBP 191320Z AUTO 01012KT 9999 BKN110/// 15/04 Q1014",
      "taf": "TAF LIBP 191100Z 1912/2012 VRB05KT 9999 FEW050"
    },
    {
      "icao": "LIBR",
      "alert": "OK",
      "vis_m": 9999,
      "fzfg": false,
      "metar_trigger": false,
      "taf_trigger": false,
      "metar": "METAR LIBR 191250Z VRB02KT CAVOK 12/07 Q1009",
      "taf": "TAF LIBR 191100Z 1912/2012 04010KT 9999 BKN050"
    },
    {
      "icao": "LICA",
      "alert": "OK",
      "vis_m": 9999,
      "fzfg": false,
      "metar_trigger": false,
      "taf_trigger": false,
      "metar": "METAR LICA 191320Z AUTO 28014KT 9999 BKN052/// 12/06 Q1009",
      "taf": "TAF LICA 191100Z 1912/2012 27012KT 8000 FEW030"
    },
    {
      "icao": "LICC",
      "alert": "OK",
      "vis_m": 9999,
      "fzfg": false,
      "metar_trigger": false,
      "taf_trigger": false,
      "metar": "METAR LICC 191320Z 08008KT 040V120 9999 FEW020 SCT040 14/12 Q1008",
      "taf": "TAF LICC 191100Z 1912/2012 09010KT 9999 SCT035"
    },
    {
      "icao": "LICJ",
      "alert": "OK",
      "vis_m": 9999,
      "fzfg": false,
      "metar_trigger": false,
      "taf_trigger": false,
      "metar": "METAR LICJ 191320Z 02015KT 9999 FEW030 14/07 Q1011",
      "taf": "TAF LICJ 191100Z 1912/2012 02013KT 9999 SCT025"
    },
    {
      "icao": "LIMC",
      "alert": "OK",
      "vis_m": 9999,
      "fzfg": false,
      "metar_trigger": false,
      "taf_trigger": false,
      "metar": "METAR LIMC 191320Z 22006KT 170V270 CAVOK 17/M01 Q1017 NOSIG",
      "taf": "TAF LIMC 191100Z 1912/2018 23010KT CAVOK"
    },
    {
      "icao": "LIME",
      "alert": "OK",
      "vis_m": 9999,
      "fzfg": false,
      "metar_trigger": false,
      "taf_trigger": false,
      "metar": "METAR LIME 191320Z 18006KT 080V240 CAVOK 16/02 Q1017 NOSIG",
      "taf": "TAF LIME 191100Z 1912/2012 24010KT CAVOK"
    },
    {
      "icao": "LIMF",
      "alert": "OK",
      "vis_m": 9999,
      "fzfg": false,
      "metar_trigger": false,
      "taf_trigger": false,
      "metar": "METAR LIMF 191320Z 15004KT 110V200 CAVOK 17/M02 Q1017",
      "taf": "TAF LIMF 191100Z 1912/2012 VRB05KT CAVOK"
    },
    {
      "icao": "LIMJ",
      "alert": "OK",
      "vis_m": 9999,
      "fzfg": false,
      "metar_trigger": false,
      "taf_trigger": false,
      "metar": "METAR LIMJ 191320Z 03012KT 350V060 CAVOK 19/M02 Q1015",
      "taf": "TAF LIMJ 191100Z 1912/2012 04008KT CAVOK"
    },
    {
      "icao": "LIPE",
      "alert": "OK",
      "vis_m": 9999,
      "fzfg": false,
      "metar_trigger": false,
      "taf_trigger": false,
      "metar": "METAR LIPE 191320Z 09013KT CAVOK 17/M03 Q1017",
      "taf": "TAF LIPE 191100Z 1912/2012 05013KT CAVOK"
    },
    {
      "icao": "LIPH",
      "alert": "OK",
      "vis_m": 9999,
      "fzfg": false,
      "metar_trigger": false,
      "taf_trigger": false,
      "metar": "METAR LIPH 191320Z VRB04KT CAVOK 17/03 Q1017",
      "taf": "TAF LIPH 191100Z 1912/2012 VRB05KT CAVOK"
    },
    {
      "icao": "LIPQ",
      "alert": "OK",
      "vis_m": 9999,
      "fzfg": false,
      "metar_trigger": false,
      "taf_trigger": false,
      "metar": "METAR LIPQ 191320Z AUTO 10010KT 050V170 9999 BKN085/// 17/M03 Q1017",
      "taf": "TAF LIPQ 191100Z 1912/2012 09012KT CAVOK"
    },
    {
      "icao": "LIPR",
      "alert": "OK",
      "vis_m": 9999,
      "fzfg": false,
      "metar_trigger": false,
      "taf_trigger": false,
      "metar": "METAR LIPR 191320Z 06009KT 9999 FEW040 14/04 Q1017",
      "taf": "TAF LIPR 191100Z 1912/2012 05013KT CAVOK"
    },
    {
      "icao": "LIPX",
      "alert": "OK",
      "vis_m": 9999,
      "fzfg": false,
      "metar_trigger": false,
      "taf_trigger": false,
      "metar": "METAR LIPX 191320Z 16003KT 080V220 CAVOK 18/M03 Q1017",
      "taf": "TAF LIPX 191100Z 1912/2012 VRB05KT CAVOK"
    },
    {
      "icao": "LIPY",
      "alert": "OK",
      "vis_m": 9999,
      "fzfg": false,
      "metar_trigger": false,
      "taf_trigger": false,
      "metar": "METAR LIPY 191320Z AUTO 04012KT 9999 NCD 14/05 Q1016",
      "taf": "TAF LIPY 191100Z 1912/2012 03013KT 9999 BKN040"
    },
    {
      "icao": "LIPZ",
      "alert": "OK",
      "vis_m": 9999,
      "fzfg": false,
      "metar_trigger": false,
      "taf_trigger": false,
      "metar": "METAR LIPZ 191320Z 15006KT 120V180 CAVOK 15/04 Q1017 NOSIG",
      "taf": "TAF LIPZ 191100Z 1912/2018 10010KT CAVOK"
    },
    {
      "icao": "LIRF",
      "alert": "OK",
      "vis_m": 9999,
      "fzfg": false,
      "metar_trigger": false,
      "taf_trigger": false,
      "metar": "METAR LIRF 191320Z 23012KT 9999 FEW055 16/05 Q1011 NOSIG",
      "taf": "TAF LIRF 191100Z 1912/2018 03010KT 9999 FEW050"
    },
    {
      "icao": "LIRN",
      "alert": "OK",
      "vis_m": 9999,
      "fzfg": false,
      "metar_trigger": false,
      "taf_trigger": false,
      "metar": "METAR LIRN 191320Z 04007KT 330V070 9999 SCT050 14/04 Q1011 NOSIG",
      "taf": "TAF LIRN 191100Z 1912/2012 04010KT CAVOK"
    },
    {
      "icao": "LIRP",
      "alert": "OK",
      "vis_m": 9999,
      "fzfg": false,
      "metar_trigger": false,
      "taf_trigger": false,
      "metar": "METAR LIRP 191315Z 07010KT CAVOK 17/M01 Q1015 NOSIG",
      "taf": "TAF LIRP 191100Z 1912/2012 05015KT CAVOK"
    },
    {
      "icao": "LIRZ",
      "alert": "OK",
      "vis_m": 9999,
      "fzfg": false,
      "metar_trigger": false,
      "taf_trigger": false,
      "metar": "METAR LIRZ 191320Z AUTO 04016KT 9999 NCD 15/M00 Q1014",
      "taf": "TAF LIRZ 191100Z 1912/2012 03012KT 9999 FEW050"
    },
    {
      "icao": "LJLJ",
      "alert": "OK",
      "vis_m": 9999,
      "fzfg": false,
      "metar_trigger": false,
      "taf_trigger": false,
      "metar": "METAR LJLJ 191330Z 09013KT 060V120 9999 FEW075 13/M03 Q1018 NOSIG",
      "taf": "TAF LJLJ 191100Z 1912/2012 09008KT 9999 FEW065"
    },
    {
      "icao": "LKMT",
      "alert": "OK",
      "vis_m": 9999,
      "fzfg": false,
      "metar_trigger": false,
      "taf_trigger": false,
      "metar": "METAR LKMT 191330Z 02008KT 340V060 CAVOK 12/M01 Q1022 NOSIG",
      "taf": "TAF LKMT 191100Z 1912/2012 02012KT CAVOK"
    },
    {
      "icao": "LKPR",
      "alert": "OK",
      "vis_m": 9999,
      "fzfg": false,
      "metar_trigger": false,
      "taf_trigger": false,
      "metar": "METAR LKPR 191330Z 05006KT 010V130 CAVOK 12/M01 Q1023 NOSIG",
      "taf": "TAF LKPR 191100Z 1912/2018 04004KT CAVOK"
    },
    {
      "icao": "LLBG",
      "alert": "OK",
      "vis_m": 9999,
      "fzfg": false,
      "metar_trigger": false,
      "taf_trigger": false,
      "metar": "METAR LLBG 191350Z 23017KT 9999 BKN023 20/13 Q1001 NOSIG",
      "taf": "TAF LLBG 191103Z 1912/2012 24015KT 9999 SCT030 BKN040 TX22/1912Z TN13/2004Z"
    },
    {
      "icao": "LMML",
      "alert": "OK",
      "vis_m": 9999,
      "fzfg": false,
      "metar_trigger": false,
      "taf_trigger": false,
      "metar": "METAR LMML 191345Z 30020KT 9999 SCT032 17/08 Q1010 NOSIG",
      "taf": "TAF LMML 191100Z 1912/2012 32015KT 9999 FEW025"
    },
    {
      "icao": "LOWW",
      "alert": "OK",
      "vis_m": 9999,
      "fzfg": false,
      "metar_trigger": false,
      "taf_trigger": false,
      "metar": "METAR LOWW 191320Z 01009KT 330V030 CAVOK 14/M02 Q1021 NOSIG",
      "taf": "TAF LOWW 191115Z 1912/2018 34006KT CAVOK TX14/1913Z TN02/2004Z"
    },
    {
      "icao": "LPFR",
      "alert": "OK",
      "vis_m": 4000,
      "fzfg": false,
      "metar_trigger": false,
      "taf_trigger": false,
      "metar": "METAR LPFR 191330Z 15013KT 4000 RA BR FEW008 FEW018CB SCT028 BKN045 15/14 Q1007",
      "taf": "TAF LPFR 191100Z 1912/2012 13013KT 9999 SCT015"
    },
    {
      "icao": "LPMA",
      "alert": "OK",
      "vis_m": 9999,
      "fzfg": false,
      "metar_trigger": false,
      "taf_trigger": false,
      "metar": "METAR LPMA 191330Z 22024KT 200V260 9999 SCT013 FEW018CB 15/09 Q0994",
      "taf": "TAF LPMA 191100Z 1912/2012 21020G32KT 9999 SCT015"
    },
    {
      "icao": "LPPR",
      "alert": "OK",
      "vis_m": 9999,
      "fzfg": false,
      "metar_trigger": false,
      "taf_trigger": false,
      "metar": "METAR LPPR 191330Z VRB03KT CAVOK 21/08 Q1007",
      "taf": "TAF LPPR 191100Z 1912/2012 VRB05KT 9999 SCT030"
    },
    {
      "icao": "LPPS",
      "alert": "OK",
      "vis_m": 9999,
      "fzfg": false,
      "metar_trigger": false,
      "taf_trigger": false,
      "metar": "METAR LPPS 191330Z 20021KT 9999 FEW015 FEW018CB 16/09 Q0995",
      "taf": "TAF LPPS 191100Z 1912/2018 20015KT 9999 SCT015 SCT030"
    },
    {
      "icao": "LPPT",
      "alert": "OK",
      "vis_m": 9000,
      "fzfg": false,
      "metar_trigger": false,
      "taf_trigger": false,
      "metar": "METAR LPPT 191330Z 18012KT 9000 -SHRA FEW016 FEW020CB 14/12 Q1006",
      "taf": ""
    },
    {
      "icao": "LQBK",
      "alert": "OK",
      "vis_m": 9999,
      "fzfg": false,
      "metar_trigger": false,
      "taf_trigger": false,
      "metar": "METAR LQBK 191330Z 04006KT 020V080 CAVOK 13/M01 Q1018 NOSIG",
      "taf": "TAF LQBK 191100Z 1912/2012 34005KT CAVOK TX14/1913Z TN01/2005Z"
    },
    {
      "icao": "LQSA",
      "alert": "OK",
      "vis_m": 9999,
      "fzfg": false,
      "metar_trigger": false,
      "taf_trigger": false,
      "metar": "METAR LQSA 191330Z 09006KT 040V140 9999 BKN050 09/M01 Q1015 NOSIG",
      "taf": "TAF LQSA 191100Z 1912/2012 VRB02KT 9999 BKN055 TX10/1913Z TN01/2005Z"
    },
    {
      "icao": "LQTZ",
      "alert": "OK",
      "vis_m": 9999,
      "fzfg": false,
      "metar_trigger": false,
      "taf_trigger": false,
      "metar": "METAR LQTZ 191330Z 07008KT 020V100 9999 SCT050 BKN065 12/01 Q1017",
      "taf": "TAF LQTZ 191100Z 1912/2012 11005KT CAVOK TX13/1913Z TNM01/2005Z"
    },
    {
      "icao": "LRBC",
      "alert": "OK",
      "vis_m": 9999,
      "fzfg": false,
      "metar_trigger": false,
      "taf_trigger": false,
      "metar": "METAR LRBC 191330Z 33013KT 9999 SCT025 BKN048 07/01 Q1019",
      "taf": "TAF LRBC 191100Z 1912/1921 35010KT 9999 SCT015 BKN040"
    },
    {
      "icao": "LRBS",
      "alert": "OK",
      "vis_m": 9999,
      "fzfg": false,
      "metar_trigger": false,
      "taf_trigger": false,
      "metar": "METAR LRBS 191330Z 04013KT 360V070 9999 BKN040 08/M01 Q1018 NOSIG",
      "taf": "TAF LRBS 191100Z 1912/2012 06014KT 9999 BKN035"
    },
    {
      "icao": "LRBV",
      "alert": "OK",
      "vis_m": 9999,
      "fzfg": false,
      "metar_trigger": false,
      "taf_trigger": false,
      "metar": "METAR LRBV 191330Z VRB01KT 9999 FEW031 SCT042 OVC052 05/M03 Q1018",
      "taf": "TAF LRBV 191100Z 1912/1921 06006KT 9999 BKN050"
    },
    {
      "icao": "LRCL",
      "alert": "OK",
      "vis_m": 9999,
      "fzfg": false,
      "metar_trigger": false,
      "taf_trigger": false,
      "metar": "METAR LRCL 191330Z VRB02KT 9999 BKN066 09/M04 Q1018",
      "taf": "TAF LRCL 191100Z 1912/1921 04005KT CAVOK"
    },
    {
      "icao": "LRCV",
      "alert": "OK",
      "vis_m": 9999,
      "fzfg": false,
      "metar_trigger": false,
      "taf_trigger": false,
      "metar": "METAR LRCV 191330Z 11005KT 080V140 9999 FEW037 SCT049 07/01 Q1018",
      "taf": "TAF LRCV 191100Z 1912/1921 09010KT CAVOK"
    },
    {
      "icao": "LRIA",
      "alert": "OK",
      "vis_m": 9999,
      "fzfg": false,
      "metar_trigger": false,
      "taf_trigger": false,
      "metar": "METAR LRIA 191330Z 35010KT 9999 BKN025 BKN046 07/01 Q1019",
      "taf": "TAF LRIA 191100Z 1912/1921 32008KT 9999 BKN020 BKN040"
    },
    {
      "icao": "LROP",
      "alert": "OK",
      "vis_m": 9999,
      "fzfg": false,
      "metar_trigger": false,
      "taf_trigger": false,
      "metar": "METAR LROP 191330Z 06015KT 9999 BKN049 09/M04 Q1018 NOSIG",
      "taf": "TAF LROP 191100Z 1912/2012 07018KT 9999 BKN035"
    },
    {
      "icao": "LRSB",
      "alert": "OK",
      "vis_m": 9999,
      "fzfg": false,
      "metar_trigger": false,
      "taf_trigger": false,
      "metar": "METAR LRSB 191330Z 09004KT 060V150 9999 SCT050 OVC060 07/M04 Q1018",
      "taf": "TAF LRSB 191100Z 1912/2012 VRB04KT 9999 BKN045"
    },
    {
      "icao": "LRSM",
      "alert": "OK",
      "vis_m": 9999,
      "fzfg": false,
      "metar_trigger": false,
      "taf_trigger": false,
      "metar": "METAR LRSM 191330Z 36003KT 310V030 CAVOK 11/M03 Q1019",
      "taf": "TAF LRSM 191100Z 1912/1921 05010KT CAVOK"
    },
    {
      "icao": "LRSV",
      "alert": "OK",
      "vis_m": 9999,
      "fzfg": false,
      "metar_trigger": false,
      "taf_trigger": false,
      "metar": "METAR LRSV 191330Z 36009KT 9999 SCT017 05/01 Q1019",
      "taf": "TAF LRSV 191100Z 1912/1921 35010KT 9999 BKN010 BKN030"
    },
    {
      "icao": "LRTM",
      "alert": "OK",
      "vis_m": 9999,
      "fzfg": false,
      "metar_trigger": false,
      "taf_trigger": false,
      "metar": "METAR LRTM 191330Z 05005KT 360V090 9999 SCT036 FEW038CB 09/M03 Q1018",
      "taf": "TAF LRTM 191100Z 1912/1921 06006KT CAVOK"
    },
    {
      "icao": "LRTR",
      "alert": "OK",
      "vis_m": 9999,
      "fzfg": false,
      "metar_trigger": false,
      "taf_trigger": false,
      "metar": "METAR LRTR 191330Z 35007KT 310V010 CAVOK 11/M01 Q1018 NOSIG",
      "taf": "TAF LRTR 191100Z 1912/2012 04008KT CAVOK"
    },
    {
      "icao": "LTAC",
      "alert": "OK",
      "vis_m": 9999,
      "fzfg": false,
      "metar_trigger": false,
      "taf_trigger": false,
      "metar": "METAR LTAC 191320Z 04016KT 9999 -SHRA SCT017 BKN022 BKN080 07/05 Q1003 NOSIG RMK RWY21C 03014KT RWY03L 04014KT RWY21R 02014KT RWY03R 02015KT RWY21L 03014KT",
      "taf": "TAF LTAC 191040Z 1912/2012 05012KT 9999 -SHRA SCT010 BKN030 BKN080"
    },
    {
      "icao": "LTFM",
      "alert": "OK",
      "vis_m": 9999,
      "fzfg": false,
      "metar_trigger": false,
      "taf_trigger": false,
      "metar": "METAR LTFM 191320Z 03023KT 9999 FEW019 BKN039 08/03 Q1012 NOSIG RMK RWY17L 04019KT RWY34L 02020KT RWY16R 03018KT RWY36 03023KT RWY18 04018KT",
      "taf": "TAF LTFM 191040Z 1912/2018 03024G35KT 9999 SCT018 BKN035"
    },
    {
      "icao": "LUKK",
      "alert": "OK",
      "vis_m": 9999,
      "fzfg": false,
      "metar_trigger": false,
      "taf_trigger": false,
      "metar": "METAR LUKK 191330Z 01010KT 9999 BKN028 OVC039 07/01 Q1018 NOSIG",
      "taf": "TAF LUKK 191109Z 1912/2012 01010KT 9999 BKN025"
    },
    {
      "icao": "LWOH",
      "alert": "OK",
      "vis_m": 9999,
      "fzfg": false,
      "metar_trigger": false,
      "taf_trigger": false,
      "metar": "METAR LWOH 191350Z 34009KT 300V010 9999 BKN035 07/01 Q1010",
      "taf": "TAF LWOH 191130Z 1912/2012 36008KT 9999 SCT040"
    },
    {
      "icao": "LWSK",
      "alert": "OK",
      "vis_m": 9999,
      "fzfg": false,
      "metar_trigger": false,
      "taf_trigger": false,
      "metar": "METAR LWSK 191350Z COR 03003KT 330V120 9999 BKN050 13/00 Q1012 NOSIG",
      "taf": "TAF LWSK 191130Z 1912/2012 02010KT 9999 SCT050"
    },
    {
      "icao": "LYBE",
      "alert": "OK",
      "vis_m": 9999,
      "fzfg": false,
      "metar_trigger": false,
      "taf_trigger": false,
      "metar": "METAR LYBE 191330Z 03009KT 9999 SCT045 12/M01 Q1018 NOSIG",
      "taf": "TAF LYBE 191100Z 1912/2012 05012KT CAVOK TX13/1913Z TN03/2005Z"
    },
    {
      "icao": "LYNI",
      "alert": "OK",
      "vis_m": 9999,
      "fzfg": false,
      "metar_trigger": false,
      "taf_trigger": false,
      "metar": "METAR LYNI 191330Z 03015KT 360V070 9999 FEW050 BKN070 12/M04 Q1014 NOSIG",
      "taf": "TAF LYNI 191100Z 1912/2012 04016KT 9999 SCT070 TX14/1913Z TN01/2005Z"
    },
    {
      "icao": "LYPG",
      "alert": "OK",
      "vis_m": 9999,
      "fzfg": false,
      "metar_trigger": false,
      "taf_trigger": false,
      "metar": "METAR LYPG 191330Z 01017KT 340V040 9999 FEW090 17/M02 Q1009 NOSIG",
      "taf": "TAF LYPG 191100Z 1912/2012 36010KT 9999 SCT090 TX17/2012Z TN09/2005Z"
    },
    {
      "icao": "LZIB",
      "alert": "OK",
      "vis_m": 9999,
      "fzfg": false,
      "metar_trigger": false,
      "taf_trigger": false,
      "metar": "METAR LZIB 191330Z VRB04KT CAVOK 15/M02 Q1021 NOSIG",
      "taf": "TAF LZIB 191115Z 1912/2012 06007KT CAVOK"
    },
    {
      "icao": "LZKZ",
      "alert": "OK",
      "vis_m": 9999,
      "fzfg": false,
      "metar_trigger": false,
      "taf_trigger": false,
      "metar": "METAR LZKZ 191330Z 06007KT CAVOK 10/M03 Q1021 NOSIG",
      "taf": "TAF LZKZ 191115Z 1912/2012 03013KT CAVOK"
    },
    {
      "icao": "LZTT",
      "alert": "OK",
      "vis_m": 9999,
      "fzfg": false,
      "metar_trigger": false,
      "taf_trigger": false,
      "metar": "METAR LZTT 191330Z 08013KT 040V100 9999 SCT060 09/M04 Q1020 NOSIG",
      "taf": "TAF LZTT 191115Z 1912/2012 06013KT 9999 SCT050"
    },
    {
      "icao": "OEJN",
      "alert": "OK",
      "vis_m": 9999,
      "fzfg": false,
      "metar_trigger": false,
      "taf_trigger": false,
      "metar": "METAR OEJN 191300Z 28009KT 9999 FEW040 30/19 Q1006 NOSIG",
      "taf": "TAF OEJN 191100Z 1912/2018 18015KT 7000 SCT040"
    },
    {
      "icao": "OEMA",
      "alert": "OK",
      "vis_m": 9000,
      "fzfg": false,
      "metar_trigger": false,
      "taf_trigger": false,
      "metar": "METAR OEMA 191300Z 25017G27KT 9000 NSC 27/03 Q1007 NOSIG",
      "taf": "TAF OEMA 191100Z 1912/2018 27016KT 7000 SCT045"
    },
    {
      "icao": "OJAI",
      "alert": "OK",
      "vis_m": 3500,
      "fzfg": false,
      "metar_trigger": false,
      "taf_trigger": false,
      "metar": "METAR OJAI 191300Z 27008KT 3500 HZ BKN040 14/08 Q1002 NOSIG",
      "taf": ""
    },
    {
      "icao": "OMAA",
      "alert": "OK",
      "vis_m": null,
      "fzfg": false,
      "metar_trigger": false,
      "taf_trigger": false,
      "metar": "",
      "taf": ""
    },
    {
      "icao": "OMDB",
      "alert": "OK",
      "vis_m": null,
      "fzfg": false,
      "metar_trigger": false,
      "taf_trigger": false,
      "metar": "",
      "taf": ""
    },
    {
      "icao": "UAAA",
      "alert": "OK",
      "vis_m": 5000,
      "fzfg": false,
      "metar_trigger": false,
      "taf_trigger": false,
      "metar": "SPECI UAAA 191340Z 11002MPS 050V140 5000 FU FEW200 10/M03 Q1018 NOSIG",
      "taf": "TAF UAAA 191102Z 1912/2012 16002G07MPS 9999 FEW100 TX16/2010Z TN00/2000Z"
    },
    {
      "icao": "UBBB",
      "alert": "OK",
      "vis_m": 9999,
      "fzfg": false,
      "metar_trigger": false,
      "taf_trigger": false,
      "metar": "METAR UBBB 191330Z 16018KT CAVOK 13/08 Q1016 NOSIG",
      "taf": "TAF UBBB 191055Z 1912/2012 15008KT 9999 SCT035 TX14/1912Z TN07/2000Z"
    },
    {
      "icao": "UDSG",
      "alert": "OK",
      "vis_m": 9999,
      "fzfg": false,
      "metar_trigger": false,
      "taf_trigger": false,
      "metar": "METAR UDSG 191330Z 20005KT 9999 SCT049 10/01 Q1012 NOSIG",
      "taf": "TAF UDSG 191058Z 1912/2012 VRB06KT 9999 SCT040"
    },
    {
      "icao": "UDYZ",
      "alert": "OK",
      "vis_m": 9999,
      "fzfg": false,
      "metar_trigger": false,
      "taf_trigger": false,
      "metar": "METAR UDYZ 191330Z 15003KT 110V190 9999 FEW046 16/00 Q1009 NOSIG",
      "taf": "TAF UDYZ 191100Z 1912/2012 16006KT 9999 FEW040"
    },
    {
      "icao": "UGKO",
      "alert": "OK",
      "vis_m": 9999,
      "fzfg": false,
      "metar_trigger": false,
      "taf_trigger": false,
      "metar": "METAR UGKO 191330Z 08029G40KT CAVOK 18/02 Q1005 NOSIG",
      "taf": "TAF UGKO 191100Z 1912/2012 08031G43KT CAVOK TX21/1912Z TN14/2003Z"
    }
  ]
}