{
  "ts_utc": "2026-01-20T08:34:51Z",
  "threshold_m": 150,
  "source": "stations_override.txt (ICAO list) + aviationweather.gov (METAR/TAF raw)",
  "station_count": 159,
  "stations": [
    {
      "icao": "BIKF",
      "alert": "OK",
      "vis_m": 9999,
      "fzfg": false,
      "metar_trigger": false,
      "taf_trigger": false,
      "metar": "METAR BIKF 200830Z 14019KT 9999 -RA BKN016CB BKN036 03/01 Q1001",
      "taf": "TAF BIKF 200733Z 2009/2109 14015KT 9999 -SHRA FEW015 BKN035 TX06/2013Z TN01/2022Z"
    },
    {
      "icao": "BKPR",
      "alert": "OK",
      "vis_m": 9999,
      "fzfg": false,
      "metar_trigger": false,
      "taf_trigger": false,
      "metar": "METAR BKPR 200830Z VRB01KT CAVOK M03/M06 Q1031 NOSIG",
      "taf": "TAF BKPR 200530Z 2006/2106 13006KT CAVOK"
    },
    {
      "icao": "EBCI",
      "alert": "OK",
      "vis_m": 7000,
      "fzfg": false,
      "metar_trigger": false,
      "taf_trigger": false,
      "metar": "METAR EBCI 200820Z 17004KT 120V190 7000 NSC 01/M00 Q1017 NOSIG",
      "taf": "TAF EBCI 200510Z 2006/2112 16006KT CAVOK"
    },
    {
      "icao": "EDDB",
      "alert": "OK",
      "vis_m": 9999,
      "fzfg": false,
      "metar_trigger": false,
      "taf_trigger": false,
      "metar": "METAR EDDB 200820Z AUTO 14006KT CAVOK M03/M08 Q1023 NOSIG",
      "taf": "TAF EDDB 200500Z 2006/2106 13006KT CAVOK"
    },
    {
      "icao": "EDDH",
      "alert": "OK",
      "vis_m": 9999,
      "fzfg": false,
      "metar_trigger": false,
      "taf_trigger": false,
      "metar": "METAR EDDH 200820Z AUTO 10003KT 050V130 CAVOK M02/M05 Q1021 NOSIG",
      "taf": "TAF EDDH 200500Z 2006/2112 10006KT CAVOK"
    },
    {
      "icao": "EDDK",
      "alert": "OK",
      "vis_m": 9999,
      "fzfg": false,
      "metar_trigger": false,
      "taf_trigger": false,
      "metar": "METAR EDDK 200820Z AUTO 13008KT CAVOK 01/M04 Q1019 NOSIG",
      "taf": "TAF EDDK 200500Z 2006/2112 12008KT 9000 NSC"
    },
    {
      "icao": "EDDN",
      "alert": "OK",
      "vis_m": 9999,
      "fzfg": false,
      "metar_trigger": false,
      "taf_trigger": false,
      "metar": "METAR EDDN 200820Z AUTO 10006KT CAVOK M04/M08 Q1021 NOSIG",
      "taf": "TAF EDDN 200500Z 2006/2106 11007KT CAVOK"
    },
    {
      "icao": "EDDS",
      "alert": "OK",
      "vis_m": 5000,
      "fzfg": false,
      "metar_trigger": false,
      "taf_trigger": false,
      "metar": "METAR EDDS 200820Z AUTO 09001KT 5000 BR NCD M03/M04 Q1018 NOSIG",
      "taf": "TAF EDDS 200500Z 2006/2106 VRB02KT 4000 BR NSC"
    },
    {
      "icao": "EDFH",
      "alert": "OK",
      "vis_m": 300,
      "fzfg": true,
      "metar_trigger": false,
      "taf_trigger": false,
      "metar": "METAR EDFH 200820Z 15013KT 0300 R21/0375N FZFG VV/// M02/M02 Q1017",
      "taf": "TAF EDFH 200500Z 2006/2106 14010KT 0300 FZFG VV000"
    },
    {
      "icao": "EDJA",
      "alert": "OK",
      "vis_m": 9999,
      "fzfg": false,
      "metar_trigger": false,
      "taf_trigger": false,
      "metar": "METAR EDJA 200820Z 04002KT CAVOK M04/M05 Q1018",
      "taf": "TAF EDJA 200800Z 2009/2018 VRB03KT CAVOK"
    },
    {
      "icao": "EDLW",
      "alert": "OK",
      "vis_m": 9999,
      "fzfg": false,
      "metar_trigger": false,
      "taf_trigger": false,
      "metar": "METAR EDLW 200820Z 06003KT 010V110 CAVOK 00/M03 Q1018",
      "taf": "TAF EDLW 200500Z 2006/2106 14004KT CAVOK"
    },
    {
      "icao": "EDNY",
      "alert": "OK",
      "vis_m": 3000,
      "fzfg": false,
      "metar_trigger": false,
      "taf_trigger": false,
      "metar": "METAR EDNY 200820Z VRB02KT 3000 BR SCT001 OVC005 M04/M04 Q1020",
      "taf": "TAF EDNY 200800Z 2009/2018 04003KT 9000 BKN002 OVC005"
    },
    {
      "icao": "EDSB",
      "alert": "OK",
      "vis_m": 3000,
      "fzfg": false,
      "metar_trigger": false,
      "taf_trigger": false,
      "metar": "METAR EDSB 200820Z 21003KT 3000 BR OVC002 M01/M01 Q1020",
      "taf": "TAF EDSB 200500Z 2006/2106 VRB03KT 2000 BR BKN003"
    },
    {
      "icao": "EETN",
      "alert": "OK",
      "vis_m": 6000,
      "fzfg": false,
      "metar_trigger": false,
      "taf_trigger": false,
      "metar": "METAR EETN 200820Z 20004KT 6000 SCT002 OVC007 M08/M09 Q1028 TEMPO 4000 BR BKN002",
      "taf": "TAF EETN 200530Z 2006/2106 VRB02KT 3000 BR OVC003"
    },
    {
      "icao": "EFTU",
      "alert": "OK",
      "vis_m": 6000,
      "fzfg": false,
      "metar_trigger": false,
      "taf_trigger": false,
      "metar": "METAR EFTU 200820Z AUTO 13005KT 090V160 6000 OVC002 M04/M04 Q1026",
      "taf": ""
    },
    {
      "icao": "EGBB",
      "alert": "OK",
      "vis_m": 9999,
      "fzfg": false,
      "metar_trigger": false,
      "taf_trigger": false,
      "metar": "METAR EGBB 200820Z 14012KT 9999 BKN011 07/06 Q1008",
      "taf": ""
    },
    {
      "icao": "EGGP",
      "alert": "OK",
      "vis_m": 9999,
      "fzfg": false,
      "metar_trigger": false,
      "taf_trigger": false,
      "metar": "METAR EGGP 200820Z 13015KT 9999 FEW016 BKN026 07/05 Q1006",
      "taf": ""
    },
    {
      "icao": "EGGW",
      "alert": "OK",
      "vis_m": 9999,
      "fzfg": false,
      "metar_trigger": false,
      "taf_trigger": false,
      "metar": "METAR EGGW 200820Z AUTO 16010KT 9999 BKN012 BKN018 BKN040 07/06 Q1010",
      "taf": "TAF EGGW 200459Z 2006/2106 16012KT 9999 SCT012 BKN022"
    },
    {
      "icao": "EGKK",
      "alert": "OK",
      "vis_m": 9999,
      "fzfg": false,
      "metar_trigger": false,
      "taf_trigger": false,
      "metar": "METAR EGKK 200820Z 16009KT 9999 SCT012 SCT035 09/07 Q1011",
      "taf": "TAF EGKK 200453Z 2006/2112 16006KT 9999 SCT010 BKN020"
    },
    {
      "icao": "EGNM",
      "alert": "OK",
      "vis_m": 6000,
      "fzfg": false,
      "metar_trigger": false,
      "taf_trigger": false,
      "metar": "METAR EGNM 200820Z 13010KT 100V160 6000 BKN004 06/06 Q1008",
      "taf": "TAF EGNM 200529Z 2006/2106 14007KT 0900 FG BKN001"
    },
    {
      "icao": "EGPD",
      "alert": "OK",
      "vis_m": 4000,
      "fzfg": false,
      "metar_trigger": false,
      "taf_trigger": false,
      "metar": "METAR EGPD 200820Z AUTO 14012KT 4000 BR OVC003 08/07 Q1008 TEMPO 2000 BKN002",
      "taf": "TAF EGPD 200454Z 2006/2106 14010KT 1400 BR BKN002"
    },
    {
      "icao": "EGPF",
      "alert": "OK",
      "vis_m": 9999,
      "fzfg": false,
      "metar_trigger": false,
      "taf_trigger": false,
      "metar": "METAR EGPF 200820Z AUTO 07008KT 9999 BKN021 BKN032 OVC048 06/05 Q1005",
      "taf": "TAF EGPF 200455Z 2006/2106 08006KT 9999 SCT020"
    },
    {
      "icao": "EHBK",
      "alert": "OK",
      "vis_m": 4700,
      "fzfg": false,
      "metar_trigger": false,
      "taf_trigger": false,
      "metar": "METAR EHBK 200825Z AUTO 10004KT 080V240 4700 BR NSC M02/M02 Q1017 TEMPO 2000 PRFG SCT001",
      "taf": "TAF EHBK 200519Z 2006/2112 17005KT CAVOK"
    },
    {
      "icao": "EHEH",
      "alert": "OK",
      "vis_m": 350,
      "fzfg": true,
      "metar_trigger": false,
      "taf_trigger": false,
      "metar": "METAR EHEH 200755Z AUTO 09004KT 0350 R21/0550N FZFG OVC001 M01/M01 Q1018 RED NOSIG RMK TREND REMOTE BY EHWX LVP BRAVO",
      "taf": ""
    },
    {
      "icao": "EKBI",
      "alert": "OK",
      "vis_m": 3900,
      "fzfg": false,
      "metar_trigger": false,
      "taf_trigger": false,
      "metar": "METAR EKBI 200820Z AUTO 08002KT 3900 BR NCD M03/M04 Q1021",
      "taf": "TAF EKBI 200827Z 2009/2109 10004KT 6000 NSC"
    },
    {
      "icao": "EKCH",
      "alert": "OK",
      "vis_m": 9999,
      "fzfg": false,
      "metar_trigger": false,
      "taf_trigger": false,
      "metar": "METAR EKCH 200820Z AUTO 17004KT 9999 NCD M00/M03 Q1022 NOSIG",
      "taf": "TAF EKCH 200827Z 2009/2109 14008KT CAVOK"
    },
    {
      "icao": "ENAL",
      "alert": "OK",
      "vis_m": 9999,
      "fzfg": false,
      "metar_trigger": false,
      "taf_trigger": false,
      "metar": "METAR ENAL 200820Z 16005KT 9999 FEW013 BKN019 05/04 Q1020",
      "taf": ""
    },
    {
      "icao": "ENBR",
      "alert": "OK",
      "vis_m": 9999,
      "fzfg": false,
      "metar_trigger": false,
      "taf_trigger": false,
      "metar": "METAR ENBR 200820Z 14003KT 9999 SCT016 BKN020 02/02 Q1020 NOSIG RMK WIND 1200FT 17005KT",
      "taf": "TAF ENBR 200500Z 2006/2106 12005KT 9999 FEW010 BKN015"
    },
    {
      "icao": "ENGM",
      "alert": "OK",
      "vis_m": 9999,
      "fzfg": false,
      "metar_trigger": false,
      "taf_trigger": false,
      "metar": "METAR ENGM 200820Z 12003KT 9999 VCSH FEW010 OVC012 M03/M05 Q1024 NOSIG",
      "taf": "TAF ENGM 200500Z 2006/2106 03005KT 9999 BKN010"
    },
    {
      "icao": "ENHD",
      "alert": "OK",
      "vis_m": 9999,
      "fzfg": false,
      "metar_trigger": false,
      "taf_trigger": false,
      "metar": "METAR ENHD 200820Z 11006KT CAVOK M02/M03 Q1021",
      "taf": "TAF ENHD 200500Z 2006/2015 13008KT CAVOK"
    },
    {
      "icao": "ENTC",
      "alert": "OK",
      "vis_m": 9999,
      "fzfg": false,
      "metar_trigger": false,
      "taf_trigger": false,
      "metar": "METAR ENTC 200800Z VRB01KT 9999 0500N BCFG FEW006 M05/M05 Q1027 TEMPO 3000 BCFG RMK WIND 2600FT 10008KT",
      "taf": ""
    },
    {
      "icao": "ENTO",
      "alert": "OK",
      "vis_m": 9999,
      "fzfg": false,
      "metar_trigger": false,
      "taf_trigger": false,
      "metar": "METAR ENTO 200820Z 02004KT 350V070 9999 OVC018 M02/M04 Q1024 NOSIG",
      "taf": "TAF ENTO 200500Z 2006/2106 03005KT 9999 BKN018"
    },
    {
      "icao": "ENVA",
      "alert": "OK",
      "vis_m": 9999,
      "fzfg": false,
      "metar_trigger": false,
      "taf_trigger": false,
      "metar": "METAR ENVA 200820Z 13007KT CAVOK M03/M06 Q1023 NOSIG RMK WIND 670FT 11009KT",
      "taf": "TAF ENVA 200500Z 2006/2106 12008KT CAVOK"
    },
    {
      "icao": "ENZV",
      "alert": "OK",
      "vis_m": 9999,
      "fzfg": false,
      "metar_trigger": false,
      "taf_trigger": false,
      "metar": "METAR ENZV 200820Z VRB01KT CAVOK M04/M05 Q1021 NOSIG",
      "taf": "TAF ENZV 200500Z 2006/2106 17005KT CAVOK"
    },
    {
      "icao": "EPGD",
      "alert": "OK",
      "vis_m": 9999,
      "fzfg": false,
      "metar_trigger": false,
      "taf_trigger": false,
      "metar": "METAR EPGD 200830Z 29002KT CAVOK M06/M10 Q1026",
      "taf": "TAF EPGD 200530Z 2006/2106 19004KT 3000 BR NSC"
    },
    {
      "icao": "EPKK",
      "alert": "OK",
      "vis_m": 3000,
      "fzfg": false,
      "metar_trigger": false,
      "taf_trigger": false,
      "metar": "METAR EPKK 200830Z 09001KT 3000 BR NSC M09/M14 Q1030",
      "taf": "TAF EPKK 200830Z 2009/2109 12002KT 2800 BR NSC"
    },
    {
      "icao": "EPKT",
      "alert": "OK",
      "vis_m": 4400,
      "fzfg": false,
      "metar_trigger": false,
      "taf_trigger": false,
      "metar": "METAR EPKT 200830Z 29002KT 4400 BR NSC M07/M10 Q1029",
      "taf": "TAF EPKT 200530Z 2006/2106 13005KT 4000 BR NSC"
    },
    {
      "icao": "EPLB",
      "alert": "OK",
      "vis_m": 8000,
      "fzfg": false,
      "metar_trigger": false,
      "taf_trigger": false,
      "metar": "METAR EPLB 200830Z 15002KT 8000 3000E NSC M15/M16 Q1031",
      "taf": "TAF EPLB 200530Z 2006/2106 21004KT 4000 BR NSC"
    },
    {
      "icao": "EPMO",
      "alert": "OK",
      "vis_m": 2600,
      "fzfg": false,
      "metar_trigger": false,
      "taf_trigger": false,
      "metar": "METAR EPMO 200830Z 10004KT 070V150 2600 BR NSC M12/M13 Q1030",
      "taf": "TAF EPMO 200530Z 2006/2106 12005KT 3500 BR NSC"
    },
    {
      "icao": "EPPO",
      "alert": "OK",
      "vis_m": 9999,
      "fzfg": false,
      "metar_trigger": false,
      "taf_trigger": false,
      "metar": "METAR EPPO 200830Z 13010KT CAVOK M02/M08 Q1025",
      "taf": "TAF EPPO 200530Z 2006/2106 15010KT CAVOK"
    },
    {
      "icao": "EPRA",
      "alert": "OK",
      "vis_m": 5000,
      "fzfg": false,
      "metar_trigger": false,
      "taf_trigger": false,
      "metar": "METAR EPRA 200830Z 18004KT 5000 BR NSC M11/M15 Q1030",
      "taf": "TAF EPRA 200830Z 2009/2018 16006KT 5000 BR NSC"
    },
    {
      "icao": "EPRZ",
      "alert": "OK",
      "vis_m": 3000,
      "fzfg": false,
      "metar_trigger": false,
      "taf_trigger": false,
      "metar": "METAR EPRZ 200830Z 10003KT 3000 BR NSC M12/M15 Q1031",
      "taf": "TAF EPRZ 200530Z 2006/2106 06005KT 3500 BR NSC"
    },
    {
      "icao": "EPSC",
      "alert": "OK",
      "vis_m": 9999,
      "fzfg": false,
      "metar_trigger": false,
      "taf_trigger": false,
      "metar": "METAR EPSC 200830Z 13008KT CAVOK M04/M07 Q1024",
      "taf": "TAF EPSC 200530Z 2006/2106 13007KT CAVOK"
    },
    {
      "icao": "EPSY",
      "alert": "OK",
      "vis_m": 3200,
      "fzfg": false,
      "metar_trigger": false,
      "taf_trigger": false,
      "metar": "METAR EPSY 200830Z VRB01KT 3200 BR NSC M17/M19 Q1029",
      "taf": "TAF EPSY 200830Z 2009/2018 VRB02KT 8000 NSC"
    },
    {
      "icao": "EPWA",
      "alert": "OK",
      "vis_m": 4800,
      "fzfg": false,
      "metar_trigger": false,
      "taf_trigger": false,
      "metar": "METAR EPWA 200830Z 15008KT 4800 BR NSC M12/M14 Q1030 BECMG 7000",
      "taf": "TAF EPWA 200830Z 2009/2109 13008KT 7000 NSC"
    },
    {
      "icao": "EPWR",
      "alert": "OK",
      "vis_m": 9999,
      "fzfg": false,
      "metar_trigger": false,
      "taf_trigger": false,
      "metar": "METAR EPWR 200830Z 12014KT CAVOK M02/M07 Q1026",
      "taf": "TAF EPWR 200830Z 2009/2109 12014KT CAVOK"
    },
    {
      "icao": "ESGG",
      "alert": "OK",
      "vis_m": 6000,
      "fzfg": false,
      "metar_trigger": false,
      "taf_trigger": false,
      "metar": "METAR ESGG 200820Z 09004KT 6000 BKN005 M02/M03 Q1022",
      "taf": "TAF ESGG 200830Z 2009/2109 11007KT 6000 OVC004"
    },
    {
      "icao": "ESKN",
      "alert": "OK",
      "vis_m": 9999,
      "fzfg": false,
      "metar_trigger": false,
      "taf_trigger": false,
      "metar": "METAR ESKN 200820Z 12005KT 9999 OVC009 01/M00 Q1024",
      "taf": "TAF ESKN 200830Z 2009/2109 12006KT 8000 OVC008"
    },
    {
      "icao": "ESMS",
      "alert": "OK",
      "vis_m": 9000,
      "fzfg": false,
      "metar_trigger": false,
      "taf_trigger": false,
      "metar": "METAR ESMS 200820Z VRB02KT 9000 NSC M04/M04 Q1022",
      "taf": "TAF ESMS 200827Z 2009/2109 14005KT CAVOK"
    },
    {
      "icao": "ESSA",
      "alert": "OK",
      "vis_m": 9999,
      "fzfg": false,
      "metar_trigger": false,
      "taf_trigger": false,
      "metar": "METAR ESSA 200820Z VRB03KT 9999 OVC011 M01/M03 Q1025 NOSIG",
      "taf": "TAF ESSA 200830Z 2009/2109 10005KT 9999 OVC010"
    },
    {
      "icao": "EYKA",
      "alert": "OK",
      "vis_m": 6000,
      "fzfg": false,
      "metar_trigger": false,
      "taf_trigger": false,
      "metar": "METAR EYKA 200820Z VRB02KT 6000 NSC M14/M16 Q1030",
      "taf": "TAF EYKA 200500Z 2006/2106 VRB04KT 9000 NSC"
    },
    {
      "icao": "EYPA",
      "alert": "OK",
      "vis_m": 6000,
      "fzfg": false,
      "metar_trigger": false,
      "taf_trigger": false,
      "metar": "METAR EYPA 200820Z 17007KT 6000 NSC M12/M15 Q1028",
      "taf": "TAF EYPA 200500Z 2006/2106 15008KT 9000 NSC"
    },
    {
      "icao": "EYVI",
      "alert": "OK",
      "vis_m": 6000,
      "fzfg": false,
      "metar_trigger": false,
      "taf_trigger": false,
      "metar": "METAR EYVI 200820Z 18007KT 6000 FEW001 M16/M18 Q1029 NOSIG",
      "taf": ""
    },
    {
      "icao": "GCFV",
      "alert": "OK",
      "vis_m": 9999,
      "fzfg": false,
      "metar_trigger": false,
      "taf_trigger": false,
      "metar": "METAR GCFV 200800Z 32010KT 9999 FEW030 SCT038 14/09 Q1024",
      "taf": "TAF GCFV 200800Z 2009/2109 03015KT 9999 FEW030 TX21/2014Z TN14/2106Z"
    },
    {
      "icao": "GCLP",
      "alert": "OK",
      "vis_m": 9999,
      "fzfg": false,
      "metar_trigger": false,
      "taf_trigger": false,
      "metar": "METAR GCLP 200800Z 36014KT 9999 SCT037 16/09 Q1025 NOSIG",
      "taf": "TAF GCLP 200800Z 2009/2109 02015KT 9999 SCT035 TX20/2014Z TN16/2106Z"
    },
    {
      "icao": "GCTS",
      "alert": "OK",
      "vis_m": 9999,
      "fzfg": false,
      "metar_trigger": false,
      "taf_trigger": false,
      "metar": "METAR GCTS 200800Z 01012KT 9999 FEW040 16/06 Q1025 NOSIG",
      "taf": "TAF GCTS 200800Z 2009/2109 08015KT 9999 FEW040 TX22/2014Z TN14/2106Z"
    },
    {
      "icao": "GMAD",
      "alert": "OK",
      "vis_m": 9999,
      "fzfg": false,
      "metar_trigger": false,
      "taf_trigger": false,
      "metar": "METAR GMAD 200830Z 07004KT CAVOK 06/06 Q1021 NOSIG",
      "taf": "TAF GMAD 200500Z 2006/2112 06008KT 8000 SCT020"
    },
    {
      "icao": "GMMN",
      "alert": "OK",
      "vis_m": 9999,
      "fzfg": false,
      "metar_trigger": false,
      "taf_trigger": false,
      "metar": "METAR GMMN 200830Z 17009KT 9999 BKN020 08/06 Q1023 NOSIG",
      "taf": "TAF GMMN 200500Z 2006/2112 20006KT 9999 SCT030"
    },
    {
      "icao": "GMMX",
      "alert": "OK",
      "vis_m": 8000,
      "fzfg": false,
      "metar_trigger": false,
      "taf_trigger": false,
      "metar": "METAR GMMX 200830Z 07003KT 8000 NSC 05/03 Q1023 NOSIG",
      "taf": "TAF GMMX 200500Z 2006/2112 24006KT 8000 NSC"
    },
    {
      "icao": "HEGN",
      "alert": "OK",
      "vis_m": 9999,
      "fzfg": false,
      "metar_trigger": false,
      "taf_trigger": false,
      "metar": "METAR HEGN 200800Z 33012KT CAVOK 19/05 Q1020 NOSIG",
      "taf": "TAF HEGN 200500Z 2006/2112 35014KT CAVOK"
    },
    {
      "icao": "HEMA",
      "alert": "OK",
      "vis_m": 9999,
      "fzfg": false,
      "metar_trigger": false,
      "taf_trigger": false,
      "metar": "METAR HEMA 200800Z 31012KT 9999 SCT020 21/10 Q1018 NOSIG",
      "taf": "TAF HEMA 200500Z 2006/2112 36015KT CAVOK"
    },
    {
      "icao": "HESH",
      "alert": "OK",
      "vis_m": 9999,
      "fzfg": false,
      "metar_trigger": false,
      "taf_trigger": false,
      "metar": "METAR HESH 200800Z 34011KT CAVOK 19/07 Q1018 NOSIG",
      "taf": "TAF HESH 200500Z 2006/2112 01012KT CAVOK"
    },
    {
      "icao": "HESX",
      "alert": "OK",
      "vis_m": 9999,
      "fzfg": false,
      "metar_trigger": false,
      "taf_trigger": false,
      "metar": "METAR HESX 200800Z 05014KT CAVOK 13/07 Q1021 NOSIG",
      "taf": "TAF HESX 200500Z 2006/2112 04013KT CAVOK"
    },
    {
      "icao": "LATI",
      "alert": "OK",
      "vis_m": 9999,
      "fzfg": false,
      "metar_trigger": false,
      "taf_trigger": false,
      "metar": "METAR LATI 200820Z 34003KT CAVOK 04/M05 Q1025 NOSIG",
      "taf": "TAF LATI 200500Z 2006/2106 VRB05KT CAVOK TX13/2012Z TN01/2105Z"
    },
    {
      "icao": "LBPD",
      "alert": "OK",
      "vis_m": 9999,
      "fzfg": false,
      "metar_trigger": false,
      "taf_trigger": false,
      "metar": "METAR LBPD 200830Z AUTO 32004KT 250V360 9999 NCD M02/M06 Q1036 NOSIG",
      "taf": "TAF LBPD 200500Z 2006/2106 VRB03KT CAVOK"
    },
    {
      "icao": "LBSF",
      "alert": "OK",
      "vis_m": 9999,
      "fzfg": false,
      "metar_trigger": false,
      "taf_trigger": false,
      "metar": "METAR LBSF 200830Z VRB02KT CAVOK M04/M08 Q1033 NOSIG",
      "taf": "TAF LBSF 200500Z 2006/2106 VRB03KT CAVOK"
    },
    {
      "icao": "LBWN",
      "alert": "OK",
      "vis_m": 9999,
      "fzfg": false,
      "metar_trigger": false,
      "taf_trigger": false,
      "metar": "METAR LBWN 200830Z 24004KT 180V270 CAVOK M03/M07 Q1037 NOSIG",
      "taf": "TAF LBWN 200500Z 2006/2106 26010KT CAVOK"
    },
    {
      "icao": "LCLK",
      "alert": "OK",
      "vis_m": 9999,
      "fzfg": false,
      "metar_trigger": false,
      "taf_trigger": false,
      "metar": "METAR LCLK 200800Z 01010KT 9999 FEW030 11/01 Q1024 NOSIG",
      "taf": "TAF LCLK 200530Z 2006/2106 33008KT 9999 FEW025"
    },
    {
      "icao": "LCPH",
      "alert": "OK",
      "vis_m": 9999,
      "fzfg": false,
      "metar_trigger": false,
      "taf_trigger": false,
      "metar": "METAR LCPH 200800Z 03004KT 010V110 9999 FEW040 13/M03 Q1024 NOSIG",
      "taf": "TAF LCPH 200530Z 2006/2106 05008KT 9999 FEW020"
    },
    {
      "icao": "LEAL",
      "alert": "OK",
      "vis_m": 9999,
      "fzfg": false,
      "metar_trigger": false,
      "taf_trigger": false,
      "metar": "METAR LEAL 200800Z 28007KT 250V310 CAVOK 11/04 Q1012 NOSIG",
      "taf": "TAF LEAL 200500Z 2006/2106 34010KT 9999 FEW035 TX15/2013Z TN10/2006Z"
    },
    {
      "icao": "LEBB",
      "alert": "OK",
      "vis_m": 9999,
      "fzfg": false,
      "metar_trigger": false,
      "taf_trigger": false,
      "metar": "METAR LEBB 200800Z 09008KT 060V130 CAVOK 03/02 Q1017 NOSIG",
      "taf": "TAF LEBB 200500Z 2006/2106 20008KT 9999 SCT040 TX13/2013Z TN02/2007Z"
    },
    {
      "icao": "LEBL",
      "alert": "OK",
      "vis_m": 9999,
      "fzfg": false,
      "metar_trigger": false,
      "taf_trigger": false,
      "metar": "METAR LEBL 200800Z 02013KT 9999 -RA FEW034 BKN060 10/07 Q1012 NOSIG",
      "taf": "TAF LEBL 200500Z 2006/2106 01013KT 9999 SCT020 BKN030 TX14/2013Z TN09/2006Z"
    },
    {
      "icao": "LECH",
      "alert": "OK",
      "vis_m": 8000,
      "fzfg": false,
      "metar_trigger": false,
      "taf_trigger": false,
      "metar": "METAR LECH 200800Z AUTO 01007KT 320V060 8000 FEW059 09/02 Q1012",
      "taf": ""
    },
    {
      "icao": "LEMD",
      "alert": "OK",
      "vis_m": 9999,
      "fzfg": false,
      "metar_trigger": false,
      "taf_trigger": false,
      "metar": "METAR LEMD 200800Z 08001KT CAVOK M02/M03 Q1016 NOSIG",
      "taf": "TAF LEMD 200500Z 2006/2112 VRB03KT CAVOK TX12/2014Z TNM03/2006Z"
    },
    {
      "icao": "LEMG",
      "alert": "OK",
      "vis_m": 9999,
      "fzfg": false,
      "metar_trigger": false,
      "taf_trigger": false,
      "metar": "METAR LEMG 200800Z 29009KT 9999 FEW015 08/03 Q1017 NOSIG",
      "taf": "TAF LEMG 200500Z 2006/2106 29012KT CAVOK TX14/2014Z TN07/2006Z"
    },
    {
      "icao": "LEVC",
      "alert": "OK",
      "vis_m": 9999,
      "fzfg": false,
      "metar_trigger": false,
      "taf_trigger": false,
      "metar": "METAR LEVC 200800Z 28006KT 9999 SCT055 SCT068 09/06 Q1013 NOSIG",
      "taf": "TAF LEVC 200500Z 2006/2106 28006KT 9999 SCT035 TX14/2013Z TN07/2006Z"
    },
    {
      "icao": "LEXJ",
      "alert": "OK",
      "vis_m": 9999,
      "fzfg": false,
      "metar_trigger": false,
      "taf_trigger": false,
      "metar": "METAR LEXJ 200800Z 15002KT CAVOK 02/00 Q1016",
      "taf": "TAF LEXJ 200800Z 2009/2109 22009KT 9999 SCT040 TX13/2014Z TN06/2009Z"
    },
    {
      "icao": "LEZG",
      "alert": "OK",
      "vis_m": 9999,
      "fzfg": false,
      "metar_trigger": false,
      "taf_trigger": false,
      "metar": "METAR LEZG 200800Z 30007KT CAVOK 04/03 Q1016 NOSIG",
      "taf": "TAF LEZG 200500Z 2006/2106 30008KT 9999 FEW030 TX10/2015Z TN06/2006Z"
    },
    {
      "icao": "LEZL",
      "alert": "OK",
      "vis_m": 9999,
      "fzfg": false,
      "metar_trigger": false,
      "taf_trigger": false,
      "metar": "METAR LEZL 200800Z 17003KT 150V220 CAVOK 04/04 Q1020 NOSIG",
      "taf": "TAF LEZL 200800Z 2009/2109 VRB04KT CAVOK TX15/2015Z TN04/2107Z"
    },
    {
      "icao": "LFBD",
      "alert": "OK",
      "vis_m": 9999,
      "fzfg": false,
      "metar_trigger": false,
      "taf_trigger": false,
      "metar": "METAR LFBD 200830Z AUTO 15005KT 2600 0800 R23/P2300 R05/1800D R29/1300D BCFG VV/// 04/04 Q1016 BECMG CAVOK",
      "taf": "TAF LFBD 200500Z 2006/2112 VRB03KT 3000 BR NSC TX12/2013Z TN04/2006Z"
    },
    {
      "icao": "LFLL",
      "alert": "OK",
      "vis_m": 450,
      "fzfg": false,
      "metar_trigger": false,
      "taf_trigger": false,
      "metar": "METAR LFLL 200830Z 11004KT 060V140 0450 R35L/0500N R17R/1000N R35R/0550N R17L/0600N FG VV/// 01/01 Q1018 NOSIG",
      "taf": ""
    },
    {
      "icao": "LFLS",
      "alert": "OK",
      "vis_m": 9999,
      "fzfg": false,
      "metar_trigger": false,
      "taf_trigger": false,
      "metar": "METAR LFLS 200830Z AUTO 18003KT 1000 0750 R09/1300U R27/P2400 BCFG VV/// M01/M01 Q1017 BECMG CAVOK",
      "taf": ""
    },
    {
      "icao": "LFMN",
      "alert": "OK",
      "vis_m": 9999,
      "fzfg": false,
      "metar_trigger": false,
      "taf_trigger": false,
      "metar": "METAR LFMN 200830Z 07016KT 9999 SCT083 BKN110 14/04 Q1017 NOSIG",
      "taf": "TAF LFMN 200800Z 2009/2115 08015G25KT 9999 SCT100"
    },
    {
      "icao": "LFOB",
      "alert": "OK",
      "vis_m": 7000,
      "fzfg": false,
      "metar_trigger": false,
      "taf_trigger": false,
      "metar": "METAR LFOB 200830Z AUTO 12009KT 7000 OVC012 06/05 Q1015 TEMPO 4500 BR BKN003 OVC008",
      "taf": "TAF LFOB 200500Z 2006/2106 09006KT 9999 BKN016"
    },
    {
      "icao": "LFPO",
      "alert": "OK",
      "vis_m": 9999,
      "fzfg": false,
      "metar_trigger": false,
      "taf_trigger": false,
      "metar": "METAR LFPO 200830Z 13006KT 9999 SCT015 BKN043 05/04 Q1016 NOSIG",
      "taf": "TAF LFPO 200500Z 2006/2112 16005KT 9999 BKN017"
    },
    {
      "icao": "LFSB",
      "alert": "OK",
      "vis_m": 9000,
      "fzfg": false,
      "metar_trigger": false,
      "taf_trigger": false,
      "metar": "METAR LFSB 200830Z AUTO 16005KT 140V200 9000 OVC005 M00/M01 Q1019 BECMG NSC",
      "taf": "TAF LFSB 200500Z 2006/2106 VRB03KT 9000 OVC005"
    },
    {
      "icao": "LGAV",
      "alert": "OK",
      "vis_m": 9999,
      "fzfg": false,
      "metar_trigger": false,
      "taf_trigger": false,
      "metar": "METAR LGAV 200820Z 06019KT 9999 FEW020 BKN035 08/M01 Q1030 NOSIG",
      "taf": "TAF LGAV 200500Z 2006/2106 03015KT 9999 FEW018 BKN025"
    },
    {
      "icao": "LGTS",
      "alert": "OK",
      "vis_m": 9999,
      "fzfg": false,
      "metar_trigger": false,
      "taf_trigger": false,
      "metar": "METAR LGTS 200820Z 28005KT 260V320 9999 FEW020 04/M02 Q1035 NOSIG",
      "taf": "TAF LGTS 200500Z 2006/2106 11010KT 9999 SCT030"
    },
    {
      "icao": "LHBP",
      "alert": "OK",
      "vis_m": 3700,
      "fzfg": false,
      "metar_trigger": false,
      "taf_trigger": false,
      "metar": "METAR LHBP 200830Z 12003KT 3700 BR SCT003 M09/M10 Q1035 BECMG 5000 BR FEW003",
      "taf": "TAF LHBP 200515Z 2006/2106 05005KT 5000 BR SCT006"
    },
    {
      "icao": "LHDC",
      "alert": "OK",
      "vis_m": 1900,
      "fzfg": true,
      "metar_trigger": false,
      "taf_trigger": false,
      "metar": "METAR LHDC 200815Z AUTO 05003KT 350V080 1900 R04/1400U BR VV002 M07/M08 Q1035 TEMPO 0600 FZFG",
      "taf": "TAF LHDC 200815Z 2009/2018 04004KT 4000 BR OVC004"
    },
    {
      "icao": "LIBD",
      "alert": "OK",
      "vis_m": 9999,
      "fzfg": false,
      "metar_trigger": false,
      "taf_trigger": false,
      "metar": "METAR LIBD 200820Z 17002KT 9999 FEW035 07/03 Q1023",
      "taf": "TAF LIBD 200500Z 2006/2106 16008KT 9999 SCT040"
    },
    {
      "icao": "LIBG",
      "alert": "OK",
      "vis_m": 9999,
      "fzfg": false,
      "metar_trigger": false,
      "taf_trigger": false,
      "metar": "METAR LIBG 200750Z 09003KT 9999 FEW040 08/07 Q1023",
      "taf": "TAF LIBG 200800Z 2009/2018 09008KT 9999 SCT040"
    },
    {
      "icao": "LIBP",
      "alert": "OK",
      "vis_m": 9999,
      "fzfg": false,
      "metar_trigger": false,
      "taf_trigger": false,
      "metar": "METAR LIBP 200820Z AUTO 05003KT 340V080 9999 FEW031/// BKN058/// 10/08 Q1024",
      "taf": "TAF LIBP 200500Z 2006/2106 VRB05KT 9999 BKN050"
    },
    {
      "icao": "LIBR",
      "alert": "OK",
      "vis_m": 9999,
      "fzfg": false,
      "metar_trigger": false,
      "taf_trigger": false,
      "metar": "METAR LIBR 200820Z VRB03KT 9999 FEW040 09/04 Q1023",
      "taf": "TAF LIBR 200500Z 2006/2106 VRB05KT 9999 SCT040"
    },
    {
      "icao": "LICA",
      "alert": "OK",
      "vis_m": 9999,
      "fzfg": false,
      "metar_trigger": false,
      "taf_trigger": false,
      "metar": "METAR LICA 200820Z AUTO 05022G34KT 9999 -DZRA OVC031/// 10/06 Q1017",
      "taf": "TAF LICA 200500Z 2006/2106 09028G50KT 9999 SCT020 BKN060"
    },
    {
      "icao": "LICC",
      "alert": "OK",
      "vis_m": 5000,
      "fzfg": false,
      "metar_trigger": false,
      "taf_trigger": false,
      "metar": "METAR LICC 200820Z 08031G41KT 5000 -RA BKN020 BKN040 13/10 Q1013",
      "taf": "TAF LICC 200500Z 2006/2106 10023G40KT 4000 RA BKN015"
    },
    {
      "icao": "LICJ",
      "alert": "OK",
      "vis_m": 9999,
      "fzfg": false,
      "metar_trigger": false,
      "taf_trigger": false,
      "metar": "METAR LICJ 200820Z 08024KT 9999 -RA BKN040 15/08 Q1008",
      "taf": "TAF LICJ 200500Z 2006/2106 10025G45KT 9999 SCT040 BKN060"
    },
    {
      "icao": "LIMC",
      "alert": "OK",
      "vis_m": 9999,
      "fzfg": false,
      "metar_trigger": false,
      "taf_trigger": false,
      "metar": "METAR LIMC 200820Z 06001KT 9999 BKN055 03/01 Q1026 NOSIG",
      "taf": "TAF LIMC 200500Z 2006/2112 VRB04KT 9999 SCT050 SCT090"
    },
    {
      "icao": "LIME",
      "alert": "OK",
      "vis_m": 9999,
      "fzfg": false,
      "metar_trigger": false,
      "taf_trigger": false,
      "metar": "METAR LIME 200820Z VRB02KT CAVOK 02/M03 Q1026 NOSIG",
      "taf": "TAF LIME 200500Z 2006/2106 VRB04KT 9999 BKN040"
    },
    {
      "icao": "LIMF",
      "alert": "OK",
      "vis_m": 7000,
      "fzfg": false,
      "metar_trigger": false,
      "taf_trigger": false,
      "metar": "METAR LIMF 200820Z 33002KT 7000 OVC070 01/M01 Q1026",
      "taf": "TAF LIMF 200500Z 2006/2106 VRB04KT 9999 BKN060"
    },
    {
      "icao": "LIMJ",
      "alert": "OK",
      "vis_m": 9999,
      "fzfg": false,
      "metar_trigger": false,
      "taf_trigger": false,
      "metar": "METAR LIMJ 200820Z VRB07KT CAVOK 08/00 Q1022",
      "taf": "TAF LIMJ 200500Z 2006/2106 02015KT CAVOK"
    },
    {
      "icao": "LIPE",
      "alert": "OK",
      "vis_m": 9999,
      "fzfg": false,
      "metar_trigger": false,
      "taf_trigger": false,
      "metar": "METAR LIPE 200820Z 29004KT 9999 OVC030 03/M01 Q1027",
      "taf": "TAF LIPE 200500Z 2006/2106 28006KT 8000 BKN020 BKN030"
    },
    {
      "icao": "LIPH",
      "alert": "OK",
      "vis_m": 9999,
      "fzfg": false,
      "metar_trigger": false,
      "taf_trigger": false,
      "metar": "METAR LIPH 200820Z 04006KT 010V080 CAVOK 01/M06 Q1027",
      "taf": "TAF LIPH 200500Z 2006/2106 06008KT CAVOK"
    },
    {
      "icao": "LIPQ",
      "alert": "OK",
      "vis_m": 9999,
      "fzfg": false,
      "metar_trigger": false,
      "taf_trigger": false,
      "metar": "METAR LIPQ 200820Z AUTO 02004KT 340V050 9999 NCD 02/M07 Q1027",
      "taf": "TAF LIPQ 200500Z 2006/2106 VRB05KT CAVOK"
    },
    {
      "icao": "LIPR",
      "alert": "OK",
      "vis_m": 8000,
      "fzfg": false,
      "metar_trigger": false,
      "taf_trigger": false,
      "metar": "METAR LIPR 200820Z 31009KT 8000 -RA BKN025 05/03 Q1025",
      "taf": "TAF LIPR 200500Z 2006/2106 10012KT 9999 BKN030"
    },
    {
      "icao": "LIPX",
      "alert": "OK",
      "vis_m": 9999,
      "fzfg": false,
      "metar_trigger": false,
      "taf_trigger": false,
      "metar": "METAR LIPX 200820Z VRB01KT 9999 FEW060 SCT090 02/M02 Q1027",
      "taf": "TAF LIPX 200500Z 2006/2106 VRB05KT 9999 SCT050"
    },
    {
      "icao": "LIPY",
      "alert": "OK",
      "vis_m": 9000,
      "fzfg": false,
      "metar_trigger": false,
      "taf_trigger": false,
      "metar": "METAR LIPY 200820Z AUTO VRB01KT 9000 -RA OVC025/// 09/08 Q1024",
      "taf": "TAF LIPY 200500Z 2006/2106 09011KT 9999 BKN040"
    },
    {
      "icao": "LIPZ",
      "alert": "OK",
      "vis_m": 9999,
      "fzfg": false,
      "metar_trigger": false,
      "taf_trigger": false,
      "metar": "METAR LIPZ 200820Z 03008KT CAVOK 00/M06 Q1027 NOSIG",
      "taf": "TAF LIPZ 200500Z 2006/2112 02010KT CAVOK"
    },
    {
      "icao": "LIRF",
      "alert": "OK",
      "vis_m": 9999,
      "fzfg": false,
      "metar_trigger": false,
      "taf_trigger": false,
      "metar": "METAR LIRF 200820Z 05007KT CAVOK 11/06 Q1017 NOSIG",
      "taf": "TAF LIRF 200500Z 2006/2112 06013KT 9999 SCT050"
    },
    {
      "icao": "LIRN",
      "alert": "OK",
      "vis_m": 9999,
      "fzfg": false,
      "metar_trigger": false,
      "taf_trigger": false,
      "metar": "METAR LIRN 200820Z 05012KT CAVOK 10/02 Q1017 NOSIG",
      "taf": "TAF LIRN 200500Z 2006/2106 05012KT 9999 SCT060"
    },
    {
      "icao": "LIRP",
      "alert": "OK",
      "vis_m": 9999,
      "fzfg": false,
      "metar_trigger": false,
      "taf_trigger": false,
      "metar": "METAR LIRP 200815Z 07013KT 9999 FEW030 SCT080 09/03 Q1020 NOSIG",
      "taf": "TAF LIRP 200500Z 2006/2106 08012KT 9999 SCT030 BKN060"
    },
    {
      "icao": "LIRZ",
      "alert": "OK",
      "vis_m": 9999,
      "fzfg": false,
      "metar_trigger": false,
      "taf_trigger": false,
      "metar": "METAR LIRZ 200820Z AUTO 05012KT 9999 FEW094/// 11/03 Q1019",
      "taf": "TAF LIRZ 200500Z 2006/2106 04015KT 9999 SCT070"
    },
    {
      "icao": "LJLJ",
      "alert": "OK",
      "vis_m": 9999,
      "fzfg": false,
      "metar_trigger": false,
      "taf_trigger": false,
      "metar": "METAR LJLJ 200800Z VRB01KT 9999 OVC018 M04/M08 Q1030 NOSIG",
      "taf": "TAF LJLJ 200500Z 2006/2106 12003KT 9999 FEW003 OVC020"
    },
    {
      "icao": "LKMT",
      "alert": "OK",
      "vis_m": 9999,
      "fzfg": false,
      "metar_trigger": false,
      "taf_trigger": false,
      "metar": "METAR LKMT 200830Z 22017KT CAVOK M01/M07 Q1029 NOSIG",
      "taf": "TAF LKMT 200500Z 2006/2106 22014KT CAVOK"
    },
    {
      "icao": "LKPR",
      "alert": "OK",
      "vis_m": 9000,
      "fzfg": false,
      "metar_trigger": false,
      "taf_trigger": false,
      "metar": "METAR LKPR 200830Z 10004KT 9000 NSC M07/M08 Q1024 NOSIG",
      "taf": "TAF LKPR 200800Z 2009/2115 13006KT CAVOK"
    },
    {
      "icao": "LLBG",
      "alert": "OK",
      "vis_m": 9999,
      "fzfg": false,
      "metar_trigger": false,
      "taf_trigger": false,
      "metar": "METAR LLBG 200820Z 03008KT 350V060 9999 FEW050 14/02 Q1023 NOSIG RMK BKN075",
      "taf": "TAF LLBG 200506Z 2006/2106 VRB03KT CAVOK"
    },
    {
      "icao": "LMML",
      "alert": "OK",
      "vis_m": 5000,
      "fzfg": false,
      "metar_trigger": false,
      "taf_trigger": false,
      "metar": "METAR LMML 200815Z 08031G49KT 5000 -RA DU SCT011 BKN016 13/12 Q1007 NOSIG",
      "taf": "TAF LMML 200500Z 2006/2106 09028G38KT 9999 BKN018"
    },
    {
      "icao": "LOWW",
      "alert": "OK",
      "vis_m": 6000,
      "fzfg": false,
      "metar_trigger": false,
      "taf_trigger": false,
      "metar": "METAR LOWW 200820Z 13015KT 6000 FEW003 BKN005 M06/M08 Q1031 BECMG BKN006",
      "taf": "TAF LOWW 200815Z 2009/2115 13018KT 9999 FEW005 TXM04/2114Z TNM07/2106Z"
    },
    {
      "icao": "LPFR",
      "alert": "OK",
      "vis_m": 9999,
      "fzfg": false,
      "metar_trigger": false,
      "taf_trigger": false,
      "metar": "METAR LPFR 200800Z 28004KT CAVOK 06/05 Q1021",
      "taf": "TAF LPFR 200500Z 2006/2106 30007KT CAVOK"
    },
    {
      "icao": "LPMA",
      "alert": "OK",
      "vis_m": 9999,
      "fzfg": false,
      "metar_trigger": false,
      "taf_trigger": false,
      "metar": "METAR LPMA 200800Z 34009KT 300V010 9999 FEW015 15/08 Q1026",
      "taf": "TAF LPMA 200500Z 2006/2106 34010KT 9999 SCT015"
    },
    {
      "icao": "LPPR",
      "alert": "OK",
      "vis_m": 9999,
      "fzfg": false,
      "metar_trigger": false,
      "taf_trigger": false,
      "metar": "METAR LPPR 200800Z 13011KT 9999 -SHRA SCT018 FEW020CB BKN025 07/06 Q1018",
      "taf": "TAF LPPR 200500Z 2006/2106 15010KT 9999 FEW012"
    },
    {
      "icao": "LPPS",
      "alert": "OK",
      "vis_m": 9999,
      "fzfg": false,
      "metar_trigger": false,
      "taf_trigger": false,
      "metar": "METAR LPPS 200800Z VRB02KT 9999 SCT014 BKN030 13/07 Q1026",
      "taf": "TAF LPPS 200500Z 2006/2112 34010KT 9999 SCT015 SCT030"
    },
    {
      "icao": "LPPT",
      "alert": "OK",
      "vis_m": 9999,
      "fzfg": false,
      "metar_trigger": false,
      "taf_trigger": false,
      "metar": "METAR LPPT 200800Z 27002KT 9999 FEW030 07/06 Q1021",
      "taf": "TAF LPPT 200500Z 2006/2112 29007KT 9999 SCT025"
    },
    {
      "icao": "LQBK",
      "alert": "OK",
      "vis_m": 9999,
      "fzfg": false,
      "metar_trigger": false,
      "taf_trigger": false,
      "metar": "METAR LQBK 200830Z VRB02KT 9999 OVC023 M04/M06 Q1033 NOSIG",
      "taf": "TAF LQBK 200500Z 2006/2106 VRB02KT 9999 BKN020 TXM01/2014Z TNM04/2006Z"
    },
    {
      "icao": "LQSA",
      "alert": "OK",
      "vis_m": 7000,
      "fzfg": false,
      "metar_trigger": false,
      "taf_trigger": false,
      "metar": "METAR LQSA 200830Z 14004KT 7000 OVC010 M05/M07 Q1029 NOSIG",
      "taf": "TAF LQSA 200500Z 2006/2106 VRB02KT 7000 SCT035 TXM00/2013Z TNM09/2106Z"
    },
    {
      "icao": "LQTZ",
      "alert": "OK",
      "vis_m": 2000,
      "fzfg": false,
      "metar_trigger": false,
      "taf_trigger": false,
      "metar": "METAR LQTZ 200830Z 00000KT 2000 BR OVC013 M06/M06 Q1032",
      "taf": ""
    },
    {
      "icao": "LRBC",
      "alert": "OK",
      "vis_m": 4000,
      "fzfg": false,
      "metar_trigger": false,
      "taf_trigger": false,
      "metar": "METAR LRBC 200800Z 11001KT 4000 BR NSC M08/M11 Q1034",
      "taf": "TAF LRBC 200800Z 2009/2018 VRB04KT 5000 BR NSC"
    },
    {
      "icao": "LRBS",
      "alert": "OK",
      "vis_m": 4000,
      "fzfg": false,
      "metar_trigger": false,
      "taf_trigger": false,
      "metar": "METAR LRBS 200800Z 26008KT 4000 BR NSC M06/M08 Q1036 BECMG 7000 NSW",
      "taf": "TAF LRBS 200500Z 2006/2106 25006KT 3000 BR NSC"
    },
    {
      "icao": "LRBV",
      "alert": "OK",
      "vis_m": 4900,
      "fzfg": false,
      "metar_trigger": false,
      "taf_trigger": false,
      "metar": "METAR LRBV 200800Z VRB03KT 4900 BR FEW002 M08/M10 Q1033",
      "taf": "TAF LRBV 200800Z 2009/2018 VRB04KT 5000 BR NSC"
    },
    {
      "icao": "LRCL",
      "alert": "OK",
      "vis_m": 6000,
      "fzfg": false,
      "metar_trigger": false,
      "taf_trigger": false,
      "metar": "METAR LRCL 200800Z VRB01KT 6000 FEW003 M14/M16 Q1035",
      "taf": "TAF LRCL 200800Z 2009/2018 VRB04KT 7000 NSC"
    },
    {
      "icao": "LRCV",
      "alert": "OK",
      "vis_m": 5000,
      "fzfg": false,
      "metar_trigger": false,
      "taf_trigger": false,
      "metar": "METAR LRCV 200800Z 26003KT 5000 BR NSC M05/M07 Q1036",
      "taf": "TAF LRCV 200800Z 2009/2018 VRB04KT 5000 BR NSC"
    },
    {
      "icao": "LRIA",
      "alert": "OK",
      "vis_m": 3500,
      "fzfg": false,
      "metar_trigger": false,
      "taf_trigger": false,
      "metar": "METAR LRIA 200800Z VRB02KT 3500 BR NSC M12/M14 Q1035",
      "taf": "TAF LRIA 200800Z 2009/2018 VRB04KT 5000 BR NSC"
    },
    {
      "icao": "LROP",
      "alert": "OK",
      "vis_m": 3500,
      "fzfg": false,
      "metar_trigger": false,
      "taf_trigger": false,
      "metar": "METAR LROP 200800Z 27006KT 3500 BR NSC M06/M09 Q1036 BECMG 7000 NSW",
      "taf": "TAF LROP 200500Z 2006/2106 25006KT 3000 BR NSC"
    },
    {
      "icao": "LRSB",
      "alert": "OK",
      "vis_m": 4500,
      "fzfg": false,
      "metar_trigger": false,
      "taf_trigger": false,
      "metar": "METAR LRSB 200800Z VRB02KT 4500 BR NSC M11/M13 Q1033",
      "taf": "TAF LRSB 200500Z 2006/2106 VRB04KT 5000 BR NSC"
    },
    {
      "icao": "LRSM",
      "alert": "OK",
      "vis_m": 3500,
      "fzfg": false,
      "metar_trigger": false,
      "taf_trigger": false,
      "metar": "METAR LRSM 200800Z 07003KT 3500 BR NSC M13/M15 Q1036",
      "taf": "TAF LRSM 200800Z 2009/2018 VRB04KT 3000 BR NSC"
    },
    {
      "icao": "LRSV",
      "alert": "OK",
      "vis_m": 7000,
      "fzfg": false,
      "metar_trigger": false,
      "taf_trigger": false,
      "metar": "METAR LRSV 200800Z 25004KT 220V300 7000 NSC M07/M10 Q1031",
      "taf": "TAF LRSV 200800Z 2009/2018 VRB04KT CAVOK"
    },
    {
      "icao": "LRTM",
      "alert": "OK",
      "vis_m": 2500,
      "fzfg": false,
      "metar_trigger": false,
      "taf_trigger": false,
      "metar": "METAR LRTM 200800Z 07004KT 2500 BR FEW003 M16/M18 Q1035",
      "taf": "TAF LRTM 200800Z 2009/2018 VRB04KT 3000 BR NSC"
    },
    {
      "icao": "LRTR",
      "alert": "OK",
      "vis_m": 9999,
      "fzfg": false,
      "metar_trigger": false,
      "taf_trigger": false,
      "metar": "METAR LRTR 200800Z 07004KT CAVOK M06/M08 Q1034",
      "taf": "TAF LRTR 200500Z 2006/2106 10006KT CAVOK"
    },
    {
      "icao": "LTAC",
      "alert": "OK",
      "vis_m": 9999,
      "fzfg": false,
      "metar_trigger": false,
      "taf_trigger": false,
      "metar": "METAR LTAC 200820Z VRB02KT 9999 FEW040 M01/M07 Q1027 NOSIG RMK RWY21C 13003KT 090V160 RWY03L VRB02KT RWY21R VRB02KT RWY03R VRB01KT RWY21L VRB01KT",
      "taf": "TAF LTAC 200440Z 2006/2106 VRB02KT 9999 SCT035"
    },
    {
      "icao": "LTFM",
      "alert": "OK",
      "vis_m": 9999,
      "fzfg": false,
      "metar_trigger": false,
      "taf_trigger": false,
      "metar": "METAR LTFM 200820Z 01016KT 9999 SCT016 BKN028 03/01 Q1035 NOSIG RMK RWY17L 36015KT RWY34L 36016KT RWY16R 36014KT RWY36 01016KT RWY18 01015KT",
      "taf": "TAF LTFM 200440Z 2006/2112 02017G27KT 7000 -RA BKN014 BKN022"
    },
    {
      "icao": "LUKK",
      "alert": "OK",
      "vis_m": 5000,
      "fzfg": false,
      "metar_trigger": false,
      "taf_trigger": false,
      "metar": "METAR LUKK 200830Z VRB03KT 5000 BR NSC M11/M13 Q1035 NOSIG",
      "taf": "TAF LUKK 200513Z 2006/2106 VRB05KT CAVOK"
    },
    {
      "icao": "LWOH",
      "alert": "OK",
      "vis_m": 9999,
      "fzfg": false,
      "metar_trigger": false,
      "taf_trigger": false,
      "metar": "METAR LWOH 200750Z 02011KT 350V050 9999 SCT033 M00/M06 Q1029",
      "taf": "TAF LWOH 200815Z 2009/2109 03012KT 9999 SCT035"
    },
    {
      "icao": "LWSK",
      "alert": "OK",
      "vis_m": 9999,
      "fzfg": false,
      "metar_trigger": false,
      "taf_trigger": false,
      "metar": "METAR LWSK 200820Z VRB01KT CAVOK M02/M06 Q1035 NOSIG",
      "taf": "TAF LWSK 200815Z 2009/2109 VRB02KT CAVOK"
    },
    {
      "icao": "LYBE",
      "alert": "OK",
      "vis_m": 9999,
      "fzfg": false,
      "metar_trigger": false,
      "taf_trigger": false,
      "metar": "METAR LYBE 200830Z 12006KT 080V150 CAVOK M01/M07 Q1033 NOSIG",
      "taf": "TAF LYBE 200500Z 2006/2106 10009KT CAVOK TX03/2013Z TNM04/2006Z"
    },
    {
      "icao": "LYNI",
      "alert": "OK",
      "vis_m": 9999,
      "fzfg": false,
      "metar_trigger": false,
      "taf_trigger": false,
      "metar": "METAR LYNI 200830Z VRB02KT CAVOK M05/M07 Q1034 NOSIG",
      "taf": "TAF LYNI 200500Z 2006/2106 08006KT CAVOK TX04/2013Z TNM08/2006Z"
    },
    {
      "icao": "LYPG",
      "alert": "OK",
      "vis_m": 9999,
      "fzfg": false,
      "metar_trigger": false,
      "taf_trigger": false,
      "metar": "METAR LYPG 200830Z VRB01KT CAVOK 02/M04 Q1027 NOSIG",
      "taf": "TAF LYPG 200500Z 2006/2106 16005KT CAVOK TX10/2013Z TNM03/2006Z"
    },
    {
      "icao": "LZIB",
      "alert": "OK",
      "vis_m": 4100,
      "fzfg": false,
      "metar_trigger": false,
      "taf_trigger": false,
      "metar": "METAR LZIB 200830Z 10009KT 4100 BR BKN004 M07/M08 Q1033 NOSIG",
      "taf": "TAF LZIB 200515Z 2006/2106 12009KT 6000 FEW003 OVC004"
    },
    {
      "icao": "LZKZ",
      "alert": "OK",
      "vis_m": 300,
      "fzfg": true,
      "metar_trigger": false,
      "taf_trigger": false,
      "metar": "METAR LZKZ 200830Z 11002KT 0300 R01/0700U FZFG SCT001 BKN004 M13/M14 Q1035 NOSIG",
      "taf": ""
    },
    {
      "icao": "LZTT",
      "alert": "OK",
      "vis_m": 9999,
      "fzfg": false,
      "metar_trigger": false,
      "taf_trigger": false,
      "metar": "METAR LZTT 200830Z VRB02KT CAVOK M10/M12 Q1029 NOSIG",
      "taf": "TAF LZTT 200515Z 2006/2106 26005KT CAVOK"
    },
    {
      "icao": "OEJN",
      "alert": "OK",
      "vis_m": 9999,
      "fzfg": false,
      "metar_trigger": false,
      "taf_trigger": false,
      "metar": "METAR OEJN 200800Z 36009KT CAVOK 26/04 Q1015 NOSIG",
      "taf": "TAF OEJN 200500Z 2006/2112 33015KT CAVOK"
    },
    {
      "icao": "OEMA",
      "alert": "OK",
      "vis_m": 9999,
      "fzfg": false,
      "metar_trigger": false,
      "taf_trigger": false,
      "metar": "METAR OEMA 200800Z VRB02KT CAVOK 19/M04 Q1019 NOSIG",
      "taf": "TAF OEMA 200500Z 2006/2112 VRB03KT CAVOK"
    },
    {
      "icao": "OJAI",
      "alert": "OK",
      "vis_m": 5000,
      "fzfg": false,
      "metar_trigger": false,
      "taf_trigger": false,
      "metar": "METAR OJAI 200800Z 00000KT 5000 HZ NSC 07/M01 Q1022 NOSIG",
      "taf": "TAF OJAI 200500Z 2006/2112 32010KT 5000 HZ NSC"
    },
    {
      "icao": "OMAA",
      "alert": "OK",
      "vis_m": 9999,
      "fzfg": false,
      "metar_trigger": false,
      "taf_trigger": false,
      "metar": "METAR OMAA 200800Z 29006KT CAVOK 25/08 Q1016 NOSIG",
      "taf": "TAF OMAA 200500Z 2006/2112 VRB02KT 8000 NSC"
    },
    {
      "icao": "OMDB",
      "alert": "OK",
      "vis_m": 9999,
      "fzfg": false,
      "metar_trigger": false,
      "taf_trigger": false,
      "metar": "METAR OMDB 200830Z 27007KT CAVOK 25/08 Q1015 NOSIG",
      "taf": "TAF OMDB 200500Z 2006/2112 19005KT 8000 NSC"
    },
    {
      "icao": "UAAA",
      "alert": "OK",
      "vis_m": 5000,
      "fzfg": false,
      "metar_trigger": false,
      "taf_trigger": false,
      "metar": "METAR UAAA 200800Z 02003MPS 5000 BR FU FEW050 SCT100 M04/M08 Q1025 NOSIG",
      "taf": "TAF UAAA 200501Z 2006/2106 04003MPS 3100 BR FU SCT050 BKN100 TXM05/2008Z TNM15/2103Z"
    },
    {
      "icao": "UBBB",
      "alert": "OK",
      "vis_m": 8000,
      "fzfg": false,
      "metar_trigger": false,
      "taf_trigger": false,
      "metar": "METAR UBBB 200830Z 35022KT 8000 -RASN BKN010 OVC028 02/01 Q1021 NOSIG",
      "taf": "TAF UBBB 200515Z 2006/2106 35020G30KT 8000 BKN010 OVC025 TX03/2010Z TN00/2101Z"
    },
    {
      "icao": "UDSG",
      "alert": "OK",
      "vis_m": 9999,
      "fzfg": false,
      "metar_trigger": false,
      "taf_trigger": false,
      "metar": "METAR UDSG 200800Z 05008KT 9999 SCT046 M03/M11 Q1013 NOSIG",
      "taf": "TAF UDSG 200458Z 2006/2106 36006KT 9999 BKN040"
    },
    {
      "icao": "UDYZ",
      "alert": "OK",
      "vis_m": 9999,
      "fzfg": false,
      "metar_trigger": false,
      "taf_trigger": false,
      "metar": "METAR UDYZ 200800Z 10004KT 9999 SCT046 M01/M05 Q1015 NOSIG",
      "taf": "TAF UDYZ 200500Z 2006/2106 22006KT 6000 BKN030"
    },
    {
      "icao": "UGKO",
      "alert": "OK",
      "vis_m": 9999,
      "fzfg": false,
      "metar_trigger": false,
      "taf_trigger": false,
      "metar": "METAR UGKO 200800Z 06004KT 9999 OVC028 04/01 Q1021 NOSIG",
      "taf": "TAF UGKO 200500Z 2006/2106 VRB02KT 9999 BKN050 TX05/2012Z TNM01/2006Z"
    }
  ]
}