{
  "ts_utc": "2026-03-27T19:58:57Z",
  "threshold_m": 150,
  "source": "stations_override.txt (ICAO list) + aviationweather.gov (METAR/TAF raw)",
  "station_count": 159,
  "stations": [
    {
      "icao": "BIKF",
      "alert": "OK",
      "vis_m": 9999,
      "fzfg": false,
      "metar_trigger": false,
      "taf_trigger": false,
      "metar": "METAR BIKF 271930Z 34023KT 9999 BKN025 M02/M07 Q1002",
      "taf": "TAF BIKF 271956Z 2721/2821 33020G30KT 9999 -SHRASN SCT014 BKN020 TX01/2818Z TNM08/2808Z"
    },
    {
      "icao": "BKPR",
      "alert": "OK",
      "vis_m": null,
      "fzfg": false,
      "metar_trigger": false,
      "taf_trigger": false,
      "metar": "",
      "taf": "TAF BKPR 271730Z 2718/2818 01008KT 9999 SCT012 BKN030"
    },
    {
      "icao": "EBCI",
      "alert": "OK",
      "vis_m": 9999,
      "fzfg": false,
      "metar_trigger": false,
      "taf_trigger": false,
      "metar": "METAR EBCI 271950Z 19012KT 9999 -RA BKN028 07/M00 Q1021 NOSIG",
      "taf": "TAF EBCI 271710Z 2718/2824 20011KT 9999 BKN018"
    },
    {
      "icao": "EDDB",
      "alert": "OK",
      "vis_m": 9999,
      "fzfg": false,
      "metar_trigger": false,
      "taf_trigger": false,
      "metar": "METAR EDDB 271950Z AUTO 28004KT CAVOK 06/M02 Q1021 NOSIG",
      "taf": "TAF EDDB 271700Z 2718/2818 28006KT 9999 FEW040"
    },
    {
      "icao": "EDDH",
      "alert": "OK",
      "vis_m": 9999,
      "fzfg": false,
      "metar_trigger": false,
      "taf_trigger": false,
      "metar": "METAR EDDH 271950Z AUTO 19006KT CAVOK 05/M02 Q1019 NOSIG",
      "taf": "TAF EDDH 271700Z 2718/2824 19008KT CAVOK"
    },
    {
      "icao": "EDDK",
      "alert": "OK",
      "vis_m": 9999,
      "fzfg": false,
      "metar_trigger": false,
      "taf_trigger": false,
      "metar": "METAR EDDK 271950Z AUTO 15006KT CAVOK 06/M01 Q1021 NOSIG",
      "taf": "TAF EDDK 271700Z 2718/2824 16005KT 9999 SCT040"
    },
    {
      "icao": "EDDN",
      "alert": "OK",
      "vis_m": 9999,
      "fzfg": false,
      "metar_trigger": false,
      "taf_trigger": false,
      "metar": "METAR EDDN 271950Z AUTO VRB02KT CAVOK 01/M06 Q1022 NOSIG",
      "taf": "TAF EDDN 271700Z 2718/2818 28005KT CAVOK"
    },
    {
      "icao": "EDDS",
      "alert": "OK",
      "vis_m": 9999,
      "fzfg": false,
      "metar_trigger": false,
      "taf_trigger": false,
      "metar": "METAR EDDS 271950Z AUTO 29004KT CAVOK 01/M06 Q1022 NOSIG",
      "taf": "TAF EDDS 271700Z 2718/2818 VRB02KT CAVOK"
    },
    {
      "icao": "EDFH",
      "alert": "OK",
      "vis_m": 9999,
      "fzfg": false,
      "metar_trigger": false,
      "taf_trigger": false,
      "metar": "METAR EDFH 271950Z 20006KT CAVOK 02/M05 Q1021",
      "taf": "TAF EDFH 271700Z 2718/2818 21004KT CAVOK"
    },
    {
      "icao": "EDJA",
      "alert": "OK",
      "vis_m": 9999,
      "fzfg": false,
      "metar_trigger": false,
      "taf_trigger": false,
      "metar": "METAR EDJA 271950Z 00000KT CAVOK M01/M03 Q1021",
      "taf": "TAF EDJA 271700Z 2718/2803 03006KT 9999 BKN060"
    },
    {
      "icao": "EDLW",
      "alert": "OK",
      "vis_m": 9999,
      "fzfg": false,
      "metar_trigger": false,
      "taf_trigger": false,
      "metar": "METAR EDLW 271950Z 18006KT CAVOK 06/M02 Q1020",
      "taf": "TAF EDLW 271700Z 2718/2818 19008KT 9999 SCT040"
    },
    {
      "icao": "EDNY",
      "alert": "OK",
      "vis_m": 9999,
      "fzfg": false,
      "metar_trigger": false,
      "taf_trigger": false,
      "metar": "METAR EDNY 271950Z 07002KT CAVOK 00/M05 Q1022",
      "taf": "TAF EDNY 271700Z 2718/2803 02006KT 9999 SCT045"
    },
    {
      "icao": "EDSB",
      "alert": "OK",
      "vis_m": 9999,
      "fzfg": false,
      "metar_trigger": false,
      "taf_trigger": false,
      "metar": "METAR EDSB 271950Z 18002KT CAVOK 02/M06 Q1023",
      "taf": "TAF EDSB 271700Z 2718/2818 VRB02KT CAVOK"
    },
    {
      "icao": "EETN",
      "alert": "OK",
      "vis_m": 9999,
      "fzfg": false,
      "metar_trigger": false,
      "taf_trigger": false,
      "metar": "METAR EETN 271950Z 00000KT CAVOK 02/M02 Q1016 NOSIG",
      "taf": "TAF EETN 271730Z 2718/2818 20005KT CAVOK"
    },
    {
      "icao": "EFTU",
      "alert": "OK",
      "vis_m": 9999,
      "fzfg": false,
      "metar_trigger": false,
      "taf_trigger": false,
      "metar": "METAR EFTU 271950Z AUTO 20006KT CAVOK 02/M01 Q1014",
      "taf": "TAF EFTU 271724Z 2718/2818 21006KT CAVOK"
    },
    {
      "icao": "EGBB",
      "alert": "OK",
      "vis_m": 9999,
      "fzfg": false,
      "metar_trigger": false,
      "taf_trigger": false,
      "metar": "METAR EGBB 271950Z 26005KT 9999 BKN049 07/04 Q1018",
      "taf": "TAF EGBB 271655Z 2718/2818 28009KT 9999 SCT030"
    },
    {
      "icao": "EGGP",
      "alert": "OK",
      "vis_m": 9999,
      "fzfg": false,
      "metar_trigger": false,
      "taf_trigger": false,
      "metar": "METAR EGGP 271950Z 28010KT 9999 BKN045 07/03 Q1019",
      "taf": "TAF EGGP 271715Z 2718/2818 29012KT 9999 SCT030"
    },
    {
      "icao": "EGGW",
      "alert": "OK",
      "vis_m": 9999,
      "fzfg": false,
      "metar_trigger": false,
      "taf_trigger": false,
      "metar": "METAR EGGW 271950Z AUTO 31009KT 9999 FEW025 BKN045 08/06 Q1018",
      "taf": "TAF EGGW 271658Z 2718/2818 30009KT 9999 FEW030"
    },
    {
      "icao": "EGKK",
      "alert": "OK",
      "vis_m": 9999,
      "fzfg": false,
      "metar_trigger": false,
      "taf_trigger": false,
      "metar": "METAR EGKK 271950Z 23007KT 9999 FEW022 BKN037 11/10 Q1018",
      "taf": "TAF EGKK 271657Z 2718/2824 22012KT 9999 BKN010"
    },
    {
      "icao": "EGNM",
      "alert": "OK",
      "vis_m": 9999,
      "fzfg": false,
      "metar_trigger": false,
      "taf_trigger": false,
      "metar": "METAR EGNM 271950Z 27011KT 9999 SCT034 04/02 Q1016",
      "taf": "TAF EGNM 271656Z 2718/2818 28012KT 9999 SCT025"
    },
    {
      "icao": "EGPD",
      "alert": "OK",
      "vis_m": 9999,
      "fzfg": false,
      "metar_trigger": false,
      "taf_trigger": false,
      "metar": "METAR EGPD 271950Z COR AUTO 23008KT 9999 NCD 04/M02 Q1009 NOSIG",
      "taf": "TAF EGPD 271700Z 2718/2818 24012KT 9999 FEW025"
    },
    {
      "icao": "EGPF",
      "alert": "OK",
      "vis_m": 9999,
      "fzfg": false,
      "metar_trigger": false,
      "taf_trigger": false,
      "metar": "METAR EGPF 271950Z AUTO 24013KT 9999 NCD 04/01 Q1014",
      "taf": "TAF EGPF 271701Z 2718/2818 25015KT 9999 FEW025"
    },
    {
      "icao": "EHBK",
      "alert": "OK",
      "vis_m": 9999,
      "fzfg": false,
      "metar_trigger": false,
      "taf_trigger": false,
      "metar": "METAR EHBK 271955Z AUTO 22009KT 9999 OVC034/// 08/M00 Q1020 NOSIG",
      "taf": "TAF EHBK 271710Z 2718/2824 22010KT 9999 FEW035 BKN048"
    },
    {
      "icao": "EHEH",
      "alert": "OK",
      "vis_m": 9999,
      "fzfg": false,
      "metar_trigger": false,
      "taf_trigger": false,
      "metar": "METAR EHEH 271925Z AUTO 20010KT 9999 OVC033 08/M01 Q1020 BLU NOSIG RMK TREND REMOTE BY EHWX",
      "taf": "TAF EHEH 271759Z 2718/2824 20011KT 9999 OVC040"
    },
    {
      "icao": "EKBI",
      "alert": "OK",
      "vis_m": 9999,
      "fzfg": false,
      "metar_trigger": false,
      "taf_trigger": false,
      "metar": "METAR EKBI 271950Z AUTO 19013KT 170V230 9999 -RA OVC014/// 05/03 Q1014",
      "taf": "TAF EKBI 271727Z 2718/2818 20012KT 9999 SCT035"
    },
    {
      "icao": "EKCH",
      "alert": "OK",
      "vis_m": 9999,
      "fzfg": false,
      "metar_trigger": false,
      "taf_trigger": false,
      "metar": "METAR EKCH 271950Z AUTO 21009KT 9999 FEW190/// 04/M01 Q1018 NOSIG",
      "taf": "TAF EKCH 271727Z 2718/2818 26010KT 9999 BKN040"
    },
    {
      "icao": "ENAL",
      "alert": "OK",
      "vis_m": 9999,
      "fzfg": false,
      "metar_trigger": false,
      "taf_trigger": false,
      "metar": "METAR ENAL 271950Z 19011KT 9999 -DZRA FEW004 SCT015 BKN045 05/02 Q1000",
      "taf": "TAF ENAL 271700Z 2718/2803 20012KT 9999 SCT040"
    },
    {
      "icao": "ENBR",
      "alert": "OK",
      "vis_m": 9999,
      "fzfg": false,
      "metar_trigger": false,
      "taf_trigger": false,
      "metar": "METAR ENBR 271950Z 17011KT 9999 FEW006 SCT011 05/04 Q1005 TEMPO 4000 SHRA BKN012 SCT025CB RMK WIND 1200FT 21015KT",
      "taf": "TAF ENBR 271700Z 2718/2818 16010KT 9999 SCT007 BKN018"
    },
    {
      "icao": "ENGM",
      "alert": "OK",
      "vis_m": 9999,
      "fzfg": false,
      "metar_trigger": false,
      "taf_trigger": false,
      "metar": "METAR ENGM 271950Z 19013KT 9999 -RA BKN007 02/01 Q1007 NOSIG",
      "taf": "TAF ENGM 271700Z 2718/2818 20015KT 9999 -RA BKN015"
    },
    {
      "icao": "ENHD",
      "alert": "OK",
      "vis_m": 8000,
      "fzfg": false,
      "metar_trigger": false,
      "taf_trigger": false,
      "metar": "METAR ENHD 271950Z 17008KT 8000 SCT005 BKN020 05/05 Q1007",
      "taf": ""
    },
    {
      "icao": "ENTC",
      "alert": "OK",
      "vis_m": 9999,
      "fzfg": false,
      "metar_trigger": false,
      "taf_trigger": false,
      "metar": "METAR ENTC 271950Z 02004KT 340V050 CAVOK M04/M08 Q1004 NOSIG RMK WIND 2600FT 15015KT",
      "taf": "TAF ENTC 271700Z 2718/2818 03005KT CAVOK"
    },
    {
      "icao": "ENTO",
      "alert": "OK",
      "vis_m": 7000,
      "fzfg": false,
      "metar_trigger": false,
      "taf_trigger": false,
      "metar": "METAR ENTO 271950Z 20016KT 7000 -RA SCT011 OVC017 04/04 Q1009 TEMPO 21016G26KT BKN008",
      "taf": ""
    },
    {
      "icao": "ENVA",
      "alert": "OK",
      "vis_m": 9999,
      "fzfg": false,
      "metar_trigger": false,
      "taf_trigger": false,
      "metar": "METAR ENVA 271950Z 08005KT 050V110 CAVOK 06/M02 Q1001 NOSIG RMK WIND 670FT 16013KT",
      "taf": "TAF ENVA 271700Z 2718/2818 12008KT 9999 SCT050"
    },
    {
      "icao": "ENZV",
      "alert": "OK",
      "vis_m": 9999,
      "fzfg": false,
      "metar_trigger": false,
      "taf_trigger": false,
      "metar": "METAR ENZV 271950Z 17004KT 140V210 9999 BKN009 OVC014 04/03 Q1008 TEMPO SCT009 BKN025",
      "taf": "TAF ENZV 271700Z 2718/2818 20005KT 9999 -SHRA FEW020 BKN035"
    },
    {
      "icao": "EPGD",
      "alert": "OK",
      "vis_m": 1200,
      "fzfg": false,
      "metar_trigger": false,
      "taf_trigger": false,
      "metar": "METAR EPGD 271930Z VRB02KT 1200 R29/P2000N BR OVC001 01/00 Q1019",
      "taf": ""
    },
    {
      "icao": "EPKK",
      "alert": "OK",
      "vis_m": 9000,
      "fzfg": false,
      "metar_trigger": false,
      "taf_trigger": false,
      "metar": "METAR EPKK 271930Z 23008KT 9000 -RA OVC037 02/01 Q1015",
      "taf": "TAF EPKK 271730Z 2718/2818 26005KT 9999 -RA OVC020"
    },
    {
      "icao": "EPKT",
      "alert": "OK",
      "vis_m": 9999,
      "fzfg": false,
      "metar_trigger": false,
      "taf_trigger": false,
      "metar": "METAR EPKT 271930Z 35011KT 9999 -RA FEW014 BKN018 04/M01 Q1016",
      "taf": "TAF EPKT 271730Z 2718/2818 01010KT 9999 OVC044"
    },
    {
      "icao": "EPLB",
      "alert": "OK",
      "vis_m": 9999,
      "fzfg": false,
      "metar_trigger": false,
      "taf_trigger": false,
      "metar": "METAR EPLB 271930Z 35007KT CAVOK 08/03 Q1014",
      "taf": "TAF EPLB 271730Z 2718/2818 01008KT CAVOK"
    },
    {
      "icao": "EPMO",
      "alert": "OK",
      "vis_m": 9999,
      "fzfg": false,
      "metar_trigger": false,
      "taf_trigger": false,
      "metar": "METAR EPMO 271930Z 36006KT CAVOK 06/M01 Q1017",
      "taf": "TAF EPMO 271730Z 2718/2818 36005KT CAVOK"
    },
    {
      "icao": "EPPO",
      "alert": "OK",
      "vis_m": 9999,
      "fzfg": false,
      "metar_trigger": false,
      "taf_trigger": false,
      "metar": "METAR EPPO 271930Z 31006KT CAVOK 04/M03 Q1020",
      "taf": "TAF EPPO 271730Z 2718/2818 32005KT CAVOK"
    },
    {
      "icao": "EPRA",
      "alert": "OK",
      "vis_m": 9999,
      "fzfg": false,
      "metar_trigger": false,
      "taf_trigger": false,
      "metar": "METAR EPRA 271930Z 36007KT CAVOK 07/M01 Q1015",
      "taf": "TAF EPRA 271730Z 2718/2803 35008KT CAVOK"
    },
    {
      "icao": "EPRZ",
      "alert": "OK",
      "vis_m": 9999,
      "fzfg": false,
      "metar_trigger": false,
      "taf_trigger": false,
      "metar": "METAR EPRZ 271930Z 29005KT 9999 FEW050CB 06/04 Q1012",
      "taf": "TAF EPRZ 271730Z 2718/2818 34008KT 9999 OVC025"
    },
    {
      "icao": "EPSC",
      "alert": "OK",
      "vis_m": 9999,
      "fzfg": false,
      "metar_trigger": false,
      "taf_trigger": false,
      "metar": "METAR EPSC 271930Z 02001KT 9999 BKN046 03/M01 Q1020",
      "taf": "TAF EPSC 271730Z 2718/2818 VRB03KT CAVOK"
    },
    {
      "icao": "EPSY",
      "alert": "OK",
      "vis_m": 9999,
      "fzfg": false,
      "metar_trigger": false,
      "taf_trigger": false,
      "metar": "METAR EPSY 271930Z 36010KT CAVOK 05/M01 Q1018",
      "taf": "TAF EPSY 271730Z 2718/2803 35006KT CAVOK"
    },
    {
      "icao": "EPWA",
      "alert": "OK",
      "vis_m": 9999,
      "fzfg": false,
      "metar_trigger": false,
      "taf_trigger": false,
      "metar": "METAR EPWA 271930Z 36010KT CAVOK 09/M02 Q1016 NOSIG",
      "taf": "TAF EPWA 271730Z 2718/2818 36007KT CAVOK"
    },
    {
      "icao": "EPWR",
      "alert": "OK",
      "vis_m": 9999,
      "fzfg": false,
      "metar_trigger": false,
      "taf_trigger": false,
      "metar": "METAR EPWR 271930Z 31007KT CAVOK 05/M05 Q1019",
      "taf": "TAF EPWR 271730Z 2718/2818 32007KT CAVOK"
    },
    {
      "icao": "ESGG",
      "alert": "OK",
      "vis_m": 9999,
      "fzfg": false,
      "metar_trigger": false,
      "taf_trigger": false,
      "metar": "METAR ESGG 271950Z 17010KT CAVOK 02/M00 Q1013",
      "taf": "TAF ESGG 271730Z 2718/2818 19010KT 9999 FEW025"
    },
    {
      "icao": "ESKN",
      "alert": "OK",
      "vis_m": 9999,
      "fzfg": false,
      "metar_trigger": false,
      "taf_trigger": false,
      "metar": "METAR ESKN 271950Z VRB02KT CAVOK 03/00 Q1013",
      "taf": "TAF ESKN 271730Z 2718/2818 17006KT CAVOK"
    },
    {
      "icao": "ESMS",
      "alert": "OK",
      "vis_m": 9999,
      "fzfg": false,
      "metar_trigger": false,
      "taf_trigger": false,
      "metar": "METAR ESMS 271950Z 23006KT CAVOK 04/M02 Q1017",
      "taf": "TAF ESMS 271727Z 2718/2818 22010KT 9999 SCT035"
    },
    {
      "icao": "ESSA",
      "alert": "OK",
      "vis_m": 9999,
      "fzfg": false,
      "metar_trigger": false,
      "taf_trigger": false,
      "metar": "METAR ESSA 271950Z 17008KT CAVOK 04/M02 Q1012 NOSIG",
      "taf": "TAF ESSA 271730Z 2718/2818 21007KT CAVOK"
    },
    {
      "icao": "EYKA",
      "alert": "OK",
      "vis_m": 9999,
      "fzfg": false,
      "metar_trigger": false,
      "taf_trigger": false,
      "metar": "METAR EYKA 271950Z VRB01KT CAVOK 03/M01 Q1018",
      "taf": "TAF EYKA 271700Z 2718/2818 VRB04KT 9000 NSC"
    },
    {
      "icao": "EYPA",
      "alert": "OK",
      "vis_m": 7000,
      "fzfg": false,
      "metar_trigger": false,
      "taf_trigger": false,
      "metar": "METAR EYPA 271950Z VRB01KT 7000 OVC002 01/01 Q1020",
      "taf": ""
    },
    {
      "icao": "EYVI",
      "alert": "OK",
      "vis_m": 9999,
      "fzfg": false,
      "metar_trigger": false,
      "taf_trigger": false,
      "metar": "METAR EYVI 271950Z 01004KT CAVOK 03/M02 Q1017 NOSIG",
      "taf": "TAF EYVI 271700Z 2718/2818 01007KT 9000 NSC"
    },
    {
      "icao": "GCFV",
      "alert": "OK",
      "vis_m": 9999,
      "fzfg": false,
      "metar_trigger": false,
      "taf_trigger": false,
      "metar": "METAR GCFV 271930Z 34013KT 9999 FEW030 18/12 Q1015",
      "taf": "TAF GCFV 271400Z 2715/2815 33014KT 9999 SCT035 TX22/2814Z TN16/2806Z"
    },
    {
      "icao": "GCLP",
      "alert": "OK",
      "vis_m": 9999,
      "fzfg": false,
      "metar_trigger": false,
      "taf_trigger": false,
      "metar": "METAR GCLP 271930Z 01016KT 9999 FEW030 18/13 Q1016 NOSIG",
      "taf": "TAF GCLP 271400Z 2715/2815 01020KT 9999 SCT035 TX22/2814Z TN16/2806Z"
    },
    {
      "icao": "GCTS",
      "alert": "OK",
      "vis_m": 9999,
      "fzfg": false,
      "metar_trigger": false,
      "taf_trigger": false,
      "metar": "METAR GCTS 271930Z 06009KT 020V080 9999 SCT040 19/12 Q1016 NOSIG",
      "taf": "TAF GCTS 271400Z 2715/2815 19007KT 9999 BKN040 TX23/2814Z TN16/2806Z"
    },
    {
      "icao": "GMAD",
      "alert": "OK",
      "vis_m": 6000,
      "fzfg": false,
      "metar_trigger": false,
      "taf_trigger": false,
      "metar": "METAR GMAD 271930Z 25010KT 6000 OVC023 17/13 Q1011 NOSIG",
      "taf": "TAF GMAD 271700Z 2718/2824 26010KT 6000 OVC020"
    },
    {
      "icao": "GMMN",
      "alert": "OK",
      "vis_m": 9999,
      "fzfg": false,
      "metar_trigger": false,
      "taf_trigger": false,
      "metar": "METAR GMMN 271930Z 03005KT 350V090 9999 FEW020 15/12 Q1012 NOSIG",
      "taf": "TAF GMMN 271700Z 2718/2824 34012KT 9999 FEW020"
    },
    {
      "icao": "GMMX",
      "alert": "OK",
      "vis_m": 8000,
      "fzfg": false,
      "metar_trigger": false,
      "taf_trigger": false,
      "metar": "METAR GMMX 271930Z 36007KT 320V050 8000 BKN026 FEW033TCU 19/14 Q1011 NOSIG",
      "taf": "TAF GMMX 271700Z 2718/2824 24006KT 8000 BKN020"
    },
    {
      "icao": "HEGN",
      "alert": "OK",
      "vis_m": 9999,
      "fzfg": false,
      "metar_trigger": false,
      "taf_trigger": false,
      "metar": "METAR HEGN 271900Z 00000KT CAVOK 20/10 Q1017 NOSIG",
      "taf": "TAF HEGN 271700Z 2718/2824 17010KT 9999 SCT025"
    },
    {
      "icao": "HEMA",
      "alert": "OK",
      "vis_m": 9999,
      "fzfg": false,
      "metar_trigger": false,
      "taf_trigger": false,
      "metar": "METAR HEMA 271900Z 14005KT CAVOK 19/10 Q1016 NOSIG",
      "taf": "TAF HEMA 271700Z 2718/2824 19010KT CAVOK"
    },
    {
      "icao": "HESH",
      "alert": "OK",
      "vis_m": 9999,
      "fzfg": false,
      "metar_trigger": false,
      "taf_trigger": false,
      "metar": "METAR HESH 271900Z 18009KT CAVOK 22/12 Q1015 NOSIG",
      "taf": "TAF HESH 271700Z 2718/2824 30008KT 9999 SCT025"
    },
    {
      "icao": "HESX",
      "alert": "OK",
      "vis_m": 9999,
      "fzfg": false,
      "metar_trigger": false,
      "taf_trigger": false,
      "metar": "METAR HESX 271900Z 30002KT CAVOK 17/04 Q1014 NOSIG",
      "taf": "TAF HESX 271700Z 2718/2824 18010KT 9999 SCT025"
    },
    {
      "icao": "LATI",
      "alert": "OK",
      "vis_m": 9999,
      "fzfg": false,
      "metar_trigger": false,
      "taf_trigger": false,
      "metar": "METAR LATI 271950Z 16004KT 9999 SCT061 BKN072 09/06 Q1002 NOSIG",
      "taf": "TAF LATI 271700Z 2718/2818 VRB04KT 9999 FEW025 BKN060 TX15/2812Z TN05/2804Z"
    },
    {
      "icao": "LBPD",
      "alert": "OK",
      "vis_m": 8000,
      "fzfg": false,
      "metar_trigger": false,
      "taf_trigger": false,
      "metar": "METAR LBPD 271930Z AUTO 17003KT 150V210 8000 +RA BKN024/// OVC036/// 08/08 Q1001 TEMPO 5000 RA",
      "taf": "TAF LBPD 271700Z 2718/2818 30014KT 9999 SCT030 BKN050"
    },
    {
      "icao": "LBSF",
      "alert": "OK",
      "vis_m": 9999,
      "fzfg": false,
      "metar_trigger": false,
      "taf_trigger": false,
      "metar": "METAR LBSF 271930Z AUTO 29003KT 9999 FEW017/// SCT057/// OVC065/// 04/03 Q1001 TEMPO RA",
      "taf": "TAF LBSF 271700Z 2718/2818 VRB04KT 9999 SCT015 BKN025 OVC040"
    },
    {
      "icao": "LBWN",
      "alert": "OK",
      "vis_m": 9999,
      "fzfg": false,
      "metar_trigger": false,
      "taf_trigger": false,
      "metar": "METAR LBWN 271930Z AUTO 10008KT 9999 SCT014/// BKN048/// 10/09 Q1005 NOSIG",
      "taf": "TAF LBWN 271700Z 2718/2818 10012KT 6000 RA SCT010 OVC025"
    },
    {
      "icao": "LCLK",
      "alert": "OK",
      "vis_m": 9999,
      "fzfg": false,
      "metar_trigger": false,
      "taf_trigger": false,
      "metar": "METAR LCLK 271930Z 23011KT CAVOK 15/11 Q1012 NOSIG",
      "taf": "TAF LCLK 271730Z 2718/2818 26008KT 9999 FEW020 SCT035"
    },
    {
      "icao": "LCPH",
      "alert": "OK",
      "vis_m": 9999,
      "fzfg": false,
      "metar_trigger": false,
      "taf_trigger": false,
      "metar": "METAR LCPH 271930Z 26008KT 250V310 9999 BKN024 16/12 Q1013 NOSIG",
      "taf": "TAF LCPH 271730Z 2718/2818 33009KT 9999 FEW020 SCT040"
    },
    {
      "icao": "LEAL",
      "alert": "OK",
      "vis_m": 9999,
      "fzfg": false,
      "metar_trigger": false,
      "taf_trigger": false,
      "metar": "METAR LEAL 271930Z 00000KT CAVOK 13/09 Q1017 NOSIG",
      "taf": "TAF LEAL 271700Z 2718/2818 11009KT 9999 FEW025 TX17/2812Z TN07/2806Z"
    },
    {
      "icao": "LEBB",
      "alert": "OK",
      "vis_m": 9999,
      "fzfg": false,
      "metar_trigger": false,
      "taf_trigger": false,
      "metar": "METAR LEBB 271930Z VRB02KT CAVOK 09/05 Q1026 NOSIG",
      "taf": "TAF LEBB 271700Z 2718/2818 35007KT 9999 SCT030 TX11/2812Z TN05/2801Z"
    },
    {
      "icao": "LEBL",
      "alert": "OK",
      "vis_m": 9999,
      "fzfg": false,
      "metar_trigger": false,
      "taf_trigger": false,
      "metar": "METAR LEBL 271930Z 21006KT 9999 FEW024 13/07 Q1017 NOSIG",
      "taf": "TAF LEBL 271700Z 2718/2818 16008KT 9999 FEW020 TX17/2812Z TN08/2806Z"
    },
    {
      "icao": "LECH",
      "alert": "OK",
      "vis_m": 9999,
      "fzfg": false,
      "metar_trigger": false,
      "taf_trigger": false,
      "metar": "METAR LECH 271930Z AUTO 18004KT 140V250 CAVOK 11/03 Q1016",
      "taf": "TAF LECH 271700Z 2718/2818 33009KT 9999 FEW030 TX19/2813Z TN03/2806Z"
    },
    {
      "icao": "LEMD",
      "alert": "OK",
      "vis_m": 9999,
      "fzfg": false,
      "metar_trigger": false,
      "taf_trigger": false,
      "metar": "METAR LEMD 271930Z 02007KT 330V080 CAVOK 13/M02 Q1017 NOSIG",
      "taf": "TAF LEMD 271700Z 2718/2824 03008KT CAVOK TX19/2816Z TN01/2807Z"
    },
    {
      "icao": "LEMG",
      "alert": "OK",
      "vis_m": 9999,
      "fzfg": false,
      "metar_trigger": false,
      "taf_trigger": false,
      "metar": "METAR LEMG 271930Z 12008KT 9999 SCT023 BKN040 15/09 Q1017 NOSIG",
      "taf": "TAF LEMG 271700Z 2718/2818 12010KT 9999 FEW025 BKN045 TX17/2813Z TN13/2806Z"
    },
    {
      "icao": "LEVC",
      "alert": "OK",
      "vis_m": 9999,
      "fzfg": false,
      "metar_trigger": false,
      "taf_trigger": false,
      "metar": "METAR LEVC 271930Z 09004KT 050V120 CAVOK 13/08 Q1016 NOSIG",
      "taf": "TAF LEVC 271700Z 2718/2818 12009KT 9999 FEW025 TX20/2813Z TN06/2806Z"
    },
    {
      "icao": "LEXJ",
      "alert": "OK",
      "vis_m": 9999,
      "fzfg": false,
      "metar_trigger": false,
      "taf_trigger": false,
      "metar": "METAR LEXJ 271930Z 09003KT CAVOK 10/05 Q1026",
      "taf": "TAF LEXJ 271400Z 2715/2815 04006KT 9999 BKN030 TX12/2812Z TN09/2805Z"
    },
    {
      "icao": "LEZG",
      "alert": "OK",
      "vis_m": 9999,
      "fzfg": false,
      "metar_trigger": false,
      "taf_trigger": false,
      "metar": "METAR LEZG 271930Z 29024KT 260V320 CAVOK 11/01 Q1018 NOSIG",
      "taf": "TAF LEZG 271700Z 2718/2818 30020KT 9999 FEW045 TX18/2814Z TN06/2806Z"
    },
    {
      "icao": "LEZL",
      "alert": "OK",
      "vis_m": 9999,
      "fzfg": false,
      "metar_trigger": false,
      "taf_trigger": false,
      "metar": "METAR LEZL 271930Z 04001KT CAVOK 18/08 Q1014 NOSIG",
      "taf": "TAF LEZL 271400Z 2715/2815 05010KT CAVOK TX28/2715Z TN09/2807Z"
    },
    {
      "icao": "LFBD",
      "alert": "OK",
      "vis_m": 9999,
      "fzfg": false,
      "metar_trigger": false,
      "taf_trigger": false,
      "metar": "METAR LFBD 271930Z AUTO 33008KT CAVOK 09/00 Q1025 NOSIG",
      "taf": "TAF LFBD 271700Z 2718/2824 33006KT CAVOK TX12/2815Z TN03/2803Z"
    },
    {
      "icao": "LFLL",
      "alert": "OK",
      "vis_m": 9999,
      "fzfg": false,
      "metar_trigger": false,
      "taf_trigger": false,
      "metar": "METAR LFLL 271930Z 36010KT CAVOK 05/M05 Q1021 NOSIG",
      "taf": "TAF LFLL 271700Z 2718/2824 36020KT CAVOK"
    },
    {
      "icao": "LFLS",
      "alert": "OK",
      "vis_m": 9999,
      "fzfg": false,
      "metar_trigger": false,
      "taf_trigger": false,
      "metar": "METAR LFLS 271930Z AUTO 35009KT 9999 BKN060 04/M05 Q1020 NOSIG",
      "taf": "TAF LFLS 271400Z 2715/2815 34010KT 9999 BKN055"
    },
    {
      "icao": "LFMN",
      "alert": "OK",
      "vis_m": 9999,
      "fzfg": false,
      "metar_trigger": false,
      "taf_trigger": false,
      "metar": "METAR LFMN 271930Z 02008KT CAVOK 12/03 Q1011 BECMG 34010KT",
      "taf": "TAF LFMN 271400Z 2715/2821 21015KT CAVOK"
    },
    {
      "icao": "LFOB",
      "alert": "OK",
      "vis_m": 9999,
      "fzfg": false,
      "metar_trigger": false,
      "taf_trigger": false,
      "metar": "METAR LFOB 271930Z AUTO 19004KT 9999 -RA BKN026 OVC031 09/06 Q1021 TEMPO 4500 -RA BECMG BKN012 OVC020",
      "taf": "TAF LFOB 271700Z 2718/2818 22007KT 9999 OVC030"
    },
    {
      "icao": "LFPO",
      "alert": "OK",
      "vis_m": 9999,
      "fzfg": false,
      "metar_trigger": false,
      "taf_trigger": false,
      "metar": "METAR LFPO 271930Z 19007KT 9999 BKN041 09/02 Q1023 NOSIG",
      "taf": "TAF LFPO 271700Z 2718/2824 20006KT CAVOK"
    },
    {
      "icao": "LFSB",
      "alert": "OK",
      "vis_m": 9999,
      "fzfg": false,
      "metar_trigger": false,
      "taf_trigger": false,
      "metar": "METAR LFSB 271930Z AUTO 30006KT CAVOK 01/M03 Q1023 NOSIG",
      "taf": "TAF LFSB 271700Z 2718/2818 35005KT CAVOK"
    },
    {
      "icao": "LGAV",
      "alert": "OK",
      "vis_m": 9999,
      "fzfg": false,
      "metar_trigger": false,
      "taf_trigger": false,
      "metar": "METAR LGAV 271950Z 01003KT 9999 FEW025 08/05 Q1005 NOSIG",
      "taf": "TAF LGAV 271700Z 2718/2818 24013KT 9999 FEW025 SCT030"
    },
    {
      "icao": "LGTS",
      "alert": "OK",
      "vis_m": 9999,
      "fzfg": false,
      "metar_trigger": false,
      "taf_trigger": false,
      "metar": "METAR LGTS 271950Z 35006KT 9999 FEW020 13/06 Q1001 NOSIG",
      "taf": "TAF LGTS 271700Z 2718/2818 18013KT 9999 SCT025"
    },
    {
      "icao": "LHBP",
      "alert": "OK",
      "vis_m": 9999,
      "fzfg": false,
      "metar_trigger": false,
      "taf_trigger": false,
      "metar": "METAR LHBP 271930Z 36015KT 9999 -SHRA NSC 08/02 Q1008 NOSIG",
      "taf": "TAF LHBP 271715Z 2718/2818 34011KT CAVOK"
    },
    {
      "icao": "LHDC",
      "alert": "OK",
      "vis_m": 9999,
      "fzfg": false,
      "metar_trigger": false,
      "taf_trigger": false,
      "metar": "METAR LHDC 271915Z AUTO 02019G29KT CAVOK 08/03 Q1005",
      "taf": "TAF LHDC 271415Z 2715/2724 02022G32KT CAVOK"
    },
    {
      "icao": "LIBD",
      "alert": "OK",
      "vis_m": 9999,
      "fzfg": false,
      "metar_trigger": false,
      "taf_trigger": false,
      "metar": "METAR LIBD 271950Z 32005KT 280V360 9999 -RA SCT015 BKN030 09/07 Q1003",
      "taf": "TAF LIBD 271700Z 2718/2818 28012KT 9999 FEW010 BKN020"
    },
    {
      "icao": "LIBG",
      "alert": "OK",
      "vis_m": 9999,
      "fzfg": false,
      "metar_trigger": false,
      "taf_trigger": false,
      "metar": "METAR LIBG 271850Z 28006KT 240V310 9999 SCT030 09/05 Q1001",
      "taf": "TAF LIBG 271700Z 2718/2803 30006KT 9999 SCT030"
    },
    {
      "icao": "LIBP",
      "alert": "OK",
      "vis_m": 9000,
      "fzfg": false,
      "metar_trigger": false,
      "taf_trigger": false,
      "metar": "METAR LIBP 271950Z AUTO 30006KT 270V340 9000 -RA OVC021/// 07/05 Q1009 RERA",
      "taf": "TAF LIBP 271700Z 2718/2818 33012KT 9999 BKN015 BKN050"
    },
    {
      "icao": "LIBR",
      "alert": "OK",
      "vis_m": 9999,
      "fzfg": false,
      "metar_trigger": false,
      "taf_trigger": false,
      "metar": "METAR LIBR 271950Z 22005KT 9999 BKN015 BKN035 09/06 Q1001",
      "taf": "TAF LIBR 271700Z 2718/2818 VRB05KT 9999 BKN040"
    },
    {
      "icao": "LICA",
      "alert": "OK",
      "vis_m": 9999,
      "fzfg": false,
      "metar_trigger": false,
      "taf_trigger": false,
      "metar": "METAR LICA 271950Z AUTO VRB02KT 9999 NCD 07/05 Q1005",
      "taf": "TAF LICA 271700Z 2718/2818 28010KT 9999 BKN030"
    },
    {
      "icao": "LICC",
      "alert": "OK",
      "vis_m": 9999,
      "fzfg": false,
      "metar_trigger": false,
      "taf_trigger": false,
      "metar": "METAR LICC 271950Z 25015KT CAVOK 10/05 Q1004",
      "taf": "TAF LICC 271700Z 2718/2818 28015KT CAVOK"
    },
    {
      "icao": "LICJ",
      "alert": "OK",
      "vis_m": 9999,
      "fzfg": false,
      "metar_trigger": false,
      "taf_trigger": false,
      "metar": "METAR LICJ 271950Z 15010KT 9999 SCT060 09/05 Q1007",
      "taf": "TAF LICJ 271700Z 2718/2818 30016KT 9999 SCT030"
    },
    {
      "icao": "LIMC",
      "alert": "OK",
      "vis_m": 9999,
      "fzfg": false,
      "metar_trigger": false,
      "taf_trigger": false,
      "metar": "METAR LIMC 271950Z 36004KT CAVOK 09/M07 Q1011 NOSIG",
      "taf": ""
    },
    {
      "icao": "LIME",
      "alert": "OK",
      "vis_m": 9999,
      "fzfg": false,
      "metar_trigger": false,
      "taf_trigger": false,
      "metar": "METAR LIME 271950Z 05003KT CAVOK 10/M04 Q1010 NOSIG",
      "taf": "TAF LIME 271700Z 2718/2818 01006KT CAVOK"
    },
    {
      "icao": "LIMF",
      "alert": "OK",
      "vis_m": 9999,
      "fzfg": false,
      "metar_trigger": false,
      "taf_trigger": false,
      "metar": "METAR LIMF 271950Z 23003KT 200V260 CAVOK 10/M08 Q1011",
      "taf": "TAF LIMF 271700Z 2718/2818 VRB05KT CAVOK"
    },
    {
      "icao": "LIMJ",
      "alert": "OK",
      "vis_m": 9999,
      "fzfg": false,
      "metar_trigger": false,
      "taf_trigger": false,
      "metar": "METAR LIMJ 271950Z 03004KT CAVOK 13/M09 Q1011",
      "taf": "TAF LIMJ 271700Z 2718/2818 36013KT CAVOK"
    },
    {
      "icao": "LIPE",
      "alert": "OK",
      "vis_m": 9999,
      "fzfg": false,
      "metar_trigger": false,
      "taf_trigger": false,
      "metar": "METAR LIPE 271950Z 25006KT CAVOK 09/M01 Q1010",
      "taf": "TAF LIPE 271700Z 2718/2818 VRB05KT CAVOK"
    },
    {
      "icao": "LIPH",
      "alert": "OK",
      "vis_m": 9999,
      "fzfg": false,
      "metar_trigger": false,
      "taf_trigger": false,
      "metar": "METAR LIPH 271950Z 03003KT 310V070 CAVOK 11/M02 Q1010",
      "taf": "TAF LIPH 271700Z 2718/2818 VRB05KT CAVOK"
    },
    {
      "icao": "LIPQ",
      "alert": "OK",
      "vis_m": 9999,
      "fzfg": false,
      "metar_trigger": false,
      "taf_trigger": false,
      "metar": "METAR LIPQ 271950Z AUTO VRB03KT 9999 OVC092/// 10/M02 Q1010",
      "taf": "TAF LIPQ 271700Z 2718/2818 VRB05KT CAVOK"
    },
    {
      "icao": "LIPR",
      "alert": "OK",
      "vis_m": 9999,
      "fzfg": false,
      "metar_trigger": false,
      "taf_trigger": false,
      "metar": "METAR LIPR 271950Z 19003KT CAVOK 08/05 Q1010",
      "taf": "TAF LIPR 271700Z 2718/2818 VRB05KT 9999 SCT070"
    },
    {
      "icao": "LIPX",
      "alert": "OK",
      "vis_m": 9999,
      "fzfg": false,
      "metar_trigger": false,
      "taf_trigger": false,
      "metar": "METAR LIPX 271950Z 32005KT CAVOK 10/M07 Q1010",
      "taf": "TAF LIPX 271700Z 2718/2818 32012KT 9999 SCT050"
    },
    {
      "icao": "LIPY",
      "alert": "OK",
      "vis_m": 9999,
      "fzfg": false,
      "metar_trigger": false,
      "taf_trigger": false,
      "metar": "METAR LIPY 271950Z AUTO 35011KT 9999 -RA BKN034/// 10/05 Q1010",
      "taf": "TAF LIPY 271700Z 2718/2818 01015KT 9999 OVC050"
    },
    {
      "icao": "LIPZ",
      "alert": "OK",
      "vis_m": 9999,
      "fzfg": false,
      "metar_trigger": false,
      "taf_trigger": false,
      "metar": "METAR LIPZ 271950Z 07008KT CAVOK 11/M01 Q1010 NOSIG",
      "taf": "TAF LIPZ 271700Z 2718/2824 VRB05KT CAVOK"
    },
    {
      "icao": "LIRF",
      "alert": "OK",
      "vis_m": 9999,
      "fzfg": false,
      "metar_trigger": false,
      "taf_trigger": false,
      "metar": "METAR LIRF 271950Z 02015KT CAVOK 09/02 Q1007 NOSIG",
      "taf": "TAF LIRF 271700Z 2718/2824 01020G32KT CAVOK"
    },
    {
      "icao": "LIRN",
      "alert": "OK",
      "vis_m": 9999,
      "fzfg": false,
      "metar_trigger": false,
      "taf_trigger": false,
      "metar": "METAR LIRN 271950Z 03006KT 320V060 9999 FEW070 09/02 Q1005 NOSIG",
      "taf": "TAF LIRN 271700Z 2718/2818 04008KT 9999 SCT050"
    },
    {
      "icao": "LIRP",
      "alert": "OK",
      "vis_m": 9999,
      "fzfg": false,
      "metar_trigger": false,
      "taf_trigger": false,
      "metar": "METAR LIRP 271945Z VRB01KT 9999 FEW060 10/04 Q1010 NOSIG",
      "taf": "TAF LIRP 271700Z 2718/2818 30005KT 9999 SCT080"
    },
    {
      "icao": "LIRZ",
      "alert": "OK",
      "vis_m": 9999,
      "fzfg": false,
      "metar_trigger": false,
      "taf_trigger": false,
      "metar": "METAR LIRZ 271950Z AUTO VRB02KT 9999 FEW069/// 04/01 Q1009",
      "taf": "TAF LIRZ 271700Z 2718/2818 35011KT 9999 SCT030"
    },
    {
      "icao": "LJLJ",
      "alert": "OK",
      "vis_m": 9999,
      "fzfg": false,
      "metar_trigger": false,
      "taf_trigger": false,
      "metar": "METAR LJLJ 271930Z 33011KT 290V010 9999 FEW060 BKN080 07/M08 Q1010 WS ALL RWY NOSIG",
      "taf": "TAF LJLJ 271700Z 2718/2818 33015G30KT 9999 FEW060 SCT090"
    },
    {
      "icao": "LKMT",
      "alert": "OK",
      "vis_m": 9000,
      "fzfg": false,
      "metar_trigger": false,
      "taf_trigger": false,
      "metar": "METAR LKMT 271930Z 04010KT 9000 -RA OVC010 02/01 Q1018 NOSIG",
      "taf": ""
    },
    {
      "icao": "LKPR",
      "alert": "OK",
      "vis_m": 9999,
      "fzfg": false,
      "metar_trigger": false,
      "taf_trigger": false,
      "metar": "METAR LKPR 271930Z 29006KT CAVOK 00/M06 Q1020 NOSIG",
      "taf": "TAF LKPR 271700Z 2718/2824 31008KT CAVOK"
    },
    {
      "icao": "LLBG",
      "alert": "OK",
      "vis_m": 9999,
      "fzfg": false,
      "metar_trigger": false,
      "taf_trigger": false,
      "metar": "METAR LLBG 271950Z 14006KT 9999 FEW025 14/11 Q1016 NOSIG",
      "taf": "TAF LLBG 271705Z 2718/2818 24007KT 9999 SCT025 TX24/2812Z TN09/2803Z"
    },
    {
      "icao": "LMML",
      "alert": "OK",
      "vis_m": 9999,
      "fzfg": false,
      "metar_trigger": false,
      "taf_trigger": false,
      "metar": "METAR LMML 271945Z 27012KT 9999 SCT030TCU 11/05 Q1007 TEMPO 8000 SHRA",
      "taf": "TAF LMML 271700Z 2718/2818 29020KT 9999 SCT020"
    },
    {
      "icao": "LOWW",
      "alert": "OK",
      "vis_m": 9999,
      "fzfg": false,
      "metar_trigger": false,
      "taf_trigger": false,
      "metar": "METAR LOWW 271950Z 35015KT 9999 -RA FEW024 BKN030 04/00 Q1017 NOSIG",
      "taf": "TAF LOWW 271715Z 2718/2824 33018KT 9999 FEW015 BKN025 TX09/2815Z TN03/2806Z"
    },
    {
      "icao": "LPFR",
      "alert": "OK",
      "vis_m": 9999,
      "fzfg": false,
      "metar_trigger": false,
      "taf_trigger": false,
      "metar": "METAR LPFR 271930Z 27008KT CAVOK 16/10 Q1014",
      "taf": "TAF LPFR 271700Z 2718/2818 26007KT CAVOK"
    },
    {
      "icao": "LPMA",
      "alert": "OK",
      "vis_m": 9999,
      "fzfg": false,
      "metar_trigger": false,
      "taf_trigger": false,
      "metar": "METAR LPMA 271930Z 36014KT 320V030 9999 FEW016 16/10 Q1018",
      "taf": "TAF LPMA 271700Z 2718/2818 01015KT 9999 SCT015"
    },
    {
      "icao": "LPPR",
      "alert": "OK",
      "vis_m": 9999,
      "fzfg": false,
      "metar_trigger": false,
      "taf_trigger": false,
      "metar": "METAR LPPR 271930Z 32003KT CAVOK 13/11 Q1019",
      "taf": "TAF LPPR 271700Z 2718/2818 33010KT CAVOK"
    },
    {
      "icao": "LPPS",
      "alert": "OK",
      "vis_m": 9999,
      "fzfg": false,
      "metar_trigger": false,
      "taf_trigger": false,
      "metar": "METAR LPPS 271930Z 01012KT 9999 SCT014 BKN030 16/11 Q1019",
      "taf": "TAF LPPS 271700Z 2718/2824 01015KT 9999 SCT015 SCT030"
    },
    {
      "icao": "LPPT",
      "alert": "OK",
      "vis_m": 9999,
      "fzfg": false,
      "metar_trigger": false,
      "taf_trigger": false,
      "metar": "METAR LPPT 271930Z 33013KT CAVOK 16/08 Q1016",
      "taf": "TAF LPPT 271700Z 2718/2824 33012KT CAVOK"
    },
    {
      "icao": "LQBK",
      "alert": "OK",
      "vis_m": 9999,
      "fzfg": false,
      "metar_trigger": false,
      "taf_trigger": false,
      "metar": "METAR LQBK 271930Z 30012KT 9999 RA FEW013 BKN017 OVC027 05/01 Q1008 NOSIG",
      "taf": "TAF LQBK 271700Z 2718/2818 30011KT 7000 RA SCT010 BKN015 OVC030 TX06/2813Z TN02/2806Z"
    },
    {
      "icao": "LQSA",
      "alert": "OK",
      "vis_m": 3500,
      "fzfg": false,
      "metar_trigger": false,
      "taf_trigger": false,
      "metar": "METAR LQSA 271930Z VRB03KT 3500 -SN SCT004 BKN025 01/01 Q1006 TEMPO 3000 SN",
      "taf": "TAF LQSA 271700Z 2718/2818 31007KT 9999 SCT012 BKN030 TX04/2813Z TN00/2806Z"
    },
    {
      "icao": "LQTZ",
      "alert": "OK",
      "vis_m": 1100,
      "fzfg": false,
      "metar_trigger": false,
      "taf_trigger": false,
      "metar": "METAR LQTZ 271930Z 28006KT 1100 R09/1300N +SN BR OVC001 00/00 Q1006",
      "taf": "TAF LQTZ 271700Z 2718/2818 27007KT 3000 RA SCT005 BKN010 OVC020 TX02/2814Z TNM01/2805Z"
    },
    {
      "icao": "LRBC",
      "alert": "OK",
      "vis_m": 9999,
      "fzfg": false,
      "metar_trigger": false,
      "taf_trigger": false,
      "metar": "METAR LRBC 271930Z 34004KT 9999 OVC035 08/04 Q1010",
      "taf": "TAF LRBC 271700Z 2718/2803 33007KT 9999 OVC035"
    },
    {
      "icao": "LRBS",
      "alert": "OK",
      "vis_m": 9999,
      "fzfg": false,
      "metar_trigger": false,
      "taf_trigger": false,
      "metar": "METAR LRBS 271930Z 07018KT 9999 FEW017 SCT021 BKN030 09/06 Q1005 NOSIG",
      "taf": "TAF LRBS 271700Z 2718/2818 08020KT 9999 BKN025"
    },
    {
      "icao": "LRBV",
      "alert": "OK",
      "vis_m": 9999,
      "fzfg": false,
      "metar_trigger": false,
      "taf_trigger": false,
      "metar": "METAR LRBV 271930Z 07018KT 9999 FEW041 SCT079 07/02 Q1006",
      "taf": "TAF LRBV 271700Z 2718/2803 10012KT 9999 BKN075"
    },
    {
      "icao": "LRCL",
      "alert": "OK",
      "vis_m": 9999,
      "fzfg": false,
      "metar_trigger": false,
      "taf_trigger": false,
      "metar": "METAR LRCL 271930Z 12007KT CAVOK 09/01 Q1005",
      "taf": "TAF LRCL 271700Z 2718/2803 08005KT 9999 BKN065"
    },
    {
      "icao": "LRCV",
      "alert": "OK",
      "vis_m": 9999,
      "fzfg": false,
      "metar_trigger": false,
      "taf_trigger": false,
      "metar": "METAR LRCV 271930Z 07011KT 9999 SCT010 SCT020 BKN030 09/08 Q1002",
      "taf": ""
    },
    {
      "icao": "LRIA",
      "alert": "OK",
      "vis_m": 9999,
      "fzfg": false,
      "metar_trigger": false,
      "taf_trigger": false,
      "metar": "METAR LRIA 271930Z 32004KT CAVOK 07/02 Q1010",
      "taf": "TAF LRIA 271700Z 2718/2803 VRB04KT CAVOK"
    },
    {
      "icao": "LROP",
      "alert": "OK",
      "vis_m": 9999,
      "fzfg": false,
      "metar_trigger": false,
      "taf_trigger": false,
      "metar": "METAR LROP 271930Z 08018KT 9999 FEW019 OVC034 09/05 Q1006 NOSIG",
      "taf": "TAF LROP 271700Z 2718/2818 08020KT 9999 BKN025"
    },
    {
      "icao": "LRSB",
      "alert": "OK",
      "vis_m": 9999,
      "fzfg": false,
      "metar_trigger": false,
      "taf_trigger": false,
      "metar": "METAR LRSB 271930Z 11007KT 9999 -RA OVC045 08/05 Q1004",
      "taf": "TAF LRSB 271700Z 2718/2818 VRB04KT 9999 BKN075"
    },
    {
      "icao": "LRSM",
      "alert": "OK",
      "vis_m": 9999,
      "fzfg": false,
      "metar_trigger": false,
      "taf_trigger": false,
      "metar": "METAR LRSM 271930Z AUTO 06007KT 9999 FEW095/// BKN200/// 10/02 Q1005",
      "taf": "TAF LRSM 271400Z 2715/2724 08014KT CAVOK"
    },
    {
      "icao": "LRSV",
      "alert": "OK",
      "vis_m": 9999,
      "fzfg": false,
      "metar_trigger": false,
      "taf_trigger": false,
      "metar": "METAR LRSV 271930Z 31004KT 9999 BKN040 06/02 Q1009",
      "taf": "TAF LRSV 271700Z 2718/2803 VRB04KT 9999 BKN030"
    },
    {
      "icao": "LRTM",
      "alert": "OK",
      "vis_m": 9999,
      "fzfg": false,
      "metar_trigger": false,
      "taf_trigger": false,
      "metar": "METAR LRTM 271930Z AUTO 10005KT 060V130 9999 NCD 10/00 Q1005",
      "taf": "TAF LRTM 271700Z 2718/2803 09013KT CAVOK"
    },
    {
      "icao": "LRTR",
      "alert": "OK",
      "vis_m": 4500,
      "fzfg": false,
      "metar_trigger": false,
      "taf_trigger": false,
      "metar": "METAR LRTR 271930Z 02004KT 4500 RA BR FEW005 SCT007 BKN035 08/08 Q1004 TEMPO 3000 RA",
      "taf": "TAF LRTR 271700Z 2718/2818 VRB04KT 9999 BKN045"
    },
    {
      "icao": "LTAC",
      "alert": "OK",
      "vis_m": 9999,
      "fzfg": false,
      "metar_trigger": false,
      "taf_trigger": false,
      "metar": "METAR LTAC 271950Z 04005KT CAVOK 06/02 Q1009 NOSIG RMK RWY21C 06003KT 030V090 RWY03L 03004KT RWY21R 03004KT RWY03R VRB02KT RWY21L 03002KT",
      "taf": "TAF LTAC 271640Z 2718/2818 VRB02KT CAVOK"
    },
    {
      "icao": "LTFM",
      "alert": "OK",
      "vis_m": 9999,
      "fzfg": false,
      "metar_trigger": false,
      "taf_trigger": false,
      "metar": "METAR LTFM 271950Z 18005KT 9999 SCT035 BKN080 13/06 Q1005 NOSIG RMK RWY17L 15004KT 070V200 RWY34L 19006KT RWY16R 15005KT 100V170 RWY36 18006KT 130V240 RWY18 13003KT 090V150",
      "taf": "TAF LTFM 271640Z 2718/2824 13010KT 9999 -SHRA BKN035 BKN080"
    },
    {
      "icao": "LUKK",
      "alert": "OK",
      "vis_m": 9999,
      "fzfg": false,
      "metar_trigger": false,
      "taf_trigger": false,
      "metar": "METAR LUKK 271930Z 20005KT CAVOK 08/03 Q1009 NOSIG",
      "taf": "TAF LUKK 271713Z 2718/2818 VRB05KT 9999 SCT045"
    },
    {
      "icao": "LWOH",
      "alert": "OK",
      "vis_m": 9999,
      "fzfg": false,
      "metar_trigger": false,
      "taf_trigger": false,
      "metar": "METAR LWOH 271950Z 31003KT 9999 SCT050 04/02 Q1001",
      "taf": "TAF LWOH 271730Z 2718/2818 VRB02KT 9999 SCT040 SCT080"
    },
    {
      "icao": "LWSK",
      "alert": "OK",
      "vis_m": 9999,
      "fzfg": false,
      "metar_trigger": false,
      "taf_trigger": false,
      "metar": "METAR LWSK 271950Z 12003KT CAVOK 03/02 Q1002 NOSIG",
      "taf": "TAF LWSK 271730Z 2718/2818 34006KT 9999 FEW040 SCT080"
    },
    {
      "icao": "LYBE",
      "alert": "OK",
      "vis_m": 6000,
      "fzfg": false,
      "metar_trigger": false,
      "taf_trigger": false,
      "metar": "METAR LYBE 271930Z 18005KT 140V230 6000 RA BKN002 BKN023 06/05 Q1004 TEMPO 4000",
      "taf": "TAF LYBE 271700Z 2718/2818 27007KT 5000 -RA BR BKN005 BKN027 TX09/2812Z TN05/2805Z"
    },
    {
      "icao": "LYNI",
      "alert": "OK",
      "vis_m": 9999,
      "fzfg": false,
      "metar_trigger": false,
      "taf_trigger": false,
      "metar": "METAR LYNI 271930Z 33011KT 9999 BKN027 07/05 Q1002 NOSIG",
      "taf": "TAF LYNI 271700Z 2718/2818 32010KT 9999 FEW013 BKN040 TX09/2718Z TN05/2806Z"
    },
    {
      "icao": "LYPG",
      "alert": "OK",
      "vis_m": 9999,
      "fzfg": false,
      "metar_trigger": false,
      "taf_trigger": false,
      "metar": "METAR LYPG 271930Z VRB02KT CAVOK 08/06 Q1002 NOSIG",
      "taf": "TAF LYPG 271700Z 2718/2818 36005KT 9999 FEW040 SCT090 TX14/2812Z TN05/2805Z"
    },
    {
      "icao": "LZIB",
      "alert": "OK",
      "vis_m": 9999,
      "fzfg": false,
      "metar_trigger": false,
      "taf_trigger": false,
      "metar": "METAR LZIB 271930Z 34019KT 9999 FEW010 05/01 Q1015 NOSIG",
      "taf": "TAF LZIB 271715Z 2718/2818 35013KT 9999 FEW016 SCT035"
    },
    {
      "icao": "LZKZ",
      "alert": "OK",
      "vis_m": 9999,
      "fzfg": false,
      "metar_trigger": false,
      "taf_trigger": false,
      "metar": "METAR LZKZ 271930Z 36025G35KT 9999 FEW029 06/01 Q1009 NOSIG",
      "taf": "TAF LZKZ 271715Z 2718/2818 01020KT 9999 FEW020 BKN025"
    },
    {
      "icao": "LZTT",
      "alert": "OK",
      "vis_m": 9999,
      "fzfg": false,
      "metar_trigger": false,
      "taf_trigger": false,
      "metar": "METAR LZTT 271930Z 28012KT 260V320 9999 -RA OVC030 01/M01 Q1011",
      "taf": ""
    },
    {
      "icao": "OEJN",
      "alert": "OK",
      "vis_m": 9999,
      "fzfg": false,
      "metar_trigger": false,
      "taf_trigger": false,
      "metar": "METAR OEJN 271900Z 35007KT CAVOK 22/10 Q1014 NOSIG",
      "taf": "TAF OEJN 271700Z 2718/2824 32010KT CAVOK"
    },
    {
      "icao": "OEMA",
      "alert": "OK",
      "vis_m": 9999,
      "fzfg": false,
      "metar_trigger": false,
      "taf_trigger": false,
      "metar": "METAR OEMA 271900Z 01003KT CAVOK 21/03 Q1017 NOSIG",
      "taf": "TAF OEMA 271700Z 2718/2824 30010KT CAVOK"
    },
    {
      "icao": "OJAI",
      "alert": "OK",
      "vis_m": 3500,
      "fzfg": false,
      "metar_trigger": false,
      "taf_trigger": false,
      "metar": "METAR OJAI 271900Z 29004KT 3500 HZ NSC 09/07 Q1017 NOSIG",
      "taf": "TAF OJAI 271703Z 2718/2824 27010KT 3000 BR FEW030"
    },
    {
      "icao": "OMAA",
      "alert": "OK",
      "vis_m": null,
      "fzfg": false,
      "metar_trigger": false,
      "taf_trigger": false,
      "metar": "",
      "taf": ""
    },
    {
      "icao": "OMDB",
      "alert": "OK",
      "vis_m": null,
      "fzfg": false,
      "metar_trigger": false,
      "taf_trigger": false,
      "metar": "",
      "taf": ""
    },
    {
      "icao": "UAAA",
      "alert": "OK",
      "vis_m": 5000,
      "fzfg": false,
      "metar_trigger": false,
      "taf_trigger": false,
      "metar": "METAR UAAA 271930Z 15002MPS 5000 FU NSC 07/01 Q1013 NOSIG",
      "taf": "TAF UAAA 271704Z 2718/2818 22003MPS 9999 FEW100 TX19/2810Z TN05/2801Z"
    },
    {
      "icao": "UBBB",
      "alert": "OK",
      "vis_m": 9999,
      "fzfg": false,
      "metar_trigger": false,
      "taf_trigger": false,
      "metar": "METAR UBBB 271930Z 27013KT 9999 -SHRA BKN050CB 13/10 Q0999 NOSIG",
      "taf": "TAF UBBB 271704Z 2718/2818 28016KT 6000 -SHRA BKN007 SCT035CB OVC035 TX14/2810Z TN11/2802Z"
    },
    {
      "icao": "UDSG",
      "alert": "OK",
      "vis_m": 9000,
      "fzfg": false,
      "metar_trigger": false,
      "taf_trigger": false,
      "metar": "METAR UDSG 271930Z 36006KT 9000 -SHRA SCT030CB OVC043 04/02 Q1006 NOSIG",
      "taf": "TAF UDSG 271658Z 2718/2818 24006KT 9999 BKN040"
    },
    {
      "icao": "UDYZ",
      "alert": "OK",
      "vis_m": 9999,
      "fzfg": false,
      "metar_trigger": false,
      "taf_trigger": false,
      "metar": "METAR UDYZ 271930Z 33001KT 9999 -SHRA OVC036CB 08/07 Q1005 NOSIG",
      "taf": "TAF UDYZ 271700Z 2718/2818 04006KT 9999 BKN040"
    },
    {
      "icao": "UGKO",
      "alert": "OK",
      "vis_m": 9999,
      "fzfg": false,
      "metar_trigger": false,
      "taf_trigger": false,
      "metar": "METAR UGKO 271930Z VRB02KT 9999 SCT036 OVC057 09/08 Q1009 NOSIG",
      "taf": "TAF UGKO 271700Z 2718/2818 26006KT 9000 SCT033 OVC050 TX19/2811Z TN07/2803Z"
    }
  ]
}