{
  "ts_utc": "2025-12-24T06:47:07Z",
  "threshold_m": 150,
  "source": "stations_override.txt (ICAO list) + aviationweather.gov (METAR/TAF raw)",
  "station_count": 159,
  "stations": [
    {
      "icao": "BIKF",
      "alert": "OK",
      "vis_m": 2500,
      "fzfg": false,
      "metar_trigger": false,
      "taf_trigger": false,
      "metar": "METAR BIKF 240630Z 18028KT 2500 -RA BR OVC006 07/07 Q1010",
      "taf": "TAF BIKF 240442Z 2406/2506 18032G43KT 9999 -RA SCT010 BKN016 TX09/2418Z TN08/2406Z"
    },
    {
      "icao": "BKPR",
      "alert": "OK",
      "vis_m": 5000,
      "fzfg": false,
      "metar_trigger": false,
      "taf_trigger": false,
      "metar": "METAR BKPR 240630Z VRB02KT 5000 BR SCT007 BKN015 03/03 Q1014 NOSIG",
      "taf": "TAF BKPR 240530Z 2406/2506 15007KT 9999 BKN012 BKN025"
    },
    {
      "icao": "EBCI",
      "alert": "OK",
      "vis_m": 9999,
      "fzfg": false,
      "metar_trigger": false,
      "taf_trigger": false,
      "metar": "METAR EBCI 240620Z 05014KT 9999 SCT021 00/M03 Q1025 NOSIG",
      "taf": "TAF EBCI 232300Z 2400/2506 06013KT 9999 BKN020"
    },
    {
      "icao": "EDDB",
      "alert": "OK",
      "vis_m": 9999,
      "fzfg": false,
      "metar_trigger": false,
      "taf_trigger": false,
      "metar": "METAR EDDB 240620Z AUTO 06010KT CAVOK M03/M05 Q1033 NOSIG",
      "taf": "TAF EDDB 240500Z 2406/2506 06010KT 9999 SCT015"
    },
    {
      "icao": "EDDH",
      "alert": "OK",
      "vis_m": 9999,
      "fzfg": false,
      "metar_trigger": false,
      "taf_trigger": false,
      "metar": "METAR EDDH 240620Z AUTO 07006KT 9999 OVC032 01/M03 Q1035 NOSIG",
      "taf": "TAF EDDH 240500Z 2406/2512 07008KT 9999 BKN030"
    },
    {
      "icao": "EDDK",
      "alert": "OK",
      "vis_m": 9999,
      "fzfg": false,
      "metar_trigger": false,
      "taf_trigger": false,
      "metar": "METAR EDDK 240620Z AUTO 06006KT CAVOK M01/M06 Q1027 NOSIG",
      "taf": "TAF EDDK 240500Z 2406/2512 04007KT 9999 FEW025"
    },
    {
      "icao": "EDDN",
      "alert": "OK",
      "vis_m": 9999,
      "fzfg": false,
      "metar_trigger": false,
      "taf_trigger": false,
      "metar": "METAR EDDN 240620Z AUTO 06011KT 360V120 9999 BKN029 BKN044 01/M05 Q1022 NOSIG",
      "taf": "TAF EDDN 240500Z 2406/2506 05010KT 9999 BKN020"
    },
    {
      "icao": "EDDS",
      "alert": "OK",
      "vis_m": 9999,
      "fzfg": false,
      "metar_trigger": false,
      "taf_trigger": false,
      "metar": "METAR EDDS 240620Z AUTO 04011KT 010V070 9999 OVC010 01/M01 Q1018 NOSIG",
      "taf": "TAF EDDS 240500Z 2406/2506 06012KT 9999 BKN015"
    },
    {
      "icao": "EDFH",
      "alert": "OK",
      "vis_m": 9999,
      "fzfg": false,
      "metar_trigger": false,
      "taf_trigger": false,
      "metar": "METAR EDFH 240620Z 07013KT 040V100 9999 SCT021 BKN025 M02/M06 Q1022",
      "taf": "TAF EDFH 240500Z 2406/2506 06014KT 9999 BKN012"
    },
    {
      "icao": "EDJA",
      "alert": "OK",
      "vis_m": 6000,
      "fzfg": false,
      "metar_trigger": false,
      "taf_trigger": false,
      "metar": "METAR EDJA 240620Z 04017KT 6000 -FZDZ OVC006 M00/M01 Q1016",
      "taf": ""
    },
    {
      "icao": "EDLW",
      "alert": "OK",
      "vis_m": 9999,
      "fzfg": false,
      "metar_trigger": false,
      "taf_trigger": false,
      "metar": "METAR EDLW 240620Z COR 02010KT CAVOK M01/M03 Q1029",
      "taf": "TAF EDLW 240500Z 2406/2506 05011KT 9999 FEW020"
    },
    {
      "icao": "EDNY",
      "alert": "OK",
      "vis_m": 8000,
      "fzfg": false,
      "metar_trigger": false,
      "taf_trigger": false,
      "metar": "METAR EDNY 240620Z 03011KT 8000 FEW013 BKN016 OVC043 02/00 Q1015",
      "taf": ""
    },
    {
      "icao": "EDSB",
      "alert": "OK",
      "vis_m": 9999,
      "fzfg": false,
      "metar_trigger": false,
      "taf_trigger": false,
      "metar": "METAR EDSB 240620Z 04019KT 9999 OVC023 02/M02 Q1020",
      "taf": "TAF EDSB 240500Z 2406/2506 04014KT 9999 BKN015"
    },
    {
      "icao": "EETN",
      "alert": "OK",
      "vis_m": 9999,
      "fzfg": false,
      "metar_trigger": false,
      "taf_trigger": false,
      "metar": "METAR EETN 240620Z 31011KT 290V350 9999 -SN OVC016 01/M02 Q1031 NOSIG",
      "taf": ""
    },
    {
      "icao": "EFTU",
      "alert": "OK",
      "vis_m": 9999,
      "fzfg": false,
      "metar_trigger": false,
      "taf_trigger": false,
      "metar": "METAR EFTU 240620Z AUTO 31006KT 280V360 9999 OVC008 M00/M02 Q1032",
      "taf": "TAF EFTU 240528Z 2406/2506 30006KT 9999 OVC008"
    },
    {
      "icao": "EGBB",
      "alert": "OK",
      "vis_m": 9999,
      "fzfg": false,
      "metar_trigger": false,
      "taf_trigger": false,
      "metar": "METAR EGBB 240620Z 07013KT 9999 BKN018 04/01 Q1031",
      "taf": "TAF EGBB 240454Z 2406/2506 05011KT 9999 BKN020"
    },
    {
      "icao": "EGGP",
      "alert": "OK",
      "vis_m": 9999,
      "fzfg": false,
      "metar_trigger": false,
      "taf_trigger": false,
      "metar": "METAR EGGP 240620Z 08009KT CAVOK 04/M00 Q1033",
      "taf": "TAF EGGP 240458Z 2406/2506 11012KT 9999 SCT025"
    },
    {
      "icao": "EGGW",
      "alert": "OK",
      "vis_m": 9999,
      "fzfg": false,
      "metar_trigger": false,
      "taf_trigger": false,
      "metar": "METAR EGGW 240620Z AUTO 05011KT 9999 OVC017 04/01 Q1029",
      "taf": "TAF EGGW 240457Z 2406/2506 06016G26KT 9999 BKN024"
    },
    {
      "icao": "EGKK",
      "alert": "OK",
      "vis_m": 9999,
      "fzfg": false,
      "metar_trigger": false,
      "taf_trigger": false,
      "metar": "METAR EGKK 240620Z 05014KT 9999 BKN020 06/03 Q1027",
      "taf": "TAF EGKK 240458Z 2406/2512 05017G29KT 9999 SCT025"
    },
    {
      "icao": "EGNM",
      "alert": "OK",
      "vis_m": 9999,
      "fzfg": false,
      "metar_trigger": false,
      "taf_trigger": false,
      "metar": "METAR EGNM 240620Z 06007KT 9999 SCT022 03/01 Q1034",
      "taf": "TAF EGNM 240459Z 2406/2506 07010KT 9999 FEW020 SCT025"
    },
    {
      "icao": "EGPD",
      "alert": "OK",
      "vis_m": 9999,
      "fzfg": false,
      "metar_trigger": false,
      "taf_trigger": false,
      "metar": "METAR EGPD 240620Z COR AUTO 18005KT 9999 OVC025 07/03 Q1037 NOSIG",
      "taf": "TAF EGPD 240454Z 2406/2506 19005KT 9999 BKN030"
    },
    {
      "icao": "EGPF",
      "alert": "OK",
      "vis_m": 9999,
      "fzfg": false,
      "metar_trigger": false,
      "taf_trigger": false,
      "metar": "METAR EGPF 240620Z AUTO 08008KT 9999 BKN030 06/02 Q1037",
      "taf": "TAF EGPF 240454Z 2406/2506 06007KT 9999 SCT030"
    },
    {
      "icao": "EHBK",
      "alert": "OK",
      "vis_m": 9999,
      "fzfg": false,
      "metar_trigger": false,
      "taf_trigger": false,
      "metar": "METAR EHBK 240625Z AUTO 05016KT 9999 NCD M01/M04 Q1026 NOSIG",
      "taf": "TAF EHBK 240502Z 2406/2512 05014KT CAVOK"
    },
    {
      "icao": "EHEH",
      "alert": "OK",
      "vis_m": 9999,
      "fzfg": false,
      "metar_trigger": false,
      "taf_trigger": false,
      "metar": "METAR EHEH 240625Z AUTO 04011KT 010V080 9999 NCD M00/M04 Q1029 BLU NOSIG RMK TREND REMOTE BY EHWX",
      "taf": "TAF EHEH 240525Z 2406/2512 06011KT CAVOK"
    },
    {
      "icao": "EKBI",
      "alert": "OK",
      "vis_m": 9999,
      "fzfg": false,
      "metar_trigger": false,
      "taf_trigger": false,
      "metar": "METAR EKBI 240620Z AUTO 06005KT 9999 OVC024/// 00/M03 Q1039",
      "taf": "TAF EKBI 240527Z 2406/2506 07007KT 9999 BKN020"
    },
    {
      "icao": "EKCH",
      "alert": "OK",
      "vis_m": 9999,
      "fzfg": false,
      "metar_trigger": false,
      "taf_trigger": false,
      "metar": "METAR EKCH 240620Z AUTO 04012KT 9999 OVC027/// 01/M04 Q1039 NOSIG",
      "taf": "TAF EKCH 240527Z 2406/2506 06013KT 9999 FEW020"
    },
    {
      "icao": "ENAL",
      "alert": "OK",
      "vis_m": 9999,
      "fzfg": false,
      "metar_trigger": false,
      "taf_trigger": false,
      "metar": "METAR ENAL 240620Z 21011KT 9999 SCT030 BKN043 07/02 Q1038",
      "taf": "TAF ENAL 240500Z 2406/2415 20010KT 9999 BKN030"
    },
    {
      "icao": "ENBR",
      "alert": "OK",
      "vis_m": 9999,
      "fzfg": false,
      "metar_trigger": false,
      "taf_trigger": false,
      "metar": "METAR ENBR 240620Z 12003KT 9999 BKN032 03/01 Q1041 NOSIG RMK WIND 1200FT 15008KT",
      "taf": "TAF ENBR 240500Z 2406/2506 10005KT 9999 SCT035"
    },
    {
      "icao": "ENGM",
      "alert": "OK",
      "vis_m": 9999,
      "fzfg": false,
      "metar_trigger": false,
      "taf_trigger": false,
      "metar": "METAR ENGM 240620Z 35003KT CAVOK M08/M10 Q1039 NOSIG",
      "taf": "TAF ENGM 240500Z 2406/2506 VRB03KT 9999 FEW010"
    },
    {
      "icao": "ENHD",
      "alert": "OK",
      "vis_m": 9999,
      "fzfg": false,
      "metar_trigger": false,
      "taf_trigger": false,
      "metar": "METAR ENHD 240620Z 12005KT 9999 FEW031 01/M01 Q1041",
      "taf": "TAF ENHD 240500Z 2406/2415 12008KT 9999 BKN035"
    },
    {
      "icao": "ENTC",
      "alert": "OK",
      "vis_m": 9999,
      "fzfg": false,
      "metar_trigger": false,
      "taf_trigger": false,
      "metar": "METAR ENTC 240620Z 19016KT 160V220 9999 -RA FEW019 BKN034 04/01 Q1020 TEMPO RA BKN012 RMK WIND 2600FT 18026KT",
      "taf": "TAF ENTC 240500Z 2406/2506 18020KT 9999 SCT030"
    },
    {
      "icao": "ENTO",
      "alert": "OK",
      "vis_m": 9999,
      "fzfg": false,
      "metar_trigger": false,
      "taf_trigger": false,
      "metar": "METAR ENTO 240620Z 34003KT 310V020 9999 OVC011 M03/M05 Q1040 NOSIG",
      "taf": ""
    },
    {
      "icao": "ENVA",
      "alert": "OK",
      "vis_m": 9999,
      "fzfg": false,
      "metar_trigger": false,
      "taf_trigger": false,
      "metar": "METAR ENVA 240620Z 11009KT 9999 SCT027 BKN031 M02/M04 Q1037 NOSIG RMK WIND 670FT 14008KT",
      "taf": "TAF ENVA 240500Z 2406/2506 12008KT 9999 BKN030"
    },
    {
      "icao": "ENZV",
      "alert": "OK",
      "vis_m": 9999,
      "fzfg": false,
      "metar_trigger": false,
      "taf_trigger": false,
      "metar": "METAR ENZV 240620Z 00000KT 9999 BKN035 M01/M04 Q1041 NOSIG",
      "taf": "TAF ENZV 240500Z 2406/2506 12005KT 9999 BKN035"
    },
    {
      "icao": "EPGD",
      "alert": "OK",
      "vis_m": 9999,
      "fzfg": false,
      "metar_trigger": false,
      "taf_trigger": false,
      "metar": "METAR EPGD 240630Z 14005KT 9999 BKN020 M06/M09 Q1036",
      "taf": "TAF EPGD 240530Z 2406/2506 10006KT 9999 BKN020"
    },
    {
      "icao": "EPKK",
      "alert": "OK",
      "vis_m": 9999,
      "fzfg": false,
      "metar_trigger": false,
      "taf_trigger": false,
      "metar": "METAR EPKK 240630Z 06012KT 9999 -SN OVC012 M01/M04 Q1027",
      "taf": "TAF EPKK 240530Z 2406/2506 05013KT 9999 BKN012"
    },
    {
      "icao": "EPKT",
      "alert": "OK",
      "vis_m": 9999,
      "fzfg": false,
      "metar_trigger": false,
      "taf_trigger": false,
      "metar": "METAR EPKT 240630Z 04013KT 9999 -SN BKN016 M02/M05 Q1027",
      "taf": "TAF EPKT 240530Z 2406/2506 06014KT 9999 BKN030"
    },
    {
      "icao": "EPLB",
      "alert": "OK",
      "vis_m": 9999,
      "fzfg": false,
      "metar_trigger": false,
      "taf_trigger": false,
      "metar": "METAR EPLB 240630Z 07012KT 9999 BKN013 M08/M09 Q1032",
      "taf": "TAF EPLB 240530Z 2406/2506 06013KT 9999 BKN025"
    },
    {
      "icao": "EPMO",
      "alert": "OK",
      "vis_m": 9999,
      "fzfg": false,
      "metar_trigger": false,
      "taf_trigger": false,
      "metar": "METAR EPMO 240630Z 06012KT 9999 -SN BKN015 M09/M11 Q1034",
      "taf": "TAF EPMO 240530Z 2406/2506 06010KT 9999 BKN020"
    },
    {
      "icao": "EPPO",
      "alert": "OK",
      "vis_m": 9999,
      "fzfg": false,
      "metar_trigger": false,
      "taf_trigger": false,
      "metar": "METAR EPPO 240630Z 05009KT 9999 BKN019 M04/M08 Q1033",
      "taf": "TAF EPPO 240530Z 2406/2506 07010KT 9999 BKN018"
    },
    {
      "icao": "EPRA",
      "alert": "OK",
      "vis_m": 9999,
      "fzfg": false,
      "metar_trigger": false,
      "taf_trigger": false,
      "metar": "METAR EPRA 240630Z 05010KT 9999 BKN014 OVC020 M05/M08 Q1031",
      "taf": "TAF EPRA 240530Z 2406/2415 06010KT 9999 BKN020"
    },
    {
      "icao": "EPRZ",
      "alert": "OK",
      "vis_m": 9999,
      "fzfg": false,
      "metar_trigger": false,
      "taf_trigger": false,
      "metar": "METAR EPRZ 240630Z 05013KT 9999 -SN OVC018 M02/M06 Q1028",
      "taf": "TAF EPRZ 240530Z 2406/2506 05015KT 9999 BKN030"
    },
    {
      "icao": "EPSC",
      "alert": "OK",
      "vis_m": 9999,
      "fzfg": false,
      "metar_trigger": false,
      "taf_trigger": false,
      "metar": "METAR EPSC 240630Z 03005KT 360V060 CAVOK M04/M06 Q1035",
      "taf": "TAF EPSC 240530Z 2406/2506 06007KT CAVOK"
    },
    {
      "icao": "EPSY",
      "alert": "OK",
      "vis_m": 9999,
      "fzfg": false,
      "metar_trigger": false,
      "taf_trigger": false,
      "metar": "METAR EPSY 240630Z 05007KT 020V080 9999 OVC016 M08/M11 Q1035",
      "taf": "TAF EPSY 240530Z 2406/2415 07006KT 9999 BKN015"
    },
    {
      "icao": "EPWA",
      "alert": "OK",
      "vis_m": 9999,
      "fzfg": false,
      "metar_trigger": false,
      "taf_trigger": false,
      "metar": "METAR EPWA 240630Z 07009KT 030V090 9999 BKN012 M08/M10 Q1034 NOSIG",
      "taf": "TAF EPWA 240530Z 2406/2506 06010KT 9999 BKN020"
    },
    {
      "icao": "EPWR",
      "alert": "OK",
      "vis_m": 9999,
      "fzfg": false,
      "metar_trigger": false,
      "taf_trigger": false,
      "metar": "METAR EPWR 240630Z 06013KT 9999 BKN017 M01/M04 Q1030",
      "taf": "TAF EPWR 240530Z 2406/2506 06012KT 9999 SCT015 BKN020"
    },
    {
      "icao": "ESGG",
      "alert": "OK",
      "vis_m": 5000,
      "fzfg": false,
      "metar_trigger": false,
      "taf_trigger": false,
      "metar": "METAR ESGG 240620Z 33004KT 5000 -SN BKN006 M02/M03 Q1039",
      "taf": "TAF ESGG 240530Z 2406/2506 32003KT 9999 OVC009"
    },
    {
      "icao": "ESKN",
      "alert": "OK",
      "vis_m": 9999,
      "fzfg": false,
      "metar_trigger": false,
      "taf_trigger": false,
      "metar": "METAR ESKN 240620Z 32009KT 9999 BKN006 M03/M04 Q1037",
      "taf": "TAF ESKN 240530Z 2406/2506 30006KT 9999 OVC007"
    },
    {
      "icao": "ESMS",
      "alert": "OK",
      "vis_m": 9999,
      "fzfg": false,
      "metar_trigger": false,
      "taf_trigger": false,
      "metar": "METAR ESMS 240620Z 01010KT 9999 OVC026 M01/M05 Q1038",
      "taf": "TAF ESMS 240527Z 2406/2506 07007KT 9999 SCT020"
    },
    {
      "icao": "ESSA",
      "alert": "OK",
      "vis_m": 9999,
      "fzfg": false,
      "metar_trigger": false,
      "taf_trigger": false,
      "metar": "METAR ESSA 240620Z 29009KT 9999 OVC007 M04/M05 Q1036 NOSIG",
      "taf": "TAF ESSA 240530Z 2406/2506 27008KT 9999 OVC005"
    },
    {
      "icao": "EYKA",
      "alert": "OK",
      "vis_m": 9999,
      "fzfg": false,
      "metar_trigger": false,
      "taf_trigger": false,
      "metar": "METAR EYKA 240620Z 32002KT CAVOK M10/M11 Q1037",
      "taf": "TAF EYKA 240500Z 2406/2506 VRB04KT 8000 NSC"
    },
    {
      "icao": "EYPA",
      "alert": "OK",
      "vis_m": 9999,
      "fzfg": false,
      "metar_trigger": false,
      "taf_trigger": false,
      "metar": "METAR EYPA 240620Z 18003KT 9999 OVC041 M05/M07 Q1038",
      "taf": "TAF EYPA 240500Z 2406/2506 VRB04KT 8000 BKN035"
    },
    {
      "icao": "EYVI",
      "alert": "OK",
      "vis_m": 9999,
      "fzfg": false,
      "metar_trigger": false,
      "taf_trigger": false,
      "metar": "METAR EYVI 240620Z COR 03003KT CAVOK M11/M12 Q1035 NOSIG",
      "taf": "TAF EYVI 240500Z 2406/2506 36006KT 7000 NSC"
    },
    {
      "icao": "GCFV",
      "alert": "OK",
      "vis_m": 9999,
      "fzfg": false,
      "metar_trigger": false,
      "taf_trigger": false,
      "metar": "METAR GCFV 240630Z 27007KT 9999 BKN040 16/11 Q1016",
      "taf": "TAF GCFV 240200Z 2403/2503 30005KT 9999 BKN035 TX21/2414Z TN15/2406Z"
    },
    {
      "icao": "GCLP",
      "alert": "OK",
      "vis_m": 9999,
      "fzfg": false,
      "metar_trigger": false,
      "taf_trigger": false,
      "metar": "METAR GCLP 240630Z 33008KT 9999 FEW035 SCT050 17/09 Q1017 NOSIG",
      "taf": "TAF GCLP 240200Z 2403/2503 28005KT 9999 SCT035 TX22/2414Z TN15/2406Z"
    },
    {
      "icao": "GCTS",
      "alert": "OK",
      "vis_m": 9999,
      "fzfg": false,
      "metar_trigger": false,
      "taf_trigger": false,
      "metar": "METAR GCTS 240630Z 01007KT 360V060 9999 FEW040 15/09 Q1017 NOSIG",
      "taf": "TAF GCTS 240200Z 2403/2503 VRB05KT 9999 SCT035 TX24/2414Z TN15/2406Z"
    },
    {
      "icao": "GMAD",
      "alert": "OK",
      "vis_m": 9999,
      "fzfg": false,
      "metar_trigger": false,
      "taf_trigger": false,
      "metar": "METAR GMAD 240630Z 03005KT 9999 SCT020 BKN033 10/10 Q1013 NOSIG",
      "taf": "TAF GMAD 240500Z 2406/2512 20006KT 8000 SCT016 SCT080"
    },
    {
      "icao": "GMMN",
      "alert": "OK",
      "vis_m": 6000,
      "fzfg": false,
      "metar_trigger": false,
      "taf_trigger": false,
      "metar": "METAR GMMN 240630Z 23007KT 200V260 6000 -RA SCT003 BKN020 13/11 Q1010 NOSIG",
      "taf": "TAF GMMN 240500Z 2406/2512 24012KT 8000 SCT006 BKN020"
    },
    {
      "icao": "GMMX",
      "alert": "OK",
      "vis_m": 9999,
      "fzfg": false,
      "metar_trigger": false,
      "taf_trigger": false,
      "metar": "METAR GMMX 240630Z 29003KT 240V320 9999 SCT020 BKN090 11/07 Q1012 NOSIG",
      "taf": "TAF GMMX 240500Z 2406/2512 20006KT 8000 SCT020 BKN090"
    },
    {
      "icao": "HEGN",
      "alert": "OK",
      "vis_m": 9999,
      "fzfg": false,
      "metar_trigger": false,
      "taf_trigger": false,
      "metar": "METAR HEGN 240600Z 29009KT CAVOK 16/06 Q1019 NOSIG",
      "taf": "TAF HEGN 240500Z 2406/2512 34012KT CAVOK"
    },
    {
      "icao": "HEMA",
      "alert": "OK",
      "vis_m": 9999,
      "fzfg": false,
      "metar_trigger": false,
      "taf_trigger": false,
      "metar": "METAR HEMA 240600Z 30012KT 9999 SCT020 SCT025 20/10 Q1018 NOSIG",
      "taf": "TAF HEMA 240500Z 2406/2512 35012KT 9999 SCT25"
    },
    {
      "icao": "HESH",
      "alert": "OK",
      "vis_m": 9999,
      "fzfg": false,
      "metar_trigger": false,
      "taf_trigger": false,
      "metar": "METAR HESH 240600Z 35010KT CAVOK 20/05 Q1018 NOSIG",
      "taf": "TAF HESH 240500Z 2406/2512 01012KT CAVOK"
    },
    {
      "icao": "HESX",
      "alert": "OK",
      "vis_m": 9999,
      "fzfg": false,
      "metar_trigger": false,
      "taf_trigger": false,
      "metar": "METAR HESX 240600Z 12002KT CAVOK 11/04 Q1020 NOSIG",
      "taf": "TAF HESX 240500Z 2406/2512 20007KT CAVOK"
    },
    {
      "icao": "LATI",
      "alert": "OK",
      "vis_m": null,
      "fzfg": false,
      "metar_trigger": false,
      "taf_trigger": false,
      "metar": "",
      "taf": "TAF LATI 240500Z 2406/2506 VRB04KT 9999 SCT040 BKN080 TX14/2412Z TN06/2505Z"
    },
    {
      "icao": "LBPD",
      "alert": "OK",
      "vis_m": 1600,
      "fzfg": false,
      "metar_trigger": false,
      "taf_trigger": false,
      "metar": "METAR LBPD 240630Z AUTO 10008KT 1600 BR OVC002/// 04/04 Q1020 TEMPO 1500 BR BKN002",
      "taf": ""
    },
    {
      "icao": "LBSF",
      "alert": "OK",
      "vis_m": 9999,
      "fzfg": false,
      "metar_trigger": false,
      "taf_trigger": false,
      "metar": "METAR LBSF 240630Z 10012KT 9999 SCT012 BKN029 OVC066 03/02 Q1017 NOSIG",
      "taf": "TAF LBSF 240500Z 2406/2506 10014KT 9999 SCT012 OVC033"
    },
    {
      "icao": "LBWN",
      "alert": "OK",
      "vis_m": 8000,
      "fzfg": false,
      "metar_trigger": false,
      "taf_trigger": false,
      "metar": "METAR LBWN 240630Z AUTO VRB02KT 8000 OVC020/// 04/04 Q1021 TEMPO 4000 BR",
      "taf": "TAF LBWN 240500Z 2406/2506 VRB04KT 7000 SCT005 BKN015"
    },
    {
      "icao": "LCLK",
      "alert": "OK",
      "vis_m": 9999,
      "fzfg": false,
      "metar_trigger": false,
      "taf_trigger": false,
      "metar": "METAR LCLK 240630Z 32004KT 9999 FEW035 16/13 Q1020 NOSIG",
      "taf": "TAF LCLK 240530Z 2406/2506 34008KT 9999 FEW025 SCT040"
    },
    {
      "icao": "LCPH",
      "alert": "OK",
      "vis_m": 9999,
      "fzfg": false,
      "metar_trigger": false,
      "taf_trigger": false,
      "metar": "METAR LCPH 240630Z 07008KT 010V080 9999 FEW040 15/09 Q1019 NOSIG",
      "taf": "TAF LCPH 240530Z 2406/2506 06007KT 9999 FEW030 SCT045"
    },
    {
      "icao": "LEAL",
      "alert": "OK",
      "vis_m": 9999,
      "fzfg": false,
      "metar_trigger": false,
      "taf_trigger": false,
      "metar": "METAR LEAL 240630Z 29006KT CAVOK 08/03 Q1007 NOSIG",
      "taf": "TAF LEAL 240500Z 2406/2506 32009KT 9999 FEW030 TX15/2412Z TN05/2506Z"
    },
    {
      "icao": "LEBB",
      "alert": "OK",
      "vis_m": 7000,
      "fzfg": false,
      "metar_trigger": false,
      "taf_trigger": false,
      "metar": "METAR LEBB 240630Z VRB01KT 7000 BKN016 OVC022 09/09 Q1012 NOSIG",
      "taf": "TAF LEBB 240500Z 2406/2506 VRB03KT 9999 SCT016 TX10/2413Z TN06/2424Z"
    },
    {
      "icao": "LEBL",
      "alert": "OK",
      "vis_m": 9999,
      "fzfg": false,
      "metar_trigger": false,
      "taf_trigger": false,
      "metar": "METAR LEBL 240630Z 32004KT 280V010 9999 FEW040 BKN055 08/04 Q1007 NOSIG",
      "taf": "TAF LEBL 240500Z 2406/2506 34008KT 9999 SCT030 TX14/2413Z TN08/2406Z"
    },
    {
      "icao": "LECH",
      "alert": "OK",
      "vis_m": 9000,
      "fzfg": false,
      "metar_trigger": false,
      "taf_trigger": false,
      "metar": "METAR LECH 240630Z AUTO VRB01KT 9000 BKN058 07/03 Q1008",
      "taf": ""
    },
    {
      "icao": "LEMD",
      "alert": "OK",
      "vis_m": 9999,
      "fzfg": false,
      "metar_trigger": false,
      "taf_trigger": false,
      "metar": "METAR LEMD 240630Z 33003KT 9999 FEW042 SCT055 01/01 Q1009 NOSIG",
      "taf": "TAF LEMD 240500Z 2406/2512 VRB03KT 9999 SCT040 TX10/2415Z TN00/2508Z"
    },
    {
      "icao": "LEMG",
      "alert": "OK",
      "vis_m": 9999,
      "fzfg": false,
      "metar_trigger": false,
      "taf_trigger": false,
      "metar": "METAR LEMG 240630Z 30005KT CAVOK 07/07 Q1006 NOSIG",
      "taf": "TAF LEMG 240500Z 2406/2506 28006KT 9999 FEW045 TX14/2414Z TN07/2406Z"
    },
    {
      "icao": "LEVC",
      "alert": "OK",
      "vis_m": 9999,
      "fzfg": false,
      "metar_trigger": false,
      "taf_trigger": false,
      "metar": "METAR LEVC 240630Z 28003KT 240V310 9999 BKN037 07/03 Q1008 NOSIG",
      "taf": "TAF LEVC 240500Z 2406/2506 27007KT 9999 FEW020 TX13/2412Z TN04/2506Z"
    },
    {
      "icao": "LEXJ",
      "alert": "OK",
      "vis_m": 9999,
      "fzfg": false,
      "metar_trigger": false,
      "taf_trigger": false,
      "metar": "METAR LEXJ 240630Z 00000KT 9999 -DZ BKN015 BKN021 OVC028 09/08 Q1013",
      "taf": ""
    },
    {
      "icao": "LEZG",
      "alert": "OK",
      "vis_m": 9999,
      "fzfg": false,
      "metar_trigger": false,
      "taf_trigger": false,
      "metar": "METAR LEZG 240630Z 27008KT CAVOK 04/04 Q1009 NOSIG",
      "taf": ""
    },
    {
      "icao": "LEZL",
      "alert": "OK",
      "vis_m": 8000,
      "fzfg": false,
      "metar_trigger": false,
      "taf_trigger": false,
      "metar": "METAR LEZL 240630Z 03006KT 340V050 8000 OVC004 10/10 Q1007 NOSIG",
      "taf": "TAF LEZL 240200Z 2403/2503 VRB03KT 9999 FEW040 TX14/2415Z TN08/2407Z"
    },
    {
      "icao": "LFBD",
      "alert": "OK",
      "vis_m": 9999,
      "fzfg": false,
      "metar_trigger": false,
      "taf_trigger": false,
      "metar": "METAR LFBD 240630Z AUTO 02010KT 9999 OVC009 05/04 Q1013 TEMPO 4000 BR BECMG BKN010",
      "taf": "TAF LFBD 240500Z 2406/2512 03010KT 9999 BKN010 TX07/2414Z TNM02/2506Z"
    },
    {
      "icao": "LFLL",
      "alert": "OK",
      "vis_m": 5000,
      "fzfg": false,
      "metar_trigger": false,
      "taf_trigger": false,
      "metar": "METAR LFLL 240630Z 34010KT 5000 -DZ BR OVC006 03/02 Q1012 NOSIG",
      "taf": "TAF LFLL 240500Z 2406/2512 35009KT 9999 OVC009"
    },
    {
      "icao": "LFLS",
      "alert": "OK",
      "vis_m": 8000,
      "fzfg": false,
      "metar_trigger": false,
      "taf_trigger": false,
      "metar": "METAR LFLS 240630Z AUTO 02005KT 8000 -DZ BKN013 OVC018 02/01 Q1011 TEMPO 1200 -SN OVC006",
      "taf": "TAF LFLS 240200Z 2403/2503 36008KT 9999 SCT006 OVC020"
    },
    {
      "icao": "LFMN",
      "alert": "OK",
      "vis_m": 9999,
      "fzfg": false,
      "metar_trigger": false,
      "taf_trigger": false,
      "metar": "METAR LFMN 240630Z 33013KT 9999 FEW073 BKN086 11/06 Q1003 NOSIG",
      "taf": "TAF LFMN 240200Z 2403/2509 33012KT 9999 FEW040 BKN080"
    },
    {
      "icao": "LFOB",
      "alert": "OK",
      "vis_m": 9999,
      "fzfg": false,
      "metar_trigger": false,
      "taf_trigger": false,
      "metar": "METAR LFOB 240630Z AUTO 04016KT 9999 OVC031 04/01 Q1023 BECMG 05010G20KT",
      "taf": "TAF LFOB 240500Z 2406/2506 05010G20KT 9999 OVC025"
    },
    {
      "icao": "LFPO",
      "alert": "OK",
      "vis_m": 9999,
      "fzfg": false,
      "metar_trigger": false,
      "taf_trigger": false,
      "metar": "METAR LFPO 240630Z AUTO 05014KT 9999 OVC033 06/00 Q1020 NOSIG",
      "taf": "TAF LFPO 240500Z 2406/2512 04010G20KT 9999 OVC030"
    },
    {
      "icao": "LFSB",
      "alert": "OK",
      "vis_m": 9999,
      "fzfg": false,
      "metar_trigger": false,
      "taf_trigger": false,
      "metar": "METAR LFSB 240630Z AUTO 36011KT 9999 FEW018 OVC042 03/01 Q1016 TEMPO 01015G25KT",
      "taf": "TAF LFSB 240500Z 2406/2506 36006KT 9999 OVC035"
    },
    {
      "icao": "LGAV",
      "alert": "OK",
      "vis_m": 9999,
      "fzfg": false,
      "metar_trigger": false,
      "taf_trigger": false,
      "metar": "METAR LGAV 240620Z VRB01KT 9999 FEW018 BKN030 10/07 Q1017 NOSIG",
      "taf": "TAF LGAV 240500Z 2406/2506 VRB05KT 9999 FEW018 SCT030 BKN070"
    },
    {
      "icao": "LGTS",
      "alert": "OK",
      "vis_m": 7000,
      "fzfg": false,
      "metar_trigger": false,
      "taf_trigger": false,
      "metar": "METAR LGTS 240620Z 31006KT 7000 3000W RA BR SCT006 BKN025 11/11 Q1016 NOSIG",
      "taf": "TAF LGTS 240500Z 2406/2506 14010KT 9000 FEW012 BKN025"
    },
    {
      "icao": "LHBP",
      "alert": "OK",
      "vis_m": 9999,
      "fzfg": false,
      "metar_trigger": false,
      "taf_trigger": false,
      "metar": "METAR LHBP 240630Z 08004KT 040V150 9999 BKN026 BKN062 04/00 Q1019 NOSIG",
      "taf": "TAF LHBP 240515Z 2406/2506 06009KT 9999 SCT025 OVC055"
    },
    {
      "icao": "LHDC",
      "alert": "OK",
      "vis_m": 9999,
      "fzfg": false,
      "metar_trigger": false,
      "taf_trigger": false,
      "metar": "METAR LHDC 240615Z AUTO 03014KT CAVOK 03/M01 Q1019 TEMPO 04015G25KT",
      "taf": "TAF LHDC 240515Z 2406/2415 04012KT CAVOK"
    },
    {
      "icao": "LIBD",
      "alert": "OK",
      "vis_m": 9999,
      "fzfg": false,
      "metar_trigger": false,
      "taf_trigger": false,
      "metar": "METAR LIBD 240620Z 35003KT 320V090 CAVOK 08/06 Q1009",
      "taf": "TAF LIBD 240500Z 2406/2506 16008KT 9999 SCT060"
    },
    {
      "icao": "LIBG",
      "alert": "OK",
      "vis_m": null,
      "fzfg": false,
      "metar_trigger": false,
      "taf_trigger": false,
      "metar": "",
      "taf": ""
    },
    {
      "icao": "LIBP",
      "alert": "OK",
      "vis_m": 900,
      "fzfg": false,
      "metar_trigger": false,
      "taf_trigger": false,
      "metar": "METAR LIBP 240620Z AUTO 23007KT 0900 R22/1700D FG FEW002/// BKN003/// 07/07 Q1004",
      "taf": ""
    },
    {
      "icao": "LIBR",
      "alert": "OK",
      "vis_m": 9999,
      "fzfg": false,
      "metar_trigger": false,
      "taf_trigger": false,
      "metar": "METAR LIBR 240620Z 17005KT CAVOK 10/08 Q1010",
      "taf": "TAF LIBR 240500Z 2406/2506 15010KT 9999 SCT060"
    },
    {
      "icao": "LICA",
      "alert": "OK",
      "vis_m": 9999,
      "fzfg": false,
      "metar_trigger": false,
      "taf_trigger": false,
      "metar": "METAR LICA 240620Z AUTO 07005KT 9999 NCD 06/05 Q1011",
      "taf": "TAF LICA 240500Z 2406/2506 08012KT 9999 SCT040"
    },
    {
      "icao": "LICC",
      "alert": "OK",
      "vis_m": 9999,
      "fzfg": false,
      "metar_trigger": false,
      "taf_trigger": false,
      "metar": "METAR LICC 240620Z 25006KT 9999 FEW040 05/04 Q1011",
      "taf": "TAF LICC 240500Z 2406/2506 25010KT 9999 SCT030"
    },
    {
      "icao": "LICJ",
      "alert": "OK",
      "vis_m": 9999,
      "fzfg": false,
      "metar_trigger": false,
      "taf_trigger": false,
      "metar": "METAR LICJ 240620Z 19011KT 9999 VCSH FEW025 SCT040 13/06 Q1008",
      "taf": ""
    },
    {
      "icao": "LIMC",
      "alert": "OK",
      "vis_m": 9999,
      "fzfg": false,
      "metar_trigger": false,
      "taf_trigger": false,
      "metar": "METAR LIMC 240620Z 02003KT 9999 R35R/1700U R17L/0800D R35L/P2000N MIFG NSC 06/05 Q1006 NOSIG",
      "taf": "TAF LIMC 240500Z 2406/2512 VRB05KT 6000 BKN050"
    },
    {
      "icao": "LIME",
      "alert": "OK",
      "vis_m": 9999,
      "fzfg": false,
      "metar_trigger": false,
      "taf_trigger": false,
      "metar": "METAR LIME 240620Z 04002KT 9999 SCT070 05/04 Q1006 NOSIG",
      "taf": "TAF LIME 240500Z 2406/2506 VRB05KT 7000 SCT060"
    },
    {
      "icao": "LIMF",
      "alert": "OK",
      "vis_m": 9999,
      "fzfg": false,
      "metar_trigger": false,
      "taf_trigger": false,
      "metar": "METAR LIMF 240620Z 26003KT 230V300 9999 SCT070 06/04 Q1006",
      "taf": "TAF LIMF 240500Z 2406/2506 VRB05KT 6000 BKN040"
    },
    {
      "icao": "LIMJ",
      "alert": "OK",
      "vis_m": 9999,
      "fzfg": false,
      "metar_trigger": false,
      "taf_trigger": false,
      "metar": "METAR LIMJ 240620Z 04011KT 9999 SCT050 12/07 Q1004",
      "taf": "TAF LIMJ 240500Z 2406/2506 03015KT 9999 BKN070"
    },
    {
      "icao": "LIPE",
      "alert": "OK",
      "vis_m": 2000,
      "fzfg": false,
      "metar_trigger": false,
      "taf_trigger": false,
      "metar": "METAR LIPE 240620Z 29003KT 2000 RA BR BKN004 BKN009 08/08 Q1006",
      "taf": "TAF LIPE 240500Z 2406/2506 VRB05KT 4000 RA BR BKN010"
    },
    {
      "icao": "LIPH",
      "alert": "OK",
      "vis_m": 9999,
      "fzfg": false,
      "metar_trigger": false,
      "taf_trigger": false,
      "metar": "METAR LIPH 240620Z 07016KT 9999 -RA BKN050 08/04 Q1008",
      "taf": "TAF LIPH 240500Z 2406/2506 05010KT 9999 BKN030"
    },
    {
      "icao": "LIPQ",
      "alert": "OK",
      "vis_m": 9999,
      "fzfg": false,
      "metar_trigger": false,
      "taf_trigger": false,
      "metar": "METAR LIPQ 240620Z AUTO 08009G19KT 040V110 9999 OVC065/// 09/01 Q1009",
      "taf": "TAF LIPQ 240500Z 2406/2506 06008KT 9999 BKN050"
    },
    {
      "icao": "LIPR",
      "alert": "OK",
      "vis_m": 8000,
      "fzfg": false,
      "metar_trigger": false,
      "taf_trigger": false,
      "metar": "METAR LIPR 240620Z 08014KT 8000 -RA BKN010 11/10 Q1004",
      "taf": "TAF LIPR 240500Z 2406/2506 06010KT 4000 -RA BR BKN010"
    },
    {
      "icao": "LIPX",
      "alert": "OK",
      "vis_m": 9999,
      "fzfg": false,
      "metar_trigger": false,
      "taf_trigger": false,
      "metar": "METAR LIPX 240620Z 08013KT 9999 OVC060 10/04 Q1007",
      "taf": "TAF LIPX 240500Z 2406/2506 VRB05KT 7000 BKN050"
    },
    {
      "icao": "LIPY",
      "alert": "OK",
      "vis_m": 9999,
      "fzfg": false,
      "metar_trigger": false,
      "taf_trigger": false,
      "metar": "METAR LIPY 240620Z AUTO 12004KT 080V150 9999 BKN200/// 13/11 Q1003",
      "taf": "TAF LIPY 240500Z 2406/2506 VRB05KT 8000 SCT020"
    },
    {
      "icao": "LIPZ",
      "alert": "OK",
      "vis_m": 9999,
      "fzfg": false,
      "metar_trigger": false,
      "taf_trigger": false,
      "metar": "METAR LIPZ 240620Z 06014KT 9999 -RA BKN060 07/04 Q1008 NOSIG",
      "taf": "TAF LIPZ 240500Z 2406/2512 05013KT 9999 SCT040"
    },
    {
      "icao": "LIRF",
      "alert": "OK",
      "vis_m": 6000,
      "fzfg": false,
      "metar_trigger": false,
      "taf_trigger": false,
      "metar": "METAR LIRF 240620Z 11013KT 6000 RA SCT015 SCT025 10/10 Q1002 NOSIG",
      "taf": "TAF LIRF 240500Z 2406/2512 10018KT 9999 BKN030"
    },
    {
      "icao": "LIRN",
      "alert": "OK",
      "vis_m": 9999,
      "fzfg": false,
      "metar_trigger": false,
      "taf_trigger": false,
      "metar": "METAR LIRN 240620Z 19008KT 150V230 9999 BKN040 13/07 Q1007 NOSIG",
      "taf": ""
    },
    {
      "icao": "LIRP",
      "alert": "OK",
      "vis_m": 9999,
      "fzfg": false,
      "metar_trigger": false,
      "taf_trigger": false,
      "metar": "METAR LIRP 240615Z 13006KT 9999 -RA FEW030 BKN050 10/09 Q1003 NOSIG",
      "taf": "TAF LIRP 240500Z 2406/2506 11003KT 7000 -RA SCT030 BKN060"
    },
    {
      "icao": "LIRZ",
      "alert": "OK",
      "vis_m": 3900,
      "fzfg": false,
      "metar_trigger": false,
      "taf_trigger": false,
      "metar": "METAR LIRZ 240620Z AUTO VRB02KT 3900 BR OVC002/// 09/09 Q1003",
      "taf": "TAF LIRZ 240500Z 2406/2506 VRB05KT 9999 BKN050"
    },
    {
      "icao": "LJLJ",
      "alert": "OK",
      "vis_m": 9999,
      "fzfg": false,
      "metar_trigger": false,
      "taf_trigger": false,
      "metar": "METAR LJLJ 240630Z 28004KT 9999 FEW010 OVC050 02/01 Q1015 NOSIG",
      "taf": "TAF LJLJ 240500Z 2406/2506 VRB02KT 9999 SCT006 BKN020"
    },
    {
      "icao": "LKMT",
      "alert": "OK",
      "vis_m": 9999,
      "fzfg": false,
      "metar_trigger": false,
      "taf_trigger": false,
      "metar": "METAR LKMT 240630Z 05017KT 9999 OVC017 M00/M03 Q1025 NOSIG",
      "taf": "TAF LKMT 240500Z 2406/2506 04016KT 9999 BKN025"
    },
    {
      "icao": "LKPR",
      "alert": "OK",
      "vis_m": 9999,
      "fzfg": false,
      "metar_trigger": false,
      "taf_trigger": false,
      "metar": "METAR LKPR 240630Z 02009KT 9999 SCT047 M01/M04 Q1024 NOSIG",
      "taf": "TAF LKPR 240500Z 2406/2512 05012KT 9999 BKN030"
    },
    {
      "icao": "LLBG",
      "alert": "OK",
      "vis_m": 9999,
      "fzfg": false,
      "metar_trigger": false,
      "taf_trigger": false,
      "metar": "METAR LLBG 240620Z VRB01KT 9999 SCT045 BKN050 16/12 Q1021 NOSIG",
      "taf": "TAF LLBG 240502Z 2406/2506 14006KT 9999 SCT035"
    },
    {
      "icao": "LMML",
      "alert": "OK",
      "vis_m": 9999,
      "fzfg": false,
      "metar_trigger": false,
      "taf_trigger": false,
      "metar": "METAR LMML 240615Z 22011KT 200V260 9999 FEW033 14/07 Q1011 NOSIG",
      "taf": "TAF LMML 240500Z 2406/2506 23015KT 9999 FEW030"
    },
    {
      "icao": "LOWW",
      "alert": "OK",
      "vis_m": 5000,
      "fzfg": false,
      "metar_trigger": false,
      "taf_trigger": false,
      "metar": "METAR LOWW 240620Z 01007KT 5000 -SN FEW003 BKN005 00/M00 Q1020 RESN TEMPO 4000 SN BKN004",
      "taf": "TAF LOWW 240515Z 2406/2512 01007KT 4000 -SN OVC003 TX01/2411Z TNM02/2506Z"
    },
    {
      "icao": "LPFR",
      "alert": "OK",
      "vis_m": 9999,
      "fzfg": false,
      "metar_trigger": false,
      "taf_trigger": false,
      "metar": "METAR LPFR 240630Z 29006KT CAVOK 08/06 Q1008",
      "taf": "TAF LPFR 240500Z 2406/2506 31007KT CAVOK"
    },
    {
      "icao": "LPMA",
      "alert": "OK",
      "vis_m": 9999,
      "fzfg": false,
      "metar_trigger": false,
      "taf_trigger": false,
      "metar": "METAR LPMA 240630Z 01004KT 270V060 9999 -RA SCT015 15/13 Q1015",
      "taf": "TAF LPMA 240500Z 2406/2506 33007KT 9999 SCT015"
    },
    {
      "icao": "LPPR",
      "alert": "OK",
      "vis_m": 9999,
      "fzfg": false,
      "metar_trigger": false,
      "taf_trigger": false,
      "metar": "METAR LPPR 240630Z 03005KT 360V070 CAVOK 07/03 Q1010",
      "taf": "TAF LPPR 240500Z 2406/2506 08005KT 9999 FEW030"
    },
    {
      "icao": "LPPS",
      "alert": "OK",
      "vis_m": 9000,
      "fzfg": false,
      "metar_trigger": false,
      "taf_trigger": false,
      "metar": "METAR LPPS 240630Z 34015KT 9000 SCT014 SCT030 15/13 Q1015",
      "taf": "TAF LPPS 240500Z 2406/2512 34015KT 9999 SCT015 SCT030"
    },
    {
      "icao": "LPPT",
      "alert": "OK",
      "vis_m": 9999,
      "fzfg": false,
      "metar_trigger": false,
      "taf_trigger": false,
      "metar": "METAR LPPT 240630Z 34006KT 9999 -RADZ FEW010 09/07 Q1008",
      "taf": "TAF LPPT 240500Z 2406/2512 33007KT 9999 FEW025"
    },
    {
      "icao": "LQBK",
      "alert": "OK",
      "vis_m": 3000,
      "fzfg": false,
      "metar_trigger": false,
      "taf_trigger": false,
      "metar": "METAR LQBK 240630Z 36003KT 3000 RA BR BKN005 OVC015 04/04 Q1015 NOSIG",
      "taf": "TAF LQBK 240500Z 2406/2506 02005KT 4000 -RA BR BKN010 OVC025 TX04/2406Z TN01/2506Z"
    },
    {
      "icao": "LQSA",
      "alert": "OK",
      "vis_m": 3500,
      "fzfg": false,
      "metar_trigger": false,
      "taf_trigger": false,
      "metar": "METAR LQSA 240630Z 00000KT 3500 -DZ BR BKN004 OVC012 02/02 Q1012 NOSIG",
      "taf": ""
    },
    {
      "icao": "LQTZ",
      "alert": "OK",
      "vis_m": 1200,
      "fzfg": false,
      "metar_trigger": false,
      "taf_trigger": false,
      "metar": "METAR LQTZ 240630Z 15002KT 1200 R09/1600U RA BR OVC004 03/03 Q1014",
      "taf": ""
    },
    {
      "icao": "LRBC",
      "alert": "OK",
      "vis_m": 5000,
      "fzfg": false,
      "metar_trigger": false,
      "taf_trigger": false,
      "metar": "METAR LRBC 240630Z COR 12002KT 5000 -RASN BR BKN007 OVC010 01/00 Q1025",
      "taf": "TAF LRBC 240500Z 2406/2415 VRB04KT 9999 -RA BKN005 OVC020"
    },
    {
      "icao": "LRBS",
      "alert": "OK",
      "vis_m": 450,
      "fzfg": false,
      "metar_trigger": false,
      "taf_trigger": false,
      "metar": "METAR LRBS 240630Z 05014KT 0450 R07/0900N FG VV001 03/03 Q1022 NOSIG",
      "taf": ""
    },
    {
      "icao": "LRBV",
      "alert": "OK",
      "vis_m": 9999,
      "fzfg": false,
      "metar_trigger": false,
      "taf_trigger": false,
      "metar": "METAR LRBV 240630Z 00000KT 9999 FEW015 SCT078 M01/M01 Q1019",
      "taf": "TAF LRBV 240500Z 2406/2415 VRB04KT 9999 SCT045"
    },
    {
      "icao": "LRCL",
      "alert": "OK",
      "vis_m": 6000,
      "fzfg": false,
      "metar_trigger": false,
      "taf_trigger": false,
      "metar": "METAR LRCL 240630Z 07007KT 6000 SCT003 OVC059 M00/M01 Q1020",
      "taf": "TAF LRCL 240500Z 2406/2415 08007KT 5000 BR OVC002"
    },
    {
      "icao": "LRCV",
      "alert": "OK",
      "vis_m": 3500,
      "fzfg": false,
      "metar_trigger": false,
      "taf_trigger": false,
      "metar": "METAR LRCV 240630Z 07013KT 3500 -RA BR BKN003 OVC007 03/03 Q1020",
      "taf": "TAF LRCV 240500Z 2406/2415 08008KT 3000 -RA BR BKN005 OVC020"
    },
    {
      "icao": "LRIA",
      "alert": "OK",
      "vis_m": 7000,
      "fzfg": false,
      "metar_trigger": false,
      "taf_trigger": false,
      "metar": "METAR LRIA 240630Z 09009KT 7000 -SN SCT005 OVC012 00/M00 Q1027",
      "taf": "TAF LRIA 240500Z 2406/2415 07008KT 7000 -RADZ BKN010 OVC020"
    },
    {
      "icao": "LROP",
      "alert": "OK",
      "vis_m": 800,
      "fzfg": false,
      "metar_trigger": false,
      "taf_trigger": false,
      "metar": "METAR LROP 240630Z 06016KT 0800 R08R/1300N R08L/1300D FG OVC001 03/03 Q1022 TEMPO 0300 FG OVC001",
      "taf": ""
    },
    {
      "icao": "LRSB",
      "alert": "OK",
      "vis_m": 4000,
      "fzfg": false,
      "metar_trigger": false,
      "taf_trigger": false,
      "metar": "METAR LRSB 240630Z 14003KT 4000 BR OVC004 M00/M00 Q1019",
      "taf": ""
    },
    {
      "icao": "LRSM",
      "alert": "OK",
      "vis_m": 9999,
      "fzfg": false,
      "metar_trigger": false,
      "taf_trigger": false,
      "metar": "METAR LRSM 240630Z 03005KT CAVOK 03/01 Q1020",
      "taf": "TAF LRSM 240500Z 2406/2415 VRB04KT CAVOK"
    },
    {
      "icao": "LRSV",
      "alert": "OK",
      "vis_m": 800,
      "fzfg": true,
      "metar_trigger": false,
      "taf_trigger": false,
      "metar": "METAR LRSV 240630Z 08011KT 0800 R34/1500U -SN FZFG OVC002 M01/M02 Q1025",
      "taf": "TAF LRSV 240500Z 2406/2415 08009KT 1500 -SN BKN002 OVC010"
    },
    {
      "icao": "LRTM",
      "alert": "OK",
      "vis_m": 7000,
      "fzfg": false,
      "metar_trigger": false,
      "taf_trigger": false,
      "metar": "METAR LRTM 240630Z 07002KT 7000 -SG BKN003 OVC006 M00/M01 Q1020",
      "taf": "TAF LRTM 240500Z 2406/2415 VRB04KT 9999 BKN005"
    },
    {
      "icao": "LRTR",
      "alert": "OK",
      "vis_m": 9999,
      "fzfg": false,
      "metar_trigger": false,
      "taf_trigger": false,
      "metar": "METAR LRTR 240630Z 08005KT 9999 OVC043 03/01 Q1017 NOSIG",
      "taf": "TAF LRTR 240500Z 2406/2506 08006KT 9999 BKN040"
    },
    {
      "icao": "LTAC",
      "alert": "OK",
      "vis_m": 1200,
      "fzfg": false,
      "metar_trigger": false,
      "taf_trigger": false,
      "metar": "METAR LTAC 240620Z VRB01KT 1200 0300N R03C/P1500N R21C/0400N R03L/P1500N R03R/P1500D BCFG FEW008 SCT040 04/03 Q1021 BECMG 4000 BR RMK RWY21C VRB01KT RWY03L VRB01KT RWY21R 00000KT RWY03R 00000KT RWY21L VRB01KT",
      "taf": "TAF LTAC 240440Z 2406/2506 VRB02KT 4000 BR FEW020 BKN035"
    },
    {
      "icao": "LTFM",
      "alert": "OK",
      "vis_m": 9999,
      "fzfg": false,
      "metar_trigger": false,
      "taf_trigger": false,
      "metar": "METAR LTFM 240620Z 07006KT 020V090 9999 FEW011 BKN028 11/09 Q1020 NOSIG RMK RWY17L 06004KT RWY34L 06003KT 030V090 RWY16R 06004KT RWY36 07006KT 020V100 RWY18 09005KT",
      "taf": "TAF LTFM 240440Z 2406/2512 02007KT 9999 SCT014 BKN025"
    },
    {
      "icao": "LUKK",
      "alert": "OK",
      "vis_m": 9999,
      "fzfg": false,
      "metar_trigger": false,
      "taf_trigger": false,
      "metar": "METAR LUKK 240630Z 08009KT 9999 -SN BKN043 00/M02 Q1027 NOSIG",
      "taf": "TAF LUKK 240516Z 2406/2506 07010KT 9999 BKN030"
    },
    {
      "icao": "LWOH",
      "alert": "OK",
      "vis_m": 9999,
      "fzfg": false,
      "metar_trigger": false,
      "taf_trigger": false,
      "metar": "METAR LWOH 240620Z 18004KT 130V260 9999 -RA FEW005 SCT015 OVC030 08/07 Q1014",
      "taf": "TAF LWOH 240545Z 2406/2506 18008KT 9999 FEW020 OVC040"
    },
    {
      "icao": "LWSK",
      "alert": "OK",
      "vis_m": null,
      "fzfg": false,
      "metar_trigger": false,
      "taf_trigger": false,
      "metar": "",
      "taf": "TAF LWSK 240545Z 2406/2506 VRB02KT 3000 BR BKN010"
    },
    {
      "icao": "LYBE",
      "alert": "OK",
      "vis_m": 9999,
      "fzfg": false,
      "metar_trigger": false,
      "taf_trigger": false,
      "metar": "METAR LYBE 240630Z 10007KT 9999 BKN025 05/01 Q1016 NOSIG",
      "taf": "TAF LYBE 240500Z 2406/2506 11014KT 9999 BKN027 TX06/2413Z TN02/2506Z"
    },
    {
      "icao": "LYNI",
      "alert": "OK",
      "vis_m": 9999,
      "fzfg": false,
      "metar_trigger": false,
      "taf_trigger": false,
      "metar": "METAR LYNI 240630Z 09012KT 9999 -RA FEW017 BKN033 OVC080 06/04 Q1015 NOSIG",
      "taf": "TAF LYNI 240500Z 2406/2506 08013KT 9999 BKN030 BKN080 TX06/2412Z TN02/2506Z"
    },
    {
      "icao": "LYPG",
      "alert": "OK",
      "vis_m": 4000,
      "fzfg": false,
      "metar_trigger": false,
      "taf_trigger": false,
      "metar": "METAR LYPG 240630Z VRB02KT 4000 BR SCT040 BKN080 07/06 Q1012 NOSIG",
      "taf": "TAF LYPG 240500Z 2406/2506 VRB02KT 6000 SCT040 OVC070 TX11/2413Z TN05/2505Z"
    },
    {
      "icao": "LZIB",
      "alert": "OK",
      "vis_m": 9999,
      "fzfg": false,
      "metar_trigger": false,
      "taf_trigger": false,
      "metar": "METAR LZIB 240630Z 02012KT 9999 -RASN FEW008 BKN019 OVC035 02/01 Q1020 NOSIG",
      "taf": "TAF LZIB 240515Z 2406/2506 04012KT 9999 -RA FEW009 OVC020"
    },
    {
      "icao": "LZKZ",
      "alert": "OK",
      "vis_m": 9999,
      "fzfg": false,
      "metar_trigger": false,
      "taf_trigger": false,
      "metar": "METAR LZKZ 240630Z 36019KT CAVOK 02/M03 Q1022 NOSIG",
      "taf": "TAF LZKZ 240515Z 2406/2506 01018KT CAVOK"
    },
    {
      "icao": "LZTT",
      "alert": "OK",
      "vis_m": 9999,
      "fzfg": false,
      "metar_trigger": false,
      "taf_trigger": false,
      "metar": "METAR LZTT 240630Z 06012KT 9999 FEW016 BKN021 M03/M06 Q1022 NOSIG",
      "taf": "TAF LZTT 240515Z 2406/2506 06015KT 9999 -SN BKN016 BKN023"
    },
    {
      "icao": "OEJN",
      "alert": "OK",
      "vis_m": 9999,
      "fzfg": false,
      "metar_trigger": false,
      "taf_trigger": false,
      "metar": "METAR OEJN 240600Z 35003KT CAVOK 26/21 Q1015 NOSIG",
      "taf": "TAF OEJN 240500Z 2406/2512 32010KT 9999 SCT040"
    },
    {
      "icao": "OEMA",
      "alert": "OK",
      "vis_m": 8000,
      "fzfg": false,
      "metar_trigger": false,
      "taf_trigger": false,
      "metar": "METAR OEMA 240600Z 36002KT 8000 NSC 20/14 Q1019 NOSIG",
      "taf": "TAF OEMA 240500Z 2406/2512 33010KT 9999 SCT040"
    },
    {
      "icao": "OJAI",
      "alert": "OK",
      "vis_m": 4000,
      "fzfg": false,
      "metar_trigger": false,
      "taf_trigger": false,
      "metar": "METAR OJAI 240600Z 00000KT 4000 BR NSC 08/06 Q1022 NOSIG",
      "taf": "TAF OJAI 240448Z 2406/2512 VRB02KT 5000 HZ NSC"
    },
    {
      "icao": "OMAA",
      "alert": "OK",
      "vis_m": 9999,
      "fzfg": false,
      "metar_trigger": false,
      "taf_trigger": false,
      "metar": "METAR OMAA 240600Z 04004KT CAVOK 20/10 Q1019 NOSIG",
      "taf": "TAF OMAA 240500Z 2406/2512 VRB02KT 8000 NSC"
    },
    {
      "icao": "OMDB",
      "alert": "OK",
      "vis_m": 9999,
      "fzfg": false,
      "metar_trigger": false,
      "taf_trigger": false,
      "metar": "METAR OMDB 240630Z 08008KT 050V110 CAVOK 23/10 Q1019 NOSIG",
      "taf": "TAF OMDB 240500Z 2406/2512 07005KT 8000 NSC"
    },
    {
      "icao": "UAAA",
      "alert": "OK",
      "vis_m": 1500,
      "fzfg": false,
      "metar_trigger": false,
      "taf_trigger": false,
      "metar": "METAR UAAA 240630Z 03003MPS 010V070 1500 R23L/1500 BR VV004 M04/M05 Q1026 NOSIG RMK QBB120",
      "taf": "TAF UAAA 240501Z 2406/2506 05003MPS 1500 BR FU BKN007 OVC015 TXM03/2408Z TNM06/2501Z"
    },
    {
      "icao": "UBBB",
      "alert": "OK",
      "vis_m": 9999,
      "fzfg": false,
      "metar_trigger": false,
      "taf_trigger": false,
      "metar": "METAR UBBB 240630Z 04002KT 9999 BKN019 10/08 Q1020 NOSIG",
      "taf": "TAF UBBB 240503Z 2406/2506 28005KT 9999 BKN030 TX12/2410Z TN06/2501Z"
    },
    {
      "icao": "UDSG",
      "alert": "OK",
      "vis_m": 7000,
      "fzfg": false,
      "metar_trigger": false,
      "taf_trigger": false,
      "metar": "METAR UDSG 240630Z 29001KT 7000 NSC M04/M05 Q1022 NOSIG",
      "taf": "TAF UDSG 240500Z 2406/2506 VRB06KT 9999 FEW050"
    },
    {
      "icao": "UDYZ",
      "alert": "OK",
      "vis_m": 3000,
      "fzfg": false,
      "metar_trigger": false,
      "taf_trigger": false,
      "metar": "METAR UDYZ 240630Z 26001KT 3000 BR NSC M01/M04 Q1023 NOSIG",
      "taf": "TAF UDYZ 240500Z 2406/2506 VRB06KT 3500 BR FEW040"
    },
    {
      "icao": "UGKO",
      "alert": "OK",
      "vis_m": 9999,
      "fzfg": false,
      "metar_trigger": false,
      "taf_trigger": false,
      "metar": "METAR UGKO 240630Z 13003KT 110V180 9999 SCT019 BKN022 07/03 Q1021 NOSIG",
      "taf": "TAF UGKO 240500Z 2406/2506 09006KT 9999 BKN070 TX11/2411Z TN04/2503Z"
    }
  ]
}