{
  "ts_utc": "2026-03-20T13:41:22Z",
  "threshold_m": 150,
  "source": "stations_override.txt (ICAO list) + aviationweather.gov (METAR/TAF raw)",
  "station_count": 159,
  "stations": [
    {
      "icao": "BIKF",
      "alert": "OK",
      "vis_m": 9999,
      "fzfg": false,
      "metar_trigger": false,
      "taf_trigger": false,
      "metar": "METAR BIKF 201330Z 22037G50KT 9999 VCSH FEW012CB BKN028 M01/M07 Q0986",
      "taf": "TAF BIKF 201041Z 2012/2112 23035G53KT 9999 -SHSN FEW010CB BKN025 TX02/2112Z TNM02/2024Z"
    },
    {
      "icao": "BKPR",
      "alert": "OK",
      "vis_m": 9999,
      "fzfg": false,
      "metar_trigger": false,
      "taf_trigger": false,
      "metar": "METAR BKPR 201330Z 02012KT 9999 BKN050 06/M04 Q1012 NOSIG",
      "taf": "TAF BKPR 201130Z 2012/2112 35008KT 9999 BKN060"
    },
    {
      "icao": "EBCI",
      "alert": "OK",
      "vis_m": 9999,
      "fzfg": false,
      "metar_trigger": false,
      "taf_trigger": false,
      "metar": "METAR EBCI 201320Z 05010KT CAVOK 14/04 Q1019 NOSIG",
      "taf": "TAF EBCI 201100Z 2012/2118 05006KT CAVOK"
    },
    {
      "icao": "EDDB",
      "alert": "OK",
      "vis_m": 9999,
      "fzfg": false,
      "metar_trigger": false,
      "taf_trigger": false,
      "metar": "METAR EDDB 201320Z AUTO 07004KT 350V110 9999 FEW036 11/04 Q1020 NOSIG",
      "taf": "TAF EDDB 201100Z 2012/2112 36006KT 9999 FEW030"
    },
    {
      "icao": "EDDH",
      "alert": "OK",
      "vis_m": 9999,
      "fzfg": false,
      "metar_trigger": false,
      "taf_trigger": false,
      "metar": "METAR EDDH 201320Z AUTO 02006KT 290V090 9999 FEW036 13/05 Q1021 NOSIG",
      "taf": "TAF EDDH 201100Z 2012/2118 04005KT CAVOK"
    },
    {
      "icao": "EDDK",
      "alert": "OK",
      "vis_m": 9999,
      "fzfg": false,
      "metar_trigger": false,
      "taf_trigger": false,
      "metar": "METAR EDDK 201320Z AUTO 24004KT 130V290 CAVOK 15/04 Q1019 BECMG 35006KT",
      "taf": "TAF EDDK 201100Z 2012/2118 35007KT CAVOK"
    },
    {
      "icao": "EDDN",
      "alert": "OK",
      "vis_m": 9999,
      "fzfg": false,
      "metar_trigger": false,
      "taf_trigger": false,
      "metar": "METAR EDDN 201320Z AUTO VRB03KT CAVOK 15/M00 Q1018 NOSIG",
      "taf": "TAF EDDN 201100Z 2012/2112 34005KT CAVOK"
    },
    {
      "icao": "EDDS",
      "alert": "OK",
      "vis_m": 9999,
      "fzfg": false,
      "metar_trigger": false,
      "taf_trigger": false,
      "metar": "METAR EDDS 201320Z AUTO 02005KT 320V080 CAVOK 14/M00 Q1017 NOSIG",
      "taf": "TAF EDDS 201100Z 2012/2112 05005KT CAVOK"
    },
    {
      "icao": "EDFH",
      "alert": "OK",
      "vis_m": 9999,
      "fzfg": false,
      "metar_trigger": false,
      "taf_trigger": false,
      "metar": "METAR EDFH 201320Z VRB03KT CAVOK 13/M01 Q1018",
      "taf": "TAF EDFH 201100Z 2012/2112 07005KT CAVOK"
    },
    {
      "icao": "EDJA",
      "alert": "OK",
      "vis_m": 9999,
      "fzfg": false,
      "metar_trigger": false,
      "taf_trigger": false,
      "metar": "METAR EDJA 201320Z 03009KT 360V070 CAVOK 11/M02 Q1017",
      "taf": "TAF EDJA 201100Z 2012/2021 05010KT CAVOK"
    },
    {
      "icao": "EDLW",
      "alert": "OK",
      "vis_m": 9999,
      "fzfg": false,
      "metar_trigger": false,
      "taf_trigger": false,
      "metar": "METAR EDLW 201320Z 03006KT 350V080 CAVOK 12/04 Q1020",
      "taf": "TAF EDLW 201100Z 2012/2112 05004KT CAVOK"
    },
    {
      "icao": "EDNY",
      "alert": "OK",
      "vis_m": 9999,
      "fzfg": false,
      "metar_trigger": false,
      "taf_trigger": false,
      "metar": "METAR EDNY 201320Z COR VRB06KT CAVOK 14/M02 Q1016",
      "taf": "TAF EDNY 201100Z 2012/2021 06006KT CAVOK"
    },
    {
      "icao": "EDSB",
      "alert": "OK",
      "vis_m": 9999,
      "fzfg": false,
      "metar_trigger": false,
      "taf_trigger": false,
      "metar": "METAR EDSB 201320Z 02011KT 360V060 CAVOK 15/01 Q1017",
      "taf": "TAF EDSB 201100Z 2012/2112 03010KT CAVOK"
    },
    {
      "icao": "EETN",
      "alert": "OK",
      "vis_m": 9999,
      "fzfg": false,
      "metar_trigger": false,
      "taf_trigger": false,
      "metar": "METAR EETN 201320Z 32005KT 290V350 CAVOK 07/M02 Q1020 NOSIG",
      "taf": "TAF EETN 201130Z 2012/2112 29008KT CAVOK"
    },
    {
      "icao": "EFTU",
      "alert": "OK",
      "vis_m": 9999,
      "fzfg": false,
      "metar_trigger": false,
      "taf_trigger": false,
      "metar": "METAR EFTU 201320Z AUTO 30007KT 260V330 CAVOK 07/M01 Q1020",
      "taf": "TAF EFTU 201122Z 2012/2112 30008KT CAVOK"
    },
    {
      "icao": "EGBB",
      "alert": "OK",
      "vis_m": 9999,
      "fzfg": false,
      "metar_trigger": false,
      "taf_trigger": false,
      "metar": "METAR EGBB 201320Z VRB03KT CAVOK 12/05 Q1022",
      "taf": "TAF EGBB 201056Z 2012/2112 06004KT 8000 BKN008"
    },
    {
      "icao": "EGGP",
      "alert": "OK",
      "vis_m": 6000,
      "fzfg": false,
      "metar_trigger": false,
      "taf_trigger": false,
      "metar": "METAR EGGP 201320Z 22003KT 170V260 6000 NSC 11/07 Q1022",
      "taf": ""
    },
    {
      "icao": "EGGW",
      "alert": "OK",
      "vis_m": 9999,
      "fzfg": false,
      "metar_trigger": false,
      "taf_trigger": false,
      "metar": "METAR EGGW 201320Z AUTO 03007KT 350V060 9999 NCD 11/05 Q1022",
      "taf": "TAF EGGW 201100Z 2012/2112 04006KT 6000 BKN005"
    },
    {
      "icao": "EGKK",
      "alert": "OK",
      "vis_m": 9999,
      "fzfg": false,
      "metar_trigger": false,
      "taf_trigger": false,
      "metar": "METAR EGKK 201320Z 06008KT 020V090 CAVOK 13/05 Q1021",
      "taf": "TAF EGKK 201059Z 2012/2118 06007KT CAVOK"
    },
    {
      "icao": "EGNM",
      "alert": "OK",
      "vis_m": 3000,
      "fzfg": false,
      "metar_trigger": false,
      "taf_trigger": false,
      "metar": "METAR EGNM 201320Z 16004KT 110V210 3000 BR OVC004 08/07 Q1022",
      "taf": ""
    },
    {
      "icao": "EGPD",
      "alert": "OK",
      "vis_m": 9999,
      "fzfg": false,
      "metar_trigger": false,
      "taf_trigger": false,
      "metar": "METAR EGPD 201320Z COR AUTO 17010KT 9999 NCD 16/08 Q1017 NOSIG",
      "taf": "TAF EGPD 201055Z 2012/2112 19008KT CAVOK"
    },
    {
      "icao": "EGPF",
      "alert": "OK",
      "vis_m": 9999,
      "fzfg": false,
      "metar_trigger": false,
      "taf_trigger": false,
      "metar": "METAR EGPF 201320Z AUTO 21012KT 9999 NCD 15/08 Q1020",
      "taf": "TAF EGPF 201105Z 2012/2112 VRB03KT CAVOK"
    },
    {
      "icao": "EHBK",
      "alert": "OK",
      "vis_m": 9999,
      "fzfg": false,
      "metar_trigger": false,
      "taf_trigger": false,
      "metar": "METAR EHBK 201325Z AUTO 04009KT 9999 NSC 14/05 Q1019 NOSIG",
      "taf": "TAF EHBK 201108Z 2012/2118 04004KT CAVOK"
    },
    {
      "icao": "EHEH",
      "alert": "OK",
      "vis_m": 9999,
      "fzfg": false,
      "metar_trigger": false,
      "taf_trigger": false,
      "metar": "METAR EHEH 201325Z AUTO 03007KT 360V080 9999 OVC270 14/05 Q1020 BLU NOSIG RMK TREND REMOTE BY EHWX",
      "taf": "TAF EHEH 201138Z 2012/2118 04007KT CAVOK"
    },
    {
      "icao": "EKBI",
      "alert": "OK",
      "vis_m": 9999,
      "fzfg": false,
      "metar_trigger": false,
      "taf_trigger": false,
      "metar": "METAR EKBI 201320Z AUTO 31003KT 9999 BKN160/// 11/01 Q1023",
      "taf": "TAF EKBI 201127Z 2012/2112 33005KT CAVOK"
    },
    {
      "icao": "EKCH",
      "alert": "OK",
      "vis_m": 9999,
      "fzfg": false,
      "metar_trigger": false,
      "taf_trigger": false,
      "metar": "METAR EKCH 201320Z AUTO 25004KT 210V310 9999 FEW026/// 08/05 Q1023 NOSIG",
      "taf": "TAF EKCH 201127Z 2012/2112 VRB03KT 5000 BR FEW004"
    },
    {
      "icao": "ENAL",
      "alert": "OK",
      "vis_m": 9999,
      "fzfg": false,
      "metar_trigger": false,
      "taf_trigger": false,
      "metar": "METAR ENAL 201320Z 21014KT CAVOK 12/M03 Q1014",
      "taf": "TAF ENAL 201100Z 2012/2021 20012KT CAVOK"
    },
    {
      "icao": "ENBR",
      "alert": "OK",
      "vis_m": 9999,
      "fzfg": false,
      "metar_trigger": false,
      "taf_trigger": false,
      "metar": "METAR ENBR 201320Z 17013KT 9999 FEW023 08/03 Q1021 NOSIG RMK WIND 1200FT 17016KT",
      "taf": "TAF ENBR 201100Z 2012/2112 15012KT 9999 FEW020"
    },
    {
      "icao": "ENGM",
      "alert": "OK",
      "vis_m": 9999,
      "fzfg": false,
      "metar_trigger": false,
      "taf_trigger": false,
      "metar": "METAR ENGM 201320Z 22008KT 200V260 CAVOK 11/M02 Q1019 NOSIG",
      "taf": "TAF ENGM 201100Z 2012/2112 18010KT CAVOK"
    },
    {
      "icao": "ENHD",
      "alert": "OK",
      "vis_m": 9999,
      "fzfg": false,
      "metar_trigger": false,
      "taf_trigger": false,
      "metar": "METAR ENHD 201320Z 20010KT 9999 FEW034 07/04 Q1022",
      "taf": "TAF ENHD 201100Z 2012/2021 15008KT 9999 SCT008"
    },
    {
      "icao": "ENTC",
      "alert": "OK",
      "vis_m": 9999,
      "fzfg": false,
      "metar_trigger": false,
      "taf_trigger": false,
      "metar": "METAR ENTC 201320Z 20022KT 9999 -RA SCT017 BKN022 05/02 Q0998 TEMPO 21025G38KT RMK WIND 2600FT 19030G41KT",
      "taf": "TAF ENTC 201100Z 2012/2112 20022KT 9999 -RA BKN020"
    },
    {
      "icao": "ENTO",
      "alert": "OK",
      "vis_m": 9999,
      "fzfg": false,
      "metar_trigger": false,
      "taf_trigger": false,
      "metar": "METAR ENTO 201320Z 21011KT CAVOK 11/M01 Q1021 NOSIG",
      "taf": "TAF ENTO 201100Z 2012/2112 22008KT CAVOK"
    },
    {
      "icao": "ENVA",
      "alert": "OK",
      "vis_m": 9999,
      "fzfg": false,
      "metar_trigger": false,
      "taf_trigger": false,
      "metar": "METAR ENVA 201320Z 21004KT CAVOK 14/M05 Q1014 NOSIG RMK WIND 670FT 20008KT",
      "taf": "TAF ENVA 201100Z 2012/2112 VRB05KT CAVOK"
    },
    {
      "icao": "ENZV",
      "alert": "OK",
      "vis_m": 9999,
      "fzfg": false,
      "metar_trigger": false,
      "taf_trigger": false,
      "metar": "METAR ENZV 201320Z 26007KT CAVOK 08/04 Q1023 NOSIG",
      "taf": ""
    },
    {
      "icao": "EPGD",
      "alert": "OK",
      "vis_m": 9999,
      "fzfg": false,
      "metar_trigger": false,
      "taf_trigger": false,
      "metar": "METAR EPGD 201330Z 03008KT 9999 SCT009 04/01 Q1022",
      "taf": ""
    },
    {
      "icao": "EPKK",
      "alert": "OK",
      "vis_m": 9999,
      "fzfg": false,
      "metar_trigger": false,
      "taf_trigger": false,
      "metar": "METAR EPKK 201330Z 35009KT 320V060 9999 SCT052 11/M01 Q1017",
      "taf": "TAF EPKK 201130Z 2012/2112 VRB02KT CAVOK"
    },
    {
      "icao": "EPKT",
      "alert": "OK",
      "vis_m": 9999,
      "fzfg": false,
      "metar_trigger": false,
      "taf_trigger": false,
      "metar": "METAR EPKT 201330Z 30005KT 270V010 9999 -RA FEW022 SCT043 10/M01 Q1018",
      "taf": "TAF EPKT 201130Z 2012/2112 02008KT CAVOK"
    },
    {
      "icao": "EPLB",
      "alert": "OK",
      "vis_m": 9999,
      "fzfg": false,
      "metar_trigger": false,
      "taf_trigger": false,
      "metar": "METAR EPLB 201330Z 03008KT 360V060 9999 SCT024 BKN030 OVC039 08/04 Q1017",
      "taf": "TAF EPLB 201130Z 2012/2112 33010KT 9999 BKN030"
    },
    {
      "icao": "EPMO",
      "alert": "OK",
      "vis_m": 9999,
      "fzfg": false,
      "metar_trigger": false,
      "taf_trigger": false,
      "metar": "METAR EPMO 201330Z 02006KT 320V100 9999 FEW026 10/04 Q1019",
      "taf": "TAF EPMO 201130Z 2012/2112 36006KT 9999 BKN022"
    },
    {
      "icao": "EPPO",
      "alert": "OK",
      "vis_m": 9999,
      "fzfg": false,
      "metar_trigger": false,
      "taf_trigger": false,
      "metar": "METAR EPPO 201330Z 04005KT 9999 OVC039 09/02 Q1020",
      "taf": "TAF EPPO 201130Z 2012/2112 07005KT 9999 OVC045"
    },
    {
      "icao": "EPRA",
      "alert": "OK",
      "vis_m": 9999,
      "fzfg": false,
      "metar_trigger": false,
      "taf_trigger": false,
      "metar": "METAR EPRA 201330Z 35005KT 320V020 9999 SCT020 OVC028 08/04 Q1018",
      "taf": "TAF EPRA 201130Z 2012/2021 34008KT 9999 BKN025"
    },
    {
      "icao": "EPRZ",
      "alert": "OK",
      "vis_m": 9999,
      "fzfg": false,
      "metar_trigger": false,
      "taf_trigger": false,
      "metar": "METAR EPRZ 201330Z 33006KT 280V020 CAVOK 13/M03 Q1016",
      "taf": "TAF EPRZ 201130Z 2012/2112 35012KT CAVOK"
    },
    {
      "icao": "EPSC",
      "alert": "OK",
      "vis_m": 6000,
      "fzfg": false,
      "metar_trigger": false,
      "taf_trigger": false,
      "metar": "METAR EPSC 201330Z 04004KT 010V070 6000 BKN002 06/06 Q1021",
      "taf": "TAF EPSC 201130Z 2012/2112 04005KT 3000 BR OVC002"
    },
    {
      "icao": "EPSY",
      "alert": "OK",
      "vis_m": 9999,
      "fzfg": false,
      "metar_trigger": false,
      "taf_trigger": false,
      "metar": "METAR EPSY 201330Z 02012KT 9999 BKN016 08/03 Q1019",
      "taf": "TAF EPSY 201130Z 2012/2021 36008KT 9999 SCT018"
    },
    {
      "icao": "EPWA",
      "alert": "OK",
      "vis_m": 9999,
      "fzfg": false,
      "metar_trigger": false,
      "taf_trigger": false,
      "metar": "METAR EPWA 201330Z 01009KT 9999 SCT027 10/03 Q1018 NOSIG",
      "taf": "TAF EPWA 201130Z 2012/2112 36006KT 9999 BKN022"
    },
    {
      "icao": "EPWR",
      "alert": "OK",
      "vis_m": 9999,
      "fzfg": false,
      "metar_trigger": false,
      "taf_trigger": false,
      "metar": "METAR EPWR 201330Z 34008KT 9999 BKN047 12/01 Q1019",
      "taf": "TAF EPWR 201130Z 2012/2112 30003KT CAVOK"
    },
    {
      "icao": "ESGG",
      "alert": "OK",
      "vis_m": 9999,
      "fzfg": false,
      "metar_trigger": false,
      "taf_trigger": false,
      "metar": "METAR ESGG 201320Z 22005KT 190V250 CAVOK 11/01 Q1022",
      "taf": "TAF ESGG 201130Z 2012/2112 18003KT CAVOK"
    },
    {
      "icao": "ESKN",
      "alert": "OK",
      "vis_m": 9999,
      "fzfg": false,
      "metar_trigger": false,
      "taf_trigger": false,
      "metar": "METAR ESKN 201320Z 29005KT 230V010 CAVOK 13/M03 Q1021",
      "taf": "TAF ESKN 201130Z 2012/2112 20003KT CAVOK"
    },
    {
      "icao": "ESMS",
      "alert": "OK",
      "vis_m": 9999,
      "fzfg": false,
      "metar_trigger": false,
      "taf_trigger": false,
      "metar": "METAR ESMS 201320Z 14004KT 090V250 9999 SCT030 11/03 Q1022",
      "taf": "TAF ESMS 201127Z 2012/2112 14005KT 6000 FEW004"
    },
    {
      "icao": "ESSA",
      "alert": "OK",
      "vis_m": 9999,
      "fzfg": false,
      "metar_trigger": false,
      "taf_trigger": false,
      "metar": "METAR ESSA 201320Z 25006KT 220V290 CAVOK 11/M03 Q1020 NOSIG",
      "taf": "TAF ESSA 201130Z 2012/2112 26006KT CAVOK"
    },
    {
      "icao": "EYKA",
      "alert": "OK",
      "vis_m": 9999,
      "fzfg": false,
      "metar_trigger": false,
      "taf_trigger": false,
      "metar": "METAR EYKA 201320Z 02008KT 310V080 9999 BKN040 08/M01 Q1019",
      "taf": "TAF EYKA 201100Z 2012/2112 36010KT 9000 BKN030"
    },
    {
      "icao": "EYPA",
      "alert": "OK",
      "vis_m": 9999,
      "fzfg": false,
      "metar_trigger": false,
      "taf_trigger": false,
      "metar": "METAR EYPA 201320Z 34006KT 290V030 CAVOK 06/01 Q1021",
      "taf": "TAF EYPA 201100Z 2012/2112 33008KT 8000 SCT002"
    },
    {
      "icao": "EYVI",
      "alert": "OK",
      "vis_m": 9999,
      "fzfg": false,
      "metar_trigger": false,
      "taf_trigger": false,
      "metar": "METAR EYVI 201320Z 01013KT 9999 BKN026 05/M01 Q1017 NOSIG",
      "taf": "TAF EYVI 201100Z 2012/2112 36011KT 8000 SCT015 BKN025"
    },
    {
      "icao": "GCFV",
      "alert": "OK",
      "vis_m": 9999,
      "fzfg": false,
      "metar_trigger": false,
      "taf_trigger": false,
      "metar": "METAR GCFV 201330Z 20018KT 180V240 9999 SCT035 23/12 Q1002",
      "taf": "TAF GCFV 200800Z 2009/2109 22020KT 9999 SCT030 TX22/2014Z TN17/2106Z"
    },
    {
      "icao": "GCLP",
      "alert": "OK",
      "vis_m": 9999,
      "fzfg": false,
      "metar_trigger": false,
      "taf_trigger": false,
      "metar": "METAR GCLP 201330Z 25015G30KT 210V290 9999 FEW025 24/11 Q1001 WS ALL RWY NOSIG",
      "taf": ""
    },
    {
      "icao": "GCTS",
      "alert": "OK",
      "vis_m": 9999,
      "fzfg": false,
      "metar_trigger": false,
      "taf_trigger": false,
      "metar": "METAR GCTS 201330Z 26020KT 9999 SCT025 BKN040 19/15 Q1003 REDZ NOSIG",
      "taf": ""
    },
    {
      "icao": "GMAD",
      "alert": "OK",
      "vis_m": 8000,
      "fzfg": false,
      "metar_trigger": false,
      "taf_trigger": false,
      "metar": "METAR GMAD 201330Z 24013KT 8000 BKN023 SCT100 22/15 Q1005 NOSIG",
      "taf": "TAF GMAD 201100Z 2012/2118 19012KT 8000 BKN023"
    },
    {
      "icao": "GMMN",
      "alert": "OK",
      "vis_m": 9999,
      "fzfg": false,
      "metar_trigger": false,
      "taf_trigger": false,
      "metar": "METAR GMMN 201330Z 08010KT 9999 -RA BKN027 19/15 Q1004 NOSIG",
      "taf": "TAF GMMN 201100Z 2012/2118 08014KT 9999 BKN027"
    },
    {
      "icao": "GMMX",
      "alert": "OK",
      "vis_m": 8000,
      "fzfg": false,
      "metar_trigger": false,
      "taf_trigger": false,
      "metar": "METAR GMMX 201330Z 33009KT 280V030 8000 SCT026 24/12 Q1003 NOSIG",
      "taf": "TAF GMMX 201100Z 2012/2118 06006KT 8000 BKN023"
    },
    {
      "icao": "HEGN",
      "alert": "OK",
      "vis_m": 9999,
      "fzfg": false,
      "metar_trigger": false,
      "taf_trigger": false,
      "metar": "METAR HEGN 201300Z 10010KT CAVOK 24/08 Q1007 NOSIG",
      "taf": "TAF HEGN 201100Z 2012/2118 28010G20KT CAVOK"
    },
    {
      "icao": "HEMA",
      "alert": "OK",
      "vis_m": 9999,
      "fzfg": false,
      "metar_trigger": false,
      "taf_trigger": false,
      "metar": "METAR HEMA 201300Z 24013KT CAVOK 24/03 Q1006 NOSIG",
      "taf": "TAF HEMA 201100Z 2012/2118 29010G20KT CAVOK"
    },
    {
      "icao": "HESH",
      "alert": "OK",
      "vis_m": 9999,
      "fzfg": false,
      "metar_trigger": false,
      "taf_trigger": false,
      "metar": "METAR HESH 201300Z 22008KT CAVOK 26/06 Q1007 NOSIG",
      "taf": "TAF HESH 201100Z 2012/2118 28015KT CAVOK"
    },
    {
      "icao": "HESX",
      "alert": "OK",
      "vis_m": 1000,
      "fzfg": false,
      "metar_trigger": false,
      "taf_trigger": false,
      "metar": "METAR HESX 201300Z 27022KT 1000 R34/3500 SA SCT020 23/01 Q1004 NOSIG",
      "taf": "TAF HESX 201155Z 2012/2118 23012KT 9999 FEW020"
    },
    {
      "icao": "LATI",
      "alert": "OK",
      "vis_m": 9999,
      "fzfg": false,
      "metar_trigger": false,
      "taf_trigger": false,
      "metar": "METAR LATI 201320Z VRB06KT CAVOK 17/M01 Q1007 BECMG 26010KT",
      "taf": "TAF LATI 201100Z 2012/2112 32010KT CAVOK TX19/2012Z TN03/2104Z"
    },
    {
      "icao": "LBPD",
      "alert": "OK",
      "vis_m": 9999,
      "fzfg": false,
      "metar_trigger": false,
      "taf_trigger": false,
      "metar": "METAR LBPD 201330Z AUTO VRB02KT 9999 OVC059/// 09/M02 Q1011 NOSIG",
      "taf": "TAF LBPD 201100Z 2012/2112 VRB04KT 9999 BKN050"
    },
    {
      "icao": "LBSF",
      "alert": "OK",
      "vis_m": 9999,
      "fzfg": false,
      "metar_trigger": false,
      "taf_trigger": false,
      "metar": "METAR LBSF 201330Z 06010KT 020V080 9999 SCT038 BKN060 06/M02 Q1012 NOSIG",
      "taf": "TAF LBSF 201100Z 2012/2112 05012KT 9999 SCT035 BKN060"
    },
    {
      "icao": "LBWN",
      "alert": "OK",
      "vis_m": 9999,
      "fzfg": false,
      "metar_trigger": false,
      "taf_trigger": false,
      "metar": "METAR LBWN 201330Z 01012KT 9999 BKN047 10/M00 Q1010 NOSIG",
      "taf": ""
    },
    {
      "icao": "LCLK",
      "alert": "OK",
      "vis_m": 9999,
      "fzfg": false,
      "metar_trigger": false,
      "taf_trigger": false,
      "metar": "METAR LCLK 201330Z 20019KT 9999 FEW010 SCT020 FEW030CB 20/15 Q1000 NOSIG RMK CB TO W NW",
      "taf": "TAF LCLK 201130Z 2012/2112 21018KT 9999 FEW020 FEW025CB SCT050"
    },
    {
      "icao": "LCPH",
      "alert": "OK",
      "vis_m": 7000,
      "fzfg": false,
      "metar_trigger": false,
      "taf_trigger": false,
      "metar": "METAR LCPH 201330Z 21023G35KT 170V240 7000 -TSRA FEW013 FEW022CB SCT024TCU BKN050 14/10 Q0999 TEMPO 1500 -TSRA FEW025CB",
      "taf": "TAF LCPH 201130Z 2012/2112 24016KT 9999 FEW020 FEW025CB SCT050"
    },
    {
      "icao": "LEAL",
      "alert": "OK",
      "vis_m": 9999,
      "fzfg": false,
      "metar_trigger": false,
      "taf_trigger": false,
      "metar": "METAR LEAL 201330Z 08019KT 9999 SCT035 15/09 Q1013 NOSIG",
      "taf": "TAF LEAL 201100Z 2012/2112 07014KT 9999 FEW020 TX17/2012Z TN09/2106Z"
    },
    {
      "icao": "LEBB",
      "alert": "OK",
      "vis_m": 9999,
      "fzfg": false,
      "metar_trigger": false,
      "taf_trigger": false,
      "metar": "METAR LEBB 201330Z 13011KT 080V170 CAVOK 21/04 Q1011 NOSIG",
      "taf": "TAF LEBB 201100Z 2012/2112 13009KT CAVOK TX22/2014Z TN08/2103Z"
    },
    {
      "icao": "LEBL",
      "alert": "OK",
      "vis_m": 9999,
      "fzfg": false,
      "metar_trigger": false,
      "taf_trigger": false,
      "metar": "METAR LEBL 201330Z 07012KT 9999 FEW036 16/07 Q1016 NOSIG",
      "taf": "TAF LEBL 201100Z 2012/2112 08010KT 9999 FEW040 TX17/2012Z TN06/2106Z"
    },
    {
      "icao": "LECH",
      "alert": "OK",
      "vis_m": 9000,
      "fzfg": false,
      "metar_trigger": false,
      "taf_trigger": false,
      "metar": "METAR LECH 201330Z AUTO 11010KT 070V150 9000 NCD 14/06 Q1015",
      "taf": "TAF LECH 201100Z 2012/2112 09010KT 9999 BKN020 TX16/2012Z TN04/2106Z"
    },
    {
      "icao": "LEMD",
      "alert": "OK",
      "vis_m": 9999,
      "fzfg": false,
      "metar_trigger": false,
      "taf_trigger": false,
      "metar": "METAR LEMD 201330Z 14002KT 9999 -RA BKN035 BKN050 09/07 Q1013 NOSIG",
      "taf": "TAF LEMD 201100Z 2012/2118 13007KT 9999 BKN035 TX14/2016Z TN06/2107Z"
    },
    {
      "icao": "LEMG",
      "alert": "OK",
      "vis_m": 9999,
      "fzfg": false,
      "metar_trigger": false,
      "taf_trigger": false,
      "metar": "METAR LEMG 201330Z 11015KT 080V140 9999 FEW024 BKN040 16/11 Q1010 NOSIG",
      "taf": "TAF LEMG 201100Z 2012/2112 11012KT 9999 SCT025 BKN050 TX16/2013Z TN13/2106Z"
    },
    {
      "icao": "LEVC",
      "alert": "OK",
      "vis_m": 9999,
      "fzfg": false,
      "metar_trigger": false,
      "taf_trigger": false,
      "metar": "METAR LEVC 201330Z 07012KT 9999 FEW030 SCT040 15/07 Q1015 NOSIG",
      "taf": "TAF LEVC 201100Z 2012/2112 07012KT 9999 BKN030 TX16/2012Z TN08/2106Z"
    },
    {
      "icao": "LEXJ",
      "alert": "OK",
      "vis_m": 9999,
      "fzfg": false,
      "metar_trigger": false,
      "taf_trigger": false,
      "metar": "METAR LEXJ 201330Z 07004KT 360V120 CAVOK 18/09 Q1009",
      "taf": ""
    },
    {
      "icao": "LEZG",
      "alert": "OK",
      "vis_m": 9999,
      "fzfg": false,
      "metar_trigger": false,
      "taf_trigger": false,
      "metar": "METAR LEZG 201330Z 10010KT 060V130 CAVOK 16/02 Q1014 NOSIG",
      "taf": "TAF LEZG 201100Z 2012/2112 11012KT 9999 FEW010 TX19/2014Z TN05/2106Z"
    },
    {
      "icao": "LEZL",
      "alert": "OK",
      "vis_m": 9999,
      "fzfg": false,
      "metar_trigger": false,
      "taf_trigger": false,
      "metar": "METAR LEZL 201330Z 09008KT 060V140 9999 SCT037 19/12 Q1007 NOSIG",
      "taf": "TAF LEZL 200800Z 2009/2109 07009KT 9999 FEW045 TX21/2015Z TN13/2107Z"
    },
    {
      "icao": "LFBD",
      "alert": "OK",
      "vis_m": 9999,
      "fzfg": false,
      "metar_trigger": false,
      "taf_trigger": false,
      "metar": "METAR LFBD 201330Z AUTO 10010KT CAVOK 20/01 Q1014 NOSIG",
      "taf": "TAF LFBD 201100Z 2012/2118 12010KT CAVOK TX21/2014Z TN08/2106Z"
    },
    {
      "icao": "LFLL",
      "alert": "OK",
      "vis_m": 9999,
      "fzfg": false,
      "metar_trigger": false,
      "taf_trigger": false,
      "metar": "METAR LFLL 201330Z VRB03KT 9999 FEW048 17/03 Q1015 NOSIG",
      "taf": "TAF LFLL 201100Z 2012/2118 36005KT CAVOK"
    },
    {
      "icao": "LFLS",
      "alert": "OK",
      "vis_m": 9999,
      "fzfg": false,
      "metar_trigger": false,
      "taf_trigger": false,
      "metar": "METAR LFLS 201330Z AUTO 31004KT 240V010 CAVOK 16/04 Q1015 NOSIG",
      "taf": "TAF LFLS 200800Z 2009/2109 08007KT CAVOK"
    },
    {
      "icao": "LFMN",
      "alert": "OK",
      "vis_m": 9999,
      "fzfg": false,
      "metar_trigger": false,
      "taf_trigger": false,
      "metar": "METAR LFMN 201330Z 16007KT 9999 FEW033 16/04 Q1015 NOSIG",
      "taf": "TAF LFMN 200800Z 2009/2115 34010KT CAVOK"
    },
    {
      "icao": "LFOB",
      "alert": "OK",
      "vis_m": 9999,
      "fzfg": false,
      "metar_trigger": false,
      "taf_trigger": false,
      "metar": "METAR LFOB 201330Z AUTO 06007KT 030V090 CAVOK 16/05 Q1019 NOSIG",
      "taf": "TAF LFOB 201100Z 2012/2112 04010KT CAVOK"
    },
    {
      "icao": "LFPO",
      "alert": "OK",
      "vis_m": 9999,
      "fzfg": false,
      "metar_trigger": false,
      "taf_trigger": false,
      "metar": "METAR LFPO 201330Z 06009KT 020V090 CAVOK 17/02 Q1018 NOSIG",
      "taf": "TAF LFPO 201100Z 2012/2118 05008KT CAVOK"
    },
    {
      "icao": "LFSB",
      "alert": "OK",
      "vis_m": 9999,
      "fzfg": false,
      "metar_trigger": false,
      "taf_trigger": false,
      "metar": "METAR LFSB 201330Z AUTO VRB04KT CAVOK 15/M00 Q1017 NOSIG",
      "taf": "TAF LFSB 201100Z 2012/2112 VRB03KT CAVOK"
    },
    {
      "icao": "LGAV",
      "alert": "OK",
      "vis_m": 9999,
      "fzfg": false,
      "metar_trigger": false,
      "taf_trigger": false,
      "metar": "METAR LGAV 201320Z 35014KT 9999 SCT025 BKN040 09/04 Q1009 NOSIG",
      "taf": "TAF LGAV 201100Z 2012/2112 02016KT 9999 FEW016 BKN030 BKN070"
    },
    {
      "icao": "LGTS",
      "alert": "OK",
      "vis_m": 9999,
      "fzfg": false,
      "metar_trigger": false,
      "taf_trigger": false,
      "metar": "METAR LGTS 201320Z 13004KT 9999 SCT025 12/01 Q1010 NOSIG",
      "taf": "TAF LGTS 201100Z 2012/2112 VRB03KT 9999 SCT025"
    },
    {
      "icao": "LHBP",
      "alert": "OK",
      "vis_m": 9999,
      "fzfg": false,
      "metar_trigger": false,
      "taf_trigger": false,
      "metar": "METAR LHBP 201330Z 02007KT 340V090 CAVOK 13/M04 Q1016 NOSIG",
      "taf": "TAF LHBP 201115Z 2012/2112 05008KT CAVOK"
    },
    {
      "icao": "LHDC",
      "alert": "OK",
      "vis_m": 9999,
      "fzfg": false,
      "metar_trigger": false,
      "taf_trigger": false,
      "metar": "METAR LHDC 201315Z AUTO 03012KT 010V080 CAVOK 12/M04 Q1015 NOSIG",
      "taf": "TAF LHDC 201115Z 2012/2021 04009KT CAVOK"
    },
    {
      "icao": "LIBD",
      "alert": "OK",
      "vis_m": 9999,
      "fzfg": false,
      "metar_trigger": false,
      "taf_trigger": false,
      "metar": "METAR LIBD 201320Z 31008KT 280V360 9999 FEW040 12/04 Q1011",
      "taf": "TAF LIBD 201100Z 2012/2112 33012KT 9999 FEW030"
    },
    {
      "icao": "LIBG",
      "alert": "OK",
      "vis_m": 9999,
      "fzfg": false,
      "metar_trigger": false,
      "taf_trigger": false,
      "metar": "METAR LIBG 201250Z 04005KT 010V070 9999 SCT030 13/05 Q1010",
      "taf": "TAF LIBG 201100Z 2012/2021 34012KT 9999 FEW030"
    },
    {
      "icao": "LIBP",
      "alert": "OK",
      "vis_m": 9999,
      "fzfg": false,
      "metar_trigger": false,
      "taf_trigger": false,
      "metar": "METAR LIBP 201320Z AUTO 03009KT 350V050 9999 OVC056/// 12/01 Q1014",
      "taf": "TAF LIBP 201100Z 2012/2112 35013KT 9999 SCT040"
    },
    {
      "icao": "LIBR",
      "alert": "OK",
      "vis_m": 9999,
      "fzfg": false,
      "metar_trigger": false,
      "taf_trigger": false,
      "metar": "METAR LIBR 201320Z 02010KT 9999 FEW045 13/02 Q1010",
      "taf": "TAF LIBR 201100Z 2012/2112 04010KT 9999 FEW040"
    },
    {
      "icao": "LICA",
      "alert": "OK",
      "vis_m": 9999,
      "fzfg": false,
      "metar_trigger": false,
      "taf_trigger": false,
      "metar": "METAR LICA 201320Z AUTO 26011KT 9999 BKN100/// 16/09 Q1010",
      "taf": "TAF LICA 201100Z 2012/2112 26010KT 9999 FEW018"
    },
    {
      "icao": "LICC",
      "alert": "OK",
      "vis_m": 9999,
      "fzfg": false,
      "metar_trigger": false,
      "taf_trigger": false,
      "metar": "METAR LICC 201320Z 08009KT 9999 SCT030 SCT060 15/13 Q1010",
      "taf": "TAF LICC 201100Z 2012/2112 09012KT 8000 NSC"
    },
    {
      "icao": "LICJ",
      "alert": "OK",
      "vis_m": 9999,
      "fzfg": false,
      "metar_trigger": false,
      "taf_trigger": false,
      "metar": "METAR LICJ 201320Z 35006KT 9999 FEW004 15/09 Q1011",
      "taf": "TAF LICJ 201100Z 2012/2112 VRB06KT 9999 FEW016"
    },
    {
      "icao": "LIMC",
      "alert": "OK",
      "vis_m": 9999,
      "fzfg": false,
      "metar_trigger": false,
      "taf_trigger": false,
      "metar": "METAR LIMC 201320Z VRB04KT 9999 FEW060 15/M00 Q1015 NOSIG",
      "taf": "TAF LIMC 201100Z 2012/2118 VRB05KT CAVOK"
    },
    {
      "icao": "LIME",
      "alert": "OK",
      "vis_m": 9999,
      "fzfg": false,
      "metar_trigger": false,
      "taf_trigger": false,
      "metar": "METAR LIME 201320Z VRB04KT CAVOK 14/M01 Q1015 NOSIG",
      "taf": "TAF LIME 201100Z 2012/2112 VRB05KT CAVOK"
    },
    {
      "icao": "LIMF",
      "alert": "OK",
      "vis_m": 9999,
      "fzfg": false,
      "metar_trigger": false,
      "taf_trigger": false,
      "metar": "METAR LIMF 201320Z VRB02KT CAVOK 15/M01 Q1015",
      "taf": "TAF LIMF 201100Z 2012/2112 VRB05KT CAVOK"
    },
    {
      "icao": "LIMJ",
      "alert": "OK",
      "vis_m": 9999,
      "fzfg": false,
      "metar_trigger": false,
      "taf_trigger": false,
      "metar": "METAR LIMJ 201320Z AUTO 16005KT 9999 NCD 16/04 Q1014",
      "taf": "TAF LIMJ 201100Z 2012/2112 23010KT CAVOK"
    },
    {
      "icao": "LIPE",
      "alert": "OK",
      "vis_m": 9999,
      "fzfg": false,
      "metar_trigger": false,
      "taf_trigger": false,
      "metar": "METAR LIPE 201320Z 09008KT 9999 FEW064 15/01 Q1015",
      "taf": "TAF LIPE 201100Z 2012/2112 08010KT 9999 FEW040"
    },
    {
      "icao": "LIPH",
      "alert": "OK",
      "vis_m": 9999,
      "fzfg": false,
      "metar_trigger": false,
      "taf_trigger": false,
      "metar": "METAR LIPH 201320Z 23005KT 190V300 CAVOK 16/M00 Q1015",
      "taf": "TAF LIPH 201100Z 2012/2112 VRB05KT CAVOK"
    },
    {
      "icao": "LIPQ",
      "alert": "OK",
      "vis_m": 9999,
      "fzfg": false,
      "metar_trigger": false,
      "taf_trigger": false,
      "metar": "METAR LIPQ 201320Z AUTO VRB03KT 9999 BKN083/// 16/M02 Q1015",
      "taf": "TAF LIPQ 201100Z 2012/2112 VRB05KT CAVOK"
    },
    {
      "icao": "LIPR",
      "alert": "OK",
      "vis_m": 9999,
      "fzfg": false,
      "metar_trigger": false,
      "taf_trigger": false,
      "metar": "METAR LIPR 201320Z 03010KT CAVOK 14/05 Q1016",
      "taf": "TAF LIPR 201100Z 2012/2112 06012KT 9999 FEW020"
    },
    {
      "icao": "LIPX",
      "alert": "OK",
      "vis_m": 9999,
      "fzfg": false,
      "metar_trigger": false,
      "taf_trigger": false,
      "metar": "METAR LIPX 201320Z VRB04KT CAVOK 16/M01 Q1015",
      "taf": "TAF LIPX 201100Z 2012/2112 VRB05KT 9999 FEW060"
    },
    {
      "icao": "LIPY",
      "alert": "OK",
      "vis_m": 9999,
      "fzfg": false,
      "metar_trigger": false,
      "taf_trigger": false,
      "metar": "METAR LIPY 201320Z AUTO 03011KT 9999 NCD 14/03 Q1015",
      "taf": "TAF LIPY 201100Z 2012/2112 05014KT CAVOK"
    },
    {
      "icao": "LIPZ",
      "alert": "OK",
      "vis_m": 9999,
      "fzfg": false,
      "metar_trigger": false,
      "taf_trigger": false,
      "metar": "METAR LIPZ 201320Z 16007KT 9999 FEW040 15/06 Q1016 NOSIG",
      "taf": "TAF LIPZ 201100Z 2012/2118 VRB05KT CAVOK"
    },
    {
      "icao": "LIRF",
      "alert": "OK",
      "vis_m": 9999,
      "fzfg": false,
      "metar_trigger": false,
      "taf_trigger": false,
      "metar": "METAR LIRF 201320Z 33007KT 290V350 CAVOK 17/00 Q1011 NOSIG",
      "taf": "TAF LIRF 201100Z 2012/2118 26012KT CAVOK"
    },
    {
      "icao": "LIRN",
      "alert": "OK",
      "vis_m": 9999,
      "fzfg": false,
      "metar_trigger": false,
      "taf_trigger": false,
      "metar": "METAR LIRN 201320Z 06011KT 9999 BKN060 14/M00 Q1011 NOSIG",
      "taf": "TAF LIRN 201100Z 2012/2112 04009KT CAVOK"
    },
    {
      "icao": "LIRP",
      "alert": "OK",
      "vis_m": 9999,
      "fzfg": false,
      "metar_trigger": false,
      "taf_trigger": false,
      "metar": "METAR LIRP 201315Z 28010KT CAVOK 15/01 Q1014 NOSIG",
      "taf": "TAF LIRP 201100Z 2012/2112 07012KT CAVOK"
    },
    {
      "icao": "LIRZ",
      "alert": "OK",
      "vis_m": 9999,
      "fzfg": false,
      "metar_trigger": false,
      "taf_trigger": false,
      "metar": "METAR LIRZ 201320Z AUTO 03011KT 9999 BKN061/// 12/00 Q1014",
      "taf": "TAF LIRZ 201100Z 2012/2112 04016KT 9999 FEW045"
    },
    {
      "icao": "LJLJ",
      "alert": "OK",
      "vis_m": 9999,
      "fzfg": false,
      "metar_trigger": false,
      "taf_trigger": false,
      "metar": "METAR LJLJ 201330Z 15003KT 040V220 9999 FEW068 BKN075 12/M04 Q1015 NOSIG",
      "taf": "TAF LJLJ 201100Z 2012/2112 11008KT 9999 BKN075"
    },
    {
      "icao": "LKMT",
      "alert": "OK",
      "vis_m": 9999,
      "fzfg": false,
      "metar_trigger": false,
      "taf_trigger": false,
      "metar": "METAR LKMT 201330Z 05009KT CAVOK 12/00 Q1018 NOSIG",
      "taf": "TAF LKMT 201100Z 2012/2112 03008KT CAVOK"
    },
    {
      "icao": "LKPR",
      "alert": "OK",
      "vis_m": 9999,
      "fzfg": false,
      "metar_trigger": false,
      "taf_trigger": false,
      "metar": "METAR LKPR 201330Z 33005KT 9999 FEW043 11/02 Q1018 NOSIG",
      "taf": "TAF LKPR 201100Z 2012/2118 34004KT 9999 SCT045"
    },
    {
      "icao": "LLBG",
      "alert": "OK",
      "vis_m": 9999,
      "fzfg": false,
      "metar_trigger": false,
      "taf_trigger": false,
      "metar": "METAR LLBG 201320Z 24012KT 9999 FEW045 22/06 Q1004 NOSIG",
      "taf": "TAF LLBG 201106Z 2012/2112 23012KT 9999 FEW045 TX23/2012Z TN12/2104Z"
    },
    {
      "icao": "LMML",
      "alert": "OK",
      "vis_m": 9999,
      "fzfg": false,
      "metar_trigger": false,
      "taf_trigger": false,
      "metar": "METAR LMML 201315Z 21007KT 170V260 9999 FEW035 16/08 Q1011 NOSIG",
      "taf": "TAF LMML 201100Z 2012/2112 VRB08KT 9999 FEW025"
    },
    {
      "icao": "LOWW",
      "alert": "OK",
      "vis_m": 9999,
      "fzfg": false,
      "metar_trigger": false,
      "taf_trigger": false,
      "metar": "METAR LOWW 201320Z 34008KT 310V020 CAVOK 14/M01 Q1017 NOSIG",
      "taf": "TAF LOWW 201115Z 2012/2118 35008KT CAVOK TX14/2014Z TN06/2105Z"
    },
    {
      "icao": "LPFR",
      "alert": "OK",
      "vis_m": 9999,
      "fzfg": false,
      "metar_trigger": false,
      "taf_trigger": false,
      "metar": "METAR LPFR 201330Z 11020KT 9999 SCT015 17/14 Q1006",
      "taf": "TAF LPFR 201100Z 2012/2112 13015KT 9999 SCT015 SCT035"
    },
    {
      "icao": "LPMA",
      "alert": "OK",
      "vis_m": 9999,
      "fzfg": false,
      "metar_trigger": false,
      "taf_trigger": false,
      "metar": "METAR LPMA 201330Z 21021KT 9999 SCT015 FEW016TCU 18/13 Q0995",
      "taf": "TAF LPMA 201100Z 2012/2112 21015KT 9999 SCT016 SCT030"
    },
    {
      "icao": "LPPR",
      "alert": "OK",
      "vis_m": 9999,
      "fzfg": false,
      "metar_trigger": false,
      "taf_trigger": false,
      "metar": "METAR LPPR 201330Z 15005KT 120V200 9999 FEW025 17/12 Q1009",
      "taf": "TAF LPPR 201100Z 2012/2112 VRB05KT 9999 SCT020 SCT035"
    },
    {
      "icao": "LPPS",
      "alert": "OK",
      "vis_m": 9999,
      "fzfg": false,
      "metar_trigger": false,
      "taf_trigger": false,
      "metar": "METAR LPPS 201330Z 18014KT 9999 SCT014 18/12 Q0996",
      "taf": "TAF LPPS 201100Z 2012/2118 18015KT 9999 SCT015 SCT030"
    },
    {
      "icao": "LPPT",
      "alert": "OK",
      "vis_m": 9999,
      "fzfg": false,
      "metar_trigger": false,
      "taf_trigger": false,
      "metar": "METAR LPPT 201330Z VRB09KT 9999 -SHRA FEW012 BKN016 FEW020CB 14/13 Q1007",
      "taf": "TAF LPPT 201100Z 2012/2118 11010KT 9999 SCT015 SCT030"
    },
    {
      "icao": "LQBK",
      "alert": "OK",
      "vis_m": 9999,
      "fzfg": false,
      "metar_trigger": false,
      "taf_trigger": false,
      "metar": "METAR LQBK 201330Z 01007KT 9999 SCT047 11/M03 Q1015 NOSIG",
      "taf": ""
    },
    {
      "icao": "LQSA",
      "alert": "OK",
      "vis_m": 9999,
      "fzfg": false,
      "metar_trigger": false,
      "taf_trigger": false,
      "metar": "METAR LQSA 201330Z VRB04KT 9999 BKN060 07/M01 Q1013 NOSIG",
      "taf": "TAF LQSA 201100Z 2012/2112 35005KT 9999 BKN055 TX09/2013Z TN00/2105Z"
    },
    {
      "icao": "LQTZ",
      "alert": "OK",
      "vis_m": 9999,
      "fzfg": false,
      "metar_trigger": false,
      "taf_trigger": false,
      "metar": "METAR LQTZ 201330Z VRB05KT 9999 BKN060 10/00 Q1014",
      "taf": "TAF LQTZ 201100Z 2012/2112 26005KT 9999 SCT050 TX12/2013Z TNM01/2105Z"
    },
    {
      "icao": "LRBC",
      "alert": "OK",
      "vis_m": 9999,
      "fzfg": false,
      "metar_trigger": false,
      "taf_trigger": false,
      "metar": "METAR LRBC 201330Z 36015KT 9999 BKN058 11/M01 Q1013",
      "taf": "TAF LRBC 201100Z 2012/2021 36016KT 9999 SCT030 BKN045"
    },
    {
      "icao": "LRBS",
      "alert": "OK",
      "vis_m": 9999,
      "fzfg": false,
      "metar_trigger": false,
      "taf_trigger": false,
      "metar": "METAR LRBS 201330Z 36005KT 300V050 CAVOK 13/M01 Q1012 NOSIG",
      "taf": "TAF LRBS 201100Z 2012/2112 06010KT CAVOK"
    },
    {
      "icao": "LRBV",
      "alert": "OK",
      "vis_m": 9999,
      "fzfg": false,
      "metar_trigger": false,
      "taf_trigger": false,
      "metar": "METAR LRBV 201330Z 28005KT 240V330 9999 SCT042 SCT053 07/M02 Q1013",
      "taf": "TAF LRBV 201100Z 2012/2021 VRB04KT 9999 OVC035"
    },
    {
      "icao": "LRCL",
      "alert": "OK",
      "vis_m": 9999,
      "fzfg": false,
      "metar_trigger": false,
      "taf_trigger": false,
      "metar": "METAR LRCL 201330Z 05004KT 360V080 9999 BKN066 09/M04 Q1014",
      "taf": "TAF LRCL 201100Z 2012/2021 VRB04KT 9999 BKN045"
    },
    {
      "icao": "LRCV",
      "alert": "OK",
      "vis_m": 9999,
      "fzfg": false,
      "metar_trigger": false,
      "taf_trigger": false,
      "metar": "METAR LRCV 201330Z 24003KT 210V300 CAVOK 11/M03 Q1013",
      "taf": "TAF LRCV 201100Z 2012/2021 VRB04KT 9999 SCT040"
    },
    {
      "icao": "LRIA",
      "alert": "OK",
      "vis_m": 9999,
      "fzfg": false,
      "metar_trigger": false,
      "taf_trigger": false,
      "metar": "METAR LRIA 201330Z 36014KT 330V030 CAVOK 12/M03 Q1013",
      "taf": "TAF LRIA 201100Z 2012/2021 35014KT 9999 BKN045"
    },
    {
      "icao": "LROP",
      "alert": "OK",
      "vis_m": 9999,
      "fzfg": false,
      "metar_trigger": false,
      "taf_trigger": false,
      "metar": "METAR LROP 201330Z 34011KT CAVOK 12/M06 Q1012 NOSIG",
      "taf": "TAF LROP 201100Z 2012/2112 06010KT CAVOK"
    },
    {
      "icao": "LRSB",
      "alert": "OK",
      "vis_m": 9999,
      "fzfg": false,
      "metar_trigger": false,
      "taf_trigger": false,
      "metar": "METAR LRSB 201330Z 12004KT 070V160 9999 FEW043 OVC063 08/M03 Q1013",
      "taf": "TAF LRSB 201100Z 2012/2112 VRB04KT 9999 BKN050"
    },
    {
      "icao": "LRSM",
      "alert": "OK",
      "vis_m": 9999,
      "fzfg": false,
      "metar_trigger": false,
      "taf_trigger": false,
      "metar": "METAR LRSM 201330Z 07009KT 050V110 CAVOK 12/M02 Q1015",
      "taf": "TAF LRSM 201100Z 2012/2021 05007KT CAVOK"
    },
    {
      "icao": "LRSV",
      "alert": "OK",
      "vis_m": 9999,
      "fzfg": false,
      "metar_trigger": false,
      "taf_trigger": false,
      "metar": "METAR LRSV 201330Z 34011KT CAVOK 09/M02 Q1014",
      "taf": "TAF LRSV 201100Z 2012/2021 35012KT 9999 SCT040"
    },
    {
      "icao": "LRTM",
      "alert": "OK",
      "vis_m": 9999,
      "fzfg": false,
      "metar_trigger": false,
      "taf_trigger": false,
      "metar": "METAR LRTM 201330Z 07003KT 030V120 9999 FEW042 10/M02 Q1014",
      "taf": "TAF LRTM 201100Z 2012/2021 05006KT 9999 BKN045"
    },
    {
      "icao": "LRTR",
      "alert": "OK",
      "vis_m": 9999,
      "fzfg": false,
      "metar_trigger": false,
      "taf_trigger": false,
      "metar": "METAR LRTR 201330Z 01007KT CAVOK 12/M03 Q1014",
      "taf": "TAF LRTR 201100Z 2012/2112 VRB04KT CAVOK"
    },
    {
      "icao": "LTAC",
      "alert": "OK",
      "vis_m": 9999,
      "fzfg": false,
      "metar_trigger": false,
      "taf_trigger": false,
      "metar": "METAR LTAC 201320Z 03010KT 9999 FEW015 BKN030 BKN080 06/04 Q1000 NOSIG RMK RWY21C 04011KT RWY03L 03009KT RWY21R 03010KT RWY03R 01008KT RWY21L 04010KT",
      "taf": "TAF LTAC 201040Z 2012/2112 04012KT 9999 SCT035 SCT100"
    },
    {
      "icao": "LTFM",
      "alert": "OK",
      "vis_m": 3200,
      "fzfg": false,
      "metar_trigger": false,
      "taf_trigger": false,
      "metar": "METAR LTFM 201320Z 01019KT 3200 0700SE R35R/0900N R17L/1200N R34L/P1500N R36/0550N -RA BCFG BKN007 BKN020 06/05 Q1008 NOSIG RMK RWY17L 01018KT RWY34L 36020KT RWY16R 36018KT RWY36 01020KT RWY18 01016KT",
      "taf": "TAF LTFM 201040Z 2012/2118 35020G30KT 4000 -RA BR BKN009 BKN022"
    },
    {
      "icao": "LUKK",
      "alert": "OK",
      "vis_m": 9999,
      "fzfg": false,
      "metar_trigger": false,
      "taf_trigger": false,
      "metar": "METAR LUKK 201330Z 03017KT 360V060 CAVOK 13/M02 Q1011 TEMPO 03018G28KT",
      "taf": "TAF LUKK 201105Z 2012/2112 02014KT CAVOK"
    },
    {
      "icao": "LWOH",
      "alert": "OK",
      "vis_m": 9999,
      "fzfg": false,
      "metar_trigger": false,
      "taf_trigger": false,
      "metar": "METAR LWOH 201320Z 35011KT 310V040 9999 SCT035 SCT090 10/M03 Q1008",
      "taf": "TAF LWOH 201130Z 2012/2112 36012KT 9999 SCT040"
    },
    {
      "icao": "LWSK",
      "alert": "OK",
      "vis_m": 9999,
      "fzfg": false,
      "metar_trigger": false,
      "taf_trigger": false,
      "metar": "METAR LWSK 201320Z 36014KT 9999 FEW055 BKN075 10/M02 Q1011 NOSIG",
      "taf": "TAF LWSK 201130Z 2012/2112 36012KT 9999 FEW050 BKN070"
    },
    {
      "icao": "LYBE",
      "alert": "OK",
      "vis_m": 9999,
      "fzfg": false,
      "metar_trigger": false,
      "taf_trigger": false,
      "metar": "METAR LYBE 201330Z 01005KT 340V040 9999 FEW045 11/M01 Q1014 NOSIG",
      "taf": "TAF LYBE 201100Z 2012/2112 02007KT 9999 SCT045 TX13/2013Z TN04/2105Z"
    },
    {
      "icao": "LYNI",
      "alert": "OK",
      "vis_m": 9999,
      "fzfg": false,
      "metar_trigger": false,
      "taf_trigger": false,
      "metar": "METAR LYNI 201330Z 04007KT 9999 FEW040 OVC070 10/M03 Q1013 NOSIG",
      "taf": "TAF LYNI 201100Z 2012/2112 05007KT 9999 SCT050 BKN080 TX13/2112Z TN00/2105Z"
    },
    {
      "icao": "LYPG",
      "alert": "OK",
      "vis_m": 9999,
      "fzfg": false,
      "metar_trigger": false,
      "taf_trigger": false,
      "metar": "METAR LYPG 201330Z 36017G31KT 9999 FEW060 15/M04 Q1009 WS ALL RWY NOSIG",
      "taf": ""
    },
    {
      "icao": "LZIB",
      "alert": "OK",
      "vis_m": 9999,
      "fzfg": false,
      "metar_trigger": false,
      "taf_trigger": false,
      "metar": "METAR LZIB 201330Z 30005KT 260V040 CAVOK 15/M03 Q1016 NOSIG",
      "taf": "TAF LZIB 201115Z 2012/2112 35009KT CAVOK"
    },
    {
      "icao": "LZKZ",
      "alert": "OK",
      "vis_m": 9999,
      "fzfg": false,
      "metar_trigger": false,
      "taf_trigger": false,
      "metar": "METAR LZKZ 201330Z 36009KT CAVOK 12/M01 Q1016 NOSIG",
      "taf": "TAF LZKZ 200515Z 2006/2106 02006KT CAVOK"
    },
    {
      "icao": "LZTT",
      "alert": "OK",
      "vis_m": 9999,
      "fzfg": false,
      "metar_trigger": false,
      "taf_trigger": false,
      "metar": "METAR LZTT 201330Z 07011KT 9999 BKN053 09/M04 Q1015 NOSIG",
      "taf": "TAF LZTT 201115Z 2012/2112 07009KT 9999 FEW045 BKN060"
    },
    {
      "icao": "OEJN",
      "alert": "OK",
      "vis_m": null,
      "fzfg": false,
      "metar_trigger": false,
      "taf_trigger": false,
      "metar": "",
      "taf": "TAF OEJN 201100Z 2012/2118 30012KT 7000 FEW040"
    },
    {
      "icao": "OEMA",
      "alert": "OK",
      "vis_m": null,
      "fzfg": false,
      "metar_trigger": false,
      "taf_trigger": false,
      "metar": "",
      "taf": "TAF OEMA 201100Z 2012/2118 27010KT 7000 FEW045"
    },
    {
      "icao": "OJAI",
      "alert": "OK",
      "vis_m": 3500,
      "fzfg": false,
      "metar_trigger": false,
      "taf_trigger": false,
      "metar": "METAR OJAI 201300Z 24025KT 3500 BLDU SCT030 16/08 Q1007 NOSIG",
      "taf": "TAF OJAI 201047Z 2012/2118 24014KT 5000 HZ FEW025TCU SCT030 BKN035"
    },
    {
      "icao": "OMAA",
      "alert": "OK",
      "vis_m": null,
      "fzfg": false,
      "metar_trigger": false,
      "taf_trigger": false,
      "metar": "",
      "taf": ""
    },
    {
      "icao": "OMDB",
      "alert": "OK",
      "vis_m": null,
      "fzfg": false,
      "metar_trigger": false,
      "taf_trigger": false,
      "metar": "",
      "taf": ""
    },
    {
      "icao": "UAAA",
      "alert": "OK",
      "vis_m": 9999,
      "fzfg": false,
      "metar_trigger": false,
      "taf_trigger": false,
      "metar": "METAR UAAA 201330Z 05002MPS 9999 SCT100 BKN200 11/M04 Q1016 NOSIG",
      "taf": "TAF UAAA 201103Z 2012/2112 22002G07MPS 9999 SCT050 BKN100 TX15/2109Z TN00/2100Z"
    },
    {
      "icao": "UBBB",
      "alert": "OK",
      "vis_m": 9999,
      "fzfg": false,
      "metar_trigger": false,
      "taf_trigger": false,
      "metar": "METAR UBBB 201330Z 19010KT 160V220 CAVOK 12/09 Q1003 NOSIG",
      "taf": "TAF UBBB 201050Z 2012/2112 15005KT 9999 SCT012 BKN020 TX12/2012Z TN07/2101Z"
    },
    {
      "icao": "UDSG",
      "alert": "OK",
      "vis_m": 9999,
      "fzfg": false,
      "metar_trigger": false,
      "taf_trigger": false,
      "metar": "METAR UDSG 201330Z 17003KT 110V190 9999 FEW043CB SCT049 07/03 Q1004 NOSIG",
      "taf": "TAF UDSG 201058Z 2012/2112 VRB06KT 9999 BKN040"
    },
    {
      "icao": "UDYZ",
      "alert": "OK",
      "vis_m": 9999,
      "fzfg": false,
      "metar_trigger": false,
      "taf_trigger": false,
      "metar": "METAR UDYZ 201330Z 17006KT 9999 BKN033CB 13/07 Q1002 NOSIG",
      "taf": "TAF UDYZ 201100Z 2012/2112 22006KT 9999 BKN040"
    },
    {
      "icao": "UGKO",
      "alert": "OK",
      "vis_m": 9999,
      "fzfg": false,
      "metar_trigger": false,
      "taf_trigger": false,
      "metar": "METAR UGKO 201330Z 07020G30KT 9999 BKN067 15/05 Q1000 NOSIG",
      "taf": ""
    }
  ]
}