{
  "ts_utc": "2026-03-02T11:36:10Z",
  "threshold_m": 150,
  "source": "stations_override.txt (ICAO list) + aviationweather.gov (METAR/TAF raw)",
  "station_count": 159,
  "stations": [
    {
      "icao": "BIKF",
      "alert": "OK",
      "vis_m": 9999,
      "fzfg": false,
      "metar_trigger": false,
      "taf_trigger": false,
      "metar": "METAR BIKF 021130Z 35018KT 9999 BKN030 M02/M07 Q1004",
      "taf": "TAF BIKF 021055Z 0212/0312 33017KT 9999 BKN030 TXM00/0309Z TNM08/0300Z"
    },
    {
      "icao": "BKPR",
      "alert": "OK",
      "vis_m": 9999,
      "fzfg": false,
      "metar_trigger": false,
      "taf_trigger": false,
      "metar": "METAR BKPR 021130Z 13005KT 090V160 CAVOK 14/05 Q1024 NOSIG",
      "taf": "TAF BKPR 021130Z 0212/0312 17008KT 9999 SCT050"
    },
    {
      "icao": "EBCI",
      "alert": "OK",
      "vis_m": 9999,
      "fzfg": false,
      "metar_trigger": false,
      "taf_trigger": false,
      "metar": "METAR EBCI 021120Z 18011KT 150V210 CAVOK 14/03 Q1020 NOSIG",
      "taf": "TAF EBCI 021100Z 0212/0318 17010KT CAVOK"
    },
    {
      "icao": "EDDB",
      "alert": "OK",
      "vis_m": 9999,
      "fzfg": false,
      "metar_trigger": false,
      "taf_trigger": false,
      "metar": "METAR EDDB 021120Z AUTO 20008KT 160V230 CAVOK 14/04 Q1025 NOSIG",
      "taf": "TAF EDDB 021100Z 0212/0312 20005KT CAVOK"
    },
    {
      "icao": "EDDH",
      "alert": "OK",
      "vis_m": 9999,
      "fzfg": false,
      "metar_trigger": false,
      "taf_trigger": false,
      "metar": "METAR EDDH 021120Z AUTO 18009KT CAVOK 14/05 Q1022 NOSIG",
      "taf": "TAF EDDH 021100Z 0212/0318 19009KT CAVOK"
    },
    {
      "icao": "EDDK",
      "alert": "OK",
      "vis_m": 9999,
      "fzfg": false,
      "metar_trigger": false,
      "taf_trigger": false,
      "metar": "METAR EDDK 021120Z AUTO 15013KT 120V180 CAVOK 15/04 Q1022 NOSIG",
      "taf": "TAF EDDK 021100Z 0212/0318 14011KT CAVOK"
    },
    {
      "icao": "EDDN",
      "alert": "OK",
      "vis_m": 9999,
      "fzfg": false,
      "metar_trigger": false,
      "taf_trigger": false,
      "metar": "METAR EDDN 021120Z AUTO 17009KT CAVOK 12/04 Q1024 NOSIG",
      "taf": "TAF EDDN 021100Z 0212/0312 13004KT 9999 FEW035"
    },
    {
      "icao": "EDDS",
      "alert": "OK",
      "vis_m": 9999,
      "fzfg": false,
      "metar_trigger": false,
      "taf_trigger": false,
      "metar": "METAR EDDS 021120Z AUTO VRB02KT CAVOK 11/04 Q1023 NOSIG",
      "taf": "TAF EDDS 021100Z 0212/0312 VRB03KT CAVOK"
    },
    {
      "icao": "EDFH",
      "alert": "OK",
      "vis_m": 9999,
      "fzfg": false,
      "metar_trigger": false,
      "taf_trigger": false,
      "metar": "METAR EDFH 021120Z 14010KT 080V170 CAVOK 10/03 Q1022",
      "taf": "TAF EDFH 021100Z 0212/0312 14010KT CAVOK"
    },
    {
      "icao": "EDJA",
      "alert": "OK",
      "vis_m": 9999,
      "fzfg": false,
      "metar_trigger": false,
      "taf_trigger": false,
      "metar": "METAR EDJA 021120Z 36004KT CAVOK 08/04 Q1023",
      "taf": "TAF EDJA 021100Z 0212/0221 VRB02KT CAVOK"
    },
    {
      "icao": "EDLW",
      "alert": "OK",
      "vis_m": 9999,
      "fzfg": false,
      "metar_trigger": false,
      "taf_trigger": false,
      "metar": "METAR EDLW 021120Z 19011KT 160V220 CAVOK 15/02 Q1022",
      "taf": "TAF EDLW 021100Z 0212/0312 17007KT CAVOK"
    },
    {
      "icao": "EDNY",
      "alert": "OK",
      "vis_m": 6000,
      "fzfg": false,
      "metar_trigger": false,
      "taf_trigger": false,
      "metar": "METAR EDNY 021120Z VRB02KT 6000 OVC002 04/03 Q1024",
      "taf": "TAF EDNY 021100Z 0212/0221 VRB03KT 3000 BR BKN003"
    },
    {
      "icao": "EDSB",
      "alert": "OK",
      "vis_m": 9999,
      "fzfg": false,
      "metar_trigger": false,
      "taf_trigger": false,
      "metar": "METAR EDSB 021120Z VRB02KT CAVOK 11/04 Q1023",
      "taf": "TAF EDSB 021100Z 0212/0312 VRB03KT CAVOK"
    },
    {
      "icao": "EETN",
      "alert": "OK",
      "vis_m": 9000,
      "fzfg": false,
      "metar_trigger": false,
      "taf_trigger": false,
      "metar": "METAR EETN 021120Z 31009KT 9000 -SN OVC005 01/01 Q1014 NOSIG",
      "taf": "TAF EETN 021130Z 0212/0312 32012KT 9999 BKN005 OVC010"
    },
    {
      "icao": "EFTU",
      "alert": "OK",
      "vis_m": 9999,
      "fzfg": false,
      "metar_trigger": false,
      "taf_trigger": false,
      "metar": "METAR EFTU 021120Z AUTO 33005KT 290V010 9999 OVC005 01/00 Q1017",
      "taf": "TAF EFTU 020830Z 0209/0309 35010KT 9999 BKN006"
    },
    {
      "icao": "EGBB",
      "alert": "OK",
      "vis_m": 9999,
      "fzfg": false,
      "metar_trigger": false,
      "taf_trigger": false,
      "metar": "METAR EGBB 021120Z 18009KT 9999 BKN021 12/07 Q1012",
      "taf": "TAF EGBB 021056Z 0212/0312 18012KT 9999 SCT030"
    },
    {
      "icao": "EGGP",
      "alert": "OK",
      "vis_m": 9999,
      "fzfg": false,
      "metar_trigger": false,
      "taf_trigger": false,
      "metar": "METAR EGGP 021120Z 17011KT 9999 FEW019 12/07 Q1009",
      "taf": "TAF EGGP 021057Z 0212/0312 17012KT 9999 SCT025"
    },
    {
      "icao": "EGGW",
      "alert": "OK",
      "vis_m": 9999,
      "fzfg": false,
      "metar_trigger": false,
      "taf_trigger": false,
      "metar": "METAR EGGW 021120Z AUTO 18009KT 150V210 9999 NCD 12/07 Q1014",
      "taf": "TAF EGGW 021056Z 0212/0312 18010KT 9999 SCT025"
    },
    {
      "icao": "EGKK",
      "alert": "OK",
      "vis_m": 9999,
      "fzfg": false,
      "metar_trigger": false,
      "taf_trigger": false,
      "metar": "METAR EGKK 021120Z 19008KT 150V210 CAVOK 12/07 Q1015",
      "taf": "TAF EGKK 021054Z 0212/0318 18010KT 9999 FEW030"
    },
    {
      "icao": "EGNM",
      "alert": "OK",
      "vis_m": 9999,
      "fzfg": false,
      "metar_trigger": false,
      "taf_trigger": false,
      "metar": "METAR EGNM 021120Z 21018KT 9999 SCT022 12/07 Q1009",
      "taf": "TAF EGNM 021056Z 0212/0312 18010KT 9999 SCT025"
    },
    {
      "icao": "EGPD",
      "alert": "OK",
      "vis_m": 9999,
      "fzfg": false,
      "metar_trigger": false,
      "taf_trigger": false,
      "metar": "METAR EGPD 021120Z COR AUTO 22014KT 9999 NCD 11/05 Q1003 NOSIG",
      "taf": "TAF EGPD 021054Z 0212/0312 21009KT 9999 FEW040"
    },
    {
      "icao": "EGPF",
      "alert": "OK",
      "vis_m": 9999,
      "fzfg": false,
      "metar_trigger": false,
      "taf_trigger": false,
      "metar": "METAR EGPF 021120Z AUTO 21013KT 9999 BKN019 10/06 Q1005",
      "taf": "TAF EGPF 021057Z 0212/0312 21012KT 9999 FEW016 SCT030"
    },
    {
      "icao": "EHBK",
      "alert": "OK",
      "vis_m": 9999,
      "fzfg": false,
      "metar_trigger": false,
      "taf_trigger": false,
      "metar": "METAR EHBK 021125Z AUTO 19012KT 140V220 9999 NCD 15/04 Q1020 NOSIG",
      "taf": "TAF EHBK 021100Z 0212/0318 18011KT CAVOK"
    },
    {
      "icao": "EHEH",
      "alert": "OK",
      "vis_m": 9999,
      "fzfg": false,
      "metar_trigger": false,
      "taf_trigger": false,
      "metar": "METAR EHEH 021125Z AUTO 16012KT 130V210 9999 NCD 15/04 Q1020 BLU NOSIG RMK TREND REMOTE BY EHWX",
      "taf": "TAF EHEH 021111Z 0212/0318 17008KT CAVOK"
    },
    {
      "icao": "EKBI",
      "alert": "OK",
      "vis_m": 9999,
      "fzfg": false,
      "metar_trigger": false,
      "taf_trigger": false,
      "metar": "METAR EKBI 021120Z AUTO 21008KT 9999 FEW017/// FEW036/// 11/07 Q1021",
      "taf": "TAF EKBI 021127Z 0212/0312 21008KT 9999 SCT012"
    },
    {
      "icao": "EKCH",
      "alert": "OK",
      "vis_m": 9999,
      "fzfg": false,
      "metar_trigger": false,
      "taf_trigger": false,
      "metar": "METAR EKCH 021120Z 21006KT 9999 BKN014 OVC050 08/06 Q1023 BECMG BKN020",
      "taf": "TAF EKCH 021127Z 0212/0312 22010KT 9999 BKN014"
    },
    {
      "icao": "ENAL",
      "alert": "OK",
      "vis_m": 9999,
      "fzfg": false,
      "metar_trigger": false,
      "taf_trigger": false,
      "metar": "METAR ENAL 021120Z 19009KT 160V220 9999 -RA FEW042 SCT055 10/04 Q1004",
      "taf": "TAF ENAL 021100Z 0212/0221 18015KT 9999 BKN045"
    },
    {
      "icao": "ENBR",
      "alert": "OK",
      "vis_m": 9999,
      "fzfg": false,
      "metar_trigger": false,
      "taf_trigger": false,
      "metar": "METAR ENBR 021120Z 15017KT 9999 -RA FEW006 BKN010 07/06 Q1009 TEMPO 15018G28KT 4000 RADZ BR BKN006 RMK WIND 1200FT 16030G42KT",
      "taf": "TAF ENBR 021100Z 0212/0312 16020G30KT 9999 FEW008 BKN015"
    },
    {
      "icao": "ENGM",
      "alert": "OK",
      "vis_m": 9999,
      "fzfg": false,
      "metar_trigger": false,
      "taf_trigger": false,
      "metar": "METAR ENGM 021120Z 15003KT 120V180 9999 -RASN SCT004 OVC006 00/M01 Q1018 TEMPO 2000 -RASN BR VV004",
      "taf": "TAF ENGM 021100Z 0212/0312 VRB03KT 9999 -RASN SCT003 BKN012"
    },
    {
      "icao": "ENHD",
      "alert": "OK",
      "vis_m": 8000,
      "fzfg": false,
      "metar_trigger": false,
      "taf_trigger": false,
      "metar": "METAR ENHD 021120Z 16018KT 8000 -DZ SCT003 OVC005 07/06 Q1011",
      "taf": "TAF ENHD 021100Z 0212/0221 14020KT 8000 FEW006 BKN009"
    },
    {
      "icao": "ENTC",
      "alert": "OK",
      "vis_m": 9999,
      "fzfg": false,
      "metar_trigger": false,
      "taf_trigger": false,
      "metar": "METAR ENTC 021120Z 19011KT 9999 -DZRA FEW015 SCT025 BKN029 02/00 Q1015 NOSIG RMK WIND 2600FT 21010KT",
      "taf": "TAF ENTC 021100Z 0212/0312 19012KT 9999 -SHRA FEW025 BKN045"
    },
    {
      "icao": "ENTO",
      "alert": "OK",
      "vis_m": 350,
      "fzfg": false,
      "metar_trigger": false,
      "taf_trigger": false,
      "metar": "METAR ENTO 021120Z 04003KT 0350 R18/0650N R36/0700N FG VV002 00/00 Q1018 TEMPO 1200 -DZ BR VV001",
      "taf": "TAF ENTO 021100Z 0212/0312 02003KT 0100 -DZ FG VV001"
    },
    {
      "icao": "ENVA",
      "alert": "OK",
      "vis_m": 9999,
      "fzfg": false,
      "metar_trigger": false,
      "taf_trigger": false,
      "metar": "METAR ENVA 021120Z 11009KT 070V140 CAVOK 06/M03 Q1010 NOSIG RMK WIND 670FT 15016KT",
      "taf": "TAF ENVA 021100Z 0212/0312 14012KT CAVOK"
    },
    {
      "icao": "ENZV",
      "alert": "OK",
      "vis_m": 9999,
      "fzfg": false,
      "metar_trigger": false,
      "taf_trigger": false,
      "metar": "METAR ENZV 021120Z 17017KT 9999 FEW006 BKN009 BKN012 08/07 Q1012 REDZRA TEMPO 4000 -RADZ BR BKN005",
      "taf": "TAF ENZV 021100Z 0212/0312 15018KT 9999 SCT007 BKN015"
    },
    {
      "icao": "EPGD",
      "alert": "OK",
      "vis_m": 9999,
      "fzfg": false,
      "metar_trigger": false,
      "taf_trigger": false,
      "metar": "METAR EPGD 021130Z 26008KT CAVOK 10/M00 Q1023",
      "taf": "TAF EPGD 021130Z 0212/0312 26007KT CAVOK"
    },
    {
      "icao": "EPKK",
      "alert": "OK",
      "vis_m": 9999,
      "fzfg": false,
      "metar_trigger": false,
      "taf_trigger": false,
      "metar": "METAR EPKK 021130Z VRB02KT 9999 SCT032 09/00 Q1027",
      "taf": "TAF EPKK 021130Z 0212/0312 04004KT 9999 SCT040"
    },
    {
      "icao": "EPKT",
      "alert": "OK",
      "vis_m": 9999,
      "fzfg": false,
      "metar_trigger": false,
      "taf_trigger": false,
      "metar": "METAR EPKT 021130Z 29004KT 9999 FEW031 09/01 Q1026",
      "taf": "TAF EPKT 021130Z 0212/0312 VRB02KT 9999 FEW020"
    },
    {
      "icao": "EPLB",
      "alert": "OK",
      "vis_m": 9999,
      "fzfg": false,
      "metar_trigger": false,
      "taf_trigger": false,
      "metar": "METAR EPLB 021130Z 25009KT CAVOK 09/03 Q1026",
      "taf": "TAF EPLB 021130Z 0212/0312 27010KT CAVOK"
    },
    {
      "icao": "EPMO",
      "alert": "OK",
      "vis_m": 9999,
      "fzfg": false,
      "metar_trigger": false,
      "taf_trigger": false,
      "metar": "METAR EPMO 021130Z 25011KT CAVOK 11/02 Q1026",
      "taf": "TAF EPMO 021130Z 0212/0312 25010KT CAVOK"
    },
    {
      "icao": "EPPO",
      "alert": "OK",
      "vis_m": 9999,
      "fzfg": false,
      "metar_trigger": false,
      "taf_trigger": false,
      "metar": "METAR EPPO 021130Z 22009KT CAVOK 13/01 Q1026",
      "taf": "TAF EPPO 021130Z 0212/0312 20010KT CAVOK"
    },
    {
      "icao": "EPRA",
      "alert": "OK",
      "vis_m": 9999,
      "fzfg": false,
      "metar_trigger": false,
      "taf_trigger": false,
      "metar": "METAR EPRA 021130Z 29007KT 9999 FEW033 10/M01 Q1026",
      "taf": "TAF EPRA 021130Z 0212/0221 26005KT CAVOK"
    },
    {
      "icao": "EPRZ",
      "alert": "OK",
      "vis_m": 9999,
      "fzfg": false,
      "metar_trigger": false,
      "taf_trigger": false,
      "metar": "METAR EPRZ 021130Z VRB03KT 9999 SCT030 09/02 Q1027",
      "taf": "TAF EPRZ 021130Z 0212/0312 34005KT 9999 FEW030"
    },
    {
      "icao": "EPSC",
      "alert": "OK",
      "vis_m": 9999,
      "fzfg": false,
      "metar_trigger": false,
      "taf_trigger": false,
      "metar": "METAR EPSC 021130Z 20005KT 170V230 CAVOK 10/02 Q1024",
      "taf": "TAF EPSC 021130Z 0212/0312 21006KT CAVOK"
    },
    {
      "icao": "EPSY",
      "alert": "OK",
      "vis_m": 9999,
      "fzfg": false,
      "metar_trigger": false,
      "taf_trigger": false,
      "metar": "METAR EPSY 021130Z 26012KT 230V290 CAVOK 09/00 Q1024",
      "taf": "TAF EPSY 021130Z 0212/0221 25010KT CAVOK"
    },
    {
      "icao": "EPWA",
      "alert": "OK",
      "vis_m": 9999,
      "fzfg": false,
      "metar_trigger": false,
      "taf_trigger": false,
      "metar": "METAR EPWA 021130Z 26007KT 220V290 CAVOK 11/01 Q1026 NOSIG",
      "taf": "TAF EPWA 021130Z 0212/0312 26010KT CAVOK"
    },
    {
      "icao": "EPWR",
      "alert": "OK",
      "vis_m": 9999,
      "fzfg": false,
      "metar_trigger": false,
      "taf_trigger": false,
      "metar": "METAR EPWR 021130Z 18006KT 160V230 CAVOK 12/01 Q1027",
      "taf": "TAF EPWR 021130Z 0212/0312 20004KT CAVOK"
    },
    {
      "icao": "ESGG",
      "alert": "OK",
      "vis_m": 300,
      "fzfg": false,
      "metar_trigger": false,
      "taf_trigger": false,
      "metar": "METAR ESGG 021120Z 16005KT 0300 R03/0600N R21/0800D FG VV002 04/04 Q1020",
      "taf": "TAF ESGG 021130Z 0212/0312 16005KT 3000 BR OVC002"
    },
    {
      "icao": "ESKN",
      "alert": "OK",
      "vis_m": 9999,
      "fzfg": false,
      "metar_trigger": false,
      "taf_trigger": false,
      "metar": "METAR ESKN 021120Z 25005KT 200V280 9999 FEW007 02/01 Q1021",
      "taf": "TAF ESKN 021130Z 0212/0312 28006KT CAVOK"
    },
    {
      "icao": "ESMS",
      "alert": "OK",
      "vis_m": 9000,
      "fzfg": false,
      "metar_trigger": false,
      "taf_trigger": false,
      "metar": "METAR ESMS 021120Z 21005KT 9000 FEW008 SCT011 OVC014 06/06 Q1023",
      "taf": "TAF ESMS 021127Z 0212/0312 20006KT 4500 BR BKN008"
    },
    {
      "icao": "ESSA",
      "alert": "OK",
      "vis_m": 9999,
      "fzfg": false,
      "metar_trigger": false,
      "taf_trigger": false,
      "metar": "METAR ESSA 021120Z 28007KT CAVOK 04/M01 Q1020 NOSIG",
      "taf": "TAF ESSA 021130Z 0212/0312 28007KT CAVOK"
    },
    {
      "icao": "EYKA",
      "alert": "OK",
      "vis_m": 9999,
      "fzfg": false,
      "metar_trigger": false,
      "taf_trigger": false,
      "metar": "METAR EYKA 021120Z 28010KT 250V330 9999 SCT020 04/M01 Q1022",
      "taf": "TAF EYKA 021100Z 0212/0312 28010KT 9000 SCT025"
    },
    {
      "icao": "EYPA",
      "alert": "OK",
      "vis_m": 9999,
      "fzfg": false,
      "metar_trigger": false,
      "taf_trigger": false,
      "metar": "METAR EYPA 021120Z 30004KT 250V350 CAVOK 03/01 Q1022",
      "taf": "TAF EYPA 021100Z 0212/0312 VRB02KT 9000 FEW030"
    },
    {
      "icao": "EYVI",
      "alert": "OK",
      "vis_m": 9999,
      "fzfg": false,
      "metar_trigger": false,
      "taf_trigger": false,
      "metar": "METAR EYVI 021120Z 28012KT 9999 BKN021 03/M02 Q1020 NOSIG",
      "taf": "TAF EYVI 021100Z 0212/0312 29010KT 9000 SCT015"
    },
    {
      "icao": "GCFV",
      "alert": "OK",
      "vis_m": 9999,
      "fzfg": false,
      "metar_trigger": false,
      "taf_trigger": false,
      "metar": "METAR GCFV 021130Z 32010KT 250V350 9999 BKN038 19/09 Q1018",
      "taf": ""
    },
    {
      "icao": "GCLP",
      "alert": "OK",
      "vis_m": 9999,
      "fzfg": false,
      "metar_trigger": false,
      "taf_trigger": false,
      "metar": "METAR GCLP 021130Z 36014KT 330V030 9999 BKN047 19/08 Q1019 NOSIG",
      "taf": "TAF GCLP 020800Z 0209/0309 35013KT 9999 SCT040 TX22/0214Z TN13/0306Z"
    },
    {
      "icao": "GCTS",
      "alert": "OK",
      "vis_m": 9999,
      "fzfg": false,
      "metar_trigger": false,
      "taf_trigger": false,
      "metar": "METAR GCTS 021130Z 15005KT 070V210 9999 FEW035 BKN050 19/08 Q1019 NOSIG",
      "taf": "TAF GCTS 020800Z 0209/0309 13009KT 9999 SCT035 TX22/0214Z TN12/0306Z"
    },
    {
      "icao": "GMAD",
      "alert": "OK",
      "vis_m": 6000,
      "fzfg": false,
      "metar_trigger": false,
      "taf_trigger": false,
      "metar": "METAR GMAD 021130Z 21005KT 6000 SCT013 BKN100 20/14 Q1013 NOSIG",
      "taf": "TAF GMAD 021100Z 0212/0318 27012KT 8000 SCT020 BKN100"
    },
    {
      "icao": "GMMN",
      "alert": "OK",
      "vis_m": 6000,
      "fzfg": false,
      "metar_trigger": false,
      "taf_trigger": false,
      "metar": "METAR GMMN 021130Z 23008KT 190V260 6000 BKN008 16/13 Q1013 NOSIG",
      "taf": "TAF GMMN 021100Z 0212/0318 20011KT 6000 BKN008"
    },
    {
      "icao": "GMMX",
      "alert": "OK",
      "vis_m": 8000,
      "fzfg": false,
      "metar_trigger": false,
      "taf_trigger": false,
      "metar": "METAR GMMX 021130Z 29006KT 240V320 8000 OVC010 15/13 Q1014 NOSIG",
      "taf": "TAF GMMX 021100Z 0212/0318 24008KT 8000 SCT020"
    },
    {
      "icao": "HEGN",
      "alert": "OK",
      "vis_m": 9999,
      "fzfg": false,
      "metar_trigger": false,
      "taf_trigger": false,
      "metar": "METAR HEGN 021100Z 36012KT 9999 SCT025 20/03 Q1015 NOSIG",
      "taf": "TAF HEGN 021100Z 0212/0318 35019KT CAVOK"
    },
    {
      "icao": "HEMA",
      "alert": "OK",
      "vis_m": 9999,
      "fzfg": false,
      "metar_trigger": false,
      "taf_trigger": false,
      "metar": "METAR HEMA 021100Z 03010KT CAVOK 21/03 Q1014 NOSIG",
      "taf": "TAF HEMA 021100Z 0212/0318 01016KT CAVOK"
    },
    {
      "icao": "HESH",
      "alert": "OK",
      "vis_m": 9999,
      "fzfg": false,
      "metar_trigger": false,
      "taf_trigger": false,
      "metar": "METAR HESH 021100Z 36010KT CAVOK 21/04 Q1015 NOSIG",
      "taf": "TAF HESH 021100Z 0212/0318 02013KT CAVOK"
    },
    {
      "icao": "HESX",
      "alert": "OK",
      "vis_m": 9999,
      "fzfg": false,
      "metar_trigger": false,
      "taf_trigger": false,
      "metar": "METAR HESX 021100Z 01012KT 9999 SCT025 16/06 Q1019 NOSIG",
      "taf": "TAF HESX 021100Z 0212/0318 02012KT 9999 SCT025"
    },
    {
      "icao": "LATI",
      "alert": "OK",
      "vis_m": 9999,
      "fzfg": false,
      "metar_trigger": false,
      "taf_trigger": false,
      "metar": "METAR LATI 021120Z VRB02KT 9999 FEW045 17/08 Q1027 NOSIG",
      "taf": "TAF LATI 021100Z 0212/0312 VRB05KT 9999 SCT035 BKN090 TX19/0312Z TN06/0304Z"
    },
    {
      "icao": "LBPD",
      "alert": "OK",
      "vis_m": 9999,
      "fzfg": false,
      "metar_trigger": false,
      "taf_trigger": false,
      "metar": "METAR LBPD 021130Z AUTO VRB03KT 9999 FEW220/// 12/01 Q1025 NOSIG",
      "taf": "TAF LBPD 021100Z 0212/0312 VRB03KT CAVOK"
    },
    {
      "icao": "LBSF",
      "alert": "OK",
      "vis_m": 9999,
      "fzfg": false,
      "metar_trigger": false,
      "taf_trigger": false,
      "metar": "METAR LBSF 021130Z VRB02KT CAVOK 11/M02 Q1024 NOSIG",
      "taf": "TAF LBSF 021100Z 0212/0312 VRB04KT CAVOK"
    },
    {
      "icao": "LBWN",
      "alert": "OK",
      "vis_m": 9999,
      "fzfg": false,
      "metar_trigger": false,
      "taf_trigger": false,
      "metar": "METAR LBWN 021130Z 11009KT CAVOK 12/03 Q1024 NOSIG",
      "taf": "TAF LBWN 021100Z 0212/0312 11010KT 9999 SCT045"
    },
    {
      "icao": "LCLK",
      "alert": "OK",
      "vis_m": 9999,
      "fzfg": false,
      "metar_trigger": false,
      "taf_trigger": false,
      "metar": "METAR LCLK 021130Z 03007KT 340V110 9999 SCT025 SCT050 18/05 Q1021 NOSIG",
      "taf": "TAF LCLK 021130Z 0212/0312 02012KT 9999 FEW040"
    },
    {
      "icao": "LCPH",
      "alert": "OK",
      "vis_m": 9999,
      "fzfg": false,
      "metar_trigger": false,
      "taf_trigger": false,
      "metar": "METAR LCPH 021130Z AUTO 31017KT 9999 OVC060 17/06 Q1021 NOSIG",
      "taf": "TAF LCPH 021130Z 0212/0312 31014KT 9999 FEW040"
    },
    {
      "icao": "LEAL",
      "alert": "OK",
      "vis_m": 9999,
      "fzfg": false,
      "metar_trigger": false,
      "taf_trigger": false,
      "metar": "METAR LEAL 021130Z 07014KT 9999 FEW014 SCT035 16/12 Q1019 NOSIG",
      "taf": "TAF LEAL 021100Z 0212/0312 05015KT 9999 BKN020 TX18/0212Z TN13/0307Z"
    },
    {
      "icao": "LEBB",
      "alert": "OK",
      "vis_m": 9999,
      "fzfg": false,
      "metar_trigger": false,
      "taf_trigger": false,
      "metar": "METAR LEBB 021130Z 12010KT 080V160 9999 FEW030 17/07 Q1013 NOSIG",
      "taf": "TAF LEBB 021100Z 0212/0312 14009KT CAVOK TX19/0215Z TN08/0306Z"
    },
    {
      "icao": "LEBL",
      "alert": "OK",
      "vis_m": 9999,
      "fzfg": false,
      "metar_trigger": false,
      "taf_trigger": false,
      "metar": "METAR LEBL 021130Z 05004KT 340V100 9999 BKN045 14/10 Q1021 NOSIG",
      "taf": "TAF LEBL 021100Z 0212/0312 12009KT 9999 BKN040 TX15/0212Z TN12/0306Z"
    },
    {
      "icao": "LECH",
      "alert": "OK",
      "vis_m": 9999,
      "fzfg": false,
      "metar_trigger": false,
      "taf_trigger": false,
      "metar": "METAR LECH 021130Z AUTO 00000KT 9999 OVC027 13/05 Q1021",
      "taf": ""
    },
    {
      "icao": "LEMD",
      "alert": "OK",
      "vis_m": 9999,
      "fzfg": false,
      "metar_trigger": false,
      "taf_trigger": false,
      "metar": "METAR LEMD 021130Z 19003KT 130V280 9999 FEW025 11/04 Q1016 NOSIG",
      "taf": ""
    },
    {
      "icao": "LEMG",
      "alert": "OK",
      "vis_m": 9999,
      "fzfg": false,
      "metar_trigger": false,
      "taf_trigger": false,
      "metar": "METAR LEMG 021130Z 14007KT 100V170 9999 SCT017 15/10 Q1015 NOSIG",
      "taf": "TAF LEMG 021100Z 0212/0312 14010KT 9999 FEW025 TX19/0214Z TN13/0307Z"
    },
    {
      "icao": "LEVC",
      "alert": "OK",
      "vis_m": 9999,
      "fzfg": false,
      "metar_trigger": false,
      "taf_trigger": false,
      "metar": "METAR LEVC 021130Z 02003KT 310V100 9999 SCT030 BKN038 OVC042 13/09 Q1020 NOSIG",
      "taf": "TAF LEVC 021100Z 0212/0312 09008KT 9999 BKN020 TX16/0212Z TN12/0307Z"
    },
    {
      "icao": "LEXJ",
      "alert": "OK",
      "vis_m": 9999,
      "fzfg": false,
      "metar_trigger": false,
      "taf_trigger": false,
      "metar": "METAR LEXJ 021130Z 21010G20KT 160V250 CAVOK 16/04 Q1011",
      "taf": "TAF LEXJ 020800Z 0209/0309 20009KT CAVOK TX20/0215Z TN05/0302Z"
    },
    {
      "icao": "LEZG",
      "alert": "OK",
      "vis_m": 9999,
      "fzfg": false,
      "metar_trigger": false,
      "taf_trigger": false,
      "metar": "METAR LEZG 021130Z 10011KT 9999 SCT018 13/08 Q1019 NOSIG",
      "taf": "TAF LEZG 021100Z 0212/0312 11010KT 9999 BKN015 TX19/0215Z TN08/0306Z"
    },
    {
      "icao": "LEZL",
      "alert": "OK",
      "vis_m": 9999,
      "fzfg": false,
      "metar_trigger": false,
      "taf_trigger": false,
      "metar": "METAR LEZL 021130Z 09006KT 040V150 CAVOK 20/10 Q1012 NOSIG",
      "taf": "TAF LEZL 020800Z 0209/0309 04006KT CAVOK TX22/0215Z TN10/0307Z"
    },
    {
      "icao": "LFBD",
      "alert": "OK",
      "vis_m": 9999,
      "fzfg": false,
      "metar_trigger": false,
      "taf_trigger": false,
      "metar": "METAR LFBD 021130Z AUTO 13011KT CAVOK 17/09 Q1016 NOSIG",
      "taf": "TAF LFBD 020500Z 0206/0312 13010KT CAVOK TX18/0214Z TN06/0305Z"
    },
    {
      "icao": "LFLL",
      "alert": "OK",
      "vis_m": 9999,
      "fzfg": false,
      "metar_trigger": false,
      "taf_trigger": false,
      "metar": "METAR LFLL 021130Z 18014KT 9999 FEW045 15/05 Q1021 NOSIG",
      "taf": "TAF LFLL 021100Z 0212/0318 15010KT CAVOK"
    },
    {
      "icao": "LFLS",
      "alert": "OK",
      "vis_m": 9999,
      "fzfg": false,
      "metar_trigger": false,
      "taf_trigger": false,
      "metar": "METAR LFLS 021130Z AUTO VRB03KT 9999 FEW054 14/07 Q1021 NOSIG",
      "taf": "TAF LFLS 020800Z 0209/0309 08006KT 9999 BKN030"
    },
    {
      "icao": "LFMN",
      "alert": "OK",
      "vis_m": 9999,
      "fzfg": false,
      "metar_trigger": false,
      "taf_trigger": false,
      "metar": "METAR LFMN 021130Z 08014KT 9999 FEW020 16/11 Q1024 NOSIG",
      "taf": "TAF LFMN 020800Z 0209/0315 08012KT 9999 SCT020 BKN060"
    },
    {
      "icao": "LFOB",
      "alert": "OK",
      "vis_m": 9999,
      "fzfg": false,
      "metar_trigger": false,
      "taf_trigger": false,
      "metar": "METAR LFOB 021130Z AUTO 17009KT 9999 FEW014 15/06 Q1018 NOSIG",
      "taf": "TAF LFOB 020500Z 0206/0306 14007KT CAVOK"
    },
    {
      "icao": "LFPO",
      "alert": "OK",
      "vis_m": 9999,
      "fzfg": false,
      "metar_trigger": false,
      "taf_trigger": false,
      "metar": "METAR LFPO 021130Z 17005KT 130V210 CAVOK 15/05 Q1018 NOSIG",
      "taf": "TAF LFPO 021100Z 0212/0318 17005KT CAVOK"
    },
    {
      "icao": "LFSB",
      "alert": "OK",
      "vis_m": 9999,
      "fzfg": false,
      "metar_trigger": false,
      "taf_trigger": false,
      "metar": "METAR LFSB 021130Z AUTO 11003KT 050V140 CAVOK 14/05 Q1022 NOSIG",
      "taf": "TAF LFSB 020500Z 0206/0306 13005KT CAVOK"
    },
    {
      "icao": "LGAV",
      "alert": "OK",
      "vis_m": 9999,
      "fzfg": false,
      "metar_trigger": false,
      "taf_trigger": false,
      "metar": "METAR LGAV 021120Z 06009KT CAVOK 15/04 Q1026 NOSIG",
      "taf": "TAF LGAV 021100Z 0212/0312 06010KT 9999 FEW025"
    },
    {
      "icao": "LGTS",
      "alert": "OK",
      "vis_m": 9999,
      "fzfg": false,
      "metar_trigger": false,
      "taf_trigger": false,
      "metar": "METAR LGTS 021120Z 32007KT CAVOK 13/08 Q1026 NOSIG",
      "taf": "TAF LGTS 021100Z 0212/0312 VRB03KT 9999 FEW025"
    },
    {
      "icao": "LHBP",
      "alert": "OK",
      "vis_m": 9999,
      "fzfg": false,
      "metar_trigger": false,
      "taf_trigger": false,
      "metar": "METAR LHBP 021130Z VRB02KT CAVOK 13/00 Q1026 NOSIG",
      "taf": "TAF LHBP 021115Z 0212/0312 VRB03KT CAVOK"
    },
    {
      "icao": "LHDC",
      "alert": "OK",
      "vis_m": 9999,
      "fzfg": false,
      "metar_trigger": false,
      "taf_trigger": false,
      "metar": "METAR LHDC 021115Z AUTO VRB03KT CAVOK 11/01 Q1026 NOSIG",
      "taf": "TAF LHDC 021115Z 0212/0221 VRB02KT 8000 NSC"
    },
    {
      "icao": "LIBD",
      "alert": "OK",
      "vis_m": 9000,
      "fzfg": false,
      "metar_trigger": false,
      "taf_trigger": false,
      "metar": "METAR LIBD 021120Z 36003KT 300V080 9000 SCT030 15/10 Q1026",
      "taf": "TAF LIBD 021100Z 0212/0312 06010KT 9999 SCT030"
    },
    {
      "icao": "LIBG",
      "alert": "OK",
      "vis_m": 8000,
      "fzfg": false,
      "metar_trigger": false,
      "taf_trigger": false,
      "metar": "METAR LIBG 021050Z 18005KT 140V220 8000 SCT015 16/11 Q1026",
      "taf": "TAF LIBG 021100Z 0212/0221 19006KT 9999 FEW015"
    },
    {
      "icao": "LIBP",
      "alert": "OK",
      "vis_m": 7000,
      "fzfg": false,
      "metar_trigger": false,
      "taf_trigger": false,
      "metar": "METAR LIBP 021120Z 05004KT 020V080 7000 NSC 15/09 Q1026",
      "taf": "TAF LIBP 021100Z 0212/0312 VRB05KT 6000 FEW040"
    },
    {
      "icao": "LIBR",
      "alert": "OK",
      "vis_m": 9999,
      "fzfg": false,
      "metar_trigger": false,
      "taf_trigger": false,
      "metar": "METAR LIBR 021120Z 10007KT 9999 BKN020 14/12 Q1026",
      "taf": "TAF LIBR 021100Z 0212/0312 17006KT 9999 FEW020"
    },
    {
      "icao": "LICA",
      "alert": "OK",
      "vis_m": 9999,
      "fzfg": false,
      "metar_trigger": false,
      "taf_trigger": false,
      "metar": "METAR LICA 021120Z 27007KT CAVOK 16/12 Q1026",
      "taf": "TAF LICA 021100Z 0212/0312 27012KT 8000 SCT040"
    },
    {
      "icao": "LICC",
      "alert": "OK",
      "vis_m": 9999,
      "fzfg": false,
      "metar_trigger": false,
      "taf_trigger": false,
      "metar": "METAR LICC 021120Z VRB02KT 9999 FEW020 18/16 Q1026",
      "taf": "TAF LICC 021100Z 0212/0312 VRB06KT 9999 SCT040"
    },
    {
      "icao": "LICJ",
      "alert": "OK",
      "vis_m": 9000,
      "fzfg": false,
      "metar_trigger": false,
      "taf_trigger": false,
      "metar": "METAR LICJ 021120Z 02004KT 9000 NSC 15/11 Q1026",
      "taf": "TAF LICJ 021100Z 0212/0312 07010KT 9999 FEW020"
    },
    {
      "icao": "LIMC",
      "alert": "OK",
      "vis_m": 2000,
      "fzfg": false,
      "metar_trigger": false,
      "taf_trigger": false,
      "metar": "METAR LIMC 021120Z 14006KT 2000 DZ BR OVC006 10/09 Q1026 NOSIG",
      "taf": "TAF LIMC 021100Z 0212/0318 VRB04KT 6000 BKN020"
    },
    {
      "icao": "LIME",
      "alert": "OK",
      "vis_m": 5000,
      "fzfg": false,
      "metar_trigger": false,
      "taf_trigger": false,
      "metar": "METAR LIME 021120Z 15004KT 090V200 5000 BR FEW009 BKN015 11/08 Q1026 NOSIG",
      "taf": "TAF LIME 021100Z 0212/0312 VRB05KT 6000 BKN018"
    },
    {
      "icao": "LIMF",
      "alert": "OK",
      "vis_m": 2500,
      "fzfg": false,
      "metar_trigger": false,
      "taf_trigger": false,
      "metar": "METAR LIMF 021120Z 07004KT 2500 BR SCT005 BKN010 11/07 Q1025",
      "taf": "TAF LIMF 021100Z 0212/0312 VRB04KT 2500 BR BKN010"
    },
    {
      "icao": "LIMJ",
      "alert": "OK",
      "vis_m": 9999,
      "fzfg": false,
      "metar_trigger": false,
      "taf_trigger": false,
      "metar": "METAR LIMJ 021120Z VRB01KT 9999 SCT030 SCT045 14/09 Q1026",
      "taf": "TAF LIMJ 021100Z 0212/0312 VRB05KT 9999 SCT020 BKN030"
    },
    {
      "icao": "LIPE",
      "alert": "OK",
      "vis_m": 7000,
      "fzfg": false,
      "metar_trigger": false,
      "taf_trigger": false,
      "metar": "METAR LIPE 021120Z 06005KT 020V100 7000 SCT014 13/11 Q1026",
      "taf": "TAF LIPE 021100Z 0212/0312 VRB04KT 4000 BR BKN010"
    },
    {
      "icao": "LIPH",
      "alert": "OK",
      "vis_m": 5000,
      "fzfg": false,
      "metar_trigger": false,
      "taf_trigger": false,
      "metar": "METAR LIPH 021120Z 09003KT 040V130 5000 BR BKN015 13/09 Q1026",
      "taf": "TAF LIPH 021100Z 0212/0312 VRB04KT 4000 BR BKN015"
    },
    {
      "icao": "LIPQ",
      "alert": "OK",
      "vis_m": 6000,
      "fzfg": false,
      "metar_trigger": false,
      "taf_trigger": false,
      "metar": "METAR LIPQ 021120Z VRB02KT 6000 SCT008 BKN035 12/10 Q1026",
      "taf": "TAF LIPQ 021100Z 0212/0312 VRB05KT 6000 SCT010"
    },
    {
      "icao": "LIPR",
      "alert": "OK",
      "vis_m": 1500,
      "fzfg": false,
      "metar_trigger": false,
      "taf_trigger": false,
      "metar": "METAR LIPR 021120Z 03008KT 360V060 1500 0800NE BCFG SCT002 SCT015 11/10 Q1026",
      "taf": "TAF LIPR 021100Z 0212/0312 VRB05KT 6000 SCT010"
    },
    {
      "icao": "LIPX",
      "alert": "OK",
      "vis_m": 3000,
      "fzfg": false,
      "metar_trigger": false,
      "taf_trigger": false,
      "metar": "METAR LIPX 021120Z VRB02KT 3000 BR FEW010 BKN040 13/08 Q1026",
      "taf": "TAF LIPX 021100Z 0212/0312 VRB05KT 4000 BR SCT015 BKN050"
    },
    {
      "icao": "LIPY",
      "alert": "OK",
      "vis_m": 5000,
      "fzfg": false,
      "metar_trigger": false,
      "taf_trigger": false,
      "metar": "METAR LIPY 021120Z 02003KT 350V060 5000 BR BKN070 13/10 Q1026",
      "taf": "TAF LIPY 021100Z 0212/0312 VRB05KT 6000 NSC"
    },
    {
      "icao": "LIPZ",
      "alert": "OK",
      "vis_m": 8000,
      "fzfg": false,
      "metar_trigger": false,
      "taf_trigger": false,
      "metar": "METAR LIPZ 021120Z 13006KT 080V160 8000 SCT020 12/09 Q1026 NOSIG",
      "taf": "TAF LIPZ 021100Z 0212/0318 VRB05KT 6000 SCT015"
    },
    {
      "icao": "LIRF",
      "alert": "OK",
      "vis_m": 9999,
      "fzfg": false,
      "metar_trigger": false,
      "taf_trigger": false,
      "metar": "METAR LIRF 021120Z 12012KT 9999 SCT045 15/11 Q1026 NOSIG",
      "taf": "TAF LIRF 021100Z 0212/0318 14012KT 9999 SCT030"
    },
    {
      "icao": "LIRN",
      "alert": "OK",
      "vis_m": 8000,
      "fzfg": false,
      "metar_trigger": false,
      "taf_trigger": false,
      "metar": "METAR LIRN 021120Z 19003KT 130V230 8000 SCT030 14/09 Q1027 NOSIG",
      "taf": "TAF LIRN 021100Z 0212/0312 VRB04KT 8000 SCT030"
    },
    {
      "icao": "LIRP",
      "alert": "OK",
      "vis_m": 9999,
      "fzfg": false,
      "metar_trigger": false,
      "taf_trigger": false,
      "metar": "METAR LIRP 021115Z 12008KT 9999 FEW030 SCT070 15/09 Q1025 NOSIG",
      "taf": ""
    },
    {
      "icao": "LIRZ",
      "alert": "OK",
      "vis_m": 9999,
      "fzfg": false,
      "metar_trigger": false,
      "taf_trigger": false,
      "metar": "METAR LIRZ 021120Z VRB02KT 9999 SCT050 14/07 Q1026",
      "taf": "TAF LIRZ 021100Z 0212/0312 VRB05KT 9999 SCT035"
    },
    {
      "icao": "LJLJ",
      "alert": "OK",
      "vis_m": 9999,
      "fzfg": false,
      "metar_trigger": false,
      "taf_trigger": false,
      "metar": "METAR LJLJ 021130Z VRB02KT 9999 FEW033 BKN060 11/05 Q1025 NOSIG",
      "taf": "TAF LJLJ 021100Z 0212/0312 VRB02KT 9999 FEW033 BKN060"
    },
    {
      "icao": "LKMT",
      "alert": "OK",
      "vis_m": 9999,
      "fzfg": false,
      "metar_trigger": false,
      "taf_trigger": false,
      "metar": "METAR LKMT 021130Z 03006KT 350V050 9999 BKN013 09/04 Q1027 NOSIG",
      "taf": "TAF LKMT 021100Z 0212/0312 04006KT CAVOK"
    },
    {
      "icao": "LKPR",
      "alert": "OK",
      "vis_m": 2000,
      "fzfg": false,
      "metar_trigger": false,
      "taf_trigger": false,
      "metar": "METAR LKPR 021130Z 03004KT 340V070 2000 0900NW R24/1600D R30/P2000N BR BCFG BKN002 04/04 Q1027 BECMG 3000 BR",
      "taf": "TAF LKPR 021100Z 0212/0318 10005KT 2000 BR BKN002"
    },
    {
      "icao": "LLBG",
      "alert": "OK",
      "vis_m": 9999,
      "fzfg": false,
      "metar_trigger": false,
      "taf_trigger": false,
      "metar": "METAR LLBG 021120Z 34010KT 310V010 CAVOK 20/M01 Q1018 NOSIG",
      "taf": "TAF LLBG 021107Z 0212/0312 33010KT CAVOK TX19/0212Z TN07/0304Z"
    },
    {
      "icao": "LMML",
      "alert": "OK",
      "vis_m": 9999,
      "fzfg": false,
      "metar_trigger": false,
      "taf_trigger": false,
      "metar": "METAR LMML 021115Z 15013KT 9999 SCT016 17/12 Q1026 NOSIG",
      "taf": "TAF LMML 021100Z 0212/0312 15012KT 9999 SCT017"
    },
    {
      "icao": "LOWW",
      "alert": "OK",
      "vis_m": 9999,
      "fzfg": false,
      "metar_trigger": false,
      "taf_trigger": false,
      "metar": "METAR LOWW 021120Z 36005KT 330V040 9999 FEW048 10/04 Q1026 NOSIG",
      "taf": ""
    },
    {
      "icao": "LPFR",
      "alert": "OK",
      "vis_m": 9999,
      "fzfg": false,
      "metar_trigger": false,
      "taf_trigger": false,
      "metar": "METAR LPFR 021130Z 07008KT 9999 SCT014 BKN018 15/12 Q1011",
      "taf": "TAF LPFR 021100Z 0212/0312 13013KT 9999 SCT020"
    },
    {
      "icao": "LPMA",
      "alert": "OK",
      "vis_m": 9000,
      "fzfg": false,
      "metar_trigger": false,
      "taf_trigger": false,
      "metar": "METAR LPMA 021130Z 35023G40KT 320V020 9000 -SHRA FEW008 BKN015 14/09 Q1017",
      "taf": "TAF LPMA 021100Z 0212/0312 36018G30KT 9999 SCT015"
    },
    {
      "icao": "LPPR",
      "alert": "OK",
      "vis_m": 9999,
      "fzfg": false,
      "metar_trigger": false,
      "taf_trigger": false,
      "metar": "METAR LPPR 021130Z 17017KT 9999 FEW020 SCT030 15/10 Q1010",
      "taf": "TAF LPPR 021100Z 0212/0312 17015KT 9999 SCT018 SCT035"
    },
    {
      "icao": "LPPS",
      "alert": "OK",
      "vis_m": 9999,
      "fzfg": false,
      "metar_trigger": false,
      "taf_trigger": false,
      "metar": "METAR LPPS 021130Z 35024KT 9999 BKN014 15/08 Q1019",
      "taf": "TAF LPPS 021100Z 0212/0318 34020KT 9999 SCT015 SCT030"
    },
    {
      "icao": "LPPT",
      "alert": "OK",
      "vis_m": 9000,
      "fzfg": false,
      "metar_trigger": false,
      "taf_trigger": false,
      "metar": "METAR LPPT 021130Z 14008G19KT 110V180 9000 FEW015 SCT025 14/11 Q1010",
      "taf": "TAF LPPT 021100Z 0212/0318 16008KT 9999 BKN025"
    },
    {
      "icao": "LQBK",
      "alert": "OK",
      "vis_m": 9999,
      "fzfg": false,
      "metar_trigger": false,
      "taf_trigger": false,
      "metar": "METAR LQBK 021130Z 11004KT 050V160 9999 FEW033 13/06 Q1026 NOSIG",
      "taf": "TAF LQBK 021100Z 0212/0312 33005KT CAVOK TX15/0214Z TN04/0305Z"
    },
    {
      "icao": "LQSA",
      "alert": "OK",
      "vis_m": 9999,
      "fzfg": false,
      "metar_trigger": false,
      "taf_trigger": false,
      "metar": "METAR LQSA 021130Z VRB01KT CAVOK 11/03 Q1025 NOSIG",
      "taf": "TAF LQSA 021100Z 0212/0312 VRB02KT 9999 SCT055 TX15/0214Z TN02/0305Z"
    },
    {
      "icao": "LQTZ",
      "alert": "OK",
      "vis_m": 9999,
      "fzfg": false,
      "metar_trigger": false,
      "taf_trigger": false,
      "metar": "METAR LQTZ 021130Z VRB02KT CAVOK 12/04 Q1025",
      "taf": ""
    },
    {
      "icao": "LRBC",
      "alert": "OK",
      "vis_m": 8000,
      "fzfg": false,
      "metar_trigger": false,
      "taf_trigger": false,
      "metar": "METAR LRBC 021130Z VRB02KT 8000 NSC 09/04 Q1025",
      "taf": "TAF LRBC 021100Z 0212/0221 VRB04KT CAVOK"
    },
    {
      "icao": "LRBS",
      "alert": "OK",
      "vis_m": 9999,
      "fzfg": false,
      "metar_trigger": false,
      "taf_trigger": false,
      "metar": "METAR LRBS 021130Z 21005KT 160V250 9999 SCT003 OVC006 01/01 Q1026 NOSIG",
      "taf": "TAF LRBS 021100Z 0212/0312 24006KT 5000 BR OVC005"
    },
    {
      "icao": "LRBV",
      "alert": "OK",
      "vis_m": 9999,
      "fzfg": false,
      "metar_trigger": false,
      "taf_trigger": false,
      "metar": "METAR LRBV 021130Z VRB01KT CAVOK 08/M01 Q1024",
      "taf": "TAF LRBV 021100Z 0212/0221 VRB04KT CAVOK"
    },
    {
      "icao": "LRCL",
      "alert": "OK",
      "vis_m": 9999,
      "fzfg": false,
      "metar_trigger": false,
      "taf_trigger": false,
      "metar": "METAR LRCL 021130Z 09003KT 9999 FEW070 09/01 Q1025",
      "taf": "TAF LRCL 021100Z 0212/0221 VRB04KT CAVOK"
    },
    {
      "icao": "LRCV",
      "alert": "OK",
      "vis_m": 6000,
      "fzfg": false,
      "metar_trigger": false,
      "taf_trigger": false,
      "metar": "METAR LRCV 021130Z 22004KT 170V250 6000 SCT009 BKN035 05/02 Q1025",
      "taf": "TAF LRCV 021100Z 0212/0221 VRB04KT 5000 BR BKN005"
    },
    {
      "icao": "LRIA",
      "alert": "OK",
      "vis_m": 9999,
      "fzfg": false,
      "metar_trigger": false,
      "taf_trigger": false,
      "metar": "METAR LRIA 021130Z VRB02KT CAVOK 06/01 Q1026",
      "taf": "TAF LRIA 021100Z 0212/0221 VRB04KT CAVOK"
    },
    {
      "icao": "LROP",
      "alert": "OK",
      "vis_m": 5000,
      "fzfg": false,
      "metar_trigger": false,
      "taf_trigger": false,
      "metar": "METAR LROP 021130Z 25005KT 220V280 5000 BR OVC004 02/02 Q1026 NOSIG",
      "taf": "TAF LROP 021100Z 0212/0312 24006KT 5000 BR OVC005"
    },
    {
      "icao": "LRSB",
      "alert": "OK",
      "vis_m": 9999,
      "fzfg": false,
      "metar_trigger": false,
      "taf_trigger": false,
      "metar": "METAR LRSB 021130Z VRB01KT CAVOK 09/M02 Q1024 NOSIG",
      "taf": "TAF LRSB 021100Z 0212/0312 VRB04KT CAVOK"
    },
    {
      "icao": "LRSM",
      "alert": "OK",
      "vis_m": 9999,
      "fzfg": false,
      "metar_trigger": false,
      "taf_trigger": false,
      "metar": "METAR LRSM 021130Z VRB02KT CAVOK 11/01 Q1026",
      "taf": "TAF LRSM 021100Z 0212/0221 VRB04KT CAVOK"
    },
    {
      "icao": "LRSV",
      "alert": "OK",
      "vis_m": 9999,
      "fzfg": false,
      "metar_trigger": false,
      "taf_trigger": false,
      "metar": "METAR LRSV 021130Z 32015KT 9999 SCT047 08/03 Q1024",
      "taf": "TAF LRSV 021100Z 0212/0221 32010KT 9999 SCT040"
    },
    {
      "icao": "LRTM",
      "alert": "OK",
      "vis_m": 9999,
      "fzfg": false,
      "metar_trigger": false,
      "taf_trigger": false,
      "metar": "METAR LRTM 021130Z 22003KT 190V280 CAVOK 10/M00 Q1025",
      "taf": "TAF LRTM 021100Z 0212/0221 VRB04KT CAVOK"
    },
    {
      "icao": "LRTR",
      "alert": "OK",
      "vis_m": 9999,
      "fzfg": false,
      "metar_trigger": false,
      "taf_trigger": false,
      "metar": "METAR LRTR 021130Z VRB02KT CAVOK 11/00 Q1026 NOSIG",
      "taf": "TAF LRTR 021100Z 0212/0312 VRB04KT CAVOK"
    },
    {
      "icao": "LTAC",
      "alert": "OK",
      "vis_m": 9999,
      "fzfg": false,
      "metar_trigger": false,
      "taf_trigger": false,
      "metar": "METAR LTAC 021120Z 17004KT 120V230 9999 FEW040 11/M03 Q1024 NOSIG RMK RWY21C 19004KT 150V240 RWY03L 06003KT 010V160 RWY21R VRB02KT RWY03R VRB03KT RWY21L VRB03KT",
      "taf": "TAF LTAC 021040Z 0212/0312 VRB02KT 9999 SCT040"
    },
    {
      "icao": "LTFM",
      "alert": "OK",
      "vis_m": 9999,
      "fzfg": false,
      "metar_trigger": false,
      "taf_trigger": false,
      "metar": "METAR LTFM 021120Z 04007KT 320V060 CAVOK 08/04 Q1026 NOSIG RMK RWY17L 04007KT RWY34L 05007KT 020V080 RWY16R 05007KT RWY36 03009KT RWY18 06007KT 020V090",
      "taf": "TAF LTFM 021040Z 0212/0318 06012KT CAVOK"
    },
    {
      "icao": "LUKK",
      "alert": "OK",
      "vis_m": 9999,
      "fzfg": false,
      "metar_trigger": false,
      "taf_trigger": false,
      "metar": "METAR LUKK 021100Z VRB03KT CAVOK 08/02 Q1024 NOSIG",
      "taf": "TAF LUKK 021106Z 0212/0312 34009KT 9999 SCT030"
    },
    {
      "icao": "LWOH",
      "alert": "OK",
      "vis_m": 9999,
      "fzfg": false,
      "metar_trigger": false,
      "taf_trigger": false,
      "metar": "METAR LWOH 021120Z 15004KT 9999 FEW040 10/03 Q1026",
      "taf": "TAF LWOH 021120Z 0212/0312 16008KT 9999 FEW040"
    },
    {
      "icao": "LWSK",
      "alert": "OK",
      "vis_m": 9999,
      "fzfg": false,
      "metar_trigger": false,
      "taf_trigger": false,
      "metar": "METAR LWSK 021120Z 26002KT CAVOK 13/05 Q1025 NOSIG",
      "taf": "TAF LWSK 021120Z 0212/0312 VRB02KT CAVOK"
    },
    {
      "icao": "LYBE",
      "alert": "OK",
      "vis_m": 9999,
      "fzfg": false,
      "metar_trigger": false,
      "taf_trigger": false,
      "metar": "METAR LYBE 021130Z 25004KT 220V290 CAVOK 10/04 Q1026 NOSIG",
      "taf": "TAF LYBE 021100Z 0212/0312 36005KT CAVOK TX15/0312Z TN02/0305Z"
    },
    {
      "icao": "LYNI",
      "alert": "OK",
      "vis_m": 9999,
      "fzfg": false,
      "metar_trigger": false,
      "taf_trigger": false,
      "metar": "METAR LYNI 021130Z VRB02KT CAVOK 15/03 Q1024 NOSIG",
      "taf": "TAF LYNI 021100Z 0212/0312 32005KT CAVOK TX17/0213Z TN04/0305Z"
    },
    {
      "icao": "LYPG",
      "alert": "OK",
      "vis_m": 9999,
      "fzfg": false,
      "metar_trigger": false,
      "taf_trigger": false,
      "metar": "METAR LYPG 021130Z 15005KT 100V190 9999 FEW033 15/08 Q1027 NOSIG",
      "taf": "TAF LYPG 021100Z 0212/0312 16006KT 9999 FEW040 TX17/0312Z TN06/0306Z"
    },
    {
      "icao": "LZIB",
      "alert": "OK",
      "vis_m": 9999,
      "fzfg": false,
      "metar_trigger": false,
      "taf_trigger": false,
      "metar": "METAR LZIB 021130Z VRB02KT 9999 FEW029 12/05 Q1026 NOSIG",
      "taf": "TAF LZIB 021115Z 0212/0312 VRB02KT CAVOK"
    },
    {
      "icao": "LZKZ",
      "alert": "OK",
      "vis_m": 9999,
      "fzfg": false,
      "metar_trigger": false,
      "taf_trigger": false,
      "metar": "METAR LZKZ 021130Z 02010KT 350V050 CAVOK 11/03 Q1026 NOSIG",
      "taf": "TAF LZKZ 021115Z 0212/0312 01006KT CAVOK"
    },
    {
      "icao": "LZTT",
      "alert": "OK",
      "vis_m": 9999,
      "fzfg": false,
      "metar_trigger": false,
      "taf_trigger": false,
      "metar": "METAR LZTT 021130Z 11003KT 060V200 9999 BKN013 BKN024 06/03 Q1025 TEMPO NSC",
      "taf": "TAF LZTT 021115Z 0212/0312 VRB02KT 9999 BKN011"
    },
    {
      "icao": "OEJN",
      "alert": "OK",
      "vis_m": 9999,
      "fzfg": false,
      "metar_trigger": false,
      "taf_trigger": false,
      "metar": "METAR OEJN 021100Z 32015KT CAVOK 27/08 Q1012 NOSIG",
      "taf": "TAF OEJN 021100Z 0212/0318 34013KT 9999 FEW040"
    },
    {
      "icao": "OEMA",
      "alert": "OK",
      "vis_m": 9999,
      "fzfg": false,
      "metar_trigger": false,
      "taf_trigger": false,
      "metar": "METAR OEMA 021100Z 24005KT CAVOK 24/M10 Q1014 NOSIG",
      "taf": "TAF OEMA 021100Z 0212/0318 27012KT 9999 FEW045"
    },
    {
      "icao": "OJAI",
      "alert": "OK",
      "vis_m": 4500,
      "fzfg": false,
      "metar_trigger": false,
      "taf_trigger": false,
      "metar": "METAR OJAI 021100Z 08008KT 4500 DU NSC 14/M05 Q1019 NOSIG",
      "taf": "TAF OJAI 021100Z 0212/0318 03010KT 5000 HZ FEW030"
    },
    {
      "icao": "OMAA",
      "alert": "OK",
      "vis_m": 9999,
      "fzfg": false,
      "metar_trigger": false,
      "taf_trigger": false,
      "metar": "METAR OMAA 021130Z 33010KT CAVOK 34/11 Q1009 NOSIG",
      "taf": "TAF OMAA 021100Z 0212/0318 32011KT 8000 NSC"
    },
    {
      "icao": "OMDB",
      "alert": "OK",
      "vis_m": 9999,
      "fzfg": false,
      "metar_trigger": false,
      "taf_trigger": false,
      "metar": "METAR OMDB 021130Z 28012KT CAVOK 32/07 Q1010 NOSIG",
      "taf": "TAF OMDB 021100Z 0212/0318 30013KT 8000 NSC"
    },
    {
      "icao": "UAAA",
      "alert": "OK",
      "vis_m": 5000,
      "fzfg": false,
      "metar_trigger": false,
      "taf_trigger": false,
      "metar": "METAR UAAA 021100Z 16002MPS 5000 -SHRA BR BKN032CB OVC100 01/M03 Q1019 NOSIG",
      "taf": "TAF UAAA 021108Z 0212/0312 20003MPS 3100 -SHRA BR BKN020CB OVC050 TX04/0310Z TNM01/0303Z"
    },
    {
      "icao": "UBBB",
      "alert": "OK",
      "vis_m": 9999,
      "fzfg": false,
      "metar_trigger": false,
      "taf_trigger": false,
      "metar": "METAR UBBB 021130Z 16006KT 9999 FEW034 09/02 Q1024 NOSIG",
      "taf": "TAF UBBB 021050Z 0212/0312 22005KT 9999 SCT030 TX09/0212Z TN02/0301Z"
    },
    {
      "icao": "UDSG",
      "alert": "OK",
      "vis_m": 9999,
      "fzfg": false,
      "metar_trigger": false,
      "taf_trigger": false,
      "metar": "METAR UDSG 021100Z 20003KT 9999 NSC M00/M06 Q1021 NOSIG",
      "taf": "TAF UDSG 021100Z 0212/0312 VRB06KT 9999 SCT040"
    },
    {
      "icao": "UDYZ",
      "alert": "OK",
      "vis_m": 9999,
      "fzfg": false,
      "metar_trigger": false,
      "taf_trigger": false,
      "metar": "METAR UDYZ 021100Z 29006KT 260V330 9999 SCT043CB 07/M05 Q1020 NOSIG",
      "taf": "TAF UDYZ 021100Z 0212/0312 02006KT 9999 FEW040"
    },
    {
      "icao": "UGKO",
      "alert": "OK",
      "vis_m": 9999,
      "fzfg": false,
      "metar_trigger": false,
      "taf_trigger": false,
      "metar": "METAR UGKO 021130Z 03004KT 340V080 9999 SCT014 BKN023 07/05 Q1026 NOSIG",
      "taf": "TAF UGKO 021100Z 0212/0312 28007KT 9999 SCT025 BKN050 TX12/0311Z TN02/0304Z"
    }
  ]
}