{
  "ts_utc": "2026-02-13T00:01:03Z",
  "threshold_m": 150,
  "source": "stations_override.txt (ICAO list) + aviationweather.gov (METAR/TAF raw)",
  "station_count": 159,
  "stations": [
    {
      "icao": "BIKF",
      "alert": "OK",
      "vis_m": 9999,
      "fzfg": false,
      "metar_trigger": false,
      "taf_trigger": false,
      "metar": "METAR BIKF 122330Z 36015KT 9999 FEW030 M05/M12 Q1007",
      "taf": "TAF BIKF 122253Z 1300/1400 36013KT 9999 FEW030 TXM03/1315Z TNM08/1321Z"
    },
    {
      "icao": "BKPR",
      "alert": "OK",
      "vis_m": 9999,
      "fzfg": false,
      "metar_trigger": false,
      "taf_trigger": false,
      "metar": "METAR BKPR 130000Z 34006KT 9999 SCT020 BKN075 06/06 Q0988 NOSIG",
      "taf": "TAF BKPR 122330Z 1300/1324 35008KT 9999 SCT015 BKN030"
    },
    {
      "icao": "EBCI",
      "alert": "OK",
      "vis_m": 7000,
      "fzfg": false,
      "metar_trigger": false,
      "taf_trigger": false,
      "metar": "METAR EBCI 122350Z 28006KT 250V320 7000 -RA BKN008 BKN014 07/06 Q0991 NOSIG",
      "taf": "TAF EBCI 122310Z 1300/1406 24008KT 9999 SCT012 BKN020"
    },
    {
      "icao": "EDDB",
      "alert": "OK",
      "vis_m": 6000,
      "fzfg": false,
      "metar_trigger": false,
      "taf_trigger": false,
      "metar": "METAR EDDB 122350Z AUTO 28014KT 6000 OVC004 02/02 Q0984 NOSIG",
      "taf": "TAF EDDB 122300Z 1300/1324 29013KT 9999 OVC006"
    },
    {
      "icao": "EDDH",
      "alert": "OK",
      "vis_m": 9999,
      "fzfg": false,
      "metar_trigger": false,
      "taf_trigger": false,
      "metar": "METAR EDDH 122350Z AUTO 05008KT 010V080 9999 -SNRA BKN009 OVC012 01/M00 Q0987 TEMPO 4500",
      "taf": "TAF EDDH 122300Z 1300/1406 03007KT 9999 OVC008"
    },
    {
      "icao": "EDDK",
      "alert": "OK",
      "vis_m": 9000,
      "fzfg": false,
      "metar_trigger": false,
      "taf_trigger": false,
      "metar": "METAR EDDK 122350Z AUTO 21004KT 180V240 9000 SHRA FEW006 BKN021 BKN026 BKN///TCU 08/07 Q0989 TEMPO 4000 NSW BKN013",
      "taf": "TAF EDDK 122300Z 1300/1406 26008KT 9999 BKN020"
    },
    {
      "icao": "EDDN",
      "alert": "OK",
      "vis_m": 9999,
      "fzfg": false,
      "metar_trigger": false,
      "taf_trigger": false,
      "metar": "METAR EDDN 122350Z AUTO 24008KT 9999 VCSH FEW016 BKN033 FEW///TCU 07/04 Q0990",
      "taf": "TAF EDDN 122300Z 1300/1324 26010KT 9999 BKN025"
    },
    {
      "icao": "EDDS",
      "alert": "OK",
      "vis_m": 9999,
      "fzfg": false,
      "metar_trigger": false,
      "taf_trigger": false,
      "metar": "METAR EDDS 122350Z AUTO 24008KT 190V290 9999 SHRA BKN026 BKN032 OVC040 FEW///CB 06/05 Q0992",
      "taf": "TAF EDDS 122300Z 1300/1324 23009KT 9999 BKN030"
    },
    {
      "icao": "EDFH",
      "alert": "OK",
      "vis_m": 9999,
      "fzfg": false,
      "metar_trigger": false,
      "taf_trigger": false,
      "metar": "METAR EDFH 122350Z 26015KT 9999 -RA OVC002 06/05 Q0990",
      "taf": "TAF EDFH 122300Z 1300/1324 26015G25KT 9999 BKN015"
    },
    {
      "icao": "EDJA",
      "alert": "OK",
      "vis_m": 9999,
      "fzfg": false,
      "metar_trigger": false,
      "taf_trigger": false,
      "metar": "METAR EDJA 122350Z AUTO 24020G33KT 9999 // BKN014/// OVC020/// 05/03 Q0993",
      "taf": ""
    },
    {
      "icao": "EDLW",
      "alert": "OK",
      "vis_m": 9999,
      "fzfg": false,
      "metar_trigger": false,
      "taf_trigger": false,
      "metar": "METAR EDLW 122350Z AUTO 25009KT 9999 // FEW013/// SCT017/// OVC020/// 07/05 Q0987",
      "taf": "TAF EDLW 121700Z 1218/1318 25006KT 9999 SCT010 BKN020"
    },
    {
      "icao": "EDNY",
      "alert": "OK",
      "vis_m": 9999,
      "fzfg": false,
      "metar_trigger": false,
      "taf_trigger": false,
      "metar": "METAR EDNY 122350Z AUTO 24018KT 9999 // SCT023/// BKN027/// BKN036/// 07/04 Q0996",
      "taf": "TAF EDNY 121700Z 1218/1303 25015G25KT 9999 FEW030"
    },
    {
      "icao": "EDSB",
      "alert": "OK",
      "vis_m": 9999,
      "fzfg": false,
      "metar_trigger": false,
      "taf_trigger": false,
      "metar": "METAR EDSB 122350Z AUTO 22012KT 9999 FEW030/// BKN053/// OVC081/// 08/05 Q0994",
      "taf": "TAF EDSB 122300Z 1300/1324 22010KT 9999 BKN030"
    },
    {
      "icao": "EETN",
      "alert": "OK",
      "vis_m": 9999,
      "fzfg": false,
      "metar_trigger": false,
      "taf_trigger": false,
      "metar": "METAR EETN 122350Z 07006KT CAVOK M08/M10 Q0997",
      "taf": "TAF EETN 122330Z 1300/1324 07006KT 9999 BKN045"
    },
    {
      "icao": "EFTU",
      "alert": "OK",
      "vis_m": 9999,
      "fzfg": false,
      "metar_trigger": false,
      "taf_trigger": false,
      "metar": "METAR EFTU 122350Z AUTO 06006KT CAVOK M16/M18 Q0999",
      "taf": "TAF EFTU 122325Z 1300/1324 05006KT 9999 FEW020"
    },
    {
      "icao": "EGBB",
      "alert": "OK",
      "vis_m": 6000,
      "fzfg": false,
      "metar_trigger": false,
      "taf_trigger": false,
      "metar": "METAR EGBB 122350Z 12009KT 6000 OVC006 05/04 Q0989",
      "taf": "TAF EGBB 122258Z 1300/1324 07008KT 9999 BKN016"
    },
    {
      "icao": "EGGP",
      "alert": "OK",
      "vis_m": 9999,
      "fzfg": false,
      "metar_trigger": false,
      "taf_trigger": false,
      "metar": "METAR EGGP 122350Z 08011KT 9999 -RA BKN009 BKN014 03/02 Q0989",
      "taf": "TAF EGGP 122300Z 1300/1324 09009KT 9999 FEW015 BKN020"
    },
    {
      "icao": "EGGW",
      "alert": "OK",
      "vis_m": 6000,
      "fzfg": false,
      "metar_trigger": false,
      "taf_trigger": false,
      "metar": "METAR EGGW 122350Z AUTO 10004KT 030V130 6000 -RA BKN004/// BKN024/// OVC032/// //////TCU 04/04 Q0990 RERA",
      "taf": "TAF EGGW 122303Z 1300/1324 12005KT 9999 BKN010"
    },
    {
      "icao": "EGKK",
      "alert": "OK",
      "vis_m": 9999,
      "fzfg": false,
      "metar_trigger": false,
      "taf_trigger": false,
      "metar": "METAR EGKK 122350Z 19003KT 160V220 9999 FEW049 07/06 Q0990",
      "taf": "TAF EGKK 122257Z 1300/1406 VRB03KT 9999 SCT035"
    },
    {
      "icao": "EGNM",
      "alert": "OK",
      "vis_m": null,
      "fzfg": false,
      "metar_trigger": false,
      "taf_trigger": false,
      "metar": "",
      "taf": "TAF EGNM 121700Z 1218/1318 05011KT 9999 SCT007 BKN020"
    },
    {
      "icao": "EGPD",
      "alert": "OK",
      "vis_m": 9999,
      "fzfg": false,
      "metar_trigger": false,
      "taf_trigger": false,
      "metar": "METAR EGPD 122350Z COR AUTO 32009KT 9999 NCD M00/M02 Q0996 NOSIG",
      "taf": "TAF EGPD 122256Z 1300/1324 31005KT 9999 FEW015"
    },
    {
      "icao": "EGPF",
      "alert": "OK",
      "vis_m": 9999,
      "fzfg": false,
      "metar_trigger": false,
      "taf_trigger": false,
      "metar": "METAR EGPF 122350Z AUTO 06008KT 9999 BKN035 02/M01 Q0995",
      "taf": "TAF EGPF 122254Z 1300/1324 05010KT 9999 SCT020 BKN030"
    },
    {
      "icao": "EHBK",
      "alert": "OK",
      "vis_m": 9999,
      "fzfg": false,
      "metar_trigger": false,
      "taf_trigger": false,
      "metar": "METAR EHBK 122355Z AUTO 25008KT 210V290 9999 FEW006/// SCT007/// BKN010/// 07/07 Q0989",
      "taf": "TAF EHBK 122311Z 1300/1406 26010KT 9999 BKN016"
    },
    {
      "icao": "EHEH",
      "alert": "OK",
      "vis_m": 9999,
      "fzfg": false,
      "metar_trigger": false,
      "taf_trigger": false,
      "metar": "METAR EHEH 122325Z AUTO 27011KT 230V310 9999 BKN015 OVC019 06/03 Q0989 WHT",
      "taf": "TAF EHEH 121750Z 1218/1324 26013KT 9999 SCT015 BKN017"
    },
    {
      "icao": "EKBI",
      "alert": "OK",
      "vis_m": 9999,
      "fzfg": false,
      "metar_trigger": false,
      "taf_trigger": false,
      "metar": "METAR EKBI 122350Z AUTO 03008KT 9999 OVC011/// M01/M03 Q0991",
      "taf": "TAF EKBI 122327Z 1300/1324 03010KT 9999 BKN010"
    },
    {
      "icao": "EKCH",
      "alert": "OK",
      "vis_m": 9999,
      "fzfg": false,
      "metar_trigger": false,
      "taf_trigger": false,
      "metar": "METAR EKCH 122350Z AUTO 03020KT 9999 FEW023/// BKN061/// M01/M05 Q0990 NOSIG",
      "taf": "TAF EKCH 122327Z 1300/1324 03018KT 9999 FEW012 BKN018"
    },
    {
      "icao": "ENAL",
      "alert": "OK",
      "vis_m": 9999,
      "fzfg": false,
      "metar_trigger": false,
      "taf_trigger": false,
      "metar": "METAR ENAL 122350Z AUTO 14013KT 9999 NCD M02/M09 Q0994",
      "taf": "TAF ENAL 122300Z 1300/1309 14012KT 9999 FEW040"
    },
    {
      "icao": "ENBR",
      "alert": "OK",
      "vis_m": 9999,
      "fzfg": false,
      "metar_trigger": false,
      "taf_trigger": false,
      "metar": "METAR ENBR 122350Z 13007KT 9999 FEW022 BKN030 M03/M11 Q0995 RMK WIND 1200FT 14018KT",
      "taf": "TAF ENBR 122300Z 1300/1324 15010KT 9999 FEW020 BKN045"
    },
    {
      "icao": "ENGM",
      "alert": "OK",
      "vis_m": 9999,
      "fzfg": false,
      "metar_trigger": false,
      "taf_trigger": false,
      "metar": "METAR ENGM 122350Z 01002KT 9999 -SN FEW028 OVC040 M09/M11 Q0998",
      "taf": "TAF ENGM 122300Z 1300/1324 04003KT 9999 FEW020 BKN040"
    },
    {
      "icao": "ENHD",
      "alert": "OK",
      "vis_m": 9999,
      "fzfg": false,
      "metar_trigger": false,
      "taf_trigger": false,
      "metar": "METAR ENHD 122350Z AUTO 15008KT 9999 FEW022/// SCT030/// BKN045/// M03/M11 Q0996",
      "taf": "TAF ENHD 121400Z 1215/1223 11006KT 9999 SCT040"
    },
    {
      "icao": "ENTC",
      "alert": "OK",
      "vis_m": 9999,
      "fzfg": false,
      "metar_trigger": false,
      "taf_trigger": false,
      "metar": "METAR ENTC 122350Z 18007KT CAVOK M07/M12 Q0994 RMK WIND 2600FT 19012KT",
      "taf": "TAF ENTC 122300Z 1300/1324 21012KT 9999 FEW020 BKN035"
    },
    {
      "icao": "ENTO",
      "alert": "OK",
      "vis_m": 9999,
      "fzfg": false,
      "metar_trigger": false,
      "taf_trigger": false,
      "metar": "METAR ENTO 122350Z AUTO 35007KT 9999 OVC046/// M07/M10 Q0998",
      "taf": "TAF ENTO 122300Z 1300/1324 01009KT 9999 FEW020 BKN040"
    },
    {
      "icao": "ENVA",
      "alert": "OK",
      "vis_m": 9999,
      "fzfg": false,
      "metar_trigger": false,
      "taf_trigger": false,
      "metar": "METAR ENVA 122350Z 09006KT CAVOK M12/M16 Q0996 RMK WIND 670FT 13011KT",
      "taf": "TAF ENVA 122300Z 1300/1324 10008KT CAVOK"
    },
    {
      "icao": "ENZV",
      "alert": "OK",
      "vis_m": 9999,
      "fzfg": false,
      "metar_trigger": false,
      "taf_trigger": false,
      "metar": "METAR ENZV 122350Z 13007KT CAVOK M06/M15 Q0997",
      "taf": "TAF ENZV 122300Z 1300/1324 13009KT CAVOK"
    },
    {
      "icao": "EPGD",
      "alert": "OK",
      "vis_m": 300,
      "fzfg": true,
      "metar_trigger": false,
      "taf_trigger": false,
      "metar": "METAR EPGD 122330Z 05008KT 0300 R29/1100N -RA FZFG VV000 M00/M00 Q0982",
      "taf": "TAF EPGD 122330Z 1300/1324 06008KT 1000 -SNRA BR OVC002"
    },
    {
      "icao": "EPKK",
      "alert": "OK",
      "vis_m": 9999,
      "fzfg": false,
      "metar_trigger": false,
      "taf_trigger": false,
      "metar": "METAR EPKK 122330Z VRB02KT 9999 FEW037 BKN044 03/01 Q0985",
      "taf": "TAF EPKK 122330Z 1300/1324 VRB02KT 9999 FEW030 BKN040"
    },
    {
      "icao": "EPKT",
      "alert": "OK",
      "vis_m": 9999,
      "fzfg": false,
      "metar_trigger": false,
      "taf_trigger": false,
      "metar": "METAR EPKT 122330Z 21008KT 9999 -RA FEW017 BKN034 07/05 Q0984",
      "taf": "TAF EPKT 122330Z 1300/1324 20008KT 9999 FEW015 BKN030"
    },
    {
      "icao": "EPLB",
      "alert": "OK",
      "vis_m": 9999,
      "fzfg": false,
      "metar_trigger": false,
      "taf_trigger": false,
      "metar": "METAR EPLB 122330Z 15004KT CAVOK 03/03 Q0986",
      "taf": "TAF EPLB 122330Z 1300/1324 18007KT 9999 SCT030"
    },
    {
      "icao": "EPMO",
      "alert": "OK",
      "vis_m": 6000,
      "fzfg": false,
      "metar_trigger": false,
      "taf_trigger": false,
      "metar": "METAR EPMO 122330Z 14007KT 110V170 6000 -RA SCT047 04/04 Q0983",
      "taf": "TAF EPMO 122330Z 1300/1324 17006KT 4000 -RA BR SCT030"
    },
    {
      "icao": "EPPO",
      "alert": "OK",
      "vis_m": 9999,
      "fzfg": false,
      "metar_trigger": false,
      "taf_trigger": false,
      "metar": "METAR EPPO 122330Z 19007KT 9999 BKN019 OVC030 06/05 Q0981",
      "taf": "TAF EPPO 122330Z 1300/1324 18005KT 9999 BKN030"
    },
    {
      "icao": "EPRA",
      "alert": "OK",
      "vis_m": 9999,
      "fzfg": false,
      "metar_trigger": false,
      "taf_trigger": false,
      "metar": "METAR EPRA 122330Z 18008KT CAVOK 04/02 Q0984",
      "taf": "TAF EPRA 122330Z 1300/1309 18008KT CAVOK"
    },
    {
      "icao": "EPRZ",
      "alert": "OK",
      "vis_m": 9999,
      "fzfg": false,
      "metar_trigger": false,
      "taf_trigger": false,
      "metar": "METAR EPRZ 122330Z 20004KT 180V240 CAVOK 07/05 Q0986",
      "taf": "TAF EPRZ 122330Z 1300/1324 20005KT CAVOK"
    },
    {
      "icao": "EPSC",
      "alert": "OK",
      "vis_m": 4900,
      "fzfg": false,
      "metar_trigger": false,
      "taf_trigger": false,
      "metar": "METAR EPSC 122330Z 36006KT 330V030 4900 -RA BR OVC003 01/01 Q0981",
      "taf": "TAF EPSC 122330Z 1300/1324 01008KT 6000 -SNRA OVC002"
    },
    {
      "icao": "EPSY",
      "alert": "OK",
      "vis_m": 800,
      "fzfg": false,
      "metar_trigger": false,
      "taf_trigger": false,
      "metar": "METAR EPSY 122330Z VRB02KT 0800 R01/1000U -RASN FG OVC001 02/02 Q0983",
      "taf": "TAF EPSY 122330Z 1300/1309 12005KT 0400 FG OVC002"
    },
    {
      "icao": "EPWA",
      "alert": "OK",
      "vis_m": 8000,
      "fzfg": false,
      "metar_trigger": false,
      "taf_trigger": false,
      "metar": "METAR EPWA 122330Z 15007KT 8000 FEW045 02/02 Q0983 NOSIG",
      "taf": "TAF EPWA 122330Z 1300/1324 18007KT 8000 SCT030"
    },
    {
      "icao": "EPWR",
      "alert": "OK",
      "vis_m": 9999,
      "fzfg": false,
      "metar_trigger": false,
      "taf_trigger": false,
      "metar": "METAR EPWR 122330Z 23006KT 9999 FEW032 SCT037 06/05 Q0983",
      "taf": "TAF EPWR 122330Z 1300/1324 17008KT 9999 BKN035"
    },
    {
      "icao": "ESGG",
      "alert": "OK",
      "vis_m": 9999,
      "fzfg": false,
      "metar_trigger": false,
      "taf_trigger": false,
      "metar": "METAR ESGG 122350Z 05010KT 9999 BKN049 M06/M09 Q0994",
      "taf": "TAF ESGG 122330Z 1300/1324 05010KT 9999 BKN045"
    },
    {
      "icao": "ESKN",
      "alert": "OK",
      "vis_m": 9999,
      "fzfg": false,
      "metar_trigger": false,
      "taf_trigger": false,
      "metar": "METAR ESKN 122350Z 01007KT 9999 BKN015 M09/M11 Q0997",
      "taf": "TAF ESKN 122330Z 1300/1324 36004KT 9999 BKN016"
    },
    {
      "icao": "ESMS",
      "alert": "OK",
      "vis_m": 9999,
      "fzfg": false,
      "metar_trigger": false,
      "taf_trigger": false,
      "metar": "METAR ESMS 122350Z 04016KT 9999 BKN016 M02/M05 Q0988",
      "taf": "TAF ESMS 122327Z 1300/1324 04016KT 9999 BKN015"
    },
    {
      "icao": "ESSA",
      "alert": "OK",
      "vis_m": 9999,
      "fzfg": false,
      "metar_trigger": false,
      "taf_trigger": false,
      "metar": "METAR ESSA 122350Z 05010KT 9999 BKN016 M09/M11 Q0998 TEMPO BKN013",
      "taf": "TAF ESSA 122330Z 1300/1324 05008KT 9999 BKN016"
    },
    {
      "icao": "EYKA",
      "alert": "OK",
      "vis_m": 600,
      "fzfg": false,
      "metar_trigger": false,
      "taf_trigger": false,
      "metar": "METAR EYKA 122350Z AUTO 08004KT 0600 R26/1500N FG OVC002/// 00/00 Q0987",
      "taf": "TAF EYKA 122300Z 1300/1324 VRB03KT 0400 FG VV002"
    },
    {
      "icao": "EYPA",
      "alert": "OK",
      "vis_m": 1900,
      "fzfg": false,
      "metar_trigger": false,
      "taf_trigger": false,
      "metar": "METAR EYPA 122350Z AUTO 07013KT 1900 SN VV012 M04/M06 Q0988 RESN",
      "taf": "TAF EYPA 122300Z 1300/1324 08012KT 3000 SN SCT005 OVC015"
    },
    {
      "icao": "EYVI",
      "alert": "OK",
      "vis_m": 1500,
      "fzfg": false,
      "metar_trigger": false,
      "taf_trigger": false,
      "metar": "METAR EYVI 122350Z 12003KT 080V160 1500 BR OVC002 00/M00 Q0987 NOSIG",
      "taf": "TAF EYVI 122300Z 1300/1324 VRB05KT 0200 FG VV002"
    },
    {
      "icao": "GCFV",
      "alert": "OK",
      "vis_m": 9999,
      "fzfg": false,
      "metar_trigger": false,
      "taf_trigger": false,
      "metar": "METAR GCFV 122330Z AUTO 33009KT 9999 OVC020 18/14 Q1024",
      "taf": "TAF GCFV 122000Z 1221/1321 34009KT 9999 BKN016 TX22/1314Z TN17/1306Z"
    },
    {
      "icao": "GCLP",
      "alert": "OK",
      "vis_m": 9999,
      "fzfg": false,
      "metar_trigger": false,
      "taf_trigger": false,
      "metar": "METAR GCLP 122330Z 01018KT 9999 BKN017 18/14 Q1024 NOSIG",
      "taf": "TAF GCLP 122000Z 1221/1321 36015KT 9999 SCT020 TX23/1314Z TN17/1306Z"
    },
    {
      "icao": "GCTS",
      "alert": "OK",
      "vis_m": 9999,
      "fzfg": false,
      "metar_trigger": false,
      "taf_trigger": false,
      "metar": "METAR GCTS 122330Z 12005KT 9999 BKN020 19/15 Q1025 NOSIG",
      "taf": "TAF GCTS 122000Z 1221/1321 VRB05KT 9999 BKN020 TX25/1314Z TN16/1306Z"
    },
    {
      "icao": "GMAD",
      "alert": "OK",
      "vis_m": 5000,
      "fzfg": false,
      "metar_trigger": false,
      "taf_trigger": false,
      "metar": "METAR GMAD 122330Z 00000KT 5000 OVC004 16/16 Q1022 NOSIG",
      "taf": "TAF GMAD 122300Z 1300/1406 12004KT 5000 OVC004"
    },
    {
      "icao": "GMMN",
      "alert": "OK",
      "vis_m": 6000,
      "fzfg": false,
      "metar_trigger": false,
      "taf_trigger": false,
      "metar": "METAR GMMN 122330Z 24004KT 6000 SCT009 13/12 Q1020 NOSIG",
      "taf": "TAF GMMN 121700Z 1218/1324 34006KT CAVOK"
    },
    {
      "icao": "GMMX",
      "alert": "OK",
      "vis_m": 600,
      "fzfg": false,
      "metar_trigger": false,
      "taf_trigger": false,
      "metar": "METAR GMMX 122330Z 26010KT 0600 FG OVC003 15/15 Q1021 TEMPO 1500 BR",
      "taf": ""
    },
    {
      "icao": "HEGN",
      "alert": "OK",
      "vis_m": 9999,
      "fzfg": false,
      "metar_trigger": false,
      "taf_trigger": false,
      "metar": "METAR HEGN 122300Z 00000KT CAVOK 17/05 Q1014 NOSIG",
      "taf": "TAF HEGN 122300Z 1300/1406 20008KT 6000 NSC"
    },
    {
      "icao": "HEMA",
      "alert": "OK",
      "vis_m": 9999,
      "fzfg": false,
      "metar_trigger": false,
      "taf_trigger": false,
      "metar": "METAR HEMA 122300Z 19006KT CAVOK 17/10 Q1014 NOSIG",
      "taf": "TAF HEMA 122300Z 1300/1406 24008KT 6000 NSC"
    },
    {
      "icao": "HESH",
      "alert": "OK",
      "vis_m": 9999,
      "fzfg": false,
      "metar_trigger": false,
      "taf_trigger": false,
      "metar": "METAR HESH 122300Z 00000KT CAVOK 18/11 Q1015 NOSIG",
      "taf": "TAF HESH 122300Z 1300/1406 30008KT 6000 NSC"
    },
    {
      "icao": "HESX",
      "alert": "OK",
      "vis_m": 9999,
      "fzfg": false,
      "metar_trigger": false,
      "taf_trigger": false,
      "metar": "METAR HESX 122300Z 18010KT CAVOK 19/01 Q1011 NOSIG",
      "taf": "TAF HESX 122300Z 1300/1406 19020G30KT 6000 NSC"
    },
    {
      "icao": "LATI",
      "alert": "OK",
      "vis_m": 9999,
      "fzfg": false,
      "metar_trigger": false,
      "taf_trigger": false,
      "metar": "METAR LATI 122350Z 00000KT 9999 BKN048 11/08 Q0987 NOSIG",
      "taf": "TAF LATI 122300Z 1300/1324 VRB05KT 9999 RA FEW030 SCT040 BKN060 TX14/1312Z TN06/1324Z"
    },
    {
      "icao": "LBPD",
      "alert": "OK",
      "vis_m": 6000,
      "fzfg": false,
      "metar_trigger": false,
      "taf_trigger": false,
      "metar": "METAR LBPD 122330Z AUTO 00000KT 6000 SCT021/// SCT024/// OVC067/// 04/04 Q0991",
      "taf": "TAF LBPD 122300Z 1300/1324 VRB03KT 9999 BKN013 OVC020"
    },
    {
      "icao": "LBSF",
      "alert": "OK",
      "vis_m": 9999,
      "fzfg": false,
      "metar_trigger": false,
      "taf_trigger": false,
      "metar": "METAR LBSF 122330Z AUTO 19004KT 9999 SCT009/// BKN011/// 03/02 Q0990 NOSIG",
      "taf": "TAF LBSF 122300Z 1300/1324 10010KT 9999 SCT020 BKN050"
    },
    {
      "icao": "LBWN",
      "alert": "OK",
      "vis_m": 2000,
      "fzfg": false,
      "metar_trigger": false,
      "taf_trigger": false,
      "metar": "METAR LBWN 122330Z AUTO 36002KT 2000 0450W R09/0600N BR FEW002/// SCT005/// OVC024/// 07/07 Q0991 NOSIG",
      "taf": "TAF LBWN 122300Z 1300/1324 VRB04KT 1500 BR BKN005 OVC015"
    },
    {
      "icao": "LCLK",
      "alert": "OK",
      "vis_m": 9999,
      "fzfg": false,
      "metar_trigger": false,
      "taf_trigger": false,
      "metar": "METAR LCLK 122330Z 29002KT 9999 FEW025 16/15 Q1007 NOSIG",
      "taf": "TAF LCLK 122330Z 1300/1400 21009KT 9999 FEW020 SCT035"
    },
    {
      "icao": "LCPH",
      "alert": "OK",
      "vis_m": 9999,
      "fzfg": false,
      "metar_trigger": false,
      "taf_trigger": false,
      "metar": "METAR LCPH 122330Z VRB03KT CAVOK 18/16 Q1006 NOSIG",
      "taf": "TAF LCPH 122330Z 1300/1400 14009KT 9999 FEW020 SCT035"
    },
    {
      "icao": "LEAL",
      "alert": "OK",
      "vis_m": 9999,
      "fzfg": false,
      "metar_trigger": false,
      "taf_trigger": false,
      "metar": "METAR LEAL 122330Z 19003KT 160V240 CAVOK 15/05 Q1012 NOSIG",
      "taf": "TAF LEAL 122300Z 1300/1324 VRB04KT 9999 FEW060 TX22/1313Z TN09/1306Z"
    },
    {
      "icao": "LEBB",
      "alert": "OK",
      "vis_m": 9999,
      "fzfg": false,
      "metar_trigger": false,
      "taf_trigger": false,
      "metar": "METAR LEBB 122330Z AUTO 19011G21KT 140V260 CAVOK 15/05 Q1004",
      "taf": "TAF LEBB 122300Z 1300/1324 20009KT 9999 SCT060 TX17/1301Z TN08/1323Z"
    },
    {
      "icao": "LEBL",
      "alert": "OK",
      "vis_m": 9999,
      "fzfg": false,
      "metar_trigger": false,
      "taf_trigger": false,
      "metar": "METAR LEBL 122330Z 27021KT 9999 FEW020 16/04 Q1005 NOSIG",
      "taf": ""
    },
    {
      "icao": "LECH",
      "alert": "OK",
      "vis_m": 9999,
      "fzfg": false,
      "metar_trigger": false,
      "taf_trigger": false,
      "metar": "METAR LECH 122330Z AUTO 30002KT CAVOK 10/02 Q1008",
      "taf": ""
    },
    {
      "icao": "LEMD",
      "alert": "OK",
      "vis_m": 9999,
      "fzfg": false,
      "metar_trigger": false,
      "taf_trigger": false,
      "metar": "METAR LEMD 122330Z 17005KT 9999 -RA FEW018 SCT030 BKN045 09/09 Q1010 NOSIG",
      "taf": "TAF LEMD 122300Z 1300/1406 20008KT 9999 SCT035 TX12/1315Z TN06/1324Z"
    },
    {
      "icao": "LEMG",
      "alert": "OK",
      "vis_m": 9999,
      "fzfg": false,
      "metar_trigger": false,
      "taf_trigger": false,
      "metar": "METAR LEMG 122330Z 00000KT 9999 FEW036 SCT058 13/10 Q1014 NOSIG",
      "taf": "TAF LEMG 122300Z 1300/1324 VRB03KT 9999 SCT030 TX23/1314Z TN14/1307Z"
    },
    {
      "icao": "LEVC",
      "alert": "OK",
      "vis_m": 9999,
      "fzfg": false,
      "metar_trigger": false,
      "taf_trigger": false,
      "metar": "METAR LEVC 122330Z 18006KT 090V220 CAVOK 16/04 Q1010 NOSIG",
      "taf": "TAF LEVC 122300Z 1300/1324 VRB04KT 9999 FEW040 TX21/1314Z TN12/1306Z"
    },
    {
      "icao": "LEXJ",
      "alert": "OK",
      "vis_m": 9999,
      "fzfg": false,
      "metar_trigger": false,
      "taf_trigger": false,
      "metar": "METAR LEXJ 122330Z AUTO 21014G25KT 170V260 CAVOK 15/03 Q1002",
      "taf": ""
    },
    {
      "icao": "LEZG",
      "alert": "OK",
      "vis_m": 9999,
      "fzfg": false,
      "metar_trigger": false,
      "taf_trigger": false,
      "metar": "METAR LEZG 122330Z 23013KT CAVOK 14/04 Q1007 NOSIG",
      "taf": "TAF LEZG 122300Z 1300/1324 23015KT 9999 FEW020 TX12/1312Z TN08/1306Z"
    },
    {
      "icao": "LEZL",
      "alert": "OK",
      "vis_m": 2500,
      "fzfg": false,
      "metar_trigger": false,
      "taf_trigger": false,
      "metar": "METAR LEZL 122330Z 19008KT 150V230 2500 BR OVC004 16/16 Q1013 NOSIG",
      "taf": ""
    },
    {
      "icao": "LFBD",
      "alert": "OK",
      "vis_m": 9999,
      "fzfg": false,
      "metar_trigger": false,
      "taf_trigger": false,
      "metar": "METAR LFBD 122330Z AUTO 23006KT 9999 ///TCU 11/09 Q1003 BECMG BKN030",
      "taf": "TAF LFBD 122300Z 1300/1406 24010KT CAVOK TX12/1314Z TN09/1306Z"
    },
    {
      "icao": "LFLL",
      "alert": "OK",
      "vis_m": 9999,
      "fzfg": false,
      "metar_trigger": false,
      "taf_trigger": false,
      "metar": "METAR LFLL 122330Z 22006KT 9999 FEW029 SCT040 BKN053 08/04 Q1003 NOSIG",
      "taf": "TAF LFLL 122300Z 1300/1406 15006KT CAVOK"
    },
    {
      "icao": "LFLS",
      "alert": "OK",
      "vis_m": 9999,
      "fzfg": false,
      "metar_trigger": false,
      "taf_trigger": false,
      "metar": "METAR LFLS 122330Z AUTO 05003KT 9999 -RA BKN032 OVC056 06/05 Q1003",
      "taf": "TAF LFLS 121400Z 1215/1315 20012KT 9999 BKN045"
    },
    {
      "icao": "LFMN",
      "alert": "OK",
      "vis_m": 9999,
      "fzfg": false,
      "metar_trigger": false,
      "taf_trigger": false,
      "metar": "METAR LFMN 122330Z 27017KT CAVOK 14/01 Q0993 NOSIG",
      "taf": ""
    },
    {
      "icao": "LFOB",
      "alert": "OK",
      "vis_m": 9999,
      "fzfg": false,
      "metar_trigger": false,
      "taf_trigger": false,
      "metar": "METAR LFOB 122330Z AUTO 23007KT 9999 SCT024 BKN030 BKN037 08/06 Q0994 TEMPO 4000 -SHRA BKN013TCU",
      "taf": "TAF LFOB 122300Z 1300/1324 21010KT 9999 BKN020"
    },
    {
      "icao": "LFPO",
      "alert": "OK",
      "vis_m": 9999,
      "fzfg": false,
      "metar_trigger": false,
      "taf_trigger": false,
      "metar": "METAR LFPO 122330Z AUTO 22006KT CAVOK 08/06 Q0996 TEMPO 4500 -SHRA BKN014TCU",
      "taf": "TAF LFPO 122300Z 1300/1406 22009KT 9999 FEW016"
    },
    {
      "icao": "LFSB",
      "alert": "OK",
      "vis_m": 9999,
      "fzfg": false,
      "metar_trigger": false,
      "taf_trigger": false,
      "metar": "METAR LFSB 122330Z AUTO 26015KT 9999 SCT036/// BKN050/// BKN084/// ///TCU 08/04 Q0997 BECMG 25015G25KT SCT030 BKN050",
      "taf": "TAF LFSB 122300Z 1300/1324 25015G25KT 9999 SCT030 BKN050"
    },
    {
      "icao": "LGAV",
      "alert": "OK",
      "vis_m": 9999,
      "fzfg": false,
      "metar_trigger": false,
      "taf_trigger": false,
      "metar": "METAR LGAV 122350Z 29004KT 210V010 9999 SCT025 BKN070 12/10 Q0989 NOSIG",
      "taf": "TAF LGAV 122300Z 1300/1324 25011KT 9999 FEW012 SCT025"
    },
    {
      "icao": "LGTS",
      "alert": "OK",
      "vis_m": 9999,
      "fzfg": false,
      "metar_trigger": false,
      "taf_trigger": false,
      "metar": "METAR LGTS 122350Z 17004KT 9999 -DZ SCT020 11/11 Q0987 NOSIG",
      "taf": "TAF LGTS 122300Z 1300/1324 VRB03KT 9999 BKN030"
    },
    {
      "icao": "LHBP",
      "alert": "OK",
      "vis_m": 3000,
      "fzfg": false,
      "metar_trigger": false,
      "taf_trigger": false,
      "metar": "METAR LHBP 122330Z 14002KT 3000 R31L/0600N R31R/0800D BCFG BR NSC 07/07 Q0988 NOSIG",
      "taf": "TAF LHBP 122315Z 1300/1324 VRB03KT 0300 FG VV001"
    },
    {
      "icao": "LHDC",
      "alert": "OK",
      "vis_m": 9999,
      "fzfg": false,
      "metar_trigger": false,
      "taf_trigger": false,
      "metar": "METAR LHDC 122315Z AUTO 17004KT CAVOK 09/05 Q0989",
      "taf": ""
    },
    {
      "icao": "LIBD",
      "alert": "OK",
      "vis_m": 9999,
      "fzfg": false,
      "metar_trigger": false,
      "taf_trigger": false,
      "metar": "METAR LIBD 122350Z 28008KT 9999 SCT030 11/08 Q0988",
      "taf": "TAF LIBD 122300Z 1300/1324 29014KT 9999 SCT020"
    },
    {
      "icao": "LIBG",
      "alert": "OK",
      "vis_m": null,
      "fzfg": false,
      "metar_trigger": false,
      "taf_trigger": false,
      "metar": "",
      "taf": "TAF LIBG 121700Z 1218/1303 VRB05KT 9999 BKN020"
    },
    {
      "icao": "LIBP",
      "alert": "OK",
      "vis_m": 4300,
      "fzfg": false,
      "metar_trigger": false,
      "taf_trigger": false,
      "metar": "METAR LIBP 122350Z AUTO 25003KT 4300 BR OVC033/// 10/10 Q0991",
      "taf": "TAF LIBP 122300Z 1300/1324 VRB05KT 9999 BKN050"
    },
    {
      "icao": "LIBR",
      "alert": "OK",
      "vis_m": 9999,
      "fzfg": false,
      "metar_trigger": false,
      "taf_trigger": false,
      "metar": "METAR LIBR 122350Z 29012KT 9999 -RA BKN015 11/10 Q0986",
      "taf": "TAF LIBR 122300Z 1300/1324 29014KT 9999 FEW020"
    },
    {
      "icao": "LICA",
      "alert": "OK",
      "vis_m": 7000,
      "fzfg": false,
      "metar_trigger": false,
      "taf_trigger": false,
      "metar": "METAR LICA 122350Z AUTO 26022G32KT 7000 BKN019/// 15/12 Q0990",
      "taf": "TAF LICA 122300Z 1300/1324 26025G35KT 9999 BKN020"
    },
    {
      "icao": "LICC",
      "alert": "OK",
      "vis_m": 9999,
      "fzfg": false,
      "metar_trigger": false,
      "taf_trigger": false,
      "metar": "METAR LICC 122350Z 27026KT CAVOK 14/10 Q0992",
      "taf": "TAF LICC 122300Z 1300/1324 28025G35KT 9999 SCT060"
    },
    {
      "icao": "LICJ",
      "alert": "OK",
      "vis_m": 9999,
      "fzfg": false,
      "metar_trigger": false,
      "taf_trigger": false,
      "metar": "METAR LICJ 122350Z 26026KT 9999 SCT030 15/10 Q0999",
      "taf": "TAF LICJ 122300Z 1300/1324 25028G38KT 7000 SCT030"
    },
    {
      "icao": "LIMC",
      "alert": "OK",
      "vis_m": 9999,
      "fzfg": false,
      "metar_trigger": false,
      "taf_trigger": false,
      "metar": "METAR LIMC 122350Z 30006KT CAVOK 06/05 Q0993 NOSIG",
      "taf": "TAF LIMC 122300Z 1300/1406 VRB05KT 7000 NSC"
    },
    {
      "icao": "LIME",
      "alert": "OK",
      "vis_m": 9999,
      "fzfg": false,
      "metar_trigger": false,
      "taf_trigger": false,
      "metar": "METAR LIME 122350Z 36003KT CAVOK 06/05 Q0991 NOSIG",
      "taf": "TAF LIME 122300Z 1300/1324 VRB06KT 9999 FEW020"
    },
    {
      "icao": "LIMF",
      "alert": "OK",
      "vis_m": 8000,
      "fzfg": false,
      "metar_trigger": false,
      "taf_trigger": false,
      "metar": "METAR LIMF 122350Z 12004KT 080V180 8000 NSC 07/04 Q0993",
      "taf": "TAF LIMF 122300Z 1300/1324 VRB05KT 8000 FEW030"
    },
    {
      "icao": "LIMJ",
      "alert": "OK",
      "vis_m": 9999,
      "fzfg": false,
      "metar_trigger": false,
      "taf_trigger": false,
      "metar": "METAR LIMJ 122350Z 07009KT CAVOK 14/01 Q0992",
      "taf": "TAF LIMJ 122300Z 1300/1324 01010KT CAVOK"
    },
    {
      "icao": "LIPE",
      "alert": "OK",
      "vis_m": 9999,
      "fzfg": false,
      "metar_trigger": false,
      "taf_trigger": false,
      "metar": "METAR LIPE 122350Z 23007KT CAVOK 08/05 Q0991",
      "taf": "TAF LIPE 122300Z 1300/1324 26010KT CAVOK"
    },
    {
      "icao": "LIPH",
      "alert": "OK",
      "vis_m": 150,
      "fzfg": false,
      "metar_trigger": false,
      "taf_trigger": false,
      "metar": "METAR LIPH 122350Z AUTO VRB02KT 0150 0100W R07/0400N FG FEW005/// BKN160/// 06/06 Q0990",
      "taf": "TAF LIPH 122300Z 1300/1324 VRB05KT 0100 FG BKN001"
    },
    {
      "icao": "LIPQ",
      "alert": "OK",
      "vis_m": 150,
      "fzfg": false,
      "metar_trigger": false,
      "taf_trigger": false,
      "metar": "METAR LIPQ 122350Z AUTO VRB02KT 0150 R09/0450D FG VV001 09/08 Q0990",
      "taf": "TAF LIPQ 122300Z 1300/1324 VRB05KT 0400 FG BKN001"
    },
    {
      "icao": "LIPR",
      "alert": "OK",
      "vis_m": 9999,
      "fzfg": false,
      "metar_trigger": false,
      "taf_trigger": false,
      "metar": "METAR LIPR 122350Z AUTO 30003KT 9999 BKN130/// 07/07 Q0991",
      "taf": "TAF LIPR 122300Z 1300/1324 VRB05KT 7000 FEW050"
    },
    {
      "icao": "LIPX",
      "alert": "OK",
      "vis_m": 3000,
      "fzfg": false,
      "metar_trigger": false,
      "taf_trigger": false,
      "metar": "METAR LIPX 122350Z VRB02KT 3000 0500S R04/0400N PRFG FEW005 04/04 Q0991",
      "taf": "TAF LIPX 122300Z 1300/1324 VRB05KT 8000 SCT020"
    },
    {
      "icao": "LIPY",
      "alert": "OK",
      "vis_m": 8000,
      "fzfg": false,
      "metar_trigger": false,
      "taf_trigger": false,
      "metar": "METAR LIPY 122350Z AUTO 34003KT 8000 NCD 08/08 Q0991",
      "taf": "TAF LIPY 122300Z 1300/1324 31010KT 7000 BKN070"
    },
    {
      "icao": "LIPZ",
      "alert": "OK",
      "vis_m": 4000,
      "fzfg": false,
      "metar_trigger": false,
      "taf_trigger": false,
      "metar": "METAR LIPZ 122350Z 25004KT 4000 R04R/0750D BR NSC 07/07 Q0990 BECMG 1200BR",
      "taf": "TAF LIPZ 122300Z 1300/1406 VRB05KT 6000 NSC"
    },
    {
      "icao": "LIRF",
      "alert": "OK",
      "vis_m": 9999,
      "fzfg": false,
      "metar_trigger": false,
      "taf_trigger": false,
      "metar": "METAR LIRF 122350Z 34004KT CAVOK 11/08 Q0992 NOSIG",
      "taf": "TAF LIRF 122300Z 1300/1406 30011KT 9999 FEW020 BKN050"
    },
    {
      "icao": "LIRN",
      "alert": "OK",
      "vis_m": 9999,
      "fzfg": false,
      "metar_trigger": false,
      "taf_trigger": false,
      "metar": "METAR LIRN 122350Z 29004KT 250V330 CAVOK 12/09 Q0990 NOSIG",
      "taf": "TAF LIRN 122300Z 1300/1324 VRB06KT 9999 SCT060"
    },
    {
      "icao": "LIRP",
      "alert": "OK",
      "vis_m": 9999,
      "fzfg": false,
      "metar_trigger": false,
      "taf_trigger": false,
      "metar": "METAR LIRP 122345Z 06005KT CAVOK 08/07 Q0991 NOSIG",
      "taf": "TAF LIRP 122300Z 1300/1324 VRB03KT 8000 FEW010"
    },
    {
      "icao": "LIRZ",
      "alert": "OK",
      "vis_m": 9999,
      "fzfg": false,
      "metar_trigger": false,
      "taf_trigger": false,
      "metar": "METAR LIRZ 122350Z AUTO VRB02KT 9999 BKN029/// 08/07 Q0992",
      "taf": "TAF LIRZ 122300Z 1300/1324 VRB05KT 3000 BR BKN030"
    },
    {
      "icao": "LJLJ",
      "alert": "OK",
      "vis_m": 400,
      "fzfg": false,
      "metar_trigger": false,
      "taf_trigger": false,
      "metar": "METAR LJLJ 122330Z VRB02KT 0400 R30/1500U FG BKN001 06/05 Q0990 NOSIG",
      "taf": "TAF LJLJ 122300Z 1300/1400 VRB02KT 0400 FG VV002"
    },
    {
      "icao": "LKMT",
      "alert": "OK",
      "vis_m": 9999,
      "fzfg": false,
      "metar_trigger": false,
      "taf_trigger": false,
      "metar": "METAR LKMT 122330Z 22013KT 9999 FEW023 OVC035 07/05 Q0986 NOSIG",
      "taf": "TAF LKMT 122300Z 1300/1324 22012KT 9999 BKN040"
    },
    {
      "icao": "LKPR",
      "alert": "OK",
      "vis_m": 9999,
      "fzfg": false,
      "metar_trigger": false,
      "taf_trigger": false,
      "metar": "METAR LKPR 122330Z 23015KT 9999 BKN033 06/04 Q0986 NOSIG",
      "taf": "TAF LKPR 122300Z 1300/1406 22016KT 9999 SCT035"
    },
    {
      "icao": "LLBG",
      "alert": "OK",
      "vis_m": 9999,
      "fzfg": false,
      "metar_trigger": false,
      "taf_trigger": false,
      "metar": "METAR LLBG 122350Z 12004KT CAVOK 17/05 Q1011 NOSIG",
      "taf": "TAF LLBG 122303Z 1300/1324 14005KT CAVOK"
    },
    {
      "icao": "LMML",
      "alert": "OK",
      "vis_m": 9999,
      "fzfg": false,
      "metar_trigger": false,
      "taf_trigger": false,
      "metar": "METAR LMML 122345Z 28031G43KT 9999 FEW025 BKN032 15/09 Q1001 NOSIG",
      "taf": "TAF LMML 122300Z 1300/1324 28035G48KT 9999 FEW020"
    },
    {
      "icao": "LOWW",
      "alert": "OK",
      "vis_m": 9999,
      "fzfg": false,
      "metar_trigger": false,
      "taf_trigger": false,
      "metar": "METAR LOWW 122350Z 29016KT CAVOK 10/03 Q0989 NOSIG",
      "taf": "TAF LOWW 122315Z 1300/1406 27015G25KT 9999 FEW050 TX12/1314Z TN00/1402Z"
    },
    {
      "icao": "LPFR",
      "alert": "OK",
      "vis_m": 8000,
      "fzfg": false,
      "metar_trigger": false,
      "taf_trigger": false,
      "metar": "METAR LPFR 122330Z 22015KT 8000 -RADZ SCT006 BKN014 15/15 Q1013",
      "taf": "TAF LPFR 122300Z 1300/1324 23017KT 6000 -RA SCT008 BKN015"
    },
    {
      "icao": "LPMA",
      "alert": "OK",
      "vis_m": 9999,
      "fzfg": false,
      "metar_trigger": false,
      "taf_trigger": false,
      "metar": "METAR LPMA 122330Z VRB02KT 9999 BKN015 16/10 Q1022",
      "taf": "TAF LPMA 122300Z 1300/1324 VRB05KT 9999 SCT015"
    },
    {
      "icao": "LPPR",
      "alert": "OK",
      "vis_m": 9999,
      "fzfg": false,
      "metar_trigger": false,
      "taf_trigger": false,
      "metar": "METAR LPPR 122330Z 17016KT 9999 -RA FEW008 SCT011 BKN035 12/11 Q1004",
      "taf": "TAF LPPR 122300Z 1300/1324 18012KT 6000 -RA SCT008 BKN015"
    },
    {
      "icao": "LPPS",
      "alert": "OK",
      "vis_m": 9999,
      "fzfg": false,
      "metar_trigger": false,
      "taf_trigger": false,
      "metar": "METAR LPPS 122330Z 27015KT 9999 FEW014 17/14 Q1022",
      "taf": "TAF LPPS 122300Z 1300/1406 27015KT 9999 SCT015 SCT030"
    },
    {
      "icao": "LPPT",
      "alert": "OK",
      "vis_m": 3000,
      "fzfg": false,
      "metar_trigger": false,
      "taf_trigger": false,
      "metar": "METAR LPPT 122330Z 22023G35KT 3000 -RADZ BR FEW002 BKN004 15/15 Q1007",
      "taf": "TAF LPPT 122300Z 1300/1406 23018G30KT 5000 -RADZ BR SCT002 BKN004"
    },
    {
      "icao": "LQBK",
      "alert": "OK",
      "vis_m": 9999,
      "fzfg": false,
      "metar_trigger": false,
      "taf_trigger": false,
      "metar": "METAR LQBK 122330Z 29012KT 9999 -RA SCT043 11/08 Q0989 NOSIG",
      "taf": "TAF LQBK 122300Z 1300/1324 29005KT 9999 SCT045 TX12/1313Z TN05/1324Z"
    },
    {
      "icao": "LQSA",
      "alert": "OK",
      "vis_m": 9999,
      "fzfg": false,
      "metar_trigger": false,
      "taf_trigger": false,
      "metar": "METAR LQSA 122330Z VRB02KT 9999 -RA FEW035 BKN050 07/07 Q0989",
      "taf": "TAF LQSA 122300Z 1300/1324 17005KT 9999 SCT050 TX10/1313Z TN05/1304Z"
    },
    {
      "icao": "LQTZ",
      "alert": "OK",
      "vis_m": 9999,
      "fzfg": false,
      "metar_trigger": false,
      "taf_trigger": false,
      "metar": "METAR LQTZ 122330Z VRB01KT 9999 -RA FEW040 SCT050 BKN060 08/06 Q0989",
      "taf": "TAF LQTZ 122300Z 1300/1324 10005KT 9999 SCT055 TX11/1314Z TN05/1324Z"
    },
    {
      "icao": "LRBC",
      "alert": "OK",
      "vis_m": 300,
      "fzfg": false,
      "metar_trigger": false,
      "taf_trigger": false,
      "metar": "METAR LRBC 122330Z 16004KT 0300 R16/0375N FG VV001 02/02 Q0991",
      "taf": "TAF LRBC 122300Z 1300/1309 17005KT 0800 FG BKN002"
    },
    {
      "icao": "LRBS",
      "alert": "OK",
      "vis_m": 1200,
      "fzfg": false,
      "metar_trigger": false,
      "taf_trigger": false,
      "metar": "METAR LRBS 122330Z 00000KT 1200 R07/0225N PRFG BR FEW001 02/02 Q0991 BECMG 0600 FG",
      "taf": "TAF LRBS 122300Z 1300/1324 VRB04KT 0200 FG VV001"
    },
    {
      "icao": "LRBV",
      "alert": "OK",
      "vis_m": 9999,
      "fzfg": false,
      "metar_trigger": false,
      "taf_trigger": false,
      "metar": "METAR LRBV 122330Z AUTO VRB02KT 9999 NCD 01/M01 Q0990",
      "taf": "TAF LRBV 122000Z 1221/1306 VRB04KT CAVOK"
    },
    {
      "icao": "LRCL",
      "alert": "OK",
      "vis_m": 9999,
      "fzfg": false,
      "metar_trigger": false,
      "taf_trigger": false,
      "metar": "METAR LRCL 122330Z AUTO 26001KT 9999 NCD 02/01 Q0990",
      "taf": "TAF LRCL 122300Z 1300/1309 VRB04KT CAVOK"
    },
    {
      "icao": "LRCV",
      "alert": "OK",
      "vis_m": 300,
      "fzfg": false,
      "metar_trigger": false,
      "taf_trigger": false,
      "metar": "METAR LRCV 122330Z 27003KT 0300 R26/0600N FG VV002 02/02 Q0992",
      "taf": "TAF LRCV 122300Z 1300/1309 VRB04KT 0300 FG VV001"
    },
    {
      "icao": "LRIA",
      "alert": "OK",
      "vis_m": 5000,
      "fzfg": false,
      "metar_trigger": false,
      "taf_trigger": false,
      "metar": "METAR LRIA 122330Z 11011KT 5000 BR NSC 03/02 Q0991",
      "taf": "TAF LRIA 122300Z 1300/1309 11008KT 5000 BR NSC"
    },
    {
      "icao": "LROP",
      "alert": "OK",
      "vis_m": 800,
      "fzfg": false,
      "metar_trigger": false,
      "taf_trigger": false,
      "metar": "METAR LROP 122330Z 02003KT 0800 R08R/1100D R08L/0500N FG FEW003 04/04 Q0991 BECMG 0300 FG OVC001",
      "taf": "TAF LROP 122300Z 1300/1324 VRB04KT 0800 FG OVC002"
    },
    {
      "icao": "LRSB",
      "alert": "OK",
      "vis_m": 9999,
      "fzfg": false,
      "metar_trigger": false,
      "taf_trigger": false,
      "metar": "METAR LRSB 122330Z 26003KT CAVOK 02/M00 Q0990",
      "taf": "TAF LRSB 122300Z 1300/1324 VRB04KT CAVOK"
    },
    {
      "icao": "LRSM",
      "alert": "OK",
      "vis_m": 9999,
      "fzfg": false,
      "metar_trigger": false,
      "taf_trigger": false,
      "metar": "METAR LRSM 122330Z AUTO 17004KT 9999 FEW080/// BKN220/// 07/04 Q0989",
      "taf": "TAF LRSM 121400Z 1215/1224 15006KT CAVOK"
    },
    {
      "icao": "LRSV",
      "alert": "OK",
      "vis_m": 3000,
      "fzfg": false,
      "metar_trigger": false,
      "taf_trigger": false,
      "metar": "METAR LRSV 122330Z 22007KT 3000 BR NSC 01/01 Q0990",
      "taf": "TAF LRSV 122300Z 1300/1309 VRB04KT 3000 BR NSC"
    },
    {
      "icao": "LRTM",
      "alert": "OK",
      "vis_m": 9999,
      "fzfg": false,
      "metar_trigger": false,
      "taf_trigger": false,
      "metar": "METAR LRTM 122330Z AUTO 09007KT 9999 NCD 02/01 Q0990",
      "taf": "TAF LRTM 122300Z 1300/1309 VRB04KT CAVOK"
    },
    {
      "icao": "LRTR",
      "alert": "OK",
      "vis_m": 9999,
      "fzfg": false,
      "metar_trigger": false,
      "taf_trigger": false,
      "metar": "METAR LRTR 122330Z 09006KT CAVOK 06/05 Q0989",
      "taf": "TAF LRTR 122300Z 1300/1324 08010KT CAVOK"
    },
    {
      "icao": "LTAC",
      "alert": "OK",
      "vis_m": 9999,
      "fzfg": false,
      "metar_trigger": false,
      "taf_trigger": false,
      "metar": "METAR LTAC 122350Z 22007KT 9999 SCT040 BKN100 07/03 Q1000 NOSIG RMK RWY21C 21007KT RWY03L 22006KT RWY21R 22006KT RWY03R 21007KT RWY21L 22006KT",
      "taf": "TAF LTAC 122240Z 1300/1324 21009KT 9999 SCT040 BKN100"
    },
    {
      "icao": "LTFM",
      "alert": "OK",
      "vis_m": 9999,
      "fzfg": false,
      "metar_trigger": false,
      "taf_trigger": false,
      "metar": "METAR LTFM 122350Z 18004KT 9999 SCT032 BKN090 10/09 Q0992 NOSIG RMK RWY17L 20006G18KT RWY34L VRB02KT RWY16R 18003KT RWY36 17002KT RWY18 19004KT",
      "taf": "TAF LTFM 122240Z 1300/1406 10005KT 9999 SCT032 BKN080"
    },
    {
      "icao": "LUKK",
      "alert": "OK",
      "vis_m": 1100,
      "fzfg": false,
      "metar_trigger": false,
      "taf_trigger": false,
      "metar": "METAR LUKK 122330Z 17005KT 140V200 1100 0700S R08/1200D BR PRFG OVC002 04/04 Q0993 TEMPO 0600 FG VV002",
      "taf": "TAF LUKK 122312Z 1300/1324 VRB06KT 1200 BR OVC002"
    },
    {
      "icao": "LWOH",
      "alert": "OK",
      "vis_m": null,
      "fzfg": false,
      "metar_trigger": false,
      "taf_trigger": false,
      "metar": "",
      "taf": "TAF LWOH 122310Z 1300/1324 VRB02KT 9999 SCT020 BKN050"
    },
    {
      "icao": "LWSK",
      "alert": "OK",
      "vis_m": 9999,
      "fzfg": false,
      "metar_trigger": false,
      "taf_trigger": false,
      "metar": "METAR LWSK 122350Z VRB01KT 9999 SCT023 BKN033 08/07 Q0988 NOSIG",
      "taf": "TAF LWSK 122310Z 1300/1324 VRB02KT 9999 SCT026 BKN070"
    },
    {
      "icao": "LYBE",
      "alert": "OK",
      "vis_m": 9999,
      "fzfg": false,
      "metar_trigger": false,
      "taf_trigger": false,
      "metar": "METAR LYBE 122330Z 09004KT CAVOK 06/03 Q0989 NOSIG",
      "taf": "TAF LYBE 122300Z 1300/1324 35005KT CAVOK TX13/1313Z TN04/1306Z"
    },
    {
      "icao": "LYNI",
      "alert": "OK",
      "vis_m": 9999,
      "fzfg": false,
      "metar_trigger": false,
      "taf_trigger": false,
      "metar": "METAR LYNI 122330Z VRB02KT 9999 FEW070 08/05 Q0989 NOSIG",
      "taf": "TAF LYNI 122300Z 1300/1324 08006KT 9999 SCT060 TX11/1313Z TN05/1306Z"
    },
    {
      "icao": "LYPG",
      "alert": "OK",
      "vis_m": 9999,
      "fzfg": false,
      "metar_trigger": false,
      "taf_trigger": false,
      "metar": "METAR LYPG 122330Z 34003KT 9999 FEW030 SCT040 OVC070 10/10 Q0987 NOSIG",
      "taf": "TAF LYPG 122300Z 1300/1324 VRB02KT 8000 FEW010 SCT030 OVC070 TX14/1312Z TN07/1305Z"
    },
    {
      "icao": "LZIB",
      "alert": "OK",
      "vis_m": 9999,
      "fzfg": false,
      "metar_trigger": false,
      "taf_trigger": false,
      "metar": "METAR LZIB 122330Z 27013KT CAVOK 09/04 Q0988 NOSIG",
      "taf": "TAF LZIB 122315Z 1300/1400 28010KT 9999 FEW050"
    },
    {
      "icao": "LZKZ",
      "alert": "OK",
      "vis_m": 600,
      "fzfg": false,
      "metar_trigger": false,
      "taf_trigger": false,
      "metar": "METAR LZKZ 122330Z 34004KT 0600 R01/1200D -RA FG SCT005 BKN010 06/06 Q0988 NOSIG",
      "taf": "TAF LZKZ 122315Z 1300/1400 20004KT 6000 BR BKN035"
    },
    {
      "icao": "LZTT",
      "alert": "OK",
      "vis_m": 700,
      "fzfg": false,
      "metar_trigger": false,
      "taf_trigger": false,
      "metar": "METAR LZTT 122330Z 18004KT 0700 R27/P2000D FG BKN005 02/02 Q0986",
      "taf": "TAF LZTT 122315Z 1300/1400 20005KT 9999 BKN025"
    },
    {
      "icao": "OEJN",
      "alert": "OK",
      "vis_m": 9999,
      "fzfg": false,
      "metar_trigger": false,
      "taf_trigger": false,
      "metar": "METAR OEJN 122300Z 34003KT CAVOK 24/17 Q1012 NOSIG",
      "taf": "TAF OEJN 122300Z 1300/1406 36005KT 7000 NSC"
    },
    {
      "icao": "OEMA",
      "alert": "OK",
      "vis_m": 9999,
      "fzfg": false,
      "metar_trigger": false,
      "taf_trigger": false,
      "metar": "METAR OEMA 122300Z 29005KT CAVOK 23/12 Q1017 NOSIG",
      "taf": "TAF OEMA 122300Z 1300/1406 VRB03KT CAVOK"
    },
    {
      "icao": "OJAI",
      "alert": "OK",
      "vis_m": 4000,
      "fzfg": false,
      "metar_trigger": false,
      "taf_trigger": false,
      "metar": "METAR OJAI 122300Z 33002KT 4000 HZ NSC 08/03 Q1015 NOSIG",
      "taf": "TAF OJAI 122250Z 1300/1406 26008KT 4000 HZ FEW035"
    },
    {
      "icao": "OMAA",
      "alert": "OK",
      "vis_m": 9999,
      "fzfg": false,
      "metar_trigger": false,
      "taf_trigger": false,
      "metar": "METAR OMAA 122330Z 09007KT CAVOK 20/15 Q1016 NOSIG",
      "taf": "TAF OMAA 122300Z 1300/1406 14008KT 8000 NSC"
    },
    {
      "icao": "OMDB",
      "alert": "OK",
      "vis_m": 9999,
      "fzfg": false,
      "metar_trigger": false,
      "taf_trigger": false,
      "metar": "METAR OMDB 122300Z 16004KT CAVOK 23/16 Q1016 NOSIG",
      "taf": "TAF OMDB 122300Z 1300/1406 12005KT 8000 NSC"
    },
    {
      "icao": "UAAA",
      "alert": "OK",
      "vis_m": 5000,
      "fzfg": false,
      "metar_trigger": false,
      "taf_trigger": false,
      "metar": "METAR UAAA 122330Z COR 31002MPS 5000 -FZRA BR BKN033CB OVC100 M06/M07 Q1017 NOSIG",
      "taf": ""
    },
    {
      "icao": "UBBB",
      "alert": "OK",
      "vis_m": 9999,
      "fzfg": false,
      "metar_trigger": false,
      "taf_trigger": false,
      "metar": "METAR UBBB 122330Z 19014KT CAVOK 05/02 Q1010 NOSIG",
      "taf": "TAF UBBB 122302Z 1300/1324 19016G26KT 9999 SCT030 TX12/1310Z TN04/1301Z"
    },
    {
      "icao": "UDSG",
      "alert": "OK",
      "vis_m": 500,
      "fzfg": false,
      "metar_trigger": false,
      "taf_trigger": false,
      "metar": "METAR UDSG 122330Z 26004KT 220V320 0500 R02/1200D FG VV002 00/00 Q1014 NOSIG",
      "taf": "TAF UDSG 122258Z 1300/1324 27010KT 1500 BR OVC010"
    },
    {
      "icao": "UDYZ",
      "alert": "OK",
      "vis_m": 2200,
      "fzfg": false,
      "metar_trigger": false,
      "taf_trigger": false,
      "metar": "METAR UDYZ 122330Z VRB01KT 2200 BR SCT020 03/03 Q1015 NOSIG",
      "taf": "TAF UDYZ 122300Z 1300/1324 VRB06KT 1200 BR SCT015"
    },
    {
      "icao": "UGKO",
      "alert": "OK",
      "vis_m": 9999,
      "fzfg": false,
      "metar_trigger": false,
      "taf_trigger": false,
      "metar": "METAR UGKO 122330Z 11015KT CAVOK 12/02 Q1008 NOSIG",
      "taf": ""
    }
  ]
}