{
  "ts_utc": "2026-02-14T08:24:03Z",
  "threshold_m": 150,
  "source": "stations_override.txt (ICAO list) + aviationweather.gov (METAR/TAF raw)",
  "station_count": 159,
  "stations": [
    {
      "icao": "BIKF",
      "alert": "OK",
      "vis_m": 9999,
      "fzfg": false,
      "metar_trigger": false,
      "taf_trigger": false,
      "metar": "METAR BIKF 140800Z 09009KT 9999 FEW043 SCT200 M05/M11 Q1004",
      "taf": "TAF BIKF 140454Z 1406/1506 09012KT 9999 FEW025 SCT040 TX00/1415Z TNM06/1506Z"
    },
    {
      "icao": "BKPR",
      "alert": "OK",
      "vis_m": null,
      "fzfg": false,
      "metar_trigger": false,
      "taf_trigger": false,
      "metar": "",
      "taf": "TAF BKPR 140530Z 1406/1506 16007KT 9999 SCT040"
    },
    {
      "icao": "EBCI",
      "alert": "OK",
      "vis_m": 9999,
      "fzfg": false,
      "metar_trigger": false,
      "taf_trigger": false,
      "metar": "METAR EBCI 140750Z 02011KT 9999 BKN011 M01/M03 Q1007 TEMPO BKN009",
      "taf": "TAF EBCI 140503Z 1406/1512 03012KT 8000 BKN009"
    },
    {
      "icao": "EDDB",
      "alert": "OK",
      "vis_m": 9999,
      "fzfg": false,
      "metar_trigger": false,
      "taf_trigger": false,
      "metar": "METAR EDDB 140750Z AUTO 02006KT 9999 OVC018 M00/M02 Q1005 NOSIG",
      "taf": "TAF EDDB 140500Z 1406/1506 02007KT 9999 SCT010 BKN015"
    },
    {
      "icao": "EDDH",
      "alert": "OK",
      "vis_m": 9999,
      "fzfg": false,
      "metar_trigger": false,
      "taf_trigger": false,
      "metar": "METAR EDDH 140750Z AUTO 01005KT 330V040 9999 FEW010 OVC017 M01/M03 Q1008 NOSIG",
      "taf": "TAF EDDH 140500Z 1406/1512 02006KT 9999 SCT008 BKN025"
    },
    {
      "icao": "EDDK",
      "alert": "OK",
      "vis_m": 9999,
      "fzfg": false,
      "metar_trigger": false,
      "taf_trigger": false,
      "metar": "METAR EDDK 140750Z AUTO 35010KT 9999 OVC011 01/M01 Q1006 TEMPO BKN008",
      "taf": "TAF EDDK 140500Z 1406/1512 35008KT 9999 OVC015"
    },
    {
      "icao": "EDDN",
      "alert": "OK",
      "vis_m": 9999,
      "fzfg": false,
      "metar_trigger": false,
      "taf_trigger": false,
      "metar": "METAR EDDN 140750Z AUTO 35005KT CAVOK 03/02 Q0999 TEMPO BKN012",
      "taf": "TAF EDDN 140500Z 1406/1506 25006KT 9999 BKN045"
    },
    {
      "icao": "EDDS",
      "alert": "OK",
      "vis_m": 9999,
      "fzfg": false,
      "metar_trigger": false,
      "taf_trigger": false,
      "metar": "METAR EDDS 140750Z AUTO 01006KT 9999 -RADZ BKN014 BKN024 OVC029 05/04 Q0997 TEMPO RA",
      "taf": "TAF EDDS 140500Z 1406/1506 36009KT 9999 FEW010 BKN025"
    },
    {
      "icao": "EDFH",
      "alert": "OK",
      "vis_m": 2400,
      "fzfg": false,
      "metar_trigger": false,
      "taf_trigger": false,
      "metar": "METAR EDFH 140750Z 36011KT 2400 -DZ BR OVC001 M01/M01 Q1001",
      "taf": ""
    },
    {
      "icao": "EDJA",
      "alert": "OK",
      "vis_m": 9999,
      "fzfg": false,
      "metar_trigger": false,
      "taf_trigger": false,
      "metar": "METAR EDJA 140750Z 03008KT 9999 SCT010 BKN014 03/01 Q0996",
      "taf": "TAF EDJA 140500Z 1406/1415 04007KT 9999 SCT008 BKN060"
    },
    {
      "icao": "EDLW",
      "alert": "OK",
      "vis_m": 9000,
      "fzfg": false,
      "metar_trigger": false,
      "taf_trigger": false,
      "metar": "METAR EDLW 140750Z 34008KT 9000 SCT005 OVC007 M01/M02 Q1006",
      "taf": "TAF EDLW 140500Z 1406/1506 01006KT 9999 SCT004 BKN007"
    },
    {
      "icao": "EDNY",
      "alert": "OK",
      "vis_m": 9999,
      "fzfg": false,
      "metar_trigger": false,
      "taf_trigger": false,
      "metar": "METAR EDNY 140750Z 04007KT CAVOK 05/02 Q0995",
      "taf": "TAF EDNY 140500Z 1406/1415 03006KT 9999 SCT015 BKN060"
    },
    {
      "icao": "EDSB",
      "alert": "OK",
      "vis_m": 7000,
      "fzfg": false,
      "metar_trigger": false,
      "taf_trigger": false,
      "metar": "METAR EDSB 140750Z 01011KT 7000 -RA BKN006 OVC013 05/04 Q0999",
      "taf": "TAF EDSB 140500Z 1406/1506 03012KT 9999 BKN005"
    },
    {
      "icao": "EETN",
      "alert": "OK",
      "vis_m": 9999,
      "fzfg": false,
      "metar_trigger": false,
      "taf_trigger": false,
      "metar": "METAR EETN 140820Z 05009KT 020V080 9999 FEW008 M12/M14 Q1009 NOSIG",
      "taf": "TAF EETN 140530Z 1406/1506 04012KT 9999 BKN010"
    },
    {
      "icao": "EFTU",
      "alert": "OK",
      "vis_m": 9999,
      "fzfg": false,
      "metar_trigger": false,
      "taf_trigger": false,
      "metar": "METAR EFTU 140820Z AUTO 07001KT CAVOK M18/M21 Q1012",
      "taf": "TAF EFTU 140528Z 1406/1506 07004KT CAVOK"
    },
    {
      "icao": "EGBB",
      "alert": "OK",
      "vis_m": 9999,
      "fzfg": false,
      "metar_trigger": false,
      "taf_trigger": false,
      "metar": "METAR EGBB 140750Z 30005KT CAVOK M01/M03 Q1015",
      "taf": "TAF EGBB 140456Z 1406/1506 30005KT 9999 FEW040"
    },
    {
      "icao": "EGGP",
      "alert": "OK",
      "vis_m": 9999,
      "fzfg": false,
      "metar_trigger": false,
      "taf_trigger": false,
      "metar": "METAR EGGP 140750Z VRB02KT CAVOK M01/M03 Q1016",
      "taf": "TAF EGGP 140457Z 1406/1506 34006KT CAVOK"
    },
    {
      "icao": "EGGW",
      "alert": "OK",
      "vis_m": 9999,
      "fzfg": false,
      "metar_trigger": false,
      "taf_trigger": false,
      "metar": "METAR EGGW 140750Z AUTO 34009KT 240V360 9999 NCD M00/M02 Q1014",
      "taf": "TAF EGGW 140457Z 1406/1506 34008KT 9999 FEW030"
    },
    {
      "icao": "EGKK",
      "alert": "OK",
      "vis_m": 9999,
      "fzfg": false,
      "metar_trigger": false,
      "taf_trigger": false,
      "metar": "METAR EGKK 140750Z 02007KT 9999 FEW035 01/M04 Q1014",
      "taf": "TAF EGKK 140453Z 1406/1512 01010KT 9999 SCT035"
    },
    {
      "icao": "EGNM",
      "alert": "OK",
      "vis_m": 9999,
      "fzfg": false,
      "metar_trigger": false,
      "taf_trigger": false,
      "metar": "METAR EGNM 140750Z 28005KT 240V310 CAVOK M02/M05 Q1014",
      "taf": "TAF EGNM 140456Z 1406/1506 29006KT CAVOK"
    },
    {
      "icao": "EGPD",
      "alert": "OK",
      "vis_m": 9999,
      "fzfg": false,
      "metar_trigger": false,
      "taf_trigger": false,
      "metar": "METAR EGPD 140750Z COR AUTO 29009KT 9999 NCD 00/M03 Q1012 NOSIG",
      "taf": "TAF EGPD 140453Z 1406/1506 28010KT 9999 FEW020"
    },
    {
      "icao": "EGPF",
      "alert": "OK",
      "vis_m": 9999,
      "fzfg": false,
      "metar_trigger": false,
      "taf_trigger": false,
      "metar": "METAR EGPF 140750Z AUTO 06002KT 9999 NCD M05/M06 Q1015",
      "taf": "TAF EGPF 140454Z 1406/1506 27004KT 9999 FEW035"
    },
    {
      "icao": "EHBK",
      "alert": "OK",
      "vis_m": 9999,
      "fzfg": false,
      "metar_trigger": false,
      "taf_trigger": false,
      "metar": "METAR EHBK 140755Z AUTO 02012KT 350V060 9999 OVC011 00/M02 Q1007 NOSIG",
      "taf": "TAF EHBK 140516Z 1406/1512 01012KT 9999 BKN008"
    },
    {
      "icao": "EHEH",
      "alert": "OK",
      "vis_m": 9999,
      "fzfg": false,
      "metar_trigger": false,
      "taf_trigger": false,
      "metar": "METAR EHEH 140755Z AUTO 36009KT 330V050 9999 FEW014 OVC017 00/M03 Q1009 WHT NOSIG RMK TREND REMOTE BY EHWX",
      "taf": "TAF EHEH 140526Z 1406/1512 02011KT 9999 BKN018"
    },
    {
      "icao": "EKBI",
      "alert": "OK",
      "vis_m": 9999,
      "fzfg": false,
      "metar_trigger": false,
      "taf_trigger": false,
      "metar": "METAR EKBI 140820Z AUTO 36002KT 9999 NCD M09/M10 Q1012",
      "taf": "TAF EKBI 140527Z 1406/1506 02006KT CAVOK"
    },
    {
      "icao": "EKCH",
      "alert": "OK",
      "vis_m": 9999,
      "fzfg": false,
      "metar_trigger": false,
      "taf_trigger": false,
      "metar": "METAR EKCH 140820Z AUTO 04014KT 9999 BKN047/// M04/M08 Q1010 NOSIG",
      "taf": "TAF EKCH 140527Z 1406/1506 04010KT 9999 BKN030"
    },
    {
      "icao": "ENAL",
      "alert": "OK",
      "vis_m": 9999,
      "fzfg": false,
      "metar_trigger": false,
      "taf_trigger": false,
      "metar": "METAR ENAL 140750Z 14010KT 9999 FEW044 M03/M05 Q1009",
      "taf": "TAF ENAL 140500Z 1406/1415 16009KT 9999 FEW030"
    },
    {
      "icao": "ENBR",
      "alert": "OK",
      "vis_m": 9999,
      "fzfg": false,
      "metar_trigger": false,
      "taf_trigger": false,
      "metar": "METAR ENBR 140750Z VRB01KT 9999 SCT035 M05/M06 Q1009 NOSIG RMK WIND 1200FT 14007KT",
      "taf": "TAF ENBR 140500Z 1406/1506 VRB05KT 9999 FEW010 BKN050"
    },
    {
      "icao": "ENGM",
      "alert": "OK",
      "vis_m": 9999,
      "fzfg": false,
      "metar_trigger": false,
      "taf_trigger": false,
      "metar": "METAR ENGM 140750Z 36004KT CAVOK M17/M20 Q1011 NOSIG",
      "taf": "TAF ENGM 140500Z 1406/1506 35003KT CAVOK"
    },
    {
      "icao": "ENHD",
      "alert": "OK",
      "vis_m": 650,
      "fzfg": false,
      "metar_trigger": false,
      "taf_trigger": false,
      "metar": "METAR ENHD 140750Z 04005KT 0650 R13/1700D R31/1400D SN VV008 M01/M02 Q1009",
      "taf": "TAF ENHD 140500Z 1406/1415 11008KT 9999 FEW008 SCT020 BKN030"
    },
    {
      "icao": "ENTC",
      "alert": "OK",
      "vis_m": 7000,
      "fzfg": false,
      "metar_trigger": false,
      "taf_trigger": false,
      "metar": "METAR ENTC 140750Z 18017KT 7000 VCSH SCT015 BKN019 M03/M05 Q0997 TEMPO 2500 -SHSN VV012 RMK WIND 2600FT 19020KT",
      "taf": "TAF ENTC 140500Z 1406/1506 20012KT 9999 FEW015 SCT030"
    },
    {
      "icao": "ENTO",
      "alert": "OK",
      "vis_m": 9999,
      "fzfg": false,
      "metar_trigger": false,
      "taf_trigger": false,
      "metar": "METAR ENTO 140750Z 35003KT 9999 FEW025 M15/M17 Q1012 NOSIG",
      "taf": "TAF ENTO 140500Z 1406/1506 35003KT CAVOK"
    },
    {
      "icao": "ENVA",
      "alert": "OK",
      "vis_m": 9999,
      "fzfg": false,
      "metar_trigger": false,
      "taf_trigger": false,
      "metar": "METAR ENVA 140750Z 10009KT 9999 VCSH BKN024 M12/M15 Q1009 NOSIG RMK WIND 670FT 16007KT",
      "taf": "TAF ENVA 140500Z 1406/1506 11009KT 9999 SCT012 BKN030"
    },
    {
      "icao": "ENZV",
      "alert": "OK",
      "vis_m": 9999,
      "fzfg": false,
      "metar_trigger": false,
      "taf_trigger": false,
      "metar": "METAR ENZV 140750Z 13017G27KT 9999 VCSH FEW025CB M01/M06 Q1007 TEMPO 1000 SHSN VV008",
      "taf": "TAF ENZV 140500Z 1406/1506 15020KT 9999 SCT015 BKN030"
    },
    {
      "icao": "EPGD",
      "alert": "OK",
      "vis_m": 5000,
      "fzfg": false,
      "metar_trigger": false,
      "taf_trigger": false,
      "metar": "METAR EPGD 140800Z 01008KT 5000 -SN OVC006 M04/M05 Q1003",
      "taf": "TAF EPGD 140530Z 1406/1506 36010KT 9999 OVC006"
    },
    {
      "icao": "EPKK",
      "alert": "OK",
      "vis_m": 9999,
      "fzfg": false,
      "metar_trigger": false,
      "taf_trigger": false,
      "metar": "METAR EPKK 140800Z 26003KT 9999 BKN023 04/01 Q1001",
      "taf": "TAF EPKK 140530Z 1406/1506 VRB02KT 9999 BKN013"
    },
    {
      "icao": "EPKT",
      "alert": "OK",
      "vis_m": 9999,
      "fzfg": false,
      "metar_trigger": false,
      "taf_trigger": false,
      "metar": "METAR EPKT 140800Z 34004KT 9999 SCT004 OVC006 01/M00 Q1001",
      "taf": ""
    },
    {
      "icao": "EPLB",
      "alert": "OK",
      "vis_m": 9999,
      "fzfg": false,
      "metar_trigger": false,
      "taf_trigger": false,
      "metar": "METAR EPLB 140800Z 30008KT 9999 BKN006 OVC011 01/M00 Q1000",
      "taf": "TAF EPLB 140530Z 1406/1506 29010KT 9999 BKN008"
    },
    {
      "icao": "EPMO",
      "alert": "OK",
      "vis_m": 9999,
      "fzfg": false,
      "metar_trigger": false,
      "taf_trigger": false,
      "metar": "METAR EPMO 140800Z 31009KT 270V330 9999 BKN007 M03/M04 Q1002",
      "taf": "TAF EPMO 140530Z 1406/1506 32008KT 9999 BKN007"
    },
    {
      "icao": "EPPO",
      "alert": "OK",
      "vis_m": 9999,
      "fzfg": false,
      "metar_trigger": false,
      "taf_trigger": false,
      "metar": "METAR EPPO 140800Z 36003KT 9999 FEW008 OVC021 M01/M02 Q1003",
      "taf": "TAF EPPO 140530Z 1406/1506 02010KT 8000 BKN007"
    },
    {
      "icao": "EPRA",
      "alert": "OK",
      "vis_m": 9999,
      "fzfg": false,
      "metar_trigger": false,
      "taf_trigger": false,
      "metar": "METAR EPRA 140800Z 33005KT 9999 OVC008 00/M02 Q1001",
      "taf": "TAF EPRA 140530Z 1406/1415 30008KT 9999 OVC007"
    },
    {
      "icao": "EPRZ",
      "alert": "OK",
      "vis_m": 9999,
      "fzfg": false,
      "metar_trigger": false,
      "taf_trigger": false,
      "metar": "METAR EPRZ 140800Z 25007KT 9999 OVC011 03/01 Q1001",
      "taf": "TAF EPRZ 140530Z 1406/1506 27006KT 9999 BKN011"
    },
    {
      "icao": "EPSC",
      "alert": "OK",
      "vis_m": 9999,
      "fzfg": false,
      "metar_trigger": false,
      "taf_trigger": false,
      "metar": "METAR EPSC 140800Z 33006KT 9999 -SN BKN024 OVC030 M00/M03 Q1005",
      "taf": "TAF EPSC 140530Z 1406/1506 35010KT 9999 OVC022"
    },
    {
      "icao": "EPSY",
      "alert": "OK",
      "vis_m": 9999,
      "fzfg": false,
      "metar_trigger": false,
      "taf_trigger": false,
      "metar": "METAR EPSY 140800Z 35010KT 9999 OVC007 M06/M08 Q1002",
      "taf": "TAF EPSY 140530Z 1406/1415 35008KT 9999 OVC007"
    },
    {
      "icao": "EPWA",
      "alert": "OK",
      "vis_m": 7000,
      "fzfg": false,
      "metar_trigger": false,
      "taf_trigger": false,
      "metar": "METAR EPWA 140800Z 32010KT 7000 BKN006 M02/M02 Q1001 BECMG BKN010",
      "taf": "TAF EPWA 140530Z 1406/1506 32010KT 9999 BKN008"
    },
    {
      "icao": "EPWR",
      "alert": "OK",
      "vis_m": 9000,
      "fzfg": false,
      "metar_trigger": false,
      "taf_trigger": false,
      "metar": "METAR EPWR 140800Z 34005KT 9000 BKN006 BKN031 01/00 Q1003",
      "taf": ""
    },
    {
      "icao": "ESGG",
      "alert": "OK",
      "vis_m": 9999,
      "fzfg": false,
      "metar_trigger": false,
      "taf_trigger": false,
      "metar": "METAR ESGG 140750Z 04005KT CAVOK M13/M15 Q1010",
      "taf": "TAF ESGG 140530Z 1406/1506 04005KT CAVOK"
    },
    {
      "icao": "ESKN",
      "alert": "OK",
      "vis_m": 9999,
      "fzfg": false,
      "metar_trigger": false,
      "taf_trigger": false,
      "metar": "METAR ESKN 140750Z 30003KT CAVOK M16/M17 Q1011",
      "taf": "TAF ESKN 140530Z 1406/1506 35002KT CAVOK"
    },
    {
      "icao": "ESMS",
      "alert": "OK",
      "vis_m": 9999,
      "fzfg": false,
      "metar_trigger": false,
      "taf_trigger": false,
      "metar": "METAR ESMS 140750Z 02008KT CAVOK M06/M09 Q1009",
      "taf": "TAF ESMS 140527Z 1406/1506 02008KT CAVOK"
    },
    {
      "icao": "ESSA",
      "alert": "OK",
      "vis_m": 9999,
      "fzfg": false,
      "metar_trigger": false,
      "taf_trigger": false,
      "metar": "METAR ESSA 140750Z 31001KT CAVOK M19/M21 Q1011 NOSIG",
      "taf": "TAF ESSA 140530Z 1406/1506 34002KT CAVOK"
    },
    {
      "icao": "EYKA",
      "alert": "OK",
      "vis_m": 9999,
      "fzfg": false,
      "metar_trigger": false,
      "taf_trigger": false,
      "metar": "METAR EYKA 140820Z 36005KT 250V060 CAVOK M11/M13 Q1002",
      "taf": "TAF EYKA 140513Z 1406/1506 VRB04KT 7000 BKN010"
    },
    {
      "icao": "EYPA",
      "alert": "OK",
      "vis_m": 9999,
      "fzfg": false,
      "metar_trigger": false,
      "taf_trigger": false,
      "metar": "METAR EYPA 140820Z 05009KT 020V080 CAVOK M10/M15 Q1005",
      "taf": "TAF EYPA 140500Z 1406/1506 04010KT 8000 BKN015"
    },
    {
      "icao": "EYVI",
      "alert": "OK",
      "vis_m": 9999,
      "fzfg": false,
      "metar_trigger": false,
      "taf_trigger": false,
      "metar": "METAR EYVI 140820Z 35010KT 9999 OVC011 M08/M10 Q0999 NOSIG",
      "taf": "TAF EYVI 140518Z 1406/1506 35011KT 5000 -SN BKN010"
    },
    {
      "icao": "GCFV",
      "alert": "OK",
      "vis_m": 9999,
      "fzfg": false,
      "metar_trigger": false,
      "taf_trigger": false,
      "metar": "METAR GCFV 140800Z 02024KT 9999 FEW030 BKN035 17/09 Q1025",
      "taf": "TAF GCFV 140200Z 1403/1503 01020KT 9999 SCT035 TX22/1414Z TN17/1406Z"
    },
    {
      "icao": "GCLP",
      "alert": "OK",
      "vis_m": 9999,
      "fzfg": false,
      "metar_trigger": false,
      "taf_trigger": false,
      "metar": "METAR GCLP 140800Z 01023KT 9999 BKN030 18/09 Q1026 NOSIG",
      "taf": "TAF GCLP 140200Z 1403/1503 01022KT 9999 BKN025 TX22/1414Z TN16/1406Z"
    },
    {
      "icao": "GCTS",
      "alert": "OK",
      "vis_m": 9999,
      "fzfg": false,
      "metar_trigger": false,
      "taf_trigger": false,
      "metar": "METAR GCTS 140800Z 06022KT 9999 FEW035 17/07 Q1026 NOSIG",
      "taf": "TAF GCTS 140200Z 1403/1503 04015KT 9999 SCT030 TX24/1414Z TN14/1406Z"
    },
    {
      "icao": "GMAD",
      "alert": "OK",
      "vis_m": 9999,
      "fzfg": false,
      "metar_trigger": false,
      "taf_trigger": false,
      "metar": "METAR GMAD 140800Z 36003KT CAVOK 11/06 Q1021 NOSIG",
      "taf": "TAF GMAD 140500Z 1406/1512 22006KT 8000 FEW020"
    },
    {
      "icao": "GMMN",
      "alert": "OK",
      "vis_m": 9999,
      "fzfg": false,
      "metar_trigger": false,
      "taf_trigger": false,
      "metar": "METAR GMMN 140800Z 29008KT 9999 BKN030 11/09 Q1025 NOSIG",
      "taf": "TAF GMMN 140500Z 1406/1512 30006KT 9999 BKN030"
    },
    {
      "icao": "GMMX",
      "alert": "OK",
      "vis_m": 6000,
      "fzfg": false,
      "metar_trigger": false,
      "taf_trigger": false,
      "metar": "SPECI GMMX 140819Z VRB02KT 6000 -RA SCT013 BKN023 09/08 Q1027 NOSIG",
      "taf": "TAF GMMX 140500Z 1406/1512 06006KT 8000 SCT023"
    },
    {
      "icao": "HEGN",
      "alert": "OK",
      "vis_m": 3000,
      "fzfg": false,
      "metar_trigger": false,
      "taf_trigger": false,
      "metar": "METAR HEGN 140800Z 32017KT 3000 SA NSC 25/M01 Q1016 NOSIG",
      "taf": "TAF HEGN 140500Z 1406/1512 30010G20KT 6000 NSC"
    },
    {
      "icao": "HEMA",
      "alert": "OK",
      "vis_m": 6000,
      "fzfg": false,
      "metar_trigger": false,
      "taf_trigger": false,
      "metar": "METAR HEMA 140800Z 36014KT 6000 NSC 27/04 Q1015 NOSIG",
      "taf": "TAF HEMA 140500Z 1406/1512 29010G20KT 6000 NSC"
    },
    {
      "icao": "HESH",
      "alert": "OK",
      "vis_m": 9999,
      "fzfg": false,
      "metar_trigger": false,
      "taf_trigger": false,
      "metar": "METAR HESH 140800Z 34005KT CAVOK 23/17 Q1014 NOSIG",
      "taf": "TAF HESH 140500Z 1406/1512 31010G20KT 6000 NSC"
    },
    {
      "icao": "HESX",
      "alert": "OK",
      "vis_m": 9999,
      "fzfg": false,
      "metar_trigger": false,
      "taf_trigger": false,
      "metar": "METAR HESX 140800Z 25006KT CAVOK 16/02 Q1015 NOSIG",
      "taf": "TAF HESX 140500Z 1406/1512 24008KT CAVOK"
    },
    {
      "icao": "LATI",
      "alert": "OK",
      "vis_m": 9999,
      "fzfg": false,
      "metar_trigger": false,
      "taf_trigger": false,
      "metar": "METAR LATI 140820Z 18005KT 9999 SCT150 12/09 Q1002 NOSIG",
      "taf": "TAF LATI 140500Z 1406/1506 VRB04KT 9999 SCT030 BKN070 TX16/1412Z TN08/1505Z"
    },
    {
      "icao": "LBPD",
      "alert": "OK",
      "vis_m": 9999,
      "fzfg": false,
      "metar_trigger": false,
      "taf_trigger": false,
      "metar": "METAR LBPD 140800Z AUTO 00000KT 9999 NCD 12/04 Q1004 NOSIG",
      "taf": "TAF LBPD 140500Z 1406/1506 28010KT CAVOK"
    },
    {
      "icao": "LBSF",
      "alert": "OK",
      "vis_m": 9999,
      "fzfg": false,
      "metar_trigger": false,
      "taf_trigger": false,
      "metar": "METAR LBSF 140800Z VRB02KT CAVOK 07/03 Q1004 NOSIG",
      "taf": "TAF LBSF 140500Z 1406/1506 VRB04KT CAVOK"
    },
    {
      "icao": "LBWN",
      "alert": "OK",
      "vis_m": 9999,
      "fzfg": false,
      "metar_trigger": false,
      "taf_trigger": false,
      "metar": "METAR LBWN 140800Z 27011KT CAVOK 11/06 Q1003 NOSIG",
      "taf": "TAF LBWN 140500Z 1406/1506 29010KT 9999 SCT040"
    },
    {
      "icao": "LCLK",
      "alert": "OK",
      "vis_m": 9999,
      "fzfg": false,
      "metar_trigger": false,
      "taf_trigger": false,
      "metar": "METAR LCLK 140800Z 24016KT 9999 FEW025TCU 20/14 Q1009 NOSIG",
      "taf": "TAF LCLK 140530Z 1406/1506 23010KT 9999 FEW025"
    },
    {
      "icao": "LCPH",
      "alert": "OK",
      "vis_m": 6000,
      "fzfg": false,
      "metar_trigger": false,
      "taf_trigger": false,
      "metar": "METAR LCPH 140800Z 28018KT 250V320 6000 BKN020 SCT030 FEW035TCU 18/13 Q1010 NOSIG",
      "taf": "TAF LCPH 140530Z 1406/1506 29020KT 8000 FEW025 SCT045"
    },
    {
      "icao": "LEAL",
      "alert": "OK",
      "vis_m": 9999,
      "fzfg": false,
      "metar_trigger": false,
      "taf_trigger": false,
      "metar": "METAR LEAL 140800Z 30027G41KT 280V340 CAVOK 12/01 Q1002 NOSIG",
      "taf": "TAF LEAL 140500Z 1406/1506 29015KT CAVOK TX21/1413Z TN10/1406Z"
    },
    {
      "icao": "LEBB",
      "alert": "OK",
      "vis_m": 9999,
      "fzfg": false,
      "metar_trigger": false,
      "taf_trigger": false,
      "metar": "METAR LEBB 140800Z 31014G35KT 9999 3000SE -SHRA BKN020 SCT025TCU BKN027 10/08 Q1011 RESHRA TEMPO 3000 SHRA",
      "taf": ""
    },
    {
      "icao": "LEBL",
      "alert": "OK",
      "vis_m": 9999,
      "fzfg": false,
      "metar_trigger": false,
      "taf_trigger": false,
      "metar": "METAR LEBL 140800Z VRB07G18KT 9999 FEW030 10/04 Q0994 NOSIG",
      "taf": "TAF LEBL 140500Z 1406/1506 32013KT 9999 FEW035 TX18/1413Z TN09/1406Z"
    },
    {
      "icao": "LECH",
      "alert": "OK",
      "vis_m": 9999,
      "fzfg": false,
      "metar_trigger": false,
      "taf_trigger": false,
      "metar": "METAR LECH 140800Z AUTO 33036G58KT 290V010 CAVOK 11/M02 Q0996",
      "taf": ""
    },
    {
      "icao": "LEMD",
      "alert": "OK",
      "vis_m": 9999,
      "fzfg": false,
      "metar_trigger": false,
      "taf_trigger": false,
      "metar": "METAR LEMD 140800Z 34015G25KT 310V020 CAVOK 05/M05 Q1010 WS R32R NOSIG",
      "taf": ""
    },
    {
      "icao": "LEMG",
      "alert": "OK",
      "vis_m": 9999,
      "fzfg": false,
      "metar_trigger": false,
      "taf_trigger": false,
      "metar": "METAR LEMG 140800Z 29017KT 9999 SCT048 10/02 Q1015 NOSIG",
      "taf": "TAF LEMG 140500Z 1406/1506 31018KT 9999 SCT040 TX17/1414Z TN09/1407Z"
    },
    {
      "icao": "LEVC",
      "alert": "OK",
      "vis_m": 9999,
      "fzfg": false,
      "metar_trigger": false,
      "taf_trigger": false,
      "metar": "METAR LEVC 140800Z 28012KT 240V310 9999 FEW030 13/M01 Q1002 NOSIG",
      "taf": "TAF LEVC 140500Z 1406/1506 29012KT CAVOK TX20/1414Z TN11/1406Z"
    },
    {
      "icao": "LEXJ",
      "alert": "OK",
      "vis_m": 9999,
      "fzfg": false,
      "metar_trigger": false,
      "taf_trigger": false,
      "metar": "METAR LEXJ 140800Z 33028G43KT 290V010 9999 FEW018 BKN025 FEW028TCU 10/06 Q1014",
      "taf": ""
    },
    {
      "icao": "LEZG",
      "alert": "OK",
      "vis_m": 9999,
      "fzfg": false,
      "metar_trigger": false,
      "taf_trigger": false,
      "metar": "METAR LEZG 140800Z 30022KT 9999 SCT050 BKN060 OVC070 08/04 Q1005 NOSIG",
      "taf": ""
    },
    {
      "icao": "LEZL",
      "alert": "OK",
      "vis_m": 9999,
      "fzfg": false,
      "metar_trigger": false,
      "taf_trigger": false,
      "metar": "METAR LEZL 140800Z 33016KT CAVOK 10/01 Q1019 NOSIG",
      "taf": ""
    },
    {
      "icao": "LFBD",
      "alert": "OK",
      "vis_m": 9999,
      "fzfg": false,
      "metar_trigger": false,
      "taf_trigger": false,
      "metar": "METAR LFBD 140800Z AUTO 35015KT 9999 BKN021 OVC026 08/05 Q1005 TEMPO 3000 SHRA BKN020TCU BECMG 34015G25KT",
      "taf": "TAF LFBD 140500Z 1406/1512 31010KT 9999 BKN020 TX11/1512Z TN02/1504Z"
    },
    {
      "icao": "LFLL",
      "alert": "OK",
      "vis_m": 9999,
      "fzfg": false,
      "metar_trigger": false,
      "taf_trigger": false,
      "metar": "METAR LFLL 140800Z 34013KT 9999 BKN010 BKN056 08/06 Q0995 NOSIG",
      "taf": "TAF LFLL 140500Z 1406/1512 34006KT 9999 BKN040"
    },
    {
      "icao": "LFLS",
      "alert": "OK",
      "vis_m": 9999,
      "fzfg": false,
      "metar_trigger": false,
      "taf_trigger": false,
      "metar": "METAR LFLS 140800Z AUTO 36008KT 330V030 9999 BKN008 OVC012 06/05 Q0995 TEMPO 4000 BKN012",
      "taf": "TAF LFLS 140800Z 1409/1509 35010KT 6000 BKN012 OVC040"
    },
    {
      "icao": "LFMN",
      "alert": "OK",
      "vis_m": 9999,
      "fzfg": false,
      "metar_trigger": false,
      "taf_trigger": false,
      "metar": "METAR LFMN 140800Z 33008KT 9999 BKN066 09/06 Q0989 NOSIG",
      "taf": "TAF LFMN 140200Z 1403/1509 02015KT 9999 -RA BKN040"
    },
    {
      "icao": "LFOB",
      "alert": "OK",
      "vis_m": 9999,
      "fzfg": false,
      "metar_trigger": false,
      "taf_trigger": false,
      "metar": "METAR LFOB 140800Z AUTO 02020KT 9999 OVC020 01/M02 Q1009 BECMG 02015G25KT",
      "taf": "TAF LFOB 140500Z 1406/1506 02015G25KT 9999 OVC012"
    },
    {
      "icao": "LFPO",
      "alert": "OK",
      "vis_m": 8000,
      "fzfg": false,
      "metar_trigger": false,
      "taf_trigger": false,
      "metar": "METAR LFPO 140800Z 02018G28KT 8000 OVC015 01/M01 Q1007 NOSIG",
      "taf": "TAF LFPO 140500Z 1406/1512 02015G25KT 8000 OVC012"
    },
    {
      "icao": "LFSB",
      "alert": "OK",
      "vis_m": 9999,
      "fzfg": false,
      "metar_trigger": false,
      "taf_trigger": false,
      "metar": "METAR LFSB 140800Z AUTO 35008KT 9999 OVC007 06/05 Q0997 TEMPO 4000 BR BKN003",
      "taf": "TAF LFSB 140500Z 1406/1506 35006KT 9999 BKN007"
    },
    {
      "icao": "LGAV",
      "alert": "OK",
      "vis_m": 9999,
      "fzfg": false,
      "metar_trigger": false,
      "taf_trigger": false,
      "metar": "METAR LGAV 140750Z 24008KT 210V270 9999 FEW020 17/08 Q1007 NOSIG",
      "taf": "TAF LGAV 140500Z 1406/1506 28012KT 9999 SCT025"
    },
    {
      "icao": "LGTS",
      "alert": "OK",
      "vis_m": 9999,
      "fzfg": false,
      "metar_trigger": false,
      "taf_trigger": false,
      "metar": "METAR LGTS 140750Z 18004KT 9999 FEW020 11/08 Q1005 NOSIG",
      "taf": ""
    },
    {
      "icao": "LHBP",
      "alert": "OK",
      "vis_m": 9999,
      "fzfg": false,
      "metar_trigger": false,
      "taf_trigger": false,
      "metar": "METAR LHBP 140800Z 13008KT CAVOK 07/04 Q0999 NOSIG",
      "taf": "TAF LHBP 140515Z 1406/1506 12006KT CAVOK"
    },
    {
      "icao": "LHDC",
      "alert": "OK",
      "vis_m": 9999,
      "fzfg": false,
      "metar_trigger": false,
      "taf_trigger": false,
      "metar": "METAR LHDC 140745Z AUTO 17004KT 9999 SCT038 BKN049 04/03 Q1002 NOSIG",
      "taf": "TAF LHDC 140515Z 1406/1415 16005KT CAVOK"
    },
    {
      "icao": "LIBD",
      "alert": "OK",
      "vis_m": 9999,
      "fzfg": false,
      "metar_trigger": false,
      "taf_trigger": false,
      "metar": "METAR LIBD 140750Z 18003KT CAVOK 12/10 Q0998",
      "taf": "TAF LIBD 140500Z 1406/1506 16013KT 9999 SCT030"
    },
    {
      "icao": "LIBG",
      "alert": "OK",
      "vis_m": 9999,
      "fzfg": false,
      "metar_trigger": false,
      "taf_trigger": false,
      "metar": "METAR LIBG 140750Z 16008KT 9999 SCT015 SCT030 13/11 Q0999",
      "taf": "TAF LIBG 140800Z 1409/1418 15014KT 9999 BKN025"
    },
    {
      "icao": "LIBP",
      "alert": "OK",
      "vis_m": 9999,
      "fzfg": false,
      "metar_trigger": false,
      "taf_trigger": false,
      "metar": "METAR LIBP 140750Z AUTO VRB02KT 9999 FEW094/// BKN160/// BKN210/// 12/07 Q0993",
      "taf": "TAF LIBP 140500Z 1406/1506 VRB05KT 9999 OVC020"
    },
    {
      "icao": "LIBR",
      "alert": "OK",
      "vis_m": 9999,
      "fzfg": false,
      "metar_trigger": false,
      "taf_trigger": false,
      "metar": "METAR LIBR 140750Z 16009KT CAVOK 13/11 Q1000",
      "taf": "TAF LIBR 140500Z 1406/1506 15015KT 9999 SCT030"
    },
    {
      "icao": "LICA",
      "alert": "OK",
      "vis_m": 9999,
      "fzfg": false,
      "metar_trigger": false,
      "taf_trigger": false,
      "metar": "METAR LICA 140750Z AUTO 08013KT 9999 FEW076/// SCT096/// 12/10 Q0999",
      "taf": "TAF LICA 140500Z 1406/1506 08016KT 9999 SCT020 SCT060"
    },
    {
      "icao": "LICC",
      "alert": "OK",
      "vis_m": 9999,
      "fzfg": false,
      "metar_trigger": false,
      "taf_trigger": false,
      "metar": "METAR LICC 140750Z 04009KT 9999 SCT020 BKN060 14/11 Q0999",
      "taf": "TAF LICC 140500Z 1406/1506 VRB05KT 9999 SCT030"
    },
    {
      "icao": "LICJ",
      "alert": "OK",
      "vis_m": 9999,
      "fzfg": false,
      "metar_trigger": false,
      "taf_trigger": false,
      "metar": "METAR LICJ 140750Z AUTO 17010KT 9999 // FEW069/// BKN140/// 15/10 Q0997",
      "taf": "TAF LICJ 140500Z 1406/1506 20012KT 9999 SCT030"
    },
    {
      "icao": "LIMC",
      "alert": "OK",
      "vis_m": 9999,
      "fzfg": false,
      "metar_trigger": false,
      "taf_trigger": false,
      "metar": "METAR LIMC 140750Z 04005KT 9999 -RA BKN040 07/06 Q0994 NOSIG",
      "taf": "TAF LIMC 140500Z 1406/1512 01010KT 7000 RA OVC040"
    },
    {
      "icao": "LIME",
      "alert": "OK",
      "vis_m": 9999,
      "fzfg": false,
      "metar_trigger": false,
      "taf_trigger": false,
      "metar": "METAR LIME 140750Z 32003KT 9999 -RA FEW030 OVC040 07/07 Q0994 RERA NOSIG",
      "taf": "TAF LIME 140500Z 1406/1506 VRB06KT 7000 RA OVC045"
    },
    {
      "icao": "LIMF",
      "alert": "OK",
      "vis_m": 9999,
      "fzfg": false,
      "metar_trigger": false,
      "taf_trigger": false,
      "metar": "METAR LIMF 140750Z 32007KT 9999 -RA BKN025 OVC035 07/04 Q0995",
      "taf": "TAF LIMF 140500Z 1406/1506 34010KT 6000 RA OVC035"
    },
    {
      "icao": "LIMJ",
      "alert": "OK",
      "vis_m": 9999,
      "fzfg": false,
      "metar_trigger": false,
      "taf_trigger": false,
      "metar": "METAR LIMJ 140750Z 04011KT 9999 -DZ BKN050 10/07 Q0990",
      "taf": "TAF LIMJ 140500Z 1406/1506 01016G28KT 6000 RA OVC040"
    },
    {
      "icao": "LIPE",
      "alert": "OK",
      "vis_m": 6000,
      "fzfg": false,
      "metar_trigger": false,
      "taf_trigger": false,
      "metar": "METAR LIPE 140750Z 07006KT 6000 -RA SCT005 BKN045 09/08 Q0993",
      "taf": "TAF LIPE 140500Z 1406/1506 02007KT 1200 RA OVC010"
    },
    {
      "icao": "LIPH",
      "alert": "OK",
      "vis_m": 9999,
      "fzfg": false,
      "metar_trigger": false,
      "taf_trigger": false,
      "metar": "METAR LIPH 140750Z 04007KT 9999 BKN025 BKN080 10/07 Q0995",
      "taf": "TAF LIPH 140500Z 1406/1506 05007KT 6000 BKN014"
    },
    {
      "icao": "LIPQ",
      "alert": "OK",
      "vis_m": 9999,
      "fzfg": false,
      "metar_trigger": false,
      "taf_trigger": false,
      "metar": "METAR LIPQ 140750Z AUTO 06004KT 9999 BKN093/// 10/07 Q0996",
      "taf": "TAF LIPQ 140500Z 1406/1506 02007KT 6000 BKN020"
    },
    {
      "icao": "LIPR",
      "alert": "OK",
      "vis_m": 9999,
      "fzfg": false,
      "metar_trigger": false,
      "taf_trigger": false,
      "metar": "METAR LIPR 140750Z 19006KT 9999 -RA BKN060 10/07 Q0993",
      "taf": "TAF LIPR 140500Z 1406/1506 14008KT 4000 RA BKN020"
    },
    {
      "icao": "LIPX",
      "alert": "OK",
      "vis_m": 9999,
      "fzfg": false,
      "metar_trigger": false,
      "taf_trigger": false,
      "metar": "METAR LIPX 140750Z 04009KT 9999 -RA SCT040 OVC060 09/07 Q0994",
      "taf": "TAF LIPX 140500Z 1406/1506 08010KT 7000 RA BKN050"
    },
    {
      "icao": "LIPY",
      "alert": "OK",
      "vis_m": 9999,
      "fzfg": false,
      "metar_trigger": false,
      "taf_trigger": false,
      "metar": "METAR LIPY 140750Z AUTO VRB01KT 9999 BKN069/// 11/07 Q0993",
      "taf": "TAF LIPY 140500Z 1406/1506 16008KT 4000 RA OVC010"
    },
    {
      "icao": "LIPZ",
      "alert": "OK",
      "vis_m": 9999,
      "fzfg": false,
      "metar_trigger": false,
      "taf_trigger": false,
      "metar": "METAR LIPZ 140750Z 05012KT 9999 -RA FEW016 BKN030 09/07 Q0995 NOSIG",
      "taf": "TAF LIPZ 140500Z 1406/1512 04011KT 7000 SCT015"
    },
    {
      "icao": "LIRF",
      "alert": "OK",
      "vis_m": 5000,
      "fzfg": false,
      "metar_trigger": false,
      "taf_trigger": false,
      "metar": "METAR LIRF 140750Z 19016G26KT 5000 -SHRA SCT020CB BKN025 15/12 Q0991 NOSIG",
      "taf": "TAF LIRF 140500Z 1406/1512 18018KT 9999 BKN020"
    },
    {
      "icao": "LIRN",
      "alert": "OK",
      "vis_m": 9999,
      "fzfg": false,
      "metar_trigger": false,
      "taf_trigger": false,
      "metar": "METAR LIRN 140750Z 17008KT 130V230 9999 FEW020 BKN040 14/10 Q0996 NOSIG",
      "taf": "TAF LIRN 140500Z 1406/1506 17010KT 9999 BKN030"
    },
    {
      "icao": "LIRP",
      "alert": "OK",
      "vis_m": 9999,
      "fzfg": false,
      "metar_trigger": false,
      "taf_trigger": false,
      "metar": "METAR LIRP 140745Z 09014KT 9999 -RA FEW025 SCT030 11/09 Q0988 NOSIG",
      "taf": "TAF LIRP 140500Z 1406/1506 09018KT 9999 RA SCT020 BKN040"
    },
    {
      "icao": "LIRZ",
      "alert": "OK",
      "vis_m": 6000,
      "fzfg": false,
      "metar_trigger": false,
      "taf_trigger": false,
      "metar": "METAR LIRZ 140750Z AUTO 34004KT 6000 RA OVC031/// 08/08 Q0992",
      "taf": "TAF LIRZ 140500Z 1406/1506 13010KT 9999 BKN030"
    },
    {
      "icao": "LJLJ",
      "alert": "OK",
      "vis_m": 7000,
      "fzfg": false,
      "metar_trigger": false,
      "taf_trigger": false,
      "metar": "METAR LJLJ 140800Z VRB01KT 7000 0800N BCFG SCT002 BKN050 03/03 Q0997 NOSIG",
      "taf": "TAF LJLJ 140500Z 1406/1506 VRB02KT 9999 SCT050"
    },
    {
      "icao": "LKMT",
      "alert": "OK",
      "vis_m": 3500,
      "fzfg": false,
      "metar_trigger": false,
      "taf_trigger": false,
      "metar": "METAR LKMT 140800Z 04008KT 3500 BR OVC006 03/02 Q1000 NOSIG",
      "taf": "TAF LKMT 140500Z 1406/1506 VRB02KT 2000 BR BKN005"
    },
    {
      "icao": "LKPR",
      "alert": "OK",
      "vis_m": 7000,
      "fzfg": false,
      "metar_trigger": false,
      "taf_trigger": false,
      "metar": "METAR LKPR 140800Z 36008KT 7000 FEW002 OVC003 01/01 Q1000 NOSIG",
      "taf": "TAF LKPR 140800Z 1409/1515 01006KT 5000 BR BKN015"
    },
    {
      "icao": "LLBG",
      "alert": "OK",
      "vis_m": 1600,
      "fzfg": false,
      "metar_trigger": false,
      "taf_trigger": false,
      "metar": "METAR LLBG 140820Z 21010KT 1600 R08/1900/ R12/1200/ R21/1300/ R26/1600/ ///// Q////",
      "taf": "TAF LLBG 140510Z 1406/1506 19010KT 1800 DU NSC"
    },
    {
      "icao": "LMML",
      "alert": "OK",
      "vis_m": 9999,
      "fzfg": false,
      "metar_trigger": false,
      "taf_trigger": false,
      "metar": "METAR LMML 140815Z 15017KT CAVOK 17/14 Q0997 NOSIG",
      "taf": "TAF LMML 140500Z 1406/1506 16012KT 9999 FEW020"
    },
    {
      "icao": "LOWW",
      "alert": "OK",
      "vis_m": 9999,
      "fzfg": false,
      "metar_trigger": false,
      "taf_trigger": false,
      "metar": "METAR LOWW 140750Z 04005KT 020V090 9999 FEW016 04/02 Q0997 NOSIG",
      "taf": "TAF LOWW 140815Z 1409/1515 VRB03KT 9999 BKN020 TX07/1415Z TN01/1515Z"
    },
    {
      "icao": "LPFR",
      "alert": "OK",
      "vis_m": 9999,
      "fzfg": false,
      "metar_trigger": false,
      "taf_trigger": false,
      "metar": "METAR LPFR 140800Z 32012KT CAVOK 11/03 Q1023",
      "taf": "TAF LPFR 140500Z 1406/1506 31015KT CAVOK"
    },
    {
      "icao": "LPMA",
      "alert": "OK",
      "vis_m": 9999,
      "fzfg": false,
      "metar_trigger": false,
      "taf_trigger": false,
      "metar": "METAR LPMA 140800Z 01010KT 330V050 9999 SCT016 15/07 Q1030",
      "taf": "TAF LPMA 140500Z 1406/1506 02012KT 9999 SCT015"
    },
    {
      "icao": "LPPR",
      "alert": "OK",
      "vis_m": 9999,
      "fzfg": false,
      "metar_trigger": false,
      "taf_trigger": false,
      "metar": "METAR LPPR 140800Z 35008KT 9999 FEW028 SCT035 08/05 Q1023",
      "taf": "TAF LPPR 140500Z 1406/1506 35013KT 9999 FEW020 SCT035"
    },
    {
      "icao": "LPPS",
      "alert": "OK",
      "vis_m": 9999,
      "fzfg": false,
      "metar_trigger": false,
      "taf_trigger": false,
      "metar": "METAR LPPS 140800Z 01009KT 9999 SCT015 SCT030 15/08 Q1030",
      "taf": "TAF LPPS 140500Z 1406/1512 36015KT 9999 SCT015 SCT030"
    },
    {
      "icao": "LPPT",
      "alert": "OK",
      "vis_m": 9999,
      "fzfg": false,
      "metar_trigger": false,
      "taf_trigger": false,
      "metar": "METAR LPPT 140800Z 33006KT 9999 FEW035 10/05 Q1025",
      "taf": "TAF LPPT 140500Z 1406/1512 33013KT 9999 FEW035"
    },
    {
      "icao": "LQBK",
      "alert": "OK",
      "vis_m": 9999,
      "fzfg": false,
      "metar_trigger": false,
      "taf_trigger": false,
      "metar": "METAR LQBK 140800Z VRB02KT CAVOK 02/01 Q0999 NOSIG",
      "taf": "TAF LQBK 140500Z 1406/1506 15005KT CAVOK TX13/1412Z TN01/1406Z"
    },
    {
      "icao": "LQSA",
      "alert": "OK",
      "vis_m": 700,
      "fzfg": false,
      "metar_trigger": false,
      "taf_trigger": false,
      "metar": "METAR LQSA 140800Z VRB02KT 0700 R11/1000N FG OVC003 01/01 Q1001 BECMG 2000 BR SCT005",
      "taf": "TAF LQSA 140500Z 1406/1506 14008KT 0800 FG BKN003 TX13/1413Z TN01/1406Z"
    },
    {
      "icao": "LQTZ",
      "alert": "OK",
      "vis_m": 9999,
      "fzfg": false,
      "metar_trigger": false,
      "taf_trigger": false,
      "metar": "METAR LQTZ 140800Z 30005KT 9999 4000W NSC 00/M00 Q1000",
      "taf": "TAF LQTZ 140500Z 1406/1506 16005KT 7000 NSC TX14/1413Z TNM02/1406Z"
    },
    {
      "icao": "LRBC",
      "alert": "OK",
      "vis_m": 300,
      "fzfg": false,
      "metar_trigger": false,
      "taf_trigger": false,
      "metar": "METAR LRBC 140800Z 35003KT 310V020 0300 R34/0600U FG NSC 03/02 Q1001",
      "taf": "TAF LRBC 140500Z 1406/1415 VRB04KT 0100 FG VV001"
    },
    {
      "icao": "LRBS",
      "alert": "OK",
      "vis_m": 200,
      "fzfg": false,
      "metar_trigger": false,
      "taf_trigger": false,
      "metar": "METAR LRBS 140800Z 21005KT 0200 R07/0600N FG VV001 04/03 Q1003 BECMG 0600 OVC002",
      "taf": "TAF LRBS 140500Z 1406/1506 25008KT 0300 FG OVC001"
    },
    {
      "icao": "LRBV",
      "alert": "OK",
      "vis_m": 9999,
      "fzfg": false,
      "metar_trigger": false,
      "taf_trigger": false,
      "metar": "METAR LRBV 140800Z 32003KT 280V360 9999 FEW022 SCT031 08/02 Q1002",
      "taf": "TAF LRBV 140500Z 1406/1415 29008KT 9999 SCT015 BKN030"
    },
    {
      "icao": "LRCL",
      "alert": "OK",
      "vis_m": 9999,
      "fzfg": false,
      "metar_trigger": false,
      "taf_trigger": false,
      "metar": "METAR LRCL 140800Z 00000KT CAVOK 04/01 Q1002",
      "taf": "TAF LRCL 140500Z 1406/1415 VRB04KT 5000 BR NSC"
    },
    {
      "icao": "LRCV",
      "alert": "OK",
      "vis_m": 9999,
      "fzfg": false,
      "metar_trigger": false,
      "taf_trigger": false,
      "metar": "METAR LRCV 140800Z 32006KT CAVOK 07/05 Q1002",
      "taf": "TAF LRCV 140500Z 1406/1415 VRB04KT 3000 BR NSC"
    },
    {
      "icao": "LRIA",
      "alert": "OK",
      "vis_m": 100,
      "fzfg": false,
      "metar_trigger": false,
      "taf_trigger": false,
      "metar": "METAR LRIA 140800Z 27003KT 220V300 0100 R14/0250N FG VV001 02/02 Q1001",
      "taf": "TAF LRIA 140500Z 1406/1415 VRB04KT 0800 FG OVC002"
    },
    {
      "icao": "LROP",
      "alert": "OK",
      "vis_m": 400,
      "fzfg": false,
      "metar_trigger": false,
      "taf_trigger": false,
      "metar": "METAR LROP 140800Z 26006KT 0400 R08R/0550N R08L/0450N FG VV002 04/04 Q1003 BECMG 0600",
      "taf": "TAF LROP 140500Z 1406/1506 25008KT 0300 FG OVC001"
    },
    {
      "icao": "LRSB",
      "alert": "OK",
      "vis_m": 9999,
      "fzfg": false,
      "metar_trigger": false,
      "taf_trigger": false,
      "metar": "METAR LRSB 140800Z VRB01KT CAVOK 08/02 Q1002",
      "taf": "TAF LRSB 140500Z 1406/1506 VRB04KT CAVOK"
    },
    {
      "icao": "LRSM",
      "alert": "OK",
      "vis_m": 9999,
      "fzfg": false,
      "metar_trigger": false,
      "taf_trigger": false,
      "metar": "METAR LRSM 140730Z AUTO 18003KT 9999 OVC065/// 06/04 Q1002",
      "taf": ""
    },
    {
      "icao": "LRSV",
      "alert": "OK",
      "vis_m": 9999,
      "fzfg": false,
      "metar_trigger": false,
      "taf_trigger": false,
      "metar": "METAR LRSV 140800Z 22003KT CAVOK 07/04 Q0999",
      "taf": "TAF LRSV 140500Z 1406/1415 27005KT CAVOK"
    },
    {
      "icao": "LRTM",
      "alert": "OK",
      "vis_m": 4800,
      "fzfg": false,
      "metar_trigger": false,
      "taf_trigger": false,
      "metar": "METAR LRTM 140800Z 31001KT 4800 BR FEW002 03/03 Q1002",
      "taf": "TAF LRTM 140500Z 1406/1415 VRB04KT 0300 FG BKN001"
    },
    {
      "icao": "LRTR",
      "alert": "OK",
      "vis_m": 9999,
      "fzfg": true,
      "metar_trigger": false,
      "taf_trigger": false,
      "metar": "METAR LRTR 140800Z 11008KT CAVOK 05/05 Q1002",
      "taf": "TAF LRTR 140500Z 1406/1506 11006KT 0600 FZFG BKN004"
    },
    {
      "icao": "LTAC",
      "alert": "OK",
      "vis_m": 9999,
      "fzfg": false,
      "metar_trigger": false,
      "taf_trigger": false,
      "metar": "METAR LTAC 140750Z 24013KT 9999 FEW010 BKN025 BKN100 08/05 Q1004 NOSIG RMK RWY21C 23012KT RWY03L 24012KT RWY21R 22014KT RWY03R 22013KT RWY21L 23012KT",
      "taf": "TAF LTAC 140440Z 1406/1506 20007KT 9999 SCT040 BKN100"
    },
    {
      "icao": "LTFM",
      "alert": "OK",
      "vis_m": 9999,
      "fzfg": false,
      "metar_trigger": false,
      "taf_trigger": false,
      "metar": "METAR LTFM 140750Z 23014KT 9999 SCT035 10/07 Q1005 NOSIG RMK RWY17L 23015KT RWY34L 23013KT RWY16R 22013KT RWY36 23013KT RWY18 23016KT",
      "taf": "TAF LTFM 140440Z 1406/1512 VRB02KT 9999 BKN016 BKN027"
    },
    {
      "icao": "LUKK",
      "alert": "OK",
      "vis_m": 9999,
      "fzfg": false,
      "metar_trigger": false,
      "taf_trigger": false,
      "metar": "METAR LUKK 140800Z 33007KT 9999 OVC004 03/02 Q1000 NOSIG",
      "taf": "TAF LUKK 140518Z 1406/1506 29006KT 9999 BKN007"
    },
    {
      "icao": "LWOH",
      "alert": "OK",
      "vis_m": 9999,
      "fzfg": false,
      "metar_trigger": false,
      "taf_trigger": false,
      "metar": "METAR LWOH 140820Z 33005KT 290V010 9999 SCT013 BKN037 06/05 Q1003",
      "taf": "TAF LWOH 140500Z 1406/1506 VRB10KT 9999 SCT020 BKN040"
    },
    {
      "icao": "LWSK",
      "alert": "OK",
      "vis_m": 9999,
      "fzfg": false,
      "metar_trigger": false,
      "taf_trigger": false,
      "metar": "METAR LWSK 140820Z VRB01KT 9999 SCT035 06/04 Q1005 NOSIG",
      "taf": "TAF LWSK 140500Z 1406/1506 VRB02KT 9999 FEW040"
    },
    {
      "icao": "LYBE",
      "alert": "OK",
      "vis_m": 9999,
      "fzfg": false,
      "metar_trigger": false,
      "taf_trigger": false,
      "metar": "METAR LYBE 140800Z 11007KT CAVOK 09/04 Q1000 NOSIG",
      "taf": "TAF LYBE 140500Z 1406/1506 14010KT CAVOK TX15/1413Z TN05/1406Z"
    },
    {
      "icao": "LYNI",
      "alert": "OK",
      "vis_m": 9999,
      "fzfg": false,
      "metar_trigger": false,
      "taf_trigger": false,
      "metar": "METAR LYNI 140800Z 22004KT 190V250 CAVOK 06/05 Q1003 NOSIG",
      "taf": "TAF LYNI 140500Z 1406/1506 13006KT 4000 BR NSC TX15/1413Z TN02/1406Z"
    },
    {
      "icao": "LYPG",
      "alert": "OK",
      "vis_m": 9999,
      "fzfg": false,
      "metar_trigger": false,
      "taf_trigger": false,
      "metar": "METAR LYPG 140800Z 01003KT 340V070 9999 FEW017 SCT040 OVC070 09/07 Q1002 NOSIG",
      "taf": "TAF LYPG 140500Z 1406/1506 14005KT 8000 SCT030 BKN070 TX15/1414Z TN08/1406Z"
    },
    {
      "icao": "LZIB",
      "alert": "OK",
      "vis_m": 9999,
      "fzfg": false,
      "metar_trigger": false,
      "taf_trigger": false,
      "metar": "METAR LZIB 140800Z 03007KT CAVOK 06/03 Q0997 NOSIG",
      "taf": "TAF LZIB 140515Z 1406/1506 04006KT 9999 SCT030"
    },
    {
      "icao": "LZKZ",
      "alert": "OK",
      "vis_m": 6000,
      "fzfg": false,
      "metar_trigger": false,
      "taf_trigger": false,
      "metar": "METAR LZKZ 140800Z 02005KT 6000 BCFG FEW003 BKN045 03/03 Q1000 NOSIG",
      "taf": "TAF LZKZ 140515Z 1406/1506 VRB02KT 9999 FEW018"
    },
    {
      "icao": "LZTT",
      "alert": "OK",
      "vis_m": 9999,
      "fzfg": false,
      "metar_trigger": false,
      "taf_trigger": false,
      "metar": "METAR LZTT 140800Z VRB01KT 9999 FEW020 SCT033 BKN046 00/M01 Q0999 NOSIG",
      "taf": "TAF LZTT 140515Z 1406/1506 VRB02KT 9999 SCT045"
    },
    {
      "icao": "OEJN",
      "alert": "OK",
      "vis_m": 9999,
      "fzfg": false,
      "metar_trigger": false,
      "taf_trigger": false,
      "metar": "METAR OEJN 140800Z 32006KT CAVOK 30/15 Q1013 NOSIG",
      "taf": "TAF OEJN 140500Z 1406/1512 32010KT CAVOK"
    },
    {
      "icao": "OEMA",
      "alert": "OK",
      "vis_m": 9999,
      "fzfg": false,
      "metar_trigger": false,
      "taf_trigger": false,
      "metar": "METAR OEMA 140800Z VRB03KT CAVOK 26/04 Q1018 NOSIG",
      "taf": "TAF OEMA 140500Z 1406/1512 29010KT CAVOK"
    },
    {
      "icao": "OJAI",
      "alert": "OK",
      "vis_m": 900,
      "fzfg": false,
      "metar_trigger": false,
      "taf_trigger": false,
      "metar": "METAR OJAI 140800Z 24019KT 0900 DS NSC 14/02 Q1016 NOSIG",
      "taf": "TAF OJAI 140430Z 1406/1512 26022KT 1000 BLDU NSC"
    },
    {
      "icao": "OMAA",
      "alert": "OK",
      "vis_m": 9999,
      "fzfg": false,
      "metar_trigger": false,
      "taf_trigger": false,
      "metar": "METAR OMAA 140800Z VRB03KT CAVOK 30/M00 Q1016 NOSIG",
      "taf": "TAF OMAA 140500Z 1406/1512 VRB02KT 8000 NSC"
    },
    {
      "icao": "OMDB",
      "alert": "OK",
      "vis_m": 9999,
      "fzfg": false,
      "metar_trigger": false,
      "taf_trigger": false,
      "metar": "METAR OMDB 140800Z 01005KT 300V060 CAVOK 29/01 Q1016 NOSIG",
      "taf": "TAF OMDB 140500Z 1406/1512 16005KT CAVOK"
    },
    {
      "icao": "UAAA",
      "alert": "OK",
      "vis_m": 3900,
      "fzfg": false,
      "metar_trigger": false,
      "taf_trigger": false,
      "metar": "METAR UAAA 140800Z 00000MPS 3900 BR BKN050CB OVC100 00/M03 Q1021 NOSIG",
      "taf": "TAF UAAA 140504Z 1406/1506 24003MPS 3100 -SHRASN BR FU BKN011CB OVC030 TX00/1409Z TNM09/1503Z"
    },
    {
      "icao": "UBBB",
      "alert": "OK",
      "vis_m": 9999,
      "fzfg": false,
      "metar_trigger": false,
      "taf_trigger": false,
      "metar": "METAR UBBB 140800Z 18016KT CAVOK 15/06 Q1002 NOSIG",
      "taf": "TAF UBBB 140458Z 1406/1506 20014KT CAVOK TX17/1410Z TN07/1501Z"
    },
    {
      "icao": "UDSG",
      "alert": "OK",
      "vis_m": 9000,
      "fzfg": false,
      "metar_trigger": false,
      "taf_trigger": false,
      "metar": "METAR UDSG 140800Z 19015G25KT 9000 -RA OVC026 04/02 Q1011 NOSIG",
      "taf": ""
    },
    {
      "icao": "UDYZ",
      "alert": "OK",
      "vis_m": 8000,
      "fzfg": false,
      "metar_trigger": false,
      "taf_trigger": false,
      "metar": "METAR UDYZ 140800Z VRB05KT 8000 -SHRA BKN043CB 09/05 Q1010 NOSIG",
      "taf": "TAF UDYZ 140500Z 1406/1506 24006KT 9999 SCT040"
    },
    {
      "icao": "UGKO",
      "alert": "OK",
      "vis_m": 9999,
      "fzfg": false,
      "metar_trigger": false,
      "taf_trigger": false,
      "metar": "METAR UGKO 140800Z 21008KT 160V240 9999 BKN089 18/05 Q1002 NOSIG",
      "taf": ""
    }
  ]
}