{
  "ts_utc": "2026-02-09T03:15:09Z",
  "threshold_m": 150,
  "source": "stations_override.txt (ICAO list) + aviationweather.gov (METAR/TAF raw)",
  "station_count": 159,
  "stations": [
    {
      "icao": "BIKF",
      "alert": "OK",
      "vis_m": 9999,
      "fzfg": false,
      "metar_trigger": false,
      "taf_trigger": false,
      "metar": "METAR BIKF 090300Z 04016KT CAVOK 02/M02 Q1007",
      "taf": "TAF BIKF 090144Z 0903/1003 04014KT CAVOK TX03/0915Z TNM01/0909Z"
    },
    {
      "icao": "BKPR",
      "alert": "OK",
      "vis_m": 9999,
      "fzfg": false,
      "metar_trigger": false,
      "taf_trigger": false,
      "metar": "METAR BKPR 090300Z VRB02KT 9999 FEW040 BKN075 04/04 Q1008 NOSIG",
      "taf": "TAF BKPR 082330Z 0900/0924 VRB05KT 9999 BKN030"
    },
    {
      "icao": "EBCI",
      "alert": "OK",
      "vis_m": 9999,
      "fzfg": false,
      "metar_trigger": false,
      "taf_trigger": false,
      "metar": "METAR EBCI 090250Z 16007KT 140V200 9999 BKN007 04/03 Q1006 NOSIG",
      "taf": "TAF EBCI 082316Z 0900/1006 16006KT 8000 FEW004"
    },
    {
      "icao": "EDDB",
      "alert": "OK",
      "vis_m": 4100,
      "fzfg": false,
      "metar_trigger": false,
      "taf_trigger": false,
      "metar": "METAR EDDB 090250Z AUTO 08007KT 4100 BR OVC004 M01/M01 Q1013 TEMPO 2500 -SN",
      "taf": ""
    },
    {
      "icao": "EDDH",
      "alert": "OK",
      "vis_m": 7000,
      "fzfg": false,
      "metar_trigger": false,
      "taf_trigger": false,
      "metar": "METAR EDDH 090250Z AUTO 11007KT 7000 OVC008 00/M01 Q1012 NOSIG",
      "taf": "TAF EDDH 082300Z 0900/1006 11008KT 9999 BKN013"
    },
    {
      "icao": "EDDK",
      "alert": "OK",
      "vis_m": 9999,
      "fzfg": false,
      "metar_trigger": false,
      "taf_trigger": false,
      "metar": "METAR EDDK 090250Z AUTO 11006KT 070V140 9999 BKN014 04/02 Q1008 TEMPO BKN015",
      "taf": "TAF EDDK 082300Z 0900/1006 11005KT 9999 FEW025"
    },
    {
      "icao": "EDDN",
      "alert": "OK",
      "vis_m": 9999,
      "fzfg": false,
      "metar_trigger": false,
      "taf_trigger": false,
      "metar": "METAR EDDN 090250Z AUTO 09003KT 9999 OVC014 02/01 Q1008",
      "taf": "TAF EDDN 082300Z 0900/0924 11004KT 9000 SCT010 BKN030"
    },
    {
      "icao": "EDDS",
      "alert": "OK",
      "vis_m": 9999,
      "fzfg": false,
      "metar_trigger": false,
      "taf_trigger": false,
      "metar": "METAR EDDS 090250Z AUTO 09003KT 060V120 9999 OVC017 02/01 Q1006",
      "taf": "TAF EDDS 082300Z 0900/0924 VRB03KT 9999 BKN020"
    },
    {
      "icao": "EDFH",
      "alert": "OK",
      "vis_m": 3400,
      "fzfg": false,
      "metar_trigger": false,
      "taf_trigger": false,
      "metar": "METAR EDFH 090250Z VRB04KT 3400 BR OVC001 02/02 Q1006",
      "taf": "TAF EDFH 082300Z 0900/0924 13010KT 8000 BKN005"
    },
    {
      "icao": "EDJA",
      "alert": "OK",
      "vis_m": 4400,
      "fzfg": false,
      "metar_trigger": false,
      "taf_trigger": false,
      "metar": "METAR EDJA 090250Z AUTO 06004KT 4400 // BKN002/// OVC012/// 02/01 Q1006",
      "taf": "TAF EDJA 090200Z 0903/0912 VRB03KT 5000 BR OVC002"
    },
    {
      "icao": "EDLW",
      "alert": "OK",
      "vis_m": 9000,
      "fzfg": false,
      "metar_trigger": false,
      "taf_trigger": false,
      "metar": "METAR EDLW 090250Z AUTO 04003KT 9000 // NCD M01/M01 Q1008",
      "taf": "TAF EDLW 081700Z 0818/0918 07004KT CAVOK"
    },
    {
      "icao": "EDNY",
      "alert": "OK",
      "vis_m": 9999,
      "fzfg": false,
      "metar_trigger": false,
      "taf_trigger": false,
      "metar": "METAR EDNY 090250Z AUTO VRB02KT 9999 // SCT018/// OVC024/// 04/03 Q1006",
      "taf": "TAF EDNY 090200Z 0903/0912 VRB03KT 9999 SCT010 OVC025"
    },
    {
      "icao": "EDSB",
      "alert": "OK",
      "vis_m": 3200,
      "fzfg": false,
      "metar_trigger": false,
      "taf_trigger": false,
      "metar": "METAR EDSB 090250Z AUTO 03004KT 350V080 3200 OVC002/// 03/03 Q1008",
      "taf": "TAF EDSB 082300Z 0900/0924 VRB03KT 1200 BR FEW002 BKN005"
    },
    {
      "icao": "EETN",
      "alert": "OK",
      "vis_m": 9999,
      "fzfg": false,
      "metar_trigger": false,
      "taf_trigger": false,
      "metar": "METAR EETN 090250Z 19007KT 9999 FEW006 OVC012 M11/M12 Q1020",
      "taf": "TAF EETN 082330Z 0900/0924 20005KT 9999 SCT004 OVC008"
    },
    {
      "icao": "EFTU",
      "alert": "OK",
      "vis_m": 9999,
      "fzfg": false,
      "metar_trigger": false,
      "taf_trigger": false,
      "metar": "METAR EFTU 090250Z AUTO 26010KT 9999 BKN014 M06/M08 Q1017",
      "taf": "TAF EFTU 090232Z 0903/1003 24009KT 9999 BKN018"
    },
    {
      "icao": "EGBB",
      "alert": "OK",
      "vis_m": 9999,
      "fzfg": false,
      "metar_trigger": false,
      "taf_trigger": false,
      "metar": "METAR EGBB 090250Z 15009KT 9999 -RA BKN007 07/06 Q1000",
      "taf": "TAF EGBB 082259Z 0900/0924 15008KT 9999 FEW010 SCT030"
    },
    {
      "icao": "EGGP",
      "alert": "OK",
      "vis_m": 9999,
      "fzfg": false,
      "metar_trigger": false,
      "taf_trigger": false,
      "metar": "METAR EGGP 090250Z AUTO 14011KT 9999 BKN044/// 07/05 Q0999",
      "taf": "TAF EGGP 082256Z 0900/0924 15008KT 9999 SCT025"
    },
    {
      "icao": "EGGW",
      "alert": "OK",
      "vis_m": 2600,
      "fzfg": false,
      "metar_trigger": false,
      "taf_trigger": false,
      "metar": "METAR EGGW 090250Z AUTO 15007KT 120V180 2600 BR OVC002 07/07 Q1002",
      "taf": ""
    },
    {
      "icao": "EGKK",
      "alert": "OK",
      "vis_m": 9999,
      "fzfg": false,
      "metar_trigger": false,
      "taf_trigger": false,
      "metar": "METAR EGKK 090250Z 14005KT CAVOK 08/07 Q1002",
      "taf": "TAF EGKK 082259Z 0900/1006 14006KT 9999 SCT015"
    },
    {
      "icao": "EGNM",
      "alert": "OK",
      "vis_m": null,
      "fzfg": false,
      "metar_trigger": false,
      "taf_trigger": false,
      "metar": "",
      "taf": "TAF EGNM 082255Z 0900/0924 16005KT 9999 SCT003"
    },
    {
      "icao": "EGPD",
      "alert": "OK",
      "vis_m": 6000,
      "fzfg": false,
      "metar_trigger": false,
      "taf_trigger": false,
      "metar": "METAR EGPD 090250Z AUTO 15010KT 6000 -RA BKN002/// OVC005/// //////TCU 07/07 Q1001 RERA REDZ TEMPO 4000 RADZ",
      "taf": "TAF EGPD 082257Z 0900/0924 15009KT 9999 SCT002 BKN006"
    },
    {
      "icao": "EGPF",
      "alert": "OK",
      "vis_m": 4800,
      "fzfg": false,
      "metar_trigger": false,
      "taf_trigger": false,
      "metar": "METAR EGPF 090250Z AUTO 22002KT 4800 RA BKN018/// OVC034/// //////CB 05/05 Q0999",
      "taf": "TAF EGPF 082259Z 0900/0924 07005KT 9999 SCT030"
    },
    {
      "icao": "EHBK",
      "alert": "OK",
      "vis_m": 9999,
      "fzfg": false,
      "metar_trigger": false,
      "taf_trigger": false,
      "metar": "METAR EHBK 090255Z AUTO 14003KT 9999 NCD 01/00 Q1006",
      "taf": "TAF EHBK 082317Z 0900/1006 11005KT CAVOK"
    },
    {
      "icao": "EHEH",
      "alert": "OK",
      "vis_m": 3500,
      "fzfg": false,
      "metar_trigger": false,
      "taf_trigger": false,
      "metar": "METAR EHEH 090255Z AUTO 10004KT 070V130 3500 BR NCD 02/01 Q1007 YLO",
      "taf": "TAF EHEH 082323Z 0900/1006 08005KT 6000 NSC"
    },
    {
      "icao": "EKBI",
      "alert": "OK",
      "vis_m": 9999,
      "fzfg": false,
      "metar_trigger": false,
      "taf_trigger": false,
      "metar": "METAR EKBI 090250Z AUTO 09011KT 9999 -SN OVC009/// M01/M02 Q1014",
      "taf": "TAF EKBI 090227Z 0903/1003 09012KT 9999 BKN009"
    },
    {
      "icao": "EKCH",
      "alert": "OK",
      "vis_m": 9999,
      "fzfg": false,
      "metar_trigger": false,
      "taf_trigger": false,
      "metar": "METAR EKCH 090250Z 10011KT 9999 BKN013 M01/M04 Q1016 TEMPO BKN009",
      "taf": "TAF EKCH 090227Z 0903/1003 09013KT 9999 BKN016"
    },
    {
      "icao": "ENAL",
      "alert": "OK",
      "vis_m": 9999,
      "fzfg": false,
      "metar_trigger": false,
      "taf_trigger": false,
      "metar": "METAR ENAL 090250Z AUTO 15005KT 9999 NCD 02/M06 Q1014",
      "taf": "TAF ENAL 090200Z 0903/0912 15008KT CAVOK"
    },
    {
      "icao": "ENBR",
      "alert": "OK",
      "vis_m": 9999,
      "fzfg": false,
      "metar_trigger": false,
      "taf_trigger": false,
      "metar": "METAR ENBR 090250Z 11003KT 9999 BKN039 M02/M09 Q1014 RMK WIND 1200FT 14012KT",
      "taf": "TAF ENBR 082300Z 0900/0924 09005KT CAVOK"
    },
    {
      "icao": "ENGM",
      "alert": "OK",
      "vis_m": 9999,
      "fzfg": false,
      "metar_trigger": false,
      "taf_trigger": false,
      "metar": "METAR ENGM 090250Z 02002KT 9999 -SN OVC020 M10/M12 Q1018",
      "taf": "TAF ENGM 082300Z 0900/0924 01005KT 9999 -SN BKN020"
    },
    {
      "icao": "ENHD",
      "alert": "OK",
      "vis_m": null,
      "fzfg": false,
      "metar_trigger": false,
      "taf_trigger": false,
      "metar": "",
      "taf": ""
    },
    {
      "icao": "ENTC",
      "alert": "OK",
      "vis_m": 4000,
      "fzfg": false,
      "metar_trigger": false,
      "taf_trigger": false,
      "metar": "METAR ENTC 090250Z 19011KT 4000 -SN VV019 M02/M03 Q1010 RMK WIND 2600FT 32018KT",
      "taf": ""
    },
    {
      "icao": "ENTO",
      "alert": "OK",
      "vis_m": 9999,
      "fzfg": false,
      "metar_trigger": false,
      "taf_trigger": false,
      "metar": "METAR ENTO 090250Z AUTO 01007KT 9999 FEW013/// OVC026/// M07/M10 Q1019",
      "taf": "TAF ENTO 082300Z 0900/0924 01008KT 9999 BKN020"
    },
    {
      "icao": "ENVA",
      "alert": "OK",
      "vis_m": 9999,
      "fzfg": false,
      "metar_trigger": false,
      "taf_trigger": false,
      "metar": "METAR ENVA 090250Z AUTO 08004KT 9999 SCT041/// OVC051/// M07/M13 Q1015 RMK WIND 670FT 17005KT",
      "taf": "TAF ENVA 082300Z 0900/0924 10005KT 9999 FEW030 BKN050"
    },
    {
      "icao": "ENZV",
      "alert": "OK",
      "vis_m": 9999,
      "fzfg": false,
      "metar_trigger": false,
      "taf_trigger": false,
      "metar": "METAR ENZV 090250Z 12010KT CAVOK 01/M05 Q1014",
      "taf": "TAF ENZV 082300Z 0900/0924 12010KT 9999 FEW030"
    },
    {
      "icao": "EPGD",
      "alert": "OK",
      "vis_m": 7000,
      "fzfg": false,
      "metar_trigger": false,
      "taf_trigger": false,
      "metar": "METAR EPGD 090300Z 12009KT 7000 OVC003 M10/M11 Q1018",
      "taf": "TAF EPGD 082330Z 0900/0924 09008KT 3000 BR BKN003"
    },
    {
      "icao": "EPKK",
      "alert": "OK",
      "vis_m": 9999,
      "fzfg": false,
      "metar_trigger": false,
      "taf_trigger": false,
      "metar": "METAR EPKK 090300Z 07012KT 9999 OVC009 M03/M05 Q1013",
      "taf": "TAF EPKK 090230Z 0903/1003 07012KT 9999 OVC008"
    },
    {
      "icao": "EPKT",
      "alert": "OK",
      "vis_m": 9999,
      "fzfg": false,
      "metar_trigger": false,
      "taf_trigger": false,
      "metar": "METAR EPKT 090300Z 08013KT 9999 -SN OVC008 M03/M05 Q1012",
      "taf": "TAF EPKT 082330Z 0900/0924 07010KT 8000 -SN BKN008"
    },
    {
      "icao": "EPLB",
      "alert": "OK",
      "vis_m": 9999,
      "fzfg": false,
      "metar_trigger": false,
      "taf_trigger": false,
      "metar": "METAR EPLB 090300Z 08010KT 9999 -SN OVC012 M07/M08 Q1018",
      "taf": "TAF EPLB 082330Z 0900/0924 08012KT 9999 OVC010"
    },
    {
      "icao": "EPMO",
      "alert": "OK",
      "vis_m": 9999,
      "fzfg": false,
      "metar_trigger": false,
      "taf_trigger": false,
      "metar": "METAR EPMO 090300Z 08010KT 9999 OVC013 M07/M08 Q1018",
      "taf": "TAF EPMO 082330Z 0900/0924 08012KT 9999 BKN011"
    },
    {
      "icao": "EPPO",
      "alert": "OK",
      "vis_m": 9000,
      "fzfg": false,
      "metar_trigger": false,
      "taf_trigger": false,
      "metar": "METAR EPPO 090300Z 11012KT 9000 OVC011 M02/M04 Q1015",
      "taf": "TAF EPPO 082330Z 0900/0924 10011KT 6000 OVC012"
    },
    {
      "icao": "EPRA",
      "alert": "OK",
      "vis_m": 9999,
      "fzfg": false,
      "metar_trigger": false,
      "taf_trigger": false,
      "metar": "METAR EPRA 090300Z 13009KT 9999 OVC008 M04/M06 Q1017",
      "taf": "TAF EPRA 090230Z 0903/0912 10012KT 9999 OVC013"
    },
    {
      "icao": "EPRZ",
      "alert": "OK",
      "vis_m": 9999,
      "fzfg": false,
      "metar_trigger": false,
      "taf_trigger": false,
      "metar": "METAR EPRZ 090300Z 07015KT 9999 OVC010 M04/M06 Q1015",
      "taf": "TAF EPRZ 082330Z 0900/0924 07012KT 9000 -SN OVC010"
    },
    {
      "icao": "EPSC",
      "alert": "OK",
      "vis_m": 9999,
      "fzfg": false,
      "metar_trigger": false,
      "taf_trigger": false,
      "metar": "METAR EPSC 090300Z 11009KT 9999 -SN OVC013 M01/M04 Q1015",
      "taf": "TAF EPSC 082330Z 0900/0924 09009KT 9999 BKN012"
    },
    {
      "icao": "EPSY",
      "alert": "OK",
      "vis_m": 7000,
      "fzfg": false,
      "metar_trigger": false,
      "taf_trigger": false,
      "metar": "METAR EPSY 090300Z 09005KT 050V140 7000 -SN OVC002 M13/M14 Q1020",
      "taf": "TAF EPSY 090230Z 0903/0912 10006KT 9999 BKN005"
    },
    {
      "icao": "EPWA",
      "alert": "OK",
      "vis_m": 9999,
      "fzfg": false,
      "metar_trigger": false,
      "taf_trigger": false,
      "metar": "METAR EPWA 090300Z 09011KT 9999 OVC012 M06/M08 Q1018 NOSIG",
      "taf": "TAF EPWA 090230Z 0903/1003 10010KT 9999 OVC013"
    },
    {
      "icao": "EPWR",
      "alert": "OK",
      "vis_m": 6000,
      "fzfg": false,
      "metar_trigger": false,
      "taf_trigger": false,
      "metar": "METAR EPWR 090300Z 09008KT 6000 OVC007 M00/M02 Q1013",
      "taf": "TAF EPWR 090230Z 0903/1003 08010KT 7000 OVC006"
    },
    {
      "icao": "ESGG",
      "alert": "OK",
      "vis_m": 9999,
      "fzfg": false,
      "metar_trigger": false,
      "taf_trigger": false,
      "metar": "METAR ESGG 090250Z 10003KT 060V140 9999 BKN038 M10/M11 Q1017",
      "taf": "TAF ESGG 090230Z 0903/1003 12010KT 9999 SCT040"
    },
    {
      "icao": "ESKN",
      "alert": "OK",
      "vis_m": 9999,
      "fzfg": false,
      "metar_trigger": false,
      "taf_trigger": false,
      "metar": "METAR ESKN 090250Z 25002KT 9999 OVC022 M11/M12 Q1020",
      "taf": "TAF ESKN 090230Z 0903/1003 30003KT 9999 BKN023"
    },
    {
      "icao": "ESMS",
      "alert": "OK",
      "vis_m": 9999,
      "fzfg": false,
      "metar_trigger": false,
      "taf_trigger": false,
      "metar": "METAR ESMS 090250Z 10013KT 9999 OVC011 M02/M04 Q1016",
      "taf": "TAF ESMS 090227Z 0903/1003 09015KT 9999 BKN014"
    },
    {
      "icao": "ESSA",
      "alert": "OK",
      "vis_m": 200,
      "fzfg": true,
      "metar_trigger": false,
      "taf_trigger": false,
      "metar": "METAR ESSA 090250Z 24002KT 0200 FZFG OVC002 M11/M13 Q1019 TEMPO 0500",
      "taf": "TAF ESSA 090230Z 0903/1003 25003KT 0200 FZFG OVC002"
    },
    {
      "icao": "EYKA",
      "alert": "OK",
      "vis_m": 9999,
      "fzfg": false,
      "metar_trigger": false,
      "taf_trigger": false,
      "metar": "METAR EYKA 090250Z 09004KT CAVOK M18/M21 Q1022",
      "taf": "TAF EYKA 082300Z 0900/0924 VRB04KT 9000 NSC"
    },
    {
      "icao": "EYPA",
      "alert": "OK",
      "vis_m": 9999,
      "fzfg": false,
      "metar_trigger": false,
      "taf_trigger": false,
      "metar": "METAR EYPA 090250Z 09004KT CAVOK M18/M19 Q1022",
      "taf": "TAF EYPA 082300Z 0900/0924 VRB04KT 9000 NSC"
    },
    {
      "icao": "EYVI",
      "alert": "OK",
      "vis_m": 9999,
      "fzfg": false,
      "metar_trigger": false,
      "taf_trigger": false,
      "metar": "METAR EYVI 090250Z 10002KT 9999 OVC003 M15/M16 Q1021 NOSIG",
      "taf": ""
    },
    {
      "icao": "GCFV",
      "alert": "OK",
      "vis_m": 9999,
      "fzfg": false,
      "metar_trigger": false,
      "taf_trigger": false,
      "metar": "METAR GCFV 090300Z AUTO 33007KT CAVOK 17/13 Q1024",
      "taf": "TAF GCFV 090200Z 0903/1003 31005KT 9999 FEW025 TX22/0914Z TN16/0906Z"
    },
    {
      "icao": "GCLP",
      "alert": "OK",
      "vis_m": 9999,
      "fzfg": false,
      "metar_trigger": false,
      "taf_trigger": false,
      "metar": "METAR GCLP 090300Z 35010KT 9999 FEW030 17/12 Q1024 NOSIG",
      "taf": "TAF GCLP 090200Z 0903/1003 34008KT 9999 FEW030 TX22/0914Z TN16/0906Z"
    },
    {
      "icao": "GCTS",
      "alert": "OK",
      "vis_m": 9999,
      "fzfg": false,
      "metar_trigger": false,
      "taf_trigger": false,
      "metar": "METAR GCTS 090230Z 36008KT 9999 FEW035 15/08 Q1025 NOSIG",
      "taf": "TAF GCTS 090200Z 0903/1003 36005KT 9999 FEW035 TX22/0914Z TN14/0906Z"
    },
    {
      "icao": "GMAD",
      "alert": "OK",
      "vis_m": 8000,
      "fzfg": false,
      "metar_trigger": false,
      "taf_trigger": false,
      "metar": "METAR GMAD 090300Z 00000KT 8000 FEW020 13/11 Q1020 NOSIG",
      "taf": "TAF GMAD 082300Z 0900/1006 22004KT 6000 SCT016"
    },
    {
      "icao": "GMMN",
      "alert": "OK",
      "vis_m": 5000,
      "fzfg": false,
      "metar_trigger": false,
      "taf_trigger": false,
      "metar": "METAR GMMN 090300Z 22010KT 5000 -DZ BKN006 14/13 Q1020 NOSIG",
      "taf": "TAF GMMN 082300Z 0900/1006 22014KT 9999 BKN020"
    },
    {
      "icao": "GMMX",
      "alert": "OK",
      "vis_m": 7000,
      "fzfg": false,
      "metar_trigger": false,
      "taf_trigger": false,
      "metar": "METAR GMMX 090300Z 25005KT 7000 SCT007 BKN020 13/12 Q1023 NOSIG",
      "taf": "TAF GMMX 082300Z 0900/1006 22006KT 8000 SCT020 SCT080"
    },
    {
      "icao": "HEGN",
      "alert": "OK",
      "vis_m": 9999,
      "fzfg": false,
      "metar_trigger": false,
      "taf_trigger": false,
      "metar": "METAR HEGN 090200Z 00000KT CAVOK 16/05 Q1013 NOSIG",
      "taf": "TAF HEGN 082300Z 0900/1006 29008KT CAVOK"
    },
    {
      "icao": "HEMA",
      "alert": "OK",
      "vis_m": 9999,
      "fzfg": false,
      "metar_trigger": false,
      "taf_trigger": false,
      "metar": "METAR HEMA 090200Z 24010KT CAVOK 17/M02 Q1013 NOSIG",
      "taf": "TAF HEMA 082300Z 0900/1006 25008KT CAVOK"
    },
    {
      "icao": "HESH",
      "alert": "OK",
      "vis_m": 9999,
      "fzfg": false,
      "metar_trigger": false,
      "taf_trigger": false,
      "metar": "METAR HESH 090200Z 00000KT CAVOK 17/14 Q1014 NOSIG",
      "taf": "TAF HESH 082300Z 0900/1006 30008KT CAVOK"
    },
    {
      "icao": "HESX",
      "alert": "OK",
      "vis_m": 9999,
      "fzfg": false,
      "metar_trigger": false,
      "taf_trigger": false,
      "metar": "METAR HESX 090200Z 30001KT 9999 SCT030 16/03 Q1010 NOSIG",
      "taf": "TAF HESX 090145Z 0901/1006 25009KT CAVOK"
    },
    {
      "icao": "LATI",
      "alert": "OK",
      "vis_m": 9999,
      "fzfg": false,
      "metar_trigger": false,
      "taf_trigger": false,
      "metar": "METAR LATI 090250Z 19005KT 9999 -RA SCT040 OVC057 10/07 Q1007 NOSIG",
      "taf": "TAF LATI 082300Z 0900/0924 VRB05KT 9999 FEW040 BKN100 TX13/0912Z TN08/0905Z"
    },
    {
      "icao": "LBPD",
      "alert": "OK",
      "vis_m": 9000,
      "fzfg": false,
      "metar_trigger": false,
      "taf_trigger": false,
      "metar": "METAR LBPD 090300Z AUTO 28004KT 9000 SCT096/// BKN190/// BKN250/// 05/05 Q1009",
      "taf": "TAF LBPD 082300Z 0900/0924 VRB03KT 5000 BR BKN015"
    },
    {
      "icao": "LBSF",
      "alert": "OK",
      "vis_m": 7000,
      "fzfg": false,
      "metar_trigger": false,
      "taf_trigger": false,
      "metar": "METAR LBSF 090300Z AUTO 13003KT 7000 NSC M00/M01 Q1009 TEMPO 2000 BR",
      "taf": "TAF LBSF 082300Z 0900/0924 VRB03KT 5000 BR BKN015"
    },
    {
      "icao": "LBWN",
      "alert": "OK",
      "vis_m": 9999,
      "fzfg": false,
      "metar_trigger": false,
      "taf_trigger": false,
      "metar": "METAR LBWN 090300Z AUTO 08006KT 020V120 9999 OVC007/// 03/03 Q1012 NOSIG",
      "taf": "TAF LBWN 082300Z 0900/0924 VRB03KT 3000 BR BKN002 OVC025"
    },
    {
      "icao": "LCLK",
      "alert": "OK",
      "vis_m": 9999,
      "fzfg": false,
      "metar_trigger": false,
      "taf_trigger": false,
      "metar": "METAR LCLK 090300Z 29004KT CAVOK 12/11 Q1008 NOSIG",
      "taf": "TAF LCLK 082330Z 0900/1000 30006KT 9999 FEW025"
    },
    {
      "icao": "LCPH",
      "alert": "OK",
      "vis_m": 9999,
      "fzfg": false,
      "metar_trigger": false,
      "taf_trigger": false,
      "metar": "METAR LCPH 090300Z AUTO 01003KT 9999 OVC018 14/13 Q1008 NOSIG",
      "taf": "TAF LCPH 082330Z 0900/1000 02007KT 9999 FEW020"
    },
    {
      "icao": "LEAL",
      "alert": "OK",
      "vis_m": 9999,
      "fzfg": false,
      "metar_trigger": false,
      "taf_trigger": false,
      "metar": "METAR LEAL 090300Z 30008KT CAVOK 13/04 Q1011 NOSIG",
      "taf": "TAF LEAL 082300Z 0900/0924 26005KT 9999 FEW040 TX21/0914Z TN06/0906Z"
    },
    {
      "icao": "LEBB",
      "alert": "OK",
      "vis_m": 9999,
      "fzfg": false,
      "metar_trigger": false,
      "taf_trigger": false,
      "metar": "METAR LEBB 090300Z AUTO 14007KT 080V210 9999 BKN067 10/06 Q1004",
      "taf": "TAF LEBB 082300Z 0900/0924 20008KT 9999 FEW040 SCT060 TX16/0913Z TN09/0900Z"
    },
    {
      "icao": "LEBL",
      "alert": "OK",
      "vis_m": 9999,
      "fzfg": false,
      "metar_trigger": false,
      "taf_trigger": false,
      "metar": "METAR LEBL 090300Z 32006KT 9999 FEW030 08/06 Q1008 NOSIG",
      "taf": "TAF LEBL 082300Z 0900/0924 34009KT 9999 FEW025 TX14/0913Z TN07/0906Z"
    },
    {
      "icao": "LECH",
      "alert": "OK",
      "vis_m": 9999,
      "fzfg": false,
      "metar_trigger": false,
      "taf_trigger": false,
      "metar": "METAR LECH 090300Z AUTO VRB01KT CAVOK 08/M01 Q1008",
      "taf": ""
    },
    {
      "icao": "LEMD",
      "alert": "OK",
      "vis_m": 5000,
      "fzfg": false,
      "metar_trigger": false,
      "taf_trigger": false,
      "metar": "METAR LEMD 090300Z COR 16005KT 5000 RA SCT017 BKN025 BKN030 05/05 Q1010 NOSIG",
      "taf": ""
    },
    {
      "icao": "LEMG",
      "alert": "OK",
      "vis_m": 9999,
      "fzfg": false,
      "metar_trigger": false,
      "taf_trigger": false,
      "metar": "METAR LEMG 090300Z VRB02KT 9999 SCT010 BKN035 10/10 Q1014 NOSIG",
      "taf": "TAF LEMG 082300Z 0900/0924 VRB03KT 9999 FEW040 TX22/0914Z TN13/0907Z"
    },
    {
      "icao": "LEVC",
      "alert": "OK",
      "vis_m": 9999,
      "fzfg": false,
      "metar_trigger": false,
      "taf_trigger": false,
      "metar": "METAR LEVC 090300Z 27013KT 240V300 9999 -RA FEW047 SCT063 11/05 Q1010 NOSIG",
      "taf": "TAF LEVC 082300Z 0900/0924 25006KT 9999 FEW040 TX20/0914Z TN07/0906Z"
    },
    {
      "icao": "LEXJ",
      "alert": "OK",
      "vis_m": 9999,
      "fzfg": false,
      "metar_trigger": false,
      "taf_trigger": false,
      "metar": "METAR LEXJ 090300Z AUTO 21010KT 160V260 9999 OVC060 12/03 Q1003",
      "taf": "TAF LEXJ 090200Z 0903/1003 20009KT 9999 SCT060 TX16/0913Z TN09/0903Z"
    },
    {
      "icao": "LEZG",
      "alert": "OK",
      "vis_m": 9999,
      "fzfg": false,
      "metar_trigger": false,
      "taf_trigger": false,
      "metar": "METAR LEZG 090300Z 25012KT 210V290 9999 BKN085 09/03 Q1008 NOSIG",
      "taf": ""
    },
    {
      "icao": "LEZL",
      "alert": "OK",
      "vis_m": 2500,
      "fzfg": false,
      "metar_trigger": false,
      "taf_trigger": false,
      "metar": "METAR LEZL 090300Z AUTO 24007KT 2500 BR OVC002 15/15 Q1012",
      "taf": "TAF LEZL 090200Z 0903/1003 24010KT 9999 FEW015 TX20/0915Z TN12/0907Z"
    },
    {
      "icao": "LFBD",
      "alert": "OK",
      "vis_m": 9999,
      "fzfg": false,
      "metar_trigger": false,
      "taf_trigger": false,
      "metar": "METAR LFBD 090300Z AUTO 19006KT CAVOK 07/06 Q1005 TEMPO 0600 FG VV///",
      "taf": "TAF LFBD 082300Z 0900/1006 15005KT 9999 SCT040 TX12/0914Z TN06/0903Z"
    },
    {
      "icao": "LFLL",
      "alert": "OK",
      "vis_m": 8000,
      "fzfg": false,
      "metar_trigger": false,
      "taf_trigger": false,
      "metar": "METAR LFLL 090300Z 14008KT 8000 NSC 03/02 Q1006 TEMPO 0500 BCFG",
      "taf": ""
    },
    {
      "icao": "LFLS",
      "alert": "OK",
      "vis_m": 9999,
      "fzfg": false,
      "metar_trigger": false,
      "taf_trigger": false,
      "metar": "METAR LFLS 090300Z AUTO 07009KT CAVOK 02/01 Q1005 NOSIG",
      "taf": "TAF LFLS 090200Z 0903/1003 08006KT CAVOK"
    },
    {
      "icao": "LFMN",
      "alert": "OK",
      "vis_m": 9999,
      "fzfg": false,
      "metar_trigger": false,
      "taf_trigger": false,
      "metar": "METAR LFMN 090300Z 33007KT 9999 FEW033 BKN110 08/06 Q1005 NOSIG",
      "taf": "TAF LFMN 090200Z 0903/1009 33010KT 9999 BKN080"
    },
    {
      "icao": "LFOB",
      "alert": "OK",
      "vis_m": 800,
      "fzfg": false,
      "metar_trigger": false,
      "taf_trigger": false,
      "metar": "METAR LFOB 090300Z AUTO 11009KT 0800 0700 R30/0900D R12/1000D FG VV/// 04/04 Q1004 NOSIG",
      "taf": "TAF LFOB 082300Z 0900/0924 13005KT CAVOK"
    },
    {
      "icao": "LFPO",
      "alert": "OK",
      "vis_m": 900,
      "fzfg": false,
      "metar_trigger": false,
      "taf_trigger": false,
      "metar": "METAR LFPO 090300Z AUTO 10005KT 0900 0700 R02/1100U R25/1300D R07/0900D R24/1200D R06/0800U FG VV/// 04/04 Q1005 TEMPO 0500 FG",
      "taf": ""
    },
    {
      "icao": "LFSB",
      "alert": "OK",
      "vis_m": 6000,
      "fzfg": false,
      "metar_trigger": false,
      "taf_trigger": false,
      "metar": "METAR LFSB 090300Z AUTO 00000KT 6000 BKN004 OVC009 03/03 Q1007 TEMPO 0300 FG VV///",
      "taf": ""
    },
    {
      "icao": "LGAV",
      "alert": "OK",
      "vis_m": 9999,
      "fzfg": false,
      "metar_trigger": false,
      "taf_trigger": false,
      "metar": "METAR LGAV 090250Z VRB03KT 9999 FEW020 BKN070 08/05 Q1009 NOSIG",
      "taf": "TAF LGAV 082300Z 0900/0924 27006KT 9999 FEW020"
    },
    {
      "icao": "LGTS",
      "alert": "OK",
      "vis_m": 9999,
      "fzfg": false,
      "metar_trigger": false,
      "taf_trigger": false,
      "metar": "METAR LGTS 090250Z VRB03KT 9999 FEW025 07/06 Q1008 NOSIG",
      "taf": "TAF LGTS 082300Z 0900/0924 VRB03KT 9999 FEW010 BKN025"
    },
    {
      "icao": "LHBP",
      "alert": "OK",
      "vis_m": 5000,
      "fzfg": false,
      "metar_trigger": false,
      "taf_trigger": false,
      "metar": "METAR LHBP 090300Z 07003KT 5000 BR OVC004 05/04 Q1010 NOSIG",
      "taf": "TAF LHBP 082315Z 0900/0924 03003KT 6000 SCT005 BKN025"
    },
    {
      "icao": "LHDC",
      "alert": "OK",
      "vis_m": 9000,
      "fzfg": false,
      "metar_trigger": false,
      "taf_trigger": false,
      "metar": "METAR LHDC 090245Z AUTO 04009KT 9000 OVC015 03/02 Q1010 TEMPO OVC009",
      "taf": "TAF LHDC 090215Z 0903/0912 04007KT 9999 OVC018"
    },
    {
      "icao": "LIBD",
      "alert": "OK",
      "vis_m": 9999,
      "fzfg": false,
      "metar_trigger": false,
      "taf_trigger": false,
      "metar": "METAR LIBD 090250Z 26005KT CAVOK 10/08 Q1005",
      "taf": "TAF LIBD 082300Z 0900/0924 VRB05KT 9999 SCT040"
    },
    {
      "icao": "LIBG",
      "alert": "OK",
      "vis_m": null,
      "fzfg": false,
      "metar_trigger": false,
      "taf_trigger": false,
      "metar": "",
      "taf": "TAF LIBG 081700Z 0818/0903 VRB05KT 9999 SCT040"
    },
    {
      "icao": "LIBP",
      "alert": "OK",
      "vis_m": 300,
      "fzfg": false,
      "metar_trigger": false,
      "taf_trigger": false,
      "metar": "METAR LIBP 090250Z AUTO 22003KT 0300 R22/0600D FG SCT003/// BKN130/// 07/07 Q1005",
      "taf": "TAF LIBP 082300Z 0900/0924 VRB05KT 8000 BKN020"
    },
    {
      "icao": "LIBR",
      "alert": "OK",
      "vis_m": 9999,
      "fzfg": false,
      "metar_trigger": false,
      "taf_trigger": false,
      "metar": "METAR LIBR 090250Z 17006KT CAVOK 12/10 Q1005",
      "taf": "TAF LIBR 082300Z 0900/0924 15010KT 9999 SCT040"
    },
    {
      "icao": "LICA",
      "alert": "OK",
      "vis_m": 9999,
      "fzfg": false,
      "metar_trigger": false,
      "taf_trigger": false,
      "metar": "METAR LICA 090250Z AUTO 07007KT 9999 -RA OVC053/// 10/09 Q1006",
      "taf": "TAF LICA 082300Z 0900/0924 07006KT 9999 FEW020 SCT080"
    },
    {
      "icao": "LICC",
      "alert": "OK",
      "vis_m": 9999,
      "fzfg": false,
      "metar_trigger": false,
      "taf_trigger": false,
      "metar": "METAR LICC 090250Z 28007KT 9999 FEW100 09/05 Q1005",
      "taf": "TAF LICC 082300Z 0900/0924 VRB06KT 9999 SCT030 SCT080"
    },
    {
      "icao": "LICJ",
      "alert": "OK",
      "vis_m": 9999,
      "fzfg": false,
      "metar_trigger": false,
      "taf_trigger": false,
      "metar": "METAR LICJ 090250Z 19016KT 9999 -RA SCT060 12/09 Q1004",
      "taf": "TAF LICJ 082300Z 0900/0924 20015KT 9999 FEW020 SCT040"
    },
    {
      "icao": "LIMC",
      "alert": "OK",
      "vis_m": 4000,
      "fzfg": false,
      "metar_trigger": false,
      "taf_trigger": false,
      "metar": "METAR LIMC 090250Z 01005KT 4000 BCFG BKN080 06/06 Q1006 NOSIG",
      "taf": "TAF LIMC 082300Z 0900/1006 VRB04KT 4000 BR BKN040"
    },
    {
      "icao": "LIME",
      "alert": "OK",
      "vis_m": 9999,
      "fzfg": false,
      "metar_trigger": false,
      "taf_trigger": false,
      "metar": "METAR LIME 090250Z 03003KT 9999 BKN070 06/06 Q1006 NOSIG",
      "taf": "TAF LIME 082300Z 0900/0924 VRB04KT 3000 BR BKN040"
    },
    {
      "icao": "LIMF",
      "alert": "OK",
      "vis_m": 6000,
      "fzfg": false,
      "metar_trigger": false,
      "taf_trigger": false,
      "metar": "METAR LIMF 090250Z 30003KT 6000 SCT060 07/04 Q1006",
      "taf": "TAF LIMF 082300Z 0900/0924 VRB04KT 7000 BKN030"
    },
    {
      "icao": "LIMJ",
      "alert": "OK",
      "vis_m": 9999,
      "fzfg": false,
      "metar_trigger": false,
      "taf_trigger": false,
      "metar": "METAR LIMJ 090250Z AUTO 01009KT 9999 FEW063/// BKN110/// 10/06 Q1005",
      "taf": "TAF LIMJ 082300Z 0900/0924 02008KT 9999 BKN030"
    },
    {
      "icao": "LIPE",
      "alert": "OK",
      "vis_m": 700,
      "fzfg": false,
      "metar_trigger": false,
      "taf_trigger": false,
      "metar": "METAR LIPE 090250Z 24003KT 0700 R12/P2000N R30/P2000N FG BKN002 08/08 Q1006",
      "taf": "TAF LIPE 082300Z 0900/0924 VRB05KT 6000 SCT010"
    },
    {
      "icao": "LIPH",
      "alert": "OK",
      "vis_m": 9999,
      "fzfg": false,
      "metar_trigger": false,
      "taf_trigger": false,
      "metar": "METAR LIPH 090250Z AUTO 02002KT 9999 BKN067/// BKN100/// 07/06 Q1006",
      "taf": "TAF LIPH 082300Z 0900/0924 VRB05KT 7000 SCT060"
    },
    {
      "icao": "LIPQ",
      "alert": "OK",
      "vis_m": 9999,
      "fzfg": false,
      "metar_trigger": false,
      "taf_trigger": false,
      "metar": "METAR LIPQ 090250Z AUTO VRB02KT 9999 OVC059/// 07/06 Q1007",
      "taf": "TAF LIPQ 082300Z 0900/0924 VRB05KT 9999 BKN050"
    },
    {
      "icao": "LIPR",
      "alert": "OK",
      "vis_m": 1100,
      "fzfg": false,
      "metar_trigger": false,
      "taf_trigger": false,
      "metar": "METAR LIPR 090250Z AUTO 31003KT 1100 R30/P2000N BR BKN003/// BKN081/// 08/08 Q1006",
      "taf": "TAF LIPR 082300Z 0900/0924 VRB05KT 6000 SCT010 SCT040"
    },
    {
      "icao": "LIPX",
      "alert": "OK",
      "vis_m": 7000,
      "fzfg": false,
      "metar_trigger": false,
      "taf_trigger": false,
      "metar": "METAR LIPX 090250Z 33005KT 7000 BKN070 06/06 Q1006",
      "taf": "TAF LIPX 082300Z 0900/0924 VRB04KT 6000 BKN040"
    },
    {
      "icao": "LIPY",
      "alert": "OK",
      "vis_m": 7000,
      "fzfg": false,
      "metar_trigger": false,
      "taf_trigger": false,
      "metar": "METAR LIPY 090250Z AUTO 22002KT 7000 BKN048/// BKN083/// BKN095/// 08/08 Q1006",
      "taf": "TAF LIPY 082300Z 0900/0924 VRB05KT 7000 SCT060"
    },
    {
      "icao": "LIPZ",
      "alert": "OK",
      "vis_m": 9999,
      "fzfg": false,
      "metar_trigger": false,
      "taf_trigger": false,
      "metar": "METAR LIPZ 090250Z 35003KT 9999 SCT070 07/06 Q1007 NOSIG",
      "taf": "TAF LIPZ 082300Z 0900/1006 05006KT 9999 SCT060"
    },
    {
      "icao": "LIRF",
      "alert": "OK",
      "vis_m": 4500,
      "fzfg": false,
      "metar_trigger": false,
      "taf_trigger": false,
      "metar": "METAR LIRF 090250Z 10003KT 4500 -RA SCT045 09/08 Q1003 NOSIG",
      "taf": "TAF LIRF 082300Z 0900/1006 08010KT 9999 SCT020 BKN040"
    },
    {
      "icao": "LIRN",
      "alert": "OK",
      "vis_m": 9999,
      "fzfg": false,
      "metar_trigger": false,
      "taf_trigger": false,
      "metar": "METAR LIRN 090250Z 06006KT 9999 -RA BKN050 09/08 Q1005 NOSIG",
      "taf": "TAF LIRN 082300Z 0900/0924 VRB05KT 9999 BKN040"
    },
    {
      "icao": "LIRP",
      "alert": "OK",
      "vis_m": 9999,
      "fzfg": false,
      "metar_trigger": false,
      "taf_trigger": false,
      "metar": "METAR LIRP 090245Z VRB03KT 9999 FEW040 08/06 Q1005 NOSIG",
      "taf": "TAF LIRP 082300Z 0900/0924 06005KT 9999 SCT020 SCT050"
    },
    {
      "icao": "LIRZ",
      "alert": "OK",
      "vis_m": 9999,
      "fzfg": false,
      "metar_trigger": false,
      "taf_trigger": false,
      "metar": "METAR LIRZ 090250Z AUTO 36006KT 9999 -RA OVC055/// 08/06 Q1004",
      "taf": "TAF LIRZ 082300Z 0900/0924 VRB05KT 9999 BKN030"
    },
    {
      "icao": "LJLJ",
      "alert": "OK",
      "vis_m": 3000,
      "fzfg": false,
      "metar_trigger": false,
      "taf_trigger": false,
      "metar": "METAR LJLJ 090300Z VRB01KT 3000 -RA BR BKN018 OVC035 04/04 Q1007 NOSIG",
      "taf": "TAF LJLJ 082300Z 0900/1000 VRB02KT 8000 SCT020 BKN040"
    },
    {
      "icao": "LKMT",
      "alert": "OK",
      "vis_m": 1800,
      "fzfg": false,
      "metar_trigger": false,
      "taf_trigger": false,
      "metar": "METAR LKMT 090300Z 05010KT 1800 -SN BR OVC005 M01/M01 Q1011 TEMPO 1400 SN BR",
      "taf": "TAF LKMT 082300Z 0900/0924 02005KT 3000 -SN BR OVC008"
    },
    {
      "icao": "LKPR",
      "alert": "OK",
      "vis_m": 3500,
      "fzfg": true,
      "metar_trigger": false,
      "taf_trigger": false,
      "metar": "METAR LKPR 090300Z 05005KT 3500 BR OVC002 M00/M00 Q1009 TEMPO 1200 BCFG",
      "taf": "TAF LKPR 090200Z 0903/1009 VRB02KT 0600 -FZDZ FZFG BKN001"
    },
    {
      "icao": "LLBG",
      "alert": "OK",
      "vis_m": 9999,
      "fzfg": false,
      "metar_trigger": false,
      "taf_trigger": false,
      "metar": "METAR LLBG 090250Z 15007KT CAVOK 18/04 Q1009 NOSIG",
      "taf": "TAF LLBG 082337Z 0900/0924 VRB04KT CAVOK"
    },
    {
      "icao": "LMML",
      "alert": "OK",
      "vis_m": 9999,
      "fzfg": false,
      "metar_trigger": false,
      "taf_trigger": false,
      "metar": "METAR LMML 090245Z 29010KT 9999 FEW023 14/10 Q1007 NOSIG",
      "taf": "TAF LMML 082300Z 0900/0924 22012KT 9999 FEW020"
    },
    {
      "icao": "LOWW",
      "alert": "OK",
      "vis_m": 9999,
      "fzfg": false,
      "metar_trigger": false,
      "taf_trigger": false,
      "metar": "METAR LOWW 090250Z 02004KT 9999 -RA FEW013 BKN042 02/00 Q1010 NOSIG",
      "taf": "TAF LOWW 090215Z 0903/1009 02005KT 9999 BKN030 TX04/0913Z TN02/0906Z"
    },
    {
      "icao": "LPFR",
      "alert": "OK",
      "vis_m": 8000,
      "fzfg": false,
      "metar_trigger": false,
      "taf_trigger": false,
      "metar": "METAR LPFR 090300Z 26015KT 8000 OVC003 15/15 Q1013",
      "taf": "TAF LPFR 082300Z 0900/0924 24010KT 8000 SCT006 BKN012"
    },
    {
      "icao": "LPMA",
      "alert": "OK",
      "vis_m": 9999,
      "fzfg": false,
      "metar_trigger": false,
      "taf_trigger": false,
      "metar": "METAR LPMA 090300Z VRB02KT 9999 FEW015 16/12 Q1023",
      "taf": "TAF LPMA 082300Z 0900/0924 VRB05KT 9999 SCT015"
    },
    {
      "icao": "LPPR",
      "alert": "OK",
      "vis_m": 4500,
      "fzfg": false,
      "metar_trigger": false,
      "taf_trigger": false,
      "metar": "METAR LPPR 090300Z 21006KT 4500 BR SCT008 BKN014 OVC030 14/13 Q1009",
      "taf": "TAF LPPR 082300Z 0900/0924 18013KT 6000 -RA SCT006 BKN012"
    },
    {
      "icao": "LPPS",
      "alert": "OK",
      "vis_m": 9999,
      "fzfg": false,
      "metar_trigger": false,
      "taf_trigger": false,
      "metar": "METAR LPPS 090300Z 28011KT 9999 SCT010 17/16 Q1022",
      "taf": "TAF LPPS 082300Z 0900/1006 27015KT 9999 SCT012"
    },
    {
      "icao": "LPPT",
      "alert": "OK",
      "vis_m": 6000,
      "fzfg": false,
      "metar_trigger": false,
      "taf_trigger": false,
      "metar": "METAR LPPT 090300Z 26008KT 220V290 6000 -DZ FEW004 BKN006 15/15 Q1011",
      "taf": "TAF LPPT 082300Z 0900/1006 26012KT 6000 -RADZ SCT003 SCT008"
    },
    {
      "icao": "LQBK",
      "alert": "OK",
      "vis_m": 7000,
      "fzfg": false,
      "metar_trigger": false,
      "taf_trigger": false,
      "metar": "METAR LQBK 090300Z 30002KT 7000 SCT013 OVC030 07/07 Q1008 NOSIG",
      "taf": "TAF LQBK 082300Z 0900/0924 06005KT 7000 SCT010 BKN030 TX09/0914Z TN05/0906Z"
    },
    {
      "icao": "LQSA",
      "alert": "OK",
      "vis_m": 9999,
      "fzfg": false,
      "metar_trigger": false,
      "taf_trigger": false,
      "metar": "METAR LQSA 090300Z 13004KT 9999 SCT006 BKN030 05/05 Q1007",
      "taf": "TAF LQSA 082300Z 0900/0924 VRB02KT 9999 FEW030 BKN045 TX08/0913Z TN02/0905Z"
    },
    {
      "icao": "LQTZ",
      "alert": "OK",
      "vis_m": 2000,
      "fzfg": false,
      "metar_trigger": false,
      "taf_trigger": false,
      "metar": "METAR LQTZ 090300Z 35003KT 2000 BR BKN005 OVC020 07/07 Q1007",
      "taf": "TAF LQTZ 082300Z 0900/0924 04005KT 8000 SCT015 BKN035 TX10/0913Z TN03/0906Z"
    },
    {
      "icao": "LRBC",
      "alert": "OK",
      "vis_m": 9999,
      "fzfg": false,
      "metar_trigger": false,
      "taf_trigger": false,
      "metar": "METAR LRBC 090300Z 35007KT 9999 -SN SCT018 OVC043 M03/M05 Q1016",
      "taf": "TAF LRBC 090200Z 0903/0912 36008KT 9999 SCT015 OVC040"
    },
    {
      "icao": "LRBS",
      "alert": "OK",
      "vis_m": 9999,
      "fzfg": false,
      "metar_trigger": false,
      "taf_trigger": false,
      "metar": "METAR LRBS 090300Z 07015KT 9999 OVC012 01/M01 Q1013 NOSIG",
      "taf": "TAF LRBS 082300Z 0900/0924 07010KT 9999 BKN015"
    },
    {
      "icao": "LRBV",
      "alert": "OK",
      "vis_m": 9999,
      "fzfg": false,
      "metar_trigger": false,
      "taf_trigger": false,
      "metar": "METAR LRBV 090300Z AUTO 09009KT 9999 OVC010/// 01/M02 Q1009",
      "taf": "TAF LRBV 090200Z 0903/0912 09008KT 9999 BKN020"
    },
    {
      "icao": "LRCL",
      "alert": "OK",
      "vis_m": 3000,
      "fzfg": false,
      "metar_trigger": false,
      "taf_trigger": false,
      "metar": "METAR LRCL 090300Z VRB01KT 3000 BR OVC008 04/04 Q1009",
      "taf": "TAF LRCL 090200Z 0903/0912 VRB04KT 5000 -RA BR BKN010 OVC020"
    },
    {
      "icao": "LRCV",
      "alert": "OK",
      "vis_m": 3500,
      "fzfg": false,
      "metar_trigger": false,
      "taf_trigger": false,
      "metar": "METAR LRCV 090300Z 11013KT 3500 BR OVC006 03/02 Q1011",
      "taf": "TAF LRCV 090200Z 0903/0912 09016KT 3000 -DZ BR OVC005"
    },
    {
      "icao": "LRIA",
      "alert": "OK",
      "vis_m": 9999,
      "fzfg": false,
      "metar_trigger": false,
      "taf_trigger": false,
      "metar": "METAR LRIA 090300Z COR 01008KT 9999 BKN011 OVC014 M04/M07 Q1017",
      "taf": "TAF LRIA 090200Z 0903/0912 36008KT 9999 BKN020"
    },
    {
      "icao": "LROP",
      "alert": "OK",
      "vis_m": 9000,
      "fzfg": false,
      "metar_trigger": false,
      "taf_trigger": false,
      "metar": "METAR LROP 090300Z 08014KT 9000 OVC012 01/M02 Q1013 NOSIG",
      "taf": "TAF LROP 082300Z 0900/0924 08010KT 9999 BKN015"
    },
    {
      "icao": "LRSB",
      "alert": "OK",
      "vis_m": 9999,
      "fzfg": false,
      "metar_trigger": false,
      "taf_trigger": false,
      "metar": "METAR LRSB 090300Z 09003KT 9999 BKN028 04/03 Q1008",
      "taf": "TAF LRSB 082300Z 0900/0924 VRB04KT 9999 BKN050"
    },
    {
      "icao": "LRSM",
      "alert": "OK",
      "vis_m": 1800,
      "fzfg": false,
      "metar_trigger": false,
      "taf_trigger": false,
      "metar": "METAR LRSM 090300Z AUTO 03003KT 1800 R19/1900D BR VV002 05/04 Q1010",
      "taf": "TAF LRSM 090200Z 0903/0912 VRB04KT 3000 BR BKN005"
    },
    {
      "icao": "LRSV",
      "alert": "OK",
      "vis_m": 7000,
      "fzfg": false,
      "metar_trigger": false,
      "taf_trigger": false,
      "metar": "METAR LRSV 090300Z 04008KT 7000 -SN BKN006 M07/M07 Q1015",
      "taf": "TAF LRSV 090200Z 0903/0912 07008KT 5000 -SN BR BKN005 OVC015"
    },
    {
      "icao": "LRTM",
      "alert": "OK",
      "vis_m": 4500,
      "fzfg": false,
      "metar_trigger": false,
      "taf_trigger": false,
      "metar": "METAR LRTM 090300Z AUTO 10003KT 4500 BR FEW009/// BKN014/// BKN017/// 04/03 Q1009",
      "taf": "TAF LRTM 090200Z 0903/0912 VRB04KT 5000 BR OVC015"
    },
    {
      "icao": "LRTR",
      "alert": "OK",
      "vis_m": 3000,
      "fzfg": false,
      "metar_trigger": false,
      "taf_trigger": false,
      "metar": "METAR LRTR 090300Z VRB01KT 3000 BR SCT031 BKN048 02/02 Q1009 NOSIG",
      "taf": "TAF LRTR 082300Z 0900/0924 VRB04KT 3000 BR BKN020"
    },
    {
      "icao": "LTAC",
      "alert": "OK",
      "vis_m": 9999,
      "fzfg": false,
      "metar_trigger": false,
      "taf_trigger": false,
      "metar": "METAR LTAC 090250Z 28004KT 9999 BKN040 BKN090 05/02 Q1008 NOSIG RMK RWY21C 26004KT RWY03L 28004KT 240V300 RWY21R 24004KT RWY03R 23003KT 120V250 RWY21L 25004KT",
      "taf": "TAF LTAC 082240Z 0900/0924 VRB02KT 9999 SCT035 BKN090"
    },
    {
      "icao": "LTFM",
      "alert": "OK",
      "vis_m": 500,
      "fzfg": false,
      "metar_trigger": false,
      "taf_trigger": false,
      "metar": "METAR LTFM 090250Z 03005KT 0500 R35R/0900U R17L/0750U R34L/0900U R36/0500D FG VV002 08/07 Q1010 NOSIG RMK RWY17L 06005KT RWY34L 02005KT RWY16R 07005KT RWY36 03006KT 360V070 RWY18 05004KT",
      "taf": "TAF LTFM 082240Z 0900/1006 03004KT 1600 BCFG BKN004 BKN022"
    },
    {
      "icao": "LUKK",
      "alert": "OK",
      "vis_m": 9999,
      "fzfg": false,
      "metar_trigger": false,
      "taf_trigger": false,
      "metar": "METAR LUKK 090300Z 05010KT 9999 OVC015 M05/M08 Q1016 NOSIG",
      "taf": "TAF LUKK 082326Z 0900/0924 02008KT 9999 BKN012 BKN020"
    },
    {
      "icao": "LWOH",
      "alert": "OK",
      "vis_m": null,
      "fzfg": false,
      "metar_trigger": false,
      "taf_trigger": false,
      "metar": "",
      "taf": "TAF LWOH 090240Z 0903/1003 VRB02KT 9999 SCT040"
    },
    {
      "icao": "LWSK",
      "alert": "OK",
      "vis_m": 9999,
      "fzfg": false,
      "metar_trigger": false,
      "taf_trigger": false,
      "metar": "METAR LWSK 090250Z VRB01KT 9999 FEW050 03/02 Q1009 NOSIG",
      "taf": "TAF LWSK 090240Z 0903/1003 VRB02KT 9999 SCT080"
    },
    {
      "icao": "LYBE",
      "alert": "OK",
      "vis_m": 5000,
      "fzfg": false,
      "metar_trigger": false,
      "taf_trigger": false,
      "metar": "METAR LYBE 090300Z 02004KT 340V070 5000 BR NSC 05/04 Q1009 NOSIG",
      "taf": ""
    },
    {
      "icao": "LYNI",
      "alert": "OK",
      "vis_m": 9999,
      "fzfg": false,
      "metar_trigger": false,
      "taf_trigger": false,
      "metar": "METAR LYNI 090300Z 00000KT 9999 SCT050 BKN075 05/05 Q1009 NOSIG",
      "taf": "TAF LYNI 082300Z 0900/0924 32004KT CAVOK TX08/0912Z TN01/0924Z"
    },
    {
      "icao": "LYPG",
      "alert": "OK",
      "vis_m": 5000,
      "fzfg": false,
      "metar_trigger": false,
      "taf_trigger": false,
      "metar": "METAR LYPG 090300Z 22002KT 5000 BR FEW006 SCT080 08/08 Q1007 NOSIG",
      "taf": "TAF LYPG 082300Z 0900/0924 VRB02KT 9999 FEW030 SCT040 BKN070 TX11/0912Z TN08/0905Z"
    },
    {
      "icao": "LZIB",
      "alert": "OK",
      "vis_m": 9999,
      "fzfg": false,
      "metar_trigger": false,
      "taf_trigger": false,
      "metar": "METAR LZIB 090300Z 21003KT CAVOK 03/01 Q1009 NOSIG",
      "taf": "TAF LZIB 082315Z 0900/1000 VRB02KT 9999 FEW020"
    },
    {
      "icao": "LZKZ",
      "alert": "OK",
      "vis_m": 9999,
      "fzfg": false,
      "metar_trigger": false,
      "taf_trigger": false,
      "metar": "METAR LZKZ 090300Z 02013KT CAVOK 00/M03 Q1010 NOSIG",
      "taf": "TAF LZKZ 082315Z 0900/1000 01012KT 9999 BKN040"
    },
    {
      "icao": "LZTT",
      "alert": "OK",
      "vis_m": 9999,
      "fzfg": false,
      "metar_trigger": false,
      "taf_trigger": false,
      "metar": "METAR LZTT 090300Z 09004KT 9999 OVC015 M02/M03 Q1009",
      "taf": "TAF LZTT 082315Z 0900/1000 08005KT 9999 FEW010 OVC020"
    },
    {
      "icao": "OEJN",
      "alert": "OK",
      "vis_m": 9999,
      "fzfg": false,
      "metar_trigger": false,
      "taf_trigger": false,
      "metar": "METAR OEJN 090300Z 00000KT CAVOK 22/05 Q1012 NOSIG",
      "taf": "TAF OEJN 082300Z 0900/1006 VRB03KT CAVOK"
    },
    {
      "icao": "OEMA",
      "alert": "OK",
      "vis_m": 9999,
      "fzfg": false,
      "metar_trigger": false,
      "taf_trigger": false,
      "metar": "METAR OEMA 090300Z 01006KT CAVOK 15/M05 Q1018 NOSIG",
      "taf": "TAF OEMA 082300Z 0900/1006 VRB03KT CAVOK"
    },
    {
      "icao": "OJAI",
      "alert": "OK",
      "vis_m": 4000,
      "fzfg": false,
      "metar_trigger": false,
      "taf_trigger": false,
      "metar": "METAR OJAI 090300Z 25014KT 4000 HZ NSC 14/05 Q1012 NOSIG",
      "taf": "TAF OJAI 082300Z 0900/1006 22012KT 5000 HZ NSC"
    },
    {
      "icao": "OMAA",
      "alert": "OK",
      "vis_m": 9999,
      "fzfg": false,
      "metar_trigger": false,
      "taf_trigger": false,
      "metar": "METAR OMAA 090300Z 18004KT CAVOK 18/11 Q1014 NOSIG",
      "taf": "TAF OMAA 082300Z 0900/1006 16005KT 8000 NSC"
    },
    {
      "icao": "OMDB",
      "alert": "OK",
      "vis_m": 9999,
      "fzfg": false,
      "metar_trigger": false,
      "taf_trigger": false,
      "metar": "METAR OMDB 090300Z VRB02KT CAVOK 21/12 Q1014 NOSIG",
      "taf": "TAF OMDB 082300Z 0900/1006 16005KT CAVOK"
    },
    {
      "icao": "UAAA",
      "alert": "OK",
      "vis_m": 4200,
      "fzfg": false,
      "metar_trigger": false,
      "taf_trigger": false,
      "metar": "METAR UAAA 090300Z 25003MPS 4200 BR SCT100 BKN200 M04/M06 Q1006 NOSIG",
      "taf": "TAF UAAA 082302Z 0900/0924 02003G08MPS 3100 BR FU SCT011 BKN030 TX04/0909Z TNM05/0902Z"
    },
    {
      "icao": "UBBB",
      "alert": "OK",
      "vis_m": 9999,
      "fzfg": false,
      "metar_trigger": false,
      "taf_trigger": false,
      "metar": "METAR UBBB 090300Z 31012KT 9999 OVC010 05/03 Q1004 NOSIG",
      "taf": "TAF UBBB 082304Z 0900/0924 33010KT 9999 BKN010 BKN030 TX07/0910Z TN04/0901Z"
    },
    {
      "icao": "UDSG",
      "alert": "OK",
      "vis_m": 1600,
      "fzfg": false,
      "metar_trigger": false,
      "taf_trigger": false,
      "metar": "METAR UDSG 090300Z 29002KT 1600 R02/P2000D SN BR OVC023 M00/M00 Q1005 NOSIG",
      "taf": "TAF UDSG 082258Z 0900/0924 VRB06KT 2000 BR BKN020"
    },
    {
      "icao": "UDYZ",
      "alert": "OK",
      "vis_m": 9000,
      "fzfg": false,
      "metar_trigger": false,
      "taf_trigger": false,
      "metar": "METAR UDYZ 090300Z 36003KT 9000 SCT046 04/03 Q1004 NOSIG",
      "taf": "TAF UDYZ 082300Z 0900/0924 VRB06KT 2300 BR BKN030"
    },
    {
      "icao": "UGKO",
      "alert": "OK",
      "vis_m": 9999,
      "fzfg": false,
      "metar_trigger": false,
      "taf_trigger": false,
      "metar": "METAR UGKO 090300Z 23005KT 9999 -RA BKN011 OVC055 07/07 Q1006 NOSIG",
      "taf": "TAF UGKO 082300Z 0900/0924 25007KT 9999 SCT030 OVC050 TX09/0911Z TN05/0924Z"
    }
  ]
}