{
  "ts_utc": "2026-06-26T11:14:02Z",
  "threshold_m": 150,
  "source": "stations_override.txt (ICAO list) + aviationweather.gov (METAR/TAF raw)",
  "station_count": 159,
  "stations": [
    {
      "icao": "BIKF",
      "alert": "OK",
      "vis_m": 9999,
      "fzfg": false,
      "metar_trigger": false,
      "taf_trigger": false,
      "metar": "METAR BIKF 261100Z 22013KT 9999 FEW022TCU BKN046 10/06 Q1005",
      "taf": "TAF BIKF 261031Z 2612/2712 23012KT 9999 -SHRA SCT018 BKN040 TX11/2615Z TN08/2704Z"
    },
    {
      "icao": "BKPR",
      "alert": "OK",
      "vis_m": 9999,
      "fzfg": false,
      "metar_trigger": false,
      "taf_trigger": false,
      "metar": "METAR BKPR 261100Z 03011KT 350V070 9999 FEW060 31/14 Q1019 NOSIG",
      "taf": ""
    },
    {
      "icao": "EBCI",
      "alert": "OK",
      "vis_m": 9999,
      "fzfg": false,
      "metar_trigger": false,
      "taf_trigger": false,
      "metar": "METAR EBCI 261050Z 21011KT CAVOK 35/19 Q1016 NOSIG",
      "taf": "TAF EBCI 260500Z 2606/2712 13005KT CAVOK"
    },
    {
      "icao": "EDDB",
      "alert": "OK",
      "vis_m": 9999,
      "fzfg": false,
      "metar_trigger": false,
      "taf_trigger": false,
      "metar": "METAR EDDB 261050Z AUTO 01004KT CAVOK 32/11 Q1020 NOSIG",
      "taf": "TAF EDDB 260500Z 2606/2706 06005KT CAVOK"
    },
    {
      "icao": "EDDH",
      "alert": "OK",
      "vis_m": 9999,
      "fzfg": false,
      "metar_trigger": false,
      "taf_trigger": false,
      "metar": "METAR EDDH 261050Z AUTO 15007KT 090V210 CAVOK 31/14 Q1019 NOSIG",
      "taf": "TAF EDDH 260500Z 2606/2712 VRB03KT CAVOK"
    },
    {
      "icao": "EDDK",
      "alert": "OK",
      "vis_m": 9999,
      "fzfg": false,
      "metar_trigger": false,
      "taf_trigger": false,
      "metar": "METAR EDDK 261050Z AUTO 12008KT 070V160 CAVOK 35/20 Q1016 NOSIG",
      "taf": "TAF EDDK 260500Z 2606/2712 12006KT CAVOK"
    },
    {
      "icao": "EDDN",
      "alert": "OK",
      "vis_m": 9999,
      "fzfg": false,
      "metar_trigger": false,
      "taf_trigger": false,
      "metar": "METAR EDDN 261050Z AUTO VRB04KT CAVOK 35/14 Q1019 NOSIG",
      "taf": "TAF EDDN 260500Z 2606/2706 VRB03KT CAVOK"
    },
    {
      "icao": "EDDS",
      "alert": "OK",
      "vis_m": 9999,
      "fzfg": false,
      "metar_trigger": false,
      "taf_trigger": false,
      "metar": "METAR EDDS 261050Z AUTO 11004KT CAVOK 36/14 Q1019 NOSIG",
      "taf": "TAF EDDS 260500Z 2606/2706 VRB03KT CAVOK"
    },
    {
      "icao": "EDFH",
      "alert": "OK",
      "vis_m": 9999,
      "fzfg": false,
      "metar_trigger": false,
      "taf_trigger": false,
      "metar": "METAR EDFH 261050Z 13006KT 070V180 CAVOK 34/17 Q1019",
      "taf": "TAF EDFH 260500Z 2606/2706 12008KT CAVOK"
    },
    {
      "icao": "EDJA",
      "alert": "OK",
      "vis_m": 9999,
      "fzfg": false,
      "metar_trigger": false,
      "taf_trigger": false,
      "metar": "METAR EDJA 261050Z VRB06KT CAVOK 32/14 Q1022",
      "taf": "TAF EDJA 260800Z 2609/2618 04006KT CAVOK"
    },
    {
      "icao": "EDLW",
      "alert": "OK",
      "vis_m": 9999,
      "fzfg": false,
      "metar_trigger": false,
      "taf_trigger": false,
      "metar": "METAR EDLW 261050Z 16004KT 120V200 CAVOK 35/18 Q1016",
      "taf": "TAF EDLW 260500Z 2606/2706 09004KT CAVOK"
    },
    {
      "icao": "EDNY",
      "alert": "OK",
      "vis_m": 9999,
      "fzfg": false,
      "metar_trigger": false,
      "taf_trigger": false,
      "metar": "METAR EDNY 261050Z 21005KT 180V250 CAVOK 31/16 Q1020",
      "taf": "TAF EDNY 260800Z 2609/2618 05004KT CAVOK"
    },
    {
      "icao": "EDSB",
      "alert": "OK",
      "vis_m": 9999,
      "fzfg": false,
      "metar_trigger": false,
      "taf_trigger": false,
      "metar": "METAR EDSB 261050Z 28005KT 240V330 CAVOK 36/17 Q1017",
      "taf": "TAF EDSB 260500Z 2606/2706 VRB03KT CAVOK"
    },
    {
      "icao": "EETN",
      "alert": "OK",
      "vis_m": 9999,
      "fzfg": false,
      "metar_trigger": false,
      "taf_trigger": false,
      "metar": "METAR EETN 261050Z 30010KT CAVOK 21/09 Q1017 NOSIG",
      "taf": "TAF EETN 260530Z 2606/2706 31008KT CAVOK"
    },
    {
      "icao": "EFTU",
      "alert": "OK",
      "vis_m": 9999,
      "fzfg": false,
      "metar_trigger": false,
      "taf_trigger": false,
      "metar": "METAR EFTU 261050Z AUTO 32008KT 260V010 CAVOK 21/10 Q1018",
      "taf": "TAF EFTU 260823Z 2609/2709 30009KT CAVOK"
    },
    {
      "icao": "EGBB",
      "alert": "OK",
      "vis_m": 9999,
      "fzfg": false,
      "metar_trigger": false,
      "taf_trigger": false,
      "metar": "METAR EGBB 261050Z 21009KT 160V260 CAVOK 32/20 Q1013",
      "taf": "TAF EGBB 261057Z 2612/2712 23012KT CAVOK"
    },
    {
      "icao": "EGGP",
      "alert": "OK",
      "vis_m": 9999,
      "fzfg": false,
      "metar_trigger": false,
      "taf_trigger": false,
      "metar": "METAR EGGP 261050Z 17005KT 090V220 9999 NSC 31/21 Q1011",
      "taf": "TAF EGGP 261100Z 2612/2712 18008KT 9999 FEW030"
    },
    {
      "icao": "EGGW",
      "alert": "OK",
      "vis_m": 9999,
      "fzfg": false,
      "metar_trigger": false,
      "taf_trigger": false,
      "metar": "METAR EGGW 261050Z AUTO 26012KT 9999 NCD 33/17 Q1014",
      "taf": "TAF EGGW 261057Z 2612/2712 24012KT CAVOK"
    },
    {
      "icao": "EGKK",
      "alert": "OK",
      "vis_m": 9999,
      "fzfg": false,
      "metar_trigger": false,
      "taf_trigger": false,
      "metar": "METAR EGKK 261050Z 23007KT 180V260 CAVOK 31/20 Q1015",
      "taf": "TAF EGKK 261057Z 2612/2718 22010KT CAVOK"
    },
    {
      "icao": "EGNM",
      "alert": "OK",
      "vis_m": 9999,
      "fzfg": false,
      "metar_trigger": false,
      "taf_trigger": false,
      "metar": "METAR EGNM 261050Z VRB02KT CAVOK 27/20 Q1013",
      "taf": "TAF EGNM 261057Z 2612/2712 VRB03KT 9999 FEW030"
    },
    {
      "icao": "EGPD",
      "alert": "OK",
      "vis_m": 9999,
      "fzfg": false,
      "metar_trigger": false,
      "taf_trigger": false,
      "metar": "METAR EGPD 261050Z 01008KT 9999 BKN011CB OVC025 17/14 Q1015",
      "taf": "TAF EGPD 261056Z 2612/2712 02010KT 9999 SCT020"
    },
    {
      "icao": "EGPF",
      "alert": "OK",
      "vis_m": 9999,
      "fzfg": false,
      "metar_trigger": false,
      "taf_trigger": false,
      "metar": "METAR EGPF 261050Z AUTO VRB02KT 9999 NCD 22/18 Q1012",
      "taf": "TAF EGPF 261052Z 2612/2712 06010KT 9999 SCT035"
    },
    {
      "icao": "EHBK",
      "alert": "OK",
      "vis_m": 9999,
      "fzfg": false,
      "metar_trigger": false,
      "taf_trigger": false,
      "metar": "METAR EHBK 261055Z AUTO 15004KT 100V200 9999 NSC 36/20 Q1015 NOSIG",
      "taf": "TAF EHBK 260517Z 2606/2712 10004KT CAVOK"
    },
    {
      "icao": "EHEH",
      "alert": "OK",
      "vis_m": 9999,
      "fzfg": false,
      "metar_trigger": false,
      "taf_trigger": false,
      "metar": "METAR EHEH 261055Z AUTO 10007KT 050V180 9999 BKN380 36/21 Q1014 BLU NOSIG RMK TREND REMOTE BY EHWX",
      "taf": "TAF EHEH 260502Z 2606/2712 09004KT CAVOK"
    },
    {
      "icao": "EKBI",
      "alert": "OK",
      "vis_m": 9999,
      "fzfg": false,
      "metar_trigger": false,
      "taf_trigger": false,
      "metar": "METAR EKBI 261050Z AUTO 16008KT 120V210 9999 NCD 28/13 Q1019",
      "taf": "TAF EKBI 260827Z 2609/2709 16008KT CAVOK"
    },
    {
      "icao": "EKCH",
      "alert": "OK",
      "vis_m": 9999,
      "fzfg": false,
      "metar_trigger": false,
      "taf_trigger": false,
      "metar": "METAR EKCH 261050Z AUTO 18010KT 9999 NCD 24/13 Q1020 NOSIG",
      "taf": "TAF EKCH 260827Z 2609/2709 16008KT CAVOK"
    },
    {
      "icao": "ENAL",
      "alert": "OK",
      "vis_m": 3200,
      "fzfg": false,
      "metar_trigger": false,
      "taf_trigger": false,
      "metar": "METAR ENAL 261050Z 23012KT 3200 RADZ BR SCT003 BKN015 13/13 Q1014",
      "taf": "TAF ENAL 260800Z 2609/2618 16005KT 9999 -RA SCT010 BKN030"
    },
    {
      "icao": "ENBR",
      "alert": "OK",
      "vis_m": 9999,
      "fzfg": false,
      "metar_trigger": false,
      "taf_trigger": false,
      "metar": "METAR ENBR 261050Z 29003KT 210V320 9999 SCT036 16/13 Q1016 NOSIG RMK WIND 1200FT 20007KT",
      "taf": "TAF ENBR 260500Z 2606/2706 15012KT 9999 -SHRA FEW025TCU BKN040"
    },
    {
      "icao": "ENGM",
      "alert": "OK",
      "vis_m": 9999,
      "fzfg": false,
      "metar_trigger": false,
      "taf_trigger": false,
      "metar": "METAR ENGM 261050Z 21009KT CAVOK 21/12 Q1016 NOSIG",
      "taf": "TAF ENGM 260500Z 2606/2706 32006KT CAVOK"
    },
    {
      "icao": "ENHD",
      "alert": "OK",
      "vis_m": 9999,
      "fzfg": false,
      "metar_trigger": false,
      "taf_trigger": false,
      "metar": "METAR ENHD 261050Z 33006KT 290V360 CAVOK 18/13 Q1015",
      "taf": "TAF ENHD 260800Z 2609/2618 14018KT 9999 FEW020 SCT040"
    },
    {
      "icao": "ENTC",
      "alert": "OK",
      "vis_m": 9999,
      "fzfg": false,
      "metar_trigger": false,
      "taf_trigger": false,
      "metar": "METAR ENTC 261050Z 18005KT 9999 -RA FEW010 SCT018 BKN024 11/09 Q1010 TEMPO FEW010 BKN014 RMK WIND 2600FT 19013KT",
      "taf": "TAF ENTC 260500Z 2606/2706 20009KT 9999 -DZRA SCT006 BKN016"
    },
    {
      "icao": "ENTO",
      "alert": "OK",
      "vis_m": 9999,
      "fzfg": false,
      "metar_trigger": false,
      "taf_trigger": false,
      "metar": "METAR ENTO 261050Z 17009KT CAVOK 21/17 Q1017 NOSIG",
      "taf": ""
    },
    {
      "icao": "ENVA",
      "alert": "OK",
      "vis_m": 9999,
      "fzfg": false,
      "metar_trigger": false,
      "taf_trigger": false,
      "metar": "METAR ENVA 261050Z 24007KT 9999 SCT015 15/13 Q1012 NOSIG RMK WIND 670FT 00000KT",
      "taf": "TAF ENVA 260500Z 2606/2706 10007KT 9999 FEW008 BKN025"
    },
    {
      "icao": "ENZV",
      "alert": "OK",
      "vis_m": 9999,
      "fzfg": false,
      "metar_trigger": false,
      "taf_trigger": false,
      "metar": "METAR ENZV 261050Z 16009KT 120V180 CAVOK 22/14 Q1014 NOSIG",
      "taf": ""
    },
    {
      "icao": "EPGD",
      "alert": "OK",
      "vis_m": 9999,
      "fzfg": false,
      "metar_trigger": false,
      "taf_trigger": false,
      "metar": "METAR EPGD 261100Z 06007KT 030V090 9999 FEW033 26/17 Q1021",
      "taf": "TAF EPGD 260530Z 2606/2706 26004KT CAVOK"
    },
    {
      "icao": "EPKK",
      "alert": "OK",
      "vis_m": 9999,
      "fzfg": false,
      "metar_trigger": false,
      "taf_trigger": false,
      "metar": "METAR EPKK 261100Z 26008KT 240V320 9999 FEW060 31/16 Q1019",
      "taf": "TAF EPKK 260830Z 2609/2709 20005KT CAVOK"
    },
    {
      "icao": "EPKT",
      "alert": "OK",
      "vis_m": 9999,
      "fzfg": false,
      "metar_trigger": false,
      "taf_trigger": false,
      "metar": "METAR EPKT 261100Z 33010KT 280V010 CAVOK 31/15 Q1020",
      "taf": "TAF EPKT 260530Z 2606/2706 VRB02KT CAVOK"
    },
    {
      "icao": "EPLB",
      "alert": "OK",
      "vis_m": 9999,
      "fzfg": false,
      "metar_trigger": false,
      "taf_trigger": false,
      "metar": "METAR EPLB 261100Z 34006KT 320V020 CAVOK 30/15 Q1019",
      "taf": "TAF EPLB 260530Z 2606/2706 32003KT CAVOK"
    },
    {
      "icao": "EPMO",
      "alert": "OK",
      "vis_m": 9999,
      "fzfg": false,
      "metar_trigger": false,
      "taf_trigger": false,
      "metar": "METAR EPMO 261100Z VRB04KT 9999 FEW049 30/16 Q1019",
      "taf": "TAF EPMO 260530Z 2606/2706 06006KT CAVOK"
    },
    {
      "icao": "EPPO",
      "alert": "OK",
      "vis_m": 9999,
      "fzfg": false,
      "metar_trigger": false,
      "taf_trigger": false,
      "metar": "METAR EPPO 261100Z 36004KT 290V080 CAVOK 29/13 Q1020",
      "taf": "TAF EPPO 260530Z 2606/2706 35004KT CAVOK"
    },
    {
      "icao": "EPRA",
      "alert": "OK",
      "vis_m": 9999,
      "fzfg": false,
      "metar_trigger": false,
      "taf_trigger": false,
      "metar": "METAR EPRA 261100Z 32006KT 260V010 CAVOK 31/11 Q1019",
      "taf": "TAF EPRA 260830Z 2609/2618 29008KT CAVOK"
    },
    {
      "icao": "EPRZ",
      "alert": "OK",
      "vis_m": 9999,
      "fzfg": false,
      "metar_trigger": false,
      "taf_trigger": false,
      "metar": "METAR EPRZ 261100Z 32008KT 260V350 CAVOK 32/14 Q1018",
      "taf": "TAF EPRZ 260530Z 2606/2706 29007KT CAVOK"
    },
    {
      "icao": "EPSC",
      "alert": "OK",
      "vis_m": 9999,
      "fzfg": false,
      "metar_trigger": false,
      "taf_trigger": false,
      "metar": "METAR EPSC 261100Z 27004KT 190V360 CAVOK 29/10 Q1020",
      "taf": "TAF EPSC 260530Z 2606/2706 36003KT CAVOK"
    },
    {
      "icao": "EPSY",
      "alert": "OK",
      "vis_m": 9999,
      "fzfg": false,
      "metar_trigger": false,
      "taf_trigger": false,
      "metar": "METAR EPSY 261100Z 36007KT 300V070 CAVOK 27/15 Q1020",
      "taf": "TAF EPSY 260830Z 2609/2618 VRB02KT CAVOK"
    },
    {
      "icao": "EPWA",
      "alert": "OK",
      "vis_m": 9999,
      "fzfg": false,
      "metar_trigger": false,
      "taf_trigger": false,
      "metar": "METAR EPWA 261100Z VRB04KT CAVOK 30/14 Q1019 BECMG 02010KT",
      "taf": "TAF EPWA 260830Z 2609/2709 VRB05KT CAVOK"
    },
    {
      "icao": "EPWR",
      "alert": "OK",
      "vis_m": 9999,
      "fzfg": false,
      "metar_trigger": false,
      "taf_trigger": false,
      "metar": "METAR EPWR 261100Z 32009KT 280V350 CAVOK 30/16 Q1020",
      "taf": "TAF EPWR 260830Z 2609/2709 VRB02KT CAVOK"
    },
    {
      "icao": "ESGG",
      "alert": "OK",
      "vis_m": 9999,
      "fzfg": false,
      "metar_trigger": false,
      "taf_trigger": false,
      "metar": "METAR ESGG 261050Z 20012KT CAVOK 24/14 Q1019",
      "taf": "TAF ESGG 260830Z 2609/2709 20010KT CAVOK"
    },
    {
      "icao": "ESKN",
      "alert": "OK",
      "vis_m": 9999,
      "fzfg": false,
      "metar_trigger": false,
      "taf_trigger": false,
      "metar": "METAR ESKN 261050Z 14012KT CAVOK 24/14 Q1018",
      "taf": "TAF ESKN 260830Z 2609/2709 17012G24KT CAVOK"
    },
    {
      "icao": "ESMS",
      "alert": "OK",
      "vis_m": 9999,
      "fzfg": false,
      "metar_trigger": false,
      "taf_trigger": false,
      "metar": "METAR ESMS 261050Z VRB04KT CAVOK 28/14 Q1020",
      "taf": "TAF ESMS 260827Z 2609/2709 16006KT CAVOK"
    },
    {
      "icao": "ESSA",
      "alert": "OK",
      "vis_m": 9999,
      "fzfg": false,
      "metar_trigger": false,
      "taf_trigger": false,
      "metar": "METAR ESSA 261050Z 18017KT CAVOK 22/09 Q1017 NOSIG",
      "taf": "TAF ESSA 260830Z 2609/2709 21012KT CAVOK"
    },
    {
      "icao": "EYKA",
      "alert": "OK",
      "vis_m": 9999,
      "fzfg": false,
      "metar_trigger": false,
      "taf_trigger": false,
      "metar": "METAR EYKA 261050Z 33005KT 260V060 9999 FEW044 25/15 Q1019",
      "taf": "TAF EYKA 261100Z 2612/2712 VRB03KT 9000 SCT045"
    },
    {
      "icao": "EYPA",
      "alert": "OK",
      "vis_m": 9999,
      "fzfg": false,
      "metar_trigger": false,
      "taf_trigger": false,
      "metar": "METAR EYPA 261050Z VRB04KT CAVOK 24/15 Q1020",
      "taf": "TAF EYPA 261100Z 2612/2712 VRB03KT 8000 NSC"
    },
    {
      "icao": "EYVI",
      "alert": "OK",
      "vis_m": 9999,
      "fzfg": false,
      "metar_trigger": false,
      "taf_trigger": false,
      "metar": "METAR EYVI 261050Z 31006KT 280V350 CAVOK 26/12 Q1019 NOSIG",
      "taf": "TAF EYVI 261100Z 2612/2712 34010KT 9000 NSC"
    },
    {
      "icao": "GCFV",
      "alert": "OK",
      "vis_m": 9999,
      "fzfg": false,
      "metar_trigger": false,
      "taf_trigger": false,
      "metar": "METAR GCFV 261100Z 06011KT 9999 FEW030 24/19 Q1020",
      "taf": "TAF GCFV 260800Z 2609/2709 04011KT 9999 FEW025 TX26/2614Z TN20/2706Z"
    },
    {
      "icao": "GCLP",
      "alert": "OK",
      "vis_m": 9999,
      "fzfg": false,
      "metar_trigger": false,
      "taf_trigger": false,
      "metar": "METAR GCLP 261100Z 03023KT 9999 FEW025 26/19 Q1020 NOSIG",
      "taf": "TAF GCLP 260800Z 2609/2709 03021KT 9999 FEW030 TX26/2614Z TN20/2706Z"
    },
    {
      "icao": "GCTS",
      "alert": "OK",
      "vis_m": 9999,
      "fzfg": false,
      "metar_trigger": false,
      "taf_trigger": false,
      "metar": "METAR GCTS 261100Z 17007KT 120V230 9999 SCT033 25/17 Q1021 BECMG 10010KT",
      "taf": "TAF GCTS 260800Z 2609/2709 09009KT 9999 SCT025 TX27/2614Z TN19/2706Z"
    },
    {
      "icao": "GMAD",
      "alert": "OK",
      "vis_m": 9999,
      "fzfg": false,
      "metar_trigger": false,
      "taf_trigger": false,
      "metar": "METAR GMAD 261100Z 23005KT 150V320 9999 FEW016 27/16 Q1017 NOSIG",
      "taf": "TAF GMAD 260500Z 2606/2712 05003KT CAVOK"
    },
    {
      "icao": "GMMN",
      "alert": "OK",
      "vis_m": 9999,
      "fzfg": false,
      "metar_trigger": false,
      "taf_trigger": false,
      "metar": "METAR GMMN 261100Z 01008KT 320V070 CAVOK 27/19 Q1019 NOSIG",
      "taf": "TAF GMMN 260500Z 2606/2712 36006KT CAVOK"
    },
    {
      "icao": "GMMX",
      "alert": "OK",
      "vis_m": 9999,
      "fzfg": false,
      "metar_trigger": false,
      "taf_trigger": false,
      "metar": "METAR GMMX 261100Z 33005KT 230V040 CAVOK 29/17 Q1018 NOSIG",
      "taf": "TAF GMMX 260500Z 2606/2712 24006KT 8000 NSC"
    },
    {
      "icao": "HEGN",
      "alert": "OK",
      "vis_m": 9999,
      "fzfg": false,
      "metar_trigger": false,
      "taf_trigger": false,
      "metar": "METAR HEGN 261100Z 01015KT CAVOK 35/09 Q1008 NOSIG",
      "taf": "TAF HEGN 261100Z 2612/2718 36010G22KT CAVOK"
    },
    {
      "icao": "HEMA",
      "alert": "OK",
      "vis_m": 9999,
      "fzfg": false,
      "metar_trigger": false,
      "taf_trigger": false,
      "metar": "METAR HEMA 261100Z 35022KT CAVOK 33/10 Q1007 NOSIG",
      "taf": "TAF HEMA 261100Z 2612/2718 35012G24KT CAVOK"
    },
    {
      "icao": "HESH",
      "alert": "OK",
      "vis_m": 9999,
      "fzfg": false,
      "metar_trigger": false,
      "taf_trigger": false,
      "metar": "METAR HESH 261100Z 35014KT CAVOK 35/14 Q1007 NOSIG",
      "taf": "TAF HESH 261100Z 2612/2718 02014KT CAVOK"
    },
    {
      "icao": "HESX",
      "alert": "OK",
      "vis_m": 9999,
      "fzfg": false,
      "metar_trigger": false,
      "taf_trigger": false,
      "metar": "METAR HESX 261100Z 35008KT CAVOK 33/12 Q1011 NOSIG",
      "taf": "TAF HESX 261100Z 2612/2718 35010KT CAVOK"
    },
    {
      "icao": "LATI",
      "alert": "OK",
      "vis_m": 9999,
      "fzfg": false,
      "metar_trigger": false,
      "taf_trigger": false,
      "metar": "METAR LATI 261050Z 33006KT 280V010 9999 FEW040 33/22 Q1015 NOSIG",
      "taf": "TAF LATI 261100Z 2612/2712 32012KT 9999 SCT040 TX37/2712Z TN21/2704Z"
    },
    {
      "icao": "LBPD",
      "alert": "OK",
      "vis_m": 9999,
      "fzfg": false,
      "metar_trigger": false,
      "taf_trigger": false,
      "metar": "METAR LBPD 261100Z AUTO 10007KT 040V150 9999 FEW070 //////CB 33/16 Q1016 TEMPO TSRA FEW030CB",
      "taf": "TAF LBPD 260500Z 2606/2706 29008KT 9999 SCT070"
    },
    {
      "icao": "LBSF",
      "alert": "OK",
      "vis_m": 9999,
      "fzfg": false,
      "metar_trigger": false,
      "taf_trigger": false,
      "metar": "METAR LBSF 261100Z 33008KT 290V040 9999 FEW050 SCT083 30/16 Q1019 NOSIG",
      "taf": "TAF LBSF 260500Z 2606/2706 VRB03KT 9999 SCT060"
    },
    {
      "icao": "LBWN",
      "alert": "OK",
      "vis_m": 9999,
      "fzfg": false,
      "metar_trigger": false,
      "taf_trigger": false,
      "metar": "METAR LBWN 261100Z 13015KT 9999 FEW047 30/16 Q1015 NOSIG",
      "taf": "TAF LBWN 260500Z 2606/2706 VRB03KT 9999 SCT045"
    },
    {
      "icao": "LCLK",
      "alert": "OK",
      "vis_m": 9999,
      "fzfg": false,
      "metar_trigger": false,
      "taf_trigger": false,
      "metar": "METAR LCLK 261100Z 20009KT 170V240 9999 FEW025 31/22 Q1007 NOSIG",
      "taf": "TAF LCLK 260530Z 2606/2706 17009KT 9999 FEW012"
    },
    {
      "icao": "LCPH",
      "alert": "OK",
      "vis_m": 9999,
      "fzfg": false,
      "metar_trigger": false,
      "taf_trigger": false,
      "metar": "METAR LCPH 261100Z 30016KT 250V320 9999 FEW030 28/23 Q1008 NOSIG",
      "taf": "TAF LCPH 260530Z 2606/2706 02007KT 9999 FEW012"
    },
    {
      "icao": "LEAL",
      "alert": "OK",
      "vis_m": 9999,
      "fzfg": false,
      "metar_trigger": false,
      "taf_trigger": false,
      "metar": "METAR LEAL 261100Z 11009KT 080V160 9999 SCT020 29/21 Q1018 NOSIG",
      "taf": ""
    },
    {
      "icao": "LEBB",
      "alert": "OK",
      "vis_m": 9999,
      "fzfg": false,
      "metar_trigger": false,
      "taf_trigger": false,
      "metar": "METAR LEBB 261100Z VRB02KT CAVOK 33/18 Q1016 NOSIG",
      "taf": ""
    },
    {
      "icao": "LEBL",
      "alert": "OK",
      "vis_m": 9999,
      "fzfg": false,
      "metar_trigger": false,
      "taf_trigger": false,
      "metar": "METAR LEBL 261100Z 17008KT 130V210 CAVOK 29/23 Q1018 NOSIG",
      "taf": "TAF LEBL 260500Z 2606/2706 33008KT CAVOK TX32/2612Z TN23/2606Z"
    },
    {
      "icao": "LECH",
      "alert": "OK",
      "vis_m": 9999,
      "fzfg": false,
      "metar_trigger": false,
      "taf_trigger": false,
      "metar": "METAR LECH 261100Z AUTO 11007KT 050V160 CAVOK 28/19 Q1020",
      "taf": "TAF LECH 260500Z 2606/2706 VRB03KT CAVOK TX33/2612Z TN18/2706Z"
    },
    {
      "icao": "LEMD",
      "alert": "OK",
      "vis_m": 9999,
      "fzfg": false,
      "metar_trigger": false,
      "taf_trigger": false,
      "metar": "METAR LEMD 261100Z 17007KT 110V240 CAVOK 30/10 Q1020 NOSIG",
      "taf": "TAF LEMD 260500Z 2606/2712 VRB03KT CAVOK TX34/2616Z TN18/2606Z"
    },
    {
      "icao": "LEMG",
      "alert": "OK",
      "vis_m": 9999,
      "fzfg": false,
      "metar_trigger": false,
      "taf_trigger": false,
      "metar": "METAR LEMG 261100Z 17013KT 130V210 CAVOK 28/15 Q1017 NOSIG",
      "taf": "TAF LEMG 260500Z 2606/2706 29014KT CAVOK TX33/2613Z TN23/2705Z"
    },
    {
      "icao": "LEVC",
      "alert": "OK",
      "vis_m": 9999,
      "fzfg": false,
      "metar_trigger": false,
      "taf_trigger": false,
      "metar": "METAR LEVC 261100Z 09010KT 030V140 9999 SCT027 28/20 Q1018 NOSIG",
      "taf": "TAF LEVC 260500Z 2606/2706 VRB04KT CAVOK TX31/2612Z TN21/2706Z"
    },
    {
      "icao": "LEXJ",
      "alert": "OK",
      "vis_m": 9999,
      "fzfg": false,
      "metar_trigger": false,
      "taf_trigger": false,
      "metar": "METAR LEXJ 261100Z 04007KT 320V110 CAVOK 24/21 Q1016",
      "taf": "TAF LEXJ 260800Z 2609/2709 VRB03KT 9999 FEW040 TX29/2612Z TN20/2706Z"
    },
    {
      "icao": "LEZG",
      "alert": "OK",
      "vis_m": 9999,
      "fzfg": false,
      "metar_trigger": false,
      "taf_trigger": false,
      "metar": "METAR LEZG 261100Z 33003KT 240V040 CAVOK 31/15 Q1017 NOSIG",
      "taf": "TAF LEZG 260500Z 2606/2706 10009KT CAVOK TX38/2615Z TN22/2706Z"
    },
    {
      "icao": "LEZL",
      "alert": "OK",
      "vis_m": 9999,
      "fzfg": false,
      "metar_trigger": false,
      "taf_trigger": false,
      "metar": "METAR LEZL 261100Z VRB03KT CAVOK 27/18 Q1018 NOSIG",
      "taf": "TAF LEZL 260800Z 2609/2709 VRB02KT CAVOK TX33/2615Z TN20/2705Z"
    },
    {
      "icao": "LFBD",
      "alert": "OK",
      "vis_m": 9999,
      "fzfg": false,
      "metar_trigger": false,
      "taf_trigger": false,
      "metar": "METAR LFBD 261100Z AUTO 36004KT 310V070 CAVOK 31/20 Q1017 NOSIG",
      "taf": "TAF LFBD 260500Z 2606/2712 VRB03KT 8000 BKN020 TX37/2615Z TN21/2606Z"
    },
    {
      "icao": "LFLL",
      "alert": "OK",
      "vis_m": 9999,
      "fzfg": false,
      "metar_trigger": false,
      "taf_trigger": false,
      "metar": "METAR LFLL 261100Z 18010KT 140V210 CAVOK 35/13 Q1018 NOSIG",
      "taf": "TAF LFLL 260500Z 2606/2712 18008KT CAVOK"
    },
    {
      "icao": "LFLS",
      "alert": "OK",
      "vis_m": 9999,
      "fzfg": false,
      "metar_trigger": false,
      "taf_trigger": false,
      "metar": "METAR LFLS 261100Z AUTO 19007KT 160V260 CAVOK 35/13 Q1019 NOSIG",
      "taf": "TAF LFLS 260800Z 2609/2709 09008KT CAVOK"
    },
    {
      "icao": "LFMN",
      "alert": "OK",
      "vis_m": 9999,
      "fzfg": false,
      "metar_trigger": false,
      "taf_trigger": false,
      "metar": "METAR LFMN 261100Z 11005KT CAVOK 30/23 Q1018 NOSIG",
      "taf": "TAF LFMN 260800Z 2609/2715 13006KT CAVOK"
    },
    {
      "icao": "LFOB",
      "alert": "OK",
      "vis_m": 9999,
      "fzfg": false,
      "metar_trigger": false,
      "taf_trigger": false,
      "metar": "METAR LFOB 261100Z AUTO 33012KT CAVOK 34/18 Q1016 TEMPO VRB15G28KT 4000 TSRA BKN080CB",
      "taf": ""
    },
    {
      "icao": "LFPO",
      "alert": "OK",
      "vis_m": 9999,
      "fzfg": false,
      "metar_trigger": false,
      "taf_trigger": false,
      "metar": "METAR LFPO 261100Z 30013KT 260V330 9999 SCT100CB BKN260 37/15 Q1016 TEMPO TS BKN050CB",
      "taf": ""
    },
    {
      "icao": "LFSB",
      "alert": "OK",
      "vis_m": 9999,
      "fzfg": false,
      "metar_trigger": false,
      "taf_trigger": false,
      "metar": "METAR LFSB 261100Z AUTO 26005KT 200V320 CAVOK 37/16 Q1018 NOSIG",
      "taf": "TAF LFSB 260500Z 2606/2706 17004KT CAVOK"
    },
    {
      "icao": "LGAV",
      "alert": "OK",
      "vis_m": 9999,
      "fzfg": false,
      "metar_trigger": false,
      "taf_trigger": false,
      "metar": "METAR LGAV 261050Z 02018KT 9999 FEW025 33/10 Q1013 NOSIG",
      "taf": "TAF LGAV 261100Z 2612/2712 04018G28KT 9999 FEW025"
    },
    {
      "icao": "LGTS",
      "alert": "OK",
      "vis_m": 9999,
      "fzfg": false,
      "metar_trigger": false,
      "taf_trigger": false,
      "metar": "METAR LGTS 261050Z 28007KT 9999 FEW020TCU SCT030 32/20 Q1015 NOSIG",
      "taf": "TAF LGTS 261100Z 2612/2712 VRB03KT 9999 FEW025"
    },
    {
      "icao": "LHBP",
      "alert": "OK",
      "vis_m": 9999,
      "fzfg": false,
      "metar_trigger": false,
      "taf_trigger": false,
      "metar": "METAR LHBP 261100Z VRB06KT CAVOK 34/11 Q1019 NOSIG",
      "taf": "TAF LHBP 260515Z 2606/2706 VRB04KT CAVOK"
    },
    {
      "icao": "LHDC",
      "alert": "OK",
      "vis_m": 9999,
      "fzfg": false,
      "metar_trigger": false,
      "taf_trigger": false,
      "metar": "METAR LHDC 261045Z AUTO 03007KT 350V080 CAVOK 33/14 Q1018 NOSIG",
      "taf": "TAF LHDC 260815Z 2609/2618 04007KT CAVOK"
    },
    {
      "icao": "LIBD",
      "alert": "OK",
      "vis_m": 9999,
      "fzfg": false,
      "metar_trigger": false,
      "taf_trigger": false,
      "metar": "METAR LIBD 261050Z 36007KT 290V040 CAVOK 31/16 Q1017",
      "taf": "TAF LIBD 260500Z 2606/2706 VRB05KT CAVOK"
    },
    {
      "icao": "LIBG",
      "alert": "OK",
      "vis_m": 9999,
      "fzfg": false,
      "metar_trigger": false,
      "taf_trigger": false,
      "metar": "METAR LIBG 261050Z AUTO 05008KT 340V100 9999 NCD 34/14 Q1016",
      "taf": "TAF LIBG 260500Z 2606/2706 VRB05KT 9999 SCT030"
    },
    {
      "icao": "LIBP",
      "alert": "OK",
      "vis_m": 9999,
      "fzfg": false,
      "metar_trigger": false,
      "taf_trigger": false,
      "metar": "METAR LIBP 261050Z AUTO 04009KT 010V070 9999 NCD 32/17 Q1017",
      "taf": "TAF LIBP 260500Z 2606/2706 VRB05KT 9999 FEW030"
    },
    {
      "icao": "LIBR",
      "alert": "OK",
      "vis_m": 9999,
      "fzfg": false,
      "metar_trigger": false,
      "taf_trigger": false,
      "metar": "METAR LIBR 261050Z 35013KT CAVOK 28/24 Q1016",
      "taf": "TAF LIBR 260500Z 2606/2706 33010KT 9999 SCT020"
    },
    {
      "icao": "LICA",
      "alert": "OK",
      "vis_m": 9999,
      "fzfg": false,
      "metar_trigger": false,
      "taf_trigger": false,
      "metar": "METAR LICA 261050Z AUTO 26009KT 9999 -RA VCTS SCT041/// 28/24 Q1017",
      "taf": "TAF LICA 260500Z 2606/2706 VRB05KT 9999 FEW040"
    },
    {
      "icao": "LICC",
      "alert": "OK",
      "vis_m": 9999,
      "fzfg": false,
      "metar_trigger": false,
      "taf_trigger": false,
      "metar": "METAR LICC 261050Z 07009KT 9999 FEW070 30/22 Q1017",
      "taf": "TAF LICC 260500Z 2606/2706 25007KT 9999 FEW050"
    },
    {
      "icao": "LICJ",
      "alert": "OK",
      "vis_m": 9999,
      "fzfg": false,
      "metar_trigger": false,
      "taf_trigger": false,
      "metar": "METAR LICJ 261050Z 01008KT 9999 FEW020 29/24 Q1017",
      "taf": "TAF LICJ 260500Z 2606/2706 VRB05KT CAVOK"
    },
    {
      "icao": "LIMC",
      "alert": "OK",
      "vis_m": 9999,
      "fzfg": false,
      "metar_trigger": false,
      "taf_trigger": false,
      "metar": "METAR LIMC 261050Z VRB02KT CAVOK 34/20 Q1019 NOSIG",
      "taf": ""
    },
    {
      "icao": "LIME",
      "alert": "OK",
      "vis_m": 9999,
      "fzfg": false,
      "metar_trigger": false,
      "taf_trigger": false,
      "metar": "METAR LIME 261050Z 18004KT 110V250 CAVOK 32/20 Q1019 NOSIG",
      "taf": "TAF LIME 260500Z 2606/2706 VRB05KT 9999 SCT060"
    },
    {
      "icao": "LIMF",
      "alert": "OK",
      "vis_m": 9999,
      "fzfg": false,
      "metar_trigger": false,
      "taf_trigger": false,
      "metar": "METAR LIMF 261050Z VRB04KT CAVOK 33/20 Q1020",
      "taf": "TAF LIMF 260500Z 2606/2706 VRB06KT CAVOK"
    },
    {
      "icao": "LIMJ",
      "alert": "OK",
      "vis_m": 9999,
      "fzfg": false,
      "metar_trigger": false,
      "taf_trigger": false,
      "metar": "METAR LIMJ 261050Z 17002KT 9999 FEW035 28/26 Q1018",
      "taf": "TAF LIMJ 260500Z 2606/2706 VRB06KT CAVOK"
    },
    {
      "icao": "LIPE",
      "alert": "OK",
      "vis_m": 9999,
      "fzfg": false,
      "metar_trigger": false,
      "taf_trigger": false,
      "metar": "METAR LIPE 261050Z VRB03KT CAVOK 34/16 Q1018",
      "taf": "TAF LIPE 260500Z 2606/2706 VRB05KT 9999 FEW040"
    },
    {
      "icao": "LIPH",
      "alert": "OK",
      "vis_m": 9999,
      "fzfg": false,
      "metar_trigger": false,
      "taf_trigger": false,
      "metar": "METAR LIPH 261050Z VRB05KT CAVOK 33/18 Q1018",
      "taf": "TAF LIPH 260500Z 2606/2706 VRB05KT 9999 SCT040"
    },
    {
      "icao": "LIPQ",
      "alert": "OK",
      "vis_m": 9999,
      "fzfg": false,
      "metar_trigger": false,
      "taf_trigger": false,
      "metar": "METAR LIPQ 261050Z AUTO 26007KT 240V300 9999 BKN090/// 33/18 Q1017",
      "taf": "TAF LIPQ 260500Z 2606/2706 VRB04KT 9999 SCT040"
    },
    {
      "icao": "LIPR",
      "alert": "OK",
      "vis_m": 9999,
      "fzfg": false,
      "metar_trigger": false,
      "taf_trigger": false,
      "metar": "METAR LIPR 261050Z 01008KT 340V040 CAVOK 31/19 Q1018",
      "taf": "TAF LIPR 260500Z 2606/2706 VRB05KT CAVOK"
    },
    {
      "icao": "LIPX",
      "alert": "OK",
      "vis_m": 9999,
      "fzfg": false,
      "metar_trigger": false,
      "taf_trigger": false,
      "metar": "METAR LIPX 261050Z 20006KT 160V230 CAVOK 34/15 Q1018",
      "taf": "TAF LIPX 260500Z 2606/2706 VRB06KT CAVOK"
    },
    {
      "icao": "LIPY",
      "alert": "OK",
      "vis_m": 9999,
      "fzfg": false,
      "metar_trigger": false,
      "taf_trigger": false,
      "metar": "METAR LIPY 261050Z AUTO 35010KT 310V020 9999 NCD 30/23 Q1018",
      "taf": "TAF LIPY 260500Z 2606/2706 VRB05KT CAVOK"
    },
    {
      "icao": "LIPZ",
      "alert": "OK",
      "vis_m": 9999,
      "fzfg": false,
      "metar_trigger": false,
      "taf_trigger": false,
      "metar": "METAR LIPZ 261050Z 12007KT CAVOK 32/21 Q1018 NOSIG",
      "taf": "TAF LIPZ 260500Z 2606/2712 VRB05KT CAVOK"
    },
    {
      "icao": "LIRF",
      "alert": "OK",
      "vis_m": 9999,
      "fzfg": false,
      "metar_trigger": false,
      "taf_trigger": false,
      "metar": "METAR LIRF 261050Z 26009KT 220V280 CAVOK 31/22 Q1017 NOSIG",
      "taf": "TAF LIRF 260500Z 2606/2712 VRB05KT 9999 FEW040"
    },
    {
      "icao": "LIRN",
      "alert": "OK",
      "vis_m": 9999,
      "fzfg": false,
      "metar_trigger": false,
      "taf_trigger": false,
      "metar": "METAR LIRN 261050Z 18006KT 130V240 CAVOK 32/19 Q1017 NOSIG",
      "taf": "TAF LIRN 260500Z 2606/2706 VRB04KT CAVOK"
    },
    {
      "icao": "LIRP",
      "alert": "OK",
      "vis_m": 9999,
      "fzfg": false,
      "metar_trigger": false,
      "taf_trigger": false,
      "metar": "METAR LIRP 261045Z 03004KT CAVOK 35/13 Q1017 NOSIG",
      "taf": "TAF LIRP 260500Z 2606/2706 VRB03KT CAVOK"
    },
    {
      "icao": "LIRZ",
      "alert": "OK",
      "vis_m": 9999,
      "fzfg": false,
      "metar_trigger": false,
      "taf_trigger": false,
      "metar": "METAR LIRZ 261050Z AUTO VRB06KT 9999 NCD 34/11 Q1018",
      "taf": "TAF LIRZ 260500Z 2606/2706 VRB05KT CAVOK"
    },
    {
      "icao": "LJLJ",
      "alert": "OK",
      "vis_m": 9999,
      "fzfg": false,
      "metar_trigger": false,
      "taf_trigger": false,
      "metar": "METAR LJLJ 261100Z 08005KT 040V180 9999 FEW065 31/15 Q1020 NOSIG",
      "taf": "TAF LJLJ 261100Z 2612/2712 12006KT 9999 FEW060"
    },
    {
      "icao": "LKMT",
      "alert": "OK",
      "vis_m": 9999,
      "fzfg": false,
      "metar_trigger": false,
      "taf_trigger": false,
      "metar": "METAR LKMT 261100Z 01010KT CAVOK 32/18 Q1020 NOSIG",
      "taf": "TAF LKMT 260500Z 2606/2706 23006KT CAVOK"
    },
    {
      "icao": "LKPR",
      "alert": "OK",
      "vis_m": 9999,
      "fzfg": false,
      "metar_trigger": false,
      "taf_trigger": false,
      "metar": "METAR LKPR 261100Z 35006KT 300V030 CAVOK 32/15 Q1021 NOSIG",
      "taf": "TAF LKPR 260800Z 2609/2715 VRB02KT CAVOK"
    },
    {
      "icao": "LLBG",
      "alert": "OK",
      "vis_m": 9999,
      "fzfg": false,
      "metar_trigger": false,
      "taf_trigger": false,
      "metar": "METAR LLBG 261050Z 27011KT 9999 FEW033 29/19 Q1009 NOSIG",
      "taf": "TAF LLBG 261103Z 2612/2712 27010KT 9999 FEW030 TX30/2612Z TN21/2703Z"
    },
    {
      "icao": "LMML",
      "alert": "OK",
      "vis_m": 9999,
      "fzfg": false,
      "metar_trigger": false,
      "taf_trigger": false,
      "metar": "METAR LMML 261045Z 36007KT 320V080 9999 FEW030 32/19 Q1017 NOSIG",
      "taf": "TAF LMML 261100Z 2612/2712 33009KT 9999 FEW020"
    },
    {
      "icao": "LOWW",
      "alert": "OK",
      "vis_m": 9999,
      "fzfg": false,
      "metar_trigger": false,
      "taf_trigger": false,
      "metar": "METAR LOWW 261050Z VRB03KT CAVOK 33/13 Q1019 NOSIG",
      "taf": "TAF LOWW 260815Z 2609/2715 VRB05KT CAVOK TX38/2714Z TN20/2703Z"
    },
    {
      "icao": "LPFR",
      "alert": "OK",
      "vis_m": 9999,
      "fzfg": false,
      "metar_trigger": false,
      "taf_trigger": false,
      "metar": "METAR LPFR 261100Z 19007KT 9999 FEW020 24/19 Q1019",
      "taf": "TAF LPFR 260500Z 2606/2706 29007KT 9999 BKN015"
    },
    {
      "icao": "LPMA",
      "alert": "OK",
      "vis_m": 9999,
      "fzfg": false,
      "metar_trigger": false,
      "taf_trigger": false,
      "metar": "METAR LPMA 261100Z 17006KT 090V220 9999 FEW015 24/18 Q1021",
      "taf": "TAF LPMA 260500Z 2606/2706 VRB05KT 9999 SCT015"
    },
    {
      "icao": "LPPR",
      "alert": "OK",
      "vis_m": 9999,
      "fzfg": false,
      "metar_trigger": false,
      "taf_trigger": false,
      "metar": "METAR LPPR 261100Z 20013KT 9999 FEW012 SCT016 24/19 Q1018",
      "taf": "TAF LPPR 260500Z 2606/2706 18010KT 9999 BKN012"
    },
    {
      "icao": "LPPS",
      "alert": "OK",
      "vis_m": 9999,
      "fzfg": false,
      "metar_trigger": false,
      "taf_trigger": false,
      "metar": "METAR LPPS 261100Z 28008KT 240V320 9999 FEW014 24/17 Q1021",
      "taf": "TAF LPPS 260500Z 2606/2712 27007KT 9999 FEW015 SCT030"
    },
    {
      "icao": "LPPT",
      "alert": "OK",
      "vis_m": 9999,
      "fzfg": false,
      "metar_trigger": false,
      "taf_trigger": false,
      "metar": "METAR LPPT 261100Z 22009KT 170V260 9999 FEW026 SCT038 24/16 Q1019",
      "taf": "TAF LPPT 260500Z 2606/2712 21007KT 9999 SCT012 BKN030"
    },
    {
      "icao": "LQBK",
      "alert": "OK",
      "vis_m": 9999,
      "fzfg": false,
      "metar_trigger": false,
      "taf_trigger": false,
      "metar": "METAR LQBK 261100Z 29004KT 210V340 CAVOK 32/15 Q1018 NOSIG",
      "taf": "TAF LQBK 261100Z 2612/2712 29005KT CAVOK TX34/2614Z TN18/2703Z"
    },
    {
      "icao": "LQSA",
      "alert": "OK",
      "vis_m": 9999,
      "fzfg": false,
      "metar_trigger": false,
      "taf_trigger": false,
      "metar": "METAR LQSA 261100Z VRB04KT 9999 FEW050 30/15 Q1020 NOSIG",
      "taf": "TAF LQSA 261100Z 2612/2712 32006KT 9999 SCT050 TX33/2614Z TN16/2703Z"
    },
    {
      "icao": "LQTZ",
      "alert": "OK",
      "vis_m": 9999,
      "fzfg": false,
      "metar_trigger": false,
      "taf_trigger": false,
      "metar": "METAR LQTZ 261100Z VRB04KT 9999 SCT055 32/17 Q1019",
      "taf": "TAF LQTZ 261100Z 2612/2712 04005KT CAVOK TX34/2613Z TN16/2703Z"
    },
    {
      "icao": "LRBC",
      "alert": "OK",
      "vis_m": 9999,
      "fzfg": false,
      "metar_trigger": false,
      "taf_trigger": false,
      "metar": "METAR LRBC 261100Z 01006KT 350V060 9999 FEW065 30/17 Q1017",
      "taf": "TAF LRBC 260800Z 2609/2618 34006KT CAVOK"
    },
    {
      "icao": "LRBS",
      "alert": "OK",
      "vis_m": 9999,
      "fzfg": false,
      "metar_trigger": false,
      "taf_trigger": false,
      "metar": "METAR LRBS 261100Z 01004KT CAVOK 32/15 Q1017 NOSIG",
      "taf": "TAF LRBS 260500Z 2606/2706 02006KT CAVOK"
    },
    {
      "icao": "LRBV",
      "alert": "OK",
      "vis_m": 9999,
      "fzfg": false,
      "metar_trigger": false,
      "taf_trigger": false,
      "metar": "METAR LRBV 261100Z 32006KT 280V360 9999 FEW054 29/15 Q1019",
      "taf": "TAF LRBV 260800Z 2609/2618 VRB04KT CAVOK"
    },
    {
      "icao": "LRCL",
      "alert": "OK",
      "vis_m": 9999,
      "fzfg": false,
      "metar_trigger": false,
      "taf_trigger": false,
      "metar": "METAR LRCL 261100Z VRB06KT 9999 FEW034 30/13 Q1018",
      "taf": "TAF LRCL 260800Z 2609/2618 VRB04KT CAVOK"
    },
    {
      "icao": "LRCV",
      "alert": "OK",
      "vis_m": 9999,
      "fzfg": false,
      "metar_trigger": false,
      "taf_trigger": false,
      "metar": "METAR LRCV 261100Z 19003KT 130V250 9999 FEW050TCU 32/19 Q1017",
      "taf": "TAF LRCV 260800Z 2609/2618 12006KT CAVOK"
    },
    {
      "icao": "LRIA",
      "alert": "OK",
      "vis_m": 9999,
      "fzfg": false,
      "metar_trigger": false,
      "taf_trigger": false,
      "metar": "METAR LRIA 261100Z 28007KT 240V030 CAVOK 30/14 Q1017",
      "taf": "TAF LRIA 260800Z 2609/2618 30008KT CAVOK"
    },
    {
      "icao": "LROP",
      "alert": "OK",
      "vis_m": 9999,
      "fzfg": false,
      "metar_trigger": false,
      "taf_trigger": false,
      "metar": "METAR LROP 261100Z VRB04KT CAVOK 32/13 Q1017 NOSIG",
      "taf": "TAF LROP 260500Z 2606/2706 02006KT CAVOK"
    },
    {
      "icao": "LRSB",
      "alert": "OK",
      "vis_m": 9999,
      "fzfg": false,
      "metar_trigger": false,
      "taf_trigger": false,
      "metar": "METAR LRSB 261100Z VRB03KT CAVOK 30/14 Q1019",
      "taf": "TAF LRSB 260500Z 2606/2706 VRB04KT CAVOK"
    },
    {
      "icao": "LRSM",
      "alert": "OK",
      "vis_m": 9999,
      "fzfg": false,
      "metar_trigger": false,
      "taf_trigger": false,
      "metar": "METAR LRSM 261100Z 02006KT 300V090 CAVOK 32/15 Q1018",
      "taf": "TAF LRSM 260800Z 2609/2618 VRB04KT CAVOK"
    },
    {
      "icao": "LRSV",
      "alert": "OK",
      "vis_m": 9999,
      "fzfg": false,
      "metar_trigger": false,
      "taf_trigger": false,
      "metar": "METAR LRSV 261100Z 32013KT 9999 FEW045TCU 28/15 Q1018",
      "taf": "TAF LRSV 260800Z 2609/2618 33010KT CAVOK"
    },
    {
      "icao": "LRTM",
      "alert": "OK",
      "vis_m": 9999,
      "fzfg": false,
      "metar_trigger": false,
      "taf_trigger": false,
      "metar": "METAR LRTM 261100Z VRB05KT 9999 SCT035 30/20 Q1018",
      "taf": "TAF LRTM 260800Z 2609/2618 VRB04KT CAVOK"
    },
    {
      "icao": "LRTR",
      "alert": "OK",
      "vis_m": 9999,
      "fzfg": false,
      "metar_trigger": false,
      "taf_trigger": false,
      "metar": "METAR LRTR 261100Z VRB08KT CAVOK 33/11 Q1017 NOSIG",
      "taf": "TAF LRTR 260500Z 2606/2706 VRB04KT CAVOK"
    },
    {
      "icao": "LTAC",
      "alert": "OK",
      "vis_m": 9999,
      "fzfg": false,
      "metar_trigger": false,
      "taf_trigger": false,
      "metar": "METAR LTAC 261050Z 03009KT 340V080 9999 SCT040 28/07 Q1016 NOSIG RMK RWY21C 34007KT 300V040 RWY03L VRB08KT RWY21R VRB06KT RWY03R 36010KT 320V110 RWY21L 35008KT 290V050",
      "taf": "TAF LTAC 261040Z 2612/2712 03012KT 9999 SCT040"
    },
    {
      "icao": "LTFM",
      "alert": "OK",
      "vis_m": 9999,
      "fzfg": false,
      "metar_trigger": false,
      "taf_trigger": false,
      "metar": "METAR LTFM 261050Z 05010KT 9999 FEW013 27/19 Q1016 NOSIG RMK RWY17L 01011KT RWY34L 02010KT 340V050 RWY16R 03011KT 350V050 RWY36 02011KT 350V050 RWY18 03010KT 350V070",
      "taf": "TAF LTFM 261040Z 2612/2718 04013KT CAVOK"
    },
    {
      "icao": "LUKK",
      "alert": "OK",
      "vis_m": 9999,
      "fzfg": false,
      "metar_trigger": false,
      "taf_trigger": false,
      "metar": "METAR LUKK 261100Z 35008KT 310V050 CAVOK 31/13 Q1016 NOSIG",
      "taf": "TAF LUKK 261112Z 2612/2712 36009KT CAVOK"
    },
    {
      "icao": "LWOH",
      "alert": "OK",
      "vis_m": 9999,
      "fzfg": false,
      "metar_trigger": false,
      "taf_trigger": false,
      "metar": "METAR LWOH 261050Z 16008KT 120V190 9999 SCT035 26/18 Q1019",
      "taf": "TAF LWOH 260840Z 2609/2709 16005KT 9999 SCT035"
    },
    {
      "icao": "LWSK",
      "alert": "OK",
      "vis_m": 9999,
      "fzfg": false,
      "metar_trigger": false,
      "taf_trigger": false,
      "metar": "METAR LWSK 261050Z 35009KT 270V040 9999 FEW050 34/15 Q1017 NOSIG",
      "taf": "TAF LWSK 260840Z 2609/2709 VRB02KT 9999 FEW050"
    },
    {
      "icao": "LYBE",
      "alert": "OK",
      "vis_m": 9999,
      "fzfg": false,
      "metar_trigger": false,
      "taf_trigger": false,
      "metar": "METAR LYBE 261100Z 36009KT 330V040 CAVOK 34/13 Q1018 NOSIG",
      "taf": "TAF LYBE 260500Z 2606/2706 30005KT CAVOK TX35/2614Z TN20/2703Z"
    },
    {
      "icao": "LYNI",
      "alert": "OK",
      "vis_m": 9999,
      "fzfg": false,
      "metar_trigger": false,
      "taf_trigger": false,
      "metar": "METAR LYNI 261100Z 32007KT 260V010 9999 FEW050 33/16 Q1017 NOSIG",
      "taf": "TAF LYNI 260500Z 2606/2706 08004KT CAVOK TX34/2614Z TN19/2703Z"
    },
    {
      "icao": "LYPG",
      "alert": "OK",
      "vis_m": 9999,
      "fzfg": false,
      "metar_trigger": false,
      "taf_trigger": false,
      "metar": "METAR LYPG 261100Z 20007KT 160V250 9999 FEW050 35/16 Q1015 NOSIG",
      "taf": "TAF LYPG 260500Z 2606/2706 16005KT CAVOK TX36/2614Z TN24/2703Z"
    },
    {
      "icao": "LZIB",
      "alert": "OK",
      "vis_m": 9999,
      "fzfg": false,
      "metar_trigger": false,
      "taf_trigger": false,
      "metar": "METAR LZIB 261100Z VRB06KT CAVOK 35/15 Q1019 NOSIG",
      "taf": ""
    },
    {
      "icao": "LZKZ",
      "alert": "OK",
      "vis_m": 9999,
      "fzfg": false,
      "metar_trigger": false,
      "taf_trigger": false,
      "metar": "METAR LZKZ 261100Z 01008KT 330V050 CAVOK 32/14 Q1019 NOSIG",
      "taf": ""
    },
    {
      "icao": "LZTT",
      "alert": "OK",
      "vis_m": 9999,
      "fzfg": false,
      "metar_trigger": false,
      "taf_trigger": false,
      "metar": "METAR LZTT 261100Z 11006KT 070V170 9999 SCT070 29/16 Q1022 NOSIG",
      "taf": ""
    },
    {
      "icao": "OEJN",
      "alert": "OK",
      "vis_m": 9999,
      "fzfg": false,
      "metar_trigger": false,
      "taf_trigger": false,
      "metar": "METAR OEJN 261100Z 31018KT 9999 FEW040 36/18 Q1005 NOSIG",
      "taf": "TAF OEJN 260500Z 2606/2712 32014KT CAVOK"
    },
    {
      "icao": "OEMA",
      "alert": "OK",
      "vis_m": 9999,
      "fzfg": false,
      "metar_trigger": false,
      "taf_trigger": false,
      "metar": "METAR OEMA 261100Z 24007KT CAVOK 42/M12 Q1009 NOSIG",
      "taf": "TAF OEMA 260500Z 2606/2712 28010KT CAVOK"
    },
    {
      "icao": "OJAI",
      "alert": "OK",
      "vis_m": 4000,
      "fzfg": false,
      "metar_trigger": false,
      "taf_trigger": false,
      "metar": "METAR OJAI 261100Z 28016KT 4000 BLDU NSC 29/11 Q1013 NOSIG",
      "taf": "TAF OJAI 261040Z 2612/2718 29010KT 5000 HZ NSC"
    },
    {
      "icao": "OMAA",
      "alert": "OK",
      "vis_m": 9999,
      "fzfg": false,
      "metar_trigger": false,
      "taf_trigger": false,
      "metar": "METAR OMAA 261100Z 29013KT CAVOK 38/17 Q1000 NOSIG",
      "taf": "TAF OMAA 261100Z 2612/2718 30012KT 8000 NSC"
    },
    {
      "icao": "OMDB",
      "alert": "OK",
      "vis_m": 9999,
      "fzfg": false,
      "metar_trigger": false,
      "taf_trigger": false,
      "metar": "METAR OMDB 261100Z 27011KT CAVOK 38/19 Q0999 NOSIG",
      "taf": "TAF OMDB 261100Z 2612/2718 26010KT 8000 NSC"
    },
    {
      "icao": "UAAA",
      "alert": "OK",
      "vis_m": 9999,
      "fzfg": false,
      "metar_trigger": false,
      "taf_trigger": false,
      "metar": "METAR UAAA 261100Z 02005MPS 9999 SCT050CB BKN100 33/12 Q1007 NOSIG",
      "taf": "TAF UAAA 260502Z 2606/2706 05003G08MPS 9999 FEW050CB SCT100 TX35/2610Z TN19/2701Z"
    },
    {
      "icao": "UBBB",
      "alert": "OK",
      "vis_m": 9999,
      "fzfg": false,
      "metar_trigger": false,
      "taf_trigger": false,
      "metar": "METAR UBBB 261100Z 02010KT 350V060 9999 SCT030 28/10 Q1009 NOSIG",
      "taf": "TAF UBBB 261051Z 2612/2712 01008KT 9999 SCT030 TX28/2612Z TN21/2701Z"
    },
    {
      "icao": "UDSG",
      "alert": "OK",
      "vis_m": 9999,
      "fzfg": false,
      "metar_trigger": false,
      "taf_trigger": false,
      "metar": "METAR UDSG 261100Z 25005KT 200V280 9999 SCT049 23/07 Q1016 NOSIG",
      "taf": "TAF UDSG 260500Z 2606/2706 36006KT 9999 FEW050"
    },
    {
      "icao": "UDYZ",
      "alert": "OK",
      "vis_m": 9999,
      "fzfg": false,
      "metar_trigger": false,
      "taf_trigger": false,
      "metar": "METAR UDYZ 261100Z 24006KT 160V290 9999 SCT043CB 30/10 Q1009 NOSIG",
      "taf": "TAF UDYZ 260500Z 2606/2706 24006KT 9999 SCT040"
    },
    {
      "icao": "UGKO",
      "alert": "OK",
      "vis_m": 9999,
      "fzfg": false,
      "metar_trigger": false,
      "taf_trigger": false,
      "metar": "METAR UGKO 261100Z 25013KT 230V290 9999 SCT032 BKN037 26/17 Q1011 NOSIG",
      "taf": "TAF UGKO 261100Z 2612/2712 26007KT 9999 SCT020 BKN050 TX26/2612Z TN17/2702Z"
    }
  ]
}