{
  "ts_utc": "2026-01-15T07:00:09Z",
  "threshold_m": 150,
  "source": "stations_override.txt (ICAO list) + aviationweather.gov (METAR/TAF raw)",
  "station_count": 159,
  "stations": [
    {
      "icao": "BIKF",
      "alert": "OK",
      "vis_m": 9999,
      "fzfg": false,
      "metar_trigger": false,
      "taf_trigger": false,
      "metar": "METAR BIKF 150630Z 03010KT 9999 SCT026 BKN038 OVC057 01/M03 Q0986",
      "taf": "TAF BIKF 150450Z 1506/1606 02010KT 9999 SCT030 TX02/1606Z TN00/1510Z"
    },
    {
      "icao": "BKPR",
      "alert": "OK",
      "vis_m": null,
      "fzfg": false,
      "metar_trigger": false,
      "taf_trigger": false,
      "metar": "",
      "taf": "TAF BKPR 150530Z 1506/1606 VRB03KT 9999 SCT060"
    },
    {
      "icao": "EBCI",
      "alert": "OK",
      "vis_m": 4800,
      "fzfg": false,
      "metar_trigger": false,
      "taf_trigger": false,
      "metar": "METAR EBCI 150650Z 20011KT 4800 -DZ FEW006 BKN008 09/08 Q1010 TEMPO 8000 NSW",
      "taf": "TAF EBCI 150500Z 1506/1612 20011KT 9999 SCT010 SCT020"
    },
    {
      "icao": "EDDB",
      "alert": "OK",
      "vis_m": 9999,
      "fzfg": false,
      "metar_trigger": false,
      "taf_trigger": false,
      "metar": "METAR EDDB 150650Z AUTO 14006KT 9999 BKN020 02/01 Q1015 TEMPO BKN003",
      "taf": "TAF EDDB 150500Z 1506/1606 14006KT 8000 SCT015 OVC020"
    },
    {
      "icao": "EDDH",
      "alert": "OK",
      "vis_m": 6000,
      "fzfg": false,
      "metar_trigger": false,
      "taf_trigger": false,
      "metar": "METAR EDDH 150650Z AUTO 15009KT 6000 SHRA OVC003 FEW///TCU 03/02 Q1011 TEMPO 4000 -SHRA",
      "taf": "TAF EDDH 150500Z 1506/1612 16010KT 9999 BKN007"
    },
    {
      "icao": "EDDK",
      "alert": "OK",
      "vis_m": 9999,
      "fzfg": false,
      "metar_trigger": false,
      "taf_trigger": false,
      "metar": "METAR EDDK 150650Z AUTO 15010KT CAVOK 08/07 Q1012 NOSIG",
      "taf": "TAF EDDK 150500Z 1506/1612 15010KT 9999 SCT025"
    },
    {
      "icao": "EDDN",
      "alert": "OK",
      "vis_m": 6000,
      "fzfg": false,
      "metar_trigger": false,
      "taf_trigger": false,
      "metar": "METAR EDDN 150650Z AUTO 13005KT 6000 -RADZ BKN014 04/04 Q1017 TEMPO 4000 RADZ BKN015",
      "taf": ""
    },
    {
      "icao": "EDDS",
      "alert": "OK",
      "vis_m": 9999,
      "fzfg": false,
      "metar_trigger": false,
      "taf_trigger": false,
      "metar": "METAR EDDS 150650Z AUTO 17001KT 9999 -SHRA OVC033 OVC042 FEW///TCU 05/03 Q1015 NOSIG",
      "taf": "TAF EDDS 150500Z 1506/1606 22004KT 9999 BKN030"
    },
    {
      "icao": "EDFH",
      "alert": "OK",
      "vis_m": 9999,
      "fzfg": false,
      "metar_trigger": false,
      "taf_trigger": false,
      "metar": "METAR EDFH 150650Z 20010KT 9999 BKN008 07/07 Q1013",
      "taf": "TAF EDFH 150500Z 1506/1606 22009KT 9999 FEW004 BKN010"
    },
    {
      "icao": "EDJA",
      "alert": "OK",
      "vis_m": 9999,
      "fzfg": false,
      "metar_trigger": false,
      "taf_trigger": false,
      "metar": "METAR EDJA 150650Z 21008KT CAVOK 04/M00 Q1017",
      "taf": "TAF EDJA 150500Z 1506/1515 21005KT CAVOK"
    },
    {
      "icao": "EDLW",
      "alert": "OK",
      "vis_m": 9999,
      "fzfg": false,
      "metar_trigger": false,
      "taf_trigger": false,
      "metar": "METAR EDLW 150650Z 19011KT CAVOK 09/07 Q1011",
      "taf": "TAF EDLW 150500Z 1506/1606 18013KT 9999 SCT030"
    },
    {
      "icao": "EDNY",
      "alert": "OK",
      "vis_m": 9999,
      "fzfg": false,
      "metar_trigger": false,
      "taf_trigger": false,
      "metar": "METAR EDNY 150650Z 00000KT 9999 FEW051 M00/M00 Q1018",
      "taf": "TAF EDNY 150500Z 1506/1515 VRB02KT 7000 NSC"
    },
    {
      "icao": "EDSB",
      "alert": "OK",
      "vis_m": 9000,
      "fzfg": false,
      "metar_trigger": false,
      "taf_trigger": false,
      "metar": "METAR EDSB 150650Z 20003KT 9000 -RA SCT033 OVC049 07/06 Q1016 RERA",
      "taf": "TAF EDSB 150500Z 1506/1606 21004KT 9999 BKN030"
    },
    {
      "icao": "EETN",
      "alert": "OK",
      "vis_m": 2200,
      "fzfg": false,
      "metar_trigger": false,
      "taf_trigger": false,
      "metar": "METAR EETN 150650Z 15010KT 2200 SN DRSN SCT014 OVC020 M11/M13 Q1017 BECMG 6000 -SN",
      "taf": "TAF EETN 150530Z 1506/1606 16012KT 2000 SN SCT010 BKN020"
    },
    {
      "icao": "EFTU",
      "alert": "OK",
      "vis_m": 7000,
      "fzfg": false,
      "metar_trigger": false,
      "taf_trigger": false,
      "metar": "METAR EFTU 150650Z AUTO 13013KT 7000 -SN OVC007 M06/M07 Q1012",
      "taf": "TAF EFTU 150530Z 1506/1606 13012KT 9999 -SHSN BKN009"
    },
    {
      "icao": "EGBB",
      "alert": "OK",
      "vis_m": 9999,
      "fzfg": false,
      "metar_trigger": false,
      "taf_trigger": false,
      "metar": "METAR EGBB 150650Z 18005KT 9999 BKN007 07/06 Q1001",
      "taf": "TAF EGBB 150502Z 1506/1606 18009KT 9999 SCT010"
    },
    {
      "icao": "EGGP",
      "alert": "OK",
      "vis_m": 9999,
      "fzfg": false,
      "metar_trigger": false,
      "taf_trigger": false,
      "metar": "METAR EGGP 150650Z 17006KT CAVOK 04/02 Q1000",
      "taf": "TAF EGGP 150503Z 1506/1606 16006KT 9999 SCT025"
    },
    {
      "icao": "EGGW",
      "alert": "OK",
      "vis_m": 5000,
      "fzfg": false,
      "metar_trigger": false,
      "taf_trigger": false,
      "metar": "METAR EGGW 150650Z AUTO 19005KT 160V230 5000 BR OVC002 07/07 Q1003 RERA",
      "taf": "TAF EGGW 150457Z 1506/1606 19010KT 9999 SCT004 BKN020"
    },
    {
      "icao": "EGKK",
      "alert": "OK",
      "vis_m": 8000,
      "fzfg": false,
      "metar_trigger": false,
      "taf_trigger": false,
      "metar": "METAR EGKK 150650Z 21007KT 180V240 8000 BKN005 09/08 Q1004",
      "taf": "TAF EGKK 150456Z 1506/1612 21009KT 9999 SCT010"
    },
    {
      "icao": "EGNM",
      "alert": "OK",
      "vis_m": 9999,
      "fzfg": false,
      "metar_trigger": false,
      "taf_trigger": false,
      "metar": "METAR EGNM 150650Z 23010KT 9999 FEW011 SCT045 05/04 Q0999",
      "taf": "TAF EGNM 150504Z 1505/1524 21010KT 9999 SCT020"
    },
    {
      "icao": "EGPD",
      "alert": "OK",
      "vis_m": 9999,
      "fzfg": false,
      "metar_trigger": false,
      "taf_trigger": false,
      "metar": "METAR EGPD 150650Z COR AUTO VRB02KT 9999 NCD 03/02 Q0992 NOSIG",
      "taf": "TAF EGPD 150455Z 1506/1606 20008KT 9999 FEW015"
    },
    {
      "icao": "EGPF",
      "alert": "OK",
      "vis_m": 9999,
      "fzfg": false,
      "metar_trigger": false,
      "taf_trigger": false,
      "metar": "METAR EGPF 150650Z AUTO 21013KT 9999 -RA FEW022/// SCT030/// BKN036/// //////TCU 06/05 Q0994",
      "taf": ""
    },
    {
      "icao": "EHBK",
      "alert": "OK",
      "vis_m": 9999,
      "fzfg": false,
      "metar_trigger": false,
      "taf_trigger": false,
      "metar": "METAR EHBK 150655Z AUTO 20014KT 9999 OVC018/// 10/07 Q1010 NOSIG",
      "taf": "TAF EHBK 150504Z 1506/1612 19010KT 9999 BKN020"
    },
    {
      "icao": "EHEH",
      "alert": "OK",
      "vis_m": 9999,
      "fzfg": false,
      "metar_trigger": false,
      "taf_trigger": false,
      "metar": "METAR EHEH 150625Z AUTO 19009KT 9999 FEW009 BKN017 OVC021 10/08 Q1009 WHT BECMG SCT012 BKN016 RMK TREND REMOTE BY EHWX",
      "taf": "TAF EHEH 150554Z 1506/1612 18009KT 9999 OVC025"
    },
    {
      "icao": "EKBI",
      "alert": "OK",
      "vis_m": 9999,
      "fzfg": false,
      "metar_trigger": false,
      "taf_trigger": false,
      "metar": "METAR EKBI 150650Z AUTO 13008KT 100V160 9999 SCT034/// BKN086/// BKN100/// 01/01 Q1008",
      "taf": "TAF EKBI 150527Z 1506/1606 15005KT 9999 BKN004"
    },
    {
      "icao": "EKCH",
      "alert": "OK",
      "vis_m": 9999,
      "fzfg": false,
      "metar_trigger": false,
      "taf_trigger": false,
      "metar": "METAR EKCH 150650Z AUTO 17006KT 9999 BKN026/// 02/01 Q1014 NOSIG",
      "taf": "TAF EKCH 150527Z 1506/1606 16008KT 9999 SCT020"
    },
    {
      "icao": "ENAL",
      "alert": "OK",
      "vis_m": 9999,
      "fzfg": false,
      "metar_trigger": false,
      "taf_trigger": false,
      "metar": "METAR ENAL 150650Z 15009KT CAVOK 07/00 Q0999",
      "taf": "TAF ENAL 150500Z 1506/1515 15008KT 9999 BKN045"
    },
    {
      "icao": "ENBR",
      "alert": "OK",
      "vis_m": 9999,
      "fzfg": false,
      "metar_trigger": false,
      "taf_trigger": false,
      "metar": "METAR ENBR 150650Z 14015KT 9999 SCT023 BKN030 05/01 Q1000 NOSIG RMK WIND 1200FT 15029KT",
      "taf": "TAF ENBR 150500Z 1506/1606 14015KT 9999 -SHRA FEW015TCU BKN025"
    },
    {
      "icao": "ENGM",
      "alert": "OK",
      "vis_m": 3600,
      "fzfg": true,
      "metar_trigger": false,
      "taf_trigger": false,
      "metar": "METAR ENGM 150650Z 35003KT 310V010 3600 BR BKN002 M08/M09 Q1007 TEMPO 0600 FZFG",
      "taf": "TAF ENGM 150500Z 1506/1606 VRB03KT 0300 FZFG VV001"
    },
    {
      "icao": "ENHD",
      "alert": "OK",
      "vis_m": 9999,
      "fzfg": false,
      "metar_trigger": false,
      "taf_trigger": false,
      "metar": "METAR ENHD 150650Z 14017KT 9999 FEW017 SCT042 05/02 Q1001",
      "taf": "TAF ENHD 150500Z 1506/1515 14015KT 9999 -SHRA FEW015TCU BKN030"
    },
    {
      "icao": "ENTC",
      "alert": "OK",
      "vis_m": 9999,
      "fzfg": false,
      "metar_trigger": false,
      "taf_trigger": false,
      "metar": "METAR ENTC 150650Z 09002KT CAVOK M07/M10 Q1007 NOSIG RMK WIND 2600FT 17016KT",
      "taf": "TAF ENTC 150500Z 1506/1606 20008KT CAVOK"
    },
    {
      "icao": "ENTO",
      "alert": "OK",
      "vis_m": 5000,
      "fzfg": false,
      "metar_trigger": false,
      "taf_trigger": false,
      "metar": "METAR ENTO 150650Z VRB02KT 5000 R18/1000N R36/P2000N BR BKN008 M05/M05 Q1007 TEMPO 1200 BCFG",
      "taf": ""
    },
    {
      "icao": "ENVA",
      "alert": "OK",
      "vis_m": 9999,
      "fzfg": false,
      "metar_trigger": false,
      "taf_trigger": false,
      "metar": "METAR ENVA 150650Z 07008KT CAVOK M03/M06 Q1004 NOSIG RMK WIND 670FT 10009KT",
      "taf": "TAF ENVA 150500Z 1506/1606 12008KT CAVOK"
    },
    {
      "icao": "ENZV",
      "alert": "OK",
      "vis_m": 9999,
      "fzfg": false,
      "metar_trigger": false,
      "taf_trigger": false,
      "metar": "METAR ENZV 150650Z 14016KT 9999 SCT040 05/01 Q1001 NOSIG",
      "taf": "TAF ENZV 150500Z 1506/1606 16012KT 9999 SCT030"
    },
    {
      "icao": "EPGD",
      "alert": "OK",
      "vis_m": 300,
      "fzfg": true,
      "metar_trigger": false,
      "taf_trigger": false,
      "metar": "METAR EPGD 150630Z 19003KT 0300 R29/0800U FZFG FEW000 M01/M01 Q1017",
      "taf": "TAF EPGD 150530Z 1506/1606 24005KT 7000 FEW004"
    },
    {
      "icao": "EPKK",
      "alert": "OK",
      "vis_m": 500,
      "fzfg": true,
      "metar_trigger": false,
      "taf_trigger": false,
      "metar": "METAR EPKK 150630Z 19001KT 0500 R25/0350U FZFG FEW036 M01/M02 Q1019",
      "taf": ""
    },
    {
      "icao": "EPKT",
      "alert": "OK",
      "vis_m": 1700,
      "fzfg": false,
      "metar_trigger": false,
      "taf_trigger": false,
      "metar": "METAR EPKT 150630Z VRB01KT 1700 0650E PRFG BR OVC010 M00/M01 Q1019",
      "taf": "TAF EPKT 150530Z 1506/1606 16004KT 3000 BR BKN008"
    },
    {
      "icao": "EPLB",
      "alert": "OK",
      "vis_m": 1100,
      "fzfg": false,
      "metar_trigger": false,
      "taf_trigger": false,
      "metar": "METAR EPLB 150630Z VRB02KT 1100 0900W R25/P2000N -FZDZ PRFG BR OVC002 M03/M03 Q1018",
      "taf": "TAF EPLB 150530Z 1506/1606 VRB02KT 2500 BR OVC002"
    },
    {
      "icao": "EPMO",
      "alert": "OK",
      "vis_m": 1000,
      "fzfg": false,
      "metar_trigger": false,
      "taf_trigger": false,
      "metar": "METAR EPMO 150630Z VRB02KT 1000 0250E R08/1400D PRFG BR FEW001 BKN029 M03/M03 Q1018",
      "taf": "TAF EPMO 150530Z 1506/1606 VRB02KT 1500 BR BKN003"
    },
    {
      "icao": "EPPO",
      "alert": "WARNING",
      "vis_m": 200,
      "fzfg": true,
      "metar_trigger": false,
      "taf_trigger": true,
      "metar": "METAR EPPO 150630Z 14004KT 0200 R28/0700N FZFG VV001 M02/M02 Q1018",
      "taf": "TAF EPPO 150530Z 1506/1606 13005KT 0100 FZFG BKN000"
    },
    {
      "icao": "EPRA",
      "alert": "OK",
      "vis_m": 9999,
      "fzfg": false,
      "metar_trigger": false,
      "taf_trigger": false,
      "metar": "METAR EPRA 150630Z 30005KT 280V340 9999 BKN006 OVC016 01/00 Q1019",
      "taf": "TAF EPRA 150530Z 1506/1515 30008KT 8000 OVC005"
    },
    {
      "icao": "EPRZ",
      "alert": "OK",
      "vis_m": 4000,
      "fzfg": false,
      "metar_trigger": false,
      "taf_trigger": false,
      "metar": "METAR EPRZ 150630Z 26009KT 4000 BR OVC005 01/01 Q1019",
      "taf": "TAF EPRZ 150530Z 1506/1606 26010KT 2000 BR OVC003"
    },
    {
      "icao": "EPSC",
      "alert": "OK",
      "vis_m": 6000,
      "fzfg": false,
      "metar_trigger": false,
      "taf_trigger": false,
      "metar": "METAR EPSC 150630Z 13007KT 6000 NSC M02/M02 Q1016",
      "taf": "TAF EPSC 150530Z 1506/1606 14010KT 6000 NSC"
    },
    {
      "icao": "EPSY",
      "alert": "OK",
      "vis_m": 4900,
      "fzfg": false,
      "metar_trigger": false,
      "taf_trigger": false,
      "metar": "METAR EPSY 150630Z VRB02KT 4900 BR OVC003 M06/M07 Q1018",
      "taf": ""
    },
    {
      "icao": "EPWA",
      "alert": "OK",
      "vis_m": 9000,
      "fzfg": false,
      "metar_trigger": false,
      "taf_trigger": false,
      "metar": "METAR EPWA 150630Z 32004KT 290V350 9000 BKN022 01/01 Q1018 TEMPO 3500 BR BKN005",
      "taf": "TAF EPWA 150530Z 1506/1606 29005KT 5000 BR BKN018"
    },
    {
      "icao": "EPWR",
      "alert": "OK",
      "vis_m": 600,
      "fzfg": false,
      "metar_trigger": false,
      "taf_trigger": false,
      "metar": "METAR EPWR 150630Z 15004KT 0600 R29/1000U FG NSC 00/00 Q1018",
      "taf": ""
    },
    {
      "icao": "ESGG",
      "alert": "OK",
      "vis_m": 8000,
      "fzfg": false,
      "metar_trigger": false,
      "taf_trigger": false,
      "metar": "METAR ESGG 150650Z 18007KT 8000 VV003 01/01 Q1010",
      "taf": "TAF ESGG 150530Z 1506/1606 18006KT 8000 SCT004"
    },
    {
      "icao": "ESKN",
      "alert": "OK",
      "vis_m": 9999,
      "fzfg": false,
      "metar_trigger": false,
      "taf_trigger": false,
      "metar": "METAR ESKN 150650Z 19005KT 9999 BKN023 01/01 Q1011",
      "taf": "TAF ESKN 150530Z 1506/1606 20006KT 9999 OVC020"
    },
    {
      "icao": "ESMS",
      "alert": "OK",
      "vis_m": 150,
      "fzfg": false,
      "metar_trigger": false,
      "taf_trigger": false,
      "metar": "METAR ESMS 150650Z 13004KT 0150 R17/0900N R35/0800N FG VV002 00/00 Q1014",
      "taf": "TAF ESMS 150527Z 1506/1606 18006KT 1200 BR FEW002"
    },
    {
      "icao": "ESSA",
      "alert": "OK",
      "vis_m": 9999,
      "fzfg": false,
      "metar_trigger": false,
      "taf_trigger": false,
      "metar": "METAR ESSA 150650Z 25011KT 9999 BKN009 M00/M01 Q1010 TEMPO BKN012",
      "taf": "TAF ESSA 150530Z 1506/1606 25008KT 9999 SCT010 BKN015"
    },
    {
      "icao": "EYKA",
      "alert": "OK",
      "vis_m": 8000,
      "fzfg": false,
      "metar_trigger": false,
      "taf_trigger": false,
      "metar": "METAR EYKA 150650Z 17008KT 130V220 8000 -SN OVC039 M11/M13 Q1021",
      "taf": "TAF EYKA 150513Z 1506/1606 15009KT 8000 SCT010 BKN015"
    },
    {
      "icao": "EYPA",
      "alert": "OK",
      "vis_m": 4400,
      "fzfg": false,
      "metar_trigger": false,
      "taf_trigger": false,
      "metar": "METAR EYPA 150650Z 15009KT 4400 BR OVC004 M07/M07 Q1017",
      "taf": "TAF EYPA 150500Z 1506/1606 16010KT 6000 BKN005"
    },
    {
      "icao": "EYVI",
      "alert": "OK",
      "vis_m": 9000,
      "fzfg": false,
      "metar_trigger": false,
      "taf_trigger": false,
      "metar": "METAR EYVI 150650Z 17008KT 9000 NSC M16/M18 Q1021 NOSIG",
      "taf": "TAF EYVI 150506Z 1506/1606 17009KT 7000 NSC"
    },
    {
      "icao": "GCFV",
      "alert": "OK",
      "vis_m": 9999,
      "fzfg": false,
      "metar_trigger": false,
      "taf_trigger": false,
      "metar": "METAR GCFV 150630Z 32008KT 9999 SCT035 15/10 Q1022",
      "taf": "TAF GCFV 150200Z 1503/1603 34008KT 9999 SCT030 TX20/1514Z TN14/1506Z"
    },
    {
      "icao": "GCLP",
      "alert": "OK",
      "vis_m": 9999,
      "fzfg": false,
      "metar_trigger": false,
      "taf_trigger": false,
      "metar": "METAR GCLP 150630Z 35014KT 9999 BKN040 17/10 Q1023 NOSIG",
      "taf": "TAF GCLP 150200Z 1503/1603 36015KT 9999 BKN030 TX20/1514Z TN15/1506Z"
    },
    {
      "icao": "GCTS",
      "alert": "OK",
      "vis_m": 9999,
      "fzfg": false,
      "metar_trigger": false,
      "taf_trigger": false,
      "metar": "METAR GCTS 150630Z 06008KT 9999 SCT040 16/08 Q1023 NOSIG",
      "taf": "TAF GCTS 150200Z 1503/1603 03007KT 9999 FEW040 TX22/1514Z TN14/1506Z"
    },
    {
      "icao": "GMAD",
      "alert": "OK",
      "vis_m": 9999,
      "fzfg": false,
      "metar_trigger": false,
      "taf_trigger": false,
      "metar": "METAR GMAD 150630Z 06004KT CAVOK 08/08 Q1020 NOSIG",
      "taf": "TAF GMAD 150500Z 1506/1612 06008KT 8000 SCT020"
    },
    {
      "icao": "GMMN",
      "alert": "OK",
      "vis_m": 6000,
      "fzfg": false,
      "metar_trigger": false,
      "taf_trigger": false,
      "metar": "METAR GMMN 150630Z 18007KT 6000 SCT016 05/05 Q1022 NOSIG",
      "taf": "TAF GMMN 150500Z 1506/1612 20004KT 2000 BR FEW003 SCT020"
    },
    {
      "icao": "GMMX",
      "alert": "OK",
      "vis_m": 9999,
      "fzfg": false,
      "metar_trigger": false,
      "taf_trigger": false,
      "metar": "METAR GMMX 150630Z 06003KT 9999 SCT026 07/06 Q1021 NOSIG",
      "taf": "TAF GMMX 150500Z 1506/1612 06006KT 8000 SCT026"
    },
    {
      "icao": "HEGN",
      "alert": "OK",
      "vis_m": 9999,
      "fzfg": false,
      "metar_trigger": false,
      "taf_trigger": false,
      "metar": "METAR HEGN 150600Z 28012KT CAVOK 14/08 Q1024 NOSIG",
      "taf": "TAF HEGN 150500Z 1506/1612 31010G20KT 6000 FEW025"
    },
    {
      "icao": "HEMA",
      "alert": "OK",
      "vis_m": 9999,
      "fzfg": false,
      "metar_trigger": false,
      "taf_trigger": false,
      "metar": "METAR HEMA 150600Z 30017KT 9999 SCT025 16/08 Q1022 NOSIG",
      "taf": "TAF HEMA 150500Z 1506/1612 33010G20KT 6000 FEW025"
    },
    {
      "icao": "HESH",
      "alert": "OK",
      "vis_m": 9999,
      "fzfg": false,
      "metar_trigger": false,
      "taf_trigger": false,
      "metar": "METAR HESH 150600Z 35015KT CAVOK 16/04 Q1024 NOSIG",
      "taf": "TAF HESH 150500Z 1506/1612 35010KT CAVOK"
    },
    {
      "icao": "HESX",
      "alert": "OK",
      "vis_m": 9999,
      "fzfg": false,
      "metar_trigger": false,
      "taf_trigger": false,
      "metar": "METAR HESX 150600Z 23003KT CAVOK 09/06 Q1026 NOSIG",
      "taf": "TAF HESX 150500Z 1506/1612 34008KT 9999 SCT025"
    },
    {
      "icao": "LATI",
      "alert": "OK",
      "vis_m": 9999,
      "fzfg": false,
      "metar_trigger": false,
      "taf_trigger": false,
      "metar": "METAR LATI 150650Z 19002KT 9999 SCT060 04/03 Q1025 NOSIG",
      "taf": "TAF LATI 150500Z 1506/1606 VRB05KT CAVOK TX15/1512Z TN03/1506Z"
    },
    {
      "icao": "LBPD",
      "alert": "OK",
      "vis_m": 7000,
      "fzfg": false,
      "metar_trigger": false,
      "taf_trigger": false,
      "metar": "METAR LBPD 150630Z AUTO 12004KT 7000 NCD M00/M00 Q1021 TEMPO 3000 BR",
      "taf": "TAF LBPD 150500Z 1506/1606 VRB04KT 9999 BKN070"
    },
    {
      "icao": "LBSF",
      "alert": "OK",
      "vis_m": 4200,
      "fzfg": false,
      "metar_trigger": false,
      "taf_trigger": false,
      "metar": "METAR LBSF 150630Z VRB02KT 4200 BR SCT036 M02/M02 Q1023 TEMPO 2000 BR",
      "taf": "TAF LBSF 150500Z 1506/1606 VRB04KT 9999 SCT060"
    },
    {
      "icao": "LBWN",
      "alert": "OK",
      "vis_m": 9999,
      "fzfg": false,
      "metar_trigger": false,
      "taf_trigger": false,
      "metar": "METAR LBWN 150630Z 32007KT 9999 FEW030 04/02 Q1019 NOSIG",
      "taf": "TAF LBWN 150500Z 1506/1606 VRB03KT 9999 SCT040"
    },
    {
      "icao": "LCLK",
      "alert": "OK",
      "vis_m": 9999,
      "fzfg": false,
      "metar_trigger": false,
      "taf_trigger": false,
      "metar": "METAR LCLK 150630Z 32005KT 9999 FEW050 11/06 Q1024 NOSIG",
      "taf": "TAF LCLK 150530Z 1506/1606 32007KT 9999 FEW030"
    },
    {
      "icao": "LCPH",
      "alert": "OK",
      "vis_m": 9999,
      "fzfg": false,
      "metar_trigger": false,
      "taf_trigger": false,
      "metar": "METAR LCPH 150630Z 01007KT 010V080 9999 BKN040 BKN050 10/04 Q1024 NOSIG",
      "taf": "TAF LCPH 150530Z 1506/1606 03007KT 9999 SCT030"
    },
    {
      "icao": "LEAL",
      "alert": "OK",
      "vis_m": 9999,
      "fzfg": false,
      "metar_trigger": false,
      "taf_trigger": false,
      "metar": "METAR LEAL 150630Z 27005KT CAVOK 10/06 Q1019 NOSIG",
      "taf": "TAF LEAL 150500Z 1506/1606 VRB04KT CAVOK TX18/1513Z TN07/1506Z"
    },
    {
      "icao": "LEBB",
      "alert": "OK",
      "vis_m": 9999,
      "fzfg": false,
      "metar_trigger": false,
      "taf_trigger": false,
      "metar": "METAR LEBB 150630Z 18005KT 120V250 CAVOK 13/03 Q1012 NOSIG",
      "taf": "TAF LEBB 150500Z 1506/1606 20009KT 9999 FEW025 TX13/1512Z TN05/1506Z"
    },
    {
      "icao": "LEBL",
      "alert": "OK",
      "vis_m": 9999,
      "fzfg": false,
      "metar_trigger": false,
      "taf_trigger": false,
      "metar": "METAR LEBL 150630Z 34012G23KT 320V020 9999 FEW015 06/04 Q1018 NOSIG",
      "taf": "TAF LEBL 150500Z 1506/1606 34008KT 9999 FEW015 TX15/1512Z TN05/1506Z"
    },
    {
      "icao": "LECH",
      "alert": "OK",
      "vis_m": 9999,
      "fzfg": false,
      "metar_trigger": false,
      "taf_trigger": false,
      "metar": "METAR LECH 150630Z AUTO 18005KT CAVOK 05/03 Q1018",
      "taf": ""
    },
    {
      "icao": "LEMD",
      "alert": "OK",
      "vis_m": 500,
      "fzfg": false,
      "metar_trigger": false,
      "taf_trigger": false,
      "metar": "METAR LEMD 150630Z 13003KT 0500 0100NE R32R/1500D FG VV001 02/02 Q1019 NOSIG",
      "taf": "TAF LEMD 150500Z 1506/1612 VRB03KT 9999 SCT030 TX09/1515Z TN05/1607Z"
    },
    {
      "icao": "LEMG",
      "alert": "OK",
      "vis_m": 9999,
      "fzfg": false,
      "metar_trigger": false,
      "taf_trigger": false,
      "metar": "METAR LEMG 150630Z 31005KT CAVOK 06/05 Q1020 NOSIG",
      "taf": "TAF LEMG 150500Z 1506/1606 29006KT 9999 FEW030 TX18/1514Z TN07/1507Z"
    },
    {
      "icao": "LEVC",
      "alert": "OK",
      "vis_m": 9999,
      "fzfg": false,
      "metar_trigger": false,
      "taf_trigger": false,
      "metar": "METAR LEVC 150630Z 26006KT CAVOK 04/03 Q1019 NOSIG",
      "taf": "TAF LEVC 150500Z 1506/1606 VRB04KT CAVOK TX18/1512Z TN05/1506Z"
    },
    {
      "icao": "LEXJ",
      "alert": "OK",
      "vis_m": 8000,
      "fzfg": false,
      "metar_trigger": false,
      "taf_trigger": false,
      "metar": "METAR LEXJ 150630Z 21015G25KT 150V250 8000 FEW040 14/03 Q1009",
      "taf": ""
    },
    {
      "icao": "LEZG",
      "alert": "OK",
      "vis_m": 200,
      "fzfg": false,
      "metar_trigger": false,
      "taf_trigger": false,
      "metar": "SPECI LEZG 150645Z 08004KT 0200 R30R/1900N R12R/0800U R30L/P2000 R12L/1800D FG BKN001 02/02 Q1018 NOSIG",
      "taf": "TAF LEZG 150500Z 1506/1606 VRB04KT 9999 FEW020 TX17/1514Z TN05/1506Z"
    },
    {
      "icao": "LEZL",
      "alert": "OK",
      "vis_m": 9999,
      "fzfg": false,
      "metar_trigger": false,
      "taf_trigger": false,
      "metar": "METAR LEZL 150630Z VRB02KT 9999 FEW005 06/06 Q1021 NOSIG",
      "taf": "TAF LEZL 150200Z 1503/1603 VRB02KT 9999 FEW030 TX14/1515Z TN06/1507Z"
    },
    {
      "icao": "LFBD",
      "alert": "OK",
      "vis_m": 1700,
      "fzfg": false,
      "metar_trigger": false,
      "taf_trigger": false,
      "metar": "METAR LFBD 150630Z AUTO 15009KT 1700 BR VV/// 06/06 Q1013 TEMPO 0500 FG",
      "taf": "TAF LFBD 150500Z 1506/1612 18005KT 6000 NSC TX13/1514Z TN05/1506Z"
    },
    {
      "icao": "LFLL",
      "alert": "OK",
      "vis_m": 9999,
      "fzfg": false,
      "metar_trigger": false,
      "taf_trigger": false,
      "metar": "METAR LFLL 150630Z 17010KT 9999 BKN050 10/06 Q1017 NOSIG",
      "taf": "TAF LFLL 150500Z 1506/1612 19012KT CAVOK"
    },
    {
      "icao": "LFLS",
      "alert": "OK",
      "vis_m": 9999,
      "fzfg": false,
      "metar_trigger": false,
      "taf_trigger": false,
      "metar": "METAR LFLS 150630Z AUTO 07008KT CAVOK 05/04 Q1018 TEMPO 0800 BCFG",
      "taf": "TAF LFLS 150200Z 1503/1603 09005KT CAVOK"
    },
    {
      "icao": "LFMN",
      "alert": "OK",
      "vis_m": 9999,
      "fzfg": false,
      "metar_trigger": false,
      "taf_trigger": false,
      "metar": "METAR LFMN 150630Z 34011KT CAVOK 09/04 Q1020 NOSIG",
      "taf": "TAF LFMN 150200Z 1503/1609 34010KT CAVOK"
    },
    {
      "icao": "LFOB",
      "alert": "OK",
      "vis_m": 9999,
      "fzfg": false,
      "metar_trigger": false,
      "taf_trigger": false,
      "metar": "METAR LFOB 150630Z AUTO 21010KT 9999 BKN032 BKN180 BKN210 08/05 Q1010 NOSIG",
      "taf": "TAF LFOB 150500Z 1506/1606 22012G22KT 9999 OVC011"
    },
    {
      "icao": "LFPO",
      "alert": "OK",
      "vis_m": 9999,
      "fzfg": false,
      "metar_trigger": false,
      "taf_trigger": false,
      "metar": "METAR LFPO 150630Z 19007KT 9999 FEW034 SCT230 08/06 Q1012 NOSIG",
      "taf": "TAF LFPO 150500Z 1506/1612 21010KT 9999 SCT016 BKN030"
    },
    {
      "icao": "LFSB",
      "alert": "OK",
      "vis_m": 9999,
      "fzfg": false,
      "metar_trigger": false,
      "taf_trigger": false,
      "metar": "METAR LFSB 150630Z AUTO 15007KT 9999 -RA FEW039 BKN045 BKN054 05/03 Q1017 NOSIG",
      "taf": "TAF LFSB 150500Z 1506/1606 18005KT 9999 OVC040"
    },
    {
      "icao": "LGAV",
      "alert": "OK",
      "vis_m": 9999,
      "fzfg": false,
      "metar_trigger": false,
      "taf_trigger": false,
      "metar": "METAR LGAV 150650Z VRB02KT 9999 FEW030 09/06 Q1024 NOSIG",
      "taf": "TAF LGAV 150500Z 1506/1606 VRB05KT 9999 FEW016 SCT025"
    },
    {
      "icao": "LGTS",
      "alert": "OK",
      "vis_m": 9999,
      "fzfg": false,
      "metar_trigger": false,
      "taf_trigger": false,
      "metar": "METAR LGTS 150650Z VRB02KT CAVOK 02/01 Q1025 NOSIG",
      "taf": "TAF LGTS 150500Z 1506/1606 VRB03KT 9999 FEW030"
    },
    {
      "icao": "LHBP",
      "alert": "OK",
      "vis_m": 2000,
      "fzfg": false,
      "metar_trigger": false,
      "taf_trigger": false,
      "metar": "SPECI LHBP 150651Z 16003KT 2000 BR BKN004 BKN070 M03/M04 Q1021 NOSIG",
      "taf": "TAF LHBP 150515Z 1506/1606 09005KT 5000 BR SCT005 BKN080"
    },
    {
      "icao": "LHDC",
      "alert": "OK",
      "vis_m": 2700,
      "fzfg": false,
      "metar_trigger": false,
      "taf_trigger": false,
      "metar": "METAR LHDC 150615Z AUTO VRB01KT 2700 BR FEW003 OVC036 M02/M03 Q1022 REFZRA NOSIG",
      "taf": "TAF LHDC 150515Z 1506/1515 VRB03KT 5000 BR SCT005 BKN040"
    },
    {
      "icao": "LIBD",
      "alert": "OK",
      "vis_m": 9999,
      "fzfg": false,
      "metar_trigger": false,
      "taf_trigger": false,
      "metar": "METAR LIBD 150650Z 20005KT 170V230 CAVOK 04/04 Q1023",
      "taf": "TAF LIBD 150500Z 1506/1606 VRB06KT 9999 FEW040"
    },
    {
      "icao": "LIBG",
      "alert": "OK",
      "vis_m": null,
      "fzfg": false,
      "metar_trigger": false,
      "taf_trigger": false,
      "metar": "",
      "taf": ""
    },
    {
      "icao": "LIBP",
      "alert": "OK",
      "vis_m": 9999,
      "fzfg": false,
      "metar_trigger": false,
      "taf_trigger": false,
      "metar": "METAR LIBP 150650Z AUTO 20004KT 9999 NCD 01/01 Q1023",
      "taf": "TAF LIBP 150500Z 1506/1606 VRB05KT CAVOK"
    },
    {
      "icao": "LIBR",
      "alert": "OK",
      "vis_m": 6000,
      "fzfg": false,
      "metar_trigger": false,
      "taf_trigger": false,
      "metar": "METAR LIBR 150650Z 21002KT 6000 NSC 05/05 Q1024",
      "taf": "TAF LIBR 150500Z 1506/1606 VRB06KT 9000 FEW025"
    },
    {
      "icao": "LICA",
      "alert": "OK",
      "vis_m": 9999,
      "fzfg": false,
      "metar_trigger": false,
      "taf_trigger": false,
      "metar": "METAR LICA 150650Z AUTO 07006KT 9999 NCD 04/02 Q1024",
      "taf": "TAF LICA 150500Z 1506/1606 VRB05KT CAVOK"
    },
    {
      "icao": "LICC",
      "alert": "OK",
      "vis_m": 9999,
      "fzfg": false,
      "metar_trigger": false,
      "taf_trigger": false,
      "metar": "METAR LICC 150650Z 26004KT 9999 BKN035 08/05 Q1024",
      "taf": "TAF LICC 150500Z 1506/1606 25010KT 9999 FEW040"
    },
    {
      "icao": "LICJ",
      "alert": "OK",
      "vis_m": 9999,
      "fzfg": false,
      "metar_trigger": false,
      "taf_trigger": false,
      "metar": "METAR LICJ 150650Z 16004KT CAVOK 09/04 Q1021",
      "taf": "TAF LICJ 150500Z 1506/1606 VRB06KT CAVOK"
    },
    {
      "icao": "LIMC",
      "alert": "OK",
      "vis_m": 1500,
      "fzfg": false,
      "metar_trigger": false,
      "taf_trigger": false,
      "metar": "METAR LIMC 150650Z 36003KT 320V030 1500 -RA BR BKN005 05/04 Q1022 NOSIG",
      "taf": "TAF LIMC 150500Z 1506/1612 VRB05KT 8000 BKN030"
    },
    {
      "icao": "LIME",
      "alert": "OK",
      "vis_m": 2500,
      "fzfg": false,
      "metar_trigger": false,
      "taf_trigger": false,
      "metar": "METAR LIME 150650Z VRB02KT 2500 BR SCT010 SCT030 05/05 Q1022 NOSIG",
      "taf": "TAF LIME 150500Z 1506/1606 VRB04KT 4000 BR FEW005 BKN040"
    },
    {
      "icao": "LIMF",
      "alert": "OK",
      "vis_m": 9999,
      "fzfg": false,
      "metar_trigger": false,
      "taf_trigger": false,
      "metar": "METAR LIMF 150650Z VRB01KT 9999 BKN055 04/00 Q1022",
      "taf": "TAF LIMF 150500Z 1506/1606 VRB03KT 8000 SCT050"
    },
    {
      "icao": "LIMJ",
      "alert": "OK",
      "vis_m": 9999,
      "fzfg": false,
      "metar_trigger": false,
      "taf_trigger": false,
      "metar": "METAR LIMJ 150650Z 05010KT 9999 -RA SCT022 SCT055 11/07 Q1020",
      "taf": "TAF LIMJ 150500Z 1506/1606 04010KT 9999 BKN030"
    },
    {
      "icao": "LIPE",
      "alert": "OK",
      "vis_m": 2500,
      "fzfg": false,
      "metar_trigger": false,
      "taf_trigger": false,
      "metar": "METAR LIPE 150650Z VRB01KT 2500 BR NSC 04/04 Q1022",
      "taf": "TAF LIPE 150500Z 1506/1606 VRB04KT 4000 BR SCT020 BKN060"
    },
    {
      "icao": "LIPH",
      "alert": "OK",
      "vis_m": 7000,
      "fzfg": false,
      "metar_trigger": false,
      "taf_trigger": false,
      "metar": "METAR LIPH 150650Z 26002KT 7000 SCT080 02/01 Q1023",
      "taf": "TAF LIPH 150500Z 1506/1606 VRB04KT 3000 BR SCT040"
    },
    {
      "icao": "LIPQ",
      "alert": "OK",
      "vis_m": 2700,
      "fzfg": false,
      "metar_trigger": false,
      "taf_trigger": false,
      "metar": "METAR LIPQ 150650Z AUTO 34003KT 2700 BR FEW019/// OVC066/// 06/05 Q1022",
      "taf": "TAF LIPQ 150500Z 1506/1606 VRB04KT 2000 BR BKN030"
    },
    {
      "icao": "LIPR",
      "alert": "OK",
      "vis_m": 3500,
      "fzfg": false,
      "metar_trigger": false,
      "taf_trigger": false,
      "metar": "METAR LIPR 150650Z VRB02KT 3500 BR BKN070 06/04 Q1022",
      "taf": "TAF LIPR 150500Z 1506/1606 VRB05KT 3000 BR BKN050"
    },
    {
      "icao": "LIPX",
      "alert": "OK",
      "vis_m": 7000,
      "fzfg": false,
      "metar_trigger": false,
      "taf_trigger": false,
      "metar": "METAR LIPX 150650Z 34004KT 7000 BKN050 BKN080 04/02 Q1023",
      "taf": "TAF LIPX 150500Z 1506/1606 VRB04KT 3000 BR FEW010 BKN050"
    },
    {
      "icao": "LIPY",
      "alert": "OK",
      "vis_m": 3600,
      "fzfg": false,
      "metar_trigger": false,
      "taf_trigger": false,
      "metar": "METAR LIPY 150650Z AUTO VRB02KT 3600 BR BKN064/// 07/06 Q1023",
      "taf": "TAF LIPY 150500Z 1506/1606 VRB05KT 3000 BR BKN060"
    },
    {
      "icao": "LIPZ",
      "alert": "OK",
      "vis_m": 6000,
      "fzfg": false,
      "metar_trigger": false,
      "taf_trigger": false,
      "metar": "METAR LIPZ 150650Z 32003KT 6000 BKN070 03/01 Q1023 NOSIG",
      "taf": "TAF LIPZ 150500Z 1506/1612 VRB04KT 8000 SCT040"
    },
    {
      "icao": "LIRF",
      "alert": "OK",
      "vis_m": 9999,
      "fzfg": false,
      "metar_trigger": false,
      "taf_trigger": false,
      "metar": "METAR LIRF 150650Z 11006KT CAVOK 12/07 Q1022 NOSIG",
      "taf": "TAF LIRF 150500Z 1506/1612 09007KT 9999 SCT050"
    },
    {
      "icao": "LIRN",
      "alert": "OK",
      "vis_m": 9999,
      "fzfg": false,
      "metar_trigger": false,
      "taf_trigger": false,
      "metar": "METAR LIRN 150650Z 27002KT CAVOK 05/04 Q1023 NOSIG",
      "taf": "TAF LIRN 150500Z 1506/1606 VRB05KT 9999 SCT040"
    },
    {
      "icao": "LIRP",
      "alert": "OK",
      "vis_m": 9999,
      "fzfg": false,
      "metar_trigger": false,
      "taf_trigger": false,
      "metar": "METAR LIRP 150645Z 09006KT 9999 FEW020 SCT030 11/11 Q1021 NOSIG",
      "taf": "TAF LIRP 150500Z 1506/1606 12005KT 9999 SCT030 BKN060"
    },
    {
      "icao": "LIRZ",
      "alert": "OK",
      "vis_m": 9999,
      "fzfg": false,
      "metar_trigger": false,
      "taf_trigger": false,
      "metar": "METAR LIRZ 150650Z AUTO 30003KT 9999 SCT042/// BKN053/// 09/07 Q1022",
      "taf": "TAF LIRZ 150500Z 1506/1606 VRB05KT 9999 BKN040"
    },
    {
      "icao": "LJLJ",
      "alert": "OK",
      "vis_m": 9999,
      "fzfg": false,
      "metar_trigger": false,
      "taf_trigger": false,
      "metar": "METAR LJLJ 150630Z VRB02KT 9999 FEW007 BKN050 M02/M02 Q1021 NOSIG",
      "taf": "TAF LJLJ 150500Z 1506/1606 30003KT 9999 FEW010 SCT045"
    },
    {
      "icao": "LKMT",
      "alert": "OK",
      "vis_m": 4500,
      "fzfg": false,
      "metar_trigger": false,
      "taf_trigger": false,
      "metar": "METAR LKMT 150630Z 22009KT 4500 BR OVC013 M00/M01 Q1019 NOSIG",
      "taf": "TAF LKMT 150500Z 1506/1606 23011KT 8000 BKN025"
    },
    {
      "icao": "LKPR",
      "alert": "OK",
      "vis_m": 1200,
      "fzfg": false,
      "metar_trigger": false,
      "taf_trigger": false,
      "metar": "METAR LKPR 150630Z VRB02KT 1200 R24/P2000N R30/0900D BR BCFG FEW023 OVC043 03/03 Q1017 NOSIG",
      "taf": "TAF LKPR 150500Z 1506/1612 12004KT 6000 SCT012 BKN020"
    },
    {
      "icao": "LLBG",
      "alert": "OK",
      "vis_m": 9999,
      "fzfg": false,
      "metar_trigger": false,
      "taf_trigger": false,
      "metar": "METAR LLBG 150650Z 12005KT 9999 FEW050 12/07 Q1025 NOSIG RMK SCT067",
      "taf": "TAF LLBG 150501Z 1506/1606 VRB04KT 9999 FEW045"
    },
    {
      "icao": "LMML",
      "alert": "OK",
      "vis_m": 9999,
      "fzfg": false,
      "metar_trigger": false,
      "taf_trigger": false,
      "metar": "METAR LMML 150645Z 13009KT 9999 BKN020 15/12 Q1023 NOSIG",
      "taf": "TAF LMML 150500Z 1506/1606 15010KT 9999 FEW020"
    },
    {
      "icao": "LOWW",
      "alert": "OK",
      "vis_m": 500,
      "fzfg": true,
      "metar_trigger": false,
      "taf_trigger": false,
      "metar": "METAR LOWW 150650Z 16005KT 120V180 0500 R16/0700D R29/0600N FZFG VV001 M03/M03 Q1020 TEMPO 0400 FZFG",
      "taf": "TAF LOWW 150515Z 1506/1612 15004KT 0800 FZFG SCT001 OVC002 TX00/1612Z TNM03/1506Z"
    },
    {
      "icao": "LPFR",
      "alert": "OK",
      "vis_m": 9999,
      "fzfg": false,
      "metar_trigger": false,
      "taf_trigger": false,
      "metar": "METAR LPFR 150630Z 31003KT 270V360 CAVOK 08/08 Q1020",
      "taf": "TAF LPFR 150500Z 1506/1606 01005KT 9999 FEW012"
    },
    {
      "icao": "LPMA",
      "alert": "OK",
      "vis_m": 9999,
      "fzfg": false,
      "metar_trigger": false,
      "taf_trigger": false,
      "metar": "METAR LPMA 150630Z 33007KT 310V010 9999 BKN015 15/08 Q1024",
      "taf": "TAF LPMA 150500Z 1506/1606 32007KT 9999 SCT015"
    },
    {
      "icao": "LPPR",
      "alert": "OK",
      "vis_m": 9999,
      "fzfg": false,
      "metar_trigger": false,
      "taf_trigger": false,
      "metar": "METAR LPPR 150630Z 18013KT 9999 FEW020 SCT028 BKN038 11/09 Q1016",
      "taf": "TAF LPPR 150500Z 1506/1606 18010KT 9999 SCT018 BKN030"
    },
    {
      "icao": "LPPS",
      "alert": "OK",
      "vis_m": 9999,
      "fzfg": false,
      "metar_trigger": false,
      "taf_trigger": false,
      "metar": "METAR LPPS 150630Z 32009KT 9999 SCT015 BKN030 15/09 Q1024",
      "taf": "TAF LPPS 150500Z 1506/1612 32007KT 9999 SCT015"
    },
    {
      "icao": "LPPT",
      "alert": "OK",
      "vis_m": 9999,
      "fzfg": false,
      "metar_trigger": false,
      "taf_trigger": false,
      "metar": "METAR LPPT 150630Z 19005KT 9999 BKN038 11/10 Q1019",
      "taf": "TAF LPPT 150500Z 1506/1612 21005KT 9999 BKN035"
    },
    {
      "icao": "LQBK",
      "alert": "OK",
      "vis_m": 9999,
      "fzfg": false,
      "metar_trigger": false,
      "taf_trigger": false,
      "metar": "METAR LQBK 150630Z 14008KT CAVOK 03/02 Q1021 NOSIG",
      "taf": "TAF LQBK 150500Z 1506/1606 15006KT 9999 SCT040 TX10/1513Z TN02/1605Z"
    },
    {
      "icao": "LQSA",
      "alert": "OK",
      "vis_m": 7000,
      "fzfg": false,
      "metar_trigger": false,
      "taf_trigger": false,
      "metar": "METAR LQSA 150630Z 00000KT 7000 BKN050 01/01 Q1023 NOSIG",
      "taf": "TAF LQSA 150500Z 1506/1606 VRB02KT 8000 FEW012 SCT060 TX08/1514Z TN00/1506Z"
    },
    {
      "icao": "LQTZ",
      "alert": "OK",
      "vis_m": 8000,
      "fzfg": false,
      "metar_trigger": false,
      "taf_trigger": false,
      "metar": "METAR LQTZ 150630Z 00000KT 8000 FEW050 BKN065 01/01 Q1022",
      "taf": "TAF LQTZ 150500Z 1506/1606 VRB02KT 9999 SCT040 TX08/1513Z TN00/1605Z"
    },
    {
      "icao": "LRBC",
      "alert": "OK",
      "vis_m": 5000,
      "fzfg": false,
      "metar_trigger": false,
      "taf_trigger": false,
      "metar": "METAR LRBC 150630Z 02006KT 5000 BR FEW010 BKN049 M03/M06 Q1019",
      "taf": "TAF LRBC 150500Z 1506/1515 35007KT 8000 BKN045"
    },
    {
      "icao": "LRBS",
      "alert": "OK",
      "vis_m": 3500,
      "fzfg": false,
      "metar_trigger": false,
      "taf_trigger": false,
      "metar": "METAR LRBS 150630Z 26005KT 220V340 3500 BR NSC M04/M05 Q1018 BECMG 5000",
      "taf": "TAF LRBS 150500Z 1506/1606 25006KT 5000 BR NSC"
    },
    {
      "icao": "LRBV",
      "alert": "OK",
      "vis_m": 5000,
      "fzfg": false,
      "metar_trigger": false,
      "taf_trigger": false,
      "metar": "METAR LRBV 150630Z 31008KT 280V340 5000 -RA BR BKN009 OVC011 02/01 Q1019",
      "taf": "TAF LRBV 150500Z 1506/1515 29008KT 5000 BR BKN010 OVC020"
    },
    {
      "icao": "LRCL",
      "alert": "OK",
      "vis_m": 1800,
      "fzfg": false,
      "metar_trigger": false,
      "taf_trigger": false,
      "metar": "METAR LRCL 150630Z 00000KT 1800 -FZDZ BR OVC004 M02/M02 Q1021",
      "taf": "TAF LRCL 150500Z 1506/1515 VRB04KT 1500 -SN BR BKN005 OVC015"
    },
    {
      "icao": "LRCV",
      "alert": "OK",
      "vis_m": 6000,
      "fzfg": false,
      "metar_trigger": false,
      "taf_trigger": false,
      "metar": "METAR LRCV 150630Z 27011KT 6000 MIFG FEW004 00/00 Q1020",
      "taf": "TAF LRCV 150500Z 1506/1515 VRB04KT 3000 BR SCT005"
    },
    {
      "icao": "LRIA",
      "alert": "OK",
      "vis_m": 7000,
      "fzfg": false,
      "metar_trigger": false,
      "taf_trigger": false,
      "metar": "METAR LRIA 150630Z 36004KT 7000 -SN BKN020 OVC030 M05/M06 Q1020",
      "taf": "TAF LRIA 150500Z 1506/1515 36005KT 5000 -SN SCT010 OVC030"
    },
    {
      "icao": "LROP",
      "alert": "OK",
      "vis_m": 4000,
      "fzfg": false,
      "metar_trigger": false,
      "taf_trigger": false,
      "metar": "METAR LROP 150630Z 25005KT 4000 BR NSC M04/M06 Q1018 TEMPO 3000 BR",
      "taf": "TAF LROP 150500Z 1506/1606 25006KT 5000 BR NSC"
    },
    {
      "icao": "LRSB",
      "alert": "OK",
      "vis_m": 7000,
      "fzfg": false,
      "metar_trigger": false,
      "taf_trigger": false,
      "metar": "METAR LRSB 150630Z 23002KT 7000 3000SW BCFG SCT037 OVC045 01/01 Q1019",
      "taf": "TAF LRSB 150500Z 1506/1606 VRB04KT 9999 BKN045"
    },
    {
      "icao": "LRSM",
      "alert": "OK",
      "vis_m": 500,
      "fzfg": true,
      "metar_trigger": false,
      "taf_trigger": false,
      "metar": "METAR LRSM 150630Z VRB01KT 0500 R19/1400N -SN FZFG FEW002 OVC005 M01/M01 Q1022 REFZDZ",
      "taf": ""
    },
    {
      "icao": "LRSV",
      "alert": "OK",
      "vis_m": 3000,
      "fzfg": false,
      "metar_trigger": false,
      "taf_trigger": false,
      "metar": "METAR LRSV 150630Z 04006KT 3000 -SN BKN006 M07/M08 Q1018",
      "taf": "TAF LRSV 150500Z 1506/1515 05005KT 5000 -SN BKN010 OVC020"
    },
    {
      "icao": "LRTM",
      "alert": "OK",
      "vis_m": 1300,
      "fzfg": false,
      "metar_trigger": false,
      "taf_trigger": false,
      "metar": "METAR LRTM 150630Z 23001KT 1300 R07/1600N -SHSN BR FEW009 SCT015 BKN021 SCT029CB M01/M02 Q1021",
      "taf": "TAF LRTM 150500Z 1506/1515 VRB04KT 1500 SN BR BKN005 OVC015"
    },
    {
      "icao": "LRTR",
      "alert": "OK",
      "vis_m": 2500,
      "fzfg": false,
      "metar_trigger": false,
      "taf_trigger": false,
      "metar": "METAR LRTR 150630Z 11003KT 2500 BR OVC020 00/00 Q1022",
      "taf": "TAF LRTR 150500Z 1506/1606 VRB04KT 1500 BR SCT020"
    },
    {
      "icao": "LTAC",
      "alert": "OK",
      "vis_m": 8000,
      "fzfg": false,
      "metar_trigger": false,
      "taf_trigger": false,
      "metar": "METAR LTAC 150650Z VRB02KT 8000 SCT010 SCT035 BKN090 M01/M03 Q1023 NOSIG RMK RWY21C VRB01KT RWY03L VRB02KT RWY21R VRB01KT RWY03R 22004KT 180V240 RWY21L VRB01KT",
      "taf": "TAF LTAC 150440Z 1506/1606 22008KT 9999 FEW010 SCT040 BKN100"
    },
    {
      "icao": "LTFM",
      "alert": "OK",
      "vis_m": 9999,
      "fzfg": false,
      "metar_trigger": false,
      "taf_trigger": false,
      "metar": "METAR LTFM 150650Z 21016KT 9999 BKN035 09/06 Q1022 NOSIG RMK RWY17L 21015KT RWY34L 20014KT RWY16R 20014KT RWY36 20014KT RWY18 21016KT",
      "taf": "TAF LTFM 150440Z 1506/1612 22017KT 9999 BKN040"
    },
    {
      "icao": "LUKK",
      "alert": "OK",
      "vis_m": 3500,
      "fzfg": false,
      "metar_trigger": false,
      "taf_trigger": false,
      "metar": "METAR LUKK 150630Z 04005KT 3500 -SN BR SCT008 OVC033 M06/M07 Q1020 TEMPO 1500 SN BR BKN007",
      "taf": "TAF LUKK 150506Z 1506/1606 03008KT 4000 SN BR BKN015"
    },
    {
      "icao": "LWOH",
      "alert": "OK",
      "vis_m": 9999,
      "fzfg": false,
      "metar_trigger": false,
      "taf_trigger": false,
      "metar": "METAR LWOH 150650Z 34005KT 9999 FEW020 M03/M03 Q1025",
      "taf": "TAF LWOH 150550Z 1506/1606 VRB02KT 9999 FEW020"
    },
    {
      "icao": "LWSK",
      "alert": "OK",
      "vis_m": 5000,
      "fzfg": false,
      "metar_trigger": false,
      "taf_trigger": false,
      "metar": "METAR LWSK 150650Z VRB01KT 5000 BR NSC M04/M05 Q1026 NOSIG",
      "taf": "TAF LWSK 150550Z 1506/1606 VRB02KT CAVOK"
    },
    {
      "icao": "LYBE",
      "alert": "OK",
      "vis_m": 9999,
      "fzfg": false,
      "metar_trigger": false,
      "taf_trigger": false,
      "metar": "METAR LYBE 150630Z 16003KT CAVOK 03/01 Q1022 NOSIG",
      "taf": "TAF LYBE 150500Z 1506/1606 18005KT 8000 NSC TX08/1513Z TN03/1506Z"
    },
    {
      "icao": "LYNI",
      "alert": "OK",
      "vis_m": 3000,
      "fzfg": false,
      "metar_trigger": false,
      "taf_trigger": false,
      "metar": "METAR LYNI 150630Z 11005KT 3000 BR FEW050 02/02 Q1024 TEMPO TL0730 1500",
      "taf": "TAF LYNI 150500Z 1506/1606 11004KT 5000 BR BKN045 TX07/1513Z TN00/1606Z"
    },
    {
      "icao": "LYPG",
      "alert": "OK",
      "vis_m": 1200,
      "fzfg": false,
      "metar_trigger": false,
      "taf_trigger": false,
      "metar": "METAR LYPG 150630Z 34002KT 1200 R18/1500D R36/1600U BR FEW030 SCT070 04/04 Q1026 BECMG FM0700 3000",
      "taf": "TAF LYPG 150500Z 1506/1606 17005KT 9999 SCT034 SCT070 TX12/1513Z TN04/1506Z"
    },
    {
      "icao": "LZIB",
      "alert": "OK",
      "vis_m": 900,
      "fzfg": true,
      "metar_trigger": false,
      "taf_trigger": false,
      "metar": "METAR LZIB 150630Z 18003KT 0900 R31/0800N R22/0450N FZFG BKN001 BKN007 M04/M05 Q1021 TEMPO 2000 BKN003 OVC010",
      "taf": ""
    },
    {
      "icao": "LZKZ",
      "alert": "OK",
      "vis_m": 4500,
      "fzfg": false,
      "metar_trigger": false,
      "taf_trigger": false,
      "metar": "METAR LZKZ 150630Z 16003KT 4500 BR SCT012 BKN021 M03/M04 Q1021 TEMPO 2500 BR",
      "taf": "TAF LZKZ 150515Z 1506/1606 VRB02KT 6000 SCT010 BKN025"
    },
    {
      "icao": "LZTT",
      "alert": "OK",
      "vis_m": 8000,
      "fzfg": false,
      "metar_trigger": false,
      "taf_trigger": false,
      "metar": "METAR LZTT 150630Z 14002KT 8000 FEW008 BKN013 M04/M04 Q1018 NOSIG",
      "taf": "TAF LZTT 150515Z 1506/1606 VRB02KT 8000 SCT010 BKN018"
    },
    {
      "icao": "OEJN",
      "alert": "OK",
      "vis_m": 9999,
      "fzfg": false,
      "metar_trigger": false,
      "taf_trigger": false,
      "metar": "METAR OEJN 150600Z 36006KT CAVOK 22/10 Q1017 NOSIG",
      "taf": "TAF OEJN 150500Z 1506/1612 33010KT CAVOK"
    },
    {
      "icao": "OEMA",
      "alert": "OK",
      "vis_m": 9999,
      "fzfg": false,
      "metar_trigger": false,
      "taf_trigger": false,
      "metar": "METAR OEMA 150600Z 04008KT CAVOK 14/M03 Q1024 NOSIG",
      "taf": "TAF OEMA 150500Z 1506/1612 08015KT 7000 NSC"
    },
    {
      "icao": "OJAI",
      "alert": "OK",
      "vis_m": 4000,
      "fzfg": false,
      "metar_trigger": false,
      "taf_trigger": false,
      "metar": "METAR OJAI 150600Z 06003KT 4000 BR NSC 03/00 Q1025 NOSIG",
      "taf": "TAF OJAI 150500Z 1506/1612 27012KT 5000 HZ SCT030"
    },
    {
      "icao": "OMAA",
      "alert": "OK",
      "vis_m": 9999,
      "fzfg": false,
      "metar_trigger": false,
      "taf_trigger": false,
      "metar": "METAR OMAA 150600Z 15005KT CAVOK 23/05 Q1018 NOSIG",
      "taf": "TAF OMAA 150500Z 1506/1612 VRB02KT 8000 FEW045"
    },
    {
      "icao": "OMDB",
      "alert": "OK",
      "vis_m": 9999,
      "fzfg": false,
      "metar_trigger": false,
      "taf_trigger": false,
      "metar": "METAR OMDB 150630Z 17005KT CAVOK 24/05 Q1018 NOSIG",
      "taf": "TAF OMDB 150500Z 1506/1612 19005KT 8000 NSC"
    },
    {
      "icao": "UAAA",
      "alert": "OK",
      "vis_m": 4200,
      "fzfg": false,
      "metar_trigger": false,
      "taf_trigger": false,
      "metar": "METAR UAAA 150630Z VRB01MPS 4200 BR OVC005 M07/M09 Q1022 NOSIG RMK QBB150",
      "taf": "TAF UAAA 150505Z 1506/1606 02003G08MPS 3100 BR FU BKN011CB OVC020 TXM04/1509Z TNM10/1603Z"
    },
    {
      "icao": "UBBB",
      "alert": "OK",
      "vis_m": 9999,
      "fzfg": false,
      "metar_trigger": false,
      "taf_trigger": false,
      "metar": "METAR UBBB 150630Z 32012KT 9999 BKN037 04/M01 Q1024 NOSIG",
      "taf": "TAF UBBB 150500Z 1506/1606 33012KT 9999 BKN020 TX06/1510Z TN01/1601Z"
    },
    {
      "icao": "UDSG",
      "alert": "OK",
      "vis_m": 9999,
      "fzfg": false,
      "metar_trigger": false,
      "taf_trigger": false,
      "metar": "METAR UDSG 150630Z 05002KT 9999 FEW049 M14/M18 Q1019 NOSIG",
      "taf": "TAF UDSG 150458Z 1506/1606 VRB06KT 9999 FEW040"
    },
    {
      "icao": "UDYZ",
      "alert": "OK",
      "vis_m": 9999,
      "fzfg": false,
      "metar_trigger": false,
      "taf_trigger": false,
      "metar": "METAR UDYZ 150630Z 03001KT 9999 SCT046 M02/M06 Q1021 NOSIG",
      "taf": "TAF UDYZ 150500Z 1506/1606 VRB06KT 9999 BKN040"
    },
    {
      "icao": "UGKO",
      "alert": "OK",
      "vis_m": 7000,
      "fzfg": false,
      "metar_trigger": false,
      "taf_trigger": false,
      "metar": "METAR UGKO 150630Z VRB02KT 7000 -SNRA SCT007 BKN013 OVC016 01/00 Q1026 NOSIG",
      "taf": "TAF UGKO 150500Z 1506/1606 08007KT 9999 BKN050 TX06/1511Z TNM01/1602Z"
    }
  ]
}