{
  "ts_utc": "2026-04-17T12:43:12Z",
  "threshold_m": 150,
  "source": "stations_override.txt (ICAO list) + aviationweather.gov (METAR/TAF raw)",
  "station_count": 159,
  "stations": [
    {
      "icao": "BIKF",
      "alert": "OK",
      "vis_m": 9999,
      "fzfg": false,
      "metar_trigger": false,
      "taf_trigger": false,
      "metar": "METAR BIKF 171230Z 24006KT 200V270 9999 SCT027 06/00 Q1001",
      "taf": "TAF BIKF 171035Z 1712/1812 22006KT 9999 -SHRA SCT015 BKN030 TX08/1713Z TN01/1806Z"
    },
    {
      "icao": "BKPR",
      "alert": "OK",
      "vis_m": 9999,
      "fzfg": false,
      "metar_trigger": false,
      "taf_trigger": false,
      "metar": "METAR BKPR 171230Z 01018KT 9999 FEW050 21/08 Q1015 NOSIG",
      "taf": ""
    },
    {
      "icao": "EBCI",
      "alert": "OK",
      "vis_m": 9999,
      "fzfg": false,
      "metar_trigger": false,
      "taf_trigger": false,
      "metar": "METAR EBCI 171220Z 28003KT 220V360 9999 SCT045 18/05 Q1022 NOSIG",
      "taf": "TAF EBCI 171100Z 1712/1818 25003KT CAVOK"
    },
    {
      "icao": "EDDB",
      "alert": "OK",
      "vis_m": 9999,
      "fzfg": false,
      "metar_trigger": false,
      "taf_trigger": false,
      "metar": "METAR EDDB 171220Z AUTO 01007KT 300V060 CAVOK 19/05 Q1023 NOSIG",
      "taf": "TAF EDDB 171100Z 1712/1812 36006KT CAVOK"
    },
    {
      "icao": "EDDH",
      "alert": "OK",
      "vis_m": 9999,
      "fzfg": false,
      "metar_trigger": false,
      "taf_trigger": false,
      "metar": "METAR EDDH 171220Z AUTO 06006KT 010V110 CAVOK 19/08 Q1022 NOSIG",
      "taf": "TAF EDDH 171100Z 1712/1818 13004KT 9999 FEW040"
    },
    {
      "icao": "EDDK",
      "alert": "OK",
      "vis_m": 9999,
      "fzfg": false,
      "metar_trigger": false,
      "taf_trigger": false,
      "metar": "METAR EDDK 171220Z AUTO VRB05KT CAVOK 20/08 Q1021 NOSIG",
      "taf": "TAF EDDK 171100Z 1712/1818 28005KT CAVOK"
    },
    {
      "icao": "EDDN",
      "alert": "OK",
      "vis_m": 9999,
      "fzfg": false,
      "metar_trigger": false,
      "taf_trigger": false,
      "metar": "METAR EDDN 171220Z AUTO VRB02KT CAVOK 21/07 Q1021 NOSIG",
      "taf": "TAF EDDN 171100Z 1712/1812 VRB03KT CAVOK"
    },
    {
      "icao": "EDDS",
      "alert": "OK",
      "vis_m": 9999,
      "fzfg": false,
      "metar_trigger": false,
      "taf_trigger": false,
      "metar": "METAR EDDS 171220Z AUTO 06005KT 030V100 CAVOK 20/07 Q1020 NOSIG",
      "taf": "TAF EDDS 171100Z 1712/1812 VRB03KT CAVOK"
    },
    {
      "icao": "EDFH",
      "alert": "OK",
      "vis_m": 9999,
      "fzfg": false,
      "metar_trigger": false,
      "taf_trigger": false,
      "metar": "METAR EDFH 171220Z COR 33004KT 270V060 9999 BKN047 17/07 Q1021",
      "taf": "TAF EDFH 171100Z 1712/1812 VRB03KT CAVOK"
    },
    {
      "icao": "EDJA",
      "alert": "OK",
      "vis_m": 9999,
      "fzfg": false,
      "metar_trigger": false,
      "taf_trigger": false,
      "metar": "METAR EDJA 171220Z COR 06008KT 360V110 9999 FEW060 18/05 Q1021",
      "taf": "TAF EDJA 171100Z 1712/1721 05007KT CAVOK"
    },
    {
      "icao": "EDLW",
      "alert": "OK",
      "vis_m": 9999,
      "fzfg": false,
      "metar_trigger": false,
      "taf_trigger": false,
      "metar": "METAR EDLW 171220Z VRB03KT CAVOK 19/09 Q1021",
      "taf": "TAF EDLW 171100Z 1712/1812 30004KT CAVOK"
    },
    {
      "icao": "EDNY",
      "alert": "OK",
      "vis_m": 9999,
      "fzfg": false,
      "metar_trigger": false,
      "taf_trigger": false,
      "metar": "METAR EDNY 171220Z 22008KT CAVOK 18/08 Q1020",
      "taf": "TAF EDNY 171100Z 1712/1721 23005KT CAVOK"
    },
    {
      "icao": "EDSB",
      "alert": "OK",
      "vis_m": 9999,
      "fzfg": false,
      "metar_trigger": false,
      "taf_trigger": false,
      "metar": "METAR EDSB 171220Z 34003KT 300V100 CAVOK 21/10 Q1020",
      "taf": "TAF EDSB 171100Z 1712/1812 VRB03KT CAVOK"
    },
    {
      "icao": "EETN",
      "alert": "OK",
      "vis_m": 9999,
      "fzfg": false,
      "metar_trigger": false,
      "taf_trigger": false,
      "metar": "METAR EETN 171220Z 05010KT CAVOK 14/M02 Q1020 NOSIG",
      "taf": "TAF EETN 171130Z 1712/1812 05013KT CAVOK"
    },
    {
      "icao": "EFTU",
      "alert": "OK",
      "vis_m": 9999,
      "fzfg": false,
      "metar_trigger": false,
      "taf_trigger": false,
      "metar": "METAR EFTU 171220Z AUTO 01005KT 300V070 CAVOK 16/M06 Q1021",
      "taf": "TAF EFTU 171124Z 1712/1812 04007KT CAVOK"
    },
    {
      "icao": "EGBB",
      "alert": "OK",
      "vis_m": 9999,
      "fzfg": false,
      "metar_trigger": false,
      "taf_trigger": false,
      "metar": "METAR EGBB 171220Z 21010G21KT 160V260 9999 BKN028 15/08 Q1016",
      "taf": "TAF EGBB 171056Z 1712/1812 19009KT 9999 SCT025"
    },
    {
      "icao": "EGGP",
      "alert": "OK",
      "vis_m": 9999,
      "fzfg": false,
      "metar_trigger": false,
      "taf_trigger": false,
      "metar": "METAR EGGP 171220Z 19006KT 150V230 9999 VCSH FEW017 SCT022 BKN035 13/11 Q1014",
      "taf": ""
    },
    {
      "icao": "EGGW",
      "alert": "OK",
      "vis_m": 9999,
      "fzfg": false,
      "metar_trigger": false,
      "taf_trigger": false,
      "metar": "METAR EGGW 171220Z AUTO 20012KT 170V230 9999 BKN033 BKN043 15/08 Q1018",
      "taf": "TAF EGGW 171057Z 1712/1812 20012KT 9999 SCT035"
    },
    {
      "icao": "EGKK",
      "alert": "OK",
      "vis_m": 9999,
      "fzfg": false,
      "metar_trigger": false,
      "taf_trigger": false,
      "metar": "METAR EGKK 171220Z 21012KT 9999 SCT034 SCT047 16/07 Q1020",
      "taf": "TAF EGKK 171055Z 1712/1818 21013KT 9999 SCT030"
    },
    {
      "icao": "EGNM",
      "alert": "OK",
      "vis_m": 9999,
      "fzfg": false,
      "metar_trigger": false,
      "taf_trigger": false,
      "metar": "METAR EGNM 171220Z 20013KT 9999 BKN027 13/08 Q1014",
      "taf": "TAF EGNM 171059Z 1712/1812 22013KT 9999 SCT025"
    },
    {
      "icao": "EGPD",
      "alert": "OK",
      "vis_m": 9999,
      "fzfg": false,
      "metar_trigger": false,
      "taf_trigger": false,
      "metar": "METAR EGPD 171220Z 16019G30KT 9999 BKN027 11/08 Q1008 TEMPO SHRA",
      "taf": "TAF EGPD 171056Z 1712/1812 17015G25KT 9999 SCT012"
    },
    {
      "icao": "EGPF",
      "alert": "OK",
      "vis_m": 9999,
      "fzfg": false,
      "metar_trigger": false,
      "taf_trigger": false,
      "metar": "METAR EGPF 171220Z AUTO 21023G34KT 9999 FEW027/// SCT047/// //////TCU 13/09 Q1008",
      "taf": "TAF EGPF 171100Z 1712/1812 19012KT 9999 SCT025"
    },
    {
      "icao": "EHBK",
      "alert": "OK",
      "vis_m": 9999,
      "fzfg": false,
      "metar_trigger": false,
      "taf_trigger": false,
      "metar": "METAR EHBK 171225Z AUTO 23006KT 190V280 9999 NSC 18/06 Q1021 NOSIG",
      "taf": "TAF EHBK 171112Z 1712/1818 VRB02KT CAVOK"
    },
    {
      "icao": "EHEH",
      "alert": "OK",
      "vis_m": 9999,
      "fzfg": false,
      "metar_trigger": false,
      "taf_trigger": false,
      "metar": "METAR EHEH 171225Z AUTO 23004KT 160V330 9999 FEW058 BKN290 19/06 Q1021 BLU NOSIG",
      "taf": "TAF EHEH 171144Z 1712/1818 21004KT 9999 SCT050"
    },
    {
      "icao": "EKBI",
      "alert": "OK",
      "vis_m": 9999,
      "fzfg": false,
      "metar_trigger": false,
      "taf_trigger": false,
      "metar": "METAR EKBI 171220Z AUTO 12003KT 9999 BKN190/// 15/05 Q1024",
      "taf": "TAF EKBI 171127Z 1712/1812 14007KT 9999 SCT020"
    },
    {
      "icao": "EKCH",
      "alert": "OK",
      "vis_m": 9999,
      "fzfg": false,
      "metar_trigger": false,
      "taf_trigger": false,
      "metar": "METAR EKCH 171220Z AUTO 19007KT 9999 NCD 11/02 Q1025 NOSIG",
      "taf": "TAF EKCH 171127Z 1712/1812 18007KT 9999 FEW035"
    },
    {
      "icao": "ENAL",
      "alert": "OK",
      "vis_m": 9999,
      "fzfg": false,
      "metar_trigger": false,
      "taf_trigger": false,
      "metar": "METAR ENAL 171220Z VRB04KT CAVOK 15/00 Q1020",
      "taf": "TAF ENAL 171100Z 1712/1721 06005KT CAVOK"
    },
    {
      "icao": "ENBR",
      "alert": "OK",
      "vis_m": 9999,
      "fzfg": false,
      "metar_trigger": false,
      "taf_trigger": false,
      "metar": "METAR ENBR 171220Z 15018KT 9999 SCT050 13/02 Q1020 NOSIG RMK WIND 1200FT 14022KT",
      "taf": "TAF ENBR 171100Z 1712/1812 15012KT 9999 SCT045"
    },
    {
      "icao": "ENGM",
      "alert": "OK",
      "vis_m": 9999,
      "fzfg": false,
      "metar_trigger": false,
      "taf_trigger": false,
      "metar": "METAR ENGM 171220Z 18009KT 140V220 CAVOK 14/00 Q1023 NOSIG",
      "taf": "TAF ENGM 171100Z 1712/1812 18010KT 9999 FEW040"
    },
    {
      "icao": "ENHD",
      "alert": "OK",
      "vis_m": 9999,
      "fzfg": false,
      "metar_trigger": false,
      "taf_trigger": false,
      "metar": "METAR ENHD 171220Z 14014KT 9999 FEW045 12/06 Q1021",
      "taf": "TAF ENHD 171100Z 1712/1721 14015KT 9999 FEW040"
    },
    {
      "icao": "ENTC",
      "alert": "OK",
      "vis_m": 9999,
      "fzfg": false,
      "metar_trigger": false,
      "taf_trigger": false,
      "metar": "METAR ENTC 171220Z 27003KT CAVOK 08/M02 Q1025 NOSIG RMK WIND 2600FT 19008KT",
      "taf": "TAF ENTC 171100Z 1712/1812 23006KT CAVOK"
    },
    {
      "icao": "ENTO",
      "alert": "OK",
      "vis_m": 9999,
      "fzfg": false,
      "metar_trigger": false,
      "taf_trigger": false,
      "metar": "METAR ENTO 171220Z 17006KT 120V230 CAVOK 13/04 Q1024 NOSIG",
      "taf": "TAF ENTO 171100Z 1712/1812 18010KT 9999 FEW040"
    },
    {
      "icao": "ENVA",
      "alert": "OK",
      "vis_m": 9999,
      "fzfg": false,
      "metar_trigger": false,
      "taf_trigger": false,
      "metar": "METAR ENVA 171220Z 14011KT CAVOK 17/00 Q1021 NOSIG RMK WIND 670FT 15013KT",
      "taf": "TAF ENVA 171100Z 1712/1812 14008KT CAVOK"
    },
    {
      "icao": "ENZV",
      "alert": "OK",
      "vis_m": 9999,
      "fzfg": false,
      "metar_trigger": false,
      "taf_trigger": false,
      "metar": "METAR ENZV 171220Z 15012KT 9999 SCT034 BKN046 12/05 Q1021 NOSIG",
      "taf": "TAF ENZV 171100Z 1712/1812 16015KT 9999 FEW025"
    },
    {
      "icao": "EPGD",
      "alert": "OK",
      "vis_m": 9999,
      "fzfg": false,
      "metar_trigger": false,
      "taf_trigger": false,
      "metar": "METAR EPGD 171230Z 35009KT 9999 BKN031 12/04 Q1023",
      "taf": "TAF EPGD 171130Z 1712/1812 33006KT CAVOK"
    },
    {
      "icao": "EPKK",
      "alert": "OK",
      "vis_m": 9999,
      "fzfg": false,
      "metar_trigger": false,
      "taf_trigger": false,
      "metar": "METAR EPKK 171230Z 30007KT 9999 FEW033CB SCT050 16/07 Q1020",
      "taf": "TAF EPKK 171130Z 1712/1812 34012KT CAVOK"
    },
    {
      "icao": "EPKT",
      "alert": "OK",
      "vis_m": 9999,
      "fzfg": false,
      "metar_trigger": false,
      "taf_trigger": false,
      "metar": "METAR EPKT 171230Z 33012KT 9999 FEW048 15/03 Q1020",
      "taf": "TAF EPKT 171130Z 1712/1812 33010KT CAVOK"
    },
    {
      "icao": "EPLB",
      "alert": "OK",
      "vis_m": 9999,
      "fzfg": false,
      "metar_trigger": false,
      "taf_trigger": false,
      "metar": "METAR EPLB 171230Z 33007KT CAVOK 14/01 Q1019",
      "taf": "TAF EPLB 171130Z 1712/1812 32010KT CAVOK"
    },
    {
      "icao": "EPMO",
      "alert": "OK",
      "vis_m": 9999,
      "fzfg": false,
      "metar_trigger": false,
      "taf_trigger": false,
      "metar": "METAR EPMO 171230Z 33010KT 300V360 9999 SCT036 12/05 Q1021",
      "taf": "TAF EPMO 171130Z 1712/1812 33012KT CAVOK"
    },
    {
      "icao": "EPPO",
      "alert": "OK",
      "vis_m": 9999,
      "fzfg": false,
      "metar_trigger": false,
      "taf_trigger": false,
      "metar": "METAR EPPO 171230Z 33004KT 260V010 CAVOK 17/M02 Q1023",
      "taf": "TAF EPPO 171130Z 1712/1812 02010KT CAVOK"
    },
    {
      "icao": "EPRA",
      "alert": "OK",
      "vis_m": 9999,
      "fzfg": false,
      "metar_trigger": false,
      "taf_trigger": false,
      "metar": "METAR EPRA 171230Z 34011KT 310V010 CAVOK 15/M02 Q1020",
      "taf": "TAF EPRA 171130Z 1712/1721 33012KT CAVOK"
    },
    {
      "icao": "EPRZ",
      "alert": "OK",
      "vis_m": 9999,
      "fzfg": false,
      "metar_trigger": false,
      "taf_trigger": false,
      "metar": "METAR EPRZ 171230Z 32009G19KT 250V030 CAVOK 17/00 Q1018",
      "taf": "TAF EPRZ 171130Z 1712/1812 34013KT CAVOK"
    },
    {
      "icao": "EPSC",
      "alert": "OK",
      "vis_m": 9999,
      "fzfg": false,
      "metar_trigger": false,
      "taf_trigger": false,
      "metar": "METAR EPSC 171230Z 02005KT 330V130 CAVOK 16/M01 Q1024",
      "taf": "TAF EPSC 171130Z 1712/1812 33010KT CAVOK"
    },
    {
      "icao": "EPSY",
      "alert": "OK",
      "vis_m": 9999,
      "fzfg": false,
      "metar_trigger": false,
      "taf_trigger": false,
      "metar": "METAR EPSY 171230Z 34010KT 300V010 9999 BKN015 09/05 Q1021",
      "taf": "TAF EPSY 171130Z 1712/1721 33010KT 9999 OVC012"
    },
    {
      "icao": "EPWA",
      "alert": "OK",
      "vis_m": 9999,
      "fzfg": false,
      "metar_trigger": false,
      "taf_trigger": false,
      "metar": "METAR EPWA 171230Z 34017KT 9999 BKN040 13/03 Q1021 NOSIG",
      "taf": "TAF EPWA 171130Z 1712/1812 32012KT CAVOK"
    },
    {
      "icao": "EPWR",
      "alert": "OK",
      "vis_m": 9999,
      "fzfg": false,
      "metar_trigger": false,
      "taf_trigger": false,
      "metar": "METAR EPWR 171230Z 35011KT 310V030 CAVOK 17/04 Q1022",
      "taf": "TAF EPWR 171130Z 1712/1812 01010KT CAVOK"
    },
    {
      "icao": "ESGG",
      "alert": "OK",
      "vis_m": 9999,
      "fzfg": false,
      "metar_trigger": false,
      "taf_trigger": false,
      "metar": "METAR ESGG 171220Z 14006KT 100V190 CAVOK 16/01 Q1023",
      "taf": "TAF ESGG 171130Z 1712/1812 14005KT CAVOK"
    },
    {
      "icao": "ESKN",
      "alert": "OK",
      "vis_m": 9999,
      "fzfg": false,
      "metar_trigger": false,
      "taf_trigger": false,
      "metar": "METAR ESKN 171220Z 34006KT 270V020 9999 SCT045 BKN096 15/03 Q1024",
      "taf": "TAF ESKN 171130Z 1712/1812 36005KT CAVOK"
    },
    {
      "icao": "ESMS",
      "alert": "OK",
      "vis_m": 9999,
      "fzfg": false,
      "metar_trigger": false,
      "taf_trigger": false,
      "metar": "METAR ESMS 171220Z 22009KT 9999 FEW042 14/04 Q1024",
      "taf": "TAF ESMS 171127Z 1712/1812 24008KT 9999 SCT040"
    },
    {
      "icao": "ESSA",
      "alert": "OK",
      "vis_m": 9999,
      "fzfg": false,
      "metar_trigger": false,
      "taf_trigger": false,
      "metar": "METAR ESSA 171220Z 35007KT 330V040 CAVOK 13/00 Q1024 NOSIG",
      "taf": "TAF ESSA 171130Z 1712/1812 02008KT CAVOK"
    },
    {
      "icao": "EYKA",
      "alert": "OK",
      "vis_m": 9999,
      "fzfg": false,
      "metar_trigger": false,
      "taf_trigger": false,
      "metar": "METAR EYKA 171220Z 32006KT 270V010 9999 SCT019 BKN024 OVC029 12/07 Q1018",
      "taf": "TAF EYKA 171100Z 1712/1812 VRB04KT 9000 BKN020"
    },
    {
      "icao": "EYPA",
      "alert": "OK",
      "vis_m": 9999,
      "fzfg": false,
      "metar_trigger": false,
      "taf_trigger": false,
      "metar": "METAR EYPA 171220Z 31005KT 240V010 9999 FEW007 08/05 Q1021",
      "taf": "TAF EYPA 171100Z 1712/1812 VRB04KT 9000 NSC"
    },
    {
      "icao": "EYVI",
      "alert": "OK",
      "vis_m": 9999,
      "fzfg": false,
      "metar_trigger": false,
      "taf_trigger": false,
      "metar": "METAR EYVI 171220Z 29008KT 260V320 9999 BKN006 BKN011 OVC029 09/08 Q1017 NOSIG",
      "taf": "TAF EYVI 171110Z 1712/1812 33010KT 5000 BR OVC002"
    },
    {
      "icao": "GCFV",
      "alert": "OK",
      "vis_m": 8000,
      "fzfg": false,
      "metar_trigger": false,
      "taf_trigger": false,
      "metar": "METAR GCFV 171230Z 03010KT 8000 FEW018 20/16 Q1015",
      "taf": "TAF GCFV 170800Z 1709/1809 05010KT 8000 NSC TX25/1714Z TN18/1806Z"
    },
    {
      "icao": "GCLP",
      "alert": "OK",
      "vis_m": 9999,
      "fzfg": false,
      "metar_trigger": false,
      "taf_trigger": false,
      "metar": "METAR GCLP 171230Z 03017KT 9999 FEW017 21/16 Q1015 NOSIG",
      "taf": "TAF GCLP 170800Z 1709/1809 02014KT 8000 NSC TX24/1714Z TN20/1806Z"
    },
    {
      "icao": "GCTS",
      "alert": "OK",
      "vis_m": 9999,
      "fzfg": false,
      "metar_trigger": false,
      "taf_trigger": false,
      "metar": "METAR GCTS 171230Z 09017KT CAVOK 24/15 Q1014 NOSIG",
      "taf": "TAF GCTS 170800Z 1709/1809 09018KT 8000 NSC TX26/1714Z TN19/1806Z"
    },
    {
      "icao": "GMAD",
      "alert": "OK",
      "vis_m": 8000,
      "fzfg": false,
      "metar_trigger": false,
      "taf_trigger": false,
      "metar": "METAR GMAD 171230Z 26009KT 220V300 8000 NSC 31/13 Q1013 NOSIG",
      "taf": "TAF GMAD 171100Z 1712/1818 26008KT CAVOK"
    },
    {
      "icao": "GMMN",
      "alert": "OK",
      "vis_m": 9999,
      "fzfg": false,
      "metar_trigger": false,
      "taf_trigger": false,
      "metar": "METAR GMMN 171230Z VRB03KT CAVOK 31/17 Q1015 NOSIG",
      "taf": "TAF GMMN 171100Z 1712/1818 34004KT CAVOK"
    },
    {
      "icao": "GMMX",
      "alert": "OK",
      "vis_m": 9999,
      "fzfg": false,
      "metar_trigger": false,
      "taf_trigger": false,
      "metar": "METAR GMMX 171230Z VRB03KT CAVOK 30/12 Q1016 NOSIG",
      "taf": "TAF GMMX 171100Z 1712/1818 36006KT CAVOK"
    },
    {
      "icao": "HEGN",
      "alert": "OK",
      "vis_m": null,
      "fzfg": false,
      "metar_trigger": false,
      "taf_trigger": false,
      "metar": "",
      "taf": "TAF HEGN 171100Z 1712/1818 12012G22KT 6000 SCT025"
    },
    {
      "icao": "HEMA",
      "alert": "OK",
      "vis_m": null,
      "fzfg": false,
      "metar_trigger": false,
      "taf_trigger": false,
      "metar": "",
      "taf": "TAF HEMA 171100Z 1712/1818 12012G22KT 6000 SCT025"
    },
    {
      "icao": "HESH",
      "alert": "OK",
      "vis_m": null,
      "fzfg": false,
      "metar_trigger": false,
      "taf_trigger": false,
      "metar": "",
      "taf": "TAF HESH 171100Z 1712/1818 18012G22KT 6000 SCT025"
    },
    {
      "icao": "HESX",
      "alert": "OK",
      "vis_m": null,
      "fzfg": false,
      "metar_trigger": false,
      "taf_trigger": false,
      "metar": "",
      "taf": "TAF HESX 171100Z 1712/1818 26014KT 6000 NSC"
    },
    {
      "icao": "LATI",
      "alert": "OK",
      "vis_m": 9999,
      "fzfg": false,
      "metar_trigger": false,
      "taf_trigger": false,
      "metar": "METAR LATI 171220Z 32010KT 300V010 9999 FEW080 28/10 Q1009 NOSIG",
      "taf": "TAF LATI 171100Z 1712/1812 34012KT CAVOK TX28/1712Z TN12/1804Z"
    },
    {
      "icao": "LBPD",
      "alert": "OK",
      "vis_m": 9999,
      "fzfg": false,
      "metar_trigger": false,
      "taf_trigger": false,
      "metar": "METAR LBPD 171230Z AUTO 10008KT 060V120 9999 FEW250/// 20/01 Q1013 NOSIG",
      "taf": "TAF LBPD 171100Z 1712/1812 VRB04KT 9999 SCT050"
    },
    {
      "icao": "LBSF",
      "alert": "OK",
      "vis_m": 9999,
      "fzfg": false,
      "metar_trigger": false,
      "taf_trigger": false,
      "metar": "METAR LBSF 171230Z 03009KT 350V090 9999 FEW073 22/05 Q1013 NOSIG",
      "taf": "TAF LBSF 171100Z 1712/1812 03012KT 9999 SCT050"
    },
    {
      "icao": "LBWN",
      "alert": "OK",
      "vis_m": 9999,
      "fzfg": false,
      "metar_trigger": false,
      "taf_trigger": false,
      "metar": "METAR LBWN 171230Z 12010KT 070V160 CAVOK 18/04 Q1015 NOSIG",
      "taf": "TAF LBWN 171100Z 1712/1812 08014KT CAVOK"
    },
    {
      "icao": "LCLK",
      "alert": "OK",
      "vis_m": 9999,
      "fzfg": false,
      "metar_trigger": false,
      "taf_trigger": false,
      "metar": "METAR LCLK 171230Z 05016KT 9999 FEW040 23/17 Q1003 NOSIG",
      "taf": "TAF LCLK 171130Z 1712/1812 05014KT 9999 FEW040TCU"
    },
    {
      "icao": "LCPH",
      "alert": "OK",
      "vis_m": 9000,
      "fzfg": false,
      "metar_trigger": false,
      "taf_trigger": false,
      "metar": "METAR LCPH 171230Z 15018KT 9000 NSC 23/16 Q1002 BECMG 5000 DU",
      "taf": "TAF LCPH 171130Z 1712/1812 14020KT 9999 FEW045"
    },
    {
      "icao": "LEAL",
      "alert": "OK",
      "vis_m": 9999,
      "fzfg": false,
      "metar_trigger": false,
      "taf_trigger": false,
      "metar": "METAR LEAL 171230Z 09010KT CAVOK 22/13 Q1019 NOSIG",
      "taf": ""
    },
    {
      "icao": "LEBB",
      "alert": "OK",
      "vis_m": 9999,
      "fzfg": false,
      "metar_trigger": false,
      "taf_trigger": false,
      "metar": "METAR LEBB 171230Z 28011KT 230V300 CAVOK 19/15 Q1020 NOSIG",
      "taf": "TAF LEBB 171100Z 1712/1812 31009KT 9999 SCT030 TX21/1712Z TN11/1806Z"
    },
    {
      "icao": "LEBL",
      "alert": "OK",
      "vis_m": 9999,
      "fzfg": false,
      "metar_trigger": false,
      "taf_trigger": false,
      "metar": "METAR LEBL 171230Z 19007KT CAVOK 19/12 Q1020 NOSIG",
      "taf": "TAF LEBL 171100Z 1712/1812 21010KT CAVOK TX22/1812Z TN12/1805Z"
    },
    {
      "icao": "LECH",
      "alert": "OK",
      "vis_m": 9999,
      "fzfg": false,
      "metar_trigger": false,
      "taf_trigger": false,
      "metar": "METAR LECH 171230Z AUTO 12005KT 060V190 CAVOK 22/11 Q1020",
      "taf": "TAF LECH 171100Z 1712/1812 12009KT CAVOK TX25/1713Z TN11/1805Z"
    },
    {
      "icao": "LEMD",
      "alert": "OK",
      "vis_m": 9999,
      "fzfg": false,
      "metar_trigger": false,
      "taf_trigger": false,
      "metar": "METAR LEMD 171230Z 18004KT CAVOK 24/05 Q1020 NOSIG",
      "taf": "TAF LEMD 171100Z 1712/1818 VRB04KT CAVOK TX27/1716Z TN09/1806Z"
    },
    {
      "icao": "LEMG",
      "alert": "OK",
      "vis_m": 9999,
      "fzfg": false,
      "metar_trigger": false,
      "taf_trigger": false,
      "metar": "METAR LEMG 171230Z 13007KT 100V170 CAVOK 21/10 Q1019 NOSIG",
      "taf": "TAF LEMG 171100Z 1712/1812 13010KT CAVOK TX23/1715Z TN12/1806Z"
    },
    {
      "icao": "LEVC",
      "alert": "OK",
      "vis_m": 9999,
      "fzfg": false,
      "metar_trigger": false,
      "taf_trigger": false,
      "metar": "METAR LEVC 171230Z 08008KT 040V140 9999 FEW040 24/12 Q1019 NOSIG",
      "taf": "TAF LEVC 171100Z 1712/1812 10009KT CAVOK TX25/1712Z TN12/1805Z"
    },
    {
      "icao": "LEXJ",
      "alert": "OK",
      "vis_m": 9999,
      "fzfg": false,
      "metar_trigger": false,
      "taf_trigger": false,
      "metar": "METAR LEXJ 171230Z 07004KT 020V130 9999 FEW008 BKN014 16/13 Q1021",
      "taf": ""
    },
    {
      "icao": "LEZG",
      "alert": "OK",
      "vis_m": 9999,
      "fzfg": false,
      "metar_trigger": false,
      "taf_trigger": false,
      "metar": "METAR LEZG 171230Z 06003KT CAVOK 24/11 Q1019 NOSIG",
      "taf": "TAF LEZG 171100Z 1712/1812 VRB04KT CAVOK TX29/1714Z TN14/1805Z"
    },
    {
      "icao": "LEZL",
      "alert": "OK",
      "vis_m": 9999,
      "fzfg": false,
      "metar_trigger": false,
      "taf_trigger": false,
      "metar": "METAR LEZL 171230Z 09003KT CAVOK 29/11 Q1016 NOSIG",
      "taf": "TAF LEZL 170800Z 1709/1809 08005KT CAVOK TX31/1715Z TN14/1806Z"
    },
    {
      "icao": "LFBD",
      "alert": "OK",
      "vis_m": 9999,
      "fzfg": false,
      "metar_trigger": false,
      "taf_trigger": false,
      "metar": "METAR LFBD 171230Z AUTO 11005KT 050V190 CAVOK 25/10 Q1019 NOSIG",
      "taf": "TAF LFBD 171100Z 1712/1818 19005KT CAVOK TX26/1715Z TN11/1805Z"
    },
    {
      "icao": "LFLL",
      "alert": "OK",
      "vis_m": 9999,
      "fzfg": false,
      "metar_trigger": false,
      "taf_trigger": false,
      "metar": "METAR LFLL 171230Z 35005KT 280V060 9999 FEW043 BKN260 21/10 Q1020 NOSIG",
      "taf": "TAF LFLL 171100Z 1712/1818 35006KT CAVOK"
    },
    {
      "icao": "LFLS",
      "alert": "OK",
      "vis_m": 9999,
      "fzfg": false,
      "metar_trigger": false,
      "taf_trigger": false,
      "metar": "METAR LFLS 171230Z AUTO 03005KT 330V080 CAVOK 20/10 Q1020 NOSIG",
      "taf": "TAF LFLS 170800Z 1709/1809 VRB02KT CAVOK"
    },
    {
      "icao": "LFMN",
      "alert": "OK",
      "vis_m": 9999,
      "fzfg": false,
      "metar_trigger": false,
      "taf_trigger": false,
      "metar": "METAR LFMN 171230Z 14004KT CAVOK 20/15 Q1018 NOSIG",
      "taf": "TAF LFMN 170800Z 1709/1815 16005KT CAVOK"
    },
    {
      "icao": "LFOB",
      "alert": "OK",
      "vis_m": 9999,
      "fzfg": false,
      "metar_trigger": false,
      "taf_trigger": false,
      "metar": "METAR LFOB 171230Z AUTO 22006KT 190V280 9999 SCT041 BKN064 OVC080 18/10 Q1021 TEMPO SCT035TCU",
      "taf": "TAF LFOB 171100Z 1712/1812 21005KT CAVOK"
    },
    {
      "icao": "LFPO",
      "alert": "OK",
      "vis_m": 9999,
      "fzfg": false,
      "metar_trigger": false,
      "taf_trigger": false,
      "metar": "METAR LFPO 171230Z VRB04KT CAVOK 21/07 Q1021 NOSIG",
      "taf": "TAF LFPO 171100Z 1712/1818 24003KT CAVOK"
    },
    {
      "icao": "LFSB",
      "alert": "OK",
      "vis_m": 9999,
      "fzfg": false,
      "metar_trigger": false,
      "taf_trigger": false,
      "metar": "METAR LFSB 171230Z AUTO VRB02KT CAVOK 21/10 Q1020 NOSIG",
      "taf": "TAF LFSB 171112Z 1712/1812 VRB03KT 9999 FEW040 BKN250"
    },
    {
      "icao": "LGAV",
      "alert": "OK",
      "vis_m": 9999,
      "fzfg": false,
      "metar_trigger": false,
      "taf_trigger": false,
      "metar": "METAR LGAV 171220Z 02021KT 9999 FEW025 20/05 Q1007 NOSIG",
      "taf": "TAF LGAV 171100Z 1712/1812 01015KT 9999 FEW020"
    },
    {
      "icao": "LGTS",
      "alert": "OK",
      "vis_m": 9999,
      "fzfg": false,
      "metar_trigger": false,
      "taf_trigger": false,
      "metar": "METAR LGTS 171220Z 26004KT 9999 FEW025 24/10 Q1010 NOSIG",
      "taf": "TAF LGTS 171100Z 1712/1812 VRB03KT 9999 FEW025"
    },
    {
      "icao": "LHBP",
      "alert": "OK",
      "vis_m": 9999,
      "fzfg": false,
      "metar_trigger": false,
      "taf_trigger": false,
      "metar": "METAR LHBP 171230Z 31007KT 230V010 CAVOK 23/01 Q1018 NOSIG",
      "taf": "TAF LHBP 171115Z 1712/1812 34009KT CAVOK"
    },
    {
      "icao": "LHDC",
      "alert": "OK",
      "vis_m": 9999,
      "fzfg": false,
      "metar_trigger": false,
      "taf_trigger": false,
      "metar": "METAR LHDC 171215Z AUTO 01012KT CAVOK 21/02 Q1017 NOSIG",
      "taf": "TAF LHDC 171115Z 1712/1721 01009KT CAVOK"
    },
    {
      "icao": "LIBD",
      "alert": "OK",
      "vis_m": 9999,
      "fzfg": false,
      "metar_trigger": false,
      "taf_trigger": false,
      "metar": "METAR LIBD 171220Z 32011KT CAVOK 21/12 Q1014",
      "taf": "TAF LIBD 171100Z 1712/1812 34013KT CAVOK"
    },
    {
      "icao": "LIBG",
      "alert": "OK",
      "vis_m": 9999,
      "fzfg": false,
      "metar_trigger": false,
      "taf_trigger": false,
      "metar": "METAR LIBG 171150Z 34013KT CAVOK 23/13 Q1013",
      "taf": "TAF LIBG 171100Z 1712/1721 34014KT CAVOK"
    },
    {
      "icao": "LIBP",
      "alert": "OK",
      "vis_m": 9999,
      "fzfg": false,
      "metar_trigger": false,
      "taf_trigger": false,
      "metar": "METAR LIBP 171220Z AUTO 03009KT 9999 NCD 21/14 Q1017",
      "taf": "TAF LIBP 171100Z 1712/1812 01012KT CAVOK"
    },
    {
      "icao": "LIBR",
      "alert": "OK",
      "vis_m": 9999,
      "fzfg": false,
      "metar_trigger": false,
      "taf_trigger": false,
      "metar": "METAR LIBR 171220Z 32020KT CAVOK 18/15 Q1012",
      "taf": "TAF LIBR 171100Z 1712/1812 32016KT CAVOK"
    },
    {
      "icao": "LICA",
      "alert": "OK",
      "vis_m": 9999,
      "fzfg": false,
      "metar_trigger": false,
      "taf_trigger": false,
      "metar": "METAR LICA 171220Z AUTO 26009KT 9999 FEW010/// OVC032/// 18/16 Q1015",
      "taf": "TAF LICA 171100Z 1712/1812 26012KT 9999 BKN020"
    },
    {
      "icao": "LICC",
      "alert": "OK",
      "vis_m": 9999,
      "fzfg": false,
      "metar_trigger": false,
      "taf_trigger": false,
      "metar": "METAR LICC 171220Z 07008KT CAVOK 20/18 Q1013",
      "taf": "TAF LICC 171100Z 1712/1812 08010KT CAVOK"
    },
    {
      "icao": "LICJ",
      "alert": "OK",
      "vis_m": 9999,
      "fzfg": false,
      "metar_trigger": false,
      "taf_trigger": false,
      "metar": "METAR LICJ 171220Z 33008KT CAVOK 18/15 Q1016",
      "taf": "TAF LICJ 171100Z 1712/1812 33010KT CAVOK"
    },
    {
      "icao": "LIMC",
      "alert": "OK",
      "vis_m": 9999,
      "fzfg": false,
      "metar_trigger": false,
      "taf_trigger": false,
      "metar": "METAR LIMC 171220Z 09006KT 070V140 9999 SCT045 23/12 Q1019 NOSIG",
      "taf": "TAF LIMC 171100Z 1712/1818 VRB05KT 9999 SCT040"
    },
    {
      "icao": "LIME",
      "alert": "OK",
      "vis_m": 9999,
      "fzfg": false,
      "metar_trigger": false,
      "taf_trigger": false,
      "metar": "METAR LIME 171220Z 22006KT 120V280 9999 FEW040 23/11 Q1019 NOSIG",
      "taf": "TAF LIME 171100Z 1712/1812 VRB05KT 9999 SCT050"
    },
    {
      "icao": "LIMF",
      "alert": "OK",
      "vis_m": 9999,
      "fzfg": false,
      "metar_trigger": false,
      "taf_trigger": false,
      "metar": "METAR LIMF 171220Z VRB03KT 9999 FEW040 22/13 Q1019",
      "taf": "TAF LIMF 171100Z 1712/1812 VRB05KT 9999 SCT040"
    },
    {
      "icao": "LIMJ",
      "alert": "OK",
      "vis_m": 9999,
      "fzfg": false,
      "metar_trigger": false,
      "taf_trigger": false,
      "metar": "METAR LIMJ 171220Z 15003KT CAVOK 19/16 Q1017",
      "taf": "TAF LIMJ 171100Z 1712/1812 VRB05KT 9999 SCT030"
    },
    {
      "icao": "LIPE",
      "alert": "OK",
      "vis_m": 9999,
      "fzfg": false,
      "metar_trigger": false,
      "taf_trigger": false,
      "metar": "METAR LIPE 171220Z VRB02KT 9999 FEW035 22/14 Q1018",
      "taf": "TAF LIPE 171100Z 1712/1812 08010KT CAVOK"
    },
    {
      "icao": "LIPH",
      "alert": "OK",
      "vis_m": 9999,
      "fzfg": false,
      "metar_trigger": false,
      "taf_trigger": false,
      "metar": "METAR LIPH 171220Z 15005KT 110V200 CAVOK 24/10 Q1018",
      "taf": "TAF LIPH 171100Z 1712/1812 14010KT 9999 FEW060"
    },
    {
      "icao": "LIPQ",
      "alert": "OK",
      "vis_m": 9999,
      "fzfg": false,
      "metar_trigger": false,
      "taf_trigger": false,
      "metar": "METAR LIPQ 171220Z AUTO 04005KT 330V090 9999 NCD 25/08 Q1017",
      "taf": "TAF LIPQ 171100Z 1712/1812 10010KT 9999 FEW060"
    },
    {
      "icao": "LIPR",
      "alert": "OK",
      "vis_m": 9999,
      "fzfg": false,
      "metar_trigger": false,
      "taf_trigger": false,
      "metar": "METAR LIPR 171220Z AUTO 03008KT 360V060 9999 NCD 20/11 Q1018",
      "taf": "TAF LIPR 171100Z 1712/1812 02010KT CAVOK"
    },
    {
      "icao": "LIPX",
      "alert": "OK",
      "vis_m": 9999,
      "fzfg": false,
      "metar_trigger": false,
      "taf_trigger": false,
      "metar": "METAR LIPX 171220Z 11004KT 060V170 9999 FEW060 24/09 Q1018",
      "taf": "TAF LIPX 171100Z 1712/1812 10010KT 9999 FEW040"
    },
    {
      "icao": "LIPY",
      "alert": "OK",
      "vis_m": 9999,
      "fzfg": false,
      "metar_trigger": false,
      "taf_trigger": false,
      "metar": "METAR LIPY 171220Z AUTO 34009KT 9999 NCD 19/12 Q1018",
      "taf": "TAF LIPY 171100Z 1712/1812 34010KT CAVOK"
    },
    {
      "icao": "LIPZ",
      "alert": "OK",
      "vis_m": 9999,
      "fzfg": false,
      "metar_trigger": false,
      "taf_trigger": false,
      "metar": "METAR LIPZ 171220Z 14007KT CAVOK 23/09 Q1018 NOSIG",
      "taf": "TAF LIPZ 171100Z 1712/1818 15010KT CAVOK"
    },
    {
      "icao": "LIRF",
      "alert": "OK",
      "vis_m": 9999,
      "fzfg": false,
      "metar_trigger": false,
      "taf_trigger": false,
      "metar": "METAR LIRF 171220Z 27010KT 240V300 CAVOK 22/13 Q1015 NOSIG",
      "taf": "TAF LIRF 171100Z 1712/1818 28013KT CAVOK"
    },
    {
      "icao": "LIRN",
      "alert": "OK",
      "vis_m": 9999,
      "fzfg": false,
      "metar_trigger": false,
      "taf_trigger": false,
      "metar": "METAR LIRN 171220Z 06010KT 030V090 9999 FEW040 25/11 Q1014 NOSIG",
      "taf": "TAF LIRN 171100Z 1712/1812 05012KT 9999 FEW040"
    },
    {
      "icao": "LIRP",
      "alert": "OK",
      "vis_m": 9999,
      "fzfg": false,
      "metar_trigger": false,
      "taf_trigger": false,
      "metar": "METAR LIRP 171215Z 29009KT 9999 FEW040 24/13 Q1017 NOSIG",
      "taf": "TAF LIRP 171100Z 1712/1812 28012KT CAVOK"
    },
    {
      "icao": "LIRZ",
      "alert": "OK",
      "vis_m": 9999,
      "fzfg": false,
      "metar_trigger": false,
      "taf_trigger": false,
      "metar": "METAR LIRZ 171220Z AUTO 06011KT 020V080 9999 NCD 24/08 Q1016",
      "taf": "TAF LIRZ 171100Z 1712/1812 04012KT CAVOK"
    },
    {
      "icao": "LJLJ",
      "alert": "OK",
      "vis_m": 9999,
      "fzfg": false,
      "metar_trigger": false,
      "taf_trigger": false,
      "metar": "METAR LJLJ 171230Z 10005KT 070V150 9999 FEW047 SCT060 21/08 Q1019 NOSIG",
      "taf": "TAF LJLJ 171100Z 1712/1812 12005KT 9999 FEW040 SCT060"
    },
    {
      "icao": "LKMT",
      "alert": "OK",
      "vis_m": 9999,
      "fzfg": false,
      "metar_trigger": false,
      "taf_trigger": false,
      "metar": "METAR LKMT 171230Z 04007KT 350V070 9999 BKN045 17/09 Q1021 TEMPO FEW040TCU",
      "taf": "TAF LKMT 171100Z 1712/1812 02008KT 9999 FEW045"
    },
    {
      "icao": "LKPR",
      "alert": "OK",
      "vis_m": 9999,
      "fzfg": false,
      "metar_trigger": false,
      "taf_trigger": false,
      "metar": "METAR LKPR 171230Z 34010KT 290V020 CAVOK 19/04 Q1022 NOSIG",
      "taf": "TAF LKPR 171100Z 1712/1818 36008KT CAVOK"
    },
    {
      "icao": "LLBG",
      "alert": "OK",
      "vis_m": 1500,
      "fzfg": false,
      "metar_trigger": false,
      "taf_trigger": false,
      "metar": "METAR LLBG 171220Z 32008KT 1500 R08/P2000 R12/1700 R21/1400 R26/1700 R30/P2000 DU NSC 25/12 Q1004 TEMPO 1100 DU",
      "taf": "TAF LLBG 171103Z 1712/1812 30015KT 4000 DU NSC TX26/1712Z TN17/1804Z"
    },
    {
      "icao": "LMML",
      "alert": "OK",
      "vis_m": 9999,
      "fzfg": false,
      "metar_trigger": false,
      "taf_trigger": false,
      "metar": "METAR LMML 171215Z 30009KT 270V350 9999 FEW043 24/12 Q1014 NOSIG",
      "taf": "TAF LMML 171100Z 1712/1812 29009KT CAVOK"
    },
    {
      "icao": "LOWW",
      "alert": "OK",
      "vis_m": 9999,
      "fzfg": false,
      "metar_trigger": false,
      "taf_trigger": false,
      "metar": "METAR LOWW 171220Z VRB05KT CAVOK 21/06 Q1020 NOSIG",
      "taf": "TAF LOWW 171115Z 1712/1818 35005KT 9999 FEW050 TX21/1713Z TN08/1804Z"
    },
    {
      "icao": "LPFR",
      "alert": "OK",
      "vis_m": 9999,
      "fzfg": false,
      "metar_trigger": false,
      "taf_trigger": false,
      "metar": "METAR LPFR 171230Z 11011KT CAVOK 25/10 Q1017",
      "taf": "TAF LPFR 171100Z 1712/1812 10013KT CAVOK"
    },
    {
      "icao": "LPMA",
      "alert": "OK",
      "vis_m": 9999,
      "fzfg": false,
      "metar_trigger": false,
      "taf_trigger": false,
      "metar": "METAR LPMA 171230Z 04013KT 020V080 9999 SCT016 19/13 Q1019",
      "taf": "TAF LPMA 171100Z 1712/1812 02013KT 9999 SCT016"
    },
    {
      "icao": "LPPR",
      "alert": "OK",
      "vis_m": 9999,
      "fzfg": false,
      "metar_trigger": false,
      "taf_trigger": false,
      "metar": "METAR LPPR 171230Z 28007KT CAVOK 16/11 Q1020",
      "taf": "TAF LPPR 171100Z 1712/1812 29007KT 9999 SCT015"
    },
    {
      "icao": "LPPS",
      "alert": "OK",
      "vis_m": 9999,
      "fzfg": false,
      "metar_trigger": false,
      "taf_trigger": false,
      "metar": "METAR LPPS 171230Z 07011KT 040V100 9999 FEW015 SCT030 18/12 Q1019",
      "taf": "TAF LPPS 171100Z 1712/1818 06012KT 9999 FEW015 BKN030"
    },
    {
      "icao": "LPPT",
      "alert": "OK",
      "vis_m": 9999,
      "fzfg": false,
      "metar_trigger": false,
      "taf_trigger": false,
      "metar": "METAR LPPT 171230Z 09006G24KT 020V140 CAVOK 22/13 Q1018",
      "taf": "TAF LPPT 171100Z 1712/1818 07005KT CAVOK"
    },
    {
      "icao": "LQBK",
      "alert": "OK",
      "vis_m": 9999,
      "fzfg": false,
      "metar_trigger": false,
      "taf_trigger": false,
      "metar": "METAR LQBK 171230Z 33010KT 310V010 9999 BKN047 22/09 Q1018 NOSIG",
      "taf": "TAF LQBK 171100Z 1712/1812 VRB02KT 9999 SCT040 TX23/1714Z TN08/1804Z"
    },
    {
      "icao": "LQSA",
      "alert": "OK",
      "vis_m": 9999,
      "fzfg": false,
      "metar_trigger": false,
      "taf_trigger": false,
      "metar": "METAR LQSA 171230Z 21003KT 160V230 9999 SCT050 18/06 Q1017 NOSIG",
      "taf": "TAF LQSA 171100Z 1712/1812 30005KT 9999 SCT050 TX20/1714Z TN08/1804Z"
    },
    {
      "icao": "LQTZ",
      "alert": "OK",
      "vis_m": 9999,
      "fzfg": false,
      "metar_trigger": false,
      "taf_trigger": false,
      "metar": "METAR LQTZ 171230Z 36009KT 9999 FEW065 21/05 Q1018",
      "taf": "TAF LQTZ 171100Z 1712/1812 33005KT 9999 SCT055 TX22/1713Z TN09/1804Z"
    },
    {
      "icao": "LRBC",
      "alert": "OK",
      "vis_m": 9999,
      "fzfg": false,
      "metar_trigger": false,
      "taf_trigger": false,
      "metar": "METAR LRBC 171230Z 35006KT 310V020 9999 BKN014 BKN039 14/10 Q1017",
      "taf": "TAF LRBC 171100Z 1712/1721 36010KT 9999 SCT015 BKN035"
    },
    {
      "icao": "LRBS",
      "alert": "OK",
      "vis_m": 9999,
      "fzfg": false,
      "metar_trigger": false,
      "taf_trigger": false,
      "metar": "METAR LRBS 171230Z VRB04KT CAVOK 22/04 Q1015 NOSIG",
      "taf": "TAF LRBS 171100Z 1712/1812 08004KT CAVOK"
    },
    {
      "icao": "LRBV",
      "alert": "OK",
      "vis_m": 1900,
      "fzfg": false,
      "metar_trigger": false,
      "taf_trigger": false,
      "metar": "METAR LRBV 171230Z VRB07G22KT 1900 TS +SHRA SQ FEW020 SCT023CB BKN038 BKN063 12/10 Q1016",
      "taf": "TAF LRBV 171100Z 1712/1721 VRB04KT 9999 BKN050"
    },
    {
      "icao": "LRCL",
      "alert": "OK",
      "vis_m": 9999,
      "fzfg": false,
      "metar_trigger": false,
      "taf_trigger": false,
      "metar": "METAR LRCL 171230Z 32010KT 290V010 9999 SCT043 20/04 Q1016",
      "taf": "TAF LRCL 171100Z 1712/1721 32010KT CAVOK"
    },
    {
      "icao": "LRCV",
      "alert": "OK",
      "vis_m": 9999,
      "fzfg": false,
      "metar_trigger": false,
      "taf_trigger": false,
      "metar": "METAR LRCV 171230Z 22005KT 150V270 CAVOK 21/10 Q1014",
      "taf": "TAF LRCV 171100Z 1712/1721 VRB04KT CAVOK"
    },
    {
      "icao": "LRIA",
      "alert": "OK",
      "vis_m": 9999,
      "fzfg": false,
      "metar_trigger": false,
      "taf_trigger": false,
      "metar": "METAR LRIA 171230Z 29003KT 210V330 9999 FEW010 BKN017 OVC019 12/09 Q1017",
      "taf": "TAF LRIA 171100Z 1712/1721 VRB04KT 9999 SCT035"
    },
    {
      "icao": "LROP",
      "alert": "OK",
      "vis_m": 9999,
      "fzfg": false,
      "metar_trigger": false,
      "taf_trigger": false,
      "metar": "METAR LROP 171230Z 08004KT 350V160 CAVOK 21/M03 Q1015 NOSIG",
      "taf": "TAF LROP 171100Z 1712/1812 08004KT CAVOK"
    },
    {
      "icao": "LRSB",
      "alert": "OK",
      "vis_m": 9999,
      "fzfg": false,
      "metar_trigger": false,
      "taf_trigger": false,
      "metar": "METAR LRSB 171230Z VRB03KT 9999 FEW030 SCT045 17/10 Q1016",
      "taf": "TAF LRSB 171100Z 1712/1812 34008KT 9999 BKN035"
    },
    {
      "icao": "LRSM",
      "alert": "OK",
      "vis_m": 9999,
      "fzfg": false,
      "metar_trigger": false,
      "taf_trigger": false,
      "metar": "METAR LRSM 171230Z 32015KT CAVOK 22/01 Q1016",
      "taf": "TAF LRSM 171100Z 1712/1721 34010KT CAVOK"
    },
    {
      "icao": "LRSV",
      "alert": "OK",
      "vis_m": 9999,
      "fzfg": false,
      "metar_trigger": false,
      "taf_trigger": false,
      "metar": "METAR LRSV 171230Z VRB03KT 9999 FEW045 14/07 Q1017",
      "taf": "TAF LRSV 171100Z 1712/1721 VRB04KT 9999 SCT045"
    },
    {
      "icao": "LRTM",
      "alert": "OK",
      "vis_m": 9999,
      "fzfg": false,
      "metar_trigger": false,
      "taf_trigger": false,
      "metar": "METAR LRTM 171230Z VRB03KT 9999 FEW025 17/09 Q1016",
      "taf": "TAF LRTM 171100Z 1712/1721 VRB04KT 9999 BKN040"
    },
    {
      "icao": "LRTR",
      "alert": "OK",
      "vis_m": 9999,
      "fzfg": false,
      "metar_trigger": false,
      "taf_trigger": false,
      "metar": "METAR LRTR 171230Z 35012KT 320V030 CAVOK 21/06 Q1017",
      "taf": "TAF LRTR 171100Z 1712/1812 36012KT CAVOK"
    },
    {
      "icao": "LTAC",
      "alert": "OK",
      "vis_m": 9999,
      "fzfg": false,
      "metar_trigger": false,
      "taf_trigger": false,
      "metar": "METAR LTAC 171220Z 09014KT 9999 FEW040 BKN180 20/M00 Q1010 NOSIG RMK RWY21C 09014KT RWY03L 09013KT RWY21R 09014KT RWY03R 07012KT RWY21L 09013KT",
      "taf": "TAF LTAC 171040Z 1712/1812 05009KT 9999 SCT040 SCT100"
    },
    {
      "icao": "LTFM",
      "alert": "OK",
      "vis_m": 9999,
      "fzfg": false,
      "metar_trigger": false,
      "taf_trigger": false,
      "metar": "METAR LTFM 171220Z 04017KT 9999 BKN016 11/08 Q1013 NOSIG RMK RWY17L 04013KT RWY34L 03014KT RWY16R 04015KT RWY36 04017KT RWY18 05013KT",
      "taf": "TAF LTFM 171040Z 1712/1818 02020KT 9999 BKN016"
    },
    {
      "icao": "LUKK",
      "alert": "OK",
      "vis_m": 9999,
      "fzfg": false,
      "metar_trigger": false,
      "taf_trigger": false,
      "metar": "METAR LUKK 171230Z 05010KT 9999 FEW049CB BKN099 15/07 Q1016 TEMPO SCT030CB",
      "taf": "TAF LUKK 171032Z 1712/1812 VRB06KT 9999 SCT040"
    },
    {
      "icao": "LWOH",
      "alert": "OK",
      "vis_m": 9999,
      "fzfg": false,
      "metar_trigger": false,
      "taf_trigger": false,
      "metar": "METAR LWOH 171220Z 34009KT 300V070 9999 SCT040 SCT080 23/08 Q1012",
      "taf": "TAF LWOH 171135Z 1712/1812 36010KT 9999 SCT050"
    },
    {
      "icao": "LWSK",
      "alert": "OK",
      "vis_m": 9999,
      "fzfg": false,
      "metar_trigger": false,
      "taf_trigger": false,
      "metar": "METAR LWSK 171220Z 01009KT 310V060 9999 FEW050 26/07 Q1012 NOSIG",
      "taf": "TAF LWSK 171135Z 1712/1812 01014KT CAVOK"
    },
    {
      "icao": "LYBE",
      "alert": "OK",
      "vis_m": 9999,
      "fzfg": false,
      "metar_trigger": false,
      "taf_trigger": false,
      "metar": "METAR LYBE 171230Z 34011KT 310V010 CAVOK 21/09 Q1017 NOSIG",
      "taf": "TAF LYBE 171100Z 1712/1812 35009KT 9999 SCT045 TX23/1713Z TN08/1804Z"
    },
    {
      "icao": "LYNI",
      "alert": "OK",
      "vis_m": 9999,
      "fzfg": false,
      "metar_trigger": false,
      "taf_trigger": false,
      "metar": "METAR LYNI 171230Z 33018G28KT 9999 FEW043TCU SCT050 22/10 Q1014 TEMPO TS FEW040CB SCT050",
      "taf": "TAF LYNI 171100Z 1712/1812 32018KT 9999 SCT050 TX23/1712Z TN10/1804Z"
    },
    {
      "icao": "LYPG",
      "alert": "OK",
      "vis_m": 9999,
      "fzfg": false,
      "metar_trigger": false,
      "taf_trigger": false,
      "metar": "METAR LYPG 171230Z 34014KT 310V020 CAVOK 28/05 Q1011 NOSIG",
      "taf": "TAF LYPG 171100Z 1712/1812 36015KT CAVOK TX28/1713Z TN19/1804Z"
    },
    {
      "icao": "LZIB",
      "alert": "OK",
      "vis_m": 9999,
      "fzfg": false,
      "metar_trigger": false,
      "taf_trigger": false,
      "metar": "METAR LZIB 171230Z 34010KT 290V020 CAVOK 21/04 Q1019 NOSIG",
      "taf": "TAF LZIB 171115Z 1712/1812 32010KT CAVOK"
    },
    {
      "icao": "LZKZ",
      "alert": "OK",
      "vis_m": 9999,
      "fzfg": false,
      "metar_trigger": false,
      "taf_trigger": false,
      "metar": "METAR LZKZ 171230Z 02013KT CAVOK 18/03 Q1018 NOSIG",
      "taf": "TAF LZKZ 171115Z 1712/1812 02009KT CAVOK"
    },
    {
      "icao": "LZTT",
      "alert": "OK",
      "vis_m": 9999,
      "fzfg": false,
      "metar_trigger": false,
      "taf_trigger": false,
      "metar": "METAR LZTT 171230Z 35011KT 320V020 9999 FEW046 BKN066 15/01 Q1019 NOSIG",
      "taf": "TAF LZTT 171115Z 1712/1812 07007KT 9999 BKN050"
    },
    {
      "icao": "OEJN",
      "alert": "OK",
      "vis_m": 500,
      "fzfg": false,
      "metar_trigger": false,
      "taf_trigger": false,
      "metar": "SPECI OEJN 171214Z COR 18018KT 0500 BLDU NSC 38/13 Q1004 TEMPO 0300",
      "taf": "TAF OEJN 171100Z 1712/1818 19022KT 7000 FEW040"
    },
    {
      "icao": "OEMA",
      "alert": "OK",
      "vis_m": 9999,
      "fzfg": false,
      "metar_trigger": false,
      "taf_trigger": false,
      "metar": "METAR OEMA 171200Z 22007KT 9999 SCT040 35/10 Q1010 NOSIG",
      "taf": "TAF OEMA 171100Z 1712/1818 23015KT 7000 SCT040"
    },
    {
      "icao": "OJAI",
      "alert": "OK",
      "vis_m": null,
      "fzfg": false,
      "metar_trigger": false,
      "taf_trigger": false,
      "metar": "",
      "taf": "TAF OJAI 171047Z 1712/1818 12010KT 5000 HZ SCT045"
    },
    {
      "icao": "OMAA",
      "alert": "OK",
      "vis_m": null,
      "fzfg": false,
      "metar_trigger": false,
      "taf_trigger": false,
      "metar": "",
      "taf": ""
    },
    {
      "icao": "OMDB",
      "alert": "OK",
      "vis_m": null,
      "fzfg": false,
      "metar_trigger": false,
      "taf_trigger": false,
      "metar": "",
      "taf": ""
    },
    {
      "icao": "UAAA",
      "alert": "OK",
      "vis_m": 9999,
      "fzfg": false,
      "metar_trigger": false,
      "taf_trigger": false,
      "metar": "METAR UAAA 171230Z 19005MPS 9999 -SHRA BKN050CB OVC100 10/04 Q1022 NOSIG",
      "taf": "TAF UAAA 171103Z 1712/1812 24003MPS 6000 BKN020CB OVC050 TX12/1809Z TN04/1801Z"
    },
    {
      "icao": "UBBB",
      "alert": "OK",
      "vis_m": 9999,
      "fzfg": false,
      "metar_trigger": false,
      "taf_trigger": false,
      "metar": "METAR UBBB 171230Z 18018KT CAVOK 16/09 Q1020 NOSIG",
      "taf": "TAF UBBB 171052Z 1712/1812 18012KT 9999 SCT025 TX15/1712Z TN09/1801Z"
    },
    {
      "icao": "UDSG",
      "alert": "OK",
      "vis_m": 9999,
      "fzfg": false,
      "metar_trigger": false,
      "taf_trigger": false,
      "metar": "METAR UDSG 171230Z 26007KT 9999 NSC 14/M05 Q1018 NOSIG",
      "taf": "TAF UDSG 171058Z 1712/1812 VRB06KT 9999 FEW050"
    },
    {
      "icao": "UDYZ",
      "alert": "OK",
      "vis_m": 9999,
      "fzfg": false,
      "metar_trigger": false,
      "taf_trigger": false,
      "metar": "METAR UDYZ 171230Z 24004KT 190V290 9999 NSC 18/M01 Q1017 NOSIG",
      "taf": "TAF UDYZ 171100Z 1712/1812 VRB06KT 9999 FEW050"
    },
    {
      "icao": "UGKO",
      "alert": "OK",
      "vis_m": 9999,
      "fzfg": false,
      "metar_trigger": false,
      "taf_trigger": false,
      "metar": "METAR UGKO 171230Z 08020G30KT CAVOK 23/03 Q1012 NOSIG",
      "taf": "TAF UGKO 171100Z 1712/1812 08019G29KT CAVOK TX24/1712Z TN14/1803Z"
    }
  ]
}