{
  "ts_utc": "2026-06-13T14:21:38Z",
  "threshold_m": 150,
  "source": "stations_override.txt (ICAO list) + aviationweather.gov (METAR/TAF raw)",
  "station_count": 159,
  "stations": [
    {
      "icao": "BIKF",
      "alert": "OK",
      "vis_m": 9999,
      "fzfg": false,
      "metar_trigger": false,
      "taf_trigger": false,
      "metar": "METAR BIKF 131400Z 15020KT 9999 BKN012 13/09 Q1021",
      "taf": "TAF BIKF 131356Z 1315/1415 14020G30KT 9999 SCT020 TX14/1415Z TN06/1404Z"
    },
    {
      "icao": "BKPR",
      "alert": "OK",
      "vis_m": 9999,
      "fzfg": false,
      "metar_trigger": false,
      "taf_trigger": false,
      "metar": "METAR BKPR 131400Z 33007KT 290V350 9999 FEW050 22/08 Q1020 NOSIG",
      "taf": "TAF BKPR 131130Z 1312/1412 02009KT 9999 FEW050"
    },
    {
      "icao": "EBCI",
      "alert": "OK",
      "vis_m": 9999,
      "fzfg": false,
      "metar_trigger": false,
      "taf_trigger": false,
      "metar": "METAR EBCI 131350Z 25012KT 220V280 9999 FEW033 BKN045 19/11 Q1021 NOSIG",
      "taf": "TAF EBCI 131120Z 1312/1418 27013KT 9999 SCT030"
    },
    {
      "icao": "EDDB",
      "alert": "OK",
      "vis_m": 9999,
      "fzfg": false,
      "metar_trigger": false,
      "taf_trigger": false,
      "metar": "METAR EDDB 131350Z AUTO 25012KT 220V290 9999 FEW047 22/09 Q1011 TEMPO 29015G25KT TSRA",
      "taf": "TAF EDDB 131100Z 1312/1412 28015G30KT 9999 SCT035"
    },
    {
      "icao": "EDDH",
      "alert": "OK",
      "vis_m": 9999,
      "fzfg": false,
      "metar_trigger": false,
      "taf_trigger": false,
      "metar": "METAR EDDH 131350Z AUTO 27014KT 230V310 9999 VCSH FEW025 SCT045 FEW///TCU 15/10 Q1012 RESHRA TEMPO 28020G35KT 4000 SHRA BKN015CB",
      "taf": "TAF EDDH 131100Z 1312/1418 25015G25KT 9999 SCT030"
    },
    {
      "icao": "EDDK",
      "alert": "OK",
      "vis_m": 9999,
      "fzfg": false,
      "metar_trigger": false,
      "taf_trigger": false,
      "metar": "METAR EDDK 131350Z AUTO 27017KT 240V300 CAVOK 21/10 Q1019 TEMPO 29020G30KT",
      "taf": "TAF EDDK 131100Z 1312/1418 28015G25KT 9999 SCT040"
    },
    {
      "icao": "EDDN",
      "alert": "OK",
      "vis_m": 9999,
      "fzfg": false,
      "metar_trigger": false,
      "taf_trigger": false,
      "metar": "METAR EDDN 131350Z AUTO 27020KT 240V300 CAVOK 24/09 Q1017 NOSIG",
      "taf": "TAF EDDN 131100Z 1312/1412 27015G30KT CAVOK"
    },
    {
      "icao": "EDDS",
      "alert": "OK",
      "vis_m": 9999,
      "fzfg": false,
      "metar_trigger": false,
      "taf_trigger": false,
      "metar": "METAR EDDS 131350Z AUTO 27016KT 220V310 CAVOK 27/08 Q1018 NOSIG",
      "taf": "TAF EDDS 131100Z 1312/1412 26015G25KT 9999 SCT040"
    },
    {
      "icao": "EDFH",
      "alert": "OK",
      "vis_m": 9999,
      "fzfg": false,
      "metar_trigger": false,
      "taf_trigger": false,
      "metar": "METAR EDFH 131350Z 28013KT 250V320 9999 FEW045 20/09 Q1020",
      "taf": "TAF EDFH 131100Z 1312/1412 27014KT 9999 SCT025"
    },
    {
      "icao": "EDJA",
      "alert": "OK",
      "vis_m": 9999,
      "fzfg": false,
      "metar_trigger": false,
      "taf_trigger": false,
      "metar": "METAR EDJA 131350Z 25024G35KT 9999 FEW055 24/12 Q1021",
      "taf": "TAF EDJA 131100Z 1312/1321 25020G30KT 9999 FEW050"
    },
    {
      "icao": "EDLW",
      "alert": "OK",
      "vis_m": 9999,
      "fzfg": false,
      "metar_trigger": false,
      "taf_trigger": false,
      "metar": "METAR EDLW 131350Z 26011G22KT 210V310 CAVOK 19/08 Q1018",
      "taf": "TAF EDLW 131100Z 1312/1412 26015G25KT 9999 SCT030"
    },
    {
      "icao": "EDNY",
      "alert": "OK",
      "vis_m": 9999,
      "fzfg": false,
      "metar_trigger": false,
      "taf_trigger": false,
      "metar": "METAR EDNY 131350Z 26010KT 230V310 CAVOK 26/12 Q1021",
      "taf": "TAF EDNY 131100Z 1312/1321 25010KT 9999 FEW040"
    },
    {
      "icao": "EDSB",
      "alert": "OK",
      "vis_m": 9999,
      "fzfg": false,
      "metar_trigger": false,
      "taf_trigger": false,
      "metar": "METAR EDSB 131350Z 26009KT 210V300 CAVOK 26/11 Q1019",
      "taf": "TAF EDSB 131100Z 1312/1412 25010KT CAVOK"
    },
    {
      "icao": "EETN",
      "alert": "OK",
      "vis_m": 9999,
      "fzfg": false,
      "metar_trigger": false,
      "taf_trigger": false,
      "metar": "METAR EETN 131420Z 31007KT 9999 -RA NSC 12/10 Q1008 TEMPO FEW030CB",
      "taf": "TAF EETN 131130Z 1312/1412 34008KT 9999 BKN045"
    },
    {
      "icao": "EFTU",
      "alert": "OK",
      "vis_m": 9999,
      "fzfg": false,
      "metar_trigger": false,
      "taf_trigger": false,
      "metar": "METAR EFTU 131350Z AUTO 10009KT CAVOK 18/06 Q1008",
      "taf": "TAF EFTU 131126Z 1312/1412 16005KT CAVOK"
    },
    {
      "icao": "EGBB",
      "alert": "OK",
      "vis_m": 9999,
      "fzfg": false,
      "metar_trigger": false,
      "taf_trigger": false,
      "metar": "METAR EGBB 131350Z 29011KT 260V320 9999 BKN045 17/07 Q1021",
      "taf": "TAF EGBB 131056Z 1312/1412 30012KT 9999 SCT045"
    },
    {
      "icao": "EGGP",
      "alert": "OK",
      "vis_m": 9999,
      "fzfg": false,
      "metar_trigger": false,
      "taf_trigger": false,
      "metar": "METAR EGGP 131350Z 28020KT 9999 SCT030 BKN040 16/08 Q1022",
      "taf": "TAF EGGP 131101Z 1312/1412 28020G30KT 9999 SCT025"
    },
    {
      "icao": "EGGW",
      "alert": "OK",
      "vis_m": 9999,
      "fzfg": false,
      "metar_trigger": false,
      "taf_trigger": false,
      "metar": "METAR EGGW 131350Z AUTO 29014KT 9999 SCT043 19/08 Q1021",
      "taf": ""
    },
    {
      "icao": "EGKK",
      "alert": "OK",
      "vis_m": 9999,
      "fzfg": false,
      "metar_trigger": false,
      "taf_trigger": false,
      "metar": "METAR EGKK 131350Z 30012KT 250V320 CAVOK 22/08 Q1021",
      "taf": "TAF EGKK 131053Z 1312/1418 29014KT 9999 FEW035"
    },
    {
      "icao": "EGNM",
      "alert": "OK",
      "vis_m": 9999,
      "fzfg": false,
      "metar_trigger": false,
      "taf_trigger": false,
      "metar": "METAR EGNM 131350Z 27017KT 9999 SCT030 SCT042 13/07 Q1019",
      "taf": "TAF EGNM 131059Z 1312/1412 27015G25KT 9999 SCT025"
    },
    {
      "icao": "EGPD",
      "alert": "OK",
      "vis_m": 8000,
      "fzfg": false,
      "metar_trigger": false,
      "taf_trigger": false,
      "metar": "METAR EGPD 131350Z 30018KT 270V330 8000 -RA FEW040CB 14/09 Q1012 TEMPO SHRA",
      "taf": ""
    },
    {
      "icao": "EGPF",
      "alert": "OK",
      "vis_m": 9999,
      "fzfg": false,
      "metar_trigger": false,
      "taf_trigger": false,
      "metar": "METAR EGPF 131350Z AUTO 25013KT 9999 FEW025 BKN031 OVC046 14/10 Q1017",
      "taf": "TAF EGPF 131102Z 1312/1412 25012KT 9999 BKN030"
    },
    {
      "icao": "EHBK",
      "alert": "OK",
      "vis_m": 9999,
      "fzfg": false,
      "metar_trigger": false,
      "taf_trigger": false,
      "metar": "METAR EHBK 131355Z AUTO 28009KT 210V340 9999 SCT043/// 19/10 Q1020 NOSIG",
      "taf": "TAF EHBK 131117Z 1312/1418 25012KT 9999 BKN030"
    },
    {
      "icao": "EHEH",
      "alert": "OK",
      "vis_m": 9999,
      "fzfg": false,
      "metar_trigger": false,
      "taf_trigger": false,
      "metar": "METAR EHEH 131355Z AUTO 27011KT 220V340 9999 FEW044 17/07 Q1020 BLU BECMG 28012G25KT",
      "taf": "TAF EHEH 131136Z 1312/1418 27012G22KT 9999 BKN035"
    },
    {
      "icao": "EKBI",
      "alert": "OK",
      "vis_m": 9999,
      "fzfg": false,
      "metar_trigger": false,
      "taf_trigger": false,
      "metar": "METAR EKBI 131350Z 28018KT 9999 FEW031 FEW032TCU SCT056 15/09 Q1008",
      "taf": "TAF EKBI 131127Z 1312/1412 27012KT 9999 SCT020"
    },
    {
      "icao": "EKCH",
      "alert": "OK",
      "vis_m": 9999,
      "fzfg": false,
      "metar_trigger": false,
      "taf_trigger": false,
      "metar": "METAR EKCH 131348Z 28014G24KT 250V310 9999 FEW025CB BKN070 14/09 Q1006 TEMPO 26015G25KT 4000 SHRA",
      "taf": "TAF EKCH 131127Z 1312/1412 26012KT 9999 BKN020"
    },
    {
      "icao": "ENAL",
      "alert": "OK",
      "vis_m": 9999,
      "fzfg": false,
      "metar_trigger": false,
      "taf_trigger": false,
      "metar": "METAR ENAL 131350Z 35010KT 300V020 9999 FEW023 SCT045 BKN054 14/10 Q1008",
      "taf": "TAF ENAL 131100Z 1312/1321 04009KT 9999 FEW030 BKN040"
    },
    {
      "icao": "ENBR",
      "alert": "OK",
      "vis_m": 9999,
      "fzfg": false,
      "metar_trigger": false,
      "taf_trigger": false,
      "metar": "METAR ENBR 131350Z 31012KT 9999 SCT019 14/09 Q1006 TEMPO SHRA BKN020CB RMK WIND 1200FT 31016KT",
      "taf": "TAF ENBR 131100Z 1312/1412 31012KT 9999 -SHRA FEW015 SCT030"
    },
    {
      "icao": "ENGM",
      "alert": "OK",
      "vis_m": 9999,
      "fzfg": false,
      "metar_trigger": false,
      "taf_trigger": false,
      "metar": "METAR ENGM 131350Z 16004KT 110V190 9999 VCSH FEW020CB 13/10 Q1004 NOSIG",
      "taf": "TAF ENGM 131100Z 1312/1412 18008KT 9999 SCT008 BKN020"
    },
    {
      "icao": "ENHD",
      "alert": "OK",
      "vis_m": 9999,
      "fzfg": false,
      "metar_trigger": false,
      "taf_trigger": false,
      "metar": "METAR ENHD 131350Z 31012KT 280V340 9999 SCT015 14/10 Q1006",
      "taf": "TAF ENHD 131100Z 1312/1321 34012KT 9999 -SHRA FEW012 SCT030"
    },
    {
      "icao": "ENTC",
      "alert": "OK",
      "vis_m": 9999,
      "fzfg": false,
      "metar_trigger": false,
      "taf_trigger": false,
      "metar": "METAR ENTC 131350Z 28013KT 9999 SCT032 BKN041 11/06 Q1010 NOSIG RMK WIND 2600FT 23009KT",
      "taf": "TAF ENTC 131100Z 1312/1412 27009KT 9999 FEW025 BKN040"
    },
    {
      "icao": "ENTO",
      "alert": "OK",
      "vis_m": 9999,
      "fzfg": false,
      "metar_trigger": false,
      "taf_trigger": false,
      "metar": "METAR ENTO 131350Z 17010KT 9999 -RA VV019 13/12 Q1003 REDZ NOSIG",
      "taf": ""
    },
    {
      "icao": "ENVA",
      "alert": "OK",
      "vis_m": 9999,
      "fzfg": false,
      "metar_trigger": false,
      "taf_trigger": false,
      "metar": "METAR ENVA 131350Z 24008KT CAVOK 18/12 Q1007 RMK WIND 670FT 30004KT",
      "taf": "TAF ENVA 131100Z 1312/1412 24008KT 9999 FEW045"
    },
    {
      "icao": "ENZV",
      "alert": "OK",
      "vis_m": 9999,
      "fzfg": false,
      "metar_trigger": false,
      "taf_trigger": false,
      "metar": "METAR ENZV 131350Z 31017KT 9999 FEW045TCU 14/09 Q1006 NOSIG",
      "taf": "TAF ENZV 131100Z 1312/1412 34009KT 9999 FEW012 BKN030"
    },
    {
      "icao": "EPGD",
      "alert": "OK",
      "vis_m": 9999,
      "fzfg": false,
      "metar_trigger": false,
      "taf_trigger": false,
      "metar": "METAR EPGD 131400Z 28009KT 9999 BKN035CB 17/09 Q1008",
      "taf": "TAF EPGD 131130Z 1312/1412 26010KT 9999 BKN025"
    },
    {
      "icao": "EPKK",
      "alert": "OK",
      "vis_m": 9999,
      "fzfg": false,
      "metar_trigger": false,
      "taf_trigger": false,
      "metar": "METAR EPKK 131400Z 24011KT 9999 FEW040CB 21/12 Q1013",
      "taf": "TAF EPKK 131130Z 1312/1412 28013KT 9999 FEW040"
    },
    {
      "icao": "EPKT",
      "alert": "OK",
      "vis_m": 9999,
      "fzfg": false,
      "metar_trigger": false,
      "taf_trigger": false,
      "metar": "METAR EPKT 131400Z 26014KT 240V300 9999 FEW037 21/12 Q1013",
      "taf": "TAF EPKT 131130Z 1312/1412 27010KT 9999 BKN040"
    },
    {
      "icao": "EPLB",
      "alert": "OK",
      "vis_m": 9999,
      "fzfg": false,
      "metar_trigger": false,
      "taf_trigger": false,
      "metar": "METAR EPLB 131400Z 26014KT 9999 SCT036TCU 21/12 Q1011",
      "taf": "TAF EPLB 131130Z 1312/1412 26012KT 9999 SCT035"
    },
    {
      "icao": "EPMO",
      "alert": "OK",
      "vis_m": 9999,
      "fzfg": false,
      "metar_trigger": false,
      "taf_trigger": false,
      "metar": "METAR EPMO 131400Z 25014KT 9999 FEW040 19/11 Q1010",
      "taf": "TAF EPMO 131130Z 1312/1412 27014KT 9999 BKN040"
    },
    {
      "icao": "EPPO",
      "alert": "OK",
      "vis_m": 9999,
      "fzfg": false,
      "metar_trigger": false,
      "taf_trigger": false,
      "metar": "METAR EPPO 131400Z 31009KT 9999 FEW045CB 18/11 Q1011",
      "taf": "TAF EPPO 131130Z 1312/1412 27010KT 9999 BKN030"
    },
    {
      "icao": "EPRA",
      "alert": "OK",
      "vis_m": 8000,
      "fzfg": false,
      "metar_trigger": false,
      "taf_trigger": false,
      "metar": "METAR EPRA 131400Z 29013KT 8000 -SHRA BKN049CB 19/10 Q1012",
      "taf": "TAF EPRA 131130Z 1312/1321 27010KT 9999 SCT035"
    },
    {
      "icao": "EPRZ",
      "alert": "OK",
      "vis_m": 9999,
      "fzfg": false,
      "metar_trigger": false,
      "taf_trigger": false,
      "metar": "METAR EPRZ 131400Z 28013KT 9999 SCT047 22/11 Q1013",
      "taf": "TAF EPRZ 131130Z 1312/1412 24010KT 9999 BKN030"
    },
    {
      "icao": "EPSC",
      "alert": "OK",
      "vis_m": 9999,
      "fzfg": false,
      "metar_trigger": false,
      "taf_trigger": false,
      "metar": "METAR EPSC 131400Z 26013KT 230V290 9999 SCT043CB 18/09 Q1009",
      "taf": "TAF EPSC 131130Z 1312/1412 27012KT 9999 BKN030"
    },
    {
      "icao": "EPSY",
      "alert": "OK",
      "vis_m": 9999,
      "fzfg": false,
      "metar_trigger": false,
      "taf_trigger": false,
      "metar": "METAR EPSY 131400Z 27009KT 210V310 9999 FEW016 18/14 Q1008",
      "taf": "TAF EPSY 131130Z 1312/1321 20010KT 9999 BKN030"
    },
    {
      "icao": "EPWA",
      "alert": "OK",
      "vis_m": 9999,
      "fzfg": false,
      "metar_trigger": false,
      "taf_trigger": false,
      "metar": "METAR EPWA 131400Z 25013KT 9999 FEW040CB SCT046 18/12 Q1010 NOSIG",
      "taf": "TAF EPWA 131130Z 1312/1412 27015KT 9999 BKN040"
    },
    {
      "icao": "EPWR",
      "alert": "OK",
      "vis_m": 9999,
      "fzfg": false,
      "metar_trigger": false,
      "taf_trigger": false,
      "metar": "METAR EPWR 131400Z 29013KT 9999 FEW024 SCT047 17/14 Q1013",
      "taf": "TAF EPWR 131130Z 1312/1412 26012KT 9999 BKN035"
    },
    {
      "icao": "ESGG",
      "alert": "OK",
      "vis_m": 9999,
      "fzfg": false,
      "metar_trigger": false,
      "taf_trigger": false,
      "metar": "METAR ESGG 131350Z 19003KT 160V220 9999 -SHRA SCT018CB BKN026 OVC047 13/10 Q1004",
      "taf": "TAF ESGG 131130Z 1312/1412 21009KT 9999 SCT020"
    },
    {
      "icao": "ESKN",
      "alert": "OK",
      "vis_m": 9000,
      "fzfg": false,
      "metar_trigger": false,
      "taf_trigger": false,
      "metar": "METAR ESKN 131350Z 14008KT 9000 -SHRA FEW011 SCT025CB BKN055 14/13 Q1005",
      "taf": "TAF ESKN 131130Z 1312/1412 11012KT 9999 BKN020"
    },
    {
      "icao": "ESMS",
      "alert": "OK",
      "vis_m": 9999,
      "fzfg": false,
      "metar_trigger": false,
      "taf_trigger": false,
      "metar": "METAR ESMS 131350Z 23014KT 9999 FEW018 14/12 Q1006",
      "taf": "TAF ESMS 131127Z 1312/1412 25008KT 9999 BKN020"
    },
    {
      "icao": "ESSA",
      "alert": "OK",
      "vis_m": 9999,
      "fzfg": false,
      "metar_trigger": false,
      "taf_trigger": false,
      "metar": "METAR ESSA 131350Z 14011KT CAVOK 17/05 Q1006 NOSIG",
      "taf": "TAF ESSA 131130Z 1312/1412 14012KT CAVOK"
    },
    {
      "icao": "EYKA",
      "alert": "OK",
      "vis_m": 9999,
      "fzfg": false,
      "metar_trigger": false,
      "taf_trigger": false,
      "metar": "METAR EYKA 131420Z 10005KT 9999 FEW056CB 15/12 Q1008",
      "taf": "TAF EYKA 131103Z 1312/1412 VRB03KT 9000 BKN020"
    },
    {
      "icao": "EYPA",
      "alert": "OK",
      "vis_m": 9999,
      "fzfg": false,
      "metar_trigger": false,
      "taf_trigger": false,
      "metar": "METAR EYPA 131420Z 23006KT 190V290 CAVOK 16/12 Q1006",
      "taf": "TAF EYPA 131103Z 1312/1412 VRB03KT 9000 BKN020"
    },
    {
      "icao": "EYVI",
      "alert": "OK",
      "vis_m": 9999,
      "fzfg": false,
      "metar_trigger": false,
      "taf_trigger": false,
      "metar": "METAR EYVI 131420Z 17004KT 140V200 9999 SCT067CB 15/11 Q1009 NOSIG",
      "taf": "TAF EYVI 131100Z 1312/1412 VRB03KT 8000 BKN030"
    },
    {
      "icao": "GCFV",
      "alert": "OK",
      "vis_m": 9999,
      "fzfg": false,
      "metar_trigger": false,
      "taf_trigger": false,
      "metar": "METAR GCFV 131400Z 04017KT CAVOK 24/17 Q1018",
      "taf": "TAF GCFV 130800Z 1309/1409 05013KT 9999 FEW025 TX26/1314Z TN19/1406Z"
    },
    {
      "icao": "GCLP",
      "alert": "OK",
      "vis_m": 9999,
      "fzfg": false,
      "metar_trigger": false,
      "taf_trigger": false,
      "metar": "METAR GCLP 131400Z 03026KT 9999 FEW030 24/16 Q1019 NOSIG",
      "taf": "TAF GCLP 130800Z 1309/1409 02022KT 9999 FEW020 TX26/1314Z TN20/1406Z"
    },
    {
      "icao": "GCTS",
      "alert": "OK",
      "vis_m": 9999,
      "fzfg": false,
      "metar_trigger": false,
      "taf_trigger": false,
      "metar": "METAR GCTS 131400Z 17010KT 130V210 9999 FEW025 24/16 Q1020 BECMG 11013KT",
      "taf": "TAF GCTS 130800Z 1309/1409 20005KT 9999 FEW025 TX27/1314Z TN19/1406Z"
    },
    {
      "icao": "GMAD",
      "alert": "OK",
      "vis_m": 8000,
      "fzfg": false,
      "metar_trigger": false,
      "taf_trigger": false,
      "metar": "METAR GMAD 131400Z 24015KT 8000 FEW015 SCT100 25/16 Q1017 NOSIG",
      "taf": "TAF GMAD 131100Z 1312/1418 26010KT 8000 NSC"
    },
    {
      "icao": "GMMN",
      "alert": "OK",
      "vis_m": 9999,
      "fzfg": false,
      "metar_trigger": false,
      "taf_trigger": false,
      "metar": "METAR GMMN 131400Z 33009KT 300V030 CAVOK 28/18 Q1016 NOSIG",
      "taf": "TAF GMMN 131100Z 1312/1418 36004KT CAVOK"
    },
    {
      "icao": "GMMX",
      "alert": "OK",
      "vis_m": 9999,
      "fzfg": false,
      "metar_trigger": false,
      "taf_trigger": false,
      "metar": "METAR GMMX 131400Z 28010KT 240V340 9999 SCT090 SCT200 37/17 Q1016 NOSIG",
      "taf": "TAF GMMX 131100Z 1312/1418 28006KT 8000 SCT090 SCT200"
    },
    {
      "icao": "HEGN",
      "alert": "OK",
      "vis_m": 9999,
      "fzfg": false,
      "metar_trigger": false,
      "taf_trigger": false,
      "metar": "METAR HEGN 131400Z 34018KT CAVOK 35/06 Q1008 NOSIG",
      "taf": "TAF HEGN 131100Z 1312/1418 35012G22KT CAVOK"
    },
    {
      "icao": "HEMA",
      "alert": "OK",
      "vis_m": 9999,
      "fzfg": false,
      "metar_trigger": false,
      "taf_trigger": false,
      "metar": "METAR HEMA 131400Z 34014KT CAVOK 31/15 Q1008 NOSIG",
      "taf": "TAF HEMA 131100Z 1312/1418 01012G25KT CAVOK"
    },
    {
      "icao": "HESH",
      "alert": "OK",
      "vis_m": 9999,
      "fzfg": false,
      "metar_trigger": false,
      "taf_trigger": false,
      "metar": "METAR HESH 131400Z 03012KT CAVOK 38/08 Q1008 NOSIG",
      "taf": "TAF HESH 131100Z 1312/1418 01015KT CAVOK"
    },
    {
      "icao": "HESX",
      "alert": "OK",
      "vis_m": 9999,
      "fzfg": false,
      "metar_trigger": false,
      "taf_trigger": false,
      "metar": "METAR HESX 131400Z 33006KT CAVOK 35/07 Q1011 NOSIG",
      "taf": "TAF HESX 131100Z 1312/1418 30008KT CAVOK"
    },
    {
      "icao": "LATI",
      "alert": "OK",
      "vis_m": 9999,
      "fzfg": false,
      "metar_trigger": false,
      "taf_trigger": false,
      "metar": "METAR LATI 131420Z 32011KT 280V360 CAVOK 27/12 Q1016 NOSIG",
      "taf": "TAF LATI 131100Z 1312/1412 34014KT CAVOK TX31/1412Z TN13/1404Z"
    },
    {
      "icao": "LBPD",
      "alert": "OK",
      "vis_m": 9999,
      "fzfg": false,
      "metar_trigger": false,
      "taf_trigger": false,
      "metar": "METAR LBPD 131400Z AUTO 34006KT 310V010 9999 BKN086/// OVC110/// 24/11 Q1016 NOSIG",
      "taf": "TAF LBPD 131100Z 1312/1412 10010KT 9999 SCT060"
    },
    {
      "icao": "LBSF",
      "alert": "OK",
      "vis_m": 9999,
      "fzfg": false,
      "metar_trigger": false,
      "taf_trigger": false,
      "metar": "METAR LBSF 131400Z 32008KT 280V360 9999 BKN064 21/07 Q1018 NOSIG",
      "taf": "TAF LBSF 131100Z 1312/1412 35010KT 9999 SCT060"
    },
    {
      "icao": "LBWN",
      "alert": "OK",
      "vis_m": 9999,
      "fzfg": false,
      "metar_trigger": false,
      "taf_trigger": false,
      "metar": "METAR LBWN 131400Z 30012KT 9999 SCT043 22/12 Q1015 NOSIG",
      "taf": "TAF LBWN 131100Z 1312/1412 35010KT 9999 BKN045"
    },
    {
      "icao": "LCLK",
      "alert": "OK",
      "vis_m": 9999,
      "fzfg": false,
      "metar_trigger": false,
      "taf_trigger": false,
      "metar": "METAR LCLK 131400Z 22025KT 9999 FEW025 FEW035TCU 29/22 Q1007 NOSIG",
      "taf": "TAF LCLK 131130Z 1312/1412 22020KT 9999 FEW020"
    },
    {
      "icao": "LCPH",
      "alert": "OK",
      "vis_m": 9999,
      "fzfg": false,
      "metar_trigger": false,
      "taf_trigger": false,
      "metar": "METAR LCPH 131400Z 29010KT 250V320 9999 SCT017 27/21 Q1009 NOSIG",
      "taf": "TAF LCPH 131130Z 1312/1412 27013KT 9999 SCT016"
    },
    {
      "icao": "LEAL",
      "alert": "OK",
      "vis_m": 9999,
      "fzfg": false,
      "metar_trigger": false,
      "taf_trigger": false,
      "metar": "METAR LEAL 131400Z 09011KT CAVOK 29/12 Q1021 NOSIG",
      "taf": "TAF LEAL 131100Z 1312/1412 08010KT CAVOK TX29/1312Z TN19/1406Z"
    },
    {
      "icao": "LEBB",
      "alert": "OK",
      "vis_m": 9999,
      "fzfg": false,
      "metar_trigger": false,
      "taf_trigger": false,
      "metar": "METAR LEBB 131400Z 06010KT 010V090 CAVOK 35/19 Q1018 NOSIG",
      "taf": "TAF LEBB 131100Z 1312/1412 09005KT CAVOK TX34/1313Z TN18/1405Z"
    },
    {
      "icao": "LEBL",
      "alert": "OK",
      "vis_m": 9999,
      "fzfg": false,
      "metar_trigger": false,
      "taf_trigger": false,
      "metar": "METAR LEBL 131400Z 20007KT 140V230 CAVOK 27/20 Q1021 NOSIG",
      "taf": "TAF LEBL 131100Z 1312/1412 21012KT 9999 FEW020 TX30/1312Z TN21/1406Z"
    },
    {
      "icao": "LECH",
      "alert": "OK",
      "vis_m": 9999,
      "fzfg": false,
      "metar_trigger": false,
      "taf_trigger": false,
      "metar": "METAR LECH 131400Z AUTO 16009KT 110V200 CAVOK 30/09 Q1022",
      "taf": "TAF LECH 131100Z 1312/1412 13010KT CAVOK TX33/1313Z TN16/1406Z"
    },
    {
      "icao": "LEMD",
      "alert": "OK",
      "vis_m": 9999,
      "fzfg": false,
      "metar_trigger": false,
      "taf_trigger": false,
      "metar": "METAR LEMD 131400Z 09005KT CAVOK 32/03 Q1021 NOSIG",
      "taf": "TAF LEMD 131100Z 1312/1418 VRB04KT CAVOK TX35/1316Z TN18/1405Z"
    },
    {
      "icao": "LEMG",
      "alert": "OK",
      "vis_m": 9999,
      "fzfg": false,
      "metar_trigger": false,
      "taf_trigger": false,
      "metar": "METAR LEMG 131400Z 16007KT 100V200 CAVOK 25/15 Q1021 NOSIG",
      "taf": "TAF LEMG 131100Z 1312/1412 14010KT CAVOK TX26/1314Z TN19/1406Z"
    },
    {
      "icao": "LEVC",
      "alert": "OK",
      "vis_m": 9999,
      "fzfg": false,
      "metar_trigger": false,
      "taf_trigger": false,
      "metar": "METAR LEVC 131400Z 12009KT 090V160 CAVOK 31/08 Q1021 NOSIG",
      "taf": "TAF LEVC 131100Z 1312/1412 12010KT CAVOK TX32/1312Z TN19/1406Z"
    },
    {
      "icao": "LEXJ",
      "alert": "OK",
      "vis_m": 9999,
      "fzfg": false,
      "metar_trigger": false,
      "taf_trigger": false,
      "metar": "METAR LEXJ 131400Z 06004KT 340V140 CAVOK 30/19 Q1016",
      "taf": "TAF LEXJ 130800Z 1309/1409 07009KT CAVOK TX33/1312Z TN20/1405Z"
    },
    {
      "icao": "LEZG",
      "alert": "OK",
      "vis_m": 9999,
      "fzfg": false,
      "metar_trigger": false,
      "taf_trigger": false,
      "metar": "METAR LEZG 131400Z 08008KT 020V140 CAVOK 34/06 Q1019 NOSIG",
      "taf": "TAF LEZG 131100Z 1312/1412 11005KT CAVOK TX36/1315Z TN20/1406Z"
    },
    {
      "icao": "LEZL",
      "alert": "OK",
      "vis_m": 9999,
      "fzfg": false,
      "metar_trigger": false,
      "taf_trigger": false,
      "metar": "METAR LEZL 131400Z 21006KT 120V260 CAVOK 35/09 Q1016 NOSIG",
      "taf": "TAF LEZL 130800Z 1309/1409 10010KT CAVOK TX38/1315Z TN18/1406Z"
    },
    {
      "icao": "LFBD",
      "alert": "OK",
      "vis_m": 9999,
      "fzfg": false,
      "metar_trigger": false,
      "taf_trigger": false,
      "metar": "METAR LFBD 131400Z AUTO 10012KT CAVOK 33/07 Q1021 NOSIG",
      "taf": "TAF LFBD 131100Z 1312/1418 09010KT CAVOK TX34/1315Z TN19/1404Z"
    },
    {
      "icao": "LFLL",
      "alert": "OK",
      "vis_m": 9999,
      "fzfg": false,
      "metar_trigger": false,
      "taf_trigger": false,
      "metar": "METAR LFLL 131400Z 36007KT 320V030 CAVOK 29/11 Q1022 NOSIG",
      "taf": "TAF LFLL 131100Z 1312/1418 36008KT CAVOK"
    },
    {
      "icao": "LFLS",
      "alert": "OK",
      "vis_m": 9999,
      "fzfg": false,
      "metar_trigger": false,
      "taf_trigger": false,
      "metar": "METAR LFLS 131400Z AUTO 36010KT 310V050 CAVOK 28/12 Q1022 NOSIG",
      "taf": "TAF LFLS 130800Z 1309/1409 36008KT CAVOK"
    },
    {
      "icao": "LFMN",
      "alert": "OK",
      "vis_m": 9999,
      "fzfg": false,
      "metar_trigger": false,
      "taf_trigger": false,
      "metar": "METAR LFMN 131400Z 13006KT CAVOK 24/17 Q1020 NOSIG",
      "taf": "TAF LFMN 131400Z 1315/1421 14010KT CAVOK"
    },
    {
      "icao": "LFOB",
      "alert": "OK",
      "vis_m": 9999,
      "fzfg": false,
      "metar_trigger": false,
      "taf_trigger": false,
      "metar": "METAR LFOB 131400Z AUTO 29012KT 240V320 9999 4700 NSC 25/12 Q1022 NOSIG",
      "taf": "TAF LFOB 131100Z 1312/1412 28010KT CAVOK"
    },
    {
      "icao": "LFPO",
      "alert": "OK",
      "vis_m": 9999,
      "fzfg": false,
      "metar_trigger": false,
      "taf_trigger": false,
      "metar": "METAR LFPO 131400Z 28011KT 240V310 CAVOK 28/12 Q1022 NOSIG",
      "taf": "TAF LFPO 131100Z 1312/1418 28008KT CAVOK"
    },
    {
      "icao": "LFSB",
      "alert": "OK",
      "vis_m": 9999,
      "fzfg": false,
      "metar_trigger": false,
      "taf_trigger": false,
      "metar": "METAR LFSB 131400Z AUTO 27010KT 220V320 CAVOK 29/13 Q1021 NOSIG",
      "taf": "TAF LFSB 131100Z 1312/1412 26011KT 9999 FEW050"
    },
    {
      "icao": "LGAV",
      "alert": "OK",
      "vis_m": 9999,
      "fzfg": false,
      "metar_trigger": false,
      "taf_trigger": false,
      "metar": "METAR LGAV 131350Z 01017KT 9999 FEW018 SCT030 25/13 Q1015 NOSIG",
      "taf": "TAF LGAV 131100Z 1312/1412 02014KT 9999 FEW018 SCT050"
    },
    {
      "icao": "LGTS",
      "alert": "OK",
      "vis_m": 9999,
      "fzfg": false,
      "metar_trigger": false,
      "taf_trigger": false,
      "metar": "METAR LGTS 131350Z 26008KT 9999 FEW025 28/12 Q1015 NOSIG",
      "taf": "TAF LGTS 131100Z 1312/1412 VRB03KT 9999 FEW025"
    },
    {
      "icao": "LHBP",
      "alert": "OK",
      "vis_m": 9999,
      "fzfg": false,
      "metar_trigger": false,
      "taf_trigger": false,
      "metar": "METAR LHBP 131400Z 33010KT 9999 VCSH FEW045CB BKN085 22/14 Q1016 NOSIG",
      "taf": "TAF LHBP 131115Z 1312/1412 28012G22KT 9999 BKN030"
    },
    {
      "icao": "LHDC",
      "alert": "OK",
      "vis_m": 9999,
      "fzfg": false,
      "metar_trigger": false,
      "taf_trigger": false,
      "metar": "METAR LHDC 131345Z AUTO 23009KT 190V260 9999 FEW037 BKN081 //////TCU 22/14 Q1016 TEMPO VRB15G25KT 4000 SHRA SCT030CB BKN080",
      "taf": "TAF LHDC 131115Z 1312/1321 25009KT 9999 BKN033 BKN090"
    },
    {
      "icao": "LIBD",
      "alert": "OK",
      "vis_m": 9999,
      "fzfg": false,
      "metar_trigger": false,
      "taf_trigger": false,
      "metar": "METAR LIBD 131350Z 35010KT 310V040 CAVOK 24/16 Q1019",
      "taf": "TAF LIBD 131100Z 1312/1412 34010KT CAVOK"
    },
    {
      "icao": "LIBG",
      "alert": "OK",
      "vis_m": 9999,
      "fzfg": false,
      "metar_trigger": false,
      "taf_trigger": false,
      "metar": "METAR LIBG 131350Z AUTO 01017KT 9999 NCD 27/08 Q1018",
      "taf": "TAF LIBG 131100Z 1312/1412 36014KT CAVOK"
    },
    {
      "icao": "LIBP",
      "alert": "OK",
      "vis_m": 9999,
      "fzfg": false,
      "metar_trigger": false,
      "taf_trigger": false,
      "metar": "METAR LIBP 131350Z AUTO 07010KT 040V100 9999 NCD 27/11 Q1019",
      "taf": "TAF LIBP 131100Z 1312/1412 09010KT CAVOK"
    },
    {
      "icao": "LIBR",
      "alert": "OK",
      "vis_m": 9999,
      "fzfg": false,
      "metar_trigger": false,
      "taf_trigger": false,
      "metar": "METAR LIBR 131350Z 34013KT CAVOK 24/12 Q1018",
      "taf": "TAF LIBR 131100Z 1312/1412 35013KT CAVOK"
    },
    {
      "icao": "LICA",
      "alert": "OK",
      "vis_m": 9999,
      "fzfg": false,
      "metar_trigger": false,
      "taf_trigger": false,
      "metar": "METAR LICA 131350Z AUTO 26016KT 9999 NCD 27/12 Q1019",
      "taf": "TAF LICA 131100Z 1312/1412 26014KT CAVOK"
    },
    {
      "icao": "LICC",
      "alert": "OK",
      "vis_m": 9999,
      "fzfg": false,
      "metar_trigger": false,
      "taf_trigger": false,
      "metar": "METAR LICC 131350Z 10010KT CAVOK 27/19 Q1018",
      "taf": "TAF LICC 131100Z 1312/1412 07013KT CAVOK"
    },
    {
      "icao": "LICJ",
      "alert": "OK",
      "vis_m": 9999,
      "fzfg": false,
      "metar_trigger": false,
      "taf_trigger": false,
      "metar": "METAR LICJ 131350Z 33007KT CAVOK 25/20 Q1020",
      "taf": "TAF LICJ 131100Z 1312/1412 04013KT CAVOK"
    },
    {
      "icao": "LIMC",
      "alert": "OK",
      "vis_m": 9999,
      "fzfg": false,
      "metar_trigger": false,
      "taf_trigger": false,
      "metar": "METAR LIMC 131350Z 23007KT 210V280 CAVOK 30/14 Q1018 NOSIG",
      "taf": "TAF LIMC 131100Z 1312/1418 VRB05KT CAVOK"
    },
    {
      "icao": "LIME",
      "alert": "OK",
      "vis_m": 9999,
      "fzfg": false,
      "metar_trigger": false,
      "taf_trigger": false,
      "metar": "METAR LIME 131350Z 22010KT 190V250 CAVOK 31/12 Q1018 NOSIG",
      "taf": "TAF LIME 131100Z 1312/1412 VRB05KT CAVOK"
    },
    {
      "icao": "LIMF",
      "alert": "OK",
      "vis_m": 9999,
      "fzfg": false,
      "metar_trigger": false,
      "taf_trigger": false,
      "metar": "METAR LIMF 131350Z VRB03KT CAVOK 31/14 Q1019",
      "taf": "TAF LIMF 131100Z 1312/1412 VRB05KT CAVOK"
    },
    {
      "icao": "LIMJ",
      "alert": "OK",
      "vis_m": 9999,
      "fzfg": false,
      "metar_trigger": false,
      "taf_trigger": false,
      "metar": "METAR LIMJ 131350Z 20005KT CAVOK 23/18 Q1020",
      "taf": "TAF LIMJ 131100Z 1312/1412 VRB05KT CAVOK"
    },
    {
      "icao": "LIPE",
      "alert": "OK",
      "vis_m": 9999,
      "fzfg": false,
      "metar_trigger": false,
      "taf_trigger": false,
      "metar": "METAR LIPE 131350Z VRB03KT CAVOK 32/10 Q1017",
      "taf": "TAF LIPE 131100Z 1312/1412 VRB05KT CAVOK"
    },
    {
      "icao": "LIPH",
      "alert": "OK",
      "vis_m": 9999,
      "fzfg": false,
      "metar_trigger": false,
      "taf_trigger": false,
      "metar": "METAR LIPH 131350Z 12008KT 090V170 9999 FEW030 26/17 Q1018",
      "taf": "TAF LIPH 131100Z 1312/1412 VRB05KT 9999 FEW050"
    },
    {
      "icao": "LIPQ",
      "alert": "OK",
      "vis_m": 9999,
      "fzfg": false,
      "metar_trigger": false,
      "taf_trigger": false,
      "metar": "METAR LIPQ 131350Z 23005KT 170V280 CAVOK 26/11 Q1019",
      "taf": "TAF LIPQ 131100Z 1312/1412 21010KT 9999 FEW060"
    },
    {
      "icao": "LIPR",
      "alert": "OK",
      "vis_m": 9999,
      "fzfg": false,
      "metar_trigger": false,
      "taf_trigger": false,
      "metar": "METAR LIPR 131350Z 11008KT CAVOK 27/17 Q1018",
      "taf": "TAF LIPR 131100Z 1312/1412 09012KT CAVOK"
    },
    {
      "icao": "LIPX",
      "alert": "OK",
      "vis_m": 9999,
      "fzfg": false,
      "metar_trigger": false,
      "taf_trigger": false,
      "metar": "METAR LIPX 131350Z 21003KT 100V270 CAVOK 30/13 Q1018",
      "taf": "TAF LIPX 131100Z 1312/1412 VRB05KT CAVOK"
    },
    {
      "icao": "LIPY",
      "alert": "OK",
      "vis_m": 9999,
      "fzfg": false,
      "metar_trigger": false,
      "taf_trigger": false,
      "metar": "METAR LIPY 131350Z AUTO 07007KT 9999 NCD 28/11 Q1019",
      "taf": "TAF LIPY 131100Z 1312/1412 08010KT CAVOK"
    },
    {
      "icao": "LIPZ",
      "alert": "OK",
      "vis_m": 9999,
      "fzfg": false,
      "metar_trigger": false,
      "taf_trigger": false,
      "metar": "METAR LIPZ 131350Z 13008KT 090V150 CAVOK 25/17 Q1018 NOSIG",
      "taf": "TAF LIPZ 131100Z 1312/1418 15010KT CAVOK"
    },
    {
      "icao": "LIRF",
      "alert": "OK",
      "vis_m": 9999,
      "fzfg": false,
      "metar_trigger": false,
      "taf_trigger": false,
      "metar": "METAR LIRF 131350Z 27011KT CAVOK 27/13 Q1019 NOSIG",
      "taf": "TAF LIRF 131100Z 1312/1418 24012KT CAVOK"
    },
    {
      "icao": "LIRN",
      "alert": "OK",
      "vis_m": 9999,
      "fzfg": false,
      "metar_trigger": false,
      "taf_trigger": false,
      "metar": "METAR LIRN 131350Z 29012KT 260V330 CAVOK 30/10 Q1019 NOSIG",
      "taf": "TAF LIRN 131100Z 1312/1412 25012KT CAVOK"
    },
    {
      "icao": "LIRP",
      "alert": "OK",
      "vis_m": 9999,
      "fzfg": false,
      "metar_trigger": false,
      "taf_trigger": false,
      "metar": "METAR LIRP 131345Z 28009KT CAVOK 27/09 Q1020 NOSIG",
      "taf": "TAF LIRP 131100Z 1312/1412 29008KT CAVOK"
    },
    {
      "icao": "LIRZ",
      "alert": "OK",
      "vis_m": 9999,
      "fzfg": false,
      "metar_trigger": false,
      "taf_trigger": false,
      "metar": "METAR LIRZ 131350Z AUTO 28007KT 240V320 9999 NCD 30/11 Q1019",
      "taf": "TAF LIRZ 131100Z 1312/1412 VRB05KT CAVOK"
    },
    {
      "icao": "LJLJ",
      "alert": "OK",
      "vis_m": 9999,
      "fzfg": false,
      "metar_trigger": false,
      "taf_trigger": false,
      "metar": "METAR LJLJ 131400Z 05007KT 030V100 9999 FEW045 26/15 Q1018 NOSIG",
      "taf": "TAF LJLJ 131100Z 1312/1412 05008KT 9999 FEW065"
    },
    {
      "icao": "LKMT",
      "alert": "OK",
      "vis_m": 9999,
      "fzfg": false,
      "metar_trigger": false,
      "taf_trigger": false,
      "metar": "METAR LKMT 131400Z 23014KT 9999 VCSH SCT040TCU 20/13 Q1014 TEMPO 8000 SHRA",
      "taf": "TAF LKMT 131100Z 1312/1412 22008KT CAVOK"
    },
    {
      "icao": "LKPR",
      "alert": "OK",
      "vis_m": 9999,
      "fzfg": false,
      "metar_trigger": false,
      "taf_trigger": false,
      "metar": "METAR LKPR 131400Z 25019KT CAVOK 22/08 Q1015 NOSIG",
      "taf": "TAF LKPR 131400Z 1315/1421 26007KT CAVOK"
    },
    {
      "icao": "LLBG",
      "alert": "OK",
      "vis_m": 9999,
      "fzfg": false,
      "metar_trigger": false,
      "taf_trigger": false,
      "metar": "METAR LLBG 131420Z 29010KT 9999 FEW025 27/17 Q1010 NOSIG",
      "taf": "TAF LLBG 131109Z 1312/1412 28010KT 9999 FEW035 TX29/1312Z TN19/1403Z"
    },
    {
      "icao": "LMML",
      "alert": "OK",
      "vis_m": 9999,
      "fzfg": false,
      "metar_trigger": false,
      "taf_trigger": false,
      "metar": "METAR LMML 131415Z 20008KT 150V240 9999 FEW030 27/17 Q1019 NOSIG",
      "taf": "TAF LMML 131100Z 1312/1412 23005KT 9999 FEW020"
    },
    {
      "icao": "LOWW",
      "alert": "OK",
      "vis_m": 9999,
      "fzfg": false,
      "metar_trigger": false,
      "taf_trigger": false,
      "metar": "METAR LOWW 131350Z 13003KT 090V210 9999 FEW050 22/15 Q1016 BECMG 28010KT",
      "taf": "TAF LOWW 131415Z 1315/1421 26007KT 9999 FEW050 TX24/1315Z TN16/1403Z"
    },
    {
      "icao": "LPFR",
      "alert": "OK",
      "vis_m": 9999,
      "fzfg": false,
      "metar_trigger": false,
      "taf_trigger": false,
      "metar": "METAR LPFR 131400Z 11015KT CAVOK 25/18 Q1017",
      "taf": "TAF LPFR 131100Z 1312/1412 12015KT 9999 FEW015"
    },
    {
      "icao": "LPMA",
      "alert": "OK",
      "vis_m": 9999,
      "fzfg": false,
      "metar_trigger": false,
      "taf_trigger": false,
      "metar": "METAR LPMA 131400Z 18007KT 130V220 9999 FEW015 SCT030 23/16 Q1021",
      "taf": "TAF LPMA 131100Z 1312/1412 19007KT 9999 FEW015 BKN030"
    },
    {
      "icao": "LPPR",
      "alert": "OK",
      "vis_m": 9999,
      "fzfg": false,
      "metar_trigger": false,
      "taf_trigger": false,
      "metar": "METAR LPPR 131400Z 25005KT 200V290 9999 FEW055CB 27/17 Q1017",
      "taf": "TAF LPPR 131100Z 1312/1412 20010KT 9999 SCT045"
    },
    {
      "icao": "LPPS",
      "alert": "OK",
      "vis_m": 9999,
      "fzfg": false,
      "metar_trigger": false,
      "taf_trigger": false,
      "metar": "METAR LPPS 131400Z 34014KT 320V020 9999 FEW015 SCT030 22/15 Q1021",
      "taf": "TAF LPPS 131100Z 1312/1418 35013KT 9999 SCT015 BKN030"
    },
    {
      "icao": "LPPT",
      "alert": "OK",
      "vis_m": 9999,
      "fzfg": false,
      "metar_trigger": false,
      "taf_trigger": false,
      "metar": "METAR LPPT 131400Z 23011KT CAVOK 30/10 Q1017",
      "taf": "TAF LPPT 131100Z 1312/1418 13008KT CAVOK"
    },
    {
      "icao": "LQBK",
      "alert": "OK",
      "vis_m": 9999,
      "fzfg": false,
      "metar_trigger": false,
      "taf_trigger": false,
      "metar": "METAR LQBK 131400Z VRB03KT CAVOK 28/11 Q1018 NOSIG",
      "taf": "TAF LQBK 131100Z 1312/1412 28005KT CAVOK TX28/1313Z TN13/1403Z"
    },
    {
      "icao": "LQSA",
      "alert": "OK",
      "vis_m": 9999,
      "fzfg": false,
      "metar_trigger": false,
      "taf_trigger": false,
      "metar": "METAR LQSA 131400Z 32008KT 9999 SCT065 24/11 Q1019 NOSIG",
      "taf": "TAF LQSA 131100Z 1312/1412 VRB02KT CAVOK TX27/1412Z TN11/1404Z"
    },
    {
      "icao": "LQTZ",
      "alert": "OK",
      "vis_m": 9999,
      "fzfg": false,
      "metar_trigger": false,
      "taf_trigger": false,
      "metar": "METAR LQTZ 131400Z VRB02KT 9999 FEW060 25/11 Q1019",
      "taf": "TAF LQTZ 131100Z 1312/1412 30005KT CAVOK TX30/1412Z TN12/1403Z"
    },
    {
      "icao": "LRBC",
      "alert": "OK",
      "vis_m": 9999,
      "fzfg": false,
      "metar_trigger": false,
      "taf_trigger": false,
      "metar": "METAR LRBC 131400Z 26004KT 210V300 9999 FEW060 23/11 Q1015",
      "taf": "TAF LRBC 131100Z 1312/1321 VRB04KT 9999 SCT040"
    },
    {
      "icao": "LRBS",
      "alert": "OK",
      "vis_m": 9999,
      "fzfg": false,
      "metar_trigger": false,
      "taf_trigger": false,
      "metar": "METAR LRBS 131400Z VRB06KT CAVOK 24/11 Q1016 NOSIG",
      "taf": "TAF LRBS 131100Z 1312/1412 27010KT CAVOK"
    },
    {
      "icao": "LRBV",
      "alert": "OK",
      "vis_m": 9999,
      "fzfg": false,
      "metar_trigger": false,
      "taf_trigger": false,
      "metar": "METAR LRBV 131400Z 31008KT 260V360 9999 FEW053 SCT080 21/09 Q1017",
      "taf": "TAF LRBV 131100Z 1312/1321 29010KT 9999 SCT045"
    },
    {
      "icao": "LRCL",
      "alert": "OK",
      "vis_m": 9999,
      "fzfg": false,
      "metar_trigger": false,
      "taf_trigger": false,
      "metar": "METAR LRCL 131400Z VRB02KT 9999 OVC053 21/11 Q1016",
      "taf": "TAF LRCL 131100Z 1312/1321 VRB04KT 9999 SCT045"
    },
    {
      "icao": "LRCV",
      "alert": "OK",
      "vis_m": 9999,
      "fzfg": false,
      "metar_trigger": false,
      "taf_trigger": false,
      "metar": "METAR LRCV 131400Z 30008KT CAVOK 25/11 Q1016",
      "taf": "TAF LRCV 131100Z 1312/1321 30010KT 9999 SCT035"
    },
    {
      "icao": "LRIA",
      "alert": "OK",
      "vis_m": 9999,
      "fzfg": false,
      "metar_trigger": false,
      "taf_trigger": false,
      "metar": "METAR LRIA 131400Z 02006KT 320V060 CAVOK 22/08 Q1015",
      "taf": "TAF LRIA 131100Z 1312/1321 30007KT 9999 SCT040"
    },
    {
      "icao": "LROP",
      "alert": "OK",
      "vis_m": 9999,
      "fzfg": false,
      "metar_trigger": false,
      "taf_trigger": false,
      "metar": "METAR LROP 131400Z 26009KT CAVOK 23/12 Q1016 NOSIG",
      "taf": "TAF LROP 131100Z 1312/1412 27010KT CAVOK"
    },
    {
      "icao": "LRSB",
      "alert": "OK",
      "vis_m": 9999,
      "fzfg": false,
      "metar_trigger": false,
      "taf_trigger": false,
      "metar": "METAR LRSB 131400Z 30013KT 9999 FEW050 SCT080 23/11 Q1017",
      "taf": "TAF LRSB 131100Z 1312/1412 32010KT 9999 SCT045"
    },
    {
      "icao": "LRSM",
      "alert": "OK",
      "vis_m": 9999,
      "fzfg": false,
      "metar_trigger": false,
      "taf_trigger": false,
      "metar": "METAR LRSM 131400Z 26009KT 230V290 9999 FEW040CB SCT045 21/13 Q1015",
      "taf": "TAF LRSM 131100Z 1312/1321 25012KT 9999 SCT045"
    },
    {
      "icao": "LRSV",
      "alert": "OK",
      "vis_m": 9999,
      "fzfg": false,
      "metar_trigger": false,
      "taf_trigger": false,
      "metar": "METAR LRSV 131400Z 06004KT 360V100 CAVOK 20/09 Q1015",
      "taf": "TAF LRSV 131100Z 1312/1321 VRB04KT 9999 SCT040"
    },
    {
      "icao": "LRTM",
      "alert": "OK",
      "vis_m": 9999,
      "fzfg": false,
      "metar_trigger": false,
      "taf_trigger": false,
      "metar": "METAR LRTM 131400Z 25005KT 220V310 9999 FEW049 22/13 Q1016",
      "taf": "TAF LRTM 131100Z 1312/1321 VRB04KT 9999 SCT040"
    },
    {
      "icao": "LRTR",
      "alert": "OK",
      "vis_m": 9999,
      "fzfg": false,
      "metar_trigger": false,
      "taf_trigger": false,
      "metar": "METAR LRTR 131400Z 23006KT 200V280 9999 SCT042 21/13 Q1018",
      "taf": "TAF LRTR 131100Z 1312/1412 27009KT 9999 BKN040"
    },
    {
      "icao": "LTAC",
      "alert": "OK",
      "vis_m": 9999,
      "fzfg": false,
      "metar_trigger": false,
      "taf_trigger": false,
      "metar": "METAR LTAC 131350Z VRB02KT 9999 FEW030CB BKN035 15/11 Q1014 RETSRA NOSIG RMK RWY21C 26006KT 220V310 RWY03L VRB03KT RWY21R 24005KT 180V290 RWY03R VRB03KT RWY21L VRB03KT",
      "taf": "TAF LTAC 131040Z 1312/1412 VRB02KT 9999 SCT040 SCT100"
    },
    {
      "icao": "LTFM",
      "alert": "OK",
      "vis_m": 9999,
      "fzfg": false,
      "metar_trigger": false,
      "taf_trigger": false,
      "metar": "METAR LTFM 131350Z 02020KT 9999 FEW014 BKN028 18/12 Q1016 NOSIG RMK RWY17L 02016KT RWY34L 01018KT RWY16R 01016KT RWY36 02020KT RWY18 03016KT",
      "taf": "TAF LTFM 131040Z 1312/1418 36020KT 9999 SCT013 BKN028"
    },
    {
      "icao": "LUKK",
      "alert": "OK",
      "vis_m": 9999,
      "fzfg": false,
      "metar_trigger": false,
      "taf_trigger": false,
      "metar": "METAR LUKK 131400Z 35007KT 270V060 CAVOK 21/09 Q1014 NOSIG",
      "taf": "TAF LUKK 131104Z 1312/1412 33010KT CAVOK"
    },
    {
      "icao": "LWOH",
      "alert": "OK",
      "vis_m": 9999,
      "fzfg": false,
      "metar_trigger": false,
      "taf_trigger": false,
      "metar": "METAR LWOH 131420Z VRB04KT 9999 FEW040 23/12 Q1018",
      "taf": "TAF LWOH 131110Z 1312/1412 34008KT 9999 FEW040"
    },
    {
      "icao": "LWSK",
      "alert": "OK",
      "vis_m": 9999,
      "fzfg": false,
      "metar_trigger": false,
      "taf_trigger": false,
      "metar": "METAR LWSK 131420Z 36014KT 9999 FEW060 26/08 Q1017 NOSIG",
      "taf": "TAF LWSK 131110Z 1312/1412 34008KT CAVOK"
    },
    {
      "icao": "LYBE",
      "alert": "OK",
      "vis_m": 9999,
      "fzfg": false,
      "metar_trigger": false,
      "taf_trigger": false,
      "metar": "METAR LYBE 131400Z 29008KT 250V320 CAVOK 24/13 Q1019 NOSIG",
      "taf": "TAF LYBE 131100Z 1312/1412 29008KT CAVOK TX29/1412Z TN14/1403Z"
    },
    {
      "icao": "LYNI",
      "alert": "OK",
      "vis_m": 9999,
      "fzfg": false,
      "metar_trigger": false,
      "taf_trigger": false,
      "metar": "METAR LYNI 131400Z 31010KT 260V360 9999 FEW050 SCT073 23/10 Q1018 NOSIG",
      "taf": "TAF LYNI 131100Z 1312/1412 32010KT 9999 SCT060 TX28/1412Z TN10/1404Z"
    },
    {
      "icao": "LYPG",
      "alert": "OK",
      "vis_m": 9999,
      "fzfg": false,
      "metar_trigger": false,
      "taf_trigger": false,
      "metar": "METAR LYPG 131400Z 17007KT 150V220 9999 FEW050 27/09 Q1016 NOSIG",
      "taf": "TAF LYPG 131100Z 1312/1412 17007KT 9999 FEW040 TX29/1314Z TN17/1403Z"
    },
    {
      "icao": "LZIB",
      "alert": "OK",
      "vis_m": 9999,
      "fzfg": false,
      "metar_trigger": false,
      "taf_trigger": false,
      "metar": "METAR LZIB 131400Z 29011KT 9999 SCT043 24/14 Q1016 NOSIG",
      "taf": "TAF LZIB 131115Z 1312/1412 28008KT 9999 FEW030"
    },
    {
      "icao": "LZKZ",
      "alert": "OK",
      "vis_m": 9999,
      "fzfg": false,
      "metar_trigger": false,
      "taf_trigger": false,
      "metar": "METAR LZKZ 131400Z 15006KT 9999 FEW040 18/14 Q1014 TEMPO SHRA FEW040CB",
      "taf": ""
    },
    {
      "icao": "LZTT",
      "alert": "OK",
      "vis_m": 9999,
      "fzfg": false,
      "metar_trigger": false,
      "taf_trigger": false,
      "metar": "METAR LZTT 131400Z 26016KT 9999 SCT050 20/09 Q1014 NOSIG",
      "taf": "TAF LZTT 131115Z 1312/1412 27014KT 9999 FEW025 SCT050"
    },
    {
      "icao": "OEJN",
      "alert": "OK",
      "vis_m": 9999,
      "fzfg": false,
      "metar_trigger": false,
      "taf_trigger": false,
      "metar": "METAR OEJN 131400Z 28008KT CAVOK 35/23 Q1004 NOSIG",
      "taf": "TAF OEJN 131100Z 1312/1418 34014KT CAVOK"
    },
    {
      "icao": "OEMA",
      "alert": "OK",
      "vis_m": 9999,
      "fzfg": false,
      "metar_trigger": false,
      "taf_trigger": false,
      "metar": "METAR OEMA 131400Z 25010KT CAVOK 44/M04 Q1009 NOSIG",
      "taf": "TAF OEMA 131100Z 1312/1418 32010KT CAVOK"
    },
    {
      "icao": "OJAI",
      "alert": "OK",
      "vis_m": 5000,
      "fzfg": false,
      "metar_trigger": false,
      "taf_trigger": false,
      "metar": "METAR OJAI 131400Z 27011KT 5000 HZ NSC 27/09 Q1014 NOSIG",
      "taf": "TAF OJAI 131044Z 1312/1418 32010KT 5000 HZ NSC"
    },
    {
      "icao": "OMAA",
      "alert": "OK",
      "vis_m": 9999,
      "fzfg": false,
      "metar_trigger": false,
      "taf_trigger": false,
      "metar": "METAR OMAA 131400Z 32010KT CAVOK 37/25 Q0999 NOSIG",
      "taf": "TAF OMAA 131100Z 1312/1418 33011KT 8000 NSC"
    },
    {
      "icao": "OMDB",
      "alert": "OK",
      "vis_m": 9999,
      "fzfg": false,
      "metar_trigger": false,
      "taf_trigger": false,
      "metar": "METAR OMDB 131400Z 32007KT 290V350 CAVOK 36/25 Q1000 NOSIG",
      "taf": "TAF OMDB 131100Z 1312/1418 32012KT 8000 NSC"
    },
    {
      "icao": "UAAA",
      "alert": "OK",
      "vis_m": 9999,
      "fzfg": false,
      "metar_trigger": false,
      "taf_trigger": false,
      "metar": "METAR UAAA 131400Z 18002MPS 9999 SCT050CB BKN100 28/14 Q1009 NOSIG",
      "taf": "TAF UAAA 131101Z 1312/1412 19003MPS 9999 SCT050CB BKN100 TX32/1410Z TN17/1401Z"
    },
    {
      "icao": "UBBB",
      "alert": "OK",
      "vis_m": 9999,
      "fzfg": false,
      "metar_trigger": false,
      "taf_trigger": false,
      "metar": "METAR UBBB 131400Z 34012KT CAVOK 25/17 Q1007 NOSIG",
      "taf": "TAF UBBB 131050Z 1312/1412 33014KT CAVOK TX27/1312Z TN19/1400Z"
    },
    {
      "icao": "UDSG",
      "alert": "OK",
      "vis_m": 9999,
      "fzfg": false,
      "metar_trigger": false,
      "taf_trigger": false,
      "metar": "METAR UDSG 131400Z 25001KT 9999 FEW049 24/07 Q1014 NOSIG",
      "taf": "TAF UDSG 131100Z 1312/1412 24006KT 9999 FEW050"
    },
    {
      "icao": "UDYZ",
      "alert": "OK",
      "vis_m": 9999,
      "fzfg": false,
      "metar_trigger": false,
      "taf_trigger": false,
      "metar": "METAR UDYZ 131400Z 16005KT 110V200 9999 FEW046 31/07 Q1007 NOSIG",
      "taf": "TAF UDYZ 131100Z 1312/1412 06006KT 9999 FEW040"
    },
    {
      "icao": "UGKO",
      "alert": "OK",
      "vis_m": 9999,
      "fzfg": false,
      "metar_trigger": false,
      "taf_trigger": false,
      "metar": "METAR UGKO 131400Z 27012KT CAVOK 26/17 Q1009 NOSIG",
      "taf": "TAF UGKO 131100Z 1312/1412 26007KT CAVOK TX28/1312Z TN16/1401Z"
    }
  ]
}