{
  "ts_utc": "2026-04-04T20:15:13Z",
  "threshold_m": 150,
  "source": "stations_override.txt (ICAO list) + aviationweather.gov (METAR/TAF raw)",
  "station_count": 159,
  "stations": [
    {
      "icao": "BIKF",
      "alert": "OK",
      "vis_m": 9999,
      "fzfg": false,
      "metar_trigger": false,
      "taf_trigger": false,
      "metar": "METAR BIKF 042000Z 11006KT 9999 FEW020CB SCT034 BKN180 M01/M04 Q0998",
      "taf": "TAF BIKF 041921Z 0421/0521 12008KT 9999 FEW015 BKN030 TX03/0515Z TNM04/0503Z"
    },
    {
      "icao": "BKPR",
      "alert": "OK",
      "vis_m": 9999,
      "fzfg": false,
      "metar_trigger": false,
      "taf_trigger": false,
      "metar": "METAR BKPR 042000Z 31003KT CAVOK 08/02 Q1021 NOSIG",
      "taf": "TAF BKPR 041730Z 0418/0518 01008KT 9999 SCT050"
    },
    {
      "icao": "EBCI",
      "alert": "OK",
      "vis_m": 9999,
      "fzfg": false,
      "metar_trigger": false,
      "taf_trigger": false,
      "metar": "METAR EBCI 041950Z 18012KT CAVOK 12/09 Q1016 NOSIG",
      "taf": "TAF EBCI 041701Z 0418/0524 19013KT 9999 FEW018 SCT035"
    },
    {
      "icao": "EDDB",
      "alert": "OK",
      "vis_m": 9999,
      "fzfg": false,
      "metar_trigger": false,
      "taf_trigger": false,
      "metar": "METAR EDDB 041950Z AUTO 23005KT CAVOK 08/M00 Q1018 NOSIG",
      "taf": "TAF EDDB 041700Z 0418/0518 29010KT CAVOK"
    },
    {
      "icao": "EDDH",
      "alert": "OK",
      "vis_m": 9999,
      "fzfg": false,
      "metar_trigger": false,
      "taf_trigger": false,
      "metar": "METAR EDDH 041950Z AUTO 17006KT CAVOK 10/03 Q1015 NOSIG",
      "taf": "TAF EDDH 041700Z 0418/0524 27008KT 9999 SCT025"
    },
    {
      "icao": "EDDK",
      "alert": "OK",
      "vis_m": 9999,
      "fzfg": false,
      "metar_trigger": false,
      "taf_trigger": false,
      "metar": "METAR EDDK 041950Z AUTO 18008KT CAVOK 13/08 Q1017 NOSIG",
      "taf": "TAF EDDK 041700Z 0418/0524 17007KT 9999 BKN040"
    },
    {
      "icao": "EDDN",
      "alert": "OK",
      "vis_m": 9999,
      "fzfg": false,
      "metar_trigger": false,
      "taf_trigger": false,
      "metar": "METAR EDDN 041950Z AUTO 20004KT CAVOK 12/08 Q1022 NOSIG",
      "taf": "TAF EDDN 041700Z 0418/0518 25005KT 9999 FEW040"
    },
    {
      "icao": "EDDS",
      "alert": "OK",
      "vis_m": 9999,
      "fzfg": false,
      "metar_trigger": false,
      "taf_trigger": false,
      "metar": "METAR EDDS 041950Z AUTO 22003KT 180V270 CAVOK 12/08 Q1021 NOSIG",
      "taf": "TAF EDDS 041700Z 0418/0518 24005KT 9999 SCT030"
    },
    {
      "icao": "EDFH",
      "alert": "OK",
      "vis_m": 9999,
      "fzfg": false,
      "metar_trigger": false,
      "taf_trigger": false,
      "metar": "METAR EDFH 041950Z 21009KT CAVOK 09/07 Q1019",
      "taf": "TAF EDFH 041700Z 0418/0518 22012KT 9999 SCT025"
    },
    {
      "icao": "EDJA",
      "alert": "OK",
      "vis_m": 9999,
      "fzfg": false,
      "metar_trigger": false,
      "taf_trigger": false,
      "metar": "METAR EDJA 041950Z 16004KT CAVOK 08/06 Q1023",
      "taf": "TAF EDJA 041700Z 0418/0503 20006KT 9999 FEW030 OVC040"
    },
    {
      "icao": "EDLW",
      "alert": "OK",
      "vis_m": 9999,
      "fzfg": false,
      "metar_trigger": false,
      "taf_trigger": false,
      "metar": "METAR EDLW 041950Z 17006KT CAVOK 12/08 Q1016",
      "taf": "TAF EDLW 041700Z 0418/0518 22013KT 9999 BKN040"
    },
    {
      "icao": "EDNY",
      "alert": "OK",
      "vis_m": 9999,
      "fzfg": false,
      "metar_trigger": false,
      "taf_trigger": false,
      "metar": "METAR EDNY 041950Z AUTO VRB02KT 9999 // NCD 08/06 Q1023",
      "taf": "TAF EDNY 041700Z 0418/0503 VRB02KT CAVOK"
    },
    {
      "icao": "EDSB",
      "alert": "OK",
      "vis_m": 9999,
      "fzfg": false,
      "metar_trigger": false,
      "taf_trigger": false,
      "metar": "METAR EDSB 041950Z 19004KT CAVOK 12/08 Q1021",
      "taf": "TAF EDSB 041700Z 0418/0518 21005KT 9999 SCT030"
    },
    {
      "icao": "EETN",
      "alert": "OK",
      "vis_m": 9000,
      "fzfg": false,
      "metar_trigger": false,
      "taf_trigger": false,
      "metar": "METAR EETN 041950Z 14004KT 110V170 9000 -DZ OVC005 02/02 Q0997 TEMPO 4000 RA BKN004",
      "taf": "TAF EETN 041730Z 0418/0518 15010KT 9999 BKN008 BKN015"
    },
    {
      "icao": "EFTU",
      "alert": "OK",
      "vis_m": 9999,
      "fzfg": false,
      "metar_trigger": false,
      "taf_trigger": false,
      "metar": "METAR EFTU 041950Z AUTO 11007KT 9999 -SHRA OVC005 02/01 Q0996 REDZ",
      "taf": "TAF EFTU 041738Z 0418/0518 11008KT 9999 -RA BKN007"
    },
    {
      "icao": "EGBB",
      "alert": "OK",
      "vis_m": 9999,
      "fzfg": false,
      "metar_trigger": false,
      "taf_trigger": false,
      "metar": "METAR EGBB 041950Z 20015G29KT 170V230 9999 BKN026 12/06 Q1001",
      "taf": ""
    },
    {
      "icao": "EGGP",
      "alert": "OK",
      "vis_m": 9999,
      "fzfg": false,
      "metar_trigger": false,
      "taf_trigger": false,
      "metar": "METAR EGGP 041950Z 19012G22KT 9999 -RA BKN023 11/07 Q0995",
      "taf": "TAF EGGP 041658Z 0418/0518 19020G30KT 9999 SCT025"
    },
    {
      "icao": "EGGW",
      "alert": "OK",
      "vis_m": 9999,
      "fzfg": false,
      "metar_trigger": false,
      "taf_trigger": false,
      "metar": "METAR EGGW 041950Z AUTO 22022G35KT 9999 SCT028 BKN032 11/06 Q1006",
      "taf": "TAF EGGW 041658Z 0418/0518 20022G34KT 9999 SCT025"
    },
    {
      "icao": "EGKK",
      "alert": "OK",
      "vis_m": 9999,
      "fzfg": false,
      "metar_trigger": false,
      "taf_trigger": false,
      "metar": "METAR EGKK 041950Z 22013KT 9999 SCT020 12/08 Q1009",
      "taf": "TAF EGKK 041657Z 0418/0524 20016G26KT 9999 SCT025"
    },
    {
      "icao": "EGNM",
      "alert": "OK",
      "vis_m": 9999,
      "fzfg": false,
      "metar_trigger": false,
      "taf_trigger": false,
      "metar": "METAR EGNM 041950Z 19021G34KT 160V220 9999 BKN033 11/04 Q0995",
      "taf": "TAF EGNM 041656Z 0418/0518 21019G35KT 9999 SCT022"
    },
    {
      "icao": "EGPD",
      "alert": "OK",
      "vis_m": 6000,
      "fzfg": false,
      "metar_trigger": false,
      "taf_trigger": false,
      "metar": "METAR EGPD 041950Z 16019G29KT 6000 -RA BKN009 08/06 Q0987 RERA TEMPO 4000 RA",
      "taf": ""
    },
    {
      "icao": "EGPF",
      "alert": "OK",
      "vis_m": 9999,
      "fzfg": false,
      "metar_trigger": false,
      "taf_trigger": false,
      "metar": "METAR EGPF 041950Z AUTO 20024KT 9999 -RA SCT014/// SCT021/// BKN037/// //////CB 09/06 Q0983 RERA",
      "taf": "TAF EGPF 041700Z 0418/0518 18018G35KT 9999 BKN020"
    },
    {
      "icao": "EHBK",
      "alert": "OK",
      "vis_m": 9999,
      "fzfg": false,
      "metar_trigger": false,
      "taf_trigger": false,
      "metar": "METAR EHBK 041955Z AUTO 19014KT 9999 NSC 13/09 Q1016 NOSIG",
      "taf": "TAF EHBK 041708Z 0418/0524 20011KT 9999 FEW030"
    },
    {
      "icao": "EHEH",
      "alert": "OK",
      "vis_m": 9999,
      "fzfg": false,
      "metar_trigger": false,
      "taf_trigger": false,
      "metar": "METAR EHEH 041955Z AUTO 18013KT 160V220 9999 OVC170 14/09 Q1014 BLU NOSIG RMK TREND REMOTE BY EHWX",
      "taf": "TAF EHEH 041747Z 0418/0524 23012G22KT 9999 SCT035"
    },
    {
      "icao": "EKBI",
      "alert": "OK",
      "vis_m": 9999,
      "fzfg": false,
      "metar_trigger": false,
      "taf_trigger": false,
      "metar": "METAR EKBI 041950Z AUTO 15005KT 9999 FEW037/// SCT057/// 04/02 Q1012",
      "taf": "TAF EKBI 041727Z 0418/0518 26012KT 9999 BKN030"
    },
    {
      "icao": "EKCH",
      "alert": "OK",
      "vis_m": 9999,
      "fzfg": false,
      "metar_trigger": false,
      "taf_trigger": false,
      "metar": "METAR EKCH 041950Z AUTO 24008KT 9999 NCD 05/01 Q1014 NOSIG",
      "taf": "TAF EKCH 041727Z 0418/0518 28018KT 9999 BKN030"
    },
    {
      "icao": "ENAL",
      "alert": "OK",
      "vis_m": 9999,
      "fzfg": false,
      "metar_trigger": false,
      "taf_trigger": false,
      "metar": "METAR ENAL 041950Z 22018G29KT 9999 -SHRA SCT009CB BKN038 04/01 Q0999",
      "taf": "TAF ENAL 041700Z 0418/0503 22028KT 9999 -SHRA FEW012 BKN025"
    },
    {
      "icao": "ENBR",
      "alert": "OK",
      "vis_m": 9999,
      "fzfg": false,
      "metar_trigger": false,
      "taf_trigger": false,
      "metar": "METAR ENBR 041950Z 16011KT 9999 VCSH FEW020CB SCT040 04/01 Q1004 RMK WIND 1200FT 17013KT",
      "taf": ""
    },
    {
      "icao": "ENGM",
      "alert": "OK",
      "vis_m": 9999,
      "fzfg": false,
      "metar_trigger": false,
      "taf_trigger": false,
      "metar": "METAR ENGM 041950Z 25005KT CAVOK 04/M08 Q1004 NOSIG",
      "taf": "TAF ENGM 041700Z 0418/0518 20008KT 9999 FEW030"
    },
    {
      "icao": "ENHD",
      "alert": "OK",
      "vis_m": 9999,
      "fzfg": false,
      "metar_trigger": false,
      "taf_trigger": false,
      "metar": "METAR ENHD 041950Z AUTO 16008KT 9999 FEW026/// 05/01 Q1004",
      "taf": "TAF ENHD 041400Z 0415/0422 26018KT 9999 FEW030"
    },
    {
      "icao": "ENTC",
      "alert": "OK",
      "vis_m": 9999,
      "fzfg": false,
      "metar_trigger": false,
      "taf_trigger": false,
      "metar": "METAR ENTC 041950Z 04004KT CAVOK 00/M07 Q0999 RMK WIND 2600FT 12008KT",
      "taf": "TAF ENTC 041700Z 0418/0518 02009KT 9999 FEW050"
    },
    {
      "icao": "ENTO",
      "alert": "OK",
      "vis_m": 9999,
      "fzfg": false,
      "metar_trigger": false,
      "taf_trigger": false,
      "metar": "METAR ENTO 041950Z 25007KT CAVOK 05/M04 Q1006 NOSIG",
      "taf": "TAF ENTO 041700Z 0418/0518 20008KT CAVOK"
    },
    {
      "icao": "ENVA",
      "alert": "OK",
      "vis_m": 9999,
      "fzfg": false,
      "metar_trigger": false,
      "taf_trigger": false,
      "metar": "METAR ENVA 041950Z 19005KT CAVOK 04/M02 Q0998 RMK WIND 670FT 23007KT",
      "taf": "TAF ENVA 041700Z 0418/0518 13007KT CAVOK"
    },
    {
      "icao": "ENZV",
      "alert": "OK",
      "vis_m": 9999,
      "fzfg": false,
      "metar_trigger": false,
      "taf_trigger": false,
      "metar": "METAR ENZV 041950Z 16007KT CAVOK 05/01 Q1006 NOSIG",
      "taf": "TAF ENZV 041700Z 0418/0518 16009KT 9999 FEW025 BKN035"
    },
    {
      "icao": "EPGD",
      "alert": "OK",
      "vis_m": 9999,
      "fzfg": false,
      "metar_trigger": false,
      "taf_trigger": false,
      "metar": "METAR EPGD 042000Z 27011KT CAVOK 05/M00 Q1015",
      "taf": "TAF EPGD 041730Z 0418/0518 27014KT CAVOK"
    },
    {
      "icao": "EPKK",
      "alert": "OK",
      "vis_m": 9999,
      "fzfg": false,
      "metar_trigger": false,
      "taf_trigger": false,
      "metar": "METAR EPKK 042000Z 24006KT 9999 FEW048 SCT058 10/07 Q1019",
      "taf": ""
    },
    {
      "icao": "EPKT",
      "alert": "OK",
      "vis_m": 9999,
      "fzfg": false,
      "metar_trigger": false,
      "taf_trigger": false,
      "metar": "METAR EPKT 042000Z 23006KT CAVOK 07/05 Q1019",
      "taf": ""
    },
    {
      "icao": "EPLB",
      "alert": "OK",
      "vis_m": 9999,
      "fzfg": false,
      "metar_trigger": false,
      "taf_trigger": false,
      "metar": "METAR EPLB 042000Z 24012KT 9999 FEW039 10/07 Q1015",
      "taf": "TAF EPLB 041730Z 0418/0518 27013KT CAVOK"
    },
    {
      "icao": "EPMO",
      "alert": "OK",
      "vis_m": 9999,
      "fzfg": false,
      "metar_trigger": false,
      "taf_trigger": false,
      "metar": "METAR EPMO 042000Z 29006KT CAVOK 08/M02 Q1016",
      "taf": "TAF EPMO 041730Z 0418/0518 27013KT CAVOK"
    },
    {
      "icao": "EPPO",
      "alert": "OK",
      "vis_m": 9999,
      "fzfg": false,
      "metar_trigger": false,
      "taf_trigger": false,
      "metar": "METAR EPPO 042000Z 27003KT CAVOK 06/M02 Q1018",
      "taf": "TAF EPPO 041730Z 0418/0518 29010KT CAVOK"
    },
    {
      "icao": "EPRA",
      "alert": "OK",
      "vis_m": 9999,
      "fzfg": false,
      "metar_trigger": false,
      "taf_trigger": false,
      "metar": "METAR EPRA 042000Z 30008KT CAVOK 11/05 Q1017",
      "taf": "TAF EPRA 041730Z 0418/0503 23008KT CAVOK"
    },
    {
      "icao": "EPRZ",
      "alert": "OK",
      "vis_m": 9999,
      "fzfg": false,
      "metar_trigger": false,
      "taf_trigger": false,
      "metar": "METAR EPRZ 042000Z 25008KT CAVOK 09/06 Q1018",
      "taf": "TAF EPRZ 041730Z 0418/0518 24015KT 9999 SCT040"
    },
    {
      "icao": "EPSC",
      "alert": "OK",
      "vis_m": 9999,
      "fzfg": false,
      "metar_trigger": false,
      "taf_trigger": false,
      "metar": "METAR EPSC 042000Z 12001KT CAVOK 04/M01 Q1017",
      "taf": "TAF EPSC 041730Z 0418/0518 28012KT CAVOK"
    },
    {
      "icao": "EPSY",
      "alert": "OK",
      "vis_m": 9999,
      "fzfg": false,
      "metar_trigger": false,
      "taf_trigger": false,
      "metar": "METAR EPSY 042000Z 26006KT CAVOK 06/M02 Q1015",
      "taf": "TAF EPSY 041730Z 0418/0503 27010KT CAVOK"
    },
    {
      "icao": "EPWA",
      "alert": "OK",
      "vis_m": 9999,
      "fzfg": false,
      "metar_trigger": false,
      "taf_trigger": false,
      "metar": "METAR EPWA 042000Z 30008KT CAVOK 09/M02 Q1017 NOSIG",
      "taf": "TAF EPWA 041730Z 0418/0518 27013KT CAVOK"
    },
    {
      "icao": "EPWR",
      "alert": "OK",
      "vis_m": 9999,
      "fzfg": false,
      "metar_trigger": false,
      "taf_trigger": false,
      "metar": "METAR EPWR 042000Z 26007KT CAVOK 09/02 Q1019",
      "taf": "TAF EPWR 041730Z 0418/0518 27010KT CAVOK"
    },
    {
      "icao": "ESGG",
      "alert": "OK",
      "vis_m": 9999,
      "fzfg": false,
      "metar_trigger": false,
      "taf_trigger": false,
      "metar": "METAR ESGG 041950Z 24012KT 9999 FEW015 03/01 Q1009",
      "taf": "TAF ESGG 041730Z 0418/0518 26018G28KT 9999 FEW020"
    },
    {
      "icao": "ESKN",
      "alert": "OK",
      "vis_m": 9999,
      "fzfg": false,
      "metar_trigger": false,
      "taf_trigger": false,
      "metar": "METAR ESKN 041950Z 27016KT CAVOK 06/M01 Q1003",
      "taf": "TAF ESKN 041730Z 0418/0518 27015G27KT 9999 BKN040"
    },
    {
      "icao": "ESMS",
      "alert": "OK",
      "vis_m": 9999,
      "fzfg": false,
      "metar_trigger": false,
      "taf_trigger": false,
      "metar": "METAR ESMS 041950Z 25008KT CAVOK 06/01 Q1013",
      "taf": "TAF ESMS 041727Z 0418/0518 27018KT 9999 BKN030"
    },
    {
      "icao": "ESSA",
      "alert": "OK",
      "vis_m": 9999,
      "fzfg": false,
      "metar_trigger": false,
      "taf_trigger": false,
      "metar": "METAR ESSA 041950Z 27007KT CAVOK 02/00 Q1001 NOSIG",
      "taf": "TAF ESSA 041730Z 0418/0518 30012KT 9999 SCT020"
    },
    {
      "icao": "EYKA",
      "alert": "OK",
      "vis_m": 9999,
      "fzfg": false,
      "metar_trigger": false,
      "taf_trigger": false,
      "metar": "METAR EYKA 041950Z 28019KT CAVOK 06/01 Q1010",
      "taf": ""
    },
    {
      "icao": "EYPA",
      "alert": "OK",
      "vis_m": 9999,
      "fzfg": false,
      "metar_trigger": false,
      "taf_trigger": false,
      "metar": "METAR EYPA 041950Z 27009KT 230V320 CAVOK 05/01 Q1008",
      "taf": "TAF EYPA 041700Z 0418/0518 26010KT 9000 NSC"
    },
    {
      "icao": "EYVI",
      "alert": "OK",
      "vis_m": 9999,
      "fzfg": false,
      "metar_trigger": false,
      "taf_trigger": false,
      "metar": "METAR EYVI 041950Z 26009KT 220V300 9999 FEW032 SCT046 05/00 Q1009 NOSIG",
      "taf": "TAF EYVI 041700Z 0418/0518 26013KT 9000 BKN030"
    },
    {
      "icao": "GCFV",
      "alert": "OK",
      "vis_m": 9999,
      "fzfg": false,
      "metar_trigger": false,
      "taf_trigger": false,
      "metar": "METAR GCFV 042000Z 04005KT CAVOK 19/16 Q1016",
      "taf": "TAF GCFV 041400Z 0415/0515 13005KT CAVOK TX23/0514Z TN17/0506Z"
    },
    {
      "icao": "GCLP",
      "alert": "OK",
      "vis_m": 9999,
      "fzfg": false,
      "metar_trigger": false,
      "taf_trigger": false,
      "metar": "METAR GCLP 042000Z 02014KT 9999 SCT040 19/16 Q1016 NOSIG",
      "taf": "TAF GCLP 041400Z 0415/0515 03016KT 9999 SCT045 TX24/0514Z TN17/0506Z"
    },
    {
      "icao": "GCTS",
      "alert": "OK",
      "vis_m": 9999,
      "fzfg": false,
      "metar_trigger": false,
      "taf_trigger": false,
      "metar": "METAR GCTS 042000Z 09008KT 9999 SCT100 19/15 Q1016 NOSIG",
      "taf": ""
    },
    {
      "icao": "GMAD",
      "alert": "OK",
      "vis_m": 8000,
      "fzfg": false,
      "metar_trigger": false,
      "taf_trigger": false,
      "metar": "METAR GMAD 042000Z 23006KT 8000 NSC 18/M07 Q1016 NOSIG",
      "taf": "TAF GMAD 041700Z 0418/0524 06005KT 8000 NSC"
    },
    {
      "icao": "GMMN",
      "alert": "OK",
      "vis_m": 9999,
      "fzfg": false,
      "metar_trigger": false,
      "taf_trigger": false,
      "metar": "METAR GMMN 042000Z 03003KT 360V060 CAVOK 19/11 Q1017 NOSIG",
      "taf": "TAF GMMN 041700Z 0418/0524 36008KT CAVOK"
    },
    {
      "icao": "GMMX",
      "alert": "OK",
      "vis_m": 9999,
      "fzfg": false,
      "metar_trigger": false,
      "taf_trigger": false,
      "metar": "METAR GMMX 042000Z 27004KT 9999 SCT100 SCT200 23/08 Q1017 NOSIG",
      "taf": "TAF GMMX 041700Z 0418/0524 26006KT 9999 SCT100"
    },
    {
      "icao": "HEGN",
      "alert": "OK",
      "vis_m": 9999,
      "fzfg": false,
      "metar_trigger": false,
      "taf_trigger": false,
      "metar": "METAR HEGN 041900Z 31013KT CAVOK 24/M00 Q1015 NOSIG",
      "taf": "TAF HEGN 041700Z 0418/0524 33014KT CAVOK"
    },
    {
      "icao": "HEMA",
      "alert": "OK",
      "vis_m": 9999,
      "fzfg": false,
      "metar_trigger": false,
      "taf_trigger": false,
      "metar": "METAR HEMA 041900Z 36008KT CAVOK 23/03 Q1015 NOSIG",
      "taf": "TAF HEMA 041700Z 0418/0524 34008G20KT 6000 NSC"
    },
    {
      "icao": "HESH",
      "alert": "OK",
      "vis_m": 9999,
      "fzfg": false,
      "metar_trigger": false,
      "taf_trigger": false,
      "metar": "METAR HESH 041900Z 33004KT CAVOK 25/03 Q1014 NOSIG",
      "taf": "TAF HESH 041700Z 0418/0524 03008KT CAVOK"
    },
    {
      "icao": "HESX",
      "alert": "OK",
      "vis_m": 9999,
      "fzfg": false,
      "metar_trigger": false,
      "taf_trigger": false,
      "metar": "METAR HESX 041900Z 03008KT CAVOK 15/03 Q1019 NOSIG",
      "taf": "TAF HESX 041700Z 0418/0524 33015KT CAVOK"
    },
    {
      "icao": "LATI",
      "alert": "OK",
      "vis_m": 9999,
      "fzfg": false,
      "metar_trigger": false,
      "taf_trigger": false,
      "metar": "METAR LATI 041950Z 31004KT CAVOK 12/06 Q1017 NOSIG",
      "taf": "TAF LATI 041700Z 0418/0518 32010KT CAVOK TX23/0511Z TN07/0504Z"
    },
    {
      "icao": "LBPD",
      "alert": "OK",
      "vis_m": 9999,
      "fzfg": false,
      "metar_trigger": false,
      "taf_trigger": false,
      "metar": "METAR LBPD 042000Z AUTO VRB02KT 9999 FEW048/// 11/08 Q1018",
      "taf": "TAF LBPD 041700Z 0418/0518 29010KT 9999 BKN050"
    },
    {
      "icao": "LBSF",
      "alert": "OK",
      "vis_m": 9999,
      "fzfg": false,
      "metar_trigger": false,
      "taf_trigger": false,
      "metar": "METAR LBSF 042000Z AUTO 28006KT 9999 FEW071/// 08/06 Q1020 NOSIG",
      "taf": "TAF LBSF 041700Z 0418/0518 28008KT 9999 SCT030 BKN040"
    },
    {
      "icao": "LBWN",
      "alert": "OK",
      "vis_m": 9999,
      "fzfg": false,
      "metar_trigger": false,
      "taf_trigger": false,
      "metar": "METAR LBWN 042000Z AUTO 35005KT 9999 NSC 11/08 Q1017 NOSIG",
      "taf": "TAF LBWN 041700Z 0418/0518 03010KT 9999 SCT020 BKN040"
    },
    {
      "icao": "LCLK",
      "alert": "OK",
      "vis_m": 9999,
      "fzfg": false,
      "metar_trigger": false,
      "taf_trigger": false,
      "metar": "METAR LCLK 042000Z 25006KT CAVOK 14/10 Q1015 NOSIG",
      "taf": "TAF LCLK 041730Z 0418/0518 27007KT 9999 FEW025 SCT040"
    },
    {
      "icao": "LCPH",
      "alert": "OK",
      "vis_m": 9999,
      "fzfg": false,
      "metar_trigger": false,
      "taf_trigger": false,
      "metar": "METAR LCPH 042000Z VRB02KT 9999 SCT024 13/11 Q1016 NOSIG",
      "taf": "TAF LCPH 041730Z 0418/0518 34007KT 9999 FEW030 SCT050"
    },
    {
      "icao": "LEAL",
      "alert": "OK",
      "vis_m": 9999,
      "fzfg": false,
      "metar_trigger": false,
      "taf_trigger": false,
      "metar": "METAR LEAL 042000Z 00000KT CAVOK 15/09 Q1024 NOSIG",
      "taf": "TAF LEAL 041700Z 0418/0518 21010KT CAVOK TX21/0512Z TN09/0506Z"
    },
    {
      "icao": "LEBB",
      "alert": "OK",
      "vis_m": 9999,
      "fzfg": false,
      "metar_trigger": false,
      "taf_trigger": false,
      "metar": "METAR LEBB 042000Z 00000KT CAVOK 16/11 Q1021 NOSIG",
      "taf": "TAF LEBB 041700Z 0418/0518 32009KT CAVOK TX23/0418Z TN11/0506Z"
    },
    {
      "icao": "LEBL",
      "alert": "OK",
      "vis_m": 9999,
      "fzfg": false,
      "metar_trigger": false,
      "taf_trigger": false,
      "metar": "METAR LEBL 042000Z 22007KT CAVOK 15/11 Q1023 NOSIG",
      "taf": "TAF LEBL 041700Z 0418/0518 20010KT 9999 FEW020 TX20/0512Z TN10/0506Z"
    },
    {
      "icao": "LECH",
      "alert": "OK",
      "vis_m": 9999,
      "fzfg": false,
      "metar_trigger": false,
      "taf_trigger": false,
      "metar": "METAR LECH 042000Z AUTO 23004KT CAVOK 15/04 Q1024",
      "taf": "TAF LECH 041700Z 0418/0518 VRB04KT CAVOK TX23/0513Z TN09/0506Z"
    },
    {
      "icao": "LEMD",
      "alert": "OK",
      "vis_m": 9999,
      "fzfg": false,
      "metar_trigger": false,
      "taf_trigger": false,
      "metar": "METAR LEMD 042000Z 19004KT 170V250 CAVOK 20/05 Q1022 NOSIG",
      "taf": "TAF LEMD 041700Z 0418/0524 VRB04KT CAVOK TX26/0516Z TN07/0506Z"
    },
    {
      "icao": "LEMG",
      "alert": "OK",
      "vis_m": 9999,
      "fzfg": false,
      "metar_trigger": false,
      "taf_trigger": false,
      "metar": "METAR LEMG 042000Z VRB02KT CAVOK 13/10 Q1024 NOSIG",
      "taf": "TAF LEMG 041700Z 0418/0518 13010KT CAVOK TX22/0514Z TN11/0507Z"
    },
    {
      "icao": "LEVC",
      "alert": "OK",
      "vis_m": 9999,
      "fzfg": false,
      "metar_trigger": false,
      "taf_trigger": false,
      "metar": "METAR LEVC 042000Z 35003KT 300V040 CAVOK 18/05 Q1023 NOSIG",
      "taf": "TAF LEVC 041700Z 0418/0518 12010KT CAVOK TX25/0514Z TN10/0506Z"
    },
    {
      "icao": "LEXJ",
      "alert": "OK",
      "vis_m": 8000,
      "fzfg": false,
      "metar_trigger": false,
      "taf_trigger": false,
      "metar": "METAR LEXJ 042000Z 29003KT 8000 NSC 14/07 Q1021",
      "taf": "TAF LEXJ 041400Z 0415/0515 05005KT CAVOK TX22/0415Z TN12/0506Z"
    },
    {
      "icao": "LEZG",
      "alert": "OK",
      "vis_m": 9999,
      "fzfg": false,
      "metar_trigger": false,
      "taf_trigger": false,
      "metar": "METAR LEZG 042000Z 20005KT CAVOK 17/06 Q1021 NOSIG",
      "taf": "TAF LEZG 041700Z 0418/0518 28005KT 9999 FEW050 TX29/0514Z TN10/0506Z"
    },
    {
      "icao": "LEZL",
      "alert": "OK",
      "vis_m": 9999,
      "fzfg": false,
      "metar_trigger": false,
      "taf_trigger": false,
      "metar": "METAR LEZL 042000Z 09003KT CAVOK 19/05 Q1021 NOSIG",
      "taf": "TAF LEZL 041400Z 0415/0515 08008KT CAVOK TX28/0415Z TN10/0507Z"
    },
    {
      "icao": "LFBD",
      "alert": "OK",
      "vis_m": 9999,
      "fzfg": false,
      "metar_trigger": false,
      "taf_trigger": false,
      "metar": "METAR LFBD 042000Z AUTO 15007KT CAVOK 18/09 Q1020 NOSIG",
      "taf": "TAF LFBD 041700Z 0418/0524 15008KT CAVOK TX21/0515Z TN07/0505Z"
    },
    {
      "icao": "LFLL",
      "alert": "OK",
      "vis_m": 9999,
      "fzfg": false,
      "metar_trigger": false,
      "taf_trigger": false,
      "metar": "METAR LFLL 042000Z 14005KT CAVOK 15/07 Q1022 NOSIG",
      "taf": "TAF LFLL 041700Z 0418/0524 34006KT CAVOK"
    },
    {
      "icao": "LFLS",
      "alert": "OK",
      "vis_m": 9999,
      "fzfg": false,
      "metar_trigger": false,
      "taf_trigger": false,
      "metar": "METAR LFLS 042000Z AUTO 11005KT CAVOK 09/07 Q1022",
      "taf": "TAF LFLS 041400Z 0415/0515 36005KT 9999 FEW036"
    },
    {
      "icao": "LFMN",
      "alert": "OK",
      "vis_m": 9999,
      "fzfg": false,
      "metar_trigger": false,
      "taf_trigger": false,
      "metar": "METAR LFMN 042000Z 28003KT CAVOK 15/13 Q1021 NOSIG",
      "taf": "TAF LFMN 041400Z 0415/0521 VRB03KT CAVOK"
    },
    {
      "icao": "LFOB",
      "alert": "OK",
      "vis_m": 9999,
      "fzfg": false,
      "metar_trigger": false,
      "taf_trigger": false,
      "metar": "METAR LFOB 042000Z AUTO 19012KT CAVOK 15/09 Q1015 NOSIG",
      "taf": "TAF LFOB 041700Z 0418/0518 19012KT 9999 BKN045"
    },
    {
      "icao": "LFPO",
      "alert": "OK",
      "vis_m": 9999,
      "fzfg": false,
      "metar_trigger": false,
      "taf_trigger": false,
      "metar": "METAR LFPO 042000Z 18005KT CAVOK 15/08 Q1017 NOSIG",
      "taf": "TAF LFPO 041700Z 0418/0524 20010KT CAVOK"
    },
    {
      "icao": "LFSB",
      "alert": "OK",
      "vis_m": 9999,
      "fzfg": false,
      "metar_trigger": false,
      "taf_trigger": false,
      "metar": "METAR LFSB 042000Z AUTO VRB02KT CAVOK 11/10 Q1022 NOSIG",
      "taf": "TAF LFSB 041730Z 0418/0518 VRB03KT 9999 FEW035"
    },
    {
      "icao": "LGAV",
      "alert": "OK",
      "vis_m": 9999,
      "fzfg": false,
      "metar_trigger": false,
      "taf_trigger": false,
      "metar": "METAR LGAV 041950Z 34006KT 9999 SCT025 BKN050 13/09 Q1016 NOSIG",
      "taf": "TAF LGAV 041700Z 0418/0518 33010KT 9999 SCT025 BKN050"
    },
    {
      "icao": "LGTS",
      "alert": "OK",
      "vis_m": 9999,
      "fzfg": false,
      "metar_trigger": false,
      "taf_trigger": false,
      "metar": "METAR LGTS 041950Z VRB02KT 9999 FEW018TCU SCT025 13/12 Q1018 NOSIG",
      "taf": "TAF LGTS 041700Z 0418/0518 33012KT 9999 SCT025"
    },
    {
      "icao": "LHBP",
      "alert": "OK",
      "vis_m": 9999,
      "fzfg": false,
      "metar_trigger": false,
      "taf_trigger": false,
      "metar": "METAR LHBP 042000Z 31013KT CAVOK 12/07 Q1020 NOSIG",
      "taf": "TAF LHBP 041715Z 0418/0518 31013KT CAVOK"
    },
    {
      "icao": "LHDC",
      "alert": "OK",
      "vis_m": 9999,
      "fzfg": false,
      "metar_trigger": false,
      "taf_trigger": false,
      "metar": "METAR LHDC 041945Z AUTO 25006KT CAVOK 11/05 Q1018",
      "taf": "TAF LHDC 041415Z 0415/0424 28008KT CAVOK"
    },
    {
      "icao": "LIBD",
      "alert": "OK",
      "vis_m": 9999,
      "fzfg": false,
      "metar_trigger": false,
      "taf_trigger": false,
      "metar": "METAR LIBD 041950Z AUTO 31009KT 9999 NCD 14/04 Q1020",
      "taf": "TAF LIBD 041700Z 0418/0518 34010KT CAVOK"
    },
    {
      "icao": "LIBG",
      "alert": "OK",
      "vis_m": null,
      "fzfg": false,
      "metar_trigger": false,
      "taf_trigger": false,
      "metar": "",
      "taf": "TAF LIBG 041400Z 0415/0424 33016KT 9999 SCT030"
    },
    {
      "icao": "LIBP",
      "alert": "OK",
      "vis_m": 9999,
      "fzfg": false,
      "metar_trigger": false,
      "taf_trigger": false,
      "metar": "METAR LIBP 041950Z AUTO 22003KT 190V280 9999 NCD 08/05 Q1022",
      "taf": "TAF LIBP 041700Z 0418/0518 26006KT CAVOK"
    },
    {
      "icao": "LIBR",
      "alert": "OK",
      "vis_m": 9999,
      "fzfg": false,
      "metar_trigger": false,
      "taf_trigger": false,
      "metar": "METAR LIBR 041950Z 33014KT CAVOK 14/11 Q1019",
      "taf": "TAF LIBR 041700Z 0418/0518 33016KT CAVOK"
    },
    {
      "icao": "LICA",
      "alert": "OK",
      "vis_m": 9999,
      "fzfg": false,
      "metar_trigger": false,
      "taf_trigger": false,
      "metar": "METAR LICA 041950Z AUTO VRB01KT 9999 FEW031/// SCT080/// 13/11 Q1020",
      "taf": "TAF LICA 041700Z 0418/0518 24010KT 9999 FEW050"
    },
    {
      "icao": "LICC",
      "alert": "OK",
      "vis_m": 9999,
      "fzfg": false,
      "metar_trigger": false,
      "taf_trigger": false,
      "metar": "METAR LICC 041950Z 29006KT 9999 FEW060 14/10 Q1020",
      "taf": "TAF LICC 041700Z 0418/0518 27006KT 9999 FEW050"
    },
    {
      "icao": "LICJ",
      "alert": "OK",
      "vis_m": 9999,
      "fzfg": false,
      "metar_trigger": false,
      "taf_trigger": false,
      "metar": "METAR LICJ 041950Z 06006KT CAVOK 14/09 Q1021",
      "taf": "TAF LICJ 041700Z 0418/0518 04013KT CAVOK"
    },
    {
      "icao": "LIMC",
      "alert": "OK",
      "vis_m": 9999,
      "fzfg": false,
      "metar_trigger": false,
      "taf_trigger": false,
      "metar": "METAR LIMC 041950Z 07003KT CAVOK 13/04 Q1021 NOSIG",
      "taf": "TAF LIMC 041700Z 0418/0524 VRB05KT CAVOK"
    },
    {
      "icao": "LIME",
      "alert": "OK",
      "vis_m": 9999,
      "fzfg": false,
      "metar_trigger": false,
      "taf_trigger": false,
      "metar": "METAR LIME 041950Z AUTO 02005KT 9999 NCD 14/05 Q1021",
      "taf": "TAF LIME 041700Z 0418/0518 VRB05KT CAVOK"
    },
    {
      "icao": "LIMF",
      "alert": "OK",
      "vis_m": 9999,
      "fzfg": false,
      "metar_trigger": false,
      "taf_trigger": false,
      "metar": "METAR LIMF 041950Z 30006KT CAVOK 16/03 Q1021",
      "taf": "TAF LIMF 041700Z 0418/0518 VRB05KT CAVOK"
    },
    {
      "icao": "LIMJ",
      "alert": "OK",
      "vis_m": 9999,
      "fzfg": false,
      "metar_trigger": false,
      "taf_trigger": false,
      "metar": "METAR LIMJ 041950Z 01004KT 300V030 CAVOK 15/08 Q1022",
      "taf": "TAF LIMJ 041700Z 0418/0518 VRB06KT CAVOK"
    },
    {
      "icao": "LIPE",
      "alert": "OK",
      "vis_m": 9999,
      "fzfg": false,
      "metar_trigger": false,
      "taf_trigger": false,
      "metar": "METAR LIPE 041950Z 10006KT CAVOK 14/00 Q1021",
      "taf": "TAF LIPE 041700Z 0418/0518 VRB05KT CAVOK"
    },
    {
      "icao": "LIPH",
      "alert": "OK",
      "vis_m": 9999,
      "fzfg": false,
      "metar_trigger": false,
      "taf_trigger": false,
      "metar": "METAR LIPH 041950Z VRB01KT CAVOK 13/03 Q1022",
      "taf": "TAF LIPH 041700Z 0418/0518 VRB05KT CAVOK"
    },
    {
      "icao": "LIPQ",
      "alert": "OK",
      "vis_m": 9999,
      "fzfg": false,
      "metar_trigger": false,
      "taf_trigger": false,
      "metar": "METAR LIPQ 041950Z AUTO VRB01KT 9999 FEW240/// 11/04 Q1022",
      "taf": "TAF LIPQ 041700Z 0418/0518 VRB05KT CAVOK"
    },
    {
      "icao": "LIPR",
      "alert": "OK",
      "vis_m": 9999,
      "fzfg": false,
      "metar_trigger": false,
      "taf_trigger": false,
      "metar": "METAR LIPR 041950Z VRB02KT CAVOK 11/05 Q1022",
      "taf": "TAF LIPR 041700Z 0418/0518 VRB05KT CAVOK"
    },
    {
      "icao": "LIPX",
      "alert": "OK",
      "vis_m": 9999,
      "fzfg": false,
      "metar_trigger": false,
      "taf_trigger": false,
      "metar": "METAR LIPX 041950Z 36004KT CAVOK 13/05 Q1021",
      "taf": "TAF LIPX 041700Z 0418/0518 VRB05KT CAVOK"
    },
    {
      "icao": "LIPY",
      "alert": "OK",
      "vis_m": 9999,
      "fzfg": false,
      "metar_trigger": false,
      "taf_trigger": false,
      "metar": "METAR LIPY 041950Z AUTO 19003KT 9999 NCD 10/05 Q1022",
      "taf": "TAF LIPY 041700Z 0418/0518 VRB05KT CAVOK"
    },
    {
      "icao": "LIPZ",
      "alert": "OK",
      "vis_m": 9999,
      "fzfg": false,
      "metar_trigger": false,
      "taf_trigger": false,
      "metar": "METAR LIPZ 041950Z 18002KT CAVOK 13/07 Q1022 NOSIG",
      "taf": "TAF LIPZ 041700Z 0418/0524 VRB05KT CAVOK"
    },
    {
      "icao": "LIRF",
      "alert": "OK",
      "vis_m": 9999,
      "fzfg": false,
      "metar_trigger": false,
      "taf_trigger": false,
      "metar": "METAR LIRF 041950Z 30005KT CAVOK 13/09 Q1019 NOSIG",
      "taf": "TAF LIRF 041700Z 0418/0524 35010KT CAVOK"
    },
    {
      "icao": "LIRN",
      "alert": "OK",
      "vis_m": 9999,
      "fzfg": false,
      "metar_trigger": false,
      "taf_trigger": false,
      "metar": "METAR LIRN 041950Z 35005G16KT 290V080 CAVOK 15/09 Q1021 NOSIG",
      "taf": "TAF LIRN 041700Z 0418/0518 VRB06KT CAVOK"
    },
    {
      "icao": "LIRP",
      "alert": "OK",
      "vis_m": 9999,
      "fzfg": false,
      "metar_trigger": false,
      "taf_trigger": false,
      "metar": "METAR LIRP 041945Z 30003KT CAVOK 14/11 Q1022 NOSIG",
      "taf": "TAF LIRP 041700Z 0418/0518 29006KT CAVOK"
    },
    {
      "icao": "LIRZ",
      "alert": "OK",
      "vis_m": 9999,
      "fzfg": false,
      "metar_trigger": false,
      "taf_trigger": false,
      "metar": "METAR LIRZ 041950Z AUTO 04008KT 9999 NCD 14/02 Q1021",
      "taf": "TAF LIRZ 041700Z 0418/0518 VRB05KT CAVOK"
    },
    {
      "icao": "LJLJ",
      "alert": "OK",
      "vis_m": 9999,
      "fzfg": false,
      "metar_trigger": false,
      "taf_trigger": false,
      "metar": "METAR LJLJ 042000Z VRB02KT 9999 FEW080 SCT250 09/03 Q1022 NOSIG",
      "taf": "TAF LJLJ 041700Z 0418/0518 30004KT 9999 BKN090"
    },
    {
      "icao": "LKMT",
      "alert": "OK",
      "vis_m": 9999,
      "fzfg": false,
      "metar_trigger": false,
      "taf_trigger": false,
      "metar": "METAR LKMT 042000Z 23009KT CAVOK 10/08 Q1020 NOSIG",
      "taf": "TAF LKMT 041700Z 0418/0518 23004KT CAVOK"
    },
    {
      "icao": "LKPR",
      "alert": "OK",
      "vis_m": 9999,
      "fzfg": false,
      "metar_trigger": false,
      "taf_trigger": false,
      "metar": "METAR LKPR 042000Z 24008KT CAVOK 10/08 Q1021 NOSIG",
      "taf": "TAF LKPR 041700Z 0418/0524 25008KT 9999 SCT027 BKN045"
    },
    {
      "icao": "LLBG",
      "alert": "OK",
      "vis_m": 9999,
      "fzfg": false,
      "metar_trigger": false,
      "taf_trigger": false,
      "metar": "METAR LLBG 041950Z VRB03KT CAVOK 15/10 Q1018 NOSIG",
      "taf": "TAF LLBG 041704Z 0418/0518 VRB03KT 7000 NSC TX22/0512Z TN12/0503Z"
    },
    {
      "icao": "LMML",
      "alert": "OK",
      "vis_m": 9999,
      "fzfg": false,
      "metar_trigger": false,
      "taf_trigger": false,
      "metar": "METAR LMML 041945Z 29003KT 280V340 CAVOK 13/11 Q1020 NOSIG",
      "taf": "TAF LMML 041700Z 0418/0518 35007KT 9999 FEW030"
    },
    {
      "icao": "LOWW",
      "alert": "OK",
      "vis_m": 9999,
      "fzfg": false,
      "metar_trigger": false,
      "taf_trigger": false,
      "metar": "METAR LOWW 041950Z 29015KT CAVOK 12/08 Q1022 NOSIG",
      "taf": "TAF LOWW 041715Z 0418/0524 28010KT CAVOK TX23/0514Z TN08/0504Z"
    },
    {
      "icao": "LPFR",
      "alert": "OK",
      "vis_m": 9999,
      "fzfg": false,
      "metar_trigger": false,
      "taf_trigger": false,
      "metar": "METAR LPFR 042000Z 07006G23KT 020V100 CAVOK 20/04 Q1020",
      "taf": "TAF LPFR 041700Z 0418/0518 10010KT CAVOK"
    },
    {
      "icao": "LPMA",
      "alert": "OK",
      "vis_m": 9999,
      "fzfg": false,
      "metar_trigger": false,
      "taf_trigger": false,
      "metar": "METAR LPMA 042000Z 03006KT 320V070 9999 FEW013 19/07 Q1018",
      "taf": "TAF LPMA 041700Z 0418/0518 34010KT 9999 SCT015"
    },
    {
      "icao": "LPPR",
      "alert": "OK",
      "vis_m": 9000,
      "fzfg": false,
      "metar_trigger": false,
      "taf_trigger": false,
      "metar": "METAR LPPR 042000Z 32005KT 9000 NSC 13/12 Q1022",
      "taf": "TAF LPPR 041700Z 0418/0518 31007KT CAVOK"
    },
    {
      "icao": "LPPS",
      "alert": "OK",
      "vis_m": 9999,
      "fzfg": false,
      "metar_trigger": false,
      "taf_trigger": false,
      "metar": "METAR LPPS 042000Z 02009KT 350V050 9999 FEW014 16/14 Q1019",
      "taf": "TAF LPPS 041700Z 0418/0524 03012KT 9999 SCT012"
    },
    {
      "icao": "LPPT",
      "alert": "OK",
      "vis_m": 9999,
      "fzfg": false,
      "metar_trigger": false,
      "taf_trigger": false,
      "metar": "METAR LPPT 042000Z 31009KT CAVOK 19/04 Q1021",
      "taf": "TAF LPPT 041700Z 0418/0524 32010KT CAVOK"
    },
    {
      "icao": "LQBK",
      "alert": "OK",
      "vis_m": 9999,
      "fzfg": false,
      "metar_trigger": false,
      "taf_trigger": false,
      "metar": "METAR LQBK 042000Z VRB02KT CAVOK 10/05 Q1022 NOSIG",
      "taf": "TAF LQBK 041700Z 0418/0518 16005KT CAVOK TX19/0513Z TN05/0505Z"
    },
    {
      "icao": "LQSA",
      "alert": "OK",
      "vis_m": 9999,
      "fzfg": false,
      "metar_trigger": false,
      "taf_trigger": false,
      "metar": "METAR LQSA 042000Z 13002KT CAVOK 07/00 Q1022 NOSIG",
      "taf": "TAF LQSA 041700Z 0418/0518 VRB02KT 9999 SCT050 TX18/0513Z TN04/0505Z"
    },
    {
      "icao": "LQTZ",
      "alert": "OK",
      "vis_m": 9999,
      "fzfg": false,
      "metar_trigger": false,
      "taf_trigger": false,
      "metar": "METAR LQTZ 042000Z VRB01KT 9999 SCT060 07/04 Q1022",
      "taf": "TAF LQTZ 041700Z 0418/0518 VRB02KT 9999 SCT060 TX16/0513Z TN06/0505Z"
    },
    {
      "icao": "LRBC",
      "alert": "OK",
      "vis_m": 9999,
      "fzfg": false,
      "metar_trigger": false,
      "taf_trigger": false,
      "metar": "METAR LRBC 042000Z 36003KT CAVOK 09/04 Q1017",
      "taf": "TAF LRBC 041700Z 0418/0503 28004KT CAVOK"
    },
    {
      "icao": "LRBS",
      "alert": "OK",
      "vis_m": 9999,
      "fzfg": false,
      "metar_trigger": false,
      "taf_trigger": false,
      "metar": "METAR LRBS 042000Z VRB01KT 9999 SCT048 12/10 Q1018 NOSIG",
      "taf": "TAF LRBS 041700Z 0418/0518 25005KT 9999 FEW040CB SCT045"
    },
    {
      "icao": "LRBV",
      "alert": "OK",
      "vis_m": 9999,
      "fzfg": false,
      "metar_trigger": false,
      "taf_trigger": false,
      "metar": "METAR LRBV 042000Z 22009KT 9999 FEW052 08/05 Q1018",
      "taf": "TAF LRBV 041700Z 0418/0503 26006KT CAVOK"
    },
    {
      "icao": "LRCL",
      "alert": "OK",
      "vis_m": 9999,
      "fzfg": false,
      "metar_trigger": false,
      "taf_trigger": false,
      "metar": "METAR LRCL 042000Z 29004KT CAVOK 08/01 Q1019",
      "taf": "TAF LRCL 041700Z 0418/0503 32010KT CAVOK"
    },
    {
      "icao": "LRCV",
      "alert": "OK",
      "vis_m": 9999,
      "fzfg": false,
      "metar_trigger": false,
      "taf_trigger": false,
      "metar": "METAR LRCV 042000Z 25003KT CAVOK 10/10 Q1019",
      "taf": "TAF LRCV 041700Z 0418/0503 VRB04KT 9999 FEW050CB"
    },
    {
      "icao": "LRIA",
      "alert": "OK",
      "vis_m": 9999,
      "fzfg": false,
      "metar_trigger": false,
      "taf_trigger": false,
      "metar": "METAR LRIA 042000Z 24005KT CAVOK 10/03 Q1016",
      "taf": "TAF LRIA 041700Z 0418/0503 30005KT CAVOK"
    },
    {
      "icao": "LROP",
      "alert": "OK",
      "vis_m": 9999,
      "fzfg": false,
      "metar_trigger": false,
      "taf_trigger": false,
      "metar": "METAR LROP 042000Z 23002KT 9999 FEW046 11/11 Q1018 NOSIG",
      "taf": "TAF LROP 041700Z 0418/0518 25005KT 9999 FEW040CB SCT045"
    },
    {
      "icao": "LRSB",
      "alert": "OK",
      "vis_m": 9999,
      "fzfg": false,
      "metar_trigger": false,
      "taf_trigger": false,
      "metar": "METAR LRSB 042000Z 30008KT 9999 SCT050 SCT070 12/04 Q1019",
      "taf": "TAF LRSB 041700Z 0418/0518 VRB04KT CAVOK"
    },
    {
      "icao": "LRSM",
      "alert": "OK",
      "vis_m": 9999,
      "fzfg": false,
      "metar_trigger": false,
      "taf_trigger": false,
      "metar": "METAR LRSM 042000Z AUTO 21006KT 9999 NCD 09/03 Q1018",
      "taf": "TAF LRSM 041400Z 0415/0424 VRB04KT CAVOK"
    },
    {
      "icao": "LRSV",
      "alert": "OK",
      "vis_m": 9999,
      "fzfg": false,
      "metar_trigger": false,
      "taf_trigger": false,
      "metar": "METAR LRSV 042000Z 24005KT CAVOK 09/03 Q1016",
      "taf": "TAF LRSV 041700Z 0418/0503 VRB04KT CAVOK"
    },
    {
      "icao": "LRTM",
      "alert": "OK",
      "vis_m": 9999,
      "fzfg": false,
      "metar_trigger": false,
      "taf_trigger": false,
      "metar": "METAR LRTM 042000Z VRB01KT CAVOK 06/03 Q1019",
      "taf": "TAF LRTM 041700Z 0418/0503 VRB04KT CAVOK"
    },
    {
      "icao": "LRTR",
      "alert": "OK",
      "vis_m": 9999,
      "fzfg": false,
      "metar_trigger": false,
      "taf_trigger": false,
      "metar": "METAR LRTR 042000Z 30003KT CAVOK 11/04 Q1020",
      "taf": "TAF LRTR 041700Z 0418/0518 VRB04KT CAVOK"
    },
    {
      "icao": "LTAC",
      "alert": "OK",
      "vis_m": 9999,
      "fzfg": false,
      "metar_trigger": false,
      "taf_trigger": false,
      "metar": "METAR LTAC 041950Z 35003KT 300V050 9999 FEW040 SCT100 BKN180 07/03 Q1014 NOSIG RMK RWY21C 32003KT RWY03L 34003KT RWY21R VRB02KT RWY03R VRB01KT RWY21L VRB02KT",
      "taf": "TAF LTAC 041640Z 0418/0518 VRB02KT 9999 SCT040 SCT100"
    },
    {
      "icao": "LTFM",
      "alert": "OK",
      "vis_m": 1100,
      "fzfg": false,
      "metar_trigger": false,
      "taf_trigger": false,
      "metar": "METAR LTFM 041950Z 01008KT 1100 0600N R35R/1100D R17L/P1500D R34L/1400D R16R/0700N BCFG VV002 09/09 Q1016 NOSIG RMK RWY17L 01008KT RWY34L 01008KT RWY16R 36005KT RWY36 02008KT RWY18 02007KT",
      "taf": "TAF LTFM 041640Z 0418/0524 33010KT 1200 BCFG BKN002 BKN022"
    },
    {
      "icao": "LUKK",
      "alert": "OK",
      "vis_m": 9999,
      "fzfg": false,
      "metar_trigger": false,
      "taf_trigger": false,
      "metar": "METAR LUKK 042000Z 35005KT 340V040 CAVOK 11/03 Q1016 NOSIG",
      "taf": "TAF LUKK 041709Z 0418/0518 31008KT CAVOK"
    },
    {
      "icao": "LWOH",
      "alert": "OK",
      "vis_m": 9999,
      "fzfg": false,
      "metar_trigger": false,
      "taf_trigger": false,
      "metar": "METAR LWOH 041850Z 35006KT 310V040 9999 SCT050 11/04 Q1019",
      "taf": "TAF LWOH 041710Z 0418/0518 34010KT 9999 SCT050"
    },
    {
      "icao": "LWSK",
      "alert": "OK",
      "vis_m": 9999,
      "fzfg": false,
      "metar_trigger": false,
      "taf_trigger": false,
      "metar": "METAR LWSK 041950Z 05006KT 9999 SCT080 10/06 Q1020 NOSIG",
      "taf": "TAF LWSK 041630Z 0416/0515 02012KT 9999 SCT040"
    },
    {
      "icao": "LYBE",
      "alert": "OK",
      "vis_m": 9999,
      "fzfg": false,
      "metar_trigger": false,
      "taf_trigger": false,
      "metar": "METAR LYBE 042000Z 26007KT CAVOK 11/05 Q1021 NOSIG",
      "taf": "TAF LYBE 041700Z 0418/0518 27005KT 9999 SCT040 TX18/0513Z TN06/0506Z"
    },
    {
      "icao": "LYNI",
      "alert": "OK",
      "vis_m": 9999,
      "fzfg": false,
      "metar_trigger": false,
      "taf_trigger": false,
      "metar": "METAR LYNI 042000Z 33009KT 9999 BKN070 13/03 Q1020 NOSIG",
      "taf": "TAF LYNI 041700Z 0418/0518 33016KT CAVOK TX16/0513Z TN04/0505Z"
    },
    {
      "icao": "LYPG",
      "alert": "OK",
      "vis_m": 9999,
      "fzfg": false,
      "metar_trigger": false,
      "taf_trigger": false,
      "metar": "METAR LYPG 042000Z 34011KT CAVOK 15/00 Q1019 NOSIG",
      "taf": "TAF LYPG 041700Z 0418/0518 32010KT CAVOK TX23/0512Z TN07/0504Z"
    },
    {
      "icao": "LZIB",
      "alert": "OK",
      "vis_m": 9999,
      "fzfg": false,
      "metar_trigger": false,
      "taf_trigger": false,
      "metar": "METAR LZIB 041930Z 28009KT CAVOK 12/07 Q1021 NOSIG",
      "taf": "TAF LZIB 041715Z 0418/0518 25007KT CAVOK"
    },
    {
      "icao": "LZKZ",
      "alert": "OK",
      "vis_m": 9999,
      "fzfg": false,
      "metar_trigger": false,
      "taf_trigger": false,
      "metar": "METAR LZKZ 041930Z 03010KT CAVOK 12/03 Q1018 NOSIG",
      "taf": "TAF LZKZ 041715Z 0418/0518 01006KT CAVOK"
    },
    {
      "icao": "LZTT",
      "alert": "OK",
      "vis_m": 9999,
      "fzfg": false,
      "metar_trigger": false,
      "taf_trigger": false,
      "metar": "METAR LZTT 041930Z 30008KT 9999 FEW060 07/03 Q1019",
      "taf": "TAF LZTT 041715Z 0418/0518 24005KT 9999 SCT060"
    },
    {
      "icao": "OEJN",
      "alert": "OK",
      "vis_m": 8000,
      "fzfg": false,
      "metar_trigger": false,
      "taf_trigger": false,
      "metar": "METAR OEJN 042000Z 35013KT 8000 NSC 26/18 Q1012 NOSIG",
      "taf": "TAF OEJN 041700Z 0418/0524 36012KT 7000 NSC"
    },
    {
      "icao": "OEMA",
      "alert": "OK",
      "vis_m": 4000,
      "fzfg": false,
      "metar_trigger": false,
      "taf_trigger": false,
      "metar": "METAR OEMA 042000Z 34003KT 4000 DU SCT045 28/07 Q1015 NOSIG",
      "taf": "TAF OEMA 041700Z 0418/0524 30006KT 6000 SCT045"
    },
    {
      "icao": "OJAI",
      "alert": "OK",
      "vis_m": 3000,
      "fzfg": false,
      "metar_trigger": false,
      "taf_trigger": false,
      "metar": "METAR OJAI 042000Z 12004KT 3000 DU NSC 10/03 Q1019 NOSIG",
      "taf": "TAF OJAI 041700Z 0418/0524 28012KT 3000 DU FEW030"
    },
    {
      "icao": "OMAA",
      "alert": "OK",
      "vis_m": null,
      "fzfg": false,
      "metar_trigger": false,
      "taf_trigger": false,
      "metar": "",
      "taf": ""
    },
    {
      "icao": "OMDB",
      "alert": "OK",
      "vis_m": null,
      "fzfg": false,
      "metar_trigger": false,
      "taf_trigger": false,
      "metar": "",
      "taf": ""
    },
    {
      "icao": "UAAA",
      "alert": "OK",
      "vis_m": 9999,
      "fzfg": false,
      "metar_trigger": false,
      "taf_trigger": false,
      "metar": "METAR UAAA 042000Z 19001MPS 9999 SCT050CB BKN100 16/09 Q1009 NOSIG",
      "taf": "TAF UAAA 041703Z 0418/0518 32002G07MPS 9999 BKN040CB OVC100 TX20/0509Z TN10/0501Z"
    },
    {
      "icao": "UBBB",
      "alert": "OK",
      "vis_m": 9999,
      "fzfg": false,
      "metar_trigger": false,
      "taf_trigger": false,
      "metar": "METAR UBBB 042000Z 25004KT CAVOK 10/09 Q1004 NOSIG",
      "taf": "TAF UBBB 041705Z 0418/0518 35010KT 9999 SCT010 BKN030 TX12/0510Z TN09/0501Z"
    },
    {
      "icao": "UDSG",
      "alert": "OK",
      "vis_m": 9999,
      "fzfg": false,
      "metar_trigger": false,
      "taf_trigger": false,
      "metar": "METAR UDSG 042000Z 12008KT 9999 BKN033CB 03/M01 Q1011 NOSIG",
      "taf": "TAF UDSG 041658Z 0418/0518 24006KT 9999 BKN040"
    },
    {
      "icao": "UDYZ",
      "alert": "OK",
      "vis_m": 9999,
      "fzfg": false,
      "metar_trigger": false,
      "taf_trigger": false,
      "metar": "METAR UDYZ 042000Z 25014KT 9999 FEW043CB 09/01 Q1008 WS R08 NOSIG",
      "taf": "TAF UDYZ 041700Z 0418/0518 02006KT 9999 SCT040"
    },
    {
      "icao": "UGKO",
      "alert": "OK",
      "vis_m": 9999,
      "fzfg": false,
      "metar_trigger": false,
      "taf_trigger": false,
      "metar": "METAR UGKO 042000Z 27004KT 9999 OVC065 11/08 Q1012 NOSIG",
      "taf": "TAF UGKO 041700Z 0418/0518 25007KT 9000 SCT020 OVC050 TX13/0510Z TN07/0424Z"
    }
  ]
}