{
  "ts_utc": "2026-05-02T21:44:02Z",
  "threshold_m": 150,
  "source": "stations_override.txt (ICAO list) + aviationweather.gov (METAR/TAF raw)",
  "station_count": 159,
  "stations": [
    {
      "icao": "BIKF",
      "alert": "OK",
      "vis_m": 9999,
      "fzfg": false,
      "metar_trigger": false,
      "taf_trigger": false,
      "metar": "METAR BIKF 022130Z 29013KT 9999 FEW024 BKN300 05/01 Q1013",
      "taf": "TAF BIKF 021938Z 0221/0321 30013KT 9999 FEW020 BKN040 TX06/0315Z TN03/0302Z"
    },
    {
      "icao": "BKPR",
      "alert": "OK",
      "vis_m": 9999,
      "fzfg": false,
      "metar_trigger": false,
      "taf_trigger": false,
      "metar": "METAR BKPR 022130Z 32004KT 280V360 9999 -RA SCT030 BKN045 08/06 Q1020 NOSIG",
      "taf": "TAF BKPR 021730Z 0218/0318 01008KT 9999 SCT050"
    },
    {
      "icao": "EBCI",
      "alert": "OK",
      "vis_m": 9999,
      "fzfg": false,
      "metar_trigger": false,
      "taf_trigger": false,
      "metar": "METAR EBCI 022120Z VRB02KT CAVOK 16/12 Q1013 NOSIG",
      "taf": "TAF EBCI 021710Z 0218/0324 20005KT 9999 SCT035"
    },
    {
      "icao": "EDDB",
      "alert": "OK",
      "vis_m": 9999,
      "fzfg": false,
      "metar_trigger": false,
      "taf_trigger": false,
      "metar": "METAR EDDB 022120Z AUTO 15006KT CAVOK 15/06 Q1015 NOSIG",
      "taf": "TAF EDDB 021700Z 0218/0318 17005KT CAVOK"
    },
    {
      "icao": "EDDH",
      "alert": "OK",
      "vis_m": 9999,
      "fzfg": false,
      "metar_trigger": false,
      "taf_trigger": false,
      "metar": "METAR EDDH 022120Z AUTO VRB02KT CAVOK 14/09 Q1014 TEMPO SHRA BKN035CB",
      "taf": "TAF EDDH 021700Z 0218/0324 26009KT CAVOK"
    },
    {
      "icao": "EDDK",
      "alert": "OK",
      "vis_m": 9999,
      "fzfg": false,
      "metar_trigger": false,
      "taf_trigger": false,
      "metar": "METAR EDDK 022120Z AUTO VRB01KT CAVOK 15/13 Q1014 NOSIG",
      "taf": "TAF EDDK 021700Z 0218/0324 06005KT CAVOK"
    },
    {
      "icao": "EDDN",
      "alert": "OK",
      "vis_m": 9999,
      "fzfg": false,
      "metar_trigger": false,
      "taf_trigger": false,
      "metar": "METAR EDDN 022120Z AUTO VRB02KT CAVOK 13/05 Q1017",
      "taf": "TAF EDDN 021700Z 0218/0318 17005KT CAVOK"
    },
    {
      "icao": "EDDS",
      "alert": "OK",
      "vis_m": 9999,
      "fzfg": false,
      "metar_trigger": false,
      "taf_trigger": false,
      "metar": "METAR EDDS 022120Z AUTO VRB02KT CAVOK 15/05 Q1016",
      "taf": "TAF EDDS 021700Z 0218/0318 VRB03KT CAVOK"
    },
    {
      "icao": "EDFH",
      "alert": "OK",
      "vis_m": 9999,
      "fzfg": false,
      "metar_trigger": false,
      "taf_trigger": false,
      "metar": "METAR EDFH 022120Z 20012KT CAVOK 17/01 Q1016",
      "taf": "TAF EDFH 021700Z 0218/0318 18009KT CAVOK"
    },
    {
      "icao": "EDJA",
      "alert": "OK",
      "vis_m": 9999,
      "fzfg": false,
      "metar_trigger": false,
      "taf_trigger": false,
      "metar": "METAR EDJA 022120Z AUTO 11002KT 9999 // NCD 11/06 Q1017",
      "taf": "TAF EDJA 021700Z 0218/0303 25005KT CAVOK"
    },
    {
      "icao": "EDLW",
      "alert": "OK",
      "vis_m": 9999,
      "fzfg": false,
      "metar_trigger": false,
      "taf_trigger": false,
      "metar": "METAR EDLW 022120Z AUTO 09004KT 9999 // FEW071/// SCT130/// BKN230/// 15/14 Q1015",
      "taf": "TAF EDLW 021700Z 0218/0318 22006KT CAVOK"
    },
    {
      "icao": "EDNY",
      "alert": "OK",
      "vis_m": 9999,
      "fzfg": false,
      "metar_trigger": false,
      "taf_trigger": false,
      "metar": "METAR EDNY 022120Z AUTO 05005KT 9999 // NCD 11/05 Q1017",
      "taf": "TAF EDNY 021700Z 0218/0303 23005KT CAVOK"
    },
    {
      "icao": "EDSB",
      "alert": "OK",
      "vis_m": 9999,
      "fzfg": false,
      "metar_trigger": false,
      "taf_trigger": false,
      "metar": "METAR EDSB 022120Z VRB02KT CAVOK 16/11 Q1015",
      "taf": "TAF EDSB 021700Z 0218/0318 VRB03KT CAVOK"
    },
    {
      "icao": "EETN",
      "alert": "OK",
      "vis_m": 9999,
      "fzfg": false,
      "metar_trigger": false,
      "taf_trigger": false,
      "metar": "METAR EETN 022120Z 20009KT CAVOK 12/04 Q1009 NOSIG",
      "taf": "TAF EETN 021730Z 0218/0318 22012KT CAVOK"
    },
    {
      "icao": "EFTU",
      "alert": "OK",
      "vis_m": 9999,
      "fzfg": false,
      "metar_trigger": false,
      "taf_trigger": false,
      "metar": "METAR EFTU 022120Z AUTO VRB03KT CAVOK 09/04 Q1006",
      "taf": "TAF EFTU 022035Z 0221/0321 22008KT CAVOK"
    },
    {
      "icao": "EGBB",
      "alert": "OK",
      "vis_m": 4500,
      "fzfg": false,
      "metar_trigger": false,
      "taf_trigger": false,
      "metar": "METAR EGBB 022120Z 04005KT 4500 -RA SCT005 BKN023 12/12 Q1010 RERA",
      "taf": "TAF EGBB 021700Z 0218/0318 36005KT 9999 SCT020"
    },
    {
      "icao": "EGGP",
      "alert": "OK",
      "vis_m": 9000,
      "fzfg": false,
      "metar_trigger": false,
      "taf_trigger": false,
      "metar": "METAR EGGP 022120Z 33004KT 9000 -RA BKN039 BKN047 12/10 Q1012",
      "taf": "TAF EGGP 021655Z 0218/0318 VRB03KT 9999 SCT035"
    },
    {
      "icao": "EGGW",
      "alert": "OK",
      "vis_m": 9999,
      "fzfg": false,
      "metar_trigger": false,
      "taf_trigger": false,
      "metar": "METAR EGGW 022120Z AUTO 14005KT 9999 BKN022 13/12 Q1011",
      "taf": "TAF EGGW 021704Z 0218/0318 13007KT 9999 FEW045"
    },
    {
      "icao": "EGKK",
      "alert": "OK",
      "vis_m": 9999,
      "fzfg": false,
      "metar_trigger": false,
      "taf_trigger": false,
      "metar": "METAR EGKK 022120Z 15004KT 9999 FEW038 14/13 Q1011",
      "taf": "TAF EGKK 021658Z 0218/0324 16005KT 9999 SCT045"
    },
    {
      "icao": "EGNM",
      "alert": "OK",
      "vis_m": 9999,
      "fzfg": false,
      "metar_trigger": false,
      "taf_trigger": false,
      "metar": "METAR EGNM 022120Z 01005KT 9999 -RA FEW038 12/09 Q1012",
      "taf": "TAF EGNM 021655Z 0218/0318 VRB04KT 9999 SCT020"
    },
    {
      "icao": "EGPD",
      "alert": "OK",
      "vis_m": 9999,
      "fzfg": false,
      "metar_trigger": false,
      "taf_trigger": false,
      "metar": "METAR EGPD 022120Z AUTO 04005KT 9999 -RA BKN007 BKN011 OVC019 08/07 Q1016 TEMPO RA BKN006",
      "taf": "TAF EGPD 021656Z 0218/0318 04009KT 9999 BKN012"
    },
    {
      "icao": "EGPF",
      "alert": "OK",
      "vis_m": 9999,
      "fzfg": false,
      "metar_trigger": false,
      "taf_trigger": false,
      "metar": "METAR EGPF 022120Z AUTO 08014KT 9999 -RA SCT029/// BKN045/// //////CB 11/08 Q1013",
      "taf": ""
    },
    {
      "icao": "EHBK",
      "alert": "OK",
      "vis_m": 9999,
      "fzfg": false,
      "metar_trigger": false,
      "taf_trigger": false,
      "metar": "METAR EHBK 022125Z AUTO 14006KT 9999 NSC 15/13 Q1013",
      "taf": "TAF EHBK 021715Z 0218/0324 15006KT 9999 FEW030"
    },
    {
      "icao": "EHEH",
      "alert": "OK",
      "vis_m": 9999,
      "fzfg": false,
      "metar_trigger": false,
      "taf_trigger": false,
      "metar": "METAR EHEH 022125Z AUTO 29007KT 240V350 9999 -RA FEW015CB OVC035 16/13 Q1014 BLU",
      "taf": ""
    },
    {
      "icao": "EKBI",
      "alert": "OK",
      "vis_m": 5000,
      "fzfg": false,
      "metar_trigger": false,
      "taf_trigger": false,
      "metar": "METAR EKBI 022120Z AUTO 21007KT 5000 BR FEW023/// 11/10 Q1013",
      "taf": ""
    },
    {
      "icao": "EKCH",
      "alert": "OK",
      "vis_m": 9999,
      "fzfg": false,
      "metar_trigger": false,
      "taf_trigger": false,
      "metar": "METAR EKCH 022120Z AUTO 17004KT 9999 OVC087/// 14/08 Q1013 NOSIG",
      "taf": "TAF EKCH 022027Z 0221/0321 19006KT CAVOK"
    },
    {
      "icao": "ENAL",
      "alert": "OK",
      "vis_m": 9999,
      "fzfg": false,
      "metar_trigger": false,
      "taf_trigger": false,
      "metar": "METAR ENAL 022120Z 03007KT 9999 FEW033 BKN054 04/M01 Q1015",
      "taf": "TAF ENAL 022000Z 0221/0306 34008KT 9999 -RA SCT020 BKN030"
    },
    {
      "icao": "ENBR",
      "alert": "OK",
      "vis_m": 9999,
      "fzfg": false,
      "metar_trigger": false,
      "taf_trigger": false,
      "metar": "METAR ENBR 022120Z 33010KT 9999 BKN016 05/02 Q1012 RMK WIND 1200FT 33017KT",
      "taf": ""
    },
    {
      "icao": "ENGM",
      "alert": "OK",
      "vis_m": 9999,
      "fzfg": false,
      "metar_trigger": false,
      "taf_trigger": false,
      "metar": "METAR ENGM 022120Z 00000KT CAVOK 09/05 Q1008",
      "taf": "TAF ENGM 021700Z 0218/0318 34005KT CAVOK"
    },
    {
      "icao": "ENHD",
      "alert": "OK",
      "vis_m": 9999,
      "fzfg": false,
      "metar_trigger": false,
      "taf_trigger": false,
      "metar": "METAR ENHD 022120Z AUTO 34019KT 9999 FEW009/// BKN011/// BKN034/// 07/04 Q1012",
      "taf": "TAF ENHD 021400Z 0215/0222 34008KT 9999 -RA FEW020 BKN035"
    },
    {
      "icao": "ENTC",
      "alert": "OK",
      "vis_m": 9999,
      "fzfg": false,
      "metar_trigger": false,
      "taf_trigger": false,
      "metar": "METAR ENTC 022120Z AUTO 25014KT 9999 BKN055/// BKN068/// 02/M07 Q1001 RMK WIND 2600FT 30023G35KT",
      "taf": ""
    },
    {
      "icao": "ENTO",
      "alert": "OK",
      "vis_m": 9999,
      "fzfg": false,
      "metar_trigger": false,
      "taf_trigger": false,
      "metar": "METAR ENTO 022120Z AUTO 21006KT 9999 SCT039/// 10/09 Q1009",
      "taf": "TAF ENTO 021700Z 0218/0318 VRB03KT CAVOK"
    },
    {
      "icao": "ENVA",
      "alert": "OK",
      "vis_m": 9999,
      "fzfg": false,
      "metar_trigger": false,
      "taf_trigger": false,
      "metar": "METAR ENVA 022120Z 24009KT 9999 FEW028 SCT034 04/01 Q1013 RMK WIND 670FT 27012KT",
      "taf": "TAF ENVA 021700Z 0218/0318 27012KT 9999 FEW015 BKN030"
    },
    {
      "icao": "ENZV",
      "alert": "OK",
      "vis_m": 9999,
      "fzfg": false,
      "metar_trigger": false,
      "taf_trigger": false,
      "metar": "METAR ENZV 022120Z 34008KT 9999 FEW038 08/06 Q1012",
      "taf": ""
    },
    {
      "icao": "EPGD",
      "alert": "OK",
      "vis_m": 9999,
      "fzfg": false,
      "metar_trigger": false,
      "taf_trigger": false,
      "metar": "METAR EPGD 022130Z 27002KT CAVOK 11/02 Q1016",
      "taf": "TAF EPGD 021730Z 0218/0318 06005KT CAVOK"
    },
    {
      "icao": "EPKK",
      "alert": "OK",
      "vis_m": 9999,
      "fzfg": false,
      "metar_trigger": false,
      "taf_trigger": false,
      "metar": "METAR EPKK 022130Z VRB02KT CAVOK 10/03 Q1021",
      "taf": "TAF EPKK 022030Z 0221/0321 VRB02KT CAVOK"
    },
    {
      "icao": "EPKT",
      "alert": "OK",
      "vis_m": 9999,
      "fzfg": false,
      "metar_trigger": false,
      "taf_trigger": false,
      "metar": "METAR EPKT 022130Z 08003KT CAVOK 08/02 Q1020",
      "taf": "TAF EPKT 021730Z 0218/0318 07010KT CAVOK"
    },
    {
      "icao": "EPLB",
      "alert": "OK",
      "vis_m": 9999,
      "fzfg": false,
      "metar_trigger": false,
      "taf_trigger": false,
      "metar": "METAR EPLB 022130Z 22005KT CAVOK 13/04 Q1020",
      "taf": "TAF EPLB 021730Z 0218/0318 VRB04KT CAVOK"
    },
    {
      "icao": "EPMO",
      "alert": "OK",
      "vis_m": 9999,
      "fzfg": false,
      "metar_trigger": false,
      "taf_trigger": false,
      "metar": "METAR EPMO 022130Z 21006KT CAVOK 17/03 Q1018",
      "taf": "TAF EPMO 021730Z 0218/0318 VRB04KT CAVOK"
    },
    {
      "icao": "EPPO",
      "alert": "OK",
      "vis_m": 9999,
      "fzfg": false,
      "metar_trigger": false,
      "taf_trigger": false,
      "metar": "METAR EPPO 022130Z 19003KT CAVOK 11/03 Q1017",
      "taf": "TAF EPPO 021730Z 0218/0318 19006KT CAVOK"
    },
    {
      "icao": "EPRA",
      "alert": "OK",
      "vis_m": 9999,
      "fzfg": false,
      "metar_trigger": false,
      "taf_trigger": false,
      "metar": "METAR EPRA 022130Z 23009KT CAVOK 12/05 Q1020",
      "taf": "TAF EPRA 022030Z 0221/0306 23008KT CAVOK"
    },
    {
      "icao": "EPRZ",
      "alert": "OK",
      "vis_m": 9999,
      "fzfg": false,
      "metar_trigger": false,
      "taf_trigger": false,
      "metar": "METAR EPRZ 022130Z 21004KT CAVOK 11/04 Q1021",
      "taf": "TAF EPRZ 021730Z 0218/0318 15003KT CAVOK"
    },
    {
      "icao": "EPSC",
      "alert": "OK",
      "vis_m": 9999,
      "fzfg": false,
      "metar_trigger": false,
      "taf_trigger": false,
      "metar": "METAR EPSC 022130Z 14005KT CAVOK 16/03 Q1015",
      "taf": "TAF EPSC 021730Z 0218/0318 17008KT CAVOK"
    },
    {
      "icao": "EPSY",
      "alert": "OK",
      "vis_m": 9999,
      "fzfg": false,
      "metar_trigger": false,
      "taf_trigger": false,
      "metar": "METAR EPSY 022130Z 22002KT CAVOK 10/01 Q1017",
      "taf": "TAF EPSY 022030Z 0221/0306 22005KT CAVOK"
    },
    {
      "icao": "EPWA",
      "alert": "OK",
      "vis_m": 9999,
      "fzfg": false,
      "metar_trigger": false,
      "taf_trigger": false,
      "metar": "METAR EPWA 022130Z VRB02KT CAVOK 12/04 Q1019 NOSIG",
      "taf": "TAF EPWA 022030Z 0221/0321 20003KT CAVOK"
    },
    {
      "icao": "EPWR",
      "alert": "OK",
      "vis_m": 9999,
      "fzfg": false,
      "metar_trigger": false,
      "taf_trigger": false,
      "metar": "METAR EPWR 022130Z 13006KT CAVOK 13/03 Q1018",
      "taf": "TAF EPWR 022030Z 0221/0321 15004KT CAVOK"
    },
    {
      "icao": "ESGG",
      "alert": "OK",
      "vis_m": 9999,
      "fzfg": false,
      "metar_trigger": false,
      "taf_trigger": false,
      "metar": "METAR ESGG 022120Z 20004KT 9999 FEW048 SCT076 BKN098 11/08 Q1010",
      "taf": "TAF ESGG 022030Z 0221/0321 20012KT CAVOK"
    },
    {
      "icao": "ESKN",
      "alert": "OK",
      "vis_m": 9999,
      "fzfg": false,
      "metar_trigger": false,
      "taf_trigger": false,
      "metar": "METAR ESKN 022120Z 25006KT CAVOK 15/05 Q1008",
      "taf": "TAF ESKN 022030Z 0221/0321 24008KT CAVOK"
    },
    {
      "icao": "ESMS",
      "alert": "OK",
      "vis_m": 9999,
      "fzfg": false,
      "metar_trigger": false,
      "taf_trigger": false,
      "metar": "METAR ESMS 022120Z 15002KT CAVOK 13/08 Q1013",
      "taf": "TAF ESMS 022027Z 0221/0321 21006KT CAVOK"
    },
    {
      "icao": "ESSA",
      "alert": "OK",
      "vis_m": 9999,
      "fzfg": false,
      "metar_trigger": false,
      "taf_trigger": false,
      "metar": "METAR ESSA 022120Z 26010KT CAVOK 17/02 Q1007 NOSIG",
      "taf": "TAF ESSA 022030Z 0221/0321 26013KT CAVOK"
    },
    {
      "icao": "EYKA",
      "alert": "OK",
      "vis_m": 9999,
      "fzfg": false,
      "metar_trigger": false,
      "taf_trigger": false,
      "metar": "METAR EYKA 022120Z VRB01KT CAVOK 09/02 Q1016",
      "taf": "TAF EYKA 021700Z 0218/0318 VRB05KT CAVOK"
    },
    {
      "icao": "EYPA",
      "alert": "OK",
      "vis_m": 9999,
      "fzfg": false,
      "metar_trigger": false,
      "taf_trigger": false,
      "metar": "METAR EYPA 022120Z 18008KT CAVOK 11/01 Q1015",
      "taf": "TAF EYPA 021700Z 0218/0318 VRB05KT CAVOK"
    },
    {
      "icao": "EYVI",
      "alert": "OK",
      "vis_m": 9999,
      "fzfg": false,
      "metar_trigger": false,
      "taf_trigger": false,
      "metar": "METAR EYVI 022120Z VRB01KT CAVOK 06/02 Q1017 NOSIG",
      "taf": "TAF EYVI 021700Z 0218/0318 VRB05KT CAVOK"
    },
    {
      "icao": "GCFV",
      "alert": "OK",
      "vis_m": 9999,
      "fzfg": false,
      "metar_trigger": false,
      "taf_trigger": false,
      "metar": "METAR GCFV 022130Z 02006KT 9999 FEW020 20/16 Q1019",
      "taf": "TAF GCFV 022000Z 0221/0321 02010KT 9999 SCT020 TX22/0314Z TN17/0306Z"
    },
    {
      "icao": "GCLP",
      "alert": "OK",
      "vis_m": 9999,
      "fzfg": false,
      "metar_trigger": false,
      "taf_trigger": false,
      "metar": "METAR GCLP 022130Z 36011KT 9999 FEW030 20/15 Q1018 NOSIG",
      "taf": "TAF GCLP 022000Z 0221/0321 01013KT 9999 SCT025 TX24/0314Z TN18/0306Z"
    },
    {
      "icao": "GCTS",
      "alert": "OK",
      "vis_m": 9999,
      "fzfg": false,
      "metar_trigger": false,
      "taf_trigger": false,
      "metar": "METAR GCTS 022130Z 07008KT 9999 FEW025 20/16 Q1019 NOSIG",
      "taf": "TAF GCTS 022000Z 0221/0321 06008KT 9999 SCT030 TX24/0314Z TN17/0306Z"
    },
    {
      "icao": "GMAD",
      "alert": "OK",
      "vis_m": 9999,
      "fzfg": false,
      "metar_trigger": false,
      "taf_trigger": false,
      "metar": "METAR GMAD 022130Z 17009KT 130V190 9999 FEW020 17/14 Q1015 NOSIG",
      "taf": ""
    },
    {
      "icao": "GMMN",
      "alert": "OK",
      "vis_m": 9999,
      "fzfg": false,
      "metar_trigger": false,
      "taf_trigger": false,
      "metar": "METAR GMMN 022130Z 35005KT 9999 FEW030 15/12 Q1018 NOSIG",
      "taf": "TAF GMMN 021700Z 0218/0324 35011KT 9999 SCT030"
    },
    {
      "icao": "GMMX",
      "alert": "OK",
      "vis_m": 9999,
      "fzfg": false,
      "metar_trigger": false,
      "taf_trigger": false,
      "metar": "METAR GMMX 022130Z 30005KT 270V360 9999 SCT026 SCT200 19/11 Q1017 NOSIG",
      "taf": "TAF GMMX 021700Z 0218/0324 36006KT 8000 SCT026 SCT200"
    },
    {
      "icao": "HEGN",
      "alert": "OK",
      "vis_m": 9999,
      "fzfg": false,
      "metar_trigger": false,
      "taf_trigger": false,
      "metar": "METAR HEGN 022100Z 14008KT 9999 SCT025 25/21 Q1006 NOSIG",
      "taf": "TAF HEGN 021700Z 0218/0324 14012KT CAVOK"
    },
    {
      "icao": "HEMA",
      "alert": "OK",
      "vis_m": 9999,
      "fzfg": false,
      "metar_trigger": false,
      "taf_trigger": false,
      "metar": "METAR HEMA 022100Z 16008KT CAVOK 24/14 Q1006 NOSIG",
      "taf": "TAF HEMA 021700Z 0218/0324 18012KT CAVOK"
    },
    {
      "icao": "HESH",
      "alert": "OK",
      "vis_m": 9999,
      "fzfg": false,
      "metar_trigger": false,
      "taf_trigger": false,
      "metar": "METAR HESH 022100Z 00000KT CAVOK 26/13 Q1007 NOSIG",
      "taf": "TAF HESH 021700Z 0218/0324 28006G20KT CAVOK"
    },
    {
      "icao": "HESX",
      "alert": "OK",
      "vis_m": 9999,
      "fzfg": false,
      "metar_trigger": false,
      "taf_trigger": false,
      "metar": "METAR HESX 022100Z 03012KT CAVOK 20/10 Q1008 NOSIG",
      "taf": "TAF HESX 021700Z 0218/0324 35016KT 6000 SCT025 SCT070"
    },
    {
      "icao": "LATI",
      "alert": "OK",
      "vis_m": 9999,
      "fzfg": false,
      "metar_trigger": false,
      "taf_trigger": false,
      "metar": "METAR LATI 022120Z 23003KT 180V270 9999 FEW110 14/07 Q1019 NOSIG",
      "taf": "TAF LATI 021700Z 0218/0318 34014KT CAVOK TX24/0312Z TN06/0304Z"
    },
    {
      "icao": "LBPD",
      "alert": "OK",
      "vis_m": 9999,
      "fzfg": false,
      "metar_trigger": false,
      "taf_trigger": false,
      "metar": "METAR LBPD 022130Z AUTO 36003KT 310V040 9999 -RA FEW003/// SCT007/// OVC031/// 07/07 Q1021",
      "taf": "TAF LBPD 021700Z 0218/0318 09010KT 9999 SCT030 BKN060"
    },
    {
      "icao": "LBSF",
      "alert": "OK",
      "vis_m": 9999,
      "fzfg": false,
      "metar_trigger": false,
      "taf_trigger": false,
      "metar": "METAR LBSF 022130Z AUTO VRB02KT 9999 BKN045/// OVC082/// 05/03 Q1021 NOSIG",
      "taf": "TAF LBSF 021700Z 0218/0318 VRB04KT 9999 FEW030 BKN050"
    },
    {
      "icao": "LBWN",
      "alert": "OK",
      "vis_m": 9999,
      "fzfg": false,
      "metar_trigger": false,
      "taf_trigger": false,
      "metar": "METAR LBWN 022130Z AUTO 03006KT 9999 NSC 06/03 Q1021 NOSIG",
      "taf": "TAF LBWN 021700Z 0218/0318 07010KT 9999 SCT030 BKN050"
    },
    {
      "icao": "LCLK",
      "alert": "OK",
      "vis_m": 9999,
      "fzfg": false,
      "metar_trigger": false,
      "taf_trigger": false,
      "metar": "METAR LCLK 022130Z 34009KT 320V030 9999 FEW012 19/15 Q1009 NOSIG",
      "taf": "TAF LCLK 021730Z 0218/0318 33008KT 9999 FEW020"
    },
    {
      "icao": "LCPH",
      "alert": "OK",
      "vis_m": 9999,
      "fzfg": false,
      "metar_trigger": false,
      "taf_trigger": false,
      "metar": "METAR LCPH 022130Z 06007KT 010V080 9999 -SHRA FEW020 SCT080 17/14 Q1009 NOSIG",
      "taf": "TAF LCPH 021730Z 0218/0318 33010KT 9999 FEW020"
    },
    {
      "icao": "LEAL",
      "alert": "OK",
      "vis_m": 9999,
      "fzfg": false,
      "metar_trigger": false,
      "taf_trigger": false,
      "metar": "METAR LEAL 022130Z 07007KT 9999 FEW009 BKN012 19/16 Q1017 NOSIG",
      "taf": "TAF LEAL 021700Z 0218/0318 08010KT 9999 SCT025 SCT030 TX22/0313Z TN15/0306Z"
    },
    {
      "icao": "LEBB",
      "alert": "OK",
      "vis_m": 9999,
      "fzfg": false,
      "metar_trigger": false,
      "taf_trigger": false,
      "metar": "METAR LEBB 022130Z 26003KT 210V300 9999 FEW005 BKN014 16/15 Q1014 NOSIG",
      "taf": "TAF LEBB 021700Z 0218/0318 29009KT 9999 FEW010 SCT030 TX21/0310Z TN12/0303Z"
    },
    {
      "icao": "LEBL",
      "alert": "OK",
      "vis_m": 9999,
      "fzfg": false,
      "metar_trigger": false,
      "taf_trigger": false,
      "metar": "METAR LEBL 022130Z 07007KT 9999 SCT013 OVC060 18/16 Q1019 NOSIG",
      "taf": "TAF LEBL 021700Z 0218/0318 07008KT 9999 SCT020 TX21/0312Z TN16/0306Z"
    },
    {
      "icao": "LECH",
      "alert": "OK",
      "vis_m": 6000,
      "fzfg": false,
      "metar_trigger": false,
      "taf_trigger": false,
      "metar": "METAR LECH 022130Z AUTO 07003KT 050V110 6000 SCT003 BKN007 BKN020 15/14 Q1019",
      "taf": "TAF LECH 021700Z 0218/0318 13007KT 9999 SCT015 BKN025 TX20/0312Z TN13/0306Z"
    },
    {
      "icao": "LEMD",
      "alert": "OK",
      "vis_m": 9999,
      "fzfg": false,
      "metar_trigger": false,
      "taf_trigger": false,
      "metar": "METAR LEMD 022130Z VRB02KT 9999 FEW060 SCT080 14/11 Q1016 NOSIG",
      "taf": "TAF LEMD 021700Z 0218/0324 VRB04KT 9999 SCT040 TX23/0316Z TN10/0305Z"
    },
    {
      "icao": "LEMG",
      "alert": "OK",
      "vis_m": 9999,
      "fzfg": false,
      "metar_trigger": false,
      "taf_trigger": false,
      "metar": "METAR LEMG 022130Z 12004KT 090V150 9999 BKN035 18/15 Q1017 NOSIG",
      "taf": "TAF LEMG 021700Z 0218/0318 14010KT 9999 SCT020 TX22/0314Z TN16/0306Z"
    },
    {
      "icao": "LEVC",
      "alert": "OK",
      "vis_m": 9999,
      "fzfg": false,
      "metar_trigger": false,
      "taf_trigger": false,
      "metar": "METAR LEVC 022130Z 07004KT 350V120 9999 FEW015 BKN035 18/15 Q1018 NOSIG",
      "taf": "TAF LEVC 021700Z 0218/0318 11008KT 9999 SCT020 SCT030 TX22/0313Z TN15/0306Z"
    },
    {
      "icao": "LEXJ",
      "alert": "OK",
      "vis_m": 8000,
      "fzfg": false,
      "metar_trigger": false,
      "taf_trigger": false,
      "metar": "METAR LEXJ 022130Z AUTO 23004KT 8000 FEW010 14/14 Q1014",
      "taf": "TAF LEXJ 022000Z 0221/0321 21007KT 9999 FEW005 SCT020 TX20/0314Z TN12/0305Z"
    },
    {
      "icao": "LEZG",
      "alert": "OK",
      "vis_m": 9999,
      "fzfg": false,
      "metar_trigger": false,
      "taf_trigger": false,
      "metar": "METAR LEZG 022130Z 11006KT 070V140 9999 OVC085 15/13 Q1017 NOSIG",
      "taf": "TAF LEZG 021700Z 0218/0318 12011KT 9999 SCT020 SCT040 TX22/0314Z TN13/0306Z"
    },
    {
      "icao": "LEZL",
      "alert": "OK",
      "vis_m": 9999,
      "fzfg": false,
      "metar_trigger": false,
      "taf_trigger": false,
      "metar": "METAR LEZL 022130Z 21005KT CAVOK 19/15 Q1016 NOSIG",
      "taf": "TAF LEZL 022000Z 0221/0321 22009KT 9999 FEW035 TX25/0315Z TN12/0306Z"
    },
    {
      "icao": "LFBD",
      "alert": "OK",
      "vis_m": 9999,
      "fzfg": false,
      "metar_trigger": false,
      "taf_trigger": false,
      "metar": "METAR LFBD 022130Z AUTO 12007KT 9999 -RA FEW003 OVC090 15/14 Q1014 BECMG BKN010",
      "taf": "TAF LFBD 021700Z 0218/0324 VRB03KT CAVOK TX23/0315Z TN13/0305Z"
    },
    {
      "icao": "LFLL",
      "alert": "OK",
      "vis_m": 9999,
      "fzfg": false,
      "metar_trigger": false,
      "taf_trigger": false,
      "metar": "METAR LFLL 022130Z 19009KT 160V220 CAVOK 17/03 Q1019 NOSIG",
      "taf": "TAF LFLL 021700Z 0218/0324 18012KT CAVOK"
    },
    {
      "icao": "LFLS",
      "alert": "OK",
      "vis_m": 9999,
      "fzfg": false,
      "metar_trigger": false,
      "taf_trigger": false,
      "metar": "METAR LFLS 022130Z AUTO 27007KT 240V300 CAVOK 14/04 Q1019",
      "taf": "TAF LFLS 021400Z 0215/0315 23010KT CAVOK"
    },
    {
      "icao": "LFMN",
      "alert": "OK",
      "vis_m": 9999,
      "fzfg": false,
      "metar_trigger": false,
      "taf_trigger": false,
      "metar": "METAR LFMN 022130Z 32004KT CAVOK 16/06 Q1021 NOSIG",
      "taf": "TAF LFMN 022000Z 0221/0403 34005KT CAVOK"
    },
    {
      "icao": "LFOB",
      "alert": "OK",
      "vis_m": 9999,
      "fzfg": false,
      "metar_trigger": false,
      "taf_trigger": false,
      "metar": "METAR LFOB 022130Z AUTO VRB02KT CAVOK 16/12 Q1013 TEMPO 4000 SHRA BKN030TCU",
      "taf": "TAF LFOB 021700Z 0218/0318 20007KT 9999 FEW030"
    },
    {
      "icao": "LFPO",
      "alert": "OK",
      "vis_m": 9999,
      "fzfg": false,
      "metar_trigger": false,
      "taf_trigger": false,
      "metar": "METAR LFPO 022130Z AUTO 19004KT CAVOK 18/11 Q1014 NOSIG",
      "taf": "TAF LFPO 021700Z 0218/0324 22010KT CAVOK"
    },
    {
      "icao": "LFSB",
      "alert": "OK",
      "vis_m": 9999,
      "fzfg": false,
      "metar_trigger": false,
      "taf_trigger": false,
      "metar": "METAR LFSB 022130Z AUTO 25006KT 220V280 CAVOK 18/07 Q1017 NOSIG",
      "taf": "TAF LFSB 021700Z 0218/0318 VRB04KT CAVOK"
    },
    {
      "icao": "LGAV",
      "alert": "OK",
      "vis_m": 9999,
      "fzfg": false,
      "metar_trigger": false,
      "taf_trigger": false,
      "metar": "METAR LGAV 022120Z 34009KT 9999 SCT020 10/03 Q1017 NOSIG",
      "taf": "TAF LGAV 021700Z 0218/0318 36012KT 9999 SCT020 BKN070"
    },
    {
      "icao": "LGTS",
      "alert": "OK",
      "vis_m": 9999,
      "fzfg": false,
      "metar_trigger": false,
      "taf_trigger": false,
      "metar": "METAR LGTS 022120Z 11004KT 9999 FEW016 SCT025 10/07 Q1019 NOSIG",
      "taf": "TAF LGTS 021700Z 0218/0318 VRB03KT 9999 SCT025"
    },
    {
      "icao": "LHBP",
      "alert": "OK",
      "vis_m": 9999,
      "fzfg": false,
      "metar_trigger": false,
      "taf_trigger": false,
      "metar": "METAR LHBP 022130Z VRB01KT CAVOK 11/03 Q1020 NOSIG",
      "taf": "TAF LHBP 021715Z 0218/0318 10005KT CAVOK"
    },
    {
      "icao": "LHDC",
      "alert": "OK",
      "vis_m": 9999,
      "fzfg": false,
      "metar_trigger": false,
      "taf_trigger": false,
      "metar": "METAR LHDC 022115Z AUTO 06007KT CAVOK 10/01 Q1021 NOSIG",
      "taf": "TAF LHDC 022015Z 0221/0306 07007KT CAVOK"
    },
    {
      "icao": "LIBD",
      "alert": "OK",
      "vis_m": 9999,
      "fzfg": false,
      "metar_trigger": false,
      "taf_trigger": false,
      "metar": "METAR LIBD 022120Z 25007KT CAVOK 11/06 Q1021",
      "taf": "TAF LIBD 021700Z 0218/0318 36010KT CAVOK"
    },
    {
      "icao": "LIBG",
      "alert": "OK",
      "vis_m": null,
      "fzfg": false,
      "metar_trigger": false,
      "taf_trigger": false,
      "metar": "",
      "taf": "TAF LIBG 021400Z 0215/0224 03016KT CAVOK"
    },
    {
      "icao": "LIBP",
      "alert": "OK",
      "vis_m": 9999,
      "fzfg": false,
      "metar_trigger": false,
      "taf_trigger": false,
      "metar": "METAR LIBP 022120Z AUTO 24005KT 9999 NCD 10/07 Q1022",
      "taf": "TAF LIBP 021700Z 0218/0318 VRB05KT 9999 FEW050"
    },
    {
      "icao": "LIBR",
      "alert": "OK",
      "vis_m": 9999,
      "fzfg": false,
      "metar_trigger": false,
      "taf_trigger": false,
      "metar": "METAR LIBR 022120Z 30007KT CAVOK 13/08 Q1020",
      "taf": "TAF LIBR 021700Z 0218/0318 33015KT CAVOK"
    },
    {
      "icao": "LICA",
      "alert": "OK",
      "vis_m": 9999,
      "fzfg": false,
      "metar_trigger": false,
      "taf_trigger": false,
      "metar": "METAR LICA 022120Z AUTO 07005KT 9999 NCD 09/06 Q1022",
      "taf": "TAF LICA 021700Z 0218/0318 28010KT 9999 FEW060"
    },
    {
      "icao": "LICC",
      "alert": "OK",
      "vis_m": 9999,
      "fzfg": false,
      "metar_trigger": false,
      "taf_trigger": false,
      "metar": "METAR LICC 022120Z 31003KT 270V360 CAVOK 14/09 Q1023",
      "taf": "TAF LICC 021700Z 0218/0318 08010KT CAVOK"
    },
    {
      "icao": "LICJ",
      "alert": "OK",
      "vis_m": 9999,
      "fzfg": false,
      "metar_trigger": false,
      "taf_trigger": false,
      "metar": "METAR LICJ 022120Z 07006KT CAVOK 15/07 Q1023",
      "taf": "TAF LICJ 021700Z 0218/0318 05010KT CAVOK"
    },
    {
      "icao": "LIMC",
      "alert": "OK",
      "vis_m": 9999,
      "fzfg": false,
      "metar_trigger": false,
      "taf_trigger": false,
      "metar": "METAR LIMC 022120Z VRB02KT CAVOK 12/07 Q1021 NOSIG",
      "taf": "TAF LIMC 021700Z 0218/0324 VRB05KT CAVOK"
    },
    {
      "icao": "LIME",
      "alert": "OK",
      "vis_m": 9999,
      "fzfg": false,
      "metar_trigger": false,
      "taf_trigger": false,
      "metar": "METAR LIME 022120Z AUTO 01006KT 9999 NCD 15/06 Q1021",
      "taf": "TAF LIME 021700Z 0218/0318 VRB05KT CAVOK"
    },
    {
      "icao": "LIMF",
      "alert": "OK",
      "vis_m": 9999,
      "fzfg": false,
      "metar_trigger": false,
      "taf_trigger": false,
      "metar": "METAR LIMF 022120Z 32006KT CAVOK 16/08 Q1021",
      "taf": "TAF LIMF 021700Z 0218/0318 VRB05KT CAVOK"
    },
    {
      "icao": "LIMJ",
      "alert": "OK",
      "vis_m": 9999,
      "fzfg": false,
      "metar_trigger": false,
      "taf_trigger": false,
      "metar": "METAR LIMJ 022120Z 02002KT CAVOK 17/05 Q1022",
      "taf": "TAF LIMJ 021700Z 0218/0318 VRB05KT CAVOK"
    },
    {
      "icao": "LIPE",
      "alert": "OK",
      "vis_m": 9999,
      "fzfg": false,
      "metar_trigger": false,
      "taf_trigger": false,
      "metar": "METAR LIPE 022120Z 19005KT CAVOK 15/06 Q1020",
      "taf": "TAF LIPE 021700Z 0218/0318 VRB05KT CAVOK"
    },
    {
      "icao": "LIPH",
      "alert": "OK",
      "vis_m": 9999,
      "fzfg": false,
      "metar_trigger": false,
      "taf_trigger": false,
      "metar": "METAR LIPH 022120Z AUTO VRB01KT 9999 NCD 15/09 Q1020",
      "taf": "TAF LIPH 021700Z 0218/0318 VRB05KT CAVOK"
    },
    {
      "icao": "LIPQ",
      "alert": "OK",
      "vis_m": 9999,
      "fzfg": false,
      "metar_trigger": false,
      "taf_trigger": false,
      "metar": "METAR LIPQ 022120Z AUTO 09004KT 9999 NCD 13/06 Q1021",
      "taf": "TAF LIPQ 021700Z 0218/0318 VRB05KT 9999 FEW060"
    },
    {
      "icao": "LIPR",
      "alert": "OK",
      "vis_m": 9999,
      "fzfg": false,
      "metar_trigger": false,
      "taf_trigger": false,
      "metar": "METAR LIPR 022120Z 20003KT CAVOK 12/06 Q1021",
      "taf": "TAF LIPR 021700Z 0218/0318 VRB05KT CAVOK"
    },
    {
      "icao": "LIPX",
      "alert": "OK",
      "vis_m": 9999,
      "fzfg": false,
      "metar_trigger": false,
      "taf_trigger": false,
      "metar": "METAR LIPX 022120Z 01004KT CAVOK 14/06 Q1020",
      "taf": "TAF LIPX 021700Z 0218/0318 VRB05KT 9999 FEW060"
    },
    {
      "icao": "LIPY",
      "alert": "OK",
      "vis_m": 9999,
      "fzfg": false,
      "metar_trigger": false,
      "taf_trigger": false,
      "metar": "METAR LIPY 022120Z AUTO 18003KT 9999 NCD 11/06 Q1021",
      "taf": "TAF LIPY 021700Z 0218/0318 VRB05KT CAVOK"
    },
    {
      "icao": "LIPZ",
      "alert": "OK",
      "vis_m": 9999,
      "fzfg": false,
      "metar_trigger": false,
      "taf_trigger": false,
      "metar": "METAR LIPZ 022120Z 21006KT CAVOK 17/11 Q1020 NOSIG",
      "taf": "TAF LIPZ 021700Z 0218/0324 19010KT CAVOK"
    },
    {
      "icao": "LIRF",
      "alert": "OK",
      "vis_m": 9999,
      "fzfg": false,
      "metar_trigger": false,
      "taf_trigger": false,
      "metar": "METAR LIRF 022120Z 25004KT CAVOK 15/11 Q1022 NOSIG",
      "taf": "TAF LIRF 021700Z 0218/0324 29010KT CAVOK"
    },
    {
      "icao": "LIRN",
      "alert": "OK",
      "vis_m": 9999,
      "fzfg": false,
      "metar_trigger": false,
      "taf_trigger": false,
      "metar": "METAR LIRN 022120Z 29004KT CAVOK 16/09 Q1022 NOSIG",
      "taf": "TAF LIRN 021700Z 0218/0318 VRB05KT CAVOK"
    },
    {
      "icao": "LIRP",
      "alert": "OK",
      "vis_m": 9999,
      "fzfg": false,
      "metar_trigger": false,
      "taf_trigger": false,
      "metar": "METAR LIRP 022115Z 25005KT CAVOK 11/09 Q1021 NOSIG",
      "taf": "TAF LIRP 021700Z 0218/0318 32010KT CAVOK"
    },
    {
      "icao": "LIRZ",
      "alert": "OK",
      "vis_m": 9999,
      "fzfg": false,
      "metar_trigger": false,
      "taf_trigger": false,
      "metar": "METAR LIRZ 022120Z AUTO 02006KT 9999 NCD 10/05 Q1021",
      "taf": "TAF LIRZ 021700Z 0218/0318 03010KT CAVOK"
    },
    {
      "icao": "LJLJ",
      "alert": "OK",
      "vis_m": 9999,
      "fzfg": false,
      "metar_trigger": false,
      "taf_trigger": false,
      "metar": "METAR LJLJ 022130Z VRB01KT CAVOK 10/07 Q1021 NOSIG",
      "taf": "TAF LJLJ 021700Z 0218/0318 VRB02KT 9999 FEW060"
    },
    {
      "icao": "LKMT",
      "alert": "OK",
      "vis_m": 9999,
      "fzfg": false,
      "metar_trigger": false,
      "taf_trigger": false,
      "metar": "METAR LKMT 022130Z 21002KT CAVOK 10/05 Q1020 NOSIG",
      "taf": "TAF LKMT 021700Z 0218/0318 09006KT CAVOK"
    },
    {
      "icao": "LKPR",
      "alert": "OK",
      "vis_m": 9999,
      "fzfg": false,
      "metar_trigger": false,
      "taf_trigger": false,
      "metar": "METAR LKPR 022130Z 13006KT CAVOK 15/01 Q1018 NOSIG",
      "taf": "TAF LKPR 022000Z 0221/0403 16006KT CAVOK"
    },
    {
      "icao": "LLBG",
      "alert": "OK",
      "vis_m": 9999,
      "fzfg": false,
      "metar_trigger": false,
      "taf_trigger": false,
      "metar": "METAR LLBG 022120Z 05004KT CAVOK 21/12 Q1004 NOSIG",
      "taf": "TAF LLBG 021706Z 0218/0318 35008KT CAVOK TX27/0309Z TN18/0303Z"
    },
    {
      "icao": "LMML",
      "alert": "OK",
      "vis_m": 9999,
      "fzfg": false,
      "metar_trigger": false,
      "taf_trigger": false,
      "metar": "METAR LMML 022115Z VRB02KT CAVOK 15/06 Q1023 NOSIG",
      "taf": "TAF LMML 021700Z 0218/0318 03010KT 9999 FEW030"
    },
    {
      "icao": "LOWW",
      "alert": "OK",
      "vis_m": 9999,
      "fzfg": false,
      "metar_trigger": false,
      "taf_trigger": false,
      "metar": "METAR LOWW 022120Z 16005KT CAVOK 11/05 Q1019 NOSIG",
      "taf": "TAF LOWW 022015Z 0221/0403 12005KT CAVOK TX24/0313Z TN02/0301Z"
    },
    {
      "icao": "LPFR",
      "alert": "OK",
      "vis_m": 9999,
      "fzfg": false,
      "metar_trigger": false,
      "taf_trigger": false,
      "metar": "METAR LPFR 022130Z 27010KT 9999 FEW012 18/15 Q1016",
      "taf": "TAF LPFR 021700Z 0218/0318 25013KT 9999 FEW025"
    },
    {
      "icao": "LPMA",
      "alert": "OK",
      "vis_m": 9999,
      "fzfg": false,
      "metar_trigger": false,
      "taf_trigger": false,
      "metar": "METAR LPMA 022130Z VRB01KT 9999 SCT015 18/14 Q1020",
      "taf": "TAF LPMA 021700Z 0218/0318 VRB05KT 9999 SCT015 SCT030"
    },
    {
      "icao": "LPPR",
      "alert": "OK",
      "vis_m": 9999,
      "fzfg": false,
      "metar_trigger": false,
      "taf_trigger": false,
      "metar": "METAR LPPR 022130Z 23003KT 200V280 9999 FEW012 SCT022 FEW025CB BKN028 16/14 Q1015",
      "taf": "TAF LPPR 021700Z 0218/0318 23010KT 9999 SCT012"
    },
    {
      "icao": "LPPS",
      "alert": "OK",
      "vis_m": 9999,
      "fzfg": false,
      "metar_trigger": false,
      "taf_trigger": false,
      "metar": "METAR LPPS 022130Z 31005KT 280V350 9999 FEW015 17/14 Q1020",
      "taf": "TAF LPPS 021700Z 0218/0324 27008KT 9999 SCT015"
    },
    {
      "icao": "LPPT",
      "alert": "OK",
      "vis_m": 9999,
      "fzfg": false,
      "metar_trigger": false,
      "taf_trigger": false,
      "metar": "METAR LPPT 022130Z 26007KT 9999 FEW012 15/13 Q1016",
      "taf": "TAF LPPT 021700Z 0218/0324 23010KT 9999 SCT020"
    },
    {
      "icao": "LQBK",
      "alert": "OK",
      "vis_m": 9999,
      "fzfg": false,
      "metar_trigger": false,
      "taf_trigger": false,
      "metar": "METAR LQBK 022130Z 16003KT CAVOK 10/06 Q1020 NOSIG",
      "taf": "TAF LQBK 021700Z 0218/0318 20005KT CAVOK TX23/0313Z TN06/0304Z"
    },
    {
      "icao": "LQSA",
      "alert": "OK",
      "vis_m": 9999,
      "fzfg": false,
      "metar_trigger": false,
      "taf_trigger": false,
      "metar": "METAR LQSA 022130Z 13003KT CAVOK 07/03 Q1021",
      "taf": "TAF LQSA 021700Z 0218/0318 31005KT CAVOK TX20/0313Z TN04/0304Z"
    },
    {
      "icao": "LQTZ",
      "alert": "OK",
      "vis_m": 9999,
      "fzfg": false,
      "metar_trigger": false,
      "taf_trigger": false,
      "metar": "METAR LQTZ 022130Z 33003KT CAVOK 08/06 Q1020",
      "taf": "TAF LQTZ 021700Z 0218/0318 34005KT CAVOK TX20/0313Z TN04/0304Z"
    },
    {
      "icao": "LRBC",
      "alert": "OK",
      "vis_m": 9999,
      "fzfg": false,
      "metar_trigger": false,
      "taf_trigger": false,
      "metar": "METAR LRBC 022130Z VRB01KT CAVOK 05/01 Q1023",
      "taf": "TAF LRBC 022000Z 0221/0306 VRB04KT CAVOK"
    },
    {
      "icao": "LRBS",
      "alert": "OK",
      "vis_m": 9999,
      "fzfg": false,
      "metar_trigger": false,
      "taf_trigger": false,
      "metar": "METAR LRBS 022130Z 32004KT CAVOK 06/04 Q1023 NOSIG",
      "taf": "TAF LRBS 021700Z 0218/0318 VRB04KT CAVOK"
    },
    {
      "icao": "LRBV",
      "alert": "OK",
      "vis_m": 9999,
      "fzfg": false,
      "metar_trigger": false,
      "taf_trigger": false,
      "metar": "METAR LRBV 022130Z AUTO VRB03KT 9999 FEW072/// 01/00 Q1023",
      "taf": "TAF LRBV 021700Z 0218/0303 VRB04KT 9999 SCT030 SCT060"
    },
    {
      "icao": "LRCL",
      "alert": "OK",
      "vis_m": 9999,
      "fzfg": false,
      "metar_trigger": false,
      "taf_trigger": false,
      "metar": "METAR LRCL 022130Z 15007KT 110V180 CAVOK 09/01 Q1022",
      "taf": "TAF LRCL 022000Z 0221/0306 VRB04KT CAVOK"
    },
    {
      "icao": "LRCV",
      "alert": "OK",
      "vis_m": 9999,
      "fzfg": false,
      "metar_trigger": false,
      "taf_trigger": false,
      "metar": "METAR LRCV 022130Z 12004KT CAVOK 07/05 Q1023",
      "taf": "TAF LRCV 022000Z 0221/0306 VRB04KT 9999 SCT040"
    },
    {
      "icao": "LRIA",
      "alert": "OK",
      "vis_m": 9999,
      "fzfg": false,
      "metar_trigger": false,
      "taf_trigger": false,
      "metar": "METAR LRIA 022130Z 00000KT CAVOK 07/M03 Q1023",
      "taf": "TAF LRIA 022000Z 0221/0306 07005KT CAVOK"
    },
    {
      "icao": "LROP",
      "alert": "OK",
      "vis_m": 9999,
      "fzfg": false,
      "metar_trigger": false,
      "taf_trigger": false,
      "metar": "METAR LROP 022130Z 31004KT CAVOK 06/05 Q1023 NOSIG",
      "taf": "TAF LROP 021700Z 0218/0318 VRB04KT CAVOK"
    },
    {
      "icao": "LRSB",
      "alert": "OK",
      "vis_m": 9999,
      "fzfg": false,
      "metar_trigger": false,
      "taf_trigger": false,
      "metar": "METAR LRSB 022130Z 10005KT 9999 SCT070 BKN088 08/M01 Q1022",
      "taf": "TAF LRSB 021700Z 0218/0318 10010KT 9999 SCT070"
    },
    {
      "icao": "LRSM",
      "alert": "OK",
      "vis_m": 9999,
      "fzfg": false,
      "metar_trigger": false,
      "taf_trigger": false,
      "metar": "METAR LRSM 022130Z AUTO 12003KT 9999 NCD 09/M00 Q1022",
      "taf": "TAF LRSM 021400Z 0215/0224 07008KT CAVOK"
    },
    {
      "icao": "LRSV",
      "alert": "OK",
      "vis_m": 9999,
      "fzfg": false,
      "metar_trigger": false,
      "taf_trigger": false,
      "metar": "METAR LRSV 022130Z 23005KT CAVOK 05/M01 Q1023",
      "taf": "TAF LRSV 022000Z 0221/0306 26004KT CAVOK"
    },
    {
      "icao": "LRTM",
      "alert": "OK",
      "vis_m": 9999,
      "fzfg": false,
      "metar_trigger": false,
      "taf_trigger": false,
      "metar": "METAR LRTM 022130Z VRB02KT CAVOK 05/01 Q1022",
      "taf": "TAF LRTM 022000Z 0221/0306 VRB04KT CAVOK"
    },
    {
      "icao": "LRTR",
      "alert": "OK",
      "vis_m": 9999,
      "fzfg": false,
      "metar_trigger": false,
      "taf_trigger": false,
      "metar": "METAR LRTR 022130Z 07006KT CAVOK 06/02 Q1020 NOSIG",
      "taf": "TAF LRTR 021700Z 0218/0318 01010KT CAVOK"
    },
    {
      "icao": "LTAC",
      "alert": "OK",
      "vis_m": 9999,
      "fzfg": false,
      "metar_trigger": false,
      "taf_trigger": false,
      "metar": "METAR LTAC 022120Z 07011KT 9999 SCT015 BKN025 BKN080 05/02 Q1012 NOSIG RMK RWY21C 05009KT RWY03L 05009KT RWY21R 03009KT RWY03R 05013KT RWY21L 08009KT",
      "taf": "TAF LTAC 021640Z 0218/0318 06018KT 9999 BKN030 BKN080"
    },
    {
      "icao": "LTFM",
      "alert": "OK",
      "vis_m": 9999,
      "fzfg": false,
      "metar_trigger": false,
      "taf_trigger": false,
      "metar": "METAR LTFM 022120Z 05022KT 9999 SCT030 BKN080 10/04 Q1017 NOSIG RMK RWY17L 05018KT RWY34L 04020KT RWY16R 04020KT RWY36 04019KT RWY18 05020KT",
      "taf": "TAF LTFM 021640Z 0218/0324 04018G28KT 9999 SCT030 BKN080"
    },
    {
      "icao": "LUKK",
      "alert": "OK",
      "vis_m": 9999,
      "fzfg": false,
      "metar_trigger": false,
      "taf_trigger": false,
      "metar": "METAR LUKK 022130Z 33002KT CAVOK 06/M01 Q1023 NOSIG",
      "taf": "TAF LUKK 021703Z 0218/0318 VRB06KT CAVOK"
    },
    {
      "icao": "LWOH",
      "alert": "OK",
      "vis_m": null,
      "fzfg": false,
      "metar_trigger": false,
      "taf_trigger": false,
      "metar": "",
      "taf": "TAF LWOH 022030Z 0221/0321 35006KT 9999 SCT040 SCT090"
    },
    {
      "icao": "LWSK",
      "alert": "OK",
      "vis_m": 9999,
      "fzfg": false,
      "metar_trigger": false,
      "taf_trigger": false,
      "metar": "METAR LWSK 022120Z 02006KT 9999 BKN060 11/03 Q1020 NOSIG",
      "taf": "TAF LWSK 022030Z 0221/0321 VRB02KT 9999 BKN060"
    },
    {
      "icao": "LYBE",
      "alert": "OK",
      "vis_m": 9999,
      "fzfg": false,
      "metar_trigger": false,
      "taf_trigger": false,
      "metar": "METAR LYBE 022130Z 01005KT CAVOK 10/04 Q1019 NOSIG",
      "taf": "TAF LYBE 021700Z 0218/0318 06006KT CAVOK TX20/0313Z TN07/0304Z"
    },
    {
      "icao": "LYNI",
      "alert": "OK",
      "vis_m": 9999,
      "fzfg": false,
      "metar_trigger": false,
      "taf_trigger": false,
      "metar": "METAR LYNI 022130Z 06005KT 010V110 9999 BKN083 12/03 Q1020 NOSIG",
      "taf": "TAF LYNI 021700Z 0218/0318 09008KT 9999 BKN080 TX17/0313Z TN05/0304Z"
    },
    {
      "icao": "LYPG",
      "alert": "OK",
      "vis_m": 9999,
      "fzfg": false,
      "metar_trigger": false,
      "taf_trigger": false,
      "metar": "METAR LYPG 022130Z 19003KT 160V240 9999 SCT090 13/04 Q1019 NOSIG",
      "taf": "TAF LYPG 021700Z 0218/0318 36010KT 9999 SCT050 TX23/0314Z TN10/0304Z"
    },
    {
      "icao": "LZIB",
      "alert": "OK",
      "vis_m": 9999,
      "fzfg": false,
      "metar_trigger": false,
      "taf_trigger": false,
      "metar": "METAR LZIB 022130Z VRB02KT CAVOK 13/05 Q1019 NOSIG",
      "taf": "TAF LZIB 021715Z 0218/0318 20004KT CAVOK"
    },
    {
      "icao": "LZKZ",
      "alert": "OK",
      "vis_m": 9999,
      "fzfg": false,
      "metar_trigger": false,
      "taf_trigger": false,
      "metar": "METAR LZKZ 022130Z 36004KT CAVOK 11/03 Q1022 NOSIG",
      "taf": "TAF LZKZ 021715Z 0218/0318 01008KT CAVOK"
    },
    {
      "icao": "LZTT",
      "alert": "OK",
      "vis_m": 9999,
      "fzfg": false,
      "metar_trigger": false,
      "taf_trigger": false,
      "metar": "METAR LZTT 022130Z 28006KT CAVOK 06/01 Q1023",
      "taf": "TAF LZTT 021715Z 0218/0318 08012KT 9999 FEW060"
    },
    {
      "icao": "OEJN",
      "alert": "OK",
      "vis_m": 9999,
      "fzfg": false,
      "metar_trigger": false,
      "taf_trigger": false,
      "metar": "METAR OEJN 022100Z 35004KT CAVOK 27/15 Q1008 NOSIG",
      "taf": "TAF OEJN 021700Z 0218/0324 03006KT CAVOK"
    },
    {
      "icao": "OEMA",
      "alert": "OK",
      "vis_m": 9999,
      "fzfg": false,
      "metar_trigger": false,
      "taf_trigger": false,
      "metar": "METAR OEMA 022100Z VRB01KT CAVOK 28/M04 Q1014 NOSIG",
      "taf": "TAF OEMA 021700Z 0218/0324 35008KT CAVOK"
    },
    {
      "icao": "OJAI",
      "alert": "OK",
      "vis_m": 5000,
      "fzfg": false,
      "metar_trigger": false,
      "taf_trigger": false,
      "metar": "METAR OJAI 022100Z 07010KT 5000 HZ NSC 20/01 Q1010 NOSIG",
      "taf": "TAF OJAI 021700Z 0218/0324 25012KT 5000 HZ NSC"
    },
    {
      "icao": "OMAA",
      "alert": "OK",
      "vis_m": 9999,
      "fzfg": false,
      "metar_trigger": false,
      "taf_trigger": false,
      "metar": "METAR OMAA 022130Z 27002KT CAVOK 31/15 Q1006 NOSIG",
      "taf": "TAF OMAA 021700Z 0218/0400 VRB02KT CAVOK"
    },
    {
      "icao": "OMDB",
      "alert": "OK",
      "vis_m": 9999,
      "fzfg": false,
      "metar_trigger": false,
      "taf_trigger": false,
      "metar": "METAR OMDB 022130Z 26007KT CAVOK 33/14 Q1006 NOSIG",
      "taf": "TAF OMDB 021700Z 0218/0400 23005KT CAVOK"
    },
    {
      "icao": "UAAA",
      "alert": "OK",
      "vis_m": 9999,
      "fzfg": false,
      "metar_trigger": false,
      "taf_trigger": false,
      "metar": "METAR UAAA 022130Z 22005MPS 9999 SCT050CB BKN100 19/11 Q1010 NOSIG",
      "taf": "TAF UAAA 021702Z 0218/0318 20003G08MPS 9999 BKN040CB OVC100 TX23/0309Z TN16/0301Z"
    },
    {
      "icao": "UBBB",
      "alert": "OK",
      "vis_m": 9999,
      "fzfg": false,
      "metar_trigger": false,
      "taf_trigger": false,
      "metar": "METAR UBBB 022130Z 33018G28KT 9999 SCT013 BKN023 11/08 Q1017 NOSIG",
      "taf": "TAF UBBB 021700Z 0218/0318 32018KT 9999 SCT010 SCT025 TX14/0310Z TN09/0301Z"
    },
    {
      "icao": "UDSG",
      "alert": "OK",
      "vis_m": 9999,
      "fzfg": false,
      "metar_trigger": false,
      "taf_trigger": false,
      "metar": "METAR UDSG 022130Z 04003KT 9999 -SHRA BKN043CB 09/08 Q1018 NOSIG",
      "taf": "TAF UDSG 021658Z 0218/0318 20006KT 9999 BKN040"
    },
    {
      "icao": "UDYZ",
      "alert": "OK",
      "vis_m": 9999,
      "fzfg": false,
      "metar_trigger": false,
      "taf_trigger": false,
      "metar": "METAR UDYZ 022130Z 00000KT 9999 FEW046 13/09 Q1014 NOSIG",
      "taf": "TAF UDYZ 021700Z 0218/0318 06006KT 9999 SCT040"
    },
    {
      "icao": "UGKO",
      "alert": "OK",
      "vis_m": 9999,
      "fzfg": false,
      "metar_trigger": false,
      "taf_trigger": false,
      "metar": "METAR UGKO 022130Z VRB02KT 9999 OVC015 10/09 Q1016 NOSIG",
      "taf": "TAF UGKO 021700Z 0218/0318 26007KT 9000 SCT030 OVC045 TX16/0311Z TN08/0302Z"
    }
  ]
}