{
  "ts_utc": "2026-07-21T09:40:48Z",
  "threshold_m": 150,
  "source": "stations_override.txt (ICAO list) + aviationweather.gov (METAR/TAF raw)",
  "station_count": 159,
  "stations": [
    {
      "icao": "BIKF",
      "alert": "OK",
      "vis_m": 800,
      "fzfg": false,
      "metar_trigger": false,
      "taf_trigger": false,
      "metar": "METAR BIKF 210930Z 24011KT 0800 R19/P1500N -DZ FG OVC002 11/11 Q1026",
      "taf": "TAF BIKF 210759Z 2109/2209 22012KT 2000 -DZ BR OVC003 TX11/2115Z TN10/2204Z"
    },
    {
      "icao": "BKPR",
      "alert": "OK",
      "vis_m": 9999,
      "fzfg": false,
      "metar_trigger": false,
      "taf_trigger": false,
      "metar": "METAR BKPR 210930Z 35002KT CAVOK 26/16 Q1019 NOSIG",
      "taf": "TAF BKPR 210530Z 2106/2206 32006KT 0300 FG BKN003"
    },
    {
      "icao": "EBCI",
      "alert": "OK",
      "vis_m": 9999,
      "fzfg": false,
      "metar_trigger": false,
      "taf_trigger": false,
      "metar": "METAR EBCI 210920Z 03006KT 330V070 9999 SCT025 SCT032 17/09 Q1027 NOSIG",
      "taf": "TAF EBCI 210506Z 2106/2212 02005KT 9999 SCT028"
    },
    {
      "icao": "EDDB",
      "alert": "OK",
      "vis_m": 9999,
      "fzfg": false,
      "metar_trigger": false,
      "taf_trigger": false,
      "metar": "METAR EDDB 210920Z AUTO 31008KT 280V350 9999 FEW041 21/10 Q1021 NOSIG",
      "taf": "TAF EDDB 210500Z 2106/2206 30010KT CAVOK"
    },
    {
      "icao": "EDDH",
      "alert": "OK",
      "vis_m": 9999,
      "fzfg": false,
      "metar_trigger": false,
      "taf_trigger": false,
      "metar": "METAR EDDH 210920Z AUTO 30008KT 260V330 CAVOK 22/09 Q1023 NOSIG",
      "taf": "TAF EDDH 210500Z 2106/2212 31005KT CAVOK"
    },
    {
      "icao": "EDDK",
      "alert": "OK",
      "vis_m": 9999,
      "fzfg": false,
      "metar_trigger": false,
      "taf_trigger": false,
      "metar": "METAR EDDK 210920Z AUTO 32009KT 290V350 9999 BKN032 17/09 Q1025 NOSIG",
      "taf": "TAF EDDK 210500Z 2106/2212 VRB03KT CAVOK"
    },
    {
      "icao": "EDDN",
      "alert": "OK",
      "vis_m": 9999,
      "fzfg": false,
      "metar_trigger": false,
      "taf_trigger": false,
      "metar": "METAR EDDN 210920Z AUTO 01007KT 330V060 9999 FEW031 SCT039 19/10 Q1023 NOSIG",
      "taf": "TAF EDDN 210500Z 2106/2206 VRB02KT CAVOK"
    },
    {
      "icao": "EDDS",
      "alert": "OK",
      "vis_m": 9999,
      "fzfg": false,
      "metar_trigger": false,
      "taf_trigger": false,
      "metar": "METAR EDDS 210920Z AUTO 36008KT 310V030 9999 FEW039 20/08 Q1023 NOSIG",
      "taf": "TAF EDDS 210500Z 2106/2206 36005KT CAVOK"
    },
    {
      "icao": "EDFH",
      "alert": "OK",
      "vis_m": 9999,
      "fzfg": false,
      "metar_trigger": false,
      "taf_trigger": false,
      "metar": "METAR EDFH 210920Z 02006KT 340V090 9999 SCT037 18/09 Q1025",
      "taf": "TAF EDFH 210500Z 2106/2206 36006KT CAVOK"
    },
    {
      "icao": "EDJA",
      "alert": "OK",
      "vis_m": 9999,
      "fzfg": false,
      "metar_trigger": false,
      "taf_trigger": false,
      "metar": "METAR EDJA 210920Z 05008KT 020V090 CAVOK 17/08 Q1022",
      "taf": "TAF EDJA 210800Z 2109/2118 03007KT CAVOK"
    },
    {
      "icao": "EDLW",
      "alert": "OK",
      "vis_m": 9999,
      "fzfg": false,
      "metar_trigger": false,
      "taf_trigger": false,
      "metar": "METAR EDLW 210920Z VRB02KT 9999 BKN030 18/09 Q1025",
      "taf": "TAF EDLW 210500Z 2106/2206 VRB02KT 9999 FEW025"
    },
    {
      "icao": "EDNY",
      "alert": "OK",
      "vis_m": 9999,
      "fzfg": false,
      "metar_trigger": false,
      "taf_trigger": false,
      "metar": "METAR EDNY 210920Z 04007KT 310V100 CAVOK 20/09 Q1021",
      "taf": "TAF EDNY 210800Z 2109/2118 03008KT CAVOK"
    },
    {
      "icao": "EDSB",
      "alert": "OK",
      "vis_m": 9999,
      "fzfg": false,
      "metar_trigger": false,
      "taf_trigger": false,
      "metar": "METAR EDSB 210920Z 02012KT 340V040 CAVOK 20/09 Q1023",
      "taf": "TAF EDSB 210840Z 2109/2206 02009KT CAVOK"
    },
    {
      "icao": "EETN",
      "alert": "OK",
      "vis_m": 9999,
      "fzfg": false,
      "metar_trigger": false,
      "taf_trigger": false,
      "metar": "METAR EETN 210920Z 04011KT 9999 -RA SCT011 OVC018 12/11 Q1011 TEMPO 5000 RA",
      "taf": "TAF EETN 210530Z 2106/2206 04014KT 9999 SCT010 OVC014"
    },
    {
      "icao": "EFTU",
      "alert": "OK",
      "vis_m": 9999,
      "fzfg": false,
      "metar_trigger": false,
      "taf_trigger": false,
      "metar": "METAR EFTU 210920Z AUTO 04011KT 360V080 CAVOK 16/05 Q1014",
      "taf": "TAF EFTU 210827Z 2109/2209 04011KT CAVOK"
    },
    {
      "icao": "EGBB",
      "alert": "OK",
      "vis_m": 9999,
      "fzfg": false,
      "metar_trigger": false,
      "taf_trigger": false,
      "metar": "METAR EGBB 210920Z VRB03KT 9999 FEW023 18/11 Q1030",
      "taf": "TAF EGBB 210609Z 2106/2206 02004KT 9999 FEW045"
    },
    {
      "icao": "EGGP",
      "alert": "OK",
      "vis_m": 9999,
      "fzfg": false,
      "metar_trigger": false,
      "taf_trigger": false,
      "metar": "METAR EGGP 210920Z 29008KT 240V330 9999 FEW019 SCT023 20/12 Q1029",
      "taf": "TAF EGGP 210456Z 2106/2206 29007KT 9999 FEW035"
    },
    {
      "icao": "EGGW",
      "alert": "OK",
      "vis_m": 9999,
      "fzfg": false,
      "metar_trigger": false,
      "taf_trigger": false,
      "metar": "METAR EGGW 210920Z AUTO 03008KT 9999 OVC026 18/11 Q1029",
      "taf": "TAF EGGW 210453Z 2106/2206 02010KT CAVOK"
    },
    {
      "icao": "EGKK",
      "alert": "OK",
      "vis_m": 9999,
      "fzfg": false,
      "metar_trigger": false,
      "taf_trigger": false,
      "metar": "METAR EGKK 210920Z 03009KT 350V060 9999 BKN029 20/11 Q1029",
      "taf": "TAF EGKK 210452Z 2106/2212 VRB02KT 9999 FEW025 SCT035"
    },
    {
      "icao": "EGNM",
      "alert": "OK",
      "vis_m": 9999,
      "fzfg": false,
      "metar_trigger": false,
      "taf_trigger": false,
      "metar": "METAR EGNM 210920Z VRB03KT 9999 FEW024 18/12 Q1029",
      "taf": "TAF EGNM 210457Z 2106/2206 VRB03KT 9999 FEW030"
    },
    {
      "icao": "EGPD",
      "alert": "OK",
      "vis_m": 9999,
      "fzfg": false,
      "metar_trigger": false,
      "taf_trigger": false,
      "metar": "METAR EGPD 210920Z AUTO 32015KT 9999 BKN020 OVC027 16/10 Q1029",
      "taf": ""
    },
    {
      "icao": "EGPF",
      "alert": "OK",
      "vis_m": 9999,
      "fzfg": false,
      "metar_trigger": false,
      "taf_trigger": false,
      "metar": "METAR EGPF 210920Z AUTO 30006KT 280V350 9999 OVC013 17/13 Q1029",
      "taf": "TAF EGPF 210455Z 2106/2206 VRB03KT CAVOK"
    },
    {
      "icao": "EHBK",
      "alert": "OK",
      "vis_m": 9999,
      "fzfg": false,
      "metar_trigger": false,
      "taf_trigger": false,
      "metar": "METAR EHBK 210925Z AUTO 36006KT 310V060 9999 SCT026 17/09 Q1026 NOSIG",
      "taf": "TAF EHBK 210448Z 2106/2212 36004KT CAVOK"
    },
    {
      "icao": "EHEH",
      "alert": "OK",
      "vis_m": 9999,
      "fzfg": false,
      "metar_trigger": false,
      "taf_trigger": false,
      "metar": "METAR EHEH 210925Z AUTO 02006KT 9999 BKN031 BKN039 19/10 Q1026 BLU NOSIG RMK TREND REMOTE BY EHWX",
      "taf": "TAF EHEH 210500Z 2106/2212 32001KT 9999 BKN022"
    },
    {
      "icao": "EKBI",
      "alert": "OK",
      "vis_m": 9999,
      "fzfg": false,
      "metar_trigger": false,
      "taf_trigger": false,
      "metar": "METAR EKBI 210920Z AUTO 31010KT 9999 NCD 19/11 Q1022",
      "taf": "TAF EKBI 210827Z 2109/2209 34005KT 9999 FEW040"
    },
    {
      "icao": "EKCH",
      "alert": "OK",
      "vis_m": 9999,
      "fzfg": false,
      "metar_trigger": false,
      "taf_trigger": false,
      "metar": "METAR EKCH 210920Z AUTO 35009KT 330V080 9999 NCD 21/05 Q1020 NOSIG",
      "taf": "TAF EKCH 210827Z 2109/2209 34008KT 9999 SCT040"
    },
    {
      "icao": "ENAL",
      "alert": "OK",
      "vis_m": 9999,
      "fzfg": false,
      "metar_trigger": false,
      "taf_trigger": false,
      "metar": "METAR ENAL 210920Z 26017KT 9999 FEW012 SCT057 14/10 Q1018",
      "taf": "TAF ENAL 210800Z 2109/2118 25015KT 9999 FEW012"
    },
    {
      "icao": "ENBR",
      "alert": "OK",
      "vis_m": 9999,
      "fzfg": false,
      "metar_trigger": false,
      "taf_trigger": false,
      "metar": "METAR ENBR 210920Z 20004KT 140V250 9999 BKN014 12/08 Q1022 NOSIG RMK WIND 1200FT 29006KT",
      "taf": ""
    },
    {
      "icao": "ENGM",
      "alert": "OK",
      "vis_m": 9999,
      "fzfg": false,
      "metar_trigger": false,
      "taf_trigger": false,
      "metar": "METAR ENGM 210920Z 14005KT 090V190 CAVOK 21/09 Q1017 NOSIG",
      "taf": "TAF ENGM 210500Z 2106/2206 VRB03KT CAVOK"
    },
    {
      "icao": "ENHD",
      "alert": "OK",
      "vis_m": 9999,
      "fzfg": false,
      "metar_trigger": false,
      "taf_trigger": false,
      "metar": "METAR ENHD 210920Z 36005KT 9999 BKN012 13/09 Q1023",
      "taf": "TAF ENHD 210800Z 2109/2118 35008KT 9999 BKN014"
    },
    {
      "icao": "ENTC",
      "alert": "OK",
      "vis_m": 9999,
      "fzfg": false,
      "metar_trigger": false,
      "taf_trigger": false,
      "metar": "METAR ENTC 210920Z 27003KT 210V300 9999 VCSH SCT028 BKN043 14/07 Q1008 BECMG 20010KT RMK WIND 2600FT 17021KT",
      "taf": ""
    },
    {
      "icao": "ENTO",
      "alert": "OK",
      "vis_m": 9999,
      "fzfg": false,
      "metar_trigger": false,
      "taf_trigger": false,
      "metar": "METAR ENTO 210920Z 22013KT CAVOK 22/07 Q1018 NOSIG",
      "taf": "TAF ENTO 210500Z 2106/2206 28005KT CAVOK"
    },
    {
      "icao": "ENVA",
      "alert": "OK",
      "vis_m": 9999,
      "fzfg": false,
      "metar_trigger": false,
      "taf_trigger": false,
      "metar": "METAR ENVA 210920Z 14003KT 9999 FEW005 15/13 Q1017 NOSIG RMK WIND 670FT VRB02KT",
      "taf": "TAF ENVA 210500Z 2106/2206 13005KT 9999 BKN050"
    },
    {
      "icao": "ENZV",
      "alert": "OK",
      "vis_m": 9999,
      "fzfg": false,
      "metar_trigger": false,
      "taf_trigger": false,
      "metar": "METAR ENZV 210920Z 33011KT 9999 OVC015 13/09 Q1023 NOSIG",
      "taf": "TAF ENZV 210500Z 2106/2206 34010KT 9999 SCT015"
    },
    {
      "icao": "EPGD",
      "alert": "OK",
      "vis_m": 9999,
      "fzfg": false,
      "metar_trigger": false,
      "taf_trigger": false,
      "metar": "METAR EPGD 210930Z 31017KT 9999 FEW018 SCT035 15/12 Q1014",
      "taf": ""
    },
    {
      "icao": "EPKK",
      "alert": "OK",
      "vis_m": 9999,
      "fzfg": false,
      "metar_trigger": false,
      "taf_trigger": false,
      "metar": "METAR EPKK 210930Z 25016KT 9999 BKN033 17/10 Q1018",
      "taf": "TAF EPKK 210830Z 2109/2209 25011KT 9999 BKN040"
    },
    {
      "icao": "EPKT",
      "alert": "OK",
      "vis_m": 9999,
      "fzfg": false,
      "metar_trigger": false,
      "taf_trigger": false,
      "metar": "METAR EPKT 210930Z 27014KT 9999 BKN025 17/11 Q1018",
      "taf": "TAF EPKT 210530Z 2106/2206 28010KT 9999 BKN020"
    },
    {
      "icao": "EPLB",
      "alert": "OK",
      "vis_m": 9999,
      "fzfg": false,
      "metar_trigger": false,
      "taf_trigger": false,
      "metar": "METAR EPLB 210930Z 25014KT 9999 FEW009 SCT015 BKN022 15/14 Q1014",
      "taf": "TAF EPLB 210530Z 2106/2206 26014KT 9999 BKN020"
    },
    {
      "icao": "EPMO",
      "alert": "OK",
      "vis_m": 3200,
      "fzfg": false,
      "metar_trigger": false,
      "taf_trigger": false,
      "metar": "METAR EPMO 210930Z 26014KT 3200 -SHRA BR SCT006 BKN011TCU 16/15 Q1012",
      "taf": ""
    },
    {
      "icao": "EPPO",
      "alert": "OK",
      "vis_m": 9999,
      "fzfg": false,
      "metar_trigger": false,
      "taf_trigger": false,
      "metar": "METAR EPPO 210930Z 32010KT 290V360 9999 SCT028 BKN035 19/11 Q1018",
      "taf": "TAF EPPO 210530Z 2106/2206 30012KT 9999 OVC008"
    },
    {
      "icao": "EPRA",
      "alert": "OK",
      "vis_m": 9999,
      "fzfg": false,
      "metar_trigger": false,
      "taf_trigger": false,
      "metar": "METAR EPRA 210930Z 27015KT 9999 BKN011 OVC019 15/13 Q1015",
      "taf": "TAF EPRA 210830Z 2109/2118 26016KT 9999 BKN012 OVC025"
    },
    {
      "icao": "EPRZ",
      "alert": "OK",
      "vis_m": 9999,
      "fzfg": false,
      "metar_trigger": false,
      "taf_trigger": false,
      "metar": "METAR EPRZ 210930Z 27015KT 9999 BKN040 19/10 Q1017",
      "taf": "TAF EPRZ 210530Z 2106/2206 26011KT 9999 SCT030"
    },
    {
      "icao": "EPSC",
      "alert": "OK",
      "vis_m": 9999,
      "fzfg": false,
      "metar_trigger": false,
      "taf_trigger": false,
      "metar": "METAR EPSC 210930Z 31012KT 280V350 9999 FEW045 19/08 Q1019",
      "taf": "TAF EPSC 210530Z 2106/2206 32010KT 9999 SCT040"
    },
    {
      "icao": "EPSY",
      "alert": "OK",
      "vis_m": 9999,
      "fzfg": false,
      "metar_trigger": false,
      "taf_trigger": false,
      "metar": "METAR EPSY 210930Z 29006KT 240V350 9999 SCT023 18/12 Q1010",
      "taf": "TAF EPSY 210830Z 2109/2118 30010KT 9999 BKN025"
    },
    {
      "icao": "EPWA",
      "alert": "OK",
      "vis_m": 9999,
      "fzfg": false,
      "metar_trigger": false,
      "taf_trigger": false,
      "metar": "METAR EPWA 210930Z 26013KT 230V290 9999 -SHRA SCT013TCU BKN018 16/15 Q1013 TEMPO 2500 DZRA BKN007",
      "taf": "TAF EPWA 210830Z 2109/2209 27015KT 9999 BKN020"
    },
    {
      "icao": "EPWR",
      "alert": "OK",
      "vis_m": 9999,
      "fzfg": false,
      "metar_trigger": false,
      "taf_trigger": false,
      "metar": "METAR EPWR 210930Z 29014KT 9999 BKN020 17/12 Q1020",
      "taf": "TAF EPWR 210830Z 2109/2209 30015KT 9000 SCT007 BKN010"
    },
    {
      "icao": "ESGG",
      "alert": "OK",
      "vis_m": 9999,
      "fzfg": false,
      "metar_trigger": false,
      "taf_trigger": false,
      "metar": "METAR ESGG 210920Z 29004KT 230V020 CAVOK 21/08 Q1020",
      "taf": "TAF ESGG 210830Z 2109/2209 26009KT CAVOK"
    },
    {
      "icao": "ESKN",
      "alert": "OK",
      "vis_m": 9999,
      "fzfg": false,
      "metar_trigger": false,
      "taf_trigger": false,
      "metar": "METAR ESKN 210920Z 34009KT 300V030 CAVOK 19/08 Q1017",
      "taf": "TAF ESKN 210830Z 2109/2209 34009KT CAVOK"
    },
    {
      "icao": "ESMS",
      "alert": "OK",
      "vis_m": 9999,
      "fzfg": false,
      "metar_trigger": false,
      "taf_trigger": false,
      "metar": "METAR ESMS 210920Z 01012KT CAVOK 21/05 Q1019",
      "taf": "TAF ESMS 210827Z 2109/2209 35008KT 9999 SCT040"
    },
    {
      "icao": "ESSA",
      "alert": "OK",
      "vis_m": 9999,
      "fzfg": false,
      "metar_trigger": false,
      "taf_trigger": false,
      "metar": "METAR ESSA 210920Z 36011KT 9999 SCT048 19/06 Q1016 NOSIG",
      "taf": "TAF ESSA 210830Z 2109/2209 02010KT 9999 FEW040"
    },
    {
      "icao": "EYKA",
      "alert": "OK",
      "vis_m": 9999,
      "fzfg": false,
      "metar_trigger": false,
      "taf_trigger": false,
      "metar": "METAR EYKA 210920Z 18006KT 150V220 9999 SCT016 BKN023 17/13 Q1009",
      "taf": "TAF EYKA 210500Z 2106/2206 VRB03KT 9000 BKN020"
    },
    {
      "icao": "EYPA",
      "alert": "OK",
      "vis_m": 9999,
      "fzfg": false,
      "metar_trigger": false,
      "taf_trigger": false,
      "metar": "METAR EYPA 210920Z 36010KT 330V030 9999 VCSH BKN011CB BKN020 17/15 Q1007",
      "taf": "TAF EYPA 210500Z 2106/2206 VRB03KT 9000 OVC010"
    },
    {
      "icao": "EYVI",
      "alert": "OK",
      "vis_m": 9999,
      "fzfg": false,
      "metar_trigger": false,
      "taf_trigger": false,
      "metar": "METAR EYVI 210920Z 21009KT 9999 VCSH SCT026CB SCT034 BKN046 17/12 Q1009 TEMPO 3000 TSRA",
      "taf": "TAF EYVI 210515Z 2106/2206 20009KT 9999 BKN025"
    },
    {
      "icao": "GCFV",
      "alert": "OK",
      "vis_m": 9999,
      "fzfg": false,
      "metar_trigger": false,
      "taf_trigger": false,
      "metar": "METAR GCFV 210930Z 03017KT 9999 FEW020 25/19 Q1017",
      "taf": "TAF GCFV 210800Z 2109/2209 04018KT 9999 FEW020 TX27/2114Z TN22/2206Z"
    },
    {
      "icao": "GCLP",
      "alert": "OK",
      "vis_m": 9999,
      "fzfg": false,
      "metar_trigger": false,
      "taf_trigger": false,
      "metar": "METAR GCLP 210930Z 36023KT 9999 SCT025 26/19 Q1017 NOSIG",
      "taf": "TAF GCLP 210800Z 2109/2209 01026KT 9999 FEW025 TX27/2114Z TN23/2206Z"
    },
    {
      "icao": "GCTS",
      "alert": "OK",
      "vis_m": 9999,
      "fzfg": false,
      "metar_trigger": false,
      "taf_trigger": false,
      "metar": "METAR GCTS 210930Z 07018KT CAVOK 27/17 Q1018 WS R07 NOSIG",
      "taf": "TAF GCTS 210800Z 2109/2209 VRB05KT 9999 FEW020 TX29/2114Z TN23/2206Z"
    },
    {
      "icao": "GMAD",
      "alert": "OK",
      "vis_m": 8000,
      "fzfg": false,
      "metar_trigger": false,
      "taf_trigger": false,
      "metar": "METAR GMAD 210930Z 23005KT 190V290 8000 SCT016 23/19 Q1013 NOSIG",
      "taf": "TAF GMAD 210500Z 2106/2212 12006KT 8000 NSC"
    },
    {
      "icao": "GMMN",
      "alert": "OK",
      "vis_m": 9999,
      "fzfg": false,
      "metar_trigger": false,
      "taf_trigger": false,
      "metar": "METAR GMMN 210930Z 36009KT 9999 BKN012 26/20 Q1017 NOSIG",
      "taf": "TAF GMMN 210500Z 2106/2212 04008KT 9999 BKN011"
    },
    {
      "icao": "GMMX",
      "alert": "OK",
      "vis_m": 9999,
      "fzfg": false,
      "metar_trigger": false,
      "taf_trigger": false,
      "metar": "METAR GMMX 210900Z VRB02KT CAVOK 27/18 Q1016 NOSIG",
      "taf": ""
    },
    {
      "icao": "HEGN",
      "alert": "OK",
      "vis_m": 9999,
      "fzfg": false,
      "metar_trigger": false,
      "taf_trigger": false,
      "metar": "METAR HEGN 210900Z 01010KT CAVOK 36/14 Q1007 NOSIG",
      "taf": "TAF HEGN 210500Z 2106/2212 33016KT CAVOK"
    },
    {
      "icao": "HEMA",
      "alert": "OK",
      "vis_m": 9999,
      "fzfg": false,
      "metar_trigger": false,
      "taf_trigger": false,
      "metar": "METAR HEMA 210900Z 36021KT CAVOK 37/17 Q1006 NOSIG",
      "taf": "TAF HEMA 210500Z 2106/2212 33010G20KT CAVOK"
    },
    {
      "icao": "HESH",
      "alert": "OK",
      "vis_m": 9999,
      "fzfg": false,
      "metar_trigger": false,
      "taf_trigger": false,
      "metar": "METAR HESH 210900Z 36013KT CAVOK 37/15 Q1006 NOSIG",
      "taf": "TAF HESH 210500Z 2106/2212 35014KT CAVOK"
    },
    {
      "icao": "HESX",
      "alert": "OK",
      "vis_m": 9999,
      "fzfg": false,
      "metar_trigger": false,
      "taf_trigger": false,
      "metar": "METAR HESX 210900Z 27003KT CAVOK 32/16 Q1010 NOSIG",
      "taf": "TAF HESX 210510Z 2106/2212 33009KT CAVOK"
    },
    {
      "icao": "LATI",
      "alert": "OK",
      "vis_m": 9999,
      "fzfg": false,
      "metar_trigger": false,
      "taf_trigger": false,
      "metar": "METAR LATI 210920Z VRB03KT CAVOK 36/17 Q1014 NOSIG",
      "taf": "TAF LATI 210500Z 2106/2206 VRB05KT CAVOK TX38/2113Z TN21/2204Z"
    },
    {
      "icao": "LBPD",
      "alert": "OK",
      "vis_m": 9999,
      "fzfg": false,
      "metar_trigger": false,
      "taf_trigger": false,
      "metar": "METAR LBPD 210930Z AUTO 30010KT 270V330 9999 NCD 31/13 Q1015 NOSIG",
      "taf": "TAF LBPD 210500Z 2106/2206 32010KT 9999 SCT070"
    },
    {
      "icao": "LBSF",
      "alert": "OK",
      "vis_m": 9999,
      "fzfg": false,
      "metar_trigger": false,
      "taf_trigger": false,
      "metar": "METAR LBSF 210930Z 31009KT 270V340 CAVOK 28/12 Q1018 NOSIG",
      "taf": "TAF LBSF 210500Z 2106/2206 VRB04KT 9999 SCT060"
    },
    {
      "icao": "LBWN",
      "alert": "OK",
      "vis_m": 9999,
      "fzfg": false,
      "metar_trigger": false,
      "taf_trigger": false,
      "metar": "METAR LBWN 210930Z 33010KT 300V010 9999 SCT032 28/20 Q1014 NOSIG",
      "taf": "TAF LBWN 210500Z 2106/2206 VRB03KT 9999 SCT045"
    },
    {
      "icao": "LCLK",
      "alert": "OK",
      "vis_m": 9999,
      "fzfg": false,
      "metar_trigger": false,
      "taf_trigger": false,
      "metar": "METAR LCLK 210930Z 16010KT CAVOK 32/27 Q1007 BECMG 22015KT",
      "taf": "TAF LCLK 210530Z 2106/2206 36005KT CAVOK"
    },
    {
      "icao": "LCPH",
      "alert": "OK",
      "vis_m": 9999,
      "fzfg": false,
      "metar_trigger": false,
      "taf_trigger": false,
      "metar": "METAR LCPH 210930Z 25006KT 230V300 9999 FEW014 31/27 Q1007 NOSIG",
      "taf": "TAF LCPH 210530Z 2106/2206 02004KT 9999 FEW012"
    },
    {
      "icao": "LEAL",
      "alert": "OK",
      "vis_m": 9999,
      "fzfg": false,
      "metar_trigger": false,
      "taf_trigger": false,
      "metar": "METAR LEAL 210930Z 20003KT 110V260 CAVOK 35/21 Q1014 NOSIG",
      "taf": "TAF LEAL 210500Z 2106/2206 24007KT 9999 FEW015 TX35/2116Z TN26/2106Z"
    },
    {
      "icao": "LEBB",
      "alert": "OK",
      "vis_m": 9999,
      "fzfg": false,
      "metar_trigger": false,
      "taf_trigger": false,
      "metar": "METAR LEBB 210930Z VRB04KT 9999 FEW032 27/18 Q1020 NOSIG",
      "taf": "TAF LEBB 210500Z 2106/2206 35008KT CAVOK TX28/2113Z TN17/2205Z"
    },
    {
      "icao": "LEBL",
      "alert": "OK",
      "vis_m": 9000,
      "fzfg": false,
      "metar_trigger": false,
      "taf_trigger": false,
      "metar": "METAR LEBL 210930Z 14007KT 100V170 9000 FEW020 FEW060TCU 30/22 Q1015 NOSIG",
      "taf": ""
    },
    {
      "icao": "LECH",
      "alert": "OK",
      "vis_m": 8000,
      "fzfg": false,
      "metar_trigger": false,
      "taf_trigger": false,
      "metar": "METAR LECH 210930Z AUTO 11006KT 080V150 8000 SCT019 SCT024 28/23 Q1017",
      "taf": ""
    },
    {
      "icao": "LEMD",
      "alert": "OK",
      "vis_m": 9999,
      "fzfg": false,
      "metar_trigger": false,
      "taf_trigger": false,
      "metar": "METAR LEMD 210930Z 25003KT 160V300 CAVOK 29/05 Q1018 NOSIG",
      "taf": "TAF LEMD 210500Z 2106/2212 VRB04KT CAVOK TX38/2116Z TN20/2205Z"
    },
    {
      "icao": "LEMG",
      "alert": "OK",
      "vis_m": 9999,
      "fzfg": false,
      "metar_trigger": false,
      "taf_trigger": false,
      "metar": "METAR LEMG 210930Z 17010KT 140V200 CAVOK 27/17 Q1014 NOSIG",
      "taf": "TAF LEMG 210500Z 2106/2206 29008KT CAVOK TX36/2114Z TN23/2205Z"
    },
    {
      "icao": "LEVC",
      "alert": "OK",
      "vis_m": 9999,
      "fzfg": false,
      "metar_trigger": false,
      "taf_trigger": false,
      "metar": "METAR LEVC 210930Z 05006KT 360V120 9999 FEW019 BKN021 31/24 Q1015 NOSIG",
      "taf": "TAF LEVC 210500Z 2106/2206 VRB04KT 9999 SCT015 TX34/2112Z TN25/2106Z"
    },
    {
      "icao": "LEXJ",
      "alert": "OK",
      "vis_m": 9999,
      "fzfg": false,
      "metar_trigger": false,
      "taf_trigger": false,
      "metar": "METAR LEXJ 210930Z 05003KT 320V110 9999 FEW025 25/19 Q1021",
      "taf": "TAF LEXJ 210800Z 2109/2209 05009KT CAVOK TX28/2113Z TN18/2205Z"
    },
    {
      "icao": "LEZG",
      "alert": "OK",
      "vis_m": 9999,
      "fzfg": false,
      "metar_trigger": false,
      "taf_trigger": false,
      "metar": "METAR LEZG 210930Z 30013KT 280V340 CAVOK 28/13 Q1017 NOSIG",
      "taf": "TAF LEZG 210500Z 2106/2206 29012KT CAVOK TX39/2115Z TN23/2106Z"
    },
    {
      "icao": "LEZL",
      "alert": "OK",
      "vis_m": 9999,
      "fzfg": false,
      "metar_trigger": false,
      "taf_trigger": false,
      "metar": "METAR LEZL 210930Z 01004KT 310V070 CAVOK 28/16 Q1015 NOSIG",
      "taf": "TAF LEZL 210800Z 2109/2209 VRB03KT CAVOK TX37/2115Z TN23/2205Z"
    },
    {
      "icao": "LFBD",
      "alert": "OK",
      "vis_m": 9999,
      "fzfg": false,
      "metar_trigger": false,
      "taf_trigger": false,
      "metar": "METAR LFBD 210930Z AUTO 02009KT 330V060 CAVOK 25/08 Q1020 NOSIG",
      "taf": "TAF LFBD 210500Z 2106/2212 03010KT CAVOK TX33/2115Z TN19/2106Z"
    },
    {
      "icao": "LFLL",
      "alert": "OK",
      "vis_m": 9999,
      "fzfg": false,
      "metar_trigger": false,
      "taf_trigger": false,
      "metar": "METAR LFLL 210930Z 33007KT 290V010 CAVOK 22/09 Q1020 NOSIG",
      "taf": "TAF LFLL 210500Z 2106/2212 35007KT CAVOK"
    },
    {
      "icao": "LFLS",
      "alert": "OK",
      "vis_m": 9999,
      "fzfg": false,
      "metar_trigger": false,
      "taf_trigger": false,
      "metar": "METAR LFLS 210930Z AUTO 32008KT 290V350 CAVOK 23/10 Q1020 NOSIG",
      "taf": "TAF LFLS 210800Z 2109/2209 VRB03KT CAVOK"
    },
    {
      "icao": "LFMN",
      "alert": "OK",
      "vis_m": 9999,
      "fzfg": false,
      "metar_trigger": false,
      "taf_trigger": false,
      "metar": "METAR LFMN 210930Z 12005KT CAVOK 30/23 Q1013 NOSIG",
      "taf": "TAF LFMN 210800Z 2109/2215 17005KT CAVOK"
    },
    {
      "icao": "LFOB",
      "alert": "OK",
      "vis_m": 9999,
      "fzfg": false,
      "metar_trigger": false,
      "taf_trigger": false,
      "metar": "METAR LFOB 210930Z AUTO 02010KT 330V070 9999 FEW033 21/11 Q1027 NOSIG",
      "taf": "TAF LFOB 210500Z 2106/2206 01008KT CAVOK"
    },
    {
      "icao": "LFPO",
      "alert": "OK",
      "vis_m": 9999,
      "fzfg": false,
      "metar_trigger": false,
      "taf_trigger": false,
      "metar": "METAR LFPO 210930Z 01009KT 330V040 CAVOK 21/10 Q1025 NOSIG",
      "taf": "TAF LFPO 210500Z 2106/2212 02010KT CAVOK"
    },
    {
      "icao": "LFSB",
      "alert": "OK",
      "vis_m": 9999,
      "fzfg": false,
      "metar_trigger": false,
      "taf_trigger": false,
      "metar": "METAR LFSB 210930Z AUTO 36006KT 300V040 9999 FEW010 21/09 Q1022 NOSIG",
      "taf": "TAF LFSB 210500Z 2106/2206 VRB04KT CAVOK"
    },
    {
      "icao": "LGAV",
      "alert": "OK",
      "vis_m": 9999,
      "fzfg": false,
      "metar_trigger": false,
      "taf_trigger": false,
      "metar": "METAR LGAV 210920Z 07012KT CAVOK 34/17 Q1014 NOSIG",
      "taf": "TAF LGAV 210500Z 2106/2206 04010KT 9999 FEW025"
    },
    {
      "icao": "LGTS",
      "alert": "OK",
      "vis_m": 9999,
      "fzfg": false,
      "metar_trigger": false,
      "taf_trigger": false,
      "metar": "METAR LGTS 210920Z 28007KT CAVOK 31/19 Q1014 NOSIG",
      "taf": "TAF LGTS 210500Z 2106/2206 VRB03KT 9999 FEW030"
    },
    {
      "icao": "LHBP",
      "alert": "OK",
      "vis_m": 9999,
      "fzfg": false,
      "metar_trigger": false,
      "taf_trigger": false,
      "metar": "METAR LHBP 210930Z 34010KT CAVOK 25/05 Q1019 NOSIG",
      "taf": "TAF LHBP 210515Z 2106/2206 32008KT CAVOK"
    },
    {
      "icao": "LHDC",
      "alert": "OK",
      "vis_m": 9999,
      "fzfg": false,
      "metar_trigger": false,
      "taf_trigger": false,
      "metar": "METAR LHDC 210915Z AUTO 28012KT 240V320 CAVOK 26/04 Q1017 NOSIG",
      "taf": "TAF LHDC 210815Z 2109/2118 30008KT CAVOK"
    },
    {
      "icao": "LIBD",
      "alert": "OK",
      "vis_m": 9999,
      "fzfg": false,
      "metar_trigger": false,
      "taf_trigger": false,
      "metar": "METAR LIBD 210920Z 05008KT 010V080 CAVOK 31/25 Q1014",
      "taf": "TAF LIBD 210500Z 2106/2206 VRB05KT CAVOK"
    },
    {
      "icao": "LIBG",
      "alert": "OK",
      "vis_m": 9999,
      "fzfg": false,
      "metar_trigger": false,
      "taf_trigger": false,
      "metar": "METAR LIBG 210920Z VRB03KT CAVOK 36/17 Q1014",
      "taf": ""
    },
    {
      "icao": "LIBP",
      "alert": "OK",
      "vis_m": 9999,
      "fzfg": false,
      "metar_trigger": false,
      "taf_trigger": false,
      "metar": "METAR LIBP 210920Z AUTO 22012G25KT 200V270 9999 BKN200/// 32/17 Q1012",
      "taf": "TAF LIBP 210500Z 2106/2206 VRB05KT CAVOK"
    },
    {
      "icao": "LIBR",
      "alert": "OK",
      "vis_m": 9999,
      "fzfg": false,
      "metar_trigger": false,
      "taf_trigger": false,
      "metar": "METAR LIBR 210920Z 02007KT CAVOK 30/26 Q1014",
      "taf": "TAF LIBR 210500Z 2106/2206 34008KT 9999 FEW010"
    },
    {
      "icao": "LICA",
      "alert": "OK",
      "vis_m": 9999,
      "fzfg": false,
      "metar_trigger": false,
      "taf_trigger": false,
      "metar": "METAR LICA 210920Z AUTO 26006KT 240V300 9999 NCD 36/12 Q1015",
      "taf": "TAF LICA 210500Z 2106/2206 VRB05KT CAVOK"
    },
    {
      "icao": "LICC",
      "alert": "OK",
      "vis_m": 9999,
      "fzfg": false,
      "metar_trigger": false,
      "taf_trigger": false,
      "metar": "METAR LICC 210920Z 06012KT CAVOK 38/19 Q1014",
      "taf": "TAF LICC 210500Z 2106/2206 09012KT CAVOK"
    },
    {
      "icao": "LICJ",
      "alert": "OK",
      "vis_m": 9999,
      "fzfg": false,
      "metar_trigger": false,
      "taf_trigger": false,
      "metar": "METAR LICJ 210920Z 35003KT 320V040 CAVOK 34/20 Q1014",
      "taf": "TAF LICJ 210500Z 2106/2206 VRB05KT CAVOK"
    },
    {
      "icao": "LIMC",
      "alert": "OK",
      "vis_m": 9999,
      "fzfg": false,
      "metar_trigger": false,
      "taf_trigger": false,
      "metar": "METAR LIMC 210920Z 09009KT 040V120 9999 SCT050 27/17 Q1016 NOSIG",
      "taf": "TAF LIMC 210500Z 2106/2212 VRB05KT 9999 FEW050"
    },
    {
      "icao": "LIME",
      "alert": "OK",
      "vis_m": 9999,
      "fzfg": false,
      "metar_trigger": false,
      "taf_trigger": false,
      "metar": "METAR LIME 210920Z 04005KT 350V070 9999 FEW015 21/19 Q1016 NOSIG",
      "taf": "TAF LIME 210500Z 2106/2206 VRB05KT 9999 SCT030"
    },
    {
      "icao": "LIMF",
      "alert": "OK",
      "vis_m": 9999,
      "fzfg": false,
      "metar_trigger": false,
      "taf_trigger": false,
      "metar": "METAR LIMF 210920Z 07007KT 010V110 9999 SCT020 27/18 Q1016",
      "taf": "TAF LIMF 210500Z 2106/2206 VRB05KT 9999 SCT030"
    },
    {
      "icao": "LIMJ",
      "alert": "OK",
      "vis_m": 9999,
      "fzfg": false,
      "metar_trigger": false,
      "taf_trigger": false,
      "metar": "METAR LIMJ 210920Z 17005KT 9999 FEW030 28/24 Q1013",
      "taf": "TAF LIMJ 210500Z 2106/2206 VRB05KT 9999 SCT030"
    },
    {
      "icao": "LIPE",
      "alert": "OK",
      "vis_m": 9999,
      "fzfg": false,
      "metar_trigger": false,
      "taf_trigger": false,
      "metar": "METAR LIPE 210920Z 06006KT 010V100 9999 FEW024 26/20 Q1014",
      "taf": "TAF LIPE 210500Z 2106/2206 VRB05KT 9999 SCT025"
    },
    {
      "icao": "LIPH",
      "alert": "OK",
      "vis_m": 9999,
      "fzfg": false,
      "metar_trigger": false,
      "taf_trigger": false,
      "metar": "METAR LIPH 210920Z 05007KT 020V080 CAVOK 27/15 Q1015",
      "taf": "TAF LIPH 210500Z 2106/2206 VRB05KT 9999 FEW030"
    },
    {
      "icao": "LIPQ",
      "alert": "OK",
      "vis_m": 9999,
      "fzfg": false,
      "metar_trigger": false,
      "taf_trigger": false,
      "metar": "METAR LIPQ 210920Z AUTO 10008KT 060V140 9999 NCD 29/14 Q1015",
      "taf": "TAF LIPQ 210500Z 2106/2206 07006KT CAVOK"
    },
    {
      "icao": "LIPR",
      "alert": "OK",
      "vis_m": 9999,
      "fzfg": false,
      "metar_trigger": false,
      "taf_trigger": false,
      "metar": "METAR LIPR 210920Z 03006KT 350V060 9999 SCT020 28/22 Q1014",
      "taf": "TAF LIPR 210500Z 2106/2206 VRB05KT 9999 FEW030"
    },
    {
      "icao": "LIPX",
      "alert": "OK",
      "vis_m": 9999,
      "fzfg": false,
      "metar_trigger": false,
      "taf_trigger": false,
      "metar": "METAR LIPX 210920Z VRB02KT 9999 -TSRA FEW045CB BKN070 22/18 Q1016 RESHRA",
      "taf": "TAF LIPX 210500Z 2106/2206 11011KT 9999 SCT050"
    },
    {
      "icao": "LIPY",
      "alert": "OK",
      "vis_m": 9999,
      "fzfg": false,
      "metar_trigger": false,
      "taf_trigger": false,
      "metar": "METAR LIPY 210920Z AUTO 03011KT 9999 NCD 29/23 Q1014",
      "taf": "TAF LIPY 210500Z 2106/2206 VRB05KT CAVOK"
    },
    {
      "icao": "LIPZ",
      "alert": "OK",
      "vis_m": 9999,
      "fzfg": false,
      "metar_trigger": false,
      "taf_trigger": false,
      "metar": "METAR LIPZ 210920Z 08007KT CAVOK 28/15 Q1015 NOSIG",
      "taf": "TAF LIPZ 210500Z 2106/2212 03010KT 9999 FEW030"
    },
    {
      "icao": "LIRF",
      "alert": "OK",
      "vis_m": 9999,
      "fzfg": false,
      "metar_trigger": false,
      "taf_trigger": false,
      "metar": "METAR LIRF 210920Z 18008KT 140V200 CAVOK 34/24 Q1013 NOSIG",
      "taf": "TAF LIRF 210500Z 2106/2212 VRB05KT CAVOK"
    },
    {
      "icao": "LIRN",
      "alert": "OK",
      "vis_m": 9999,
      "fzfg": false,
      "metar_trigger": false,
      "taf_trigger": false,
      "metar": "METAR LIRN 210920Z VRB03KT 160V260 CAVOK 33/23 Q1015 NOSIG",
      "taf": "TAF LIRN 210500Z 2106/2206 VRB05KT CAVOK"
    },
    {
      "icao": "LIRP",
      "alert": "OK",
      "vis_m": 9999,
      "fzfg": false,
      "metar_trigger": false,
      "taf_trigger": false,
      "metar": "METAR LIRP 210915Z 17003KT 9999 FEW020 31/22 Q1013 NOSIG",
      "taf": "TAF LIRP 210500Z 2106/2206 VRB03KT 9999 FEW030"
    },
    {
      "icao": "LIRZ",
      "alert": "OK",
      "vis_m": 9999,
      "fzfg": false,
      "metar_trigger": false,
      "taf_trigger": false,
      "metar": "METAR LIRZ 210920Z AUTO 20007KT 110V250 9999 NCD 32/18 Q1015",
      "taf": "TAF LIRZ 210500Z 2106/2206 VRB05KT 9999 FEW040"
    },
    {
      "icao": "LJLJ",
      "alert": "OK",
      "vis_m": 9999,
      "fzfg": false,
      "metar_trigger": false,
      "taf_trigger": false,
      "metar": "METAR LJLJ 210930Z 14012KT 9999 FEW030TCU BKN100 23/14 Q1019 NOSIG",
      "taf": "TAF LJLJ 210500Z 2106/2206 VRB02KT 9999 FEW040"
    },
    {
      "icao": "LKMT",
      "alert": "OK",
      "vis_m": 9999,
      "fzfg": false,
      "metar_trigger": false,
      "taf_trigger": false,
      "metar": "METAR LKMT 210930Z VRB03KT CAVOK 19/08 Q1020 NOSIG",
      "taf": "TAF LKMT 210500Z 2106/2206 24005KT CAVOK"
    },
    {
      "icao": "LKPR",
      "alert": "OK",
      "vis_m": 9999,
      "fzfg": false,
      "metar_trigger": false,
      "taf_trigger": false,
      "metar": "METAR LKPR 210930Z 31010KT 290V350 9999 SCT040 17/08 Q1022 NOSIG",
      "taf": "TAF LKPR 210800Z 2109/2215 32008KT CAVOK"
    },
    {
      "icao": "LLBG",
      "alert": "OK",
      "vis_m": 9999,
      "fzfg": false,
      "metar_trigger": false,
      "taf_trigger": false,
      "metar": "METAR LLBG 210920Z 26009KT CAVOK 32/21 Q1008 NOSIG",
      "taf": "TAF LLBG 210504Z 2106/2206 17006KT 9999 FEW015 TX33/2111Z TN23/2203Z"
    },
    {
      "icao": "LMML",
      "alert": "OK",
      "vis_m": 9999,
      "fzfg": false,
      "metar_trigger": false,
      "taf_trigger": false,
      "metar": "METAR LMML 210915Z 02008KT CAVOK 41/10 Q1015 NOSIG",
      "taf": "TAF LMML 210500Z 2106/2206 30006KT CAVOK"
    },
    {
      "icao": "LOWW",
      "alert": "OK",
      "vis_m": 9999,
      "fzfg": false,
      "metar_trigger": false,
      "taf_trigger": false,
      "metar": "METAR LOWW 210920Z 36008KT 320V050 CAVOK 22/09 Q1020 NOSIG",
      "taf": "TAF LOWW 210815Z 2109/2215 34009KT 9999 FEW050 TX24/2215Z TN14/2203Z"
    },
    {
      "icao": "LPFR",
      "alert": "OK",
      "vis_m": 9999,
      "fzfg": false,
      "metar_trigger": false,
      "taf_trigger": false,
      "metar": "METAR LPFR 210930Z 18006KT 150V210 CAVOK 24/15 Q1017",
      "taf": "TAF LPFR 210500Z 2106/2206 VRB02KT CAVOK"
    },
    {
      "icao": "LPMA",
      "alert": "OK",
      "vis_m": 9999,
      "fzfg": false,
      "metar_trigger": false,
      "taf_trigger": false,
      "metar": "METAR LPMA 210930Z 02009KT 320V060 9999 SCT015 25/17 Q1022",
      "taf": "TAF LPMA 210500Z 2106/2206 02012KT 9999 SCT015"
    },
    {
      "icao": "LPPR",
      "alert": "OK",
      "vis_m": 9999,
      "fzfg": false,
      "metar_trigger": false,
      "taf_trigger": false,
      "metar": "METAR LPPR 210930Z 25005KT 230V300 9999 SCT020 BKN028 22/18 Q1017",
      "taf": "TAF LPPR 210500Z 2106/2206 VRB02KT 9999 SCT012"
    },
    {
      "icao": "LPPS",
      "alert": "OK",
      "vis_m": 9999,
      "fzfg": false,
      "metar_trigger": false,
      "taf_trigger": false,
      "metar": "METAR LPPS 210930Z 01011KT 360V060 9999 SCT014 23/17 Q1022",
      "taf": "TAF LPPS 210500Z 2106/2212 02012KT 9999 SCT015"
    },
    {
      "icao": "LPPT",
      "alert": "OK",
      "vis_m": 9999,
      "fzfg": false,
      "metar_trigger": false,
      "taf_trigger": false,
      "metar": "METAR LPPT 210930Z VRB03KT 9999 FEW025 BKN028 23/17 Q1017 NOSIG",
      "taf": "TAF LPPT 210500Z 2106/2212 VRB05KT 9999 SCT020"
    },
    {
      "icao": "LQBK",
      "alert": "OK",
      "vis_m": 9999,
      "fzfg": false,
      "metar_trigger": false,
      "taf_trigger": false,
      "metar": "METAR LQBK 210930Z 25004KT 160V270 9999 VCTS RA FEW017 FEW035CB SCT047 20/16 Q1018 NOSIG",
      "taf": ""
    },
    {
      "icao": "LQSA",
      "alert": "OK",
      "vis_m": 9999,
      "fzfg": false,
      "metar_trigger": false,
      "taf_trigger": false,
      "metar": "METAR LQSA 210930Z 23004KT 170V280 9999 FEW015 21/17 Q1018 NOSIG",
      "taf": "TAF LQSA 210500Z 2106/2206 VRB02KT 9999 SCT040 TX27/2111Z TN15/2203Z"
    },
    {
      "icao": "LQTZ",
      "alert": "OK",
      "vis_m": 9999,
      "fzfg": false,
      "metar_trigger": false,
      "taf_trigger": false,
      "metar": "METAR LQTZ 210930Z 11003KT 050V200 9999 FEW020 22/18 Q1018",
      "taf": "TAF LQTZ 210500Z 2106/2206 09006KT CAVOK TX25/2114Z TN13/2203Z"
    },
    {
      "icao": "LRBC",
      "alert": "OK",
      "vis_m": 9999,
      "fzfg": false,
      "metar_trigger": false,
      "taf_trigger": false,
      "metar": "METAR LRBC 210930Z 12004KT 050V170 9999 FEW040 26/14 Q1016",
      "taf": "TAF LRBC 210800Z 2109/2118 VRB04KT CAVOK"
    },
    {
      "icao": "LRBS",
      "alert": "OK",
      "vis_m": 9999,
      "fzfg": false,
      "metar_trigger": false,
      "taf_trigger": false,
      "metar": "METAR LRBS 210930Z 05007KT 340V100 CAVOK 27/18 Q1016 NOSIG",
      "taf": "TAF LRBS 210500Z 2106/2206 07007KT CAVOK"
    },
    {
      "icao": "LRBV",
      "alert": "OK",
      "vis_m": 9999,
      "fzfg": false,
      "metar_trigger": false,
      "taf_trigger": false,
      "metar": "METAR LRBV 210930Z VRB05KT CAVOK 23/09 Q1019",
      "taf": "TAF LRBV 210800Z 2109/2118 30010KT CAVOK"
    },
    {
      "icao": "LRCL",
      "alert": "OK",
      "vis_m": 9999,
      "fzfg": false,
      "metar_trigger": false,
      "taf_trigger": false,
      "metar": "METAR LRCL 210930Z VRB05KT CAVOK 26/07 Q1018",
      "taf": "TAF LRCL 210800Z 2109/2118 VRB04KT CAVOK"
    },
    {
      "icao": "LRCV",
      "alert": "OK",
      "vis_m": 9999,
      "fzfg": false,
      "metar_trigger": false,
      "taf_trigger": false,
      "metar": "METAR LRCV 210930Z 11005KT 040V170 9999 SCT027 SCT044 26/19 Q1017",
      "taf": "TAF LRCV 210800Z 2109/2118 09006KT CAVOK"
    },
    {
      "icao": "LRIA",
      "alert": "OK",
      "vis_m": 9999,
      "fzfg": false,
      "metar_trigger": false,
      "taf_trigger": false,
      "metar": "METAR LRIA 210930Z VRB02KT CAVOK 27/13 Q1016",
      "taf": "TAF LRIA 210800Z 2109/2118 VRB04KT CAVOK"
    },
    {
      "icao": "LROP",
      "alert": "OK",
      "vis_m": 9999,
      "fzfg": false,
      "metar_trigger": false,
      "taf_trigger": false,
      "metar": "METAR LROP 210930Z 07005KT 020V110 CAVOK 28/17 Q1016 NOSIG",
      "taf": "TAF LROP 210500Z 2106/2206 08007KT CAVOK"
    },
    {
      "icao": "LRSB",
      "alert": "OK",
      "vis_m": 9999,
      "fzfg": false,
      "metar_trigger": false,
      "taf_trigger": false,
      "metar": "METAR LRSB 210930Z 31005KT CAVOK 26/09 Q1018",
      "taf": "TAF LRSB 210500Z 2106/2206 VRB04KT CAVOK"
    },
    {
      "icao": "LRSM",
      "alert": "OK",
      "vis_m": 9999,
      "fzfg": false,
      "metar_trigger": false,
      "taf_trigger": false,
      "metar": "METAR LRSM 210930Z AUTO 27010KT 230V310 9999 NCD 27/07 Q1017",
      "taf": "TAF LRSM 210800Z 2109/2118 28008KT CAVOK"
    },
    {
      "icao": "LRSV",
      "alert": "OK",
      "vis_m": 9999,
      "fzfg": false,
      "metar_trigger": false,
      "taf_trigger": false,
      "metar": "METAR LRSV 210930Z 30010KT 250V330 CAVOK 25/07 Q1016",
      "taf": "TAF LRSV 210800Z 2109/2118 25010KT CAVOK"
    },
    {
      "icao": "LRTM",
      "alert": "OK",
      "vis_m": 9999,
      "fzfg": false,
      "metar_trigger": false,
      "taf_trigger": false,
      "metar": "METAR LRTM 210930Z 30006KT 250V340 9999 FEW030 26/13 Q1018",
      "taf": "TAF LRTM 210800Z 2109/2118 VRB04KT CAVOK"
    },
    {
      "icao": "LRTR",
      "alert": "OK",
      "vis_m": 9999,
      "fzfg": false,
      "metar_trigger": false,
      "taf_trigger": false,
      "metar": "METAR LRTR 210930Z COR VRB02KT CAVOK 28/08 Q1017",
      "taf": "TAF LRTR 210500Z 2106/2206 VRB04KT CAVOK"
    },
    {
      "icao": "LTAC",
      "alert": "OK",
      "vis_m": 9999,
      "fzfg": false,
      "metar_trigger": false,
      "taf_trigger": false,
      "metar": "METAR LTAC 210920Z VRB09KT CAVOK 31/07 Q1015 NOSIG RMK RWY21C VRB08KT RWY03L VRB06KT RWY21R 24009KT 170V280 RWY03R VRB04KT RWY21L 24009KT 190V290",
      "taf": "TAF LTAC 210440Z 2106/2206 VRB02KT CAVOK"
    },
    {
      "icao": "LTFM",
      "alert": "OK",
      "vis_m": 9999,
      "fzfg": false,
      "metar_trigger": false,
      "taf_trigger": false,
      "metar": "METAR LTFM 210920Z 06007KT 020V100 CAVOK 28/15 Q1015 NOSIG RMK RWY17L 05007KT 360V100 RWY34L 04007KT 360V080 RWY16R VRB07KT RWY36 07007KT 010V110 RWY18 05008KT 020V080",
      "taf": "TAF LTFM 210440Z 2106/2212 06012KT CAVOK"
    },
    {
      "icao": "LUKK",
      "alert": "OK",
      "vis_m": 9999,
      "fzfg": false,
      "metar_trigger": false,
      "taf_trigger": false,
      "metar": "METAR LUKK 210930Z VRB03KT CAVOK 25/15 Q1016 NOSIG",
      "taf": "TAF LUKK 210517Z 2106/2206 VRB06KT CAVOK"
    },
    {
      "icao": "LWOH",
      "alert": "OK",
      "vis_m": 9999,
      "fzfg": false,
      "metar_trigger": false,
      "taf_trigger": false,
      "metar": "METAR LWOH 210920Z 17006KT 130V200 9999 FEW040 26/17 Q1019",
      "taf": "TAF LWOH 210830Z 2109/2209 16006KT CAVOK"
    },
    {
      "icao": "LWSK",
      "alert": "OK",
      "vis_m": 9999,
      "fzfg": false,
      "metar_trigger": false,
      "taf_trigger": false,
      "metar": "METAR LWSK 210920Z 02005KT 300V080 CAVOK 29/17 Q1017 NOSIG",
      "taf": "TAF LWSK 210830Z 2109/2209 VRB02KT CAVOK"
    },
    {
      "icao": "LYBE",
      "alert": "OK",
      "vis_m": 9999,
      "fzfg": false,
      "metar_trigger": false,
      "taf_trigger": false,
      "metar": "METAR LYBE 210930Z VRB05KT CAVOK 27/13 Q1018 NOSIG",
      "taf": "TAF LYBE 210500Z 2106/2206 32006KT CAVOK TX30/2113Z TN16/2203Z"
    },
    {
      "icao": "LYNI",
      "alert": "OK",
      "vis_m": 9999,
      "fzfg": false,
      "metar_trigger": false,
      "taf_trigger": false,
      "metar": "METAR LYNI 210930Z VRB02KT 9999 FEW040 24/18 Q1018 NOSIG",
      "taf": "TAF LYNI 210500Z 2106/2206 32007KT 9999 SCT040 TX31/2113Z TN16/2204Z"
    },
    {
      "icao": "LYPG",
      "alert": "OK",
      "vis_m": 9999,
      "fzfg": false,
      "metar_trigger": false,
      "taf_trigger": false,
      "metar": "METAR LYPG 210930Z VRB03KT CAVOK 33/17 Q1014 NOSIG",
      "taf": "TAF LYPG 210500Z 2106/2206 17008KT CAVOK TX37/2113Z TN22/2203Z"
    },
    {
      "icao": "LZIB",
      "alert": "OK",
      "vis_m": 9999,
      "fzfg": false,
      "metar_trigger": false,
      "taf_trigger": false,
      "metar": "METAR LZIB 210930Z 27009KT CAVOK 23/07 Q1019 NOSIG",
      "taf": "TAF LZIB 210515Z 2106/2206 34005KT CAVOK"
    },
    {
      "icao": "LZKZ",
      "alert": "OK",
      "vis_m": 9999,
      "fzfg": false,
      "metar_trigger": false,
      "taf_trigger": false,
      "metar": "METAR LZKZ 210930Z VRB04KT CAVOK 23/08 Q1017 NOSIG",
      "taf": "TAF LZKZ 210515Z 2106/2206 34004KT CAVOK"
    },
    {
      "icao": "LZTT",
      "alert": "OK",
      "vis_m": 9999,
      "fzfg": false,
      "metar_trigger": false,
      "taf_trigger": false,
      "metar": "METAR LZTT 210930Z 28016KT 9999 SCT036 19/08 Q1019 NOSIG",
      "taf": "TAF LZTT 210515Z 2106/2206 27007KT 9999 FEW060"
    },
    {
      "icao": "OEJN",
      "alert": "OK",
      "vis_m": 8000,
      "fzfg": false,
      "metar_trigger": false,
      "taf_trigger": false,
      "metar": "METAR OEJN 210900Z 32013KT 8000 NSC 44/15 Q1000 NOSIG",
      "taf": "TAF OEJN 210500Z 2106/2212 34014KT CAVOK"
    },
    {
      "icao": "OEMA",
      "alert": "OK",
      "vis_m": 9999,
      "fzfg": false,
      "metar_trigger": false,
      "taf_trigger": false,
      "metar": "METAR OEMA 210900Z 02007KT CAVOK 44/00 Q1008 NOSIG",
      "taf": "TAF OEMA 210500Z 2106/2212 28006KT CAVOK"
    },
    {
      "icao": "OJAI",
      "alert": "OK",
      "vis_m": 5000,
      "fzfg": false,
      "metar_trigger": false,
      "taf_trigger": false,
      "metar": "METAR OJAI 210900Z 29014KT 5000 HZ NSC 33/08 Q1013 NOSIG",
      "taf": "TAF OJAI 210447Z 2106/2212 29010KT 5000 HZ NSC"
    },
    {
      "icao": "OMAA",
      "alert": "OK",
      "vis_m": 9999,
      "fzfg": false,
      "metar_trigger": false,
      "taf_trigger": false,
      "metar": "METAR OMAA 210930Z 29008KT CAVOK 43/18 Q0996 NOSIG",
      "taf": "TAF OMAA 210500Z 2106/2212 22007KT 8000 NSC"
    },
    {
      "icao": "OMDB",
      "alert": "OK",
      "vis_m": 9000,
      "fzfg": false,
      "metar_trigger": false,
      "taf_trigger": false,
      "metar": "METAR OMDB 210930Z 27013KT 240V300 9000 NSC 40/25 Q0996 NOSIG",
      "taf": "TAF OMDB 210500Z 2106/2212 22008KT 8000 NSC"
    },
    {
      "icao": "UAAA",
      "alert": "OK",
      "vis_m": 9999,
      "fzfg": false,
      "metar_trigger": false,
      "taf_trigger": false,
      "metar": "METAR UAAA 210930Z 11004MPS 9999 BKN050CB OVC100 31/14 Q1001 NOSIG",
      "taf": ""
    },
    {
      "icao": "UBBB",
      "alert": "OK",
      "vis_m": 9999,
      "fzfg": false,
      "metar_trigger": false,
      "taf_trigger": false,
      "metar": "METAR UBBB 210930Z 13006KT CAVOK 32/17 Q1012 NOSIG",
      "taf": "TAF UBBB 210507Z 2106/2206 14008KT CAVOK TX32/2110Z TN21/2201Z"
    },
    {
      "icao": "UDSG",
      "alert": "OK",
      "vis_m": 9999,
      "fzfg": false,
      "metar_trigger": false,
      "taf_trigger": false,
      "metar": "METAR UDSG 210930Z VRB04KT 9999 FEW049 26/12 Q1018 NOSIG",
      "taf": "TAF UDSG 210500Z 2106/2206 VRB06KT 9999 FEW050"
    },
    {
      "icao": "UDYZ",
      "alert": "OK",
      "vis_m": 9999,
      "fzfg": false,
      "metar_trigger": false,
      "taf_trigger": false,
      "metar": "METAR UDYZ 210930Z 16006KT 110V210 9999 FEW046 32/13 Q1012 NOSIG",
      "taf": "TAF UDYZ 210500Z 2106/2206 19006KT 9999 FEW040"
    },
    {
      "icao": "UGKO",
      "alert": "OK",
      "vis_m": 9999,
      "fzfg": false,
      "metar_trigger": false,
      "taf_trigger": false,
      "metar": "METAR UGKO 210930Z 25008KT 210V300 9999 SCT030 28/21 Q1011 NOSIG",
      "taf": "TAF UGKO 210500Z 2106/2206 25006KT 9999 SCT033 BKN050 TX28/2111Z TN21/2202Z"
    }
  ]
}