{
  "ts_utc": "2026-01-15T15:56:11Z",
  "threshold_m": 150,
  "source": "stations_override.txt (ICAO list) + aviationweather.gov (METAR/TAF raw)",
  "station_count": 159,
  "stations": [
    {
      "icao": "BIKF",
      "alert": "OK",
      "vis_m": 9999,
      "fzfg": false,
      "metar_trigger": false,
      "taf_trigger": false,
      "metar": "METAR BIKF 151530Z 02015KT CAVOK 01/M04 Q0988",
      "taf": "TAF BIKF 151330Z 1515/1615 02018KT 9999 FEW025 SCT045 TX02/1606Z TN00/1515Z"
    },
    {
      "icao": "BKPR",
      "alert": "OK",
      "vis_m": 9999,
      "fzfg": false,
      "metar_trigger": false,
      "taf_trigger": false,
      "metar": "METAR BKPR 151530Z 16003KT 9999 SCT050 10/04 Q1023 NOSIG",
      "taf": "TAF BKPR 151130Z 1512/1612 30006KT 9999 BKN060"
    },
    {
      "icao": "EBCI",
      "alert": "OK",
      "vis_m": 9999,
      "fzfg": false,
      "metar_trigger": false,
      "taf_trigger": false,
      "metar": "METAR EBCI 151520Z 17009KT 140V200 9999 FEW022 10/06 Q1007 NOSIG",
      "taf": "TAF EBCI 151110Z 1512/1618 19012KT 9999 SCT020"
    },
    {
      "icao": "EDDB",
      "alert": "OK",
      "vis_m": 3500,
      "fzfg": false,
      "metar_trigger": false,
      "taf_trigger": false,
      "metar": "METAR EDDB 151550Z AUTO 14007KT 3500 0550 R24R/P2000N R24L/P2000N BCFG FEW001 BKN019 05/05 Q1015 NOSIG",
      "taf": ""
    },
    {
      "icao": "EDDH",
      "alert": "OK",
      "vis_m": 9999,
      "fzfg": false,
      "metar_trigger": false,
      "taf_trigger": false,
      "metar": "METAR EDDH 151550Z AUTO 15009KT 9999 BKN024 BKN034 BKN045 07/06 Q1010 NOSIG",
      "taf": "TAF EDDH 151100Z 1512/1618 15008KT 9999 SCT020"
    },
    {
      "icao": "EDDK",
      "alert": "OK",
      "vis_m": 9999,
      "fzfg": false,
      "metar_trigger": false,
      "taf_trigger": false,
      "metar": "METAR EDDK 151550Z AUTO 17008KT 9999 FEW039 10/06 Q1011 NOSIG",
      "taf": "TAF EDDK 151100Z 1512/1618 15009KT 9999 BKN030"
    },
    {
      "icao": "EDDN",
      "alert": "OK",
      "vis_m": 9999,
      "fzfg": false,
      "metar_trigger": false,
      "taf_trigger": false,
      "metar": "METAR EDDN 151550Z AUTO 10009KT CAVOK 07/05 Q1015 NOSIG",
      "taf": "TAF EDDN 151100Z 1512/1612 12007KT 9999 FEW030 BKN040"
    },
    {
      "icao": "EDDS",
      "alert": "OK",
      "vis_m": 9999,
      "fzfg": false,
      "metar_trigger": false,
      "taf_trigger": false,
      "metar": "METAR EDDS 151550Z AUTO 15003KT CAVOK 10/05 Q1012 NOSIG",
      "taf": "TAF EDDS 151100Z 1512/1612 VRB03KT CAVOK"
    },
    {
      "icao": "EDFH",
      "alert": "OK",
      "vis_m": 9999,
      "fzfg": false,
      "metar_trigger": false,
      "taf_trigger": false,
      "metar": "METAR EDFH 151520Z 19010KT 9999 FEW026 SCT030 08/04 Q1011",
      "taf": "TAF EDFH 151100Z 1512/1612 19012KT 9999 BKN030"
    },
    {
      "icao": "EDJA",
      "alert": "OK",
      "vis_m": 9999,
      "fzfg": false,
      "metar_trigger": false,
      "taf_trigger": false,
      "metar": "METAR EDJA 151520Z 02001KT CAVOK 08/03 Q1014",
      "taf": "TAF EDJA 151400Z 1515/1524 22005KT CAVOK"
    },
    {
      "icao": "EDLW",
      "alert": "OK",
      "vis_m": 9999,
      "fzfg": false,
      "metar_trigger": false,
      "taf_trigger": false,
      "metar": "METAR EDLW 151520Z 18012KT 9999 FEW024 SCT039 OVC044 10/07 Q1010",
      "taf": "TAF EDLW 151100Z 1512/1612 18013KT 9999 SCT035"
    },
    {
      "icao": "EDNY",
      "alert": "OK",
      "vis_m": 9999,
      "fzfg": false,
      "metar_trigger": false,
      "taf_trigger": false,
      "metar": "METAR EDNY 151520Z 05004KT CAVOK 10/04 Q1014",
      "taf": "TAF EDNY 151400Z 1515/1524 VRB02KT CAVOK"
    },
    {
      "icao": "EDSB",
      "alert": "OK",
      "vis_m": 9999,
      "fzfg": false,
      "metar_trigger": false,
      "taf_trigger": false,
      "metar": "METAR EDSB 151520Z COR 20004KT CAVOK 13/06 Q1012",
      "taf": "TAF EDSB 151100Z 1512/1612 19010KT CAVOK"
    },
    {
      "icao": "EETN",
      "alert": "OK",
      "vis_m": 8000,
      "fzfg": false,
      "metar_trigger": false,
      "taf_trigger": false,
      "metar": "METAR EETN 151550Z COR 18013KT 8000 -SN DRSN FEW008 SCT033 OVC038 M09/M10 Q1021 TEMPO 3000 SN",
      "taf": "TAF EETN 151130Z 1512/1612 17012KT 9999 BKN007 BKN035"
    },
    {
      "icao": "EFTU",
      "alert": "OK",
      "vis_m": 9999,
      "fzfg": false,
      "metar_trigger": false,
      "taf_trigger": false,
      "metar": "METAR EFTU 151550Z AUTO 17006KT 9999 BKN003 OVC023 00/M00 Q1016",
      "taf": "TAF EFTU 151437Z 1515/1615 16006KT 9000 SCT006 BKN015"
    },
    {
      "icao": "EGBB",
      "alert": "OK",
      "vis_m": 4400,
      "fzfg": false,
      "metar_trigger": false,
      "taf_trigger": false,
      "metar": "METAR EGBB 151550Z 03006KT 4400 RADZ BR SCT005 BKN018 07/06 Q0997 REDZ",
      "taf": ""
    },
    {
      "icao": "EGGP",
      "alert": "OK",
      "vis_m": 9999,
      "fzfg": false,
      "metar_trigger": false,
      "taf_trigger": false,
      "metar": "METAR EGGP 151550Z 07003KT CAVOK 04/03 Q0998",
      "taf": ""
    },
    {
      "icao": "EGGW",
      "alert": "OK",
      "vis_m": 9000,
      "fzfg": false,
      "metar_trigger": false,
      "taf_trigger": false,
      "metar": "METAR EGGW 151550Z 14009KT 9000 -RA BKN007 BKN010TCU 07/07 Q0996",
      "taf": "TAF EGGW 151102Z 1512/1612 16010KT 9999 SCT004 BKN020"
    },
    {
      "icao": "EGKK",
      "alert": "OK",
      "vis_m": 9999,
      "fzfg": false,
      "metar_trigger": false,
      "taf_trigger": false,
      "metar": "METAR EGKK 151550Z 18012G22KT 150V210 9999 -RA BKN010 BKN018 09/08 Q0997",
      "taf": "TAF EGKK 151056Z 1512/1618 17012KT 9999 BKN015"
    },
    {
      "icao": "EGNM",
      "alert": "OK",
      "vis_m": 9999,
      "fzfg": false,
      "metar_trigger": false,
      "taf_trigger": false,
      "metar": "METAR EGNM 151550Z 08002KT CAVOK 04/03 Q0998",
      "taf": "TAF EGNM 151056Z 1512/1612 17010KT 9999 FEW012"
    },
    {
      "icao": "EGPD",
      "alert": "OK",
      "vis_m": 9999,
      "fzfg": false,
      "metar_trigger": false,
      "taf_trigger": false,
      "metar": "METAR EGPD 151550Z COR 23006KT CAVOK 05/01 Q0995 NOSIG",
      "taf": "TAF EGPD 151102Z 1512/1612 20008KT 9999 FEW015"
    },
    {
      "icao": "EGPF",
      "alert": "OK",
      "vis_m": 9999,
      "fzfg": false,
      "metar_trigger": false,
      "taf_trigger": false,
      "metar": "METAR EGPF 151550Z AUTO 20008KT 9999 NCD 05/03 Q0996",
      "taf": "TAF EGPF 151054Z 1512/1612 21014KT 9999 FEW045"
    },
    {
      "icao": "EHBK",
      "alert": "OK",
      "vis_m": 9999,
      "fzfg": false,
      "metar_trigger": false,
      "taf_trigger": false,
      "metar": "METAR EHBK 151525Z AUTO 17007KT 9999 OVC049/// 10/07 Q1008 NOSIG",
      "taf": "TAF EHBK 151054Z 1512/1618 20012KT 9999 BKN020"
    },
    {
      "icao": "EHEH",
      "alert": "OK",
      "vis_m": 9999,
      "fzfg": false,
      "metar_trigger": false,
      "taf_trigger": false,
      "metar": "METAR EHEH 151525Z AUTO 16008KT 140V230 9999 FEW033 BKN043 OVC048 10/06 Q1008 BLU NOSIG",
      "taf": "TAF EHEH 151106Z 1512/1618 19010KT 9999 BKN020"
    },
    {
      "icao": "EKBI",
      "alert": "OK",
      "vis_m": 1400,
      "fzfg": false,
      "metar_trigger": false,
      "taf_trigger": false,
      "metar": "METAR EKBI 151550Z AUTO 15006KT 1400 R09/P1500N R27/1000N -DZ BR OVC002/// 04/04 Q1008 REDZRA",
      "taf": "TAF EKBI 151427Z 1515/1615 14010KT 1000 -RADZ BR OVC002"
    },
    {
      "icao": "EKCH",
      "alert": "OK",
      "vis_m": 8000,
      "fzfg": false,
      "metar_trigger": false,
      "taf_trigger": false,
      "metar": "METAR EKCH 151550Z 15012KT 8000 OVC005 04/03 Q1012 TEMPO 2000 BR OVC002",
      "taf": ""
    },
    {
      "icao": "ENAL",
      "alert": "OK",
      "vis_m": 9999,
      "fzfg": false,
      "metar_trigger": false,
      "taf_trigger": false,
      "metar": "METAR ENAL 151520Z 12013KT CAVOK 07/M03 Q0996",
      "taf": "TAF ENAL 151400Z 1515/1524 12008KT 9999 SCT060"
    },
    {
      "icao": "ENBR",
      "alert": "OK",
      "vis_m": 9999,
      "fzfg": false,
      "metar_trigger": false,
      "taf_trigger": false,
      "metar": "METAR ENBR 151520Z 14019KT 9999 -SHRA FEW007 SCT020CB BKN025 05/02 Q0998 RMK WIND 1200FT 14031KT",
      "taf": "TAF ENBR 151100Z 1512/1612 14012KT 9999 -SHRA FEW020 BKN040"
    },
    {
      "icao": "ENGM",
      "alert": "OK",
      "vis_m": 2100,
      "fzfg": true,
      "metar_trigger": false,
      "taf_trigger": false,
      "metar": "METAR ENGM 151520Z VRB03KT 2100 1200E -SN BR BKN005 M05/M06 Q1007 TEMPO 0800 FZFG VV003",
      "taf": ""
    },
    {
      "icao": "ENHD",
      "alert": "OK",
      "vis_m": 9999,
      "fzfg": false,
      "metar_trigger": false,
      "taf_trigger": false,
      "metar": "METAR ENHD 151520Z 12020KT 9999 -RA SCT015 BKN019 BKN028 05/03 Q0999",
      "taf": "TAF ENHD 151400Z 1515/1523 13018KT 9999 -RA FEW015 BKN030"
    },
    {
      "icao": "ENTC",
      "alert": "OK",
      "vis_m": 9999,
      "fzfg": false,
      "metar_trigger": false,
      "taf_trigger": false,
      "metar": "METAR ENTC 151520Z 20014KT 9999 BKN060 M01/M08 Q1007 NOSIG RMK WIND 2600FT 17011KT",
      "taf": "TAF ENTC 151100Z 1512/1612 20008KT CAVOK"
    },
    {
      "icao": "ENTO",
      "alert": "OK",
      "vis_m": 1900,
      "fzfg": false,
      "metar_trigger": false,
      "taf_trigger": false,
      "metar": "METAR ENTO 151520Z 14007KT 1900 -RASN BR VV004 00/00 Q1007 TEMPO 3000 -RASN BKN008",
      "taf": ""
    },
    {
      "icao": "ENVA",
      "alert": "OK",
      "vis_m": 9999,
      "fzfg": false,
      "metar_trigger": false,
      "taf_trigger": false,
      "metar": "METAR ENVA 151520Z 07007KT 020V080 CAVOK 00/M05 Q1002 RMK WIND 670FT 13011KT",
      "taf": "TAF ENVA 151100Z 1512/1612 09008KT CAVOK"
    },
    {
      "icao": "ENZV",
      "alert": "OK",
      "vis_m": 9999,
      "fzfg": false,
      "metar_trigger": false,
      "taf_trigger": false,
      "metar": "METAR ENZV 151520Z 14014KT 9999 VCSH SCT023CB BKN038 05/02 Q1000 TEMPO 15020G35KT",
      "taf": "TAF ENZV 151100Z 1512/1612 13015KT 9999 -SHRA FEW015 BKN030"
    },
    {
      "icao": "EPGD",
      "alert": "OK",
      "vis_m": 9999,
      "fzfg": false,
      "metar_trigger": false,
      "taf_trigger": false,
      "metar": "METAR EPGD 151530Z 15006KT CAVOK 01/M01 Q1019",
      "taf": "TAF EPGD 151130Z 1512/1612 16010KT 8000 NSC"
    },
    {
      "icao": "EPKK",
      "alert": "OK",
      "vis_m": 7000,
      "fzfg": false,
      "metar_trigger": false,
      "taf_trigger": false,
      "metar": "METAR EPKK 151530Z 05004KT 7000 SCT025 OVC047 02/M00 Q1020",
      "taf": "TAF EPKK 151430Z 1515/1615 07005KT 9000 SCT042"
    },
    {
      "icao": "EPKT",
      "alert": "OK",
      "vis_m": 5000,
      "fzfg": false,
      "metar_trigger": false,
      "taf_trigger": false,
      "metar": "METAR EPKT 151530Z 13005KT 5000 BR OVC013 03/01 Q1019",
      "taf": "TAF EPKT 151130Z 1512/1612 15004KT 7000 NSC"
    },
    {
      "icao": "EPLB",
      "alert": "OK",
      "vis_m": 3200,
      "fzfg": false,
      "metar_trigger": false,
      "taf_trigger": false,
      "metar": "METAR EPLB 151530Z 08005KT 3200 BR OVC006 M03/M03 Q1022",
      "taf": ""
    },
    {
      "icao": "EPMO",
      "alert": "OK",
      "vis_m": 450,
      "fzfg": true,
      "metar_trigger": false,
      "taf_trigger": false,
      "metar": "METAR EPMO 151530Z 10005KT 0450 R08/0800N FZFG NSC M01/M01 Q1021",
      "taf": ""
    },
    {
      "icao": "EPPO",
      "alert": "OK",
      "vis_m": 3300,
      "fzfg": false,
      "metar_trigger": false,
      "taf_trigger": false,
      "metar": "METAR EPPO 151530Z 13008KT 3300 BR OVC002 01/01 Q1018",
      "taf": ""
    },
    {
      "icao": "EPRA",
      "alert": "OK",
      "vis_m": 9999,
      "fzfg": false,
      "metar_trigger": false,
      "taf_trigger": false,
      "metar": "METAR EPRA 151530Z VRB02KT 9999 BKN026 01/M01 Q1021",
      "taf": "TAF EPRA 151430Z 1515/1524 11005KT 9999 BKN025"
    },
    {
      "icao": "EPRZ",
      "alert": "OK",
      "vis_m": 7000,
      "fzfg": false,
      "metar_trigger": false,
      "taf_trigger": false,
      "metar": "METAR EPRZ 151530Z 12002KT 7000 OVC013 02/00 Q1021",
      "taf": "TAF EPRZ 151130Z 1512/1612 VRB02KT 9999 OVC009"
    },
    {
      "icao": "EPSC",
      "alert": "OK",
      "vis_m": 9000,
      "fzfg": false,
      "metar_trigger": false,
      "taf_trigger": false,
      "metar": "METAR EPSC 151530Z 13008KT 9000 OVC006 02/01 Q1016",
      "taf": "TAF EPSC 151130Z 1512/1612 14010KT 8000 OVC012"
    },
    {
      "icao": "EPSY",
      "alert": "OK",
      "vis_m": 3700,
      "fzfg": false,
      "metar_trigger": false,
      "taf_trigger": false,
      "metar": "METAR EPSY 151530Z VRB01KT 3700 BR SCT006 BKN032 M05/M05 Q1021",
      "taf": "TAF EPSY 151430Z 1515/1524 14006KT 6000 BKN035"
    },
    {
      "icao": "EPWA",
      "alert": "OK",
      "vis_m": 3000,
      "fzfg": false,
      "metar_trigger": false,
      "taf_trigger": false,
      "metar": "METAR EPWA 151530Z 10005KT 070V130 3000 BR SCT002 BKN026 00/00 Q1021 NOSIG",
      "taf": "TAF EPWA 151430Z 1515/1615 13007KT 2000 BR SCT003 BKN020"
    },
    {
      "icao": "EPWR",
      "alert": "OK",
      "vis_m": 3500,
      "fzfg": false,
      "metar_trigger": false,
      "taf_trigger": false,
      "metar": "METAR EPWR 151530Z 11005KT 3500 BR BKN040 03/02 Q1018",
      "taf": "TAF EPWR 151430Z 1515/1615 12010KT 5000 BR OVC035"
    },
    {
      "icao": "ESGG",
      "alert": "OK",
      "vis_m": 5000,
      "fzfg": false,
      "metar_trigger": false,
      "taf_trigger": false,
      "metar": "METAR ESGG 151550Z 16010KT 5000 -DZ OVC003 01/01 Q1009",
      "taf": ""
    },
    {
      "icao": "ESKN",
      "alert": "OK",
      "vis_m": 9999,
      "fzfg": false,
      "metar_trigger": false,
      "taf_trigger": false,
      "metar": "METAR ESKN 151550Z 20007KT 170V230 9999 BKN004 01/01 Q1015",
      "taf": "TAF ESKN 151430Z 1515/1615 19006KT 9999 OVC012"
    },
    {
      "icao": "ESMS",
      "alert": "OK",
      "vis_m": 3500,
      "fzfg": false,
      "metar_trigger": false,
      "taf_trigger": false,
      "metar": "METAR ESMS 151550Z 13011KT 3500 BR OVC003 03/03 Q1013",
      "taf": "TAF ESMS 151427Z 1515/1615 16010KT 2000 -RADZ BR BKN002"
    },
    {
      "icao": "ESSA",
      "alert": "OK",
      "vis_m": 9999,
      "fzfg": false,
      "metar_trigger": false,
      "taf_trigger": false,
      "metar": "METAR ESSA 151550Z 19008KT 9999 BKN004 01/00 Q1014 TEMPO BKN006",
      "taf": "TAF ESSA 151430Z 1515/1615 19008KT 9999 SCT006 BKN015"
    },
    {
      "icao": "EYKA",
      "alert": "OK",
      "vis_m": 8000,
      "fzfg": false,
      "metar_trigger": false,
      "taf_trigger": false,
      "metar": "METAR EYKA 151550Z 15007KT 130V230 8000 OVC033 M09/M12 Q1024",
      "taf": "TAF EYKA 151100Z 1512/1612 VRB04KT 8000 SCT015 BKN020"
    },
    {
      "icao": "EYPA",
      "alert": "OK",
      "vis_m": 7000,
      "fzfg": false,
      "metar_trigger": false,
      "taf_trigger": false,
      "metar": "METAR EYPA 151550Z 16009KT 7000 -SN OVC006 M04/M06 Q1021",
      "taf": "TAF EYPA 151109Z 1512/1612 15009KT 5000 BR SCT005 BKN015"
    },
    {
      "icao": "EYVI",
      "alert": "OK",
      "vis_m": 9999,
      "fzfg": false,
      "metar_trigger": false,
      "taf_trigger": false,
      "metar": "METAR EYVI 151550Z 15006KT 9999 OVC007 M13/M15 Q1025 NOSIG",
      "taf": ""
    },
    {
      "icao": "GCFV",
      "alert": "OK",
      "vis_m": 9999,
      "fzfg": false,
      "metar_trigger": false,
      "taf_trigger": false,
      "metar": "METAR GCFV 151530Z 03013KT 9999 SCT035 19/11 Q1023",
      "taf": "TAF GCFV 151400Z 1515/1615 04010KT 9999 SCT030 TX22/1614Z TN14/1606Z"
    },
    {
      "icao": "GCLP",
      "alert": "OK",
      "vis_m": 9999,
      "fzfg": false,
      "metar_trigger": false,
      "taf_trigger": false,
      "metar": "METAR GCLP 151530Z 01018KT 9999 BKN040 20/10 Q1023 NOSIG",
      "taf": "TAF GCLP 151400Z 1515/1615 02016KT 9999 SCT030 TX22/1614Z TN15/1606Z"
    },
    {
      "icao": "GCTS",
      "alert": "OK",
      "vis_m": 9999,
      "fzfg": false,
      "metar_trigger": false,
      "taf_trigger": false,
      "metar": "METAR GCTS 151530Z 09020KT 9999 BKN040 20/10 Q1023 NOSIG",
      "taf": "TAF GCTS 151400Z 1515/1615 08016KT 9999 BKN030 TX22/1614Z TN13/1606Z"
    },
    {
      "icao": "GMAD",
      "alert": "OK",
      "vis_m": 9999,
      "fzfg": false,
      "metar_trigger": false,
      "taf_trigger": false,
      "metar": "METAR GMAD 151530Z 27005KT 9999 SCT030 18/13 Q1020 NOSIG",
      "taf": "TAF GMAD 151100Z 1512/1618 27010KT 8000 FEW030"
    },
    {
      "icao": "GMMN",
      "alert": "OK",
      "vis_m": 9999,
      "fzfg": false,
      "metar_trigger": false,
      "taf_trigger": false,
      "metar": "METAR GMMN 151530Z 26006KT 230V310 9999 BKN020 SCT200 16/10 Q1021 NOSIG",
      "taf": "TAF GMMN 151100Z 1512/1618 26006KT 9999 FEW020"
    },
    {
      "icao": "GMMX",
      "alert": "OK",
      "vis_m": 9999,
      "fzfg": false,
      "metar_trigger": false,
      "taf_trigger": false,
      "metar": "METAR GMMX 151530Z 25005KT 220V280 9999 FEW030 16/08 Q1021 NOSIG",
      "taf": "TAF GMMX 151100Z 1512/1618 06006KT 8000 SCT026"
    },
    {
      "icao": "HEGN",
      "alert": "OK",
      "vis_m": 9999,
      "fzfg": false,
      "metar_trigger": false,
      "taf_trigger": false,
      "metar": "METAR HEGN 151500Z 35013KT CAVOK 19/08 Q1021 NOSIG",
      "taf": "TAF HEGN 151100Z 1512/1618 35010G20KT CAVOK"
    },
    {
      "icao": "HEMA",
      "alert": "OK",
      "vis_m": 9999,
      "fzfg": false,
      "metar_trigger": false,
      "taf_trigger": false,
      "metar": "METAR HEMA 151500Z 33017KT 9999 SCT020 SCT025 19/10 Q1020 NOSIG",
      "taf": "TAF HEMA 151100Z 1512/1618 36015G25KT 6000 SCT025"
    },
    {
      "icao": "HESH",
      "alert": "OK",
      "vis_m": 9999,
      "fzfg": false,
      "metar_trigger": false,
      "taf_trigger": false,
      "metar": "METAR HESH 151500Z 36010KT CAVOK 20/08 Q1021 NOSIG",
      "taf": "TAF HESH 151100Z 1512/1618 02010G20KT CAVOK"
    },
    {
      "icao": "HESX",
      "alert": "OK",
      "vis_m": 9999,
      "fzfg": false,
      "metar_trigger": false,
      "taf_trigger": false,
      "metar": "METAR HESX 151500Z 02005KT 9999 SCT020 BKN030 17/09 Q1024 NOSIG",
      "taf": "TAF HESX 151101Z 1512/1618 35010KT 9999 FEW020 BKN070"
    },
    {
      "icao": "LATI",
      "alert": "OK",
      "vis_m": 9999,
      "fzfg": false,
      "metar_trigger": false,
      "taf_trigger": false,
      "metar": "METAR LATI 151550Z 33003KT 9999 BKN050 BKN070 13/05 Q1024 NOSIG",
      "taf": "TAF LATI 151100Z 1512/1612 VRB05KT CAVOK TX16/1512Z TN03/1605Z"
    },
    {
      "icao": "LBPD",
      "alert": "OK",
      "vis_m": 9999,
      "fzfg": false,
      "metar_trigger": false,
      "taf_trigger": false,
      "metar": "METAR LBPD 151530Z AUTO 30011KT 9999 NCD 12/03 Q1021 NOSIG",
      "taf": "TAF LBPD 151100Z 1512/1612 28010KT 9999 BKN070"
    },
    {
      "icao": "LBSF",
      "alert": "OK",
      "vis_m": 9999,
      "fzfg": false,
      "metar_trigger": false,
      "taf_trigger": false,
      "metar": "METAR LBSF 151530Z 30007KT CAVOK 09/02 Q1022 NOSIG",
      "taf": "TAF LBSF 151100Z 1512/1612 31010KT 9999 SCT060"
    },
    {
      "icao": "LBWN",
      "alert": "OK",
      "vis_m": 9999,
      "fzfg": false,
      "metar_trigger": false,
      "taf_trigger": false,
      "metar": "METAR LBWN 151530Z AUTO 36008KT 9999 FEW031/// 08/03 Q1021 NOSIG",
      "taf": "TAF LBWN 151100Z 1512/1612 28012KT 9999 SCT040"
    },
    {
      "icao": "LCLK",
      "alert": "OK",
      "vis_m": 9999,
      "fzfg": false,
      "metar_trigger": false,
      "taf_trigger": false,
      "metar": "METAR LCLK 151530Z 22004KT 9999 FEW040 SCT050 13/07 Q1024 NOSIG",
      "taf": "TAF LCLK 151130Z 1512/1612 11010KT 9999 FEW040"
    },
    {
      "icao": "LCPH",
      "alert": "OK",
      "vis_m": 9999,
      "fzfg": false,
      "metar_trigger": false,
      "taf_trigger": false,
      "metar": "METAR LCPH 151530Z 00000KT 9999 FEW022 14/07 Q1023 NOSIG",
      "taf": "TAF LCPH 151130Z 1512/1612 23010KT 9999 FEW035 SCT045"
    },
    {
      "icao": "LEAL",
      "alert": "OK",
      "vis_m": 9999,
      "fzfg": false,
      "metar_trigger": false,
      "taf_trigger": false,
      "metar": "METAR LEAL 151530Z 20007KT 160V240 CAVOK 18/09 Q1017 NOSIG",
      "taf": "TAF LEAL 151100Z 1512/1612 VRB04KT CAVOK TX17/1513Z TN07/1606Z"
    },
    {
      "icao": "LEBB",
      "alert": "OK",
      "vis_m": 9999,
      "fzfg": false,
      "metar_trigger": false,
      "taf_trigger": false,
      "metar": "METAR LEBB 151530Z 18010G20KT 140V230 9999 -RA FEW035 13/06 Q1010 NOSIG",
      "taf": "TAF LEBB 151100Z 1512/1612 20009KT 9999 FEW025 SCT060 TX16/1512Z TN05/1607Z"
    },
    {
      "icao": "LEBL",
      "alert": "OK",
      "vis_m": 9999,
      "fzfg": false,
      "metar_trigger": false,
      "taf_trigger": false,
      "metar": "METAR LEBL 151530Z 22011KT CAVOK 14/09 Q1015 NOSIG",
      "taf": "TAF LEBL 151100Z 1512/1612 21010KT 9999 FEW015 TX15/1512Z TN06/1606Z"
    },
    {
      "icao": "LECH",
      "alert": "OK",
      "vis_m": 9000,
      "fzfg": false,
      "metar_trigger": false,
      "taf_trigger": false,
      "metar": "METAR LECH 151530Z AUTO 12006KT 9000 NCD 13/08 Q1015",
      "taf": ""
    },
    {
      "icao": "LEMD",
      "alert": "OK",
      "vis_m": 9999,
      "fzfg": false,
      "metar_trigger": false,
      "taf_trigger": false,
      "metar": "METAR LEMD 151530Z 20008KT 170V240 9999 FEW024 SCT030 BKN040 09/03 Q1016 NOSIG",
      "taf": ""
    },
    {
      "icao": "LEMG",
      "alert": "OK",
      "vis_m": 9999,
      "fzfg": false,
      "metar_trigger": false,
      "taf_trigger": false,
      "metar": "METAR LEMG 151530Z 29004KT 250V310 9999 BKN060 OVC070 15/08 Q1019 NOSIG",
      "taf": "TAF LEMG 151100Z 1512/1612 29006KT 9999 SCT040 TX18/1514Z TN11/1607Z"
    },
    {
      "icao": "LEVC",
      "alert": "OK",
      "vis_m": 9999,
      "fzfg": false,
      "metar_trigger": false,
      "taf_trigger": false,
      "metar": "METAR LEVC 151530Z 24013KT 9999 FEW040 18/05 Q1016 NOSIG",
      "taf": "TAF LEVC 151100Z 1512/1612 26005KT CAVOK TX18/1512Z TN06/1606Z"
    },
    {
      "icao": "LEXJ",
      "alert": "OK",
      "vis_m": 9000,
      "fzfg": false,
      "metar_trigger": false,
      "taf_trigger": false,
      "metar": "METAR LEXJ 151530Z 20016G28KT 160V240 9000 -RA FEW050 BKN068 14/04 Q1008",
      "taf": "TAF LEXJ 151400Z 1515/1615 21009KT 9999 SCT040 BKN070 TX16/1615Z TN07/1608Z"
    },
    {
      "icao": "LEZG",
      "alert": "OK",
      "vis_m": 9999,
      "fzfg": false,
      "metar_trigger": false,
      "taf_trigger": false,
      "metar": "METAR LEZG 151530Z 12007KT CAVOK 13/05 Q1015 NOSIG",
      "taf": ""
    },
    {
      "icao": "LEZL",
      "alert": "OK",
      "vis_m": 9000,
      "fzfg": false,
      "metar_trigger": false,
      "taf_trigger": false,
      "metar": "METAR LEZL 151530Z VRB02KT 9000 NSC 13/10 Q1019 NOSIG",
      "taf": ""
    },
    {
      "icao": "LFBD",
      "alert": "OK",
      "vis_m": 9999,
      "fzfg": false,
      "metar_trigger": false,
      "taf_trigger": false,
      "metar": "METAR LFBD 151530Z AUTO 21011KT CAVOK 14/05 Q1009 NOSIG",
      "taf": ""
    },
    {
      "icao": "LFLL",
      "alert": "OK",
      "vis_m": 9999,
      "fzfg": false,
      "metar_trigger": false,
      "taf_trigger": false,
      "metar": "METAR LFLL 151530Z 18013KT CAVOK 13/05 Q1012 NOSIG",
      "taf": "TAF LFLL 151100Z 1512/1618 18015G25KT CAVOK"
    },
    {
      "icao": "LFLS",
      "alert": "OK",
      "vis_m": 9999,
      "fzfg": false,
      "metar_trigger": false,
      "taf_trigger": false,
      "metar": "METAR LFLS 151530Z AUTO 22013KT 190V250 CAVOK 11/06 Q1013 NOSIG",
      "taf": "TAF LFLS 151400Z 1515/1615 20010KT CAVOK"
    },
    {
      "icao": "LFMN",
      "alert": "OK",
      "vis_m": 9999,
      "fzfg": false,
      "metar_trigger": false,
      "taf_trigger": false,
      "metar": "METAR LFMN 151530Z 12007KT 9999 FEW020 SCT030 14/10 Q1019 NOSIG",
      "taf": "TAF LFMN 151400Z 1515/1621 11009KT 9999 SCT024"
    },
    {
      "icao": "LFOB",
      "alert": "OK",
      "vis_m": 9999,
      "fzfg": false,
      "metar_trigger": false,
      "taf_trigger": false,
      "metar": "METAR LFOB 151530Z AUTO 17010KT 9999 BKN038 OVC047 11/07 Q1004 NOSIG",
      "taf": ""
    },
    {
      "icao": "LFPO",
      "alert": "OK",
      "vis_m": 9999,
      "fzfg": false,
      "metar_trigger": false,
      "taf_trigger": false,
      "metar": "METAR LFPO 151530Z 19012KT 150V210 9999 FEW041 BKN260 13/06 Q1006 NOSIG",
      "taf": "TAF LFPO 151100Z 1512/1618 18010KT 9999 BKN012"
    },
    {
      "icao": "LFSB",
      "alert": "OK",
      "vis_m": 9999,
      "fzfg": false,
      "metar_trigger": false,
      "taf_trigger": false,
      "metar": "METAR LFSB 151530Z AUTO 11008KT CAVOK 11/05 Q1012 NOSIG",
      "taf": "TAF LFSB 151100Z 1512/1612 15008KT CAVOK"
    },
    {
      "icao": "LGAV",
      "alert": "OK",
      "vis_m": 9999,
      "fzfg": false,
      "metar_trigger": false,
      "taf_trigger": false,
      "metar": "METAR LGAV 151550Z 02002KT 9999 FEW030 11/05 Q1024 NOSIG",
      "taf": "TAF LGAV 151100Z 1512/1612 VRB05KT 9999 FEW016 SCT025"
    },
    {
      "icao": "LGTS",
      "alert": "OK",
      "vis_m": 9999,
      "fzfg": false,
      "metar_trigger": false,
      "taf_trigger": false,
      "metar": "METAR LGTS 151520Z VRB02KT CAVOK 12/06 Q1023 NOSIG",
      "taf": "TAF LGTS 151100Z 1512/1612 VRB03KT 9999 FEW030"
    },
    {
      "icao": "LHBP",
      "alert": "OK",
      "vis_m": 4500,
      "fzfg": false,
      "metar_trigger": false,
      "taf_trigger": false,
      "metar": "METAR LHBP 151530Z 09007KT 4500 BR FEW007 BKN100 M02/M03 Q1022 TEMPO 2000 BKN007",
      "taf": "TAF LHBP 151115Z 1512/1612 09005KT 2500 BR OVC005"
    },
    {
      "icao": "LHDC",
      "alert": "OK",
      "vis_m": 3100,
      "fzfg": false,
      "metar_trigger": false,
      "taf_trigger": false,
      "metar": "METAR LHDC 151515Z AUTO 07005KT 3100 BR FEW008 SCT017 BKN048 01/M00 Q1023 NOSIG",
      "taf": "TAF LHDC 151415Z 1515/1524 VRB03KT 5000 BR SCT004 OVC040"
    },
    {
      "icao": "LIBD",
      "alert": "OK",
      "vis_m": 9999,
      "fzfg": false,
      "metar_trigger": false,
      "taf_trigger": false,
      "metar": "METAR LIBD 151550Z 04001KT CAVOK 11/08 Q1022",
      "taf": "TAF LIBD 151100Z 1512/1612 VRB06KT 9999 FEW030"
    },
    {
      "icao": "LIBG",
      "alert": "OK",
      "vis_m": 9999,
      "fzfg": false,
      "metar_trigger": false,
      "taf_trigger": false,
      "metar": "METAR LIBG 151450Z 18003KT 9999 FEW020 14/12 Q1022",
      "taf": "TAF LIBG 151400Z 1515/1524 VRB05KT 8000 FEW025"
    },
    {
      "icao": "LIBP",
      "alert": "OK",
      "vis_m": 9999,
      "fzfg": false,
      "metar_trigger": false,
      "taf_trigger": false,
      "metar": "METAR LIBP 151520Z AUTO 05003KT 010V090 9999 NCD 13/06 Q1021",
      "taf": "TAF LIBP 151100Z 1512/1612 VRB05KT CAVOK"
    },
    {
      "icao": "LIBR",
      "alert": "OK",
      "vis_m": 9999,
      "fzfg": false,
      "metar_trigger": false,
      "taf_trigger": false,
      "metar": "METAR LIBR 151550Z 22005KT 9999 FEW025 13/09 Q1022",
      "taf": "TAF LIBR 151100Z 1512/1612 VRB06KT 9999 FEW025"
    },
    {
      "icao": "LICA",
      "alert": "OK",
      "vis_m": 9999,
      "fzfg": false,
      "metar_trigger": false,
      "taf_trigger": false,
      "metar": "METAR LICA 151520Z AUTO 26006KT 9999 NCD 14/09 Q1022",
      "taf": "TAF LICA 151100Z 1512/1612 08010KT CAVOK"
    },
    {
      "icao": "LICC",
      "alert": "OK",
      "vis_m": 9999,
      "fzfg": false,
      "metar_trigger": false,
      "taf_trigger": false,
      "metar": "METAR LICC 151550Z VRB02KT 9999 SCT050 16/12 Q1022",
      "taf": "TAF LICC 151100Z 1512/1612 VRB05KT 9999 SCT040"
    },
    {
      "icao": "LICJ",
      "alert": "OK",
      "vis_m": 9999,
      "fzfg": false,
      "metar_trigger": false,
      "taf_trigger": false,
      "metar": "METAR LICJ 151550Z 07011KT CAVOK 15/11 Q1020",
      "taf": "TAF LICJ 151100Z 1512/1612 05010KT CAVOK"
    },
    {
      "icao": "LIMC",
      "alert": "OK",
      "vis_m": 2000,
      "fzfg": false,
      "metar_trigger": false,
      "taf_trigger": false,
      "metar": "METAR LIMC 151550Z 24003KT 220V280 2000 -DZ BR OVC003 07/06 Q1021 NOSIG",
      "taf": "TAF LIMC 151100Z 1512/1618 VRB05KT 0800 -RA FG BKN003"
    },
    {
      "icao": "LIME",
      "alert": "OK",
      "vis_m": 2500,
      "fzfg": false,
      "metar_trigger": false,
      "taf_trigger": false,
      "metar": "METAR LIME 151550Z VRB02KT 2500 BR BKN010 06/05 Q1021 NOSIG",
      "taf": "TAF LIME 151100Z 1512/1612 VRB04KT 3000 BR SCT010 BKN040"
    },
    {
      "icao": "LIMF",
      "alert": "OK",
      "vis_m": 6000,
      "fzfg": false,
      "metar_trigger": false,
      "taf_trigger": false,
      "metar": "METAR LIMF 151550Z 08003KT 6000 SCT040 OVC055 06/01 Q1021",
      "taf": "TAF LIMF 151100Z 1512/1612 VRB03KT 8000 SCT050"
    },
    {
      "icao": "LIMJ",
      "alert": "OK",
      "vis_m": 9999,
      "fzfg": false,
      "metar_trigger": false,
      "taf_trigger": false,
      "metar": "METAR LIMJ 151550Z 09010KT 9999 SCT020 12/07 Q1019",
      "taf": "TAF LIMJ 151100Z 1512/1612 04008KT 9999 SCT020 SCT050"
    },
    {
      "icao": "LIPE",
      "alert": "OK",
      "vis_m": 3000,
      "fzfg": false,
      "metar_trigger": false,
      "taf_trigger": false,
      "metar": "METAR LIPE 151550Z 04001KT 3000 BR FEW015 BKN050 07/06 Q1021",
      "taf": "TAF LIPE 151100Z 1512/1612 VRB04KT 3000 BR BKN040"
    },
    {
      "icao": "LIPH",
      "alert": "OK",
      "vis_m": 9999,
      "fzfg": false,
      "metar_trigger": false,
      "taf_trigger": false,
      "metar": "METAR LIPH 151550Z 00000KT 9999 FEW050 08/05 Q1021",
      "taf": "TAF LIPH 151100Z 1512/1612 VRB04KT 6000 SCT040"
    },
    {
      "icao": "LIPQ",
      "alert": "OK",
      "vis_m": 6000,
      "fzfg": false,
      "metar_trigger": false,
      "taf_trigger": false,
      "metar": "METAR LIPQ 151550Z AUTO 29002KT 6000 FEW021/// OVC040/// 09/07 Q1022",
      "taf": "TAF LIPQ 151100Z 1512/1612 VRB04KT 7000 BKN035"
    },
    {
      "icao": "LIPR",
      "alert": "OK",
      "vis_m": 4000,
      "fzfg": false,
      "metar_trigger": false,
      "taf_trigger": false,
      "metar": "METAR LIPR 151550Z 01003KT 4000 BR BKN008 08/06 Q1021",
      "taf": "TAF LIPR 151100Z 1512/1612 VRB04KT 3000 BR SCT020"
    },
    {
      "icao": "LIPX",
      "alert": "OK",
      "vis_m": 5000,
      "fzfg": false,
      "metar_trigger": false,
      "taf_trigger": false,
      "metar": "METAR LIPX 151550Z 18003KT 5000 BR SCT040 BKN080 08/05 Q1021",
      "taf": "TAF LIPX 151100Z 1512/1612 VRB04KT 6000 BKN050"
    },
    {
      "icao": "LIPY",
      "alert": "OK",
      "vis_m": 3400,
      "fzfg": false,
      "metar_trigger": false,
      "taf_trigger": false,
      "metar": "METAR LIPY 151520Z AUTO 34006KT 3400 BR OVC081/// 09/08 Q1021",
      "taf": "TAF LIPY 151100Z 1512/1612 VRB05KT 7000 SCT060"
    },
    {
      "icao": "LIPZ",
      "alert": "OK",
      "vis_m": 7000,
      "fzfg": false,
      "metar_trigger": false,
      "taf_trigger": false,
      "metar": "METAR LIPZ 151550Z 22003KT 7000 SCT030 07/04 Q1022 NOSIG",
      "taf": "TAF LIPZ 151100Z 1512/1618 VRB04KT 6000 SCT040"
    },
    {
      "icao": "LIRF",
      "alert": "OK",
      "vis_m": 9999,
      "fzfg": false,
      "metar_trigger": false,
      "taf_trigger": false,
      "metar": "METAR LIRF 151550Z 13006KT 110V170 9999 FEW020 15/11 Q1021 NOSIG",
      "taf": "TAF LIRF 151100Z 1512/1618 15012KT 9999 SCT030"
    },
    {
      "icao": "LIRN",
      "alert": "OK",
      "vis_m": 9999,
      "fzfg": false,
      "metar_trigger": false,
      "taf_trigger": false,
      "metar": "METAR LIRN 151550Z 18003KT CAVOK 13/08 Q1022 NOSIG",
      "taf": "TAF LIRN 151100Z 1512/1612 VRB05KT CAVOK"
    },
    {
      "icao": "LIRP",
      "alert": "OK",
      "vis_m": 9999,
      "fzfg": false,
      "metar_trigger": false,
      "taf_trigger": false,
      "metar": "METAR LIRP 151545Z 15004KT 9999 FEW020 BKN030 13/10 Q1020 NOSIG",
      "taf": "TAF LIRP 151100Z 1512/1612 12005KT 9999 SCT020 SCT040"
    },
    {
      "icao": "LIRZ",
      "alert": "OK",
      "vis_m": 9999,
      "fzfg": false,
      "metar_trigger": false,
      "taf_trigger": false,
      "metar": "METAR LIRZ 151520Z AUTO 19003KT 150V220 9999 BKN053/// BKN072/// 14/07 Q1021",
      "taf": "TAF LIRZ 151100Z 1512/1612 VRB05KT 9999 SCT040"
    },
    {
      "icao": "LJLJ",
      "alert": "OK",
      "vis_m": 9999,
      "fzfg": false,
      "metar_trigger": false,
      "taf_trigger": false,
      "metar": "METAR LJLJ 151530Z VRB01KT 9999 FEW030 BKN050 03/02 Q1020 NOSIG",
      "taf": "TAF LJLJ 151100Z 1512/1612 30003KT 9999 FEW040 BKN060"
    },
    {
      "icao": "LKMT",
      "alert": "OK",
      "vis_m": 4500,
      "fzfg": false,
      "metar_trigger": false,
      "taf_trigger": false,
      "metar": "METAR LKMT 151530Z 22006KT 4500 BR BKN046 01/00 Q1019 NOSIG",
      "taf": "TAF LKMT 151100Z 1512/1612 22008KT 6000 BKN025"
    },
    {
      "icao": "LKPR",
      "alert": "OK",
      "vis_m": 300,
      "fzfg": false,
      "metar_trigger": false,
      "taf_trigger": false,
      "metar": "METAR LKPR 151530Z 08004KT 0300 R24/0300N R30/0375N FG FEW002 03/03 Q1017 BECMG BKN002",
      "taf": "TAF LKPR 151400Z 1515/1621 12004KT 2500 BR BKN020"
    },
    {
      "icao": "LLBG",
      "alert": "OK",
      "vis_m": 9999,
      "fzfg": false,
      "metar_trigger": false,
      "taf_trigger": false,
      "metar": "METAR LLBG 151550Z VRB03KT CAVOK 15/08 Q1024 NOSIG RMK FEW055",
      "taf": "TAF LLBG 151112Z 1512/1612 32010KT 9999 FEW040"
    },
    {
      "icao": "LMML",
      "alert": "OK",
      "vis_m": 9999,
      "fzfg": false,
      "metar_trigger": false,
      "taf_trigger": false,
      "metar": "METAR LMML 151545Z 13010KT 9999 FEW019 16/13 Q1021 NOSIG",
      "taf": "TAF LMML 151100Z 1512/1612 15012KT 9999 FEW018"
    },
    {
      "icao": "LOWW",
      "alert": "OK",
      "vis_m": 3600,
      "fzfg": false,
      "metar_trigger": false,
      "taf_trigger": false,
      "metar": "METAR LOWW 151520Z 14006KT 3600 BR FEW004 BKN005 M01/M02 Q1020 TEMPO 2000 BR BKN003",
      "taf": "TAF LOWW 151415Z 1515/1621 15005KT 3000 BR BKN005 TX01/1621Z TNM02/1520Z"
    },
    {
      "icao": "LPFR",
      "alert": "OK",
      "vis_m": 9999,
      "fzfg": false,
      "metar_trigger": false,
      "taf_trigger": false,
      "metar": "METAR LPFR 151530Z 20004KT 170V230 9999 FEW016 SCT044 15/10 Q1019",
      "taf": "TAF LPFR 151100Z 1512/1612 27005KT 9999 FEW015"
    },
    {
      "icao": "LPMA",
      "alert": "OK",
      "vis_m": 9999,
      "fzfg": false,
      "metar_trigger": false,
      "taf_trigger": false,
      "metar": "METAR LPMA 151530Z 14003KT 090V220 9999 FEW015 BKN025 17/10 Q1024",
      "taf": "TAF LPMA 151100Z 1512/1612 VRB05KT 9999 SCT015"
    },
    {
      "icao": "LPPR",
      "alert": "OK",
      "vis_m": 5000,
      "fzfg": false,
      "metar_trigger": false,
      "taf_trigger": false,
      "metar": "METAR LPPR 151530Z VRB02KT 5000 -SHRA BR SCT004 BKN012 SCT015TCU 12/11 Q1012",
      "taf": ""
    },
    {
      "icao": "LPPS",
      "alert": "OK",
      "vis_m": 9999,
      "fzfg": false,
      "metar_trigger": false,
      "taf_trigger": false,
      "metar": "METAR LPPS 151530Z 27013KT 9999 FEW015 17/13 Q1023",
      "taf": "TAF LPPS 151100Z 1512/1618 30010KT 9999 SCT015 BKN030"
    },
    {
      "icao": "LPPT",
      "alert": "OK",
      "vis_m": 1800,
      "fzfg": false,
      "metar_trigger": false,
      "taf_trigger": false,
      "metar": "METAR LPPT 151530Z 21015KT 1800 1200SW R20/1400N RADZ BR FEW003 BKN004 13/13 Q1015",
      "taf": ""
    },
    {
      "icao": "LQBK",
      "alert": "OK",
      "vis_m": 9999,
      "fzfg": false,
      "metar_trigger": false,
      "taf_trigger": false,
      "metar": "METAR LQBK 151530Z VRB03KT CAVOK 07/03 Q1021 NOSIG",
      "taf": "TAF LQBK 151100Z 1512/1612 22005KT CAVOK TX08/1513Z TN02/1605Z"
    },
    {
      "icao": "LQSA",
      "alert": "OK",
      "vis_m": 9999,
      "fzfg": false,
      "metar_trigger": false,
      "taf_trigger": false,
      "metar": "METAR LQSA 151530Z VRB02KT 9999 BKN045 03/02 Q1022 NOSIG",
      "taf": "TAF LQSA 151100Z 1512/1612 VRB02KT 8000 FEW012 SCT050 TX08/1514Z TN00/1605Z"
    },
    {
      "icao": "LQTZ",
      "alert": "OK",
      "vis_m": 4500,
      "fzfg": false,
      "metar_trigger": false,
      "taf_trigger": false,
      "metar": "METAR LQTZ 151530Z VRB01KT 4500 BR BKN065 05/04 Q1021",
      "taf": "TAF LQTZ 151100Z 1512/1612 VRB02KT 7000 BKN045 TX07/1513Z TN00/1605Z"
    },
    {
      "icao": "LRBC",
      "alert": "OK",
      "vis_m": 7000,
      "fzfg": false,
      "metar_trigger": false,
      "taf_trigger": false,
      "metar": "METAR LRBC 151530Z 03003KT 340V060 7000 OVC014 M02/M06 Q1023",
      "taf": "TAF LRBC 151400Z 1515/1524 36006KT 8000 OVC015"
    },
    {
      "icao": "LRBS",
      "alert": "OK",
      "vis_m": 5000,
      "fzfg": false,
      "metar_trigger": false,
      "taf_trigger": false,
      "metar": "METAR LRBS 151530Z 05006KT 5000 BR NSC 00/M02 Q1023 NOSIG",
      "taf": ""
    },
    {
      "icao": "LRBV",
      "alert": "OK",
      "vis_m": 5000,
      "fzfg": false,
      "metar_trigger": false,
      "taf_trigger": false,
      "metar": "METAR LRBV 151530Z 32003KT 290V360 5000 -DZRA BR FEW003 BKN020 OVC030 01/01 Q1021",
      "taf": ""
    },
    {
      "icao": "LRCL",
      "alert": "OK",
      "vis_m": 2000,
      "fzfg": false,
      "metar_trigger": false,
      "taf_trigger": false,
      "metar": "METAR LRCL 151530Z 05002KT 2000 BR OVC015 01/M01 Q1023",
      "taf": "TAF LRCL 151400Z 1515/1524 VRB04KT 3000 BR OVC015"
    },
    {
      "icao": "LRCV",
      "alert": "OK",
      "vis_m": 9999,
      "fzfg": false,
      "metar_trigger": false,
      "taf_trigger": false,
      "metar": "METAR LRCV 151530Z 27009KT CAVOK 07/04 Q1020",
      "taf": "TAF LRCV 151400Z 1515/1524 29012KT CAVOK"
    },
    {
      "icao": "LRIA",
      "alert": "OK",
      "vis_m": 9999,
      "fzfg": false,
      "metar_trigger": false,
      "taf_trigger": false,
      "metar": "METAR LRIA 151530Z 36006KT 9999 SCT008 BKN013 M05/M07 Q1024",
      "taf": "TAF LRIA 151400Z 1515/1524 VRB04KT 7000 BKN010"
    },
    {
      "icao": "LROP",
      "alert": "OK",
      "vis_m": 5000,
      "fzfg": false,
      "metar_trigger": false,
      "taf_trigger": false,
      "metar": "METAR LROP 151530Z 07005KT 5000 BR NSC M00/M02 Q1023 NOSIG",
      "taf": ""
    },
    {
      "icao": "LRSB",
      "alert": "OK",
      "vis_m": 1600,
      "fzfg": false,
      "metar_trigger": false,
      "taf_trigger": false,
      "metar": "METAR LRSB 151530Z VRB01KT 1600 -RADZ BR SCT007 OVC010 01/01 Q1022",
      "taf": "TAF LRSB 151100Z 1512/1612 VRB04KT 5000 BR BKN010 OVC020"
    },
    {
      "icao": "LRSM",
      "alert": "OK",
      "vis_m": 3500,
      "fzfg": false,
      "metar_trigger": false,
      "taf_trigger": false,
      "metar": "METAR LRSM 151530Z 07004KT 3500 BR BKN004 00/M01 Q1023",
      "taf": "TAF LRSM 151400Z 1515/1524 VRB04KT 5000 BR BKN005"
    },
    {
      "icao": "LRSV",
      "alert": "OK",
      "vis_m": 2000,
      "fzfg": false,
      "metar_trigger": false,
      "taf_trigger": false,
      "metar": "METAR LRSV 151530Z 00000KT 2000 BR OVC003 M06/M07 Q1021",
      "taf": "TAF LRSV 151400Z 1515/1524 VRB04KT 1500 BR OVC005"
    },
    {
      "icao": "LRTM",
      "alert": "OK",
      "vis_m": 2400,
      "fzfg": false,
      "metar_trigger": false,
      "taf_trigger": false,
      "metar": "METAR LRTM 151530Z 00000KT 2400 BR FEW005 BKN015 OVC030 00/M00 Q1023",
      "taf": "TAF LRTM 151400Z 1515/1524 VRB04KT 3000 BR SCT010 BKN030"
    },
    {
      "icao": "LRTR",
      "alert": "OK",
      "vis_m": 5000,
      "fzfg": false,
      "metar_trigger": false,
      "taf_trigger": false,
      "metar": "METAR LRTR 151530Z 09004KT 5000 BR NSC 02/01 Q1022",
      "taf": "TAF LRTR 151100Z 1512/1612 VRB04KT 5000 BR BKN020"
    },
    {
      "icao": "LTAC",
      "alert": "OK",
      "vis_m": 9999,
      "fzfg": false,
      "metar_trigger": false,
      "taf_trigger": false,
      "metar": "METAR LTAC 151520Z 25009KT 9999 SCT035 BKN090 02/M01 Q1021 NOSIG RMK RWY21C 24012KT RWY03L 24008KT RWY21R 23012KT RWY03R 24008KT 200V260 RWY21L 24012KT",
      "taf": "TAF LTAC 151040Z 1512/1612 22008KT 9999 SCT010 SCT040 BKN100"
    },
    {
      "icao": "LTFM",
      "alert": "OK",
      "vis_m": 9999,
      "fzfg": false,
      "metar_trigger": false,
      "taf_trigger": false,
      "metar": "METAR LTFM 151520Z 22014KT 9999 FEW025 BKN070 10/07 Q1022 NOSIG RMK RWY17L 21014KT RWY34L 21013KT RWY16R 21011KT RWY36 21010KT RWY18 22014KT",
      "taf": "TAF LTFM 151040Z 1512/1618 23017G27KT 9999 FEW025 BKN070"
    },
    {
      "icao": "LUKK",
      "alert": "OK",
      "vis_m": 9999,
      "fzfg": false,
      "metar_trigger": false,
      "taf_trigger": false,
      "metar": "METAR LUKK 151530Z 03010KT 9999 OVC043 M07/M10 Q1024 NOSIG",
      "taf": "TAF LUKK 151105Z 1512/1612 03008KT 9999 BKN012"
    },
    {
      "icao": "LWOH",
      "alert": "OK",
      "vis_m": 9999,
      "fzfg": false,
      "metar_trigger": false,
      "taf_trigger": false,
      "metar": "METAR LWOH 151550Z VRB02KT 9999 FEW040 06/03 Q1024",
      "taf": "TAF LWOH 151420Z 1515/1615 VRB02KT 9999 FEW040"
    },
    {
      "icao": "LWSK",
      "alert": "OK",
      "vis_m": 9999,
      "fzfg": false,
      "metar_trigger": false,
      "taf_trigger": false,
      "metar": "METAR LWSK 151550Z VRB01KT CAVOK 06/01 Q1024 NOSIG",
      "taf": "TAF LWSK 151420Z 1515/1615 VRB02KT CAVOK"
    },
    {
      "icao": "LYBE",
      "alert": "OK",
      "vis_m": 4000,
      "fzfg": false,
      "metar_trigger": false,
      "taf_trigger": false,
      "metar": "METAR LYBE 151530Z 06004KT 4000 BR NSC 06/02 Q1022 NOSIG",
      "taf": "TAF LYBE 151100Z 1512/1612 18005KT 9999 SCT045 TX08/1513Z TN02/1606Z"
    },
    {
      "icao": "LYNI",
      "alert": "OK",
      "vis_m": 9999,
      "fzfg": false,
      "metar_trigger": false,
      "taf_trigger": false,
      "metar": "METAR LYNI 151530Z 00000KT 9999 FEW050 SCT085 09/05 Q1023 BECMG FM1600 3000 BR",
      "taf": "TAF LYNI 151100Z 1512/1612 11004KT 9999 SCT060 TX10/1513Z TN00/1606Z"
    },
    {
      "icao": "LYPG",
      "alert": "OK",
      "vis_m": 9999,
      "fzfg": false,
      "metar_trigger": false,
      "taf_trigger": false,
      "metar": "METAR LYPG 151530Z 22003KT 9999 FEW070 11/06 Q1024 NOSIG",
      "taf": "TAF LYPG 151100Z 1512/1612 17005KT 9999 FEW040 BKN080 TX13/1513Z TN05/1605Z"
    },
    {
      "icao": "LZIB",
      "alert": "OK",
      "vis_m": 2400,
      "fzfg": false,
      "metar_trigger": false,
      "taf_trigger": false,
      "metar": "METAR LZIB 151530Z 05004KT 2400 BR SCT008 BKN010 M00/M01 Q1021 NOSIG",
      "taf": ""
    },
    {
      "icao": "LZKZ",
      "alert": "OK",
      "vis_m": 6000,
      "fzfg": false,
      "metar_trigger": false,
      "taf_trigger": false,
      "metar": "METAR LZKZ 151530Z 11003KT 6000 FEW018 BKN031 M01/M02 Q1022 NOSIG",
      "taf": "TAF LZKZ 151115Z 1512/1612 VRB02KT 9999 SCT010 BKN025"
    },
    {
      "icao": "LZTT",
      "alert": "OK",
      "vis_m": 9999,
      "fzfg": false,
      "metar_trigger": false,
      "taf_trigger": false,
      "metar": "METAR LZTT 151530Z 07002KT 9999 FEW010 OVC026 01/M01 Q1019 NOSIG",
      "taf": "TAF LZTT 151115Z 1512/1612 VRB02KT 9999 FEW009 SCT014 BKN025"
    },
    {
      "icao": "OEJN",
      "alert": "OK",
      "vis_m": 9999,
      "fzfg": false,
      "metar_trigger": false,
      "taf_trigger": false,
      "metar": "METAR OEJN 151500Z 33012KT 9999 FEW040 26/08 Q1014 NOSIG",
      "taf": "TAF OEJN 151100Z 1512/1618 33014KT 9999 FEW040"
    },
    {
      "icao": "OEMA",
      "alert": "OK",
      "vis_m": 9999,
      "fzfg": false,
      "metar_trigger": false,
      "taf_trigger": false,
      "metar": "METAR OEMA 151500Z 06006KT CAVOK 22/M05 Q1020 NOSIG",
      "taf": "TAF OEMA 151100Z 1512/1618 08012KT 7000 NSC"
    },
    {
      "icao": "OJAI",
      "alert": "OK",
      "vis_m": 5000,
      "fzfg": false,
      "metar_trigger": false,
      "taf_trigger": false,
      "metar": "METAR OJAI 151500Z 27008KT 5000 HZ FEW030 09/04 Q1024 NOSIG",
      "taf": "TAF OJAI 151100Z 1512/1618 29008KT 5000 HZ FEW030"
    },
    {
      "icao": "OMAA",
      "alert": "OK",
      "vis_m": 9999,
      "fzfg": false,
      "metar_trigger": false,
      "taf_trigger": false,
      "metar": "METAR OMAA 151500Z 30004KT CAVOK 22/16 Q1017 NOSIG",
      "taf": "TAF OMAA 151100Z 1512/1618 32015KT 8000 FEW045"
    },
    {
      "icao": "OMDB",
      "alert": "OK",
      "vis_m": 9999,
      "fzfg": false,
      "metar_trigger": false,
      "taf_trigger": false,
      "metar": "METAR OMDB 151530Z 23006KT CAVOK 23/15 Q1016 NOSIG",
      "taf": ""
    },
    {
      "icao": "UAAA",
      "alert": "OK",
      "vis_m": 5000,
      "fzfg": false,
      "metar_trigger": false,
      "taf_trigger": false,
      "metar": "METAR UAAA 151530Z 31002MPS 5000 BR OVC006 M07/M08 Q1021 NOSIG RMK QBB180",
      "taf": "TAF UAAA 151110Z 1512/1612 34003G08MPS 1600 BR FU BKN011CB OVC020 TXM07/1608Z TNM10/1603Z"
    },
    {
      "icao": "UBBB",
      "alert": "OK",
      "vis_m": 9999,
      "fzfg": false,
      "metar_trigger": false,
      "taf_trigger": false,
      "metar": "METAR UBBB 151530Z 23004KT CAVOK 01/M02 Q1024 NOSIG",
      "taf": "TAF UBBB 151051Z 1512/1612 01010KT 9999 SCT030 TX05/1512Z TN01/1601Z"
    },
    {
      "icao": "UDSG",
      "alert": "OK",
      "vis_m": 9999,
      "fzfg": false,
      "metar_trigger": false,
      "taf_trigger": false,
      "metar": "METAR UDSG 151530Z 07005KT 9999 NSC M17/M20 Q1019 NOSIG",
      "taf": "TAF UDSG 151058Z 1512/1612 VRB06KT 9999 FEW040"
    },
    {
      "icao": "UDYZ",
      "alert": "OK",
      "vis_m": 9999,
      "fzfg": false,
      "metar_trigger": false,
      "taf_trigger": false,
      "metar": "METAR UDYZ 151530Z VRB01KT 9999 FEW046 M02/M09 Q1021 NOSIG",
      "taf": "TAF UDYZ 151100Z 1512/1612 VRB06KT 6000 FEW040"
    },
    {
      "icao": "UGKO",
      "alert": "OK",
      "vis_m": 9999,
      "fzfg": false,
      "metar_trigger": false,
      "taf_trigger": false,
      "metar": "METAR UGKO 151530Z 08005KT CAVOK 01/M01 Q1023 NOSIG",
      "taf": "TAF UGKO 151100Z 1512/1612 VRB02KT 9999 SCT020 BKN050 TX05/1512Z TNM01/1601Z"
    }
  ]
}