{
  "ts_utc": "2026-01-22T09:50:10Z",
  "threshold_m": 150,
  "source": "stations_override.txt (ICAO list) + aviationweather.gov (METAR/TAF raw)",
  "station_count": 159,
  "stations": [
    {
      "icao": "BIKF",
      "alert": "OK",
      "vis_m": 9999,
      "fzfg": false,
      "metar_trigger": false,
      "taf_trigger": false,
      "metar": "METAR BIKF 220930Z 06018KT 9999 BKN037 05/03 Q0986",
      "taf": "TAF BIKF 220752Z 2209/2309 07018G28KT 9999 SCT020 BKN030 TX08/2219Z TN06/2209Z"
    },
    {
      "icao": "BKPR",
      "alert": "OK",
      "vis_m": 9999,
      "fzfg": false,
      "metar_trigger": false,
      "taf_trigger": false,
      "metar": "METAR BKPR 220930Z VRB01KT 9999 SCT015 BKN065 02/M00 Q1003 NOSIG",
      "taf": "TAF BKPR 220530Z 2206/2306 VRB03KT 9999 BKN025"
    },
    {
      "icao": "EBCI",
      "alert": "OK",
      "vis_m": 9999,
      "fzfg": false,
      "metar_trigger": false,
      "taf_trigger": false,
      "metar": "METAR EBCI 220920Z 16008KT CAVOK 05/01 Q0994 NOSIG",
      "taf": "TAF EBCI 220504Z 2206/2312 15008KT CAVOK"
    },
    {
      "icao": "EDDB",
      "alert": "OK",
      "vis_m": 7000,
      "fzfg": false,
      "metar_trigger": false,
      "taf_trigger": false,
      "metar": "METAR EDDB 220920Z AUTO 07005KT 7000 NCD M04/M07 Q1003 NOSIG",
      "taf": "TAF EDDB 220500Z 2206/2306 08007KT CAVOK"
    },
    {
      "icao": "EDDH",
      "alert": "OK",
      "vis_m": 9999,
      "fzfg": false,
      "metar_trigger": false,
      "taf_trigger": false,
      "metar": "METAR EDDH 220920Z AUTO 08011KT 9999 FEW021 M02/M05 Q1004 NOSIG",
      "taf": "TAF EDDH 220500Z 2206/2312 09010KT CAVOK"
    },
    {
      "icao": "EDDK",
      "alert": "OK",
      "vis_m": 9999,
      "fzfg": false,
      "metar_trigger": false,
      "taf_trigger": false,
      "metar": "METAR EDDK 220920Z AUTO 12008KT 080V150 CAVOK 02/M06 Q0997 NOSIG",
      "taf": "TAF EDDK 220500Z 2206/2312 12008KT CAVOK"
    },
    {
      "icao": "EDDN",
      "alert": "OK",
      "vis_m": 9000,
      "fzfg": false,
      "metar_trigger": false,
      "taf_trigger": false,
      "metar": "METAR EDDN 220920Z AUTO 11008KT 9000 OVC008 M07/M10 Q1000 NOSIG",
      "taf": ""
    },
    {
      "icao": "EDDS",
      "alert": "OK",
      "vis_m": 8000,
      "fzfg": false,
      "metar_trigger": false,
      "taf_trigger": false,
      "metar": "METAR EDDS 220920Z AUTO VRB02KT 8000 NSC M02/M04 Q0997 NOSIG",
      "taf": "TAF EDDS 220500Z 2206/2306 VRB02KT CAVOK"
    },
    {
      "icao": "EDFH",
      "alert": "OK",
      "vis_m": 9999,
      "fzfg": false,
      "metar_trigger": false,
      "taf_trigger": false,
      "metar": "METAR EDFH 220920Z 14016KT CAVOK M03/M04 Q0996",
      "taf": "TAF EDFH 220500Z 2206/2306 14013KT CAVOK"
    },
    {
      "icao": "EDJA",
      "alert": "OK",
      "vis_m": 650,
      "fzfg": true,
      "metar_trigger": false,
      "taf_trigger": false,
      "metar": "METAR EDJA 220920Z 00000KT 0650 R24/0900N FZFG BKN002 OVC004 M04/M05 Q0997",
      "taf": ""
    },
    {
      "icao": "EDLW",
      "alert": "OK",
      "vis_m": 9999,
      "fzfg": false,
      "metar_trigger": false,
      "taf_trigger": false,
      "metar": "METAR EDLW 220920Z 01003KT CAVOK M01/M04 Q0997",
      "taf": "TAF EDLW 220500Z 2206/2306 VRB03KT CAVOK"
    },
    {
      "icao": "EDNY",
      "alert": "OK",
      "vis_m": 1600,
      "fzfg": false,
      "metar_trigger": false,
      "taf_trigger": false,
      "metar": "METAR EDNY 220920Z 12004KT 1600 1400 R24/2000U BR OVC002 M02/M02 Q0998",
      "taf": ""
    },
    {
      "icao": "EDSB",
      "alert": "OK",
      "vis_m": 1500,
      "fzfg": false,
      "metar_trigger": false,
      "taf_trigger": false,
      "metar": "METAR EDSB 220920Z 00000KT 1500 R21/1400N BR BKN002 OVC005 M02/M02 Q0999",
      "taf": "TAF EDSB 220500Z 2206/2306 VRB03KT 3000 BR OVC005"
    },
    {
      "icao": "EETN",
      "alert": "OK",
      "vis_m": 9999,
      "fzfg": false,
      "metar_trigger": false,
      "taf_trigger": false,
      "metar": "METAR EETN 220920Z 09013KT 9999 -SN OVC013 M07/M09 Q1024 NOSIG",
      "taf": "TAF EETN 220530Z 2206/2306 09014KT 9999 OVC015"
    },
    {
      "icao": "EFTU",
      "alert": "OK",
      "vis_m": 9999,
      "fzfg": false,
      "metar_trigger": false,
      "taf_trigger": false,
      "metar": "METAR EFTU 220920Z AUTO 10011KT 9999 OVC012 M05/M07 Q1025",
      "taf": "TAF EFTU 220823Z 2209/2309 09011KT 9999 OVC014"
    },
    {
      "icao": "EGBB",
      "alert": "OK",
      "vis_m": 8000,
      "fzfg": false,
      "metar_trigger": false,
      "taf_trigger": false,
      "metar": "METAR EGBB 220920Z 12011KT 8000 -RA OVC006 08/07 Q0987",
      "taf": "TAF EGBB 220454Z 2206/2306 12012KT 9999 SCT006 BKN010"
    },
    {
      "icao": "EGGP",
      "alert": "OK",
      "vis_m": 9999,
      "fzfg": false,
      "metar_trigger": false,
      "taf_trigger": false,
      "metar": "METAR EGGP 220920Z 11012KT 9999 BKN009 08/06 Q0987",
      "taf": "TAF EGGP 220455Z 2206/2306 12012KT 9999 BKN020"
    },
    {
      "icao": "EGGW",
      "alert": "OK",
      "vis_m": 5000,
      "fzfg": false,
      "metar_trigger": false,
      "taf_trigger": false,
      "metar": "METAR EGGW 220920Z AUTO 12009KT 5000 -DZ OVC003 07/06 Q0988 RERA",
      "taf": "TAF EGGW 220456Z 2206/2306 13012KT 9999 BKN007"
    },
    {
      "icao": "EGKK",
      "alert": "OK",
      "vis_m": 9999,
      "fzfg": false,
      "metar_trigger": false,
      "taf_trigger": false,
      "metar": "METAR EGKK 220920Z 12007KT 9999 SCT008 BKN030 08/08 Q0988",
      "taf": "TAF EGKK 220457Z 2206/2312 13008KT 9999 FEW010 SCT030"
    },
    {
      "icao": "EGNM",
      "alert": "OK",
      "vis_m": 900,
      "fzfg": false,
      "metar_trigger": false,
      "taf_trigger": false,
      "metar": "METAR EGNM 220920Z 09012KT 0900 R14/P1500N -RA FG OVC001 05/05 Q0989",
      "taf": "TAF EGNM 220455Z 2206/2306 12012KT 6000 BKN008"
    },
    {
      "icao": "EGPD",
      "alert": "OK",
      "vis_m": 7000,
      "fzfg": false,
      "metar_trigger": false,
      "taf_trigger": false,
      "metar": "METAR EGPD 220920Z 13022G33KT 7000 OVC011 06/03 Q0996 TEMPO BKN017",
      "taf": "TAF EGPD 220454Z 2206/2306 13020G35KT 9999 BKN012"
    },
    {
      "icao": "EGPF",
      "alert": "OK",
      "vis_m": 9999,
      "fzfg": false,
      "metar_trigger": false,
      "taf_trigger": false,
      "metar": "METAR EGPF 220920Z AUTO 08011KT 9999 FEW017 BKN025 OVC040 08/06 Q0989",
      "taf": "TAF EGPF 220456Z 2206/2306 08011KT 9999 FEW012 BKN025"
    },
    {
      "icao": "EHBK",
      "alert": "OK",
      "vis_m": 9999,
      "fzfg": false,
      "metar_trigger": false,
      "taf_trigger": false,
      "metar": "METAR EHBK 220925Z AUTO 10008KT 9999 NSC 02/M02 Q0995 NOSIG",
      "taf": "TAF EHBK 220504Z 2206/2312 09007KT CAVOK"
    },
    {
      "icao": "EHEH",
      "alert": "OK",
      "vis_m": 9999,
      "fzfg": false,
      "metar_trigger": false,
      "taf_trigger": false,
      "metar": "METAR EHEH 220925Z AUTO 11007KT 080V150 9999 OVC230 02/M04 Q0995 BLU NOSIG RMK TREND REMOTE BY EHWX",
      "taf": "TAF EHEH 220547Z 2206/2312 09006KT CAVOK"
    },
    {
      "icao": "EKBI",
      "alert": "OK",
      "vis_m": 9999,
      "fzfg": false,
      "metar_trigger": false,
      "taf_trigger": false,
      "metar": "METAR EKBI 220921Z 08016KT 9999 OVC022 M01/M06 Q1008",
      "taf": ""
    },
    {
      "icao": "EKCH",
      "alert": "OK",
      "vis_m": 9000,
      "fzfg": false,
      "metar_trigger": false,
      "taf_trigger": false,
      "metar": "METAR EKCH 220920Z 07015KT 9000 -SN FEW013 BKN015 M01/M03 Q1009 TEMPO BKN014",
      "taf": ""
    },
    {
      "icao": "ENAL",
      "alert": "OK",
      "vis_m": 9999,
      "fzfg": false,
      "metar_trigger": false,
      "taf_trigger": false,
      "metar": "METAR ENAL 220920Z 12009KT CAVOK 05/M08 Q1012",
      "taf": "TAF ENAL 220800Z 2209/2218 12008KT CAVOK"
    },
    {
      "icao": "ENBR",
      "alert": "OK",
      "vis_m": 9999,
      "fzfg": false,
      "metar_trigger": false,
      "taf_trigger": false,
      "metar": "METAR ENBR 220920Z 00000KT CAVOK M02/M08 Q1010 NOSIG RMK WIND 1200FT 13004KT",
      "taf": "TAF ENBR 220500Z 2206/2306 07005KT CAVOK"
    },
    {
      "icao": "ENGM",
      "alert": "OK",
      "vis_m": 9999,
      "fzfg": false,
      "metar_trigger": false,
      "taf_trigger": false,
      "metar": "METAR ENGM 220920Z 05009KT 9999 OVC023 M02/M07 Q1020 NOSIG",
      "taf": "TAF ENGM 220500Z 2206/2306 02008KT 9999 OVC020"
    },
    {
      "icao": "ENHD",
      "alert": "OK",
      "vis_m": 9999,
      "fzfg": false,
      "metar_trigger": false,
      "taf_trigger": false,
      "metar": "METAR ENHD 220920Z 10015KT CAVOK 02/M08 Q1010",
      "taf": "TAF ENHD 220800Z 2209/2218 10012KT CAVOK"
    },
    {
      "icao": "ENTC",
      "alert": "OK",
      "vis_m": 9999,
      "fzfg": false,
      "metar_trigger": false,
      "taf_trigger": false,
      "metar": "METAR ENTC 220920Z 11003KT 9999 FEW003 M08/M09 Q1024 NOSIG RMK WIND 2600FT 08006KT",
      "taf": "TAF ENTC 220500Z 2206/2306 VRB02KT 9999 FEW001"
    },
    {
      "icao": "ENTO",
      "alert": "OK",
      "vis_m": 9999,
      "fzfg": false,
      "metar_trigger": false,
      "taf_trigger": false,
      "metar": "METAR ENTO 220920Z 04010KT 360V060 9999 OVC024 M01/M05 Q1018 NOSIG",
      "taf": "TAF ENTO 220500Z 2206/2306 04012KT 9999 OVC020"
    },
    {
      "icao": "ENVA",
      "alert": "OK",
      "vis_m": 9999,
      "fzfg": false,
      "metar_trigger": false,
      "taf_trigger": false,
      "metar": "METAR ENVA 220920Z 08010KT 060V120 CAVOK M01/M08 Q1020 NOSIG RMK WIND 670FT 14014KT",
      "taf": "TAF ENVA 220500Z 2206/2306 11010KT CAVOK"
    },
    {
      "icao": "ENZV",
      "alert": "OK",
      "vis_m": 9999,
      "fzfg": false,
      "metar_trigger": false,
      "taf_trigger": false,
      "metar": "METAR ENZV 220920Z 09011KT CAVOK 02/M08 Q1010 NOSIG",
      "taf": "TAF ENZV 220500Z 2206/2306 10009KT CAVOK"
    },
    {
      "icao": "EPGD",
      "alert": "OK",
      "vis_m": 3200,
      "fzfg": false,
      "metar_trigger": false,
      "taf_trigger": false,
      "metar": "METAR EPGD 220930Z 11007KT 3200 BR NSC M11/M12 Q1007",
      "taf": ""
    },
    {
      "icao": "EPKK",
      "alert": "OK",
      "vis_m": 6000,
      "fzfg": false,
      "metar_trigger": false,
      "taf_trigger": false,
      "metar": "METAR EPKK 220930Z 09003KT 6000 NSC M07/M11 Q1003",
      "taf": "TAF EPKK 220830Z 2209/2309 05005KT 4000 BR NSC"
    },
    {
      "icao": "EPKT",
      "alert": "OK",
      "vis_m": 4600,
      "fzfg": false,
      "metar_trigger": false,
      "taf_trigger": false,
      "metar": "METAR EPKT 220930Z VRB01KT 4600 BR NSC M08/M10 Q1002",
      "taf": "TAF EPKT 220530Z 2206/2306 05004KT 7000 NSC"
    },
    {
      "icao": "EPLB",
      "alert": "OK",
      "vis_m": 3300,
      "fzfg": false,
      "metar_trigger": false,
      "taf_trigger": false,
      "metar": "METAR EPLB 220930Z 07008KT 3300 BR NSC M17/M18 Q1007",
      "taf": ""
    },
    {
      "icao": "EPMO",
      "alert": "OK",
      "vis_m": 4500,
      "fzfg": false,
      "metar_trigger": false,
      "taf_trigger": false,
      "metar": "METAR EPMO 220930Z 07010KT 4500 BR NSC M10/M11 Q1007",
      "taf": ""
    },
    {
      "icao": "EPPO",
      "alert": "OK",
      "vis_m": 9999,
      "fzfg": false,
      "metar_trigger": false,
      "taf_trigger": false,
      "metar": "METAR EPPO 220930Z 11007KT CAVOK M02/M08 Q1004",
      "taf": "TAF EPPO 220530Z 2206/2306 09010KT CAVOK"
    },
    {
      "icao": "EPRA",
      "alert": "OK",
      "vis_m": 5000,
      "fzfg": false,
      "metar_trigger": false,
      "taf_trigger": false,
      "metar": "METAR EPRA 220930Z 12004KT 100V160 5000 BR NSC M10/M15 Q1005",
      "taf": "TAF EPRA 220830Z 2209/2218 09006KT 7000 NSC"
    },
    {
      "icao": "EPRZ",
      "alert": "OK",
      "vis_m": 3400,
      "fzfg": false,
      "metar_trigger": false,
      "taf_trigger": false,
      "metar": "METAR EPRZ 220930Z 09007KT 3400 BR NSC M11/M15 Q1005",
      "taf": "TAF EPRZ 220530Z 2206/2306 08003KT 4000 BR NSC"
    },
    {
      "icao": "EPSC",
      "alert": "OK",
      "vis_m": 4500,
      "fzfg": false,
      "metar_trigger": false,
      "taf_trigger": false,
      "metar": "METAR EPSC 220930Z VRB02KT 4500 BR NSC M05/M08 Q1005",
      "taf": ""
    },
    {
      "icao": "EPSY",
      "alert": "OK",
      "vis_m": 4900,
      "fzfg": false,
      "metar_trigger": false,
      "taf_trigger": false,
      "metar": "METAR EPSY 220930Z 08005KT 030V110 4900 BR NSC M11/M12 Q1009",
      "taf": "TAF EPSY 220830Z 2209/2218 07006KT 7000 NSC"
    },
    {
      "icao": "EPWA",
      "alert": "OK",
      "vis_m": 7000,
      "fzfg": false,
      "metar_trigger": false,
      "taf_trigger": false,
      "metar": "METAR EPWA 220930Z 09007KT 7000 NSC M08/M12 Q1007 NOSIG",
      "taf": "TAF EPWA 220830Z 2209/2309 09010KT 6000 NSC"
    },
    {
      "icao": "EPWR",
      "alert": "OK",
      "vis_m": 9999,
      "fzfg": false,
      "metar_trigger": false,
      "taf_trigger": false,
      "metar": "METAR EPWR 220930Z 12006KT CAVOK M01/M08 Q1003",
      "taf": "TAF EPWR 220830Z 2209/2309 12007KT CAVOK"
    },
    {
      "icao": "ESGG",
      "alert": "OK",
      "vis_m": 9999,
      "fzfg": false,
      "metar_trigger": false,
      "taf_trigger": false,
      "metar": "METAR ESGG 220920Z 07011G22KT 9999 BKN026 M00/M05 Q1012",
      "taf": "TAF ESGG 220830Z 2209/2309 06013G25KT 9999 BKN025"
    },
    {
      "icao": "ESKN",
      "alert": "OK",
      "vis_m": 9999,
      "fzfg": false,
      "metar_trigger": false,
      "taf_trigger": false,
      "metar": "METAR ESKN 220920Z 07016KT 9999 BKN015 M01/M04 Q1019",
      "taf": "TAF ESKN 220830Z 2209/2309 07012KT 9000 -SN SCT012 OVC020"
    },
    {
      "icao": "ESMS",
      "alert": "OK",
      "vis_m": 8000,
      "fzfg": false,
      "metar_trigger": false,
      "taf_trigger": false,
      "metar": "METAR ESMS 220920Z 07014KT 8000 BKN015 M01/M04 Q1008",
      "taf": "TAF ESMS 220827Z 2209/2309 07015KT 9000 BKN020"
    },
    {
      "icao": "ESSA",
      "alert": "OK",
      "vis_m": 9000,
      "fzfg": false,
      "metar_trigger": false,
      "taf_trigger": false,
      "metar": "METAR ESSA 220920Z 09016KT 9000 -SN FEW012 BKN016 M02/M05 Q1021 TEMPO BKN012",
      "taf": "TAF ESSA 220830Z 2209/2309 08012KT 9000 -SN SCT008 OVC015"
    },
    {
      "icao": "EYKA",
      "alert": "OK",
      "vis_m": 9999,
      "fzfg": false,
      "metar_trigger": false,
      "taf_trigger": false,
      "metar": "METAR EYKA 220920Z VRB10KT 9999 -SN OVC010 M10/M13 Q1015",
      "taf": ""
    },
    {
      "icao": "EYPA",
      "alert": "OK",
      "vis_m": 9999,
      "fzfg": false,
      "metar_trigger": false,
      "taf_trigger": false,
      "metar": "METAR EYPA 220920Z 09014KT 060V120 9999 OVC011 M07/M10 Q1014",
      "taf": "TAF EYPA 220506Z 2206/2306 09010KT 8000 BKN010"
    },
    {
      "icao": "EYVI",
      "alert": "OK",
      "vis_m": 9000,
      "fzfg": false,
      "metar_trigger": false,
      "taf_trigger": false,
      "metar": "METAR EYVI 220920Z 08009KT 050V110 9000 -SN BKN009 M11/M13 Q1014 NOSIG",
      "taf": "TAF EYVI 220500Z 2206/2306 08012KT 5000 BR BKN005"
    },
    {
      "icao": "GCFV",
      "alert": "OK",
      "vis_m": 9999,
      "fzfg": false,
      "metar_trigger": false,
      "taf_trigger": false,
      "metar": "METAR GCFV 220930Z 29005G19KT 260V330 9999 -DZ BKN022 18/15 Q1020",
      "taf": "TAF GCFV 220800Z 2209/2309 30012KT 9999 SCT030 BKN040 TX21/2214Z TN15/2306Z"
    },
    {
      "icao": "GCLP",
      "alert": "OK",
      "vis_m": 9999,
      "fzfg": false,
      "metar_trigger": false,
      "taf_trigger": false,
      "metar": "METAR GCLP 220930Z 02005KT 9999 FEW025 BKN037 18/15 Q1021 NOSIG",
      "taf": "TAF GCLP 220800Z 2209/2309 36007KT 9999 FEW025 SCT040 TX21/2214Z TN15/2306Z"
    },
    {
      "icao": "GCTS",
      "alert": "OK",
      "vis_m": 9999,
      "fzfg": false,
      "metar_trigger": false,
      "taf_trigger": false,
      "metar": "METAR GCTS 220930Z 05008KT 010V070 9999 BKN025 18/12 Q1021 NOSIG",
      "taf": "TAF GCTS 220800Z 2209/2309 VRB06KT 9999 SCT030 TX22/2214Z TN14/2306Z"
    },
    {
      "icao": "GMAD",
      "alert": "OK",
      "vis_m": 3000,
      "fzfg": false,
      "metar_trigger": false,
      "taf_trigger": false,
      "metar": "METAR GMAD 220930Z 22005KT 3000 R27/1600N DZ BKN004 BKN016 13/13 Q1017 NOSIG",
      "taf": "TAF GMAD 220500Z 2206/2312 24006KT 6000 SCT008 SCT026"
    },
    {
      "icao": "GMMN",
      "alert": "OK",
      "vis_m": 5000,
      "fzfg": false,
      "metar_trigger": false,
      "taf_trigger": false,
      "metar": "METAR GMMN 220930Z 22007KT 5000 FEW006 BKN036 13/12 Q1016 NOSIG",
      "taf": "TAF GMMN 220500Z 2206/2312 26008KT 8000 BKN004"
    },
    {
      "icao": "GMMX",
      "alert": "OK",
      "vis_m": 6000,
      "fzfg": false,
      "metar_trigger": false,
      "taf_trigger": false,
      "metar": "METAR GMMX 220930Z 26007KT 230V290 6000 SCT006 BKN020 13/13 Q1017 TEMPO 3000 -DZ",
      "taf": "TAF GMMX 220500Z 2206/2312 24006KT 8000 BKN026 SCT080"
    },
    {
      "icao": "HEGN",
      "alert": "OK",
      "vis_m": 9999,
      "fzfg": false,
      "metar_trigger": false,
      "taf_trigger": false,
      "metar": "METAR HEGN 220900Z 13007KT CAVOK 24/16 Q1014 NOSIG",
      "taf": "TAF HEGN 220500Z 2206/2312 12014KT CAVOK"
    },
    {
      "icao": "HEMA",
      "alert": "OK",
      "vis_m": 9999,
      "fzfg": false,
      "metar_trigger": false,
      "taf_trigger": false,
      "metar": "METAR HEMA 220900Z 03008KT CAVOK 25/16 Q1014 NOSIG",
      "taf": "TAF HEMA 220500Z 2206/2312 13014KT CAVOK"
    },
    {
      "icao": "HESH",
      "alert": "OK",
      "vis_m": 9999,
      "fzfg": false,
      "metar_trigger": false,
      "taf_trigger": false,
      "metar": "METAR HESH 220900Z 01006KT CAVOK 25/11 Q1014 NOSIG",
      "taf": "TAF HESH 220500Z 2206/2312 15012KT CAVOK"
    },
    {
      "icao": "HESX",
      "alert": "OK",
      "vis_m": 9999,
      "fzfg": false,
      "metar_trigger": false,
      "taf_trigger": false,
      "metar": "METAR HESX 220900Z 31003KT CAVOK 17/04 Q1013 NOSIG",
      "taf": ""
    },
    {
      "icao": "LATI",
      "alert": "OK",
      "vis_m": null,
      "fzfg": false,
      "metar_trigger": false,
      "taf_trigger": false,
      "metar": "",
      "taf": "TAF LATI 220500Z 2206/2306 VRB05KT 9999 BKN060 TX13/2212Z TN07/2305Z"
    },
    {
      "icao": "LBPD",
      "alert": "OK",
      "vis_m": 6000,
      "fzfg": false,
      "metar_trigger": false,
      "taf_trigger": false,
      "metar": "METAR LBPD 220930Z AUTO 31003KT 6000 OVC015/// 00/M00 Q1006 NOSIG",
      "taf": "TAF LBPD 220500Z 2206/2306 VRB03KT 6000 BKN015 OVC025"
    },
    {
      "icao": "LBSF",
      "alert": "OK",
      "vis_m": 9999,
      "fzfg": false,
      "metar_trigger": false,
      "taf_trigger": false,
      "metar": "METAR LBSF 220930Z 08006KT 9999 FEW026 SCT039 OVC045 01/M01 Q1004 NOSIG",
      "taf": "TAF LBSF 220500Z 2206/2306 12010KT 8000 SCT020 BKN030 OVC040"
    },
    {
      "icao": "LBWN",
      "alert": "OK",
      "vis_m": 9999,
      "fzfg": false,
      "metar_trigger": false,
      "taf_trigger": false,
      "metar": "METAR LBWN 220930Z 13008KT 9999 -RA FEW025 OVC035 07/05 Q1006 TEMPO 4000 RA",
      "taf": "TAF LBWN 220500Z 2206/2306 11010KT 9999 BKN020 OVC040"
    },
    {
      "icao": "LCLK",
      "alert": "OK",
      "vis_m": 9999,
      "fzfg": false,
      "metar_trigger": false,
      "taf_trigger": false,
      "metar": "METAR LCLK 220930Z 05023KT 9999 -RA FEW030 14/11 Q1016 NOSIG",
      "taf": "TAF LCLK 220530Z 2206/2306 05020KT 9999 BKN070"
    },
    {
      "icao": "LCPH",
      "alert": "OK",
      "vis_m": 9999,
      "fzfg": false,
      "metar_trigger": false,
      "taf_trigger": false,
      "metar": "METAR LCPH 220930Z 10017G29KT 090V150 9999 SCT080 16/06 Q1013 NOSIG",
      "taf": "TAF LCPH 220530Z 2206/2306 13020G30KT 9999 BKN070"
    },
    {
      "icao": "LEAL",
      "alert": "OK",
      "vis_m": 9999,
      "fzfg": false,
      "metar_trigger": false,
      "taf_trigger": false,
      "metar": "METAR LEAL 220930Z 29021G34KT 260V320 CAVOK 14/03 Q1002 NOSIG",
      "taf": "TAF LEAL 220500Z 2206/2306 VRB04KT 9999 BKN040 TX18/2213Z TN09/2306Z"
    },
    {
      "icao": "LEBB",
      "alert": "OK",
      "vis_m": 9999,
      "fzfg": false,
      "metar_trigger": false,
      "taf_trigger": false,
      "metar": "METAR LEBB 220930Z 25006KT 200V290 9999 FEW040 BKN065 11/05 Q1002 NOSIG",
      "taf": ""
    },
    {
      "icao": "LEBL",
      "alert": "OK",
      "vis_m": 9999,
      "fzfg": false,
      "metar_trigger": false,
      "taf_trigger": false,
      "metar": "METAR LEBL 220930Z 34008KT 290V020 9999 FEW040 SCT060 11/08 Q0997 NOSIG",
      "taf": ""
    },
    {
      "icao": "LECH",
      "alert": "OK",
      "vis_m": 9999,
      "fzfg": false,
      "metar_trigger": false,
      "taf_trigger": false,
      "metar": "METAR LECH 220930Z AUTO 16010KT 110V200 9999 BKN058 12/00 Q0999",
      "taf": ""
    },
    {
      "icao": "LEMD",
      "alert": "OK",
      "vis_m": 9999,
      "fzfg": false,
      "metar_trigger": false,
      "taf_trigger": false,
      "metar": "METAR LEMD 220930Z 26012KT 220V300 CAVOK 08/01 Q1004 NOSIG",
      "taf": "TAF LEMD 220500Z 2206/2312 20008KT 9999 SCT010 SCT030 TX10/2215Z TN04/2207Z"
    },
    {
      "icao": "LEMG",
      "alert": "OK",
      "vis_m": 9999,
      "fzfg": false,
      "metar_trigger": false,
      "taf_trigger": false,
      "metar": "METAR LEMG 220930Z 29007KT 9999 FEW040 12/05 Q1011 NOSIG",
      "taf": "TAF LEMG 220500Z 2206/2306 30010KT 9999 FEW050 TX17/2214Z TN11/2207Z"
    },
    {
      "icao": "LEVC",
      "alert": "OK",
      "vis_m": 9999,
      "fzfg": false,
      "metar_trigger": false,
      "taf_trigger": false,
      "metar": "METAR LEVC 220930Z 24011KT 9999 FEW040 13/03 Q1001 NOSIG",
      "taf": "TAF LEVC 220500Z 2206/2306 27010KT 9999 BKN040 TX18/2213Z TN07/2305Z"
    },
    {
      "icao": "LEXJ",
      "alert": "OK",
      "vis_m": 9999,
      "fzfg": false,
      "metar_trigger": false,
      "taf_trigger": false,
      "metar": "METAR LEXJ 220930Z 26008KT 240V300 CAVOK 11/04 Q1001",
      "taf": ""
    },
    {
      "icao": "LEZG",
      "alert": "OK",
      "vis_m": 9999,
      "fzfg": false,
      "metar_trigger": false,
      "taf_trigger": false,
      "metar": "METAR LEZG 220930Z 28014KT 260V320 CAVOK 08/06 Q1001 NOSIG",
      "taf": "TAF LEZG 220500Z 2206/2306 28008KT 9999 FEW040 TX13/2215Z TN05/2306Z"
    },
    {
      "icao": "LEZL",
      "alert": "OK",
      "vis_m": 9999,
      "fzfg": false,
      "metar_trigger": false,
      "taf_trigger": false,
      "metar": "METAR LEZL 220930Z 25006KT 9999 FEW045 12/09 Q1012 NOSIG",
      "taf": "TAF LEZL 220800Z 2209/2309 23009KT 9999 FEW030 TX15/2215Z TN08/2307Z"
    },
    {
      "icao": "LFBD",
      "alert": "OK",
      "vis_m": 9999,
      "fzfg": false,
      "metar_trigger": false,
      "taf_trigger": false,
      "metar": "METAR LFBD 220930Z AUTO 25007KT 9999 FEW026/// SCT064/// ///TCU 09/08 Q0997 TEMPO 25015G25KT 3000 SHRA",
      "taf": ""
    },
    {
      "icao": "LFLL",
      "alert": "OK",
      "vis_m": 9999,
      "fzfg": false,
      "metar_trigger": false,
      "taf_trigger": false,
      "metar": "METAR LFLL 220930Z 13010KT 9999 BKN050 07/05 Q0998 NOSIG",
      "taf": "TAF LFLL 220500Z 2206/2312 17008KT CAVOK"
    },
    {
      "icao": "LFLS",
      "alert": "OK",
      "vis_m": 7000,
      "fzfg": false,
      "metar_trigger": false,
      "taf_trigger": false,
      "metar": "METAR LFLS 220930Z AUTO VRB02KT 7000 3300 -RADZ SCT006 BKN011 OVC019 05/05 Q0998 TEMPO 2000 RA BKN008",
      "taf": ""
    },
    {
      "icao": "LFMN",
      "alert": "OK",
      "vis_m": 9999,
      "fzfg": false,
      "metar_trigger": false,
      "taf_trigger": false,
      "metar": "METAR LFMN 220930Z 01005KT 320V070 9999 BKN063 BKN083 09/03 Q1000 BECMG 07010KT",
      "taf": "TAF LFMN 220800Z 2209/2315 33010KT 9999 BKN060"
    },
    {
      "icao": "LFOB",
      "alert": "OK",
      "vis_m": 9999,
      "fzfg": false,
      "metar_trigger": false,
      "taf_trigger": false,
      "metar": "METAR LFOB 220930Z AUTO 13008KT 9999 OVC017 08/06 Q0991 TEMPO BKN008",
      "taf": "TAF LFOB 220500Z 2206/2306 15012KT 9999 BKN015"
    },
    {
      "icao": "LFPO",
      "alert": "OK",
      "vis_m": 9999,
      "fzfg": false,
      "metar_trigger": false,
      "taf_trigger": false,
      "metar": "METAR LFPO 220930Z 17011KT 140V200 9999 OVC020 09/06 Q0992 NOSIG",
      "taf": "TAF LFPO 220500Z 2206/2312 15008KT 9999 SCT026 BKN040"
    },
    {
      "icao": "LFSB",
      "alert": "OK",
      "vis_m": 9000,
      "fzfg": false,
      "metar_trigger": false,
      "taf_trigger": false,
      "metar": "METAR LFSB 220930Z AUTO VRB02KT 9000 FEW006 BKN064 BKN084 M01/M01 Q0998 NOSIG",
      "taf": ""
    },
    {
      "icao": "LGAV",
      "alert": "OK",
      "vis_m": 9999,
      "fzfg": false,
      "metar_trigger": false,
      "taf_trigger": false,
      "metar": "METAR LGAV 220920Z VRB02KT 9999 SCT010 SCT020 BKN060 11/09 Q1004 NOSIG",
      "taf": "TAF LGAV 220500Z 2206/2306 04008KT 9999 FEW012 BKN025 BKN070"
    },
    {
      "icao": "LGTS",
      "alert": "OK",
      "vis_m": 7000,
      "fzfg": false,
      "metar_trigger": false,
      "taf_trigger": false,
      "metar": "METAR LGTS 220920Z 29005KT 7000 SCT008 BKN020 OVC035 07/07 Q1005 NOSIG",
      "taf": ""
    },
    {
      "icao": "LHBP",
      "alert": "OK",
      "vis_m": 6000,
      "fzfg": false,
      "metar_trigger": false,
      "taf_trigger": false,
      "metar": "METAR LHBP 220930Z 10006KT 6000 BKN028 OVC070 M02/M04 Q1005 NOSIG",
      "taf": "TAF LHBP 220515Z 2206/2306 09005KT CAVOK"
    },
    {
      "icao": "LHDC",
      "alert": "OK",
      "vis_m": 9999,
      "fzfg": false,
      "metar_trigger": false,
      "taf_trigger": false,
      "metar": "METAR LHDC 220915Z AUTO 03005KT 9999 OVC047 01/M02 Q1005 NOSIG",
      "taf": "TAF LHDC 220815Z 2209/2218 02006KT 9999 -SN OVC045"
    },
    {
      "icao": "LIBD",
      "alert": "OK",
      "vis_m": 9999,
      "fzfg": false,
      "metar_trigger": false,
      "taf_trigger": false,
      "metar": "METAR LIBD 220920Z 23004KT 200V260 9999 SCT010 BKN030 10/08 Q1000",
      "taf": "TAF LIBD 220500Z 2206/2306 25006KT 7000 SCT005 BKN014"
    },
    {
      "icao": "LIBG",
      "alert": "OK",
      "vis_m": 9999,
      "fzfg": false,
      "metar_trigger": false,
      "taf_trigger": false,
      "metar": "METAR LIBG 220850Z VRB01KT 9999 FEW020 SCT030 11/11 Q0999",
      "taf": "TAF LIBG 220800Z 2209/2218 VRB05KT 9999 SCT020"
    },
    {
      "icao": "LIBP",
      "alert": "OK",
      "vis_m": 9999,
      "fzfg": false,
      "metar_trigger": false,
      "taf_trigger": false,
      "metar": "METAR LIBP 220920Z AUTO 23003KT 9999 OVC017/// 09/07 Q1000",
      "taf": "TAF LIBP 220500Z 2206/2306 VRB05KT 9999 BKN040"
    },
    {
      "icao": "LIBR",
      "alert": "OK",
      "vis_m": 9999,
      "fzfg": false,
      "metar_trigger": false,
      "taf_trigger": false,
      "metar": "METAR LIBR 220920Z 31004KT 9999 BKN015 11/10 Q1000",
      "taf": "TAF LIBR 220500Z 2206/2306 VRB05KT 9999 SCT040"
    },
    {
      "icao": "LICA",
      "alert": "OK",
      "vis_m": 9999,
      "fzfg": false,
      "metar_trigger": false,
      "taf_trigger": false,
      "metar": "METAR LICA 220920Z AUTO 08002KT 9999 FEW042/// 14/10 Q1000",
      "taf": "TAF LICA 220500Z 2206/2306 08012KT 9999 SCT040"
    },
    {
      "icao": "LICC",
      "alert": "OK",
      "vis_m": 9999,
      "fzfg": false,
      "metar_trigger": false,
      "taf_trigger": false,
      "metar": "METAR LICC 220920Z 27008KT 9999 SCT090 12/11 Q1000",
      "taf": "TAF LICC 220500Z 2206/2306 26012KT 7000 FEW050"
    },
    {
      "icao": "LICJ",
      "alert": "OK",
      "vis_m": 9999,
      "fzfg": false,
      "metar_trigger": false,
      "taf_trigger": false,
      "metar": "METAR LICJ 220920Z 28008KT 9999 BKN050 14/08 Q1001",
      "taf": "TAF LICJ 220500Z 2206/2306 34015KT 9999 SCT025"
    },
    {
      "icao": "LIMC",
      "alert": "OK",
      "vis_m": 200,
      "fzfg": false,
      "metar_trigger": false,
      "taf_trigger": false,
      "metar": "METAR LIMC 220920Z VRB02KT 0200 R35R/0275N R17L/1100D R35L/0275N FG VV001 00/00 Q1001 NOSIG",
      "taf": ""
    },
    {
      "icao": "LIME",
      "alert": "OK",
      "vis_m": 9999,
      "fzfg": false,
      "metar_trigger": false,
      "taf_trigger": false,
      "metar": "METAR LIME 220920Z VRB02KT CAVOK 03/M02 Q1001 NOSIG",
      "taf": "TAF LIME 220500Z 2206/2306 VRB04KT CAVOK"
    },
    {
      "icao": "LIMF",
      "alert": "CRITICAL",
      "vis_m": 100,
      "fzfg": true,
      "metar_trigger": true,
      "taf_trigger": false,
      "metar": "METAR LIMF 220920Z VRB01KT 0100 R36/0275N FZFG VV001 M01/M03 Q1001",
      "taf": "TAF LIMF 220500Z 2206/2306 VRB04KT 4000 BR NSC"
    },
    {
      "icao": "LIMJ",
      "alert": "OK",
      "vis_m": 9999,
      "fzfg": false,
      "metar_trigger": false,
      "taf_trigger": false,
      "metar": "METAR LIMJ 220920Z 03014KT CAVOK 06/M01 Q1000",
      "taf": "TAF LIMJ 220500Z 2206/2306 04013KT 9999 FEW040"
    },
    {
      "icao": "LIPE",
      "alert": "OK",
      "vis_m": 6000,
      "fzfg": false,
      "metar_trigger": false,
      "taf_trigger": false,
      "metar": "METAR LIPE 220920Z 26003KT 6000 BKN035 04/01 Q1002",
      "taf": "TAF LIPE 220500Z 2206/2306 VRB05KT 9999 SCT040 BKN060"
    },
    {
      "icao": "LIPH",
      "alert": "OK",
      "vis_m": 9999,
      "fzfg": false,
      "metar_trigger": false,
      "taf_trigger": false,
      "metar": "METAR LIPH 220920Z 30004KT 230V320 9999 BKN060 03/M04 Q1001",
      "taf": "TAF LIPH 220500Z 2206/2306 VRB05KT CAVOK"
    },
    {
      "icao": "LIPQ",
      "alert": "OK",
      "vis_m": 9999,
      "fzfg": false,
      "metar_trigger": false,
      "taf_trigger": false,
      "metar": "METAR LIPQ 220920Z AUTO 36004KT 9999 OVC053/// 04/M04 Q1001",
      "taf": "TAF LIPQ 220500Z 2206/2306 VRB05KT CAVOK"
    },
    {
      "icao": "LIPR",
      "alert": "OK",
      "vis_m": 8000,
      "fzfg": false,
      "metar_trigger": false,
      "taf_trigger": false,
      "metar": "METAR LIPR 220920Z 28006KT 8000 BKN015 05/01 Q1002",
      "taf": "TAF LIPR 220500Z 2206/2306 VRB05KT 9999 BKN020"
    },
    {
      "icao": "LIPX",
      "alert": "OK",
      "vis_m": 9999,
      "fzfg": false,
      "metar_trigger": false,
      "taf_trigger": false,
      "metar": "METAR LIPX 220920Z 02003KT 310V070 9999 BKN055 03/M05 Q1001",
      "taf": "TAF LIPX 220500Z 2206/2306 VRB04KT 9999 SCT050"
    },
    {
      "icao": "LIPY",
      "alert": "OK",
      "vis_m": 9999,
      "fzfg": false,
      "metar_trigger": false,
      "taf_trigger": false,
      "metar": "METAR LIPY 220920Z AUTO 28006KT 9999 OVC015/// 05/02 Q1002",
      "taf": "TAF LIPY 220500Z 2206/2306 25008KT 9999 BKN014 OVC015"
    },
    {
      "icao": "LIPZ",
      "alert": "OK",
      "vis_m": 9999,
      "fzfg": false,
      "metar_trigger": false,
      "taf_trigger": false,
      "metar": "METAR LIPZ 220920Z 32004KT 290V010 9999 BKN055 04/M04 Q1002 NOSIG",
      "taf": "TAF LIPZ 220500Z 2206/2312 VRB05KT CAVOK"
    },
    {
      "icao": "LIRF",
      "alert": "OK",
      "vis_m": 9999,
      "fzfg": false,
      "metar_trigger": false,
      "taf_trigger": false,
      "metar": "METAR LIRF 220920Z 06003KT 030V090 CAVOK 10/05 Q0999 NOSIG",
      "taf": "TAF LIRF 220500Z 2206/2312 34007KT 9999 SCT050"
    },
    {
      "icao": "LIRN",
      "alert": "OK",
      "vis_m": 9999,
      "fzfg": false,
      "metar_trigger": false,
      "taf_trigger": false,
      "metar": "METAR LIRN 220920Z 36003KT 330V050 9999 FEW060 10/06 Q1000 NOSIG",
      "taf": "TAF LIRN 220500Z 2206/2306 VRB05KT 9999 SCT050"
    },
    {
      "icao": "LIRP",
      "alert": "OK",
      "vis_m": 9999,
      "fzfg": false,
      "metar_trigger": false,
      "taf_trigger": false,
      "metar": "METAR LIRP 220915Z 14005KT CAVOK 05/03 Q1000 NOSIG",
      "taf": "TAF LIRP 220500Z 2206/2306 11004KT 9999 FEW020 SCT040"
    },
    {
      "icao": "LIRZ",
      "alert": "OK",
      "vis_m": 9999,
      "fzfg": false,
      "metar_trigger": false,
      "taf_trigger": false,
      "metar": "METAR LIRZ 220920Z AUTO VRB02KT 9999 OVC049/// 07/04 Q0999",
      "taf": "TAF LIRZ 220500Z 2206/2306 VRB05KT 9999 BKN045"
    },
    {
      "icao": "LJLJ",
      "alert": "OK",
      "vis_m": 9999,
      "fzfg": false,
      "metar_trigger": false,
      "taf_trigger": false,
      "metar": "METAR LJLJ 220930Z VRB01KT 9999 FEW010 BKN060 M03/M07 Q1002 NOSIG",
      "taf": "TAF LJLJ 220500Z 2206/2306 12003KT 6000 BKN010 OVC065"
    },
    {
      "icao": "LKMT",
      "alert": "OK",
      "vis_m": 9999,
      "fzfg": false,
      "metar_trigger": false,
      "taf_trigger": false,
      "metar": "METAR LKMT 220930Z 00000KT CAVOK M03/M09 Q1003 NOSIG",
      "taf": "TAF LKMT 220500Z 2206/2306 VRB02KT CAVOK"
    },
    {
      "icao": "LKPR",
      "alert": "OK",
      "vis_m": 9999,
      "fzfg": false,
      "metar_trigger": false,
      "taf_trigger": false,
      "metar": "METAR LKPR 220930Z 15005KT 9999 BKN015 M06/M08 Q1001 NOSIG",
      "taf": "TAF LKPR 220800Z 2209/2315 13006KT 5000 BR BKN015"
    },
    {
      "icao": "LLBG",
      "alert": "OK",
      "vis_m": 9999,
      "fzfg": false,
      "metar_trigger": false,
      "taf_trigger": false,
      "metar": "METAR LLBG 220920Z 11013KT CAVOK 21/01 Q1013 TEMPO 10020G30KT RMK BKN110 FCST 1500FT-WIND 100/30KT",
      "taf": "TAF LLBG 220504Z 2206/2306 10010KT CAVOK"
    },
    {
      "icao": "LMML",
      "alert": "OK",
      "vis_m": 9999,
      "fzfg": false,
      "metar_trigger": false,
      "taf_trigger": false,
      "metar": "METAR LMML 220945Z 29012KT 9999 FEW016 14/12 Q1002 NOSIG",
      "taf": "TAF LMML 220500Z 2206/2306 30012KT 9999 FEW017"
    },
    {
      "icao": "LOWW",
      "alert": "OK",
      "vis_m": 5000,
      "fzfg": false,
      "metar_trigger": false,
      "taf_trigger": false,
      "metar": "METAR LOWW 220920Z 14011KT 5000 BR BKN006 M05/M07 Q1003 TEMPO 4000 BR OVC005",
      "taf": ""
    },
    {
      "icao": "LPFR",
      "alert": "OK",
      "vis_m": 9999,
      "fzfg": false,
      "metar_trigger": false,
      "taf_trigger": false,
      "metar": "METAR LPFR 220930Z VRB01KT 9999 FEW020 BKN040 13/10 Q1012",
      "taf": "TAF LPFR 220500Z 2206/2306 29010KT 9999 SCT035"
    },
    {
      "icao": "LPMA",
      "alert": "OK",
      "vis_m": 9999,
      "fzfg": false,
      "metar_trigger": false,
      "taf_trigger": false,
      "metar": "METAR LPMA 220930Z VRB02KT 9999 FEW013 18/15 Q1019",
      "taf": "TAF LPMA 220500Z 2206/2306 VRB05KT 9999 SCT015"
    },
    {
      "icao": "LPPR",
      "alert": "OK",
      "vis_m": 9999,
      "fzfg": false,
      "metar_trigger": false,
      "taf_trigger": false,
      "metar": "METAR LPPR 220930Z 21004KT 9999 FEW018 SCT024 11/07 Q1006",
      "taf": "TAF LPPR 220500Z 2206/2306 32010KT 9999 BKN035"
    },
    {
      "icao": "LPPS",
      "alert": "OK",
      "vis_m": 9999,
      "fzfg": false,
      "metar_trigger": false,
      "taf_trigger": false,
      "metar": "METAR LPPS 220930Z 31011KT 9999 SCT006 SCT030 17/16 Q1019",
      "taf": "TAF LPPS 220500Z 2206/2312 30015KT 9999 SCT015"
    },
    {
      "icao": "LPPT",
      "alert": "OK",
      "vis_m": 9999,
      "fzfg": false,
      "metar_trigger": false,
      "taf_trigger": false,
      "metar": "METAR LPPT 220930Z 24005KT 9999 FEW025 12/09 Q1009",
      "taf": "TAF LPPT 220500Z 2206/2312 25008KT 9999 SCT020"
    },
    {
      "icao": "LQBK",
      "alert": "OK",
      "vis_m": 3500,
      "fzfg": false,
      "metar_trigger": false,
      "taf_trigger": false,
      "metar": "METAR LQBK 220930Z VRB02KT 3500 BR OVC005 M04/M05 Q1004 NOSIG",
      "taf": "TAF LQBK 220500Z 2206/2306 VRB02KT 7000 SCT012 BKN035 TX01/2213Z TNM04/2206Z"
    },
    {
      "icao": "LQSA",
      "alert": "OK",
      "vis_m": 3000,
      "fzfg": false,
      "metar_trigger": false,
      "taf_trigger": false,
      "metar": "METAR LQSA 220930Z 00000KT 3000 BR SCT008 01/M05 Q1002 NOSIG",
      "taf": "TAF LQSA 220500Z 2206/2306 VRB02KT 4000 BR FEW010 BKN045 TX01/2214Z TNM04/2206Z"
    },
    {
      "icao": "LQTZ",
      "alert": "OK",
      "vis_m": 4000,
      "fzfg": false,
      "metar_trigger": false,
      "taf_trigger": false,
      "metar": "METAR LQTZ 220930Z VRB02KT 4000 BR FEW005 M03/M05 Q1003",
      "taf": "TAF LQTZ 220500Z 2206/2306 VRB02KT 6000 SCT012 BKN045 TX01/2213Z TNM06/2206Z"
    },
    {
      "icao": "LRBC",
      "alert": "OK",
      "vis_m": 9999,
      "fzfg": false,
      "metar_trigger": false,
      "taf_trigger": false,
      "metar": "METAR LRBC 220930Z 15011KT 9999 OVC016 02/M00 Q1007",
      "taf": "TAF LRBC 220800Z 2209/2218 15012KT 9999 BKN015"
    },
    {
      "icao": "LRBS",
      "alert": "OK",
      "vis_m": 3000,
      "fzfg": false,
      "metar_trigger": false,
      "taf_trigger": false,
      "metar": "METAR LRBS 220930Z 04004KT 010V070 3000 -RADZ BR OVC003 01/00 Q1006 NOSIG",
      "taf": ""
    },
    {
      "icao": "LRBV",
      "alert": "OK",
      "vis_m": 9999,
      "fzfg": false,
      "metar_trigger": false,
      "taf_trigger": false,
      "metar": "METAR LRBV 220930Z VRB02KT 9999 BKN038 SCT083 00/M03 Q1003",
      "taf": "TAF LRBV 220800Z 2209/2218 VRB04KT 9999 SCT040"
    },
    {
      "icao": "LRCL",
      "alert": "OK",
      "vis_m": 5000,
      "fzfg": false,
      "metar_trigger": false,
      "taf_trigger": false,
      "metar": "METAR LRCL 220930Z 11004KT 5000 BR OVC060 M03/M07 Q1005",
      "taf": "TAF LRCL 220800Z 2209/2218 VRB04KT 5000 BR BKN065"
    },
    {
      "icao": "LRCV",
      "alert": "OK",
      "vis_m": 3000,
      "fzfg": false,
      "metar_trigger": false,
      "taf_trigger": false,
      "metar": "METAR LRCV 220930Z 04003KT 3000 -SN BR SCT002 OVC010 01/01 Q1006",
      "taf": "TAF LRCV 220800Z 2209/2218 VRB04KT 1500 SN BR OVC002"
    },
    {
      "icao": "LRIA",
      "alert": "OK",
      "vis_m": 9999,
      "fzfg": false,
      "metar_trigger": false,
      "taf_trigger": false,
      "metar": "METAR LRIA 220930Z 11011KT 9999 FEW021 02/M01 Q1008",
      "taf": "TAF LRIA 220800Z 2209/2218 12012KT CAVOK"
    },
    {
      "icao": "LROP",
      "alert": "OK",
      "vis_m": 5000,
      "fzfg": false,
      "metar_trigger": false,
      "taf_trigger": false,
      "metar": "METAR LROP 220930Z 04006KT 5000 -DZ BR OVC004 01/01 Q1006 NOSIG",
      "taf": ""
    },
    {
      "icao": "LRSB",
      "alert": "OK",
      "vis_m": 9999,
      "fzfg": false,
      "metar_trigger": false,
      "taf_trigger": false,
      "metar": "METAR LRSB 220930Z 35004KT 9999 BKN050 M01/M07 Q1004",
      "taf": "TAF LRSB 220500Z 2206/2306 VRB04KT 9999 SCT075"
    },
    {
      "icao": "LRSM",
      "alert": "OK",
      "vis_m": 9999,
      "fzfg": false,
      "metar_trigger": false,
      "taf_trigger": false,
      "metar": "METAR LRSM 220930Z 06004KT CAVOK M02/M07 Q1006",
      "taf": "TAF LRSM 220800Z 2209/2218 VRB04KT CAVOK"
    },
    {
      "icao": "LRSV",
      "alert": "OK",
      "vis_m": 9999,
      "fzfg": false,
      "metar_trigger": false,
      "taf_trigger": false,
      "metar": "METAR LRSV 220930Z 17010KT 9999 BKN007 M00/M00 Q1004",
      "taf": "TAF LRSV 220800Z 2209/2218 15008KT 9999 BKN010"
    },
    {
      "icao": "LRTM",
      "alert": "OK",
      "vis_m": 2800,
      "fzfg": false,
      "metar_trigger": false,
      "taf_trigger": false,
      "metar": "METAR LRTM 220930Z VRB02KT 2800 BR NSC M05/M09 Q1005",
      "taf": "TAF LRTM 220800Z 2209/2218 VRB04KT 3000 BR NSC"
    },
    {
      "icao": "LRTR",
      "alert": "OK",
      "vis_m": 8000,
      "fzfg": false,
      "metar_trigger": false,
      "taf_trigger": false,
      "metar": "METAR LRTR 220930Z 00000KT 8000 BKN045 02/M04 Q1005",
      "taf": "TAF LRTR 220500Z 2206/2306 VRB04KT 9999 BKN045"
    },
    {
      "icao": "LTAC",
      "alert": "OK",
      "vis_m": 6000,
      "fzfg": false,
      "metar_trigger": false,
      "taf_trigger": false,
      "metar": "METAR LTAC 220920Z 03009KT 6000 -SN SCT010 BKN021 BKN080 M02/M03 Q1013 TEMPO 4000 BR RMK RWY21C 03010KT RWY03L 03008KT RWY21R 02010KT RWY03R 01008KT RWY21L 02010KT",
      "taf": ""
    },
    {
      "icao": "LTFM",
      "alert": "OK",
      "vis_m": 9999,
      "fzfg": false,
      "metar_trigger": false,
      "taf_trigger": false,
      "metar": "METAR LTFM 220920Z 17019KT 9999 SCT040 BKN100 10/04 Q1004 NOSIG RMK RWY17L 17017KT RWY34L 17019KT RWY16R 17017KT RWY36 17018KT RWY18 18020KT",
      "taf": "TAF LTFM 220440Z 2206/2312 11006KT 9999 BKN040 BKN090"
    },
    {
      "icao": "LUKK",
      "alert": "OK",
      "vis_m": 9999,
      "fzfg": false,
      "metar_trigger": false,
      "taf_trigger": false,
      "metar": "METAR LUKK 220930Z 10009KT 9999 OVC028 01/M00 Q1009 NOSIG",
      "taf": "TAF LUKK 220521Z 2206/2306 13009KT 9999 BKN015"
    },
    {
      "icao": "LWOH",
      "alert": "OK",
      "vis_m": null,
      "fzfg": false,
      "metar_trigger": false,
      "taf_trigger": false,
      "metar": "",
      "taf": "TAF LWOH 220805Z 2209/2309 VRB02KT 9999 BKN040"
    },
    {
      "icao": "LWSK",
      "alert": "OK",
      "vis_m": null,
      "fzfg": false,
      "metar_trigger": false,
      "taf_trigger": false,
      "metar": "",
      "taf": "TAF LWSK 220805Z 2209/2309 VRB02KT 1500 BR FEW010 BKN010 OVC015"
    },
    {
      "icao": "LYBE",
      "alert": "OK",
      "vis_m": 300,
      "fzfg": true,
      "metar_trigger": false,
      "taf_trigger": false,
      "metar": "METAR LYBE 220930Z 01003KT 320V040 0300 R12L/0325N R30R/0800U FZFG OVC002 M05/M06 Q1004 BECMG 0500",
      "taf": ""
    },
    {
      "icao": "LYNI",
      "alert": "OK",
      "vis_m": 9999,
      "fzfg": false,
      "metar_trigger": false,
      "taf_trigger": false,
      "metar": "METAR LYNI 220930Z 22003KT 190V270 9999 BKN033 BKN085 04/M01 Q1004 TEMPO 10010KT",
      "taf": "TAF LYNI 220500Z 2206/2306 10015KT 9999 BKN040 BKN080 TX05/2213Z TNM02/2305Z"
    },
    {
      "icao": "LYPG",
      "alert": "OK",
      "vis_m": 8000,
      "fzfg": false,
      "metar_trigger": false,
      "taf_trigger": false,
      "metar": "METAR LYPG 220930Z VRB02KT 8000 FEW010 SCT050 BKN070 07/05 Q1002 NOSIG",
      "taf": "TAF LYPG 220500Z 2206/2306 12005KT 8000 FEW010 BKN050 OVC073 TX11/2213Z TN04/2305Z"
    },
    {
      "icao": "LZIB",
      "alert": "OK",
      "vis_m": 4500,
      "fzfg": false,
      "metar_trigger": false,
      "taf_trigger": false,
      "metar": "METAR LZIB 220930Z 07005KT 040V110 4500 BR BKN008 M05/M07 Q1004 NOSIG",
      "taf": ""
    },
    {
      "icao": "LZKZ",
      "alert": "OK",
      "vis_m": 9999,
      "fzfg": false,
      "metar_trigger": false,
      "taf_trigger": false,
      "metar": "METAR LZKZ 220930Z 16003KT 9999 BKN036 M03/M05 Q1005 NOSIG",
      "taf": "TAF LZKZ 220515Z 2206/2306 VRB02KT 9999 SCT030"
    },
    {
      "icao": "LZTT",
      "alert": "OK",
      "vis_m": 9999,
      "fzfg": false,
      "metar_trigger": false,
      "taf_trigger": false,
      "metar": "METAR LZTT 220930Z VRB02KT 9999 FEW033 SCT053 BKN073 M03/M09 Q1002 NOSIG",
      "taf": "TAF LZTT 220515Z 2206/2306 VRB02KT 9999 SCT020 BKN050"
    },
    {
      "icao": "OEJN",
      "alert": "OK",
      "vis_m": 9999,
      "fzfg": false,
      "metar_trigger": false,
      "taf_trigger": false,
      "metar": "METAR OEJN 220900Z 16005KT CAVOK 32/07 Q1013 NOSIG",
      "taf": "TAF OEJN 220500Z 2206/2312 17015KT 7000 NSC"
    },
    {
      "icao": "OEMA",
      "alert": "OK",
      "vis_m": 9999,
      "fzfg": false,
      "metar_trigger": false,
      "taf_trigger": false,
      "metar": "METAR OEMA 220900Z 10015KT CAVOK 17/M07 Q1024 NOSIG",
      "taf": "TAF OEMA 220500Z 2206/2312 10018KT 7000 NSC"
    },
    {
      "icao": "OJAI",
      "alert": "OK",
      "vis_m": 4000,
      "fzfg": false,
      "metar_trigger": false,
      "taf_trigger": false,
      "metar": "METAR OJAI 220900Z 07016KT 4000 BLDU NSC 08/M06 Q1021 NOSIG",
      "taf": "TAF OJAI 220500Z 2206/2312 11014KT 5000 HZ FEW035"
    },
    {
      "icao": "OMAA",
      "alert": "OK",
      "vis_m": 9999,
      "fzfg": false,
      "metar_trigger": false,
      "taf_trigger": false,
      "metar": "METAR OMAA 220930Z 34017KT 310V010 CAVOK 20/01 Q1021 NOSIG",
      "taf": "TAF OMAA 220500Z 2206/2312 30015KT 8000 FEW040"
    },
    {
      "icao": "OMDB",
      "alert": "OK",
      "vis_m": 9999,
      "fzfg": false,
      "metar_trigger": false,
      "taf_trigger": false,
      "metar": "METAR OMDB 220930Z 36011KT 310V040 CAVOK 20/M03 Q1021 NOSIG",
      "taf": "TAF OMDB 220500Z 2206/2312 35014KT 8000 NSC"
    },
    {
      "icao": "UAAA",
      "alert": "OK",
      "vis_m": 4200,
      "fzfg": false,
      "metar_trigger": false,
      "taf_trigger": false,
      "metar": "METAR UAAA 220930Z 06002MPS 4200 BR SCT100 BKN200 M07/M10 Q1010 NOSIG",
      "taf": "TAF UAAA 220501Z 2206/2306 32003MPS 3100 BR FU SCT011 BKN050 TXM04/2208Z TNM10/2302Z"
    },
    {
      "icao": "UBBB",
      "alert": "OK",
      "vis_m": 9999,
      "fzfg": false,
      "metar_trigger": false,
      "taf_trigger": false,
      "metar": "METAR UBBB 220930Z 20018KT CAVOK 07/M01 Q1021 NOSIG",
      "taf": "TAF UBBB 220504Z 2206/2306 20010KT CAVOK TX07/2211Z TNM02/2300Z"
    },
    {
      "icao": "UDSG",
      "alert": "OK",
      "vis_m": 9999,
      "fzfg": false,
      "metar_trigger": false,
      "taf_trigger": false,
      "metar": "METAR UDSG 220930Z 20002KT 9999 NSC M12/M17 Q1023 NOSIG",
      "taf": "TAF UDSG 220458Z 2206/2306 VRB06KT 9999 FEW050"
    },
    {
      "icao": "UDYZ",
      "alert": "OK",
      "vis_m": 9999,
      "fzfg": false,
      "metar_trigger": false,
      "taf_trigger": false,
      "metar": "METAR UDYZ 220930Z VRB01KT 9999 NSC M03/M09 Q1027 NOSIG",
      "taf": "TAF UDYZ 220500Z 2206/2306 20006KT 6000 FEW040"
    },
    {
      "icao": "UGKO",
      "alert": "OK",
      "vis_m": 9999,
      "fzfg": false,
      "metar_trigger": false,
      "taf_trigger": false,
      "metar": "METAR UGKO 220930Z 09022KT CAVOK 08/M05 Q1015 NOSIG",
      "taf": "TAF UGKO 220500Z 2206/2306 08017KT CAVOK TX08/2211Z TN03/2206Z"
    }
  ]
}