{
  "ts_utc": "2026-02-13T12:27:16Z",
  "threshold_m": 150,
  "source": "stations_override.txt (ICAO list) + aviationweather.gov (METAR/TAF raw)",
  "station_count": 159,
  "stations": [
    {
      "icao": "BIKF",
      "alert": "OK",
      "vis_m": 9999,
      "fzfg": false,
      "metar_trigger": false,
      "taf_trigger": false,
      "metar": "METAR BIKF 131200Z 01013KT 9999 FEW030 SCT210 M03/M08 Q1008",
      "taf": "TAF BIKF 131032Z 1312/1412 36010KT 9999 FEW025 SCT040 TXM02/1412Z TNM10/1324Z"
    },
    {
      "icao": "BKPR",
      "alert": "OK",
      "vis_m": null,
      "fzfg": false,
      "metar_trigger": false,
      "taf_trigger": false,
      "metar": "",
      "taf": "TAF BKPR 131130Z 1312/1412 01008KT 9999 BKN040"
    },
    {
      "icao": "EBCI",
      "alert": "OK",
      "vis_m": 7000,
      "fzfg": false,
      "metar_trigger": false,
      "taf_trigger": false,
      "metar": "METAR EBCI 131220Z 32004KT 300V010 7000 SCT008 BKN014 08/06 Q0992 TEMPO 4500 -SHRA",
      "taf": "TAF EBCI 131123Z 1312/1418 04007KT 7000 SCT004 BKN009"
    },
    {
      "icao": "EDDB",
      "alert": "OK",
      "vis_m": 9999,
      "fzfg": false,
      "metar_trigger": false,
      "taf_trigger": false,
      "metar": "METAR EDDB 131220Z AUTO 36005KT 330V030 9999 -SNRA OVC014 02/M00 Q0992 TEMPO 4500 -RASN BKN008",
      "taf": "TAF EDDB 131100Z 1312/1412 01007KT 9999 BKN010"
    },
    {
      "icao": "EDDH",
      "alert": "OK",
      "vis_m": 3300,
      "fzfg": false,
      "metar_trigger": false,
      "taf_trigger": false,
      "metar": "METAR EDDH 131220Z AUTO 02008KT 340V060 3300 -SN BR SCT009 BKN014 BKN022 M00/M02 Q0995 RESN TEMPO 5000 -SN BKN008",
      "taf": "TAF EDDH 131100Z 1312/1418 03007KT 9999 SCT010 BKN015"
    },
    {
      "icao": "EDDK",
      "alert": "OK",
      "vis_m": 9999,
      "fzfg": false,
      "metar_trigger": false,
      "taf_trigger": false,
      "metar": "METAR EDDK 131220Z AUTO VRB02KT 9999 BKN015 OVC020 07/04 Q0992 TEMPO 30005KT RADZ BKN013",
      "taf": "TAF EDDK 131100Z 1312/1418 30005KT 9999 SCT015 OVC020"
    },
    {
      "icao": "EDDN",
      "alert": "OK",
      "vis_m": 9999,
      "fzfg": false,
      "metar_trigger": false,
      "taf_trigger": false,
      "metar": "METAR EDDN 131220Z AUTO 25012KT 230V290 9999 FEW031 BKN040 08/02 Q0993 NOSIG",
      "taf": "TAF EDDN 131100Z 1312/1412 25010KT 9999 BKN025"
    },
    {
      "icao": "EDDS",
      "alert": "OK",
      "vis_m": 9999,
      "fzfg": false,
      "metar_trigger": false,
      "taf_trigger": false,
      "metar": "METAR EDDS 131220Z AUTO 23006KT 150V270 9999 -SHRA FEW020 SCT026 BKN036 FEW///TCU 08/04 Q0993 NOSIG",
      "taf": "TAF EDDS 131100Z 1312/1412 22006KT 9999 BKN030"
    },
    {
      "icao": "EDFH",
      "alert": "OK",
      "vis_m": 9999,
      "fzfg": false,
      "metar_trigger": false,
      "taf_trigger": false,
      "metar": "METAR EDFH 131220Z 25009KT 9999 BKN011 BKN027 06/04 Q0992",
      "taf": "TAF EDFH 131100Z 1312/1412 25007KT 9999 BKN005"
    },
    {
      "icao": "EDJA",
      "alert": "OK",
      "vis_m": 9999,
      "fzfg": false,
      "metar_trigger": false,
      "taf_trigger": false,
      "metar": "METAR EDJA 131220Z 24007KT 9999 SCT028 08/02 Q0994",
      "taf": "TAF EDJA 131100Z 1312/1321 24012KT 9999 FEW025"
    },
    {
      "icao": "EDLW",
      "alert": "OK",
      "vis_m": 9999,
      "fzfg": false,
      "metar_trigger": false,
      "taf_trigger": false,
      "metar": "METAR EDLW 131220Z 27005KT 220V320 9999 FEW015 OVC017 05/01 Q0992",
      "taf": "TAF EDLW 131100Z 1312/1412 30008KT 9999 SCT010 BKN015"
    },
    {
      "icao": "EDNY",
      "alert": "OK",
      "vis_m": 9999,
      "fzfg": false,
      "metar_trigger": false,
      "taf_trigger": false,
      "metar": "METAR EDNY 131220Z 26007KT CAVOK 09/02 Q0994",
      "taf": "TAF EDNY 131100Z 1312/1321 24007KT 9999 FEW045"
    },
    {
      "icao": "EDSB",
      "alert": "OK",
      "vis_m": 9999,
      "fzfg": false,
      "metar_trigger": false,
      "taf_trigger": false,
      "metar": "METAR EDSB 131220Z 21010KT 9999 FEW045 10/05 Q0993",
      "taf": "TAF EDSB 131100Z 1312/1412 21010KT 9999 BKN030"
    },
    {
      "icao": "EETN",
      "alert": "OK",
      "vis_m": 9999,
      "fzfg": false,
      "metar_trigger": false,
      "taf_trigger": false,
      "metar": "METAR EETN 131220Z 07011KT CAVOK M09/M14 Q1000 NOSIG",
      "taf": "TAF EETN 131130Z 1312/1412 06014KT CAVOK"
    },
    {
      "icao": "EFTU",
      "alert": "OK",
      "vis_m": 9999,
      "fzfg": false,
      "metar_trigger": false,
      "taf_trigger": false,
      "metar": "METAR EFTU 131220Z AUTO 06006KT 030V090 CAVOK M11/M15 Q1003",
      "taf": "TAF EFTU 131123Z 1312/1412 07005KT CAVOK"
    },
    {
      "icao": "EGBB",
      "alert": "OK",
      "vis_m": 6000,
      "fzfg": false,
      "metar_trigger": false,
      "taf_trigger": false,
      "metar": "METAR EGBB 131220Z 04010KT 6000 -RA BKN007 03/02 Q0993",
      "taf": "TAF EGBB 131057Z 1312/1412 07008KT 9999 BKN014"
    },
    {
      "icao": "EGGP",
      "alert": "OK",
      "vis_m": 9999,
      "fzfg": false,
      "metar_trigger": false,
      "taf_trigger": false,
      "metar": "METAR EGGP 131220Z 05016KT 9999 -RA BKN017 OVC023 03/00 Q0995",
      "taf": "TAF EGGP 131056Z 1312/1412 04012KT 9999 BKN025"
    },
    {
      "icao": "EGGW",
      "alert": "OK",
      "vis_m": 5000,
      "fzfg": false,
      "metar_trigger": false,
      "taf_trigger": false,
      "metar": "METAR EGGW 131220Z 08008KT 5000 BR OVC002 05/05 Q0991",
      "taf": "TAF EGGW 131108Z 1312/1412 07008KT 4000 BR BKN003"
    },
    {
      "icao": "EGKK",
      "alert": "OK",
      "vis_m": 9999,
      "fzfg": false,
      "metar_trigger": false,
      "taf_trigger": false,
      "metar": "METAR EGKK 131220Z 06008KT 030V090 9999 FEW009 BKN013 08/07 Q0990",
      "taf": "TAF EGKK 131059Z 1312/1418 09006KT 9999 SCT030"
    },
    {
      "icao": "EGNM",
      "alert": "OK",
      "vis_m": 2500,
      "fzfg": false,
      "metar_trigger": false,
      "taf_trigger": false,
      "metar": "METAR EGNM 131220Z 02011KT 2500 -SN BR OVC003 M00/M00 Q0996",
      "taf": "TAF EGNM 131055Z 1312/1412 06010KT 9999 BKN005"
    },
    {
      "icao": "EGPD",
      "alert": "OK",
      "vis_m": 9999,
      "fzfg": false,
      "metar_trigger": false,
      "taf_trigger": false,
      "metar": "METAR EGPD 131220Z COR AUTO 31013KT 9999 NCD 03/M00 Q1001 NOSIG",
      "taf": "TAF EGPD 131055Z 1312/1412 32005KT 9999 FEW015"
    },
    {
      "icao": "EGPF",
      "alert": "OK",
      "vis_m": 9999,
      "fzfg": false,
      "metar_trigger": false,
      "taf_trigger": false,
      "metar": "METAR EGPF 131220Z AUTO 04008KT 350V080 9999 NCD 05/M04 Q1003",
      "taf": "TAF EGPF 131058Z 1312/1412 03010KT 9999 FEW045"
    },
    {
      "icao": "EHBK",
      "alert": "OK",
      "vis_m": 3800,
      "fzfg": false,
      "metar_trigger": false,
      "taf_trigger": false,
      "metar": "METAR EHBK 131155Z AUTO 01005KT 320V040 3800 DZ SCT002 SCT003 BKN005 06/05 Q0992 TEMPO 3500 SCT004 BKN006",
      "taf": "TAF EHBK 131116Z 1312/1418 05003KT 9999 SCT008 BKN016"
    },
    {
      "icao": "EHEH",
      "alert": "OK",
      "vis_m": 9999,
      "fzfg": false,
      "metar_trigger": false,
      "taf_trigger": false,
      "metar": "METAR EHEH 131155Z AUTO 04007KT 350V110 9999 SCT029 OVC071 05/02 Q0993 BLU NOSIG RMK TREND REMOTE BY EHWX",
      "taf": "TAF EHEH 131122Z 1312/1418 03007KT BKN030"
    },
    {
      "icao": "EKBI",
      "alert": "OK",
      "vis_m": 9999,
      "fzfg": false,
      "metar_trigger": false,
      "taf_trigger": false,
      "metar": "METAR EKBI 131220Z AUTO 36013KT 9999 FEW038/// M04/M08 Q0998",
      "taf": "TAF EKBI 131127Z 1312/1412 03010KT 9999 BKN040"
    },
    {
      "icao": "EKCH",
      "alert": "OK",
      "vis_m": 9999,
      "fzfg": false,
      "metar_trigger": false,
      "taf_trigger": false,
      "metar": "METAR EKCH 131220Z AUTO 01011KT 9999 FEW019/// OVC046/// M02/M06 Q0996 NOSIG",
      "taf": "TAF EKCH 131127Z 1312/1412 02015KT 9999 FEW018 BKN035"
    },
    {
      "icao": "ENAL",
      "alert": "OK",
      "vis_m": 9999,
      "fzfg": false,
      "metar_trigger": false,
      "taf_trigger": false,
      "metar": "METAR ENAL 131220Z 16006KT 9999 FEW025CB 01/M07 Q0999",
      "taf": "TAF ENAL 131100Z 1312/1321 14008KT 9999 FEW025"
    },
    {
      "icao": "ENBR",
      "alert": "OK",
      "vis_m": 9999,
      "fzfg": false,
      "metar_trigger": false,
      "taf_trigger": false,
      "metar": "METAR ENBR 131220Z 14009KT 9999 VCSH BKN024 M01/M06 Q0998 TEMPO 1500 -SHSN VV014 RMK WIND 1200FT 14023KT",
      "taf": "TAF ENBR 131100Z 1312/1412 14010KT 9999 SCT025 BKN050"
    },
    {
      "icao": "ENGM",
      "alert": "OK",
      "vis_m": 9999,
      "fzfg": false,
      "metar_trigger": false,
      "taf_trigger": false,
      "metar": "METAR ENGM 131220Z VRB02KT 9999 VCSH FEW018 BKN026 M06/M13 Q1001 NOSIG",
      "taf": "TAF ENGM 131100Z 1312/1412 01003KT 9999 FEW020 BKN040"
    },
    {
      "icao": "ENHD",
      "alert": "OK",
      "vis_m": 9999,
      "fzfg": false,
      "metar_trigger": false,
      "taf_trigger": false,
      "metar": "METAR ENHD 131220Z 15013KT 9999 VCSH SCT021 BKN043 M01/M06 Q0999",
      "taf": "TAF ENHD 131100Z 1312/1321 14014KT 9999 FEW008 SCT020CB BKN030"
    },
    {
      "icao": "ENTC",
      "alert": "OK",
      "vis_m": 600,
      "fzfg": false,
      "metar_trigger": false,
      "taf_trigger": false,
      "metar": "METAR ENTC 131220Z 20015KT 0600 R36/1000D R18/1600D SN VV004 M05/M07 Q0995 TEMPO 1200 SHSN VV008 RMK WIND 2600FT 25006KT",
      "taf": ""
    },
    {
      "icao": "ENTO",
      "alert": "OK",
      "vis_m": 9999,
      "fzfg": false,
      "metar_trigger": false,
      "taf_trigger": false,
      "metar": "METAR ENTO 131220Z 01006KT 9999 -SN FEW022 OVC039 M06/M10 Q1002 NOSIG",
      "taf": ""
    },
    {
      "icao": "ENVA",
      "alert": "OK",
      "vis_m": 9999,
      "fzfg": false,
      "metar_trigger": false,
      "taf_trigger": false,
      "metar": "METAR ENVA 131220Z 10003KT 9999 SCT049 M08/M14 Q1000 NOSIG RMK WIND 670FT 14004KT",
      "taf": "TAF ENVA 131100Z 1312/1412 10008KT CAVOK"
    },
    {
      "icao": "ENZV",
      "alert": "OK",
      "vis_m": 9999,
      "fzfg": false,
      "metar_trigger": false,
      "taf_trigger": false,
      "metar": "METAR ENZV 131220Z 15012KT 9999 BKN030 M01/M09 Q1000 NOSIG",
      "taf": "TAF ENZV 131100Z 1312/1412 16010KT 9999 BKN030"
    },
    {
      "icao": "EPGD",
      "alert": "OK",
      "vis_m": 2200,
      "fzfg": false,
      "metar_trigger": false,
      "taf_trigger": false,
      "metar": "METAR EPGD 131200Z 36010KT 2200 -SN BR BKN004 M01/M01 Q0986 RESN",
      "taf": "TAF EPGD 131130Z 1312/1412 01012KT 4000 -SN BR OVC002"
    },
    {
      "icao": "EPKK",
      "alert": "OK",
      "vis_m": 9999,
      "fzfg": false,
      "metar_trigger": false,
      "taf_trigger": false,
      "metar": "METAR EPKK 131200Z 26013KT 9999 FEW029 BKN044 09/04 Q0990",
      "taf": "TAF EPKK 131130Z 1312/1412 24012KT 9999 BKN030"
    },
    {
      "icao": "EPKT",
      "alert": "OK",
      "vis_m": 9999,
      "fzfg": false,
      "metar_trigger": false,
      "taf_trigger": false,
      "metar": "METAR EPKT 131200Z 23014KT 9999 FEW023 FEW033TCU BKN038 09/04 Q0989",
      "taf": "TAF EPKT 131130Z 1312/1412 24012KT 9999 BKN030"
    },
    {
      "icao": "EPLB",
      "alert": "OK",
      "vis_m": 9999,
      "fzfg": false,
      "metar_trigger": false,
      "taf_trigger": false,
      "metar": "METAR EPLB 131200Z 25013KT 9999 BKN024 05/03 Q0988",
      "taf": "TAF EPLB 131130Z 1312/1412 25010KT 9999 BKN020"
    },
    {
      "icao": "EPMO",
      "alert": "OK",
      "vis_m": 9999,
      "fzfg": false,
      "metar_trigger": false,
      "taf_trigger": false,
      "metar": "METAR EPMO 131200Z 24010KT 9999 BKN008 03/03 Q0986",
      "taf": "TAF EPMO 131130Z 1312/1412 24011KT 9999 BKN007"
    },
    {
      "icao": "EPPO",
      "alert": "OK",
      "vis_m": 9999,
      "fzfg": false,
      "metar_trigger": false,
      "taf_trigger": false,
      "metar": "METAR EPPO 131200Z 29015KT 9999 OVC006 01/M00 Q0989",
      "taf": "TAF EPPO 131130Z 1312/1412 26012KT 9999 OVC007"
    },
    {
      "icao": "EPRA",
      "alert": "OK",
      "vis_m": 9999,
      "fzfg": false,
      "metar_trigger": false,
      "taf_trigger": false,
      "metar": "METAR EPRA 131200Z 24011KT 9999 BKN026 07/02 Q0987",
      "taf": "TAF EPRA 131130Z 1312/1321 23012KT 9999 BKN020"
    },
    {
      "icao": "EPRZ",
      "alert": "OK",
      "vis_m": 9999,
      "fzfg": false,
      "metar_trigger": false,
      "taf_trigger": false,
      "metar": "METAR EPRZ 131200Z 25014KT 9999 SCT034 10/03 Q0990",
      "taf": "TAF EPRZ 131130Z 1312/1412 28014KT 9999 BKN030"
    },
    {
      "icao": "EPSC",
      "alert": "OK",
      "vis_m": 9999,
      "fzfg": false,
      "metar_trigger": false,
      "taf_trigger": false,
      "metar": "METAR EPSC 131200Z 34008KT 9999 OVC006 01/00 Q0991",
      "taf": "TAF EPSC 131130Z 1312/1412 35010KT 9999 BKN006"
    },
    {
      "icao": "EPSY",
      "alert": "OK",
      "vis_m": 1600,
      "fzfg": false,
      "metar_trigger": false,
      "taf_trigger": false,
      "metar": "METAR EPSY 131200Z 21009KT 1600 -RA BR OVC002 02/02 Q0983",
      "taf": ""
    },
    {
      "icao": "EPWA",
      "alert": "OK",
      "vis_m": 9999,
      "fzfg": false,
      "metar_trigger": false,
      "taf_trigger": false,
      "metar": "METAR EPWA 131200Z 24007KT 9999 BKN014 05/03 Q0986 TEMPO BKN015",
      "taf": "TAF EPWA 131130Z 1312/1412 24010KT 9999 BKN011"
    },
    {
      "icao": "EPWR",
      "alert": "OK",
      "vis_m": 9999,
      "fzfg": false,
      "metar_trigger": false,
      "taf_trigger": false,
      "metar": "METAR EPWR 131200Z 26013KT 9999 SCT018 BKN028 08/05 Q0989",
      "taf": "TAF EPWR 131130Z 1312/1412 25010KT 9999 BKN030"
    },
    {
      "icao": "ESGG",
      "alert": "OK",
      "vis_m": 9999,
      "fzfg": false,
      "metar_trigger": false,
      "taf_trigger": false,
      "metar": "METAR ESGG 131220Z 02013KT 9999 BKN035 OVC045 M07/M10 Q0998 RESN",
      "taf": "TAF ESGG 131130Z 1312/1412 03010KT 9999 -SN SCT020 BKN040"
    },
    {
      "icao": "ESKN",
      "alert": "OK",
      "vis_m": 9999,
      "fzfg": false,
      "metar_trigger": false,
      "taf_trigger": false,
      "metar": "METAR ESKN 131220Z 02010KT 9999 -SN BKN033 M05/M08 Q1000",
      "taf": "TAF ESKN 131130Z 1312/1412 02010KT 9000 -SN BKN030"
    },
    {
      "icao": "ESMS",
      "alert": "OK",
      "vis_m": 9999,
      "fzfg": false,
      "metar_trigger": false,
      "taf_trigger": false,
      "metar": "METAR ESMS 131220Z 03008KT 9999 FEW020 M02/M06 Q0994",
      "taf": "TAF ESMS 131127Z 1312/1412 02010KT 9999 FEW018 BKN045"
    },
    {
      "icao": "ESSA",
      "alert": "OK",
      "vis_m": 9999,
      "fzfg": false,
      "metar_trigger": false,
      "taf_trigger": false,
      "metar": "METAR ESSA 131220Z 04009KT 9999 FEW011 BKN020 M07/M11 Q1002 TEMPO BKN011",
      "taf": "TAF ESSA 131130Z 1312/1412 02010KT 9999 SCT012 BKN020"
    },
    {
      "icao": "EYKA",
      "alert": "OK",
      "vis_m": 5000,
      "fzfg": false,
      "metar_trigger": false,
      "taf_trigger": false,
      "metar": "METAR EYKA 131220Z 08004KT 5000 BR OVC002 02/02 Q0984",
      "taf": "TAF EYKA 131121Z 1312/1412 VRB03KT 3000 -RA BR OVC002"
    },
    {
      "icao": "EYPA",
      "alert": "OK",
      "vis_m": 9999,
      "fzfg": false,
      "metar_trigger": false,
      "taf_trigger": false,
      "metar": "METAR EYPA 131220Z 06014KT 9999 DRSN FEW041 M03/M07 Q0988",
      "taf": "TAF EYPA 131110Z 1312/1412 05013KT 9000 SCT010 BKN030"
    },
    {
      "icao": "EYVI",
      "alert": "OK",
      "vis_m": 1900,
      "fzfg": false,
      "metar_trigger": false,
      "taf_trigger": false,
      "metar": "METAR EYVI 131220Z 18005KT 150V210 1900 1300W -RA BR BKN001 02/02 Q0984 TEMPO 0600 -DZ FG",
      "taf": ""
    },
    {
      "icao": "GCFV",
      "alert": "OK",
      "vis_m": 9999,
      "fzfg": false,
      "metar_trigger": false,
      "taf_trigger": false,
      "metar": "METAR GCFV 131200Z 35015KT 320V020 9999 FEW025 BKN035 21/12 Q1025",
      "taf": "TAF GCFV 130800Z 1309/1409 36015KT 9999 BKN030 TX22/1314Z TN16/1406Z"
    },
    {
      "icao": "GCLP",
      "alert": "OK",
      "vis_m": 9999,
      "fzfg": false,
      "metar_trigger": false,
      "taf_trigger": false,
      "metar": "METAR GCLP 131200Z 36022KT 9999 SCT027 21/14 Q1025 NOSIG",
      "taf": "TAF GCLP 130800Z 1309/1409 36015KT 9999 SCT025 TX23/1314Z TN17/1406Z"
    },
    {
      "icao": "GCTS",
      "alert": "OK",
      "vis_m": 9999,
      "fzfg": false,
      "metar_trigger": false,
      "taf_trigger": false,
      "metar": "METAR GCTS 131200Z 22010KT 9999 BKN025 20/14 Q1025 NOSIG",
      "taf": "TAF GCTS 130800Z 1309/1409 20007KT 9999 SCT025 TX25/1314Z TN15/1406Z"
    },
    {
      "icao": "GMAD",
      "alert": "OK",
      "vis_m": 8000,
      "fzfg": false,
      "metar_trigger": false,
      "taf_trigger": false,
      "metar": "METAR GMAD 131200Z 26016KT 8000 SCT033 20/14 Q1020 NOSIG",
      "taf": "TAF GMAD 131100Z 1312/1418 28008KT 8000 BKN020"
    },
    {
      "icao": "GMMN",
      "alert": "OK",
      "vis_m": 9999,
      "fzfg": false,
      "metar_trigger": false,
      "taf_trigger": false,
      "metar": "METAR GMMN 131200Z 28017KT 9999 BKN020 16/13 Q1019 NOSIG",
      "taf": "TAF GMMN 131100Z 1312/1418 24016KT 9999 SCT010 BKN020"
    },
    {
      "icao": "GMMX",
      "alert": "OK",
      "vis_m": 8000,
      "fzfg": false,
      "metar_trigger": false,
      "taf_trigger": false,
      "metar": "METAR GMMX 131200Z 21010KT 170V250 8000 BKN023 17/11 Q1021 NOSIG",
      "taf": "TAF GMMX 131100Z 1312/1418 24008KT 8000 BKN026"
    },
    {
      "icao": "HEGN",
      "alert": "OK",
      "vis_m": 9999,
      "fzfg": false,
      "metar_trigger": false,
      "taf_trigger": false,
      "metar": "METAR HEGN 131100Z 11012KT CAVOK 25/14 Q1011 NOSIG",
      "taf": "TAF HEGN 131100Z 1312/1418 26010G20KT 6000 FEW025"
    },
    {
      "icao": "HEMA",
      "alert": "OK",
      "vis_m": 9999,
      "fzfg": false,
      "metar_trigger": false,
      "taf_trigger": false,
      "metar": "METAR HEMA 131100Z 09019KT CAVOK 27/03 Q1012 NOSIG",
      "taf": "TAF HEMA 131100Z 1312/1418 25010G20KT 6000 FEW025"
    },
    {
      "icao": "HESH",
      "alert": "OK",
      "vis_m": 9999,
      "fzfg": false,
      "metar_trigger": false,
      "taf_trigger": false,
      "metar": "METAR HESH 131100Z 15006KT CAVOK 26/17 Q1013 NOSIG",
      "taf": "TAF HESH 131100Z 1312/1418 23010G20KT 6000 FEW025"
    },
    {
      "icao": "HESX",
      "alert": "OK",
      "vis_m": 400,
      "fzfg": false,
      "metar_trigger": false,
      "taf_trigger": false,
      "metar": "METAR HESX 131100Z 19028KT 0400 R34 R1500 SS NSC 25/01 Q1005 NOSIG",
      "taf": "TAF HESX 131100Z 1312/1418 25015G25KT 6000 NSC"
    },
    {
      "icao": "LATI",
      "alert": "OK",
      "vis_m": 9999,
      "fzfg": false,
      "metar_trigger": false,
      "taf_trigger": false,
      "metar": "METAR LATI 131220Z 34007KT 300V010 9999 FEW030 BKN055 17/10 Q0990 NOSIG",
      "taf": "TAF LATI 131100Z 1312/1412 33008KT 9999 SCT030 TX17/1313Z TN08/1405Z"
    },
    {
      "icao": "LBPD",
      "alert": "OK",
      "vis_m": 9999,
      "fzfg": false,
      "metar_trigger": false,
      "taf_trigger": false,
      "metar": "METAR LBPD 131200Z AUTO 28007KT 9999 -RA BKN037/// OVC047/// 08/08 Q0989 BECMG 2500 RA",
      "taf": "TAF LBPD 131100Z 1312/1412 29008KT 5000 RA BKN012 OVC020"
    },
    {
      "icao": "LBSF",
      "alert": "OK",
      "vis_m": 9999,
      "fzfg": false,
      "metar_trigger": false,
      "taf_trigger": false,
      "metar": "METAR LBSF 131200Z 05006KT 9999 SCT026 BKN030 OVC054 10/05 Q0990 TEMPO 4000 BR",
      "taf": "TAF LBSF 131100Z 1312/1412 VRB04KT 7000 SCT012 BKN030"
    },
    {
      "icao": "LBWN",
      "alert": "OK",
      "vis_m": 2600,
      "fzfg": false,
      "metar_trigger": false,
      "taf_trigger": false,
      "metar": "METAR LBWN 131200Z 18003KT 140V220 2600 RA BR SCT011 SCT013 OVC023 09/09 Q0989 TEMPO 1500 RA BR",
      "taf": "TAF LBWN 131100Z 1312/1412 VRB04KT 3000 RA BR BKN005 OVC025"
    },
    {
      "icao": "LCLK",
      "alert": "OK",
      "vis_m": 4000,
      "fzfg": false,
      "metar_trigger": false,
      "taf_trigger": false,
      "metar": "METAR LCLK 131200Z 23017KT 4000 -RA FEW012 BKN040 14/12 Q1003 NOSIG",
      "taf": "TAF LCLK 131130Z 1312/1412 22022KT 9999 FEW020 SCT035"
    },
    {
      "icao": "LCPH",
      "alert": "OK",
      "vis_m": 9999,
      "fzfg": false,
      "metar_trigger": false,
      "taf_trigger": false,
      "metar": "METAR LCPH 131200Z 19012KT 170V240 9999 SCT020 SCT035 16/12 Q1002 NOSIG",
      "taf": "TAF LCPH 131130Z 1312/1412 22022KT 9999 FEW020 SCT035"
    },
    {
      "icao": "LEAL",
      "alert": "OK",
      "vis_m": 9999,
      "fzfg": false,
      "metar_trigger": false,
      "taf_trigger": false,
      "metar": "METAR LEAL 131200Z 25020G30KT 220V280 9999 FEW060 20/07 Q0995 NOSIG",
      "taf": "TAF LEAL 131100Z 1312/1412 27015KT 9999 FEW030 TX20/1313Z TN10/1406Z"
    },
    {
      "icao": "LEBB",
      "alert": "OK",
      "vis_m": 9999,
      "fzfg": false,
      "metar_trigger": false,
      "taf_trigger": false,
      "metar": "METAR LEBB 131200Z 28004KT 9999 -RA SCT026 BKN033 12/10 Q0989 NOSIG",
      "taf": "TAF LEBB 131100Z 1312/1412 30019KT 9999 SCT020 BKN030 TX11/1312Z TN08/1407Z"
    },
    {
      "icao": "LEBL",
      "alert": "OK",
      "vis_m": 3500,
      "fzfg": false,
      "metar_trigger": false,
      "taf_trigger": false,
      "metar": "METAR LEBL 131200Z 36004KT 3500 SHRA BR FEW010 FEW020TCU SCT025 BKN030 11/10 Q0991 NOSIG",
      "taf": "TAF LEBL 131100Z 1312/1412 18008KT 9999 BKN040 TX17/1312Z TN09/1406Z"
    },
    {
      "icao": "LECH",
      "alert": "OK",
      "vis_m": 9000,
      "fzfg": false,
      "metar_trigger": false,
      "taf_trigger": false,
      "metar": "METAR LECH 131200Z AUTO 29004KT 250V330 9000 NSC 11/09 Q0990",
      "taf": ""
    },
    {
      "icao": "LEMD",
      "alert": "OK",
      "vis_m": 9999,
      "fzfg": false,
      "metar_trigger": false,
      "taf_trigger": false,
      "metar": "METAR LEMD 131200Z 24014KT 220V280 9999 FEW023 SCT045 BKN050 10/08 Q0994 NOSIG",
      "taf": "TAF LEMD 131100Z 1312/1418 27015KT 9999 SCT035 TX12/1315Z TN04/1405Z"
    },
    {
      "icao": "LEMG",
      "alert": "OK",
      "vis_m": 9999,
      "fzfg": false,
      "metar_trigger": false,
      "taf_trigger": false,
      "metar": "METAR LEMG 131200Z 28022G36KT 250V310 9999 FEW060 17/06 Q1006 WS R31 NOSIG",
      "taf": "TAF LEMG 131100Z 1312/1412 30018KT 9999 SCT035 TX22/1314Z TN12/1406Z"
    },
    {
      "icao": "LEVC",
      "alert": "OK",
      "vis_m": 9999,
      "fzfg": false,
      "metar_trigger": false,
      "taf_trigger": false,
      "metar": "METAR LEVC 131200Z 28008KT 220V310 9999 BKN042 18/07 Q0992 NOSIG",
      "taf": "TAF LEVC 131100Z 1312/1412 26015KT 9999 FEW040 TX19/1314Z TN11/1406Z"
    },
    {
      "icao": "LEXJ",
      "alert": "OK",
      "vis_m": 7000,
      "fzfg": false,
      "metar_trigger": false,
      "taf_trigger": false,
      "metar": "SPECI LEXJ 131222Z 26012KT 210V300 7000 SCT026 OVC050 11/08 Q0989",
      "taf": ""
    },
    {
      "icao": "LEZG",
      "alert": "OK",
      "vis_m": 9999,
      "fzfg": false,
      "metar_trigger": false,
      "taf_trigger": false,
      "metar": "METAR LEZG 131200Z 10007KT 060V120 9999 -RA FEW010 BKN080 09/09 Q0990 NOSIG",
      "taf": "TAF LEZG 131100Z 1312/1412 11010KT 9999 FEW020 TX13/1312Z TN06/1406Z"
    },
    {
      "icao": "LEZL",
      "alert": "OK",
      "vis_m": 9999,
      "fzfg": false,
      "metar_trigger": false,
      "taf_trigger": false,
      "metar": "METAR LEZL 131200Z 27028G41KT 9999 -RA FEW030 BKN044 15/09 Q1007 NOSIG",
      "taf": "TAF LEZL 130800Z 1309/1409 27016KT 9999 FEW025 TX20/1315Z TN14/1407Z"
    },
    {
      "icao": "LFBD",
      "alert": "OK",
      "vis_m": 9999,
      "fzfg": false,
      "metar_trigger": false,
      "taf_trigger": false,
      "metar": "METAR LFBD 131200Z AUTO 12007KT 9999 -RA BKN048 OVC054 10/08 Q0989 TEMPO 4000 -RA BKN010",
      "taf": "TAF LFBD 131100Z 1312/1418 16010KT CAVOK TX12/1314Z TN06/1418Z"
    },
    {
      "icao": "LFLL",
      "alert": "OK",
      "vis_m": 9999,
      "fzfg": false,
      "metar_trigger": false,
      "taf_trigger": false,
      "metar": "METAR LFLL 131200Z 16007KT CAVOK 12/03 Q0993 NOSIG",
      "taf": "TAF LFLL 131100Z 1312/1418 18010KT CAVOK"
    },
    {
      "icao": "LFLS",
      "alert": "OK",
      "vis_m": 9999,
      "fzfg": false,
      "metar_trigger": false,
      "taf_trigger": false,
      "metar": "METAR LFLS 131200Z AUTO 21007KT CAVOK 10/03 Q0992 NOSIG",
      "taf": "TAF LFLS 130800Z 1309/1409 VRB03KT CAVOK"
    },
    {
      "icao": "LFMN",
      "alert": "OK",
      "vis_m": 9999,
      "fzfg": false,
      "metar_trigger": false,
      "taf_trigger": false,
      "metar": "METAR LFMN 131200Z 21009KT CAVOK 14/05 Q0994 NOSIG",
      "taf": "TAF LFMN 130800Z 1309/1415 35005KT CAVOK"
    },
    {
      "icao": "LFOB",
      "alert": "OK",
      "vis_m": 9999,
      "fzfg": false,
      "metar_trigger": false,
      "taf_trigger": false,
      "metar": "METAR LFOB 131200Z AUTO 12006KT 9999 OVC008 09/08 Q0991 TEMPO 3000 RA BKN006 BKN012TCU",
      "taf": "TAF LFOB 131100Z 1312/1412 13007KT 9999 BKN020"
    },
    {
      "icao": "LFPO",
      "alert": "OK",
      "vis_m": 7000,
      "fzfg": false,
      "metar_trigger": false,
      "taf_trigger": false,
      "metar": "METAR LFPO 131200Z 16005KT 130V190 7000 -RA BKN007 BKN020 09/08 Q0990 NOSIG",
      "taf": "TAF LFPO 131100Z 1312/1418 15005KT 6000 BKN008"
    },
    {
      "icao": "LFSB",
      "alert": "OK",
      "vis_m": 9999,
      "fzfg": false,
      "metar_trigger": false,
      "taf_trigger": false,
      "metar": "METAR LFSB 131200Z AUTO VRB04KT CAVOK 11/03 Q0993 NOSIG",
      "taf": "TAF LFSB 131100Z 1312/1412 09004KT 9999 FEW030 BKN100"
    },
    {
      "icao": "LGAV",
      "alert": "OK",
      "vis_m": 9999,
      "fzfg": false,
      "metar_trigger": false,
      "taf_trigger": false,
      "metar": "METAR LGAV 131220Z 26013KT 230V300 9999 SCT020 SCT060 17/08 Q0988 NOSIG",
      "taf": "TAF LGAV 131100Z 1312/1412 28012KT 9999 SCT025 SCT070"
    },
    {
      "icao": "LGTS",
      "alert": "OK",
      "vis_m": 9999,
      "fzfg": false,
      "metar_trigger": false,
      "taf_trigger": false,
      "metar": "METAR LGTS 131220Z VRB02KT 9999 FEW008 BKN030 14/10 Q0988 NOSIG",
      "taf": "TAF LGTS 131100Z 1312/1412 VRB03KT 9999 SCT025"
    },
    {
      "icao": "LHBP",
      "alert": "OK",
      "vis_m": 9999,
      "fzfg": false,
      "metar_trigger": false,
      "taf_trigger": false,
      "metar": "METAR LHBP 131200Z 30014KT 9999 SCT038 12/04 Q0993 NOSIG",
      "taf": "TAF LHBP 131115Z 1312/1412 31011G21KT 9999 SCT035"
    },
    {
      "icao": "LHDC",
      "alert": "OK",
      "vis_m": 9999,
      "fzfg": false,
      "metar_trigger": false,
      "taf_trigger": false,
      "metar": "METAR LHDC 131145Z AUTO 30006KT 260V340 9999 FEW018 SCT031 11/07 Q0992 NOSIG",
      "taf": "TAF LHDC 131115Z 1312/1321 28005KT 9999 BKN018"
    },
    {
      "icao": "LIBD",
      "alert": "OK",
      "vis_m": 9999,
      "fzfg": false,
      "metar_trigger": false,
      "taf_trigger": false,
      "metar": "METAR LIBD 131220Z 28011KT 9999 -DZ SCT015 12/11 Q0994",
      "taf": "TAF LIBD 131100Z 1312/1412 29016KT 9999 SCT030"
    },
    {
      "icao": "LIBG",
      "alert": "OK",
      "vis_m": 9999,
      "fzfg": false,
      "metar_trigger": false,
      "taf_trigger": false,
      "metar": "METAR LIBG 131150Z 31013KT 9999 SCT020 15/09 Q0993",
      "taf": "TAF LIBG 131100Z 1312/1321 30011KT 9999 BKN025"
    },
    {
      "icao": "LIBP",
      "alert": "OK",
      "vis_m": 9999,
      "fzfg": false,
      "metar_trigger": false,
      "taf_trigger": false,
      "metar": "METAR LIBP 131220Z AUTO 23004KT 180V280 9999 NCD 18/04 Q0995",
      "taf": "TAF LIBP 131100Z 1312/1412 VRB05KT 9999 SCT050"
    },
    {
      "icao": "LIBR",
      "alert": "OK",
      "vis_m": 9999,
      "fzfg": false,
      "metar_trigger": false,
      "taf_trigger": false,
      "metar": "METAR LIBR 131220Z 32024G34KT 9999 FEW030 13/10 Q0992",
      "taf": "TAF LIBR 131100Z 1312/1412 30020KT 9999 FEW020"
    },
    {
      "icao": "LICA",
      "alert": "OK",
      "vis_m": 9999,
      "fzfg": false,
      "metar_trigger": false,
      "taf_trigger": false,
      "metar": "METAR LICA 131220Z AUTO 25019KT 9999 BKN027/// 16/12 Q0997",
      "taf": "TAF LICA 131100Z 1312/1412 17020G30KT 9999 SCT020 SCT060"
    },
    {
      "icao": "LICC",
      "alert": "OK",
      "vis_m": 9999,
      "fzfg": false,
      "metar_trigger": false,
      "taf_trigger": false,
      "metar": "METAR LICC 131220Z 28023G34KT 9999 FEW030 19/14 Q0998",
      "taf": "TAF LICC 131100Z 1312/1412 28025G35KT 9999 FEW030"
    },
    {
      "icao": "LICJ",
      "alert": "OK",
      "vis_m": 9999,
      "fzfg": false,
      "metar_trigger": false,
      "taf_trigger": false,
      "metar": "METAR LICJ 131220Z 26017KT 9999 FEW030 15/10 Q1001",
      "taf": "TAF LICJ 131100Z 1312/1412 25025G35KT 9999 FEW030"
    },
    {
      "icao": "LIMC",
      "alert": "OK",
      "vis_m": 9999,
      "fzfg": false,
      "metar_trigger": false,
      "taf_trigger": false,
      "metar": "METAR LIMC 131220Z VRB02KT CAVOK 16/M02 Q0994 NOSIG",
      "taf": "TAF LIMC 131100Z 1312/1418 VRB05KT CAVOK"
    },
    {
      "icao": "LIME",
      "alert": "OK",
      "vis_m": 9999,
      "fzfg": false,
      "metar_trigger": false,
      "taf_trigger": false,
      "metar": "METAR LIME 131220Z 11003KT 030V160 CAVOK 14/M01 Q0994 NOSIG",
      "taf": "TAF LIME 131100Z 1312/1412 VRB06KT CAVOK"
    },
    {
      "icao": "LIMF",
      "alert": "OK",
      "vis_m": 9999,
      "fzfg": false,
      "metar_trigger": false,
      "taf_trigger": false,
      "metar": "METAR LIMF 131220Z 07005KT 030V110 CAVOK 15/M01 Q0993",
      "taf": "TAF LIMF 131100Z 1312/1412 07006KT CAVOK"
    },
    {
      "icao": "LIMJ",
      "alert": "OK",
      "vis_m": 9999,
      "fzfg": false,
      "metar_trigger": false,
      "taf_trigger": false,
      "metar": "METAR LIMJ 131220Z 12018KT CAVOK 14/11 Q0995",
      "taf": "TAF LIMJ 131100Z 1312/1412 13018KT 9999 SCT025"
    },
    {
      "icao": "LIPE",
      "alert": "OK",
      "vis_m": 9999,
      "fzfg": false,
      "metar_trigger": false,
      "taf_trigger": false,
      "metar": "METAR LIPE 131220Z 36003KT 260V060 CAVOK 15/07 Q0995",
      "taf": "TAF LIPE 131100Z 1312/1412 VRB05KT CAVOK"
    },
    {
      "icao": "LIPH",
      "alert": "OK",
      "vis_m": 9999,
      "fzfg": false,
      "metar_trigger": false,
      "taf_trigger": false,
      "metar": "METAR LIPH 131150Z 12004KT 090V160 CAVOK 13/09 Q0995",
      "taf": "TAF LIPH 131100Z 1312/1412 VRB05KT 6000 FEW020"
    },
    {
      "icao": "LIPQ",
      "alert": "OK",
      "vis_m": 9999,
      "fzfg": false,
      "metar_trigger": false,
      "taf_trigger": false,
      "metar": "METAR LIPQ 131220Z AUTO 16004KT 120V190 9999 BKN003/// 10/10 Q0994",
      "taf": "TAF LIPQ 131100Z 1312/1412 VRB05KT 7000 BKN010"
    },
    {
      "icao": "LIPR",
      "alert": "OK",
      "vis_m": 9999,
      "fzfg": false,
      "metar_trigger": false,
      "taf_trigger": false,
      "metar": "METAR LIPR 131220Z 08007KT 040V110 CAVOK 11/07 Q0995",
      "taf": "TAF LIPR 131100Z 1312/1412 VRB05KT CAVOK"
    },
    {
      "icao": "LIPX",
      "alert": "OK",
      "vis_m": 9000,
      "fzfg": false,
      "metar_trigger": false,
      "taf_trigger": false,
      "metar": "METAR LIPX 131220Z 16004KT 110V210 9000 FEW010 11/08 Q0995",
      "taf": "TAF LIPX 131100Z 1312/1412 VRB05KT 9999 FEW010"
    },
    {
      "icao": "LIPY",
      "alert": "OK",
      "vis_m": 9999,
      "fzfg": false,
      "metar_trigger": false,
      "taf_trigger": false,
      "metar": "METAR LIPY 131220Z AUTO 36008KT 9999 NCD 13/07 Q0995",
      "taf": "TAF LIPY 131100Z 1312/1412 VRB05KT 9999 FEW040"
    },
    {
      "icao": "LIPZ",
      "alert": "OK",
      "vis_m": 200,
      "fzfg": false,
      "metar_trigger": false,
      "taf_trigger": false,
      "metar": "METAR LIPZ 131220Z VRB02KT 0200 R04R/0550U FG VV001 07/07 Q0995 NOSIG",
      "taf": "TAF LIPZ 131100Z 1312/1418 VRB05KT 0300 FG BKN002"
    },
    {
      "icao": "LIRF",
      "alert": "OK",
      "vis_m": 9999,
      "fzfg": false,
      "metar_trigger": false,
      "taf_trigger": false,
      "metar": "METAR LIRF 131220Z 27010KT CAVOK 16/10 Q0997 NOSIG",
      "taf": "TAF LIRF 131100Z 1312/1418 27010KT CAVOK"
    },
    {
      "icao": "LIRN",
      "alert": "OK",
      "vis_m": 9999,
      "fzfg": false,
      "metar_trigger": false,
      "taf_trigger": false,
      "metar": "METAR LIRN 131220Z VRB03KT CAVOK 17/08 Q0996 NOSIG",
      "taf": "TAF LIRN 131100Z 1312/1412 VRB05KT CAVOK"
    },
    {
      "icao": "LIRP",
      "alert": "OK",
      "vis_m": 9999,
      "fzfg": false,
      "metar_trigger": false,
      "taf_trigger": false,
      "metar": "METAR LIRP 131215Z 27011KT 9999 SCT025 15/09 Q0996 NOSIG",
      "taf": "TAF LIRP 131100Z 1312/1412 30008KT 9999 SCT025"
    },
    {
      "icao": "LIRZ",
      "alert": "OK",
      "vis_m": 9999,
      "fzfg": false,
      "metar_trigger": false,
      "taf_trigger": false,
      "metar": "METAR LIRZ 131220Z AUTO VRB03KT 9999 FEW025/// 14/08 Q0997",
      "taf": "TAF LIRZ 131100Z 1312/1412 VRB05KT 9999 FEW030"
    },
    {
      "icao": "LJLJ",
      "alert": "OK",
      "vis_m": 9999,
      "fzfg": false,
      "metar_trigger": false,
      "taf_trigger": false,
      "metar": "METAR LJLJ 131200Z VRB02KT 9999 FEW006 SCT250 10/06 Q0995 NOSIG",
      "taf": "TAF LJLJ 131100Z 1312/1412 VRB02KT 9999 SCT010"
    },
    {
      "icao": "LKMT",
      "alert": "OK",
      "vis_m": 9999,
      "fzfg": false,
      "metar_trigger": false,
      "taf_trigger": false,
      "metar": "METAR LKMT 131200Z 22016KT 9999 FEW037 09/05 Q0991 NOSIG",
      "taf": "TAF LKMT 131100Z 1312/1412 23013KT 9999 SCT035 BKN040"
    },
    {
      "icao": "LKPR",
      "alert": "OK",
      "vis_m": 9999,
      "fzfg": false,
      "metar_trigger": false,
      "taf_trigger": false,
      "metar": "METAR LKPR 131200Z 22017KT 9999 SCT017 BKN030 07/04 Q0991 NOSIG",
      "taf": "TAF LKPR 131100Z 1312/1418 21016KT 9999 SCT023"
    },
    {
      "icao": "LLBG",
      "alert": "OK",
      "vis_m": 9000,
      "fzfg": false,
      "metar_trigger": false,
      "taf_trigger": false,
      "metar": "METAR LLBG 131220Z 20022KT 9000 NSC 28/03 Q1004 TEMPO 21025G35KT 4000 DU",
      "taf": "TAF LLBG 131108Z 1312/1412 19018KT 7000 NSC"
    },
    {
      "icao": "LMML",
      "alert": "OK",
      "vis_m": 9999,
      "fzfg": false,
      "metar_trigger": false,
      "taf_trigger": false,
      "metar": "METAR LMML 131215Z 26028G38KT 9999 FEW025 16/10 Q1004 NOSIG",
      "taf": "TAF LMML 131100Z 1312/1412 28025G35KT 9999 FEW020"
    },
    {
      "icao": "LOWW",
      "alert": "OK",
      "vis_m": 9999,
      "fzfg": false,
      "metar_trigger": false,
      "taf_trigger": false,
      "metar": "METAR LOWW 131220Z 29019KT CAVOK 12/01 Q0994 NOSIG",
      "taf": "TAF LOWW 131115Z 1312/1418 27013KT 9999 FEW050 TX11/1314Z TN02/1404Z"
    },
    {
      "icao": "LPFR",
      "alert": "OK",
      "vis_m": 9999,
      "fzfg": false,
      "metar_trigger": false,
      "taf_trigger": false,
      "metar": "METAR LPFR 131200Z 28021KT 9999 FEW015 FEW018CB 14/09 Q1010",
      "taf": "TAF LPFR 131100Z 1312/1412 28020KT 9999 SCT020"
    },
    {
      "icao": "LPMA",
      "alert": "OK",
      "vis_m": 9999,
      "fzfg": false,
      "metar_trigger": false,
      "taf_trigger": false,
      "metar": "METAR LPMA 131200Z 30007KT 250V010 9999 FEW016 19/08 Q1027",
      "taf": "TAF LPMA 131100Z 1312/1412 34012KT 9999 SCT015"
    },
    {
      "icao": "LPPR",
      "alert": "OK",
      "vis_m": 9999,
      "fzfg": false,
      "metar_trigger": false,
      "taf_trigger": false,
      "metar": "METAR LPPR 131200Z 31016KT 9999 VCSH FEW020CB BKN027 13/09 Q1003",
      "taf": "TAF LPPR 131100Z 1312/1412 31015G25KT 9999 SCT020"
    },
    {
      "icao": "LPPS",
      "alert": "OK",
      "vis_m": 9999,
      "fzfg": false,
      "metar_trigger": false,
      "taf_trigger": false,
      "metar": "METAR LPPS 131200Z 33018KT 9999 VCSH SCT015 SCT030 18/12 Q1027",
      "taf": "TAF LPPS 131100Z 1312/1418 32018KT 9999 SCT015"
    },
    {
      "icao": "LPPT",
      "alert": "OK",
      "vis_m": 7000,
      "fzfg": false,
      "metar_trigger": false,
      "taf_trigger": false,
      "metar": "METAR LPPT 131200Z 28016G30KT 7000 -SHRA FEW014 FEW025CB BKN045 10/09 Q1008 RESHRA",
      "taf": "TAF LPPT 131100Z 1312/1418 29018G30KT 9999 SCT025"
    },
    {
      "icao": "LQBK",
      "alert": "OK",
      "vis_m": 9999,
      "fzfg": false,
      "metar_trigger": false,
      "taf_trigger": false,
      "metar": "METAR LQBK 131200Z 17003KT 090V220 9999 SCT033 14/05 Q0995 NOSIG",
      "taf": "TAF LQBK 131100Z 1312/1412 18005KT 9999 FEW030 TX15/1313Z TN01/1405Z"
    },
    {
      "icao": "LQSA",
      "alert": "OK",
      "vis_m": 9999,
      "fzfg": false,
      "metar_trigger": false,
      "taf_trigger": false,
      "metar": "METAR LQSA 131200Z 29009KT 9999 -RA FEW025 BKN035 08/05 Q0996 NOSIG",
      "taf": "TAF LQSA 131100Z 1312/1412 33005KT 9999 SCT025 BKN035 TX12/1412Z TN01/1404Z"
    },
    {
      "icao": "LQTZ",
      "alert": "OK",
      "vis_m": 9999,
      "fzfg": false,
      "metar_trigger": false,
      "taf_trigger": false,
      "metar": "METAR LQTZ 131200Z 28006KT 250V320 9999 FEW015 SCT025 BKN040 11/07 Q0995",
      "taf": "TAF LQTZ 131100Z 1312/1412 30005KT 9999 SCT030 BKN040 TX12/1412Z TN02/1405Z"
    },
    {
      "icao": "LRBC",
      "alert": "OK",
      "vis_m": 5000,
      "fzfg": false,
      "metar_trigger": false,
      "taf_trigger": false,
      "metar": "METAR LRBC 131200Z 19005KT 160V220 5000 BR OVC003 06/06 Q0991",
      "taf": "TAF LRBC 131100Z 1312/1321 17006KT 5000 BR OVC002"
    },
    {
      "icao": "LRBS",
      "alert": "OK",
      "vis_m": 5000,
      "fzfg": false,
      "metar_trigger": false,
      "taf_trigger": false,
      "metar": "METAR LRBS 131200Z VRB01KT 5000 BR SCT003 BKN004 OVC009 06/06 Q0992 NOSIG",
      "taf": "TAF LRBS 131100Z 1312/1412 VRB04KT 7000 BKN005"
    },
    {
      "icao": "LRBV",
      "alert": "OK",
      "vis_m": 9999,
      "fzfg": false,
      "metar_trigger": false,
      "taf_trigger": false,
      "metar": "METAR LRBV 131200Z 02001KT CAVOK 09/02 Q0991",
      "taf": "TAF LRBV 131100Z 1312/1321 VRB04KT CAVOK"
    },
    {
      "icao": "LRCL",
      "alert": "OK",
      "vis_m": 9999,
      "fzfg": false,
      "metar_trigger": false,
      "taf_trigger": false,
      "metar": "METAR LRCL 131200Z VRB02KT CAVOK 11/04 Q0991",
      "taf": "TAF LRCL 131100Z 1312/1321 VRB04KT 9999 BKN060"
    },
    {
      "icao": "LRCV",
      "alert": "OK",
      "vis_m": 1400,
      "fzfg": false,
      "metar_trigger": false,
      "taf_trigger": false,
      "metar": "METAR LRCV 131200Z 24005KT 1400 R26/1600N BR SCT003 OVC011 05/05 Q0992",
      "taf": "TAF LRCV 131100Z 1312/1321 28006KT 0800 FG BKN002 OVC010"
    },
    {
      "icao": "LRIA",
      "alert": "OK",
      "vis_m": 150,
      "fzfg": false,
      "metar_trigger": false,
      "taf_trigger": false,
      "metar": "METAR LRIA 131200Z 08006KT 0150 R14/0400N FG VV001 05/04 Q0992",
      "taf": "TAF LRIA 131100Z 1312/1321 11006KT 0150 FG VV001"
    },
    {
      "icao": "LROP",
      "alert": "OK",
      "vis_m": 8000,
      "fzfg": false,
      "metar_trigger": false,
      "taf_trigger": false,
      "metar": "METAR LROP 131200Z VRB01KT 8000 OVC004 06/06 Q0992 NOSIG",
      "taf": "TAF LROP 131100Z 1312/1412 VRB04KT 7000 BKN005"
    },
    {
      "icao": "LRSB",
      "alert": "OK",
      "vis_m": 9999,
      "fzfg": false,
      "metar_trigger": false,
      "taf_trigger": false,
      "metar": "METAR LRSB 131200Z 33006KT 300V010 9999 FEW068 12/03 Q0991",
      "taf": "TAF LRSB 131100Z 1312/1412 32008KT 9999 SCT055"
    },
    {
      "icao": "LRSM",
      "alert": "OK",
      "vis_m": 9999,
      "fzfg": false,
      "metar_trigger": false,
      "taf_trigger": false,
      "metar": "METAR LRSM 131200Z 20005KT 9999 BKN020 BKN038 11/07 Q0991",
      "taf": "TAF LRSM 131100Z 1312/1321 23006KT 9999 BKN030"
    },
    {
      "icao": "LRSV",
      "alert": "OK",
      "vis_m": 9999,
      "fzfg": false,
      "metar_trigger": false,
      "taf_trigger": false,
      "metar": "METAR LRSV 131200Z 09005KT CAVOK 06/05 Q0990",
      "taf": "TAF LRSV 131100Z 1312/1321 VRB04KT CAVOK"
    },
    {
      "icao": "LRTM",
      "alert": "OK",
      "vis_m": 9999,
      "fzfg": false,
      "metar_trigger": false,
      "taf_trigger": false,
      "metar": "METAR LRTM 131200Z 25003KT 210V300 CAVOK 10/03 Q0991",
      "taf": "TAF LRTM 131100Z 1312/1321 VRB04KT CAVOK"
    },
    {
      "icao": "LRTR",
      "alert": "OK",
      "vis_m": 9999,
      "fzfg": false,
      "metar_trigger": false,
      "taf_trigger": false,
      "metar": "METAR LRTR 131200Z 32007KT 300V360 9999 FEW035 11/07 Q0993 NOSIG",
      "taf": "TAF LRTR 131100Z 1312/1412 30006KT 9999 SCT030"
    },
    {
      "icao": "LTAC",
      "alert": "OK",
      "vis_m": 7000,
      "fzfg": false,
      "metar_trigger": false,
      "taf_trigger": false,
      "metar": "METAR LTAC 131220Z 23010KT 200V260 7000 SHRA FEW015 BKN030 BKN080 10/08 Q0991 BECMG NSW",
      "taf": "TAF LTAC 131040Z 1312/1412 21015KT 9999 SCT040 BKN100"
    },
    {
      "icao": "LTFM",
      "alert": "OK",
      "vis_m": 9999,
      "fzfg": false,
      "metar_trigger": false,
      "taf_trigger": false,
      "metar": "METAR LTFM 131220Z 19010KT 9999 SCT035 BKN080 14/09 Q0988 NOSIG",
      "taf": "TAF LTFM 131040Z 1312/1418 14008KT 9999 SCT032 BKN080"
    },
    {
      "icao": "LUKK",
      "alert": "OK",
      "vis_m": 4300,
      "fzfg": false,
      "metar_trigger": false,
      "taf_trigger": false,
      "metar": "METAR LUKK 131200Z 07006KT 4300 BR OVC002 04/04 Q0992 NOSIG",
      "taf": "TAF LUKK 131123Z 1312/1412 VRB05KT 4000 BR OVC002"
    },
    {
      "icao": "LWOH",
      "alert": "OK",
      "vis_m": 9999,
      "fzfg": false,
      "metar_trigger": false,
      "taf_trigger": false,
      "metar": "METAR LWOH 131220Z 16004KT 130V200 9999 -RA FEW015 BKN040 09/07 Q0990",
      "taf": "TAF LWOH 131120Z 1312/1412 15008KT 9999 FEW015 SCT040"
    },
    {
      "icao": "LWSK",
      "alert": "OK",
      "vis_m": 9999,
      "fzfg": false,
      "metar_trigger": false,
      "taf_trigger": false,
      "metar": "METAR LWSK 131220Z 31006KT 260V010 9999 FEW045 BKN075 15/07 Q0990 NOSIG",
      "taf": "TAF LWSK 131120Z 1312/1412 36010KT 9999 SCT045 BKN080"
    },
    {
      "icao": "LYBE",
      "alert": "OK",
      "vis_m": 9999,
      "fzfg": false,
      "metar_trigger": false,
      "taf_trigger": false,
      "metar": "METAR LYBE 131200Z 29005KT 260V320 CAVOK 09/07 Q0995 NOSIG",
      "taf": "TAF LYBE 131100Z 1312/1412 33008KT 9999 SCT045 TX14/1412Z TN03/1406Z"
    },
    {
      "icao": "LYNI",
      "alert": "OK",
      "vis_m": 9999,
      "fzfg": false,
      "metar_trigger": false,
      "taf_trigger": false,
      "metar": "METAR LYNI 131200Z 32015KT 290V360 9999 FEW043 BKN080 11/04 Q0992 NOSIG",
      "taf": "TAF LYNI 131100Z 1312/1412 35010KT 9999 BKN070 TX13/1412Z TN02/1406Z"
    },
    {
      "icao": "LYPG",
      "alert": "OK",
      "vis_m": 9999,
      "fzfg": false,
      "metar_trigger": false,
      "taf_trigger": false,
      "metar": "METAR LYPG 131200Z VRB04KT 9999 FEW040 SCT090 16/10 Q0990 NOSIG",
      "taf": ""
    },
    {
      "icao": "LZIB",
      "alert": "OK",
      "vis_m": 9999,
      "fzfg": false,
      "metar_trigger": false,
      "taf_trigger": false,
      "metar": "METAR LZIB 131200Z 28022KT 9999 FEW035 11/03 Q0993 NOSIG",
      "taf": "TAF LZIB 131115Z 1312/1412 28015KT 9999 FEW030"
    },
    {
      "icao": "LZKZ",
      "alert": "OK",
      "vis_m": 9999,
      "fzfg": false,
      "metar_trigger": false,
      "taf_trigger": false,
      "metar": "METAR LZKZ 131200Z 24004KT 200V280 9999 BKN042 11/06 Q0991 NOSIG",
      "taf": "TAF LZKZ 131115Z 1312/1412 20005KT 9999 SCT010 SCT040"
    },
    {
      "icao": "LZTT",
      "alert": "OK",
      "vis_m": 9999,
      "fzfg": false,
      "metar_trigger": false,
      "taf_trigger": false,
      "metar": "METAR LZTT 131200Z 26019KT 9999 FEW028 08/02 Q0990 NOSIG",
      "taf": "TAF LZTT 131115Z 1312/1412 28017KT 9999 FEW020 SCT045"
    },
    {
      "icao": "OEJN",
      "alert": "OK",
      "vis_m": 9999,
      "fzfg": false,
      "metar_trigger": false,
      "taf_trigger": false,
      "metar": "METAR OEJN 131200Z 27008KT CAVOK 29/17 Q1011 NOSIG",
      "taf": "TAF OEJN 131100Z 1312/1418 30010KT CAVOK"
    },
    {
      "icao": "OEMA",
      "alert": "OK",
      "vis_m": 9999,
      "fzfg": false,
      "metar_trigger": false,
      "taf_trigger": false,
      "metar": "METAR OEMA 131200Z 26007KT CAVOK 31/06 Q1014 NOSIG",
      "taf": "TAF OEMA 131100Z 1312/1418 25010KT CAVOK"
    },
    {
      "icao": "OJAI",
      "alert": "OK",
      "vis_m": 4000,
      "fzfg": false,
      "metar_trigger": false,
      "taf_trigger": false,
      "metar": "METAR OJAI 131200Z 21017KT 4000 BLDU NSC 21/03 Q1010 NOSIG",
      "taf": "TAF OJAI 131050Z 1312/1418 26014KT 3000 HZ FEW035"
    },
    {
      "icao": "OMAA",
      "alert": "OK",
      "vis_m": 9999,
      "fzfg": false,
      "metar_trigger": false,
      "taf_trigger": false,
      "metar": "METAR OMAA 131200Z 32011KT CAVOK 30/08 Q1015 NOSIG",
      "taf": "TAF OMAA 131100Z 1312/1418 33010KT 8000 NSC"
    },
    {
      "icao": "OMDB",
      "alert": "OK",
      "vis_m": 9999,
      "fzfg": false,
      "metar_trigger": false,
      "taf_trigger": false,
      "metar": "METAR OMDB 131200Z 31011KT CAVOK 29/16 Q1015 NOSIG",
      "taf": "TAF OMDB 131100Z 1312/1418 32010KT CAVOK"
    },
    {
      "icao": "UAAA",
      "alert": "OK",
      "vis_m": 9999,
      "fzfg": false,
      "metar_trigger": false,
      "taf_trigger": false,
      "metar": "METAR UAAA 131200Z 34005MPS 9999 BKN050CB OVC100 M04/M06 Q1020 NOSIG",
      "taf": "TAF UAAA 131104Z 1312/1412 22003MPS 1200 BR FU BKN011CB OVC020 TX00/1409Z TNM07/1403Z"
    },
    {
      "icao": "UBBB",
      "alert": "OK",
      "vis_m": 9999,
      "fzfg": false,
      "metar_trigger": false,
      "taf_trigger": false,
      "metar": "METAR UBBB 131200Z 20022KT CAVOK 13/06 Q1005 NOSIG",
      "taf": "TAF UBBB 131053Z 1312/1412 18020G30KT 9999 SCT030 TX10/1312Z TN06/1401Z"
    },
    {
      "icao": "UDSG",
      "alert": "OK",
      "vis_m": 9999,
      "fzfg": false,
      "metar_trigger": false,
      "taf_trigger": false,
      "metar": "METAR UDSG 131200Z 27005KT 220V300 9999 BKN036 03/00 Q1013 NOSIG",
      "taf": "TAF UDSG 131100Z 1312/1412 VRB06KT 5000 BR BKN040"
    },
    {
      "icao": "UDYZ",
      "alert": "OK",
      "vis_m": 4500,
      "fzfg": false,
      "metar_trigger": false,
      "taf_trigger": false,
      "metar": "METAR UDYZ 131200Z 27003KT 4500 BR SCT046 07/05 Q1013 NOSIG",
      "taf": "TAF UDYZ 131100Z 1312/1412 VRB06KT 5000 BR SCT040"
    },
    {
      "icao": "UGKO",
      "alert": "OK",
      "vis_m": 9999,
      "fzfg": false,
      "metar_trigger": false,
      "taf_trigger": false,
      "metar": "METAR UGKO 131200Z 08017KT CAVOK 19/04 Q1002 NOSIG",
      "taf": "TAF UGKO 131100Z 1312/1412 08020KT 9999 BKN080 TX18/1312Z TN13/1405Z"
    }
  ]
}