{
  "ts_utc": "2026-05-03T06:35:47Z",
  "threshold_m": 150,
  "source": "stations_override.txt (ICAO list) + aviationweather.gov (METAR/TAF raw)",
  "station_count": 159,
  "stations": [
    {
      "icao": "BIKF",
      "alert": "OK",
      "vis_m": 9999,
      "fzfg": false,
      "metar_trigger": false,
      "taf_trigger": false,
      "metar": "METAR BIKF 030630Z 16003KT 9999 FEW030 BKN120 BKN270 05/M01 Q1011",
      "taf": "TAF BIKF 030406Z 0306/0406 30013KT 9999 FEW020 BKN060 TX08/0312Z TNM00/0406Z"
    },
    {
      "icao": "BKPR",
      "alert": "OK",
      "vis_m": 9999,
      "fzfg": false,
      "metar_trigger": false,
      "taf_trigger": false,
      "metar": "METAR BKPR 030630Z 32007KT 300V360 9999 FEW080 08/04 Q1021 NOSIG",
      "taf": "TAF BKPR 030530Z 0306/0406 01010KT 9999 FEW050"
    },
    {
      "icao": "EBCI",
      "alert": "OK",
      "vis_m": 9999,
      "fzfg": false,
      "metar_trigger": false,
      "taf_trigger": false,
      "metar": "METAR EBCI 030620Z 17006KT CAVOK 15/11 Q1011 NOSIG",
      "taf": "TAF EBCI 030511Z 0306/0412 20006KT 9999 SCT030"
    },
    {
      "icao": "EDDB",
      "alert": "OK",
      "vis_m": 9999,
      "fzfg": false,
      "metar_trigger": false,
      "taf_trigger": false,
      "metar": "METAR EDDB 030620Z AUTO 19003KT 140V250 CAVOK 17/07 Q1013 NOSIG",
      "taf": "TAF EDDB 030500Z 0306/0406 18004KT CAVOK"
    },
    {
      "icao": "EDDH",
      "alert": "OK",
      "vis_m": 9999,
      "fzfg": false,
      "metar_trigger": false,
      "taf_trigger": false,
      "metar": "METAR EDDH 030620Z AUTO 18003KT 140V200 CAVOK 16/13 Q1012 NOSIG",
      "taf": "TAF EDDH 030500Z 0306/0412 VRB03KT 9999 FEW035"
    },
    {
      "icao": "EDDK",
      "alert": "OK",
      "vis_m": 9999,
      "fzfg": false,
      "metar_trigger": false,
      "taf_trigger": false,
      "metar": "METAR EDDK 030620Z AUTO 17009KT CAVOK 17/07 Q1012 NOSIG",
      "taf": "TAF EDDK 030500Z 0306/0412 12004KT CAVOK"
    },
    {
      "icao": "EDDN",
      "alert": "OK",
      "vis_m": 9999,
      "fzfg": false,
      "metar_trigger": false,
      "taf_trigger": false,
      "metar": "METAR EDDN 030620Z AUTO 19003KT 160V250 CAVOK 15/04 Q1016 NOSIG",
      "taf": "TAF EDDN 030500Z 0306/0406 10004KT CAVOK"
    },
    {
      "icao": "EDDS",
      "alert": "OK",
      "vis_m": 9999,
      "fzfg": false,
      "metar_trigger": false,
      "taf_trigger": false,
      "metar": "METAR EDDS 030620Z AUTO VRB01KT CAVOK 15/08 Q1015 NOSIG",
      "taf": "TAF EDDS 030500Z 0306/0406 VRB03KT CAVOK"
    },
    {
      "icao": "EDFH",
      "alert": "OK",
      "vis_m": 9999,
      "fzfg": false,
      "metar_trigger": false,
      "taf_trigger": false,
      "metar": "METAR EDFH 030620Z 21011KT CAVOK 15/04 Q1014",
      "taf": "TAF EDFH 030500Z 0306/0406 20007KT CAVOK"
    },
    {
      "icao": "EDJA",
      "alert": "OK",
      "vis_m": 9999,
      "fzfg": false,
      "metar_trigger": false,
      "taf_trigger": false,
      "metar": "METAR EDJA 030620Z 24004KT CAVOK 13/07 Q1016",
      "taf": "TAF EDJA 030500Z 0306/0315 VRB03KT CAVOK"
    },
    {
      "icao": "EDLW",
      "alert": "OK",
      "vis_m": 9999,
      "fzfg": false,
      "metar_trigger": false,
      "taf_trigger": false,
      "metar": "METAR EDLW 030620Z 17008KT CAVOK 16/10 Q1012",
      "taf": "TAF EDLW 030500Z 0306/0406 VRB03KT CAVOK"
    },
    {
      "icao": "EDNY",
      "alert": "OK",
      "vis_m": 9999,
      "fzfg": false,
      "metar_trigger": false,
      "taf_trigger": false,
      "metar": "METAR EDNY 030620Z 07003KT CAVOK 13/09 Q1016",
      "taf": "TAF EDNY 030500Z 0306/0315 06003KT CAVOK"
    },
    {
      "icao": "EDSB",
      "alert": "OK",
      "vis_m": 9999,
      "fzfg": false,
      "metar_trigger": false,
      "taf_trigger": false,
      "metar": "METAR EDSB 030620Z 00000KT 9999 VCSH NSC 14/11 Q1015",
      "taf": "TAF EDSB 030500Z 0306/0406 VRB03KT CAVOK"
    },
    {
      "icao": "EETN",
      "alert": "OK",
      "vis_m": 9999,
      "fzfg": false,
      "metar_trigger": false,
      "taf_trigger": false,
      "metar": "METAR EETN 030620Z 26011KT 9999 -SHRA FEW040CB 10/07 Q1007 NOSIG",
      "taf": "TAF EETN 030530Z 0306/0406 24010KT CAVOK"
    },
    {
      "icao": "EFTU",
      "alert": "OK",
      "vis_m": 9999,
      "fzfg": false,
      "metar_trigger": false,
      "taf_trigger": false,
      "metar": "METAR EFTU 030620Z AUTO 33006KT 290V010 9999 SCT006 08/07 Q1007",
      "taf": "TAF EFTU 030528Z 0306/0406 33006KT CAVOK"
    },
    {
      "icao": "EGBB",
      "alert": "OK",
      "vis_m": 8000,
      "fzfg": false,
      "metar_trigger": false,
      "taf_trigger": false,
      "metar": "METAR EGBB 030620Z 25004KT 8000 SCT010 OVC016 11/10 Q1009",
      "taf": "TAF EGBB 030503Z 0306/0406 27007KT 9999 SCT008 BKN020"
    },
    {
      "icao": "EGGP",
      "alert": "OK",
      "vis_m": 6000,
      "fzfg": false,
      "metar_trigger": false,
      "taf_trigger": false,
      "metar": "METAR EGGP 030620Z 33011KT 6000 -DZ SCT006 OVC019 10/09 Q1009",
      "taf": ""
    },
    {
      "icao": "EGGW",
      "alert": "OK",
      "vis_m": 8000,
      "fzfg": false,
      "metar_trigger": false,
      "taf_trigger": false,
      "metar": "METAR EGGW 030620Z AUTO 21006KT 8000 SCT014 OVC020 11/10 Q1009",
      "taf": "TAF EGGW 030501Z 0306/0406 24007KT 9999 BKN020"
    },
    {
      "icao": "EGKK",
      "alert": "OK",
      "vis_m": 7000,
      "fzfg": false,
      "metar_trigger": false,
      "taf_trigger": false,
      "metar": "METAR EGKK 030620Z 25004KT 7000 BKN005 13/12 Q1009",
      "taf": "TAF EGKK 030458Z 0306/0412 24005KT 9999 SCT045"
    },
    {
      "icao": "EGNM",
      "alert": "OK",
      "vis_m": 3100,
      "fzfg": false,
      "metar_trigger": false,
      "taf_trigger": false,
      "metar": "METAR EGNM 030620Z 03011KT 3100 -RA BR SCT004 BKN006 09/09 Q1008",
      "taf": "TAF EGNM 030500Z 0306/0406 03009KT 9999 SCT015"
    },
    {
      "icao": "EGPD",
      "alert": "OK",
      "vis_m": 9999,
      "fzfg": false,
      "metar_trigger": false,
      "taf_trigger": false,
      "metar": "METAR EGPD 030620Z 03003KT 9999 SCT015 BKN021 07/05 Q1015 TEMPO BKN014",
      "taf": ""
    },
    {
      "icao": "EGPF",
      "alert": "OK",
      "vis_m": 9999,
      "fzfg": false,
      "metar_trigger": false,
      "taf_trigger": false,
      "metar": "METAR EGPF 030620Z AUTO 06011KT 9999 -RA OVC011 09/08 Q1013",
      "taf": "TAF EGPF 030500Z 0306/0406 07009KT 9999 BKN012"
    },
    {
      "icao": "EHBK",
      "alert": "OK",
      "vis_m": 9999,
      "fzfg": false,
      "metar_trigger": false,
      "taf_trigger": false,
      "metar": "METAR EHBK 030625Z AUTO 19008KT 150V210 9999 NSC 16/11 Q1011 NOSIG",
      "taf": "TAF EHBK 030521Z 0306/0412 18007KT CAVOK"
    },
    {
      "icao": "EHEH",
      "alert": "OK",
      "vis_m": 9999,
      "fzfg": false,
      "metar_trigger": false,
      "taf_trigger": false,
      "metar": "METAR EHEH 030625Z AUTO 16005KT 120V230 9999 OVC100 15/13 Q1010 BLU NOSIG RMK TREND REMOTE BY EHWX",
      "taf": "TAF EHEH 030509Z 0306/0412 19005KT CAVOK"
    },
    {
      "icao": "EKBI",
      "alert": "OK",
      "vis_m": 9999,
      "fzfg": false,
      "metar_trigger": false,
      "taf_trigger": false,
      "metar": "METAR EKBI 030620Z AUTO 29002KT 9999 OVC003/// 09/09 Q1012",
      "taf": "TAF EKBI 030527Z 0306/0406 27008KT 3000 BR BKN003"
    },
    {
      "icao": "EKCH",
      "alert": "OK",
      "vis_m": 9999,
      "fzfg": false,
      "metar_trigger": false,
      "taf_trigger": false,
      "metar": "METAR EKCH 030620Z AUTO 28006KT 260V320 9999 OVC120/// 13/10 Q1012 TEMPO 4000 BR BKN004",
      "taf": "TAF EKCH 030527Z 0306/0406 26008KT 9999 FEW004"
    },
    {
      "icao": "ENAL",
      "alert": "OK",
      "vis_m": 9999,
      "fzfg": false,
      "metar_trigger": false,
      "taf_trigger": false,
      "metar": "METAR ENAL 030620Z 28003KT 240V320 9999 BKN046 05/M04 Q1013",
      "taf": "TAF ENAL 030500Z 0306/0315 32005KT 9999 SCT040"
    },
    {
      "icao": "ENBR",
      "alert": "OK",
      "vis_m": 9999,
      "fzfg": false,
      "metar_trigger": false,
      "taf_trigger": false,
      "metar": "METAR ENBR 030620Z 33006KT 9999 BKN025 04/02 Q1012 NOSIG RMK WIND 1200FT 34009KT",
      "taf": "TAF ENBR 030500Z 0306/0406 34010KT 9999 SCT025"
    },
    {
      "icao": "ENGM",
      "alert": "OK",
      "vis_m": 9999,
      "fzfg": false,
      "metar_trigger": false,
      "taf_trigger": false,
      "metar": "METAR ENGM 030620Z 02009KT 9999 OVC032 06/M02 Q1010 NOSIG",
      "taf": "TAF ENGM 030500Z 0306/0406 01008KT 9999 SCT020 BKN030"
    },
    {
      "icao": "ENHD",
      "alert": "OK",
      "vis_m": 9999,
      "fzfg": false,
      "metar_trigger": false,
      "taf_trigger": false,
      "metar": "METAR ENHD 030620Z COR 33014KT 9999 SCT025 07/02 Q1012",
      "taf": "TAF ENHD 030500Z 0306/0315 34018KT 9999 SCT018"
    },
    {
      "icao": "ENTC",
      "alert": "OK",
      "vis_m": 9999,
      "fzfg": false,
      "metar_trigger": false,
      "taf_trigger": false,
      "metar": "METAR ENTC 030620Z 21019KT 9999 VCSH FEW023 SCT030CB BKN040 M00/M03 Q1000 RMK WIND 2600FT 21013KT",
      "taf": "TAF ENTC 030500Z 0306/0406 20015KT 9999 -SHSN SCT020 BKN030"
    },
    {
      "icao": "ENTO",
      "alert": "OK",
      "vis_m": 9999,
      "fzfg": false,
      "metar_trigger": false,
      "taf_trigger": false,
      "metar": "METAR ENTO 030620Z 02011KT 9999 OVC014 08/04 Q1009",
      "taf": "TAF ENTO 030500Z 0306/0406 03010KT 9999 BKN012"
    },
    {
      "icao": "ENVA",
      "alert": "OK",
      "vis_m": 9999,
      "fzfg": false,
      "metar_trigger": false,
      "taf_trigger": false,
      "metar": "METAR ENVA 030620Z 21006KT 9999 FEW023 BKN050 03/01 Q1012 NOSIG RMK WIND 670FT 23007KT",
      "taf": "TAF ENVA 030500Z 0306/0406 27005KT 9999 FEW020 BKN030"
    },
    {
      "icao": "ENZV",
      "alert": "OK",
      "vis_m": 9999,
      "fzfg": false,
      "metar_trigger": false,
      "taf_trigger": false,
      "metar": "METAR ENZV 030620Z 35009KT 9999 SCT013 BKN021 07/03 Q1012 NOSIG",
      "taf": "TAF ENZV 030500Z 0306/0406 33008KT 9999 SCT018"
    },
    {
      "icao": "EPGD",
      "alert": "OK",
      "vis_m": 9999,
      "fzfg": false,
      "metar_trigger": false,
      "taf_trigger": false,
      "metar": "METAR EPGD 030630Z 23008KT CAVOK 19/03 Q1014",
      "taf": "TAF EPGD 030530Z 0306/0406 23008KT CAVOK"
    },
    {
      "icao": "EPKK",
      "alert": "OK",
      "vis_m": 9999,
      "fzfg": false,
      "metar_trigger": false,
      "taf_trigger": false,
      "metar": "METAR EPKK 030630Z VRB01KT CAVOK 16/05 Q1020",
      "taf": "TAF EPKK 030530Z 0306/0406 VRB02KT CAVOK"
    },
    {
      "icao": "EPKT",
      "alert": "OK",
      "vis_m": 9999,
      "fzfg": false,
      "metar_trigger": false,
      "taf_trigger": false,
      "metar": "METAR EPKT 030630Z 19009KT CAVOK 16/03 Q1019",
      "taf": "TAF EPKT 030530Z 0306/0406 16004KT CAVOK"
    },
    {
      "icao": "EPLB",
      "alert": "OK",
      "vis_m": 9999,
      "fzfg": false,
      "metar_trigger": false,
      "taf_trigger": false,
      "metar": "METAR EPLB 030630Z 25008KT CAVOK 18/06 Q1019",
      "taf": "TAF EPLB 030530Z 0306/0406 24010KT CAVOK"
    },
    {
      "icao": "EPMO",
      "alert": "OK",
      "vis_m": 9999,
      "fzfg": false,
      "metar_trigger": false,
      "taf_trigger": false,
      "metar": "METAR EPMO 030630Z 21008KT CAVOK 18/06 Q1018",
      "taf": "TAF EPMO 030530Z 0306/0406 21012KT CAVOK"
    },
    {
      "icao": "EPPO",
      "alert": "OK",
      "vis_m": 9999,
      "fzfg": false,
      "metar_trigger": false,
      "taf_trigger": false,
      "metar": "METAR EPPO 030630Z 16005KT CAVOK 17/06 Q1016",
      "taf": "TAF EPPO 030530Z 0306/0406 14004KT CAVOK"
    },
    {
      "icao": "EPRA",
      "alert": "OK",
      "vis_m": 9999,
      "fzfg": false,
      "metar_trigger": false,
      "taf_trigger": false,
      "metar": "METAR EPRA 030630Z 22008KT CAVOK 18/04 Q1019",
      "taf": "TAF EPRA 030530Z 0306/0315 20012KT CAVOK"
    },
    {
      "icao": "EPRZ",
      "alert": "OK",
      "vis_m": 9999,
      "fzfg": false,
      "metar_trigger": false,
      "taf_trigger": false,
      "metar": "METAR EPRZ 030630Z 20008KT CAVOK 16/02 Q1021",
      "taf": "TAF EPRZ 030530Z 0306/0406 20006KT CAVOK"
    },
    {
      "icao": "EPSC",
      "alert": "OK",
      "vis_m": 9999,
      "fzfg": false,
      "metar_trigger": false,
      "taf_trigger": false,
      "metar": "METAR EPSC 030630Z 16006KT CAVOK 17/06 Q1013",
      "taf": "TAF EPSC 030530Z 0306/0406 14008KT CAVOK"
    },
    {
      "icao": "EPSY",
      "alert": "OK",
      "vis_m": 9999,
      "fzfg": false,
      "metar_trigger": false,
      "taf_trigger": false,
      "metar": "METAR EPSY 030630Z 22009KT CAVOK 19/04 Q1017",
      "taf": "TAF EPSY 030530Z 0306/0315 22010KT CAVOK"
    },
    {
      "icao": "EPWA",
      "alert": "OK",
      "vis_m": 9999,
      "fzfg": false,
      "metar_trigger": false,
      "taf_trigger": false,
      "metar": "METAR EPWA 030630Z 20006KT 170V240 CAVOK 20/04 Q1018 NOSIG",
      "taf": "TAF EPWA 030530Z 0306/0406 14002KT CAVOK"
    },
    {
      "icao": "EPWR",
      "alert": "OK",
      "vis_m": 9999,
      "fzfg": false,
      "metar_trigger": false,
      "taf_trigger": false,
      "metar": "METAR EPWR 030630Z 13005KT CAVOK 17/06 Q1017",
      "taf": "TAF EPWR 030530Z 0306/0406 12006KT CAVOK"
    },
    {
      "icao": "ESGG",
      "alert": "OK",
      "vis_m": 3900,
      "fzfg": false,
      "metar_trigger": false,
      "taf_trigger": false,
      "metar": "METAR ESGG 030620Z 23007KT 3900 BR OVC003 09/09 Q1009",
      "taf": "TAF ESGG 030530Z 0306/0406 25005KT 9999 BKN005"
    },
    {
      "icao": "ESKN",
      "alert": "OK",
      "vis_m": 9999,
      "fzfg": false,
      "metar_trigger": false,
      "taf_trigger": false,
      "metar": "METAR ESKN 030620Z 03005KT 9999 BKN036 12/08 Q1009",
      "taf": "TAF ESKN 030530Z 0306/0406 35004KT 9999 SCT045"
    },
    {
      "icao": "ESMS",
      "alert": "OK",
      "vis_m": 9999,
      "fzfg": false,
      "metar_trigger": false,
      "taf_trigger": false,
      "metar": "METAR ESMS 030620Z 28005KT CAVOK 14/10 Q1011",
      "taf": "TAF ESMS 030527Z 0306/0406 26006KT 9999 FEW008"
    },
    {
      "icao": "ESSA",
      "alert": "OK",
      "vis_m": 9999,
      "fzfg": false,
      "metar_trigger": false,
      "taf_trigger": false,
      "metar": "METAR ESSA 030620Z 02010KT 9999 BKN010 05/04 Q1010 TEMPO BKN015",
      "taf": "TAF ESSA 030530Z 0306/0406 03012KT 9999 BKN008"
    },
    {
      "icao": "EYKA",
      "alert": "OK",
      "vis_m": 9999,
      "fzfg": false,
      "metar_trigger": false,
      "taf_trigger": false,
      "metar": "METAR EYKA 030620Z 25008KT CAVOK 18/04 Q1014",
      "taf": "TAF EYKA 030500Z 0306/0406 VRB04KT 9000 NSC"
    },
    {
      "icao": "EYPA",
      "alert": "OK",
      "vis_m": 9999,
      "fzfg": false,
      "metar_trigger": false,
      "taf_trigger": false,
      "metar": "METAR EYPA 030620Z 20009KT 160V230 CAVOK 14/05 Q1012",
      "taf": "TAF EYPA 030500Z 0306/0406 21010KT 9000 NSC"
    },
    {
      "icao": "EYVI",
      "alert": "OK",
      "vis_m": 9999,
      "fzfg": false,
      "metar_trigger": false,
      "taf_trigger": false,
      "metar": "METAR EYVI 030620Z 19006KT 170V230 CAVOK 16/04 Q1015 NOSIG",
      "taf": "TAF EYVI 030500Z 0306/0406 25010KT 9000 NSC"
    },
    {
      "icao": "GCFV",
      "alert": "OK",
      "vis_m": 9999,
      "fzfg": false,
      "metar_trigger": false,
      "taf_trigger": false,
      "metar": "METAR GCFV 030630Z 34009KT 9999 SCT021 18/13 Q1017",
      "taf": "TAF GCFV 030200Z 0303/0403 02008KT 9999 SCT020 TX22/0314Z TN17/0306Z"
    },
    {
      "icao": "GCLP",
      "alert": "OK",
      "vis_m": 9999,
      "fzfg": false,
      "metar_trigger": false,
      "taf_trigger": false,
      "metar": "METAR GCLP 030630Z 01012KT 9999 FEW025 18/14 Q1017 NOSIG",
      "taf": "TAF GCLP 030200Z 0303/0403 01011KT 9999 SCT025 TX24/0314Z TN18/0306Z"
    },
    {
      "icao": "GCTS",
      "alert": "OK",
      "vis_m": 9999,
      "fzfg": false,
      "metar_trigger": false,
      "taf_trigger": false,
      "metar": "METAR GCTS 030630Z 03004KT 360V060 9999 SCT025 18/13 Q1017 NOSIG",
      "taf": "TAF GCTS 030200Z 0303/0403 05007KT 9999 FEW025 TX24/0314Z TN17/0306Z"
    },
    {
      "icao": "GMAD",
      "alert": "OK",
      "vis_m": 9999,
      "fzfg": false,
      "metar_trigger": false,
      "taf_trigger": false,
      "metar": "METAR GMAD 030630Z 00000KT CAVOK 14/12 Q1014 NOSIG",
      "taf": "TAF GMAD 030500Z 0306/0412 22006KT 8000 SCT010 SCT016"
    },
    {
      "icao": "GMMN",
      "alert": "OK",
      "vis_m": 9999,
      "fzfg": false,
      "metar_trigger": false,
      "taf_trigger": false,
      "metar": "METAR GMMN 030630Z VRB02KT 9999 BKN023 15/12 Q1016 NOSIG",
      "taf": "TAF GMMN 030500Z 0306/0412 18004KT 9999 BKN023"
    },
    {
      "icao": "GMMX",
      "alert": "OK",
      "vis_m": 9999,
      "fzfg": false,
      "metar_trigger": false,
      "taf_trigger": false,
      "metar": "METAR GMMX 030630Z 27004KT 9999 SCT033 13/11 Q1016 NOSIG",
      "taf": "TAF GMMX 030500Z 0306/0412 06006KT 8000 SCT026"
    },
    {
      "icao": "HEGN",
      "alert": "OK",
      "vis_m": 9999,
      "fzfg": false,
      "metar_trigger": false,
      "taf_trigger": false,
      "metar": "METAR HEGN 030600Z 00000KT CAVOK 27/20 Q1008 NOSIG",
      "taf": "TAF HEGN 030500Z 0306/0412 32008G22KT 9999 SCT020"
    },
    {
      "icao": "HEMA",
      "alert": "OK",
      "vis_m": 9999,
      "fzfg": false,
      "metar_trigger": false,
      "taf_trigger": false,
      "metar": "METAR HEMA 030600Z 30005KT CAVOK 32/17 Q1008 NOSIG",
      "taf": "TAF HEMA 030500Z 0306/0412 32008G22KT 9999 SCT020"
    },
    {
      "icao": "HESH",
      "alert": "OK",
      "vis_m": 9999,
      "fzfg": false,
      "metar_trigger": false,
      "taf_trigger": false,
      "metar": "METAR HESH 030600Z 17004KT CAVOK 29/13 Q1008 NOSIG",
      "taf": "TAF HESH 030500Z 0306/0412 34006G20KT 9999 SCT020"
    },
    {
      "icao": "HESX",
      "alert": "OK",
      "vis_m": 9999,
      "fzfg": false,
      "metar_trigger": false,
      "taf_trigger": false,
      "metar": "METAR HESX 030600Z 28007KT CAVOK 19/11 Q1009 NOSIG",
      "taf": "TAF HESX 030500Z 0306/0412 30009KT 9999 FEW025"
    },
    {
      "icao": "LATI",
      "alert": "OK",
      "vis_m": 9999,
      "fzfg": false,
      "metar_trigger": false,
      "taf_trigger": false,
      "metar": "METAR LATI 030620Z 29004KT 9999 SCT100 13/07 Q1018 NOSIG",
      "taf": "TAF LATI 030500Z 0306/0406 VRB05KT 9999 SCT100 TX23/0312Z TN07/0404Z"
    },
    {
      "icao": "LBPD",
      "alert": "OK",
      "vis_m": 9999,
      "fzfg": false,
      "metar_trigger": false,
      "taf_trigger": false,
      "metar": "METAR LBPD 030630Z AUTO 29008KT 9999 BKN071/// 09/07 Q1021 NOSIG",
      "taf": "TAF LBPD 030500Z 0306/0406 30010KT 9999 SCT040 BKN070"
    },
    {
      "icao": "LBSF",
      "alert": "OK",
      "vis_m": 9999,
      "fzfg": false,
      "metar_trigger": false,
      "taf_trigger": false,
      "metar": "METAR LBSF 030630Z VRB02KT 9999 FEW022 SCT037 BKN047 06/M00 Q1022 NOSIG",
      "taf": "TAF LBSF 030500Z 0306/0406 VRB04KT 9999 FEW040 BKN070"
    },
    {
      "icao": "LBWN",
      "alert": "OK",
      "vis_m": 9999,
      "fzfg": false,
      "metar_trigger": false,
      "taf_trigger": false,
      "metar": "METAR LBWN 030630Z 03016KT 350V070 9999 SCT033 11/05 Q1019 NOSIG",
      "taf": "TAF LBWN 030500Z 0306/0406 03014KT 9999 BKN040"
    },
    {
      "icao": "LCLK",
      "alert": "OK",
      "vis_m": 9999,
      "fzfg": false,
      "metar_trigger": false,
      "taf_trigger": false,
      "metar": "METAR LCLK 030630Z 35004KT 300V040 9999 -RA FEW018 18/16 Q1006 NOSIG",
      "taf": "TAF LCLK 030530Z 0306/0406 02007KT 9999 FEW020"
    },
    {
      "icao": "LCPH",
      "alert": "OK",
      "vis_m": 5000,
      "fzfg": false,
      "metar_trigger": false,
      "taf_trigger": false,
      "metar": "METAR LCPH 030630Z 35007KT 5000 -SHRA SCT010 SCT035 BKN050 15/14 Q1007 TEMPO 3000 TSRA",
      "taf": "TAF LCPH 030530Z 0306/0406 06009KT 9999 FEW020"
    },
    {
      "icao": "LEAL",
      "alert": "OK",
      "vis_m": 9999,
      "fzfg": false,
      "metar_trigger": false,
      "taf_trigger": false,
      "metar": "METAR LEAL 030630Z 11008KT 090V160 9999 -RA FEW012 SCT015 BKN021 19/16 Q1016 NOSIG",
      "taf": "TAF LEAL 030500Z 0306/0406 VRB04KT 9999 SCT015 TX23/0313Z TN15/0306Z"
    },
    {
      "icao": "LEBB",
      "alert": "OK",
      "vis_m": 9999,
      "fzfg": false,
      "metar_trigger": false,
      "taf_trigger": false,
      "metar": "METAR LEBB 030630Z 00000KT 9999 BCFG SCT001 SCT028 13/13 Q1013 NOSIG",
      "taf": "TAF LEBB 030500Z 0306/0406 30009KT 9999 FEW035 TX20/0314Z TN12/0306Z"
    },
    {
      "icao": "LEBL",
      "alert": "OK",
      "vis_m": 9999,
      "fzfg": false,
      "metar_trigger": false,
      "taf_trigger": false,
      "metar": "METAR LEBL 030630Z 08008KT 040V100 9999 SCT018 18/14 Q1017 NOSIG",
      "taf": ""
    },
    {
      "icao": "LECH",
      "alert": "OK",
      "vis_m": 4000,
      "fzfg": false,
      "metar_trigger": false,
      "taf_trigger": false,
      "metar": "METAR LECH 030630Z VRB01KT 4000 BR FEW003 SCT011 OVC015 14/14 Q1016",
      "taf": "TAF LECH 030500Z 0306/0406 VRB04KT 9999 SCT015 BKN025 TX20/0312Z TN13/0306Z"
    },
    {
      "icao": "LEMD",
      "alert": "OK",
      "vis_m": 4000,
      "fzfg": false,
      "metar_trigger": false,
      "taf_trigger": false,
      "metar": "METAR LEMD 030630Z 22011KT 4000 +SHRA BR BKN011CB BKN060TCU 12/12 Q1014 BECMG TSRA",
      "taf": ""
    },
    {
      "icao": "LEMG",
      "alert": "OK",
      "vis_m": 9999,
      "fzfg": false,
      "metar_trigger": false,
      "taf_trigger": false,
      "metar": "METAR LEMG 030630Z 00000KT 9999 FEW028 BKN045 18/15 Q1015 NOSIG",
      "taf": "TAF LEMG 030500Z 0306/0406 29005KT 9999 SCT025 TX22/0314Z TN16/0306Z"
    },
    {
      "icao": "LEVC",
      "alert": "OK",
      "vis_m": 7000,
      "fzfg": false,
      "metar_trigger": false,
      "taf_trigger": false,
      "metar": "METAR LEVC 030630Z 07004KT 7000 SCT013 BKN016 17/15 Q1015 NOSIG",
      "taf": "TAF LEVC 030500Z 0306/0406 11006KT 9999 SCT020 SCT030 TX22/0313Z TN16/0306Z"
    },
    {
      "icao": "LEXJ",
      "alert": "OK",
      "vis_m": 9999,
      "fzfg": false,
      "metar_trigger": false,
      "taf_trigger": false,
      "metar": "METAR LEXJ 030630Z 25001KT 9999 FEW003 BKN078 13/12 Q1013",
      "taf": "TAF LEXJ 030200Z 0303/0403 21007KT 9999 FEW010 TX19/0313Z TN12/0305Z"
    },
    {
      "icao": "LEZG",
      "alert": "OK",
      "vis_m": 9999,
      "fzfg": false,
      "metar_trigger": false,
      "taf_trigger": false,
      "metar": "METAR LEZG 030630Z 10009KT 070V130 9999 4000SW BKN009 15/13 Q1015 NOSIG",
      "taf": "TAF LEZG 030500Z 0306/0406 11009KT 9999 SCT040 TX22/0314Z TN14/0306Z"
    },
    {
      "icao": "LEZL",
      "alert": "OK",
      "vis_m": 9999,
      "fzfg": false,
      "metar_trigger": false,
      "taf_trigger": false,
      "metar": "METAR LEZL 030630Z 21004KT 160V240 9999 SCT018 18/16 Q1015 NOSIG",
      "taf": "TAF LEZL 030200Z 0303/0403 22009KT 9999 SCT035 TX25/0315Z TN15/0306Z"
    },
    {
      "icao": "LFBD",
      "alert": "OK",
      "vis_m": 9999,
      "fzfg": false,
      "metar_trigger": false,
      "taf_trigger": false,
      "metar": "METAR LFBD 030630Z AUTO 17004KT 140V200 9999 OVC002 14/14 Q1013 NOSIG",
      "taf": "TAF LFBD 030500Z 0306/0412 17005KT CAVOK TX22/0314Z TN12/0405Z"
    },
    {
      "icao": "LFLL",
      "alert": "OK",
      "vis_m": 9999,
      "fzfg": false,
      "metar_trigger": false,
      "taf_trigger": false,
      "metar": "METAR LFLL 030630Z 14004KT CAVOK 15/05 Q1016 NOSIG",
      "taf": "TAF LFLL 030500Z 0306/0412 18012KT CAVOK"
    },
    {
      "icao": "LFLS",
      "alert": "OK",
      "vis_m": 9999,
      "fzfg": false,
      "metar_trigger": false,
      "taf_trigger": false,
      "metar": "METAR LFLS 030630Z AUTO 22010KT 180V260 CAVOK 14/06 Q1017 NOSIG",
      "taf": "TAF LFLS 030200Z 0303/0403 23009KT CAVOK"
    },
    {
      "icao": "LFMN",
      "alert": "OK",
      "vis_m": 9999,
      "fzfg": false,
      "metar_trigger": false,
      "taf_trigger": false,
      "metar": "METAR LFMN 030630Z 32003KT 290V350 CAVOK 16/06 Q1020 NOSIG",
      "taf": "TAF LFMN 030200Z 0303/0409 34005KT CAVOK"
    },
    {
      "icao": "LFOB",
      "alert": "OK",
      "vis_m": 9999,
      "fzfg": false,
      "metar_trigger": false,
      "taf_trigger": false,
      "metar": "METAR LFOB 030630Z AUTO 17005KT 9999 FEW037/// OVC078/// ///TCU 14/13 Q1011 TEMPO BKN009 BKN020",
      "taf": "TAF LFOB 030500Z 0306/0406 19007KT 9999 SCT020 BKN060"
    },
    {
      "icao": "LFPO",
      "alert": "OK",
      "vis_m": 9999,
      "fzfg": false,
      "metar_trigger": false,
      "taf_trigger": false,
      "metar": "METAR LFPO 030630Z 19006KT 9999 -RA BKN008 BKN030 14/14 Q1012 NOSIG",
      "taf": "TAF LFPO 030500Z 0306/0412 20008KT 9999 BKN050"
    },
    {
      "icao": "LFSB",
      "alert": "OK",
      "vis_m": 9999,
      "fzfg": false,
      "metar_trigger": false,
      "taf_trigger": false,
      "metar": "METAR LFSB 030630Z AUTO 15006KT CAVOK 16/10 Q1016 NOSIG",
      "taf": "TAF LFSB 030500Z 0306/0406 VRB03KT CAVOK"
    },
    {
      "icao": "LGAV",
      "alert": "OK",
      "vis_m": 9999,
      "fzfg": false,
      "metar_trigger": false,
      "taf_trigger": false,
      "metar": "METAR LGAV 030620Z 31007KT 9999 FEW018 SCT030 09/04 Q1017 NOSIG",
      "taf": "TAF LGAV 030500Z 0306/0406 32012KT 9999 SCT025 BKN070"
    },
    {
      "icao": "LGTS",
      "alert": "OK",
      "vis_m": 9999,
      "fzfg": false,
      "metar_trigger": false,
      "taf_trigger": false,
      "metar": "METAR LGTS 030620Z 31007KT 9999 -RA FEW018 BKN030 11/06 Q1019 NOSIG",
      "taf": "TAF LGTS 030500Z 0306/0406 VRB03KT 9999 SCT025"
    },
    {
      "icao": "LHBP",
      "alert": "OK",
      "vis_m": 9999,
      "fzfg": false,
      "metar_trigger": false,
      "taf_trigger": false,
      "metar": "METAR LHBP 030630Z 08007KT CAVOK 15/01 Q1022 NOSIG",
      "taf": "TAF LHBP 030515Z 0306/0406 10008KT CAVOK"
    },
    {
      "icao": "LHDC",
      "alert": "OK",
      "vis_m": 9999,
      "fzfg": false,
      "metar_trigger": false,
      "taf_trigger": false,
      "metar": "METAR LHDC 030615Z AUTO 18005KT 130V240 CAVOK 12/02 Q1023 NOSIG",
      "taf": "TAF LHDC 030515Z 0306/0315 08006KT CAVOK"
    },
    {
      "icao": "LIBD",
      "alert": "OK",
      "vis_m": 9999,
      "fzfg": false,
      "metar_trigger": false,
      "taf_trigger": false,
      "metar": "METAR LIBD 030620Z 29007KT CAVOK 18/04 Q1019",
      "taf": "TAF LIBD 030500Z 0306/0406 27008KT CAVOK"
    },
    {
      "icao": "LIBG",
      "alert": "OK",
      "vis_m": 9999,
      "fzfg": false,
      "metar_trigger": false,
      "taf_trigger": false,
      "metar": "SPECI LIBG 030555Z 34011KT CAVOK 18/06 Q1018",
      "taf": ""
    },
    {
      "icao": "LIBP",
      "alert": "OK",
      "vis_m": 9999,
      "fzfg": false,
      "metar_trigger": false,
      "taf_trigger": false,
      "metar": "METAR LIBP 030620Z AUTO 23007KT 9999 NCD 15/06 Q1020",
      "taf": "TAF LIBP 030500Z 0306/0406 23007KT 9999 FEW050"
    },
    {
      "icao": "LIBR",
      "alert": "OK",
      "vis_m": 9999,
      "fzfg": false,
      "metar_trigger": false,
      "taf_trigger": false,
      "metar": "METAR LIBR 030620Z 32017KT CAVOK 17/09 Q1017",
      "taf": "TAF LIBR 030500Z 0306/0406 33015KT CAVOK"
    },
    {
      "icao": "LICA",
      "alert": "OK",
      "vis_m": 9999,
      "fzfg": false,
      "metar_trigger": false,
      "taf_trigger": false,
      "metar": "METAR LICA 030620Z AUTO 23003KT 190V280 9999 FEW025/// 16/11 Q1021",
      "taf": "TAF LICA 030500Z 0306/0406 07005KT CAVOK"
    },
    {
      "icao": "LICC",
      "alert": "OK",
      "vis_m": 9999,
      "fzfg": false,
      "metar_trigger": false,
      "taf_trigger": false,
      "metar": "METAR LICC 030620Z 24011KT CAVOK 15/10 Q1021",
      "taf": "TAF LICC 030500Z 0306/0406 27008KT CAVOK"
    },
    {
      "icao": "LICJ",
      "alert": "OK",
      "vis_m": 9999,
      "fzfg": false,
      "metar_trigger": false,
      "taf_trigger": false,
      "metar": "METAR LICJ 030620Z VRB02KT CAVOK 17/04 Q1022",
      "taf": "TAF LICJ 030500Z 0306/0406 17005KT CAVOK"
    },
    {
      "icao": "LIMC",
      "alert": "OK",
      "vis_m": 9999,
      "fzfg": false,
      "metar_trigger": false,
      "taf_trigger": false,
      "metar": "METAR LIMC 030620Z VRB02KT CAVOK 14/10 Q1019 NOSIG",
      "taf": "TAF LIMC 030500Z 0306/0412 VRB05KT CAVOK"
    },
    {
      "icao": "LIME",
      "alert": "OK",
      "vis_m": 9999,
      "fzfg": false,
      "metar_trigger": false,
      "taf_trigger": false,
      "metar": "METAR LIME 030620Z 02004KT CAVOK 15/07 Q1019 NOSIG",
      "taf": "TAF LIME 030500Z 0306/0406 VRB05KT CAVOK"
    },
    {
      "icao": "LIMF",
      "alert": "OK",
      "vis_m": 9999,
      "fzfg": false,
      "metar_trigger": false,
      "taf_trigger": false,
      "metar": "METAR LIMF 030620Z VRB01KT CAVOK 16/10 Q1019",
      "taf": "TAF LIMF 030500Z 0306/0406 VRB05KT 9999 SCT070"
    },
    {
      "icao": "LIMJ",
      "alert": "OK",
      "vis_m": 9999,
      "fzfg": false,
      "metar_trigger": false,
      "taf_trigger": false,
      "metar": "METAR LIMJ 030620Z 01002KT CAVOK 16/05 Q1020",
      "taf": "TAF LIMJ 030500Z 0306/0406 VRB05KT CAVOK"
    },
    {
      "icao": "LIPE",
      "alert": "OK",
      "vis_m": 9999,
      "fzfg": false,
      "metar_trigger": false,
      "taf_trigger": false,
      "metar": "METAR LIPE 030620Z 19007KT CAVOK 15/07 Q1019",
      "taf": "TAF LIPE 030500Z 0306/0406 VRB05KT CAVOK"
    },
    {
      "icao": "LIPH",
      "alert": "OK",
      "vis_m": 9999,
      "fzfg": false,
      "metar_trigger": false,
      "taf_trigger": false,
      "metar": "METAR LIPH 030620Z VRB02KT CAVOK 16/09 Q1019",
      "taf": "TAF LIPH 030500Z 0306/0406 VRB05KT CAVOK"
    },
    {
      "icao": "LIPQ",
      "alert": "OK",
      "vis_m": 9999,
      "fzfg": false,
      "metar_trigger": false,
      "taf_trigger": false,
      "metar": "METAR LIPQ 030620Z AUTO 12004KT 9999 NCD 16/08 Q1019",
      "taf": "TAF LIPQ 030500Z 0306/0406 VRB05KT 9999 FEW060"
    },
    {
      "icao": "LIPR",
      "alert": "OK",
      "vis_m": 9999,
      "fzfg": false,
      "metar_trigger": false,
      "taf_trigger": false,
      "metar": "METAR LIPR 030620Z VRB02KT CAVOK 15/07 Q1019",
      "taf": "TAF LIPR 030500Z 0306/0406 VRB05KT CAVOK"
    },
    {
      "icao": "LIPX",
      "alert": "OK",
      "vis_m": 9999,
      "fzfg": false,
      "metar_trigger": false,
      "taf_trigger": false,
      "metar": "METAR LIPX 030620Z VRB01KT CAVOK 15/08 Q1019",
      "taf": "TAF LIPX 030500Z 0306/0406 VRB05KT CAVOK"
    },
    {
      "icao": "LIPY",
      "alert": "OK",
      "vis_m": 9999,
      "fzfg": false,
      "metar_trigger": false,
      "taf_trigger": false,
      "metar": "METAR LIPY 030620Z AUTO 19004KT 150V230 9999 NCD 16/08 Q1020",
      "taf": "TAF LIPY 030500Z 0306/0406 24008KT CAVOK"
    },
    {
      "icao": "LIPZ",
      "alert": "OK",
      "vis_m": 9999,
      "fzfg": false,
      "metar_trigger": false,
      "taf_trigger": false,
      "metar": "METAR LIPZ 030620Z 04003KT 010V070 CAVOK 15/09 Q1019 NOSIG",
      "taf": "TAF LIPZ 030500Z 0306/0412 02006KT CAVOK"
    },
    {
      "icao": "LIRF",
      "alert": "OK",
      "vis_m": 9999,
      "fzfg": false,
      "metar_trigger": false,
      "taf_trigger": false,
      "metar": "METAR LIRF 030620Z VRB01KT CAVOK 15/10 Q1022 NOSIG",
      "taf": "TAF LIRF 030500Z 0306/0412 05006KT CAVOK"
    },
    {
      "icao": "LIRN",
      "alert": "OK",
      "vis_m": 9999,
      "fzfg": false,
      "metar_trigger": false,
      "taf_trigger": false,
      "metar": "METAR LIRN 030620Z 03003KT 320V080 CAVOK 15/04 Q1021 NOSIG",
      "taf": "TAF LIRN 030500Z 0306/0406 VRB05KT CAVOK"
    },
    {
      "icao": "LIRP",
      "alert": "OK",
      "vis_m": 9999,
      "fzfg": false,
      "metar_trigger": false,
      "taf_trigger": false,
      "metar": "METAR LIRP 030615Z 10007KT CAVOK 12/09 Q1021 NOSIG",
      "taf": "TAF LIRP 030500Z 0306/0406 14005KT CAVOK"
    },
    {
      "icao": "LIRZ",
      "alert": "OK",
      "vis_m": 9999,
      "fzfg": false,
      "metar_trigger": false,
      "taf_trigger": false,
      "metar": "METAR LIRZ 030620Z AUTO VRB01KT 9999 NCD 12/06 Q1022",
      "taf": "TAF LIRZ 030500Z 0306/0406 VRB05KT CAVOK"
    },
    {
      "icao": "LJLJ",
      "alert": "OK",
      "vis_m": 9999,
      "fzfg": false,
      "metar_trigger": false,
      "taf_trigger": false,
      "metar": "METAR LJLJ 030630Z 00000KT CAVOK 12/07 Q1019 NOSIG",
      "taf": "TAF LJLJ 030500Z 0306/0406 VRB02KT CAVOK"
    },
    {
      "icao": "LKMT",
      "alert": "OK",
      "vis_m": 9999,
      "fzfg": false,
      "metar_trigger": false,
      "taf_trigger": false,
      "metar": "METAR LKMT 030630Z 24007KT CAVOK 15/06 Q1019 NOSIG",
      "taf": "TAF LKMT 030500Z 0306/0406 20012KT CAVOK"
    },
    {
      "icao": "LKPR",
      "alert": "OK",
      "vis_m": 9999,
      "fzfg": false,
      "metar_trigger": false,
      "taf_trigger": false,
      "metar": "METAR LKPR 030630Z 14006KT CAVOK 16/04 Q1017 NOSIG",
      "taf": "TAF LKPR 030500Z 0306/0412 16006KT CAVOK"
    },
    {
      "icao": "LLBG",
      "alert": "OK",
      "vis_m": 9999,
      "fzfg": false,
      "metar_trigger": false,
      "taf_trigger": false,
      "metar": "METAR LLBG 030620Z 21017KT CAVOK 23/16 Q1005 NOSIG",
      "taf": "TAF LLBG 030503Z 0306/0406 21010KT 9999 FEW020 TX24/0309Z TN15/0404Z"
    },
    {
      "icao": "LMML",
      "alert": "OK",
      "vis_m": 9999,
      "fzfg": false,
      "metar_trigger": false,
      "taf_trigger": false,
      "metar": "METAR LMML 030615Z 26004KT CAVOK 19/08 Q1022 NOSIG",
      "taf": "TAF LMML 030500Z 0306/0406 25010KT 9999 FEW025"
    },
    {
      "icao": "LOWW",
      "alert": "OK",
      "vis_m": 9999,
      "fzfg": false,
      "metar_trigger": false,
      "taf_trigger": false,
      "metar": "METAR LOWW 030620Z 12010KT 090V160 CAVOK 15/04 Q1019 NOSIG",
      "taf": "TAF LOWW 030515Z 0306/0412 14015KT CAVOK TX25/0412Z TN12/0403Z"
    },
    {
      "icao": "LPFR",
      "alert": "OK",
      "vis_m": 9999,
      "fzfg": false,
      "metar_trigger": false,
      "taf_trigger": false,
      "metar": "METAR LPFR 030630Z 04004KT 360V060 9999 FEW020 15/12 Q1015",
      "taf": "TAF LPFR 030500Z 0306/0406 31005KT 9999 FEW025"
    },
    {
      "icao": "LPMA",
      "alert": "OK",
      "vis_m": 9999,
      "fzfg": false,
      "metar_trigger": false,
      "taf_trigger": false,
      "metar": "METAR LPMA 030630Z 34005KT 320V020 9999 SCT015 18/13 Q1016",
      "taf": "TAF LPMA 030500Z 0306/0406 VRB05KT 9999 SCT015"
    },
    {
      "icao": "LPPR",
      "alert": "OK",
      "vis_m": 9999,
      "fzfg": false,
      "metar_trigger": false,
      "taf_trigger": false,
      "metar": "METAR LPPR 030630Z 17006KT 9999 SCT012 BKN018 FEW025TCU 14/13 Q1013",
      "taf": "TAF LPPR 030500Z 0306/0406 20005KT 9999 SCT015"
    },
    {
      "icao": "LPPS",
      "alert": "OK",
      "vis_m": 9999,
      "fzfg": false,
      "metar_trigger": false,
      "taf_trigger": false,
      "metar": "METAR LPPS 030630Z 14004KT 9999 FEW012 17/15 Q1017",
      "taf": "TAF LPPS 030500Z 0306/0412 VRB05KT 9999 SCT015"
    },
    {
      "icao": "LPPT",
      "alert": "OK",
      "vis_m": 9999,
      "fzfg": false,
      "metar_trigger": false,
      "taf_trigger": false,
      "metar": "METAR LPPT 030630Z 23004KT 9999 FEW015 13/13 Q1015",
      "taf": "TAF LPPT 030500Z 0306/0412 VRB02KT 9999 SCT012"
    },
    {
      "icao": "LQBK",
      "alert": "OK",
      "vis_m": 9999,
      "fzfg": false,
      "metar_trigger": false,
      "taf_trigger": false,
      "metar": "METAR LQBK 030630Z VRB02KT CAVOK 13/07 Q1020 NOSIG",
      "taf": "TAF LQBK 030500Z 0306/0406 VRB02KT CAVOK TX23/0313Z TN06/0404Z"
    },
    {
      "icao": "LQSA",
      "alert": "OK",
      "vis_m": 9999,
      "fzfg": false,
      "metar_trigger": false,
      "taf_trigger": false,
      "metar": "METAR LQSA 030630Z VRB02KT CAVOK 08/03 Q1021 NOSIG",
      "taf": "TAF LQSA 030500Z 0306/0406 31005KT CAVOK TX21/0313Z TN04/0404Z"
    },
    {
      "icao": "LQTZ",
      "alert": "OK",
      "vis_m": 9999,
      "fzfg": false,
      "metar_trigger": false,
      "taf_trigger": false,
      "metar": "METAR LQTZ 030630Z 00000KT CAVOK 12/07 Q1021",
      "taf": "TAF LQTZ 030500Z 0306/0406 34005KT CAVOK TX20/0313Z TN00/0404Z"
    },
    {
      "icao": "LRBC",
      "alert": "OK",
      "vis_m": 9999,
      "fzfg": false,
      "metar_trigger": false,
      "taf_trigger": false,
      "metar": "METAR LRBC 030630Z VRB02KT CAVOK 09/02 Q1024",
      "taf": "TAF LRBC 030500Z 0306/0315 VRB04KT CAVOK"
    },
    {
      "icao": "LRBS",
      "alert": "OK",
      "vis_m": 9999,
      "fzfg": false,
      "metar_trigger": false,
      "taf_trigger": false,
      "metar": "METAR LRBS 030630Z 01006KT 340V060 CAVOK 10/02 Q1023 NOSIG",
      "taf": "TAF LRBS 030500Z 0306/0406 03008KT CAVOK"
    },
    {
      "icao": "LRBV",
      "alert": "OK",
      "vis_m": 9999,
      "fzfg": false,
      "metar_trigger": false,
      "taf_trigger": false,
      "metar": "METAR LRBV 030630Z VRB03KT 9999 FEW004 04/01 Q1023",
      "taf": "TAF LRBV 030500Z 0306/0315 VRB04KT 5000 BR NSC"
    },
    {
      "icao": "LRCL",
      "alert": "OK",
      "vis_m": 9999,
      "fzfg": false,
      "metar_trigger": false,
      "taf_trigger": false,
      "metar": "METAR LRCL 030630Z 09004KT 040V120 CAVOK 10/02 Q1023",
      "taf": "TAF LRCL 030500Z 0306/0315 VRB04KT CAVOK"
    },
    {
      "icao": "LRCV",
      "alert": "OK",
      "vis_m": 9999,
      "fzfg": false,
      "metar_trigger": false,
      "taf_trigger": false,
      "metar": "METAR LRCV 030630Z 04007KT CAVOK 11/04 Q1023",
      "taf": "TAF LRCV 030500Z 0306/0315 VRB04KT CAVOK"
    },
    {
      "icao": "LRIA",
      "alert": "OK",
      "vis_m": 9999,
      "fzfg": false,
      "metar_trigger": false,
      "taf_trigger": false,
      "metar": "METAR LRIA 030630Z VRB02KT CAVOK 11/M01 Q1023",
      "taf": "TAF LRIA 030500Z 0306/0315 VRB04KT CAVOK"
    },
    {
      "icao": "LROP",
      "alert": "OK",
      "vis_m": 9999,
      "fzfg": false,
      "metar_trigger": false,
      "taf_trigger": false,
      "metar": "METAR LROP 030630Z 06007KT 020V080 CAVOK 10/01 Q1023 NOSIG",
      "taf": "TAF LROP 030500Z 0306/0406 03008KT CAVOK"
    },
    {
      "icao": "LRSB",
      "alert": "OK",
      "vis_m": 9999,
      "fzfg": false,
      "metar_trigger": false,
      "taf_trigger": false,
      "metar": "METAR LRSB 030630Z 11004KT 050V170 CAVOK 08/01 Q1023",
      "taf": "TAF LRSB 030500Z 0306/0406 VRB04KT CAVOK"
    },
    {
      "icao": "LRSM",
      "alert": "OK",
      "vis_m": 9999,
      "fzfg": false,
      "metar_trigger": false,
      "taf_trigger": false,
      "metar": "METAR LRSM 030630Z AUTO 16006KT 120V200 9999 NCD 15/00 Q1023",
      "taf": ""
    },
    {
      "icao": "LRSV",
      "alert": "OK",
      "vis_m": 9999,
      "fzfg": false,
      "metar_trigger": false,
      "taf_trigger": false,
      "metar": "METAR LRSV 030630Z 22005KT CAVOK 09/02 Q1022",
      "taf": "TAF LRSV 030500Z 0306/0315 VRB04KT CAVOK"
    },
    {
      "icao": "LRTM",
      "alert": "OK",
      "vis_m": 9999,
      "fzfg": false,
      "metar_trigger": false,
      "taf_trigger": false,
      "metar": "METAR LRTM 030630Z 07003KT 010V150 CAVOK 09/02 Q1023",
      "taf": "TAF LRTM 030500Z 0306/0315 VRB04KT CAVOK"
    },
    {
      "icao": "LRTR",
      "alert": "OK",
      "vis_m": 9999,
      "fzfg": false,
      "metar_trigger": false,
      "taf_trigger": false,
      "metar": "METAR LRTR 030630Z VRB02KT CAVOK 11/04 Q1023",
      "taf": "TAF LRTR 030500Z 0306/0406 VRB04KT CAVOK"
    },
    {
      "icao": "LTAC",
      "alert": "OK",
      "vis_m": 9999,
      "fzfg": false,
      "metar_trigger": false,
      "taf_trigger": false,
      "metar": "METAR LTAC 030620Z 08012KT 9999 SCT015 BKN030 BKN080 05/02 Q1010 NOSIG RMK RWY21C 09012KT RWY03L 08011KT RWY21R 07011KT RWY03R 06013KT RWY21L 08012KT",
      "taf": "TAF LTAC 030440Z 0306/0406 05015KT 9999 BKN030 BKN080"
    },
    {
      "icao": "LTFM",
      "alert": "OK",
      "vis_m": 9999,
      "fzfg": false,
      "metar_trigger": false,
      "taf_trigger": false,
      "metar": "METAR LTFM 030620Z 04028KT 9999 SCT017 BKN020 BKN070 10/07 Q1015 RESHRA NOSIG RMK RWY17L 04023KT RWY34L 03023G34KT RWY16R 04021KT RWY36 04025KT RWY18 05023KT",
      "taf": "TAF LTFM 030440Z 0306/0412 03026G38KT 9999 -SHRA BKN020 BKN070"
    },
    {
      "icao": "LUKK",
      "alert": "OK",
      "vis_m": 9999,
      "fzfg": false,
      "metar_trigger": false,
      "taf_trigger": false,
      "metar": "METAR LUKK 030630Z 04004KT 340V090 CAVOK 11/M02 Q1023 NOSIG",
      "taf": "TAF LUKK 030516Z 0306/0406 VRB06KT CAVOK"
    },
    {
      "icao": "LWOH",
      "alert": "OK",
      "vis_m": 9999,
      "fzfg": false,
      "metar_trigger": false,
      "taf_trigger": false,
      "metar": "METAR LWOH 030620Z 34006KT 300V030 9999 FEW010 BKN050 08/04 Q1019",
      "taf": "TAF LWOH 030510Z 0306/0406 02006KT 9999 SCT050 BKN090"
    },
    {
      "icao": "LWSK",
      "alert": "OK",
      "vis_m": 9999,
      "fzfg": false,
      "metar_trigger": false,
      "taf_trigger": false,
      "metar": "METAR LWSK 030620Z 02006KT 340V070 9999 SCT075 12/01 Q1020 NOSIG",
      "taf": "TAF LWSK 030510Z 0306/0406 VRB02KT 9999 SCT050"
    },
    {
      "icao": "LYBE",
      "alert": "OK",
      "vis_m": 9999,
      "fzfg": false,
      "metar_trigger": false,
      "taf_trigger": false,
      "metar": "METAR LYBE 030630Z 13010KT CAVOK 13/03 Q1022 NOSIG",
      "taf": "TAF LYBE 030500Z 0306/0406 12012KT CAVOK TX20/0313Z TN06/0404Z"
    },
    {
      "icao": "LYNI",
      "alert": "OK",
      "vis_m": 9999,
      "fzfg": false,
      "metar_trigger": false,
      "taf_trigger": false,
      "metar": "METAR LYNI 030630Z VRB03KT 9999 FEW030 12/00 Q1022 NOSIG",
      "taf": "TAF LYNI 030500Z 0306/0406 08012KT CAVOK TX17/0313Z TN03/0404Z"
    },
    {
      "icao": "LYPG",
      "alert": "OK",
      "vis_m": 9999,
      "fzfg": false,
      "metar_trigger": false,
      "taf_trigger": false,
      "metar": "METAR LYPG 030630Z VRB01KT 9999 FEW050 13/06 Q1018 NOSIG",
      "taf": "TAF LYPG 030500Z 0306/0406 36005KT 9999 FEW050 SCT090 TX23/0314Z TN09/0404Z"
    },
    {
      "icao": "LZIB",
      "alert": "OK",
      "vis_m": 9999,
      "fzfg": false,
      "metar_trigger": false,
      "taf_trigger": false,
      "metar": "METAR LZIB 030630Z 05008KT CAVOK 15/05 Q1020 NOSIG",
      "taf": "TAF LZIB 030515Z 0306/0406 04006KT CAVOK"
    },
    {
      "icao": "LZKZ",
      "alert": "OK",
      "vis_m": 9999,
      "fzfg": false,
      "metar_trigger": false,
      "taf_trigger": false,
      "metar": "METAR LZKZ 030630Z VRB01KT CAVOK 12/04 Q1023 NOSIG",
      "taf": "TAF LZKZ 030515Z 0306/0406 VRB02KT CAVOK"
    },
    {
      "icao": "LZTT",
      "alert": "OK",
      "vis_m": 9999,
      "fzfg": false,
      "metar_trigger": false,
      "taf_trigger": false,
      "metar": "METAR LZTT 030630Z VRB01KT CAVOK 13/02 Q1022 NOSIG",
      "taf": "TAF LZTT 030515Z 0306/0406 28006KT CAVOK"
    },
    {
      "icao": "OEJN",
      "alert": "OK",
      "vis_m": 7000,
      "fzfg": false,
      "metar_trigger": false,
      "taf_trigger": false,
      "metar": "SPECI OEJN 030617Z 15005KT 7000 NSC 38/06 Q1009 NOSIG",
      "taf": "TAF OEJN 030500Z 0306/0412 26012KT CAVOK"
    },
    {
      "icao": "OEMA",
      "alert": "OK",
      "vis_m": 9999,
      "fzfg": false,
      "metar_trigger": false,
      "taf_trigger": false,
      "metar": "METAR OEMA 030600Z 10005KT CAVOK 31/M05 Q1016 NOSIG",
      "taf": "TAF OEMA 030500Z 0306/0412 12010KT CAVOK"
    },
    {
      "icao": "OJAI",
      "alert": "OK",
      "vis_m": 4000,
      "fzfg": false,
      "metar_trigger": false,
      "taf_trigger": false,
      "metar": "METAR OJAI 030600Z 22004KT 4000 HZ NSC 25/03 Q1009 NOSIG",
      "taf": "TAF OJAI 030500Z 0306/0412 23016KT 4000 BLDU"
    },
    {
      "icao": "OMAA",
      "alert": "OK",
      "vis_m": 9999,
      "fzfg": false,
      "metar_trigger": false,
      "taf_trigger": false,
      "metar": "METAR OMAA 030630Z 08004KT 360V120 CAVOK 38/11 Q1008 NOSIG",
      "taf": "TAF OMAA 030500Z 0306/0412 VRB02KT 8000 NSC"
    },
    {
      "icao": "OMDB",
      "alert": "OK",
      "vis_m": 9999,
      "fzfg": false,
      "metar_trigger": false,
      "taf_trigger": false,
      "metar": "METAR OMDB 030630Z VRB03KT CAVOK 37/15 Q1008 BECMG 29013KT",
      "taf": "TAF OMDB 030500Z 0306/0412 23007KT CAVOK"
    },
    {
      "icao": "UAAA",
      "alert": "OK",
      "vis_m": 9999,
      "fzfg": false,
      "metar_trigger": false,
      "taf_trigger": false,
      "metar": "METAR UAAA 030600Z 35002MPS 9999 SCT050CB BKN100 22/12 Q1012 NOSIG",
      "taf": "TAF UAAA 030505Z 0306/0406 25003MPS 9999 BKN050CB OVC100 TX24/0309Z TN13/0401Z"
    },
    {
      "icao": "UBBB",
      "alert": "OK",
      "vis_m": 9999,
      "fzfg": false,
      "metar_trigger": false,
      "taf_trigger": false,
      "metar": "METAR UBBB 030630Z 33014KT 9999 BKN012 OVC042 13/08 Q1018 NOSIG",
      "taf": "TAF UBBB 030508Z 0306/0406 33016KT 9999 SCT012 BKN040 TX14/0310Z TN09/0401Z"
    },
    {
      "icao": "UDSG",
      "alert": "OK",
      "vis_m": 9999,
      "fzfg": false,
      "metar_trigger": false,
      "taf_trigger": false,
      "metar": "METAR UDSG 030600Z 24007KT 9999 BKN046CB 13/07 Q1017 NOSIG",
      "taf": "TAF UDSG 030458Z 0306/0406 24006KT 9999 BKN040"
    },
    {
      "icao": "UDYZ",
      "alert": "OK",
      "vis_m": 9999,
      "fzfg": false,
      "metar_trigger": false,
      "taf_trigger": false,
      "metar": "METAR UDYZ 030600Z 25003KT 220V290 9999 SCT046 17/08 Q1015 NOSIG",
      "taf": ""
    },
    {
      "icao": "UGKO",
      "alert": "OK",
      "vis_m": 9999,
      "fzfg": false,
      "metar_trigger": false,
      "taf_trigger": false,
      "metar": "METAR UGKO 030630Z 28009KT 9999 SCT007 OVC018 11/10 Q1013 NOSIG",
      "taf": "TAF UGKO 030500Z 0306/0406 25007KT 9999 SCT030 OVC045 TX17/0311Z TN09/0322Z"
    }
  ]
}